 2014  630 0936 48.1 L   6.833 -73.142136.3  RSN 17 0.6 2.5LRSN                1
 GAP= 70        1.41       3.2     4.0  7.0 -0.1887E+01  0.9741E+01  0.2473E+01E
 Epicentro: LOS SANTOS - SANTANDER                                             3
 ACTION:UPD 14-07-01 22:58 OP:nd   STATUS:               ID:20140630093648 L   I
 OLDACT:REG 14-06-30 14:42 OP:stll STATUS:               ID:20140630092818     3
 2014-06-30-0928-18M.COL___244                                                 6
 STAT SP IPHASW D HRMM SECON CODA AMPLIT PERI AZIMU VELO AIN AR TRES W  DIS CAZ7
 BAR2 SZ IP     C  937  7.05                             168    0.4010 27.0 190 
 BAR2 SZ ES        937 21.15                             168    0.0110 27.0 190 
 BAR2 SZ I         937 22.86        87.1 0.32            167           27.0 190 
 PAM  SZ EP        937  9.92                             150    0.8210 74.3  41 
 PAM  SN ES        937 26.41                             150    0.9110 74.3  41 
 PAM  SZ I         937 28.82        84.2 0.48            155           74.3  41 
 RUS  HZ EP        937 11.13                             141   -0.0510  104 176 
 RUS  HZ I         937 12.22        27.5 0.12            143            104 176 
 RUS  HN ES        937 28.82                             141   -0.3910  104 176 
 PTB  HZ EP        937 13.71                             130   -0.69 9  149 257 
 PTB  HE ES        937 34.65                             130   -0.28 9  149 257 
 PTB  HZ I         937 40.06        37.2 0.32            130            149 257 
 TAM  HZ IP     D  937 15.50                             128    0.43 9  156 106 
 TAM  HZ I         937 15.80        29.1 0.18            133            156 106 
 TAM  HE ES        937 35.30                             128   -0.83 9  156 106 
 OCA  HZ EP        937 14.97                             128   -0.35 9  157 353 
 OCA  HE ES        937 36.88                             128    0.31 9  157 353 
 OCA  HZ I         937 39.77        53.7 0.18            131            157 353 
 SPBC HZ EP        937 16.04                             126   -0.13 9  166 218 
 SPBC HN ES        937 37.42                             126   -0.67 9  166 218 
 SPBC HZ I         937 45.85        28.5 0.22            127            166 218 
 ZAR  HZ EP        937 19.63                             120   -0.19 9  203 291 
 ZAR  HE ES        937 44.76                             120    0.17 9  203 291 
 ZAR  HZ I         937 52.63        30.9 0.16            122            203 291 
 SML  HZ EP        937 22.73                             116   -1.11 8  241 335 
 SML  HN ES        937 50.33                             116   -1.41 8  241 335 
 SML  HZ I         937 55.21        42.5 0.22            118            241 335 
 CHI  HZ EP        937 25.26                             115   -0.41 8  252 195 
 CHI  HN ES        937 54.33                             115   -0.66 8  252 195 
 CHI  HZ I         938  3.68         7.6 0.44            117            252 195 
 ROSC BZ EP        937 26.49                             114    0.42 8  256 211 
 ROSC BN ES        937 56.31                             114    0.61 8  256 211 
 ROSC BZ I         938  2.02        20.2 0.35            116            256 211 
 HEL  HZ EP        937 29.34                             113    1.37 8  273 255 
 HEL  HN ES        937 59.59                             113    0.50 8  273 255 
 HEL  HZ I         938  5.18        19.6 0.38            114            273 255 
 GUY2CHZ EP        937 32.43                             110    0.89 7  304 234 
 GUY2CHN ES        938  6.09                             110    0.64 7  304 234 
 GUY2CHZ I         938 13.79        10.0 0.42                           304 234 
 TOL  SZ EP        937 37.03                             107    0.73 6  346 224 
 TOL  SN ES        938 14.44                             107    0.52 6  346 224 
 TOL  SZ I         938 22.61        20.4 0.50            109            346 224 
 ANIL HN ES        938 16.46                             107   -0.25 6  360 224 
 PRA  HZ EP        937 41.36                             105   -0.32 6  395 209 
 PRA  HN ES        938 23.09                             105   -0.41 6  395 209 
 PRA  HZ I         938 28.82        12.9 0.32            106            395 209 
 ORTC HZ EP        937 41.96                             105   -0.10 6  399 216 
 ORTC HN ES        938 23.71                             105   -0.47 6  399 216 
 ORTC HZ I         938 29.58         9.6 0.42            106            399 216 
                                                                                
