 2012 1030 0523 32.5 L   6.798 -73.134141.1  RSN  8 0.5 2.1LRSN                1
 GAP=138        0.90       4.6     5.1  6.5  0.4005E+00  0.1081E+02  0.2193E+01E
 Epicentro: LOS SANTOS - SANTANDER                                             3
 ACTION:UPD 12-11-22 17:06 OP:ep   STATUS:               ID:20121030052332 L   I
 2012-10-30-0520-00M.COL___231                                                 6
 STAT SP IPHASW D HRMM SECON CODA AMPLIT PERI AZIMU VELO AIN AR TRES W  DIS CAZ7
 BAR2 SZ EP        523 51.30                             170   -0.2710 23.4 193 
 BAR2 SZ ES   1    524  5.85                             170   -0.59 7 23.4 193 
 BAR2 SZ I         524  7.10        29.9 0.20                          23.4 193 
 GIR2 SZ EP        523 51.55                             167   -0.0810 31.7 348 
 GIR2 SZ ES        524  6.70                             167    0.1510 31.7 348 
 BRR  HZ EP        523 53.27                             151    0.0510 72.4 298 
 BRR  HN ES   1    524 10.05                             151    0.68 7 72.4 298 
 BRR  HN I         524 10.74        75.6 0.20                          72.4 298 
 PAM  SZ EP        523 54.36                             150    0.1810 76.7  39 
 PAM  SE ES   1    524 11.24                             150    0.15 7 76.7  39 
 PAM  SE I         524 13.30        28.8 0.42                          76.7  39 
 RUS  HZ EP   1    523 55.80                             143    0.03 7  100 177 
 RUS  HN ES   1    524 14.06                             143    0.14 7  100 177 
 RUS  HN I         524 15.29        10.7 0.26                           100 177 
 OCA  HN ES   1    524 21.67                             128   -0.64 7  161 353 
 ZAR  HZ EP   1    524  4.45                             121   -0.33 6  205 292 
 ZAR  HN ES   1    524 30.12                             121    0.17 6  205 292 
 ZAR  HN I         524 31.65        14.7 0.44                           205 292 
 ZAR  HZ I         524 36.02         5.2 0.10                           205 292 
 HEL  HZ EP   1    524 13.86                             114    1.25 6  273 256 
 HEL  HN ES   1    524 42.98                             114   -0.92 6  273 256 
 HEL  HN I         524 49.19         4.1 0.34                           273 256 
                                                                                
