 2015 1230 0946 46.2 L   6.823 -73.147142.4  RSN  5 0.4 1.3LRSN                1
 GAP=214        0.93       5.3     6.7  8.0  0.8226E+00  0.1038E+02 -0.1382E+02E
 Epicentro: LOS SANTOS - SANTANDER                                             3
 ACTION:UPD 16-02-04 15:09 OP:cam  STATUS:               ID:20151230094646 L   I
 OLDACT:UP  15-12-30 18:50 OP:ak   STATUS:               ID:20151230093747d    3
 OLDACT:DUP 15-12-30 18:47 OP:ak   STATUS:               ID:20151230093747d    3
 OLDACT:UP  15-12-30 18:46 OP:ak   STATUS:               ID:20151230093746     3
 OLDACT:REG 15-12-30 13:21 OP:ak   STATUS:               ID:20151230093746     3
 2015-12-30-0937-46M.COL___334                                                 6
 STAT SP IPHASW D HRMM SECON CODA AMPLIT PERI AZIMU VELO AIN AR TRES W  DIS CAZ7
 BAR2 EZ EP   2    947  5.66                             169    0.17 5 25.9 189 
 BAR2 EZ ES        947 20.45                             169   -0.0810 25.9 189 
 BAR2 EZ I         947 22.68         4.7 0.25            167           25.9 189 
 PTB  HZ EP        947 12.30                             131   -0.64 9  148 258 
 PTB  HN ES        947 33.25                             131   -0.54 9  148 258 
 PTB  HZ I         947 39.26         1.9 0.12            130            148 258 
 SPBC HZ EP        947 14.85                             128    0.21 9  165 218 
 SPBC HN ES        947 37.38                             128    0.57 9  165 218 
 SPBC HZ I         947 40.82         3.9 0.20            129            165 218 
 ZAR  HZ EP   2    947 18.77                             122    0.44 4  203 291 
 ZAR  HN ES        947 43.75                             122    0.37 9  203 291 
 ZAR  HZ I         947 49.62         2.0 0.15            122            203 291 
 SML  HZ EP        947 22.29                             117   -0.10 8  241 335 
 SML  HN ES   2    947 51.45                             117    0.84 4  241 335 
                                                                                
