 2017  830 0754 54.4 L   6.790 -73.095144.0  RSN  4 0.4 1.2LRSN                1
 GAP=242        0.71       7.8     9.0  6.3  0.5855E+02 -0.2960E+01 -0.6407E+01E
 Epicentro: LOS SANTOS - SANTANDER                                             3
 ACTION:UPD 17-09-04 20:26 OP:rebc STATUS:               ID:20170830075454 L   I
 OLDACT:UP  17-08-30 15:38 OP:dani STATUS:               ID:20170830074721     3
 OLDACT:UP  17-08-30 15:38 OP:dani STATUS:               ID:20170830074721     3
 OLDACT:REG 17-08-30 12:53 OP:dani STATUS:               ID:20170830074721     3
 2017-08-30-0748-00M.COL___390                                                 6
 STAT SP IPHASW D HRMM SECON CODA AMPLIT PERI AZIMU VELO AIN AR TRES W  DIS CAZ7
 BAR2 EZ EP        755 13.58                             170   -0.2610 23.9 204 
 BAR2 EZ ES        755 28.85                             170   -0.1410 23.9 204 
 BRR  HZ EP        755 15.56                             151   -0.1210 76.6 297 
 BRR  HE ES        755 32.72                             151    0.4410 76.6 297 
 BRR  HZ I         755 34.48         2.1 0.33            143           76.6 297 
 RUS  HZ EP        755 18.14                             144    0.2510 99.3 179 
 RUS  HN ES        755 36.19                             144   -0.0210 99.3 179 
 RUS  HZ I         755 38.39         1.5 0.35            139           99.3 179 
 ZAR  HZ EP   3    755 28.79                             121    1.47 2  210 292 
 ZAR  HN ES        755 52.68                             121   -0.30 8  210 292 
 ZAR  HZ I         755 58.51         3.0 0.45            118            210 292 
                                                                                
