 2014  830 0714 14.4 L   6.781 -73.188147.7  RSN  5 0.4 1.3LRSN                1
 GAP=231        0.94       7.3     6.7  9.1  0.8456E+01  0.2830E+01  0.4746E+01E
 Epicentro: ZAPATOCA - SANTANDER                                               3
 ACTION:UPD 14-09-15 21:54 OP:nd   STATUS:               ID:20140830071414 L   I
 OLDACT:DUP 14-08-30 19:22 OP:fm   STATUS:               ID:20140830070806d    3
 2014-08-30-0708-05M.COL___275                                                 6
 STAT SP IPHASW D HRMM SECON CODA AMPLIT PERI AZIMU VELO AIN AR TRES W  DIS CAZ7
 BAR2 SZ EP        714 34.07                             172   -0.1710 20.9 178 
 BAR2 SZ ES   1    714 50.27                             172    0.58 7 20.9 178 
 BAR2 SZ I         714 50.85         2.9 0.22            168           20.9 178 
 BRR  HZ EP   1    714 36.10                             154    0.49 7 68.2 302 
 BRR  HN ES   1    714 52.11                             154   -0.04 7 68.2 302 
 BRR  HZ I         714 57.85         2.9 0.26            150           68.2 302 
 RUS  HZ EP   1    714 37.95                             145   -0.29 7 98.9 173 
 RUS  HN ES   1    714 56.28                             145   -0.55 7 98.9 173 
 PTB  HZ EP   1    714 41.18                             134    0.08 7  143 259 
 PTB  HN ES        715  1.35                             134   -0.56 9  143 259 
 PTB  HZ I         715  7.98         3.1 0.24            132            143 259 
 SPBC HZ EP   1    714 42.89                             130    0.25 7  159 218 
 SPBC HN ES   1    715  5.49                             130    0.84 7  159 218 
 SPBC HZ I         715 10.21         3.4 0.40            131            159 218 
                                                                                
