 2016  930 0743 43.1 L   6.828 -73.125144.0  RSN 24 0.5 2.5LRSN                1
 GAP= 71        1.10       3.0     3.3  5.1 -0.5085E+00  0.3161E+01  0.3836E+01E
 Epicentro: LOS SANTOS - SANTANDER                                             3
 ACTION:UPD 17-08-17 21:18 OP:lp   STATUS:               ID:20160930074343 L   I
 OLDACT:UP  16-09-30 18:44 OP:edw  STATUS:               ID:20160930072840     3
 OLDACT:REG 16-09-30 12:37 OP:edw  STATUS:               ID:20160930072840     3
 2016-09-30-0738-00M.COL___369                                                 6
 STAT SP IPHASW D HRMM SECON CODA AMPLIT PERI AZIMU VELO AIN AR TRES W  DIS CAZ7
 BAR2 EZ IP     C  744  2.32                             169   -0.2810 26.9 194 
 BAR2 EZ ES        744 17.21                             169   -0.6010 26.9 194 
 BAR2 EZ I         744 18.71        87.0 0.20            165           26.9 194 
 BRR  HZ EP        744  4.09                             152   -0.0010 71.8 295 
 BRR  HN ES        744 21.28                             152    0.8110 71.8 295 
 BRR  HZ I         744 24.85        82.4 0.12            150           71.8 295 
 PAM  EZ EP        744  5.05                             152    0.1510 73.5  40 
 PAM  EN ES        744 22.15                             152    0.2410 73.5  40 
 PAM  EZ I         744 24.56        35.9 0.48            157           73.5  40 
 RUS  HZ EP        744  6.36                             143   -0.5410  104 177 
 RUS  HN ES        744 25.07                             143   -0.4010  104 177 
 RUS  HZ I         744 25.90        22.5 0.18            141            104 177 
 PTB  HZ EP   9    744  9.07                             131   -1.12 0  151 258 
 PTB  HN ES        744 30.11                             131   -0.08 9  151 258 
 PTB  HZ I         744 32.89        37.3 0.14            129            151 258 
 TAM  HZ EP     C  744 10.73                             130    0.21 9  154 106 
 TAM  HN ES        744 32.33                             130    0.43 9  154 106 
 TAM  HZ I         744 33.68        22.2 0.52            133            154 106 
 OCA  HZ EP        744 10.53                             130   -0.48 9  157 352 
 OCA  HN ES        744 32.93                             130    0.15 9  157 352 
 OCA  HZ I         744 36.34        87.0 0.16            132            157 352 
 SPBC HZ EP        744 11.36                             128   -0.48 9  167 219 
 SPBC HN ES        744 34.27                             128    0.02 9  167 219 
 SPBC HZ I         744 39.37        48.4 0.22            126            167 219 
 ZAR  HZ EP   4    744 17.45                             122    1.92 0  205 291 
 ZAR  HN ES        744 40.50                             122   -0.32 9  205 291 
 ZAR  HZ I         744 46.39        31.3 0.15            122            205 291 
 NOR  HZ EP        744 18.83                             118   -0.29 8  238 234 
 NOR  HN ES   4    744 46.74                             118   -0.48 0  238 234 
 NOR  HZ I         744 52.47        26.8 0.18            117            238 234 
 CHI  HZ EP        744 20.84                             116   -0.26 8  252 195 
 CHI  HN ES        744 50.72                             116   -0.02 8  252 195 
 CHI  HZ I         744 57.20        15.8 0.42            116            252 195 
 ROSC BZ EP        744 22.59                             116    1.04 8  257 211 
 ROSC BN ES   4    744 53.58                             116    2.05 0  257 211 
 ROSC BZ I         744 59.14        23.4 0.30            115            257 211 
 HEL  HZ EP        744 23.96                             114    0.41 8  275 255 
 HEL  HN ES        744 55.18                             114    0.07 8  275 255 
 HEL  HZ I         745  1.40        16.5 0.40            114            275 255 
 URE  HZ EP   4    744 23.07                             113   -1.12 0  285 291 
 URE  HN ES   4    744 53.17                             113   -3.07 0  285 291 
 URE  HZ I         744 57.93        22.8 0.14            113            285 291 
 GUY2CHZ EP        744 27.08                             112    0.04 7  305 235 
 GUY2CHN ES   4    745  4.18                             112    2.87 0  305 235 
 GUY2CHZ I         745 10.43        11.2 0.28                           305 235 
 VIL  EZ EP        744 26.12                             111   -0.72 7  307 192 
 VIL  EN ES        745  2.03                             111    1.07 7  307 192 
 VIL  EZ I         745 10.99        18.1 0.30            111            307 192 
 PTGC HZ EP   4    744 25.56                             111   -1.56 0  311 159 
 PTGC HN ES   4    744 59.17                             111   -2.29 0  311 159 
 PTGC HZ I         745  6.78         6.5 0.30            111            311 159 
 ELA  HZ EP   4    744 32.51                             110    2.20 0  333 229 
 ELA  HN ES   4    745 11.61                             110    4.48 0  333 229 
 ELA  HZ I         745 16.17        11.0 0.38            109            333 229 
 CBOC HZ EP        744 30.72                             109    0.42 7  337 252 
 CBOC HN ES   4    745  6.45                             109   -0.67 0  337 252 
 CBOC HZ I         745 15.84         4.7 0.24            109            337 252 
 ARGC HZ EP   4    744 33.08                             108    0.64 0  357 340 
 ARGC HN ES   4    745 12.64                             108    1.72 0  357 340 
 ANIL HZ EP   4    744 34.90                             108    1.62 0  361 224 
 ANIL HN ES   4    745 14.42                             108    2.00 0  361 224 
 ANIL HZ I         745 19.97        30.0 0.30            108            361 224 
 PRA  HZ EP   2    744 36.37                             106   -0.64 3  396 210 
 PRA  HE ES   2    745 20.07                             106    1.01 3  396 210 
 PRA  HZ I         745 24.90        21.0 0.24            106            396 210 
 SJC  HZ EP   4    744 36.13                             105   -2.31 0  408 326 
 SJC  HN ES   4    745 18.55                             105   -3.06 0  408 326 
 SJC  HZ I         745 21.92         3.9 0.18            106            408 326 
 PAL  HZ EP   4    744 38.09                             105   -0.53 0  409 239 
 PAL  HN ES   4    745 23.43                             105    1.51 0  409 239 
 PAL  HZ I         745 25.00         4.6 0.22            105            409 239 
 CRJC HZ EP   9    744 42.73                             103   -2.44 0  464   3 
 CRJC HN ES        745 29.78                             103   -1.36 5  464   3 
 CRJC HZ I         745 31.33         6.2 0.68            104            464   3 
 GUA  EZ EP   4    744 43.13                             103   -3.42 0  477 173 
 GUA  EN ES   4    745 35.79                             103   -0.24 0  477 173 
                                                                                
