 2013  130 0012 51.7 L   6.852 -73.125144.2  RSN  4 0.2 1.5LRSN                1
 GAP=136        0.49       3.3     4.2  5.1 -0.6355E+00 -0.3366E+01  0.5395E+01E
 Epicentro: LOS SANTOS - SANTANDER                                             3
 ACTION:UPD 13-02-15 09:17 OP:ep   STATUS:               ID:20130130001251 L   I
 2013-01-30-0010-00M.COL___241                                                 6
 STAT SP IPHASW D HRMM SECON CODA AMPLIT PERI AZIMU VELO AIN AR TRES W  DIS CAZ7
 BRR  HZ IP     C  013 12.48                             152   -0.1810 70.7 294 
 BRR  HN ES        013 29.11                             152    0.1010 70.7 294 
 BRR  HN I         013 29.54         9.4 0.18            157           70.7 294 
 PAM  SZ EP        013 13.54                             152    0.1210 71.5  41 
 PAM  SN ES   1    013 30.17                             152   -0.18 7 71.5  41 
 PAM  SZ I         013 32.30         3.3 0.43            154           71.5  41 
 RUS  HZ EP   1    013 16.09                             142    0.37 7  106 177 
 RUS  HE ES   1    013 34.36                             142   -0.10 7  106 177 
 RUS  HE I         013 36.88         4.7 0.47            143            106 177 
 CHI  HZ EP   1    013 29.72                             116   -0.27 6  255 195 
                                                                                
