 2011  130 0226 59.6 L   6.031 -73.785104.9  RSN  5 0.5 1.8LRSN                1
 GAP=141        1.45       5.8     6.6 14.4 -0.1904E+02  0.3387E+02 -0.1223E+02E
 Epicentro: EL PEON - SANTANDER                                                3
 ACTION:UP  11-02-08 08:43 OP:pat  STATUS:               ID:20110130022659 L   I
 2011-01-30-0223-06S.COL___138                                                 6
 STAT SP IPHASW D HRMM SECON CODA AMPLIT PERI AZIMU VELO SNR AR TRES W  DIS CAZ7
 RUS  HZ EP        227 17.28                             141    -0.510   79 101 
 RUS  HN ES        227 31.73                             141    -0.310   79 101 
 RUS  HZ I         227 35.80        11.1 0.83                            79 101 
 BAR2 SZ EP        227 18.02                             136    -0.410   91  47 
 BAR2 SZ ES        227 33.29                             136     0.210   91  47 
 BAR2 SZ I         227 34.31        35.3 0.33                            91  47 
 NOR  SZ EP        227 21.88                             124     0.010  131 247 
 NOR  SN ES        227 39.21                             124    -0.110  131 247 
 CHI  HZ EP        227 24.40                             120    -0.5 9  155 178 
 CHI  HE ES        227 45.65                             120     1.1 9  155 178 
 CHI  HZ I         227 47.74         6.4 0.26                           155 178 
 GRA  SZ EP   2    227 33.42                             109     0.3 4  232  28 
 GRA  SZ ES        228  0.10                             109     0.8 8  232  28 
 GRA  SZ I         228  4.11         5.9 0.28                           232  28 
                                                                                
