 2011  430 0253 37.6 L   6.755 -73.135144.7  RSN  6 0.2 1.4LRSN                1
 GAP=140        0.43       3.5     5.4  4.9 -0.4575E+01  0.1085E+01 -0.7581E+01E
 Epicentro: LOS SANTOS - SANTANDER                                             3
 ACTION:UP  11-06-22 15:34 OP:REBC STATUS:               ID:20110430025337 L   I
 2011-04-30-0249-02S.COL___130                                                 6
 STAT SP IPHASW D HRMM SECON CODA AMPLIT PERI AZIMU VELO SNR AR TRES W  DIS CAZ7
 BAR2 SZ ES   1    254 11.89                             173    -0.2 8   19 196 
 BAR2 SZ I         254 13.33         8.8 0.30                            19 196 
 GIR2 SZ ES   3    254 12.48                                    -0.1 3   36 350 
 BRR  HZ EP   1    253 58.93                             151     0.1 8   75 301 
 BRR  HE ES   2    254 15.51                             151     0.1 5   75 301 
 BRR  HZ I         254 18.11         6.8 0.27                            75 301 
 PAM  SZ EP   1    253 59.91                             149     0.0 8   81  37 
 PAM  SZ I         254  0.24         3.1 0.19                            81  37 
 PAM  SE ES   1    254 17.51                             149     0.3 8   81  37 
 RUS  HN ES   1    254 19.06                             145     0.0 8   96 177 
 RUS  HZ I         254 20.94         3.0 0.42                            96 177 
 GRA  SZ EP        254  2.97                                    -0.110  130  16 
 GRA  SZ I         254  4.26         2.5 0.26                           130  16 
 GRA  SZ ES   3    254 22.61                                    -0.4 2  130  16 
                                                                                
