 2016  430 0644 12.3 L   6.797 -73.143142.5  RSN  5 0.3 1.4LRSN                1
 GAP=137        0.68       4.3     7.7  9.2 -0.2324E+02  0.2471E+02 -0.1006E+02E
 Epicentro: LOS SANTOS - SANTANDER                                             3
 ACTION:UPD 16-05-05 14:25 OP:rebc STATUS:               ID:20160430064412 L   I
 OLDACT:DUP 16-04-30 17:41 OP:dnl  STATUS:               ID:20160430062930d    3
 OLDACT:DUP 16-04-30 17:21 OP:dnl  STATUS:               ID:20160430062929d    3
 2016-04-30-0630-00M.COL                                                       6
 STAT SP IPHASW D HRMM SECON CODA AMPLIT PERI AZIMU VELO AIN AR TRES W  DIS CAZ7
 BAR2 EZ EP   2    644 31.48                             171   -0.02 5 23.0 191 
 BAR2 EZ ES   2    644 46.69                             171    0.19 5 23.0 191 
 BAR2 EZ I         644 48.54         4.0 0.21            168           23.0 191 
 PAM  EZ EP        644 34.45                             150    0.3010 77.5  39 
 PAM  EN ES        644 51.28                             150    0.0710 77.5  39 
 RUS  HZ EP   2    644 35.47                             143   -0.21 5  100 176 
 RUS  HN ES        644 53.50                             143   -0.4310  100 176 
 RUS  HZ I         644 55.71         1.9 0.18            147            100 176 
 OCA  HN ES   2    645  1.54                             128   -0.75 5  161 353 
 OCA  HZ I         645  7.45         7.1 0.20            128            161 353 
 SPBC HN ES        645  2.81                             128    0.27 9  163 219 
 SPBC HZ I         645  6.52         4.8 0.24            128            163 219 
                                                                                
