 2015  730 0916 23.3 L   6.769 -73.170145.9  RSN  4 0.2 1.4LRSN                1
 GAP=232        0.48       5.3     6.1  4.3  0.2705E+02  0.8524E+00 -0.8763E+00E
 Epicentro: LOS SANTOS - SANTANDER                                             3
 ACTION:UPD 15-09-08 21:51 OP:cam  STATUS:               ID:20150730091623 L   I
 OLDACT:DUP 15-07-30 16:44 OP:stll STATUS:               ID:20150730090740d    3
 2015-07-30-0907-38M.COL___307                                                 6
 STAT SP IPHASW D HRMM SECON CODA AMPLIT PERI AZIMU VELO AIN AR TRES W  DIS CAZ7
 BAR2 EZ EP        916 42.71                             172   -0.1610 19.6 184 
 BAR2 EZ ES        916 58.32                             172    0.1810 19.6 184 
 BAR2 EZ I         916 59.02         7.5 0.22            165           19.6 184 
 BRR  HZ EP        916 44.67                             153    0.2410 70.6 302 
 BRR  HN ES        917  0.69                             153   -0.2210 70.6 302 
 RUS  HZ EP        916 46.75                             145   -0.0810 97.4 174 
 RUS  HZ I         916 47.32         2.2 0.18            141           97.4 174 
 RUS  HN ES        917  5.20                             145    0.0110 97.4 174 
 ZAR  HN ES        917 20.91                             123    0.05 9  203 293 
 ZAR  HZ I         917 26.89         2.4 0.56            120            203 293 
                                                                                
