 2011  130 0514 38.4 L   6.801 -73.019146.5  RSN  4 0.1 1.5LRSN                1
 GAP=173        0.38       3.3    11.9  3.2 -0.1956E+02 -0.6215E+00  0.8071E+00E
 Epicentro: CEPITA - SANTANDER                                                 3
 ACTION:UP  11-02-08 08:43 OP:pat  STATUS:               ID:20110130051438 L   I
 2011-01-30-0510-35S.COL___138                                                 6
 STAT SP IPHASW D HRMM SECON CODA AMPLIT PERI AZIMU VELO SNR AR TRES W  DIS CAZ7
 BAR2 SZ EP        514 58.42                             168     0.210   29 218 
 BAR2 SZ ES        515 13.72                             168     0.010   29 218 
 BAR2 SZ I         515 15.12        13.9 0.26                            29 218 
 RUS  HZ EP        515  2.30                             144     0.110  101 184 
 RUS  HN ES        515 20.78                             144     0.010  101 184 
 RUS  HZ I         515 22.22         2.9 0.24                           101 184 
 GRA  SZ EP   2    515  3.19                             138    -0.2 5  122  11 
 CHI  HZ EP        515 16.46                             117    -0.1 8  253 198 
 CHI  HE ES   1    515 46.35                             117     0.0 6  253 198 
 CHI  HZ I         515 53.87         1.3 0.49                           253 198 
                                                                                
