 2013  130 0750 34.5 L   6.824 -73.168147.5  RSN  5 0.2 1.3LRSN                1
 GAP=141        0.50       4.1     3.0  5.4 -0.5449E+01 -0.4027E+01  0.1422E+02E
 Epicentro: LOS SANTOS - SANTANDER                                             3
 ACTION:UPD 13-02-15 09:17 OP:ep   STATUS:               ID:20130130075034 L   I
 2013-01-30-0750-00M.COL___241                                                 6
 STAT SP IPHASW D HRMM SECON CODA AMPLIT PERI AZIMU VELO AIN AR TRES W  DIS CAZ7
 BAR2 SZ EP        750 54.55                             170    0.1310 25.6 184 
 BAR2 SZ I         751 10.80         5.7 0.44            163           25.6 184 
 BRR  HZ EP        750 55.99                             154    0.3010 67.8 298 
 BRR  HE ES        751 12.26                             154    0.0710 67.8 298 
 BRR  HE I         751 14.45         7.9 0.27            162           67.8 298 
 PAM  SZ EP        750 56.97                             151    0.0610 77.0  42 
 PAM  SZ I         750 57.34         2.2 0.22            153           77.0  42 
 PAM  SE ES        751 14.17                             151   -0.2010 77.0  42 
 PTB  HZ EP        751  1.16                             133   -0.32 9  146 258 
 PTB  HE ES        751 22.44                             133   -0.06 9  146 258 
 PTB  HZ I         751 23.87         2.0 0.22            136            146 258 
 CHI  HZ EP        751 12.43                             117   -0.11 8  251 194 
 CHI  HN ES   1    751 42.29                             117    0.11 6  251 194 
 CHI  HZ I         751 45.61         0.6 0.46            117            251 194 
                                                                                
