 2012 1130 0840  5.7 L   6.822 -73.182138.2  RSN  4 0.2 1.7LRSN                1
 GAP=145        0.51       4.1     3.1  4.9 -0.8957E-01  0.1755E+01 -0.7333E+01E
 Epicentro: ZAPATOCA - SANTANDER                                               3
 ACTION:UPD 12-12-05 15:37 OP:}ep  STATUS:               ID:20121130084005 L   I
 2012-11-30-0840-00M.COL___236                                                 6
 STAT SP IPHASW D HRMM SECON CODA AMPLIT PERI AZIMU VELO AIN AR TRES W  DIS CAZ7
 BAR2 SZ ES        840 39.02                             169   -0.0510 25.4 180 
 PAM  SZ EP        840 27.18                             149    0.0410 78.2  43 
 RUS  HZ EP        840 29.10                             141    0.2110  103 174 
 RUS  HN ES        840 46.91                             141   -0.0910  103 174 
 RUS  HN I         840 48.60         6.8 0.36                           103 174 
 PTB  HZ EP        840 31.41                             131   -0.30 9  144 258 
 PTB  HN ES        840 52.21                             131    0.18 9  144 258 
 PTB  HN I         840 57.49         7.2 0.24                           144 258 
                                                                                
