 2015 1230 0722 12.5 L   6.808 -73.129148.1  RSN  8 0.3 1.7LRSN                1
 GAP=185        0.78       2.7     3.9  5.4  0.6615E+00  0.4696E+01  0.1099E+01E
 Epicentro: LOS SANTOS - SANTANDER                                             3
 ACTION:UPD 16-02-04 15:09 OP:cam  STATUS:               ID:20151230072212 L   I
 OLDACT:UP  15-12-30 17:25 OP:ak   STATUS:               ID:20151230071749     3
 OLDACT:REG 15-12-30 13:13 OP:ak   STATUS:               ID:20151230071749     3
 2015-12-30-0717-49M.COL___334                                                 6
 STAT SP IPHASW D HRMM SECON CODA AMPLIT PERI AZIMU VELO AIN AR TRES W  DIS CAZ7
 BAR2 EZ EP        722 32.80                             170    0.4010 24.6 194 
 BAR2 EZ ES        722 48.03                             170    0.0810 24.6 194 
 BAR2 EZ I         722 50.63        11.0 0.28            168           24.6 194 
 RUS  HZ EP        722 36.47                             144   -0.0310  101 177 
 RUS  HN ES        722 54.99                             144   -0.2610  101 177 
 RUS  HZ I         722 58.20         5.0 0.40            146            101 177 
 PTB  HZ EP        722 39.47                             132   -0.33 9  150 259 
 PTB  HN ES        723  0.70                             132   -0.42 9  150 259 
 PTB  HZ I         723  8.11         9.7 0.50            132            150 259 
 OCA  HZ EP   2    722 40.90                             130    0.00 5  160 352 
 OCA  HN ES        723  2.83                             130   -0.24 9  160 352 
 OCA  HZ I         723  9.66        10.2 0.32            133            160 352 
 SPBC HZ EP        722 41.75                             129    0.43 9  165 219 
 SPBC HN ES        723  4.22                             129    0.40 9  165 219 
 SPBC HZ I         723 10.21         9.6 0.26            130            165 219 
 ZAR  HZ EP   2    722 45.82                             123    0.62 4  205 292 
 ZAR  HN ES        723 11.22                             123    0.48 8  205 292 
 ZAR  HZ I         723 18.01         4.8 0.36            124            205 292 
 NOR  HZ EP        722 48.19                             119   -0.36 8  237 235 
 NOR  HE ES        723 16.37                             119   -0.32 8  237 235 
 NOR  HZ I         723 22.54         3.0 0.25            120            237 235 
 CHI  HZ EP        722 50.15                             117   -0.29 8  250 196 
 CHI  HN ES        723 20.28                             117    0.22 8  250 196 
 CHI  HZ I         723 30.00         2.3 0.74            120            250 196 
                                                                                
