 2016  330 0327 27.2 L   6.747 -73.175142.9  RSN  6 0.4 1.2LRSN                1
 GAP=135        0.91       4.1     4.1  7.2 -0.2865E+01  0.7744E+01 -0.6022E+00E
 Epicentro: LOS SANTOS - SANTANDER                                             3
 ACTION:UPD 16-05-13 21:28 OP:cam  STATUS:               ID:20160330032727 L   I
 OLDACT:REG 16-03-30 13:17 OP:ak   STATUS:               ID:20160330031749     3
 2016-03-30-0317-49M.COL___317                                                 6
 STAT SP IPHASW D HRMM SECON CODA AMPLIT PERI AZIMU VELO AIN AR TRES W  DIS CAZ7
 BAR2 EZ EP        327 45.56                             173   -0.8010 17.1 183 
 BAR2 EZ ES        328  1.40                             173    0.0810 17.1 183 
 BAR2 EZ I         328  2.81         3.5 0.20            172           17.1 183 
 PAM  EZ EP        327 49.74                             148    0.2310 84.0  39 
 PAM  EN ES        328  6.81                             148   -0.1210 84.0  39 
 PAM  EZ I         328  8.54         2.3 0.43            152           84.0  39 
 RUS  HZ EP        327 50.70                             145    0.4410 95.0 174 
 RUS  HE ES        328  8.49                             145    0.2410 95.0 174 
 RUS  HZ I         328 10.20         2.5 0.34            146           95.0 174 
 PTB  HZ EP   2    327 53.27                             132   -0.26 5  143 261 
 PTB  HN ES        328 13.83                             132   -0.25 9  143 261 
 PTB  HZ I         328 17.68         1.8 0.24            133            143 261 
 SPBC HZ EP        327 54.73                             130   -0.11 9  157 219 
 SPBC HN ES        328 16.33                             130   -0.07 9  157 219 
 SPBC HZ I         328 20.61         2.2 0.22            131            157 219 
 ZAR  HN ES        328 24.96                             122    0.48 9  203 294 
                                                                                
