 2010  130 0534  4.9 L   6.800 -73.126141.0  RSN  9 0.5 2.0LRSN                1
 GAP=185        1.06       4.4     8.4  8.5 -0.6568E+01  0.3911E+02 -0.4116E+01E
 Epicentro: LOS SANTOS - SANTANDER                                             3
 ACTION:UP  10-08-24 09:46 OP:vdl  STATUS:               ID:20100130053404 L   I
 2010-01-30-0531-24S.COL___094                                                 6
 STAT SP IPHASW D HRMM SECON CODA AMPLIT PERI AZIMU VELO SNR AR TRES W  DIS CAZ7
 BAR2 SZ EP        534 23.96                             170     0.010   24 195 
 BAR2 SZ ES   1    534 38.84                             170     0.0 7   24 195 
 GIR2 SZ EP        534 25.07                             167     1.010   32 346 
 GIR2 SZ ES   2    534 39.10                             167     0.1 5   32 346 
 RUS  BZ EP        534 27.92                             143    -0.310  100 177 
 RUS  BN ES        534 46.18                             143    -0.210  100 177 
 OCA  SZ EP        534 32.55                             128    -0.4 9  161 352 
 OCA  SZ ES   1    534 54.22                             128    -0.5 7  161 352 
 CHI  HZ EP   1    534 42.16                             116    -0.3 6  249 196 
 CHI  HE ES   2    535 11.28                             116    -0.4 4  249 196 
 CHI  HZ I         535 14.45         2.7 0.63                           249 196 
 HEL  HZ EP   1    534 45.76                             114     0.6 6  274 256 
 HEL  HN ES   1    535 15.97                             114    -0.5 6  274 256 
 HEL  HZ I         535 22.93         7.9 0.50                           274 256 
 GUY  HZ EP   1    534 49.44                             111     0.9 5  303 235 
 RREF BZ EP        534 50.72                             110    -0.3 7  323 230 
 RREF BN ES   1    535 27.50                             110     0.5 5  323 230 
 RREF BZ I         535 31.63         6.1 0.52                           323 230 
 DBB  SZ EP   1    534 52.07                             108    -0.4 5  342 274 
                                                                                
