 2011  130 0109 47.6 L   6.779 -73.110145.8  RSN  9 0.5 2.3LRSN                1
 GAP=163        1.32       5.9    15.7  9.4 -0.3437E+02  0.6374E+02 -0.1149E+02E
 Epicentro: LOS SANTOS - SANTANDER                                             3
 ACTION:UP  11-02-08 08:43 OP:pat  STATUS:               ID:20110130010947 L   I
 2011-01-30-0107-38S.COL___138                                                 6
 STAT SP IPHASW D HRMM SECON CODA AMPLIT PERI AZIMU VELO SNR AR TRES W  DIS CAZ7
 BAR2 SZ EP        110  7.08                             171    -0.210   22 201 
 BAR2 SZ ES   1    110 22.32                             171    -0.2 7   22 201 
 BTL  SZ IP     C  110  7.31                             171     0.010   23 311 
 BTL  SZ ES   1    110 22.96                             171     0.4 7   23 311 
 RUS  HZ EP        110 10.92                             145    -0.310   98 178 
 RUS  HN ES        110 29.51                             145    -0.110   98 178 
 RUS  HZ I         110 30.97        16.2 0.27                            98 178 
 GRA  SZ IP     C  110 13.90                             136     0.910  127  15 
 OCA  SZ EP        110 15.50                             129    -0.7 9  163 352 
 OCA  SZ I         110 44.00        23.7 0.30                           163 352 
 NOR  SZ EP        110 23.08                             118    -0.5 8  237 236 
 CHI  HZ EP        110 25.00                             117    -0.2 8  248 196 
 CHI  HN ES        110 54.70                             117     0.2 8  248 196 
 CHI  HZ I         111  2.32         9.8 0.52                           248 196 
 ROSC BZ EP   1    110 27.00                             117     1.2 6  253 212 
 ROSC BZ I         111  5.30        21.5 0.41                           253 212 
 HEL  HZ EP   1    110 28.72                             114     0.5 6  275 256 
 HEL  HZ I         111  5.80        15.8 0.39                           275 256 
                                                                                
