 2014  130 0757 12.5 L   7.439 -73.514107.9  RSN  5 0.5 1.4LRSN                1
 GAP=145        1.29       4.0     7.9 13.3  0.3763E+01  0.3095E+02  0.7647E+01E
 Epicentro: SABANA DE TORRES - SANTANDER                                       3
 ACTION:UPD 14-03-13 09:59 OP:ep   STATUS:               ID:20140130075712 L   I
 OLDACT:DUP 14-01-30 11:55 OP:stll STATUS:               ID:20140130074818d    3
 2014-01-30-0748-17M.COL___227                                                 6
 STAT SP IPHASW D HRMM SECON CODA AMPLIT PERI AZIMU VELO AIN AR TRES W  DIS CAZ7
 OCA  HN ES        757 46.61                             137    0.3410 91.0  14 
 OCA  HZ I         757 48.46         7.0 0.32            141           91.0  14 
 BAR2 SZ EP        757 33.05                             134    0.6610  101 159 
 BAR2 SZ ES        757 47.59                             134   -0.3310  101 159 
 BAR2 SZ I         757 49.92        10.0 0.40            141            101 159 
 PTB  HZ EP        757 36.77                             122    0.49 9  144 226 
 PTB  HN ES        757 54.81                             122   -0.03 9  144 226 
 PTB  HZ I         757 59.37         1.9 0.26            126            144 226 
 SML  HZ EP        757 38.46                             119    0.24 9  163 338 
 SML  HN ES        757 57.57                             119   -0.73 9  163 338 
 SML  HZ I         758  5.17         3.6 0.10            122            163 338 
 RUS  HZ EP        757 39.61                             117   -0.85 9  177 164 
                                                                                
