 2016  930 0408 54.5 L   6.726 -73.208145.7  RSN  4 0.3 1.1LRSN                1
 GAP=224        0.68       4.0     4.8  6.1  0.5879E+01 -0.9965E+00  0.1137E+01E
 Epicentro: VILLANUEVA - SANTANDER                                             3
 ACTION:UPD 17-08-17 21:18 OP:lp   STATUS:               ID:20160930040854 L   I
 OLDACT:UP  16-09-30 16:32 OP:edw  STATUS:               ID:20160930040326     3
 OLDACT:UP  16-09-30 16:31 OP:edw  STATUS:               ID:20160930040326     3
 OLDACT:UP  16-09-30 16:30 OP:edw  STATUS:               ID:20160930040326     3
 OLDACT:REG 16-09-30 12:12 OP:edw  STATUS:               ID:20160930040326     3
 2016-09-30-0408-00M.COL___372                                                 6
 STAT SP IPHASW D HRMM SECON CODA AMPLIT PERI AZIMU VELO AIN AR TRES W  DIS CAZ7
 BRR  HZ EP        4 9 15.25                             153   -0.2710 69.8 307 
 BRR  HN ES        4 9 32.10                             153    0.1510 69.8 307 
 RUS  HZ EP        4 9 17.58                             146   -0.1010 93.2 171 
 RUS  HE ES        4 9 35.85                             146    0.0610 93.2 171 
 RUS  HZ I         4 9 38.12         1.4 0.38            146           93.2 171 
 PTB  HZ EP        4 9 20.55                             134   -0.13 9  140 262 
 PTB  HE ES        4 9 41.22                             134    0.08 9  140 262 
 PTB  HZ I         4 9 44.59         1.4 0.10            134            140 262 
 SPBC HZ EP        4 9 22.50                             131    0.56 9  152 219 
 SPBC HE ES        4 9 43.08                             131   -0.31 9  152 219 
 SPBC HZ I         4 9 45.07         3.1 0.14            131            152 219 
 ZAR  HN ES   4    4 9 49.30                             123   -2.34 0  201 295 
                                                                                
