 2016 1130 0444 53.5 L   6.742 -73.163139.0  RSN  5 0.5 1.4LRSN                1
 GAP=150        0.77       9.1     5.7  7.2 -0.3419E+02  0.1574E+02 -0.1576E+02E
 Epicentro: LOS SANTOS - SANTANDER                                             3
 ACTION:UPD 17-10-26 21:13 OP:lp   STATUS:               ID:20161130044453 L   I
 OLDACT:UP  16-11-30 18:33 OP:dani STATUS:               ID:20161130043423d    3
 OLDACT:UP  16-11-30 18:32 OP:dani STATUS:               ID:20161130043423d    3
 OLDACT:DUP 16-11-30 18:25 OP:dani STATUS:               ID:20161130043423d    3
 OLDACT:UP  16-11-30 18:24 OP:dani STATUS:               ID:20161130043422d    3
 OLDACT:UP  16-11-30 18:22 OP:dani STATUS:               ID:20161130043422d    3
 OLDACT:DUP 16-11-30 18:21 OP:dani STATUS:               ID:20161130043422d    3
 2016-11-30-0438-00M.COL___343                                                 6
 STAT SP IPHASW D HRMM SECON CODA AMPLIT PERI AZIMU VELO AIN AR TRES W  DIS CAZ7
 BAR2 EZ EP        445 12.50                             173    0.3110 16.6 187 
 BAR2 EZ ES        445 26.55                             173   -0.2210 16.6 187 
 BAR2 EZ I         445 29.21         9.3 0.12            170           16.6 187 
 BRR  HZ EP        445 14.36                             151    0.3510 72.9 304 
 BRR  HN ES   3    445 31.50                             151    1.48 2 72.9 304 
 BRR  HZ I         445 35.62         4.3 0.22            145           72.9 304 
 PAM  EZ EP        445 15.40                             147    0.0110 83.6  38 
 PAM  EN ES        445 32.28                             147   -0.1910 83.6  38 
 PAM  EZ I         445 34.66         3.7 0.45            149           83.6  38 
 PTB  HZ EP        445 19.21                             131   -0.43 9  145 261 
 PTB  HN ES        445 40.14                             131    0.11 9  145 261 
 PTB  HZ I         445 47.08         2.6 0.46            131            145 261 
 ZAR  HN ES   3    445 49.07                             120   -1.55 2  205 294 
 ZAR  HZ I         445 55.67                             121            205 294 
                                                                                
