 2012  630 0725 26.0 L   7.372 -73.168131.8  RSN  7 0.4 2.0LRSN                1
 GAP=104        0.74       3.6     4.1  6.6  0.6218E+00  0.7123E+01  0.1564E+01E
 Epicentro: RIONEGRO - SANTANDER                                               3
 ACTION:UPD 12-08-06 17:53 OP:ep   STATUS:               ID:20120630072526 L   I
 2012-06-30-0720-00M.COL___201                                                 6
 STAT SP IPHASW D HRMM SECON CODA AMPLIT PERI AZIMU VELO AIN AR TRES W  DIS CAZ7
 PAM  SZ EP   1    725 45.82                             158    0.50 7 51.8  94 
 PAM  SN ES   1    726  0.65                             158    0.26 7 51.8  94 
 BRR  HZ EP   1    725 45.56                             151    0.16 7 66.8 244 
 BRR  HN ES   1    726  0.67                             151    0.15 7 66.8 244 
 BRR  HZ I         726  1.85        22.2 0.11                          66.8 244 
 BAR2 SZ EP   1    725 46.88                             145   -0.11 7 86.3 181 
 BAR2 SZ ES   1    726  3.47                             145    0.11 7 86.3 181 
 BAR2 SZ I         726  5.06        24.1 0.14                          86.3 181 
 OCA  HZ EP   1    725 47.35                             141   -0.33 7 97.3 350 
 OCA  HN ES   1    726  4.20                             141   -0.38 7 97.3 350 
 RUS  HZ EP   1    725 54.34                             126    0.27 7  164 177 
 RUS  HN ES   1    726 14.94                             126   -1.02 7  164 177 
 PTB  HZ EP   1    725 54.04                             124    0.03 7  170 237 
 PTB  HN ES   1    726 16.28                             124    0.43 7  170 237 
 PTB  HZ I         726 18.43         7.0 0.31                           170 237 
 ZAR  HZ EP   1    725 55.91                             122    0.13 7  187 274 
 ZAR  HN ES   1    726 18.74                             122   -0.27 7  187 274 
 ZAR  HZ I         726 20.44        10.9 0.10                           187 274 
                                                                                
