 2015  830 0651 46.3 L   6.821 -73.126146.0  RSN 12 0.4 1.9LRSN                1
 GAP=185        0.92       2.7     4.2  4.9 -0.5812E+00  0.5507E+01  0.2464E+01E
 Epicentro: LOS SANTOS - SANTANDER                                             3
 ACTION:UPD 15-09-15 23:06 OP:cam  STATUS:               ID:20150830065146 L   I
 OLDACT:REG 15-08-30 14:32 OP:ak   STATUS:               ID:20150830064749     3
 2015-08-30-0647-49M.COL___355                                                 6
 STAT SP IPHASW D HRMM SECON CODA AMPLIT PERI AZIMU VELO AIN AR TRES W  DIS CAZ7
 BAR2 EZ EP        652  6.23                             169    0.2510 26.0 194 
 BAR2 EZ ES        652 20.90                             169   -0.4510 26.0 194 
 BAR2 EZ I         652 22.90        15.3 0.20            168           26.0 194 
 BRR  HZ EP        652  7.96                             152    0.4810 72.0 296 
 BRR  HN ES        652 24.64                             152    0.6110 72.0 296 
 RUS  HZ EP        652  9.71                             143   -0.4810  103 177 
 RUS  HN ES        652 29.30                             143    0.4410  103 177 
 RUS  HZ I         652 30.12         5.5 0.39            145            103 177 
 OCA  HZ EP        652 13.79                             130   -0.61 9  158 352 
 OCA  HN ES        652 36.17                             130   -0.18 9  158 352 
 OCA  HZ I         652 42.32        20.0 0.31            131            158 352 
 SPBC HZ EP        652 15.28                             129    0.20 9  166 219 
 SPBC HN ES        652 37.53                             129   -0.02 9  166 219 
 SPBC HZ I         652 41.61        12.9 0.18            129            166 219 
 ZAR  HZ EP   1    652 18.99                             122    0.15 6  205 291 
 ZAR  HN ES        652 43.92                             122   -0.33 9  205 291 
 ZAR  HZ I         652 49.39         7.4 0.26            122            205 291 
 NOR  HZ EP        652 22.83                             118    0.50 8  238 234 
 NOR  HE ES        652 49.77                             118   -0.70 8  238 234 
 NOR  HZ I         652 55.72         6.4 0.12            118            238 234 
 CHI  HZ EP        652 24.31                             117    0.04 8  251 196 
 CHI  HN ES        652 53.38                             117   -0.54 8  251 196 
 CHI  HZ I         652 57.50         4.6 0.46            118            251 196 
 HEL  HZ EP        652 27.08                             115    0.30 8  275 255 
 HEL  HN ES        652 58.30                             115   -0.08 8  275 255 
 HEL  HZ I         653  4.30         3.1 0.26            115            275 255 
 GUY2CHZ EP        652 30.54                             112    0.31 7  304 235 
 GUY2CHE ES        653  4.36                             112   -0.16 7  304 235 
 GUY2CHZ I         653 12.46         3.8 0.36                           304 235 
 PRA  HZ EP        652 40.50                             106    0.35 6  395 210 
 PRA  HN ES        653 22.59                             106    0.41 6  395 210 
 PRA  HZ I         653 28.30         4.7 0.70            107            395 210 
 ORTC HZ EP        652 40.11                             106   -0.44 6  399 216 
 ORTC HN ES        653 22.84                             106   -0.06 6  399 216 
 ORTC HZ I         653 27.72         2.2 0.36            107            399 216 
                                                                                
