 2013  830 0118  6.4 L   6.793 -73.147150.5  RSN 12 0.5 2.0LRSN                1
 GAP=137        1.05       3.1     4.4  5.9 -0.9767E+00  0.7026E+01  0.1170E+01E
 Epicentro: LOS SANTOS - SANTANDER                                             3
 ACTION:UPD 14-01-14 09:08 OP:ep   STATUS:               ID:20130830011806 L   I
 OLDACT:REG 13-08-30 07:56 OP:jn   STATUS:               ID:20130830010850d    3
 2013-08-30-0108-49M.COL___211                                                 6
 STAT SP IPHASW D HRMM SECON CODA AMPLIT PERI AZIMU VELO AIN AR TRES W  DIS CAZ7
 BAR2 SZ IP     C  118 26.60                             171    0.0310 22.6 190 
 BAR2 SZ ES        118 42.35                             171    0.0410 22.6 190 
 BAR2 SZ I         118 43.26        14.8 0.38            168           22.6 190 
 BRR  HZ EP        118 28.48                             153    0.4210 71.4 299 
 BRR  HN ES        118 45.81                             153    0.8510 71.4 299 
 BRR  HZ I         118 50.83        17.8 0.14            151           71.4 299 
 PAM  SZ EP        118 29.50                             151    0.3610 78.0  39 
 PAM  SE ES        118 46.78                             151   -0.1210 78.0  39 
 PAM  SZ I         118 48.80        16.1 0.46            157           78.0  39 
 RUS  HZ EP        118 30.49                             145   -0.0610 99.9 176 
 RUS  HN ES        118 48.80                             145   -0.6010 99.9 176 
 RUS  HZ I         118 52.13         4.9 0.54            146           99.9 176 
 PTB  HZ EP        118 33.34                             133   -0.38 9  147 259 
 PTB  HN ES        118 54.77                             133   -0.26 9  147 259 
 PTB  HZ I         119  0.60        21.9 0.38            132            147 259 
 OCA  HN ES   1    118 57.16                             131   -0.40 7  161 353 
 OCA  HZ I         119  2.48        11.3 0.42            133            161 353 
 SPBC HZ EP        118 35.55                             130    0.36 9  163 219 
 SPBC HE ES        118 57.74                             130    0.09 9  163 219 
 SPBC HZ I         119  4.64        29.0 0.22            130            163 219 
 ZAR  HZ EP   1    118 38.21                             123   -0.95 6  204 292 
 ZAR  HE ES   1    119  4.58                             123   -0.14 6  204 292 
 ZAR  HZ I         119 11.10        19.8 0.56            124            204 292 
 SML  HZ EP   1    118 43.94                             118    0.60 6  244 335 
 SML  HN ES        119 11.26                             118   -0.91 8  244 335 
 CHI  HZ EP   1    118 44.21                             118   -0.06 6  248 195 
 CHI  HE ES   1    119 13.90                             118    0.08 6  248 195 
 CHI  HZ I         119 21.64         3.9 0.30            120            248 195 
 HEL  HZ EP   1    118 47.83                             116    1.02 6  272 256 
 HEL  HN ES   1    119 18.53                             116    0.20 6  272 256 
 HEL  HZ I         119 25.30         6.4 0.36            116            272 256 
 PRA  HZ EP   1    119  0.31                             107    0.32 4  391 210 
 PRA  HN ES   1    119 40.80                             107   -1.00 4  391 210 
 PRA  HZ I         119 47.91         5.1 0.34            109            391 210 
                                                                                
