 2013  130 0819  0.7 L   6.779 -73.156147.9  RSN  6 0.1 1.5LRSN                1
 GAP=136        0.38       2.4     2.7  2.9  0.1522E+01 -0.7714E+00 -0.6105E+00E
 Epicentro: LOS SANTOS - SANTANDER                                             3
 ACTION:UPD 13-02-15 09:17 OP:ep   STATUS:               ID:20130130081900 L   I
 2013-01-30-0814-49M.COL___182                                                 6
 STAT SP IPHASW D HRMM SECON CODA AMPLIT PERI AZIMU VELO AIN AR TRES W  DIS CAZ7
 BAR2 SZ EP        819 20.52                             172   -0.0610 20.8 188 
 BAR2 SZ ES        819 35.97                             172   -0.0910 20.8 188 
 BAR2 SZ I         819 37.13        10.4 0.17            167           20.8 188 
 BRR  HZ EP     C  819 22.31                             153    0.1810 71.3 301 
 BRR  HN ES        819 38.94                             153    0.1310 71.3 301 
 BRR  HN I         819 42.49         7.8 0.19            148           71.3 301 
 PAM  SZ EP        819 23.23                             150   -0.1010 79.9  39 
 RUS  HZ EP   1    819 24.47                             145   -0.07 7 98.3 175 
 RUS  HE ES        819 43.19                             145    0.0810 98.3 175 
 RUS  HE I         819 44.18         5.1 0.49            145           98.3 175 
 PTB  HZ EP   1    819 27.63                             133   -0.11 7  146 260 
 PTB  HE ES   1    819 48.54                             133   -0.26 7  146 260 
 PTB  HZ I         819 55.64         3.0 0.59            130            146 260 
 CHI  HZ EP   1    819 38.49                             118    0.21 6  246 195 
                                                                                
