 2015  930 0010 45.7 L   6.832 -73.104143.3  RSN  8 0.4 1.5LRSN                1
 GAP=140        0.82       3.6     4.6  5.5 -0.4632E+01  0.4064E+01  0.5672E+01E
 Epicentro: LOS SANTOS - SANTANDER                                             3
 ACTION:UPD 15-10-28 16:29 OP:cam  STATUS:               ID:20150930001045 L   I
 OLDACT:REG 15-09-30 12:25 OP:spq  STATUS:               ID:20150930000750     3
 2015-09-30-0007-50M.COL___355                                                 6
 STAT SP IPHASW D HRMM SECON CODA AMPLIT PERI AZIMU VELO AIN AR TRES W  DIS CAZ7
 BAR2 EZ ES   1    011 20.18                             168   -0.15 7 27.9 198 
 BAR2 EZ I         011 21.67         5.3 0.16            167           27.9 198 
 PAM  EZ EP     C  011  7.34                             152   -0.0210 71.7  39 
 PAM  EE ES        011 24.13                             152   -0.0910 71.7  39 
 PAM  EZ I         011 26.23         7.2 0.44            156           71.7  39 
 BRR  HZ EP        011  6.42                             151   -0.3510 73.7 294 
 BRR  HN ES        011 23.55                             151    0.3810 73.7 294 
 BRR  HZ I         011 28.29         7.5 0.44            152           73.7 294 
 RUS  HZ EP        011  9.37                             142   -0.1310  104 179 
 RUS  HN ES        011 28.36                             142    0.3410  104 179 
 RUS  HZ I         011 29.67         4.8 0.30            144            104 179 
 PTB  HZ EP   1    011 12.44                             130   -0.55 7  153 258 
 PTB  HE ES   2    011 33.34                             130   -0.90 5  153 258 
 PTB  HZ I         011 34.75         5.3 0.22            132            153 258 
 SPBC HZ EP        011 15.07                             127    0.47 9  169 219 
 SPBC HE ES        011 37.05                             127   -0.05 9  169 219 
 SPBC HZ I         011 41.14         3.1 0.18            129            169 219 
 CHI  HZ EP        011 23.84                             116    0.03 8  253 196 
 CHI  HN ES   1    011 52.73                             116   -0.78 6  253 196 
 CHI  HZ I         011 59.36         1.6 0.64            118            253 196 
 GUY2CHZ EP   1    011 30.61                             111    0.72 5  307 235 
 GUY2CHE ES   1    012  4.73                             111    0.40 5  307 235 
 GUY2CHZ I         012 14.12         1.6 0.62                           307 235 
                                                                                
