 2015 1230 0814 52.0 L   6.831 -73.146144.6  RSN  7 0.4 1.7LRSN                1
 GAP=201        1.00       3.6     5.6  6.8  0.6279E+01  0.4426E+01 -0.4909E+01E
 Epicentro: LOS SANTOS - SANTANDER                                             3
 ACTION:UPD 16-02-04 15:09 OP:cam  STATUS:               ID:20151230081452 L   I
 OLDACT:UP  15-12-30 18:30 OP:ak   STATUS:               ID:20151230080750     3
 OLDACT:REG 15-12-30 13:16 OP:ak   STATUS:               ID:20151230080750     3
 2015-12-30-0807-50M.COL___334                                                 6
 STAT SP IPHASW D HRMM SECON CODA AMPLIT PERI AZIMU VELO AIN AR TRES W  DIS CAZ7
 BAR2 EZ EP        815 12.15                             169    0.5510 26.7 189 
 BAR2 EZ ES        815 27.21                             169    0.3410 26.7 189 
 BAR2 EZ I         815 28.58        19.4 0.18            167           26.7 189 
 RUS  HZ EP        815 16.00                             143    0.0710  104 176 
 RUS  HN ES        815 33.96                             143   -0.6010  104 176 
 RUS  HZ I         815 36.15         5.4 0.22            143            104 176 
 PTB  HZ EP        815 18.91                             132   -0.06 9  148 258 
 PTB  HN ES        815 39.89                             132   -0.09 9  148 258 
 PTB  HZ I         815 41.71         4.4 0.16            130            148 258 
 SPBC HZ EP        815 21.32                             128    0.62 9  166 218 
 SPBC HN ES        815 42.94                             128   -0.12 9  166 218 
 SPBC HZ I         815 48.17         8.2 0.22            127            166 218 
 ZAR  HZ EP        815 24.75                             122    0.48 9  203 291 
 ZAR  HN ES        815 49.55                             122    0.13 9  203 291 
 ZAR  HZ I         815 56.16         4.6 0.36            122            203 291 
 SML  HZ EP        815 27.95                             117   -0.31 8  241 335 
 SML  HN ES        815 55.76                             117   -0.76 8  241 335 
 SML  HZ I         816  0.27         7.8 0.10            118            241 335 
 CHI  HZ EP        815 29.78                             116   -0.25 8  252 195 
 CHI  HN ES        815 59.23                             116   -0.43 8  252 195 
 CHI  HZ I         816  7.01         2.3 0.44            117            252 195 
                                                                                
