 2016  930 0419 41.0 L   6.964 -73.029142.4  RSN  6 0.4 1.2LRSN                1
 GAP=196        0.91       3.7     6.5  9.2  0.5703E+01 -0.5096E+00  0.6101E+01E
 Epicentro: PIEDECUESTA - SANTANDER                                            3
 ACTION:UPD 17-08-17 21:18 OP:lp   STATUS:               ID:20160930041941 L   I
 OLDACT:UP  16-09-30 17:00 OP:edw  STATUS:               ID:20160930041744     3
 OLDACT:UP  16-09-30 16:57 OP:edw  STATUS:               ID:20160930041744     3
 OLDACT:UP  16-09-30 16:47 OP:edw  STATUS:               ID:20160930041744     3
 OLDACT:UP  16-09-30 16:47 OP:edw  STATUS:               ID:20160930041744     3
 OLDACT:UP  16-09-30 16:44 OP:edw  STATUS:               ID:20160930041744     3
 OLDACT:UP  16-09-30 16:44 OP:edw  STATUS:               ID:20160930041744     3
 OLDACT:UP  16-09-30 16:42 OP:edw  STATUS:               ID:20160930041744     3
 OLDACT:REG 16-09-30 12:13 OP:edw  STATUS:               ID:20160930041744     3
 2016-09-30-0418-00M.COL___372                                                 6
 STAT SP IPHASW D HRMM SECON CODA AMPLIT PERI AZIMU VELO AIN AR TRES W  DIS CAZ7
 BRR  HZ EP        420  3.02                             150    0.8510 77.1 282 
 BRR  HE ES        420 18.38                             150   -0.2710 77.1 282 
 BRR  HZ I         420 23.86         3.5 0.30            153           77.1 282 
 RUS  HZ EP        420  5.37                             138   -0.4810  119 183 
 RUS  HE ES        420 25.30                             138    0.1010  119 183 
 RUS  HZ I         420 25.52         0.7 0.22            145            119 183 
 OCA  HZ EP   4    420  6.21                             132   -1.42 0  145 347 
 OCA  HN ES        420 28.24                             132   -0.13 9  145 347 
 OCA  HZ I         420 35.43         4.5 0.28            134            145 347 
 PTB  HZ EP   2    420  8.94                             128   -0.37 5  165 254 
 PTB  HN ES   3    420 31.28                             128   -0.09 2  165 254 
 PTB  HZ I         420 32.24         2.0 0.16            133            165 254 
 SPBC HZ EP        420 11.35                             124   -0.10 9  185 219 
 SPBC HN ES        420 35.37                             124    0.19 9  185 219 
 ZAR  HN ES        420 39.41                             121   -0.14 8  210 286 
                                                                                
