 2016  930 0404 42.0 L   7.446 -73.114140.9  RSN 10 0.5 1.7LRSN                1
 GAP=119        1.18       3.9     5.1  6.9  0.1444E+00  0.9593E+01  0.1467E+01E
 Epicentro: EL PLAYON - SANTANDER                                              3
 ACTION:UPD 17-08-17 21:18 OP:lp   STATUS:               ID:20160930040442 L   I
 OLDACT:UP  16-09-30 16:27 OP:edw  STATUS:               ID:20160930035230     3
 OLDACT:UP  16-09-30 16:27 OP:edw  STATUS:               ID:20160930035230     3
 OLDACT:UP  16-09-30 16:25 OP:edw  STATUS:               ID:20160930035230     3
 OLDACT:REG 16-09-30 12:09 OP:edw  STATUS:               ID:20160930035230     3
 2016-09-30-0358-00M.COL___372                                                 6
 STAT SP IPHASW D HRMM SECON CODA AMPLIT PERI AZIMU VELO AIN AR TRES W  DIS CAZ7
 PAM  EZ EP        4 5  2.64                             161    0.5310 47.3 104 
 PAM  EN ES        4 5 17.96                             161    0.1310 47.3 104 
 PAM  EZ I         4 5 20.87         9.7 0.68            164           47.3 104 
 BRR  HZ EP        4 5  2.77                             150   -0.0910 75.9 240 
 BRR  HN ES        4 5 19.30                             150    0.1410 75.9 240 
 BRR  HZ I         4 5 23.04         6.3 0.16            150           75.9 240 
 OCA  HZ EP        4 5  4.16                             145    0.1310 90.5 346 
 OCA  HN ES        4 5 21.25                             145   -0.0110 90.5 346 
 OCA  HZ I         4 5 23.86         8.3 0.22            148           90.5 346 
 BAR2 EZ EP        4 5  4.44                             144   -0.0010 94.7 185 
 BAR2 EZ ES        4 5 21.10                             144   -0.8910 94.7 185 
 BAR2 EZ I         4 5 23.09         7.4 0.21            146           94.7 185 
 RUS  HZ EP        4 5 11.72                             127    0.26 9  172 179 
 RUS  HN ES        4 5 34.14                             127   -0.33 9  172 179 
 PTB  HZ EP        4 5 10.95                             125   -0.59 9  179 236 
 PTB  HN ES        4 5 34.49                             125   -0.12 9  179 236 
 PTB  HZ I         4 5 36.64         6.5 0.40            127            179 236 
 ZAR  HZ EP        4 5 12.44                             123   -0.46 9  193 272 
 ZAR  HN ES        4 5 37.76                             123    0.73 9  193 272 
 ZAR  HZ I         4 5 39.99        10.3 0.28            125            193 272 
 SPBC HZ EP        4 5 17.25                             119    0.85 8  225 208 
 SPBC HN ES        4 5 43.73                             119    0.47 8  225 208 
 SPBC HZ I         4 5 51.78         5.6 0.22            120            225 208 
 GUY2CHZ EP   4    4 5 33.91                             108    2.99 0  350 226 
 GUY2CHN ES   4    4 6 13.72                             108    4.60 0  350 226 
 GUY2CHZ I         4 6 19.87         2.6 0.38                           350 226 
 SJC  HZ EP        4 5 29.84                             108   -1.02 6  354 320 
 SJC  HN ES   4    4 6  6.67                             108   -2.33 0  354 320 
                                                                                
