 2012  630 0140 42.8 L   5.936 -73.769107.5  RSN  6 0.4 1.6LRSN                1
 GAP=158        0.73       4.1     3.4  8.7 -0.3539E+01  0.6654E+01 -0.4049E+01E
 Epicentro: GUAVATA - SANTANDER                                                3
 ACTION:UPD 12-08-06 17:53 OP:ep   STATUS:               ID:20120630014042 L   I
 2012-06-30-0140-00M.COL___201                                                 6
 STAT SP IPHASW D HRMM SECON CODA AMPLIT PERI AZIMU VELO AIN AR TRES W  DIS CAZ7
 RUS  HZ EP   1    141  0.94                             142   -0.08 7 76.1  94 
 RUS  HZ I         141  1.44         6.6 0.26                          76.1  94 
 RUS  HN ES   1    141 15.08                             142   -0.16 7 76.1  94 
 BAR2 SZ EP   1    141  2.51                             135    0.12 7 97.4  42 
 BAR2 SZ ES   1    141 17.96                             135    0.28 7 97.4  42 
 PTB  HZ EP   1    141  1.92                             133   -0.50 7  101 311 
 PTB  HN ES   1    141 17.43                             133   -0.30 7  101 311 
 PTB  HZ I         141 18.54         5.8 0.16                           101 311 
 NOR  SZ EP   1    141  5.15                             126    0.09 7  129 251 
 NOR  SN ES   1    141 22.99                             126    0.57 7  129 251 
 BRR  HZ EP   1    141  4.66                             125   -0.43 7  130   3 
 BRR  HZ I         141  6.31        12.7 0.18                           130   3 
 BRR  HE ES   1    141 22.40                             125   -0.08 7  130   3 
 OCA  HN ES   1    141 49.20                             107    0.84 6  259  11 
                                                                                
