 2012 1230 0442 56.8 L   6.832 -73.063144.4  RSN  7 0.5 1.9LRSN                1
 GAP=248        1.03       6.7     7.1  8.4  0.2180E+02  0.1221E+02  0.6493E+01E
 Epicentro: LOS SANTOS - SANTANDER                                             3
 ACTION:UPD 13-01-04 14:31 OP:ep   STATUS:               ID:20121230044256 L   I
 2012-12-30-0440-00M.COL___242                                                 6
 STAT SP IPHASW D HRMM SECON CODA AMPLIT PERI AZIMU VELO AIN AR TRES W  DIS CAZ7
 BAR2 SZ EP        443 16.73                             168    0.2710 29.6 207 
 BAR2 SZ ES   1    443 30.90                             168   -0.85 7 29.6 207 
 BAR2 SZ I         443 34.40        31.8 0.30                          29.6 207 
 BRR  HZ EP     C  443 18.69                             150    0.4510 77.9 293 
 BRR  HN ES   1    443 35.72                             150    0.78 7 77.9 293 
 BRR  HZ I         443 38.52        12.1 0.22                          77.9 293 
 RUS  HZ EP        443 20.66                             143   -0.0410  104 181 
 RUS  HN ES   1    443 39.43                             143    0.12 7  104 181 
 RUS  HZ I         443 40.67         3.8 0.28                           104 181 
 PTB  HZ EP   1    443 23.81                             130   -0.79 7  157 258 
 PTB  HE ES   1    443 45.51                             130   -0.73 7  157 258 
 PTB  HZ I         443 48.05         9.6 0.44                           157 258 
 ZAR  HZ EP   1    443 29.67                             121   -0.29 6  211 290 
 ZAR  HN ES   1    443 55.57                             121   -0.22 6  211 290 
 ZAR  HZ I         444  0.70        11.9 0.56                           211 290 
 CHI  HZ EP   1    443 34.85                             116   -0.26 6  255 197 
 CHI  HN ES   1    444  5.41                             116    0.45 6  255 197 
 CHI  HZ I         444 10.16         3.5 0.24                           255 197 
 HEL  HZ EP   1    443 37.72                             114   -0.35 6  282 256 
 HEL  HN ES   1    444 11.08                             114    0.85 6  282 256 
 HEL  HZ I         444 20.82         4.4 0.44                           282 256 
 MON  HZ EP   4    443 44.42                             108   -1.97 0  359 307 
 MON  HN ES   4    444 23.12                             108   -1.91 0  359 307 
                                                                                
