 2013  930 0234 22.5 L   5.959 -73.669116.8  RSN  4 0.3 1.2LRSN                1
 GAP=136        0.87       5.4     3.8  7.8 -0.1493E+01  0.3404E+01 -0.7888E+01E
 Epicentro: VELEZ - SANTANDER                                                  3
 ACTION:UPD 13-10-22 09:26 OP:ep   STATUS:               ID:20130930023422 L   I
 OLDACT:DUP 13-09-30 06:41 OP:nd   STATUS:               ID:20130930022960d    3
 2013-09-30-0229-59M.COL___272                                                 6
 STAT SP IPHASW D HRMM SECON CODA AMPLIT PERI AZIMU VELO AIN AR TRES W  DIS CAZ7
 SPBC HZ EP        234 39.78                             153    0.0110 56.2 233 
 SPBC HN ES        234 53.60                             153    0.3410 56.2 233 
 SPBC HZ I         234 58.38         4.1 0.44            155           56.2 233 
 RUS  HZ EP        234 40.56                             149   -0.3310 65.2  96 
 RUS  HN ES        234 54.97                             149   -0.2810 65.2  96 
 RUS  HZ I         234 57.72         1.5 0.22            155           65.2  96 
 BAR2 SZ EP        234 42.21                             140    0.0610 88.2  38 
 BAR2 SZ ES        234 57.89                             140    0.3910 88.2  38 
 BAR2 SZ I         234 59.42         9.7 0.62            147           88.2  38 
 PTB  HZ EP        234 43.83                             134    0.3310  108 306 
 PTB  HN ES        234 59.37                             134   -0.5310  108 306 
 PTB  HZ I         235  2.64         3.1 0.38            139            108 306 
                                                                                
