 2013  330 0706 21.3 L   6.847 -73.117144.4  RSN 10 0.5 2.0LRSN                1
 GAP=186        0.97       3.9     5.6  7.1  0.2152E+01  0.1051E+02  0.1452E+01E
 Epicentro: LOS SANTOS - SANTANDER                                             3
 ACTION:UPD 13-04-09 14:05 OP:ep   STATUS:               ID:20130330070621 L   I
 2013-03-30-0700-00M.COL___245                                                 6
 STAT SP IPHASW D HRMM SECON CODA AMPLIT PERI AZIMU VELO AIN AR TRES W  DIS CAZ7
 BAR2 SZ IP        7 6 40.95                             168    0.0710 29.1 194 
 BAR2 SZ ES   1    7 6 55.81                             168   -0.36 7 29.1 194 
 BAR2 SZ I         7 6 57.36        27.5 0.26            166           29.1 194 
 BRR  HZ IP     C  7 6 42.66                             152    0.3510 71.7 294 
 BRR  HN ES   1    7 6 59.74                             152    1.02 7 71.7 294 
 BRR  HZ I         7 7  3.83        13.2 0.12            148           71.7 294 
 RUS  HZ EP        7 6 45.09                             142   -0.1810  106 178 
 RUS  HN ES   1    7 7  3.77                             142   -0.21 7  106 178 
 RUS  HZ I         7 7  5.17         4.1 0.30            145            106 178 
 PTB  HZ EP   1    7 6 47.63                             131   -0.89 7  152 257 
 PTB  HE ES   1    7 7  9.68                             131   -0.08 7  152 257 
 PTB  HZ I         7 7 14.37        14.2 0.50            130            152 257 
 OCA  HN ES   1    7 7 10.63                             130   -0.06 7  156 352 
 ZAR  HZ EP   1    7 6 53.83                             122    0.09 6  205 290 
 ZAR  HN ES   1    7 7 18.61                             122   -0.45 6  205 290 
 ZAR  HZ I         7 7 24.77         9.6 0.24            122            205 290 
 NOR  HZ EP   1    7 6 57.68                             118    0.15 6  240 234 
 NOR  HN ES   1    7 7 25.67                             118   -0.14 6  240 234 
 NOR  HZ I         7 7 27.07         7.7 0.56            118            240 234 
 SML  HZ EP   1    7 6 56.96                             117   -0.50 6  240 334 
 SML  HN ES   1    7 7 25.26                             117   -0.43 6  240 334 
 SML  HZ I         7 7 31.30         9.2 0.32            118            240 334 
 HEL  HZ EP        7 7  3.02                             114    1.11 7  276 255 
 HEL  HN ES   1    7 7 32.84                             114   -0.76 6  276 255 
 HEL  HZ I         7 7 40.40         5.4 0.34            114            276 255 
 PRA  HZ EP   1    7 7 15.80                             106    0.34 4  398 210 
 PRA  HN ES   1    7 7 57.92                             106    0.19 4  398 210 
 PRA  HZ I         7 8  4.81         3.8 0.30            107            398 210 
 SJC  HZ EP   4    7 7 15.08                             106   -1.41 0  407 326 
 SJC  HN ES   4    7 7 55.96                             106   -3.59 0  407 326 
                                                                                
