 2017  730 0535  7.5 L   6.777 -73.102147.9  RSN  5 0.3 1.2LRSN                1
 GAP=240        0.75       4.5     5.4  5.8  0.4047E+01  0.7091E+01  0.8227E+00E
 Epicentro: LOS SANTOS - SANTANDER                                             3
 ACTION:UPD 17-08-30 15:38 OP:rebc STATUS:               ID:20170730053507 L   I
 OLDACT:UP  17-07-30 17:55 OP:ar   STATUS:               ID:20170730052737d    3
 OLDACT:DUP 17-07-30 17:51 OP:ar   STATUS:               ID:20170730052737d    3
 OLDACT:DUP 17-07-30 17:41 OP:ar   STATUS:               ID:20170730052736d    3
 2017-07-30-0528-00M.COL___377                                                 6
 STAT SP IPHASW D HRMM SECON CODA AMPLIT PERI AZIMU VELO AIN AR TRES W  DIS CAZ7
 BAR2 EZ EP        535 27.14                             171   -0.2710 22.3 204 
 BAR2 EZ ES        535 43.10                             171    0.1910 22.3 204 
 BAR2 EZ I         535 43.79         5.3 0.30            167           22.3 204 
 BRR  HZ EP        535 29.15                             151   -0.0910 76.7 298 
 BRR  HE ES        535 46.31                             151    0.1510 76.7 298 
 BRR  HZ I         535 46.53         2.6 0.27            149           76.7 298 
 RUS  HN ES        535 49.71                             145   -0.1410 97.9 179 
 PTB  HZ EP        535 35.57                             132    0.49 9  152 260 
 PTB  HN ES        535 56.04                             132   -0.52 9  152 260 
 PTB  HZ I         536  1.16         0.9 0.42            130            152 260 
 SPBC HZ EP        535 36.27                             129   -0.05 9  164 221 
 SPBC HE ES        535 59.05                             129    0.28 9  164 221 
 SPBC HZ I         536  0.91         2.6 0.66            128            164 221 
                                                                                
