 2017  630 0542 54.0 L   6.828 -73.061157.2  RSN  6 0.5 1.5LRSN                1
 GAP=227        0.83       6.1     7.1  6.8  0.6083E+01 -0.7555E+01  0.1252E+02E
 Epicentro: LOS SANTOS - SANTANDER                                             3
 ACTION:UPD 17-09-14 16:56 OP:jn   STATUS:               ID:20170630054254 L   I
 OLDACT:UP  17-06-30 16:08 OP:and  STATUS:               ID:20170630052940     3
 OLDACT:UP  17-06-30 16:08 OP:and  STATUS:               ID:20170630052940     3
 OLDACT:UP  17-06-30 16:08 OP:and  STATUS:               ID:20170630052940     3
 OLDACT:UP  17-06-30 16:07 OP:and  STATUS:               ID:20170630052940     3
 OLDACT:REG 17-06-30 13:28 OP:and  STATUS:               ID:20170630052940     3
 2017-06-30-0538-00M.COL___365                                                 6
 STAT SP IPHASW D HRMM SECON CODA AMPLIT PERI AZIMU VELO AIN AR TRES W  DIS CAZ7
 BAR2 EZ EP        543 15.27                             169    0.1610 29.3 207 
 BAR2 EZ ES        543 31.12                             169   -0.4710 29.3 207 
 BAR2 EZ I         543 34.32         7.3 0.38            163           29.3 207 
 BRR  HZ IP     C  543 17.15                             151    0.3910 78.2 293 
 BRR  HN ES        543 34.61                             151    0.0810 78.2 293 
 BRR  HZ I         543 37.63         3.9 0.22            146           78.2 293 
 PTB  HZ EP   2    543 22.38                             132   -0.38 5  158 258 
 PTB  HN ES   3    543 43.23                             132   -1.98 2  158 258 
 PTB  HZ I         543 50.54         3.6 0.40            129            158 258 
 SPBC HZ EP        543 24.50                             129    0.35 9  172 221 
 SPBC HN ES        543 47.75                             129    0.07 9  172 221 
 SPBC HZ I         543 51.23         3.4 0.10            128            172 221 
 ZAR  HN ES   2    543 53.67                             123   -0.79 4  212 290 
 ZAR  HZ I         544  0.60         2.3 0.15            121            212 290 
 PTGC HZ EP        543 37.95                             113   -0.38 7  308 160 
                                                                                
