 2013  630 0515  4.9 L   6.779 -73.111140.9  RSN  5 0.2 1.3LRSN                1
 GAP=142        0.46       2.8     3.6  3.8 -0.7146E+00 -0.8707E+00  0.1964E-01E
 Epicentro: LOS SANTOS - SANTANDER                                             3
 ACTION:UPD 14-01-08 09:58 OP:ep   STATUS:               ID:20130630051504 L   I
 OLDACT:REG 13-06-30 07:37 OP:jn   STATUS:               ID:20130630050959     3
 2013-06-30-0509-59M.COL___267                                                 6
 STAT SP IPHASW D HRMM SECON CODA AMPLIT PERI AZIMU VELO AIN AR TRES W  DIS CAZ7
 BAR2 SZ EP        515 23.93                             171   -0.0310 22.1 201 
 BAR2 SZ ES        515 39.05                             171    0.2610 22.1 201 
 BAR2 SZ I         515 39.98         6.9 0.22            171           22.1 201 
 GIR2 SZ EP        515 24.00                             166   -0.1310 34.4 345 
 BRR  HZ EP        515 25.84                             150    0.0110 75.7 299 
 BRR  HN ES        515 42.06                             150   -0.0610 75.7 299 
 BRR  HZ I         515 46.78         4.5 0.24            150           75.7 299 
 PAM  SZ EP        515 26.86                             150    0.2510 76.9  36 
 PAM  SN ES        515 43.33                             150   -0.1810 76.9  36 
 PAM  SZ I         515 46.00         5.1 0.42            153           76.9  36 
 RUS  HZ EP   1    515 28.03                             143   -0.00 7 98.0 178 
 RUS  HN ES   1    515 45.83                             143   -0.21 7 98.0 178 
 RUS  HZ I         515 47.66         1.7 0.30            147           98.0 178 
                                                                                
