 2016  530 0920 17.8 L   6.805 -73.151150.9  RSN 12 0.5 1.6LRSN                1
 GAP=118        1.18       3.6     5.2  6.2 -0.4634E+01  0.2629E+01  0.5369E+01E
 Epicentro: LOS SANTOS - SANTANDER                                             3
 ACTION:UPD 16-08-18 17:50 OP:cam  STATUS:               ID:20160530092017 L   I
 OLDACT:REG 16-05-30 13:57 OP:edw  STATUS:               ID:20160530091742     3
 2016-05-30-0917-42M.COL___298                                                 6
 STAT SP IPHASW D HRMM SECON CODA AMPLIT PERI AZIMU VELO AIN AR TRES W  DIS CAZ7
 BAR2 EZ EP        920 38.02                             171   -0.0210 23.8 188 
 BAR2 EZ ES        920 53.35                             171   -0.4910 23.8 188 
 BAR2 EZ I         920 54.68         9.3 0.26            171           23.8 188 
 BRR  HZ EP        920 39.88                             154    0.4410 70.4 298 
 BRR  HZ I         920 56.91         7.3 0.43            150           70.4 298 
 BRR  HN ES        920 57.16                             154    0.8210 70.4 298 
 PAM  EZ EP        920 40.98                             152    0.4410 77.3  40 
 PAM  EN ES        920 58.36                             152    0.0610 77.3  40 
 PAM  EZ I         921  0.28         6.0 0.46            152           77.3  40 
 RUS  HZ EP        920 42.17                             145    0.0810  101 176 
 RUS  HN ES        921  0.77                             145   -0.2810  101 176 
 RUS  HZ I         921  2.01         5.6 0.30            146            101 176 
 PTB  HZ EP        920 44.20                             133   -0.93 9  147 259 
 PTB  HN ES        921  5.69                             133   -0.77 9  147 259 
 PTB  HZ I         921  9.95         2.9 0.15            131            147 259 
 OCA  HZ EP   2    920 46.89                             131    0.46 5  160 353 
 OCA  HN ES        921  8.63                             131   -0.15 9  160 353 
 OCA  HZ I         921 11.69         6.5 0.18            130            160 353 
 SPBC HZ EP        920 46.94                             130    0.25 9  163 219 
 SPBC HN ES        921  8.93                             130   -0.30 9  163 219 
 SPBC HZ I         921 14.01         6.2 0.17            129            163 219 
 NOR  HZ EP   2    920 54.74                             120    0.94 4  235 234 
 NOR  HN ES        921 22.64                             120    0.75 8  235 234 
 NOR  HZ I         921 27.76         3.5 0.18            119            235 234 
 CHI  HZ EP        920 55.82                             118    0.00 8  249 195 
 CHI  HN ES        921 25.92                             118    0.44 8  249 195 
 PTGC HZ EP        921  1.40                             112   -0.56 7  309 159 
 PTGC HN ES   4    921 34.59                             112   -1.83 0  309 159 
 PRA  HZ EP        921 11.66                             107    0.15 6  392 209 
 PRA  HN ES        921 53.90                             107    0.48 6  392 209 
 PRA  HZ I         921 55.81         1.2 0.22            107            392 209 
 SJC  HZ EP        921 12.34                             106   -1.08 6  408 327 
 SJC  HN ES   4    921 53.61                             106   -3.20 0  408 327 
 SJC  HZ I         921 53.81         0.5 0.19            106            408 327 
                                                                                
