 2010  930 0556 50.4 L   6.783 -73.103141.0  RSN  6 0.2 1.5LRSN                1
 GAP=164        0.40       2.7     5.4  5.0  0.6635E+00 -0.6109E+01  0.2331E+01E
 Epicentro: LOS SANTOS - SANTANDER                                             3
 ACTION:UP  11-02-18 11:06 OP:tino STATUS:               ID:20100930055650 L   I
 2010-09-30-0553-49S.COL___125                                                 6
 STAT SP IPHASW D HRMM SECON CODA AMPLIT PERI AZIMU VELO SNR AR TRES W  DIS CAZ7
 BAR2 SZ EP   1    557  9.30                             170    -0.1 7   23 203 
 BAR2 SZ I         557  9.73         6.3 0.05                            23 203 
 BAR2 SZ ES   2    557 24.26                             170     0.0 5   23 203 
 BTL  SZ EP   1    557  9.61                             170     0.2 7   24 310 
 BRR  HZ IP     D  557 11.16                             150    -0.110   76 298 
 BRR  HE ES   1    557 27.66                             150     0.0 7   76 298 
 BRR  HZ I         557 32.05         9.6 0.25                            76 298 
 RUS  HZ EP   1    557 13.38                             143    -0.1 7   98 179 
 RUS  HE ES   2    557 31.41                             143    -0.1 5   98 179 
 RUS  HZ I         557 33.49         2.5 0.28                            98 179 
 GRA  SZ EP   2    557 15.13                             136    -0.1 5  126  15 
 GRA  SZ ES   2    557 34.93                             136     0.3 5  126  15 
 GRA  SZ I         557 36.16         6.1 0.28                           126  15 
 CHI  HZ EP   2    557 28.01                             116     0.3 4  248 196 
 CHI  HN ES   2    557 57.34                             116     0.5 4  248 196 
 CHI  HZ I         558  0.65         2.8 0.31                           248 196 
                                                                                
