 2015  330 0753 54.5 L   6.811 -73.128149.8  RSN  9 0.4 1.6LRSN                1
 GAP=138        0.92       3.0     4.4  5.6  0.4422E+00  0.4250E+01 -0.3591E+01E
 Epicentro: LOS SANTOS - SANTANDER                                             3
 ACTION:UPD 15-04-30 16:30 OP:nd   STATUS:               ID:20150330075354 L   I
 OLDACT:DUP 15-03-30 19:44 OP:mh   STATUS:               ID:20150330074736d    3
 2015-03-30-0747-35M.COL___287                                                 6
 STAT SP IPHASW D HRMM SECON CODA AMPLIT PERI AZIMU VELO AIN AR TRES W  DIS CAZ7
 BAR2 EZ EP   1    754 14.83                             170    0.19 7 24.9 194 
 BAR2 EZ ES        754 30.50                             170    0.1410 24.9 194 
 BAR2 EZ I         754 31.58         9.4 0.31            170           24.9 194 
 BRR  HZ EP        754 15.89                             153   -0.2610 72.4 297 
 BRR  HN ES        754 33.51                             153    0.4710 72.4 297 
 BRR  HZ I         754 37.63         6.1 0.30            151           72.4 297 
 PAM  SZ EP        754 17.48                             152    0.4710 75.2  39 
 PAM  SN ES   1    754 34.46                             152   -0.12 7 75.2  39 
 PAM  SZ I         754 36.89         6.2 0.50            156           75.2  39 
 RUS  HZ EP        754 18.92                             144    0.2010  102 177 
 RUS  HN ES        754 37.20                             144   -0.4110  102 177 
 RUS  HZ I         754 38.16         3.2 0.24            148            102 177 
 PTB  HZ EP        754 21.59                             132   -0.40 9  150 259 
 PTB  HN ES   1    754 42.61                             132   -0.82 7  150 259 
 PTB  HZ I         754 47.49         3.3 0.10            133            150 259 
 OCA  HZ EP        754 22.43                             131   -0.60 9  159 352 
 OCA  HN ES        754 45.01                             131   -0.29 9  159 352 
 OCA  HZ I         754 51.35         8.7 0.43            132            159 352 
 SPBC HZ EP   1    754 23.41                             130   -0.10 7  165 219 
 SPBC HN ES   1    754 46.57                             130    0.43 7  165 219 
 SPBC HZ I         754 52.36         5.7 0.07            131            165 219 
 ZAR  HZ EP        754 27.67                             123    0.32 8  205 292 
 ZAR  HN ES        754 53.32                             123    0.35 8  205 292 
 ZAR  HZ I         754 58.94         3.1 0.14            124            205 292 
 SML  HZ EP        754 31.78                             118    0.46 8  243 335 
 SML  HN ES        754 59.91                             118   -0.14 8  243 335 
 SML  HZ I         755  3.70         5.8 0.28            120            243 335 
                                                                                
