 2014 1230 0336 14.6 L   6.781 -73.181148.9  RSN  8 0.5 1.5LRSN                1
 GAP=133        1.29       4.5     7.0  9.8  0.5820E+00 -0.1119E+01 -0.8525E+01E
 Epicentro: LOS SANTOS - SANTANDER                                             3
 ACTION:UPD 15-02-10 17:08 OP:nd   STATUS:               ID:20141230033614 L   I
 OLDACT:DUP 14-12-30 14:49 OP:stll STATUS:               ID:20141230032749d    3
 OLDACT:REG 14-12-30 12:46 OP:stll STATUS:               ID:20141230032748     3
 2014-12-30-0327-48M.COL___262                                                 6
 STAT SP IPHASW D HRMM SECON CODA AMPLIT PERI AZIMU VELO AIN AR TRES W  DIS CAZ7
 BAR2 EZ EP        336 34.15                             172   -0.4110 20.8 181 
 BAR2 EZ ES        336 49.65                             172   -0.4810 20.8 181 
 BAR2 EZ I         336 50.70         6.4 0.34            173           20.8 181 
 BRR  HZ EP        336 36.26                             154    0.3010 68.9 302 
 BRR  HZ I         336 36.41         5.6 0.26            154           68.9 302 
 BRR  HN ES        336 52.88                             154    0.2510 68.9 302 
 PAM  SZ EP        336 37.27                             150   -0.1210 81.5  41 
 PAM  SZ I         336 37.42        12.8 0.24            150           81.5  41 
 RUS  HZ EP        336 38.66                             145    0.1310 98.8 174 
 RUS  HN ES        336 57.24                             145    0.0410 98.8 174 
 RUS  HZ I         336 57.67         2.4 0.24            146           98.8 174 
 PTB  HZ EP        336 41.63                             134    0.18 9  144 259 
 PTB  HN ES        337  2.18                             134   -0.22 9  144 259 
 PTB  HZ I         337  2.98         2.6 0.48            134            144 259 
 SPBC HN ES        337  5.37                             130    0.29 9  159 218 
 OCA  HN ES        337  6.80                             130    1.09 9  162 355 
 OCA  HZ I         337  8.62         5.2 0.34            130            162 355 
 SML  HN ES        337 18.89                             118   -1.29 8  244 336 
 SML  HZ I         337 21.13         5.0 0.22            118            244 336 
                                                                                
