 2016  630 0017 22.6 L   5.929 -73.773107.4  RSN  7 0.3 1.6LRSN                1
 GAP=134        0.89       3.5     3.0  6.2 -0.4395E+01  0.4227E+01 -0.1771E+01E
 Epicentro: SUCRE - SANTANDER                                                  3
 ACTION:UPD 16-07-21 22:24 OP:rebc STATUS:               ID:20160630001722 L   I
 OLDACT:REG 16-06-30 12:23 OP:edw  STATUS:               ID:20160630000743     3
 2016-06-30-0007-43M.COL___346                                                 6
 STAT SP IPHASW D HRMM SECON CODA AMPLIT PERI AZIMU VELO AIN AR TRES W  DIS CAZ7
 SPBC HZ EP        017 38.20                             155   -0.0610 45.1 227 
 SPBC HE ES        017 50.89                             155    0.4010 45.1 227 
 SPBC HZ I         017 52.18        14.1 0.26                          45.1 227 
 RUS  HZ EP        017 40.63                             142   -0.2010 76.5  93 
 RUS  HE ES        017 54.76                             142   -0.2910 76.5  93 
 RUS  HZ I         017 56.76         4.2 0.28                          76.5  93 
 BAR2 EZ EP        017 42.72                             134    0.4810 98.2  42 
 BAR2 EZ ES        017 57.53                             134   -0.0410 98.2  42 
 BAR2 EZ I         017 58.96        14.4 0.14                          98.2  42 
 PTB  HZ EP        017 41.65                             133   -0.5710  101 312 
 PTB  HN ES        017 57.60                             133    0.0710  101 312 
 PTB  HZ I         017 57.76         6.1 0.14                           101 312 
 NOR  HZ EP        017 44.82                             126    0.0410  128 252 
 NOR  HE ES        018  2.17                             126    0.0810  128 252 
 NOR  HZ I         018  3.70        12.2 0.14                           128 252 
 BRR  HZ EP        017 45.67                             125    0.7210  130   3 
 BRR  HN ES        018  2.03                             125   -0.3610  130   3 
 GUY2CHZ EP        017 52.11                             114   -0.09 9  193 246 
 GUY2CHE ES        018 15.09                             114   -0.21 9  193 246 
 GUY2CHZ I         018 21.27         2.8 0.28                           193 246 
                                                                                
