 2017 1230 0836  3.9 L   6.801 -73.146137.8  RSN  5 0.4 1.5LRSN                1
 GAP=150        1.09       6.1     5.5  8.7 -0.1179E+02  0.2021E+02 -0.1538E+02E
 Epicentro: LOS SANTOS - SANTANDER                                             3
 ACTION:UPD 18-01-04 13:25 OP:rebc STATUS:               ID:20171230083603 L   I
 OLDACT:REG 17-12-30 13:36 OP:osc  STATUS:               ID:20171230082747     3
 2017-12-30-0828-00M.COL___455                                                 6
 STAT SP IPHASW D HRMM SECON CODA AMPLIT PERI AZIMU VELO AIN AR TRES W  DIS CAZ7
 BAR2 EZ EP        836 22.39                             170   -0.1710 23.4 190 
 BAR2 EZ ES        836 37.06                             170   -0.0610 23.4 190 
 BAR2 EZ I         836 38.43         9.5 0.26            173           23.4 190 
 PAM  EZ EP        836 25.22                             149   -0.0410 77.4  40 
 PAM  EN ES        836 42.42                             149    0.4910 77.4  40 
 PAM  EZ I         836 44.49         2.7 0.40            150           77.4  40 
 PTB  HZ EP        836 30.87                             130    0.66 9  148 259 
 PTB  HN ES        836 50.07                             130   -0.67 9  148 259 
 PTB  HZ I         836 52.42         2.2 0.19            131            148 259 
 OCA  HZ EP        836 31.16                             128   -0.42 9  160 353 
 OCA  HN ES        836 52.79                             128   -0.39 9  160 353 
 OCA  HZ I         836 57.52         8.7 0.20            128            160 353 
 ZAR  HZ EP        836 35.79                             121   -0.03 9  204 292 
 ZAR  HN ES        837  1.39                             121    0.67 9  204 292 
 ZAR  HZ I         837  8.62         2.6 0.17            121            204 292 
                                                                                
