 2014  130 0524 13.3 L   6.673 -73.153150.2  RSN  4 0.1 0.9LRSN                1
 GAP=227        0.38       3.1     3.3  4.6  0.5678E+01 -0.4777E+01 -0.2992E+01E
 Epicentro: VILLANUEVA - SANTANDER                                             3
 ACTION:UPD 14-03-13 09:59 OP:ep   STATUS:               ID:20140130052413 L   I
 OLDACT:DUP 14-01-30 11:18 OP:stll STATUS:               ID:20140130051813d    3
 2014-01-30-0518-12M.COL___230                                                 6
 STAT SP IPHASW D HRMM SECON CODA AMPLIT PERI AZIMU VELO AIN AR TRES W  DIS CAZ7
 BAR2 SZ EP        524 33.04                             176   -0.1910 9.48 200 
 BRR  HZ EP        524 35.33                             151    0.0410 78.3 308 
 BRR  HN ES        524 52.53                             151    0.0610 78.3 308 
 BRR  HZ I         524 53.36         3.0 0.46            149           78.3 308 
 RUS  HZ EP        524 36.63                             149    0.1210 86.6 175 
 RUS  HZ I         524 38.00         0.7 0.38            147           86.6 175 
 RUS  HN ES        524 54.64                             149   -0.0010 86.6 175 
 PTB  HN ES        525  1.41                             134   -0.04 9  145 264 
 PTB  HZ I         525  4.27         1.2 0.18            131            145 264 
                                                                                
