 2011 1130 0641 12.7 L   6.756 -73.098143.9  RSN  5 0.3 1.6LRSN                1
 GAP=145        0.67       3.9     6.5  5.8  0.4044E+00 -0.1613E+01 -0.4453E+01E
 Epicentro: LOS SANTOS - SANTANDER                                             3
 ACTION:UPD 12-07-13 16:13 OP:ep   STATUS:               ID:20111130064112 L   I
 2011-11-30-0639-40S.COL___157                                                 6
 STAT SP IPHASW D HRMM SECON CODA AMPLIT PERI AZIMU VELO AIN AR TRES W  DIS CAZ7
 BAR2 SZ EP        641 31.91                             172   -0.1610 20.3 207 
 BAR2 SZ ES   1    641 46.70                             172   -0.46 7 20.3 207 
 BAR2 SZ I         641 48.59        10.8 0.36                          20.3 207 
 PAM  SZ EP        641 34.74                             150   -0.0510 78.1  34 
 PAM  SN ES   1    641 52.09                             150    0.10 7 78.1  34 
 BRR  HZ EP        641 33.77                             150   -0.3210 78.1 300 
 BRR  HZ I         641 34.05        11.8 0.16                          78.1 300 
 BRR  HE ES   1    641 51.08                             150    0.34 7 78.1 300 
 RUS  HZ EP        641 35.96                             145    0.0310 95.5 179 
 RUS  HN ES   1    641 54.49                             145    0.47 7 95.5 179 
 RUS  HZ I         641 55.96         4.6 0.56                          95.5 179 
 OCA  SZ EP        641 41.73                             128    0.31 9  166 352 
                                                                                
