 2013  530 0800 53.4 L   6.781 -73.154148.0  RSN 15 0.4 2.4LRSN 2.9WRSN        1
 SPEC AVERAGE  MO 13.4 ST  1.5 OM  1.9 f0 3.48 R0.4706 AL 1.99 WI 14.6 MW  2.9 3
 SPEC SD       MO  0.3 ST  1.1 OM  0.3 f00.797 R0.1127 AL      WI      MW  0.2 3
 GAP=111        1.07       2.8     3.9  5.1  0.7674E-01  0.2628E+01  0.1434E+01E
 Epicentro: LOS SANTOS - SANTANDER                                             3
 SPEC TAM HH N MO 13.2 ST0.319 OM  1.5 f0 2.53 R0.6142 AL 1.95 WI 16.6 MW  2.8 3
 SPEC TAM HH N T 8 139 K 0.000 GD  214 VS 4.20 DE 3.20 Q0300.0 QA 0.60 VS 4.20 3
 SPEC PTB HH N MO 13.6 ST  3.0 OM  1.9 f0 3.98 R0.3905 AL 1.77 WI 14.6 MW  3.0 3
 SPEC PTB HH N T 8 139 K 0.000 GD  207 VS 4.20 DE 3.20 Q0300.0 QA 0.60 VS 4.20 3
 SPEC RUS HH N MO 13.4 ST0.492 OM  1.8 f0 2.47 R0.6291 AL 2.14 WI 13.0 MW  2.9 3
 SPEC RUS HH N T 8 134 K 0.000 GD  177 VS 4.20 DE 3.20 Q0300.0 QA 0.60 VS 4.20 3
 SPEC PRA HH N MO 13.5 ST  2.1 OM  1.5 f0 3.79 R0.4100 AL 2.57 WI 15.1 MW  3.0 3
 SPEC PRA HH N T 8 227 K 0.000 GD  417 VS 4.20 DE 3.20 Q0300.0 QA 0.60 VS 4.20 3
 SPECGUY2CHH N MO 13.5 ST0.619 OM  1.6 f0 2.56 R0.6081 AL 2.01 WI 18.3 MW  2.9 3
 SPECGUY2CHH N T 8 213 K 0.000 GD  333 VS 4.20 DE 3.20 Q0300.0 QA 0.60 VS 4.20 3
 SPEC HEL HH N MO 13.3 ST0.747 OM  1.4 f0 3.21 R0.4841 AL 2.32 WI 23.4 MW  2.8 3
 SPEC HEL HH N T 8 2 4 K 0.000 GD  308 VS 4.20 DE 3.20 Q0300.0 QA 0.60 VS 4.20 3
 SPEC NOR HH N MO 13.4 ST  2.6 OM  1.6 f0 4.33 R0.3589 AL 1.24 WI 17.1 MW  2.9 3
 SPEC NOR HH N T 8 154 K 0.000 GD  276 VS 4.20 DE 3.20 Q0300.0 QA 0.60 VS 4.20 3
 SPEC OCA HH N MO 13.7 ST  1.8 OM  2.0 f0 3.02 R0.5146 AL 1.70 WI 17.8 MW  3.1 3
 SPEC OCA HH N T 8 142 K 0.000 GD  219 VS 4.20 DE 3.20 Q0300.0 QA 0.60 VS 4.20 3
 SPEC CHI HH N MO 13.7 ST0.738 OM  1.8 f0 2.41 R0.6448 AL 2.14 WI 13.1 MW  3.0 3
 SPEC CHI HH N T 8 158 K 0.000 GD  287 VS 4.20 DE 3.20 Q0300.0 QA 0.60 VS 4.20 3
 SPEC BRR HH N MO 13.5 ST  3.1 OM  1.9 f0 4.33 R0.3589 AL 2.06 WI 18.6 MW  3.0 3
 SPEC BRR HH N T 8 131 K 0.000 GD  164 VS 4.20 DE 3.20 Q0300.0 QA 0.60 VS 4.20 3
 SPEC GIR2SH Z MO 12.6 ST0.476 OM  1.0 f0 4.76 R0.3265 AL 1.43 WI  5.4 MW  2.3 3
 SPEC GIR2SH Z T 8 128 K 0.000 GD  151 VS 4.20 DE 3.20 Q0300.0 QA 0.60 VS 4.20 3
 SPEC BAR2SH Z MO 13.2 ST0.736 OM  1.6 f0 3.49 R0.4453 AL 2.52 WI  6.2 MW  2.7 3
 SPEC BAR2SH Z T 8 127 K 0.000 GD  149 VS 4.20 DE 3.20 Q0300.0 QA 0.60 VS 4.20 3
 ACTION:UPD 13-06-20 09:54 OP:ep   STATUS:               ID:20130530080053 L   I
 2013-05-30-0800-00M.COL___261                                                 6
 STAT SP IPHASW D HRMM SECON CODA AMPLIT PERI AZIMU VELO AIN AR TRES W  DIS CAZ7
 BAR2 SZ IP     D  8 1 13.32                             171    0.0710 21.1 189 
 BAR2 SZ ES        8 1 28.34                             171   -0.4010 21.1 189 
 BAR2 SZ I         8 1 30.15        51.9 0.42            170           21.1 189 
 GIR2 SZ EP        8 1 13.37                             167   -0.0210 33.2 352 
 GIR2 SZ ES        8 1 28.76                             167   -0.2210 33.2 352 
 GIR2 SZ I         8 1 30.84        29.2 0.12            165           33.2 352 
 BRR  HZ IP     C  8 1 15.18                             153    0.3810 71.4 300 
 BRR  HN ES        8 1 32.42                             153    0.9310 71.4 300 
 BRR  HZ I         8 1 37.42        30.3 0.14            150           71.4 300 
 RUS  HZ EP        8 1 17.29                             145    0.0610 98.6 175 
 RUS  HN ES        8 1 35.94                             145    0.1310 98.6 175 
 RUS  HZ I         8 1 37.63        25.3 0.32            146           98.6 175 
 PTB  HZ EP        8 1 19.85                             133   -0.58 9  146 260 
 PTB  HN ES        8 1 41.25                             133   -0.27 9  146 260 
 PTB  HZ I         8 1 45.89        36.1 0.26            131            146 260 
 TAM  HZ IP     D  8 1 21.45                             131    0.16 9  155 104 
 TAM  HN ES   4    8 1 40.71                             131   -2.33 0  155 104 
 TAM  HZ I         8 1 44.69         9.2 0.34            135            155 104 
 OCA  HZ EP        8 1 21.82                             130   -0.25 9  162 354 
 OCA  HN ES        8 1 43.71                             130   -0.72 9  162 354 
 OCA  HZ I         8 1 49.25        21.0 0.20            130            162 354 
 ZAR  HZ EP        8 1 25.98                             123   -0.00 9  204 293 
 ZAR  HN ES        8 1 51.62                             123    0.22 9  204 293 
 ZAR  HZ I         8 1 58.21        41.3 0.32            122            204 293 
 NOR  HZ EP        8 1 28.83                             119   -0.22 8  233 235 
 NOR  HN ES        8 1 56.08                             119   -0.78 8  233 235 
 NOR  HZ I         8 2  1.60        26.2 0.18            119            233 235 
 SML  HZ EP        8 1 29.76                             118   -0.55 8  245 336 
 SML  HN ES        8 2  0.11                             118    1.00 8  245 336 
 SML  HZ I         8 2  2.93        31.2 0.24            118            245 336 
 CHI  HZ EP        8 1 31.43                             118    0.45 8  246 195 
 CHI  HN ES        8 2  0.50                             118    0.21 8  246 195 
 CHI  HZ I         8 2  6.59        11.5 0.28            119            246 195 
 HEL  HZ EP   4    8 1 35.00                             115    1.43 0  271 256 
 HEL  HN ES        8 2  5.05                             115    0.14 8  271 256 
 HEL  HZ I         8 2 11.58        10.5 0.30            115            271 256 
 URE  HZ EP   4    8 1 33.87                             114   -0.70 0  284 292 
 URE  HN ES   4    8 2  4.23                             114   -2.45 0  284 292 
 URE  HZ I         8 2 18.39        20.5 0.22            114            284 292 
 GUY2CHZ EP   4    8 1 38.26                             113    1.37 0  299 235 
 GUY2CHN ES   4    8 2 14.25                             113    3.44 0  299 235 
 GUY2CHZ I         8 2 19.14        10.3 0.52                           299 235 
 PRA  HZ EP        8 1 47.09                             107    0.36 6  390 210 
 PRA  HN ES        8 2 28.54                             107    0.21 6  390 210 
 PRA  HZ I         8 2 32.58        11.1 0.30            108            390 210 
                                                                                
