 2013  430 0840 47.1 L   6.788 -73.116151.3  RSN 12 0.5 2.0LRSN                1
 GAP=141        1.31       4.6     7.1  7.7  0.1849E+01  0.1205E+02 -0.4317E+01E
 Epicentro: LOS SANTOS - SANTANDER                                             3
 ACTION:UPD 13-05-22 14:41 OP:EP   STATUS:               ID:20130430084047 L   I
 2013-04-30-0840-00M.COL___253                                                 6
 STAT SP IPHASW D HRMM SECON CODA AMPLIT PERI AZIMU VELO AIN AR TRES W  DIS CAZ7
 BAR2 SZ EP        841  5.78                             171   -1.5710 22.9 199 
 BAR2 SZ ES        841 23.32                             171    0.1410 22.9 199 
 BAR2 SZ I         841 24.45        16.4 0.32            167           22.9 199 
 GIR2 SZ EP        841  7.53                             167    0.0810 33.2 345 
 GIR2 SZ ES        841 23.48                             167    0.1310 33.2 345 
 GIR2 SZ I         841 24.30        17.2 0.10            163           33.2 345 
 BRR  HZ IP     D  841  9.31                             152    0.3010 74.7 298 
 BRR  HE ES        841 26.57                             152    0.4410 74.7 298 
 BRR  HZ I         841 27.40        13.8 0.12            146           74.7 298 
 PAM  SZ EP        841 10.39                             152    0.5810 76.3  37 
 PAM  SZ I         841 10.65        28.0 0.22            154           76.3  37 
 PAM  SN ES        841 27.56                             152    0.0010 76.3  37 
 RUS  HZ EP        841 11.57                             145    0.3110 99.1 178 
 RUS  HN ES        841 30.28                             145    0.1410 99.1 178 
 RUS  HZ I         841 30.89         8.7 0.20            146           99.1 178 
 PTB  HZ EP   4    841 14.03                             133   -0.73 0  151 260 
 PTB  HN ES   4    841 35.09                             133   -1.27 0  151 260 
 PTB  HZ I         841 40.16        11.7 0.24            129            151 260 
 OCA  HZ EP   1    841 16.00                             131    0.03 7  162 352 
 OCA  HE ES        841 37.73                             131   -0.78 9  162 352 
 ZAR  HZ EP   2    841 20.86                             123    0.62 4  208 292 
 ZAR  HN ES   1    841 46.27                             123    0.16 6  208 292 
 ZAR  HZ I         841 52.00        10.2 0.30            120            208 292 
 NOR  HZ EP   2    841 23.57                             119    0.24 4  237 235 
 NOR  HN ES   1    841 50.82                             119   -0.79 6  237 235 
 NOR  HZ I         841 53.08         4.6 0.16            117            237 235 
 SML  HZ EP     C  841 24.65                             118    0.37 8  246 335 
 SML  HE ES        841 53.21                             118   -0.10 8  246 335 
 SML  HZ I         841 59.75        12.6 0.26            117            246 335 
 HEL  HZ EP   4    841 30.32                             116    2.44 0  275 256 
 HEL  HN ES   4    842  3.11                             116    3.39 0  275 256 
 HEL  HN IS   4    842  3.11                             116    3.39 0  275 256 
 HEL  HZ I         842  6.04         4.3 0.40            114            275 256 
 URE  HZ EP   4    841 28.26                             114   -0.54 0  287 292 
 URE  HE ES   4    842  2.40                             114    1.04 0  287 292 
 URE  HZ I         842  9.47         8.0 0.20            113            287 292 
 PRA  HZ EP   4    841 42.18                             107    1.34 0  393 210 
                                                                                
