 2013  130 0956 39.2 L   6.778 -73.129135.7  RSN  5 0.2 1.5LRSN                1
 GAP=140        0.47       3.0     3.2  4.8 -0.5826E+00 -0.5383E+00  0.1958E+01E
 Epicentro: LOS SANTOS - SANTANDER                                             3
 ACTION:UPD 13-02-15 09:17 OP:ep   STATUS:               ID:20130130095639 L   I
 2013-01-30-0950-00M.COL___241                                                 6
 STAT SP IPHASW D HRMM SECON CODA AMPLIT PERI AZIMU VELO AIN AR TRES W  DIS CAZ7
 BAR2 SZ EP   1    956 57.55                             171   -0.06 7 21.4 196 
 BAR2 SZ ES   1    957 11.80                             171   -0.15 7 21.4 196 
 BRR  HZ EP   1    956 59.68                             150    0.21 7 74.0 299 
 BRR  HN ES   1    957 15.62                             150    0.36 7 74.0 299 
 BRR  HN I         957 20.21        11.9 0.17            150           74.0 299 
 PAM  SZ EP   1    957  0.37                             149   -0.06 7 78.1  37 
 PAM  SN ES   1    957 16.81                             149   -0.16 7 78.1  37 
 PAM  SZ I         957 19.44         4.5 0.44            152           78.1  37 
 RUS  HZ EP        957  1.83                             142    0.0110 98.0 177 
 RUS  HN ES   1    957 19.59                             142    0.16 7 98.0 177 
 RUS  HN I         957 21.56         4.8 0.18            147           98.0 177 
 PTB  HE ES   1    957 25.67                             129   -0.37 7  149 260 
 PTB  HE I         957 28.45         3.6 0.19            132            149 260 
                                                                                
