 2013  730 0610  0.5 L   6.799 -73.143149.4  RSN  9 0.5 1.8LRSN                1
 GAP=183        0.88       4.2     5.6  7.2  0.4864E-01  0.1092E+02  0.2228E+01E
 Epicentro: LOS SANTOS - SANTANDER                                             3
 ACTION:UPD 13-08-12 10:41 OP:ep   STATUS:               ID:20130730061000 L   I
 OLDACT:REG 13-07-30 07:46 OP:carl STATUS:               ID:20130730060959     3
 2013-07-30-0609-59M.COL___267                                                 6
 STAT SP IPHASW D HRMM SECON CODA AMPLIT PERI AZIMU VELO AIN AR TRES W  DIS CAZ7
 BAR2 SZ EP   1    610 20.67                             171    0.06 7 23.3 191 
 BAR2 SZ ES   1    610 35.82                             171   -0.44 7 23.3 191 
 BAR2 SZ I         610 36.89        10.1 0.28            170           23.3 191 
 GIR2 SZ EP   1    610 20.72                             168    0.07 7 31.4 350 
 GIR2 SZ ES   1    610 36.41                             168    0.08 7 31.4 350 
 GIR2 SZ I         610 38.13         4.1 0.32            164           31.4 350 
 BRR  HZ EP   1    610 22.52                             153    0.42 7 71.5 298 
 BRR  HE ES   1    610 39.83                             153    0.91 7 71.5 298 
 BRR  HE I         610 43.18        20.8 0.18            149           71.5 298 
 RUS  HZ EP   1    610 24.46                             145   -0.18 7  100 176 
 RUS  HN ES   1    610 43.51                             145    0.07 7  100 176 
 RUS  HZ I         610 44.44         3.6 0.28            147            100 176 
 PTB  HZ EP   1    610 27.15                             133   -0.68 7  148 259 
 PTB  HN ES   1    610 48.44                             133   -0.67 7  148 259 
 PTB  HZ I         610 50.53         6.4 0.46            131            148 259 
 OCA  HN ES   1    610 50.79                             130   -0.67 7  160 353 
 OCA  HN I         610 57.51        36.5 0.24            130            160 353 
 SPBC HZ EP   1    610 29.51                             130    0.18 7  163 219 
 SPBC HE ES   1    610 52.06                             130    0.28 7  163 219 
 SPBC HZ I         610 57.71         7.9 0.36            130            163 219 
 ZAR  HZ EP   1    610 33.98                             123    0.73 6  204 292 
 ZAR  HE ES   1    610 58.69                             123   -0.08 6  204 292 
 ZAR  HZ I         611  5.62         4.0 0.34            122            204 292 
 NOR  HE ES   1    611  4.36                             119   -0.19 6  235 235 
 NOR  HE I         611  9.77         8.5 0.16            119            235 235 
                                                                                
