 2010  330 0404 13.7 L   6.782 -73.039137.1  RSN  4 0.3 1.5LRSN                1
 GAP=209        0.60       4.0    12.0  9.0 -0.3155E+01 -0.6248E+02  0.8695E+01E
 Epicentro: CEPITA - SANTANDER                                                 3
 ACTION:UP  10-08-24 09:56 OP:vdl  STATUS:               ID:20100330040413 L   I
 2010-03-30-0400-31S.COL___098                                                 6
 STAT SP IPHASW D HRMM SECON CODA AMPLIT PERI AZIMU VELO SNR AR TRES W  DIS CAZ7
 BAR2 SZ IP        4 4 32.56                             169     0.210   26 217 
 BAR2 SZ ES   3    4 4 46.46                             169    -0.5 2   26 217 
 BRR  HZ IP        4 4 34.44                             148    -0.210   83 296 
 BRR  HZ I         4 4 34.61         8.7 0.13                            83 296 
 BRR  HE ES   1    4 4 51.17                             148     0.2 7   83 296 
 OCA  SZ EP        4 4 41.67                             127     0.0 9  164 349 
 OCA  SZ ES   3    4 5  2.72                             127    -0.9 2  164 349 
 CHI  HZ EP        4 4 51.27                             115     0.2 8  250 198 
 CHI  HN ES   2    4 5 19.42                             115    -0.8 4  250 198 
 CHI  HZ I         4 5 23.76         1.9 0.43                           250 198 
                                                                                
