 2010  730 0806 36.1 L   6.585 -73.487111.4  RSN 12 0.4 1.9LRSN                1
 GAP= 78        0.89       4.1     6.1  7.4 -0.9272E+01  0.2477E+02 -0.6181E+01E
 Epicentro: EL CARMEN DE CHUCURI - SANTANDER                                   3
 ACTION:UPD 10-12-01 15:21 OP:pat  STATUS:               ID:20100730080636 L   I
 2010-07-30-0804-37S.COL___123                                                 6
 STAT SP IPHASW D HRMM SECON CODA AMPLIT PERI AZIMU VELO AIN AR TRES W  DIS CAZ7
 BAR2 SZ IP        8 6 51.97                             162     0.110   34  89 
 BAR2 SZ ES   1    8 7  4.34                             162     0.1 7   34  89 
 BRR  HZ EP   1    8 6 52.83                             148    -0.2 7   63 337 
 BRR  HZ I         8 7  0.10        20.5 0.12                            63 337 
 BRR  HN ES   2    8 7  6.62                             148     0.3 5   63 337 
 GIR2 SZ EP        8 6 53.40                             148     0.110   64  31 
 RUS  HZ EP   1    8 6 55.04                             139    -0.6 7   89 150 
 RUS  HZ I         8 6 55.94         9.6 0.11                            89 150 
 RUS  HE ES   1    8 7 10.77                             139    -0.1 7   89 150 
 GUE  SZ EP        8 7  0.84                             122    -0.4 9  151  24 
 GRA  SZ EP   1    8 7  2.96                             120     0.8 7  162  28 
 GRA  SZ I         8 7 34.88         7.1 0.15                           162  28 
 OCA  SZ EP        8 7  4.50                             117     0.0 9  184   6 
 OCA  SZ I         8 7 32.49        13.6 0.28                           184   6 
 ROSC BZ EP   1    8 7  9.03                             113     0.9 6  214 206 
 ROSC BZ I         8 7 39.18         4.3 0.41                           214 206 
 HEL  HZ EP   1    8 7  9.65                             111    -0.3 6  230 259 
 HEL  HN ES   2    8 7 35.85                             111    -0.5 4  230 259 
 HEL  HZ I         8 7 39.85         7.5 0.39                           230 259 
 GUY  SZ EP   1    8 7 13.43                             108     0.3 6  257 234 
 GUY  SZ I         8 7 47.57        14.5 0.04                           257 234 
 RREF HZ EP   1    8 7 15.47                             107    -0.3 6  278 228 
 RREF HN ES   2    8 7 47.08                             107     0.4 4  278 228 
 RREF HZ I         8 7 52.10         3.4 0.32                           278 228 
 PRA  HZ EP   1    8 7 23.38                             102    -0.6 5  353 206 
 PRA  HN ES   2    8 8  2.01                             102     0.7 3  353 206 
 PRA  HZ I         8 8  5.44         3.7 0.18                           353 206 
                                                                                
