 2016  930 0429 58.3 L   6.775 -73.140147.9  RSN  4 0.2 0.8LRSN                1
 GAP=236        0.66       5.3     5.8  6.1  0.1674E+02 -0.6482E-02  0.2735E+01E
 Epicentro: LOS SANTOS - SANTANDER                                             3
 ACTION:UPD 17-08-17 21:18 OP:lp   STATUS:               ID:20160930042958 L   I
 OLDACT:REG 16-09-30 12:16 OP:edw  STATUS:               ID:20160930042351     3
 2016-09-30-0428-00M.COL___369                                                 6
 STAT SP IPHASW D HRMM SECON CODA AMPLIT PERI AZIMU VELO AIN AR TRES W  DIS CAZ7
 BRR  HZ EP        430 20.05                             152    0.2610 73.1 300 
 BRR  HN ES        430 36.33                             152   -0.2210 73.1 300 
 RUS  HZ EP        430 22.30                             145    0.2310 97.8 176 
 RUS  HN ES        430 40.54                             145   -0.0710 97.8 176 
 RUS  HZ I         430 42.51         0.9 0.30            144           97.8 176 
 PTB  HZ EP        430 25.14                             132   -0.31 9  148 260 
 PTB  HN ES        430 46.94                             132    0.31 9  148 260 
 PTB  HZ I         430 48.16         0.9 0.22            133            148 260 
 SPBC HZ EP        430 26.56                             130   -0.24 9  161 220 
                                                                                
