 2013  330 0007 28.8 L   6.690 -73.209147.6  RSN  4 0.5 1.4LRSN                1
 GAP=215        0.88      12.9     8.1 10.2  0.3441E+02  0.1665E+02  0.1099E+01E
 Epicentro: VILLANUEVA - SANTANDER                                             3
 ACTION:UPD 13-04-09 14:05 OP:ep   STATUS:               ID:20130330000728 L   I
 2013-03-30-0000-00M.COL___245                                                 6
 STAT SP IPHASW D HRMM SECON CODA AMPLIT PERI AZIMU VELO AIN AR TRES W  DIS CAZ7
 BAR2 SZ EP   1    0 7 48.30                             175   -0.16 7 11.2 165 
 BAR2 SZ ES   1    0 8  3.39                             175   -0.42 7 11.2 165 
 BAR2 SZ I         0 8  4.85         9.6 0.16            173           11.2 165 
 BRR  HZ EP        0 7 50.25                             152    0.0510 72.2 310 
 BRR  HN ES   1    0 8  7.58                             152    0.68 7 72.2 310 
 BRR  HZ I         0 8  9.45         5.5 0.28            147           72.2 310 
 PTB  HZ EP   1    0 7 55.51                             134    0.38 7  139 263 
 PTB  HN ES   1    0 8 15.77                             134    0.10 7  139 263 
 PTB  HZ I         0 8 19.18         2.6 0.16            132            139 263 
 ZAR  HN ES   1    0 8 25.64                             123   -0.86 6  203 296 
 ZAR  HZ I         0 8 33.80         1.8 0.16            122            203 296 
                                                                                
