 2011 1130 0838 14.9 L   6.756 -73.108136.6  RSN  6 0.4 1.7LRSN                1
 GAP=143        0.96       5.4     9.1  9.0 -0.3734E+01 -0.4138E+01  0.4109E+01E
 Epicentro: LOS SANTOS - SANTANDER                                             3
 ACTION:UPD 12-07-13 16:13 OP:ep   STATUS:               ID:20111130083814 L   I
 2011-11-30-0836-26S.COL___160                                                 6
 STAT SP IPHASW D HRMM SECON CODA AMPLIT PERI AZIMU VELO AIN AR TRES W  DIS CAZ7
 BAR2 SZ EP        838 33.18                             171   -0.1910 19.9 204 
 BAR2 SZ ES   2    838 47.91                             171    0.14 5 19.9 204 
 BAR2 SZ I         838 51.74        15.5 0.52                          19.9 204 
 BRR  HZ EP        838 34.86                             149   -0.5810 77.2 300 
 BRR  HZ I         838 40.22        16.7 0.32                          77.2 300 
 BRR  HE ES   1    838 51.58                             149    0.12 7 77.2 300 
 PAM  SZ EP        838 35.98                             148   -0.2610 78.7  35 
 PAM  SN ES   2    838 52.56                             148   -0.32 5 78.7  35 
 RUS  HZ EP        838 37.48                             143    0.0910 95.5 178 
 RUS  HN ES   2    838 55.75                             143    0.82 5 95.5 178 
 RUS  HZ I         838 57.06         5.9 0.40                          95.5 178 
 OCA  SZ EP        838 43.90                             126    0.86 9  166 352 
 OCA  SZ I         839  7.47         5.4 0.20                           166 352 
 CTAU SZ EP        838 47.07                             121    0.00 9  201 211 
                                                                                
