 2015 1030 0913 22.5 L   6.775 -73.085149.8  RSN 10 0.4 1.7LRSN                1
 GAP=146        0.86       3.3     3.9  5.3 -0.9025E+00  0.5302E+01  0.3656E+01E
 Epicentro: LOS SANTOS - SANTANDER                                             3
 ACTION:UPD 15-12-22 20:44 OP:cam  STATUS:               ID:20151030090751dL   I
 OLDACT:DUP 15-10-30 18:13 OP:mh   STATUS:               ID:20151030090751dL   3
 OLDACT:UP  15-10-30 18:10 OP:mh   STATUS:               ID:20151030090750 L   3
 OLDACT:UP  15-10-30 18:10 OP:mh   STATUS:               ID:20151030090750 L   3
 OLDACT:UP  15-10-30 18:09 OP:mh   STATUS:               ID:20151030090750 L   3
 OLDACT:UPD 15-10-30 14:48 OP:AK   STATUS:               ID:20151030090750 L   3
 2015-10-30-0907-49M.COL___310                                                 6
 STAT SP IPHASW D HRMM SECON CODA AMPLIT PERI AZIMU VELO AIN AR TRES W  DIS CAZ7
 BAR2 EZ EP   1    913 42.26                             171   -0.34 7 22.9 208 
 BAR2 EZ ES        913 57.93                             171   -0.3510 22.9 208 
 PAM  EZ EP        913 45.28                             152    0.2510 75.5  34 
 PAM  EN ES        914  3.02                             152    0.4110 75.5  34 
 PAM  EZ I         914  4.68         5.2 0.52            157           75.5  34 
 BRR  HZ EP   1    913 44.60                             151    0.11 7 78.4 298 
 BRR  HN ES        914  1.85                             151    0.2110 78.4 298 
 BRR  HZ I         914  9.06         9.0 0.38            149           78.4 298 
 RUS  HZ EP        913 46.30                             145   -0.1310 97.6 180 
 RUS  HN ES   1    914  4.92                             145   -0.18 7 97.6 180 
 RUS  HZ I         914  5.74         4.7 0.24            148           97.6 180 
 SPBC HZ EP        913 51.47                             129   -0.04 9  165 221 
 SPBC HN ES        914 14.05                             129   -0.09 9  165 221 
 SPBC HZ I         914 20.41        11.6 0.20            130            165 221 
 ZAR  HN ES        914 21.37                             122   -0.67 8  211 292 
 ZAR  HZ I         914 26.51         6.9 0.40            123            211 292 
 CHI  HZ EP        914  0.14                             118   -0.19 8  248 197 
 CHI  HN ES        914 30.09                             118    0.24 8  248 197 
 CHI  HZ I         914 35.58         1.9 0.34            120            248 197 
 SML  HZ EP   1    913 59.06                             118   -0.86 6  249 334 
 SML  HN ES   4    914 27.29                             118   -1.82 0  249 334 
 SML  HZ I         914 32.27         9.5 0.10            119            249 334 
 HEL  HZ EP        914  4.19                             115    0.63 7  278 257 
 HEL  HN ES        914 36.18                             115    0.59 7  278 257 
 HEL  HZ I         914 41.14         2.4 0.42            116            278 257 
 URE  HZ EP   4    914  6.16                             114    1.59 0  291 292 
 URE  HN ES   4    914 33.31                             114   -4.07 0  291 292 
 GUY2CHZ EP   4    914  7.96                             113    1.23 0  305 236 
 GUY2CHN ES   4    914 43.98                             113    2.74 0  305 236 
 GUY2CHZ I         914 49.34         2.4 0.38                           305 236 
 SJC  HN ES   4    914 58.31                             106   -4.56 0  415 326 
                                                                                
