 2014  830 0129 47.5 L   6.802 -73.138141.2  RSN 19 0.5 2.2LRSN                1
 GAP=137        1.10       3.0     4.0  6.2 -0.2890E+01  0.5881E+01  0.1464E+01E
 Epicentro: LOS SANTOS - SANTANDER                                             3
 ACTION:UPD 14-09-15 21:54 OP:nd   STATUS:               ID:20140830012947 L   I
 OLDACT:REG 14-08-30 12:40 OP:fm   STATUS:               ID:20140830012819     3
 2014-08-30-0128-19M.COL___266                                                 6
 STAT SP IPHASW D HRMM SECON CODA AMPLIT PERI AZIMU VELO AIN AR TRES W  DIS CAZ7
 BAR2 SZ EP        130  6.78                             170    0.1510 23.7 192 
 BAR2 SZ ES   1    130 21.05                             170   -0.46 7 23.7 192 
 BAR2 SZ I         130 22.63        19.0 0.10            169           23.7 192 
 BRR  HZ EP        130  8.73                             152    0.5010 71.8 298 
 BRR  HN ES        130 25.12                             152    0.7510 71.8 298 
 BRR  HZ I         130 30.26        29.1 0.12            149           71.8 298 
 PAM  SZ EP        130  9.69                             150    0.4610 76.6  39 
 PAM  SN ES        130 26.32                             150    0.1810 76.6  39 
 PAM  SZ I         130 28.64        23.9 0.54            153           76.6  39 
 RUS  HZ EP        130 10.83                             143   -0.0310  101 177 
 RUS  HN ES        130 28.96                             143   -0.0810  101 177 
 RUS  HZ I         130 30.00        15.1 0.24            144            101 177 
 PTB  HZ EP        130 13.59                             131   -0.63 9  149 259 
 PTB  HN ES        130 34.16                             131   -0.87 9  149 259 
 PTB  HZ I         130 37.35        16.9 0.12            130            149 259 
 OCA  HZ EP        130 15.44                             129   -0.05 9  160 353 
 OCA  HN ES        130 36.44                             129   -0.84 9  160 353 
 OCA  HZ I         130 40.22        14.0 0.28            129            160 353 
 SPBC HZ EP        130 15.76                             128   -0.00 9  164 219 
 SPBC HN ES        130 37.48                             128   -0.29 9  164 219 
 SPBC HZ I         130 40.91        21.5 0.18            128            164 219 
 ZAR  HZ EP   4    130 21.39                             121    1.63 0  205 292 
 ZAR  HN ES        130 45.62                             121    0.73 9  205 292 
 ZAR  HZ I         130 50.98        28.1 0.32            121            205 292 
 NOR  HN ES        130 50.83                             117   -0.00 8  236 235 
 NOR  HZ I         130 52.65         9.3 0.16            117            236 235 
 SML  HZ EP        130 23.29                             116   -0.64 8  244 335 
 SML  HN ES   4    130 50.44                             116   -1.87 0  244 335 
 SML  HZ I         131  0.99        17.0 0.10            117            244 335 
 CHI  HZ EP   1    130 25.08                             116    0.04 6  249 195 
 CHI  HN ES        130 54.21                             116   -0.08 8  249 195 
 CHI  HZ I         130 58.50         4.0 0.22            117            249 195 
 ROSC BN ES   1    130 55.42                             116    0.34 6  253 211 
 ROSC BZ I         131  3.14        15.6 0.45            116            253 211 
 HEL  HZ EP   1    130 28.77                             114    1.15 6  273 256 
 HEL  HN ES        130 58.73                             114   -0.16 8  273 256 
 HEL  HZ I         131  5.67         7.0 0.48            114            273 256 
 URE  HZ EP   4    130 29.78                             113    1.31 0  285 292 
 GUY2CHZ EP   1    130 31.35                             111    0.31 5  302 235 
 GUY2CHN ES        131  5.08                             111    0.12 7  302 235 
 GUY2CHZ I         131 12.23         5.8 0.32                           302 235 
 TOL  SN ES   4    131 14.77                             108    1.50 0  344 225 
 TOL  SZ I         131 23.62        13.1 0.64            109            344 225 
 MON  HZ EP   4    130 34.56                             108   -1.87 0  354 308 
 MON  HN ES   4    131 13.44                             108   -1.12 0  354 308 
 MON  HZ I         131 14.10         4.9 0.18            108            354 308 
 PRA  HZ EP   1    130 40.89                             106   -0.09 4  393 210 
 PRA  HN ES   4    131 20.29                             106   -2.38 0  393 210 
 PRA  HZ I         131 25.41         3.4 0.22            106            393 210 
 ORTC HN ES   4    131 22.03                             106   -1.36 0  396 216 
 ORTC HZ I         131 28.73         3.9 0.40            106            396 216 
 SJC  HZ EP   4    130 41.70                             105   -1.29 0  409 327 
 SJC  HN ES   4    131 21.81                             105   -4.42 0  409 327 
 SJC  HZ I         131 26.85         3.2 0.48            105            409 327 
                                                                                
