 2010  830 0546 46.8 L   6.774 -73.303122.0  RSN  4 0.3 1.5LRSN                1
 GAP=147        0.62       5.2    10.9  7.0  0.3915E+02 -0.1426E+02 -0.8760E+01E
 Epicentro: ZAPATOCA - SANTANDER                                               3
 ACTION:UP  10-09-07 10:59 OP:vdl  STATUS:               ID:20100830054646 L   I
 2010-08-30-0545-04S.COL___120                                                 6
 STAT SP IPHASW D HRMM SECON CODA AMPLIT PERI AZIMU VELO SNR AR TRES W  DIS CAZ7
 BAR2 SZ EP   1    547  3.65                                     0.0 7   24 147 
 BAR2 SZ ES   1    547 16.75                             168     0.0 7   24 147 
 BAR2 SZ I         547 17.55        18.2 0.12                            24 147 
 BRR  HZ EP        547  4.48                             154    -0.210   58 309 
 BRR  HE ES   1    547 18.76                             154     0.2 7   58 309 
 BRR  HZ I         547 19.37         9.1 0.10                            58 309 
 RUS  HZ EP   1    547  8.16                             139    -0.1 7  101 166 
 RUS  HN ES   1    547 25.09                             139     0.0 7  101 166 
 RUS  HZ I         547 27.43         3.2 0.26                           101 166 
 OCA  SZ EP   2    547 14.39                             123     0.8 5  162 359 
 OCA  SZ ES   2    547 33.91                                    -0.5 5  162 359 
 OCA  SZ I         547 38.46         4.8 0.24                           162 359 
                                                                                
