 2017  330 0741 54.8 L   6.798 -73.159151.3  RSN  9 0.5 1.4LRSN                1
 GAP=118        0.95       5.1     5.2  6.8 -0.5289E+00  0.5672E+01  0.1608E+01E
 Epicentro: LOS SANTOS - SANTANDER                                             3
 ACTION:UPD 17-05-25 18:47 OP:jn   STATUS:               ID:20170330074154 L   I
 OLDACT:UP  17-03-30 17:05 OP:and  STATUS:               ID:20170330073746     3
 OLDACT:UP  17-03-30 17:04 OP:and  STATUS:               ID:20170330073746     3
 OLDACT:UP  17-03-30 17:04 OP:and  STATUS:               ID:20170330073746     3
 OLDACT:UP  17-03-30 17:04 OP:and  STATUS:               ID:20170330073746     3
 OLDACT:REG 17-03-30 12:39 OP:and  STATUS:               ID:20170330073746     3
 2017-03-30-0738-00M.COL___353                                                 6
 STAT SP IPHASW D HRMM SECON CODA AMPLIT PERI AZIMU VELO AIN AR TRES W  DIS CAZ7
 BAR2 EZ EP   2    742 14.93                             171   -0.15 5 22.9 186 
 BAR2 EZ ES   3    742 29.45                             171   -1.45 2 22.9 186 
 BRR  HZ EP        742 16.80                             154    0.3210 70.0 299 
 BRR  HN ES        742 33.98                             154    0.5910 70.0 299 
 BRR  HZ I         742 38.51         4.2 0.42            151           70.0 299 
 PAM  EZ IP     D  742 17.96                             151    0.2910 78.5  40 
 PAM  EN ES        742 34.95                             151   -0.5610 78.5  40 
 PAM  EZ I         742 36.62         5.3 0.72            154           78.5  40 
 RUS  HZ EP   2    742 19.32                             145    0.24 5  100 175 
 RUS  HN ES        742 38.00                             145   -0.0310  100 175 
 RUS  HZ I         742 38.35         1.3 0.22            149            100 175 
 PTB  HZ EP        742 21.84                             133   -0.24 9  146 259 
 PTB  HN ES   2    742 42.51                             133   -0.85 5  146 259 
 PTB  HZ I         742 46.71         2.8 0.14            133            146 259 
 SPBC HN ES   2    742 46.21                             130    0.12 5  162 219 
 ZAR  HZ EP   9    742 29.23                             123    1.76 0  203 292 
 ZAR  HN ES        742 53.95                             123   -0.77 9  203 292 
 ZAR  HZ I         742 59.67         4.6 0.32            124            203 292 
 URE  HZ EP        742 35.95                             114   -0.04 7  283 292 
 URE  HE ES   3    743  6.65                             114   -1.48 2  283 292 
 URE  HZ I         743  8.75         2.3 0.12            115            283 292 
 PTGC HZ EP   2    742 38.06                             112   -0.88 4  309 158 
                                                                                
