 2010 1230 0615 47.7 L   6.855 -73.267124.0  RSN  4 0.2 1.2LRSN                1
 GAP=190        0.46       3.4    14.7  6.2 -0.1847E+02  0.1371E+02 -0.7538E+01E
 Epicentro: ZAPATOCA - SANTANDER                                               3
 ACTION:UP  11-01-14 15:28 OP:pat  STATUS:               ID:20101230061547 L   I
 2010-12-30-0611-35S.COL___136                                                 6
 STAT SP IPHASW D HRMM SECON CODA AMPLIT PERI AZIMU VELO SNR AR TRES W  DIS CAZ7
 BTL  SZ EP        616  4.33                             176    -0.110    7 359 
 BAR2 SZ EP   1    616  4.87                             165     0.0 7   30 163 
 BAR2 SZ ES   1    616 18.45                             165     0.1 7   30 163 
 BAR2 SZ I         616 19.36         5.8 0.22                            30 163 
 RUS  HZ EP   1    616  9.89                             136    -0.1 7  108 169 
 RUS  HN ES   1    616 27.35                             136     0.0 7  108 169 
 RUS  HZ I         616 28.44         1.9 0.31                           108 169 
 GRA  SZ EP   1    616 11.30                             132     0.3 7  125  24 
 GRA  SZ ES   2    616 28.84                             132    -0.3 5  125  24 
 GRA  SZ I         616 31.23         2.7 0.30                           125  24 
                                                                                
