 2016 1130 0118  9.9 L   6.835 -73.407121.6  RSN  5 0.3 1.4LRSN                1
 GAP=117        0.80       6.5     3.7  5.9 -0.9531E+01  0.6245E+01 -0.6233E+01E
 Epicentro: SAN VICENTE DE CHUCURI - SANTANDER                                 3
 ACTION:UPD 17-10-26 21:13 OP:lp   STATUS:               ID:20161130011809 L   I
 OLDACT:UP  16-11-30 15:18 OP:dani STATUS:               ID:20161130010743     3
 OLDACT:UP  16-11-30 15:18 OP:dani STATUS:               ID:20161130010743     3
 OLDACT:UP  16-11-30 15:17 OP:dani STATUS:               ID:20161130010743     3
 OLDACT:UP  16-11-30 15:17 OP:dani STATUS:               ID:20161130010743     3
 OLDACT:REG 16-11-30 12:27 OP:dani STATUS:               ID:20161130010743     3
 2016-11-30-0108-00M.COL___349                                                 6
 STAT SP IPHASW D HRMM SECON CODA AMPLIT PERI AZIMU VELO AIN AR TRES W  DIS CAZ7
 BAR2 EZ EP        118 27.02                             162    0.0110 36.5 137 
 BAR2 EZ ES        118 40.40                             162    0.0210 36.5 137 
 BAR2 EZ I         118 41.29        19.2 0.20            171           36.5 137 
 BRR  HZ EP        118 27.49                             158    0.4710 45.2 312 
 BRR  HN ES        118 40.66                             158    0.2710 45.2 312 
 BRR  HZ I         118 42.40         5.9 0.12            153           45.2 312 
 PAM  EZ EP        118 31.20                             139    0.2410 96.0  54 
 PAM  EE ES        118 46.93                             139   -0.4810 96.0  54 
 PAM  EZ I         118 48.82         3.7 0.21            142           96.0  54 
 PTB  HZ EP        118 32.45                             132    0.0510  121 254 
 PTB  HN ES        118 49.64                             132   -0.3310  121 254 
 PTB  HZ I         118 54.25         3.8 0.41            132            121 254 
 ZAR  HZ EP        118 37.54                             121   -0.32 9  176 294 
 ZAR  HN ES   4    119  2.51                             121    2.81 0  176 294 
 ZAR  HZ I         119  6.07         3.2 0.15            120            176 294 
                                                                                
