 2017  830 0643 25.8 L   6.801 -73.109140.6  RSN  5 0.3 1.2LRSN                1
 GAP=241        0.83       4.9     6.1  7.4  0.1469E+02  0.4937E+01 -0.2647E+00E
 Epicentro: LOS SANTOS - SANTANDER                                             3
 ACTION:UPD 17-09-04 20:26 OP:rebc STATUS:               ID:20170830064325 L   I
 OLDACT:DUP 17-08-30 15:22 OP:dani STATUS:               ID:20170830063744d    3
 OLDACT:UP  17-08-30 15:22 OP:dani STATUS:               ID:20170830063743     3
 OLDACT:UP  17-08-30 15:22 OP:dani STATUS:               ID:20170830063743     3
 OLDACT:REG 17-08-30 12:46 OP:dani STATUS:               ID:20170830063743     3
 2017-08-30-0638-00M.COL___399                                                 6
 STAT SP IPHASW D HRMM SECON CODA AMPLIT PERI AZIMU VELO AIN AR TRES W  DIS CAZ7
 BAR2 EZ EP        643 44.54                             170   -0.2810 24.5 199 
 BAR2 EZ ES        643 59.19                             170   -0.4710 24.5 199 
 BAR2 EZ I         644  0.86         4.9 0.40            172           24.5 199 
 BRR  HZ EP        643 46.55                             150   -0.0410 74.8 297 
 BRR  HN ES        644  3.32                             150    0.5110 74.8 297 
 BRR  HZ I         644  7.56         2.4 0.09            152           74.8 297 
 RUS  HZ EP        643 49.28                             143    0.2610  100 178 
 RUS  HN ES        644  7.43                             143    0.2810  100 178 
 RUS  HZ I         644  8.75         2.7 0.35            147            100 178 
 SPBC HE ES        644 16.11                             127   -0.16 9  166 220 
 ZAR  HN ES        644 23.47                             121   -0.17 8  208 292 
                                                                                
