 2014  930 0409 59.0 L   6.809 -73.141148.9  RSN  7 0.5 1.3LRSN                1
 GAP=183        1.30       4.4     8.1  8.7  0.2586E+01  0.5961E+01 -0.5848E+01E
 Epicentro: LOS SANTOS - SANTANDER                                             3
 ACTION:UPD 14-10-03 23:09 OP:nd   STATUS:               ID:20140930040959 L   I
 OLDACT:REG 14-09-30 12:25 OP:stll STATUS:               ID:20140930040817     3
 2014-09-30-0408-17M.COL___292                                                 6
 STAT SP IPHASW D HRMM SECON CODA AMPLIT PERI AZIMU VELO AIN AR TRES W  DIS CAZ7
 BAR2 SZ EP        410 19.18                             170    0.1310 24.4 191 
 BAR2 SZ ES        410 34.68                             170    0.0010 24.4 191 
 BAR2 SZ I         410 35.58         4.4 0.20            167           24.4 191 
 BRR  HZ EP        410 21.14                             153    0.6310 71.2 298 
 BRR  HN ES        410 37.69                             153    0.4210 71.2 298 
 BRR  HZ I         410 41.70         5.8 0.48            151           71.2 298 
 RUS  HZ EP        410 23.28                             144    0.1310  102 176 
 RUS  HN ES        410 41.32                             144   -0.6510  102 176 
 RUS  HZ I         410 43.19         1.7 0.22            145            102 176 
 PTB  HZ EP        410 27.05                             132    0.74 9  148 259 
 PTB  HN ES        410 47.33                             132   -0.26 9  148 259 
 PTB  HZ I         410 50.72         2.5 0.16            132            148 259 
 OCA  HN ES        410 50.01                             130    0.30 9  159 353 
 SPBC HZ EP        410 28.20                             129    0.34 9  164 219 
 SPBC HE ES        410 49.86                             129   -0.50 9  164 219 
 SPBC HZ I         410 56.41         2.7 0.20            129            164 219 
 SML  HZ EP        410 34.84                             118   -0.91 8  243 335 
 SML  HE ES        411  3.45                             118   -0.96 8  243 335 
                                                                                
