 2016 1230 0051  9.3 L   6.832 -73.125151.3  RSN 25 0.5 2.8LRSN                1
 GAP=119        1.04       3.7     3.8  4.8  0.9033E+00  0.5758E+01  0.5142E+01E
 Epicentro: LOS SANTOS - SANTANDER                                             3
 ACTION:UPD 17-01-11 20:20 OP:rebc STATUS:               ID:20161230005109 L   I
 OLDACT:UP  16-12-30 14:34 OP:edw  STATUS:               ID:20161230004748     3
 OLDACT:UP  16-12-30 14:32 OP:edw  STATUS:               ID:20161230004748     3
 OLDACT:REG 16-12-30 12:32 OP:edw  STATUS:               ID:20161230004748     3
 2016-12-30-0048-00M.COL___378                                                 6
 STAT SP IPHASW D HRMM SECON CODA AMPLIT PERI AZIMU VELO AIN AR TRES W  DIS CAZ7
 BAR2 EZ IP     D  051 29.66                             169    0.0110 27.3 194 
 BAR2 EZ ES        051 44.91                             169   -0.6310 27.3 194 
 BAR2 EZ I         051 45.94       172.5 0.24            164           27.3 194 
 BRR  HZ EP        051 31.57                             153    0.5310 71.7 295 
 BRR  HN ES        051 48.78                             153    0.7510 71.7 295 
 BRR  HZ I         051 51.12        59.6 0.25            151           71.7 295 
 PAM  EZ EP     C  051 32.47                             153    0.6310 73.2  40 
 PAM  EN ES        051 49.33                             153   -0.1110 73.2  40 
 PAM  EZ I         051 50.51        74.1 0.20            161           73.2  40 
 RUS  HZ IP        051 33.58                             144   -0.2310  104 177 
 RUS  HN ES        051 52.73                             144   -0.2210  104 177 
 RUS  HZ I         051 53.97       101.8 0.40            142            104 177 
 PTB  HZ EP   9    051 36.43                             133   -0.53 0  151 258 
 PTB  HN ES        051 57.12                             132   -0.91 9  151 258 
 PTB  HZ I         051 59.36        79.5 0.40            131            151 258 
 TAM  HZ IP   4 D  051 38.16                             132    0.89 0  154 106 
 TAM  HE ES   4    051 57.94                             132   -1.18 0  154 106 
 TAM  HZ I         051 59.05        43.9 0.40            136            154 106 
 ZAR  HZ EP        051 42.19                             123    0.02 9  205 291 
 ZAR  HE ES        052  7.64                             123   -0.19 9  205 291 
 ZAR  HZ I         052 12.85        64.5 0.15            124            205 291 
 NOR  HZ EP        051 45.50                             119   -0.24 8  239 234 
 NOR  HN ES        052 14.09                             119   -0.11 8  239 234 
 NOR  HZ I         052 21.11        36.4 0.16            119            239 234 
 CHI  HZ EP     D  051 47.79                             118    0.08 8  253 195 
 CHI  HN ES   4    052 17.12                             118   -0.58 0  253 195 
 CHI  HZ I         052 22.33        44.4 0.36            118            253 195 
 ROSC BZ EP   4    051 49.78                             117    1.63 0  257 211 
 ROSC BN ES   4    052 20.54                             117    2.05 0  257 211 
 ROSC BZ I         052 24.39       116.3 0.40            117            257 211 
 URE  HZ EP        051 49.71                             115   -1.00 7  285 291 
 URE  HN ES   4    052 20.21                             115   -2.82 0  285 291 
 URE  HZ I         052 28.82        43.7 0.16            115            285 291 
 LL1C HZ EP   4    051 55.47                             113    2.71 0  303 351 
 LL1C HN ES   4    052 29.69                             113    3.01 0  303 351 
 GUY2CHZ EP        051 53.72                             113    0.14 7  305 234 
 GUY2CHE ES   4    052 32.72                             113    4.58 0  305 234 
 GUY2CHZ I         052 36.09        33.7 0.58                           305 234 
 VIL  EZ EP        051 53.76                             113    0.37 7  307 192 
 VIL  EN ES   4    052 27.35                             113   -0.45 0  307 192 
 VIL  EZ I         052 30.44        58.7 0.40            113            307 192 
 PTGC HZ IP     D  051 52.88                             112   -0.78 7  311 159 
 PTGC HN ES   4    052 26.74                             112   -1.54 0  311 159 
 PTGC HZ I         052 28.97        28.3 0.40            113            311 159 
 LL6C HZ EP   9    051 34.82                             112   -20.0 0  321 357 
 LL6C HZ ES        052 10.54                             114    0.19 7  321 357 
 LL6C HZ I         052 14.63        11.9 0.42            114            321 357 
 ELA  HZ EP   4    051 58.99                             111    2.17 0  333 229 
 ELA  HE ES   4    052 36.74                             111    2.83 0  333 229 
 ELA  HZ I         052 42.38        24.4 0.58            111            333 229 
 CBOC HZ EP        051 57.31                             111    0.52 7  337 252 
 CBOC HN ES   4    052 32.67                             111   -1.20 0  337 252 
 CBOC HZ I         052 39.55         9.5 0.30            111            337 252 
 DBB  EZ EP   2    051 57.78                             110    0.57 3  342 274 
 DBB  EN ES        052 33.64                             110   -0.97 7  342 274 
 DBB  EZ I         052 35.64        17.6 0.16            111            342 274 
 ARGC HZ EP   4    051 59.90                             109    1.06 0  357 340 
 ARGC HN ES   4    052 39.48                             109    1.96 0  357 340 
 ANIL HZ EP   4    052  1.05                             109    1.28 0  362 224 
 ANIL HN ES   4    052 40.80                             109    1.64 0  362 224 
 APAC HZ EP   2    052  4.01                             107    0.23 3  399 287 
 APAC HN ES   4    052 43.74                             107   -2.56 0  399 287 
 APAC HZ I         052 50.46        14.6 0.38            108            399 287 
 ORTC HZ EP        052  4.00                             107    0.12 6  400 216 
 ORTC HN ES        052 47.32                             107    0.85 6  400 216 
 ORTC HZ I         052 51.11        24.2 0.22            107            400 216 
 SJC  HZ EP   2    052  3.90                             107   -0.92 3  408 326 
 SJC  HN ES   4    052 45.19                             107   -2.96 0  408 326 
 SJC  HZ I         052 48.95         6.6 0.20            108            408 326 
 PAL  HZ EP     D  052  5.25                             107    0.19 6  410 239 
 PAL  HN ES        052 48.75                             107    0.17 6  410 239 
 PAL  HZ I         052 55.64         6.0 0.22            107            410 239 
 LCBC HE ES   4    052 52.88                             106    1.88 0  422 302 
 CRJC HZ EP   9    052  9.67                             104   -1.82 0  464   3 
 CRJC HE ES        052 57.94                                   -0.26 5  464   3 
 CRJC HZ I         053  5.07        13.0 0.18            106            464   3 
 YOT  HZ EP        052 12.74                             104   -0.21 5  476 229 
 YOT  HN ES   4    053  4.67                             104    2.04 0  476 229 
 SMAR HZ EP   2    052 15.28                             103    0.34 2  494 346 
 SMAR HN ES   4    053  1.17                             103   -5.00 0  494 346 
 MACC HN ES   4    053  8.24                             102   -4.40 0  524 189 
                                                                                
