 2015  130 0702  3.4 L   6.616 -73.475  8.8  RSN  7 0.5 1.5LRSN                1
 GAP= 69        1.23       2.4     2.3  8.7 -0.4356E+00  0.2766E+01 -0.6762E+01E
 Epicentro: EL CARMEN - SANTANDER                                              3
 ACTION:UPD 15-03-02 15:43 OP:nd   STATUS:               ID:20150130070203 L   I
 OLDACT:UP  15-01-30 17:00 OP:cam  STATUS:               ID:20150130065813     3
 OLDACT:REG 15-01-30 13:15 OP:cam  STATUS:               ID:20150130065813     3
 2015-01-30-0658-13M.COL___268                                                 6
 STAT SP IPHASW D HRMM SECON CODA AMPLIT PERI AZIMU VELO AIN AR TRES W  DIS CAZ7
 BAR2 EZ IP     D  7 2  9.95                             101    0.7610 32.5  95 
 BAR2 EZ ES        7 2 14.25                             101    0.5210 32.5  95 
 BAR2 EZ I         7 2 15.58        17.7 0.24            117           32.5  95 
 BRR  HZ EP        7 2 13.30                              95    0.1810 60.3 334 
 BRR  HN ES        7 2 21.01                              95    0.2810 60.3 334 
 BRR  HZ I         7 2 23.62        14.0 0.10            103           60.3 334 
 RUS  HZ EP        7 2 18.13                              93   -0.1510 91.0 152 
 RUS  HN ES        7 2 29.34                              93   -0.5710 91.0 152 
 RUS  HZ I         7 2 30.59         7.4 0.36             99           91.0 152 
 PTB  HZ EP        7 2 20.44                              93   -0.0410  109 266 
 PTB  HE ES        7 2 33.35                              93   -0.4810  109 266 
 PTB  HZ I         7 2 34.66        28.5 0.30             97            109 266 
 PAM  SZ EP        7 2 21.91                              93   -0.3310  117  47 
 PAM  SN ES        7 2 36.03                              93   -0.9310  117  47 
 PAM  SZ I         7 2 36.41        13.8 0.22             97            117  47 
 SPBC HZ EP        7 2 23.51                              92    0.4410  125 212 
 SPBC HN ES        7 2 38.55                              92    0.1110  125 212 
 SPBC HZ I         7 2 41.54        11.2 0.42             96            125 212 
 OCA  HN ES        7 2 52.64                              56    0.21 9  180   5 
                                                                                
