 2015 1230 0834 38.0 L   6.832 -73.166146.0  RSN  7 0.3 1.5LRSN                1
 GAP=181        0.88       3.0     4.8  6.5  0.1617E+01  0.7087E+01 -0.4814E+01E
 Epicentro: LOS SANTOS - SANTANDER                                             3
 ACTION:UPD 16-02-04 15:09 OP:cam  STATUS:               ID:20151230083438 L   I
 OLDACT:UP  15-12-30 18:35 OP:ak   STATUS:               ID:20151230082750     3
 OLDACT:REG 15-12-30 13:17 OP:ak   STATUS:               ID:20151230082750     3
 2015-12-30-0827-50M.COL___334                                                 6
 STAT SP IPHASW D HRMM SECON CODA AMPLIT PERI AZIMU VELO AIN AR TRES W  DIS CAZ7
 BAR2 EZ EP        834 57.88                             169    0.1910 26.6 184 
 BAR2 EZ ES        835 13.75                             169    0.6810 26.6 184 
 BAR2 EZ I         835 14.45         6.2 0.22            168           26.6 184 
 RUS  HZ EP        835  1.86                             143   -0.1410  104 175 
 RUS  HE ES        835 20.23                             143   -0.5310  104 175 
 PTB  HZ EP        835  4.91                             132    0.10 9  146 257 
 PTB  HN ES        835 25.58                             132   -0.17 9  146 257 
 PTB  HZ I         835 29.10         3.5 0.28            132            146 257 
 OCA  HN ES        835 27.50                             130   -0.26 9  156 354 
 OCA  HZ I         835 31.44         4.5 0.50            132            156 354 
 SPBC HZ EP        835  6.96                             129    0.36 9  165 218 
 SPBC HN ES        835 28.60                             129   -0.35 9  165 218 
 SPBC HZ I         835 36.23         4.5 0.40            130            165 218 
 ZAR  HZ EP        835 10.18                             123    0.11 9  201 291 
 ZAR  HN ES        835 35.41                             123    0.30 9  201 291 
 ZAR  HZ I         835 42.35         4.0 0.19            123            201 291 
 SML  HZ EP        835 14.30                             118    0.15 8  240 335 
 SML  HN ES        835 41.85                             118   -0.52 8  240 335 
                                                                                
