 2017 1130 0223 50.8 L   6.827 -73.117142.8  RSN 11 0.4 1.7LRSN                1
 GAP=139        0.90       2.8     3.7  5.3 -0.2626E+01  0.6334E+01 -0.1162E+00E
 Epicentro: LOS SANTOS - SANTANDER                                             3
 ACTION:UPD 17-12-12 20:02 OP:rebc STATUS:               ID:20171130022350 L   I
 OLDACT:UP  17-11-30 14:53 OP:dhb  STATUS:               ID:20171130021739d    3
 OLDACT:DUP 17-11-30 14:48 OP:dhb  STATUS:               ID:20171130021739d    3
 2017-11-30-0218-00M.COL___486                                                 6
 STAT SP IPHASW D HRMM SECON CODA AMPLIT PERI AZIMU VELO AIN AR TRES W  DIS CAZ7
 BAR2 EZ IP     D  224 10.04                             169   -0.0810 26.9 196 
 BAR2 EZ ES        224 25.21                             169   -0.0110 26.9 196 
 BAR2 EZ I         224 31.27         7.1 0.18            169           26.9 196 
 PAM  EZ IP     C  224 12.90                             152    0.4910 73.1  39 
 PAM  EE ES        224 29.65                             152    0.3610 73.1  39 
 PAM  EZ I         224 31.25         5.6 0.20            156           73.1  39 
 RUS  HZ EP        224 14.13                             142   -0.3010  103 178 
 RUS  HN ES        224 32.60                             142   -0.2910  103 178 
 RUS  HZ I         224 33.61         6.6 0.46            146            103 178 
 PTB  HZ EP        224 16.99                             131   -0.84 9  151 258 
 PTB  HN ES        224 39.04                             131    0.09 9  151 258 
 PTB  HZ I         224 41.58         4.1 0.12            132            151 258 
 OCA  HZ EP        224 18.85                             129    0.24 9  158 352 
 OCA  HE ES        224 40.05                             129   -0.27 9  158 352 
 OCA  HZ I         224 44.61        13.7 0.26            133            158 352 
 SPBC HZ EP        224 19.03                             128   -0.42 9  167 219 
 SPBC HE ES        224 41.74                             128   -0.09 9  167 219 
 SPBC HZ I         224 47.61         9.0 0.30            130            167 219 
 ZAR  HZ EP        224 23.36                             121    0.15 8  206 291 
 ZAR  HE ES        224 48.36                             121   -0.16 8  206 291 
 ZAR  HZ I         224 54.08         8.3 0.32            124            206 291 
 NOR  HZ EP        224 26.84                             117    0.05 8  239 234 
 NOR  HE ES        224 55.68                             117    0.79 8  239 234 
 NOR  HZ I         224 59.18         2.9 0.26            120            239 234 
 GUY2CHZ EP   9    224 36.58                             111    1.86 0  306 235 
 GUY2CHE ES        225 10.84                             111   -0.03 7  306 235 
 GUY2CHZ I         225 18.33         2.4 0.56                           306 235 
 PRA  HZ EP        224 44.95                             106    0.28 6  396 210 
 PRA  HE ES        225 27.57                             106    0.85 6  396 210 
 PRA  HZ I         225 30.82         1.7 0.28            108            396 210 
 SJC  HZ EP   9    224 43.90                             105   -2.24 0  408 326 
 SJC  HN ES        225 26.93                             105   -0.17 6  408 326 
 SJC  HZ I         225 28.70         1.2 0.48            108            408 326 
                                                                                
