 2016 1030 0550 35.4 L   6.791 -73.150146.6  RSN 15 0.5 2.5LRSN                1
 GAP=100        0.93       3.8     3.3  5.5 -0.3379E+01  0.2259E+01  0.5954E+01E
 Epicentro: LOS SANTOS - SANTANDER                                             3
 ACTION:UPD 16-11-09 19:24 OP:rebc STATUS:               ID:20161030055035 L   I
 OLDACT:REG 16-10-30 14:35 OP:cog  STATUS:               ID:20161030054749     3
 2016-10-30-0548-00M.COL___312                                                 6
 STAT SP IPHASW D HRMM SECON CODA AMPLIT PERI AZIMU VELO AIN AR TRES W  DIS CAZ7
 BRR  HZ IP     C  550 56.78                             153    0.0910 71.2 299 
 BRR  HN ES        551 13.95                             153    0.6910 71.2 299 
 BRR  HZ I         551 17.96        45.9 0.18            151           71.2 299 
 PAM  EZ EP        550 57.82                             151    0.0010 78.4  39 
 PAM  EE ES        551 15.13                             151   -0.1410 78.4  39 
 PAM  EZ I         551 17.14        94.0 0.48            157           78.4  39 
 RUS  HZ EP        550 59.09                             144   -0.1310 99.7 176 
 RUS  HE ES        551 17.71                             144   -0.0510 99.7 176 
 RUS  HZ I         551 18.90        60.8 0.34            144           99.7 176 
 PTB  HZ EP        551  1.50                             132   -0.92 9  147 259 
 PTB  HN ES        551 22.76                             132   -0.70 9  147 259 
 PTB  HZ I         551 27.78        34.6 0.24            132            147 259 
 TAM  HZ IP     C  551  3.36                             131    0.14 9  155 105 
 SPBC HZ EP        551  3.83                             129   -0.08 9  162 219 
 SPBC HE ES        551 25.76                             129   -0.35 9  162 219 
 SPBC HZ I         551 30.80        76.9 0.10            129            162 219 
 NOR  HZ EP        551 11.09                             119   -0.03 8  234 235 
 NOR  HE ES        551 39.55                             119    0.60 8  234 235 
 NOR  HZ I         551 46.83        26.1 0.18            119            234 235 
 CHI  HZ IP     C  551 13.25                             117    0.17 8  248 195 
 CHI  HN ES        551 42.77                             117    0.34 8  248 195 
 CHI  HZ I         551 48.07        16.7 0.28            118            248 195 
 HEL  HZ EP   2    551 15.33                             115   -0.29 4  271 256 
 HEL  HE ES   2    551 46.10                             115   -0.86 4  271 256 
 HEL  HZ I         551 53.77        13.0 0.44            116            271 256 
 GUY2CHZ EP   4    551 20.43                             112    1.45 0  300 235 
 GUY2CHE ES   4    551 55.05                             112    2.11 0  300 235 
 GUY2CHZ I         552  0.96        18.5 0.32                           300 235 
 ELA  HZ EP   4    551 25.35                             110    3.13 0  328 230 
 ELA  HE ES   4    552  1.75                             110    3.05 0  328 230 
 ELA  HZ I         552 14.44        11.5 0.50            111            328 230 
 CBOC HZ EP        551 23.11                             110    0.81 7  333 252 
 CBOC HN ES        551 59.43                             110    0.58 7  333 252 
 CBOC HZ I         552  3.23         4.9 0.24            111            333 252 
 PRA  HZ EP   3    551 26.67                             107   -2.20 1  391 210 
 PRA  HE ES   3    552  9.71                             107   -0.83 1  391 210 
 PRA  HZ I         552 15.05        16.7 0.58            108            391 210 
 ORTC HZ EP        551 29.29                             106    0.02 6  394 216 
 ORTC HN ES   3    552 12.16                             106    0.91 1  394 216 
 ORTC HZ I         552 18.86        11.7 0.38            108            394 216 
 PAL  HZ EP        551 30.76                             106    0.24 6  405 239 
 PAL  HN ES        552 13.45                             106   -0.03 6  405 239 
 PAL  HZ I         552 16.56         6.9 0.22            107            405 239 
                                                                                
