 2012  830 0719 34.7 L   6.693 -73.195142.9  RSN  7 0.4 2.3LRSN                1
 GAP=154        0.91       5.5     5.2  9.1 -0.9367E+00  0.2413E+01 -0.1280E+02E
 Epicentro: VILLANUEVA - SANTANDER                                             3
 ACTION:UPD 12-09-10 11:59 OP:ep   STATUS:               ID:20120830071934 L   I
 2012-08-30-0717-36M.COL___202                                                 6
 STAT SP IPHASW D HRMM SECON CODA AMPLIT PERI AZIMU VELO AIN AR TRES W  DIS CAZ7
 BAR2 SZ EP        719 53.61                             175   -0.2310 11.2 173 
 BAR2 SZ I         719 53.93        50.3 0.34                          11.2 173 
 BAR2 SZ ES   3    720  8.55                             175   -0.18 2 11.2 173 
 GIR2 SZ EP        719 53.71                             162   -0.7210 42.7   0 
 GIR2 SZ ES   3    720  8.97                             162   -0.82 2 42.7   0 
 BRR  HZ IP        719 55.53                             151   -0.1610 73.2 309 
 BRR  HZ I         719 55.79        46.6 0.10                          73.2 309 
 BRR  HN ES   1    720 12.50                             151    0.46 7 73.2 309 
 RUS  HZ EP   2    719 57.50                             147    0.08 5 89.4 172 
 RUS  HN ES   1    720 15.67                             147    0.56 7 89.4 172 
 GRA  SZ EP        720  1.60                             133    0.76 9  139  18 
 GRA  SZ ES   1    720 21.07                             133   -0.13 7  139  18 
 GRA  SZ I         720 22.08        18.4 0.32                           139  18 
 PTB  HZ EP   2    720  0.50                             133   -0.32 5  141 263 
 PTB  HN ES   1    720 20.94                             133   -0.22 7  141 263 
 ZAR  HZ EP        720  7.00                             122    0.02 9  204 296 
 ZAR  HN ES   1    720 32.45                             122    0.32 6  204 296 
 ZAR  HZ I         720 37.79        12.7 0.54                           204 296 
                                                                                
