 2011 1230 0546 40.0 L   6.797 -73.123142.6  RSN  9 0.4 2.1LRSN                1
 GAP=140        0.69       3.6     4.8  5.5  0.3114E+01  0.1048E+02  0.5321E+01E
 Epicentro: LOS SANTOS - SANTANDER                                             3
 ACTION:UPD 12-07-13 16:19 OP:ep   STATUS:               ID:20111230054640 L   I
 2011-12-30-0540-00M.COL___186                                                 6
 STAT SP IPHASW D HRMM SECON CODA AMPLIT PERI AZIMU VELO AIN AR TRES W  DIS CAZ7
 BAR2 SZ EP   1    546 59.05                             170   -0.19 7 23.6 196 
 BAR2 SZ ES   1    547 13.89                             170   -0.37 7 23.6 196 
 BAR2 SZ I         547 16.63        26.1 0.40                          23.6 196 
 BRR  HZ IP        547  0.79                             151   -0.1410 73.5 298 
 BRR  HN ES   1    547 17.82                             151    0.56 7 73.5 298 
 BRR  HZ I         547 18.95        20.1 0.13                          73.5 298 
 PAM  SZ EP   1    547  1.95                             151    0.16 7 76.1  38 
 PAM  SZ I         547  2.16        28.6 0.16                          76.1  38 
 PAM  SN ES   1    547 18.93                             151    0.14 7 76.1  38 
 RUS  HZ EP   1    547  3.03                             143   -0.36 7  100 177 
 RUS  HE ES   1    547 21.85                             143    0.20 7  100 177 
 RUS  HZ I         547 22.86        19.4 0.23                           100 177 
 ZAR  HZ EP   1    547 12.62                             121    0.14 6  206 292 
 ZAR  HN ES   1    547 37.10                             121   -0.72 6  206 292 
 ZAR  HZ I         547 42.91        14.8 0.35                           206 292 
 CHI  HZ EP   1    547 17.35                             116   -0.20 6  249 196 
 CHI  HN ES   1    547 47.07                             116    0.23 6  249 196 
 CHI  HZ I         547 53.02         6.4 0.32                           249 196 
 HEL  HZ EP   1    547 21.15                             114    0.85 6  274 256 
 HEL  HZ I         547 59.47         6.0 0.48                           274 256 
 RREF HZ EP   1    547 26.46                             110    0.27 5  323 230 
 RREF HZ I         548 11.07         6.5 0.34                           323 230 
 PRA  HZ EP   1    547 33.23                             106   -0.28 4  393 210 
                                                                                
