 2013  630 0610  9.2 L   6.832 -73.240140.0  RSN  8 0.5 1.6LRSN                1
 GAP=120        1.31       5.0     6.9 10.9 -0.4260E+01  0.2381E+02 -0.8872E+01E
 Epicentro: ZAPATOCA - SANTANDER                                               3
 ACTION:UPD 14-01-08 09:58 OP:ep   STATUS:               ID:20130630061009 L   I
 OLDACT:REG 13-06-30 07:43 OP:jn   STATUS:               ID:20130630060959     3
 2013-06-30-0609-59M.COL___267                                                 6
 STAT SP IPHASW D HRMM SECON CODA AMPLIT PERI AZIMU VELO AIN AR TRES W  DIS CAZ7
 BAR2 SZ EP        610 28.24                             169    0.0310 27.2 167 
 BAR2 SZ ES        610 43.70                             169    0.6510 27.2 167 
 BAR2 SZ I         610 45.81         6.4 0.48            170           27.2 167 
 GIR2 SZ EP        610 28.60                             168    0.5210 27.8  11 
 BRR  HZ EP        610 29.97                             155    0.8510 60.4 300 
 BRR  HN ES   4    610 47.10                             155    2.43 0 60.4 300 
 PAM  SZ EP        610 30.97                             148   -0.1010 81.9  47 
 PAM  SN ES        610 47.57                             148   -0.5810 81.9  47 
 PAM  SZ I         610 50.01         9.5 0.54            153           81.9  47 
 RUS  HZ EP        610 32.52                             141   -0.2010  105 171 
 RUS  HN ES        610 50.49                             141   -0.5910  105 171 
 RUS  HZ I         610 52.60         6.4 0.30            145            105 171 
 PTB  HZ EP        610 34.89                             133    0.06 9  138 257 
 PTB  HN ES        610 54.33                             133   -0.50 9  138 257 
 PTB  HZ I         611  0.25         4.8 0.50            134            138 257 
 OCA  HN ES        610 58.27                             129    0.23 9  156 357 
 SML  HN ES   1    611 11.29                             117   -1.09 6  236 337 
                                                                                
