 2014 1130 0950 11.9 L   6.810 -73.160140.7  RSN 11 0.5 2.1LRSN                1
 GAP=134        1.15       3.6     4.4  6.4 -0.3288E+01  0.7433E+01  0.2954E+01E
 Epicentro: LOS SANTOS - SANTANDER                                             3
 ACTION:UPD 14-12-19 15:49 OP:nd   STATUS:               ID:20141130095011 L   I
 OLDACT:REG 14-11-30 13:35 OP:mh   STATUS:               ID:20141130094745     3
 2014-11-30-0947-45M.COL___300                                                 6
 STAT SP IPHASW D HRMM SECON CODA AMPLIT PERI AZIMU VELO AIN AR TRES W  DIS CAZ7
 BAR2 SZ EP        950 31.22                             170    0.2510 24.2 186 
 BAR2 SZ ES        950 45.11                             170   -0.7110 24.2 186 
 BAR2 SZ I         950 47.63        32.7 0.12            168           24.2 186 
 BRR  HZ EP        950 32.63                             152    0.2110 69.2 298 
 BRR  HZ I         950 33.11        35.8 0.30            151           69.2 298 
 BRR  HN ES        950 48.92                             152    0.5210 69.2 298 
 PAM  SZ EP        950 34.22                             150    0.6010 77.6  41 
 PAM  SN ES        950 51.00                             150    0.4610 77.6  41 
 PAM  SZ I         950 53.27        12.7 0.50            154           77.6  41 
 RUS  HZ EP        950 34.97                             142   -0.3110  102 175 
 RUS  HN ES   1    950 53.92                             142    0.43 7  102 175 
 RUS  HZ I         950 55.67        13.9 0.32            144            102 175 
 PTB  HZ EP        950 38.12                             131   -0.24 9  146 258 
 PTB  HN ES   1    950 58.46                             131   -0.52 7  146 258 
 PTB  HZ I         951  1.99        18.9 0.25            131            146 258 
 OCA  HZ EP        950 38.61                             129   -1.11 9  159 354 
 OCA  HN ES        951  0.84                             129   -0.57 9  159 354 
 OCA  HZ I         951  5.68        19.7 0.16            131            159 354 
 SPBC HZ EP        950 40.35                             128    0.32 9  163 218 
 SPBC HN ES        951  1.57                             128   -0.38 9  163 218 
 SPBC HZ I         951  7.45        16.1 0.59            129            163 218 
 ZAR  HZ EP   1    950 44.68                             121    0.83 6  202 292 
 ZAR  HN ES        951  8.85                             121    0.11 9  202 292 
 ZAR  HZ I         951 17.11        14.9 0.30            122            202 292 
 NOR  HZ EP        950 47.39                             117    0.10 8  234 234 
 NOR  HN ES        951 15.22                             117    0.34 8  234 234 
 NOR  HZ I         951 20.88        11.6 0.16            118            234 234 
 CHI  HZ EP        950 49.12                             116   -0.30 8  249 195 
 CHI  HN ES   2    951 18.32                             116   -0.35 4  249 195 
 CHI  HZ I         951 24.84         3.2 0.24            118            249 195 
 HEL  HZ EP        950 52.09                             114    0.35 8  271 255 
 HEL  HN ES        951 22.78                             114   -0.02 8  271 255 
 HEL  HZ I         951 29.67         7.1 0.34            115            271 255 
 URE  HZ EP   4    950 54.54                             113    2.00 0  282 292 
 URE  HN ES   4    951 22.18                             113   -2.03 0  282 292 
                                                                                
