 2010  530 0415  9.3 L   6.778 -72.847147.6  RSN  4 0.5 1.7LRSN                1
 GAP=237        0.78       9.0    19.7 12.9 -0.1004E+03  0.3750E+02 -0.2120E+02E
 Epicentro: SAN ANDRES - SANTANDER                                             3
 ACTION:UP  10-08-24 10:07 OP:vdl  STATUS:               ID:20100530041509 L   I
 2010-05-30-0414-01S.COL___109                                                 6
 STAT SP IPHASW D HRMM SECON CODA AMPLIT PERI AZIMU VELO SNR AR TRES W  DIS CAZ7
 BAR2 SZ EP   1    415 29.40                             163    -0.3 7   43 241 
 BAR2 SZ ES   2    415 45.84                             163     0.3 5   43 241 
 GUE  SZ EP   2    415 35.06                             140     0.9 5  117 356 
 OCA  SZ EP   1    415 38.17                             128    -0.5 7  170 342 
 OCA  SZ ES   2    416  1.80                             128     0.2 5  170 342 
 OCA  SZ I         416  5.50         4.5 0.47                           170 342 
 RREF BZ EP   2    415 59.19                             109     0.9 3  346 233 
 RREF BE ES   2    416 36.29                             109    -0.2 3  346 233 
 RREF BZ I         416 41.35         1.8 0.40                           346 233 
                                                                                
