 2013  830 0944  5.8 L   6.813 -73.156144.2  RSN 14 0.4 2.2LRSN                1
 GAP=135        0.82       2.3     3.1  4.0 -0.4138E+00  0.4596E+01  0.1395E+01E
 Epicentro: LOS SANTOS - SANTANDER                                             3
 ACTION:UPD 14-01-14 09:08 OP:ep   STATUS:               ID:20130830094405 L   I
 OLDACT:REG 13-08-30 08:34 OP:jn   STATUS:               ID:20130830093850     3
 2013-08-30-0938-50M.COL___211                                                 6
 STAT SP IPHASW D HRMM SECON CODA AMPLIT PERI AZIMU VELO AIN AR TRES W  DIS CAZ7
 BAR2 SZ EP        944 25.48                             170    0.2010 24.5 187 
 BAR2 SZ ES        944 40.24                             170   -0.2210 24.5 187 
 BAR2 SZ I         944 41.63        33.7 0.22            168           24.5 187 
 BRR  HZ EP        944 27.30                             153    0.6110 69.5 298 
 BRR  HN ES        944 43.51                             153    0.5210 69.5 298 
 BRR  HZ I         944 48.35        22.5 0.14            151           69.5 298 
 PAM  SE ES        944 45.00                             151   -0.0210 77.1  41 
 RUS  HZ EP        944 29.53                             143    0.0210  102 175 
 RUS  HN ES        944 47.92                             143   -0.0910  102 175 
 RUS  HZ I         944 49.27        20.7 0.30            144            102 175 
 PTB  HZ EP        944 32.00                             132   -0.57 9  147 258 
 PTB  HN ES        944 53.15                             132   -0.29 9  147 258 
 PTB  HZ I         944 56.04        15.3 0.14            131            147 258 
 SPBC HZ EP        944 34.33                             129    0.11 9  164 218 
 SPBC HN ES        944 56.10                             129   -0.28 9  164 218 
 SPBC HZ I         944 59.02        29.7 0.36            129            164 218 
 ZAR  HZ EP        944 37.93                             122   -0.05 9  202 292 
 ZAR  HN ES        945  2.79                             122   -0.29 9  202 292 
 ZAR  HZ I         945  4.97         9.5 0.24            123            202 292 
 NOR  HZ EP        944 41.10                             118   -0.33 8  235 234 
 NOR  HE ES        945  9.41                             118    0.19 8  235 234 
 NOR  HZ I         945 15.07        15.0 0.14            119            235 234 
 SML  HZ EP        944 41.91                             117   -0.24 8  242 335 
 SML  HN ES        945 10.11                             117   -0.40 8  242 335 
 SML  HZ I         945 13.75        30.7 0.10            119            242 335 
 CHI  HZ EP        944 43.68                             117    0.15 8  250 195 
 CHI  HN ES   1    945 12.81                             117   -0.15 6  250 195 
 CHI  HZ I         945 16.42         8.3 0.50            118            250 195 
 ROSC BZ EP   4    944 44.63                             116    0.72 0  253 211 
 ROSC BN ES   4    945 14.94                             116    1.31 0  253 211 
 HEL  HZ EP        944 46.62                             114    0.77 8  271 255 
 HEL  HE ES        945 17.22                             114    0.13 8  271 255 
 HEL  HZ I         945 24.43         8.0 0.48            115            271 255 
 URE  HZ EP   4    944 44.89                             113   -1.73 0  282 292 
 URE  HN ES   4    945 16.90                             113   -1.56 0  282 292 
 GUY2CHZ EP        944 49.95                             112    0.62 7  301 234 
 GUY2CHN ES        945 23.65                             112    0.38 7  301 234 
 GUY2CHZ I         945 31.55         7.8 0.30                           301 234 
 RREF HZ EP        944 51.22                             111   -0.66 7  322 229 
 RREF HN ES        945 27.85                             111    0.02 7  322 229 
 RREF HZ I         945 37.66         9.7 0.40            111            322 229 
 PRA  HZ EP        944 59.26                             106   -0.09 6  393 209 
 PRA  HN ES        945 40.80                             106   -0.31 6  393 209 
 PRA  HZ I         945 46.39         4.3 0.26            107            393 209 
                                                                                
