 2013  930 0409 22.9 L   6.821 -73.161146.8  RSN  8 0.5 2.1LRSN                1
 GAP=182        1.25       4.6     7.5  8.6 -0.1940E+01  0.1448E+01 -0.3238E+01E
 Epicentro: LOS SANTOS - SANTANDER                                             3
 ACTION:UPD 13-10-22 09:26 OP:ep   STATUS:               ID:20130930040922 L   I
 OLDACT:REG 13-09-30 08:10 OP:nd   STATUS:               ID:20130930040837     3
 2013-09-30-0408-37M.COL___237                                                 6
 STAT SP IPHASW D HRMM SECON CODA AMPLIT PERI AZIMU VELO AIN AR TRES W  DIS CAZ7
 BAR2 SZ EP        4 9 42.96                             170    0.2610 25.4 185 
 BAR2 SZ ES        4 9 57.93                             170   -0.2110 25.4 185 
 BAR2 SZ I         4 9 59.12        18.6 0.22            168           25.4 185 
 BRR  HZ IP     D  4 9 44.77                             154    0.7510 68.6 297 
 BRR  HN ES        410  1.38                             154    0.8910 68.6 297 
 BRR  HZ I         410  2.70       402.5 0.12            149           68.6 297 
 RUS  HZ EP        4 9 47.14                             143    0.2110  103 175 
 RUS  HN ES        410  5.29                             143   -0.3910  103 175 
 RUS  HZ I         410  6.82        13.4 0.28            143            103 175 
 PTB  HZ EP        4 9 49.48                             132   -0.37 9  147 258 
 PTB  HN ES        410 10.34                             132   -0.53 9  147 258 
 PTB  HZ I         410 12.37        10.5 0.30            129            147 258 
 OCA  HZ EP        4 9 50.70                             130   -0.36 9  158 354 
 OCA  HN ES        410 12.39                             130   -0.63 9  158 354 
 OCA  HZ I         410 17.51         9.0 0.42            129            158 354 
 SPBC HZ EP        4 9 51.89                             129    0.34 9  164 218 
 SPBC HN ES        410 13.68                             129   -0.22 9  164 218 
 SPBC HZ I         410 16.36        16.5 0.28            127            164 218 
 ZAR  HZ EP   4    4 9 58.54                             123    3.38 0  202 292 
 ZAR  HN ES   4    410 20.46                             123    0.13 0  202 292 
 ZAR  HZ I         410 25.81         6.2 0.12            121            202 292 
 RREF HZ EP   4    410 10.88                             111    1.76 0  322 229 
 RREF HN ES   4    410 48.31                             111    3.15 0  322 229 
 RREF HZ I         410 55.15         5.0 0.46            110            322 229 
                                                                                
