 2016  930 0157 31.6 L   6.728 -73.118147.1  RSN  7 0.2 1.5LRSN                1
 GAP=143        0.85       3.5     4.0  5.2 -0.4447E+00  0.2803E+01 -0.2192E+00E
 Epicentro: JORDAN - SANTANDER                                                 3
 ACTION:UPD 17-08-17 21:17 OP:lp   STATUS:               ID:20160930015731 L   I
 OLDACT:UP  16-09-30 14:43 OP:edw  STATUS:               ID:20160930014740d    3
 OLDACT:DUP 16-09-30 14:37 OP:edw  STATUS:               ID:20160930014740d    3
 OLDACT:UP  16-09-30 14:34 OP:edw  STATUS:               ID:20160930014739     3
 OLDACT:REG 16-09-30 11:50 OP:edw  STATUS:               ID:20160930014739     3
 2016-09-30-0148-00M.COL___375                                                 6
 STAT SP IPHASW D HRMM SECON CODA AMPLIT PERI AZIMU VELO AIN AR TRES W  DIS CAZ7
 BAR2 EZ EP        157 51.24                             173   -0.0510 16.7 205 
 BAR2 EZ ES        158  6.75                             173    0.1210 16.7 205 
 BAR2 EZ I         158  7.12         7.6 0.34            173           16.7 205 
 BRR  HZ EP        157 53.23                             150   -0.0610 77.9 303 
 BRR  HN ES        158 10.29                             150    0.0910 77.9 303 
 PAM  EZ EP        157 54.10                             149   -0.1410 81.9  34 
 PAM  EN ES        158 11.57                             149   -0.3210 81.9  34 
 PAM  EZ I         158 13.66         6.0 0.44            150           81.9  34 
 RUS  HZ EP        157 54.88                             146   -0.0510 92.5 178 
 RUS  HN ES        158 13.45                             146    0.3310 92.5 178 
 RUS  HZ I         158 14.78         2.6 0.32            146           92.5 178 
 PTB  HZ EP   9    157 58.25                             132   -0.59 0  149 262 
 PTB  HN ES        158 18.62                             132   -0.87 9  149 262 
 PTB  HZ I         158 19.85         3.2 0.12            132            149 262 
 SPBC HZ EP        157 59.84                             130    0.01 9  159 222 
 SPBC HN ES        158 21.41                             130   -0.43 9  159 222 
 SPBC HZ I         158 23.99         3.1 0.10            130            159 222 
 ZAR  HZ EP        158  5.26                             121    0.51 8  210 294 
 ZAR  HE ES        158 30.70                             121    0.10 8  210 294 
 ZAR  HZ I         158 31.93         4.6 0.44            122            210 294 
                                                                                
