 2015  730 0823 39.8 L   6.820 -73.110142.9  RSN 16 0.6 2.3LRSN                1
 GAP=122        1.32       3.6     5.2  6.4 -0.2507E+01  0.7284E+01  0.2590E+01E
 Epicentro: LOS SANTOS - SANTANDER                                             3
 ACTION:UPD 15-09-08 21:51 OP:cam  STATUS:               ID:20150730082339 L   I
 OLDACT:UP  15-08-01 06:28 OP:AK   STATUS:               ID:20150730082339 L   3
 OLDACT:DUP 15-07-30 17:44 OP:stll STATUS:               ID:20150730081752d    3
 2015-07-30-0817-50M.COL___307                                                 6
 STAT SP IPHASW D HRMM SECON CODA AMPLIT PERI AZIMU VELO AIN AR TRES W  DIS CAZ7
 BAR2 EZ EP     D  823 59.40                             169    0.2310 26.5 198 
 BAR2 EZ ES        824 14.12                             169   -0.1510 26.5 198 
 BAR2 EZ I         824 15.87        53.1 0.18            166           26.5 198 
 BRR  HZ IP     C  824  1.22                             151    0.4210 73.7 296 
 BRR  HN ES        824 17.82                             151    0.6510 73.7 296 
 BRR  HZ I         824 21.95        38.3 0.44            145           73.7 296 
 RUS  HZ EP     D  824  3.39                             143   -0.0510  103 178 
 RUS  HN ES        824 21.80                             143   -0.0610  103 178 
 RUS  HZ I         824 23.46        16.0 0.26            142            103 178 
 OCA  HZ EP        824  7.37                             129   -0.38 9  159 352 
 OCA  HN ES        824 29.88                             129    0.35 9  159 352 
 OCA  HZ I         824 37.53        42.4 0.34            127            159 352 
 ZAR  HZ EP        824 12.25                             121   -0.12 8  207 291 
 ZAR  HE ES        824 36.21                             121   -1.55 8  207 291 
 ZAR  HZ I         824 42.79        16.3 0.32            118            207 291 
 NOR  HZ EP        824 16.10                             117    0.23 8  239 235 
 NOR  HN ES        824 42.93                             117   -1.06 8  239 235 
 NOR  HZ I         824 50.24        14.3 0.18            115            239 235 
 CHI  HZ EP        824 17.08                             116   -0.63 8  252 196 
 CHI  HN ES        824 46.49                             116   -0.78 8  252 196 
 CHI  HZ I         824 52.10        13.1 0.50            115            252 196 
 ROSC BZ EP        824 19.04                             116    0.82 8  257 212 
 ROSC BN ES        824 49.22                             116    1.05 8  257 212 
 ROSC BZ I         824 53.41        16.0 0.30            114            257 212 
 HEL  HZ EP        824 20.67                             114    0.30 7  276 256 
 HEL  HE ES        824 51.93                             114   -0.07 7  276 256 
 HEL  HZ I         824 59.49         8.6 0.30            112            276 256 
 URE  HZ EP        824 21.71                             113    0.64 7  287 291 
 SOCV BZ EP        824 21.31                             112   -0.92 7  297  57 
 GUY2CHZ EP        824 24.66                             111    0.85 7  306 235 
 GUY2CHN ES        824 58.24                             111    0.12 7  306 235 
 GUY2CHZ I         825  7.43         8.1 0.58                           306 235 
 CBOC HZ EP        824 27.44                             109    0.31 7  338 252 
 CBOC HZ I         825  5.78         2.3 0.28            107            338 252 
 TOL  SZ EP        824 29.02                             108    0.55 6  348 225 
 TOL  SN ES        825  6.16                             108   -0.25 6  348 225 
 TOL  SZ I         825 13.51         8.1 0.36            107            348 225 
 ORTC HZ EP        824 33.50                             106   -0.63 6  400 216 
 ORTC HN ES        825 16.32                             106   -0.17 6  400 216 
 ORTC HZ I         825 23.17         6.1 0.52            105            400 216 
 PAL  HZ EP        824 35.33                             105   -0.09 6  410 239 
                                                                                
