 2017 1030 0911  9.4 L   6.916 -73.163146.4  RSN 16 0.6 2.2LRSN                1
 GAP=105        1.44       4.3     4.6  6.9  0.2129E+01  0.8380E+01  0.4597E+01E
 Epicentro: BETULIA - SANTANDER                                                3
 ACTION:UPD 17-11-07 19:39 OP:rebc STATUS:               ID:20171030091109 L   I
 OLDACT:UP  17-10-31 18:57 OP:nlst STATUS:               ID:20171030091109 L   3
 OLDACT:REG 17-10-30 12:54 OP:dhb  STATUS:               ID:20171030090735     3
 2017-10-30-0908-00M.COL___414                                                 6
 STAT SP IPHASW D HRMM SECON CODA AMPLIT PERI AZIMU VELO AIN AR TRES W  DIS CAZ7
 BAR2 EZ IP     D  911 29.30                             166   -0.1010 35.9 183 
 BAR2 EZ ES        911 44.32                             166   -0.7010 35.9 183 
 BAR2 EZ I         911 45.40        15.1 0.22            164           35.9 183 
 BRR  HZ IP     D  911 30.90                             155    0.6810 64.2 289 
 BRR  HN ES        911 46.99                             155    0.5210 64.2 289 
 BRR  HZ I         911 52.22        31.3 0.16            152           64.2 289 
 PAM  EZ IP     D  911 31.92                             153    0.7110 69.4  48 
 PAM  EE ES        911 48.50                             153    0.2710 69.4  48 
 PAM  EZ I         911 50.82        28.2 0.42            159           69.4  48 
 RUS  HZ EP        911 33.74                             140   -0.4310  114 176 
 RUS  HN ES        911 53.09                             140   -0.4010  114 176 
 RUS  HZ I         911 54.15        12.6 0.22            141            114 176 
 PTB  HZ EP        911 35.97                             132   -0.53 9  149 254 
 PTB  HN ES        911 57.46                             132   -0.20 9  149 254 
 PTB  HZ I         912  0.64        13.1 0.28            131            149 254 
 SPBC HZ EP        911 38.61                             128   -0.18 9  172 216 
 SPBC HE ES        912  2.21                             128    0.48 9  172 216 
 SPBC HZ I         912  8.84        22.4 0.26            127            172 216 
 YPLC HZ EP        911 39.64                             125   -0.80 9  189 153 
 YPLC HE ES        912  4.53                             125   -0.13 9  189 153 
 YPLC HZ I         912  7.85         7.5 0.28            127            189 153 
 ZAR  HZ EP        911 41.90                             123    0.68 9  198 289 
 ZAR  HN ES        912  6.41                             123    0.36 9  198 289 
 ZAR  HZ I         912 13.15        25.4 0.46            123            198 289 
 NOR  HZ EP        911 45.68                             118   -0.13 8  241 232 
 NOR  HE ES        912 13.76                             118   -0.46 8  241 232 
 NOR  HZ I         912 19.59        10.4 0.14            118            241 232 
 ROSC BZ EP        911 50.34                             116    1.69 8  263 209 
 ROSC BN ES        912 19.77                             116    0.50 8  263 209 
 ROSC BZ I         912 28.32        11.2 0.35            116            263 209 
 URE  HZ EP        911 49.00                             114   -0.77 7  277 290 
 URE  HE ES        912 19.76                             114   -1.51 7  277 290 
 URE  HZ I         912 31.00        11.7 0.30            114            277 290 
 GUY2CHZ EP   9    911 54.78                             112    1.08 0  307 233 
 GUY2CHE ES        912 29.68                                    0.33 7  307 233 
 GUY2CHZ I         912 34.06         7.1 0.52                           307 233 
 PTGC HE ES   4    912 26.33                             111   -3.74 0  321 159 
 SJC  HZ EP        912  3.13                             106   -0.45 6  397 326 
 SJC  HE ES   4    912 43.89                             106   -1.96 0  397 326 
 SJC  HZ I         912 51.36         2.1 0.46            107            397 326 
 PRA  HZ EP        912  3.86                             106   -0.27 6  402 208 
 PRA  HE ES        912 46.58                             106   -0.25 6  402 208 
 PRA  HZ I         912 52.91         5.2 0.28            107            402 208 
 ORTC HZ EP        912  4.64                             106    0.22 6  405 215 
 ORTC HE ES        912 48.48                             106    1.14 6  405 215 
 ORTC HZ I         912 58.28         5.8 0.38            107            405 215 
 CAP2 HE ES   4    913  4.54                             102   -2.96 0  501 293 
 CAP2 HZ I         913  8.23         2.1 0.26            103            501 293 
                                                                                
