 2017 1030 0436 49.4 L   6.482 -73.820 25.9  RSN  5 0.2 0.7LRSN                1
 GAP= 95        0.62       1.8     1.5  5.5 -0.7808E+00 -0.3787E+01  0.5612E+01E
 Epicentro: CIMITARRA - SANTANDER                                              3
 ACTION:UPD 17-11-07 19:39 OP:rebc STATUS:               ID:20171030043649 L   I
 OLDACT:REG 17-10-30 12:34 OP:dhb  STATUS:               ID:20171030042738     3
 2017-10-30-0428-00M.COL___432                                                 6
 STAT SP IPHASW D HRMM SECON CODA AMPLIT PERI AZIMU VELO AIN AR TRES W  DIS CAZ7
 BRR  HZ EP        437  1.20                              96    0.0810 70.1  10 
 BRR  HN ES        437 10.52                              96    0.2710 70.1  10 
 BRR  HZ I         437 12.53         2.5 0.14             47           70.1  10 
 PTB  HZ EP        437  1.02                              95   -0.1910 70.7 275 
 PTB  HE ES        437 10.24                              95   -0.1910 70.7 275 
 PTB  HZ I         437 10.84         2.5 0.34             47           70.7 275 
 BAR2 EZ EP        437  1.68                              96    0.1010 71.5  80 
 BAR2 EZ ES        437 10.91                              96   -0.1710 71.5  80 
 BAR2 EZ I         437 11.87         1.7 0.07             47           71.5  80 
 SPBC HN ES        437 17.40                              92    0.4210 95.9 197 
 SPBC HZ I         437 18.99         2.1 0.08             47           95.9 197 
 RUS  HZ EP        437  6.21                              61   -0.2210  104 129 
 RUS  HN ES        437 19.61                              61   -0.1110  104 129 
 RUS  HZ I         437 20.99         2.9 0.24             47            104 129 
                                                                                
