 2013 1030 0317  2.1 L   6.793 -73.171144.7  RSN 10 0.4 1.6LRSN                1
 GAP=134        0.93       3.1     4.4  5.7 -0.1526E+01  0.4864E+01  0.1954E+01E
 Epicentro: LOS SANTOS - SANTANDER                                             3
 ACTION:UPD 13-11-25 09:24 OP:ep   STATUS:               ID:20131030031702 L   I
 OLDACT:REG 13-10-30 06:34 OP:jn   STATUS:               ID:20131030031000     3
 2013-10-30-0310-00M.COL___273                                                 6
 STAT SP IPHASW D HRMM SECON CODA AMPLIT PERI AZIMU VELO AIN AR TRES W  DIS CAZ7
 BAR2 SZ EP        317 21.59                             171   -0.0210 22.2 183 
 BAR2 SZ ES        317 37.02                             171    0.2210 22.2 183 
 BAR2 SZ I         317 39.32        12.6 0.26            169           22.2 183 
 BRR  HZ EP        317 23.38                             153    0.3310 69.2 300 
 BRR  HN ES        317 39.98                             153    0.6110 69.2 300 
 BRR  HZ I         317 44.46         6.8 0.26            152           69.2 300 
 PAM  SZ EP        317 24.53                             150    0.1610 79.7  41 
 PAM  SN ES        317 41.57                             150   -0.1510 79.7  41 
 PAM  SZ I         317 43.70         6.3 0.48            155           79.7  41 
 RUS  HZ EP   1    317 25.60                             144   -0.13 7  100 174 
 RUS  HN ES   1    317 43.74                             144   -0.41 7  100 174 
 RUS  HZ I         317 45.59         3.7 0.28            146            100 174 
 PTB  HZ EP        317 28.99                             132    0.24 9  145 259 
 PTB  HN ES   1    317 48.46                             132   -1.05 7  145 259 
 PTB  HZ I         317 51.87         4.5 0.14            132            145 259 
 OCA  HN ES   1    317 51.53                             129   -0.92 7  161 354 
 OCA  HZ I         317 54.62         4.1 0.32            132            161 354 
 SPBC HZ EP        317 30.49                             129    0.17 9  161 218 
 SPBC HN ES        317 52.25                             129   -0.06 9  161 218 
 SPBC HZ I         317 58.05         6.5 0.14            130            161 218 
 ZAR  HE ES   1    317 59.53                             122    0.19 6  202 293 
 ZAR  HZ I         318  5.84         4.5 0.34            123            202 293 
 SML  HZ EP   1    317 38.42                             117   -0.22 6  243 336 
 SML  HN ES   1    318  6.74                             117   -0.39 6  243 336 
 CHI  HZ EP        317 39.92                             117    0.32 8  247 195 
 CHI  HN ES   1    318  8.09                             117   -0.75 6  247 195 
 CHI  HZ I         318 15.31         2.4 0.36            119            247 195 
                                                                                
