 2011  830 0309 41.3 L   6.717 -73.208140.3  RSN  4 0.2 1.9LRSN                1
 GAP=221        0.50       3.7     8.3  6.3  0.1424E+02 -0.9736E+00  0.5019E+01E
 Epicentro: VILLANUEVA - SANTANDER                                             3
 ACTION:UPD 12-07-13 15:54 OP:ep   STATUS:               ID:20110830030941 L   I
 2011-08-30-0300-00M.COL___151                                                 6
 STAT SP IPHASW D HRMM SECON CODA AMPLIT PERI AZIMU VELO AIN AR TRES W  DIS CAZ7
 BAR2 SZ EP        3 9 59.96                             174   -0.2010 14.1 169 
 BAR2 SZ I         310  0.15        28.8 0.09                          14.1 169 
 BRR  HZ EP        310  1.81                             152   -0.0510 70.4 308 
 BRR  HN ES   1    310 17.99                             152    0.13 7 70.4 308 
 BRR  HZ I         310 22.20        24.1 0.25                          70.4 308 
 RUS  HZ EP   1    310  4.01                             145    0.05 7 92.2 171 
 RUS  HN ES   1    310 21.78                             145    0.18 7 92.2 171 
 RUS  HZ I         310 24.38        11.5 0.36                          92.2 171 
 CHI  HZ EP   1    310 18.07                             117    0.48 6  238 194 
 CHI  HE ES   1    310 45.54                             117   -0.32 6  238 194 
 CHI  HZ I         310 52.55         2.4 0.28                           238 194 
                                                                                
