 2012 1130 0549  8.2 L   6.859 -73.142142.7  RSN 14 0.5 2.6LRSN                1
 GAP= 69        1.12       2.9     3.2  5.2 -0.6036E+00  0.4228E+01  0.1020E+01E
 Epicentro: LOS SANTOS - SANTANDER                                             3
 ACTION:UPD 12-12-05 15:37 OP:}ep  STATUS:               ID:20121130054908 L   I
 2012-11-30-0546-41M.COL___201                                                 6
 STAT SP IPHASW D HRMM SECON CODA AMPLIT PERI AZIMU VELO AIN AR TRES W  DIS CAZ7
 GIR2 SZ EP        549 27.71                             170    0.3410 24.9 347 
 GIR2 SZ ES        549 42.71                             170    0.4010 24.9 347 
 GIR2 SZ I         549 43.88        68.2 0.38                          24.9 347 
 BAR2 SZ EP        549 27.94                             168    0.3010 29.9 189 
 BAR2 SZ ES        549 43.04                             168    0.2610 29.9 189 
 BAR2 SZ I         549 44.86        79.6 0.26                          29.9 189 
 PAM  SZ EP        549 30.31                             152    0.5010 72.2  43 
 PAM  SN ES        549 46.85                             152    0.2110 72.2  43 
 PAM  SN I         549 48.34        64.1 0.42                          72.2  43 
 RUS  HZ EP        549 32.14                             141   -0.0210  107 177 
 RUS  HN ES        549 50.54                             141   -0.2910  107 177 
 RUS  HN I         549 52.54        37.6 0.56                           107 177 
 PTB  HZ EP        549 34.81                             131   -0.30 9  150 256 
 PTB  HN ES        549 55.56                             131   -0.51 9  150 256 
 PTB  HN I         550  1.17        97.0 0.38                           150 256 
 OCA  HZ EP        549 35.65                             130   -0.04 9  154 353 
 OCA  HN ES        549 56.80                             130   -0.31 9  154 353 
 OCA  HN I         549 58.22       132.9 0.20                           154 353 
 TAM  HZ IP     D  549 36.17                             130    0.37 9  157 107 
 TAM  HN ES        549 56.66                             130   -0.64 9  157 107 
 TAM  HN I         549 58.82        26.6 0.70                           157 107 
 ZAR  HZ EP        549 40.55                             122    0.29 9  202 290 
 ZAR  HN ES        550  5.80                             122    0.55 9  202 290 
 SML  HZ EP        549 44.24                             117    0.19 8  238 335 
 SML  HN ES        550 10.64                             117   -1.36 8  238 335 
 SML  HN I         550 19.51        62.9 0.10                           238 335 
 NOR  HZ EP        549 44.33                             117    0.10 8  239 233 
 NOR  HN ES        550 11.73                             117   -0.58 8  239 233 
 NOR  HN I         550 20.00        55.5 0.16                           239 233 
 CHI  HZ EP        549 46.67                             116    0.21 8  255 195 
 CHI  HN ES        550 15.55                             116   -0.73 8  255 195 
 CHI  HN I         550 19.00        26.4 0.32                           255 195 
 HEL  HZ EP        549 49.10                             114    0.59 8  274 254 
 HEL  HN ES        550 19.91                             114   -0.02 8  274 254 
 HEL  HN I         550 26.77        19.8 0.32                           274 254 
 SDV  BZ EP        549 56.71                             108   -0.92 6  356  51 
 PRA  HZ EP        550  3.16                             106    0.83 6  398 209 
 PRA  HN ES        550 44.68                             106    0.14 6  398 209 
 PRA  HN I         550 50.99         5.8 0.30                           398 209 
                                                                                
