 2017 1130 0716 33.1 L   6.850 -73.135143.6  RSN 33 0.9 2.6LRSN                1
 GAP= 56        1.84       3.2     4.0  8.4 -0.6163E+00  0.8976E+01 -0.8774E+00E
 Epicentro: LOS SANTOS - SANTANDER                                             3
 ACTION:UPD 17-12-12 20:02 OP:rebc STATUS:               ID:20171130071632 L   I
 OLDACT:UP  17-12-01 18:17 OP:nlst STATUS:               ID:20171130071632 L   3
 OLDACT:UP  17-11-30 18:05 OP:dani STATUS:               ID:20171130070645     3
 OLDACT:UP  17-11-30 18:01 OP:dani STATUS:               ID:20171130070645     3
 OLDACT:REG 17-11-30 12:54 OP:dhb  STATUS:               ID:20171130070645     3
 2017-11-30-0707-00M.COL___453                                                 6
 STAT SP IPHASW D HRMM SECON CODA AMPLIT PERI AZIMU VELO AIN AR TRES W  DIS CAZ7
 BAR2 EZ IP     C  716 52.59                             168   -0.0110 28.9 190 
 BAR2 EZ I         717  8.91       219.9 0.20            167           28.9 190 
 PAM  EZ IP     C  716 55.42                             152    0.6210 72.5  42 
 PAM  EN ES        717 12.37                             152    0.6510 72.5  42 
 PAM  EZ I         717 14.88       112.5 0.40            153           72.5  42 
 RUS  HZ EP        716 56.54                             142   -0.5010  106 177 
 RUS  HN ES        717 14.54                             142   -1.1710  106 177 
 RUS  HZ I         717 15.98        43.8 0.22            142            106 177 
 PTB  HZ EP        716 59.21                             131   -0.89 9  150 257 
 PTB  HN ES        717 19.89                             131   -1.27 9  150 257 
 PTB  HZ I         717 22.42        71.6 0.84            129            150 257 
 OCA  HZ EP     C  717  0.83                             130    0.09 9  155 352 
 OCA  HN ES        717 22.58                             130    0.27 9  155 352 
 TAM  HZ IP     D  717  0.92                             130    0.28 9  156 107 
 TAM  HN ES        717 22.49                             130    0.36 9  156 107 
 TAM  HZ I         717 23.19        35.2 0.52            131            156 107 
 SPBC HZ EP        717  1.61                             127   -0.30 9  168 218 
 SPBC HE ES        717 23.75                             127   -0.64 9  168 218 
 SPBC HZ I         717 26.09        79.5 0.14            126            168 218 
 YPLC HZ EP        717  2.97                             125   -0.19 9  181 152 
 YPLC HN ES        717 26.73                             125    0.12 9  181 152 
 YPLC HZ I         717 28.64        20.8 0.26            126            181 152 
 ZAR  HZ EP        717  5.34                             122    0.03 9  203 291 
 ZAR  HN ES        717 31.49                             122    1.06 9  203 291 
 ZAR  HZ I         717 37.53        76.0 0.46            120            203 291 
 TABC EZ EP        717 10.29                             118    1.00 8  235 210 
 NOR  HZ EP        717  9.03                             117   -0.12 8  239 234 
 NOR  HN ES        717 36.55                             117   -0.72 8  239 234 
 NOR  HZ I         717 38.63        30.6 0.20            116            239 234 
 CHI  HZ EP        717 10.79                             116   -0.50 8  254 195 
 CHI  HN ES        717 40.50                             116   -0.58 8  254 195 
 CHI  HZ I         717 46.84        20.9 0.28            115            254 195 
 ROSC BZ EP        717 12.86                             115    1.18 8  258 211 
 ROSC BE ES        717 41.68                             115   -0.10 8  258 211 
 ROSC BZ I         717 50.66        28.0 0.49            115            258 211 
 HEL  HZ EP        717 14.16                             114    0.68 8  275 255 
 HEL  HN ES        717 46.78                             114    1.80 8  275 255 
 HEL  HZ I         717 50.86        20.2 0.32            113            275 255 
 CVER HZ EP        717 14.76                             114    0.80 7  278 202 
 CVER HN ES        717 47.68                             114    1.84 7  278 202 
 CVER HZ I         717 55.14        24.5 0.36            113            278 202 
 URE  HZ EP        717 12.94                             113   -1.02 7  283 291 
 URE  HE ES        717 44.72                             113   -1.11 7  283 291 
 URE  HZ I         717 55.84        33.3 0.28            112            283 291 
 DRL03HZ EP        717 14.31                             113    0.30 7  284 352 
 DRL03HN ES        717 46.67                             113    0.75 7  284 352 
 GUY2CHZ EP        717 17.80                             111    0.73 7  305 234 
 GUY2CHN ES   4    717 54.82                             111    3.44 0  305 234 
 GUY2CHZ I         717 59.17        17.2 0.42                           305 234 
 VIL  EZ EP        717 17.41                             111    0.36 7  309 192 
 VIL  EE ES        717 52.18                             111    0.84 7  309 192 
 VIL  EZ I         717 56.50        27.0 0.40            111            309 192 
 PTGC HZ EP        717 15.75                             110   -1.64 7  313 159 
 PTGC HE ES   4    717 49.03                             110   -2.91 0  313 159 
 PTGC HZ I         717 52.05         9.5 0.16            111            313 159 
 CBOC HZ EP        717 20.62                             109    0.37 7  336 251 
 CBOC HZ I         718  9.21         9.2 0.64            108            336 251 
 DBB  EZ EP        717 21.04                             109    0.46 7  340 273 
 DBB  EN ES        717 56.26                             109   -1.35 7  340 273 
 DBB  EZ I         718  3.31        13.6 0.36            108            340 273 
 ARGC HZ EP        717 23.68                             108    1.56 6  354 340 
 ARGC HE ES        718  2.00                             108    1.65 6  354 340 
 ARGC HZ I         718 13.95         6.6 0.40            108            354 340 
 SDV  BZ EP        717 22.31                             108   -0.24 6  356  51 
 SDV  B1 ES        717 59.26                             108   -1.86 6  356  51 
 SDV  BZ I         718  2.47        10.8 0.33            108            356  51 
 PRA  HZ EP        717 27.22                             106    0.05 6  397 209 
 PRA  HN ES        718  8.74                             106   -0.61 6  397 209 
 PRA  HZ I         718 16.28        14.9 0.35            105            397 209 
 APAC HZ EP        717 26.92                             106   -0.23 6  398 287 
 APAC HN ES        718  8.83                             106   -0.48 6  398 287 
 APAC HZ I         718 17.87        11.3 0.28            105            398 287 
 ORTC HZ EP        717 27.24                             105   -0.30 6  401 216 
 ORTC HN ES        718 11.11                             105    1.10 6  401 216 
 ORTC HZ I         718 14.14        11.7 0.42            105            401 216 
 SJC  HZ EP        717 26.97                             105   -1.15 6  405 326 
 SJC  HN ES        718  9.40                             105   -1.64 6  405 326 
 SJC  HZ I         718 12.92        13.7 0.47            105            405 326 
 PAL  HZ EP        717 28.67                             105    0.03 6  410 238 
 CRJC HZ EP        717 33.27                             103   -1.61 5  462   3 
 CRJC HN ES   4    718 19.86                             103   -3.21 0  462   3 
 CRJC HZ I         718 23.95        10.3 0.60            103            462   3 
 YOT  HZ EP        717 37.60                             102    0.98 5  476 228 
 CAP2 HZ EP        717 39.16                             101   -0.91 4  507 293 
 MACC HZ EP   9    718 23.98                             101   41.56 0  526 189 
 MACC HE ES        719 15.19                              99   -2.86 4  526 189 
                                                                                
