 2016  830 0422 23.8 L   6.776 -73.147154.2  RSN  4 0.1 1.0LRSN                1
 GAP=235        0.40       2.6     3.0  3.6  0.2366E+01 -0.8919E+00  0.9388E-01E
 Epicentro: LOS SANTOS - SANTANDER                                             3
 ACTION:UPD 16-10-29 15:40 OP:rebc STATUS:               ID:20160830042223 L   I
 OLDACT:UP  16-08-30 15:32 OP:edw  STATUS:               ID:20160830041733     3
 OLDACT:REG 16-08-30 12:38 OP:edw  STATUS:               ID:20160830041733     3
 2016-08-30-0418-00M.COL___359                                                 6
 STAT SP IPHASW D HRMM SECON CODA AMPLIT PERI AZIMU VELO AIN AR TRES W  DIS CAZ7
 BRR  HZ EP     C  422 45.95                             154   -0.0010 72.4 300 
 BRR  HN ES        423  3.34                             154    0.1210 72.4 300 
 RUS  HZ EP        422 48.23                             146    0.0010 98.0 176 
 RUS  HN ES        423  7.15                             146   -0.1210 98.0 176 
 RUS  HZ I         423  8.71         0.9 0.32                          98.0 176 
 PTB  HZ EP        422 51.29                             134   -0.14 9  147 260 
 PTB  HE ES        423 12.81                             134   -0.17 9  147 260 
 PTB  HZ I         423 14.79         1.1 0.26                           147 260 
 SPBC HZ EP        422 52.94                             131    0.16 9  161 220 
 SPBC HN ES        423 15.54                             131    0.16 9  161 220 
 SPBC HZ I         423 18.63         1.9 0.46                           161 220 
                                                                                
