 2013 1130 0213 23.1 L   6.370 -73.591117.1  RSN  5 0.4 1.7LRSN                1
 GAP=152        0.94       5.4     5.2  8.4 -0.1445E+02 -0.1403E+01 -0.5541E+01E
 Epicentro: SANTA HELENA DEL OPON - SANTANDER                                  3
 ACTION:UPD 14-01-09 16:32 OP:ep   STATUS:               ID:20131130021323 L   I
 OLDACT:REG 13-11-30 07:48 OP:mher STATUS:               ID:20131130021000     3
 2013-11-30-0210-00M.COL___282                                                 6
 STAT SP IPHASW D HRMM SECON CODA AMPLIT PERI AZIMU VELO AIN AR TRES W  DIS CAZ7
 BAR2 SZ EP   1    213 40.79                             155    0.37 7 51.5  61 
 BAR2 SZ ES        213 53.85                             155   -0.0610 51.5  61 
 BAR2 SZ I         213 55.11        28.6 0.27            156           51.5  61 
 BRR  HZ EP        213 41.97                             142   -0.1010 82.6 351 
 BRR  HN ES        213 57.44                             142    0.6010 82.6 351 
 BRR  HZ I         214  4.96         5.9 0.23            140           82.6 351 
 SPBC HN ES        213 58.92                             138    0.0410 95.6 214 
 PTB  HZ EP   1    213 43.29                             137    0.03 7 97.5 281 
 PTB  HN ES   1    213 58.28                             137   -0.70 7 97.5 281 
 PAM  SZ EP        213 48.58                             125    0.25 9  146  43 
 PAM  SN ES        214  7.38                             125   -0.62 9  146  43 
                                                                                
