 2011  830 0250 14.1 L   6.709 -73.123140.5  RSN  8 0.4 2.1LRSN                1
 GAP=188        0.74       4.3     8.4  6.5  0.7395E+01  0.2160E+02  0.9115E+01E
 Epicentro: JORDAN - SANTANDER                                                 3
 ACTION:UPD 12-07-13 15:54 OP:ep   STATUS:               ID:20110830025013 L   I
 2011-08-30-0240-00M.COL___151                                                 6
 STAT SP IPHASW D HRMM SECON CODA AMPLIT PERI AZIMU VELO AIN AR TRES W  DIS CAZ7
 BAR2 SZ EP        250 32.97                             174    0.0310 14.5 207 
 BAR2 SZ ES   1    250 47.11                             174   -0.54 7 14.5 207 
 BAR2 SZ I         250 49.66        18.8 0.14                          14.5 207 
 GIR2 SZ EP   1    250 33.10                             163   -0.38 7 41.6 349 
 BRR  HZ EP        250 34.97                             149   -0.1510 78.6 304 
 BRR  HN ES   1    250 51.91                             149    0.38 7 78.6 304 
 BRR  HZ I         250 53.09        27.3 0.09                          78.6 304 
 RUS  HZ EP   1    250 36.83                             146    0.23 7 90.4 177 
 RUS  HN ES   1    250 54.84                             146    0.68 7 90.4 177 
 RUS  HZ I         250 56.89        20.2 0.30                          90.4 177 
 NOR  SZ EP   1    250 49.29                             118    0.16 6  231 237 
 CHI  HZ EP   1    250 50.82                             117    0.30 6  240 196 
 CHI  HN ES   1    251 18.17                             117   -0.77 6  240 196 
 CHI  HZ I         251 28.11         5.8 0.44                           240 196 
 HEL  HZ EP   1    250 54.39                             114    0.33 6  272 258 
 HEL  HZ I         251 39.18         3.2 0.48                           272 258 
 PRA  HZ EP   1    251  6.30                             106   -0.26 4  385 211 
 PRA  HZ I         251  8.76        18.8 0.18                           385 211 
 PRA  HN ES   1    251 47.35                             106   -0.14 4  385 211 
                                                                                
