 2017  730 0637 30.3 L   6.755 -73.175152.1  RSN  4 0.4 1.3LRSN                1
 GAP=239        0.91       6.7     7.0  7.4 -0.7194E+01  0.3964E+01  0.9788E+01E
 Epicentro: LOS SANTOS - SANTANDER                                             3
 ACTION:UPD 17-08-30 15:38 OP:rebc STATUS:               ID:20170730063730 L   I
 OLDACT:DUP 17-07-31 00:23 OP:ar   STATUS:               ID:20170730062744d    3
 2017-07-30-0628-00M.COL___377                                                 6
 STAT SP IPHASW D HRMM SECON CODA AMPLIT PERI AZIMU VELO AIN AR TRES W  DIS CAZ7
 BAR2 EZ EP        637 50.63                             173   -0.0110 18.0 182 
 BAR2 EZ ES        638  6.07                             173   -0.4010 18.0 182 
 BAR2 EZ I         638  7.24         3.4 0.46            171           18.0 182 
 BRR  HZ EP        637 52.43                             154    0.2710 70.9 303 
 BRR  HN ES        638  9.60                             154    0.4210 70.9 303 
 BRR  HZ I         638 20.75         3.8 0.36            149           70.9 303 
 PTB  HZ EP        637 56.97                             134   -0.49 9  144 261 
 PTB  HN ES        638 18.25                             134   -0.37 9  144 261 
 PTB  HZ I         638 21.75         1.4 0.12            134            144 261 
 SPBC HZ EP        637 58.94                             132    0.16 9  157 219 
 SPBC HN ES        638 21.38                             132    0.41 9  157 219 
 SPBC HZ I         638 26.48         4.0 0.44            134            157 219 
                                                                                
