 2014  430 0705  4.9 L   6.792 -73.128146.6  RSN  8 0.3 2.0LRSN                1
 GAP=139        0.67       3.0     3.2  5.9 -0.2125E+01  0.7370E+01 -0.1296E+01E
 Epicentro: LOS SANTOS - SANTANDER                                             3
 OLDACT:REG 14-04-30 13:00 OP:fm   STATUS:               ID:20140430070000     3
 ACTION:UPD 14-05-13 20:49 OP:nd   STATUS:               ID:20140430070504 L   I
 OLDACT:UP  14-04-30 18:13 OP:fm   STATUS:               ID:20140430070000     3
 2014-04-30-0700-00M.COL___270                                                 6
 STAT SP IPHASW D HRMM SECON CODA AMPLIT PERI AZIMU VELO AIN AR TRES W  DIS CAZ7
 PAM  SZ EP        7 5 27.45                             151    0.3110 76.9  38 
 PAM  SN ES        7 5 44.72                             151    0.2110 76.9  38 
 PAM  SZ I         7 5 46.54        16.2 0.66            154           76.9  38 
 RUS  HZ EP        7 5 28.41                             144   -0.2210 99.6 177 
 RUS  HN ES        7 5 46.71                             144   -0.4510 99.6 177 
 PTB  HZ EP        7 5 31.70                             132   -0.36 9  150 259 
 PTB  HN ES        7 5 53.23                             132   -0.04 9  150 259 
 PTB  SZ I         7 5 59.91        13.7 0.26            131            150 259 
 SPBC HZ EP        7 5 33.73                             129    0.25 9  164 220 
 SPBC HN ES        7 5 56.26                             129    0.46 9  164 220 
 SPBC SZ I         7 5 58.32        10.8 0.48            131            164 220 
 ZAR  HZ EP   1    7 5 37.37                             122   -0.22 6  206 292 
 ZAR  HE ES   1    7 6  3.01                             122   -0.10 6  206 292 
 ZAR  SZ I         7 6 13.37         7.7 0.38            122            206 292 
 SML  HN ES   2    7 6  9.95                             117   -0.51 4  245 335 
 HEL  HZ EP   2    7 5 45.70                             115    0.39 4  274 256 
 HEL  HN ES   2    7 6 16.68                             115   -0.17 4  274 256 
 HEL  SZ I         7 6 23.36         6.1 0.36            116            274 256 
 GUY2CHZ EP   2    7 5 48.97                             112    0.34 4  302 235 
 GUY2CHN ES   2    7 6 23.15                             112    0.37 4  302 235 
 GUY2CSZ I         7 6 29.55         4.1 2.84                           302 235 
 PRA  HN ES   4    7 6 39.32                             107   -0.90 0  392 210 
 SJC  HZ EP   4    7 5 58.79                             106   -1.88 0  411 327 
 SJC  HN ES   4    7 6 36.95                             106   -7.25 0  411 327 
