 2016 1130 0319 44.1 L   6.794 -73.155148.1  RSN 11 0.5 2.0LRSN                1
 GAP=119        1.03       4.6     4.9  7.4 -0.3050E+01  0.8763E+01  0.1102E+02E
 Epicentro: LOS SANTOS - SANTANDER                                             3
 ACTION:UPD 17-10-26 21:13 OP:lp   STATUS:               ID:20161130031944 L   I
 OLDACT:UP  16-11-30 16:45 OP:dani STATUS:               ID:20161130031745     3
 OLDACT:UP  16-11-30 16:45 OP:dani STATUS:               ID:20161130031745     3
 OLDACT:REG 16-11-30 12:44 OP:dani STATUS:               ID:20161130031745     3
 2016-11-30-0318-00M.COL___342                                                 6
 STAT SP IPHASW D HRMM SECON CODA AMPLIT PERI AZIMU VELO AIN AR TRES W  DIS CAZ7
 BAR2 EZ EP        320  3.79                             171   -0.2610 22.5 188 
 BAR2 EZ I         320 19.98        19.1 0.26            169           22.5 188 
 BRR  HZ EP        320  5.73                             153    0.2110 70.6 299 
 BRR  HN ES        320 22.71                             153    0.5210 70.6 299 
 BRR  HZ I         320 25.20        13.6 0.28            155           70.6 299 
 PAM  EZ EP        320  6.78                             151    0.1010 78.5  40 
 PAM  EN ES        320 23.98                             151   -0.2810 78.5  40 
 PAM  EZ I         320 26.85        10.0 0.32            156           78.5  40 
 PTB  HZ EP        320 10.34                             133   -0.87 9  147 259 
 PTB  HE ES   3    320 30.96                             133   -1.35 2  147 259 
 PTB  HZ I         320 37.26         8.8 0.42            134            147 259 
 ZAR  HZ EP        320 17.43                             123    0.75 9  203 292 
 ZAR  HN ES        320 41.76                             123   -0.29 9  203 292 
 ZAR  HZ I         320 47.99        10.8 0.25            125            203 292 
 NOR  HZ EP        320 19.93                             119    0.04 8  233 234 
 NOR  HE ES        320 47.80                             119    0.04 8  233 234 
 NOR  HZ I         320 55.27         5.0 0.15            121            233 234 
 CHI  HZ EP        320 22.31                             118    0.43 8  248 195 
 CHI  HN ES        320 51.39                             118    0.08 8  248 195 
 CHI  HZ I         320 53.63         5.6 0.46            119            248 195 
 ROSC BZ EP   9    320 24.35                             117    2.07 0  252 211 
 ROSC BN ES        320 53.48                             117   -0.61 8  252 211 
 ROSC BZ I         320 58.63        16.4 0.43            119            252 211 
 URE  HZ EP        320 24.59                             114   -0.66 7  283 292 
 URE  HN ES   4    320 54.38                             114   -2.94 0  283 292 
 URE  HZ I         321  2.97         5.5 0.14            116            283 292 
 PTGC HZ EP   3    320 26.93                             112   -1.15 2  308 158 
 CBOC HZ EP        320 31.52                             110    0.49 7  332 252 
                                                                                
