 2017 1130 0154 29.9 L   6.813 -73.099140.5  RSN 19 0.7 2.1LRSN                1
 GAP=103        1.52       3.1     4.0  6.7 -0.1471E+01  0.4581E+01  0.2338E+00E
 Epicentro: LOS SANTOS - SANTANDER                                             3
 ACTION:UPD 17-12-12 20:02 OP:rebc STATUS:               ID:20171130015429 L   I
 OLDACT:DUP 17-11-30 14:26 OP:dhb  STATUS:               ID:20171130014747d    3
 2017-11-30-0148-00M.COL___495                                                 6
 STAT SP IPHASW D HRMM SECON CODA AMPLIT PERI AZIMU VELO AIN AR TRES W  DIS CAZ7
 BAR2 EZ IP     D  154 48.93                             169    0.0210 26.1 201 
 BAR2 EZ ES        155  3.36                             169   -0.4110 26.1 201 
 BAR2 EZ I         155  6.08        30.3 0.24            169           26.1 201 
 PAM  EZ IP     D  154 51.88                             151    0.6310 73.1  37 
 PAM  EE ES        155  8.79                             151    0.8510 73.1  37 
 PAM  EZ I         155 11.10        18.9 0.50            154           73.1  37 
 RUS  HZ IP     D  154 52.99                             142   -0.1910  102 179 
 RUS  HN ES        155 11.12                             142   -0.2510  102 179 
 RUS  HZ I         155 13.03        15.5 0.52            145            102 179 
 PTB  HZ EP        154 55.58                             130   -1.31 9  153 259 
 PTB  HE ES        155 17.73                             130   -0.25 9  153 259 
 PTB  HZ I         155 22.45        10.7 0.56            131            153 259 
 OCA  HZ EP        154 58.28                             128    0.59 9  160 351 
 OCA  HE ES        155 19.26                             128   -0.14 9  160 351 
 OCA  HZ I         155 27.16        27.7 0.32            131            160 351 
 SPBC HZ EP        154 57.97                             127   -0.41 9  168 220 
 SPBC HN ES        155 20.32                             127   -0.30 9  168 220 
 SPBC HZ I         155 28.58        17.4 0.36            129            168 220 
 YPLC HZ IP     D  154 59.54                             125    0.38 9  176 153 
 YPLC HE ES        155 22.14                             125    0.12 9  176 153 
 YPLC HZ I         155 26.00        17.8 0.24            129            176 153 
 ZAR  HZ EP        155  1.84                             121   -0.56 8  208 291 
 ZAR  HN ES        155 27.34                             121   -0.45 8  208 291 
 ZAR  HZ I         155 33.59        16.3 0.48            122            208 291 
 NOR  HZ EP        155  5.37                             117   -0.46 8  240 235 
 NOR  HE ES        155 33.09                             117   -0.80 8  240 235 
 NOR  HZ I         155 34.98         9.7 0.18            118            240 235 
 CHI  HZ EP        155  7.53                             116   -0.04 8  251 196 
 CHI  HE ES        155 37.39                             116    0.40 8  251 196 
 CHI  HZ I         155 40.74         3.7 0.26            118            251 196 
 ROSC BZ EP        155  9.29                             115    1.17 8  257 212 
 ROSC BE ES   4    155 42.17                             115    4.20 0  257 212 
 ROSC BZ I         155 44.22         8.3 0.45            117            257 212 
 HEL  HZ EP        155 11.14                             113    0.74 7  277 256 
 HEL  HE ES        155 43.72                             113    1.70 7  277 256 
 HEL  HZ I         155 47.42         7.6 0.40            115            277 256 
 DRL03HZ EP        155 11.81                             112    0.68 7  288 352 
 DRL03HE ES        155 43.76                             112    0.43 7  288 352 
 GUY2CHZ EP        155 13.58                             111   -0.22 7  306 235 
 GUY2CHE ES        155 48.74                             111    0.67 7  306 235 
 GUY2CHZ I         155 55.33         6.7 0.42                           306 235 
 PTGC HZ EP        155 14.56                             110    1.14 7  308 160 
 PTGC HE ES        155 46.08                             110   -1.33 7  308 160 
 PTGC HZ I         155 46.25        12.0 0.40            113            308 160 
 SDV  BZ EP        155 18.57                             107   -0.56 6  356  50 
 SDV  B2 ES        155 57.07                             107   -0.50 6  356  50 
 SDV  BZ I         155 59.39         1.6 0.40            110            356  50 
 PRA  HZ EP        155 23.11                             105   -0.53 6  396 210 
 PRA  HE ES        156  6.44                             105    0.84 6  396 210 
 PRA  HZ I         156 11.52         4.3 0.30            107            396 210 
 ORTC HZ EP        155 23.77                             105   -0.32 6  400 217 
 ORTC HN ES        156  6.77                             105    0.37 6  400 217 
 ORTC HZ I         156 14.43         3.2 0.68            107            400 217 
 SJC  HZ EP        155 23.55                             105   -1.89 6  411 326 
 SJC  HE ES        156  8.44                             105   -0.35 6  411 326 
 SJC  HZ I         156 16.67         3.5 0.88            106            411 326 
                                                                                
