 2016  330 0729  5.0 L   6.831 -73.203138.6  RSN  5 0.3 1.5LRSN                1
 GAP=148        0.78       4.5     4.6  6.5 -0.1003E+02  0.1135E+02 -0.4155E+01E
 Epicentro: ZAPATOCA - SANTANDER                                               3
 ACTION:UPD 16-05-13 21:28 OP:cam  STATUS:               ID:20160330072905 L   I
 OLDACT:REG 16-03-30 13:29 OP:ak   STATUS:               ID:20160330072741     3
 2016-03-30-0727-41M.COL___309                                                 6
 STAT SP IPHASW D HRMM SECON CODA AMPLIT PERI AZIMU VELO AIN AR TRES W  DIS CAZ7
 BAR2 EZ EP        729 23.53                             169   -0.2810 26.5 175 
 BAR2 EZ ES        729 38.39                             169   -0.1110 26.5 175 
 BAR2 EZ I         729 39.83         6.9 0.16            170           26.5 175 
 PAM  EZ EP        729 27.10                             149    0.5710 79.1  45 
 PAM  EN ES        729 43.27                             149   -0.0810 79.1  45 
 PAM  EZ I         729 45.93         6.6 0.48            152           79.1  45 
 RUS  HZ EP   2    729 28.19                             141   -0.14 5  105 173 
 RUS  HN ES        729 46.45                             141   -0.0910  105 173 
 RUS  HZ I         729 48.16         4.7 0.30            144            105 173 
 PTB  HZ EP        729 30.35                             131   -0.51 9  142 257 
 PTB  HN ES        729 51.19                             131    0.14 9  142 257 
 PTB  HZ I         729 54.88         3.7 0.20            133            142 257 
 SPBC HZ EP        729 32.82                             127    0.01 9  162 216 
 SPBC HN ES        729 54.94                             127    0.41 9  162 216 
 SPBC HZ I         729 58.37         4.3 0.19            129            162 216 
                                                                                
