 2012  130 0044  8.9 L   6.807 -73.190142.8  RSN  5 0.4 1.3LRSN                1
 GAP=131        0.98       5.7     6.3  9.3  0.1564E+01  0.2227E+01  0.1242E+02E
 Epicentro: ZAPATOCA - SANTANDER                                               3
 ACTION:UP  12-02-03 08:22 OP:REBC STATUS:               ID:20120130004408 L   I
 2012-01-30-0040-00M.COL___188                                                 6
 STAT SP IPHASW D HRMM SECON CODA AMPLIT PERI AZIMU VELO SNR AR TRES W  DIS CAZ7
 BRR  HZ EP   1    044 28.93                             153    -0.5 7   67 300 
 BRR  HN ES        044 46.04                             153     0.610   67 300 
 BRR  HZ I         044 48.08         4.7 0.14                            67 300 
 PAM  SZ EP   1    044 31.05                             149     0.1 7   80  43 
 PAM  SN ES   1    044 47.78                             149    -0.4 7   80  43 
 RUS  HZ EP   1    044 32.68                             143     0.3 7  102 173 
 RUS  HN ES        044 50.60                             143    -0.210  102 173 
 RUS  HZ I         044 52.94         3.6 0.25                           102 173 
 PTB  HZ EP   1    044 35.17                             132     0.0 7  143 258 
 PTB  HN ES   1    044 55.19                             132    -0.5 7  143 258 
 PTB  HZ I         044 58.57                                            143 258 
 CHI  HZ EP   1    044 46.86                             116     0.5 6  248 194 
 CHI  HZ I         045 20.24         0.8 0.19                           248 194 
                                                                                
