 2017 1030 0746 38.7 L   6.815 -73.133146.1  RSN 11 0.5 1.4LRSN                1
 GAP=137        1.12       4.2     4.5  6.4 -0.1790E+01  0.8087E+01  0.4944E+01E
 Epicentro: LOS SANTOS - SANTANDER                                             3
 ACTION:UPD 17-11-07 19:39 OP:rebc STATUS:               ID:20171030074638 L   I
 OLDACT:DUP 17-10-30 16:37 OP:dhb  STATUS:               ID:20171030073737d    3
 OLDACT:DUP 17-10-30 16:33 OP:dhb  STATUS:               ID:20171030073736d    3
 2017-10-30-0738-00M.COL___408                                                 6
 STAT SP IPHASW D HRMM SECON CODA AMPLIT PERI AZIMU VELO AIN AR TRES W  DIS CAZ7
 BAR2 EZ EP        746 58.36                             170   -0.0310 25.2 192 
 BAR2 EZ ES        747 12.84                             170   -0.9210 25.2 192 
 BAR2 EZ I         747 14.74        11.8 0.18            169           25.2 192 
 BRR  HZ IP     C  747  0.21                             152    0.3210 71.7 297 
 BRR  HN ES        747 17.34                             152    0.9110 71.7 297 
 BRR  HZ I         747 18.34         3.2 0.34            152           71.7 297 
 PAM  EZ EP        747  1.19                             151    0.3910 75.2  40 
 PAM  EN ES        747 18.14                             151    0.0810 75.2  40 
 PAM  EZ I         747 20.61         2.3 0.46            153           75.2  40 
 RUS  HZ EP        747  2.39                             143   -0.1810  102 177 
 RUS  HE ES        747 21.44                             143    0.2310  102 177 
 RUS  HZ I         747 22.12         5.2 0.22            144            102 177 
 PTB  HZ EP        747  4.96                             132   -0.87 9  149 258 
 PTB  HN ES        747 26.92                             132   -0.08 9  149 258 
 PTB  HZ I         747 28.20         2.4 0.40            132            149 258 
 SPBC HZ EP        747  7.11                             129   -0.30 9  165 219 
 SPBC HE ES        747 29.63                             129   -0.18 9  165 219 
 SPBC HZ I         747 31.98         6.8 0.36            129            165 219 
 ZAR  HZ EP        747 11.04                             122   -0.17 9  205 292 
 ZAR  HE ES        747 36.13                             122   -0.46 9  205 292 
 ZAR  HZ I         747 38.93         1.8 0.18            123            205 292 
 NOR  HZ EP        747 14.82                             118    0.17 8  237 234 
 NOR  HN ES        747 43.15                             118    0.44 8  237 234 
 NOR  HZ I         747 46.43         1.9 0.18            119            237 234 
 GUY2CHZ EP   3    747 24.43                             112    1.89 2  303 235 
 GUY2CHE ES   3    747 58.34                             112    1.60 2  303 235 
 GUY2CHZ I         748  3.08         1.1 0.56                           303 235 
 PRA  HZ EP        747 32.80                             106    0.34 6  394 210 
 PRA  HE ES        748 15.11                             106    0.71 6  394 210 
 PRA  HZ I         748 20.43         1.2 0.24            107            394 210 
 SJC  HZ EP   9    747 32.45                             106   -1.73 0  409 327 
 SJC  HN ES        748 15.48                                   -0.26 6  409 327 
                                                                                
