 2010  130 0646  0.1 L   6.814 -73.188138.8  RSN  6 0.4 1.4LRSN                1
 GAP=175        0.86       4.6    12.4  9.6 -0.9438E+01  0.4015E+02 -0.8258E+01E
 Epicentro: ZAPATOCA - SANTANDER                                               3
 ACTION:UP  10-08-24 09:46 OP:vdl  STATUS:               ID:20100130064600 L   I
 2010-01-30-0641-44S.COL___094                                                 6
 STAT SP IPHASW D HRMM SECON CODA AMPLIT PERI AZIMU VELO SNR AR TRES W  DIS CAZ7
 BAR2 SZ EP        646 18.65                             169    -0.210   25 179 
 BAR2 SZ ES   1    646 33.47                             169    -0.1 7   25 179 
 GIR2 SZ EP   1    646 19.86                             167     1.0 7   29 359 
 RUS  BE ES   2    646 41.46                             142     0.1 5  103 174 
 RUS  BZ I         646 42.68         5.1 0.23                           103 174 
 OCA  SZ EP        646 27.65                             128     0.0 9  158 355 
 OCA  SZ ES   1    646 48.76                             128    -0.4 7  158 355 
 CHI  HZ EP   1    646 37.14                             115    -0.3 6  249 194 
 CHI  HN ES   2    647  6.49                             115    -0.1 4  249 194 
 CHI  HZ I         647  8.46         1.5 0.20                           249 194 
 HEL  HE ES   2    647 10.40                             114     0.2 4  268 255 
                                                                                
