 2013  130 0529 25.9 L   6.800 -73.123146.6  RSN  9 0.3 2.1LRSN                1
 GAP=139        0.76       2.6     3.8  4.5 -0.1190E+00  0.3593E+01  0.9314E+00E
 Epicentro: LOS SANTOS - SANTANDER                                             3
 ACTION:UPD 13-02-15 09:17 OP:ep   STATUS:               ID:20130130052925 L   I
 2013-01-30-0524-38M.COL___183                                                 6
 STAT SP IPHASW D HRMM SECON CODA AMPLIT PERI AZIMU VELO AIN AR TRES W  DIS CAZ7
 BAR2 SZ EP        529 45.82                             170    0.1410 23.9 196 
 BAR2 SZ I         529 46.36        26.7 0.15            160           23.9 196 
 BAR2 SZ ES        530  0.80                             170   -0.2810 23.9 196 
 BRR  HZ IP     C  529 47.69                             152    0.3910 73.4 298 
 BRR  HE ES        530  4.51                             152    0.5510 73.4 298 
 BRR  HE I         530  6.15        57.7 0.23            136           73.4 298 
 PAM  SZ EP        529 48.45                             151    0.2910 75.8  38 
 PAM  SZ I         529 48.84        13.6 0.19            147           75.8  38 
 PAM  SN ES        530  5.34                             151   -0.1410 75.8  38 
 RUS  HZ EP        529 49.70                             144   -0.0710  100 177 
 RUS  HE ES        530  8.36                             144    0.0210  100 177 
 RUS  HE I         530  9.50        23.3 0.56            133            100 177 
 PTB  HZ EP   1    529 52.55                             132   -0.65 7  150 259 
 PTB  HN ES   1    530 14.01                             132   -0.44 7  150 259 
 PTB  HZ I         530 17.33        12.0 0.10            117            150 259 
 OCA  HZ EP        529 54.22                             130   -0.13 9  161 352 
 OCA  HN ES   1    530 15.96                             130   -0.54 7  161 352 
 OCA  HZ I         530 21.74        15.0 0.25            119            161 352 
 ZAR  HZ EP   1    529 58.51                             122   -0.17 6  206 292 
 ZAR  HE ES   1    530 24.09                             122   -0.12 6  206 292 
 ZAR  HZ I         530 30.87        15.5 0.28            110            206 292 
 CHI  HZ EP        530  3.58                             117   -0.18 8  249 196 
 CHI  HE ES        530 33.29                             117    0.04 8  249 196 
 CHI  HZ I         530 42.99         3.7 0.49            107            249 196 
 HEL  HZ EP   1    530  7.10                             115    0.64 6  274 256 
 HEL  HZ I         530 46.15         4.6 0.37            104            274 256 
                                                                                
