 2013  330 0327 31.5 L   6.814 -73.123152.0  RSN  6 0.4 1.7LRSN                1
 GAP=203        0.72       5.2     6.3  7.4  0.1613E+02 -0.9393E+00 -0.1019E+02E
 Epicentro: LOS SANTOS - SANTANDER                                             3
 ACTION:UPD 13-04-09 14:05 OP:ep   STATUS:               ID:20130330032731 L   I
 2013-03-30-0320-00M.COL___245                                                 6
 STAT SP IPHASW D HRMM SECON CODA AMPLIT PERI AZIMU VELO AIN AR TRES W  DIS CAZ7
 BAR2 SZ EP   1    327 52.06                             170    0.13 7 25.4 195 
 BAR2 SZ ES   1    328  7.25                             170   -0.61 7 25.4 195 
 BAR2 SZ I         328  9.69        24.6 0.22            171           25.4 195 
 BRR  HZ EP   1    327 53.89                             153    0.47 7 72.7 297 
 BRR  HN ES   1    328 11.12                             153    0.61 7 72.7 297 
 BRR  HZ I         328 14.87         8.6 0.16            152           72.7 297 
 RUS  HZ EP   1    327 55.98                             145    0.00 7  102 178 
 RUS  HN ES   1    328 15.19                             145    0.13 7  102 178 
 RUS  HZ I         328 15.90         6.0 0.34            149            102 178 
 PTB  HZ EP   1    327 58.96                             133   -0.28 7  151 258 
 PTB  HN ES   1    328 20.58                             133   -0.29 7  151 258 
 PTB  HZ I         328 22.34         5.3 0.16            134            151 258 
 ZAR  HN ES   1    328 30.43                             123    0.12 6  206 291 
 ZAR  HZ I         328 35.18         4.7 0.26            125            206 291 
 SML  HZ EP   2    328  8.46                             119    0.01 4  243 335 
 SML  HN ES   1    328 36.75                             119   -0.52 6  243 335 
                                                                                
