 2016  330 0820 51.1 L   6.807 -73.159143.2  RSN 14 0.2 2.4LRSN                1
 GAP= 70        0.56       1.5     1.5  2.9 -0.2456E+00  0.1633E+01  0.8363E-01E
 Epicentro: LOS SANTOS - SANTANDER                                             3
 ACTION:UPD 16-05-13 21:28 OP:cam  STATUS:               ID:20160330082051 L   I
 OLDACT:REG 16-03-30 13:31 OP:ak   STATUS:               ID:20160330081747     3
 2016-03-30-0817-47M.COL___309                                                 6
 STAT SP IPHASW D HRMM SECON CODA AMPLIT PERI AZIMU VELO AIN AR TRES W  DIS CAZ7
 BAR2 EZ IP        821 10.52                             170    0.1210 23.9 186 
 BAR2 EZ ES        821 25.32                             170   -0.1710 23.9 186 
 BAR2 EZ I         821 26.57        92.5 0.18            170           23.9 186 
 PAM  EZ IP     C  821 13.24                             150    0.2110 77.7  41 
 PAM  EN ES        821 30.44                             150    0.2810 77.7  41 
 PAM  EZ I         821 32.18        95.4 0.62            154           77.7  41 
 RUS  HZ EP     C  821 14.39                             143   -0.2410  101 175 
 RUS  HN ES        821 32.93                             143   -0.0910  101 175 
 RUS  HZ I         821 33.54        27.1 0.24            146            101 175 
 PTB  HZ EP        821 17.54                             132   -0.17 9  146 258 
 PTB  HN ES        821 38.17                             132   -0.32 9  146 258 
 PTB  HZ I         821 40.13        29.4 0.14            132            146 258 
 TAM  HZ IP     D  821 18.72                             130    0.03 9  157 105 
 TAM  HN ES        821 40.13                             130   -0.11 9  157 105 
 OCA  HZ EP     C  821 18.55                             129   -0.54 9  159 354 
 OCA  HN ES        821 41.02                             129    0.07 9  159 354 
 OCA  HZ I         821 47.49        99.6 0.46            131            159 354 
 SPBC HZ EP        821 19.45                             128    0.11 9  163 218 
 SPBC HN ES        821 41.58                             128    0.18 9  163 218 
 SPBC HZ I         821 49.31        30.2 0.38            130            163 218 
 ZAR  HZ EP        821 23.21                             122    0.04 9  202 292 
 ZAR  HN ES        821 48.67                             122    0.45 9  202 292 
 ZAR  HZ I         821 54.88        34.9 0.48            123            202 292 
 NOR  HZ EP        821 26.85                             118    0.28 8  234 234 
 NOR  HE ES        821 54.39                             118    0.13 8  234 234 
 NOR  HZ I         822  0.96        18.1 0.20            119            234 234 
 CHI  HZ EP        821 28.57                             116   -0.10 8  249 195 
 CHI  HN ES        821 58.12                             116    0.13 8  249 195 
 CHI  HZ I         822  4.35        12.4 0.36            118            249 195 
 HEL  HZ EP        821 31.21                             114    0.20 8  271 256 
 HEL  HN ES        822  1.96                             114   -0.21 8  271 256 
 HEL  HZ I         822  9.28        13.2 0.46            115            271 256 
 URE  HZ EP        821 31.44                             113   -0.39 7  282 292 
 URE  HN ES        822  3.58                             113   -0.04 7  282 292 
 URE  HZ I         822 11.93        16.3 0.16            114            282 292 
 GUY2CHZ EP        821 34.90                             112    0.43 7  300 234 
 GUY2CHN ES        822  8.26                             112   -0.07 7  300 234 
 GUY2CHZ I         822 16.28         9.9 0.46                           300 234 
 CBOC HZ EP        821 37.82                             109    0.08 7  332 252 
 CBOC HN ES        822 14.00                             109   -0.15 7  332 252 
 CBOC HZ I         822 17.96         4.4 0.56            111            332 252 
                                                                                
