 2011 1030 0336 18.8 L   6.783 -73.037143.1  RSN  4 0.3 1.6LRSN                1
 GAP=152        0.51       6.2    10.7  6.8  0.4905E+02 -0.2624E+02 -0.1139E+02E
 Epicentro: CEPITA - SANTANDER                                                 3
 ACTION:UPD 12-07-13 16:07 OP:ep   STATUS:               ID:20111030033618 L   I
 2011-10-30-0334-35S.COL___157                                                 6
 STAT SP IPHASW D HRMM SECON CODA AMPLIT PERI AZIMU VELO AIN AR TRES W  DIS CAZ7
 BAR2 SZ IP        336 38.25                             169    0.0710 26.5 217 
 BAR2 SZ ES   2    336 52.53                             169   -0.76 5 26.5 217 
 BAR2 SZ I         336 54.48         7.6 0.18                          26.5 217 
 PAM  SN ES   3    336 57.71                             152    0.44 2 72.0  31 
 BRR  HZ IP     C  336 40.27                             148   -0.0910 82.7 296 
 BRR  HZ I         336 40.66        16.2 0.10                          82.7 296 
 BRR  HN ES   1    336 57.36                             148    0.18 7 82.7 296 
 RUS  HZ EP        336 42.12                             144   -0.0210 98.5 183 
 RUS  HN ES   1    337  0.52                             144    0.17 7 98.5 183 
 RUS  HZ I         337  1.78         4.2 0.36                          98.5 183 
                                                                                
