 2013 1130 0310 33.6 L   6.857 -73.234136.5  RSN  5 0.3 1.6LRSN                1
 GAP=121        0.89       5.6     5.4  7.8 -0.1402E+02  0.1387E+02 -0.7976E+01E
 Epicentro: ZAPATOCA - SANTANDER                                               3
 ACTION:UPD 14-01-09 16:32 OP:ep   STATUS:               ID:20131130031033 L   I
 OLDACT:REG 13-11-30 07:50 OP:mher STATUS:               ID:20131130031000     3
 2013-11-30-0310-00M.COL___282                                                 6
 STAT SP IPHASW D HRMM SECON CODA AMPLIT PERI AZIMU VELO AIN AR TRES W  DIS CAZ7
 BAR2 SZ ES        311  6.41                             167   -0.4210 29.9 169 
 BAR2 SZ I         311  8.03        18.4 0.19            170           29.9 169 
 BRR  HZ EP        310 53.53                             155    0.4310 59.6 298 
 BRR  HN ES        311  8.64                             155    0.3210 59.6 298 
 BRR  HZ I         311 12.55         6.4 0.14            155           59.6 298 
 PAM  SZ EP   1    310 55.20                             148    0.23 7 79.5  48 
 PAM  SN ES        311 11.86                             148    0.2210 79.5  48 
 PAM  SZ I         311 14.57         5.3 0.45            152           79.5  48 
 PTB  HZ EP        310 58.72                             131   -0.35 9  140 255 
 PTB  HN ES        311 19.00                             131    0.06 9  140 255 
 PTB  HZ I         311 22.64         5.1 0.14            134            140 255 
 OCA  HN ES        311 21.00                             129   -0.50 9  153 356 
                                                                                
