 2016  730 0010 53.0 L   6.805 -73.140146.9  RSN 19 0.4 2.2LRSN                1
 GAP=120        0.96       2.6     3.0  4.3 -0.2088E+01  0.2021E+01  0.8198E+00E
 Epicentro: LOS SANTOS - SANTANDER                                             3
 ACTION:UPD 17-03-29 16:56 OP:lp   STATUS:               ID:20160730001053 L   I
 OLDACT:REG 16-07-30 12:43 OP:edw  STATUS:               ID:20160730000759     3
 2016-07-30-0007-59S.COL___343                                                 6
 STAT SP IPHASW D HRMM SECON CODA AMPLIT PERI AZIMU VELO AIN AR TRES W  DIS CAZ7
 BAR2 EZ EP        011 12.71                             170   -0.0910 23.9 191 
 BAR2 EZ ES        011 27.63                             170   -0.5910 23.9 191 
 BAR2 EZ I         011 29.35        42.4 0.16            170           23.9 191 
 BRR  HZ EP        011 14.58                             153    0.2710 71.5 298 
 BRR  HN ES        011 31.58                             153    0.6710 71.5 298 
 BRR  HZ I         011 34.72        31.5 0.44            149           71.5 298 
 PAM  EZ EP        011 15.62                             151    0.3110 76.6  39 
 PAM  EN ES        011 32.76                             151    0.0710 76.6  39 
 PAM  EZ I         011 34.86        45.7 0.52            153           76.6  39 
 RUS  HZ EP        011 16.70                             144   -0.2110  101 176 
 RUS  HN ES        011 35.73                             144    0.1810  101 176 
 RUS  HZ I         011 36.60        16.7 0.30            146            101 176 
 PTB  HZ EP        011 19.61                             132   -0.53 9  148 259 
 PTB  HN ES        011 40.31                             132   -0.98 9  148 259 
 PTB  HZ I         011 43.11         8.4 0.11            131            148 259 
 SPBC HZ EP        011 21.72                             129    0.04 9  164 219 
 SPBC HN ES        011 43.95                             129   -0.08 9  164 219 
 SPBC HZ I         011 45.44        25.8 0.18            129            164 219 
 ZAR  HZ EP        011 26.22                             122    0.64 9  204 292 
 ZAR  HN ES        011 50.96                             122   -0.01 9  204 292 
 ZAR  HZ I         011 57.67        10.6 0.14            122            204 292 
 NOR  HZ EP        011 28.87                             119   -0.03 8  235 234 
 NOR  HN ES        011 57.20                             119    0.32 8  235 234 
 NOR  HZ I         012  4.55        11.0 0.16            119            235 234 
 ROSC BZ EP   4    011 32.82                             117    1.54 0  253 211 
 ROSC BN ES        012  1.58                             117    0.46 8  253 211 
 ROSC BZ I         012  4.92        17.3 0.40            118            253 211 
 HEL  HZ EP   4    011 25.65                             115   -7.72 0  273 256 
 HEL  HN ES        012  4.65                             115   -0.19 8  273 256 
 HEL  HZ I         012 10.13         4.9 0.40            115            273 256 
 URE  HZ EP   9    011 33.17                             114   -1.02 0  284 292 
 URE  HN ES        012  5.06                                   -0.22 7  284 292 
 URE  HZ I         012 15.78        10.3 0.18            114            284 292 
 SOCV BZ EP        011 35.86                             112   -0.17 7  301  57 
 SOCV BN ES   4    012  7.85                             112   -1.73 0  301  57 
 GUY2CHZ EP        011 37.38                             112    0.61 7  302 235 
 GUY2CHN ES        012 11.33                             112    0.44 7  302 235 
 GUY2CHZ I         012 18.99         7.0 0.32                           302 235 
 VIL  EZ EP        011 36.41                             112   -0.15 7  304 192 
 VIL  EN ES        012 10.70                             112    0.18 7  304 192 
 PTGC HZ EP   4    011 35.94                             112   -1.02 0  309 159 
 PTGC HN ES   4    012  9.38                             112   -1.84 0  309 159 
 LL6C HZ EP        011 37.96                             111   -0.75 7  324 357 
 LL6C HN ES        012 14.58                             111    0.23 7  324 357 
 CBOC HZ EP        011 39.90                             110   -0.16 7  334 252 
 CBOC HN ES        012 16.73                             110   -0.03 7  334 252 
 CBOC HZ I         012 20.84         2.0 0.20            110            334 252 
 PRA  HZ EP        011 46.70                             107    0.03 6  393 210 
 PRA  HN ES        012 27.79                             107   -0.72 6  393 210 
 PRA  HZ I         012 31.02         5.0 0.26            107            393 210 
 SJC  HZ EP   4    011 46.97                             106   -1.64 0  409 327 
 SJC  HN ES   4    012 27.98                             106   -3.99 0  409 327 
 SJC  HZ I         012 35.46         3.2 0.46            106            409 327 
 CRJC HZ EP   9    011 53.02                             103   -2.47 0  467   3 
 CRJC HN ES        012 40.65                                   -1.09 5  467   3 
                                                                                
