 2015  930 0036 11.4 L   6.801 -73.145148.3  RSN  7 0.3 1.4LRSN                1
 GAP=137        0.79       3.8     3.8  5.7 -0.4591E+01  0.2438E+01  0.3792E+01E
 Epicentro: LOS SANTOS - SANTANDER                                             3
 ACTION:UPD 15-10-28 16:29 OP:cam  STATUS:               ID:20150930003611 L   I
 OLDACT:DUP 15-09-30 14:26 OP:spq  STATUS:               ID:20150930002745d    3
 2015-09-30-0027-44M.COL___355                                                 6
 STAT SP IPHASW D HRMM SECON CODA AMPLIT PERI AZIMU VELO AIN AR TRES W  DIS CAZ7
 BAR2 EZ EP        036 31.22                             171   -0.1310 23.5 190 
 BAR2 EZ ES   1    036 46.70                             171   -0.21 7 23.5 190 
 BAR2 EZ I         036 47.32         6.1 0.30            169           23.5 190 
 BRR  HZ EP   1    036 33.14                             153    0.30 7 71.2 298 
 BRR  HN ES        036 49.92                             153    0.3710 71.2 298 
 BRR  HZ I         036 55.43         5.6 0.44            151           71.2 298 
 PAM  EZ EP        036 34.23                             151    0.3410 77.2  40 
 PAM  EN ES        036 51.07                             151   -0.3610 77.2  40 
 PAM  EZ I         036 53.10         5.5 0.52            155           77.2  40 
 RUS  HZ EP        036 35.19                             144   -0.2410  101 176 
 RUS  HE ES        036 54.34                             144    0.1910  101 176 
 RUS  HZ I         036 54.75         2.3 0.30            146            101 176 
 PTB  HZ EP        036 38.09                             133   -0.51 9  148 259 
 PTB  HN ES        036 59.66                             133   -0.14 9  148 259 
 PTB  HZ I         037  1.23         2.5 0.32            132            148 259 
 SPBC HZ EP        036 40.62                             130    0.50 9  163 219 
 SPBC HN ES        037  2.59                             130    0.08 9  163 219 
 SPBC HZ I         037  7.85         4.4 0.20            130            163 219 
 NOR  HN ES   1    037 14.95                             119   -0.35 6  235 234 
 NOR  HZ I         037 22.18         1.7 0.16            120            235 234 
                                                                                
