 2012  430 0906 40.9 L   6.720 -73.146146.3  RSN  6 0.4 1.6LRSN                1
 GAP=140        0.98       7.1     6.1  9.4 -0.8658E+00  0.1827E+02 -0.1289E+02E
 Epicentro: JORDAN - SANTANDER                                                 3
 ACTION:UPD 12-07-05 11:56 OP:tino STATUS:               ID:20120430090640 L   I
 2012-04-30-0900-00M.COL___189                                                 6
 STAT SP IPHASW D HRMM SECON CODA AMPLIT PERI AZIMU VELO AIN AR TRES W  DIS CAZ7
 BAR2 SZ EP   1    9 7  0.82                             174     0.4 7   15 196 
 BAR2 SZ ES   1    9 7 15.45                             174    -0.2 7   15 196 
 BAR2 SZ I         9 7 16.81         9.7 0.16                            15 196 
 BRR  HZ EP   1    9 7  2.90                             151     0.6 7   76 304 
 BRR  HN ES   1    9 7 19.63                             151     0.5 7   76 304 
 BRR  HZ I         9 7 24.89         9.5 0.19                            76 304 
 PAM  SZ EP   1    9 7  3.80                             149     0.2 7   84  36 
 PAM  SN ES   1    9 7 20.66                             149    -0.6 7   84  36 
 RUS  HN ES   1    9 7 22.21                             146     0.1 7   92 176 
 RUS  HZ I         9 7 24.58         7.1 0.37                            92 176 
 PTB  HZ EP   1    9 7  7.49                             132    -0.3 7  146 262 
 PTB  HE ES   1    9 7 28.25                             132    -0.5 7  146 262 
 PTB  HZ I         9 7 32.58         3.3 0.29                           146 262 
 ZAR  HZ EP   1    9 7 13.01                             122    -0.7 6  207 294 
 ZAR  HN ES   1    9 7 39.54                             122     0.2 6  207 294 
                                                                                
