 2012  830 0229 56.9 L   6.665 -73.168140.7  RSN  7 0.5 1.9LRSN                1
 GAP= 92        0.97      10.8     5.6  8.0 -0.3248E+01  0.2339E+01 -0.2802E+01E
 Epicentro: VILLANUEVA - SANTANDER                                             3
 ACTION:UPD 12-09-10 11:59 OP:ep   STATUS:               ID:20120830022956 L   I
 2012-08-30-0230-00M.COL___218                                                 6
 STAT SP IPHASW D HRMM SECON CODA AMPLIT PERI AZIMU VELO AIN AR TRES W  DIS CAZ7
 BAR2 SZ EP        230 15.84                             176    0.1510 8.18 191 
 BAR2 SZ ES   1    230 30.91                             176    0.55 7 8.18 191 
 BAR2 SZ I         230 31.98        37.0 0.22                          8.18 191 
 GIR2 SZ EP        230 16.13                             161   -0.3210 45.9 356 
 GIR2 SZ ES   2    230 31.08                             161   -0.63 5 45.9 356 
 BRR  HZ EP        230 18.10                             149    0.2410 77.5 309 
 BRR  HN ES   1    230 34.66                             149    0.43 7 77.5 309 
 BRR  HZ I         230 37.24        15.5 0.14                          77.5 309 
 PAM  SZ EP        230 19.05                             146   -0.3910 90.8  35 
 PAM  SZ I         230 19.26        15.0 0.22                          90.8  35 
 PTB  HZ EP        230 22.86                             132   -0.16 9  143 265 
 PTB  HN ES   1    230 42.58                             132   -0.83 7  143 265 
 PTB  HZ I         230 49.11         5.1 0.34                           143 265 
 TAM  HZ EP   2    230 24.22                             130    0.13 5  154  99 
 ZAR  HZ EP        230 30.16                             121    0.75 8  208 296 
 ZAR  HN ES   2    230 54.26                             121   -0.52 4  208 296 
 ZAR  HZ I         231  0.53         8.3 0.34                           208 296 
                                                                                
