 2015  530 0107 17.4 L   6.768 -73.076150.4  RSN  5 0.5 1.5LRSN                1
 GAP=242        1.30       7.6     9.3  9.5 -0.4291E+00  0.1896E+02  0.1146E+02E
 Epicentro: LOS SANTOS - SANTANDER                                             3
 ACTION:UPD 15-09-10 22:08 OP:cam  STATUS:               ID:20150530010717 L   I
 OLDACT:REG 15-05-30 13:06 OP:ar   STATUS:               ID:20150530005746     3
 2015-05-30-0057-46M.COL___312                                                 6
 STAT SP IPHASW D HRMM SECON CODA AMPLIT PERI AZIMU VELO AIN AR TRES W  DIS CAZ7
 BAR2 EZ EP        1 7 37.24                             171   -0.3510 22.8 211 
 BAR2 EZ ES        1 7 52.80                             171   -0.5210 22.8 211 
 BAR2 EZ I         1 7 54.45        10.7 0.18            166           22.8 211 
 BRR  HZ EP        1 7 39.50                             150   -0.0510 79.7 298 
 BRR  HN ES        1 7 57.25                             150    0.4410 79.7 298 
 BRR  HZ I         1 8  9.09         5.4 0.60            145           79.7 298 
 RUS  HZ EP        1 7 42.24                             146    0.8810 96.9 180 
 RUS  HN ES        1 7 59.96                             146   -0.0810 96.9 180 
 RUS  HZ I         1 8  1.52         3.7 0.18            152           96.9 180 
 SPBC HZ EP        1 7 45.71                             130   -0.78 9  166 222 
 SPBC HE ES        1 8  9.80                             130    0.63 9  166 222 
 SPBC HZ I         1 8 13.95         5.4 0.22            132            166 222 
 NOR  HZ EP        1 7 54.08                             119    0.20 8  239 236 
 NOR  HE ES        1 8 21.78                             119   -0.54 8  239 236 
 NOR  HZ I         1 8 25.79         2.1 0.38            121            239 236 
                                                                                
