 2012  130 0316 56.9 L   6.786 -73.095146.7  RSN  9 0.4 1.5LRSN                1
 GAP=144        0.90       4.9     5.3  9.7 -0.3383E+01  0.1379E+02  0.4808E+01E
 Epicentro: LOS SANTOS - SANTANDER                                             3
 ACTION:UP  12-02-03 08:22 OP:REBC STATUS:               ID:20120130031656 L   I
 2012-01-30-0310-00M.COL___188                                                 6
 STAT SP IPHASW D HRMM SECON CODA AMPLIT PERI AZIMU VELO SNR AR TRES W  DIS CAZ7
 BAR2 SZ EP   1    317 16.58                             170     0.0 7   24 204 
 BAR2 SZ ES   2    317 31.39                             170    -0.6 5   24 204 
 BAR2 SZ I         317 33.11         6.7 0.16                            24 204 
 GIR2 SZ EP   1    317 16.94                             166     0.2 7   34 341 
 PAM  SZ EP   1    317 18.98                             152    -0.1 7   75  36 
 PAM  SN ES   1    317 36.08                             152    -0.3 7   75  36 
 PAM  SZ I         317 39.31         6.5 0.48                            75  36 
 BRR  HZ EP   1    317 19.17                             151     0.7 7   77 298 
 BRR  HN ES   1    317 35.47                             151     0.2 7   77 298 
 BRR  HZ I         317 39.00         6.8 0.11                            77 298 
 RUS  HN ES   1    317 39.46                             144     0.4 7   99 179 
 PTB  HZ EP   1    317 23.75                             131    -0.6 7  153 260 
 PTB  HE ES   1    317 45.67                             131    -0.2 7  153 260 
 PTB  HZ I         317 48.46                                            153 260 
 ZAR  HN ES   1    317 55.32                             122    -0.4 6  210 292 
 NOR  SN ES   1    318  1.82                             118     0.6 6  238 236 
 CHI  HN ES   1    318  3.49                             117    -0.6 6  249 197 
                                                                                
