 2012 1030 0848  9.8 L   6.646 -73.411121.1  RSN  4 0.1 1.6LRSN                1
 GAP=197        0.37      10.2     6.8  4.6  0.6080E+02  0.1510E+02  0.1618E+02E
 Epicentro: EL CARMEN DE CHUCURI - SANTANDER                                   3
 ACTION:UPD 12-11-22 17:06 OP:ep   STATUS:               ID:20121030084809 L   I
 2012-10-30-0839-50M.COL___189                                                 6
 STAT SP IPHASW D HRMM SECON CODA AMPLIT PERI AZIMU VELO AIN AR TRES W  DIS CAZ7
 BAR2 SZ EP        848 26.63                             167    0.0910 26.0 103 
 BAR2 SZ ES   1    848 39.53                             167   -0.07 7 26.0 103 
 BAR2 SZ I         848 40.32        21.5 0.40                          26.0 103 
 GIR2 SZ EP   2    848 27.64                             155    0.14 5 53.5  27 
 BRR  HZ EP        848 27.49                             152   -0.2110 60.8 327 
 BRR  HN ES   1    848 41.75                             152    0.09 7 60.8 327 
 BRR  HN I         848 49.32         6.4 0.14                          60.8 327 
 ZAR  HZ EP   1    848 38.87                             119    0.14 7  185 300 
 ZAR  HN ES   1    849  1.32                             119    0.02 7  185 300 
 ZAR  HN I         849  4.13         3.4 0.28                           185 300 
                                                                                
