 2014  930 0733 28.3 L   6.805 -73.154137.9  RSN 15 0.4 2.3LRSN                1
 GAP=112        0.90       2.5     2.9  4.9 -0.1392E+00  0.2581E+01  0.1073E+01E
 Epicentro: LOS SANTOS - SANTANDER                                             3
 ACTION:UPD 14-10-03 23:10 OP:nd   STATUS:               ID:20140930073328 L   I
 OLDACT:UP  14-09-30 19:13 OP:mh   STATUS:               ID:20140930072809d    3
 OLDACT:UP  14-09-30 19:12 OP:mh   STATUS:               ID:20140930072809d    3
 OLDACT:DUP 14-09-30 19:03 OP:mh   STATUS:               ID:20140930072809d    3
 OLDACT:UP  14-09-30 18:55 OP:mh   STATUS:               ID:20140930072808     3
 OLDACT:REG 14-09-30 12:51 OP:stll STATUS:               ID:20140930072808     3
 2014-09-30-0728-08M.COL___286                                                 6
 STAT SP IPHASW D HRMM SECON CODA AMPLIT PERI AZIMU VELO AIN AR TRES W  DIS CAZ7
 BAR2 SZ EP     D  733 47.28                             170    0.3410 23.7 188 
 BAR2 SZ ES   1    734  1.63                             170    0.11 7 23.7 188 
 BAR2 SZ I         734  3.07        41.8 0.21            170           23.7 188 
 BRR  HZ EP        733 49.09                             151    0.6010 70.2 298 
 BRR  HN ES        734  4.85                             151    0.5710 70.2 298 
 BRR  HZ I         734 10.55        35.9 0.54            144           70.2 298 
 RUS  HZ EP   1    733 51.43                             142    0.15 7  101 176 
 RUS  HN ES        734  9.02                             142   -0.2210  101 176 
 RUS  HZ I         734 10.03        30.7 0.22            141            101 176 
 PTB  HZ EP        733 53.93                             130   -0.59 9  147 259 
 PTB  HN ES        734 14.34                             130   -0.66 9  147 259 
 TAM  HZ EP     C  733 55.57                             128    0.16 9  156 105 
 TAM  HN ES        734 16.36                             128   -0.23 9  156 105 
 TAM  HZ I         734 17.42        11.4 0.30            127            156 105 
 OCA  HZ EP   1    733 55.21                             128   -0.69 7  160 353 
 OCA  HN ES        734 17.13                             128   -0.33 9  160 353 
 OCA  HZ I         734 20.95        25.9 0.16            123            160 353 
 SPBC HZ EP     D  733 56.17                             127    0.02 9  163 219 
 SPBC HN ES        734 17.87                             127   -0.03 9  163 219 
 SPBC HZ I         734 20.26        26.8 0.26            124            163 219 
 ZAR  HZ EP   1    734  0.20                             121    0.11 6  203 292 
 ZAR  HZ I         734 31.78        20.8 0.40            116            203 292 
 SML  HZ EP   1    734  3.77                             116   -0.58 6  243 335 
 SML  HN ES        734 32.64                             116    0.13 8  243 335 
 SML  HZ I         734 42.65        31.5 0.10            112            243 335 
 ROSC BZ EP   4    734  2.26                             115   -3.70 0  253 211 
 ROSC BN ES   4    734 37.26                             115    1.90 0  253 211 
 ROSC BZ I         734 40.78        11.9 0.35            112            253 211 
 CBOC HZ EP        734 15.40                             108    0.62 7  333 252 
 CBOC HN ES        734 51.16                             108    0.10 7  333 252 
 TOL  SZ EP        734 16.76                             108    0.58 7  343 224 
 TOL  SN ES   4    734 55.43                             108    1.87 0  343 224 
 MON  HZ EP   4    734 14.96                             107   -1.88 0  353 308 
 MON  HN ES   4    734 53.00                             107   -1.74 0  353 308 
 MON  HZ I         734 56.83         4.7 0.20            104            353 308 
 PRA  HZ EP        734 21.63                             105    0.11 6  392 209 
 PRA  HN ES        735  2.50                             105   -0.56 6  392 209 
 PRA  HZ I         735  8.72         8.6 0.38            103            392 209 
 ORTC HZ EP        734 22.23                             105    0.33 6  395 216 
 ORTC HN ES        735  3.43                             105   -0.32 6  395 216 
 ORTC HZ I         735 11.89         6.2 0.48            103            395 216 
 SJC  HZ EP   4    734 21.66                             104   -1.80 0  408 327 
 SJC  HN ES   4    735  3.03                             104   -3.48 0  408 327 
                                                                                
