 2017 1230 0436 48.6 L   6.842 -73.160146.9  RSN 18 0.6 2.3LRSN                1
 GAP= 64        1.35       3.0     3.8  6.7 -0.1353E+01  0.8313E+01  0.1537E-02E
 Epicentro: LOS SANTOS - SANTANDER                                             3
 ACTION:UPD 18-01-04 13:25 OP:rebc STATUS:               ID:20171230043648 L   I
 OLDACT:DUP 17-12-30 16:32 OP:osc  STATUS:               ID:20171230042739d    3
 2017-12-30-0428-00M.COL___463                                                 6
 STAT SP IPHASW D HRMM SECON CODA AMPLIT PERI AZIMU VELO AIN AR TRES W  DIS CAZ7
 BAR2 EZ EP     D  437  8.08                             169   -0.3610 27.7 185 
 BAR2 EZ ES        437 23.57                             169   -0.3610 27.7 185 
 BAR2 EZ I         437 24.67        44.9 0.18            168           27.7 185 
 PAM  EZ EP        437 10.87                             152    0.1010 74.9  43 
 PAM  EN ES        437 28.17                             152    0.0910 74.9  43 
 PAM  EZ I         437 30.55        21.1 0.40            151           74.9  43 
 PTB  HZ EP        437 14.53                             132   -1.06 9  147 257 
 PTB  HE ES        437 36.66                             132    0.00 9  147 257 
 PTB  HZ I         437 37.58        18.0 0.14            128            147 257 
 OCA  HZ EP        437 16.50                             131   -0.03 9  155 354 
 OCA  HE ES        437 38.53                             131    0.20 9  155 354 
 OCA  HZ I         437 44.52        43.0 0.20            127            155 354 
 TAM  HZ EP        437 16.52                             130   -0.08 9  158 106 
 TAM  HE ES        437 38.45                             130   -0.01 9  158 106 
 TAM  HZ I         437 38.86        15.2 0.28            130            158 106 
 SPBC HZ EP        437 17.07                             129   -0.35 9  166 218 
 SPBC HN ES        437 40.11                             129    0.20 9  166 218 
 SPBC HZ I         437 46.08        35.0 0.28            125            166 218 
 YPLC HE ES        437 42.63                             126    0.03 9  182 152 
 ZAR  HZ EP        437 19.96                             123   -0.81 9  201 291 
 ZAR  HE ES        437 46.75                             123    0.87 9  201 291 
 ZAR  HZ I         437 51.61        27.6 0.38            119            201 291 
 ROSC BZ EP        437 28.36                             117    1.25 8  256 210 
 ROSC BN ES        437 57.47                             117    0.31 8  256 210 
 ROSC BZ I         438  3.15        19.8 0.35            114            256 210 
 URE  HZ EP        437 28.58                             114   -0.77 7  281 291 
 URE  HZ I         438 11.16        21.1 0.22            111            281 291 
 DRL03HZ EP        437 30.14                             114    0.44 7  284 353 
 DRL03HN ES        438  3.16                             114    1.38 7  284 353 
 GUY2CHZ EP        437 33.57                             112    1.17 7  303 234 
 GUY2CHN ES        438  5.71                             112   -0.87 7  303 234 
 GUY2CHZ I         438 16.10        11.0 0.66                           303 234 
 VIL  EZ EP        437 32.74                             112    0.21 7  308 191 
 VIL  EE ES        438  7.10                             112    0.29 7  308 191 
 VIL  EZ I         438 13.10        13.5 0.44            110            308 191 
 LL6C HZ EP        437 33.47                             111   -0.32 7  320 358 
 CBOC HZ EP        437 35.90                             110    0.36 7  334 251 
 CBOC HN ES        438 12.55                             110    0.39 7  334 251 
 CBOC HZ I         438 29.22         4.6 0.52            107            334 251 
 PRA  HN ES        438 23.51                             106   -1.09 6  395 209 
 ORTC HZ EP        437 43.21                             106    0.34 6  398 216 
 ORTC HN ES        438 26.08                             106    0.86 6  398 216 
 ORTC HZ I         438 31.93         4.2 0.42            104            398 216 
 SJC  HZ EP        437 42.27                             106   -1.35 6  404 327 
 SJC  HN ES        438 25.76                             106   -0.79 6  404 327 
 SJC  HZ I         438 30.85         3.4 0.30            104            404 327 
                                                                                
