 2016  830 0907 10.9 L   6.774 -73.089147.8  RSN 12 0.4 1.8LRSN                1
 GAP=124        0.94       3.1     3.4  4.7 -0.2993E+01  0.2456E+01 -0.3568E+00E
 Epicentro: LOS SANTOS - SANTANDER                                             3
 ACTION:UPD 16-10-29 15:40 OP:rebc STATUS:               ID:20160830090710 L   I
 OLDACT:UP  16-08-30 18:16 OP:edw  STATUS:               ID:20160830085730d    3
 OLDACT:DUP 16-08-30 18:09 OP:edw  STATUS:               ID:20160830085730d    3
 2016-08-30-0858-00M.COL___346                                                 6
 STAT SP IPHASW D HRMM SECON CODA AMPLIT PERI AZIMU VELO AIN AR TRES W  DIS CAZ7
 BAR2 EZ EP        9 7 30.51                             171   -0.2010 22.6 207 
 BAR2 EZ ES        9 7 46.36                             171    0.1610 22.6 207 
 BAR2 EZ I         9 7 46.81        13.6 0.30                          22.6 207 
 PAM  EZ EP        9 7 33.36                             152    0.1610 75.9  35 
 PAM  EN ES        9 7 50.67                             152    0.0510 75.9  35 
 PAM  EZ I         9 7 53.01        13.6 0.62                          75.9  35 
 BRR  HZ EP        9 7 32.46                             151   -0.1510 78.0 298 
 BRR  HN ES        9 7 49.81                             151    0.2210 78.0 298 
 BRR  HZ I         9 7 51.51        10.8 0.14                          78.0 298 
 RUS  HZ EP        9 7 35.00                             145    0.4110 97.5 180 
 RUS  HN ES        9 7 53.15                             145    0.0510 97.5 180 
 RUS  HZ I         9 7 54.25         4.7 0.34                          97.5 180 
 PTB  HZ EP   9    9 7 37.44                             131   -1.06 0  153 260 
 PTB  HN ES        9 7 58.59                             131   -0.41 9  153 260 
 OCA  HZ EP        9 7 39.77                             129    0.11 9  164 351 
 OCA  HN ES        9 8  2.23                             129    0.09 9  164 351 
 OCA  HZ I         9 8  6.34        17.8 0.20                           164 351 
 SPBC HZ EP        9 7 39.51                             129   -0.17 9  165 221 
 SPBC HN ES        9 8  1.82                             129   -0.35 9  165 221 
 SPBC HZ I         9 8  5.46        10.3 0.24                           165 221 
 ZAR  HZ EP        9 7 43.63                             122   -0.51 8  211 292 
 ZAR  HN ES        9 8  9.58                             122   -0.52 8  211 292 
 ZAR  HZ I         9 8 14.63         7.3 0.32                           211 292 
 NOR  HZ EP        9 7 46.39                             119   -0.68 8  238 236 
 NOR  HN ES        9 8 14.88                             119   -0.45 8  238 236 
 NOR  HZ I         9 8 18.29         4.4 0.20                           238 236 
 HEL  HZ EP        9 7 52.57                             115    0.81 7  277 257 
 HEL  HN ES        9 8 24.76                             115    1.09 7  277 257 
 HEL  HZ I         9 8 28.90         2.8 0.46                           277 257 
 SOCV BZ EP        9 7 53.28                             113   -0.31 7  298  56 
 SOCV BN ES   4    9 8 25.37                             113   -1.55 0  298  56 
 GUY2CHZ EP   2    9 7 55.28                             112    0.33 4  305 236 
 GUY2CHN ES   2    9 8 29.93                             112    0.58 4  305 236 
                                                                                
