 2017  630 0139 59.0 L   6.772 -73.127147.4  RSN 10 0.6 1.6LRSN                1
 GAP=122        0.97       5.5     4.2  6.5 -0.1629E+01  0.1912E+01  0.1716E+02E
 Epicentro: LOS SANTOS - SANTANDER                                             3
 ACTION:UPD 17-09-14 16:56 OP:jn   STATUS:               ID:20170630013959 L   I
 OLDACT:UP  17-06-30 14:12 OP:and  STATUS:               ID:20170630013741d    3
 OLDACT:UP  17-06-30 14:12 OP:and  STATUS:               ID:20170630013741d    3
 OLDACT:DUP 17-06-30 14:10 OP:and  STATUS:               ID:20170630013741d    3
 2017-06-30-0138-00M.COL___371                                                 6
 STAT SP IPHASW D HRMM SECON CODA AMPLIT PERI AZIMU VELO AIN AR TRES W  DIS CAZ7
 BAR2 EZ EP   2    140 19.02                             172    0.28 5 20.8 197 
 BAR2 EZ ES        140 33.61                             172   -0.5510 20.8 197 
 BAR2 EZ I         140 34.72        17.5 0.28            170           20.8 197 
 BRR  HZ EP        140 20.77                             151    0.3010 74.5 300 
 BRR  HN ES        140 37.69                             151    0.4410 74.5 300 
 PAM  EZ IP     C  140 21.83                             150    0.4210 78.5  37 
 PAM  EN ES        140 38.70                             150   -0.2310 78.5  37 
 PAM  EE I         140 43.91         6.6 0.34            154           78.5  37 
 PTB  HZ EP        140 25.90                             131   -0.29 9  149 260 
 PTB  HN ES        140 46.68                             131   -0.76 9  149 260 
 PTB  HZ I         140 53.97         3.1 0.32            132            149 260 
 SPBC HZ EP   2    140 28.01                             129    0.52 5  162 220 
 SPBC HN ES   2    140 50.74                             129    1.00 5  162 220 
 SPBC HZ I         140 52.06         6.8 0.12            130            162 220 
 ZAR  HN ES        140 57.56                             122    0.09 8  207 293 
 ZAR  HZ I         141  3.19         3.8 0.16            123            207 293 
 NOR  HN ES   3    141  2.20                             118   -0.51 2  235 235 
 CHI  HZ EP        140 36.57                             117    0.08 8  246 196 
 CHI  HN ES   3    141  7.74                             117    1.98 2  246 196 
 CHI  HZ I         141 12.07         1.8 0.36            118            246 196 
 GUY2CHZ EP        140 42.79                             112    0.15 7  301 235 
 GUY2CHN ES   3    141 19.25                             112    2.54 2  301 235 
 GUY2CHZ I         141 25.52         1.9 0.36                           301 235 
 PTGC HZ IP     D  140 42.10                             112   -0.38 7  305 159 
                                                                                
