 2012 1030 0309 33.3 L   6.801 -73.133148.9  RSN 10 0.4 2.8LRSN 3.3WRSN        1
 SPEC AVERAGE  MO 14.0 ST 16.3 OM  2.6 f0 4.21 R0.3629 AL 2.49 WI 23.5 MW  3.3 3
 SPEC SD       MO  0.2 ST 15.4 OM  0.6 f00.821 R0.0701 AL      WI      MW  0.2 3
 GAP= 72        1.01       3.4     4.2  5.3  0.1906E+01  0.3686E+01  0.2144E+01E
 Epicentro: LOS SANTOS - SANTANDER                                             3
 SPEC TAM HH Z MO 14.0 ST  4.4 OM  1.5 f0 3.25 R0.4523 AL 1.60 WI  9.7 MW  3.3 3
 SPEC TAM HH Z T 310 1 K 0.000 GD  214 VP 7.60 DE 3.00 Q0230.0 QA 0.60 VS 4.20 3
 SPEC OCA HH N MO 14.3 ST 33.8 OM  2.6 f0 4.94 R0.2976 AL 2.64 WI 20.3 MW  3.5 3
 SPEC OCA HH N T 31023 K 0.000 GD  218 VS 4.20 DE 3.00 Q0230.0 QA 0.60 VS 4.20 3
 SPEC RUS HH N MO 13.7 ST  2.8 OM  2.1 f0 3.37 R0.4362 AL 1.95 WI 12.2 MW  3.1 3
 SPEC RUS HH N T 31014 K 0.000 GD  179 VS 4.20 DE 3.00 Q0230.0 QA 0.60 VS 4.20 3
 SPEC HEL HH E MO 14.1 ST  7.7 OM  2.2 f0 3.65 R0.4027 AL 2.48 WI 46.3 MW  3.3 3
 SPEC HEL HH E T 31043 K 0.000 GD  310 VS 4.20 DE 3.00 Q0230.0 QA 0.60 VS 4.20 3
 SPEC CHI HH N MO 13.7 ST  7.5 OM  1.9 f0 4.66 R0.3155 AL 2.46 WI 28.4 MW  3.1 3
 SPEC CHI HH N T 31040 K 0.000 GD  290 VS 4.20 DE 3.00 Q0230.0 QA 0.60 VS 4.20 3
 SPEC BRR HH N MO 14.3 ST 41.7 OM  2.7 f0 5.38 R0.2732 AL 3.81 WI 23.9 MW  3.5 3
 SPEC BRR HH N T 31012 K 0.000 GD  165 VS 4.20 DE 3.00 Q0230.0 QA 0.60 VS 4.20 3
 ACTION:UPD 12-11-22 17:06 OP:ep   STATUS:               ID:20121030030933 L   I
 2012-10-30-0307-35M.COL___196                                                 6
 STAT SP IPHASW D HRMM SECON CODA AMPLIT PERI AZIMU VELO AIN AR TRES W  DIS CAZ7
 BAR2 SZ IP     C  3 9 53.25                             171   -0.0610 23.7 193 
 BAR2 SZ ES        310  9.05                             171    0.1410 23.7 193 
 BAR2 SZ I         310 11.79       102.2 0.20                          23.7 193 
 GIR2 SZ EP        3 9 53.32                             167   -0.0210 31.5 348 
 GIR2 SZ ES   1    310  8.21                             167   -0.77 7 31.5 348 
 BRR  HZ IP     C  3 9 55.18                             153    0.3310 72.4 298 
 BRR  HZ I         3 9 55.35       125.1 0.14                          72.4 298 
 BRR  HN ES        310 12.53                             153    0.8710 72.4 298 
 BRR  HN ES        310 12.54                                           72.4 298 
 PAM  SZ IP     C  3 9 56.06                             152    0.2710 76.4  39 
 PAM  SZ I         3 9 56.25        60.7 0.20                          76.4  39 
 PAM  SN ES        310 13.37                             152    0.0410 76.4  39 
 RUS  HZ EP        3 9 57.06                             144   -0.2910  101 177 
 RUS  HN ES        310 15.69                             144   -0.4310  101 177 
 RUS  HN I         310 17.57        56.4 0.32                           101 177 
 TAM  HZ IP     D  310  1.35                             132    0.25 9  154 105 
 TAM  HZ I         310  1.50        79.3 0.32                           154 105 
 TAM  HE ES   1    310 23.19                             132    0.40 7  154 105 
 OCA  HZ EP        310  1.74                             130   -0.12 9  160 353 
 OCA  HN ES        310 23.50                             130   -0.64 9  160 353 
 OCA  HN I         310 27.42       252.8 0.26                           160 353 
 ZAR  HZ EP        310  5.75                             123   -0.32 8  205 292 
 ZAR  HN ES   1    310 31.27                             123   -0.37 6  205 292 
 CHI  HZ EP        310 10.86                             118   -0.36 8  249 195 
 CHI  HN ES   1    310 40.81                             118    0.02 6  249 195 
 CHI  HN I         310 45.52        28.9 0.30                           249 195 
 HEL  HZ EP        310 14.54                             115    0.72 8  273 256 
                                                                                
