 2010 1030 0703 43.0 L   6.764 -73.085142.0  RSN  9 0.5 2.0LRSN                1
 GAP=163        1.18       5.6     7.4  8.6 -0.1779E+02 -0.1085E+01  0.2041E+01E
 Epicentro: LOS SANTOS - SANTANDER                                             3
 ACTION:UP  11-02-18 11:13 OP:tino STATUS:               ID:20101030070343 L   I
 2010-10-30-0700-32S.COL___127                                                 6
 STAT SP IPHASW D HRMM SECON CODA AMPLIT PERI AZIMU VELO SNR AR TRES W  DIS CAZ7
 BAR2 SZ EP        7 4  2.23                             171     0.110   22 210 
 BAR2 SZ ES   1    7 4 16.64                             171    -0.4 7   22 210 
 BAR2 SZ I         7 4 18.61        26.0 0.37                            22 210 
 BRR  HZ EP        7 4  4.13                             149    -0.110   79 299 
 BRR  HZ I         7 4  6.06        38.8 0.30                            79 299 
 BRR  HN ES        7 4 21.40                             149     0.610   79 299 
 RUS  HZ EP        7 4  6.11                             144     0.010   96 180 
 RUS  HN ES   2    7 4 24.06                             144     0.0 5   96 180 
 RUS  HZ I         7 4 26.35         7.0 0.19                            96 180 
 BRI  SZ EP        7 4  6.94                             140     0.310  110  17 
 GRA  SZ EP        7 4  8.15                             136     0.110  128  14 
 GRA  SZ I         7 4  9.58        16.5 0.83                           128  14 
 GRA  SZ ES   2    7 4 27.11                             136    -0.5 5  128  14 
 OCA  SZ EP        7 4 10.97                             128    -0.5 9  165 351 
 OCA  SZ ES   2    7 4 32.84                             128    -0.9 5  165 351 
 OCA  SZ I         7 4 36.32        13.2 0.08                           165 351 
 NOR  SZ EP        7 4 18.77                             117    -0.1 8  238 236 
 NOR  SN ES        7 4 46.41                             117    -0.4 8  238 236 
 NOR  SZ I         7 4 51.55         1.4 0.40                           238 236 
 HEL  HZ EP   1    7 4 25.06                             114     1.4 6  278 257 
 HEL  HN ES   2    7 4 54.21                             114    -1.1 4  278 257 
 HEL  HZ I         7 5  1.14         8.5 0.52                           278 257 
 PRA  HN ES   2    7 5 17.79                             106    -0.2 3  392 211 
 PRA  HZ I         7 5 21.16        12.5 0.33                           392 211 
                                                                                
