 2011  530 0105 44.1 L   6.781 -73.128151.8  RSN  8 0.3 1.8LRSN                1
 GAP=161        0.62       2.9     4.4  5.1 -0.4237E+01  0.4569E+01 -0.5189E-01E
 Epicentro: LOS SANTOS - SANTANDER                                             3
 ACTION:UP  11-06-29 08:57 OP:tino STATUS:               ID:20110530010544 L   I
 2011-05-30-0102-53S.COL___113                                                 6
 STAT SP IPHASW D HRMM SECON CODA AMPLIT PERI AZIMU VELO SNR AR TRES W  DIS CAZ7
 BAR2 SZ EP   1    1 6  4.13                             171    -0.3 7   22 196 
 BAR2 SZ ES   1    1 6 20.28                             171     0.0 7   22 196 
 BAR2 SZ I         1 6 20.65        18.0 0.18                            22 196 
 BRR  HZ EP   1    1 6  5.93                             153    -0.1 7   74 299 
 BRR  HZ I         1 6  7.52        14.8 0.11                            74 299 
 BRR  HN ES   1    1 6 23.31                             153     0.1 7   74 299 
 RUS  HZ EP   1    1 6  8.16                             146    -0.2 7   98 177 
 RUS  HN ES   1    1 6 27.44                             146     0.3 7   98 177 
 RUS  HZ I         1 6 28.45         6.8 0.31                            98 177 
 GRA  SZ EP   1    1 6 10.11                             138     0.1 7  127  16 
 GRA  SZ ES   1    1 6 29.77                             138    -0.4 7  127  16 
 GRA  SZ I         1 6 34.43         4.8 0.38                           127  16 
 OCA  SZ EP   1    1 6 13.19                             131     0.1 7  163 353 
 OCA  SZ ES   1    1 6 36.22                             131     0.5 7  163 353 
 OCA  SZ I         1 6 39.22         5.9 0.30                           163 353 
 NOR  SZ EP   1    1 6 20.59                             120     0.3 6  235 235 
 NOR  SN ES   1    1 6 48.46                             120     0.0 6  235 235 
 HEL  HN ES   1    1 6 56.07                             116    -0.4 6  273 256 
 HEL  HZ I         1 7  4.53         5.5 0.36                           273 256 
 PRA  HZ EP   1    1 6 37.98                             107     0.2 4  391 210 
                                                                                
