 2017 1230 0944 19.1 L   6.735 -73.135143.4  RSN  4 0.4 0.8LRSN                1
 GAP=163        1.03       9.4     6.4 11.5 -0.1333E+02  0.4032E+02 -0.4158E+01E
 Epicentro: JORDAN - SANTANDER                                                 3
 ACTION:UPD 18-01-04 13:25 OP:rebc STATUS:               ID:20171230094419 L   I
 OLDACT:UP  17-12-30 17:07 OP:dani STATUS:               ID:20171230093735d    3
 OLDACT:UP  17-12-30 17:07 OP:dani STATUS:               ID:20171230093735d    3
 OLDACT:UP  17-12-30 17:06 OP:dani STATUS:               ID:20171230093735d    3
 OLDACT:UP  17-12-30 17:06 OP:dani STATUS:               ID:20171230093735d    3
 OLDACT:DUP 17-12-30 17:04 OP:dani STATUS:               ID:20171230093735d    3
 OLDACT:REG 17-12-30 13:43 OP:osc  STATUS:               ID:20171230093734     3
 2017-12-30-0938-00M.COL___449                                                 6
 STAT SP IPHASW D HRMM SECON CODA AMPLIT PERI AZIMU VELO AIN AR TRES W  DIS CAZ7
 BAR2 EZ EP        944 38.32                             173   -0.0310 16.6 198 
 BAR2 EZ ES        944 53.83                             173    0.4810 16.6 198 
 BAR2 EZ I         944 55.47         2.0 0.26            172           16.6 198 
 PAM  EZ EP   4    944 43.63                             149    2.23 0 82.4  36 
 PAM  EN ES        944 58.44                             149   -0.3310 82.4  36 
 PAM  EZ I         944 59.37         0.8 0.33            151           82.4  36 
 PTB  HZ EP        944 46.08                             131    0.19 9  148 262 
 PTB  HN ES        945  6.08                             131   -0.70 9  148 262 
 ZAR  HE ES        945 17.79                             121    0.46 8  208 294 
                                                                                
