 2010 1230 0636 39.7 L   6.810 -73.117139.4  RSN 13 0.5 2.2LRSN                1
 GAP=138        0.99       4.1     7.2  8.2 -0.1059E+02  0.2289E+02  0.1574E+01E
 Epicentro: LOS SANTOS - SANTANDER                                             3
 ACTION:UP  11-01-14 15:28 OP:pat  STATUS:               ID:20101230063639 L   I
 2010-12-30-0620-00M.COL___137                                                 6
 STAT SP IPHASW D HRMM SECON CODA AMPLIT PERI AZIMU VELO SNR AR TRES W  DIS CAZ7
 BTL  SZ EP   1    636 58.72                             171     0.2 8   21 306 
 BAR2 SZ EP   1    636 58.59                             169     0.0 8   25 197 
 BAR2 SZ ES   1    637 13.11                             169    -0.3 8   25 197 
 BAR2 SZ I         637 14.93        26.9 0.16                            25 197 
 RUS  HZ EP   1    637  2.60                             142    -0.3 8  102 178 
 RUS  HN ES   1    637 21.37                             142     0.4 8  102 178 
 RUS  HZ I         637 22.43        15.0 0.23                           102 178 
 GRA  SZ EP        637  4.40                             136     0.210  124  16 
 GRA  SZ ES   2    637 24.26                             136     0.9 5  124  16 
 GRA  SZ I         637 25.33        15.1 0.28                           124  16 
 OCA  SZ ES   1    637 28.47                             128    -0.7 7  160 352 
 OCA  SZ I         637 36.31        23.5 0.21                           160 352 
 YOP  SZ EP   2    637  8.91                             125    -0.4 5  179 154 
 YOP  SZ I         637 39.53         7.9 0.41                           179 154 
 NOR  SZ EP   2    637 14.99                             117    -0.5 4  238 235 
 CHI  HZ EP   1    637 16.89                             115    -0.4 6  251 196 
 CHI  HN ES   1    637 45.74                             115    -0.8 6  251 196 
 CHI  HZ I         637 48.63        16.2 0.41                           251 196 
 ROSC BZ EP   1    637 18.83                             115     1.0 6  255 212 
 ROSC BN ES   1    637 47.81                             115     0.3 6  255 212 
 ROSC BZ I         637 53.28        25.9 0.23                           255 212 
 HEL  HZ EP   1    637 19.83                             113    -0.2 6  275 256 
 HEL  HN ES   1    637 50.82                             113    -0.6 6  275 256 
 HEL  HZ I         637 56.71         9.3 0.27                           275 256 
 GUY  SZ EP   1    637 23.76                             111     0.3 5  305 235 
 GUY  SN ES   1    637 58.50                             111     1.0 5  305 235 
 GUY  SZ I         638  5.53        12.1 0.26                           305 235 
 TOL  SZ EP   1    637 28.46                             108     0.4 5  347 225 
 PRA  HZ EP   1    637 32.73                             105    -0.6 5  395 210 
 PRA  HN ES   1    638 14.81                             105    -0.3 5  395 210 
                                                                                
