 2017  130 0917 21.9 L   6.474 -73.154146.0  RSN  5 0.3 1.1LRSN                1
 GAP=105        0.57       4.9     3.5  4.7  0.6434E+01 -0.3933E+01 -0.6489E+01E
 Epicentro: VALLE DE SAN JOSE - SANTANDER                                      3
 ACTION:UPD 17-05-22 16:04 OP:jn   STATUS:               ID:20170130091721 L   I
 OLDACT:UP  17-01-30 17:42 OP:and  STATUS:               ID:20170130090647     3
 OLDACT:UP  17-01-30 17:42 OP:and  STATUS:               ID:20170130090647     3
 OLDACT:REG 17-01-30 14:34 OP:ar   STATUS:               ID:20170130090647     3
 2017-01-30-0908-00M.COL___318                                                 6
 STAT SP IPHASW D HRMM SECON CODA AMPLIT PERI AZIMU VELO AIN AR TRES W  DIS CAZ7
 BAR2 EZ EP        917 41.17                             175   -0.2110 13.4 347 
 BAR2 EZ ES        917 56.34                             175   -0.2510 13.4 347 
 BAR2 EZ I         917 57.50         5.4 0.38            176           13.4 347 
 RUS  HZ EP        917 43.53                             155    0.1110 64.7 173 
 RUS  HN ES        918  0.39                             155    0.1610 64.7 173 
 RUS  HZ I         918  2.20         2.7 0.34            154           64.7 173 
 BRR  HZ EP        917 44.64                             146    0.2010 93.3 319 
 BRR  HN ES   2    918  2.75                             146    0.71 5 93.3 319 
 PTB  HZ EP   2    917 48.19                             133   -0.36 5  144 273 
 PTB  HN ES        918  9.23                             133   -0.11 9  144 273 
 PTB  HZ I         918 10.14         0.7 0.32            134            144 273 
 TAM  HZ EP        917 49.18                             131   -0.00 9  151  92 
                                                                                
