 2016 1030 0430 31.8 L   6.760 -73.167143.9  RSN  5 0.4 1.7LRSN                1
 GAP=232        1.08       6.3     6.8  7.9  0.9556E+01  0.7524E+01  0.5118E+01E
 Epicentro: LOS SANTOS - SANTANDER                                             3
 ACTION:UPD 16-11-09 19:24 OP:rebc STATUS:               ID:20161030043031 L   I
 OLDACT:REG 16-10-30 14:20 OP:cog  STATUS:               ID:20161030042749     3
 2016-10-30-0428-00M.COL___313                                                 6
 STAT SP IPHASW D HRMM SECON CODA AMPLIT PERI AZIMU VELO AIN AR TRES W  DIS CAZ7
 BAR2 EZ EP        430 50.43                             172   -0.6510 18.7 185 
 BAR2 EZ ES        431  6.03                             172   -0.1210 18.7 185 
 BAR2 EZ I         431  8.25         5.8 0.42            171           18.7 185 
 BRR  HZ EP        430 52.51                             152   -0.2110 71.4 303 
 BRR  HE ES        431  9.75                             152    0.6910 71.4 303 
 RUS  HN EP        430 55.49                             145    0.4610 96.4 174 
 RUS  HE ES        431 13.07                             145   -0.1110 96.4 174 
 PTB  HZ EP        430 58.18                             132   -0.12 9  145 260 
 PTB  HN ES        431 18.49                             132   -0.50 9  145 260 
 PTB  HZ I         431 19.76         9.2 0.05            133            145 260 
 SPBC HZ EP        431  0.16                             129    0.50 9  158 219 
 SPBC HE ES        431 21.50                             129    0.09 9  158 219 
 SPBC HZ I         431 24.07         6.2 0.26            130            158 219 
                                                                                
