 2010  430 0408 39.3 L   6.702 -73.024138.0  RSN  4 0.2 1.5LRSN                1
 GAP=199        0.38       4.6     5.6  6.6 -0.1045E+02 -0.1273E+02  0.8112E+01E
 Epicentro: ARATOCA - SANTANDER                                                3
 ACTION:UPD 10-08-24 10:01 OP:vdl  STATUS:               ID:20100430040839 L   I
 2010-04-30-0404-46S.COL___104                                                 6
 STAT SP IPHASW D HRMM SECON CODA AMPLIT PERI AZIMU VELO SNR AR TRES W  DIS CAZ7
 BAR2 SZ EP   1    4 8 57.99                             171     0.1 7   21 235 
 BAR2 SZ ES   2    4 9 12.44                             171     0.0 5   21 235 
 BRR  HZ EP   2    4 9  0.44                             146    -0.2 5   88 301 
 BRR  HN ES   1    4 9 17.40                             146     0.0 7   88 301 
 BRR  HZ I         4 9 17.82         4.3 0.03                            88 301 
 BRI  SZ EP   2    4 9  2.59                             138    -0.3 5  115  13 
 BRI  SZ ES   1    4 9 21.52                             138     0.1 7  115  13 
 PRA  HZ EP   3    4 9 32.85                             106     0.6 1  390 212 
 PRA  HZ I         410 18.93         1.1 0.29                           390 212 
                                                                                
