 2017 1130 0257 27.3 L   5.748 -73.923106.8  RSN  4 0.3 0.9LRSN                1
 GAP=157        0.77       5.1     3.4  6.7  0.1680E+01 -0.3729E+01 -0.1035E+02E
 Epicentro: ALBANIA - SANTANDER                                                3
 ACTION:UPD 17-12-12 20:02 OP:rebc STATUS:               ID:20171130025727 L   I
 OLDACT:REG 17-11-30 12:28 OP:dhb  STATUS:               ID:20171130024740     3
 2017-11-30-0248-00M.COL___495                                                 6
 STAT SP IPHASW D HRMM SECON CODA AMPLIT PERI AZIMU VELO AIN AR TRES W  DIS CAZ7
 SPBC HZ EP        257 41.85                             169   -0.1210 19.7 237 
 SPBC HN ES        257 53.69                             169    0.2910 19.7 237 
 RUS  HZ EP        257 46.81                             136   -0.1310 94.3  80 
 RUS  HN ES        258  1.94                             136   -0.3010 94.3  80 
 RUS  HZ I         258  3.03         0.8 0.42            136           94.3  80 
 PTB  HZ EP        257 47.62                             132    0.3310  106 326 
 PTB  HN ES        258  2.42                             132   -0.4410  106 326 
 PTB  HZ I         258  4.07         1.6 0.22            132            106 326 
 BAR2 EZ EP        257 49.36                             127    0.0210  124  41 
 BAR2 EZ ES        258  6.89                             127    0.3710  124  41 
 BAR2 EZ I         258  8.37         3.0 0.48            127            124  41 
                                                                                
