 2014  130 0542 40.6 L   6.842 -73.175148.3  RSN  8 0.5 1.5LRSN                1
 GAP=131        1.34       4.2     6.4  7.7 -0.2456E+01  0.8792E+01  0.9503E+00E
 Epicentro: ZAPATOCA - SANTANDER                                               3
 ACTION:UPD 14-03-13 09:59 OP:ep   STATUS:               ID:20140130054240 L   I
 OLDACT:REG 14-01-30 07:56 OP:stll STATUS:               ID:20140130053807     3
 2014-01-30-0538-07M.COL___230                                                 6
 STAT SP IPHASW D HRMM SECON CODA AMPLIT PERI AZIMU VELO AIN AR TRES W  DIS CAZ7
 BAR2 SZ EP        543  0.87                             169    0.2010 27.6 182 
 BAR2 SZ ES        543 15.97                             169   -0.3210 27.6 182 
 BAR2 SZ I         543 18.42         8.9 0.26            170           27.6 182 
 BRR  HZ EP        543  2.79                             155    0.9910 66.2 296 
 BRR  HN ES        543 19.12                             155    0.8210 66.2 296 
 BRR  HZ I         543 23.38         5.1 0.64            153           66.2 296 
 PAM  SZ EP        543  3.57                             152    0.5210 76.0  44 
 PAM  SN ES        543 20.23                             152   -0.2910 76.0  44 
 PAM  SZ I         543 22.84         4.4 0.50            154           76.0  44 
 RUS  HZ EP        543  4.87                             143   -0.1310  105 174 
 RUS  HE ES        543 23.57                             143   -0.4310  105 174 
 RUS  HZ I         543 24.67         2.6 0.32            145            105 174 
 PTB  HZ EP        543  7.59                             133   -0.04 9  146 257 
 PTB  HN ES        543 28.41                             133   -0.26 9  146 257 
 PTB  HZ I         543 31.05         3.6 0.20            133            146 257 
 SPBC HZ EP        543  9.02                             129   -0.48 9  165 217 
 SPBC HE ES        543 32.18                             129    0.18 9  165 217 
 SPBC HZ I         543 37.08         5.2 0.24            131            165 217 
 SML  HZ EP        543 16.89                             119    0.07 8  238 336 
 SML  HN ES        543 43.62                             119   -1.41 8  238 336 
 SML  HZ I         543 48.60         5.9 0.26            120            238 336 
 CHI  HZ EP        543 19.03                             117    0.14 8  252 194 
 CHI  HZ I         543 21.47         1.5 0.46            119            252 194 
 CHI  HN ES        543 48.58                             117   -0.13 8  252 194 
                                                                                
