 2015  930 0707 36.2 L   6.818 -73.121148.4  RSN  8 0.4 1.4LRSN                1
 GAP=186        0.82       3.5     5.2  7.0  0.3609E+01  0.3179E+01  0.3739E+01E
 Epicentro: LOS SANTOS - SANTANDER                                             3
 ACTION:UPD 15-10-28 16:29 OP:cam  STATUS:               ID:20150930070736 L   I
 OLDACT:REG 15-09-30 13:32 OP:spq  STATUS:               ID:20150930065749     3
 2015-09-30-0657-49M.COL___355                                                 6
 STAT SP IPHASW D HRMM SECON CODA AMPLIT PERI AZIMU VELO AIN AR TRES W  DIS CAZ7
 BAR2 EZ EP        7 7 56.12                             170   -0.0310 25.8 195 
 BAR2 EZ ES   1    7 8 11.36                             170   -0.38 7 25.8 195 
 BAR2 EZ I         7 8 12.08         4.1 0.26            168           25.8 195 
 BRR  HZ EP        7 7 57.90                             152    0.2310 72.7 296 
 BRR  HE ES        7 8 15.07                             152    0.6210 72.7 296 
 BRR  HZ I         7 8 16.06         3.0 0.48            148           72.7 296 
 RUS  HZ EP   1    7 8  0.62                             144    0.33 7  102 178 
 RUS  HN ES   1    7 8 19.02                             144   -0.10 7  102 178 
 RUS  HZ I         7 8 20.48         2.5 0.32            144            102 178 
 PTB  HZ EP   1    7 8  3.06                             132   -0.54 7  151 258 
 PTB  HE ES   1    7 8 24.60                             132   -0.42 7  151 258 
 PTB  HZ I         7 8 31.23         2.6 0.48            129            151 258 
 OCA  HE ES   1    7 8 25.96                             130   -0.68 7  159 352 
 OCA  HZ I         7 8 33.97         6.1 0.32            129            159 352 
 SPBC HZ EP        7 8  5.44                             129    0.29 9  166 219 
 SPBC HN ES        7 8 27.54                             129   -0.24 9  166 219 
 SPBC HZ I         7 8 32.48         3.3 0.10            127            166 219 
 ZAR  HE ES        7 8 34.56                             123    0.03 8  206 291 
 ZAR  HZ I         7 8 40.15         3.3 0.34            120            206 291 
 CHI  HN ES   1    7 8 43.94                             117   -0.07 6  251 196 
 CHI  HZ I         7 8 49.25         1.2 0.40            117            251 196 
                                                                                
