 2015  630 0605 13.1 L   6.838 -73.157140.1  RSN  9 0.5 1.9LRSN                1
 GAP=182        1.14       3.7     5.6  8.1 -0.3895E+00  0.2473E+02 -0.3096E+01E
 Epicentro: LOS SANTOS - SANTANDER                                             3
 ACTION:UPD 15-09-10 22:15 OP:cam  STATUS:               ID:20150630060512 L   I
 OLDACT:UP  15-06-30 17:34 OP:ar   STATUS:               ID:20150630055750     3
 OLDACT:REG 15-06-30 14:25 OP:ar   STATUS:               ID:20150630055750     3
 2015-06-30-0557-50M.COL___316                                                 6
 STAT SP IPHASW D HRMM SECON CODA AMPLIT PERI AZIMU VELO AIN AR TRES W  DIS CAZ7
 BAR2 EZ EP        6 5 31.76                             168   -0.4010 27.3 186 
 BAR2 EZ ES        6 5 47.10                             168    0.0910 27.3 186 
 BAR2 EZ I         6 5 48.51        17.8 0.46            168           27.3 186 
 RUS  HZ EP        6 5 36.16                             141   -0.4810  105 176 
 RUS  HN ES        6 5 54.75                             141   -0.2310  105 176 
 RUS  HZ I         6 5 55.85         8.7 0.38            145            105 176 
 OCA  HZ EP        6 5 41.01                             129    0.43 9  156 353 
 OCA  HN ES        6 6  2.44                             129    0.44 9  156 353 
 OCA  HZ I         6 6  7.58        24.8 0.38            131            156 353 
 ZAR  HZ EP        6 5 44.38                             121   -0.54 9  201 291 
 ZAR  HN ES        6 6 10.13                             121    0.41 9  201 291 
 ZAR  HZ I         6 6 15.33         9.9 0.38            122            201 291 
 HEL  HZ EP        6 5 53.95                             114    0.91 8  272 255 
 HEL  HN ES        6 6 24.02                             114   -0.15 8  272 255 
 HEL  HZ I         6 6 32.11         3.9 0.46            115            272 255 
 GUY2CHZ EP        6 5 57.29                             111    0.65 7  303 234 
 GUY2CHN ES        6 6 31.18                             111    0.60 7  303 234 
 GUY2CHZ I         6 6 37.86         3.3 0.40                           303 234 
 CBOC HZ EP        6 5 59.87                             109    0.05 7  334 251 
 CBOC HN ES        6 6 35.40                             109   -0.85 7  334 251 
 CBOC HZ I         6 6 47.16         1.7 0.44            110            334 251 
 MON  HZ EP        6 6  0.89                             108   -0.60 6  350 308 
 MON  HN ES        6 6 38.36                             108   -0.86 6  350 308 
 MON  HZ I         6 6 40.13         2.2 0.36            109            350 308 
 PRA  HZ EP   4    6 6  5.63                             105   -1.18 0  395 209 
 PRA  HN ES        6 6 49.47                             105    0.78 6  395 209 
 PRA  HZ I         6 6 50.89         2.1 0.28            107            395 209 
                                                                                
