 2012  730 0446 16.5 L   6.696 -73.204150.4  RSN  4 0.2 1.3LRSN                1
 GAP=219        0.50       5.3     5.0  5.4  0.1283E+02  0.3202E+01  0.1094E+01E
 Epicentro: VILLANUEVA - SANTANDER                                             3
 ACTION:UPD 12-08-14 11:46 OP:ep   STATUS:               ID:20120730044616 L   I
 2012-07-30-0440-00M.COL___215                                                 6
 STAT SP IPHASW D HRMM SECON CODA AMPLIT PERI AZIMU VELO AIN AR TRES W  DIS CAZ7
 BAR2 SZ EP   1    446 36.33                             175    -0.2 7   12 168 
 BAR2 SZ I         446 36.54         4.6 0.22            169             12 168 
 BAR2 SZ ES   1    446 52.09                             175    -0.1 7   12 168 
 BRR  HZ EP   1    446 38.11                             153    -0.1 7   72 309 
 BRR  HN ES   1    446 55.43                             153     0.2 7   72 309 
 BRR  HZ I         446 57.90         5.8 0.17            148             72 309 
 RUS  HZ EP   1    446 40.37                             148     0.4 7   90 171 
 RUS  HZ I         446 41.31         1.6 0.15            146             90 171 
 RUS  HN ES   1    446 58.27                             148    -0.1 7   90 171 
 PTB  HZ EP   1    446 43.15                             135     0.0 7  140 263 
 PTB  HN ES   1    447  3.88                             135    -0.1 7  140 263 
 PTB  HZ I         447 10.15         2.9 0.25            130            140 263 
