 2016  630 0638 32.9 L   6.773 -73.102150.5  RSN 15 0.4 1.8LRSN                1
 GAP=221        0.95       3.7     3.7  5.0  0.4211E+01  0.3458E+01  0.5120E+01E
 Epicentro: LOS SANTOS - SANTANDER                                             3
 ACTION:UPD 16-07-21 22:24 OP:rebc STATUS:               ID:20160630063832 L   I
 OLDACT:UP  16-06-30 16:51 OP:edw  STATUS:               ID:20160630063750     3
 OLDACT:REG 16-06-30 13:30 OP:edw  STATUS:               ID:20160630063750     3
 2016-06-30-0637-50M.COL___346                                                 6
 STAT SP IPHASW D HRMM SECON CODA AMPLIT PERI AZIMU VELO AIN AR TRES W  DIS CAZ7
 BAR2 EZ EP        638 53.05                             171    0.0210 21.9 204 
 BAR2 EZ ES        639  9.06                             171    0.3010 21.9 204 
 BAR2 EZ I         639  9.89         7.2 0.28                          21.9 204 
 BRR  HZ EP        638 54.96                             152    0.1210 76.8 299 
 BRR  HN ES        639 12.54                             152    0.5610 76.8 299 
 BRR  HZ I         639 17.25         6.6 0.14                          76.8 299 
 RUS  HZ EP        638 56.89                             146    0.0410 97.4 179 
 RUS  HN ES        639 15.00                             146   -0.5710 97.4 179 
 RUS  HZ I         639 19.12         3.7 0.24                          97.4 179 
 PTB  HZ EP   4    638 59.96                             132   -0.63 0  152 260 
 PTB  HN ES        639 21.38                             132   -0.84 9  152 260 
 PTB  HZ I         639 28.69         5.8 0.19                           152 260 
 SPBC HZ EP        639  1.99                             130    0.19 9  164 221 
 SPBC HN ES        639 24.78                             130    0.41 9  164 221 
 SPBC HZ I         639 28.19        10.8 0.08                           164 221 
 ZAR  HZ EP        639  5.49                             123   -0.69 8  210 292 
 ZAR  HN ES        639 31.88                             123   -0.30 8  210 292 
 ZAR  HZ I         639 37.49         7.9 0.18                           210 292 
 NOR  HZ EP        639  9.54                             119    0.44 8  237 236 
 NOR  HN ES        639 37.24                             119   -0.14 8  237 236 
 NOR  HZ I         639 40.75         6.8 0.18                           237 236 
 CHI  HZ EP        639 11.08                             118    0.43 8  247 196 
 CHI  HN ES        639 40.16                             118    0.02 8  247 196 
 CHI  HZ I         639 45.55         2.5 0.48                           247 196 
 ROSC BZ EP   4    639 12.36                             118    1.12 0  253 212 
 ROSC BN ES   4    639 46.06                             118    4.88 0  253 212 
 ROSC BZ I         639 47.98         6.7 0.40                           253 212 
 HEL  HN ES        639 45.59                             115   -0.06 7  276 257 
 URE  HZ EP   4    639 13.76                             114   -1.02 0  289 292 
 URE  HE ES   4    639 45.14                             114   -2.34 0  289 292 
 URE  HZ I         639 48.93         4.7 0.14                           289 292 
 GUY2CHZ EP        639 17.74                             113    0.80 7  303 236 
 GUY2CHN ES        639 51.75                             113    0.42 7  303 236 
 GUY2CHZ I         640  0.26         3.8 0.28                           303 236 
 PTGC HZ EP        639 15.83                             113   -0.59 7  304 159 
 PTGC HN ES        639 50.11                             113   -0.29 7  304 159 
 CBOC HZ EP        639 20.39                             110   -0.00 7  337 253 
 CBOC HE ES        639 57.12                             110   -0.35 7  337 253 
 CBOC HZ I         640  8.52         1.4 0.60                           337 253 
 PRA  HZ EP        639 26.62                             107    0.09 6  392 210 
 PRA  HN ES        640  8.31                             107   -0.08 6  392 210 
 PRA  HZ I         640 12.28         2.2 0.42                           392 210 
 SJC  HZ EP   4    639 27.66                             106   -1.51 0  414 327 
 SJC  HN ES   4    640 10.14                             106   -2.96 0  414 327 
                                                                                
