 2017  730 0135  9.9 L   6.806 -73.137146.7  RSN  8 0.5 1.5LRSN                1
 GAP=214        1.35       6.7     5.9  8.6  0.1775E+02  0.5766E+01  0.8483E+01E
 Epicentro: LOS SANTOS - SANTANDER                                             3
 ACTION:UPD 17-08-30 15:38 OP:rebc STATUS:               ID:20170730013509 L   I
 OLDACT:UP  17-07-30 15:44 OP:ar   STATUS:               ID:20170730012737d    3
 OLDACT:DUP 17-07-30 15:38 OP:ar   STATUS:               ID:20170730012737d    3
 2017-07-30-0128-00M.COL___383                                                 6
 STAT SP IPHASW D HRMM SECON CODA AMPLIT PERI AZIMU VELO AIN AR TRES W  DIS CAZ7
 BAR2 EZ EP        135 29.43                             170   -0.2310 24.1 192 
 BAR2 EZ ES        135 45.14                             170    0.0710 24.1 192 
 BAR2 EZ I         135 48.06         6.7 0.48            167           24.1 192 
 BRR  HZ EP        135 31.43                             153    0.2510 71.7 298 
 BRR  HN ES        135 48.15                             153    0.3710 71.7 298 
 BRR  HZ I         135 50.01         6.5 0.24            151           71.7 298 
 RUS  HZ EP        135 33.46                             144   -0.3210  101 177 
 RUS  HN ES        135 52.15                             144   -0.2610  101 177 
 RUS  HZ I         135 53.37         2.2 0.48            144            101 177 
 PTB  HZ EP        135 36.01                             132   -1.03 9  149 259 
 PTB  HE ES        135 57.42                             132   -0.78 9  149 259 
 PTB  HZ I         136  1.63         2.5 0.10            132            149 259 
 SPBC HZ EP        135 38.33                             129   -0.24 9  164 219 
 SPBC HE ES        136  1.40                             129    0.46 9  164 219 
 SPBC HZ I         136  5.12         5.5 0.32            129            164 219 
 YPLC HZ EP        135 39.63                             127   -0.14 9  177 152 
 YPLC HE ES        136  3.60                             127    0.53 9  177 152 
 YPLC HZ I         136  4.10         4.6 0.32            129            177 152 
 ZAR  HN ES        136  8.35                             123    0.47 9  205 292 
 ZAR  HZ I         136 13.27         3.2 0.08            123            205 292 
 NOR  HZ EP        135 47.17                             119    1.37 8  236 234 
 NOR  HN ES     D  136 13.77                             119   -0.04 8  236 234 
 NOR  HZ I         136 19.32         3.6 0.20            119            236 234 
                                                                                
