 2017  930 0021 44.5 L   6.818 -73.106143.2  RSN  8 0.4 1.8LRSN                1
 GAP=217        1.05       4.7     5.5  6.3  0.1378E+02  0.1080E+02  0.9825E+01E
 Epicentro: LOS SANTOS - SANTANDER                                             3
 ACTION:UPD 17-10-05 19:17 OP:rebc STATUS:               ID:20170930002144 L   I
 OLDACT:UP  17-09-30 13:55 OP:edw  STATUS:               ID:20170930001738     3
 OLDACT:UP  17-09-30 13:53 OP:edw  STATUS:               ID:20170930001738     3
 OLDACT:REG 17-09-30 12:02 OP:edw  STATUS:               ID:20170930001738     3
 2017-09-30-0018-00M.COL___450                                                 6
 STAT SP IPHASW D HRMM SECON CODA AMPLIT PERI AZIMU VELO AIN AR TRES W  DIS CAZ7
 BAR2 EZ EP        022  3.79                             169   -0.1210 26.3 199 
 BAR2 EZ ES        022 18.83                             169   -0.2010 26.3 199 
 BAR2 EZ I         022 21.56        14.9 0.28            166           26.3 199 
 BRR  HZ EP        022  5.52                             151   -0.0510 74.2 296 
 BRR  HN ES        022 22.73                             151    0.7510 74.2 296 
 BRR  HZ I         022 26.62        13.8 0.34            151           74.2 296 
 RUS  HZ EP        022  8.59                             143    0.4410  102 179 
 RUS  HN ES        022 25.83                             143   -0.7510  102 179 
 RUS  HZ I         022 27.61         9.0 0.32            143            102 179 
 YPLC HZ EP        022 13.96                             126   -0.14 9  176 153 
 YPLC HN ES        022 37.59                             126    0.42 9  176 153 
 YPLC HZ I         022 40.90         9.1 0.28            128            176 153 
 ZAR  HZ EP        022 17.07                             121   -0.08 8  207 291 
 ZAR  HN ES        022 42.14                             121   -0.46 8  207 291 
 ZAR  HZ I         022 47.55         6.5 0.68            123            207 291 
 CHI  HZ EP        022 22.01                             116   -0.40 8  252 196 
 CHI  HN ES        022 52.30                             116    0.33 8  252 196 
 CHI  HZ I         022 57.38         2.1 0.32            117            252 196 
 GUY2CHZ EP        022 29.19                             111    0.64 7  306 235 
 GUY2CHN ES        023  2.56                             111   -0.32 7  306 235 
 GUY2CHZ I         023 13.95         2.5 0.42                           306 235 
 PRA  HZ EP        022 37.74                             106   -0.67 6  396 210 
 PRA  HE ES        023 21.00                             106    0.56 6  396 210 
 PRA  HZ I         023 25.95         2.4 0.46            107            396 210 
                                                                                
