 2013  130 0412  4.5 L   6.766 -73.123141.6  RSN  6 0.3 1.7LRSN                1
 GAP=141        0.69       3.5     4.0  4.9 -0.9451E+00  0.1591E+01  0.2458E+01E
 Epicentro: LOS SANTOS - SANTANDER                                             3
 ACTION:UPD 13-02-15 09:17 OP:ep   STATUS:               ID:20130130041204 L   I
 2013-01-30-0410-00M.COL___241                                                 6
 STAT SP IPHASW D HRMM SECON CODA AMPLIT PERI AZIMU VELO AIN AR TRES W  DIS CAZ7
 BAR2 SZ EP        412 23.58                             171   -0.0310 20.3 199 
 BAR2 SZ ES        412 38.39                             171   -0.1010 20.3 199 
 BAR2 SZ I         412 39.88        15.6 0.12            155           20.3 199 
 BRR  HZ EP        412 25.54                             150    0.0610 75.2 300 
 BRR  HE ES        412 42.31                             150    0.5010 75.2 300 
 BRR  HE I         412 47.02        21.4 0.16            141           75.2 300 
 PAM  SZ EP        412 26.50                             150    0.1010 78.8  36 
 PAM  SZ I         412 26.94         9.8 0.29            148           78.8  36 
 PAM  SE ES        412 43.19                             150   -0.2710 78.8  36 
 RUS  HZ EP        412 27.59                             144   -0.0110 96.7 177 
 RUS  HE ES        412 45.69                             144    0.1010 96.7 177 
 RUS  HE I         412 48.01         6.7 0.44            127           96.7 177 
 PTB  HZ EP   1    412 30.71                             131   -0.63 7  150 260 
 PTB  HE ES   1    412 51.86                             131   -0.38 7  150 260 
 PTB  HZ I         412 53.44         7.3 0.11            118            150 260 
 CHI  HZ EP   1    412 42.11                             117    0.42 6  246 196 
 CHI  HZ I         413 16.93         2.1 0.33            106            246 196 
                                                                                
