 2013  430 0037 25.8 L   6.811 -73.149146.0  RSN 12 0.5 2.4LRSN                1
 GAP=136        1.03       3.5     4.6  6.2 -0.2464E+01  0.4954E+01 -0.8803E+00E
 Epicentro: LOS SANTOS - SANTANDER                                             3
 ACTION:UPD 13-05-22 14:41 OP:EP   STATUS:               ID:20130430003725 L   I
 2013-04-30-0030-00M.COL___253                                                 6
 STAT SP IPHASW D HRMM SECON CODA AMPLIT PERI AZIMU VELO AIN AR TRES W  DIS CAZ7
 BAR2 SZ IP     C  037 45.43                             170   -0.0510 24.5 189 
 BAR2 SZ ES   1    038  0.52                             170   -0.31 7 24.5 189 
 BAR2 SZ I         038  1.34        25.9 0.26            170           24.5 189 
 BRR  HZ EP        037 47.34                             153    0.4110 70.3 298 
 BRR  HN ES        038  4.17                             153    0.7710 70.3 298 
 BRR  HZ I         038  8.42        27.1 0.14            149           70.3 298 
 PAM  SZ EP     D  037 48.34                             151    0.3410 76.7  40 
 PAM  SN ES        038  5.25                             151   -0.0610 76.7  40 
 PAM  SZ I         038  7.22        47.2 0.52            152           76.7  40 
 RUS  HZ EP        037 49.55                             144   -0.1110  102 176 
 RUS  HN ES   1    038  8.17                             144   -0.10 7  102 176 
 RUS  HN I         038  9.65        28.3 0.22            145            102 176 
 PTB  HZ EP     D  037 52.18                             132   -0.60 9  148 258 
 PTB  HN ES        038 13.12                             132   -0.70 9  148 258 
 PTB  HN I         038 15.55        45.0 0.22            130            148 258 
 OCA  HZ EP   2    037 54.39                             130    0.38 5  159 353 
 OCA  HN ES   1    038 15.00                             130   -1.02 7  159 353 
 ZAR  HZ EP   2    037 58.81                             123    0.63 4  203 292 
 ZAR  HN ES   1    038 23.43                             123   -0.01 6  203 292 
 ZAR  HZ I         038 29.81        15.1 0.14            121            203 292 
 NOR  HN ES   1    038 30.23                             119    0.73 6  235 234 
 SML  HZ EP        038  1.96                             118   -0.35 8  242 335 
 SML  HE ES   1    038 31.29                             118    0.51 6  242 335 
 SML  HZ I         038 32.15        34.7 0.24            117            242 335 
 HEL  HZ EP   4    038  7.45                             115    1.43 0  272 256 
 HEL  HE ES   4    038 39.70                             115    2.31 0  272 256 
 HEL  HE I         038 44.62        20.6 0.50            114            272 256 
 URE  HN ES   4    038 36.25                             114   -2.52 0  283 292 
 COD  HZ EP   1    038 13.25                             109   -0.79 5  347 355 
 COD  HN ES   1    038 52.23                             109    0.56 5  347 355 
 COD  HZ I         039  5.22         4.4 0.78            109            347 355 
 PRA  HZ EP        038 19.70                             107    0.27 6  393 209 
 PRA  HN ES   1    039  1.77                             107    0.51 4  393 209 
 PRA  HZ I         039  8.11        12.7 0.24            106            393 209 
 SJC  HZ EP   4    038 19.72                             106   -1.51 0  408 327 
 SJC  HN ES   4    039  0.92                             106   -3.54 0  408 327 
                                                                                
