 2017 1030 0102 24.2 L   6.825 -73.174137.0  RSN 11 0.5 1.5LRSN                1
 GAP=108        1.14       3.9     4.3  6.2  0.1252E+01  0.6003E+01  0.3236E+01E
 Epicentro: ZAPATOCA - SANTANDER                                               3
 ACTION:UPD 17-11-07 19:39 OP:rebc STATUS:               ID:20171030010224 L   I
 OLDACT:REG 17-10-30 12:16 OP:dhb  STATUS:               ID:20171030005747     3
 2017-10-30-0058-00M.COL___444                                                 6
 STAT SP IPHASW D HRMM SECON CODA AMPLIT PERI AZIMU VELO AIN AR TRES W  DIS CAZ7
 BAR2 EZ IP     C  1 2 42.86                             169    0.0410 25.7 182 
 BAR2 EZ ES        1 2 57.90                             169    0.5510 25.7 182 
 BAR2 EZ I         1 2 59.22         6.3 0.24             47           25.7 182 
 BRR  HZ IP     C  1 2 44.62                             152    0.4510 67.2 298 
 BRR  HE ES        1 2 58.96                             152   -0.7810 67.2 298 
 BRR  HZ I         1 3 15.09        10.1 0.30             47           67.2 298 
 PAM  EZ EP        1 2 45.74                             149    0.2610 77.3  43 
 PAM  EN ES        1 3  2.22                             149    0.1410 77.3  43 
 PAM  EZ I         1 3  4.99         4.1 0.22             47           77.3  43 
 RUS  HZ IP     C  1 2 46.85                             141   -0.4710  104 174 
 RUS  HN ES        1 3  5.57                             141    0.2110  104 174 
 RUS  HZ I         1 3  6.64         3.8 0.28             47            104 174 
 PTB  HZ EP        1 2 49.53                             131   -0.70 9  145 258 
 PTB  HN ES        1 3 10.14                             131   -0.40 9  145 258 
 PTB  HZ I         1 3 13.27         2.3 0.42             47            145 258 
 SPBC HZ EP        1 2 51.83                             127   -0.23 9  163 218 
 SPBC HE ES        1 3 13.80                             127    0.01 9  163 218 
 SPBC HZ I         1 3 18.70         4.4 0.22             47            163 218 
 YPLC HZ EP        1 2 53.26                             124   -0.50 9  181 151 
 YPLC HZ I         1 4  0.74         3.7 0.36             37            181 151 
 ZAR  HZ EP        1 2 56.13                             121    0.46 9  200 292 
 ZAR  HE ES        1 3 21.07                             121    0.84 9  200 292 
 ZAR  HZ I         1 3 26.83         5.0 0.30             47            200 292 
 GUY2CHZ EP   2    1 3  8.55                             111    1.24 4  300 234 
 GUY2CHE ES   4    1 3 44.55                             111    3.62 0  300 234 
 GUY2CHZ I         1 3 49.52         1.6 0.42                           300 234 
 PRA  HZ EP        1 3 17.21                             105   -0.32 6  393 209 
 PRA  HE ES        1 3 59.72                             105    0.59 6  393 209 
 PRA  HZ I         1 4  5.72         1.7 0.30             36            393 209 
 SJC  HE ES        1 4  1.50                             104   -0.26 6  405 327 
 SJC  HZ I         1 5 28.21         0.8 0.52             36            405 327 
                                                                                
