 2014 1030 0351 18.5 L   6.765 -73.140147.1  RSN 10 0.5 2.1LRSN                1
 GAP=156        1.11       4.1     4.8  6.3 -0.7321E+01  0.6363E+01  0.7682E+01E
 Epicentro: LOS SANTOS - SANTANDER                                             3
 ACTION:UPD 14-11-29 23:58 OP:nd   STATUS:               ID:20141030035118 L   I
 OLDACT:REG 14-10-31 15:45 OP:fm   STATUS:               ID:20141030034743     3
 2014-10-30-0347-43M.COL___277                                                 6
 STAT SP IPHASW D HRMM SECON CODA AMPLIT PERI AZIMU VELO AIN AR TRES W  DIS CAZ7
 BAR2 SZ EP        351 38.47                             172    0.2610 19.7 194 
 BAR2 SZ ES        351 53.46                             172   -0.1310 19.7 194 
 BAR2 SZ I         351 54.44        51.1 0.28            171           19.7 194 
 BRR  HZ EP     D  351 40.52                             152    0.6010 73.7 301 
 BRR  HN ES        351 57.45                             152    0.8110 73.7 301 
 BRR  HZ I         352  1.39        26.4 0.16            150           73.7 301 
 PAM  SZ EP        351 41.40                             150    0.4010 80.0  37 
 PAM  SN ES        351 58.26                             150   -0.2910 80.0  37 
 PAM  SZ I         351 59.61        25.5 0.20            153           80.0  37 
 PTB  HZ EP        351 45.11                             132   -0.45 9  148 260 
 PTB  HN ES        352  6.28                             132   -0.39 9  148 260 
 PTB  HZ I         352  9.05        24.8 0.16            132            148 260 
 OCA  HZ EP        351 47.16                             129   -0.10 9  164 353 
 OCA  HN ES        352  8.97                             129   -0.74 9  164 353 
 OCA  HZ I         352 14.17        24.9 0.30            130            164 353 
 CHI  HZ EP        351 55.81                             118   -0.07 8  245 196 
 CHI  HN ES        352 24.59                             118   -0.45 8  245 196 
 CHI  HZ I         352 28.79         4.0 0.30            119            245 196 
 HEL  HZ EP        351 57.82                             115   -0.92 8  272 257 
 HEL  HE ES        352 29.88                             115   -0.25 8  272 257 
 HEL  HZ I         352 37.14         6.9 0.38            116            272 257 
 GUY2CHZ EP        352  2.45                             113    0.48 7  300 235 
 GUY2CHN ES        352 35.77                             113   -0.12 7  300 235 
 GUY2CHZ I         352 43.54         8.3 0.36                           300 235 
 CBOC HZ EP        352  6.17                             110    0.78 7  333 253 
 CBOC HN ES        352 42.46                             110    0.48 7  333 253 
 CBOC HZ I         352 46.45         2.7 0.28            111            333 253 
 PRA  HZ EP        352 11.66                             107   -0.04 6  389 210 
 PRA  HN ES        352 53.31                             107    0.10 6  389 210 
 PRA  HZ I         352 57.19         2.6 0.20            108            389 210 
                                                                                
