 2016  630 0615 45.6 L   6.838 -73.103143.9  RSN  6 0.4 1.7LRSN                1
 GAP=264        0.95       5.7     6.0  7.0  0.2509E+01  0.1038E+02  0.1029E+02E
 Epicentro: LOS SANTOS - SANTANDER                                             3
 ACTION:UPD 16-07-21 22:24 OP:rebc STATUS:               ID:20160630061545 L   I
 OLDACT:REG 16-06-30 13:22 OP:edw  STATUS:               ID:20160630060746     3
 2016-06-30-0607-46M.COL___346                                                 6
 STAT SP IPHASW D HRMM SECON CODA AMPLIT PERI AZIMU VELO AIN AR TRES W  DIS CAZ7
 BAR2 EZ EP        616  5.26                             168    0.1310 28.5 198 
 BAR2 EZ ES        616 20.38                             168    0.0210 28.5 198 
 BAR2 EZ I         616 21.57         9.2 0.18                          28.5 198 
 BRR  HZ EP        616  6.92                             151    0.2210 73.6 294 
 BRR  HN ES        616 23.39                             151    0.2510 73.6 294 
 BRR  HZ I         616 27.68         7.7 0.14                          73.6 294 
 PTB  HZ EP        616 12.27                             131   -0.66 9  153 258 
 PTB  HN ES        616 33.57                             131   -0.66 9  153 258 
 PTB  HZ I         616 35.24         4.6 0.12                           153 258 
 SPBC HZ EP        616 14.36                             128   -0.20 9  169 219 
 SPBC HN ES        616 37.05                             128   -0.09 9  169 219 
 SPBC HZ I         616 42.40         6.8 0.22                           169 219 
 ZAR  HN ES        616 43.88                             122    0.21 8  207 291 
 NOR  HE ES   4    616 49.44                             117   -0.77 0  241 234 
 CHI  HZ EP   4    616 16.10                             116   -7.68 0  254 196 
 CHI  HN ES   4    616 54.57                             116    1.02 0  254 196 
 GUY2CHZ EP        616 30.21                             111    0.37 7  307 235 
 GUY2CHE ES        617  5.17                             111    0.83 7  307 235 
 GUY2CHZ I         617 11.69         2.2 0.30                           307 235 
                                                                                
