 2013 1230 0731  9.6 L   6.793 -73.165144.4  RSN  9 0.3 1.8LRSN                1
 GAP=134        0.65       2.4     2.9  3.9 -0.7044E+00  0.3598E+01 -0.1128E+00E
 Epicentro: LOS SANTOS - SANTANDER                                             3
 ACTION:UPD 14-01-13 10:22 OP:ep   STATUS:               ID:20131230073109 L   I
 OLDACT:UP  13-12-30 12:15 OP:mh   STATUS:               ID:20131230073000     3
 OLDACT:REG 13-12-30 08:09 OP:mh   STATUS:               ID:20131230073000     3
 2013-12-30-0730-00M.COL___285                                                 6
 STAT SP IPHASW D HRMM SECON CODA AMPLIT PERI AZIMU VELO AIN AR TRES W  DIS CAZ7
 BAR2 SZ EP   1    731 29.10                             171    0.07 7 22.3 185 
 BAR2 SZ ES        731 44.08                             171   -0.1210 22.3 185 
 BAR2 SZ I         731 45.69        16.7 0.25            170           22.3 185 
 BRR  HZ EP        731 30.77                             153    0.2710 69.7 300 
 BRR  HN ES        731 47.31                             153    0.4910 69.7 300 
 BRR  HZ I         731 51.94         8.1 0.19            151           69.7 300 
 PAM  SZ EP   1    731 32.07                             150    0.29 7 79.3  40 
 PAM  SE ES        731 48.82                             150   -0.2610 79.3  40 
 RUS  HZ EP        731 33.31                             144    0.1510  100 175 
 RUS  HN ES        731 51.44                             144   -0.1110  100 175 
 RUS  HZ I         731 53.02         5.8 0.27            146            100 175 
 PTB  HZ EP        731 35.82                             132   -0.42 9  146 259 
 PTB  HN ES        731 56.66                             132   -0.37 9  146 259 
 PTB  HZ I         731 57.93         5.8 0.15            132            146 259 
 SPBC HZ EP        731 37.91                             129    0.11 9  161 219 
 SPBC HN ES        731 59.85                             129    0.04 9  161 219 
 SPBC HZ I         732  6.35         9.1 0.27            130            161 219 
 ZAR  HZ EP   1    731 41.77                             122    0.00 6  202 293 
 ZAR  HN ES   1    732  7.33                             122    0.46 6  202 293 
 ZAR  HZ I         732 12.82         3.7 0.21            123            202 293 
 NOR  HZ EP        731 45.08                             118    0.07 8  233 234 
 NOR  HE ES   1    732 12.52                             118   -0.11 6  233 234 
 SML  HZ EP   1    731 45.97                             117   -0.14 6  243 336 
 SML  HN ES   1    732 14.07                             117   -0.53 6  243 336 
 SML  HZ I         732 17.50         9.2 0.06            119            243 336 
 GUY2CHZ EP   4    731 54.06                             112    1.17 0  299 235 
 GUY2CHN ES   4    732 29.61                             112    2.95 0  299 235 
                                                                                
