 2017  130 0304 18.1 L   6.780 -73.158147.9  RSN  6 0.4 1.7LRSN                1
 GAP=136        0.99       5.0     4.4  7.2  0.2001E+01  0.5917E+01  0.5277E+00E
 Epicentro: LOS SANTOS - SANTANDER                                             3
 ACTION:UPD 17-05-22 16:04 OP:jn   STATUS:               ID:20170130030418 L   I
 OLDACT:DUP 17-01-30 16:05 OP:ar   STATUS:               ID:20170130025745d    3
 2017-01-30-0258-00M.COL___339                                                 6
 STAT SP IPHASW D HRMM SECON CODA AMPLIT PERI AZIMU VELO AIN AR TRES W  DIS CAZ7
 BAR2 EZ EP        3 4 37.85                             172   -0.0910 21.0 187 
 BAR2 EZ ES        3 4 53.09                             172   -0.3210 21.0 187 
 BAR2 EZ I         3 4 53.94        15.8 0.30            171           21.0 187 
 BRR  HZ EP        3 4 39.71                             153    0.2410 71.1 301 
 BRR  HN ES        3 4 56.93                             153    0.8010 71.1 301 
 BRR  HZ I         3 5  0.04         9.9 0.32            152           71.1 301 
 PAM  EZ EP        3 4 40.81                             150    0.1210 80.0  39 
 PAM  EN ES        3 4 57.85                             150   -0.4610 80.0  39 
 PAM  EZ I         3 4 59.91        10.7 0.52            154           80.0  39 
 RUS  HZ EP        3 4 42.13                             145    0.2210 98.5 175 
 RUS  HN ES        3 5  0.72                             145    0.2410 98.5 175 
 RUS  HZ I         3 5  1.69         4.7 0.28            147           98.5 175 
 PTB  HZ EP        3 4 44.77                             133   -0.31 9  146 260 
 PTB  HN ES        3 5  5.59                             133   -0.53 9  146 260 
 PTB  HZ I         3 5 12.38         6.1 0.56            133            146 260 
 ZAR  HN ES        3 5 16.01                             123   -0.00 9  204 293 
                                                                                
