 2011 1230 0831 31.8 L   6.795 -73.095144.3  RSN  6 0.3 1.6LRSN                1
 GAP=143        0.66       4.2     4.9  6.2  0.4149E+01  0.4786E+01  0.4705E+01E
 Epicentro: LOS SANTOS - SANTANDER                                             3
 ACTION:UPD 12-07-13 16:19 OP:ep   STATUS:               ID:20111230083131 L   I
 2011-12-30-0830-00M.COL___186                                                 6
 STAT SP IPHASW D HRMM SECON CODA AMPLIT PERI AZIMU VELO AIN AR TRES W  DIS CAZ7
 BAR2 SZ EP   1    831 51.15                             170   -0.11 7 24.4 203 
 BAR2 SZ ES   1    832  6.00                             170   -0.45 7 24.4 203 
 BAR2 SZ I         832  7.49        11.5 0.12                          24.4 203 
 PAM  SZ EP   1    831 54.11                             151    0.45 7 74.4  36 
 PAM  SZ I         831 54.34         4.5 0.22                          74.4  36 
 PAM  SN ES   1    832 10.43                             151   -0.30 7 74.4  36 
 BRR  HZ EP   1    831 53.13                             150    0.06 7 76.4 297 
 BRR  HE ES   1    832 10.13                             150    0.45 7 76.4 297 
 BRR  HZ I         832 11.48        10.7 0.14                          76.4 297 
 RUS  HZ EP   1    831 55.21                             144   -0.12 7 99.8 179 
 RUS  HN ES   1    832 14.09                             144    0.39 7 99.8 179 
 RUS  HZ I         832 14.76         3.2 0.29                          99.8 179 
 ZAR  HN ES   1    832 30.07                             121   -0.28 6  209 292 
 CHI  HZ EP   1    832  9.24                             117   -0.26 6  250 196 
 CHI  HZ I         832 43.95         2.9 0.29                           250 196 
                                                                                
