 2012  130 0417 22.9 L   7.261 -74.132 71.1  RSN  6 0.3 1.3LRSN                1
 GAP=159        0.79       4.6     3.0  8.4  0.1587E+01 -0.6300E+01 -0.1721E+00E
 Epicentro: PUERTO WILCHES - SANTANDER                                         3
 ACTION:UP  12-02-03 08:22 OP:REBC STATUS:               ID:20120130041722 L   I
 2012-01-30-0410-00M.COL___188                                                 6
 STAT SP IPHASW D HRMM SECON CODA AMPLIT PERI AZIMU VELO SNR AR TRES W  DIS CAZ7
 BRR  HZ EP   1    417 35.33                             141     0.5 7   49 110 
 BRR  HN ES   1    417 43.91                             141    -0.3 7   49 110 
 BRR  HZ I         417 46.28        16.9 0.12                            49 110 
 ZAR  HZ EP   1    417 38.13                             125     0.1 7   84 288 
 ZAR  HN ES   1    417 49.82                             125     0.0 7   84 288 
 ZAR  HZ I         417 51.35         8.3 0.08                            84 288 
 PTB  HZ EP   1    417 38.48                             123     0.1 7   87 204 
 PTB  HN ES   1    417 50.34                             123    -0.1 7   87 204 
 PTB  HZ I         417 51.75         0.0 0.16                            87 204 
 GIR2 SZ EP   1    417 40.98                             118     0.5 7  106 101 
 PAM  SZ EP   1    417 46.39                             108    -0.5 7  158  87 
 PAM  SN ES   1    418  5.66                             108     0.0 7  158  87 
 RUS  HZ EP   1    417 50.18                             104    -0.6 7  191 142 
 RUS  HZ I         417 52.02         1.4 0.15                           191 142 
 RUS  HN ES   1    418 12.84                             104     0.4 7  191 142 
                                                                                
