 2016 1230 0006 55.0 L   6.813 -73.155146.4  RSN  5 0.2 1.2LRSN                1
 GAP=143        0.59       2.9     3.2  5.1 -0.2764E+01  0.5371E+01  0.2883E+01E
 Epicentro: LOS SANTOS - SANTANDER                                             3
 ACTION:UPD 17-01-11 20:20 OP:rebc STATUS:               ID:20161230000655 L   I
 OLDACT:UP  16-12-30 13:35 OP:edw  STATUS:               ID:20161230000004     3
 OLDACT:REG 16-12-30 12:28 OP:edw  STATUS:               ID:20161230000004     3
 2016-12-30-0000-15M.COL___381                                                 6
 STAT SP IPHASW D HRMM SECON CODA AMPLIT PERI AZIMU VELO AIN AR TRES W  DIS CAZ7
 PAM  EZ EP     D  0 7 17.46                             151    0.1810 77.0  41 
 PAM  EN ES        0 7 34.69                             151    0.0510 77.0  41 
 PAM  EZ I         0 7 36.70         2.6 0.14            155           77.0  41 
 RUS  HZ EP        0 7 18.96                             143    0.0210  102 176 
 RUS  HN ES        0 7 37.50                             143   -0.1010  102 176 
 RUS  HZ I         0 7 38.16         1.7 0.34            146            102 176 
 PTB  HZ EP        0 7 21.41                             132   -0.56 9  147 258 
 PTB  HN ES        0 7 43.04                             132    0.05 9  147 258 
 PTB  HZ I         0 7 48.39         1.6 0.23            133            147 258 
 NOR  HE ES   4    0 7 58.67                             119   -0.01 0  235 234 
 CHI  HZ EP        0 7 32.86                             117   -0.02 8  250 195 
 CHI  HN ES        0 8  2.38                             117   -0.02 8  250 195 
 CHI  HZ I         0 8  6.03         0.8 0.38            119            250 195 
 GUY2CHZ EP        0 7 38.93                             112    0.27 7  301 234 
 GUY2CHN ES        0 8 13.04                             112    0.35 7  301 234 
 GUY2CHZ I         0 8 21.25         1.6 0.42                           301 234 
                                                                                
