 2012 1230 0630 23.7 L   6.884 -73.096145.4  RSN  8 0.5 1.9LRSN                1
 GAP=189        0.91       4.5     6.1  7.6  0.7666E+01  0.1186E+02  0.5509E+01E
 Epicentro: LOS SANTOS - SANTANDER                                             3
 ACTION:UPD 13-01-04 14:31 OP:ep   STATUS:               ID:20121230063023 L   I
 2012-12-30-0630-00M.COL___242                                                 6
 STAT SP IPHASW D HRMM SECON CODA AMPLIT PERI AZIMU VELO AIN AR TRES W  DIS CAZ7
 BAR2 SZ EP   1    630 43.85                             166    0.29 7 33.7 196 
 BAR2 SZ ES   1    630 59.10                             166    0.06 7 33.7 196 
 BAR2 SZ I         631  0.69        19.2 0.36                          33.7 196 
 BRR  HZ EP   1    630 45.48                             152    0.58 7 72.4 290 
 BRR  HN ES   1    631  2.12                             152    0.70 7 72.4 290 
 BRR  HZ I         631  3.33        12.0 0.14                          72.4 290 
 RUS  HZ EP   1    630 48.26                             141    0.15 7  110 179 
 RUS  HN ES   1    631  6.92                             141   -0.22 7  110 179 
 RUS  HZ I         631  8.64         5.0 0.38                           110 179 
 OCA  HN ES   1    631 11.85                             131   -0.81 7  152 351 
 OCA  HZ I         631 17.78         9.6 0.16                           152 351 
 PTB  HZ EP   1    630 50.56                             130   -0.78 7  155 256 
 PTB  HE ES   1    631 12.13                             130   -0.75 7  155 256 
 PTB  HZ I         631 16.79        10.8 0.26                           155 256 
 ZAR  HZ EP   1    630 56.89                             122    0.56 6  206 289 
 ZAR  HN ES   1    631 21.69                             122   -0.08 6  206 289 
 ZAR  HZ I         631 28.11        14.1 0.50                           206 289 
 CHI  HZ EP   1    631  2.30                             116   -0.24 6  259 196 
 CHI  HN ES   1    631 32.66                             116   -0.16 6  259 196 
 HEL  HZ EP   1    631  4.93                             114    0.16 6  280 254 
 HEL  HN ES   1    631 37.20                             114    0.41 6  280 254 
 HEL  HZ I         631 44.28         3.3 0.38                           280 254 
 URE  HZ EP   4    631  5.99                             113    1.02 0  286 290 
 URE  HE ES   4    631 42.91                             113    5.76 0  286 290 
 MON  HZ EP   4    631 10.82                             109   -1.73 0  352 307 
 MON  HN ES   4    631 48.86                             109   -1.78 0  352 307 
                                                                                
