 2016  530 0322  3.3 L   6.774 -73.178147.1  RSN  6 0.4 1.5LRSN                1
 GAP=134        1.01       4.1     5.2  8.0 -0.2690E+01  0.1750E+01 -0.6339E+00E
 Epicentro: LOS SANTOS - SANTANDER                                             3
 ACTION:UPD 16-08-18 17:50 OP:cam  STATUS:               ID:20160530032203 L   I
 OLDACT:REG 16-05-30 12:53 OP:edw  STATUS:               ID:20160530031741     3
 2016-05-30-0317-41M.COL___310                                                 6
 STAT SP IPHASW D HRMM SECON CODA AMPLIT PERI AZIMU VELO AIN AR TRES W  DIS CAZ7
 BAR2 EZ EP        322 23.45                             172    0.4510 20.1 181 
 BRR  HZ EP        322 24.89                             153    0.4110 69.6 302 
 BRR  HE ES        322 41.69                             153    0.6710 69.6 302 
 BRR  HZ I         322 46.70         4.7 0.14            153           69.6 302 
 PAM  EZ EP        322 26.20                             150    0.2910 81.9  40 
 PAM  EN ES        322 43.17                             150   -0.3910 81.9  40 
 PAM  EZ I         322 46.10         4.9 0.38            151           81.9  40 
 RUS  HZ EP        322 26.94                             145   -0.0310 98.0 174 
 RUS  HN ES        322 45.19                             145   -0.2710 98.0 174 
 RUS  HZ I         322 46.08         3.0 0.52            151           98.0 174 
 PTB  HZ EP        322 29.74                             133   -0.25 9  144 260 
 PTB  HN ES        322 50.34                             133   -0.48 9  144 260 
 PTB  HZ I         322 51.70         3.6 0.10            136            144 260 
 OCA  HZ EP        322 31.70                             129   -0.23 9  163 355 
 OCA  HN ES        322 53.90                             129   -0.37 9  163 355 
 OCA  HZ I         322 59.92         6.9 0.20            131            163 355 
                                                                                
