 2017  630 0214 55.7 L   6.890 -73.432113.6  RSN  6 0.5 1.5LRSN                1
 GAP=111        0.94       5.5     5.2  7.5 -0.1361E+02  0.5923E+01  0.1584E+01E
 Epicentro: SAN VICENTE DE CHUCURI - SANTANDER                                 3
 ACTION:UPD 17-09-14 16:56 OP:jn   STATUS:               ID:20170630021455 L   I
 OLDACT:UP  17-06-30 14:32 OP:and  STATUS:               ID:20170630020737d    3
 OLDACT:DUP 17-06-30 14:29 OP:and  STATUS:               ID:20170630020737d    3
 2017-06-30-0208-00M.COL___371                                                 6
 STAT SP IPHASW D HRMM SECON CODA AMPLIT PERI AZIMU VELO AIN AR TRES W  DIS CAZ7
 BRR  HZ IP     D  215 11.82                             160    0.1510 39.2 308 
 BRR  HN ES        215 24.51                             160    0.3810 39.2 308 
 BRR  HZ I         215 25.55         8.1 0.14            163           39.2 308 
 BAR2 EZ IP     D  215 12.51                             158    0.3210 42.9 140 
 BAR2 EZ ES        215 24.90                             158   -0.1510 42.9 140 
 BAR2 EZ I         215 26.46        21.0 0.20            153           42.9 140 
 PAM  EZ EP        215 16.27                             138    0.3010 94.9  58 
 PAM  EN ES        215 31.24                             138   -0.5510 94.9  58 
 PAM  EZ I         215 33.68         5.0 0.30            140           94.9  58 
 PTB  HZ IP     C  215 16.93                             130   -0.5910  120 251 
 PTB  HN ES   3    215 32.96                             130   -1.57 2  120 251 
 PTB  HZ I         215 34.48         6.4 0.21            129            120 251 
 SPBC HN ES        215 40.99                             122    0.24 9  154 207 
 SPBC HZ I         215 48.35         4.6 0.22            120            154 207 
 NOR  HZ EP   9    215 29.03                             113    1.31 0  216 227 
 NOR  HN ES   2    215 54.35                                    0.35 4  216 227 
 NOR  HZ I         215 57.51         2.3 0.36            112            216 227 
                                                                                
