 2015 1030 0800 56.8 L   6.776 -73.102146.0  RSN  6 0.4 1.8LRSN                1
 GAP=168        0.89       4.6     4.9  6.5 -0.4205E+01  0.7094E+01 -0.1497E+01E
 Epicentro: LOS SANTOS - SANTANDER                                             3
 ACTION:UPD 15-12-22 20:44 OP:cam  STATUS:               ID:20151030075749 L   I
 OLDACT:UPD 15-10-30 14:48 OP:AK   STATUS:               ID:20151030075749 L   3
 2015-10-30-0757-49M.COL___313                                                 6
 STAT SP IPHASW D HRMM SECON CODA AMPLIT PERI AZIMU VELO AIN AR TRES W  DIS CAZ7
 BAR2 EZ EP        8 1 16.43                             171    0.0310 22.2 204 
 BAR2 EZ ES        8 1 31.48                             171   -0.2410 22.2 204 
 BAR2 EZ I         8 1 32.41        15.6 0.20            175           22.2 204 
 PAM  EZ EP        8 1 19.11                             151    0.1510 76.5  35 
 PAM  EN ES        8 1 36.31                             151    0.0510 76.5  35 
 PAM  EZ I         8 2  2.36         5.3 0.32            149           76.5  35 
 BRR  HZ EP        8 1 18.22                             151   -0.0410 76.7 299 
 BRR  HN ES        8 1 35.70                             151    0.6710 76.7 299 
 BRR  HZ I         8 1 39.36         8.5 0.43            158           76.7 299 
 OCA  HZ EP   1    8 1 25.09                             129   -0.31 7  164 352 
 OCA  HN ES   1    8 1 47.11                             129   -0.63 7  164 352 
 OCA  HZ I         8 1 49.33        13.7 0.22            133            164 352 
 SPBC HZ EP   1    8 1 25.20                             129   -0.19 7  164 221 
 SPBC HN ES   1    8 1 47.47                             129   -0.24 7  164 221 
 SPBC HZ I         8 1 49.76        10.5 0.32            140            164 221 
 ZAR  HZ EP   1    8 1 30.67                             122    0.87 6  210 292 
 ZAR  HN ES        8 1 55.10                             122   -0.46 8  210 292 
 ZAR  HZ I         8 1 59.39         6.0 0.34            130            210 292 
                                                                                
