 2017 1130 0244 31.5 L   6.814 -73.114136.0  RSN 13 0.6 1.8LRSN                1
 GAP=114        1.45       3.8     4.7  7.9 -0.6087E+00  0.1275E+02  0.3425E+01E
 Epicentro: LOS SANTOS - SANTANDER                                             3
 ACTION:UPD 17-12-12 20:02 OP:rebc STATUS:               ID:20171130024432dL   I
 OLDACT:REG 17-11-30 12:27 OP:dhb  STATUS:               ID:20171130023741     3
 2017-11-30-0238-00M.COL___495                                                 6
 STAT SP IPHASW D HRMM SECON CODA AMPLIT PERI AZIMU VELO AIN AR TRES W  DIS CAZ7
 BAR2 EZ IP     D  244 50.00                             169   -0.0410 25.7 197 
 BAR2 EZ ES        245  4.62                             169    0.1510 25.7 197 
 BAR2 EZ I         245  7.41        13.1 0.36            167           25.7 197 
 PAM  EZ IP     C  244 52.98                             150    0.4810 74.0  38 
 PAM  EE ES        245  9.78                             150    0.9210 74.0  38 
 PAM  EZ I         245 12.11        20.4 0.72            155           74.0  38 
 RUS  HZ EP        244 53.94                             141   -0.4910  102 178 
 RUS  HN ES        245 12.06                             141   -0.2410  102 178 
 RUS  HZ I         245 13.54        12.3 0.32            142            102 178 
 PTB  HZ EP        244 56.86                             129   -1.21 9  152 259 
 PTB  HE ES        245 19.16                             129    0.38 9  152 259 
 PTB  HZ I         245 20.43         5.0 0.12            130            152 259 
 OCA  HZ EP        244 58.31                             128   -0.68 9  159 352 
 OCA  HE ES        245 19.76                             128   -0.66 9  159 352 
 OCA  HZ I         245 21.29        19.3 0.24            131            159 352 
 SPBC HZ EP        244 59.17                             126   -0.46 9  167 220 
 SPBC HE ES        245 20.53                             126   -1.02 9  167 220 
 SPBC HZ I         245 26.33         8.7 0.12            127            167 220 
 YPLC HZ EP        245  0.42                             125   -0.18 9  177 153 
 YPLC HE ES        245 23.61                             125    0.34 9  177 153 
 YPLC HZ I         245 26.83         8.3 0.28            127            177 153 
 ZAR  HZ EP        245  3.67                             120    0.03 8  207 291 
 ZAR  HN ES        245 28.88                             120    0.19 8  207 291 
 ZAR  HZ I         245 34.25         8.5 0.54            122            207 291 
 NOR  HZ EP        245  6.79                             116   -0.33 8  238 235 
 NOR  HE ES        245 35.44                             116    0.55 8  238 235 
 NOR  HZ I         245 36.47         3.4 0.22            117            238 235 
 CHI  HZ EP        245  9.45                             115    0.48 8  251 196 
 CHI  HE ES        245 38.34                             115    0.16 8  251 196 
 CHI  HZ I         245 47.38         1.6 0.34            116            251 196 
 GUY2CHZ EP        245 16.53                             110    1.40 7  305 235 
 GUY2CHE ES        245 48.95                             110   -0.20 7  305 235 
 GUY2CHZ I         245 54.73         2.5 0.52                           305 235 
 CBOC HZ EP        245 19.19                             108    0.69 7  337 252 
 CBOC HE ES        245 56.38                             108    1.24 7  337 252 
 CBOC HZ I         246  5.34         0.9 0.30            109            337 252 
 SJC  HZ EP   9    245 24.68                             104   -2.18 0  410 326 
 SJC  HN ES        246  8.20                                    0.36 6  410 326 
 SJC  HZ I         246  9.29         1.2 0.56            106            410 326 
                                                                                
