 2014  430 0028 30.5 L   6.719 -73.203127.5  RSN  5 0.4 1.5LRSN                1
 GAP=133        0.89       5.1     5.9 14.9  0.5071E+01  0.5228E+02 -0.2623E+01E
 Epicentro: VILLANUEVA - SANTANDER                                             3
 OLDACT:REG 14-04-30 14:08 OP:fm   STATUS:               ID:20140430002739     3
 ACTION:UPD 14-05-13 23:12 OP:nd   STATUS:               ID:20140430002830 L   I
 OLDACT:UP  14-04-30 15:43 OP:fm   STATUS:               ID:20140430002739     3
 2014-04-30-0027-39M.COL___251                                                 6
 STAT SP IPHASW D HRMM SECON CODA AMPLIT PERI AZIMU VELO AIN AR TRES W  DIS CAZ7
 PAM  SN ES   1    029  8.04                             143   -0.00 7 88.4  39 
 RUS  HZ EP   1    028 52.65                             142    0.75 7 92.3 172 
 RUS  HE ES        029  8.32                             142   -0.2510 92.3 172 
 RUS  HZ I         029 24.29         5.3 2.96            143           92.3 172 
 PTB  HZ EP   1    028 54.55                             129   -0.78 7  140 262 
 PTB  HN ES   1    029 15.09                             129    0.41 7  140 262 
 PTB  HZ I         029 16.64         4.8 1.48            138            140 262 
 ZAR  HN ES        029 25.87                             118   -0.00 9  202 295 
 NOR  HN ES   2    029 30.42                             115    0.09 4  224 235 
                                                                                
