 2016  930 0153 27.3 L   6.804 -73.150145.2  RSN  6 0.2 1.2LRSN                1
 GAP=136        0.61       3.1     3.1  4.2 -0.1480E+01  0.1946E+01  0.1732E+01E
 Epicentro: LOS SANTOS - SANTANDER                                             3
 ACTION:UPD 17-08-17 21:17 OP:lp   STATUS:               ID:20160930015327 L   I
 OLDACT:UP  16-09-30 14:34 OP:edw  STATUS:               ID:20160930014739     3
 OLDACT:REG 16-09-30 11:50 OP:edw  STATUS:               ID:20160930014739     3
 2016-09-30-0148-00M.COL___375                                                 6
 STAT SP IPHASW D HRMM SECON CODA AMPLIT PERI AZIMU VELO AIN AR TRES W  DIS CAZ7
 BAR2 EZ EP        153 46.87                             170    0.0510 23.7 189 
 BAR2 EZ ES        154  2.11                             170    0.0210 23.7 189 
 BAR2 EZ I         154  4.31         3.7 0.07            170           23.7 189 
 BRR  HZ EP        153 48.47                             153    0.1610 70.6 298 
 BRR  HN ES        154  5.05                             153    0.3210 70.6 298 
 PAM  EZ EP        153 49.42                             151    0.0110 77.3  40 
 PAM  EN ES        154  6.46                             151   -0.2310 77.3  40 
 PAM  EZ I         154  8.63         3.1 0.19            154           77.3  40 
 RUS  HZ EP        153 50.92                             144   -0.0710  101 176 
 RUS  HN ES        154  9.51                             144    0.0110  101 176 
 RUS  HZ I         154  9.97         1.5 0.38            146            101 176 
 PTB  HZ EP        153 54.30                             132    0.16 9  147 259 
 PTB  HN ES        154 14.60                             132   -0.51 9  147 259 
 PTB  HZ I         154 20.30         2.2 0.21            132            147 259 
 SPBC HZ EP        153 55.57                             129   -0.14 9  163 219 
 SPBC HN ES   2    154 18.61                             129    0.69 5  163 219 
 SPBC HZ I         154 19.94         3.0 0.24            130            163 219 
                                                                                
