 2015  330 0856  6.9 L   6.803 -73.145148.0  RSN  5 0.4 1.3LRSN                1
 GAP=136        1.08       5.6     5.9  9.0 -0.4579E+01  0.7527E+00  0.7277E+01E
 Epicentro: LOS SANTOS - SANTANDER                                             3
 ACTION:UPD 15-04-30 16:30 OP:nd   STATUS:               ID:20150330085606 L   I
 OLDACT:UP  15-03-30 19:55 OP:mh   STATUS:               ID:20150330084749     3
 OLDACT:REG 15-03-30 18:36 OP:mh   STATUS:               ID:20150330084749     3
 2015-03-30-0847-49M.COL___284                                                 6
 STAT SP IPHASW D HRMM SECON CODA AMPLIT PERI AZIMU VELO AIN AR TRES W  DIS CAZ7
 BRR  HZ EP        856 28.91                             153    0.6610 71.1 298 
 BRR  HN ES        856 45.45                             153    0.5210 71.1 298 
 BRR  HZ I         856 51.44         4.1 0.68            151           71.1 298 
 PAM  SZ EP        856 28.77                             151   -0.5410 77.1  40 
 PAM  SN ES   1    856 46.43                             151   -0.37 7 77.1  40 
 PAM  SZ I         856 47.64         4.1 0.20            156           77.1  40 
 RUS  HZ EP        856 31.24                             144    0.3710  101 176 
 RUS  HN ES        856 49.56                             144   -0.0210  101 176 
 RUS  HZ I         856 50.72         2.1 0.34            148            101 176 
 PTB  HZ EP        856 33.81                             133   -0.22 9  148 259 
 PTB  HN ES        856 54.55                             133   -0.67 9  148 259 
 PTB  HZ I         857  0.31         2.3 0.20            134            148 259 
 SPBC HZ EP        856 35.60                             130    0.03 9  163 219 
 SPBC HN ES   1    856 57.90                             130   -0.06 7  163 219 
 SPBC HZ I         857  0.50         3.0 0.10            132            163 219 
                                                                                
