 2010  830 0946 25.1 L   6.146 -73.458128.0  RSN  7 0.4 1.6LRSN                1
 GAP=135        0.85       4.2    11.3  8.6 -0.1844E+02  0.5403E+02 -0.1021E+02E
 Epicentro: SUAITA - SANTANDER                                                 3
 ACTION:UP  10-09-07 10:59 OP:vdl  STATUS:               ID:20100830094625 L   I
 2010-08-30-0943-39S.COL___120                                                 6
 STAT SP IPHASW D HRMM SECON CODA AMPLIT PERI AZIMU VELO SNR AR TRES W  DIS CAZ7
 RUS  HZ IP     D  946 44.04                             157     0.110   50 124 
 RUS  HE ES   1    946 58.88                             157     0.3 7   50 124 
 RUS  HZ I         947  0.89         3.2 0.35                            50 124 
 BAR2 SZ EP        946 44.03                             154     0.110   58  32 
 BAR2 SZ ES   1    946 58.49                             154    -0.1 7   58  32 
 BAR2 SZ I         947  1.18        31.9 0.37                            58  32 
 BRR  HZ EP   1    946 46.91                             137    -0.3 7  110 345 
 BRR  HZ I         946 57.26         5.5 0.05                           110 345 
 BRR  HN ES   2    947  4.70                             137     0.2 5  110 345 
 CHI  HE ES   1    947 14.92                             123    -0.6 7  170 190 
 CHI  HZ I         947 18.60         3.3 0.28                           170 190 
 GUE  SZ EP        946 55.53                             119    -0.4 9  195  18 
 GUE  SZ I         946 56.15         5.9 0.07                           195  18 
 OCA  SZ EP   1    946 60.00                             115     0.3 6  232   4 
 OCA  SZ I         947 33.05         5.1 0.11                           232   4 
 PRA  HZ EP   1    947  9.42                             108     0.8 5  312 211 
 PRA  HE ES   2    947 42.64                                     0.0 3  312 211 
 PRA  HZ I         947 50.61         2.6 0.24                           312 211 
                                                                                
