 2011  630 0054 55.9 L   7.113 -72.966153.0  RSN  6 0.2 1.5LRSN                1
 GAP=136        0.72       4.5     7.0  6.9 -0.1242E+02 -0.1424E+01  0.6588E+01E
 Epicentro: TONA - SANTANDER                                                   3
 ACTION:UP  11-07-14 19:09 OP:ep   STATUS:               ID:20110630005456dL   I
 2011-06-30-0051-18S.COL___140                                                 6
 STAT SP IPHASW D HRMM SECON CODA AMPLIT PERI AZIMU VELO SNR AR TRES W  DIS CAZ7
 PAM  SZ EP        055 17.21                             165     0.010   39  50 
 PAM  SN ES   1    055 33.92                             165     0.2 7   39  50 
 PAM  SZ I         055 36.77         2.9 0.50                            39  50 
 BTL  SZ EP        055 17.29                             165     0.510   40 237 
 BRI  SZ EP        055 18.16                             154     0.210   69  16 
 BRR  HZ EP        055 18.21                             150    -0.310   82 270 
 BRR  HZ I         055 18.58        15.1 0.23                            82 270 
 BRR  HN ES   1    055 36.19                             150     0.1 7   82 270 
 GRA  SZ EP        055 18.95                             149    -0.110   87  12 
 GRA  SZ ES        055 36.70                             149    -0.310   87  12 
 GRA  SZ I         055 38.84         7.2 0.37                            87  12 
 RUS  HZ EP   1    055 22.84                             136    -0.2 7  136 186 
 RUS  HN ES   1    055 44.09                             136    -0.2 7  136 186 
 RUS  HZ I         055 45.70         2.1 0.35                           136 186 
                                                                                
