 2016 1030 0124 57.8 L   6.829 -73.153146.1  RSN 16 0.6 2.7LRSN                1
 GAP=105        1.01       3.7     3.0  5.1 -0.1936E+01  0.3169E+01  0.4140E+01E
 Epicentro: LOS SANTOS - SANTANDER                                             3
 ACTION:UPD 16-11-09 19:24 OP:rebc STATUS:               ID:20161030012457 L   I
 OLDACT:REG 16-10-30 12:49 OP:cog  STATUS:               ID:20161030011747     3
 2016-10-30-0118-00M.COL___315                                                 6
 STAT SP IPHASW D HRMM SECON CODA AMPLIT PERI AZIMU VELO AIN AR TRES W  DIS CAZ7
 BAR2 EZ IP     D  125 17.48                             170   -0.0810 26.4 187 
 BAR2 EZ ES        125 32.54                             170   -0.4210 26.4 187 
 BAR2 EZ I         125 33.98       109.3 0.32            167           26.4 187 
 BRR  HZ IP     D  125 19.31                             153    0.4210 69.0 296 
 BRR  HN ES        125 36.06                             153    0.7410 69.0 296 
 BRR  HZ I         125 39.41       119.0 0.26            148           69.0 296 
 PAM  EZ EP     D  125 20.31                             151    0.3510 75.4  42 
 PAM  EN ES        125 37.22                             151   -0.0110 75.4  42 
 PAM  EZ I         125 38.08        74.1 0.20            153           75.4  42 
 RUS  HZ EP        125 21.44                             143   -0.4110  104 176 
 RUS  HN ES        125 40.35                             143   -0.2410  104 176 
 RUS  HZ I         125 41.22        65.5 0.30            142            104 176 
 PTB  HZ EP   2    125 24.10                             132   -0.72 5  148 258 
 PTB  HN ES        125 45.04                             132   -0.82 9  148 258 
 PTB  HZ I         125 47.56        67.2 0.14            128            148 258 
 TAM  HZ IP     D  125 25.81                             130    0.13 9  157 106 
 TAM  HE ES        125 47.65                             130    0.25 9  157 106 
 TAM  HZ I         125 47.95        54.5 0.30            132            157 106 
 SPBC HZ IP     C  125 26.45                             129   -0.10 9  165 218 
 SPBC HZ EP     C  125 26.45                                            165 218 
 SPBC HN ES        125 48.53                             129   -0.42 9  165 218 
 SPBC HZ I         125 52.48       111.3 0.10            126            165 218 
 NOR  HZ EP        125 33.90                             118    0.18 8  236 234 
 NOR  HN ES        126  1.80                             118    0.10 8  236 234 
 NOR  HZ I         126  3.17        43.8 0.18            116            236 234 
 CHI  HZ EP        125 35.89                             117    0.03 8  252 195 
 CHI  HN ES        126  5.36                             117   -0.17 8  252 195 
 CHI  HZ I         126 12.79        20.6 0.50            115            252 195 
 HEL  HZ EP        125 38.98                             115    0.91 8  272 255 
 HEL  HE ES        126 10.25                             115    0.80 8  272 255 
 HEL  HZ I         126 16.66        34.9 0.34            112            272 255 
 URE  HZ EP        125 37.65                             113   -1.05 7  282 291 
 URE  HE ES   3    126  8.45                             113   -2.13 2  282 291 
 URE  HZ I         126 22.16        53.5 0.20            111            282 291 
 GUY2CHZ EP   3    125 41.88                             112    0.28 2  302 234 
 GUY2CHN ES   3    126 16.84                             112    1.11 2  302 234 
 GUY2CHZ I         126 24.06        29.6 0.44                           302 234 
 ELA  HZ EP   4    125 46.29                             110    1.42 0  331 229 
 ELA  HN ES   4    126 24.11                             110    2.55 0  331 229 
 ELA  HZ I         126 35.62        24.9 0.42            108            331 229 
 CBOC HZ EP   3    125 45.58                             110    0.79 2  334 252 
 CBOC HE ES   3    126 22.23                             110    0.81 2  334 252 
 CBOC HZ I         126 38.75        10.4 0.35            108            334 252 
 PRA  HZ EP   3    125 50.98                             106   -0.67 1  394 209 
 PRA  HN ES        126 33.84                             106    0.22 6  394 209 
 PRA  HZ I         126 38.59        24.3 0.28            105            394 209 
 ORTC HZ EP        125 52.08                             106    0.06 6  398 216 
 ORTC HN ES   3    126 36.36                             106    2.08 1  398 216 
 ORTC HZ I         126 41.93        13.2 0.26            105            398 216 
                                                                                
