 2015  430 0256 32.2 L   6.338 -73.611102.9  RSN 15 0.6 1.7LRSN                1
 GAP= 71        1.44       3.0     3.7  7.5 -0.2769E+01  0.1008E+02 -0.7307E+00E
 Epicentro: SANTA HELENA DEL OPON - SANTANDER                                  3
 ACTION:UPD 15-06-03 16:58 OP:cam  STATUS:               ID:20150430025632 L   I
 OLDACT:UP  15-04-30 13:59 OP:drio STATUS:               ID:20150430024744     3
 OLDACT:REG 15-04-30 12:13 OP:stll STATUS:               ID:20150430024744     3
 2015-04-30-0247-44M.COL___274                                                 6
 STAT SP IPHASW D HRMM SECON CODA AMPLIT PERI AZIMU VELO AIN AR TRES W  DIS CAZ7
 BAR2 EZ EP        256 48.45                             150    0.3310 55.1  59 
 BAR2 EZ ES        257  1.13                             150    0.5510 55.1  59 
 BAR2 EZ I         257  2.79        20.5 0.18            153           55.1  59 
 RUS  HZ EP        256 49.76                             141   -0.2010 76.4 130 
 RUS  HN ES        257  2.96                             141   -0.8910 76.4 130 
 RUS  HZ I         257  5.74         5.5 0.12            144           76.4 130 
 BRR  HZ EP        256 50.12                             137    0.0810 85.8 353 
 BRR  HE ES        257  3.72                             137   -0.2610 85.8 353 
 SPBC HZ EP        256 50.60                             135   -0.0410 91.4 214 
 SPBC HN ES        257  5.55                             135    0.5010 91.4 214 
 SPBC HZ I         257  9.87        24.7 0.10            137           91.4 214 
 PTB  HZ EP        256 50.23                             133   -0.7210 96.1 283 
 PTB  HN ES        257  5.19                             133   -0.4110 96.1 283 
 PTB  HZ I         257  7.65        24.2 0.12            136           96.1 283 
 PAM  SZ EP        256 56.75                             120   -0.10 9  150  42 
 PAM  SN ES        257 16.77                             120    0.65 9  150  42 
 PAM  SZ I         257 20.74         6.3 0.50            123            150  42 
 NOR  HZ EP        256 56.95                             117   -0.82 9  164 238 
 NOR  HN ES        257 18.18                             117    0.44 9  164 238 
 NOR  HZ I         257 20.21        10.0 0.30            119            164 238 
 ZAR  HZ EP        257  0.30                             113   -0.10 9  188 313 
 ZAR  HN ES        257 23.16                             113    0.73 9  188 313 
 ZAR  HZ I         257 27.02         7.8 0.26            116            188 313 
 CHI  HZ EP        257  0.96                             113   -0.12 9  189 184 
 CHI  HE ES        257 23.47                             113   -0.18 9  189 184 
 CHI  HZ I         257 27.59         3.8 0.56            116            189 184 
 OCA  HN ES        257 27.75                             110   -0.02 8  213   9 
 HEL  HZ EP        257  4.10                             110    0.41 8  213 266 
 HEL  HE ES        257 27.03                             110   -1.25 8  213 266 
 HEL  HZ I         257 31.55         3.6 0.50            113            213 266 
 GUY2CHZ EP        257  6.13                             108    0.33 8  230 238 
 GUY2CHN ES        257 33.30                             108    1.26 8  230 238 
 GUY2CHZ I         257 40.52         3.8 0.58                           230 238 
 URE  HZ EP        257  8.01                             105   -1.15 8  264 306 
 TOL  SZ EP        257 10.87                             105    0.45 8  271 224 
 TOL  SN ES        257 40.97                             105    0.71 8  271 224 
 TOL  SZ I         257 45.40         2.5 0.50            107            271 224 
 SML  HE ES        257 41.15                             104    0.35 7  277 349 
                                                                                
