 2016  330 0558 17.9 L   6.760 -73.141138.8  RSN 11 0.3 1.6LRSN                1
 GAP= 88        0.63       2.4     2.3  3.9 -0.9288E+00  0.1293E+01  0.1627E+01E
 Epicentro: LOS SANTOS - SANTANDER                                             3
 ACTION:UPD 16-05-13 21:28 OP:cam  STATUS:               ID:20160330055817 L   I
 OLDACT:REG 16-03-30 13:25 OP:ak   STATUS:               ID:20160330054748     3
 2016-03-30-0547-48M.COL___316                                                 6
 STAT SP IPHASW D HRMM SECON CODA AMPLIT PERI AZIMU VELO AIN AR TRES W  DIS CAZ7
 BAR2 EZ EP        558 36.65                             172    0.0810 19.1 194 
 BAR2 EZ ES        558 51.16                             172   -0.0010 19.1 194 
 BAR2 EZ I         558 54.47        13.5 0.26            171           19.1 194 
 PAM  EZ EP        558 39.43                             148   -0.1010 80.5  37 
 PAM  EN ES        558 56.42                             148   -0.0210 80.5  37 
 PAM  EZ I         558 58.97         4.2 0.26            152           80.5  37 
 RUS  HZ EP        558 40.52                             144   -0.0810 96.1 176 
 RUS  HN ES        558 58.32                             144   -0.0310 96.1 176 
 RUS  HZ I         559  0.18         5.9 0.22            146           96.1 176 
 PTB  HZ EP   2    558 43.30                             130   -0.94 5  148 261 
 PTB  HN ES        559  4.44                             130   -0.38 9  148 261 
 PTB  HZ I         559  8.63         5.7 0.17            131            148 261 
 TAM  HZ EP        558 44.82                             129   -0.02 9  153 103 
 SPBC HZ EP        558 45.53                             128   -0.01 9  160 220 
 SPBC HN ES        559  7.43                             128    0.30 9  160 220 
 SPBC HZ I         559 10.41         8.8 0.22            129            160 220 
 ZAR  HZ EP   2    558 50.31                             120    0.22 4  206 293 
 ZAR  HN ES        559 15.51                             120    0.28 8  206 293 
 ZAR  HZ I         559 21.48         4.3 0.18            122            206 293 
 CHI  HZ EP        558 55.09                             116    0.36 8  245 196 
 CHI  HN ES        559 23.52                             116    0.03 8  245 196 
 CHI  HZ I         559 29.92         2.3 0.28            118            245 196 
 HEL  HZ EP   2    558 57.81                             113    0.14 4  272 257 
 URE  HE ES   4    559 25.59                             112   -5.22 0  286 293 
 GUY2CHZ EP   2    559  1.29                             111    0.37 4  299 236 
 GUY2CHN ES        559 34.31                             111   -0.19 7  299 236 
 GUY2CHZ I         559 41.55         2.1 0.38                           299 236 
 MON  HZ EP   9    559  3.94                             107   -3.03 0  357 309 
 MON  HE ES        559 43.18                                    0.93 6  357 309 
                                                                                
