 2016  730 0901 42.8 L   6.756 -73.152147.7  RSN  5 0.4 1.5LRSN                1
 GAP=233        1.11       6.6     7.1  8.2  0.1016E+02  0.7257E+01  0.4705E+01E
 Epicentro: LOS SANTOS - SANTANDER                                             3
 ACTION:UPD 17-03-29 16:56 OP:lp   STATUS:               ID:20160730090142 L   I
 OLDACT:REG 16-07-30 14:12 OP:edw  STATUS:               ID:20160730085659     3
 2016-07-30-0856-59S.COL___334                                                 6
 STAT SP IPHASW D HRMM SECON CODA AMPLIT PERI AZIMU VELO AIN AR TRES W  DIS CAZ7
 BAR2 EZ EP        9 2  2.47                             173   -0.1210 18.4 191 
 BAR2 EZ ES        9 2 17.37                             173   -0.6410 18.4 191 
 BAR2 EZ I         9 2 23.81        12.8 0.42            169           18.4 191 
 BRR  HZ EP        9 2  4.71                             152    0.4410 73.1 302 
 BRR  HN ES        9 2 21.56                             152    0.5510 73.1 302 
 BRR  HZ I         9 2 22.71         5.1 0.46            154           73.1 302 
 RUS  HZ EP        9 2  6.19                             146   -0.2310 95.8 175 
 RUS  HE ES        9 2 25.18                             146    0.3510 95.8 175 
 RUS  HZ I         9 2 26.90         3.0 0.42            146           95.8 175 
 PTB  HZ EP        9 2  9.65                             133   -0.15 9  146 261 
 PTB  HE ES        9 2 30.18                             133   -0.67 9  146 261 
 PTB  HZ I         9 2 34.45         2.8 0.54            134            146 261 
 SPBC HZ EP        9 2 10.98                             130   -0.09 9  159 220 
 SPBC HN ES        9 2 33.63                             130    0.52 9  159 220 
 SPBC HZ I         9 2 39.44         3.2 0.10            132            159 220 
                                                                                
