 2014 1030 0849  6.0 L   6.781 -73.177142.2  RSN 20 0.4 2.5LRSN                1
 GAP= 63        0.97       2.5     2.5  4.3 -0.5168E+00  0.2899E+01  0.2008E+01E
 Epicentro: LOS SANTOS - SANTANDER                                             3
 ACTION:UPD 14-11-29 23:58 OP:nd   STATUS:               ID:20141030084743 L   I
 OLDACT:UPD 14-11-02 11:03 OP:FJMB STATUS:               ID:20141030084743 L   3
 2014-10-30-0847-43M.COL___271                                                 6
 STAT SP IPHASW D HRMM SECON CODA AMPLIT PERI AZIMU VELO AIN AR TRES W  DIS CAZ7
 BAR2 SZ EP        849 25.55                             171    0.4110 20.8 182 
 BAR2 SZ ES        849 40.11                             171    0.0410 20.8 182 
 BAR2 SZ I         849 41.80       103.2 0.38            169           20.8 182 
 BRR  HZ EP     C  849 27.45                             152    0.8110 69.3 301 
 BRR  HE ES        849 42.99                             152    0.2410 69.3 301 
 BRR  HZ I         849 47.50        60.6 0.14            152           69.3 301 
 PAM  SZ EP     D  849 28.41                             149    0.3510 81.2  40 
 PAM  SN ES        849 45.08                             149   -0.2010 81.2  40 
 PAM  SZ I         849 47.64       113.4 0.56            154           81.2  40 
 RUS  HZ EP     D  849 29.55                             144    0.3010 98.7 174 
 RUS  HE ES        849 47.66                             144    0.2610 98.7 174 
 RUS  HZ I         849 49.65        26.5 0.28            144           98.7 174 
 PTB  HZ EP        849 32.17                             132   -0.15 9  144 259 
 PTB  HN ES        849 52.79                             132   -0.07 9  144 259 
 PTB  HZ I         849 56.39        51.7 0.24            132            144 259 
 TAM  HZ EP     D  849 33.97                             129    0.33 9  158 104 
 TAM  HE ES        849 54.93                             129   -0.29 9  158 104 
 SPBC HN ES        849 55.24                             129   -0.34 9  159 219 
 SPBC HZ I         849 58.43        31.4 0.22            129            159 219 
 OCA  HZ EP        849 33.85                             128   -0.34 9  162 354 
 OCA  HN ES        849 55.40                             128   -0.78 9  162 354 
 OCA  HZ I         849 58.98        60.4 0.40            131            162 354 
 CHI  HZ EP        849 42.76                             117   -0.40 8  246 195 
 CHI  HE ES        850 11.28                             117   -0.88 8  246 195 
 ROSC BZ EP        849 43.63                             116    0.11 8  249 211 
 ROSC BN ES   1    850 12.20                             116   -0.59 6  249 211 
 ROSC BZ I         850 24.34        10.2 0.30            117            249 211 
 HEL  HZ EP        849 45.86                             114    0.27 8  268 256 
 HEL  HN ES        850 16.91                             114    0.43 8  268 256 
 HEL  HZ I         850 26.71        12.1 0.52            115            268 256 
 URE  HZ EP        849 46.03                             113   -0.59 7  281 293 
 URE  HE ES        850 17.71                             113   -0.60 7  281 293 
 URE  HZ I         850 19.62        30.6 0.38            114            281 293 
 PTGC HZ EP        849 48.90                             111   -0.70 7  308 158 
 PTGC HN ES   4    850 21.90                             111   -1.72 0  308 158 
 PTGC HZ I         850 24.09        20.3 0.20            112            308 158 
 RREF HZ EP   9    849 48.81                             110   -2.71 0  318 229 
 RREF HE ES        850 23.91                                   -0.41 7  318 229 
 RREF HZ I         850 32.60         9.8 0.28            111            318 229 
 CBOC HZ EP        849 52.77                             109    0.47 7  330 252 
 CBOC HN ES        850 28.66                             109    0.23 7  330 252 
 CBOC HZ I         850 34.62         6.7 0.46            110            330 252 
 DBB  SZ EP        849 53.83                             109    0.89 7  336 275 
 DBB  SZ ES        850 29.21                             109   -0.36 7  336 275 
 TOL  SZ EP        849 53.57                             109   -0.07 7  340 224 
 TOL  SE ES        850 30.87                             109    0.05 7  340 224 
 TOL  SZ I         850 41.55        18.0 0.26            110            340 224 
 PRA  HZ EP        849 58.91                             106   -0.06 6  388 209 
 PRA  HN ES        850 40.17                             106   -0.12 6  388 209 
 PRA  HZ I         850 47.18         6.0 0.24            107            388 209 
 ORTC HZ EP        849 59.89                             106    0.55 6  392 216 
 ORTC HN ES        850 41.07                             106    0.11 6  392 216 
 ORTC HZ I         850 49.24         6.2 0.64            107            392 216 
 SJC  HZ EP   4    850  0.46                             105   -0.96 0  409 328 
 SJC  HN ES   4    850 40.37                             105   -4.30 0  409 328 
 SJC  HZ I         850 45.84         8.4 0.58            106            409 328 
                                                                                
