 2013  130 0122 57.5 L   6.809 -73.152149.3  RSN 11 0.4 2.6LRSN                1
 GAP= 70        0.89       3.0     3.2  5.2  0.8654E+00  0.2509E+01  0.2476E+01E
 Epicentro: LOS SANTOS - SANTANDER                                             3
 ACTION:UPD 13-02-15 09:17 OP:ep   STATUS:               ID:20130130012257 L   I
 2013-01-30-0120-00M.COL___241                                                 6
 STAT SP IPHASW D HRMM SECON CODA AMPLIT PERI AZIMU VELO AIN AR TRES W  DIS CAZ7
 BAR2 SZ IP        123 17.62                             170    0.0910 24.2 188 
 BAR2 SZ ES   1    123 32.56                             170   -0.63 7 24.2 188 
 BAR2 SZ I         123 35.51       105.3 0.38            162           24.2 188 
 BRR  HZ IP     D  123 19.47                             153    0.5410 70.1 298 
 BRR  HN ES        123 36.46                             153    0.7810 70.1 298 
 BRR  HN I         123 37.20       148.8 0.40            144           70.1 298 
 PAM  SZ EP        123 20.39                             152    0.3610 77.1  40 
 PAM  SN ES        123 37.50                             152   -0.1410 77.1  40 
 PAM  SZ I         123 39.44        55.8 0.54            154           77.1  40 
 RUS  HZ IP     D  123 21.50                             144   -0.1310  102 176 
 RUS  HE ES        123 40.24                             144   -0.2510  102 176 
 RUS  HE I         123 43.62        29.2 0.33            137            102 176 
 PTB  HZ EP        123 24.27                             133   -0.40 9  147 258 
 PTB  HE ES   1    123 45.78                             133   -0.12 7  147 258 
 PTB  HZ I         123 52.83        49.6 0.36            123            147 258 
 TAM  HZ EP        123 25.77                             131    0.27 9  156 105 
 TAM  HN ES        123 47.42                             131    0.04 9  156 105 
 OCA  HZ EP        123 25.54                             131   -0.40 9  159 353 
 OCA  HE ES        123 47.68                             131   -0.49 9  159 353 
 OCA  HZ I         123 51.71        38.9 0.17            126            159 353 
 ZAR  HZ EP   1    123 29.57                             123   -0.46 6  203 292 
 ZAR  HN ES   1    123 55.60                             123    0.16 6  203 292 
 ZAR  HZ I         124  1.90        33.5 0.40            116            203 292 
 CTAB SZ EP   4    123 34.78                             120    1.31 0  230 210 
 CHI  HZ EP        123 35.68                             118    0.24 8  249 195 
 CHI  HN ES   1    124  4.86                             118   -0.20 6  249 195 
 CHI  HZ I         124 14.80        14.1 0.30            112            249 195 
 ROSC BZ EP   1    123 36.04                             117    0.22 6  253 211 
 ROSC BN ES   4    124  7.31                             117    1.56 0  253 211 
 ROSC BZ I         124 15.57        38.5 0.46            111            253 211 
 HEL  HZ EP   1    123 37.69                             115   -0.11 6  272 256 
 HEL  HZ I         124 16.24        14.7 0.26            109            272 256 
 HEL  HE I         124 17.85        16.5 0.45                           272 256 
                                                                                
