 2017 1230 0940 36.7 L   6.807 -73.160145.6  RSN  5 0.4 1.4LRSN                1
 GAP=145        0.99       5.7     5.0  7.8 -0.9504E+01  0.1497E+02 -0.4044E+01E
 Epicentro: LOS SANTOS - SANTANDER                                             3
 ACTION:UPD 18-01-04 13:25 OP:rebc STATUS:               ID:20171230094036 L   I
 OLDACT:REG 17-12-30 13:43 OP:osc  STATUS:               ID:20171230093734     3
 2017-12-30-0938-00M.COL___449                                                 6
 STAT SP IPHASW D HRMM SECON CODA AMPLIT PERI AZIMU VELO AIN AR TRES W  DIS CAZ7
 BAR2 EZ EP        940 56.05                             170   -0.2310 23.9 186 
 BAR2 EZ ES        941 11.59                             170    0.0110 23.9 186 
 BAR2 EZ I         941 13.84         7.4 0.28            169           23.9 186 
 PAM  EZ EP        940 58.99                             151    0.1110 77.8  41 
 PAM  EN ES        941 16.24                             151    0.0310 77.8  41 
 PAM  EZ I         941 19.23         3.2 0.52            156           77.8  41 
 PTB  HZ EP        941  2.73                             132   -0.76 9  146 258 
 PTB  HN ES        941 24.07                             132   -0.34 9  146 258 
 PTB  HZ I         941 29.94         1.6 0.18            134            146 258 
 SPBC HZ EP        941  5.02                             129   -0.09 9  163 218 
 SPBC HN ES        941 27.91                             129    0.61 9  163 218 
 SPBC HZ I         941 34.07         4.2 0.19            131            163 218 
 ZAR  HZ EP        941  9.62                             123    0.71 9  202 292 
 ZAR  HN ES        941 34.20                             123    0.13 9  202 292 
 ZAR  HZ I         941 39.34         2.6 0.17            125            202 292 
                                                                                
