 2016  330 0609 52.0 L   6.838 -73.205148.5  RSN 25 0.5 2.6LRSN                1
 GAP= 61        0.99       2.3     2.6  5.0  0.2448E-01  0.3407E+01  0.1485E+00E
 Epicentro: ZAPATOCA - SANTANDER                                               3
 ACTION:UPD 16-05-13 21:28 OP:cam  STATUS:               ID:20160330060951 L   I
 OLDACT:UP  16-04-11 15:35 OP:cam  STATUS:               ID:20160330060951 L   3
 OLDACT:UP  16-04-11 15:35 OP:cam  STATUS:               ID:20160330060951 L   3
 OLDACT:UP  16-04-01 11:32 OP:AR   STATUS:               ID:20160330060951 L   3
 OLDACT:UP  16-03-30 17:15 OP:ak   STATUS:               ID:20160330060747     3
 OLDACT:REG 16-03-30 13:25 OP:ak   STATUS:               ID:20160330060747     3
 2016-03-30-0607-47M.COL___310                                                 6
 STAT SP IPHASW D HRMM SECON CODA AMPLIT PERI AZIMU VELO AIN AR TRES W  DIS CAZ7
 BAR2 EZ IP     C  610 12.20                             169    0.1110 27.2 175 
 BAR2 EZ ES        610 27.32                             169   -0.4010 27.2 175 
 BAR2 EZ I         610 34.99        42.7 0.44            168           27.2 175 
 PAM  EZ IP     D  610 15.13                             151    0.5010 78.7  45 
 PAM  EN ES        610 31.93                             151   -0.3210 78.7  45 
 PAM  EZ I         610 34.11       118.3 0.52            156           78.7  45 
 RUS  HZ EP        610 16.26                             143   -0.1510  105 173 
 RUS  HN ES        610 35.27                             143   -0.1510  105 173 
 RUS  HZ I         610 36.34        30.0 0.18            146            105 173 
 PTB  HZ EP        610 19.03                             134    0.29 9  142 257 
 PTB  HN ES        610 39.93                             134    0.36 9  142 257 
 PTB  HZ I         610 45.46        42.3 0.18            132            142 257 
 OCA  HZ EP        610 20.21                             131    0.09 9  155 355 
 OCA  HE ES        610 42.20                             131    0.17 9  155 355 
 OCA  HZ I         610 46.89       106.1 0.32            132            155 355 
 SPBC HZ EP        610 21.40                             130    0.71 9  162 216 
 SPBC HN ES        610 43.20                             130    0.17 9  162 216 
 TAM  HZ IP     C  610 20.68                             130    0.05 9  163 106 
 TAM  HN ES        610 42.51                             130   -0.42 9  163 106 
 TAM  HZ I         610 42.95        20.6 0.24            136            163 106 
 ZAR  HZ EP   4    610 22.72                             124   -1.17 0  196 292 
 ZAR  HN ES        610 49.36                             124    0.63 9  196 292 
 ZAR  HZ I         610 58.96        48.0 0.31            123            196 292 
 NOR  HZ EP   4    610 28.17                             119    0.54 0  232 233 
 NOR  HE ES        610 55.12                             119   -0.27 8  232 233 
 NOR  HZ I         611  0.89        18.3 0.19            120            232 233 
 CHI  HZ EP        610 30.68                             117    0.53 8  251 193 
 CHI  HE ES        611  0.41                             117    0.53 8  251 193 
 CHI  HZ I         611  3.79        21.5 0.38            119            251 193 
 ROSC BZ EP   4    610 32.44                             117    2.10 0  253 209 
 ROSC BN ES        611  0.36                             117    0.14 8  253 209 
 ROSC BZ I         611  7.70        50.4 0.35            118            253 209 
 HEL  HZ EP   4    610 34.08                             116    2.27 0  267 255 
 HEL  HN ES   4    611  4.79                             116    1.95 0  267 255 
 HEL  HZ I         611 10.65        20.3 0.38            116            267 255 
 URE  HZ EP        610 32.95                             115    0.55 7  276 292 
 URE  HN ES        611  3.08                             115   -0.80 7  276 292 
 URE  HZ I         611 12.32        38.1 0.28            115            276 292 
 GUY2CHZ EP   4    610 38.68                             113    3.23 0  298 233 
 GUY2CHN ES   4    611 11.05                             113    1.73 0  298 233 
 GUY2CHZ I         611 20.41        17.0 0.38                           298 233 
 VIL  SZ EP        610 35.67                             112   -0.24 7  306 190 
 VIL  SN ES        611  9.39                             112   -0.73 7  306 190 
 PTGC HZ EP        610 35.96                             111   -0.77 7  315 158 
 PTGC HN ES   4    611  8.55                             111   -3.04 0  315 158 
 PTGC HZ I         611 11.69        33.7 0.30            114            315 158 
 LL6C HZ EP   4    610 33.58                             111   -3.78 0  321 359 
 CBOC HZ EP   4    610 41.03                             111    2.52 0  329 251 
 CBOC HN ES   1    611 13.79                             111   -0.97 5  329 251 
 CBOC HZ I         611 33.12         6.4 0.66            111            329 251 
 DBB  SZ EP   4    610 39.97                             110    1.12 0  333 274 
 DBB  SZ ES        611 15.33                             110   -0.03 7  333 274 
 DBB  SZ I         611 22.70        39.2 0.30            111            333 274 
 MON  HZ EP   4    610 39.25                             109   -1.01 0  346 309 
 MON  HN ES   1    611 17.80                             109   -0.07 5  346 309 
 MON  HZ I         611 31.66        10.1 0.74            110            346 309 
 ORTC HZ EP   4    610 47.71                             107    1.71 0  395 215 
 ORTC HE ES   4    611 27.26                             107   -0.84 0  395 215 
 ORTC HZ I         611 34.93        12.9 0.56            108            395 215 
 PAL  HZ EP   4    610 45.03                             106   -1.86 0  402 238 
 PAL  HN ES        611 29.36                             106   -0.31 6  402 238 
 PAL  HZ I         611 47.05         3.4 0.36            107            402 238 
 SJC  HZ EP        610 46.26                             106   -0.61 6  402 327 
 SJC  HE ES        611 28.51                             106   -1.12 6  402 327 
 SJC  HZ I         611 31.58        12.5 0.54            107            402 327 
 CRJC HZ EP   4    610 52.66                             104   -1.52 0  464   4 
 CRJC HE ES   4    611 38.99                             104   -3.66 0  464   4 
 CRJC HZ I         611 47.16         7.4 0.18            105            464   4 
 GUA  SZ EP   9    610 53.35                             103   -2.51 0  479 172 
 GUA  SN ES        611 42.50                             103   -0.63 5  479 172 
 SMAR HZ EP        610 57.79                             103    0.47 4  491 347 
 SMAR HE ES   4    611 44.54                             103   -3.70 0  491 347 
                                                                                
