 2011  330 0126 48.3 L   6.763 -73.134144.0  RSN 19 0.5 3.2LRSN                1
 GAP=116        1.23       4.4     6.2  7.0 -0.3997E+01  0.1250E+02  0.1036E+02E
 Epicentro: LOS SANTOS - SANTANDER                                             3
 ACTION:UP  11-06-16 14:36 OP:jfem STATUS:               ID:20110330012648 L   I
 2011-03-30-0125-14S.COL___138                                                 6
 STAT SP IPHASW D HRMM SECON CODA AMPLIT PERI AZIMU VELO SNR AR TRES W  DIS CAZ7
 BAR2 SZ IP        127  7.50                             172    -0.210   20 196 
 BAR2 SZ ES   1    127 22.16                             172    -0.6 7   20 196 
 BAR2 SZ I         127 24.06       305.5 0.19                            20 196 
 BTL  SZ IP        127  7.84                             171     0.110   23 319 
 BTL  SZ ES   1    127 22.11                             171    -0.8 7   23 319 
 GIR2 SZ EP        127  8.58                             165     0.710   36 349 
 BRR  HZ IP     D  127  9.39                             151    -0.110   74 301 
 BRR  HN ES   1    127 26.82                             151     0.9 7   74 301 
 BRR  HZ I         127 29.27       285.5 0.18                            74 301 
 PAM  SZ IP        127 10.31                             150    -0.210   80  37 
 PAM  SN ES   1    127 27.71                             150    -0.1 7   80  37 
 PAM  SZ I         127 29.71        96.6 0.46                            80  37 
 GUE  SZ EP        127 13.74                             138     0.610  120  11 
 OCA  SZ EP        127 16.12                             128    -0.8 9  165 353 
 YOP  SZ EP        127 18.02                             126     0.2 9  175 153 
 YOP  SN ES   1    127 41.39                             126     0.6 7  175 153 
 NOR  SZ EP        127 23.46                             118    -0.4 8  234 236 
 NOR  SN ES   1    127 51.54                             118     0.0 6  234 236 
 CHI  HZ EP        127 25.35                             117    -0.2 8  245 196 
 CHI  HZ I         127 27.96        56.9 0.40                           245 196 
 CHI  HN ES   1    127 54.33                             117    -0.2 6  245 196 
 ROSC BZ EP        127 26.89                             116     0.9 8  250 212 
 ROSC BZ I         128  2.68       109.1 0.65                           250 212 
 HEL  HZ EP        127 28.56                             114     0.1 8  272 257 
 HEL  HZ I         128  4.96        43.5 0.42                           272 257 
 GUY  SZ EP   3    127 31.14                             112    -0.6 2  300 236 
 GUY  SZ I         128 14.89       116.3 0.41                           300 236 
 VIL  SZ EP        127 30.40                             112    -0.8 7  300 192 
 VIL  SN ES   1    128  4.20                             112    -0.5 5  300 192 
 RREF HZ EP        127 34.46                             111     0.3 7  320 230 
 RREF HZ I         128 19.38        89.4 0.25                           320 230 
 DBB  SZ EP        127 35.29                             109    -0.6 7  341 275 
 TOL  SZ EP        127 37.00                             109     0.7 7  341 225 
 ANIL HZ EP        127 37.90                             108     0.1 6  355 225 
 ANIL HN ES   2    128 17.35                             108     0.9 3  355 225 
 ANIL HZ I         128 27.50       127.4 0.55                           355 225 
 PRA  HZ EP        127 40.70                             106    -0.7 6  389 210 
 PRA  HZ I         127 43.25       229.0 0.25                           389 210 
                                                                                
