 2016  330 0949 36.8 L   6.795 -73.222145.5  RSN  6 0.2 1.2LRSN                1
 GAP=125        0.62       2.5     2.8  4.3  0.4126E+00  0.4000E+01  0.9797E+00E
 Epicentro: ZAPATOCA - SANTANDER                                               3
 ACTION:UPD 16-05-13 21:29 OP:cam  STATUS:               ID:20160330094936 L   I
 OLDACT:REG 16-03-30 13:35 OP:ak   STATUS:               ID:20160330094749     3
 2016-03-30-0947-49M.COL___309                                                 6
 STAT SP IPHASW D HRMM SECON CODA AMPLIT PERI AZIMU VELO AIN AR TRES W  DIS CAZ7
 BAR2 EZ EP        949 56.59                             171    0.1510 22.9 169 
 BAR2 EZ ES        950 11.82                             171    0.1010 22.9 169 
 BAR2 EZ I         950 12.96         3.4 0.28            171           22.9 169 
 PAM  EZ IP     D  949 59.46                             149    0.0510 83.4  44 
 PAM  EZ I         949 59.57         4.5 0.20            152           83.4  44 
 PAM  EN ES        950 16.66                             149   -0.3410 83.4  44 
 RUS  HZ EP        950  0.63                             144    0.0210  101 171 
 RUS  HN ES        950 19.48                             144    0.3410  101 171 
 RUS  HZ I         950 20.50         1.1 0.42            145            101 171 
 PTB  HZ EP        950  2.79                             134   -0.25 9  139 258 
 PTB  HE ES        950 23.18                             134   -0.29 9  139 258 
 PTB  HZ I         950 26.98         1.2 0.26            133            139 258 
 ZAR  HZ EP        950  8.78                             123    0.29 9  196 293 
 ZAR  HN ES        950 33.42                             123    0.24 9  196 293 
 ZAR  HZ I         950 39.56         1.8 0.38            123            196 293 
 CHI  HZ EP        950 14.21                             117   -0.04 8  246 193 
 CHI  HN ES        950 43.10                             117   -0.33 8  246 193 
 CHI  HZ I         950 45.87         1.2 0.44            118            246 193 
                                                                                
