 2013 1130 0206 55.1 L   6.768 -73.131146.7  RSN 14 0.4 2.4LRSN                1
 GAP=159        0.99       3.6     3.9  6.3 -0.3631E+01  0.4467E+01  0.8211E+01E
 Epicentro: LOS SANTOS - SANTANDER                                             3
 ACTION:UPD 14-01-09 16:32 OP:ep   STATUS:               ID:20131130020655 L   I
 OLDACT:UP  13-11-30 12:08 OP:mh   STATUS:               ID:20131130020001d    3
 OLDACT:UP  13-11-30 12:08 OP:mh   STATUS:               ID:20131130020001d    3
 OLDACT:UP  13-11-30 12:07 OP:mh   STATUS:               ID:20131130020001d    3
 OLDACT:DUP 13-11-30 11:43 OP:mh   STATUS:               ID:20131130020001d    3
 OLDACT:UP  13-11-30 11:33 OP:mh   STATUS:               ID:20131130020000     3
 OLDACT:UP  13-11-30 11:33 OP:mh   STATUS:               ID:20131130020000     3
 OLDACT:REG 13-11-30 07:48 OP:mher STATUS:               ID:20131130020000     3
 2013-11-30-0200-00M.COL___282                                                 6
 STAT SP IPHASW D HRMM SECON CODA AMPLIT PERI AZIMU VELO AIN AR TRES W  DIS CAZ7
 BAR2 SZ EP        2 7 14.97                             172    0.1810 20.2 196 
 BAR2 SZ ES   1    2 7 30.36                             172    0.22 7 20.2 196 
 BAR2 SZ I         2 7 32.01        71.4 0.14            167           20.2 196 
 BRR  HZ EP        2 7 16.31                             152   -0.2310 74.3 300 
 BRR  HN ES   1    2 7 33.67                             152    0.42 7 74.3 300 
 BRR  HZ I         2 7 37.91        26.9 0.12            152           74.3 300 
 PAM  SZ EP        2 7 17.48                             150   -0.0510 79.2  37 
 PAM  SN ES        2 7 34.56                             150   -0.4610 79.2  37 
 PTB  HZ EP        2 7 21.73                             132   -0.51 9  149 260 
 PTB  HN ES        2 7 43.05                             132   -0.34 9  149 260 
 PTB  HZ I         2 7 47.69        30.5 0.14            133            149 260 
 SPBC HZ EP        2 7 23.77                             130    0.26 9  161 220 
 SPBC HN ES        2 7 46.09                             130    0.42 9  161 220 
 SPBC HZ I         2 7 51.05        40.9 0.16            130            161 220 
 OCA  HN ES        2 7 46.96                             129    0.70 9  164 353 
 ZAR  HN ES        2 7 53.15                             122   -0.34 8  207 293 
 NOR  HZ EP        2 7 30.18                             119   -0.63 8  234 235 
 NOR  HN ES        2 7 58.11                             119   -0.55 8  234 235 
 NOR  HZ I         2 8  3.20        24.2 0.24            120            234 235 
 CHI  HZ EP        2 7 32.05                             118   -0.48 8  246 196 
 CHI  HN ES        2 8  1.92                             118    0.20 8  246 196 
 CHI  HZ I         2 8  8.23        12.3 0.25            119            246 196 
 HEL  HZ EP   1    2 7 35.14                             115   -0.31 6  273 257 
 HEL  HN ES        2 8  7.42                             115    0.51 8  273 257 
 HEL  HZ I         2 8 13.43        16.9 0.40            116            273 257 
 GUY2CHZ EP   4    2 7 39.84                             113    1.16 0  300 236 
 GUY2CHN ES   4    2 8 17.34                             113    4.68 0  300 236 
 GUY2CHZ I         2 8 20.79        12.1 0.56                           300 236 
 CBOC HZ EP        2 7 42.91                             110    0.80 7  334 253 
 CBOC HN ES        2 8 18.87                             110    0.10 7  334 253 
 CBOC HZ I         2 8 25.45         5.6 0.33            112            334 253 
 PRA  HZ EP        2 7 49.28                             107    0.89 6  390 210 
 PRA  HN ES   4    2 8 31.59                             107    1.64 0  390 210 
 PRA  HZ I         2 8 35.11        11.5 0.35            108            390 210 
 ORTC HZ EP        2 7 49.10                             107    0.27 6  394 217 
 ORTC HN ES   4    2 8 32.37                             107    1.63 0  394 217 
 ORTC HZ I         2 8 38.72         7.4 0.50            108            394 217 
                                                                                
