 2015 1130 0150 26.2 L   6.859 -73.172141.8  RSN 20 0.4 2.4LRSN                1
 GAP=130        1.03       2.7     3.7  4.7 -0.2373E+01  0.5981E+01  0.8360E+00E
 Epicentro: ZAPATOCA - SANTANDER                                               3
 ACTION:UPD 15-12-28 16:14 OP:cam  STATUS:               ID:20151130015026 L   I
 OLDACT:REG 15-11-30 13:57 OP:drio STATUS:               ID:20151130014748     3
 2015-11-30-0147-48M.COL___310                                                 6
 STAT SP IPHASW D HRMM SECON CODA AMPLIT PERI AZIMU VELO AIN AR TRES W  DIS CAZ7
 BAR2 EZ IP     C  150 45.56                             168    0.1110 29.5 182 
 BAR2 EZ ES        151  0.53                             168    0.0310 29.5 182 
 BAR2 EZ I         151  1.41        40.1 0.24            167           29.5 182 
 BRR  HZ EP     D  150 47.23                             154    0.6710 65.7 295 
 BRR  HN ES        151  2.45                             154   -0.0310 65.7 295 
 BRR  HZ I         151  8.70        33.9 0.12            150           65.7 295 
 PAM  EZ EP        150 48.10                             151    0.3210 74.5  44 
 PAM  EN ES        151  5.01                             151    0.3710 74.5  44 
 PAM  EZ I         151  7.08       114.7 0.44            157           74.5  44 
 RUS  HZ EP        150 49.71                             141   -0.3110  107 175 
 RUS  HN ES        151  8.56                             141   -0.0710  107 175 
 PTB  HZ EP        150 52.16                             131   -0.51 9  146 256 
 PTB  HN ES        151 13.30                             131   -0.04 9  146 256 
 PTB  HZ I         151 19.03        23.4 0.12            131            146 256 
 OCA  HZ EP        150 52.92                             130   -0.60 9  154 354 
 OCA  HE ES        151 14.40                             130   -0.46 9  154 354 
 OCA  HZ I         151 18.56        40.8 0.24            132            154 354 
 SPBC HZ EP        150 54.48                             127   -0.19 9  166 217 
 SPBC HE ES        151 16.41                             127   -0.50 9  166 217 
 SPBC HZ I         151 24.85        26.6 0.10            128            166 217 
 ZAR  HZ EP        150 58.42                             122    0.61 9  199 291 
 ZAR  HN ES        151 22.70                             122    0.19 9  199 291 
 ZAR  HZ I         151 28.92        27.6 0.28            122            199 291 
 NOR  HZ EP        151  1.78                             117   -0.04 8  236 233 
 NOR  HE ES        151 30.04                             117    0.41 8  236 233 
 NOR  HZ I         151 33.28        14.1 0.14            119            236 233 
 SML  HZ EP        151  1.19                             117   -0.60 8  237 335 
 SML  HE ES   4    151 27.98                             117   -1.60 0  237 335 
 SML  HZ I         151 38.74        22.5 0.10            119            237 335 
 ROSC BZ EP        151  5.39                             115    0.88 8  257 210 
 ROSC BE ES        151 33.75                             115   -0.68 8  257 210 
 ROSC BZ I         151 42.66        14.2 0.45            117            257 210 
 HEL  HZ EP        151  6.85                             114    0.81 8  271 254 
 HEL  HN ES        151 37.29                             114    0.15 8  271 254 
 HEL  HZ I         151 44.53         9.3 0.52            115            271 254 
 URE  HZ EP        151  5.61                             113   -0.85 7  279 291 
 URE  HE ES   4    151 36.61                             113   -1.29 0  279 291 
 URE  HZ I         151 46.56        17.4 0.38            114            279 291 
 GUY2CHZ EP        151  9.94                             111    0.20 7  303 233 
 GUY2CHN ES        151 43.80                             111    0.06 7  303 233 
 GUY2CHZ I         151 54.03         9.3 0.48                           303 233 
 PTGC HZ EP   4    151  9.09                             110   -1.56 0  316 159 
 PTGC HE ES   4    151 42.68                             110   -2.67 0  316 159 
 ELA  HZ EP   4    151 15.55                             109    2.48 0  331 228 
 ELA  HN ES   4    151 47.56                             109   -2.11 0  331 228 
 ELA  HZ I         152  0.65         6.8 0.36            111            331 228 
 DBB  SZ EP        151 13.56                             109    0.48 7  336 273 
 DBB  SZ ES   4    151 48.62                             109   -1.07 0  336 273 
 DBB  SZ I         151 53.55        21.0 0.60            110            336 273 
 MON  HZ EP   4    151 12.50                             108   -1.77 0  347 308 
 MON  HN ES   4    151 50.64                             108   -1.16 0  347 308 
 MON  HZ I         151 51.57        10.4 0.22            110            347 308 
 PRA  HZ EP        151 20.55                             106    0.51 6  396 209 
 PRA  HN ES        152  2.08                             106    0.02 6  396 209 
 PRA  HZ I         152  9.57        14.6 0.34            107            396 209 
 ORTC HZ EP        151 20.06                             105   -0.30 6  399 215 
 ORTC HE ES        152  1.99                             105   -0.64 6  399 215 
 ORTC HZ I         152  8.61         9.6 0.44            107            399 215 
 SJC  HZ EP   4    151 18.98                             105   -1.78 0  402 327 
 SJC  HN ES   4    152  0.06                             105   -3.29 0  402 327 
 SJC  HZ I         152  4.16         4.9 0.48            107            402 327 
                                                                                
