 2012  830 0442  1.3 L   6.799 -73.129147.3  RSN 12 0.5 2.0LRSN                1
 GAP=139        0.87       4.4     5.9  6.0 -0.1641E+01  0.1252E+02  0.5060E+01E
 Epicentro: LOS SANTOS - SANTANDER                                             3
 ACTION:UPD 12-09-10 11:59 OP:ep   STATUS:               ID:20120830044201 L   I
 2012-08-30-0440-00M.COL___218                                                 6
 STAT SP IPHASW D HRMM SECON CODA AMPLIT PERI AZIMU VELO AIN AR TRES W  DIS CAZ7
 BAR2 SZ IP        442 21.09                             170    0.0010 23.6 194 
 BAR2 SZ I         442 21.20        27.3 0.40                          23.6 194 
 BAR2 SZ ES   1    442 36.38                             170   -0.18 7 23.6 194 
 GIR2 SZ EP   3    442 21.21                             167    0.07 2 31.7 347 
 GIR2 SZ ES   1    442 36.03                             167   -0.61 7 31.7 347 
 BRR  HZ IP     D  442 22.98                             152    0.3010 72.8 298 
 BRR  HZ I         442 24.46        17.1 0.10                          72.8 298 
 BRR  HN ES   1    442 40.34                             152    0.96 7 72.8 298 
 PAM  SZ EP        442 23.94                             151    0.3510 76.3  38 
 PAM  SN ES   2    442 40.55                             151   -0.45 5 76.3  38 
 RUS  HZ EP        442 24.94                             144   -0.2210  100 177 
 RUS  HN ES   1    442 44.13                             144    0.33 7  100 177 
 RUS  HZ I         442 46.98         5.9 0.22                           100 177 
 PTB  HZ EP        442 27.83                             132   -0.69 9  150 259 
 PTB  HZ I         442 54.90        10.1 0.28                           150 259 
 OCA  HN ES   2    442 51.17                             130   -0.76 5  161 353 
 OCA  HZ I         442 57.08        18.0 0.26                           161 353 
 ZAR  HZ EP        442 34.08                             122    0.09 8  206 292 
 ZAR  HZ I         443  5.44        11.8 0.38                           206 292 
 NOR  SZ EP        442 37.07                             119   -0.17 8  236 235 
 NOR  SN ES   1    443  5.08                             119   -0.22 6  236 235 
 CHI  HZ EP   2    442 39.09                             117   -0.01 4  249 196 
 CHI  HN ES   3    443  8.52                             117   -0.08 2  249 196 
 CHI  HZ I         443 12.31         4.2 0.40                           249 196 
 HEL  HZ EP   3    442 43.28                             115    1.53 2  274 256 
 HEL  HZ I         443 19.82         5.4 0.30                           274 256 
 PRA  HZ EP        442 55.55                             107    0.61 6  393 210 
 PRA  HZ I         443 42.52         5.9 0.60                           393 210 
                                                                                
