 2012  430 0404 52.9 L   7.004 -73.406116.2  RSN  6 0.4 1.7LRSN                1
 GAP=136        0.83       5.1     3.9  8.0  0.2691E+01  0.6065E+01  0.2836E+01E
 Epicentro: SAN VICENTE DE CHUCURI - SANTANDER                                 3
 ACTION:UPD 12-07-05 11:56 OP:tino STATUS:               ID:20120430040452 L   I
 2012-04-30-0400-00M.COL___189                                                 6
 STAT SP IPHASW D HRMM SECON CODA AMPLIT PERI AZIMU VELO AIN AR TRES W  DIS CAZ7
 BRR  HZ IP     D  4 5  9.00                             162     0.010   36 289 
 BRR  HZ I         4 5  9.18        40.0 0.11                            36 289 
 BRR  HE ES   1    4 5 21.76                             162     0.1 7   36 289 
 BAR2 SZ EP   1    4 5 10.47                             154     0.4 7   52 151 
 BAR2 SZ ES   2    4 5 23.63                             154     0.1 5   52 151 
 BAR2 SZ I         4 5 24.32        15.4 0.15                            52 151 
 PAM  SZ EP   1    4 5 12.74                             141     0.0 7   86  65 
 PAM  SE ES   1    4 5 27.87                             141    -0.3 7   86  65 
 PTB  HZ EP   1    4 5 14.80                             129    -0.8 7  127 246 
 PTB  HE ES   1    4 5 32.94                             129    -0.4 7  127 246 
 PTB  HZ I         4 5 33.27         4.0 0.31                           127 246 
 RUS  HZ EP   1    4 5 16.24                             129    -0.1 7  128 164 
 RUS  HE ES   1    4 5 34.96                             129     0.3 7  128 164 
 ZAR  HZ EP   1    4 5 20.45                             120     0.6 7  169 289 
 ZAR  HN ES   1    4 5 41.11                             120     0.3 7  169 289 
 ZAR  HZ I         4 5 44.71         4.9 0.35                           169 289 
                                                                                
