 2012 1230 0805 47.4 L   6.800 -73.135149.0  RSN  8 0.5 1.7LRSN                1
 GAP=184        0.87       4.3     5.8  7.3  0.6699E+01  0.1163E+02  0.4974E+01E
 Epicentro: LOS SANTOS - SANTANDER                                             3
 ACTION:UPD 13-01-04 14:31 OP:ep   STATUS:               ID:20121230080547 L   I
 2012-12-30-0800-00M.COL___242                                                 6
 STAT SP IPHASW D HRMM SECON CODA AMPLIT PERI AZIMU VELO AIN AR TRES W  DIS CAZ7
 BAR2 SZ EP   1    8 6  7.59                             171    0.14 7 23.5 193 
 BAR2 SZ ES   1    8 6 22.91                             171   -0.16 7 23.5 193 
 BAR2 SZ I         8 6 24.25        18.6 0.38                          23.5 193 
 BRR  HZ EP   1    8 6  9.44                             153    0.46 7 72.2 298 
 BRR  HN ES   1    8 6 26.79                             153    0.99 7 72.2 298 
 BRR  HZ I         8 6 29.57         7.4 0.10                          72.2 298 
 RUS  HZ EP   1    8 6 11.64                             145    0.15 7  100 177 
 RUS  HE ES   1    8 6 30.08                             145   -0.18 7  100 177 
 RUS  HZ I         8 6 33.63         5.0 0.46                           100 177 
 PTB  HZ EP   1    8 6 14.13                             133   -0.63 7  149 259 
 PTB  HN ES   1    8 6 35.67                             133   -0.41 7  149 259 
 PTB  HZ I         8 6 40.60         5.9 0.20                           149 259 
 OCA  HN ES   1    8 6 37.60                             130   -0.70 7  160 353 
 OCA  HZ I         8 6 42.48        10.4 0.34                           160 353 
 ZAR  HZ EP   1    8 6 20.18                             123   -0.01 6  205 292 
 ZAR  HN ES   1    8 6 45.41                             123   -0.35 6  205 292 
 ZAR  HZ I         8 6 51.14         7.2 0.56                           205 292 
 CHI  HZ EP   1    8 6 25.69                             118    0.36 6  249 195 
 CHI  HN ES   1    8 6 54.41                             118   -0.49 6  249 195 
 CHI  HZ I         8 7  4.73         1.6 0.34                           249 195 
 HEL  HZ EP   1    8 6 28.45                             115    0.52 6  273 256 
 HEL  HN ES   1    8 6 59.73                             115    0.21 6  273 256 
 HEL  HZ I         8 7  6.74         2.9 0.26                           273 256 
 URE  HZ EP   4    8 6 30.80                             114    2.03 0  285 292 
 URE  HN ES   4    8 6 59.46                             114   -1.57 0  285 292 
 MON  HZ EP   4    8 6 34.61                             109   -2.05 0  355 308 
 MON  HN ES   4    8 7 13.70                             109   -1.36 0  355 308 
                                                                                
