 2010 1230 0634  9.5 L   6.843 -73.240134.3  RSN  5 0.5 1.4LRSN                1
 GAP=169        1.13       7.5    32.5 14.5 -0.1182E+03  0.1769E+03 -0.5086E+02E
 Epicentro: ZAPATOCA - SANTANDER                                               3
 ACTION:UP  11-01-14 15:28 OP:pat  STATUS:               ID:20101230063409 L   I
 2010-12-30-0620-00M.COL___137                                                 6
 STAT SP IPHASW D HRMM SECON CODA AMPLIT PERI AZIMU VELO SNR AR TRES W  DIS CAZ7
 BTL  SZ EP   1    634 28.39                                     0.8 7    9 340 
 BAR2 SZ EP   1    634 28.27                             165     0.4 7   28 167 
 BAR2 SZ ES   1    634 42.05                             165    -0.2 7   28 167 
 BAR2 SZ I         634 44.35         7.5 0.28                            28 167 
 RUS  HZ EP   1    634 32.37                             138    -0.3 7  106 171 
 RUS  HN ES   1    634 50.39                             138    -0.3 7  106 171 
 RUS  HZ I         634 51.88         3.2 0.26                           106 171 
 GRA  SZ EP   1    634 34.06                             133     0.4 7  125  23 
 GRA  SZ ES   1    634 52.44                             133    -0.1 7  125  23 
 GRA  SZ I         634 55.57         4.1 0.25                           125  23 
 OCA  SZ EP   1    634 35.57                             128    -0.9 7  155 357 
 OCA  SZ I         635  1.52         3.8 0.30                           155 357 
                                                                                
