 2015  630 0721 17.1 L   6.823 -73.149134.7  RSN  9 0.4 1.8LRSN                1
 GAP=183        0.98       3.4     5.5  8.0  0.1358E+01  0.2585E+02  0.1760E+01E
 Epicentro: LOS SANTOS - SANTANDER                                             3
 ACTION:UPD 15-09-10 22:15 OP:cam  STATUS:               ID:20150630072117 L   I
 OLDACT:UP  15-06-30 17:53 OP:ar   STATUS:               ID:20150630071749     3
 OLDACT:REG 15-06-30 14:37 OP:ar   STATUS:               ID:20150630071749     3
 2015-06-30-0717-49M.COL___310                                                 6
 STAT SP IPHASW D HRMM SECON CODA AMPLIT PERI AZIMU VELO AIN AR TRES W  DIS CAZ7
 BAR2 EZ EP        721 35.40                             169   -0.0410 25.8 188 
 BAR2 EZ ES        721 50.10                             169    0.3410 25.8 188 
 BAR2 EZ I         721 51.64        14.3 0.20            167           25.8 188 
 RUS  HZ EP        721 39.30                             141   -0.6610  103 176 
 RUS  HN ES        721 57.48                             141   -0.3210  103 176 
 RUS  HZ I         722  0.07         6.9 0.30            145            103 176 
 OCA  HN ES        722  5.60                             127    0.05 9  158 353 
 OCA  HZ I         722  9.86        11.6 0.20            130            158 353 
 ZAR  HZ EP        721 48.95                             120    0.25 9  203 292 
 ZAR  HN ES        722 13.34                             120   -0.02 9  203 292 
 ZAR  HZ I         722 19.17         6.5 0.44            121            203 292 
 NOR  HN ES        722 19.29                             116   -0.53 8  236 234 
 NOR  HZ I         722 24.52         6.8 0.50            117            236 234 
 CHI  HN ES        722 24.55                             114    0.94 8  251 195 
 HEL  HZ EP   4    721 55.66                             112   -1.13 0  272 255 
 HEL  HN ES   4    722 29.52                             112    1.76 0  272 255 
 HEL  HZ I         722 36.09         3.1 0.24            114            272 255 
 GUY2CHZ EP        722  0.91                             110    0.57 7  302 234 
 GUY2CHN ES        722 34.37                             110    0.29 7  302 234 
 GUY2CHZ I         722 43.64         2.6 0.72                           302 234 
 CBOC HZ EP        722  3.50                             108   -0.12 7  334 252 
 CBOC HN ES        722 39.56                             108   -0.35 7  334 252 
 CBOC HZ I         722 49.12         1.2 0.40            109            334 252 
                                                                                
