 2013  530 0134 24.5 L   6.812 -73.189138.3  RSN  9 0.4 1.7LRSN                1
 GAP=131        1.02       3.2     5.1  6.0 -0.3757E+01  0.1270E+02 -0.3069E+01E
 Epicentro: ZAPATOCA - SANTANDER                                               3
 ACTION:UPD 13-06-20 09:54 OP:ep   STATUS:               ID:20130530013424 L   I
 2013-05-30-0130-00M.COL___261                                                 6
 STAT SP IPHASW D HRMM SECON CODA AMPLIT PERI AZIMU VELO AIN AR TRES W  DIS CAZ7
 BAR2 SZ IP     C  134 43.30                             170    0.0910 24.3 178 
 BAR2 SZ ES        134 57.67                             170   -0.1610 24.3 178 
 BAR2 SZ I         135  0.12        10.6 0.54            172           24.3 178 
 GIR2 SZ EP     C  134 43.47                             167    0.2810 29.5 359 
 GIR2 SZ ES        134 58.12                             167    0.3210 29.5 359 
 GIR2 SZ I         135  0.30         8.3 0.28            165           29.5 359 
 BRR  HZ IP     D  134 45.33                             153    0.8110 66.4 299 
 BRR  HN ES   2    135  0.55                             153    0.37 5 66.4 299 
 BRR  HZ I         135  3.73        17.0 0.16            151           66.4 299 
 PAM  SZ IP     C  134 46.33                             149    0.3210 79.5  43 
 PAM  SN ES        135  2.77                             149   -0.0610 79.5  43 
 PAM  SZ I         135  5.40         6.1 0.22            151           79.5  43 
 RUS  HZ EP        134 47.65                             142    0.0410  102 173 
 RUS  HN ES        135  4.92                             142   -0.7510  102 173 
 RUS  HZ I         135  6.49         3.8 0.56            147            102 173 
 PTB  HZ EP        134 50.02                             131   -0.39 9  143 258 
 PTB  HN ES   1    135 11.01                             131    0.35 7  143 258 
 PTB  HZ I         135 13.70         8.1 0.22            132            143 258 
 OCA  HZ EP        134 51.74                             128   -0.28 9  158 355 
 OCA  HN ES        135 13.39                             128   -0.13 9  158 355 
 OCA  HZ I         135 21.03        11.9 0.48            130            158 355 
 NOR  HZ EP        134 59.92                             117    0.50 8  232 234 
 NOR  HN ES        135 26.51                             117   -0.19 8  232 234 
 NOR  HZ I         135 29.82         2.5 0.14            120            232 234 
 SML  HZ EP        135  0.06                             116   -0.26 8  241 336 
 SML  HN ES        135 27.50                             116   -0.80 8  241 336 
 SML  HZ I         135 31.71        11.1 0.10            118            241 336 
                                                                                
