 2016  130 0753  7.6 L   6.811 -73.143152.3  RSN 11 0.3 2.2LRSN                1
 GAP=136        0.78       2.1     3.1  4.4 -0.1155E+01  0.3809E+01 -0.7710E+00E
 Epicentro: LOS SANTOS - SANTANDER                                             3
 ACTION:UPD 16-03-09 23:29 OP:cam  STATUS:               ID:20160130075307 L   I
 OLDACT:DUP 16-01-30 18:08 OP:cara STATUS:               ID:20160130072005d    3
 OLDACT:REG 16-01-30 12:00 OP:mher STATUS:               ID:20160130072000     3
 2016-01-30-0719-59S.COL___226                                                 6
 STAT SP IPHASW D HRMM SECON CODA AMPLIT PERI AZIMU VELO AIN AR TRES W  DIS CAZ7
 BAR2 EZ IP     C  753 27.85                             170   -0.1810 24.6 190 
 BAR2 EZ ES        753 43.80                             170   -0.1710 24.6 190 
 BAR2 EZ I         753 44.47        17.7 0.40            170           24.6 190 
 PAM  EZ IP        753 30.71                             152    0.2710 76.3  40 
 PAM  EN ES        753 48.24                             152   -0.0210 76.3  40 
 PAM  EZ I         753 50.09        10.3 0.48            156           76.3  40 
 RUS  HZ EP        753 31.91                             145   -0.1610  102 176 
 RUS  HN ES        753 51.03                             145   -0.1410  102 176 
 RUS  HZ I         753 51.66         9.6 0.36            147            102 176 
 PTB  HZ EP        753 34.72                             133   -0.43 9  148 258 
 PTB  HN ES        753 56.10                             133   -0.53 9  148 258 
 PTB  HZ I         754  1.84        18.3 0.58            133            148 258 
 OCA  HZ EP        753 36.71                             131    0.40 9  159 353 
 OCA  HN ES        753 59.00                             131    0.29 9  159 353 
 OCA  HZ I         754  3.82        39.3 0.24            132            159 353 
 SPBC HZ EP        753 36.73                             130    0.03 9  164 219 
 SPBC HN ES        753 59.68                             130    0.27 9  164 219 
 SPBC HZ I         754  5.84        35.9 0.26            131            164 219 
 ZAR  HZ EP        753 40.35                             124   -0.10 9  204 292 
 ZAR  HE ES        754  6.53                             124    0.45 9  204 292 
 ZAR  HZ I         754 12.37        18.6 0.44            124            204 292 
 NOR  HZ EP        753 43.59                             120   -0.22 8  236 234 
 NOR  HN ES        754 12.25                             120    0.20 8  236 234 
 NOR  HZ I         754 15.51        13.5 0.18            120            236 234 
 SML  HZ EP        753 44.01                             119   -0.48 8  243 335 
 SML  HN ES        754 13.30                             119    0.04 8  243 335 
 SML  HZ I         754 17.54        29.6 0.22            120            243 335 
 CHI  HZ EP        753 45.84                             118    0.04 8  250 195 
 CHI  HN ES        754 16.29                             118    0.70 8  250 195 
 CHI  HZ I         754 21.16         5.2 0.28            120            250 195 
 GUY2CHZ EP   9    753 52.98                             113    1.37 0  302 235 
 GUY2CHN ES        754 27.82                                    0.51 7  302 235 
 GUY2CHZ I         754 35.04         8.1 0.26                           302 235 
                                                                                
