 2015  130 0712 33.8 L   6.799 -73.135148.9  RSN 14 0.4 2.0LRSN                1
 GAP= 66        1.11       2.8     3.2  5.3 -0.1782E-01  0.2548E+01  0.9905E+00E
 Epicentro: LOS SANTOS - SANTANDER                                             3
 ACTION:UPD 15-03-02 15:43 OP:nd   STATUS:               ID:20150130071233 L   I
 OLDACT:UP  15-01-30 17:08 OP:cam  STATUS:               ID:20150130070816     3
 OLDACT:UP  15-01-30 17:04 OP:cam  STATUS:               ID:20150130070816     3
 OLDACT:UP  15-01-30 17:04 OP:cam  STATUS:               ID:20150130070816     3
 OLDACT:REG 15-01-30 13:16 OP:cam  STATUS:               ID:20150130070816     3
 2015-01-30-0708-16M.COL___268                                                 6
 STAT SP IPHASW D HRMM SECON CODA AMPLIT PERI AZIMU VELO AIN AR TRES W  DIS CAZ7
 BAR2 EZ EP     C  712 54.01                             171    0.1910 23.4 193 
 BAR2 EZ ES        713  8.60                             171   -0.8210 23.4 193 
 BAR2 EZ I         713 10.59        19.4 0.36            170           23.4 193 
 BRR  HZ IP     C  712 55.81                             153    0.4510 72.3 298 
 BRR  HN ES        713 12.90                             153    0.7310 72.3 298 
 BRR  HZ I         713 18.53        10.8 0.16            152           72.3 298 
 PAM  SZ IP     C  712 56.75                             152    0.4210 76.8  39 
 PAM  SN ES        713 14.00                             152    0.1110 76.8  39 
 PAM  SZ I         713 16.40        15.1 0.62            155           76.8  39 
 RUS  HZ EP        712 57.94                             144    0.0810  100 177 
 RUS  HN ES        713 16.85                             144    0.2410  100 177 
 RUS  HZ I         713 17.45        10.1 0.28            146            100 177 
 PTB  HZ EP        713  0.59                             132   -0.55 9  149 259 
 PTB  HN ES        713 21.93                             132   -0.52 9  149 259 
 PTB  HZ I         713 24.34        11.3 0.20            133            149 259 
 TAM  HZ EP        713  2.14                             131    0.50 9  154 105 
 TAM  HE ES        713 22.83                             131   -0.50 9  154 105 
 TAM  HE I         713 25.05        15.0 0.32            135            154 105 
 OCA  HZ EP        713  1.93                             130   -0.47 9  161 353 
 OCA  HE ES        713 25.13                             130    0.44 9  161 353 
 OCA  HZ I         713 27.90        10.0 0.16            133            161 353 
 SPBC HZ EP        713  2.94                             130    0.33 9  164 219 
 SPBC HN ES        713 24.89                             130   -0.18 9  164 219 
 SPBC HZ I         713 31.07        14.2 0.26            131            164 219 
 ZAR  HZ EP        713  6.54                             123   -0.04 9  205 292 
 ZAR  HN ES        713 31.87                             123   -0.27 9  205 292 
 ZAR  HZ I         713 38.70        15.1 0.36            124            205 292 
 NOR  HZ EP        713  9.66                             119   -0.16 8  236 235 
 NOR  HE ES        713 38.25                             119    0.35 8  236 235 
 NOR  HZ I         713 43.66         6.6 0.16            121            236 235 
 SML  HZ EP        713 10.11                             118   -0.58 8  244 335 
 SML  HN ES        713 38.99                             118   -0.45 8  244 335 
 SML  HZ I         713 41.61        21.6 0.10            120            244 335 
 CHI  HZ EP        713 11.99                             118    0.29 8  249 195 
 CHI  HN ES        713 41.37                             118    0.11 8  249 195 
 CHI  HZ I         713 47.68         2.9 0.70            120            249 195 
 HEL  HZ EP        713 14.91                             115    0.60 8  273 256 
 GUY2CHZ EP   4    713 19.26                             113    1.59 0  302 235 
 PTGC HZ EP        713 16.90                             112   -0.85 7  308 159 
 PTGC HN ES   4    713 49.97                             112   -2.04 0  308 159 
 PTGC HN I         713 51.29        11.0 0.42            114            308 159 
                                                                                
