 2016  830 0408 13.2 L   6.813 -73.104143.8  RSN 13 0.4 1.9LRSN                1
 GAP=141        0.91       2.6     3.4  4.8 -0.1652E+01  0.4678E+01  0.1266E+01E
 Epicentro: LOS SANTOS - SANTANDER                                             3
 ACTION:UPD 16-10-29 15:40 OP:rebc STATUS:               ID:20160830040813 L   I
 OLDACT:UP  16-08-30 15:09 OP:edw  STATUS:               ID:20160830040735     3
 OLDACT:REG 16-08-30 12:37 OP:edw  STATUS:               ID:20160830040735     3
 2016-08-30-0408-00M.COL___359                                                 6
 STAT SP IPHASW D HRMM SECON CODA AMPLIT PERI AZIMU VELO AIN AR TRES W  DIS CAZ7
 BAR2 EZ EP        4 8 32.17                             169   -0.4710 26.0 200 
 BAR2 EZ ES        4 8 47.60                             169   -0.2110 26.0 200 
 BAR2 EZ I         4 8 48.68        17.5 0.18                          26.0 200 
 PAM  EZ EP     C  4 8 35.39                             152    0.4310 73.3  37 
 PAM  EN ES        4 8 52.53                             152    0.6010 73.3  37 
 PAM  EZ I         4 8 54.59         7.3 0.54                          73.3  37 
 BRR  HZ EP        4 8 34.37                             151    0.0410 74.6 296 
 BRR  HN ES        4 8 51.09                             151    0.2810 74.6 296 
 BRR  HZ I         4 8 55.47        21.7 0.12                          74.6 296 
 RUS  HZ EP        4 8 36.77                             143   -0.0710  102 179 
 RUS  HN ES        4 8 55.24                             143   -0.0510  102 179 
 RUS  HZ I         4 8 56.35         5.4 0.24                           102 179 
 PTB  HZ EP        4 8 40.32                             131   -0.12 9  153 259 
 PTB  HN ES        4 9  1.56                             131   -0.14 9  153 259 
 PTB  HZ I         4 9  2.44        12.8 0.10                           153 259 
 OCA  HZ EP        4 8 41.11                             129   -0.16 9  159 351 
 OCA  HN ES        4 9  2.57                             129   -0.60 9  159 351 
 OCA  HZ I         4 9  5.52        24.5 0.38                           159 351 
 SPBC HZ EP        4 8 41.64                             128   -0.29 9  167 220 
 SPBC HN ES        4 9  4.16                             128   -0.19 9  167 220 
 SPBC HZ I         4 9 10.10        14.8 0.10                           167 220 
 ZAR  HZ EP        4 8 45.23                             121   -0.67 8  208 291 
 ZAR  HN ES        4 9 11.56                             121    0.15 8  208 291 
 ZAR  HZ I         4 9 16.98        11.4 0.18                           208 291 
 NOR  HN ES        4 9 17.37                             118   -0.11 8  239 235 
 CHI  HZ EP        4 8 51.03                             116   -0.04 8  251 196 
 CHI  HN ES        4 9 20.78                             116    0.16 8  251 196 
 CHI  HZ I         4 9 27.96         3.1 0.26                           251 196 
 HEL  HZ EP        4 8 54.95                             114    1.11 7  277 256 
 HEL  HN ES        4 9 25.93                             114    0.38 7  277 256 
 HEL  HZ I         4 9 31.04         4.8 0.40                           277 256 
 SOCV BZ EP   4    4 8 55.37                             112   -0.25 0  297  57 
 SOCV BN ES   4    4 9 39.22                             112   10.51 0  297  57 
 GUY2CHZ EP        4 8 57.41                             112    0.18 7  306 235 
 GUY2CHN ES        4 9 31.84                             112    0.25 7  306 235 
 GUY2CHZ I         4 9 37.94         3.3 0.38                           306 235 
 SJC  HZ EP   4    4 9  7.26                             105   -1.58 0  411 326 
 SJC  HN ES   4    4 9 48.09                             105   -4.16 0  411 326 
 SJC  HZ I         4 9 52.86         1.8 0.25                           411 326 
                                                                                
