 2015  530 0945 27.6 L   6.817 -73.137146.4  RSN 20 0.6 2.3LRSN                1
 GAP=126        1.27       2.8     4.4  5.7 -0.2337E+01  0.5301E+01  0.2581E+01E
 Epicentro: LOS SANTOS - SANTANDER                                             3
      18.0      78.0     158.0 14.0 12.0  4.0  0.1  0.2           RSN FPFIT    F
 ACTION:UPD 15-09-10 22:08 OP:cam  STATUS:               ID:20150530094527 L   I
 OLDACT:UP  15-06-01 11:35 OP:Mher STATUS:               ID:20150530094527 L   3
 OLDACT:REG 15-05-30 14:24 OP:ar   STATUS:               ID:20150530093737     3
 2015-05-30-0937-37M.COL___309                                                 6
 STAT SP IPHASW D HRMM SECON CODA AMPLIT PERI AZIMU VELO AIN AR TRES W  DIS CAZ7
 BAR2 EZ IP     C  945 47.50                             170    0.1010 25.4 191 
 BAR2 EZ ES        946  2.65                             170   -0.1610 25.4 191 
 BAR2 EZ I         946  3.99        69.6 0.20            168           25.4 191 
 BRR  HZ IP     D  945 49.30                             153    0.4410 71.2 297 
 BRR  HN ES        946  6.03                             153    0.6210 71.2 297 
 BRR  HZ I         946  6.87        24.4 0.12            148           71.2 297 
 PAM  SZ EP     D  945 50.28                             151    0.4710 75.3  40 
 PAM  SZ I         945 50.63        79.4 0.22            154           75.3  40 
 PAM  SN ES        946  7.23                             151    0.1410 75.3  40 
 RUS  HZ EP     C  945 51.38                             143   -0.2110  102 177 
 RUS  HE ES        946  9.78                             143   -0.5010  102 177 
 RUS  HZ I         946 11.29        29.7 0.34            144            102 177 
 OCA  HZ EP     C  945 55.59                             130   -0.25 9  158 353 
 OCA  HE ES        946 17.49                             130   -0.34 9  158 353 
 OCA  HZ I         946 22.38        42.9 0.22            129            158 353 
 SPBC HZ EP     D  945 56.34                             129   -0.05 9  165 219 
 SPBC HN ES        946 18.42                             129   -0.40 9  165 219 
 SPBC HZ I         946 24.65        39.5 0.26            128            165 219 
 ZAR  HZ EP        945 59.97                             122   -0.18 9  204 292 
 ZAR  HN ES        946 25.04                             122   -0.47 9  204 292 
 ZAR  HZ I         946 31.33        18.3 0.34            121            204 292 
 NOR  HZ EP        946  3.88                             118    0.26 8  237 234 
 NOR  HE ES        946 31.23                             118   -0.44 8  237 234 
 NOR  HZ I         946 35.96        26.9 0.84            117            237 234 
 SML  HZ EP        946  3.62                             118   -0.54 8  242 335 
 SML  HE ES        946 32.83                             118    0.18 8  242 335 
 CHI  HZ EP        946  5.68                             117    0.07 8  251 195 
 CHI  HN ES        946 34.96                             117   -0.26 8  251 195 
 CHI  HZ I         946 37.10         5.9 0.38            117            251 195 
 ROSC BZ EP        946  7.23                             116    1.20 8  255 211 
 ROSC BZ I         946  8.92        21.1 0.25            116            255 211 
 ROSC BN ES        946 37.55                             116    1.57 8  255 211 
 HEL  HZ IP     D  946  9.66                             115    1.61 8  273 255 
 HEL  HN ES        946 39.01                             115   -0.55 8  273 255 
 HEL  HZ I         946 47.69         9.3 0.30            114            273 255 
 GUY2CHZ EP   1    946 11.54                             112    0.04 5  303 235 
 GUY2CHN ES        946 45.12                             112   -0.58 7  303 235 
 GUY2CHZ I         946 53.68         8.6 0.28                           303 235 
 VIL  SZ EP        946 10.80                             112   -0.53 7  305 192 
 VIL  SN ES        946 44.76                             112   -0.64 7  305 192 
 PTGC HZ IP   4 D  946 10.71                             111   -0.98 0  310 159 
 PTGC HZ I         946 11.20        23.4 0.20            112            310 159 
 PTGC HE ES   4    946 42.96                             111   -3.09 0  310 159 
 MON  HZ EP   9    946 14.99                             109   -1.63 0  353 308 
 MON  HE ES        946 52.27                                   -0.92 6  353 308 
 MON  HZ I         947  8.11         3.3 0.42            108            353 308 
 SDV  BZ EP        946 16.73                             108   -0.75 6  358  50 
 SDV  BZ I         946 17.62         4.1 0.15            109            358  50 
 SDV  BN ES   4    946 53.50                             108   -2.85 0  358  50 
 PRA  HZ EP        946 21.02                             106   -0.42 6  394 210 
 PRA  HN ES        947  3.20                             106   -0.20 6  394 210 
 PRA  HZ I         947 10.02        11.2 0.40            106            394 210 
 ORTC HZ EP        946 21.81                             106   -0.02 6  398 216 
 ORTC HE ES        947  4.06                             106   -0.04 6  398 216 
 ORTC HZ I         947 11.32         6.2 0.42            106            398 216 
 SJC  HZ EP   4    946 21.65                             106   -1.45 0  408 327 
 SJC  HE E         947  1.50                                            408 327 
 SJC  HE ES   4    947  1.50                             106   -4.86 0  408 327 
 SJC  HZ I         947  8.31         2.9 0.30            105            408 327 
                                                                                
