 2010  130 0920 23.9 L   6.822 -73.038144.8  RSN  9 0.6 2.0LRSN                1
 GAP=194        1.15       5.1    12.7 10.3 -0.9146E+01  0.4991E+02  0.4279E+01E
 Epicentro: LOS SANTOS - SANTANDER                                             3
 ACTION:UP  10-08-24 09:46 OP:vdl  STATUS:               ID:20100130092023 L   I
 2010-01-30-0918-35S.COL___094                                                 6
 STAT SP IPHASW D HRMM SECON CODA AMPLIT PERI AZIMU VELO SNR AR TRES W  DIS CAZ7
 BAR2 SZ EP        920 43.43                             167    -0.210   30 212 
 BAR2 SZ ES   1    920 58.99                             167     0.0 7   30 212 
 GIR2 SZ EP        920 44.42                             166     0.910   33 329 
 RUS  BZ EP        920 47.54                             143    -0.210  103 183 
 RUS  BE ES   1    921  5.99                             143    -0.4 7  103 183 
 RUS  BZ I         921  8.00        12.0 0.65                           103 183 
 OCA  SZ EP   1    920 51.64                             129    -0.5 7  160 349 
 OCA  SZ ES   1    921 13.59                             129    -0.5 7  160 349 
 CHI  HZ EP        921  1.65                             116    -0.5 8  254 198 
 CHI  HN ES   1    921 32.35                             116     0.3 6  254 198 
 CHI  HZ I         921 37.70         3.7 0.71                           254 198 
 ROSC BZ EP        921  3.66                             116     0.7 8  261 213 
 HEL  HZ EP   1    921  5.47                             113     0.0 6  284 256 
 HEL  HE ES   2    921 37.64                             113    -0.2 4  284 256 
 HEL  HZ I         921 41.36         6.0 1.16                           284 256 
 RREF BN ES   2    921 48.70                             110     0.5 3  332 230 
 RREF BZ I         921 51.96         6.4 0.13                           332 230 
 PRA  HE ES   2    921 59.14                             106    -1.7 3  400 211 
                                                                                
