 2010  730 0950 39.8 L   5.958 -74.106 71.9  RSN  8 0.1 1.6LRSN                1
 GAP=113        0.47       2.7     2.8 12.5 -0.4918E+01  0.1889E+02 -0.7804E+01E
 Epicentro: LA BELLEZA - SANTANDER                                             3
 ACTION:UPD 10-12-01 15:21 OP:pat  STATUS:               ID:20100730095039 L   I
 2010-07-30-0947-12S.COL___123                                                 6
 STAT SP IPHASW D HRMM SECON CODA AMPLIT PERI AZIMU VELO AIN AR TRES W  DIS CAZ7
 RUS  HZ EP        950 58.64                             118    -0.110  113  94 
 RUS  HZ I         951 16.85         3.5 0.51                           113  94 
 BAR2 SZ EP        950 59.57                             115     0.010  124  55 
 BAR2 SZ ES   1    951 15.02                             115     0.0 7  124  55 
 BAR2 SZ I         951 17.17        16.8 0.81                           124  55 
 HEL  HZ EP        951  3.87                             109     0.0 9  160 279 
 HEL  HZ I         951 26.00         5.0 0.74                           160 279 
 GUY  SZ EP        951  4.35                             108     0.1 9  162 240 
 GUY  SZ I         951 26.58        18.6 0.26                           162 240 
 RREF HZ EP        951  6.38                             106    -0.3 9  181 230 
 RREF HZ I         951 34.10         7.3 0.79                           181 230 
 GUE  SZ EP        951 14.11                             101     0.1 8  245  32 
 GUE  SZ I         951 14.99         3.5 0.05                           245  32 
 GRA  SZ EP        951 15.25                             100     0.0 8  257  34 
 GRA  SZ I         951 46.02         2.8 1.00                           257  34 
 PRA  HE ES        951 44.13                                     0.2 8  263 199 
 PRA  HZ I         951 47.74         2.9 0.41                           263 199 
                                                                                
