 2011  430 0142 54.4 L   6.773 -73.121149.8  RSN  7 0.2 1.6LRSN                1
 GAP=141        0.62       3.5     4.9  6.4 -0.6724E+01  0.3889E+01 -0.6147E+00E
 Epicentro: LOS SANTOS - SANTANDER                                             3
 ACTION:UP  11-06-22 15:34 OP:REBC STATUS:               ID:20110430014254 L   I
 2011-04-30-0141-23S.COL___130                                                 6
 STAT SP IPHASW D HRMM SECON CODA AMPLIT PERI AZIMU VELO SNR AR TRES W  DIS CAZ7
 BAR2 SZ EP   1    143 14.23                             172    -0.2 7   21 199 
 BAR2 SZ I         143 30.70        10.2 0.32                            21 199 
 BRR  HZ EP        143 16.31                             152     0.110   75 300 
 BRR  HZ I         143 16.61        21.9 0.16                            75 300 
 BRR  HN ES   1    143 33.44                             152     0.3 7   75 300 
 PAM  SZ EP   1    143 17.42                             151     0.4 7   78  37 
 PAM  SN ES   1    143 34.68                             151    -0.1 7   78  37 
 PAM  SZ I         143 36.60         2.7 0.15                            78  37 
 RUS  HZ EP   1    143 18.29                             145     0.0 7   97 178 
 RUS  HN ES   1    143 37.03                             145     0.1 7   97 178 
 RUS  HZ I         143 38.29         3.0 0.16                            97 178 
 GRA  SZ EP   1    143 20.17                             137     0.0 7  128  16 
 GRA  SZ ES   1    143 39.77                             137    -0.5 7  128  16 
 GRA  SZ I         143 42.15         8.5 0.19                           128  16 
 OCA  SZ EP   1    143 23.26                             130     0.0 7  164 352 
 OCA  SZ I         143 49.97         8.2 0.61                           164 352 
 NOR  SN ES   1    143 58.09                             119    -0.4 6  235 235 
                                                                                
