 2015  430 0144 16.1 L   6.774 -73.137143.4  RSN 11 0.7 1.8LRSN                1
 GAP= 72        1.74       5.5     5.0  9.2 -0.2317E+01  0.9798E+01  0.1263E+01E
 Epicentro: LOS SANTOS - SANTANDER                                             3
 ACTION:UPD 15-06-03 16:58 OP:cam  STATUS:               ID:20150430014416 L   I
 OLDACT:UP  15-04-30 13:43 OP:drio STATUS:               ID:20150430013750     3
 OLDACT:REG 15-04-30 12:11 OP:stll STATUS:               ID:20150430013750     3
 2015-04-30-0137-50M.COL___278                                                 6
 STAT SP IPHASW D HRMM SECON CODA AMPLIT PERI AZIMU VELO AIN AR TRES W  DIS CAZ7
 BAR2 EZ EP        144 35.44                             172    0.0710 20.7 194 
 BAR2 EZ ES        144 50.36                             172   -0.0610 20.7 194 
 BAR2 EZ I         144 52.71         9.3 0.28            172           20.7 194 
 BRR  HZ IP     C  144 37.68                             151    0.5810 73.5 300 
 BRR  HE ES        144 55.04                             151    1.5410 73.5 300 
 BRR  HZ I         145  0.76        11.6 0.26            149           73.5 300 
 PAM  SZ EP        144 38.62                             150    0.4810 79.1  38 
 PAM  SN ES        144 55.53                             150    0.1710 79.1  38 
 PAM  SZ I         144 56.38         6.7 0.22            152           79.1  38 
 RUS  HZ EP        144 39.34                             144   -0.0410 97.6 177 
 RUS  HN ES        144 57.28                             144   -0.2810 97.6 177 
 RUS  HZ I         144 58.64         4.8 0.48            149           97.6 177 
 PTB  HZ EP        144 42.44                             131   -0.45 9  148 260 
 PTB  HN ES        145  3.12                             131   -0.68 9  148 260 
 PTB  HZ I         145  7.82         9.9 0.20            132            148 260 
 TAM  HZ IP     C  144 43.97                             130    0.56 9  153 104 
 TAM  HN ES        145  3.96                             130   -0.77 9  153 104 
 SPBC HZ EP        144 44.39                             129    0.15 9  162 220 
 SPBC HE ES        145  5.03                             129   -1.17 9  162 220 
 SPBC HZ I         145 11.84        10.8 0.22            131            162 220 
 ZAR  HE ES        145 13.86                             122   -0.07 8  206 293 
 ZAR  HZ I         145 20.60        11.6 0.68            122            206 293 
 NOR  HZ EP        144 52.05                             118    0.48 8  234 235 
 NOR  HE ES        145 18.93                             118   -0.33 8  234 235 
 NOR  HZ I         145 24.96         5.6 0.18            120            234 235 
 SML  HZ EP        144 52.41                             117   -0.49 8  247 335 
 SML  HN ES        145 19.92                             117   -1.71 8  247 335 
 SML  HZ I         145 31.78         5.2 0.26            118            247 335 
 GUY2CHZ EP        145  0.12                             112    0.65 7  300 235 
 GUY2CHN ES        145 34.39                             112    1.07 7  300 235 
 GUY2CHZ I         145 42.38         4.9 0.78                           300 235 
                                                                                
