 2012 1030 0322 47.9 L   6.810 -73.116142.0  RSN  6 0.2 2.2LRSN                1
 GAP=140        0.42       2.2     3.7  3.6 -0.1989E+01  0.1087E+01  0.2101E+01E
 Epicentro: LOS SANTOS - SANTANDER                                             3
 ACTION:UPD 12-11-22 17:06 OP:ep   STATUS:               ID:20121030032247 L   I
 2012-10-30-0320-00M.COL___231                                                 6
 STAT SP IPHASW D HRMM SECON CODA AMPLIT PERI AZIMU VELO AIN AR TRES W  DIS CAZ7
 BAR2 SZ IP     D  323  7.07                             169   -0.0610 25.2 197 
 BAR2 SZ ES   1    323 22.09                             169   -0.03 7 25.2 197 
 BAR2 SZ I         323 23.86        19.4 0.54                          25.2 197 
 GIR2 SZ EP        323  6.86                             167   -0.2710 31.0 344 
 BRR  HZ IP     C  323  8.71                             151   -0.0910 73.7 297 
 BRR  HN ES   1    323 25.34                             151    0.25 7 73.7 297 
 BRR  HN I         323 28.87        64.0 0.18                          73.7 297 
 PAM  SZ IP     C  323  9.76                             151    0.2010 74.5  38 
 PAM  SN ES        323 26.47                             151    0.0310 74.5  38 
 RUS  HZ EP        323 11.29                             143   -0.0710  101 178 
 RUS  HN ES   1    323 29.69                             143    0.04 7  101 178 
 CHI  HZ EP   1    323 25.94                             116    0.32 6  251 196 
 CHI  HN ES   1    323 55.06                             116    0.03 6  251 196 
                                                                                
