 2015 1130 0308 53.8 L   6.775 -73.196140.1  RSN  7 0.3 1.5LRSN                1
 GAP=131        0.75       3.0     3.1  4.8 -0.2429E+00  0.3863E+01  0.1410E+00E
 Epicentro: ZAPATOCA - SANTANDER                                               3
 ACTION:UPD 15-12-28 16:14 OP:cam  STATUS:               ID:20151130030853 L   I
 OLDACT:REG 15-11-30 14:00 OP:drio STATUS:               ID:20151130030747     3
 2015-11-30-0307-47M.COL___289                                                 6
 STAT SP IPHASW D HRMM SECON CODA AMPLIT PERI AZIMU VELO AIN AR TRES W  DIS CAZ7
 BAR2 EZ EP        3 9 12.61                             171   -0.0710 20.2 176 
 BAR2 EZ ES        3 9 27.27                             171   -0.1510 20.2 176 
 BAR2 EZ I         3 9 29.17         6.7 0.28            171           20.2 176 
 BRR  HZ EP        3 9 14.59                             153    0.4510 67.9 303 
 BRR  HN ES        3 9 30.13                             153    0.1110 67.9 303 
 PAM  EZ EP        3 9 15.56                             148   -0.2110 83.1  41 
 PAM  EE ES        3 9 33.15                             148    0.2410 83.1  41 
 PAM  EZ I         3 9 34.89         8.0 0.48            152           83.1  41 
 RUS  HZ EP        3 9 16.71                             143   -0.1210 98.3 173 
 RUS  HE ES        3 9 34.54                             143   -0.2510 98.3 173 
 RUS  HZ I         3 9 36.66         5.3 0.28            146           98.3 173 
 PTB  HZ EP        3 9 19.40                             132   -0.36 9  142 260 
 PTB  HN ES        3 9 39.67                             132   -0.34 9  142 260 
 PTB  HZ I         3 9 46.54         2.9 0.18            132            142 260 
 SPBC HZ EP        3 9 21.76                             129    0.43 9  158 218 
 SPBC HE ES        3 9 43.29                             129    0.49 9  158 218 
 SPBC HZ I         3 9 47.09         6.9 0.18            130            158 218 
 ZAR  HZ EP        3 9 25.30                             122   -0.16 9  200 293 
 ZAR  HE ES        3 9 50.12                             122   -0.04 9  200 293 
 ZAR  HZ I         3 9 56.56         3.7 0.24            123            200 293 
                                                                                
