 2014  930 0430 18.1 L   6.774 -73.149134.0  RSN 10 0.6 1.6LRSN                1
 GAP= 72        1.62       4.9     5.5  9.6 -0.1791E+01 -0.2677E+01  0.2279E+01E
 Epicentro: LOS SANTOS - SANTANDER                                             3
 ACTION:UPD 14-10-03 23:09 OP:nd   STATUS:               ID:20140930043018 L   I
 OLDACT:REG 14-09-30 12:26 OP:stll STATUS:               ID:20140930042816     3
 2014-09-30-0428-16M.COL___292                                                 6
 STAT SP IPHASW D HRMM SECON CODA AMPLIT PERI AZIMU VELO AIN AR TRES W  DIS CAZ7
 BAR2 SZ IP     D  430 36.65                             171    0.3910 20.4 190 
 BAR2 SZ ES        430 50.98                             171    0.5610 20.4 190 
 BAR2 SZ I         430 52.46        12.2 0.18            171           20.4 190 
 BRR  HZ EP        430 38.59                             150    0.5310 72.3 301 
 BRR  HN ES        430 54.11                             150    0.4810 72.3 301 
 BRR  HZ I         431  0.18        13.6 0.12            150           72.3 301 
 PAM  SZ EP        430 39.69                             147    0.4510 79.9  38 
 RUS  HZ EP        430 40.62                             142    0.1210 97.7 176 
 RUS  HN ES        430 57.35                             142   -0.6210 97.7 176 
 RUS  HZ I         430 59.94         6.3 0.32            144           97.7 176 
 PTB  HZ EP        430 43.69                             129   -0.36 9  147 260 
 PTB  HN ES        431  3.47                             129   -0.82 9  147 260 
 PTB  HZ I         431  6.17         5.0 0.18            130            147 260 
 TAM  HZ EP        430 44.90                             127    0.06 9  155 104 
 TAM  HZ I         430 45.06        11.3 0.18            131            155 104 
 TAM  HE ES        431  5.25                             127   -0.45 9  155 104 
 SPBC HZ EP        430 45.67                             126    0.19 9  161 220 
 SPBC HE ES        431  6.64                             126   -0.20 9  161 220 
 SPBC HZ I         431 13.07         4.5 0.42            128            161 220 
 OCA  HZ EP        430 45.49                             126   -0.32 9  163 353 
 OCA  HN ES        431  6.54                             126   -0.87 9  163 353 
 OCA  HZ I         431 10.82         7.4 0.20            128            163 353 
 CHI  HZ EP        430 56.25                             114    1.39 8  246 195 
 CHI  HZ I         430 57.22         1.1 0.56            117            246 195 
 CHI  HN ES        431 22.84                             114   -0.68 8  246 195 
 SOCV BZ EP   9    430 59.81                             109   -1.05 0  303  56 
 SOCV BN ES        431 31.33                                   -1.83 7  303  56 
                                                                                
