 2013  630 0916 40.6 L   6.737 -73.158150.1  RSN  6 0.4 1.3LRSN                1
 GAP=138        0.79       7.6     5.5  6.6 -0.1434E+02  0.1885E+01  0.4455E+01E
 Epicentro: VILLANUEVA - SANTANDER                                             3
 ACTION:UPD 14-01-08 09:58 OP:ep   STATUS:               ID:20130630091640 L   I
 OLDACT:REG 13-06-30 08:20 OP:jn   STATUS:               ID:20130630091549     3
 2013-06-30-0915-49M.COL___228                                                 6
 STAT SP IPHASW D HRMM SECON CODA AMPLIT PERI AZIMU VELO AIN AR TRES W  DIS CAZ7
 BAR2 SZ EP   1    917  0.48                             174   -0.11 7 16.2 189 
 BAR2 SZ ES        917 16.08                             174   -0.1310 16.2 189 
 BAR2 SZ I         917 18.67         5.1 0.28            153           16.2 189 
 GIR2 SZ EP        917  0.91                             165   -0.0310 38.0 354 
 BRR  HZ EP   1    917  2.52                             152    0.21 7 73.6 304 
 BRR  HN ES   1    917 20.09                             152    0.81 7 73.6 304 
 BRR  HZ I         917 22.42         3.8 0.38            160           73.6 304 
 PAM  SZ EP        917  3.53                             150   -0.0910 83.7  37 
 PAM  SE ES   1    917 21.29                             150   -0.31 7 83.7  37 
 PAM  SZ I         917 23.08         4.6 0.60            151           83.7  37 
 RUS  HZ EP   1    917  4.84                             147    0.57 7 93.7 175 
 RUS  HZ I         917 24.78         2.4 0.22            131           93.7 175 
 PTB  HZ EP        917  7.50                             133   -0.16 9  145 261 
 PTB  HN ES   1    917 28.23                             133   -0.56 7  145 261 
 PTB  HZ I         917 30.86         3.4 0.14            130            145 261 
                                                                                
