 2017 1030 0204 21.5 L   6.766 -73.153140.0  RSN 10 0.4 1.4LRSN                1
 GAP=112        1.11       3.9     3.7  6.5  0.1394E+01  0.3597E+01  0.2711E+01E
 Epicentro: LOS SANTOS - SANTANDER                                             3
 ACTION:UPD 17-11-07 19:39 OP:rebc STATUS:               ID:20171030020421 L   I
 OLDACT:UP  17-10-30 13:38 OP:dhb  STATUS:               ID:20171030015744d    3
 OLDACT:DUP 17-10-30 13:34 OP:dhb  STATUS:               ID:20171030015744d    3
 OLDACT:REG 17-10-30 12:20 OP:dhb  STATUS:               ID:20171030015743     3
 2017-10-30-0158-00M.COL___444                                                 6
 STAT SP IPHASW D HRMM SECON CODA AMPLIT PERI AZIMU VELO AIN AR TRES W  DIS CAZ7
 BAR2 EZ EP        2 4 40.03                             172   -0.3210 19.5 190 
 BAR2 EZ ES        2 4 54.80                             172   -0.2610 19.5 190 
 BAR2 EZ I         2 4 56.36         7.2 0.28            171           19.5 190 
 BRR  HZ IP     C  2 4 42.20                             151    0.1210 72.4 301 
 BRR  HN ES        2 4 59.08                             151    0.9310 72.4 301 
 BRR  HZ I         2 5  3.67         5.0 0.14            152           72.4 301 
 PAM  EZ IP     D  2 4 43.22                             149   -0.0810 80.8  38 
 PAM  EE ES        2 5  0.21                             149   -0.1010 80.8  38 
 PAM  EZ I         2 5  1.37         3.3 0.18            152           80.8  38 
 RUS  HZ EP        2 4 44.26                             144   -0.1410 96.9 175 
 RUS  HN ES        2 5  2.10                             144   -0.1810 96.9 175 
 RUS  HZ I         2 5  3.23         6.2 0.22            145           96.9 175 
 PTB  HZ EP        2 4 47.83                             131   -0.03 9  146 260 
 PTB  HN ES        2 5  7.32                             131   -1.10 9  146 260 
 PTB  HZ I         2 5  8.42         3.1 0.12            132            146 260 
 SPBC HZ EP        2 4 49.02                             128   -0.20 9  160 220 
 SPBC HN ES        2 5 11.19                             128    0.33 9  160 220 
 SPBC HZ I         2 5 13.72         2.4 0.26            129            160 220 
 YPLC HZ EP        2 4 50.42                             126   -0.16 9  174 151 
 YPLC HE ES        2 5 13.81                             126    0.54 9  174 151 
 YPLC HZ I         2 5 17.32         3.3 0.38            128            174 151 
 ZAR  HZ EP        2 4 54.16                             121    0.52 9  205 293 
 ZAR  HN ES        2 5 18.52                             121   -0.19 9  205 293 
 ZAR  HZ I         2 5 21.51         2.4 0.20            122            205 293 
 NOR  HE ES        2 5 24.51                             118    0.55 8  232 235 
 NOR  HZ I         2 5 29.22         1.6 0.18            119            232 235 
 GUY2CHZ EP   9    2 5  6.19                             111    1.67 0  298 235 
 GUY2CHE ES        2 5 39.90                             111    0.15 7  298 235 
 GUY2CHZ I         2 5 45.48         0.7 0.36                           298 235 
                                                                                
