 2014  830 1323  8.8 L   6.790 -73.174136.9  RSN  6 0.4 1.8LRSN                1
 GAP=100        1.00       6.1     4.7  7.0 -0.1304E+02 -0.4947E+01  0.1380E+02E
 Epicentro: LOS SANTOS - SANTANDER                                             3
 ACTION:UPD 14-09-15 21:54 OP:nd   STATUS:               ID:20140830132308 L   I
 OLDACT:DUP 14-08-30 23:59 OP:stll STATUS:               ID:20140830131820d    3
 2014-08-30-1318-18M.COL___269                                                 6
 STAT SP IPHASW D HRMM SECON CODA AMPLIT PERI AZIMU VELO AIN AR TRES W  DIS CAZ7
 BAR2 SZ EP       1323 27.55                             170    0.2610 21.8 182 
 BAR2 SZ ES       1323 41.89                             170    0.1410 21.8 182 
 BAR2 SZ I        1323 44.50        11.6 0.28            150           21.8 182 
 BRR  HZ EP       1323 29.30                             152    0.4710 69.0 301 
 BRR  HN ES       1323 44.92                             152    0.4310 69.0 301 
 PAM  SZ EP       1323 30.49                             148    0.2710 80.3  41 
 PAM  SN ES       1323 46.30                             148   -0.6710 80.3  41 
 PAM  SZ I        1323 49.55        16.1 0.50            159           80.3  41 
 PTB  HZ EP       1323 34.16                             131   -0.55 9  144 259 
 PTB  HN ES       1323 54.47                             131   -0.49 9  144 259 
 PTB  HZ I        1323 57.29         5.5 0.58            131            144 259 
 TAM  HZ EP       1323 35.91                             128   -0.10 9  158 104 
 SPBC HZ EP       1323 36.47                             127    0.15 9  160 218 
 SPBC HN ES       1323 57.78                             127   -0.03 9  160 218 
 SPBC HZ I        1324 27.14        16.7 0.22            124            160 218 
                                                                                
