 2010 1130 1238 13.5 L   7.511 -73.540119.8  RSN  5 0.4 1.9LRSN                1
 GAP=174        0.93       8.0    10.4 10.8 -0.5091E+02 -0.5193E+00  0.3961E+01E
 Epicentro: SABANA DE TORRES - SANTANDER                                       3
 ACTION:UP  10-12-17 16:56 OP:REBC STATUS:               ID:20101130123813 L   I
 2010-11-30-1234-49S.COL___132                                                 6
 STAT SP IPHASW D HRMM SECON CODA AMPLIT PERI AZIMU VELO SNR AR TRES W  DIS CAZ7
 BRR  HZ EP   1   1238 30.89                             156     0.3 7   49 203 
 BRR  HE ES   1   1238 43.78                             156    -0.1 7   49 203 
 BRR  HZ I        1238 49.57        14.8 0.30                            49 203 
 BTL  SZ EP   1   1238 32.27                             147     0.0 7   72 155 
 GUE  SZ EP   1   1238 32.70                             145     0.0 7   77  63 
 OCA  SZ EP   1   1238 32.23                             143    -0.8 7   84  17 
 OCA  SZ ES   1   1238 48.67                             143     0.4 7   84  17 
 OCA  SZ I        1238 51.31        29.2 0.20                            84  17 
 GRA  SZ EP   1   1238 34.10                             140     0.5 7   91  63 
 GRA  SZ ES       1238 49.04                             140    -0.210   91  63 
 GRA  SZ I        1238 50.32        13.8 0.32                            91  63 
                                                                                
