 2013  430 1205 51.4 L   6.676 -73.225149.8  RSN  5 0.3 1.8LRSN                1
 GAP=201        0.65       7.2     6.2  9.1  0.2712E+02 -0.4981E+01  0.7217E+01E
 Epicentro: BARICHARA - SANTANDER                                              3
 ACTION:UPD 13-05-22 14:41 OP:EP   STATUS:               ID:20130430120551 L   I
 2013-04-30-1200-00M.COL___253                                                 6
 STAT SP IPHASW D HRMM SECON CODA AMPLIT PERI AZIMU VELO AIN AR TRES W  DIS CAZ7
 BAR2 SZ EP   1   12 6 10.87                             176   -0.44 7 10.4 153 
 BRR  HZ EP   1   12 6 13.46                             153    0.46 7 71.9 312 
 BRR  HN ES   1   12 6 29.88                             153    0.01 7 71.9 312 
 BRR  HN I        12 6 37.31        15.3 0.34            151           71.9 312 
 RUS  HZ EP       12 6 14.91                             148    0.2310 88.0 170 
 RUS  HN ES   2   12 6 32.57                             148   -0.29 5 88.0 170 
 RUS  HN I        12 6 33.91         8.7 0.32            155           88.0 170 
 PTB  HZ EP   1   12 6 17.36                             135   -0.37 7  137 264 
 PTB  HN ES   1   12 6 38.51                             135    0.23 7  137 264 
 PTB  HN I        12 6 46.27         6.1 0.26            136            137 264 
 ZAR  HE ES   1   12 6 48.90                             124   -0.27 6  202 297 
 ZAR  HE I        12 6 55.28         8.3 0.32            126            202 297 
                                                                                
