 2015 1130 1850 33.7 L   6.570 -73.449117.5  RSN 11 0.4 2.1LRSN                1
 GAP= 66        0.99       2.6     3.3  5.5 -0.1431E+01  0.6118E+01 -0.2087E+01E
 Epicentro: EL CARMEN - SANTANDER                                              3
 ACTION:UPD 15-12-28 16:14 OP:cam  STATUS:               ID:20151130185033 L   I
 OLDACT:REG 15-11-30 22:53 OP:mh   STATUS:               ID:20151130184746     3
 2015-11-30-1847-46M.COL___313                                                 6
 STAT SP IPHASW D HRMM SECON CODA AMPLIT PERI AZIMU VELO AIN AR TRES W  DIS CAZ7
 BAR2 EZ EP       1850 50.28                             165    0.1810 29.5  85 
 BAR2 EZ ES       1851  2.81                             165   -0.0910 29.5  85 
 BAR2 EZ I        1851  5.63        29.0 0.58            169           29.5  85 
 BRR  HZ EP       1850 51.66                             149    0.1410 66.1 334 
 BRR  HN ES       1851  5.90                             149    0.4610 66.1 334 
 BRR  HZ I        1851  6.42        35.4 0.14            149           66.1 334 
 RUS  HZ EP       1850 53.49                             142   -0.0610 85.1 152 
 RUS  HN ES       1851  9.25                             142    0.2110 85.1 152 
 RUS  HZ I        1851 10.28        25.6 0.28            145           85.1 152 
 PTB  HZ EP       1850 54.47                             133   -0.5910  112 268 
 PTB  HN ES       1851 10.91                             133   -0.8210  112 268 
 PTB  HZ I        1851 12.75        17.7 0.16            134            112 268 
 PAM  EZ EP       1850 56.13                             132   -0.2210  119  44 
 PAM  EN ES       1851 14.18                             132    0.1510  119  44 
 PAM  EZ I        1851 16.84        18.8 0.24            135            119  44 
 SPBC HZ EP       1850 56.07                             130   -0.1110  123 214 
 SPBC HN ES       1851 13.77                             130    0.0410  123 214 
 SPBC HZ I        1851 19.86        47.0 0.10            132            123 214 
 OCA  HN ES       1851 24.65                             118   -0.47 9  185   4 
 ZAR  HZ EP   1   1851  2.95                             118    0.44 7  186 303 
 ZAR  HZ IP       1851  2.95                             118    0.44 9  186 303 
 ZAR  HN ES       1851 25.65                             118    0.66 9  186 303 
 ZAR  HZ I        1851 31.08        15.4 0.28            119            186 303 
 NOR  HZ EP       1851  2.91                             117   -0.36 9  193 235 
 NOR  HN ES   1   1851 26.34                             117   -0.01 7  193 235 
 NOR  HZ I        1851 31.40        11.4 0.14            118            193 235 
 SML  HZ EP       1851 10.11                             110   -0.21 8  256 344 
 SML  HN ES       1851 38.68                             110   -0.21 8  256 344 
 SML  HZ I        1851 43.91        19.7 0.24            111            256 344 
 GUY2CHZ EP       1851 12.13                             110    0.86 8  259 235 
 GUY2CHN ES   4   1851 43.18                             110    2.59 0  259 235 
 GUY2CHZ I        1851 51.16         6.6 0.30                           259 235 
                                                                                
