 2016  530 1755 17.9 L   6.775 -73.113140.3  RSN  4 0.3 1.6LRSN                1
 GAP=142        0.93       4.9     7.2  7.6 -0.6823E+00 -0.3730E+01  0.1350E+01E
 Epicentro: LOS SANTOS - SANTANDER                                             3
 ACTION:UPD 16-08-18 17:50 OP:cam  STATUS:               ID:20160530175517 L   I
 OLDACT:REG 16-05-30 20:38 OP:cara STATUS:               ID:20160530174744     3
 2016-05-30-1747-44M.COL___316                                                 6
 STAT SP IPHASW D HRMM SECON CODA AMPLIT PERI AZIMU VELO AIN AR TRES W  DIS CAZ7
 BAR2 EZ EP       1755 36.49                             171   -0.3710 21.6 201 
 BAR2 EZ ES       1755 51.27                             171   -0.3610 21.6 201 
 BAR2 EZ I        1755 52.72         7.6 0.14            171           21.6 201 
 BRR  HZ EP       1755 38.50                             150   -0.2610 75.7 299 
 BRR  HE ES       1755 55.34                             150    0.3410 75.7 299 
 BRR  HZ I        1755 55.48         8.4 0.12            153           75.7 299 
 PAM  EZ EP       1755 40.11                             150    0.5510 77.4  36 
 PAM  EN ES       1755 56.28                             150   -0.1510 77.4  36 
 PAM  EZ I        1755 58.17        11.2 0.48            151           77.4  36 
 RUS  HZ EP       1755 40.77                             143   -0.1610 97.6 178 
 RUS  HN ES       1755 59.28                             143    0.4210 97.6 178 
 RUS  HZ I        1756  0.59         4.3 0.40            144           97.6 178 
                                                                                
