 2017 1030 1624 13.4 L   6.799 -73.166144.8  RSN 10 0.4 1.6LRSN                1
 GAP=110        0.96       3.4     3.4  5.7  0.2303E+01  0.4217E+01  0.3864E+01E
 Epicentro: LOS SANTOS - SANTANDER                                             3
 ACTION:UPD 17-11-07 19:39 OP:rebc STATUS:               ID:20171030162413 L   I
 OLDACT:UP  17-10-30 23:25 OP:mg   STATUS:               ID:20171030161737     3
 OLDACT:REG 17-10-30 20:22 OP:mg   STATUS:               ID:20171030161737     3
 2017-10-30-1618-00M.COL___435                                                 6
 STAT SP IPHASW D HRMM SECON CODA AMPLIT PERI AZIMU VELO AIN AR TRES W  DIS CAZ7
 BAR2 EZ EP       1624 32.79                             171   -0.1610 22.9 184 
 BAR2 EZ ES       1624 47.89                             171   -0.2810 22.9 184 
 BAR2 EZ I        1624 49.46         7.5 0.18            168           22.9 184 
 BRR  HZ EP       1624 34.61                             153    0.2310 69.3 300 
 BRR  HE ES       1624 51.42                             153    0.7110 69.3 300 
 BRR  HZ I        1624 55.16        14.7 0.23            150           69.3 300 
 PAM  EZ EP     D 1624 35.66                             150    0.0010 79.0  41 
 PAM  EN ES       1624 53.13                             150    0.1510 79.0  41 
 PAM  EZ I        1624 55.01         7.8 0.48            155           79.0  41 
 RUS  HZ EP       1624 37.04                             144   -0.0710  101 175 
 RUS  HN ES       1624 55.06                             144   -0.5010  101 175 
 RUS  HZ I        1624 56.89         5.5 0.26            145            101 175 
 PTB  HZ EP       1624 39.58                             132   -0.55 9  145 259 
 PTB  HN ES       1625  0.36                             132   -0.58 9  145 259 
 PTB  HZ I        1625  7.83         3.9 0.32            131            145 259 
 YPLC HZ EP       1624 43.21                             126   -0.06 9  178 151 
 YPLC HN ES       1625  6.89                             126    0.36 9  178 151 
 YPLC HZ I        1625  9.14         5.8 0.33            129            178 151 
 ZAR  HZ EP       1624 45.57                             122   -0.05 9  202 292 
 ZAR  HN ES       1625 10.58                             122   -0.13 9  202 292 
 ZAR  HZ I        1625 20.20         6.2 0.26            123            202 292 
 NOR  HZ EP   4   1624 50.64                             118    1.73 0  233 234 
 NOR  HN ES       1625 17.25                             118    0.68 8  233 234 
 NOR  HZ I        1625 25.67         2.6 0.10            119            233 234 
 CHI  HN ES       1625 20.66                             117    0.35 8  248 195 
 CHI  HZ I        1625 22.84         3.9 0.40            118            248 195 
 GUY2CHZ EP   1   1624 57.32                             112    0.53 5  299 235 
 GUY2CHN ES   4   1625 33.45                             112    2.85 0  299 235 
 GUY2CHZ I        1625 40.84         1.4 0.35                           299 235 
                                                                                
