 2015  730 1017 52.5 L   6.650 -73.207132.0  RSN  4 0.4 1.4LRSN                1
 GAP=205        1.01      10.2    12.2  8.1  0.1040E+03  0.2902E+02  0.9918E+01E
 Epicentro: BARICHARA - SANTANDER                                              3
 ACTION:UPD 15-09-08 21:51 OP:cam  STATUS:               ID:20150730101752 L   I
 OLDACT:REG 15-07-30 19:41 OP:drio STATUS:               ID:20150730100749     3
 2015-07-30-1007-49M.COL___313                                                 6
 STAT SP IPHASW D HRMM SECON CODA AMPLIT PERI AZIMU VELO AIN AR TRES W  DIS CAZ7
 BAR2 EZ EP       1018  9.99                             177   -0.2110 6.94 157 
 BAR2 EZ ES       1018 23.86                             177   -0.1710 6.94 157 
 BAR2 EZ I        1018 27.75         6.2 0.26            173           6.94 157 
 BRR  HZ EP       1018 11.93                             148   -0.4610 75.3 312 
 BRR  HE ES       1018 28.53                             148    0.5910 75.3 312 
 BRR  HZ I        1018 30.70         8.2 0.40            152           75.3 312 
 RUS  HZ EP       1018 13.97                             146    0.2410 84.9 171 
 RUS  HE ES       1018 30.31                             146   -0.0110 84.9 171 
 RUS  HZ I        1018 35.19         3.2 0.40            146           84.9 171 
 ZAR  HZ EP     D 1018 24.72                             119    0.59 9  205 297 
 ZAR  HE ES       1018 48.28                             119   -0.55 9  205 297 
                                                                                
