 2013  630 1217 57.5 L   6.814 -73.126154.5  RSN  8 0.5 1.9LRSN                1
 GAP=191        1.14       5.2     6.0  8.8  0.4982E+01  0.9671E+01 -0.2016E+01E
 Epicentro: LOS SANTOS - SANTANDER                                             3
 ACTION:UPD 14-01-08 09:58 OP:ep   STATUS:               ID:20130630121757 L   I
 OLDACT:REG 13-06-30 17:50 OP:carl STATUS:               ID:20130630120959     3
 2013-06-30-1209-59M.COL___266                                                 6
 STAT SP IPHASW D HRMM SECON CODA AMPLIT PERI AZIMU VELO AIN AR TRES W  DIS CAZ7
 BAR2 SZ EP       1218 18.08                             170   -0.1310 25.3 194 
 BAR2 SZ ES   1   1218 34.37                             170   -0.00 7 25.3 194 
 BAR2 SZ I        1218 34.73         6.8 0.38            167           25.3 194 
 GIR2 SZ EP       1218 18.71                             168    0.5310 30.2 346 
 GIR2 SZ ES   1   1218 34.26                             168   -0.05 7 30.2 346 
 BRR  HZ EP       1218 20.15                             154    0.5010 72.4 297 
 BRR  HN ES   1   1218 37.76                             154    0.82 7 72.4 297 
 BRR  HN I        1218 40.78        34.2 0.20            151           72.4 297 
 RUS  HZ EP       1218 22.04                             145   -0.1710  102 177 
 RUS  HN ES   1   1218 40.87                             145   -0.62 7  102 177 
 RUS  HZ I        1218 43.64         2.6 0.44            146            102 177 
 PTB  HZ EP       1218 25.02                             133   -0.37 9  150 258 
 PTB  HN ES       1218 46.45                             133   -0.71 9  150 258 
 PTB  HZ I        1218 52.10         9.1 0.38            132            150 258 
 ZAR  HZ EP   1   1218 30.72                             124    0.06 6  205 292 
 ZAR  HE ES       1218 56.28                             124   -0.25 8  205 292 
 ZAR  HZ I        1219  2.74        10.0 0.48            124            205 292 
 NOR  HN ES       1219  3.44                             120    0.93 8  237 234 
 NOR  HN I        1219  6.40        12.9 0.18            120            237 234 
 SML  HN ES       1219  2.98                             119   -0.51 8  243 335 
                                                                                
