 2016 1030 1714 23.7 L   6.792 -73.102149.0  RSN  9 0.3 1.6LRSN                1
 GAP=143        0.86       3.8     5.5  5.4 -0.7682E+01 -0.3554E+01  0.6186E+01E
 Epicentro: LOS SANTOS - SANTANDER                                             3
 ACTION:UPD 16-11-09 19:24 OP:rebc STATUS:               ID:20161030171423 L   I
 OLDACT:UP  16-10-30 23:45 OP:dani STATUS:               ID:20161030170740     3
 OLDACT:UP  16-10-30 23:44 OP:dani STATUS:               ID:20161030170740     3
 OLDACT:UP  16-10-30 23:44 OP:dani STATUS:               ID:20161030170740     3
 OLDACT:UP  16-10-30 23:43 OP:dani STATUS:               ID:20161030170740     3
 OLDACT:REG 16-10-30 20:25 OP:edw  STATUS:               ID:20161030170740     3
 2016-10-30-1708-00M.COL___325                                                 6
 STAT SP IPHASW D HRMM SECON CODA AMPLIT PERI AZIMU VELO AIN AR TRES W  DIS CAZ7
 BAR2 EZ EP       1714 43.43                             171   -0.2910 23.9 202 
 BAR2 EZ ES       1714 59.32                             171   -0.0210 23.9 202 
 BAR2 EZ I        1715  2.60         6.6 0.15            167           23.9 202 
 PAM  EZ EP       1714 46.22                             152    0.1110 75.1  36 
 PAM  EN ES       1715  3.67                             152    0.0610 75.1  36 
 PAM  EZ I        1715  5.62         5.4 0.24            157           75.1  36 
 BRR  HZ EP       1714 45.41                             151   -0.0410 75.9 297 
 BRR  HN ES       1715  2.84                             151    0.4110 75.9 297 
 BRR  HZ I        1715  4.62         6.8 0.68            151           75.9 297 
 RUS  HZ EP       1714 47.16                             145   -0.5210 99.5 179 
 RUS  HN ES       1715  6.40                             145   -0.0010 99.5 179 
 RUS  HZ I        1715  8.65         2.9 0.54            145           99.5 179 
 PTB  HZ EP   9   1714 50.30                             132   -1.04 0  152 260 
 PTB  HE ES       1715 11.51                             131   -0.36 9  152 260 
 PTB  HZ I        1715 17.22         5.8 0.25            132            152 260 
 SPBC HZ EP       1714 52.40                             129   -0.27 9  166 220 
 SPBC HN ES       1715 14.96                             129   -0.31 9  166 220 
 SPBC HZ I        1715 20.80         8.6 0.18            129            166 220 
 NOR  HN ES   4   1715 26.79                             119   -1.50 0  238 235 
 NOR  HZ I        1715 31.12         4.5 0.20            119            238 235 
 CHI  HZ EP       1715  2.13                             118    0.51 8  249 196 
 CHI  HN ES       1715 31.95                             118    0.74 8  249 196 
 CHI  HZ I        1715 38.84         2.1 0.33            118            249 196 
 GUY2CHZ EP   4   1715 10.05                             113    2.21 0  305 235 
 GUY2CHE ES   4   1715 45.14                             113    2.86 0  305 235 
 GUY2CHZ I        1715 50.09         2.7 0.34                           305 235 
 PRA  HN ES   4   1716  0.97                             107    1.47 0  394 210 
                                                                                
