 2013  130 1234  9.8 L   6.570 -73.555111.3  RSN 11 0.6 2.2LRSN                1
 GAP= 64        1.20       4.2     3.3  7.2 -0.1699E+00  0.7385E+01  0.4426E+01E
 Epicentro: EL CARMEN DE CHUCURI - SANTANDER                                   3
 ACTION:UPD 13-02-15 09:18 OP:ep   STATUS:               ID:20130130123409 L   I
 2013-01-30-1228-49M.COL___188                                                 6
 STAT SP IPHASW D HRMM SECON CODA AMPLIT PERI AZIMU VELO AIN AR TRES W  DIS CAZ7
 BAR2 SZ IP     D 1234 26.13                             158    0.1710 41.3  87 
 BAR2 SZ ES       1234 38.66                             158    0.0910 41.3  87 
 BAR2 SZ I        1234 39.90       251.4 0.38            158           41.3  87 
 BRR  HZ EP       1234 26.96                             149    0.2210 61.9 344 
 BRR  HN ES   1   1234 40.84                             149    0.90 7 61.9 344 
 BRR  HZ I        1234 41.34        34.5 0.12            142           61.9 344 
 RUS  HZ EP     C 1234 29.16                             138   -0.4210 91.3 145 
 RUS  HN ES   1   1234 45.24                             138    0.23 7 91.3 145 
 RUS  HZ I        1234 46.10        18.4 0.22            136           91.3 145 
 PTB  HZ EP       1234 28.96                             135   -0.6710 99.7 268 
 PTB  HN ES   1   1234 43.86                             135   -1.23 7 99.7 268 
 PTB  HZ I        1234 45.02        57.6 0.18            129           99.7 268 
 PAM  SZ EP       1234 32.86                             128    0.0610  127  48 
 PAM  SN ES       1234 50.44                             128   -0.2910  127  48 
 PAM  SZ I        1234 51.20         9.7 0.50            124            127  48 
 ZAR  HZ EP   1   1234 37.85                             118    0.62 7  176 305 
 ZAR  HZ I        1235  2.29        46.3 0.36            113            176 305 
 NOR  HZ EP       1234 37.89                             117   -0.13 9  183 233 
 NOR  HN ES   1   1234 59.34                             117   -0.69 7  183 233 
 TAM  HZ EP       1234 39.02                             115   -0.37 9  196  94 
 TAM  HN ES   1   1235  2.62                             115    0.16 6  196  94 
 CHI  HZ EP       1234 42.19                             112    0.12 8  215 185 
 CHI  HN ES   1   1235  8.03                             112    0.80 6  215 185 
 CHI  HZ I        1235 12.21         5.1 0.34            110            215 185 
 HEL  HZ EP       1234 43.73                             112    0.94 8  222 259 
 HEL  HN ES   1   1235  9.62                             112    1.11 6  222 259 
 HEL  HZ I        1235 15.42        12.2 0.26            109            222 259 
 URE  HZ EP       1234 45.69                             108   -0.35 8  255 301 
 URE  HN ES       1235 14.22                             108   -0.07 8  255 301 
 URE  HZ I        1235 16.62        14.1 0.14            106            255 301 
                                                                                
