 2011  630 1819 52.0 L   6.768 -73.106147.9  RSN  6 0.4 1.7LRSN                1
 GAP=161        0.97       6.6    14.1 11.2 -0.1847E+01 -0.4410E+02 -0.6871E+01E
 Epicentro: LOS SANTOS - SANTANDER                                             3
 ACTION:UP  11-07-14 19:09 OP:ep   STATUS:               ID:20110630181952 L   I
 2011-06-30-1817-02S.COL___140                                                 6
 STAT SP IPHASW D HRMM SECON CODA AMPLIT PERI AZIMU VELO SNR AR TRES W  DIS CAZ7
 BAR2 SZ EP       1820 11.60                             171    -0.210   21 204 
 BAR2 SZ ES   2   1820 26.42                             171    -0.9 5   21 204 
 BAR2 SZ I        1820 27.82         8.7 0.38                            21 204 
 BTL  SZ EP       1820 12.65                             170     0.810   24 313 
 BTL  SZ ES   2   1820 27.97                             170     0.6 5   24 313 
 BRR  HZ EP       1820 13.38                             151    -0.310   77 299 
 BRR  HZ I        1820 13.69        25.3 0.15                            77 299 
 BRR  HN ES   2   1820 30.54                             151    -0.1 5   77 299 
 RUS  HZ EP       1820 15.71                             145     0.010   97 179 
 RUS  HN ES   2   1820 34.06                             145    -0.1 5   97 179 
 RUS  HZ I        1820 35.37         3.2 0.19                            97 179 
 BRI  SZ EP   3   1820 15.96                             141    -0.2 2  110  18 
 GRA  SZ EP       1820 17.39                             137    -0.210  128  15 
 GRA  SZ ES   2   1820 37.58                             137     0.0 5  128  15 
 GRA  SZ I        1820 39.29         6.7 0.44                           128  15 
                                                                                
