 2013  130 1356 40.3 L   6.777 -73.144138.0  RSN  7 0.5 1.9LRSN                1
 GAP=138        0.91       4.7     5.5  7.2 -0.1089E+01  0.1432E+02 -0.1005E+01E
 Epicentro: LOS SANTOS - SANTANDER                                             3
 ACTION:UPD 13-02-15 09:18 OP:ep   STATUS:               ID:20130130135640 L   I
 2013-01-30-1348-49M.COL___201                                                 6
 STAT SP IPHASW D HRMM SECON CODA AMPLIT PERI AZIMU VELO AIN AR TRES W  DIS CAZ7
 BAR2 SZ EP       1356 58.83                             171   -0.0910 20.8 192 
 BAR2 SZ ES   1   1357 13.14                             171   -0.32 7 20.8 192 
 BAR2 SZ I        1357 14.99        47.9 0.21            165           20.8 192 
 BRR  HZ EP     C 1357  0.62                             151   -0.0510 72.6 300 
 BRR  HZ I        1357  0.74        23.9 0.26            151           72.6 300 
 BRR  HN ES   1   1357 17.33                             151    0.75 7 72.6 300 
 PAM  SZ EP       1357  1.63                             149   -0.1610 79.3  38 
 PAM  SZ I        1357  1.83        20.8 0.20            154           79.3  38 
 PAM  SN ES       1357 18.58                             149    0.0110 79.3  38 
 RUS  HZ EP   1   1357  2.93                             143   -0.14 7 98.0 176 
 RUS  HN ES       1357 21.20                             143    0.3410 98.0 176 
 RUS  HZ I        1357 22.68         4.4 0.30            139           98.0 176 
 PTB  HZ EP       1357  5.95                             131   -0.64 9  147 260 
 PTB  HN ES   2   1357 26.35                             131   -0.77 5  147 260 
 PTB  HZ I        1357 30.36         8.9 0.12            128            147 260 
 ZAR  HZ EP   1   1357 13.22                             121    0.88 6  205 293 
 ZAR  HN ES   2   1357 37.46                             121    0.10 4  205 293 
 CHI  HZ EP   2   1357 18.09                             116    0.81 4  246 195 
 CHI  HN ES   4   1357 48.07                             116    1.92 0  246 195 
 CHI  HZ I        1357 54.39         2.2 0.26            114            246 195 
                                                                                
