 2010  830 1023 37.0 L   6.839 -73.003135.1  RSN  4 0.2 1.4LRSN                1
 GAP=198        0.60       5.9    12.9  9.9  0.5555E+02 -0.8912E+02 -0.3985E+02E
 Epicentro: CEPITA - SANTANDER                                                 3
 ACTION:UP  10-09-07 10:59 OP:vdl  STATUS:               ID:20100830102337dL   I
 2010-08-30-1022-01S.COL___120                                                 6
 STAT SP IPHASW D HRMM SECON CODA AMPLIT PERI AZIMU VELO SNR AR TRES W  DIS CAZ7
 BAR2 SZ EP       1023 55.72                             168     0.010   34 216 
 BAR2 SZ ES   2   1024  9.84                             168    -0.4 5   34 216 
 BAR2 SZ I        1024 11.90         5.4 0.54                            34 216 
 BRR  HZ EP       1023 57.53                             148    -0.310   84 291 
 BRR  HE ES   1   1024 14.38                             148     0.3 7   84 291 
 RUS  HZ EP       1024  0.20                             142     0.110  105 185 
 RUS  HN ES   1   1024 18.11                             142     0.0 7  105 185 
 RUS  HZ I        1024 20.87         2.2 0.40                           105 185 
 OCA  SZ EP       1024  4.53                             128     0.1 9  159 347 
 OCA  SZ I        1024 30.83         5.1 0.38                           159 347 
                                                                                
