 2012  630 1027 48.4 L   6.808 -73.176144.0  RSN  7 0.4 1.6LRSN                1
 GAP=132        0.74       4.2     4.3  7.5  0.2042E+01  0.6469E+01  0.5571E+01E
 Epicentro: LOS SANTOS - SANTANDER                                             3
 ACTION:UPD 12-08-06 17:53 OP:ep   STATUS:               ID:20120630102748 L   I
 2012-06-30-1020-00M.COL___201                                                 6
 STAT SP IPHASW D HRMM SECON CODA AMPLIT PERI AZIMU VELO AIN AR TRES W  DIS CAZ7
 BAR2 SZ EP       1028  7.79                             170   -0.0610 23.9 182 
 BAR2 SZ I        1028 24.43         9.4 0.28                          23.9 182 
 BRR  HZ EP       1028  9.40                             153    0.2110 67.8 299 
 BRR  HZ I        1028  9.60        14.9 0.32                          67.8 299 
 BRR  HN ES   1   1028 25.85                             153    0.46 7 67.8 299 
 PAM  SZ EP       1028 10.49                             150   -0.0510 78.9  42 
 PAM  SN ES   1   1028 27.48                             150   -0.31 7 78.9  42 
 PAM  SZ I        1028 29.44         7.0 0.50                          78.9  42 
 RUS  HZ EP       1028 12.31                             143    0.2210  102 174 
 RUS  HN ES   1   1028 30.55                             143    0.00 7  102 174 
 RUS  HZ I        1028 31.62         3.2 0.44                           102 174 
 PTB  HZ EP       1028 14.41                             132   -0.56 9  145 258 
 PTB  HN ES   2   1028 34.73                             132   -0.94 5  145 258 
 PTB  HZ I        1028 41.10         3.7 0.62                           145 258 
 ZAR  HZ EP   2   1028 21.26                             123    0.86 4  201 292 
 ZAR  HE ES   1   1028 45.52                             123    0.18 6  201 292 
 ZAR  HZ I        1028 51.55         4.8 0.34                           201 292 
 CHI  HZ EP   3   1028 25.97                             117   -0.06 2  249 194 
 CHI  HN ES   2   1028 55.82                             117    0.46 4  249 194 
 CHI  HZ I        1028 58.85         1.8 0.24                           249 194 
                                                                                
