 2010  530 1527 51.8 L   6.829 -73.072133.9  RSN  5 0.4 2.0LRSN                1
 GAP=191        0.91       6.1    11.8 15.4 -0.3492E+02  0.4227E+02  0.2676E+02E
 Epicentro: LOS SANTOS - SANTANDER                                             3
 ACTION:UP  10-08-24 10:07 OP:vdl  STATUS:               ID:20100530152752 L   I
 2010-05-30-1525-35S.COL___109                                                 6
 STAT SP IPHASW D HRMM SECON CODA AMPLIT PERI AZIMU VELO SNR AR TRES W  DIS CAZ7
 BAR2 SZ EP       1528  9.73                             167    -0.410   29 205 
 GUE  SZ EP   1   1528 15.09                             137     0.0 7  112   8 
 GRA  SZ EP       1528 15.81                             135     0.310  120  14 
 GRA  SZ ES   1   1528 34.83                             135     0.8 7  120  14 
 OCA  SZ EP       1528 18.75                             127    -0.3 9  158 350 
 OCA  SZ ES       1528 40.03                             127    -0.2 9  158 350 
 OCA  SZ I        1528 44.18        14.8 0.13                           158 350 
 RREF BZ EP   1   1528 38.95                             108     0.5 5  330 230 
 RREF BN ES   1   1529 15.10                             108     0.3 5  330 230 
 RREF BZ I        1529 21.81         4.1 1.27                           330 230 
                                                                                
