 2012 1230 1344 19.9 L   6.695 -73.193152.2  RSN  4 0.2 1.5LRSN                1
 GAP=224        0.50       4.7     4.7  4.4  0.1084E+02  0.2207E+01  0.1303E+01E
 Epicentro: VILLANUEVA - SANTANDER                                             3
 ACTION:UPD 13-01-04 14:31 OP:ep   STATUS:               ID:20121230134419 L   I
 2012-12-30-1340-00M.COL___242                                                 6
 STAT SP IPHASW D HRMM SECON CODA AMPLIT PERI AZIMU VELO AIN AR TRES W  DIS CAZ7
 BAR2 SZ EP       1344 40.03                             175   -0.0910 11.4 174 
 BAR2 SZ ES       1344 55.64                             175   -0.2610 11.4 174 
 BAR2 SZ I        1344 58.00         7.6 0.14                          11.4 174 
 BRR  HZ EP       1344 41.80                             153   -0.0510 73.2 309 
 BRR  HZ I        1344 43.37         5.7 0.14                          73.2 309 
 BRR  HE ES       1344 59.23                             153    0.2610 73.2 309 
 RUS  HZ EP   1   1344 43.64                             148    0.10 7 89.6 172 
 RUS  HN ES   1   1345  2.26                             148    0.28 7 89.6 172 
 RUS  HN I        1345  4.24         3.6 0.20                          89.6 172 
 PTB  HZ EP   1   1344 46.82                             135    0.05 7  141 263 
 PTB  HN ES   1   1345  7.52                             135   -0.22 7  141 263 
 PTB  HZ I        1345 14.29         4.1 0.35                           141 263 
                                                                                
