 2014 1130 1121  9.2 L   6.819 -72.961154.5  RSN  7 0.5 1.6LRSN                1
 GAP=161        1.15       5.1     7.2  8.2  0.5163E+01 -0.3083E+01  0.3796E+01E
 Epicentro: CEPITA - SANTANDER                                                 3
 ACTION:UPD 14-12-19 15:49 OP:nd   STATUS:               ID:20141130112109 L   I
 OLDACT:REG 14-11-30 21:00 OP:fm   STATUS:               ID:20141130111745     3
 2014-11-30-1117-45M.COL___306                                                 6
 STAT SP IPHASW D HRMM SECON CODA AMPLIT PERI AZIMU VELO AIN AR TRES W  DIS CAZ7
 BAR2 SZ EP       1121 30.43                             167    0.2910 35.0 224 
 BAR2 SZ ES       1121 46.22                             167   -0.2710 35.0 224 
 BAR2 SZ I        1121 48.79         8.3 0.22            160           35.0 224 
 PAM  SZ EP       1121 31.13                             156   -0.5210 64.4  27 
 BRR  HZ EP       1121 32.53                             148    0.2110 88.9 291 
 BRR  HE ES       1121 50.83                             148    0.4610 88.9 291 
 BRR  HZ I        1121 53.69         7.2 0.12            145           88.9 291 
 RUS  HZ EP       1121 33.56                             145   -0.4310  103 188 
 RUS  HN ES       1121 53.78                             145    0.4310  103 188 
 RUS  HZ I        1121 55.94         5.6 0.22            143            103 188 
 SPBC HZ EP       1121 40.59                             128    0.81 9  178 224 
 SPBC HN ES       1122  3.21                             128   -0.44 9  178 224 
 SPBC HZ I        1122  9.86         7.2 0.12            127            178 224 
 ZAR  HN ES       1122 10.81                             122   -0.50 8  222 290 
 ZAR  HZ I        1122 18.26         4.2 0.54            121            222 290 
 CHI  HZ EP       1121 48.61                             118    0.37 8  257 199 
 CHI  HN ES       1122 18.13                             118   -0.59 8  257 199 
 CHI  HZ I        1122 23.17         1.2 0.46            118            257 199 
                                                                                
