 2012  130 1442 35.0 L   6.634 -73.142137.7  RSN  7 0.2 1.8LRSN                1
 GAP=143        0.48       2.9     4.1  4.4  0.8179E+00  0.2405E+01  0.6248E+00E
 Epicentro: SAN GIL - SANTANDER                                                3
 ACTION:UP  12-02-03 08:22 OP:REBC STATUS:               ID:20120130144235 L   I
 2012-01-30-1440-00M.COL___188                                                 6
 STAT SP IPHASW D HRMM SECON CODA AMPLIT PERI AZIMU VELO SNR AR TRES W  DIS CAZ7
 BAR2 SZ EP   1   1442 53.28                             177    -0.1 7    6 224 
 BAR2 SZ ES   1   1443  7.76                             177     0.0 7    6 224 
 BAR2 SZ I        1443  8.54        11.5 0.14                             6 224 
 GIR2 SZ EP       1442 54.28                             159    -0.110   50 353 
 BRR  HZ EP       1442 55.90                             147     0.010   82 310 
 BRR  HZ I        1442 56.25        26.4 0.21                            82 310 
 BRR  HN ES   1   1443 12.55                             147     0.3 7   82 310 
 RUS  HZ EP   2   1442 57.07                             148     0.4 5   82 175 
 RUS  HN ES   1   1443 13.54                             148     0.0 7   82 175 
 RUS  HZ I        1443 15.37        10.4 0.47                            82 175 
 PAM  SZ EP   1   1442 57.59                             145     0.3 7   92  32 
 PAM  SN ES   1   1443 14.50                             145    -0.2 7   92  32 
 ZAR  HE ES   2   1443 33.04                             119    -0.3 4  212 297 
 ZAR  HZ I        1443 40.10         5.1 0.46                           212 297 
 CHI  HZ EP   1   1443 10.18                             117    -0.1 6  231 196 
 CHI  HZ I        1443 13.37         2.4 0.22                           231 196 
                                                                                
