 2013  130 1313 28.1 L   6.435 -73.831 22.6  RSN  5 0.2 1.4LRSN                1
 GAP=154        0.64       1.9     1.5  3.5  0.7491E+00 -0.1882E+01 -0.1621E+01E
 Epicentro: SANTA HELENA DEL OPON - SANTANDER                                  3
 ACTION:UPD 13-02-15 09:18 OP:ep   STATUS:               ID:20130130131328 L   I
 2013-01-30-1308-49M.COL___189                                                 6
 STAT SP IPHASW D HRMM SECON CODA AMPLIT PERI AZIMU VELO AIN AR TRES W  DIS CAZ7
 PTB  HZ EP       1313 39.22                             106   -0.4810 70.2 279 
 PTB  HN ES       1313 49.05                             106    0.2710 70.2 279 
 PTB  HZ I        1313 49.12        44.2 0.28             98           70.2 279 
 BAR2 SZ IP     C 1313 40.49                             105    0.0210 73.8  76 
 BAR2 SZ I        1313 40.58        11.7 0.32             99           73.8  76 
 BAR2 SZ ES   1   1313 49.82                             105   -0.32 7 73.8  76 
 BRR  HZ EP       1313 40.26                             105   -0.2010 75.4  10 
 BRR  HN ES       1313 50.38                             105    0.2610 75.4  10 
 BRR  HZ I        1313 52.13        11.2 0.30             97           75.4  10 
 RUS  HZ I        1313 45.07         6.5 0.16             97            102 126 
 RUS  HZ EP     D 1313 45.09                             101    0.1610  102 126 
 RUS  HN ES       1313 58.18                             101    0.0910  102 126 
 PAM  SZ EP   1   1313 52.49                              56    0.15 7  160  51 
 PAM  SN ES       1314 11.25                              56   -0.01 9  160  51 
 PAM  SZ I        1314 13.62         4.5 0.16             56            160  51 
                                                                                
