 2012  730 1443 35.1 L   6.746 -73.201146.0  RSN  5 0.5 1.9LRSN                1
 GAP=227        1.05      10.7    11.0 10.0  0.7464E+02  0.1935E+02  0.7495E+01E
 Epicentro: VILLANUEVA - SANTANDER                                             3
 ACTION:UPD 12-08-14 11:46 OP:ep   STATUS:               ID:20120730144335 L   I
 2012-07-30-1440-00M.COL___209                                                 6
 STAT SP IPHASW D HRMM SECON CODA AMPLIT PERI AZIMU VELO AIN AR TRES W  DIS CAZ7
 BAR2 SZ EP       1443 54.50                             173    -0.210   17 173 
 BAR2 SZ ES   1   1444  9.12                             173    -0.8 7   17 173 
 BAR2 SZ I        1444 10.71        22.0 0.26            163             17 173 
 BRR  HZ EP       1443 56.30                             153     0.110   69 305 
 BRR  HZ I        1443 56.47        38.8 0.12            147             69 305 
 BRR  HN ES   1   1444 13.32                             153     0.7 7   69 305 
 RUS  HZ EP       1443 58.71                             145     0.210   95 172 
 RUS  HN ES   1   1444 17.15                             145     0.4 7   95 172 
 RUS  HZ I        1444 18.15         8.0 0.24            142             95 172 
 PTB  HZ EP       1444  1.13                             134    -0.3 9  141 261 
 PTB  HN ES   2   1444 22.15                             134     0.1 5  141 261 
 PTB  HZ I        1444 29.11         5.2 0.36            128            141 261 
 ZAR  HZ EP   3   1444  8.22                             123     1.0 2  201 294 
 ZAR  HN ES   2   1444 31.73                             123    -0.6 4  201 294 
 ZAR  HZ I        1444 37.99         8.0 0.34            120            201 294 
