 2016 1230 1103 25.7 L   6.739 -73.191145.7  RSN  4 0.5 1.2LRSN                1
 GAP=227        1.39      10.9    10.4 11.2  0.5566E+02  0.1308E+02  0.4613E+01E
 Epicentro: VILLANUEVA - SANTANDER                                             3
 ACTION:UPD 17-01-11 20:20 OP:rebc STATUS:               ID:20161230110325 L   I
 OLDACT:DUP 16-12-30 22:02 OP:cog  STATUS:               ID:20161230104629d    3
 2016-12-30-1058-00M.COL___372                                                 6
 STAT SP IPHASW D HRMM SECON CODA AMPLIT PERI AZIMU VELO AIN AR TRES W  DIS CAZ7
 BAR2 EZ EP       11 3 44.62                             173   -0.5410 16.3 176 
 BAR2 EZ ES       11 3 59.55                             173   -0.8210 16.3 176 
 BAR2 EZ I        11 4  2.71         3.3 0.14            169           16.3 176 
 BRR  HZ EP       11 3 46.85                             153    0.0910 70.5 305 
 BRR  HE ES       11 4  4.06                             153    0.8410 70.5 305 
 RUS  HZ EP       11 3 49.45                             146    0.4810 94.4 173 
 RUS  HE ES       11 4  7.61                             146    0.4610 94.4 173 
 RUS  HZ I        11 4  8.79         2.3 0.40            145           94.4 173 
 PTB  HZ EP       11 3 51.81                             133   -0.26 9  142 261 
 PTB  HE ES       11 4 12.37                             133   -0.30 9  142 261 
 PTB  HZ I        11 4 17.91         2.6 0.38            132            142 261 
                                                                                
