 2010  730 1928 36.1 L   6.776 -73.100137.6  RSN 16 0.5 3.3LRSN                1
 GAP=130        0.94       4.6     6.6  7.0 -0.1577E+02  0.7425E+01  0.4337E+01E
 Epicentro: LOS SANTOS - SANTANDER                                             3
 ACTION:UPD 10-12-01 15:21 OP:pat  STATUS:               ID:20100730192836 L   I
 2010-07-30-1926-21S.COL___123                                                 6
 STAT SP IPHASW D HRMM SECON CODA AMPLIT PERI AZIMU VELO AIN AR TRES W  DIS CAZ7
 BAR2 SZ IP     D 1928 54.59                             171    -0.110   22 204 
 BAR2 SZ ES   2   1929  9.21                             171     0.0 5   22 204 
 BAR2 SZ I        1929 10.76       587.0 0.26                            22 204 
 GIR2 SZ IP     D 1928 54.71                             164    -0.210   35 343 
 GIR2 SZ ES   2   1929  9.24                             164    -0.3 5   35 343 
 BRR  HZ IP     C 1928 56.53                             149    -0.110   77 298 
 BRR  HE ES   2   1929 13.23                             149     0.5 5   77 298 
 BRR  HZ I        1929 17.72       806.7 0.14                            77 298 
 RUS  HZ EP   1   1928 58.55                             143    -0.3 7   98 179 
 RUS  HN ES   2   1929 16.42                             143    -0.1 5   98 179 
 RUS  HZ I        1929 17.94       141.8 0.22                            98 179 
 BRI  SZ EP   1   1928 59.37                             139     0.1 7  109  18 
 BRI  SZ I        1928 59.71       152.9 0.41                           109  18 
 GUE  SZ EP   1   1929  0.71                             137     0.6 7  118   9 
 GRA  SZ IP     C 1929  1.61                             134     0.910  127  15 
 GRA  SZ I        1929  2.75       477.1 0.34                           127  15 
 GRA  SZ ES   2   1929 19.10                             134    -0.8 5  127  15 
 CHI  HZ EP   1   1929 13.09                             115    -0.1 6  247 196 
 CHI  HE ES   2   1929 41.54                             115    -0.6 4  247 196 
 CHI  HZ I        1929 45.46        53.9 0.44                           247 196 
 ROSC BZ EP   1   1929 14.34                             115     0.6 6  253 212 
 ROSC BE ES   2   1929 43.65                             115     0.4 4  253 212 
 ROSC BZ I        1929 50.72        90.3 0.54                           253 212 
 HEL  HZ EP   1   1929 15.94                             113    -0.4 6  276 257 
 HEL  HE ES   2   1929 47.12                             113    -0.7 4  276 257 
 HEL  HZ I        1929 54.38        84.8 0.46                           276 257 
 GUY  SZ EP   1   1929 19.61                             110     0.0 5  304 236 
 GUY  SN ES   2   1929 53.86                             110     0.3 4  304 236 
 GUY  SZ I        1930  2.34       154.0 0.55                           304 236 
 RREF HZ EP   1   1929 22.40                             109     0.3 5  324 230 
 RREF HN ES   2   1929 58.13                             109     0.1 3  324 230 
 RREF HZ I        1930  3.68        56.5 0.24                           324 230 
 DBB  SZ EP   1   1929 23.12                             108    -0.7 5  345 275 
 SDV  BZ EP   1   1929 24.46                             107    -1.1 5  358  49 
 SDV  BZ I        1930  3.68        66.0 0.45                           358  49 
 ANIL HZ EP   1   1929 25.43                             107    -0.3 5  359 225 
 ANIL HN ES   2   1930  5.45                             107     0.9 3  359 225 
 ANIL HZ I        1930 10.48       139.8 0.29                           359 225 
 PRA  HZ EP   1   1929 28.74                             105    -0.6 4  392 210 
 PRA  HE ES   2   1930 10.60                             105    -0.3 3  392 210 
 PRA  HZ I        1930 15.54        77.4 0.63                           392 210 
                                                                                
