 2015  830 1845 50.1 L   6.810 -73.116150.0  RSN 17 0.4 2.2LRSN                1
 GAP=140        0.78       2.3     3.3  4.3 -0.9169E+00  0.5262E+01  0.2223E+00E
 Epicentro: LOS SANTOS - SANTANDER                                             3
 ACTION:UPD 15-09-15 23:06 OP:cam  STATUS:               ID:20150830184550 L   I
 OLDACT:REG 15-08-30 22:08 OP:spq  STATUS:               ID:20150830183749     3
 2015-08-30-1837-49M.COL___334                                                 6
 STAT SP IPHASW D HRMM SECON CODA AMPLIT PERI AZIMU VELO AIN AR TRES W  DIS CAZ7
 BAR2 EZ IP     C 1846 10.01                             170   -0.2710 25.2 197 
 BAR2 EZ ES       1846 25.44                             170   -0.5710 25.2 197 
 BAR2 EZ I        1846 26.66        24.2 0.20            166           25.2 197 
 BRR  HZ EP       1846 11.98                             152    0.1410 73.6 297 
 BRR  HN ES       1846 29.36                             152    0.5610 73.6 297 
 BRR  HZ I        1846 31.18        15.5 0.54            149           73.6 297 
 PAM  EZ EP       1846 12.94                             152    0.3410 74.4  38 
 PAM  EN ES       1846 30.10                             152   -0.0510 74.4  38 
 PAM  EZ I        1846 32.12        22.3 0.20            157           74.4  38 
 RUS  HZ EP       1846 14.17                             144   -0.1710  102 178 
 RUS  HE ES       1846 33.59                             144    0.3510  102 178 
 RUS  HZ I        1846 33.92        11.8 0.40            143            102 178 
 OCA  HZ EP       1846 18.83                             131    0.15 9  160 352 
 OCA  HN ES       1846 41.11                             131    0.14 9  160 352 
 OCA  HZ I        1846 44.98        28.5 0.34            131            160 352 
 ZAR  HN ES       1846 48.89                             123    0.05 8  207 292 
 ZAR  HZ I        1846 54.26        20.3 0.28            121            207 292 
 NOR  HZ EP       1846 26.05                             119   -0.39 8  238 235 
 NOR  HN ES       1846 54.21                             119   -0.57 8  238 235 
 NOR  HZ I        1846 59.90        11.7 0.23            118            238 235 
 SML  HZ EP       1846 26.88                             118   -0.13 8  244 334 
 SML  HE ES       1846 55.07                             118   -0.73 8  244 334 
 SML  HZ I        1846 58.44        27.8 0.10            118            244 334 
 CHI  HZ EP   2   1846 27.70                             118   -0.55 4  251 196 
 CHI  HN ES   2   1846 58.24                             118    0.24 4  251 196 
 CHI  HZ I        1847  5.96         5.5 0.66            117            251 196 
 HEL  HZ EP       1846 31.41                             115    0.49 7  276 256 
 HEL  HN ES       1847  2.98                             115    0.23 7  276 256 
 HEL  HZ I        1847  8.56         7.9 0.30            114            276 256 
 URE  HZ EP   4   1846 30.78                             114   -0.90 0  287 291 
 URE  HE ES   4   1847  1.51                             114   -2.60 0  287 291 
 URE  HZ I        1847  8.68         8.3 0.16            113            287 291 
 GUY2CHZ EP   2   1846 34.24                             113   -0.04 4  305 235 
 GUY2CHN ES   4   1847 12.26                             113    3.51 0  305 235 
 GUY2CHZ I        1847 16.76        14.4 0.76                           305 235 
 ELA  HN ES   4   1847 17.16                             111    2.68 0  332 230 
 ELA  HZ I        1847 21.75         6.3 0.50            110            332 230 
 CBOC HZ EP       1846 37.61                             110    0.02 7  337 252 
 CBOC HN ES   2   1847 14.71                             110    0.07 3  337 252 
 CBOC HZ I        1847 18.15         2.5 0.24            110            337 252 
 TOL  SZ EP   4   1846 40.05                             110    1.16 0  347 225 
 TOL  SN ES   4   1847 18.84                             110    1.90 0  347 225 
 TOL  SZ I        1847 27.06         7.5 0.72            109            347 225 
 PRA  HZ EP   2   1846 44.79                             107    0.72 3  395 210 
 PRA  HN ES   2   1847 26.24                             107    0.07 3  395 210 
 PRA  HZ I        1847 31.26         8.9 0.62            107            395 210 
 ORTC HZ EP   2   1846 45.02                             107    0.52 3  398 216 
 ORTC HN ES   2   1847 27.76                             107    0.83 3  398 216 
 ORTC HZ I        1847 34.47         4.7 0.26            106            398 216 
                                                                                
