 2014 1030 1540 32.5 L   6.691 -72.986147.4  RSN  5 0.5 1.9LRSN                1
 GAP=163        1.41       7.3    10.2 11.1 -0.3003E+02 -0.8048E+01  0.1966E+02E
 Epicentro: ARATOCA - SANTANDER                                                3
 ACTION:UPD 14-11-29 23:58 OP:nd   STATUS:               ID:20141030154032 L   I
 OLDACT:REG 14-11-25 16:15 OP:cam  STATUS:               ID:20141030153747     3
 2014-10-30-1537-47M.COL___277                                                 6
 STAT SP IPHASW D HRMM SECON CODA AMPLIT PERI AZIMU VELO AIN AR TRES W  DIS CAZ7
 BAR2 SZ EP       1540 51.94                             170   -0.3710 24.3 243 
 BAR2 SZ ES       1541  7.35                             170   -0.4410 24.3 243 
 BAR2 SZ I        1541 10.17        22.9 0.24            171           24.3 243 
 PAM  SZ EP       1540 55.27                             151    0.3610 78.4  24 
 PAM  SN ES       1541 11.88                             151   -0.5410 78.4  24 
 PAM  SZ I        1541 14.24         9.3 0.66            152           78.4  24 
 RUS  HZ EP       1540 55.66                             147    0.0910 88.9 187 
 RUS  HN ES       1541 14.43                             147    0.8310 88.9 187 
 BRR  HE ES       1541 13.51                             146    0.7410 92.5 300 
 SPBC HZ EP       1541  1.41                             129    0.03 9  166 226 
 SPBC HN ES       1541 23.09                             129   -0.84 9  166 226 
 SPBC HZ I        1541 25.07        11.5 0.22            131            166 226 
                                                                                
