 2010  830 1122 10.6 L   6.630 -73.236 29.6  RSN  4 0.3 1.1LRSN                1
 GAP=147        0.79       2.8     5.0  2.8  0.6410E+01 -0.2086E+01 -0.4354E+00E
 Epicentro: BARICHARA - SANTANDER                                              3
 ACTION:UP  10-09-07 10:59 OP:vdl  STATUS:               ID:20100830112210 L   I
 2010-08-30-1117-09S.COL___120                                                 6
 STAT SP IPHASW D HRMM SECON CODA AMPLIT PERI AZIMU VELO SNR AR TRES W  DIS CAZ7
 BAR2 SZ IP       1122 15.82                             166     0.010    7 126 
 BAR2 SZ ES   1   1122 19.68                             166    -0.1 7    7 126 
 BAR2 SZ I        1122 20.93         9.1 0.32                             7 126 
 BRR  HZ EP       1122 23.01                             102     0.010   75 315 
 BRR  HZ I        1122 23.15        21.4 0.11                            75 315 
 BRR  HN ES   1   1122 32.61                             102    -0.1 7   75 315 
 RUS  HZ EP       1122 24.84                              61     0.110   83 168 
 RUS  HE ES   1   1122 35.52                              61    -0.3 7   83 168 
 RUS  HZ I        1122 37.05         3.6 0.27                            83 168 
 GUE  SZ EP       1122 31.77                              61     0.5 9  137  15 
 GUE  SZ ES   1   1122 46.76                              61    -0.6 7  137  15 
                                                                                
