 2012  130 1221 54.3 L   6.796 -73.146142.9  RSN 14 0.3 2.4LRSN                1
 GAP=137        0.70       2.6     3.2  4.6 -0.2017E+01  0.4987E+01  0.2277E+01E
 Epicentro: LOS SANTOS - SANTANDER                                             3
 ACTION:UP  12-02-03 08:22 OP:REBC STATUS:               ID:20120130122154 L   I
 2012-01-30-1220-00M.COL___188                                                 6
 STAT SP IPHASW D HRMM SECON CODA AMPLIT PERI AZIMU VELO SNR AR TRES W  DIS CAZ7
 BAR2 SZ IP       1222 13.66                             170     0.110   23 190 
 BAR2 SZ I        1222 14.05        48.2 0.14                            23 190 
 BAR2 SZ ES   1   1222 28.59                             170     0.0 7   23 190 
 GIR2 SZ EP       1222 13.70                             167     0.110   32 351 
 BRR  HZ IP     D 1222 15.48                             152     0.310   71 299 
 BRR  HE ES   1   1222 32.14                             152     0.7 7   71 299 
 BRR  HZ I        1222 35.51        55.9 0.21                            71 299 
 PAM  SZ EP       1222 16.40                             150     0.210   78  39 
 PAM  SN ES       1222 33.14                             150    -0.210   78  39 
 RUS  HZ EP   1   1222 17.67                             143    -0.1 7  100 176 
 RUS  HE ES   1   1222 35.74                             143    -0.3 7  100 176 
 RUS  HZ I        1222 37.78        17.7 0.31                           100 176 
 PTB  HZ EP       1222 20.43                             131    -0.6 9  148 259 
 PTB  HN ES   1   1222 41.47                             131    -0.4 7  148 259 
 OCA  SZ EP   1   1222 22.27                             129    -0.2 7  161 353 
 OCA  SZ ES   1   1222 44.25                             129    -0.1 7  161 353 
 OCA  SZ I        1222 48.51        29.6 0.36                           161 353 
 ZAR  HZ EP   1   1222 26.41                             122    -0.2 6  204 292 
 ZAR  HE ES   1   1222 51.28                             122    -0.5 6  204 292 
 ZAR  HZ I        1222 57.64        38.6 0.49                           204 292 
 NOR  SZ EP   1   1222 29.49                             118    -0.3 6  234 235 
 NOR  SE ES   1   1222 57.86                             118     0.3 6  234 235 
 CHI  HZ EP   1   1222 31.90                             117     0.1 6  248 195 
 CHI  HN ES   1   1223  0.92                             117    -0.1 6  248 195 
 HEL  HZ EP   1   1222 34.85                             114     0.5 6  272 256 
 HEL  HN ES   2   1223  5.74                             114     0.2 4  272 256 
 HEL  HZ I        1223 12.28        16.0 0.49                           272 256 
 GUY  SZ EP   1   1222 38.39                             112     0.4 5  303 235 
 GUY  SN ES   1   1223 12.39                             112     0.3 5  303 235 
 GUY  SZ I        1223 20.81        13.2 0.27                           303 235 
 RREF HZ EP   2   1222 40.35                             110     0.1 3  321 229 
 RREF HE ES   1   1223 16.00                             110    -0.1 5  321 229 
 RREF HZ I        1223 27.89         9.5 0.45                           321 229 
 PRA  HZ EP   1   1222 48.03                             106     0.4 4  392 210 
 PRA  HN ES   1   1223 29.25                             106     0.0 4  392 210 
                                                                                
