 2013  130 1526 10.8 L   6.807 -73.172135.2  RSN  4 0.2 1.4LRSN                1
 GAP=143        0.65       3.8     3.8  7.3 -0.4274E+01  0.8649E+01 -0.7343E+00E
 Epicentro: LOS SANTOS - SANTANDER                                             3
 ACTION:UPD 13-02-15 09:18 OP:ep   STATUS:               ID:20130130152610 L   I
 2013-01-30-1518-49M.COL___201                                                 6
 STAT SP IPHASW D HRMM SECON CODA AMPLIT PERI AZIMU VELO AIN AR TRES W  DIS CAZ7
 BAR2 SZ EP       1526 29.37                             170    0.2310 23.8 183 
 PAM  SZ EP       1526 32.27                             148    0.3210 78.7  42 
 PAM  SN ES       1526 48.23                             148   -0.2410 78.7  42 
 RUS  HZ EP       1526 33.43                             141   -0.1410  102 174 
 RUS  HN ES       1526 51.36                             141    0.0010  102 174 
 RUS  HN I        1526 53.81         1.5 0.28            144            102 174 
 PTB  HZ EP       1526 36.27                             130   -0.37 9  145 258 
 PTB  HN ES       1526 56.98                             130    0.16 9  145 258 
 PTB  HN I        1527  2.99         8.3 0.34            131            145 258 
                                                                                
