 2014 1230 1209 55.9 L   6.815 -73.154146.2  RSN 20 0.5 2.7LRSN                1
 GAP= 70        1.19       3.2     3.3  5.3 -0.7102E+00  0.5396E+01  0.1876E+01E
 Epicentro: LOS SANTOS - SANTANDER                                             3
 ACTION:UPD 15-02-10 17:08 OP:nd   STATUS:               ID:20141230120955 L   I
 OLDACT:UP  14-12-30 21:47 OP:cam  STATUS:               ID:20141230120817     3
 OLDACT:UP  14-12-30 21:46 OP:cam  STATUS:               ID:20141230120817     3
 OLDACT:UP  14-12-30 21:46 OP:cam  STATUS:               ID:20141230120817     3
 OLDACT:REG 14-12-30 19:56 OP:cam  STATUS:               ID:20141230120817     3
 2014-12-30-1208-17M.COL___265                                                 6
 STAT SP IPHASW D HRMM SECON CODA AMPLIT PERI AZIMU VELO AIN AR TRES W  DIS CAZ7
 BAR2 EZ EP       1210 15.68                             170    0.0510 24.8 187 
 BAR2 EZ ES       1210 30.53                             170   -0.4710 24.8 187 
 BAR2 EZ I        1210 32.57        74.1 0.46            167           24.8 187 
 BRR  HZ IP     C 1210 17.64                             153    0.6210 69.6 298 
 BRR  HN ES       1210 34.45                             153    0.9610 69.6 298 
 BRR  HZ I        1210 38.18        35.0 0.62            149           69.6 298 
 PAM  SZ EP       1210 18.47                             151    0.3310 76.7  41 
 PAM  SN ES       1210 35.90                             151    0.4310 76.7  41 
 PAM  SZ I        1210 37.94        41.7 0.60            153           76.7  41 
 RUS  HZ EP       1210 19.49                             144   -0.3410  102 176 
 RUS  HE ES       1210 38.53                             144    0.0510  102 176 
 RUS  HZ I        1210 40.99        35.5 0.44            142            102 176 
 PTB  HZ EP       1210 22.29                             132   -0.57 9  147 258 
 PTB  HN ES       1210 43.24                             132   -0.65 9  147 258 
 PTB  HZ I        1210 49.57        57.2 0.28            129            147 258 
 TAM  HZ EP     D 1210 23.82                             130    0.08 9  156 105 
 TAM  HN ES       1210 44.97                             130   -0.48 9  156 105 
 TAM  HN I        1210 46.28        81.0 0.52            132            156 105 
 SPBC HZ EP       1210 24.62                             129    0.11 9  164 218 
 SPBC HE ES       1210 46.29                             129   -0.52 9  164 218 
 SPBC HZ I        1210 53.80       108.2 0.24            126            164 218 
 ZAR  HZ EP       1210 28.37                             123    0.13 9  203 292 
 ZAR  HE ES       1210 53.48                             123    0.03 9  203 292 
 ZAR  HZ I        1211  0.16        66.6 0.44            120            203 292 
 NOR  HZ EP       1210 31.84                             119    0.15 8  235 234 
 NOR  HN ES       1210 58.94                             119   -0.65 8  235 234 
 NOR  HZ I        1211  6.89        38.3 0.24            116            235 234 
 SML  HZ EP       1210 32.18                             118   -0.18 8  242 335 
 SML  HE ES       1211  0.52                             118   -0.27 8  242 335 
 SML  HZ I        1211  5.32        53.4 0.24            116            242 335 
 CHI  HZ EP       1210 33.27                             117   -0.51 8  250 195 
 CHI  HN ES       1211  3.38                             117    0.07 8  250 195 
 CHI  HZ I        1211  8.84        20.7 0.30            116            250 195 
 ROSC BZ EP   4   1210 35.70                             117    1.55 0  254 211 
 ROSC BN ES   4   1211  6.66                             117    2.68 0  254 211 
 ROSC BZ I        1211 10.45        46.0 0.65            115            254 211 
 HEL  HZ EP   4   1210 37.91                             115    1.82 0  272 255 
 HEL  HE ES       1211  7.22                             115   -0.21 8  272 255 
 HEL  HZ I        1211 14.46        20.5 0.32            113            272 255 
 URE  HZ EP       1210 35.75                             114   -1.09 7  282 292 
 URE  HN ES   4   1211  5.45                             114   -3.32 0  282 292 
 URE  HZ I        1211 16.40        31.2 0.30            112            282 292 
 CBOC HZ EP       1210 43.29                             110    0.49 7  333 252 
 CBOC HZ I        1211 31.03         9.9 0.50            108            333 252 
 DBB  SZ EP       1210 43.29                             110    0.00 7  338 274 
 DBB  SZ ES   4   1211 18.35                             110   -1.89 0  338 274 
 DBB  SZ I        1211 21.60        71.9 0.32            108            338 274 
 TOL  SZ EP       1210 45.21                             109    0.97 7  344 224 
 TOL  SN ES       1211 23.16                             109    1.22 7  344 224 
 TOL  SZ I        1211 29.10        61.0 0.38            108            344 224 
 ANIL HZ EP       1210 46.65                             108    0.86 6  358 224 
 ANIL HN ES       1211 24.42                             108   -0.28 6  358 224 
 ANIL HN I        1211 30.77        14.1 0.32            107            358 224 
 ORTC HZ EP       1210 49.44                             106   -0.49 6  396 216 
 ORTC HN ES       1211 33.16                             106    1.09 6  396 216 
 ORTC HZ I        1211 37.21        12.4 0.38            105            396 216 
 PAL  HZ EP       1210 51.12                             106    0.03 6  406 239 
                                                                                
