 2015  930 1129 47.1 L   5.889 -73.629128.0  RSN 10 0.4 1.8LRSN                1
 GAP= 95        0.77       3.5     3.2  5.5 -0.3864E+01  0.1400E+01  0.3262E+01E
 Epicentro: BARBOSA - SANTANDER                                                3
 ACTION:UPD 15-10-28 16:29 OP:cam  STATUS:               ID:20150930112947 L   I
 OLDACT:REG 15-09-30 20:23 OP:ar   STATUS:               ID:20150930112750     3
 2015-09-30-1127-50M.COL___358                                                 6
 STAT SP IPHASW D HRMM SECON CODA AMPLIT PERI AZIMU VELO AIN AR TRES W  DIS CAZ7
 SPBC HZ EP       1130  5.21                             155   -0.3410 55.6 242 
 SPBC HN ES       1130 19.74                             155   -0.2410 55.6 242 
 SPBC HZ I        1130 20.75        29.9 0.38            149           55.6 242 
 RUS  HZ EP   2   1130  6.43                             153    0.04 5 60.4  90 
 RUS  HN ES   2   1130 21.28                             153   -0.19 5 60.4  90 
 RUS  HZ I        1130 23.85         5.1 0.36            143           60.4  90 
 BAR2 EZ EP       1130  8.35                             142    0.2510 92.1  32 
 BAR2 EZ ES       1130 24.74                             142    0.2310 92.1  32 
 BAR2 EZ I        1130 25.96        23.1 0.32            135           92.1  32 
 PTB  HZ EP       1130  9.47                             135   -0.2810  116 308 
 PTB  HN ES       1130 27.19                             135   -0.2710  116 308 
 PTB  HZ I        1130 29.54        12.6 0.10            129            116 308 
 BRR  HZ EP   2   1130 11.73                             130    0.33 5  135 356 
 BRR  HN ES   2   1130 31.19                             130    0.80 5  135 356 
 BRR  HZ I        1130 33.65        12.6 0.42            123            135 356 
 CHI  HZ EP       1130 12.19                             130   -0.21 9  140 185 
 CHI  HZ I        1130 34.05         7.3 0.36            119            140 185 
 NOR  HZ EP       1130 12.17                             129    0.04 9  142 255 
 NOR  HN ES       1130 31.78                             129    0.09 9  142 255 
 NOR  HZ I        1130 34.06        11.6 0.18            121            142 255 
 GUY2CHZ EP       1130 19.25                             118    0.04 8  206 249 
 GUY2CHN ES       1130 45.27                             118    0.98 8  206 249 
 GUY2CHZ I        1130 49.66         3.5 0.60                           206 249 
 HEL  HZ EP   2   1130 19.61                             117   -0.22 4  213 279 
 HEL  HN ES   2   1130 44.83                             117   -0.57 4  213 279 
 HEL  HZ I        1130 51.97         4.5 0.24            110            213 279 
 ZAR  HZ EP   2   1130 20.35                             116   -0.16 4  223 323 
 ZAR  HN ES   2   1130 46.04                             116   -0.56 4  223 323 
 ZAR  HZ I        1130 53.59         6.9 0.38            109            223 323 
                                                                                
