 2013  830 1302 51.2 L   6.760 -73.156142.6  RSN  5 0.2 1.7LRSN                1
 GAP=137        0.46       2.4     2.1  3.6 -0.7473E-01  0.2871E+01 -0.1417E+01E
 Epicentro: LOS SANTOS - SANTANDER                                             3
 ACTION:UPD 14-01-14 09:08 OP:ep   STATUS:               ID:20130830130251 L   I
 OLDACT:REG 13-08-30 17:40 OP:nd   STATUS:               ID:20130830125959     3
 2013-08-30-1259-59M.COL___235                                                 6
 STAT SP IPHASW D HRMM SECON CODA AMPLIT PERI AZIMU VELO AIN AR TRES W  DIS CAZ7
 BAR2 SZ EP       13 3 10.52                             172    0.1410 18.8 189 
 BAR2 SZ ES       13 3 25.03                             172   -0.2910 18.8 189 
 BAR2 SZ I        13 3 26.86        10.7 0.20            171           18.8 189 
 PAM  SZ EP       13 3 13.33                             149   -0.0210 81.5  38 
 PAM  SN ES       13 3 30.69                             149    0.0810 81.5  38 
 PAM  SZ I        13 3 33.20         8.4 0.66            153           81.5  38 
 RUS  HZ EP       13 3 14.38                             144    0.0310 96.3 175 
 RUS  HN ES       13 3 32.54                             144    0.1510 96.3 175 
 RUS  HZ I        13 3 34.76         5.4 0.44            149           96.3 175 
 PTB  HZ EP       13 3 17.51                             132   -0.24 9  146 260 
 PTB  HN ES       13 3 38.50                             132    0.06 9  146 260 
 PTB  HZ I        13 3 46.04         9.1 0.40            132            146 260 
 ZAR  HZ EP       13 3 23.41                             122   -0.11 9  205 293 
 ZAR  HN ES       13 3 48.92                             122    0.21 9  205 293 
 ZAR  HZ I        13 3 55.76         8.1 0.24            123            205 293 
                                                                                
