 2010 1230 1045 55.4 L   6.812 -73.205142.2  RSN  4 0.3 1.2LRSN                1
 GAP=155        0.62       6.4    28.5 11.5 -0.7964E+02  0.7353E+02 -0.3700E+01E
 Epicentro: ZAPATOCA - SANTANDER                                               3
 ACTION:UP  11-01-14 15:28 OP:pat  STATUS:               ID:20101230104555 L   I
 2010-12-30-1043-00S.COL___135                                                 6
 STAT SP IPHASW D HRMM SECON CODA AMPLIT PERI AZIMU VELO SNR AR TRES W  DIS CAZ7
 BTL  SZ EP   1   1046 14.79                             174     0.3 7   14 329 
 BAR2 SZ EP   1   1046 14.57                             170    -0.1 7   25 174 
 BAR2 SZ ES   2   1046 29.20                             170    -0.5 5   25 174 
 BAR2 SZ I        1046 31.65         4.3 0.59                            25 174 
 RUS  HZ EP   1   1046 18.74                             143    -0.2 7  103 172 
 RUS  HE ES   2   1046 37.88                             143     0.5 5  103 172 
 RUS  HZ I        1046 39.06         1.8 0.39                           103 172 
 GRA  SZ ES   2   1046 39.91                             136     0.0 5  127  20 
                                                                                
