 2013  130 1654 11.0 L   7.213 -73.355125.3  RSN  5 0.5 1.8LRSN                1
 GAP=185        1.00       7.8     5.0  8.3 -0.1503E+02  0.8628E+01 -0.4676E+01E
 Epicentro: LEBRIJA - SANTANDER                                                3
 ACTION:UP  13-02-15 09:18 OP:ep   STATUS:               ID:20130130165411 L   I
 2013-01-30-1648-48M.COL___204                                                 6
 STAT SP IPHASW D HRMM SECON CODA AMPLIT PERI AZIMU VELO AIN AR TRES W  DIS CAZ7
 BRR  HZ EP       1654 28.30                             160   -0.1310 41.2 254 
 BRR  HN ES       1654 41.65                             160   -0.3410 41.2 254 
 BAR2 SZ EP       1654 30.88                             148    0.5310 71.2 164 
 BAR2 SZ ES       1654 45.81                             148    0.3910 71.2 164 
 BAR2 SZ I        1654 46.92        27.4 0.38            149           71.2 164 
 PAM  SZ EP       1654 30.93                             147    0.0610 73.7  79 
 PAM  SN ES       1654 46.15                             147   -0.1910 73.7  79 
 PAM  SE I        1654 48.49        10.6 0.26            148           73.7  79 
 PTB  HZ EP       1654 35.94                             127    0.01 9  143 239 
 PTB  HN ES       1654 55.40                             127    0.06 9  143 239 
 PTB  HN I        1654 56.85         5.5 0.30            129            143 239 
 RUS  HN ES   2   1654 55.82                             126   -1.74 5  149 168 
                                                                                
