 2017  430 1142 21.2 L   6.530 -73.470116.9  RSN  5 0.3 1.3LRSN                1
 GAP=171        0.48       3.8     2.5  6.4  0.3618E+01  0.2421E+01 -0.4390E+01E
 Epicentro: SIMACOTA - SANTANDER                                               3
 ACTION:UPD 17-05-30 21:17 OP:jn   STATUS:               ID:20170430114221 L   I
 OLDACT:UP  17-04-30 21:50 OP:and  STATUS:               ID:20170430113743     3
 OLDACT:UP  17-04-30 21:50 OP:and  STATUS:               ID:20170430113743     3
 OLDACT:UP  17-04-30 21:50 OP:and  STATUS:               ID:20170430113743     3
 OLDACT:UP  17-04-30 21:49 OP:and  STATUS:               ID:20170430113743     3
 OLDACT:UP  17-04-30 21:49 OP:and  STATUS:               ID:20170430113743     3
 OLDACT:REG 17-04-30 20:35 OP:and  STATUS:               ID:20170430113743     3
 2017-04-30-1138-00M.COL___377                                                 6
 STAT SP IPHASW D HRMM SECON CODA AMPLIT PERI AZIMU VELO AIN AR TRES W  DIS CAZ7
 BRR  HZ EP   2   1142 38.55                             147   -0.60 5 69.3 337 
 RUS  HZ EP       1142 40.86                             142    0.0910 82.4 149 
 RUS  HN ES       1142 56.14                             142    0.0810 82.4 149 
 RUS  HZ I        1142 57.70         2.5 0.30            143           82.4 149 
 PTB  HZ EP   4   1142 40.54                             134   -1.75 0  109 271 
 PTB  HN ES       1142 58.63                             134   -0.1310  109 271 
 ZAR  HZ EP   2   1142 50.25                             117    0.23 4  187 305 
 ZAR  HN ES   2   1143 13.10                             117    0.57 4  187 305 
 ZAR  HZ I        1143 14.15         2.8 0.58            118            187 305 
 NOR  HZ EP   2   1142 50.11                             117   -0.13 4  188 235 
 NOR  HE ES       1143 12.89                             117   -0.02 9  188 235 
 NOR  HZ I        1143 14.98         2.4 0.22            118            188 235 
                                                                                
