 2015  730 1702 25.8 L   6.000 -73.695111.6  RSN  8 0.4 1.9LRSN                1
 GAP=145        0.94       3.6     3.3  8.4 -0.4641E+01  0.1469E+02 -0.2601E+01E
 Epicentro: VELEZ - SANTANDER                                                  3
 ACTION:UPD 15-09-08 21:51 OP:cam  STATUS:               ID:20150730170225 L   I
 OLDACT:REG 15-07-30 20:33 OP:drio STATUS:               ID:20150730165749     3
 2015-07-30-1657-49M.COL___346                                                 6
 STAT SP IPHASW D HRMM SECON CODA AMPLIT PERI AZIMU VELO AIN AR TRES W  DIS CAZ7
 RUS  HZ EP       17 2 44.00                             146    0.0710 68.7 100 
 RUS  HE ES       17 2 57.59                             146   -0.4710 68.7 100 
 RUS  HZ I        17 3  1.48         9.7 0.62            153           68.7 100 
 BAR2 EZ EP       17 2 44.93                             140    0.0410 86.6  41 
 BAR2 EZ ES       17 3  0.48                             140    0.7210 86.6  41 
 BAR2 EZ I        17 3  1.89        32.8 0.50            144           86.6  41 
 BRR  HZ EP       17 2 47.26                             129   -0.4610  122 359 
 BRR  HN ES       17 3  4.83                             129    0.0410  122 359 
 NOR  HZ EP       17 2 49.04                             125   -0.35 9  139 250 
 NOR  HN ES       17 3  7.63                             125   -0.14 9  139 250 
 NOR  HZ I        17 3 11.43        16.1 0.22            129            139 250 
 PAM  EZ EP   4   17 3  0.22                             117    5.46 0  185  37 
 PAM  EN ES       17 3 17.34                             117    0.01 9  185  37 
 PAM  EZ I        17 3 19.73         9.9 0.48            122            185  37 
 GUY2CHZ EP       17 2 57.11                             114    0.22 9  204 245 
 GUY2CHN ES       17 3 21.24                             114    0.12 9  204 245 
 GUY2CHZ I        17 3 27.90         6.1 0.44                           204 245 
 HEL  HZ EP       17 2 57.33                             114    0.56 9  204 276 
 HEL  HN ES       17 3 21.21                             114    0.30 9  204 276 
 HEL  HZ I        17 3 25.13         9.5 0.18            118            204 276 
 ZAR  HZ EP   4   17 2 54.34                             113   -2.54 0  209 322 
 ZAR  HN ES       17 3 20.51                             113   -0.59 8  209 322 
 ZAR  HZ I        17 3 26.94        10.4 0.30            117            209 322 
                                                                                
