 2010  130 1141 53.2 L   6.773 -73.126144.4  RSN  7 0.3 1.5LRSN                1
 GAP=161        0.51       5.6    17.6  6.4 -0.7304E+02  0.3009E+02 -0.4126E+01E
 Epicentro: LOS SANTOS - SANTANDER                                             3
 ACTION:UP  10-08-24 09:46 OP:vdl  STATUS:               ID:20100130114153 L   I
 2010-01-30-1139-50S.COL___088                                                 6
 STAT SP IPHASW D HRMM SECON CODA AMPLIT PERI AZIMU VELO SNR AR TRES W  DIS CAZ7
 BAR2 SZ EP   2   1142 12.37                             171    -0.3 5   21 198 
 BAR2 SZ ES   2   1142 27.40                             171    -0.4 5   21 198 
 GIR2 SZ ES   2   1142 28.33                             166     0.2 5   35 348 
 RUS  HE ES   2   1142 35.20                             144     0.3 5   97 177 
 RUS  HZ I        1142 36.19         3.1 0.36                            97 177 
 GUE  SZ EP   2   1142 18.62                             138     0.6 5  119  11 
 GRA  SZ EP   2   1142 18.07                             136    -0.5 5  128  16 
 GRA  SZ ES   2   1142 38.29                             136     0.0 5  128  16 
 CHI  HZ EP   2   1142 30.38                             117    -0.2 4  246 196 
 PRA  HZ EP   2   1142 46.73                             106     0.2 3  390 210 
 PRA  HZ I        1142 47.53         1.7 0.65                           390 210 
 PRA  HE ES   2   1143 28.18                             106     0.1 3  390 210 
                                                                                
