 2010  130 1535 10.3 L   6.833 -73.167134.2  RSN  8 0.7 2.0LRSN                1
 GAP=181        0.96       6.4    10.9 14.4  0.1992E+01  0.9854E+02 -0.2226E+02E
 Epicentro: LOS SANTOS - SANTANDER                                             3
 ACTION:UP  10-08-24 09:46 OP:vdl  STATUS:               ID:20100130153510 L   I
 2010-01-30-1532-59S.COL___094                                                 6
 STAT SP IPHASW D HRMM SECON CODA AMPLIT PERI AZIMU VELO SNR AR TRES W  DIS CAZ7
 BAR2 SZ EP   1   1535 28.56                             168    -0.1 7   27 184 
 BAR2 SZ ES   2   1535 43.08                             168     0.2 5   27 184 
 RUS  BZ EP   2   1535 32.95                             140    -0.3 5  104 175 
 RUS  BE ES   1   1535 50.73                             140    -0.4 7  104 175 
 RUS  BZ I        1535 51.84        10.8 0.52                           104 175 
 OCA  SZ EP   2   1535 37.56                             127     0.2 5  156 354 
 OCA  SZ ES   2   1535 59.20                             127     0.7 5  156 354 
 HEL  HN ES   2   1536 21.07                             112     0.5 4  271 255 
 HEL  HZ I        1536 27.66         9.2 0.50                           271 255 
 RREF BZ EP   2   1535 58.03                             108     2.0 3  322 229 
 RREF BZ I        1536 39.11         4.8 0.30                           322 229 
 DBB  SZ EP   1   1535 57.28                             107     0.2 5  337 274 
 DBB  SZ ES   2   1536 32.83                             107    -0.7 3  337 274 
 MON  HZ EP   2   1535 56.53                             107    -1.8 3  349 308 
 MON  HE ES   2   1536 35.57                             107    -0.3 3  349 308 
 MON  HZ I        1536 50.43         2.9 0.65                           349 308 
 PRA  HE ES   2   1536 45.81                             104     0.5 3  394 209 
 PRA  HZ I        1536 50.01         4.9 0.46                           394 209 
                                                                                
