 2014  630 1045 44.2 L   6.800 -73.166133.5  RSN 23 0.4 2.9LRSN                1
 GAP= 70        0.97       2.1     2.6  4.9 -0.8026E+00  0.4488E+01  0.1494E+01E
 Epicentro: LOS SANTOS - SANTANDER                                             3
 ACTION:UPD 14-07-01 22:58 OP:nd   STATUS:               ID:20140630104544 L   I
 OLDACT:REG 14-06-30 20:01 OP:spq  STATUS:               ID:20140630103818     3
 2014-06-30-1038-18M.COL___247                                                 6
 STAT SP IPHASW D HRMM SECON CODA AMPLIT PERI AZIMU VELO AIN AR TRES W  DIS CAZ7
 BAR2 SZ IP     C 1046  2.97                             170    0.5910 23.1 184 
 BAR2 SZ ES   1   1046 15.97                             170   -0.56 7 23.1 184 
 BAR2 SZ I        1046 20.36       196.7 0.20            169           23.1 184 
 PAM  SZ EPg    D 1046  5.80                             148    0.5510 78.8  41 
 PAM  SE ES       1046 22.09                             148    0.4510 78.8  41 
 PAM  SZ I        1046 24.98       172.7 0.48            153           78.8  41 
 RUS  HZ EP       1046  6.91                             141    0.1010  101 175 
 RUS  HN ES       1046 24.89                             141    0.4710  101 175 
 RUS  HZ I        1046 26.72        98.5 0.28            144            101 175 
 PTB  HZ EP       1046  9.76                             129   -0.25 9  146 259 
 PTB  HN ES       1046 30.12                             129   -0.00 9  146 259 
 PTB  HZ I        1046 32.38        81.9 0.28            130            146 259 
 TAM  HZ IP     D 1046 11.30                             127    0.12 9  157 105 
 TAM  HE ES       1046 31.53                             127   -0.66 9  157 105 
 TAM  HZ I        1046 33.98        32.0 0.36            133            157 105 
 OCA  HZ EP       1046 11.30                             127   -0.29 9  160 354 
 OCA  HE ES       1046 32.46                             127   -0.47 9  160 354 
 OCA  HZ I        1046 38.72        75.6 0.16            130            160 354 
 SPBC HZ EP       1046 11.89                             126    0.21 9  162 218 
 SPBC HN ES       1046 32.71                             126   -0.37 9  162 218 
 SPBC HZ I        1046 37.97        77.5 0.22            128            162 218 
 ZAR  HZ EP       1046 15.27                             120   -0.41 9  202 292 
 ZAR  HN ES       1046 40.53                             120    0.32 9  202 292 
 ZAR  HZ I        1046 47.61       135.7 0.36            121            202 292 
 SML  HZ EP       1046 19.57                             115   -0.52 8  243 336 
 SML  HN ES       1046 48.00                             115   -0.06 8  243 336 
 SML  HZ I        1046 55.57       113.9 0.09            117            243 336 
 CHI  HZ EP       1046 21.07                             114   -0.14 8  248 195 
 CHI  HN ES       1046 49.52                             114   -0.54 8  248 195 
 CHI  HZ I        1046 57.66        27.5 0.50            117            248 195 
 ROSC BZ EP   4   1046 22.80                             114    1.22 0  252 211 
 ROSC BN ES       1046 49.98                             114   -0.73 8  252 211 
 ROSC BZ I        1046 59.33        53.2 0.50            116            252 211 
 HEL  HZ EP       1046 24.29                             112    0.69 8  270 256 
 HEL  HN ES       1046 53.72                             112   -0.58 8  270 256 
 HEL  HZ I        1047  1.33        41.9 0.42            114            270 256 
 URE  HZ EP   4   1046 22.99                             111   -1.50 0  282 292 
 URE  HE ES   4   1046 53.85                             111   -2.04 0  282 292 
 URE  HZ I        1047  8.17        55.6 0.16            113            282 292 
 GUY2CHZ EP       1046 27.45                             110    0.36 7  299 235 
 GUY2CHE ES       1047  0.60                             110    0.09 7  299 235 
 GUY2CHZ I        1047  7.87        24.0 0.24                           299 235 
 VIL  SZ EP       1046 27.06                             110   -0.00 7  303 191 
 VIL  SE ES       1047  1.02                             110    0.55 7  303 191 
 VIL  SZ I        1047  5.64        46.7 0.28            112            303 191 
 PTGC HZ EP   4   1046 26.18                             109   -1.48 0  310 158 
 PTGC HE ES   4   1046 58.74                             109   -2.80 0  310 158 
 PTGC HZ I        1047  1.85        32.0 0.44            112            310 158 
 RREF HZ EP       1046 29.19                             109   -0.48 7  320 229 
 RREF HE ES       1047  5.08                             109   -0.03 7  320 229 
 RREF HZ I        1047 14.98        28.4 0.38            110            320 229 
 CBOC HZ EP       1046 31.15                             108    0.74 7  331 252 
 CBOC HN ES       1047  6.98                             108    0.55 7  331 252 
 CBOC HZ I        1047 16.49         8.4 0.44            109            331 252 
 TOL  SZ EP       1046 32.09                             107    0.26 7  342 224 
 TOL  SN ES       1047  8.65                             107   -0.31 7  342 224 
 TOL  SZ I        1047 16.33        59.6 0.56            109            342 224 
 ANIL HZ EP       1046 34.15                             106    0.75 6  356 224 
 ANIL HE ES       1047 12.09                             106    0.33 6  356 224 
 ANIL HZ I        1047 21.54        56.4 0.46            108            356 224 
 PRA  HZ EP       1046 36.47                             104   -0.75 6  391 209 
 PRA  HN ES       1047 18.25                             104   -0.30 6  391 209 
 PRA  HZ I        1047 25.82        29.5 0.28            106            391 209 
 ORTC HZ EP       1046 37.32                             104   -0.28 6  394 216 
 ORTC HE ES       1047 19.37                             104    0.14 6  394 216 
 ORTC HZ I        1047 26.12        19.7 0.44            106            394 216 
 SJC  HZ EP   4   1046 37.06                             104   -2.20 0  408 327 
 SJC  HN ES   4   1047 16.84                             104   -5.35 0  408 327 
 SJC  HZ I        1047 22.79        16.3 0.30            106            408 327 
                                                                                
