 2014 1030 1133 13.3 L   6.686 -73.176146.6  RSN  4 0.3 1.2LRSN                1
 GAP=225        0.78       7.0     7.0  7.0  0.2593E+02  0.4767E+01  0.6517E+01E
 Epicentro: VILLANUEVA - SANTANDER                                             3
 ACTION:UPD 14-11-29 23:58 OP:nd   STATUS:               ID:20141030113313 L   I
 OLDACT:REG 14-11-24 20:23 OP:spq  STATUS:               ID:20141030112747     3
 2014-10-30-1127-47M.COL___262                                                 6
 STAT SP IPHASW D HRMM SECON CODA AMPLIT PERI AZIMU VELO AIN AR TRES W  DIS CAZ7
 BAR2 SZ EP       1133 32.76                             176   -0.0510 10.4 184 
 BAR2 SZ ES   1   1133 48.01                             176   -0.04 7 10.4 184 
 BAR2 SZ I        1133 50.48         4.8 0.26            170           10.4 184 
 BRR  HZ EP     C 1133 34.61                             151   -0.1410 75.4 308 
 BRR  HN ES       1133 51.63                             151    0.1310 75.4 308 
 BRR  HZ I        1133 52.35         4.3 0.30            151           75.4 308 
 RUS  HZ EP       1133 36.83                             148    0.5710 88.3 173 
 RUS  HN ES   1   1133 53.75                             148   -0.44 7 88.3 173 
 RUS  HZ I        1133 56.09         1.5 0.24            146           88.3 173 
 PTB  HZ EP       1133 39.44                             133   -0.40 9  143 264 
 PTB  HE ES   1   1134  0.82                             133    0.26 7  143 264 
 PTB  HZ I        1134  4.93         2.3 0.08            133            143 264 
                                                                                
