 2010  530 1105 47.6 L   6.785 -72.995146.3  RSN 10 0.6 2.3LRSN                1
 GAP=151        1.32       5.5     7.7  8.6 -0.2474E+02  0.2236E+01  0.6326E+01E
 Epicentro: CEPITA - SANTANDER                                                 3
 ACTION:UP  10-08-24 10:07 OP:vdl  STATUS:               ID:20100530110547 L   I
 2010-05-30-1102-29S.COL___109                                                 6
 STAT SP IPHASW D HRMM SECON CODA AMPLIT PERI AZIMU VELO SNR AR TRES W  DIS CAZ7
 BAR2 SZ EP       11 6  7.14                             168    -0.310   30 224 
 BAR2 SZ ES       11 6 22.57                             168    -0.410   30 224 
 GUE  SZ EP   1   11 6 13.27                             139     0.9 7  116   4 
 GRA  SZ EP       11 6 12.96                             137     0.210  123  10 
 GRA  SZ ES   1   11 6 32.36                             137     0.0 7  123  10 
 OCA  SZ EP       11 6 16.31                             129    -0.1 9  165 347 
 OCA  SZ ES       11 6 39.37                             129     0.5 9  165 347 
 CHI  HZ EP       11 6 25.14                             117    -0.6 8  252 199 
 CHI  HN ES   1   11 6 56.69                             117     1.3 6  252 199 
 CHI  HZ I        11 7  0.49         9.3 0.37                           252 199 
 ROSC BN ES   2   11 6 58.46                             116     1.4 4  260 214 
 ROSC BZ I        11 7  0.55        11.9 0.50                           260 214 
 HEL  HZ EP       11 6 28.76                             113    -0.9 7  288 257 
 HEL  HN ES       11 7  1.87                             113    -0.5 7  288 257 
 HEL  HZ I        11 7  5.65         8.4 0.31                           288 257 
 RREF BZ EP       11 6 35.89                             110     0.7 7  333 231 
 RREF BN ES       11 7 12.46                             110     0.3 7  333 231 
 RREF BZ I        11 7 18.72        14.6 0.30                           333 231 
 SDV  BZ EP       11 6 36.39                             109     0.0 6  349  48 
 SDV  BZ I        11 6 37.56         4.8 0.05                           349  48 
 SDV  BN ES   1   11 7 14.18                             109    -0.2 5  349  48 
 TOL  SZ EP       11 6 36.47                             109    -0.7 6  354 227 
                                                                                
