 2010  930 1143 15.4 L   6.601 -73.341118.4  RSN  9 0.5 2.0LRSN                1
 GAP= 94        1.07       4.1     7.6  7.7 -0.4645E+01  0.6633E+01  0.4841E+01E
 Epicentro: HATO - SANTANDER                                                   3
 ACTION:UP  11-02-18 11:06 OP:tino STATUS:               ID:20100930114315 L   I
 2010-09-30-1139-27S.COL___125                                                 6
 STAT SP IPHASW D HRMM SECON CODA AMPLIT PERI AZIMU VELO SNR AR TRES W  DIS CAZ7
 BAR2 SZ EP       1143 31.62                             171     0.010   17  93 
 BAR2 SZ ES   1   1143 44.50                             171     0.2 7   17  93 
 BAR2 SZ I        1143 46.27        28.1 0.87                            17  93 
 BRR  HZ EP   1   1143 33.07                             148    -0.5 7   69 324 
 BRR  HN ES       1143 47.58                             148    -0.210   69 324 
 RUS  HZ EP   1   1143 34.90                             143    -0.4 7   83 160 
 RUS  HN ES   1   1143 51.08                             143     0.4 7   83 160 
 RUS  HZ I        1143 51.96        18.8 0.29                            83 160 
 GUE  SZ EP       1143 40.13                             126    -0.2 9  144  19 
 GUE  SZ I        1143 42.73         6.2 0.14                           144  19 
 GRA  SZ EP   1   1143 42.25                             124     1.1 7  154  23 
 GRA  SZ I        1144  9.29         9.8 0.23                           154  23 
 OCA  SZ ES   2   1144  6.17                             119    -0.1 4  181   1 
 OCA  SZ I        1144 11.68        17.1 0.26                           181   1 
 CHI  HZ EP   1   1143 48.38                             114    -0.4 6  222 191 
 CHI  HN ES   1   1144 14.44                             114    -0.4 6  222 191 
 CHI  HZ I        1144 17.79         4.3 0.23                           222 191 
 RREF HZ EP   1   1143 56.93                             107     0.0 5  291 230 
 RREF HN ES   1   1144 30.28                             107     1.0 5  291 230 
 RREF HZ I        1144 35.05         5.4 0.47                           291 230 
 PRA  HE ES   2   1144 43.03                             103     0.1 3  362 208 
 PRA  HZ I        1144 49.46        10.2 0.15                           362 208 
                                                                                
