 2017  730 1434 41.4 L   6.830 -73.036142.0  RSN  5 0.2 1.4LRSN                1
 GAP=251        0.61       5.5     6.3  7.4  0.3759E+01  0.2363E+02  0.6043E+01E
 Epicentro: CEPITA - SANTANDER                                                 3
 ACTION:UPD 17-08-30 15:38 OP:rebc STATUS:               ID:20170730143441 L   I
 OLDACT:UP  17-07-31 00:04 OP:and  STATUS:               ID:20170730142742d    3
 OLDACT:UP  17-07-31 00:03 OP:and  STATUS:               ID:20170730142742d    3
 OLDACT:UP  17-07-31 00:02 OP:and  STATUS:               ID:20170730142742d    3
 OLDACT:UP  17-07-31 00:02 OP:and  STATUS:               ID:20170730142742d    3
 OLDACT:DUP 17-07-30 23:59 OP:and  STATUS:               ID:20170730142742d    3
 OLDACT:UP  17-07-30 23:59 OP:and  STATUS:               ID:20170730142741     3
 OLDACT:UP  17-07-30 23:57 OP:and  STATUS:               ID:20170730142741     3
 OLDACT:UP  17-07-30 23:57 OP:and  STATUS:               ID:20170730142741     3
 OLDACT:REG 17-07-30 21:12 OP:and  STATUS:               ID:20170730142741     3
 2017-07-30-1428-00M.COL___392                                                 6
 STAT SP IPHASW D HRMM SECON CODA AMPLIT PERI AZIMU VELO AIN AR TRES W  DIS CAZ7
 BAR2 EZ EP   2   1435  0.97                             167    0.18 5 30.8 212 
 BAR2 EZ ES       1435 15.65                             167   -0.2410 30.8 212 
 BAR2 EZ I        1435 16.78         7.0 0.18            167           30.8 212 
 BRR  HZ EP   2   1435  2.83                             148    0.08 5 80.7 292 
 BRR  HN ES   2   1435 19.65                             148    0.27 5 80.7 292 
 RUS  HN ES       1435 23.52                             141    0.0510  104 183 
 RUS  HZ I        1435 24.23         3.4 0.18            142            104 183 
 PTB  HZ EP   9   1435  7.78                             128   -1.49 0  160 259 
 PTB  HN ES   2   1435 28.42                             129   -1.07 5  160 259 
 PTB  HZ I        1435 31.32         1.9 0.17            129            160 259 
 NOR  HZ EP   2   1435 17.87                             116   -0.36 4  246 235 
 NOR  HN ES       1435 47.11                             116    0.18 8  246 235 
 NOR  HZ I        1435 47.65         2.1 0.30            116            246 235 
                                                                                
