 2017  730 1024 26.3 L   6.824 -73.177142.2  RSN  6 0.3 1.3LRSN                1
 GAP=213        0.51       4.5     3.9  5.1  0.1081E+02  0.1911E+01  0.3776E+01E
 Epicentro: ZAPATOCA - SANTANDER                                               3
 ACTION:UPD 17-08-30 15:38 OP:rebc STATUS:               ID:20170730102426 L   I
 OLDACT:REG 17-07-30 20:46 OP:and  STATUS:               ID:20170730101743     3
 2017-07-30-1018-00M.COL___383                                                 6
 STAT SP IPHASW D HRMM SECON CODA AMPLIT PERI AZIMU VELO AIN AR TRES W  DIS CAZ7
 BAR2 EZ EP       1024 45.44                             170   -0.0910 25.6 181 
 BAR2 EZ ES       1025  0.62                             170    0.0710 25.6 181 
 BAR2 EZ I        1025  3.22         5.2 0.28            168           25.6 181 
 BRR  HN ES       1025  2.79                             154   -0.0310 66.9 298 
 RUS  HZ EP   2   1024 49.86                             142   -0.04 5  104 174 
 RUS  HN ES       1025  8.45                             142    0.1310  104 174 
 RUS  HZ I        1025  9.30         3.8 0.32            142            104 174 
 PTB  HZ EP   2   1024 52.68                             132   -0.02 5  145 258 
 PTB  HN ES       1025 13.03                             132   -0.28 9  145 258 
 PTB  HZ I        1025 15.41         0.9 0.12            133            145 258 
 YPLC HZ EP   2   1024 55.94                             125   -0.27 4  181 151 
 YPLC HN ES   2   1025 19.80                             125    0.24 4  181 151 
 YPLC HZ I        1025 21.22         3.0 0.30            126            181 151 
 ZAR  HN ES   2   1025 23.84                             122    0.99 4  200 292 
                                                                                
