 2014  430 1710 43.1 L   6.828 -73.188144.9  RSN 11 0.4 1.9LRSN                1
 GAP=130        0.99       3.1     4.3  6.6  0.1912E+00  0.3522E+01  0.2126E+01E
 Epicentro: ZAPATOCA - SANTANDER                                               3
 ACTION:UPD 14-05-13 20:50 OP:nd   STATUS:               ID:20140430171043 L   I
 OLDACT:UP  14-04-30 23:31 OP:mh   STATUS:               ID:20140430171000     3
 OLDACT:UP  14-04-30 23:29 OP:mh   STATUS:               ID:20140430171000     3
 OLDACT:UP  14-04-30 23:15 OP:mh   STATUS:               ID:20140430171000     3
 OLDACT:REG 14-04-30 20:26 OP:mh   STATUS:               ID:20140430171000     3
 2014-04-30-1710-00M.COL___273                                                 6
 STAT SP IPHASW D HRMM SECON CODA AMPLIT PERI AZIMU VELO AIN AR TRES W  DIS CAZ7
 BRR  HZ EP       1711  4.39                             154    0.5310 65.7 298 
 BRR  HN ES   1   1711 19.95                             154   -0.10 7 65.7 298 
 BRR  HZ I        1711 26.44         8.3 0.23            153           65.7 298 
 PAM  SZ IP     C 1711  5.71                             150    0.4310 78.1  44 
 PAM  SN ES   1   1711 22.47                             150   -0.10 7 78.1  44 
 PAM  SZ I        1711 25.24        10.7 0.32            155           78.1  44 
 RUS  HZ EP       1711  7.15                             143    0.1210  104 174 
 RUS  HN ES       1711 25.47                             143   -0.2210  104 174 
 RUS  HZ I        1711 27.68         9.2 0.21            146            104 174 
 PTB  HZ EP       1711  8.88                             133   -0.77 9  144 257 
 PTB  HN ES       1711 30.40                             133    0.04 9  144 257 
 PTB  HZ I        1711 33.10        12.6 0.43            134            144 257 
 SPBC HZ EP       1711 11.28                             129   -0.22 9  163 217 
 SPBC HE ES   1   1711 33.69                             129    0.04 7  163 217 
 ZAR  HZ EP   4   1711 16.57                             123    1.64 0  199 292 
 ZAR  HN ES       1711 40.38                             123    0.62 9  199 292 
 ZAR  HZ I        1711 48.34         7.1 0.18            125            199 292 
 NOR  HZ EP       1711 18.61                             119    0.03 8  233 233 
 NOR  HN ES   1   1711 46.39                             119    0.14 6  233 233 
 NOR  HZ I        1711 50.23         4.0 0.14            121            233 233 
 SML  HZ EP       1711 19.35                             118    0.18 8  239 336 
 SML  HN ES       1711 46.38                             118   -0.93 8  239 336 
 SML  HZ I        1711 51.44         8.6 0.15            120            239 336 
 CHI  HZ EP       1711 21.50                             117    0.55 8  250 194 
 CHI  HN ES   1   1711 49.97                             117   -0.51 6  250 194 
 CHI  HZ I        1711 55.13         2.8 0.33            120            250 194 
 GUY2CHZ EP   4   1711 28.36                             112    1.91 0  299 234 
 GUY2CHN ES   4   1712  3.59                             112    3.33 0  299 234 
 GUY2CHZ I        1712 11.11         5.3 0.38                           299 234 
 PRA  HZ EP       1711 35.89                             106   -0.76 6  392 209 
 PRA  HN ES   1   1712 18.88                             106    0.47 4  392 209 
 PRA  HZ I        1712 26.49         4.0 0.21            109            392 209 
 SJC  HN ES   4   1712 17.53                             106   -3.36 0  404 327 
