 2017 1030 1013 46.6 L   6.737 -73.194148.0  RSN  4 0.2 1.0LRSN                1
 GAP=227        0.50       4.0     3.9  4.7  0.7802E+01 -0.7628E+00 -0.6433E+00E
 Epicentro: VILLANUEVA - SANTANDER                                             3
 ACTION:UPD 17-11-07 19:39 OP:rebc STATUS:               ID:20171030101346 L   I
 OLDACT:UP  17-10-30 21:03 OP:mg   STATUS:               ID:20171030100741     3
 OLDACT:UP  17-10-30 21:02 OP:mg   STATUS:               ID:20171030100741     3
 OLDACT:REG 17-10-30 19:30 OP:mg   STATUS:               ID:20171030100741     3
 2017-10-30-1008-00M.COL___414                                                 6
 STAT SP IPHASW D HRMM SECON CODA AMPLIT PERI AZIMU VELO AIN AR TRES W  DIS CAZ7
 BAR2 EZ EP       1014  6.20                             174   -0.2210 16.1 175 
 BAR2 EZ ES   2   1014 21.39                             174   -0.45 5 16.1 175 
 BAR2 EZ I        1014 22.29         2.8 0.25            175           16.1 175 
 BRR  HZ EP       1014  8.03                             153    0.0410 70.4 306 
 BRR  HE ES       1014 24.83                             153    0.2010 70.4 306 
 BRR  HZ I        1014 34.28         4.2 0.50            152           70.4 306 
 RUS  HZ EP       1014 10.15                             146   -0.0210 94.2 173 
 RUS  HN ES       1014 28.73                             146    0.2110 94.2 173 
 RUS  HZ I        1014 31.19         1.3 0.34            153           94.2 173 
 PTB  HZ EP       1014 13.30                             134    0.08 9  141 261 
 PTB  HN ES       1014 33.75                             134   -0.20 9  141 261 
 PTB  HZ I        1014 38.87         0.9 0.18            136            141 261 
                                                                                
