 2015  830 1526 33.8 L   6.814 -73.118148.0  RSN 15 0.4 2.1LRSN                1
 GAP=139        0.88       2.9     4.0  5.4 -0.2931E+01  0.4546E+01  0.4566E+01E
 Epicentro: LOS SANTOS - SANTANDER                                             3
 ACTION:UPD 15-09-15 23:06 OP:cam  STATUS:               ID:20150830152633 L   I
 OLDACT:DUP 15-08-30 23:54 OP:spq  STATUS:               ID:20150830151749d    3
 2015-08-30-1517-48M.COL___337                                                 6
 STAT SP IPHASW D HRMM SECON CODA AMPLIT PERI AZIMU VELO AIN AR TRES W  DIS CAZ7
 BAR2 EZ EP     D 1526 53.46                             170   -0.2810 25.5 196 
 BAR2 EZ ES   1   1527  8.85                             170   -0.45 7 25.5 196 
 BAR2 EZ I        1527 11.18        20.2 0.28            168           25.5 196 
 BRR  HZ EP       1526 55.39                             152    0.0910 73.2 296 
 BRR  HN ES       1527 12.77                             152    0.6910 73.2 296 
 BRR  HZ I        1527 15.60        10.5 0.28            149           73.2 296 
 PAM  EZ EP       1526 56.24                             152    0.1710 74.2  38 
 PAM  EN ES       1527 13.57                             152    0.1310 74.2  38 
 PAM  EZ I        1527 15.61        18.0 0.20            155           74.2  38 
 RUS  HZ EP   1   1526 57.42                             144   -0.45 7  102 178 
 OCA  HE ES   1   1527 24.05                             130   -0.26 7  159 352 
 OCA  HZ I        1527 29.87        25.7 0.64            131            159 352 
 SPBC HZ EP       1527  2.43                             129   -0.34 9  166 219 
 SPBC HE ES       1527 25.33                             129   -0.03 9  166 219 
 SPBC HZ I        1527 30.40        25.0 0.18            129            166 219 
 ZAR  HE ES       1527 31.62                             123   -0.61 8  206 291 
 ZAR  HZ I        1527 37.81        11.8 0.32            122            206 291 
 NOR  HZ EP       1527  9.74                             119   -0.28 8  238 235 
 NOR  HN ES       1527 37.71                             119   -0.57 8  238 235 
 NOR  HZ I        1527 41.16         9.3 0.36            119            238 235 
 SML  HZ EP       1527 10.40                             118   -0.14 8  244 334 
 SML  HN ES   1   1527 39.56                             118    0.36 6  244 334 
 SML  HZ I        1527 43.46        15.1 0.10            118            244 334 
 CHI  HZ EP   1   1527 11.77                             117   -0.10 6  251 196 
 CHI  HN ES   1   1527 42.03                             117    0.46 6  251 196 
 CHI  HZ I        1527 46.90         4.4 0.54            118            251 196 
 HEL  HZ EP   4   1527 15.69                             115    1.19 0  275 256 
 HEL  HE ES   1   1527 46.27                             115    0.03 6  275 256 
 HEL  HZ I        1527 52.19         5.8 0.34            115            275 256 
 GUY2CHZ EP       1527 18.66                             112    0.77 7  305 235 
 GUY2CHE ES   4   1527 54.02                             112    1.73 0  305 235 
 GUY2CHZ I        1528  0.36         9.3 0.74                           305 235 
 TOL  SZ EP       1527 22.98                             109    0.46 6  347 225 
 TOL  SN ES       1528  1.37                             109    0.85 6  347 225 
 TOL  SZ I        1528  7.47         5.8 0.41            110            347 225 
 PRA  HZ EP   1   1527 27.62                             107   -0.11 4  395 210 
 PRA  HE ES   1   1528  9.97                             107    0.17 4  395 210 
 PRA  HZ I        1528 14.96         5.7 0.66            108            395 210 
 SJC  HZ EP   4   1527 27.72                             106   -1.76 0  410 326 
 SJC  HN ES   4   1528  9.61                             106   -3.31 0  410 326 
 SJC  HZ I        1528 20.33         1.5 0.46            107            410 326 
                                                                                
