 2015  330 1548 55.4 L   6.770 -73.133143.2  RSN  4 0.4 1.5LRSN                1
 GAP=158        1.00      10.0     6.1  8.0 -0.3033E+02  0.5025E+01  0.6564E+01E
 Epicentro: LOS SANTOS - SANTANDER                                             3
 ACTION:UPD 15-04-30 16:30 OP:nd   STATUS:               ID:20150330154855 L   I
 OLDACT:REG 15-03-30 20:29 OP:fm   STATUS:               ID:20150330154748     3
 2015-03-30-1547-48M.COL___287                                                 6
 STAT SP IPHASW D HRMM SECON CODA AMPLIT PERI AZIMU VELO AIN AR TRES W  DIS CAZ7
 BAR2 EZ EP       1549 14.97                             171    0.3010 20.4 196 
 BAR2 EZ ES       1549 29.76                             171    0.0610 20.4 196 
 BAR2 EZ I        1549 31.23         5.4 0.26            175           20.4 196 
 BRR  HZ EP       1549 16.55                             151    0.1110 74.1 300 
 BRR  HN ES       1549 33.40                             151    0.5410 74.1 300 
 BRR  HZ I        1549 35.03        11.7 0.22            151           74.1 300 
 PAM  SZ EP       1549 17.73                             150    0.2810 79.1  37 
 PAM  SN ES       1549 34.01                             150   -0.6510 79.1  37 
 PAM  SZ I        1549 38.98         3.2 0.54            149           79.1  37 
 PTB  HZ EP       1549 21.92                             131   -0.32 9  149 260 
 PTB  HN ES       1549 42.75                             131   -0.42 9  149 260 
 PTB  HZ I        1549 44.89         4.4 0.44            134            149 260 
                                                                                
