 2017  130 1643 32.7 L   6.336 -73.762 19.6  RSN  4 0.1 1.0LRSN                1
 GAP=163        0.41       1.9     0.9  2.5  0.5586E+00 -0.6919E+00 -0.2371E+01E
 Epicentro: LANDAZURI - SANTANDER                                              3
 ACTION:UPD 17-05-22 16:05 OP:jn   STATUS:               ID:20170130164332 L   I
 OLDACT:REG 17-01-30 20:40 OP:dnl  STATUS:               ID:20170130163741     3
 2017-01-30-1638-00M.COL___348                                                 6
 STAT SP IPHASW D HRMM SECON CODA AMPLIT PERI AZIMU VELO AIN AR TRES W  DIS CAZ7
 BAR2 EZ EP       1643 44.60                             104    0.1910 70.1  66 
 BAR2 EZ ES       1643 53.46                             104   -0.1010 70.1  66 
 BAR2 EZ I        1643 55.36         5.6 0.40            106           70.1  66 
 PTB  HZ EP     D 1643 45.47                             102   -0.1810 80.1 286 
 PTB  HN ES       1643 55.85                             102    0.0710 80.1 286 
 PTB  HZ I        1643 57.35         4.8 0.10            104           80.1 286 
 RUS  HZ EP       1643 47.73                             101    0.1410 89.7 123 
 RUS  HN ES       1643 59.11                             101   -0.1110 89.7 123 
 RUS  HZ I        1644  0.13         1.7 0.14            103           89.7 123 
 PAM  EZ EP       1643 57.37                              56   -0.00 9  162  47 
 PAM  EE ES       1644 16.62                              56   -0.02 9  162  47 
 PAM  EZ I        1644 17.50         4.7 0.24             56            162  47 
                                                                                
