 2012 1130 1525 25.2 L   6.810 -73.177137.0  RSN  7 0.3 1.7LRSN                1
 GAP=132        0.58       3.4     4.3  6.7 -0.4944E+01  0.6360E+01  0.4371E+01E
 Epicentro: LOS SANTOS - SANTANDER                                             3
 ACTION:UPD 12-12-05 15:37 OP:}ep  STATUS:               ID:20121130152525 L   I
 2012-11-30-1520-00M.COL___236                                                 6
 STAT SP IPHASW D HRMM SECON CODA AMPLIT PERI AZIMU VELO AIN AR TRES W  DIS CAZ7
 BAR2 SZ EP       1525 44.03                             170    0.2210 24.1 181 
 BAR2 SZ I        1526  0.54        16.3 0.19                          24.1 181 
 GIR2 SZ EP       1525 43.72                             167   -0.0910 29.7 356 
 PAM  SZ EP       1525 46.90                             148    0.3010 78.8  42 
 PAM  SE ES   1   1526  3.05                             148   -0.22 7 78.8  42 
 PAM  SZ I        1526  4.60         7.7 0.26                          78.8  42 
 RUS  HZ EP   1   1525 48.15                             141   -0.08 7  102 174 
 RUS  HN ES   1   1526  5.89                             141   -0.28 7  102 174 
 RUS  HN I        1526  9.76         7.0 0.41                           102 174 
 PTB  HZ EP   1   1525 50.82                             130   -0.37 7  145 258 
 PTB  HE ES   1   1526 11.59                             130    0.14 7  145 258 
 PTB  HZ I        1526 16.72         7.9 0.10                           145 258 
 CHI  HZ EP   1   1526  2.00                             115   -0.47 6  249 194 
 CHI  HN ES   1   1526 32.02                             115    0.49 6  249 194 
 PRA  HZ EP   1   1526 18.34                             105   -0.03 4  391 209 
                                                                                
