 2013  530 1640 14.9 L   6.814 -73.097143.0  RSN  5 0.3 1.9LRSN                1
 GAP=142        0.74       3.8     5.8  5.3 -0.4983E+00 -0.2554E+01  0.2356E+01E
 Epicentro: LOS SANTOS - SANTANDER                                             3
 ACTION:UPD 13-06-20 09:54 OP:ep   STATUS:               ID:20130530164014 L   I
 OLDACT:UP  13-05-31 22:29 OP:Juan STATUS:               ID:20130530164014 L   3
 2013-05-30-1638-50M.COL___218                                                 6
 STAT SP IPHASW D HRMM SECON CODA AMPLIT PERI AZIMU VELO AIN AR TRES W  DIS CAZ7
 BAR2 SZ EP       1640 34.13                             169   -0.1110 26.2 201 
 BAR2 SZ I        1640 34.41         9.7 0.34            169           26.2 201 
 BAR2 SZ ES       1640 49.60                             169    0.2610 26.2 201 
 GIR2 SZ EP       1640 33.97                             167   -0.2510 31.2 340 
 GIR2 SZ ES       1640 48.87                             167   -0.4410 31.2 340 
 PAM  SZ EP       1640 37.06                             152    0.5310 72.9  37 
 PAM  SE ES       1640 53.36                             152   -0.0610 72.9  37 
 BRR  HZ EP       1640 35.91                             151   -0.0610 75.3 296 
 BRR  HN ES       1640 52.67                             151    0.2510 75.3 296 
 BRR  HE I        1640 53.30        22.7 0.30            150           75.3 296 
 RUS  HZ EP       1640 38.25                             143   -0.2010  102 179 
 RUS  HN ES       1640 56.92                             143    0.0810  102 179 
 BRI  SZ ES   4   1640 59.23                             142    2.73 0  105  18 
                                                                                
