 2015  430 1835 39.8 L   6.776 -73.198134.1  RSN  4 0.4 1.5LRSN                1
 GAP=134        0.92       6.4     5.4  9.6 -0.1419E+02  0.2630E+02 -0.1012E+02E
 Epicentro: ZAPATOCA - SANTANDER                                               3
 ACTION:UPD 15-06-03 16:58 OP:cam  STATUS:               ID:20150430183539 L   I
 OLDACT:REG 15-04-30 23:02 OP:ak   STATUS:               ID:20150430182751     3
 2015-04-30-1827-51M.COL___264                                                 6
 STAT SP IPHASW D HRMM SECON CODA AMPLIT PERI AZIMU VELO AIN AR TRES W  DIS CAZ7
 BAR2 EZ EP       1835 57.79                             171   -0.1410 20.4 175 
 BAR2 EZ ES       1836 11.69                             171   -0.4110 20.4 175 
 BAR2 EZ I        1836 14.43         6.1 0.20            172           20.4 175 
 PAM  SZ EP       1836  0.84                             147   -0.2810 83.1  41 
 PAM  SN ES       1836 18.41                             147    0.6210 83.1  41 
 PAM  SZ I        1836 18.79         3.1 0.26            150           83.1  41 
 ZAR  HZ EP   2   1836 11.01                             120   -0.00 4  200 293 
 ZAR  HN ES       1836 35.16                             120   -0.23 9  200 293 
 ZAR  HZ I        1836 43.00         7.1 0.29            120            200 293 
 NOR  HZ EP   3   1836 13.76                             117   -0.39 2  228 234 
 NOR  HN ES       1836 41.59                             117    0.61 8  228 234 
 NOR  HZ I        1836 45.18         2.3 0.10            118            228 234 
                                                                                
