 2015  630 1938 17.1 L   6.814 -73.158132.7  RSN  7 0.4 2.1LRSN                1
 GAP=200        0.78       2.6     5.0  5.4  0.3844E+01  0.1245E+02  0.7757E+00E
 Epicentro: LOS SANTOS - SANTANDER                                             3
 ACTION:UPD 15-09-10 22:16 OP:cam  STATUS:               ID:20150630193817 L   I
 OLDACT:UP  15-07-01 02:16 OP:drio STATUS:               ID:20150630192747     3
 OLDACT:REG 15-07-01 00:25 OP:mh   STATUS:               ID:20150630192747     3
 2015-06-30-1927-47M.COL___322                                                 6
 STAT SP IPHASW D HRMM SECON CODA AMPLIT PERI AZIMU VELO AIN AR TRES W  DIS CAZ7
 BAR2 EZ EP       1938 35.65                             169    0.4410 24.6 186 
 BAR2 EZ ES       1938 49.24                             169   -0.0910 24.6 186 
 BAR2 EZ I        1938 52.03        34.3 0.30            167           24.6 186 
 RUS  HZ EP       1938 39.90                             140    0.1610  102 175 
 RUS  HE ES       1938 57.22                             140   -0.1510  102 175 
 RUS  HZ I        1938 59.35        15.2 0.40            142            102 175 
 ZAR  HZ EP       1938 48.72                             120    0.16 9  202 292 
 ZAR  HN ES       1939 12.86                             120   -0.22 9  202 292 
 ZAR  HZ I        1939 18.73        14.6 0.22            120            202 292 
 SML  HZ EP       1938 52.60                             115   -0.24 8  242 335 
 SML  HN ES       1939 20.59                             115   -0.10 8  242 335 
 SML  HZ I        1939 24.73        19.6 0.26            116            242 335 
 CHI  HZ EP       1938 53.75                             114   -0.50 8  250 195 
 CHI  HN ES       1939 23.19                             114   -0.02 8  250 195 
 CHI  HZ I        1939 28.31         6.1 0.32            116            250 195 
 GUY2CHZ EP       1939  1.01                             110    0.88 7  301 234 
 GUY2CHN ES       1939 33.93                             110    0.25 7  301 234 
 GUY2CHZ I        1939 45.72         4.9 0.46                           301 234 
 PRA  HZ EP       1939  9.65                             104   -0.64 6  393 209 
 PRA  HE ES       1939 51.37                             104   -0.40 6  393 209 
 PRA  HZ I        1939 57.79         7.4 0.38            105            393 209 
                                                                                
