 2011  430 1927  8.5 L   6.766 -73.103146.9  RSN 11 0.3 2.3LRSN                1
 GAP=119        0.56       2.3     3.1  4.2 -0.2643E+01  0.2559E+01  0.1984E+01E
 Epicentro: LOS SANTOS - SANTANDER                                             3
 ACTION:UP  11-06-22 15:34 OP:REBC STATUS:               ID:20110430192708 L   I
 2011-04-30-1924-31S.COL___128                                                 6
 STAT SP IPHASW D HRMM SECON CODA AMPLIT PERI AZIMU VELO SNR AR TRES W  DIS CAZ7
 BAR2 SZ EP   1   1927 28.16                             171    -0.111   21 204 
 BAR2 SZ ES   1   1927 43.58                             171    -0.111   21 204 
 BAR2 SZ I        1927 44.93        54.4 0.34                            21 204 
 BRR  HZ EP   1   1927 30.04                             151    -0.111   77 299 
 BRR  HN ES   1   1927 47.35                             151     0.311   77 299 
 BRR  HZ I        1927 50.90        60.3 0.14                            77 299 
 PAM  SZ EP   1   1927 31.08                             151     0.211   78  35 
 PAM  SE ES   1   1927 48.23                             151    -0.111   78  35 
 RUS  HZ EP   1   1927 32.10                             145     0.011   97 179 
 RUS  HN ES   2   1927 50.24                             145    -0.3 7   97 179 
 RUS  HZ I        1927 52.10        20.6 0.22                            97 179 
 BRI  SZ EP   1   1927 32.70                             141     0.011  110  18 
 BRI  SZ ES   1   1927 52.00                             141     0.511  110  18 
 BRI  SZ I        1927 53.44        33.4 0.28                           110  18 
 GRA  SZ EP   1   1927 33.96                             137    -0.111  128  15 
 GRA  SZ ES   1   1927 53.49                             137    -0.511  128  15 
 GRA  SZ I        1927 54.71        48.7 0.35                           128  15 
 OCA  SZ EP   1   1927 37.40                             129     0.110  165 352 
 OCA  SZ ES   1   1927 59.57                             129    -0.210  165 352 
 YOP  SZ EP   1   1927 38.56                             127     0.410  173 154 
 YOP  SZ I        1927 39.26        14.8 0.21                           173 154 
 YOP  SN ES   2   1928  0.79                             127    -0.4 7  173 154 
 NOR  SZ EP   1   1927 44.28                             118    -0.2 9  236 236 
 NOR  SN ES   1   1928 12.63                             118     0.1 9  236 236 
 NOR  SZ I        1928 16.01         5.5 0.25                           236 236 
 HEL  HZ EP   1   1927 49.21                             115     0.0 8  276 257 
 HEL  HN ES   2   1928 20.34                             115    -0.6 5  276 257 
 HEL  HZ I        1928 28.72        13.9 0.34                           276 257 
 RREF HZ EP   2   1927 54.82                             111     0.0 5  323 230 
 RREF HN ES       1928 31.26                             111     0.310  323 230 
                                                                                
