 2010  730 1401 32.4 L   6.587 -73.494116.3  RSN  7 0.3 1.8LRSN                1
 GAP= 78        0.67       4.5     6.9  8.1  0.2786E+00  0.2705E+02  0.5925E+01E
 Epicentro: EL CARMEN DE CHUCURI - SANTANDER                                   3
 ACTION:UPD 10-12-01 15:21 OP:pat  STATUS:               ID:20100730140132 L   I
 2010-07-30-1357-26S.COL___122                                                 6
 STAT SP IPHASW D HRMM SECON CODA AMPLIT PERI AZIMU VELO AIN AR TRES W  DIS CAZ7
 BAR2 SZ IP     C 14 1 49.09                             162     0.210   34  89 
 BAR2 SZ ES   2   14 2  1.64                             162     0.0 5   34  89 
 BAR2 SZ I        14 2  2.64        48.1 0.34                            34  89 
 BRR  HZ EP   1   14 1 49.84                             150     0.0 7   62 337 
 BRR  HN ES   2   14 2  3.58                             150     0.1 5   62 337 
 BRR  HZ I        14 2  9.67        15.9 0.14                            62 337 
 GIR2 SZ EP   1   14 1 50.49                             149     0.3 7   64  31 
 RUS  HZ EP   1   14 1 52.18                             140    -0.3 7   89 149 
 RUS  HE ES   2   14 2  7.79                             140    -0.3 5   89 149 
 RUS  HZ I        14 2  9.16         6.2 0.27                            89 149 
 GUE  SZ EP   1   14 1 57.80                             124    -0.1 7  151  25 
 HEL  HZ EP   1   14 2  5.79                             112    -0.6 6  229 259 
 HEL  HZ I        14 2 39.49         4.2 0.33                           229 259 
 PRA  HZ EP   1   14 2 20.49                             103     0.1 5  353 206 
 PRA  HN ES   2   14 2 58.83                             103     0.9 3  353 206 
 PRA  HZ I        14 3  3.97         2.7 0.39                           353 206 
                                                                                
