 2010  930 1556 41.6 L   6.802 -73.101150.1  RSN 21 0.6 4.5LRSN                1
 GAP=105        1.41       3.8     5.7  6.1 -0.7795E+01  0.3007E+01  0.7226E+01E
 Epicentro: LOS SANTOS - SANTANDER                                             3
 Evento Sentido                                                                2
 Reportado como Sentido:                                                       3
 FLORIDABLANCLA, BUCARAMANGA (SANTANDER)                                       3
 ACTION:UP  11-02-18 11:06 OP:tino STATUS:               ID:20100930155641 L   I
 2010-09-30-1554-17S.COL___125                                                 6
 STAT SP IPHASW D HRMM SECON CODA AMPLIT PERI AZIMU VELO SNR AR TRES W  DIS CAZ7
 BTL  SZ EP       1557  1.12                             171    -0.710   22 305 
 BTL  SZ ES   1   1557 16.99                             171    -0.5 7   22 305 
 BAR2 SZ IP       1557  1.77                             170    -0.110   25 202 
 BAR2 SZ I        1557  2.19      5691.8 0.30                            25 202 
 BAR2 SZ ES   1   1557 16.79                             170    -0.8 7   25 202 
 GIR2 SZ EP       1557  1.84                             167     0.010   32 341 
 GIR2 SZ ES   1   1557 16.82                             167    -0.8 7   32 341 
 URB  SZ EP       1557  3.36                             159     0.810   55 332 
 URB  SZ ES   1   1557 19.05                             159     0.1 7   55 332 
 BRR  HZ EP       1557  3.67                             152     0.210   76 297 
 BRR  HZ I        1557  4.03      5823.5 0.04                            76 297 
 BRR  HN ES       1557 21.03                             152     0.510   76 297 
 RUS  HZ EP       1557  5.56                             145    -0.310  101 179 
 RUS  HN ES       1557 24.35                             145    -0.310  101 179 
 RUS  HZ I        1557 27.43      2325.7 0.60                           101 179 
 GUE  SZ EP       1557  6.69                             140     0.010  115  10 
 GRA  SZ ES       1557 28.07                             138     1.010  124  15 
 GRA  SZ I        1557 29.42      4446.1 0.31                           124  15 
 OCA  SZ EP       1557 10.13                             130    -0.2 9  161 351 
 OCA  SZ ES       1557 32.62                             130    -0.1 9  161 351 
 YOP  SZ EP       1557 12.18                             127     0.4 9  177 155 
 NOR  SZ EP       1557 17.52                             119    -0.6 8  239 235 
 NOR  SN ES       1557 45.85                             119    -0.7 8  239 235 
 CHI  HZ EP       1557 19.47                             118    -0.3 8  250 196 
 CHI  HN ES       1557 50.01                             118     0.5 8  250 196 
 CHI  HZ I        1557 52.75      1561.3 1.44                           250 196 
 ROSC BZ EP       1557 21.40                             117     1.1 8  256 212 
 ROSC BN ES       1557 51.47                             117     1.0 8  256 212 
 ROSC BZ I        1557 57.78      1749.9 0.24                           256 212 
 HEL  HZ EP       1557 22.08                             115    -0.5 7  277 256 
 HEL  HN ES       1557 54.05                             115    -0.5 7  277 256 
 HEL  HZ I        1557 59.93      1081.7 0.07                           277 256 
 RREF HZ EP   1   1557 28.83                             111     0.4 5  326 230 
 RREF HN ES       1558  6.11                             111     1.2 7  326 230 
 RREF HZ I        1558 14.38      2632.3 0.44                           326 230 
 DBB  SZ EP       1557 29.45                             110    -0.4 7  344 274 
 TOL  SZ EP       1557 29.95                             110    -0.6 6  347 225 
 SDV  BZ EP       1557 31.02                             109    -0.4 6  356  50 
 SDV  BZ I        1558 10.54       456.6 0.20                           356  50 
 ANIL HZ EP       1557 31.85                             109    -0.2 6  361 225 
 ANIL HN ES       1558 11.91                             109     0.6 6  361 225 
 ANIL HZ I        1558 16.51      2723.2 0.18                           361 225 
 PRA  HZ EP       1557 35.24                             107    -0.4 6  395 210 
 PRA  HN ES       1558 17.80                             107     0.1 6  395 210 
 GUA  SZ EP       1557 44.18                             104    -0.7 5  474 174 
                                                                                
