 2017  830 1459 38.3 L   5.936 -73.754116.0  RSN  8 0.4 1.7LRSN                1
 GAP=135        0.99       3.9     3.3  6.8 -0.5284E+01  0.1007E+02 -0.7382E+01E
 Epicentro: SUCRE - SANTANDER                                                  3
 ACTION:UPD 17-09-04 20:26 OP:rebc STATUS:               ID:20170830145938 L   I
 OLDACT:REG 17-08-30 20:51 OP:dhb  STATUS:               ID:20170830145743     3
 2017-08-30-1458-00M.COL___405                                                 6
 STAT SP IPHASW D HRMM SECON CODA AMPLIT PERI AZIMU VELO AIN AR TRES W  DIS CAZ7
 SPBC HZ EP       1459 54.70                             156   -0.3910 47.2 228 
 SPBC HN ES       15 0  8.56                             156    0.4110 47.2 228 
 SPBC HZ I        15 0 12.28        17.0 0.06            149           47.2 228 
 RUS  HZ EP       1459 57.45                             145    0.1610 74.4  94 
 RUS  HE ES       15 0 11.95                             145   -0.1110 74.4  94 
 RUS  HZ I        15 0 12.15         4.9 0.11            140           74.4  94 
 BAR2 EZ EP       1459 58.41                             138   -0.1910 96.2  41 
 BAR2 EZ ES       15 0 14.02                             138   -0.3710 96.2  41 
 BAR2 EZ I        15 0 15.95        27.9 0.51            130           96.2  41 
 NOR  HZ EP       15 0  1.32                             128   -0.0810  130 252 
 NOR  HN ES       15 0 19.18                             128   -0.1910  130 252 
 NOR  HZ I        15 0 20.81        15.2 0.28            120            130 252 
 BRR  HZ EP       15 0  1.31                             128    0.0510  130   2 
 BRR  HN ES       15 0 19.85                             128    0.7210  130   2 
 BRR  HZ I        15 0 22.06        12.7 0.16            120            130   2 
 GUY2CHZ EP       15 0  9.17                             116    0.51 9  195 246 
 GUY2CHN ES       15 0 32.34                             116    0.03 9  195 246 
 GUY2CHZ I        15 0 37.30         2.7 0.33                           195 246 
 HEL  HZ EP       15 0  9.61                             116    0.71 9  199 278 
 HEL  HN ES       15 0 32.10                             116   -0.63 9  199 278 
 HEL  HZ I        15 0 44.98         4.4 0.60            110            199 278 
 ZAR  HZ EP       15 0  9.28                             114   -0.54 8  211 325 
 ZAR  HE ES       15 0 34.31                             114   -0.06 8  211 325 
 ZAR  HZ I        15 0 38.19         3.3 0.10            108            211 325 
                                                                                
