 2010  430 1840  7.3 L   5.909 -73.626119.6  RSN  8 0.6 2.0LRSN                1
 GAP=152        1.14       6.3     9.6 12.7 -0.3884E+02  0.1602E+02  0.6862E+01E
 Epicentro: BARBOSA - SANTANDER                                                3
 ACTION:UPD 10-08-24 10:02 OP:vdl  STATUS:               ID:20100430184007 L   I
 2010-04-30-1835-55S.COL___105                                                 6
 STAT SP IPHASW D HRMM SECON CODA AMPLIT PERI AZIMU VELO SNR AR TRES W  DIS CAZ7
 BAR2 SZ IP       1840 27.48                             141     0.110   90  33 
 BAR2 SZ ES   1   1840 43.19                             141     0.2 7   90  33 
 BRR  HZ IP     D 1840 30.84                             129     0.010  133 356 
 BRR  HZ I        1840 34.98        24.3 0.29                           133 356 
 BRR  HE ES   1   1840 48.48                             129    -0.6 7  133 356 
 CHI  HZ EP   2   1840 32.36                             127     0.1 5  142 185 
 CHI  HE ES   2   1840 51.17                             127    -0.5 5  142 185 
 CHI  HZ I        1840 54.51         6.3 0.17                           142 185 
 HEL  HZ EP   2   1840 38.59                             115    -1.0 4  213 279 
 HEL  HZ I        1841  8.58         6.2 0.51                           213 279 
 BRI  SZ IP       1840 40.82                             114     0.7 8  220  25 
 RREF BZ EP   2   1840 41.36                             114     0.5 4  221 240 
 RREF BN ES   1   1841  8.07                             114     1.0 6  221 240 
 RREF BZ I        1841 12.14         8.8 0.43                           221 240 
 GUE  SZ IP       1840 40.57                             114    -0.5 8  226  20 
 PRA  HZ EP   1   1840 46.63                             108    -0.2 6  280 210 
 PRA  HE ES   2   1841 16.30                             108    -1.4 4  280 210 
 PRA  HZ I        1841 22.51         9.7 0.26                           280 210 
                                                                                
