 2016  430 1449 38.0 L   6.798 -73.606106.0  RSN  7 0.2 1.9LRSN                1
 GAP=120        0.58       2.2     2.1  5.2 -0.5353E+00  0.6537E+01 -0.8318E-03E
 Epicentro: EL CARMEN - SANTANDER                                              3
 ACTION:UPD 16-05-05 14:25 OP:rebc STATUS:               ID:20160430144938 L   I
 OLDACT:REG 16-04-30 21:16 OP:cara STATUS:               ID:20160430144754     3
 2016-04-30-1448-00M.COL___220                                                 6
 STAT SP IPHASW D HRMM SECON CODA AMPLIT PERI AZIMU VELO AIN AR TRES W  DIS CAZ7
 BAR2 EZ EP       1449 54.06                             152   -0.0910 52.1 116 
 BAR2 HN ES       1450  7.04                             152    0.3210 52.1 116 
 BAR2 EZ I        1450  7.71        20.7 0.26            154           52.1 116 
 RUS  HZ EP       1449 59.22                             129   -0.2910  116 150 
 RUS  HN ES       1450 16.03                             129   -0.2410  116 150 
 RUS  HZ I        1450 18.24        17.4 0.46            132            116 150 
 PAM  EZ EP       1449 59.89                             129    0.2910  117  59 
 PAM  EE ES       1450 16.34                             129   -0.0910  117  59 
 PAM  EZ I        1450 21.70        12.4 0.52            133            117  59 
 SPBC HN ES   4   1450 17.73                             123   -1.30 0  137 202 
 SPBC HZ I        1450 24.83        15.1 0.24            126            137 202 
 ZAR  HZ EP       1450  2.94                             119   -0.24 9  158 299 
 ZAR  HN ES       1450 22.69                             119   -0.10 9  158 299 
 ZAR  HZ I        1450 23.50        14.6 0.30            123            158 299 
 NOR  HZ EP       1450  7.61                             113    0.29 9  195 226 
 NOR  HE ES       1450 30.13                             113   -0.04 9  195 226 
 NOR  HZ I        1450 32.66        15.9 0.18            116            195 226 
 GUY2CHZ EP       1450 15.64                             106    0.23 8  261 228 
 GUY2CHE ES       1450 44.68                             106    0.11 8  261 228 
 GUY2CHZ I        1450 51.53         5.3 0.34                           261 228 
                                                                                
