 2017  430 1041 11.5 L   6.717 -73.478106.0  RSN  6 0.3 1.5LRSN                1
 GAP=171        0.57       2.8     2.6  5.3  0.3360E+01  0.3212E+01  0.6072E+01E
 Epicentro: EL CARMEN - SANTANDER                                              3
 ACTION:UPD 17-05-30 21:17 OP:jn   STATUS:               ID:20170430104111 L   I
 OLDACT:UP  17-04-30 21:23 OP:and  STATUS:               ID:20170430103737     3
 OLDACT:UP  17-04-30 21:23 OP:and  STATUS:               ID:20170430103737     3
 OLDACT:UP  17-04-30 21:22 OP:and  STATUS:               ID:20170430103737     3
 OLDACT:UP  17-04-30 21:22 OP:and  STATUS:               ID:20170430103737     3
 OLDACT:REG 17-04-30 20:32 OP:and  STATUS:               ID:20170430103737     3
 2017-04-30-1038-00M.COL___374                                                 6
 STAT SP IPHASW D HRMM SECON CODA AMPLIT PERI AZIMU VELO AIN AR TRES W  DIS CAZ7
 BRR  HZ IP     C 1041 26.75                             153   -0.4210 50.3 329 
 BRR  HN ES       1041 39.55                             153    0.1510 50.3 329 
 BRR  HZ I        1041 40.25         9.3 0.12            150           50.3 329 
 RUS  HZ EP       1041 31.58                             133   -0.0710  101 154 
 RUS  HN ES       1041 47.45                             133    0.1010  101 154 
 RUS  HZ I        1041 49.10         4.9 0.42            130            101 154 
 PTB  HZ EP   4   1041 29.77                             130   -2.04 0  110 260 
 PTB  HN ES       1041 47.63                             130   -0.0110  110 260 
 ZAR  HN ES       1041 59.73                             116    0.23 9  175 299 
 ZAR  HZ I        1042  3.52         8.6 0.10            115            175 299 
 YPLC HZ IP   2 C 1041 41.06                             114    0.84 4  190 140 
 YPLC HN ES   2   1042  2.54                             114   -0.08 4  190 140 
 YPLC HZ I        1042 10.10         3.3 0.32            112            190 140 
 NOR  HZ EP       1041 41.30                             113   -0.01 9  200 230 
 NOR  HN ES       1042  4.46                             113   -0.09 9  200 230 
 NOR  HZ I        1042  5.11         1.7 0.12            112            200 230 
                                                                                
