 2015 1230 1329 59.9 L   6.801 -73.165145.4  RSN 11 0.6 2.1LRSN                1
 GAP=181        1.08       3.4     5.5  7.0 -0.1260E+01  0.1044E+02 -0.3729E+01E
 Epicentro: LOS SANTOS - SANTANDER                                             3
 ACTION:UPD 16-02-04 15:09 OP:cam  STATUS:               ID:20151230132959 L   I
 OLDACT:REG 15-12-30 20:17 OP:dnl  STATUS:               ID:20151230132750     3
 2015-12-30-1327-50M.COL___334                                                 6
 STAT SP IPHASW D HRMM SECON CODA AMPLIT PERI AZIMU VELO AIN AR TRES W  DIS CAZ7
 BAR2 EZ IP     C 1330 19.45                             171    0.0110 23.1 185 
 BAR2 EZ ES       1330 34.65                             171   -0.0610 23.1 185 
 BAR2 EZ I        1330 36.10        28.4 0.17            169           23.1 185 
 BRR  HZ EP       1330 21.33                             153    0.4710 69.3 299 
 BRR  HN ES   1   1330 38.18                             153    0.94 7 69.3 299 
 BRR  HZ I        1330 41.13        16.2 0.29            150           69.3 299 
 RUS  HZ EP   2   1330 24.25                             144    0.66 5  101 175 
 RUS  HE ES       1330 41.77                             144   -0.3310  101 175 
 RUS  HZ I        1330 43.14        10.4 0.30            145            101 175 
 PTB  HZ EP       1330 26.12                             132   -0.48 9  146 259 
 PTB  HN ES       1330 46.97                             132   -0.50 9  146 259 
 PTB  HZ I        1330 52.72        10.5 0.14            131            146 259 
 OCA  HZ EP   2   1330 28.77                             130    0.67 5  160 354 
 OCA  HN ES       1330 50.01                             130   -0.13 9  160 354 
 OCA  HZ I        1330 52.90        31.0 0.16            131            160 354 
 SPBC HN ES       1330 50.27                             129   -0.05 9  162 218 
 SPBC HZ I        1330 51.87        20.9 0.13            129            162 218 
 ZAR  HZ EP   1   1330 33.06                             123    0.99 6  202 292 
 ZAR  HN ES       1330 57.87                             123    0.68 9  202 292 
 ZAR  HZ I        1331  3.52         8.9 0.12            122            202 292 
 NOR  HZ EP       1330 35.45                             119    0.07 8  233 234 
 NOR  HE ES       1331  2.72                             119   -0.37 8  233 234 
 NOR  HZ I        1331  8.69         8.2 0.12            118            233 234 
 SML  HZ EP       1330 35.54                             118   -0.81 8  243 336 
 SML  HN ES   1   1331  3.85                             118   -0.97 6  243 336 
 SML  HZ I        1331  8.18        16.2 0.07            118            243 336 
 CHI  HZ EP   2   1330 37.59                             117    0.11 4  248 195 
 CHI  HN ES   2   1331  7.81                             117    0.98 4  248 195 
 CHI  HZ I        1331 12.51         3.7 0.22            118            248 195 
 PRA  HZ EP   2   1330 53.97                             107    0.72 3  391 209 
 PRA  HN ES   2   1331 34.97                             107    0.08 3  391 209 
 PRA  HZ I        1331 40.36         4.6 0.28            107            391 209 
                                                                                
