 2017 1230 1813  5.6 L   6.877 -73.473101.8  RSN  5 0.3 1.5LRSN                1
 GAP=117        0.50       3.7     2.7  6.6 -0.6191E+01  0.6677E+01 -0.1023E+02E
 Epicentro: SAN VICENTE DE CHUCURI - SANTANDER                                 3
 ACTION:UPD 18-01-04 13:25 OP:rebc STATUS:               ID:20171230181305 L   I
 OLDACT:DUP 17-12-31 00:24 OP:mg   STATUS:               ID:20171230180738d    3
 2017-12-30-1808-00M.COL___475                                                 6
 STAT SP IPHASW D HRMM SECON CODA AMPLIT PERI AZIMU VELO AIN AR TRES W  DIS CAZ7
 BAR2 EZ EP   2   1813 21.56                             154    0.73 5 45.0 134 
 BAR2 EZ ES   2   1813 33.03                             154    0.29 5 45.0 134 
 BAR2 EZ I        1813 35.16        26.3 0.14            165           45.0 134 
 PAM  EZ EP       1813 25.12                             132   -0.1010 99.6  59 
 PAM  EN ES   1   1813 40.28                             132   -0.27 7 99.6  59 
 PAM  EZ I        1813 43.24         2.7 0.26            140           99.6  59 
 PTB  HZ EP       1813 25.92                             127   -0.1110  115 251 
 PTB  HN ES       1813 41.86                             127   -0.1310  115 251 
 PTB  HZ I        1813 44.54         4.3 0.16            133            115 251 
 OCA  HZ EP   1   1813 29.93                             119   -0.03 7  152   6 
 OCA  HN ES   1   1813 49.15                             119    0.17 7  152   6 
 OCA  HZ I        1813 50.73        13.2 0.24            125            152   6 
 ZAR  HZ EP   1   1813 31.78                             116    0.29 7  167 294 
 ZAR  HN ES   3   1813 51.99                             116    0.28 2  167 294 
 ZAR  HZ I        1813 56.34         2.4 0.09            121            167 294 
                                                                                
