 2011  130 1221 22.4 L   6.809 -73.149140.2  RSN 16 0.4 2.6LRSN                1
 GAP=103        0.89       2.8     4.4  4.7 -0.2488E+01  0.5482E+01  0.1603E+01E
 Epicentro: LOS SANTOS - SANTANDER                                             3
 ACTION:UP  11-02-08 08:43 OP:pat  STATUS:               ID:20110130122122 L   I
 2011-01-30-1218-52S.COL___137                                                 6
 STAT SP IPHASW D HRMM SECON CODA AMPLIT PERI AZIMU VELO SNR AR TRES W  DIS CAZ7
 BTL  SZ IP       1221 41.63                             172     0.410   18 313 
 BTL  SZ ES   1   1221 55.96                             172     0.0 7   18 313 
 BAR2 SZ IP       1221 41.52                             170     0.210   24 189 
 BAR2 SZ ES   1   1221 56.10                             170    -0.1 7   24 189 
 BAR2 SZ I        1221 58.01        92.3 0.19                            24 189 
 GIR2 SZ EP       1221 41.55                             167     0.210   30 351 
 GIR2 SZ ES   1   1221 55.58                             167    -0.6 7   30 351 
 RUS  HZ EP       1221 45.48                             142    -0.210  102 176 
 RUS  HN ES   1   1222  3.66                             142    -0.2 7  102 176 
 RUS  HZ I        1222  5.67        35.6 0.24                           102 176 
 GRA  SZ IP       1221 47.32                             136     0.310  125  18 
 GRA  SZ ES   1   1222  7.03                             136     0.7 7  125  18 
 GRA  SZ I        1222  8.05        48.8 0.45                           125  18 
 OCA  SZ EP       1221 49.88                             129    -0.3 9  159 353 
 OCA  SZ ES   1   1222 11.39                             129    -0.4 7  159 353 
 OCA  SZ I        1222 20.29        53.9 0.28                           159 353 
 YOP  SZ EP       1221 51.99                             125    -0.1 9  180 153 
 YOP  SN ES   1   1222 15.55                             125     0.2 7  180 153 
 NOR  SZ IP       1221 57.76                             117    -0.1 8  235 234 
 NOR  SN ES   1   1222 25.21                             117    -0.3 6  235 234 
 CHI  HZ EP       1221 59.59                             116    -0.3 8  250 195 
 CHI  HN ES   1   1222 29.07                             116     0.0 6  250 195 
 CHI  HZ I        1222 33.19        28.1 0.58                           250 195 
 HEL  HZ EP       1222  2.90                             114     0.6 8  272 256 
 HEL  HN ES   2   1222 32.80                             114    -0.6 4  272 256 
 HEL  HZ I        1222 40.92        17.2 0.27                           272 256 
 GUY  SN ES   3   1222 39.82                             111     0.2 2  302 235 
 GUY  SZ I        1222 47.70        37.3 0.31                           302 235 
 VIL  SZ EP   3   1222  6.46                             111     1.0 2  303 190 
 RREF HZ EP       1222  7.97                             110    -0.3 7  322 229 
 RREF HN ES   2   1222 44.16                             110     0.0 3  322 229 
 RREF HZ I        1222 51.27        26.9 0.34                           322 229 
 DBB  SZ EP       1222  9.21                             108    -0.4 7  339 274 
 TOL  SZ EP       1222 11.15                             108     0.7 7  344 224 
 SDV  BZ EP       1222 11.05                             107    -1.1 6  360  50 
                                                                                
