 2013  730 1216 55.2 L   6.811 -73.135150.1  RSN 25 0.5 3.7LRSN 3.9WRSN        1
 SPEC AVERAGE  MO 14.9 ST120.9 OM  3.4 f0 4.27 R0.5454 AL 0.00 WI 45.8 MW  3.9 3
 SPEC SD       MO  0.2 ST177.0 OM  0.3 f0 2.62 R0.3376 AL      WI      MW  0.1 3
 GAP= 71        1.08       2.7     2.9  4.5 -0.6600E+00  0.3210E+01  0.3491E+00E
 Epicentro: LOS SANTOS - SANTANDER                                             3
 SPEC SPBCHH N MO 14.7 ST649.3 OM  3.0 f0 10.0 R0.1554 AL 0.00 WI 48.7 MW  3.8 3
 SPEC SPBCHH N T121744 K 0.000 GD  223 VS 4.20 DE 3.20 Q0300.0 QA 0.60 VS 4.20 3
 SPEC TAM HH N MO 15.1 ST  3.5 OM  3.4 f0 1.31 R1.1863 AL 0.00 WI 50.5 MW  4.0 3
 SPEC TAM HH N T121743 K 0.000 GD  215 VS 4.20 DE 3.20 Q0300.0 QA 0.60 VS 4.20 3
 SPEC SML HH N MO 14.7 ST 76.3 OM  2.8 f0 5.26 R0.2954 AL 0.00 WI 42.9 MW  3.7 3
 SPEC SML HH N T1218 0 K 0.000 GD  285 VS 4.20 DE 3.20 Q0300.0 QA 0.60 VS 4.20 3
 SPEC PTB HH N MO 14.6 ST159.3 OM  2.9 f0 6.88 R0.2259 AL 0.00 WI 48.7 MW  3.7 3
 SPEC PTB HH N T121742 K 0.000 GD  211 VS 4.20 DE 3.20 Q0300.0 QA 0.60 VS 4.20 3
 SPEC RUS HH N MO 14.9 ST  3.5 OM  3.2 f0 1.61 R0.9652 AL 0.00 WI 52.3 MW  3.8 3
 SPEC RUS HH N T121736 K 0.000 GD  181 VS 4.20 DE 3.20 Q0300.0 QA 0.60 VS 4.20 3
 SPEC ORTCHH E MO 15.1 ST 20.2 OM  3.1 f0 2.35 R0.6613 AL 0.00 WI 61.6 MW  4.0 3
 SPEC ORTCHH E T121831 K 0.000 GD  424 VS 4.20 DE 3.20 Q0300.0 QA 0.60 VS 4.20 3
 SPEC NOR HH E MO 14.8 ST127.5 OM  3.0 f0 5.39 R0.2883 AL 0.00 WI 27.6 MW  3.8 3
 SPEC NOR HH E T121758 K 0.000 GD  279 VS 4.20 DE 3.20 Q0300.0 QA 0.60 VS 4.20 3
 SPEC OCA HH N MO 15.2 ST124.0 OM  3.5 f0 3.95 R0.3934 AL 0.00 WI 52.3 MW  4.1 3
 SPEC OCA HH N T121743 K 0.000 GD  218 VS 4.20 DE 3.20 Q0300.0 QA 0.60 VS 4.20 3
 SPEC PAM SH N MO 15.1 ST  7.1 OM  3.5 f0 1.66 R0.9361 AL 0.00 WI 27.6 MW  4.0 3
 SPEC PAM SH N T121733 K 0.000 GD  168 VS 4.20 DE 3.20 Q0300.0 QA 0.60 VS 4.20 3
 SPEC ARGCHH N MO 15.0 ST 16.2 OM  3.0 f0 2.43 R0.6395 AL 0.00 WI 57.5 MW  3.9 3
 SPEC ARGCHH N T121823 K 0.000 GD  388 VS 4.20 DE 3.20 Q0300.0 QA 0.60 VS 4.20 3
 SPEC BRR HH N MO 14.7 ST142.5 OM  3.1 f0 6.16 R0.2523 AL 0.00 WI 34.6 MW  3.8 3
 SPEC BRR HH N T121733 K 0.000 GD  166 VS 4.20 DE 3.20 Q0300.0 QA 0.60 VS 4.20 3
 ACTION:UPD 13-08-12 10:41 OP:ep   STATUS:               ID:20130730121655 L   I
 OLDACT:UP  13-07-30 16:22 OP:cam  STATUS:               ID:20130730120959     3
 OLDACT:UP  13-07-30 16:22 OP:cam  STATUS:               ID:20130730120959     3
 OLDACT:UP  13-07-30 16:21 OP:cam  STATUS:               ID:20130730120959     3
 OLDACT:REG 13-07-30 14:46 OP:cam  STATUS:               ID:20130730120959     3
 2013-07-30-1209-59M.COL___268                                                 6
 STAT SP IPHASW D HRMM SECON CODA AMPLIT PERI AZIMU VELO AIN AR TRES W  DIS CAZ7
 BAR2 SZ IP     C 1217 15.37                             170   -0.0010 24.8 192 
 BAR2 SZ ES       1217 30.78                             170   -0.3410 24.8 192 
 BAR2 SZ I        1217 32.29       786.7 0.32            169           24.8 192 
 GIR2 SZ EP     D 1217 15.50                             168    0.1510 30.3 348 
 GIR2 SZ ES   1   1217 30.93                             168   -0.16 7 30.3 348 
 GIR2 SZ I        1217 32.73       825.7 0.35            166           30.3 348 
 BRR  HZ EP       1217 17.27                             153    0.4310 71.7 297 
 BRR  HN ES       1217 34.72                             153    1.0010 71.7 297 
 BRR  HZ I        1217 37.49       570.5 0.36            150           71.7 297 
 PAM  SZ IP     C 1217 18.10                             152    0.3310 75.7  39 
 PAM  SN ES       1217 35.30                             152   -0.0910 75.7  39 
 PAM  SZ I        1217 37.56      1378.7 0.54            154           75.7  39 
 RUS  HZ IP     D 1217 19.20                             144   -0.2510  102 177 
 RUS  HN ES       1217 38.35                             144   -0.0310  102 177 
 RUS  HZ I        1217 40.58       375.8 0.58            145            102 177 
 PTB  HZ EP       1217 21.85                             133   -0.79 9  149 258 
 PTB  HN ES       1217 43.48                             133   -0.58 9  149 258 
 PTB  HZ I        1217 50.89       831.0 0.36            131            149 258 
 TAM  HZ IP     D 1217 23.55                             132    0.41 9  154 106 
 TAM  HZ I        1217 23.89      1014.5 0.34            135            154 106 
 TAM  HN ES       1217 45.34                             132    0.40 9  154 106 
 OCA  HZ EP       1217 23.42                             131   -0.32 9  159 353 
 OCA  HN ES       1217 45.51                             131   -0.50 9  159 353 
 OCA  HZ I        1217 50.56       530.6 0.36            131            159 353 
 SPBC HZ EP       1217 24.23                             130    0.04 9  165 219 
 SPBC HN ES       1217 46.47                             130   -0.33 9  165 219 
 SPBC HZ I        1217 51.22       756.7 0.28            129            165 219 
 ZAR  HZ EP       1217 27.67                             123   -0.32 9  205 292 
 ZAR  HE ES       1217 53.74                             123    0.17 9  205 292 
 ZAR  HZ I        1218  4.15       606.5 0.38            122            205 292 
 NOR  HZ EP       1217 31.18                             119   -0.17 8  236 234 
 NOR  HE ES   1   1217 59.08                             119   -0.48 6  236 234 
 NOR  HZ I        1218  3.96       296.4 0.34            119            236 234 
 SML  HZ EP       1217 31.28                             118   -0.72 8  243 335 
 SML  HN ES       1218  0.49                             118   -0.22 8  243 335 
 SML  HZ I        1218  7.42       588.4 0.10            118            243 335 
 ROSC BZ EP   4   1217 35.04                             117    1.31 0  254 211 
 ROSC BN ES   4   1218  5.92                             117    2.13 0  254 211 
 HEL  HZ EP       1217 37.10                             115    1.31 8  274 256 
 HEL  HN ES   1   1218  8.13                             115    0.67 6  274 256 
 HEL  HZ I        1218 14.10       293.0 0.38            115            274 256 
 GUY2CHZ EP   1   1217 39.57                             113    0.38 5  303 235 
 VIL  SZ EP   4   1217 37.96                             113   -1.01 0  305 192 
 VIL  SN ES   4   1218 12.43                             113   -0.69 0  305 192 
 VIL  SZ I        1218 18.36       330.3 0.48            113            305 192 
 RREF HZ EP       1217 41.66                             111   -0.06 7  323 229 
 RREF HN ES   4   1218 20.74                             111    2.73 0  323 229 
 DBB  SZ EP       1217 42.97                             110   -0.00 7  341 274 
 DBB  SZ ES       1218 20.34                             110    0.10 7  341 274 
 DBB  SZ I        1218 21.91       223.3 0.72            110            341 274 
 ARGC HZ EP   1   1217 46.31                             109    1.38 5  358 340 
 ARGC HE ES   1   1218 24.26                             109    0.54 5  358 340 
 ARGC HZ I        1218 36.37       101.4 0.30            109            358 340 
 SDV  BZ EP       1217 44.62                             109   -0.58 6  359  50 
 SDV  BN ES   4   1218 21.80                             109   -2.41 0  359  50 
 PRA  HZ EP       1217 48.38                             107   -0.68 6  394 210 
 PRA  HN ES   1   1218 31.98                             107    0.91 4  394 210 
 PRA  HZ I        1218 36.85       267.4 0.66            107            394 210 
 ORTC HZ EP       1217 49.50                             107    0.04 6  397 216 
 ORTC HE ES   1   1218 32.12                             107    0.33 4  397 216 
 ORTC HZ I        1218 40.09       195.3 0.36            107            397 216 
 PAL  HZ EP   4   1217 51.32                             106    0.63 0  407 239 
 PAL  HZ I        1218  0.75       111.2 0.12            106            407 239 
 PAL  HN ES   4   1218 35.39                             106    1.41 0  407 239 
 SJC  HZ EP   4   1217 49.20                             106   -1.65 0  409 327 
 SJC  HN ES   4   1218 30.89                             106   -3.38 0  409 327 
 SJC  HZ I        1218 35.09       114.4 0.44            106            409 327 
 CVALLEZ EP   4   1217 49.22                             106   -1.62 0  409 358 
 GUA  SZ EP   4   1217 57.59                             104   -1.00 0  475 173 
 GUA  SE ES   4   1218 46.73                             104   -1.31 0  475 173 
 GUA  SZ I        1218 50.62       141.4 0.32            104            475 173 
 SMAR HZ EP   4   1218  0.79                             103   -0.28 0  496 346 
 SMAR HN ES   4   1218 48.64                             103   -3.81 0  496 346 
 SMAR HZ I        1218 54.72        96.0 0.36            103            496 346 
                                                                                
