 2016  530 1236 27.0 L   6.811 -73.188134.5  RSN  4 0.2 1.3LRSN                1
 GAP=145        0.55       3.2     3.1  4.6 -0.3075E+01  0.4222E+01 -0.1433E+01E
 Epicentro: ZAPATOCA - SANTANDER                                               3
 ACTION:UPD 16-08-18 17:50 OP:cam  STATUS:               ID:20160530123627 L   I
 OLDACT:REG 16-05-30 20:05 OP:cara STATUS:               ID:20160530122744     3
 2016-05-30-1227-44M.COL___310                                                 6
 STAT SP IPHASW D HRMM SECON CODA AMPLIT PERI AZIMU VELO AIN AR TRES W  DIS CAZ7
 BAR2 EZ EP       1236 45.13                             169   -0.1910 24.2 179 
 BAR2 EZ ES       1236 59.84                             169    0.2510 24.2 179 
 BAR2 EZ I        1237  0.86         7.4 0.36            170           24.2 179 
 PAM  EZ IP       1236 48.24                             148    0.0610 79.5  43 
 PAM  EN ES       1237  4.59                             148   -0.1010 79.5  43 
 PAM  EZ I        1237  5.28         4.5 0.44            150           79.5  43 
 RUS  HZ EP       1236 49.72                             141   -0.0910  102 173 
 RUS  HN ES       1237  7.55                             141   -0.0310  102 173 
 RUS  HZ I        1237  7.94         1.4 0.30            143            102 173 
 PTB  HZ EP       1236 53.04                             130    0.35 9  143 258 
 PTB  HN ES       1237 12.47                             130   -0.24 9  143 258 
 PTB  HZ I        1237 15.58         5.9 0.30            131            143 258 
                                                                                
