 2017  730 1524 42.4 L   6.774 -73.133144.9  RSN  9 0.4 1.6LRSN                1
 GAP=219        0.85       4.3     4.6  5.7  0.6294E+01  0.3102E+01  0.3906E+01E
 Epicentro: LOS SANTOS - SANTANDER                                             3
 ACTION:UPD 17-08-30 15:38 OP:rebc STATUS:               ID:20170730152442 L   I
 OLDACT:UP  17-07-31 00:38 OP:and  STATUS:               ID:20170730151749d    3
 OLDACT:UP  17-07-31 00:38 OP:and  STATUS:               ID:20170730151749d    3
 OLDACT:UP  17-07-31 00:38 OP:and  STATUS:               ID:20170730151749d    3
 OLDACT:UP  17-07-31 00:37 OP:and  STATUS:               ID:20170730151749d    3
 OLDACT:DUP 17-07-31 00:35 OP:and  STATUS:               ID:20170730151749d    3
 OLDACT:UP  17-07-31 00:32 OP:and  STATUS:               ID:20170730151747     3
 OLDACT:UP  17-07-31 00:31 OP:and  STATUS:               ID:20170730151747     3
 OLDACT:UP  17-07-31 00:31 OP:and  STATUS:               ID:20170730151747     3
 OLDACT:UP  17-07-31 00:31 OP:and  STATUS:               ID:20170730151747     3
 OLDACT:UP  17-07-31 00:31 OP:and  STATUS:               ID:20170730151747     3
 OLDACT:UP  17-07-31 00:31 OP:and  STATUS:               ID:20170730151747     3
 OLDACT:UP  17-07-31 00:30 OP:and  STATUS:               ID:20170730151747     3
 OLDACT:UP  17-07-31 00:30 OP:and  STATUS:               ID:20170730151747     3
 OLDACT:REG 17-07-30 21:20 OP:and  STATUS:               ID:20170730151747     3
 2017-07-30-1518-00M.COL___392                                                 6
 STAT SP IPHASW D HRMM SECON CODA AMPLIT PERI AZIMU VELO AIN AR TRES W  DIS CAZ7
 BAR2 EZ EP       1525  1.81                             171   -0.0810 20.8 195 
 BAR2 EZ ES       1525 16.64                             171   -0.4410 20.8 195 
 BAR2 EZ I        1525 19.63        11.7 0.28            169           20.8 195 
 BRR  HZ EP       1525  3.57                             151   -0.0510 73.8 300 
 BRR  HN ES       1525 20.67                             151    0.5210 73.8 300 
 RUS  HZ EP       1525  6.10                             144    0.2410 97.6 177 
 RUS  HN ES       1525 24.37                             144    0.2210 97.6 177 
 RUS  HZ I        1525 25.69         8.4 0.36            145           97.6 177 
 PTB  HZ EP   2   1525  8.90                             132   -0.48 5  149 260 
 PTB  HN ES   2   1525 29.45                             132   -0.97 5  149 260 
 PTB  HZ I        1525 31.77         2.3 0.13            130            149 260 
 SPBC HZ EP       1525 11.01                             129    0.30 9  162 220 
 SPBC HN ES       1525 32.61                             129   -0.18 9  162 220 
 SPBC HZ I        1525 35.24         7.2 0.30            128            162 220 
 ZAR  HZ EP   2   1525 16.08                             122    1.03 4  206 293 
 ZAR  HN ES       1525 40.07                             122   -0.43 8  206 293 
 ZAR  HZ I        1525 48.75         4.0 0.18            121            206 293 
 NOR  HN ES       1525 46.14                             118    0.32 8  234 235 
 NOR  HZ I        1525 51.34         3.2 0.18            118            234 235 
 GUY2CHZ EP   2   1525 25.68                             112   -0.24 4  301 235 
 GUY2CHN ES   4   1526  2.15                             112    2.29 0  301 235 
 GUY2CHZ I        1526  7.02         2.3 0.34                           301 235 
 PTGC HZ IP     D 1525 25.37                             112   -0.49 7  305 159 
                                                                                
