 2017  330 1630 53.5 L   6.853 -73.313117.8  RSN 10 0.4 2.0LRSN                1
 GAP=109        1.09       3.4     3.7  6.3 -0.4000E+00  0.6479E+01  0.6118E+01E
 Epicentro: BETULIA - SANTANDER                                                3
 ACTION:UPD 17-05-25 18:47 OP:jn   STATUS:               ID:20170330163053 L   I
 OLDACT:UP  17-03-30 22:05 OP:dnl  STATUS:               ID:20170330162745     3
 OLDACT:REG 17-03-30 20:54 OP:dnl  STATUS:               ID:20170330162745     3
 2017-03-30-1628-00M.COL___365                                                 6
 STAT SP IPHASW D HRMM SECON CODA AMPLIT PERI AZIMU VELO AIN AR TRES W  DIS CAZ7
 BAR2 EZ IP     D 1631  9.79                             164   -0.2710 32.2 153 
 BAR2 EZ ES       1631 23.50                             164    0.5410 32.2 153 
 BAR2 EZ I        1631 24.16        79.9 0.38            164           32.2 153 
 BRR  HZ IP     D 1631 10.20                             154   -0.3810 52.3 303 
 BRR  HE ES       1631 24.34                             154    0.4410 52.3 303 
 BRR  HZ I        1631 25.11        22.6 0.12            154           52.3 303 
 PAM  EZ EP       1631 13.31                             142   -0.2010 86.5  52 
 PAM  EE ES       1631 28.97                             142   -0.1410 86.5  52 
 PAM  EZ I        1631 31.94        13.1 0.30            144           86.5  52 
 RUS  HZ EP       1631 14.87                             135   -0.5010  109 167 
 RUS  HE ES       1631 32.46                             135    0.0510  109 167 
 RUS  HZ I        1631 33.31        12.9 0.20            135            109 167 
 PTB  HZ EP   4   1631 15.10                             128   -1.63 0  131 255 
 PTB  HE ES       1631 33.84                             128   -0.9910  131 255 
 PTB  HZ I        1631 37.59        14.9 0.10            128            131 255 
 SPBC HZ EP       1631 20.01                             123    0.60 9  157 212 
 SPBC HN ES       1631 39.31                             123   -0.30 9  157 212 
 SPBC HZ I        1631 42.06        19.4 0.10            123            157 212 
 ZAR  HZ EP       1631 22.70                             118    0.50 9  185 293 
 ZAR  HE ES       1631 44.93                             118    0.35 9  185 293 
 ZAR  HZ I        1631 48.24        14.0 0.24            118            185 293 
 NOR  HZ EP       1631 26.93                             113    0.39 8  224 230 
 NOR  HE ES       1631 52.05                             113   -0.25 8  224 230 
 NOR  HZ I        1631 57.80         8.8 0.36            113            224 230 
 CHI  HZ EP       1631 29.77                             111   -0.24 8  250 191 
 CHI  HN ES       1631 59.05                             111    0.58 8  250 191 
 CHI  HZ I        1632  3.79         3.3 0.54            111            250 191 
 PRA  HZ EP   2   1631 45.81                             101    0.02 3  388 207 
 PRA  HE ES       1632 26.93                             101    0.37 6  388 207 
 PRA  HZ I        1632 31.23         2.2 0.22            102            388 207 
                                                                                
