 2012 1030 1121 55.6 L   6.787 -73.085147.0  RSN  4 0.2 1.9LRSN                1
 GAP=243        0.53       6.1     6.8  5.0  0.3332E+02 -0.6848E+00 -0.7403E+01E
 Epicentro: LOS SANTOS - SANTANDER                                             3
 ACTION:UPD 12-11-22 17:06 OP:ep   STATUS:               ID:20121030112155 L   I
 2012-10-30-1120-00M.COL___230                                                 6
 STAT SP IPHASW D HRMM SECON CODA AMPLIT PERI AZIMU VELO AIN AR TRES W  DIS CAZ7
 BAR2 SZ EP       1122 15.46                             170    0.0510 24.1 207 
 BAR2 SZ ES       1122 30.50                             170   -0.3510 24.1 207 
 BRR  HZ EP       1122 17.33                             150    0.0510 77.8 297 
 BRR  HN ES   1   1122 34.61                             150    0.43 7 77.8 297 
 BRR  HN I        1122 34.91        28.6 0.16                          77.8 297 
 RUS  HZ EP   1   1122 19.40                             144    0.03 7 98.9 180 
 RUS  HN ES       1122 38.02                             144    0.1310 98.9 180 
 RUS  HN I        1122 38.59         4.7 0.20                          98.9 180 
 ZAR  HZ EP   1   1122 28.71                             122   -0.13 6  211 292 
 ZAR  HN ES       1122 54.64                             122   -0.12 8  211 292 
 ZAR  HN I        1122 59.78        10.3 0.18                           211 292 
                                                                                
