 2012 1130 1011  2.0 L   6.797 -73.173147.0  RSN 10 0.3 2.1LRSN                1
 GAP= 70        0.59       2.7     2.7  3.8 -0.5271E+00  0.2565E+01  0.6069E+00E
 Epicentro: LOS SANTOS - SANTANDER                                             3
 ACTION:UPD 12-12-05 15:37 OP:}ep  STATUS:               ID:20121130101102 L   I
 2012-11-30-1010-00M.COL___236                                                 6
 STAT SP IPHASW D HRMM SECON CODA AMPLIT PERI AZIMU VELO AIN AR TRES W  DIS CAZ7
 BAR2 SZ EP       1011 21.85                             171    0.0510 22.7 183 
 BAR2 SZ ES       1011 37.44                             171    0.2210 22.7 183 
 BAR2 SZ I        1011 39.44        39.5 0.18                          22.7 183 
 GIR2 SZ EP       1011 21.95                             167    0.0910 31.2 356 
 PAM  SZ EP       1011 24.71                             150    0.1910 79.6  41 
 PAM  SN ES       1011 42.01                             150   -0.0310 79.6  41 
 PAM  SZ I        1011 44.43        21.7 0.50                          79.6  41 
 RUS  HZ EP       1011 25.79                             144   -0.1210  101 174 
 RUS  HE ES       1011 44.22                             144   -0.3010  101 174 
 RUS  HE I        1011 46.56        26.5 0.47                           101 174 
 PTB  HZ EP       1011 28.52                             133   -0.32 9  145 259 
 PTB  HE ES   1   1011 49.88                             133    0.14 7  145 259 
 PTB  HZ I        1011 57.19        18.1 0.32                           145 259 
 TAM  HZ EP       1011 29.99                             130   -0.09 9  158 105 
 ZAR  HZ EP   1   1011 34.01                             123   -0.28 6  201 293 
 ZAR  HE ES   1   1011 59.12                             123   -0.33 6  201 293 
 ZAR  HZ I        1012  5.67        12.1 0.19                           201 293 
 CHI  HZ EP   1   1011 39.62                             117   -0.07 6  248 195 
 CHI  HN ES   1   1012  9.46                             117    0.40 6  248 195 
 HEL  HZ EP   1   1011 42.87                             115    0.88 6  269 256 
 HEL  HZ I        1012 20.51         8.0 0.45                           269 256 
 PRA  HZ EP   1   1011 55.57                             107    0.17 4  390 209 
 PRA  HZ I        1012 43.57         2.6 0.40                           390 209 
                                                                                
