 2014  930 1043 28.9 L   6.700 -73.190144.7  RSN  4 0.1 1.5LRSN                1
 GAP=228        0.34       4.1     2.7  3.4  0.5205E+01  0.3716E+01  0.3207E+01E
 Epicentro: VILLANUEVA - SANTANDER                                             3
 ACTION:UPD 14-10-03 23:10 OP:nd   STATUS:               ID:20140930104328 L   I
 OLDACT:UP  14-09-30 21:03 OP:cam  STATUS:               ID:20140930104000     3
 OLDACT:REG 14-09-30 20:12 OP:cam  STATUS:               ID:20140930104000     3
 2014-09-30-1040-00M.COL___252                                                 6
 STAT SP IPHASW D HRMM SECON CODA AMPLIT PERI AZIMU VELO AIN AR TRES W  DIS CAZ7
 BAR2 SZ EP       1043 48.29                             175    0.0910 11.9 176 
 BAR2 SZ ES       1044  3.19                             175   -0.0910 11.9 176 
 BAR2 SZ I        1044  5.92         5.2 0.24            175           11.9 176 
 BRR  HN ES       1044  6.57                             152    0.0510 73.2 308 
 BRR  HN I        1044  7.88        18.4 0.20            151           73.2 308 
 PTB  HZ EP       1043 55.09                             133   -0.07 9  141 263 
 PTB  HN ES       1044 15.73                             133    0.06 9  141 263 
 PTB  HZ I        1044 18.47         1.6 0.16            133            141 263 
 ZAR  HE ES       1044 26.45                             122   -0.06 9  204 296 
 ZAR  HZ I        1044 31.34         2.6 0.28            123            204 296 
                                                                                
