 2012  730 1349 49.1 L   7.472 -73.083154.5  RSN  6 0.4 1.9LRSN                1
 GAP=198        0.77       7.5     6.3  8.9  0.7133E+01  0.7340E+01 -0.5071E+00E
 Epicentro: EL PLAYON - SANTANDER                                              3
 ACTION:UPD 12-08-14 11:46 OP:ep   STATUS:               ID:20120730134949 L   I
 2012-07-30-1338-39M.COL___208                                                 6
 STAT SP IPHASW D HRMM SECON CODA AMPLIT PERI AZIMU VELO AIN AR TRES W  DIS CAZ7
 PAM  SZ EP   1   1350 10.56                             163    -0.2 7   45 109 
 PAM  SN ES   2   1350 27.10                             163    -0.5 5   45 109 
 PAM  SZ I        1350 28.56         8.3 0.20            164             45 109 
 BRR  HZ IP     D 1350 11.83                             151     0.110   80 240 
 BRR  HN ES   2   1350 30.26                             151     0.9 5   80 240 
 BRR  HZ I        1350 31.34        18.4 0.16            151             80 240 
 BAR2 SZ IP       1350 13.38                             146     0.210   98 186 
 BAR2 SZ ES   2   1350 32.43                             146     0.5 5   98 186 
 BAR2 SZ I        1350 35.37        12.4 0.38            146             98 186 
 RUS  HZ EP       1350 20.06                             129     0.2 9  175 180 
 RUS  HN ES   1   1350 43.34                             129    -0.6 7  175 180 
 PTB  HZ EP       1350 19.96                             127    -0.1 9  183 236 
 PTB  HN ES   2   1350 43.86                             127    -0.4 4  183 236 
 ZAR  HN ES   2   1350 45.89                             125    -0.5 4  196 271 
