 2011  330 1845 12.4 L   6.610 -74.194 64.6  RSN 15 0.4 2.9LRSN                1
 GAP=107        0.96       4.4     3.6 12.5 -0.8460E+01  0.1381E+02  0.1004E+02E
 Epicentro: PUERTO PARRA - SANTANDER                                           3
 ACTION:UP  11-06-16 14:36 OP:jfem STATUS:               ID:20110330184512 L   I
 2011-03-30-1843-39S.COL___138                                                 6
 STAT SP IPHASW D HRMM SECON CODA AMPLIT PERI AZIMU VELO SNR AR TRES W  DIS CAZ7
 BRR  HZ EP       1845 26.05                             123    -0.310   77  44 
 BRR  HN ES   1   1845 37.61                             123     0.4 7   77  44 
 BRR  HZ I        1845 40.54       307.4 0.12                            77  44 
 BTL  SZ IP       1845 30.11                             114     0.110  108  72 
 BTL  SZ ES   2   1845 44.20                             114     0.4 5  108  72 
 BAR2 SZ IP       1845 30.27                             113    -0.210  112  91 
 BAR2 SZ ES   1   1845 44.18                             113    -0.3 7  112  91 
 BAR2 SZ I        1845 46.82       339.9 0.36                           112  91 
 GIR2 SZ IP       1845 31.31                             110    -0.210  122  65 
 GIR2 SZ ES   1   1845 46.49                             110     0.1 7  122  65 
 NOR  SZ EP       1845 32.63                             107    -0.6 9  138 213 
 NOR  SN ES   2   1845 49.00                             107    -0.5 5  138 213 
 HEL  HZ EP   1   1845 35.02                             105    -0.6 7  155 253 
 HEL  HN ES   2   1845 54.54                             105     0.8 5  155 253 
 HEL  HZ I        1845 55.55       128.2 0.21                           155 253 
 PAM  SZ EP   1   1845 38.85                             102    -0.4 7  184  64 
 PAM  SE ES   2   1845 59.92                             102    -0.3 4  184  64 
 GUE  SZ EP   1   1845 39.90                             101    -0.4 6  195  46 
 GUY  SZ EP       1845 41.60                             101     0.3 9  201 220 
 GUY  SZ I        1846 12.98       102.7 0.39                           201 220 
 OCA  SZ EP   2   1845 41.05                             100    -0.3 4  204  28 
 OCA  SZ I        1846  6.84        68.4 0.43                           204  28 
 GRA  SZ EP       1845 42.57                             100     0.7 8  208  47 
 GRA  SZ I        1846 27.51       103.6 0.30                           208  47 
 CHI  HZ EP   2   1845 44.45                              99     0.3 4  225 167 
 CHI  HN ES   2   1846  9.63                              99     0.7 4  225 167 
 CHI  HZ I        1846 12.66        33.8 0.36                           225 167 
 DBB  SZ EP   1   1845 44.52                              99     0.5 6  227 282 
 RREF HZ IP     C 1845 45.21                              99     0.4 8  228 214 
 RREF HZ I        1846 16.40        66.3 0.34                           228 214 
 YOP  SZ EP   2   1845 46.04                              98     0.4 4  241 125 
 YOP  SE ES   2   1846 12.46                              98     0.8 4  241 125 
 YOP  SZ I        1846 17.47        68.0 0.72                           241 125 
                                                                                
