 2010  730 1206  4.6 L   6.773 -73.081143.7  RSN  6 0.1 1.8LRSN                1
 GAP=166        0.33       2.3     5.3  4.0 -0.1145E+01 -0.6645E+01 -0.1016E+01E
 Epicentro: LOS SANTOS - SANTANDER                                             3
 ACTION:UPD 10-12-01 15:21 OP:pat  STATUS:               ID:20100730120604 L   I
 2010-07-30-1201-52S.COL___123                                                 6
 STAT SP IPHASW D HRMM SECON CODA AMPLIT PERI AZIMU VELO AIN AR TRES W  DIS CAZ7
 BAR2 SZ IP     C 12 6 23.97                             170     0.010   23 210 
 BAR2 SZ ES   2   12 6 38.97                             170    -0.1 5   23 210 
 GIR2 SZ EP   1   12 6 24.05                             165    -0.1 7   36 340 
 GIR2 SZ ES   2   12 6 39.28                             165    -0.2 5   36 340 
 BRR  HZ EP   1   12 6 25.96                             150     0.0 7   79 298 
 BRR  HN ES   2   12 6 42.90                             150     0.2 5   79 298 
 BRR  HZ I        12 6 44.52        15.3 0.18                            79 298 
 RUS  HZ EP   1   12 6 28.02                             144     0.1 7   97 180 
 RUS  HN ES   2   12 6 46.20                             144     0.1 5   97 180 
 RUS  HZ I        12 6 47.58         7.8 0.25                            97 180 
 GUE  SZ EP   1   12 6 29.12                             138    -0.1 7  118   8 
 GRA  SZ EP   1   12 6 29.90                             136     0.1 7  127  14 
 GRA  SZ ES   2   12 6 49.56                             136     0.2 5  127  14 
 GRA  SZ I        12 6 50.74        11.0 0.30                           127  14 
                                                                                
