 2010  830 1845 26.5 L   6.780 -73.122138.1  RSN 10 0.5 2.2LRSN                1
 GAP=161        1.16       4.3     8.7  7.6 -0.4177E+01 -0.7608E+01 -0.2552E+01E
 Epicentro: LOS SANTOS - SANTANDER                                             3
 ACTION:UP  10-09-07 10:59 OP:vdl  STATUS:               ID:20100830184526 L   I
 2010-08-30-1843-48S.COL___120                                                 6
 STAT SP IPHASW D HRMM SECON CODA AMPLIT PERI AZIMU VELO SNR AR TRES W  DIS CAZ7
 BAR2 SZ EP   1   1845 45.11                             171    -0.1 7   22 198 
 BTL  SZ EP       1845 45.30                             170     0.110   22 313 
 BTL  SZ ES   1   1845 59.41                             170    -0.4 7   22 313 
 BAR2 SZ ES   1   1845 59.39                             171    -0.4 7   22 198 
 BAR2 SZ I        1846  0.80        50.9 0.21                            22 198 
 BRR  HZ EP       1845 47.14                             149     0.110   75 299 
 BRR  HE ES       1846  3.76                             149     0.710   75 299 
 BRR  HZ I        1846  8.26        39.0 0.24                            75 299 
 RUS  HZ EP   1   1845 48.98                             143    -0.4 7   98 178 
 RUS  HN ES       1846  7.41                             143     0.210   98 178 
 RUS  HZ I        1846  9.04        32.9 0.31                            98 178 
 GUE  SZ EP       1845 51.27                             137     0.610  118  11 
 GUE  SZ I        1846 16.85         9.2 0.14                           118  11 
 GRA  SZ IP       1845 51.20                             135     0.010  127  16 
 GRA  SZ ES   1   1846 10.23                             135    -0.2 7  127  16 
 GRA  SZ I        1846 12.03        32.7 0.40                           127  16 
 OCA  SZ EP   1   1845 54.11                             127    -0.4 7  163 352 
 OCA  SZ ES   1   1846 15.22                             127    -1.1 7  163 352 
 OCA  SZ I        1846 19.71        30.3 0.16                           163 352 
 CHI  HZ EP   1   1846  3.47                             116    -0.2 6  247 196 
 CHI  HE ES   2   1846 31.82                             116    -0.8 4  247 196 
 CHI  HZ I        1846 36.04         9.3 0.50                           247 196 
 HEL  HZ EP   2   1846  7.61                             113     1.0 4  274 256 
 HEL  HE ES   2   1846 36.96                             113    -0.9 4  274 256 
 HEL  HZ I        1846 44.21        11.2 0.45                           274 256 
 PRA  HZ EP   2   1846 19.19                             105    -0.5 3  391 210 
 PRA  HZ I        1846 21.33         6.3 0.23                           391 210 
                                                                                
