 2016 1030 1951 22.6 L   6.049 -73.893  1.7  RSN 13 0.7 1.7LRSN                1
 GAP=103        1.81       3.6     3.2  8.1 -0.3624E+01  0.4500E+01  0.2456E-01E
 Epicentro: EL PENON - SANTANDER                                               3
 ACTION:UPD 16-11-09 19:24 OP:rebc STATUS:               ID:20161030195122 L   I
 OLDACT:UP  16-10-31 00:09 OP:edw  STATUS:               ID:20161030194745     3
 OLDACT:REG 16-10-30 20:36 OP:edw  STATUS:               ID:20161030194745     3
 2016-10-30-1948-00M.COL___325                                                 6
 STAT SP IPHASW D HRMM SECON CODA AMPLIT PERI AZIMU VELO AIN AR TRES W  DIS CAZ7
 SPBC HZ EP       1951 31.01                              47    0.0510 48.2 204 
 SPBC HN ES       1951 37.44                              47   -0.0010 48.2 204 
 SPBC HZ I        1951 38.22        33.3 0.10             47           48.2 204 
 PTB  HZ IP     D 1951 34.77                              47   -1.3310 82.6 311 
 PTB  HN ES       1951 47.19                              47    0.6010 82.6 311 
 PTB  HZ I        1951 47.26        31.5 0.06             47           82.6 311 
 RUS  HZ EP       1951 38.41                              47    0.4910 91.3 101 
 RUS  HN ES       1951 49.85                              47    0.0310 91.3 101 
 RUS  HZ I        1951 51.46         7.6 0.18             47           91.3 101 
 BAR2 EZ EP       1951 38.87                              47    0.0610 99.0  53 
 BAR2 EZ ES       1951 49.80                              47   -1.6110 99.0  53 
 BAR2 EZ I        1951 54.58        12.0 0.34             47           99.0  53 
 BRR  HZ EP       1951 41.58                              47    0.0310  119  10 
 BRR  HE ES       1951 57.42                              47    1.1210  119  10 
 BRR  HZ I        1951 59.81        23.1 0.12             47            119  10 
 NOR  HZ EP       1951 41.71                              47   -0.2010  121 244 
 NOR  HN ES       1951 56.23                              47   -0.7010  121 244 
 NOR  HZ I        1951 56.42        31.2 0.22             47            121 244 
 CHI  HZ EP   4   1951 51.97                              47    4.04 0  158 173 
 CHI  HN ES   4   1952 13.40                              47    5.74 0  158 173 
 HEL  HZ EP   4 D 1951 50.06                              37   -1.39 0  182 275 
 HEL  HN ES   4   1952 10.52                              37   -3.39 0  182 275 
 HEL  HZ I        1952 12.47        15.8 0.20             47            182 275 
 GUY2CHZ EP       1951 52.57                              37    0.36 9  187 241 
 GUY2CHN ES   4   1952 13.98                              37   -1.29 0  187 241 
 GUY2CHZ I        1952 18.93         6.7 0.46                           187 241 
 PAM  EZ EP       1951 54.21                              37    1.04 9  194  43 
 PAM  EN ES   4   1952 18.91                              37    1.93 0  194  43 
 PAM  EZ I        1952 20.10        10.5 0.50             37            194  43 
 ELA  HZ EP   4   1951 57.40                              37    1.91 0  213 232 
 ELA  HN ES       1952 21.66                              37    0.56 8  213 232 
 ELA  HZ I        1952 24.34         6.4 0.20             37            213 232 
 CBOC HZ EP   4   1951 59.35                              37    1.42 0  236 265 
 CBOC HN ES       1952 25.71                              37    0.26 8  236 265 
 ORTC HN ES   4   1952 38.83                              37    3.72 0  280 212 
 PRA  HZ EP   4   1952  6.48                              37    3.05 0  281 203 
 PRA  HN ES   4   1952 40.72                              37    5.49 0  281 203 
 PRA  HZ I        1952 44.73         4.2 0.30             37            281 203 
 SJC  HZ EP   2   1952 23.71                              36   -0.47 3  449 342 
 SJC  HN ES   2   1953 10.56                              36   -1.62 3  449 342 
                                                                                
