 2016  730 1207 16.7 L   6.777 -73.174143.7  RSN  7 0.2 1.7LRSN                1
 GAP=233        0.63       3.1     3.2  4.3  0.2704E+01  0.3649E+01  0.2101E+01E
 Epicentro: LOS SANTOS - SANTANDER                                             3
 ACTION:UPD 17-03-29 16:56 OP:lp   STATUS:               ID:20160730120716 L   I
 OLDACT:DUP 16-07-30 22:23 OP:edw  STATUS:               ID:20160730115760d    3
 OLDACT:UP  16-07-30 22:20 OP:edw  STATUS:               ID:20160730115759     3
 OLDACT:REG 16-07-30 20:23 OP:edw  STATUS:               ID:20160730115759     3
 2016-07-30-1157-59S.COL___346                                                 6
 STAT SP IPHASW D HRMM SECON CODA AMPLIT PERI AZIMU VELO AIN AR TRES W  DIS CAZ7
 BAR2 EZ EP       12 7 35.82                             171   -0.2210 20.5 182 
 BAR2 EZ ES       12 7 51.10                             171   -0.0210 20.5 182 
 BRR  HZ EP       12 7 37.65                             153    0.0910 69.7 302 
 BRR  HN ES       12 7 54.18                             153    0.3710 69.7 302 
 RUS  HZ EP       12 7 40.16                             144    0.0610 98.4 174 
 RUS  HN ES       12 7 58.15                             144   -0.1910 98.4 174 
 RUS  HZ I        12 7 59.54         6.4 0.26            145           98.4 174 
 PTB  HZ EP       12 7 42.78                             132   -0.41 9  144 260 
 PTB  HN ES       12 8  3.72                             132   -0.12 9  144 260 
 PTB  HZ I        12 8  5.50         5.8 0.42            131            144 260 
 SPBC HZ EP       12 7 45.16                             129    0.48 9  159 219 
 SPBC HN ES       12 8  6.51                             129    0.01 9  159 219 
 SPBC HZ I        12 8  9.22        11.2 0.26            129            159 219 
 ZAR  HZ EP   4   12 7 46.69                             122   -2.13 0  202 293 
 ZAR  HN ES       12 8 13.62                             122   -0.25 9  202 293 
 ZAR  HZ I        12 8 19.21         3.2 0.26            122            202 293 
 NOR  HZ EP       12 7 52.05                             118    0.16 8  231 235 
 NOR  HE ES       12 8 19.40                             118    0.07 8  231 235 
                                                                                
