 2014  530 1501 59.7 L   6.818 -73.130153.0  RSN  4 0.4 1.7LRSN                1
 GAP=202        0.96       6.8     9.8  9.7  0.4450E+02 -0.1144E+02 -0.3121E+02E
 Epicentro: LOS SANTOS - SANTANDER                                             3
 ACTION:UPD 15-03-16 17:02 OP:nd   STATUS:               ID:20140530150159 L   I
 OLDACT:REG 14-05-30 20:36 OP:stll STATUS:               ID:20140530145818     3
 2014-05-30-1458-18M.COL___256                                                 6
 STAT SP IPHASW D HRMM SECON CODA AMPLIT PERI AZIMU VELO AIN AR TRES W  DIS CAZ7
 BAR2 SZ EP       15 2 20.45                             170    0.1610 25.6 193 
 BAR2 SZ I        15 2 20.96         8.6 0.18            173           25.6 193 
 BAR2 SZ ES       15 2 36.73                             170    0.4210 25.6 193 
 RUS  HZ EP       15 2 24.63                             145    0.2910  102 177 
 RUS  HN ES       15 2 42.81                             145   -0.7110  102 177 
 RUS  HZ I        15 2 44.22         4.0 0.36            150            102 177 
 ZAR  HN ES       15 2 58.61                             124    0.11 9  205 291 
 ZAR  HZ I        15 3  4.54         8.3 0.24            124            205 291 
 SML  HZ EP       15 2 36.71                             119    0.04 8  243 335 
 SML  HN ES       15 3  5.05                             119   -0.43 8  243 335 
 SML  HZ I        15 3 15.34         6.2 0.24            119            243 335 
                                                                                
