 2013  130 1642 44.1 L   6.781 -73.160144.3  RSN  6 0.5 2.1LRSN 2.6WRSN        1
 SPEC AVERAGE  MO 13.0 ST  1.7 OM  2.0 f0 4.76 R0.3189 AL 2.33 WI 13.1 MW  2.6 3
 SPEC SD       MO  0.1 ST0.908 OM  0.8 f00.881 R0.0564 AL      WI      MW  0.0 3
 GAP=136        1.15       5.3     5.9  7.7 -0.2835E+01  0.4776E+01  0.9672E+01E
 Epicentro: LOS SANTOS - SANTANDER                                             3
 SPEC RUS HH N MO 12.9 ST0.695 OM  1.3 f0 3.87 R0.3798 AL 2.37 WI  8.6 MW  2.6 3
 SPEC RUS HH N T164325 K 0.000 GD  174 VS 4.20 DE 3.20 Q0300.0 QA 0.60 VS 4.20 3
 SPEC PAM SH Z MO 13.0 ST0.863 OM  0.6 f0 4.01 R0.3666 AL 1.67 WI 16.7 MW  2.6 3
 SPEC PAM SH Z T1643 6 K 0.000 GD  165 VP 7.60 DE 3.20 Q0300.0 QA 0.60 VS 4.20 3
 SPEC BRR HH N MO 13.1 ST  2.4 OM  1.5 f0 5.16 R0.2849 AL 3.04 WI 18.3 MW  2.7 3
 SPEC BRR HH N T164322 K 0.000 GD  160 VS 4.20 DE 3.20 Q0300.0 QA 0.60 VS 4.20 3
 SPEC BAR2SH Z MO 13.0 ST  2.7 OM  1.4 f0 6.02 R0.2442 AL 2.25 WI  9.0 MW  2.6 3
 SPEC BAR2SH Z T164317 K 0.000 GD  145 VS 4.20 DE 3.20 Q0300.0 QA 0.60 VS 4.20 3
 ACTION:UPD 13-02-15 09:18 OP:ep   STATUS:               ID:20130130164244 L   I
 2013-01-30-1638-42M.COL___202                                                 6
 STAT SP IPHASW D HRMM SECON CODA AMPLIT PERI AZIMU VELO AIN AR TRES W  DIS CAZ7
 BAR2 SZ EP       1643  3.49                             171   -0.0610 21.0 187 
 BAR2 SZ ES       1643 18.46                             171   -0.2310 21.0 187 
 BAR2 SZ I        1643 19.97        43.5 0.18            170           21.0 187 
 BRR  HZ EP       1643  5.42                             152    0.3110 70.8 301 
 BRR  HN ES       1643 22.41                             152    0.9410 70.8 301 
 BRR  HN I        1643 25.69        32.2 0.20            150           70.8 301 
 PAM  SZ EP       1643  6.32                             150   -0.0510 80.1  39 
 PAM  SZ I        1643  6.60        13.3 0.22            153           80.1  39 
 PAM  SN ES       1643 23.43                             150   -0.2710 80.1  39 
 RUS  HZ EP       1643  7.58                             144   -0.0310 98.6 175 
 RUS  HN ES       1643 25.83                             144   -0.0810 98.6 175 
 RUS  HE I        1643 27.39        21.5 0.50            146           98.6 175 
 PTB  HZ EP       1643 10.55                             132   -0.26 9  146 260 
 PTB  HN ES       1643 30.76                             132   -0.85 9  146 260 
 PTB  HN I        1643 37.18         9.8 0.26            132            146 260 
 CHI  HZ EP       1643 21.60                             117    0.11 8  246 195 
 CHI  HN ES   1   1643 51.67                             117    1.05 6  246 195 
                                                                                
