 2013  730 1526 49.8 L   7.455 -73.222130.2  RSN  8 0.3 2.0LRSN                1
 GAP=110        0.83       2.6     4.0  5.0 -0.4209E+00  0.6615E+01 -0.8103E+00E
 Epicentro: EL PLAYON - SANTANDER                                              3
 ACTION:UPD 13-08-12 10:41 OP:ep   STATUS:               ID:20130730152649 L   I
 OLDACT:UP  13-07-30 16:45 OP:cam  STATUS:               ID:20130730151959     3
 OLDACT:REG 13-07-30 14:56 OP:cam  STATUS:               ID:20130730151959     3
 2013-07-30-1519-59M.COL___267                                                 6
 STAT SP IPHASW D HRMM SECON CODA AMPLIT PERI AZIMU VELO AIN AR TRES W  DIS CAZ7
 GIR2 SZ EP       1527  7.91                             161   -0.1210 41.8 176 
 GIR2 SZ ES       1527 22.04                             161   -0.1710 41.8 176 
 PAM  SZ EP       1527  9.48                             154    0.1510 59.0 103 
 PAM  SE ES       1527 24.57                             154    0.0310 59.0 103 
 PAM  SZ I        1527 25.47        30.6 0.20            159           59.0 103 
 BRR  HZ EP     C 1527  9.14                             151    0.1010 66.4 235 
 BRR  HN ES       1527 24.43                             151    0.4210 66.4 235 
 BRR  HZ I        1527 27.43        32.0 0.34            150           66.4 235 
 OCA  HZ EP       1527 11.12                             144    0.5010 87.3 353 
 OCA  HN ES       1527 27.12                             144    0.2810 87.3 353 
 OCA  HZ I        1527 31.04        12.3 0.20            146           87.3 353 
 BAR2 SZ EP       1527 11.07                             142   -0.2810 95.6 177 
 BAR2 SZ ES       1527 27.63                             142   -0.5010 95.6 177 
 BAR2 SZ I        1527 29.42        11.8 0.31            143           95.6 177 
 PTB  HZ EP       1527 17.66                             124   -0.11 9  170 233 
 PTB  HN ES       1527 39.51                             124   -0.04 9  170 233 
 PTB  HZ I        1527 42.45        11.2 0.20            125            170 233 
 SML  HZ EP       1527 18.15                             123   -0.19 9  176 328 
 SML  HE ES       1527 39.91                             123   -0.66 9  176 328 
 SML  HZ I        1527 41.09        20.7 0.10            125            176 328 
 SPBC HZ EP       1527 23.48                             117    0.28 8  220 205 
 SPBC HE ES   1   1527 49.71                             117    0.49 6  220 205 
 SPBC HZ I        1527 56.62         7.8 0.50            118            220 205 
                                                                                
