 2013  530 1111 36.2 L   6.775 -73.195144.6  RSN  8 0.5 2.0LRSN                1
 GAP=132        1.37       5.1     6.6  8.6 -0.4528E+01  0.1175E+02 -0.1634E+01E
 Epicentro: VILLANUEVA - SANTANDER                                             3
 ACTION:UPD 13-06-20 09:54 OP:ep   STATUS:               ID:20130530111136 L   I
 2013-05-30-1108-50M.COL___215                                                 6
 STAT SP IPHASW D HRMM SECON CODA AMPLIT PERI AZIMU VELO AIN AR TRES W  DIS CAZ7
 BAR2 SZ EP       1111 55.57                             172   -0.0510 20.3 176 
 BAR2 SZ ES       1112 10.46                             172   -0.3210 20.3 176 
 BAR2 SZ I        1112 11.62        12.1 0.36            171           20.3 176 
 GIR2 SZ EP       1111 55.71                             166   -0.0810 33.6   0 
 GIR2 SZ ES       1112 10.54                             166   -0.5310 33.6   0 
 BRR  HZ EP       1111 57.37                             153    0.3410 67.9 303 
 BRR  HN ES       1112 14.21                             153    0.9210 67.9 303 
 BRR  HE I        1112 18.11        30.7 0.18            151           67.9 303 
 PAM  SN ES       1112 15.39                             149   -0.7410 83.0  41 
 PAM  SN I        1112 16.78         8.7 0.30            153           83.0  41 
 RUS  HZ EP       1111 59.55                             144   -0.1210 98.4 173 
 RUS  HN ES       1112 18.31                             144    0.3310 98.4 173 
 RUS  HE I        1112 19.98         9.3 0.34            146           98.4 173 
 BRI  SZ EP       1112  1.14                             140    0.8110  113  23 
 BRI  SZ ES       1112 19.69                             140    0.5410  113  23 
 PTB  HZ EP       1112  1.86                             133   -0.68 9  142 259 
 PTB  HN ES       1112 23.06                             133   -0.03 9  142 259 
 PTB  HN I        1112 28.76        14.1 0.26            132            142 259 
 SML  HN ES       1112 40.66                             117   -0.67 8  244 337 
 SML  HN I        1112 44.00        17.4 0.10            118            244 337 
                                                                                
