 2017 1130 1351 20.4 L   6.789 -73.157142.2  RSN  8 0.3 1.6LRSN                1
 GAP=111        0.71       2.7     2.9  5.7  0.1178E+01  0.4465E+01  0.1682E+01E
 Epicentro: LOS SANTOS - SANTANDER                                             3
 ACTION:UPD 17-12-12 20:02 OP:rebc STATUS:               ID:20171130135120 L   I
 OLDACT:DUP 17-11-30 23:32 OP:mg   STATUS:               ID:20171130134749d    3
 2017-11-30-1348-00M.COL___492                                                 6
 STAT SP IPHASW D HRMM SECON CODA AMPLIT PERI AZIMU VELO AIN AR TRES W  DIS CAZ7
 BAR2 EZ EP       1351 39.49                             171   -0.0310 22.0 187 
 BAR2 EZ ES   2   1351 54.96                             171    0.49 5 22.0 187 
 BAR2 EZ I        1351 56.08         8.4 0.16            170           22.0 187 
 PAM  EZ IP     D 1351 42.51                             149    0.2210 79.1  40 
 PAM  EN ES       1351 59.46                             149    0.0610 79.1  40 
 PAM  EZ I        1352  1.63         8.4 0.50            153           79.1  40 
 RUS  HZ EP       1351 43.69                             143    0.0210 99.5 175 
 RUS  HN ES       1352  1.87                             143    0.0110 99.5 175 
 RUS  HZ I        1352  3.75         4.2 0.32            145           99.5 175 
 PTB  HZ EP       1351 46.41                             131   -0.49 9  146 259 
 PTB  HN ES       1352  7.37                             131   -0.23 9  146 259 
 PTB  HZ I        1352  9.17         4.5 0.11            132            146 259 
 YPLC HZ EP       1351 49.81                             126   -0.03 9  176 151 
 YPLC HN ES       1352 12.37                             126   -0.47 9  176 151 
 YPLC HZ I        1352 12.83         5.2 0.41            128            176 151 
 ZAR  HZ EP       1351 52.96                             122    0.47 9  203 293 
 ZAR  HN ES   1   1352 17.32                             122   -0.24 6  203 293 
 ZAR  HZ I        1352 23.02         9.7 0.35            123            203 293 
 NOR  HZ EP   4   1351 56.77                             118    1.08 0  233 235 
 NOR  HN ES   2   1352 23.70                             118    0.45 4  233 235 
 NOR  HZ I        1352 26.70         2.0 0.20            119            233 235 
 CHI  HZ EP   4   1351 55.58                             116   -2.11 0  247 195 
 CHI  HE ES       1352 27.31                             116    0.50 8  247 195 
 CHI  HZ I        1352 30.87         2.7 0.40            118            247 195 
                                                                                
