 2015  130 1009 24.4 L   6.770 -73.131137.4  RSN  6 0.3 1.2LRSN                1
 GAP=140        0.67       3.8     4.7  6.8 -0.3215E+01  0.1047E+02 -0.9409E+01E
 Epicentro: LOS SANTOS - SANTANDER                                             3
 ACTION:UPD 15-03-02 15:43 OP:nd   STATUS:               ID:20150130100924 L   I
 OLDACT:REG 15-01-30 19:08 OP:spq  STATUS:               ID:20150130100743     3
 2015-01-30-1007-43M.COL___268                                                 6
 STAT SP IPHASW D HRMM SECON CODA AMPLIT PERI AZIMU VELO AIN AR TRES W  DIS CAZ7
 BAR2 EZ ES   1   10 9 57.41                             171   -0.07 7 20.5 196 
 BAR2 EZ I        10 9 58.53         4.6 0.18            172           20.5 196 
 PAM  SZ EP       10 9 46.00                             149    0.1410 79.0  37 
 PAM  SN ES   1   1010  2.79                             149    0.22 7 79.0  37 
 PAM  SZ I        1010  5.91         1.3 0.39            151           79.0  37 
 RUS  HZ EP   1   10 9 47.11                             143   -0.00 7 97.2 177 
 RUS  HE ES   1   1010  4.39                             143   -0.42 7 97.2 177 
 RUS  HZ I        1010  5.84         2.2 0.28            147           97.2 177 
 PTB  HZ EP   1   10 9 51.46                             130    0.64 7  149 260 
 PTB  HE ES   1   1010 11.40                             130   -0.00 7  149 260 
 PTB  HZ I        1010 15.63         1.3 0.22            131            149 260 
 SML  HZ EP   1   1010  0.32                             115   -0.68 6  247 335 
 SML  HN ES   1   1010 29.36                             115   -0.17 6  247 335 
 SML  HZ I        1010 31.39         3.0 0.10            117            247 335 
 MARA HN E        1010  3.10                                            535 216 
                                                                                
