 2016 1130 1728 27.9 L   6.795 -73.127145.8  RSN  8 0.3 1.9LRSN                1
 GAP=157        0.80       3.5     4.0  5.6 -0.1616E+01  0.6767E+01  0.6133E+01E
 Epicentro: LOS SANTOS - SANTANDER                                             3
 ACTION:UPD 17-10-26 21:13 OP:lp   STATUS:               ID:20161130172827 L   I
 OLDACT:REG 16-11-30 21:07 OP:lv   STATUS:               ID:20161130171744     3
 2016-11-30-1718-00M.COL___345                                                 6
 STAT SP IPHASW D HRMM SECON CODA AMPLIT PERI AZIMU VELO AIN AR TRES W  DIS CAZ7
 BAR2 EZ EP       1728 47.32                             171   -0.2210 23.2 195 
 BAR2 EZ ES       1729  2.47                             171   -0.3810 23.2 195 
 BAR2 EZ I        1729  4.06        30.1 0.20            169           23.2 195 
 BRR  HZ IP     C 1728 49.17                             152   -0.0110 73.3 298 
 BRR  HN ES       1729  6.33                             152    0.5610 73.3 298 
 BRR  HZ I        1729  9.70        17.1 0.24            151           73.3 298 
 PAM  EZ EP       1728 50.26                             151    0.1810 76.6  38 
 PAM  EN ES       1729  7.40                             151    0.0310 76.6  38 
 PAM  EZ I        1729  9.60        20.9 0.44            154           76.6  38 
 PTB  HZ EP       1728 55.33                             132    0.28 9  150 259 
 PTB  HN ES   4   1729 14.58                             132   -1.64 0  150 259 
 PTB  HZ I        1729 17.13         7.6 0.17            132            150 259 
 ZAR  HZ EP       1729  0.16                             122   -0.41 8  206 292 
 ZAR  HE ES       1729 25.79                             122   -0.26 8  206 292 
 ZAR  HZ I        1729 32.23         7.4 0.21            123            206 292 
 NOR  HZ EP   4   1729  5.83                             118    2.05 0  236 235 
 NOR  HN ES       1729 31.43                             118   -0.33 8  236 235 
 NOR  HZ I        1729 34.78         5.5 0.16            119            236 235 
 CHI  HZ EP       1729  5.60                             117   -0.00 8  249 196 
 CHI  HN ES       1729 35.01                             117    0.01 8  249 196 
 CHI  HZ I        1729 38.47         3.7 0.41            118            249 196 
 ORTC HZ EP   4   1729 24.49                             106    2.58 0  396 216 
 ORTC HE ES       1730  4.90                             106    0.86 6  396 216 
 ORTC HZ I        1730  8.56         2.2 0.30            107            396 216 
                                                                                
