 2017  730 1111  0.1 L   6.805 -73.150145.0  RSN  8 0.4 1.5LRSN                1
 GAP=111        0.94       4.7     4.2  6.9  0.2041E+01 -0.7136E+00  0.1118E+02E
 Epicentro: LOS SANTOS - SANTANDER                                             3
 ACTION:UPD 17-08-30 15:38 OP:rebc STATUS:               ID:20170730111100 L   I
 OLDACT:UP  17-07-30 22:11 OP:and  STATUS:               ID:20170730110746     3
 OLDACT:UP  17-07-30 22:11 OP:and  STATUS:               ID:20170730110746     3
 OLDACT:REG 17-07-30 20:51 OP:and  STATUS:               ID:20170730110746     3
 2017-07-30-1108-00M.COL___380                                                 6
 STAT SP IPHASW D HRMM SECON CODA AMPLIT PERI AZIMU VELO AIN AR TRES W  DIS CAZ7
 BAR2 EZ IP     D 1111 19.47                             170   -0.1810 23.8 189 
 BAR2 EZ ES       1111 34.01                             170   -0.8910 23.8 189 
 BAR2 EZ I        1111 37.18         7.6 0.32            168           23.8 189 
 BRR  HZ EP       1111 21.07                             152   -0.0610 70.5 298 
 BRR  HN ES       1111 38.18                             152    0.6510 70.5 298 
 BRR  HZ I        1111 39.65         7.0 0.38            153           70.5 298 
 PAM  EZ IP     C 1111 22.34                             150    0.1110 77.3  40 
 PAM  EN ES       1111 39.59                             150    0.0910 77.3  40 
 PAM  EZ I        1111 41.59         4.5 0.40            154           77.3  40 
 RUS  HZ EP       1111 23.73                             143   -0.0910  101 176 
 RUS  HN ES   2   1111 42.62                             143    0.30 5  101 176 
 RUS  HZ I        1111 43.30         6.0 0.34            143            101 176 
 PTB  HZ EP   2   1111 26.16                             132   -0.81 5  147 259 
 PTB  HE ES       1111 47.92                             132   -0.01 9  147 259 
 PTB  HZ I        1111 48.26         1.8 0.15            132            147 259 
 YPLC HZ EP       1111 29.78                             126   -0.13 9  178 151 
 YPLC HN ES       1111 53.76                             126    0.60 9  178 151 
 YPLC HZ I        1111 55.29         4.5 0.24            127            178 151 
 NOR  HZ EP   2   1111 36.01                             118    0.24 4  235 234 
 NOR  HN ES   3   1112  4.61                             118    1.01 2  235 234 
 NOR  HZ I        1112 11.25         1.8 0.18            119            235 234 
 GUY2CHN ES   2   1112 17.79                             112    0.15 4  301 235 
 GUY2CHZ I        1112 24.62         1.6 0.52                           301 235 
                                                                                
