 2013  130 1403 38.0 L   6.776 -73.135144.4  RSN  7 0.3 2.0LRSN                1
 GAP= 98        0.60       3.5     2.8  4.5 -0.3407E+01  0.2203E+00  0.4228E+01E
 Epicentro: LOS SANTOS - SANTANDER                                             3
 ACTION:UPD 13-02-15 09:18 OP:ep   STATUS:               ID:20130130140338 L   I
 2013-01-30-1358-49M.COL___201                                                 6
 STAT SP IPHASW D HRMM SECON CODA AMPLIT PERI AZIMU VELO AIN AR TRES W  DIS CAZ7
 BAR2 SZ EP       14 3 57.29                             171   -0.1610 20.9 194 
 BAR2 SZ ES   1   14 4 12.20                             171   -0.40 7 20.9 194 
 BAR2 SZ I        14 4 13.85        33.1 0.20            170           20.9 194 
 BRR  HZ EP       14 3 59.26                             151    0.0910 73.5 300 
 BRR  HN ES   1   14 4 16.24                             151    0.59 7 73.5 300 
 PAM  SZ EP     C 14 4  0.21                             150    0.0210 78.8  38 
 PAM  SZ I        14 4  0.31        25.4 0.20            153           78.8  38 
 PAM  SN ES       14 4 17.29                             150   -0.1710 78.8  38 
 RUS  HZ EP       14 4  1.38                             144   -0.0710 97.8 177 
 RUS  HN ES   1   14 4 19.99                             144    0.28 7 97.8 177 
 RUS  HZ I        14 4 21.22        10.5 0.26            144           97.8 177 
 PTB  HZ EP   1   14 4  4.47                             131   -0.48 7  148 260 
 PTB  HN ES   1   14 4 25.99                             131    0.05 7  148 260 
 PTB  HZ I        14 4 28.18         9.7 0.38            132            148 260 
 TAM  HZ EP       14 4  5.70                             130    0.26 9  153 104 
 NOR  HZ EP       14 4 13.77                             118    0.15 8  234 235 
 NOR  HN ES       14 4 41.26                             118   -0.12 8  234 235 
 NOR  HZ I        14 4 43.08         6.0 0.16            119            234 235 
                                                                                
