 2011 1030 1654 56.6 L   6.774 -73.108146.4  RSN  8 0.3 1.9LRSN                1
 GAP=143        0.47       3.0     3.9  5.5 -0.1643E+01  0.4373E+01 -0.1464E+01E
 Epicentro: LOS SANTOS - SANTANDER                                             3
 ACTION:UPD 12-07-13 16:07 OP:ep   STATUS:               ID:20111030165456 L   I
 2011-10-30-1651-41S.COL___157                                                 6
 STAT SP IPHASW D HRMM SECON CODA AMPLIT PERI AZIMU VELO AIN AR TRES W  DIS CAZ7
 BAR2 SZ EP   1   1655 16.23                             171   -0.06 7 21.7 202 
 BAR2 SZ ES   2   1655 31.29                             171   -0.35 5 21.7 202 
 BAR2 SZ I        1655 33.02        12.4 0.30                          21.7 202 
 BRR  HZ EP   1   1655 18.18                             151    0.06 7 76.2 299 
 BRR  HE ES   2   1655 35.58                             151    0.68 5 76.2 299 
 BRR  HZ I        1655 39.70        12.6 0.14                          76.2 299 
 PAM  SZ EP   1   1655 19.02                             151    0.14 7 77.1  36 
 PAM  SN ES   2   1655 36.04                             151   -0.21 5 77.1  36 
 RUS  HZ EP   1   1655 20.02                             145   -0.19 7 97.5 178 
 RUS  HN ES   2   1655 38.90                             145    0.29 5 97.5 178 
 RUS  HZ I        1655 40.19         7.8 0.56                          97.5 178 
 OCA  SZ EP   1   1655 25.55                             129    0.26 7  164 352 
 OCA  SZ ES   2   1655 47.22                             129   -0.44 5  164 352 
 OCA  SZ I        1655 52.96         7.7 0.29                           164 352 
 ZAR  HZ EP   2   1655 29.33                             122   -0.28 4  209 292 
 ZAR  HN ES   2   1655 55.02                             122   -0.33 4  209 292 
 ZAR  HZ I        1656  1.11         8.7 0.56                           209 292 
 NOR  SN ES   2   1656  0.30                             118   -0.31 4  236 236 
 RREF HN ES   2   1656 19.46                             111    0.40 3  323 230 
 RREF HZ I        1656 28.04         8.7 0.24                           323 230 
                                                                                
