 2013 1230 1018  1.5 L   6.782 -73.179137.7  RSN 10 0.6 2.0LRSN 2.6WRSN        1
 SPEC AVERAGE  MO 13.0 ST107.8 OM  1.6 f0 16.5 R0.2775 AL 0.00 WI 20.0 MW  2.6 3
 SPEC SD       MO  0.2 ST169.0 OM  0.6 f0 13.8 R0.2505 AL      WI      MW  0.1 3
 GAP= 95        1.41       4.8     5.5  8.3 -0.1005E+02  0.9547E+01  0.5858E+01E
 Epicentro: LOS SANTOS - SANTANDER                                             3
 SPEC BAR2SH Z MO 13.2 ST 15.9 OM  1.4 f0 11.6 R0.1659 AL-0.00 WI 20.0 MW  2.8 3
 SPEC BAR2SH Z T101833 K 0.050 GD  139 VS 5.20 DE 3.20 Q0750.0 QA 1.50 VS 5.20 3
 SPEC PAM SH Z MO 13.4 ST0.244 OM  1.5 f0 2.55 R0.7545 AL-0.00 WI 20.0 MW  2.9 3
 SPEC PAM SH Z T101838 K 0.050 GD  159 VS 5.20 DE 3.20 Q0750.0 QA 1.50 VS 5.20 3
 SPEC RUS HH Z MO 12.8 ST  1.8 OM  0.9 f0 7.69 R0.2502 AL-0.00 WI 20.0 MW  2.5 3
 SPEC RUS HH Z T101840 K 0.050 GD  169 VS 5.20 DE 3.20 Q0750.0 QA 1.50 VS 5.20 3
 SPEC PTB HH Z MO 13.1 ST467.3 OM  1.1 f0 40.0 R0.0481 AL-0.00 WI 20.0 MW  2.7 3
 SPEC PTB HH Z T101845 K 0.050 GD  199 VS 5.20 DE 3.20 Q0750.0 QA 1.50 VS 5.20 3
 SPEC SPBCHH Z MO 13.0 ST249.2 OM  1.0 f0 34.4 R0.0559 AL-0.00 WI 20.0 MW  2.6 3
 SPEC SPBCHH Z T101849 K 0.050 GD  210 VS 5.20 DE 3.20 Q0750.0 QA 1.50 VS 5.20 3
 SPEC NOR HH Z MO 12.9 ST 19.9 OM  0.8 f0 15.9 R0.1210 AL-0.00 WI 20.0 MW  2.5 3
 SPEC NOR HH Z T1019 1 K 0.050 GD  268 VS 5.20 DE 3.20 Q0750.0 QA 1.50 VS 5.20 3
 SPEC CHI HH Z MO 12.8 ST0.179 OM  0.7 f0 3.52 R0.5466 AL-0.00 WI 20.0 MW  2.5 3
 SPEC CHI HH Z T1019 3 K 0.050 GD  281 VS 5.20 DE 3.20 Q0750.0 QA 1.50 VS 5.20 3
 SPECGUY2CHH Z MO 12.9 ST  0.9 OM  0.7 f0 5.86 R 0.328 AL-0.00 WI 20.0 MW  2.5 3
 SPECGUY2CHH Z T101916 K 0.050 GD327.4 VS 5.20 DE 3.20 Q0750.0 QA 1.50 VS 5.20 3
 OLDACT:DUP 13-12-30 16:39 OP:stll STATUS:               ID:20131230100820d    3
 ACTION:UPD 14-01-13 10:22 OP:ep   STATUS:               ID:20131230101801 L   I
 OLDACT:UP  13-12-30 16:56 OP:stll STATUS:               ID:20131230100820d    3
 2013-12-30-1008-18M.COL___234                                                 6
 STAT SP IPHASW D HRMM SECON CODA AMPLIT PERI AZIMU VELO AIN AR TRES W  DIS CAZ7
 BAR2 SZ IP     D 1018 20.37                             171    0.2510 21.0 181 
 BAR2 SZ ES       1018 34.92                             171    0.2810 21.0 181 
 BAR2 SZ I        1018 36.73        43.0 0.46            165           21.0 181 
 PAM  SZ IP     D 1018 23.49                             148    0.3710 81.3  41 
 PAM  SN ES       1018 40.27                             148    0.3010 81.3  41 
 PAM  SZ I        1018 42.68        10.7 0.18            141           81.3  41 
 RUS  HZ EP       1018 24.45                             143    0.1010 98.9 174 
 RUS  HN ES       1018 42.41                             143    0.2410 98.9 174 
 RUS  SZ I        1018 43.60        12.9 0.28            136           98.9 174 
 PTB  HZ EP       1018 27.25                             131   -0.21 9  144 259 
 PTB  HN ES       1018 47.29                             131   -0.40 9  144 259 
 PTB  SZ I        1018 50.53        20.5 0.12            129            144 259 
 TAM  HZ EP       1018 28.37                             128   -0.49 9  158 104 
 TAM  SZ I        1018 52.21         7.9 1.54            120            158 104 
 SPBC HZ EP       1018 29.35                             128    0.33 9  159 218 
 SPBC HN ES       1018 50.79                             128    0.30 9  159 218 
 SPBC SZ I        1018 54.89        12.8 0.36            124            159 218 
 OCA  HN ES       1018 50.12                             128   -0.96 9  162 355 
 NOR  HZ EP       1018 36.74                             117    0.41 8  231 234 
 NOR  HN ES       1019  3.35                             117   -0.13 8  231 234 
 NOR  SZ I        1019 12.14         7.1 0.24            114            231 234 
 CHI  HZ EP       1018 38.51                             116    0.05 8  246 194 
 CHI  HN ES       1019  5.32                             116   -1.95 8  246 194 
 CHI  SZ I        1019 11.30         5.3 1.02            111            246 194 
 GUY2CHZ EP       1018 45.28                             111    1.00 7  297 235 
 GUY2CHE ES       1019 17.95                             111    0.31 7  297 235 
 GUY2CSZ I        1019 26.51         5.6 2.02                           297 235 
                                                                                
