 2013  130 1256 15.5 L   6.802 -73.117147.5  RSN  4 0.2 1.4LRSN                1
 GAP=140        0.45       3.9     7.2  7.1  0.8418E+01 -0.1917E+02 -0.1476E+02E
 Epicentro: LOS SANTOS - SANTANDER                                             3
 ACTION:UPD 13-02-15 09:18 OP:ep   STATUS:               ID:20130130125615 L   I
 2013-01-30-1248-49M.COL___189                                                 6
 STAT SP IPHASW D HRMM SECON CODA AMPLIT PERI AZIMU VELO AIN AR TRES W  DIS CAZ7
 BAR2 SZ I        1256 35.02         6.4 0.40            125           24.3 197 
 BAR2 SZ IP       1256 35.03                             170           24.3 197 
 BAR2 SZ EP       1256 35.03                             170   -0.3210 24.3 197 
 BAR2 SZ ES   2   1256 50.78                             170   -0.06 5 24.3 197 
 BRR  HZ EP   1   1256 37.14                             152    0.16 7 73.9 297 
 BRR  HN ES   2   1256 53.81                             152    0.06 5 73.9 297 
 PAM  SZ EP       1256 37.88                             152    0.1110 75.2  38 
 PAM  SZ I        1256 38.21         4.6 0.26            102           75.2  38 
 RUS  HZ EP   1   1256 39.49                             144    0.07 7  101 178 
 RUS  HN ES       1256 58.16                             144    0.0810  101 178 
                                                                                
