 2011  130 1332 56.2 L   6.793 -73.134149.4  RSN 10 0.2 2.1LRSN                1
 GAP=160        0.50       2.0     4.1  3.9 -0.3050E+01  0.7838E+01 -0.7708E+00E
 Epicentro: LOS SANTOS - SANTANDER                                             3
 ACTION:UP  11-02-08 08:43 OP:pat  STATUS:               ID:20110130133256 L   I
 2011-01-30-1332-10S.COL___137                                                 6
 STAT SP IPHASW D HRMM SECON CODA AMPLIT PERI AZIMU VELO SNR AR TRES W  DIS CAZ7
 BTL  SZ EP       1333 16.30                             172     0.110   20 313 
 BAR2 SZ EP       1333 15.99                             171    -0.210   23 194 
 BAR2 SZ ES   1   1333 32.00                             171     0.1 7   23 194 
 BAR2 SZ I        1333 34.06        20.6 0.28                            23 194 
 GIR2 SZ EP       1333 16.32                             167     0.010   32 348 
 GIR2 SZ ES   2   1333 32.25                             167     0.2 5   32 348 
 RUS  HZ EP       1333 20.15                             145    -0.110  100 177 
 RUS  HN ES   1   1333 39.08                             145     0.1 7  100 177 
 RUS  HZ I        1333 39.65         7.7 0.19                           100 177 
 GRA  SZ IP       1333 21.83                             138     0.010  126  17 
 GRA  SZ ES   1   1333 41.57                             138    -0.2 7  126  17 
 GRA  SZ I        1333 44.33        19.3 0.06                           126  17 
 OCA  SZ EP       1333 24.85                             130     0.0 9  161 353 
 OCA  SZ ES   1   1333 47.19                             130     0.0 7  161 353 
 OCA  SZ I        1333 51.38        39.9 0.34                           161 353 
 NOR  SZ EP       1333 32.13                             119    -0.1 8  235 235 
 NOR  SN ES   1   1334  0.02                             119    -0.3 6  235 235 
 CHI  HZ EP       1333 34.23                             118     0.2 8  248 195 
 CHI  HN ES   1   1334  3.33                             118    -0.2 6  248 195 
 CHI  HZ I        1334 11.70         6.4 0.60                           248 195 
 HEL  HZ EP       1333 37.23                             115     0.5 8  273 256 
 HEL  HZ I        1334 15.75        11.3 0.45                           273 256 
 DBB  SZ EP       1333 43.76                             110    -0.2 7  341 274 
                                                                                
