 2014 1130 1804 32.0 L   6.834 -73.179142.3  RSN 12 0.5 2.0LRSN                1
 GAP=131        1.11       3.1     4.0  5.7 -0.2069E+01  0.7080E+01  0.2564E+01E
 Epicentro: ZAPATOCA - SANTANDER                                               3
 ACTION:UPD 14-12-19 15:49 OP:nd   STATUS:               ID:20141130180432 L   I
 OLDACT:REG 14-11-30 21:33 OP:fm   STATUS:               ID:20141130175749     3
 2014-11-30-1757-49M.COL___297                                                 6
 STAT SP IPHASW D HRMM SECON CODA AMPLIT PERI AZIMU VELO AIN AR TRES W  DIS CAZ7
 BAR2 SZ EP       18 4 51.36                             169    0.1110 26.7 181 
 BAR2 SZ ES       18 5  6.92                             169    0.6310 26.7 181 
 BAR2 SZ I        18 5  7.89        20.9 0.20            167           26.7 181 
 BRR  HZ EP       18 4 52.95                             154    0.4910 66.2 297 
 BRR  HE ES       18 5  8.72                             154    0.2810 66.2 297 
 BRR  HZ I        18 5 15.00        17.7 0.28            151           66.2 297 
 PAM  SZ EP     C 18 4 54.08                             150    0.2910 77.0  43 
 PAM  SE ES       18 5 11.04                             150    0.2310 77.0  43 
 PAM  SZ I        18 5 12.64         8.1 0.16            157           77.0  43 
 RUS  HZ EP       18 4 55.26                             142   -0.4110  105 174 
 RUS  HE ES       18 5 13.41                             142   -0.7610  105 174 
 RUS  HZ I        18 5 16.82         9.6 0.40            145            105 174 
 PTB  HZ EP       18 4 58.25                             132   -0.14 9  145 257 
 PTB  HE ES       18 5 18.73                             132   -0.27 9  145 257 
 PTB  HZ I        18 5 26.58        17.8 0.34            132            145 257 
 OCA  HZ EP       18 4 59.59                             130   -0.02 9  156 354 
 OCA  HE ES       18 5 20.81                             130   -0.37 9  156 354 
 OCA  HZ I        18 5 25.45        12.4 0.20            133            156 354 
 SPBC HZ EP       18 5  0.08                             128   -0.18 9  164 217 
 SPBC HE ES       18 5 21.62                             128   -0.71 9  164 217 
 SPBC HZ I        18 5 26.42        17.2 0.26            129            164 217 
 ZAR  HZ EP       18 5  2.98                             122   -0.70 9  199 292 
 ZAR  HN ES       18 5 27.87                             122   -0.55 9  199 292 
 ZAR  HZ I        18 5 36.55        10.9 0.18            123            199 292 
 CHI  HZ EP       18 5  9.44                             116   -0.33 8  251 194 
 CHI  HN ES       18 5 39.57                             116    0.32 8  251 194 
 CHI  HZ I        18 5 48.51         5.0 0.32            119            251 194 
 HEL  HZ EP       18 5 11.84                             114    0.13 8  269 255 
 HEL  HN ES       18 5 43.28                             114    0.57 8  269 255 
 HEL  HZ I        18 5 54.44         4.0 0.22            116            269 255 
 GUY2CHZ EP       18 5 15.62                             112    0.30 7  300 234 
 GUY2CHN ES       18 5 49.43                             112    0.29 7  300 234 
 GUY2CHZ I        18 6  0.14         5.3 0.50                           300 234 
 TOL  SZ EP       18 5 21.05                             109    0.96 7  344 224 
 TOL  SN ES       18 5 58.48                             109    0.84 7  344 224 
 TOL  SZ I        18 6  3.93         8.0 0.26            111            344 224 
                                                                                
