 2011  530 1130 12.6 L   6.745 -73.102142.9  RSN  6 0.3 1.7LRSN                1
 GAP=187        0.61       4.1     6.2  5.9  0.3165E+01  0.1014E+02  0.5044E+01E
 Epicentro: JORDAN - SANTANDER                                                 3
 ACTION:UP  11-06-29 08:57 OP:tino STATUS:               ID:20110530113012 L   I
 2011-05-30-1127-49S.COL___113                                                 6
 STAT SP IPHASW D HRMM SECON CODA AMPLIT PERI AZIMU VELO SNR AR TRES W  DIS CAZ7
 BAR2 SZ EP   1   1130 31.66                             172    -0.2 7   19 208 
 BAR2 SZ ES   1   1130 46.49                             172    -0.3 7   19 208 
 BAR2 SZ I        1130 47.83        11.2 0.16                            19 208 
 BRR  HZ EP   1   1130 33.60                             150    -0.3 7   78 301 
 BRR  HN ES   1   1130 50.60                             150     0.1 7   78 301 
 BRR  HZ I        1130 51.47        16.4 0.12                            78 301 
 RUS  HZ EP   1   1130 36.05                             145     0.4 7   94 179 
 RUS  HZ I        1130 36.47         5.4 0.34                            94 179 
 RUS  HN ES   1   1130 53.67                             145     0.1 7   94 179 
 OCA  SZ ES   2   1131  4.09                             128     0.4 5  167 352 
 NOR  SZ EP   1   1130 48.27                             118     0.0 6  235 236 
 NOR  SN ES   1   1131 16.17                             118     0.2 6  235 236 
 NOR  SZ I        1131 21.74         0.8 0.13                           235 236 
 PRA  HZ EP   1   1131  5.17                             106    -0.5 4  389 211 
 PRA  HZ I        1131 53.44         8.2 0.26                           389 211 
                                                                                
