 2015  630 1053 44.5 L   6.870 -72.974147.9  RSN  4 0.3 1.7LRSN                1
 GAP=216        0.68       3.7     7.0  6.1 -0.1044E+00  0.1783E+02 -0.6823E+01E
 Epicentro: CEPITA - SANTANDER                                                 3
 ACTION:UPD 15-09-10 22:15 OP:cam  STATUS:               ID:20150630105344 L   I
 OLDACT:UP  15-07-01 01:09 OP:mh   STATUS:               ID:20150630104748     3
 OLDACT:REG 15-06-30 21:34 OP:mh   STATUS:               ID:20150630104748     3
 2015-06-30-1047-48M.COL___304                                                 6
 STAT SP IPHASW D HRMM SECON CODA AMPLIT PERI AZIMU VELO AIN AR TRES W  DIS CAZ7
 BAR2 EZ EP       1054  5.32                             165    0.5510 38.4 217 
 BAR2 EZ ES       1054 20.50                             165   -0.0910 38.4 217 
 BAR2 EZ I        1054 21.60         6.7 0.22            166           38.4 217 
 RUS  HZ EP       1054  8.76                             142   -0.2910  109 186 
 RUS  HN ES       1054 28.11                             142   -0.1010  109 186 
 RUS  HZ I        1054 30.49         4.8 0.32            144            109 186 
 SML  HZ EP       1054 21.52                             118    0.10 8  245 331 
 SML  HN ES   1   1054 49.96                             118   -0.27 6  245 331 
 SML  HZ I        1054 53.05         6.1 0.10            119            245 331 
 GUY2CHZ EP       1054 30.19                             111   -0.27 7  321 236 
 GUY2CHN ES       1055  6.48                             111    0.17 7  321 236 
 GUY2CHZ I        1055 11.47         2.2 0.26                           321 236 
                                                                                
