 2012  530 1727 47.1 L   7.148 -73.410116.3  RSN  4 0.2 1.8LRSN                1
 GAP=153        0.51       2.8     4.0  6.4  0.3087E-01  0.7188E+01 -0.2748E+00E
 Epicentro: LEBRIJA - SANTANDER                                                3
 ACTION:UP  12-07-05 12:09 OP:pat  STATUS:               ID:20120530172747 L   I
 2012-05-30-1720-00M.COL___200                                                 6
 STAT SP IPHASW D HRMM SECON CODA AMPLIT PERI AZIMU VELO AIN AR TRES W  DIS CAZ7
 BAR2 SZ EP       1728  5.48                             148     0.310   66 158 
 BAR2 SZ ES       1728 19.32                             148     0.010   66 158 
 BAR2 SZ I        1728 20.70        57.7 0.30                            66 158 
 OCA  HE ES   1   1728 26.73                             130    -0.2 7  121   5 
 PTB  HZ EP   1   1728 10.60                             127     0.1 7  134 240 
 PTB  HN ES   1   1728 28.64                             127    -0.1 7  134 240 
 PTB  HZ I        1728 30.79         2.5 0.13                           134 240 
 RUS  HZ EP   1   1728 11.76                             125    -0.3 7  143 165 
 RUS  HE ES   2   1728 31.30                             125    -0.2 5  143 165 
                                                                                
