 2010  830 1246 41.8 L   6.734 -73.472105.3  RSN  4 0.2 1.1LRSN                1
 GAP=172        0.52       4.1     8.6  8.2  0.1370E+02 -0.4582E+01 -0.1150E+02E
 Epicentro: EL CARMEN DE CHUCURI - SANTANDER                                   3
 ACTION:UP  10-09-07 10:59 OP:vdl  STATUS:               ID:20100830124641 L   I
 2010-08-30-1244-09S.COL___120                                                 6
 STAT SP IPHASW D HRMM SECON CODA AMPLIT PERI AZIMU VELO SNR AR TRES W  DIS CAZ7
 BAR2 SZ EP   1   1246 57.32                             160     0.3 7   36 116 
 BAR2 SZ I        1246 57.79         5.0 0.49                            36 116 
 BAR2 SZ ES   2   1247  8.97                             160     0.1 5   36 116 
 BRR  HZ EP       1246 57.27                             153    -0.110   49 327 
 RUS  HZ EP       1247  2.08                             133     0.110  103 155 
 RUS  HE ES   2   1247 17.25                             133    -0.5 5  103 155 
 RUS  HZ I        1247 19.57         2.4 0.32                           103 155 
 GUE  SZ EP       1247  4.85                             124    -0.1 9  135  26 
                                                                                
