 2013  630 1605 16.4 L   6.797 -73.135147.6  RSN 11 0.5 2.2LRSN                1
 GAP=138        1.00       3.6     4.3  7.4 -0.3627E+00  0.5339E+01  0.4698E+01E
 Epicentro: LOS SANTOS - SANTANDER                                             3
 ACTION:UPD 14-01-08 09:58 OP:ep   STATUS:               ID:20130630160516 L   I
 OLDACT:REG 13-06-30 17:52 OP:carl STATUS:               ID:20130630155959     3
 2013-06-30-1559-59M.COL___267                                                 6
 STAT SP IPHASW D HRMM SECON CODA AMPLIT PERI AZIMU VELO AIN AR TRES W  DIS CAZ7
 BAR2 SZ EP       16 5 36.28                             171    0.0410 23.3 193 
 BAR2 SZ ES   1   16 5 51.58                             171   -0.14 7 23.3 193 
 BAR2 SZ I        16 5 53.89        25.5 0.30            167           23.3 193 
 GIR2 SZ EP       16 5 36.31                             167    0.0110 31.8 348 
 BRR  HZ EP       16 5 38.12                             152    0.3110 72.4 298 
 BRR  HN ES   1   16 5 55.50                             152    0.99 7 72.4 298 
 BRR  HN I        16 5 55.85        57.9 0.28            151           72.4 298 
 PAM  SZ IP     C 16 5 39.01                             151    0.2410 76.9  39 
 PAM  SN ES   1   16 5 56.43                             151    0.21 7 76.9  39 
 PAM  SZ I        16 5 58.35        18.0 0.54            157           76.9  39 
 RUS  HZ EP       16 5 40.11                             144   -0.1910  100 177 
 RUS  HN ES   1   16 5 58.34                             144   -0.60 7  100 177 
 RUS  HZ I        16 6  0.01         6.8 0.40            144            100 177 
 PTB  HZ EP   1   16 5 43.25                             132   -0.36 7  149 259 
 PTB  HN ES       16 6  4.17                             132   -0.67 9  149 259 
 PTB  HZ I        16 6 11.60        18.9 0.44            132            149 259 
 ZAR  HE ES       16 6 15.16                             123    0.58 8  205 292 
 ZAR  HE I        16 6 20.28        47.2 0.22            123            205 292 
 NOR  HZ EP   1   16 5 52.01                             119   -0.31 6  236 235 
 NOR  HN ES       16 6 20.32                             119   -0.01 8  236 235 
 NOR  HN I        16 6 26.13        21.9 0.16            119            236 235 
 SML  HE ES       16 6 20.95                             118   -0.97 8  244 335 
 CHI  HZ EP   1   16 5 54.29                             117    0.09 6  249 195 
 CHI  HN ES   1   16 6 23.90                             117    0.22 6  249 195 
 CHI  HZ I        16 6 33.35         4.3 0.74            118            249 195 
 PRA  HZ EP   1   16 6 10.86                             107    0.84 4  392 210 
 PRA  HN ES   1   16 6 52.52                             107    0.68 4  392 210 
 PRA  HZ I        16 6 55.07         3.3 0.50            108            392 210 
                                                                                
