 2010 1030 1648 41.9 L   6.754 -73.128147.0  RSN  9 0.6 2.1LRSN                1
 GAP=158        1.04       6.8    10.4 10.6 -0.2938E+02  0.2609E+02 -0.6069E+01E
 Epicentro: LOS SANTOS - SANTANDER                                             3
 ACTION:UP  11-02-18 11:13 OP:tino STATUS:               ID:20101030164841 L   I
 2010-10-30-1646-08S.COL___128                                                 6
 STAT SP IPHASW D HRMM SECON CODA AMPLIT PERI AZIMU VELO SNR AR TRES W  DIS CAZ7
 BAR2 SZ EP   1   1649  1.39                             172    -0.2 7   19 199 
 BAR2 SZ ES   2   1649 16.23                             172    -0.7 5   19 199 
 BAR2 SZ I        1649 19.51        43.9 0.22                            19 199 
 BRR  HZ IP     C 1649  3.39                             151     0.010   75 301 
 BRR  HE ES   2   1649 20.95                             151     0.8 5   75 301 
 BRR  HZ I        1649 23.36        32.5 0.43                            75 301 
 RUS  HZ EP   1   1649  5.33                             146    -0.1 7   95 177 
 RUS  HN ES   2   1649 24.16                             146     0.4 5   95 177 
 RUS  HZ I        1649 25.38        14.8 0.23                            95 177 
 BRI  SZ EP   1   1649  6.00                             141    -0.2 7  113  19 
 GRA  SZ EP   1   1649  8.25                             136     0.7 7  130  16 
 GRA  SZ I        1649  9.74        18.8 0.42                           130  16 
 GRA  SZ ES   2   1649 28.18                             136     0.5 5  130  16 
 OCA  SZ EP   1   1649  9.85                             129    -0.9 7  166 353 
 NOR  SZ EP   1   1649 16.97                             119    -0.6 6  234 236 
 NOR  SN ES   2   1649 44.95                             119    -0.4 4  234 236 
 HEL  HZ EP   1   1649 22.91                             115     0.7 6  273 257 
 HEL  HZ I        1649 59.89         6.9 0.49                           273 257 
 PRA  HZ EP   1   1649 35.95                             107     0.9 4  389 210 
                                                                                
