 2015  830 1215 17.0 L   6.803 -73.078141.8  RSN 14 0.4 2.0LRSN                1
 GAP=190        0.86       2.4     4.6  5.2 -0.1680E+01  0.3264E+01  0.1214E+01E
 Epicentro: LOS SANTOS - SANTANDER                                             3
 ACTION:UPD 15-09-15 23:06 OP:cam  STATUS:               ID:20150830121517 L   I
 OLDACT:DUP 15-08-31 00:56 OP:spq  STATUS:               ID:20150830120749d    3
 2015-08-30-1207-48M.COL___355                                                 6
 STAT SP IPHASW D HRMM SECON CODA AMPLIT PERI AZIMU VELO AIN AR TRES W  DIS CAZ7
 BAR2 EZ EP       1215 36.35                             169    0.1410 26.0 206 
 BAR2 EZ ES   1   1215 51.17                             169   -0.03 7 26.0 206 
 BAR2 EZ I        1215 52.45        25.0 0.18            165           26.0 206 
 BRR  HZ EP       1215 38.34                             150    0.2310 77.7 296 
 BRR  HN ES       1215 55.27                             150    0.6910 77.7 296 
 BRR  HZ I        1215 59.64        14.8 0.44            146           77.7 296 
 RUS  HZ EP   1   1215 40.69                             143    0.32 7  101 180 
 RUS  HE ES   1   1215 58.47                             143   -0.13 7  101 180 
 RUS  HZ I        1215 59.66        10.7 0.52            144            101 180 
 OCA  HZ EP       1215 44.97                             129   -0.11 9  161 351 
 OCA  HN ES       1216  6.53                             129   -0.45 9  161 351 
 OCA  HZ I        1216  8.52        25.4 0.46            130            161 351 
 SPBC HZ EP       1215 45.41                             127   -0.27 9  168 221 
 SPBC HN ES       1216  7.30                             127   -0.75 9  168 221 
 SPBC HZ I        1216 11.25        13.5 0.12            127            168 221 
 ZAR  HZ EP       1215 50.32                             121    0.42 8  211 291 
 ZAR  HN ES       1216 15.37                             121   -0.19 8  211 291 
 ZAR  HZ I        1216 21.31        11.5 0.32            120            211 291 
 NOR  HZ EP   1   1215 53.15                             117   -0.03 6  241 235 
 NOR  HN ES       1216 21.68                             117    0.28 8  241 235 
 NOR  HZ I        1216 23.03         5.6 0.50            117            241 235 
 SML  HZ EP       1215 53.17                             116   -0.56 8  247 334 
 SML  HE ES   1   1216 22.24                             116   -0.13 6  247 334 
 SML  HZ I        1216 24.78        12.3 0.10            117            247 334 
 CHI  HZ EP   1   1215 54.89                             116    0.15 6  251 197 
 CHI  HE ES   1   1216 23.71                             116   -0.46 6  251 197 
 CHI  HZ I        1216 27.10         2.9 0.36            117            251 197 
 HEL  HN ES   4   1216 28.38                             113   -1.30 0  279 256 
 HEL  HZ I        1216 35.60         4.4 0.50            114            279 256 
 GUY2CHZ EP   4   1216  2.31                             111    1.17 0  307 236 
 GUY2CHE ES   1   1216 35.10                             111   -0.47 5  307 236 
 GUY2CHZ I        1216 42.96         3.0 0.54                           307 236 
 TOL  SZ EP       1216  6.51                             108    0.78 6  349 225 
 TOL  SN ES       1216 43.50                             108   -0.25 6  349 225 
 TOL  SZ I        1216 50.49         2.3 0.34            109            349 225 
 PRA  HZ EP       1216 11.06                             106    0.21 6  396 210 
 PRA  HE ES       1216 53.37                             106    0.51 6  396 210 
 PRA  HZ I        1216 58.32         4.0 0.32            107            396 210 
 SJC  HZ EP   4 C 1216 11.38                             105   -1.51 0  413 326 
 SJC  HN ES   4   1216 53.69                             105   -2.79 0  413 326 
 SJC  HZ I        1216 56.75         2.3 0.42            106            413 326 
                                                                                
