 2016  330 1220 27.6 L   6.071 -73.723113.7  RSN  6 0.4 1.4LRSN                1
 GAP=103        1.06       4.1     3.7  7.9 -0.1787E+01  0.3805E+01  0.5272E+01E
 Epicentro: VELEZ - SANTANDER                                                  3
 ACTION:UPD 16-05-13 21:29 OP:cam  STATUS:               ID:20160330122027 L   I
 OLDACT:REG 16-03-30 20:27 OP:drio STATUS:               ID:20160330121744     3
 2016-03-30-1217-44M.COL___313                                                 6
 STAT SP IPHASW D HRMM SECON CODA AMPLIT PERI AZIMU VELO AIN AR TRES W  DIS CAZ7
 SPBC HZ EP       1220 44.68                             150   -0.1010 60.3 220 
 SPBC HN ES       1220 58.28                             150    0.0710 60.3 220 
 SPBC HZ I        1221  0.50         6.0 0.32            150           60.3 220 
 RUS  HZ EP       1220 46.00                             145   -0.2110 73.5 106 
 RUS  HE ES       1221  1.02                             145    0.2610 73.5 106 
 RUS  HZ I        1221  1.57         3.4 0.24            148           73.5 106 
 BAR2 EZ EP       1220 46.67                             141    0.1210 83.0  46 
 BAR2 EZ ES       1221  1.59                             141    0.2310 83.0  46 
 BAR2 EZ I        1221  2.20        17.6 0.12            145           83.0  46 
 PTB  HZ EP       1220 47.40                             137    0.0910 96.3 303 
 PTB  HE ES       1221  1.86                             137   -0.8410 96.3 303 
 PTB  HZ I        1221  4.58         3.1 0.16            139           96.3 303 
 NOR  HZ EP       1220 51.58                             125    0.30 9  139 246 
 NOR  HN ES       1221 10.57                             125    0.79 9  139 246 
 NOR  HZ I        1221 12.08         6.9 0.18            127            139 246 
 CHI  HZ EP       1220 53.72                             121   -0.13 9  159 180 
 CHI  HE ES       1221 13.76                             121   -0.59 9  159 180 
 CHI  HZ I        1221 17.33         2.1 0.38            123            159 180 
                                                                                
