 2014  930 1226 48.5 L   6.680 -73.163145.9  RSN  4 0.2 1.5LRSN                1
 GAP=245        0.58       7.3     6.6  7.5  0.2052E+02  0.3259E+02  0.1430E+02E
 Epicentro: VILLANUEVA - SANTANDER                                             3
 ACTION:UPD 14-10-03 23:10 OP:nd   STATUS:               ID:20140930122648 L   I
 OLDACT:UP  14-10-01 02:00 OP:cam  STATUS:               ID:20140930122000     3
 OLDACT:REG 14-09-30 20:17 OP:cam  STATUS:               ID:20140930122000     3
 2014-09-30-1220-00M.COL___252                                                 6
 STAT SP IPHASW D HRMM SECON CODA AMPLIT PERI AZIMU VELO AIN AR TRES W  DIS CAZ7
 BAR2 SZ ES       1227 22.90                             176   -0.2010 9.92 193 
 BAR2 SZ I        1227 25.26         3.8 0.32            172           9.92 193 
 BRR  HN ES       1227 27.01                             151    0.2810 76.9 308 
 BRR  HN I        1227 27.86        19.0 0.16            153           76.9 308 
 PTB  HZ EP       1227 15.22                             133    0.12 9  144 264 
 PTB  HN ES       1227 35.92                             133    0.05 9  144 264 
 PTB  HZ I        1227 38.36         2.5 0.40            134            144 264 
 ZAR  HN ES       1227 46.59                             122   -0.32 8  208 296 
                                                                                
