 2012 1030 1302 51.1 L   6.793 -73.125145.8  RSN 10 0.4 3.2LRSN                1
 GAP= 72        0.87       3.6     3.1  6.0  0.3180E+00  0.4755E+01  0.8622E+01E
 Epicentro: LOS SANTOS - SANTANDER                                             3
 ACTION:UPD 12-11-22 17:06 OP:ep   STATUS:               ID:20121030130251 L   I
 2012-10-30-1300-00M.COL___230                                                 6
 STAT SP IPHASW D HRMM SECON CODA AMPLIT PERI AZIMU VELO AIN AR TRES W  DIS CAZ7
 BAR2 SZ EP       13 3 10.36                             171   -0.3210 23.1 196 
 BAR2 SZ ES   2   13 3 25.41                             171   -0.58 5 23.1 196 
 BAR2 SZ I        13 3 26.48       329.0 0.14                          23.1 196 
 BRR  HZ IP       13 3 12.49                             152    0.1510 73.6 298 
 BRR  HZ EP       13 3 12.50                             152           73.6 298 
 BRR  HN ES       13 3 29.40                             152    0.4610 73.6 298 
 BRR  HN I        13 3 29.89       750.9 0.22                          73.6 298 
 PAM  SZ EP       13 3 13.28                             151    0.0610 76.6  38 
 PAM  SN ES       13 3 30.37                             151   -0.1510 76.6  38 
 PAM  SN I        13 3 31.77       201.0 0.58                          76.6  38 
 RUS  HZ EP   1   13 3 14.25                             144   -0.49 7 99.7 177 
 RUS  HN I        13 3 33.19       356.6 0.64                          99.7 177 
 TAM  HZ EP       13 3 18.63                             131    0.12 9  153 105 
 TAM  HN ES       13 3 40.29                             131    0.36 9  153 105 
 TAM  HN I        13 3 40.99       143.2 0.34                           153 105 
 OCA  HZ EP       13 3 19.57                             129    0.10 9  161 352 
 OCA  HN ES   2   13 3 40.79                             129   -0.84 5  161 352 
 OCA  HN I        13 3 43.55       439.5 0.24                           161 352 
 ZAR  HZ EP   1   13 3 22.80                             122   -0.95 6  206 292 
 ZAR  HN ES   2   13 3 48.87                             122   -0.38 4  206 292 
 ZAR  HN I        13 3 54.54       170.5 0.42                           206 292 
 CHI  HZ EP       13 3 28.28                             117   -0.46 8  248 196 
 CHI  HN ES       13 3 57.84                             117   -0.29 8  248 196 
 ROSC BZ EP       13 3 29.99                             117    0.76 8  253 212 
 HEL  HZ EP   1   13 3 31.80                             115    0.31 6  274 256 
 HEL  HZ IP       13 3 31.80                             115    0.31 8  274 256 
 HEL  HN ES       13 4  3.20                             115    0.17 8  274 256 
 HEL  HN I        13 4 10.12        43.3 0.34                           274 256 
                                                                                
