 2011  830 1437 22.8 L   6.827 -73.014142.0  RSN  4 0.3 1.6LRSN                1
 GAP=220        0.60       6.9    12.8  6.6  0.6009E+02 -0.2965E+02 -0.1268E+02E
 Epicentro: CEPITA - SANTANDER                                                 3
 ACTION:UPD 12-07-13 15:54 OP:ep   STATUS:               ID:20110830143722 L   I
 2011-08-30-1433-13S.COL___165                                                 6
 STAT SP IPHASW D HRMM SECON CODA AMPLIT PERI AZIMU VELO AIN AR TRES W  DIS CAZ7
 BAR2 SZ EP   1   1437 42.10                             167   -0.07 7 32.0 216 
 BAR2 SZ ES       1437 57.39                             167    0.0910 32.0 216 
 BAR2 SZ I        1437 59.13         6.5 0.50                          32.0 216 
 GIR2 SZ EP   1   1437 42.60                             166    0.51 7 34.2 325 
 GIR2 SZ ES   2   1437 56.51                             166   -0.64 5 34.2 325 
 BRR  HZ EP   1   1437 43.99                             148   -0.27 7 83.1 292 
 BRR  HZ I        1437 53.11        16.9 0.38                          83.1 292 
 BRR  HE ES   1   1438  1.13                             148    0.12 7 83.1 292 
 RUS  HZ EP   1   1437 46.12                             142   -0.27 7  104 184 
 RUS  HN ES   1   1438  4.91                             142    0.10 7  104 184 
 RUS  HZ I        1438  6.42         4.7 0.47                           104 184 
                                                                                
