 2015  530 1555 31.5 L   6.792 -73.109150.5  RSN  5 0.1 1.6LRSN                1
 GAP=241        0.37       2.3     3.0  3.4  0.3015E+01  0.1366E+01  0.9994E+00E
 Epicentro: LOS SANTOS - SANTANDER                                             3
 ACTION:UPD 15-09-10 22:08 OP:cam  STATUS:               ID:20150530155531 L   I
 OLDACT:REG 15-05-30 21:34 OP:spq  STATUS:               ID:20150530154749     3
 2015-05-30-1547-49M.COL___321                                                 6
 STAT SP IPHASW D HRMM SECON CODA AMPLIT PERI AZIMU VELO AIN AR TRES W  DIS CAZ7
 BAR2 EZ EP   1   1555 51.49                             171   -0.25 7 23.5 200 
 BAR2 EZ ES   1   1556  7.32                             171   -0.18 7 23.5 200 
 BAR2 EZ I        1556  8.54         5.8 0.13            165           23.5 200 
 BRR  HZ EP       1555 53.56                             152    0.1410 75.2 298 
 BRR  HE ES       1556 10.54                             152    0.0510 75.2 298 
 BRR  HZ I        1556 16.54        12.1 0.29            149           75.2 298 
 RUS  HZ EP   1   1555 55.78                             145    0.10 7 99.5 178 
 RUS  HN ES   1   1556 14.70                             145    0.19 7 99.5 178 
 RUS  HZ I        1556 16.05         3.4 0.35            146           99.5 178 
 SPBC HZ EP       1556  0.52                             130   -0.06 9  165 220 
 SPBC HE ES       1556 23.19                             130   -0.05 9  165 220 
 SPBC HZ I        1556 29.30         6.9 0.26            129            165 220 
 ZAR  HE ES       1556 30.57                             123   -0.02 8  208 292 
 ZAR  HZ I        1556 35.26         5.7 0.68            123            208 292 
                                                                                
