 2017  130 1838 34.3 L   6.801 -73.434113.2  RSN 10 0.4 1.8LRSN                1
 GAP= 96        1.06       3.5     3.6  6.8  0.2531E+01  0.1303E+02  0.4442E+01E
 Epicentro: SAN VICENTE DE CHUCURI - SANTANDER                                 3
 ACTION:UPD 17-05-22 16:05 OP:jn   STATUS:               ID:20170130183834 L   I
 OLDACT:REG 17-01-30 20:46 OP:dnl  STATUS:               ID:20170130182751     3
 2017-01-30-1828-00M.COL___348                                                 6
 STAT SP IPHASW D HRMM SECON CODA AMPLIT PERI AZIMU VELO AIN AR TRES W  DIS CAZ7
 BAR2 EZ EP       1838 50.53                             161    0.1110 36.1 130 
 BAR2 EZ ES       1839  2.85                             161   -0.1610 36.1 130 
 BAR2 EZ I        1839  4.94        56.3 0.23            161           36.1 130 
 BRR  HZ EP       1838 50.71                             156    0.2210 45.8 318 
 BRR  HN ES       1839  3.78                             156    0.6310 45.8 318 
 BRR  HZ I        1839  4.99        15.7 0.19            159           45.8 318 
 PAM  EZ EP       1838 54.69                             136   -0.2910  101  54 
 PAM  EN ES       1839 11.01                             136   -0.1310  101  54 
 PAM  EZ I        1839 14.34         6.3 0.18            141            101  54 
 RUS  HZ EP       1838 55.74                             134    0.1510  108 159 
 RUS  HN ES       1839 11.74                             134   -0.4910  108 159 
 RUS  HZ I        1839 16.90         6.7 0.38            134            108 159 
 PTB  HZ EP       1838 55.12                             131   -0.6510  117 256 
 PTB  HN ES   4   1839 11.18                             131   -1.36 0  117 256 
 PTB  HZ I        1839 15.94        15.1 0.19            131            117 256 
 ZAR  HZ EP       1839  1.78                             118    0.14 9  175 296 
 ZAR  HN ES       1839 23.20                             118    0.21 9  175 296 
 ZAR  HZ I        1839 26.95         8.7 0.14            121            175 296 
 NOR  HZ EP       1839  5.96                             114    0.45 8  210 229 
 NOR  HN ES       1839 29.56                             114   -0.31 8  210 229 
 NOR  HZ I        1839 34.58         6.5 0.14            115            210 229 
 CHI  HZ EP   4   1839 10.91                             110    1.24 0  242 188 
 CHI  HN ES       1839 37.90                             110    0.63 8  242 188 
 CHI  HZ I        1839 46.03         3.1 0.31            111            242 188 
 URE  HN ES       1839 38.35                             109   -0.53 8  255 295 
 URE  HZ I        1839 39.28         5.4 0.14            111            255 295 
 DBB  EZ EP       1839 17.76                             105    0.89 7  308 275 
 DBB  EN ES       1839 49.44                             105   -0.66 7  308 275 
 DBB  EZ I        1839 55.13         2.5 0.16            106            308 275 
                                                                                
