 2010  630 1038 52.7 L   6.808 -72.958141.5  RSN  6 0.3 1.9LRSN                1
 GAP=202        0.55       4.5     6.7  5.8  0.1309E+01  0.2816E+01 -0.3513E+01E
 Epicentro: CEPITA - SANTANDER                                                 3
 ACTION:UP  10-08-24 10:14 OP:vdl  STATUS:               ID:20100630103852 L   I
 2010-06-30-1035-01S.COL___118                                                 6
 STAT SP IPHASW D HRMM SECON CODA AMPLIT PERI AZIMU VELO SNR AR TRES W  DIS CAZ7
 BAR2 SZ IP       1039 12.17                             166     0.110   35 226 
 BAR2 SZ ES   1   1039 27.24                             166     0.0 7   35 226 
 BRR  HZ EP   2   1039 13.85                             146    -0.7 5   90 292 
 BRR  HZ I        1039 15.48        12.0 0.09                            90 292 
 BRR  HN ES   2   1039 31.31                             146    -0.3 5   90 292 
 RUS  HZ EP   1   1039 16.16                             142     0.0 7  102 188 
 RUS  HN ES   2   1039 34.31                             142    -0.1 5  102 188 
 OCA  SZ EP   1   1039 21.01                             128     0.1 7  163 346 
 OCA  SZ I        1039 28.80        10.8 0.43                           163 346 
 HEL  HZ EP   2   1039 35.75                             112     0.8 4  292 257 
 HEL  HE ES   2   1040  8.21                             112     0.3 4  292 257 
 HEL  HZ I        1040 10.71         3.7 0.33                           292 257 
 PRA  HZ EP   2   1039 46.72                             105    -0.7 3  403 212 
 PRA  HE ES   2   1040 29.65                             105    -0.4 3  403 212 
 PRA  HZ I        1040 36.86         2.6 0.41                           403 212 
                                                                                
