 2015  730 1208 39.2 L   6.725 -73.189132.0  RSN 13 0.4 2.3LRSN                1
 GAP=227        0.96       3.8     4.3  5.4  0.5452E+01  0.1171E+02  0.5503E+01E
 Epicentro: VILLANUEVA - SANTANDER                                             3
 ACTION:UPD 15-09-08 21:51 OP:cam  STATUS:               ID:20150730120839 L   I
 OLDACT:REG 15-07-30 20:03 OP:drio STATUS:               ID:20150730120749     3
 2015-07-30-1207-49M.COL___313                                                 6
 STAT SP IPHASW D HRMM SECON CODA AMPLIT PERI AZIMU VELO AIN AR TRES W  DIS CAZ7
 BAR2 EZ EP       12 8 56.89                             173   -0.1210 14.7 177 
 BAR2 EZ ES       12 9 10.53                             173   -0.3810 14.7 177 
 BAR2 EZ I        12 9 13.58        38.9 0.32            168           14.7 177 
 BRR  HZ EP     C 12 8 58.78                             150   -0.1110 71.6 306 
 BRR  HN ES       12 9 15.01                             150    0.7610 71.6 306 
 BRR  HZ I        12 9 20.98        25.3 0.14            148           71.6 306 
 RUS  HZ EP       12 9  1.01                             143   -0.0210 92.8 173 
 RUS  HE ES       12 9 18.22                             143    0.1610 92.8 173 
 RUS  HZ I        12 9 21.94        27.0 0.52            145           92.8 173 
 ZAR  HZ EP       12 9 10.70                             119    0.04 9  203 295 
 ZAR  HE ES       12 9 34.63                             119   -0.57 9  203 295 
 ZAR  HZ I        12 9 40.44        33.4 0.64            122            203 295 
 NOR  HZ EP       12 9 12.67                             116   -0.53 8  226 235 
 NOR  HE ES       12 9 40.38                             116    0.64 8  226 235 
 NOR  HZ I        12 9 44.87        18.3 0.16            118            226 235 
 CHI  HZ EP       12 9 14.77                             115   -0.37 8  239 195 
 CHI  HE ES       12 9 42.99                             115   -0.19 8  239 195 
 CHI  HZ I        12 9 50.15        13.6 0.30            118            239 195 
 ROSC BZ EP       12 9 15.48                             115   -0.05 8  243 211 
 ROSC BE ES   4   12 9 45.26                             115    1.39 0  243 211 
 ROSC BZ I        12 9 50.02        24.1 0.40            117            243 211 
 HEL  HZ EP       12 9 18.28                             112    0.29 8  265 257 
 HEL  HE ES       12 9 47.80                             112   -0.46 8  265 257 
 HEL  HZ I        12 9 55.11        13.6 0.30            115            265 257 
 URE  HZ EP       12 9 19.61                             111    0.12 7  283 294 
 URE  HN ES   4   12 9 47.74                             111   -3.18 0  283 294 
 URE  HZ I        1210  0.92        18.5 0.28            114            283 294 
 GUY2CHZ EP       12 9 22.14                             110    0.94 7  293 236 
 GUY2CHE ES       12 9 54.23                             110    0.26 7  293 236 
 GUY2CHZ I        1210  2.40        12.1 0.58                           293 236 
 PTGC HZ EP   4   12 9 19.76                             109   -2.03 0  303 157 
 PTGC HE ES   4   12 9 52.71                             109   -2.31 0  303 157 
 CBOC HZ EP       12 9 25.41                             108    0.66 7  327 253 
 CBOC HE ES       12 9 59.77                             108   -0.51 7  327 253 
 CBOC HZ I        1210  7.33         4.7 0.36            110            327 253 
 DBB  SZ ES       1210  1.56                             107   -0.36 7  335 276 
 PAL  HZ EP       12 9 32.62                             104   -0.31 6  397 240 
 PAL  HN ES   4   1210 11.57                             104   -3.28 0  397 240 
 PAL  HZ I        1210 20.80         5.0 0.30            106            397 240 
                                                                                
