 2012 1230 1648 26.1 L   6.761 -73.158147.7  RSN  8 0.3 2.3LRSN                1
 GAP=181        0.72       3.5     4.7  4.7  0.8164E+00  0.2832E+01  0.9851E+00E
 Epicentro: LOS SANTOS - SANTANDER                                             3
 ACTION:UPD 13-01-04 14:31 OP:ep   STATUS:               ID:20121230164826 L   I
 2012-12-30-1640-00M.COL___242                                                 6
 STAT SP IPHASW D HRMM SECON CODA AMPLIT PERI AZIMU VELO AIN AR TRES W  DIS CAZ7
 BAR2 SZ IP     C 1648 45.91                             172    0.0210 18.9 188 
 BAR2 SZ ES       1649  1.18                             172   -0.1410 18.9 188 
 BAR2 SZ I        1649  3.93        55.1 0.31                          18.9 188 
 BRR  HZ IP     C 1648 47.83                             153    0.3110 72.2 302 
 BRR  HZ I        1648 48.09        56.2 0.16                          72.2 302 
 BRR  HE ES       1649  4.68                             153    0.4610 72.2 302 
 RUS  HZ EP       1648 49.76                             145    0.0110 96.4 175 
 RUS  HN ES   1   1649  8.18                             145   -0.02 7 96.4 175 
 RUS  HN I        1649 11.03        22.1 0.13                          96.4 175 
 PTB  HZ EP       1648 52.76                             133   -0.28 9  146 260 
 PTB  HN ES   1   1649 13.33                             133   -0.72 7  146 260 
 PTB  HZ I        1649 21.26        34.7 0.33                           146 260 
 OCA  HZ EP       1648 54.51                             129   -0.44 9  164 354 
 NOR  HZ EP   1   1649  1.48                             119   -0.09 6  231 235 
 NOR  HN ES   1   1649 29.48                             119    0.25 6  231 235 
 NOR  HZ I        1649 37.31        13.5 0.27                           231 235 
 CHI  HZ EP   1   1649  3.73                             118    0.30 6  244 195 
 CHI  HN ES   1   1649 32.50                             118   -0.04 6  244 195 
 CHI  HZ I        1649 41.48         5.1 0.40                           244 195 
 HEL  HZ EP   1   1649  6.64                             115    0.48 6  270 257 
                                                                                
