 2017  730 1225  8.3 L   6.784 -73.188145.6  RSN  6 0.4 1.4LRSN                1
 GAP=232        0.73       5.8     5.0  6.5  0.1133E+02  0.3964E+01 -0.6907E+01E
 Epicentro: ZAPATOCA - SANTANDER                                               3
 ACTION:UPD 17-08-30 15:38 OP:rebc STATUS:               ID:20170730122508 L   I
 OLDACT:UP  17-07-30 23:05 OP:and  STATUS:               ID:20170730121741d    3
 OLDACT:UP  17-07-30 23:05 OP:and  STATUS:               ID:20170730121741d    3
 OLDACT:DUP 17-07-30 23:02 OP:and  STATUS:               ID:20170730121741d    3
 2017-07-30-1218-00M.COL___380                                                 6
 STAT SP IPHASW D HRMM SECON CODA AMPLIT PERI AZIMU VELO AIN AR TRES W  DIS CAZ7
 BAR2 EZ IP     D 1225 27.54                             171   -0.3010 21.2 178 
 BAR2 EZ ES       1225 43.11                             171    0.0110 21.2 178 
 BAR2 EZ I        1225 44.19         4.9 0.12            165           21.2 178 
 BRR  HZ EP       1225 29.35                             153    0.1210 68.1 302 
 BRR  HE ES   2   1225 46.53                             153    0.96 5 68.1 302 
 RUS  HZ EP       1225 32.06                             144    0.1510 99.2 173 
 RUS  HN ES       1225 50.17                             144   -0.1710 99.2 173 
 RUS  HZ I        1225 52.26         2.5 0.42            144           99.2 173 
 PTB  HZ EP       1225 34.89                             133    0.11 9  143 259 
 PTB  HN ES       1225 55.25                             133   -0.21 9  143 259 
 PTB  HZ I        1226  0.36         1.7 0.25            128            143 259 
 SPBC HN ES   2   1225 59.00                             130    0.75 5  159 218 
 SPBC HZ I        1226  4.11         4.7 0.16            127            159 218 
 ZAR  HZ EP   3   1225 41.49                             123    1.15 2  200 293 
 ZAR  HN ES   2   1226  4.41                             123   -0.93 4  200 293 
 ZAR  HZ I        1226 15.67         3.2 0.28            121            200 293 
                                                                                
