 2013  330 1339 49.0 L   6.760 -73.161154.0  RSN 13 0.5 2.8LRSN 3.1WRSN        1
 SPEC AVERAGE  MO 13.7 ST  9.8 OM  2.5 f0 4.94 R0.3763 AL 2.07 WI 33.5 MW  3.1 3
 SPEC SD       MO  0.3 ST 11.2 OM  1.0 f0 1.54 R0.1011 AL      WI      MW  0.2 3
 GAP= 72        0.84       3.8     3.0  4.8  0.2702E+01  0.9860E+00 -0.4240E+01E
 Epicentro: LOS SANTOS - SANTANDER                                             3
 SPEC PRA HH Z MO 13.7 ST  1.7 OM  1.7 f0 2.85 R0.5158 AL 2.00 WI 33.5 MW  3.1 3
 SPEC PRA HH Z T134126 K 0.000 GD  416 VS 4.20 DE 3.20 Q0300.0 QA 0.60 VS 4.20 3
 SPEC COD HH N MO 13.3 ST  2.1 OM  1.0 f0 5.45 R0.3339 AL 1.12 WI 38.3 MW  2.8 3
 SPEC COD HH N T134113 K 0.050 GD  384 VS 5.20 DE 3.20 Q0750.0 QA 1.50 VS 5.20 3
 SPEC BRR HH E MO 14.1 ST 25.7 OM  2.2 f0 6.52 R0.2791 AL 3.09 WI 28.6 MW  3.3 3
 SPEC BRR HH E T134027 K 0.050 GD  169 VS 5.20 DE 3.20 Q0750.0 QA 1.50 VS 5.20 3
 ACTION:UPD 13-04-09 14:05 OP:ep   STATUS:               ID:20130330133948 L   I
 2013-03-30-1340-00M.COL___245                                                 6
 STAT SP IPHASW D HRMM SECON CODA AMPLIT PERI AZIMU VELO AIN AR TRES W  DIS CAZ7
 BAR2 SZ IP       1340  9.29                             173   -0.2210 18.7 187 
 BAR2 SZ ES       1340 25.52                             173   -0.0110 18.7 187 
 BAR2 SZ I        1340 26.93        76.8 0.24            170           18.7 187 
 BRR  HZ IP     C 1340 11.10                             154    0.0510 71.9 302 
 BRR  HE ES       1340 28.61                             154    0.3310 71.9 302 
 BRR  HE I        1340 31.58       151.3 0.18            143           71.9 302 
 PAM  SZ EP   1   1340 12.17                             151   -0.16 7 81.9  39 
 RUS  HZ EP       1340 13.20                             147   -0.0510 96.4 175 
 RUS  HN ES       1340 32.15                             147   -0.0410 96.4 175 
 PTB  HZ EP   1   1340 16.41                             134    0.01 7  145 260 
 PTB  HN ES       1340 37.68                             134   -0.12 9  145 260 
 PTB  HN I        1340 42.62       124.6 0.34            125            145 260 
 TAM  HZ EP       1340 17.51                             132    0.14 9  156 103 
 TAM  HE ES       1340 39.39                             132   -0.13 9  156 103 
 TAM  HE I        1340 39.68        79.0 0.62            129            156 103 
 OCA  HZ EP   1   1340 18.28                             131   -0.03 7  164 354 
 ZAR  HZ EP       1340 22.00                             124    0.02 9  204 293 
 ZAR  HN ES   1   1340 47.69                             124   -0.03 6  204 293 
 ZAR  HN I        1340 55.06        78.2 0.40            116            204 293 
 HEL  HN I        1341  8.19        23.6 0.34            110            269 257 
 URE  HZ EP       1340 29.22                             115   -1.24 7  284 293 
 URE  HN I        1341 13.23        52.4 0.30            109            284 293 
 DBB  SZ EP       1340 36.93                             111    0.29 7  338 275 
 DBB  SZ ES   2   1341 13.56                             111   -0.26 3  338 275 
 COD  HZ EP   2   1340 38.56                             110    0.40 3  352 355 
 COD  HN ES   1   1341 17.82                             110    1.28 5  352 355 
 PRA  HZ EP   1   1340 42.82                             108    0.57 4  387 210 
 PRA  HN ES   1   1341 25.14                             108    1.34 4  387 210 
 PRA  HZ I        1341 28.81         8.6 0.35            103            387 210 
                                                                                
