 2012  830 1415 46.4 L   6.936 -73.276131.0  RSN  6 0.3 2.0LRSN                1
 GAP=135        0.73       6.5     4.8  6.5  0.8948E+01  0.9214E+01 -0.1461E+01E
 Epicentro: BETULIA - SANTANDER                                                3
 ACTION:UPD 12-09-10 11:59 OP:ep   STATUS:               ID:20120830141546 L   I
 2012-08-30-1410-00M.COL___218                                                 6
 STAT SP IPHASW D HRMM SECON CODA AMPLIT PERI AZIMU VELO AIN AR TRES W  DIS CAZ7
 GIR2 SZ EP       1416  3.74                             172   -0.2210 18.3  30 
 GIR2 SZ ES   1   1416 17.05                             172   -0.64 7 18.3  30 
 BAR2 SZ EP       1416  4.95                             162    0.2610 39.4 165 
 BAR2 SZ ES   1   1416 19.26                             162    0.27 7 39.4 165 
 BAR2 SZ I        1416 20.73        51.2 0.38                          39.4 165 
 BRR  HZ EP       1416  4.97                             157    0.1110 51.8 292 
 BRR  HZ I        1416  5.86        32.8 0.09                          51.8 292 
 BRR  HE ES   1   1416 19.95                             157    0.66 7 51.8 292 
 RUS  HN ES   2   1416 28.26                             136   -0.26 5  117 170 
 PTB  HZ EP   1   1416 11.06                             131   -0.15 7  138 252 
 PTB  HN ES   1   1416 30.25                             131   -0.34 7  138 252 
 PTB  HZ I        1416 33.46         7.8 0.14                           138 252 
 ZAR  HZ EP   1   1416 16.07                             122    0.17 7  185 290 
 ZAR  HN ES   1   1416 38.76                             122   -0.18 7  185 290 
 ZAR  HZ I        1416 43.98         9.5 0.32                           185 290 
                                                                                
