 2013  930 1435 25.0 L   6.839 -73.131147.2  RSN  5 0.5 1.6LRSN                1
 GAP=151        1.25       7.4     7.8  9.6 -0.1356E+02  0.2777E+02 -0.2019E+02E
 Epicentro: LOS SANTOS - SANTANDER                                             3
 ACTION:UPD 13-10-22 09:26 OP:ep   STATUS:               ID:20130930143525 L   I
 OLDACT:DUP 13-09-30 18:15 OP:stll STATUS:               ID:20130930142849d    3
 2013-09-30-1428-48M.COL___237                                                 6
 STAT SP IPHASW D HRMM SECON CODA AMPLIT PERI AZIMU VELO AIN AR TRES W  DIS CAZ7
 BAR2 SZ EP       1435 44.94                             169    0.0810 27.8 192 
 BAR2 SZ ES       1436  0.39                             169    0.0110 27.8 192 
 BAR2 SZ I        1436  1.02         5.3 0.28            172           27.8 192 
 BRR  HZ EP       1435 47.10                             153    0.8710 70.7 295 
 BRR  HN ES       1436  3.46                             153    0.6310 70.7 295 
 BRR  HZ I        1436  4.71         7.3 0.48            151           70.7 295 
 PAM  SN ES       1436  3.79                             152   -0.5410 73.1  41 
 PAM  SZ I        1436  6.88        11.2 0.54            152           73.1  41 
 PTB  HZ EP       1435 51.92                             132   -0.34 9  150 257 
 PTB  HN ES       1436 12.88                             132   -0.68 9  150 257 
 PTB  HZ I        1436 15.85         3.2 0.38            133            150 257 
 SML  HZ EP       1436  1.35                             118    0.03 8  240 335 
 SML  HN ES       1436 29.39                             118   -0.29 8  240 335 
 SML  HZ I        1436 34.95         5.7 0.10            118            240 335 
                                                                                
