 2017  630 1425 13.1 L   6.757 -73.141146.0  RSN  6 0.3 1.8LRSN                1
 GAP=162        0.70       4.4     2.5  5.4  0.2027E+01 -0.8225E+00  0.1942E+01E
 Epicentro: LOS SANTOS - SANTANDER                                             3
 ACTION:UPD 17-09-14 16:56 OP:jn   STATUS:               ID:20170630142513 L   I
 OLDACT:DUP 17-07-01 00:30 OP:osc  STATUS:               ID:20170630141738d    3
 2017-06-30-1418-00M.COL___362                                                 6
 STAT SP IPHASW D HRMM SECON CODA AMPLIT PERI AZIMU VELO AIN AR TRES W  DIS CAZ7
 BAR2 EZ EP       1425 32.35                             172   -0.2910 18.8 194 
 BAR2 EZ ES       1425 47.74                             172   -0.1710 18.8 194 
 BAR2 EZ I        1425 48.48        17.4 0.20            172           18.8 194 
 BRR  HZ EP       1425 34.67                             151    0.2710 74.0 302 
 BRR  HE ES       1425 51.20                             151    0.1510 74.0 302 
 PTB  HZ EP   4   1425 39.40                             132   -0.62 0  147 261 
 PTB  HE ES       1426  0.57                             132   -0.48 9  147 261 
 PTB  HZ I        1426  2.54         6.4 0.16            130            147 261 
 TAM  HZ EP       1425 40.67                             131    0.06 9  153 103 
 TAM  HE ES       1426  2.08                             131   -0.01 9  153 103 
 SPBC HZ EP       1425 41.57                             129    0.30 9  160 220 
 SPBC HE ES       1426  3.48                             129    0.21 9  160 220 
 SPBC HZ I        1426  5.87         6.5 0.07            128            160 220 
 ZAR  HZ EP   2   1425 44.86                             122   -0.91 4  206 293 
 ZAR  HE ES       1426 11.49                             122    0.22 8  206 293 
 ZAR  HZ I        1426 17.91         8.1 0.32            120            206 293 
                                                                                
