 2012  930 1110 13.3 L   6.694 -73.146145.0  RSN  6 0.3 1.9LRSN                1
 GAP=207        0.52       6.3     3.8  6.0 -0.1110E+01  0.8119E+01  0.4482E+01E
 Epicentro: VILLANUEVA - SANTANDER                                             3
 ACTION:UPD 12-10-22 14:21 OP:ep   STATUS:               ID:20120930111013 L   I
 2012-09-30-1110-00M.COL___220                                                 6
 STAT SP IPHASW D HRMM SECON CODA AMPLIT PERI AZIMU VELO AIN AR TRES W  DIS CAZ7
 BAR2 SZ EP   1   1110 32.81                             175    0.18 7 11.9 200 
 BAR2 SZ ES   1   1110 47.73                             175   -0.01 7 11.9 200 
 BAR2 SZ I        1110 49.81        15.7 0.22                          11.9 200 
 GIR2 SZ EP   1   1110 32.95                             163   -0.27 7 42.9 353 
 GIR2 SZ ES   1   1110 48.74                             163   -0.04 7 42.9 353 
 BRR  HZ EP   1   1110 34.79                             150    0.09 7 77.4 306 
 BRR  HZ I        1110 35.19        16.8 0.12                          77.4 306 
 BRR  HN ES   1   1110 51.71                             150    0.29 7 77.4 306 
 PTB  HN ES   1   1111  0.36                             132   -0.50 7  146 263 
 PTB  HN I        1111  2.98        11.8 0.21                           146 263 
 ZAR  HE ES   1   1111 11.73                             121   -0.06 6  209 295 
 ZAR  HZ I        1111 15.96         5.0 0.10                           209 295 
 HEL  HN ES   1   1111 24.65                             115    0.40 6  269 258 
 HEL  HZ I        1111 31.55         3.3 0.42                           269 258 
                                                                                
