 2017  830 1552 50.0 L   6.827 -73.121141.2  RSN 21 0.7 2.5LRSN                1
 GAP= 73        1.37       3.8     3.5  6.4 -0.7303E+00  0.6970E+01  0.7519E+01E
 Epicentro: LOS SANTOS - SANTANDER                                             3
 ACTION:UPD 17-09-04 20:26 OP:rebc STATUS:               ID:20170830155250 L   I
 OLDACT:REG 17-08-30 20:59 OP:dhb  STATUS:               ID:20170830154747     3
 2017-08-30-1548-00M.COL___405                                                 6
 STAT SP IPHASW D HRMM SECON CODA AMPLIT PERI AZIMU VELO AIN AR TRES W  DIS CAZ7
 BAR2 EZ IP     C 1553  8.89                             169   -0.3210 26.9 195 
 BAR2 EZ ES       1553 23.69                             169   -0.4710 26.9 195 
 BAR2 EZ I        1553 25.23        68.1 0.22            165           26.9 195 
 BRR  HZ EP       1553 10.70                             151   -0.0710 72.2 295 
 BRR  HN ES       1553 27.65                             151    0.7210 72.2 295 
 BRR  HZ I        1553 28.62        35.0 0.19            152           72.2 295 
 PAM  EZ IP     D 1553 11.83                             151    0.2910 73.3  39 
 PAM  EN ES       1553 28.53                             151    0.2310 73.3  39 
 PAM  EZ I        1553 31.15        45.9 0.58            156           73.3  39 
 RUS  HZ EP       1553 13.45                             142   -0.1210  103 178 
 RUS  HN ES       1553 31.58                             142   -0.3410  103 178 
 TAM  HZ IP     D 1553 17.23                             130    0.03 9  153 106 
 TAM  HN ES       1553 38.61                             130    0.23 9  153 106 
 SPBC HZ IP     C 1553 17.87                             127   -0.72 9  167 219 
 SPBC HN ES       1553 40.27                             127   -0.59 9  167 219 
 SPBC HZ I        1553 42.53        38.5 0.16            127            167 219 
 YPLC HZ IP     D 1553 19.25                             125   -0.41 9  178 153 
 YPLC HN ES       1553 43.27                             125    0.52 9  178 153 
 YPLC HZ I        1553 45.79        20.0 0.30            126            178 153 
 ZAR  HZ IP       1553 22.38                             121    0.03 8  205 291 
 ZAR  HN ES       1553 47.22                             121   -0.32 8  205 291 
 TABC EZ EP       1553 26.66                             118    0.70 8  234 211 
 TABC EZ ES       1553 53.62                             118   -0.35 8  234 211 
 TABC EZ I        1553 58.69        34.4 0.24            118            234 211 
 NOR  HZ EP       1553 25.24                             117   -0.71 8  239 234 
 NOR  HN ES       1553 53.30                             117   -0.65 8  239 234 
 NOR  HZ I        1553 54.89        25.7 0.11            117            239 234 
 CHI  HZ EP       1553 27.57                             116   -0.33 8  252 196 
 CHI  HN ES       1553 57.33                             116   -0.09 8  252 196 
 CHI  HZ I        1554  3.91        11.5 0.62            116            252 196 
 ROSC BZ EP       1553 29.40                             115    1.04 8  257 211 
 ROSC BN ES       1553 59.53                             115    1.28 8  257 211 
 ROSC BZ I        1554  5.70        20.3 0.25            116            257 211 
 HEL  HZ EP       1553 30.08                             113   -0.33 7  275 255 
 HEL  HE ES       1554  1.32                             113   -0.57 7  275 255 
 HEL  HZ I        1554  8.48        14.0 0.74            114            275 255 
 GUY2CHZ EP       1553 34.03                             111    0.13 7  305 235 
 GUY2CHE ES       1554 10.03                             111    1.93 7  305 235 
 GUY2CHZ I        1554 13.62        13.8 0.39                           305 235 
 VIL  HE ES       1554  6.42                             111   -1.26 7  307 192 
 VIL  EZ I        1554 17.70        16.4 0.43            111            307 192 
 ELA  HN ES       1554 14.34                             109    0.41 7  333 229 
 ANIL HZ EP       1553 40.86                             107    0.71 6  361 224 
 ANIL HE ES       1554 20.04                             107    0.81 6  361 224 
 ANIL HZ I        1554 28.74        25.4 0.32            108            361 224 
 PRA  HZ EP       1553 43.50                             105   -0.38 6  396 210 
 PRA  HE ES       1554 25.39                             105   -0.48 6  396 210 
 PRA  HZ I        1554 31.09        14.7 0.29            106            396 210 
 ORTC HZ EP       1553 44.42                             105    0.13 6  399 216 
 ORTC HN ES       1554 28.21                             105    1.61 6  399 216 
 ORTC HZ I        1554 30.26         8.2 0.42            106            399 216 
 SJC  HZ EP   9   1553 43.42                             105   -1.92 0  408 326 
 SJC  HE ES       1554 26.57                                    0.02 6  408 326 
 SJC  HZ I        1554 28.23         7.3 0.43            106            408 326 
 PAL  HZ EP       1553 44.92                             105   -0.60 6  410 239 
 PAL  HE ES       1554 28.04                             105   -0.74 6  410 239 
 PAL  HZ I        1554 33.42         4.5 0.56            106            410 239 
                                                                                
