 2015  930 1524 29.4 L   6.753 -73.127139.8  RSN 12 0.3 2.1LRSN                1
 GAP=141        0.70       3.4     3.1  4.6 -0.3379E+01  0.2899E+01  0.3065E+01E
 Epicentro: LOS SANTOS - SANTANDER                                             3
 ACTION:UPD 15-10-28 16:29 OP:cam  STATUS:               ID:20150930152429 L   I
 OLDACT:REG 15-09-30 20:33 OP:ar   STATUS:               ID:20150930151749     3
 2015-09-30-1517-49M.COL___358                                                 6
 STAT SP IPHASW D HRMM SECON CODA AMPLIT PERI AZIMU VELO AIN AR TRES W  DIS CAZ7
 BAR2 EZ EP     C 1524 48.08                             172   -0.1010 18.8 199 
 BAR2 EZ ES       1525  2.61                             172   -0.2610 18.8 199 
 BAR2 EZ I        1525  3.68        30.4 0.20            170           18.8 199 
 BRR  HZ EP       1524 50.27                             150    0.1510 75.5 301 
 BRR  HN ES       1525  7.01                             150    0.6910 75.5 301 
 BRR  HZ I        1525 11.08        30.9 0.14            146           75.5 301 
 PAM  EZ EP       1524 50.99                             149   -0.1310 80.3  36 
 PAM  EN ES       1525  7.80                             149   -0.3010 80.3  36 
 PAM  EZ I        1525 10.33        15.9 0.40            150           80.3  36 
 RUS  HZ EP   2   1524 52.24                             144    0.10 5 95.3 177 
 RUS  HN ES   2   1525 10.55                             144    0.64 5 95.3 177 
 RUS  HZ I        1525 11.25        16.8 0.24            146           95.3 177 
 PTB  HZ EP       1524 56.18                             130    0.24 9  149 261 
 PTB  HN ES       1525 16.55                             130   -0.13 9  149 261 
 PTB  HZ I        1525 18.58        21.5 0.12            129            149 261 
 SPBC HZ EP       1524 57.31                             128    0.17 9  160 221 
 SPBC HN ES       1525 18.77                             128   -0.05 9  160 221 
 SPBC HZ I        1525 19.97        15.8 0.26            128            160 221 
 ZAR  HZ EP   2   1525  1.41                             120   -0.41 4  208 293 
 ZAR  HN ES   2   1525 27.03                             120   -0.12 4  208 293 
 ZAR  HZ I        1525 33.02        20.3 0.28            119            208 293 
 NOR  HZ EP   2   1525  4.76                             117    0.16 4  233 236 
 NOR  HN ES   2   1525 31.94                             117   -0.15 4  233 236 
 NOR  HZ I        1525 38.46        10.0 0.18            117            233 236 
 CHI  HZ EP   2   1525  6.50                             116    0.26 4  244 196 
 CHI  HN ES   2   1525 34.95                             116   -0.06 4  244 196 
 CHI  HZ I        1525 38.73         5.3 0.58            117            244 196 
 SML  HZ EP   9   1525  4.72                             116   -1.54 0  249 335 
 SML  HN ES   2   1525 32.92                                   -0.59 4  249 335 
 SML  HZ I        1525 39.46        20.6 0.10            115            249 335 
 HEL  HZ EP   2   1525  9.92                             113    0.57 4  273 257 
 HEL  HN ES       1525 39.77                             113   -0.78 8  273 257 
 HEL  HZ I        1525 47.22         7.9 0.32            113            273 257 
 GUY2CHZ EP   9   1525 13.91                             111    1.37 0  300 236 
 GUY2CHN ES   2   1525 47.52                                   -0.08 4  300 236 
 GUY2CHZ I        1525 55.46         5.7 0.32                           300 236 
                                                                                
