 2017 1130 1946 40.4 L   6.789 -73.177142.3  RSN 14 0.5 2.1LRSN                1
 GAP=109        0.99       2.6     3.6  6.0 -0.5515E+00  0.6427E+01 -0.6452E+00E
 Epicentro: LOS SANTOS - SANTANDER                                             3
 ACTION:UPD 17-12-12 20:02 OP:rebc STATUS:               ID:20171130194640 L   I
 OLDACT:UP  17-12-01 01:14 OP:mg   STATUS:               ID:20171130193304     3
 OLDACT:REG 17-11-30 22:09 OP:mg   STATUS:               ID:20171130193304     3
 2017-11-30-1938-00M.COL___477                                                 6
 STAT SP IPHASW D HRMM SECON CODA AMPLIT PERI AZIMU VELO AIN AR TRES W  DIS CAZ7
 BAR2 EZ EP       1946 59.52                             171   -0.0710 21.7 181 
 BAR2 EZ ES   2   1947 14.75                             171    0.20 5 21.7 181 
 BAR2 EZ I        1947 15.71        53.1 0.26            171           21.7 181 
 PAM  EZ EP     D 1947  2.31                             149   -0.1410 80.6  41 
 PAM  EN ES       1947 19.62                             149   -0.0310 80.6  41 
 PAM  EZ I        1947 21.25        10.9 0.16            146           80.6  41 
 RUS  HZ EP       1947  3.59                             143   -0.1610 99.6 174 
 RUS  HN ES       1947 21.31                             143   -0.6510 99.6 174 
 RUS  HZ I        1947 23.10        25.9 0.24            142           99.6 174 
 PTB  HZ EP       1947  6.22                             132   -0.54 9  144 259 
 PTB  HN ES       1947 27.11                             132   -0.20 9  144 259 
 PTB  HZ I        1947 31.16         9.8 0.18            125            144 259 
 SPBC HZ EP       1947  8.99                             129    0.65 9  160 218 
 SPBC HN ES       1947 30.45                             129    0.32 9  160 218 
 SPBC HZ I        1947 31.91        23.0 0.09            124            160 218 
 OCA  HN ES   2   1947 31.18                             129    0.71 5  161 354 
 OCA  HZ I        1947 33.64        49.2 0.14            123            161 354 
 YPLC HZ EP       1947  9.65                             126   -0.36 9  177 150 
 YPLC HE ES       1947 34.03                             126    0.93 9  177 150 
 YPLC HZ I        1947 34.60         9.2 0.30            123            177 150 
 ZAR  HZ EP       1947 12.25                             122   -0.09 9  201 293 
 ZAR  HE ES   1   1947 37.62                             122    0.37 6  201 293 
 ZAR  HZ I        1947 43.65        21.4 0.32            116            201 293 
 NOR  HZ EP       1947 15.84                             118    0.29 8  231 234 
 NOR  HN ES   1   1947 42.94                             118   -0.02 6  231 234 
 NOR  HZ I        1947 45.18         9.3 0.16            113            231 234 
 CHI  HZ EP       1947 17.65                             116   -0.03 8  247 194 
 CHI  HN ES       1947 46.50                             116   -0.26 8  247 194 
 CHI  HZ I        1947 52.49         4.8 0.24            113            247 194 
 URE  HZ EP       1947 20.10                             113   -0.90 7  281 292 
 URE  HZ I        1948  2.21         9.2 0.09            108            281 292 
 DRL03HZ EP       1947 22.18                             112    0.24 7  290 354 
 DRL03HN ES       1947 54.86                             112    0.52 7  290 354 
 GUY2CHZ EP   2   1947 24.42                             112    0.97 4  298 235 
 GUY2CHE ES   3   1947 59.51                             112    2.49 2  298 235 
 GUY2CHZ I        1948  6.33         6.1 0.48                           298 235 
 PRA  HZ EP   1   1947 32.76                             106   -0.72 4  389 209 
 PRA  HE ES       1948 15.37                             106    0.49 6  389 209 
 PRA  HZ I        1948 20.61         5.1 0.31            103            389 209 
 SJC  HZ EP   9   1947 33.55                             105   -2.20 0  408 327 
 SJC  HN ES   4   1948 15.64                             105   -1.08 0  408 327 
                                                                                
