 2011  630 1557 27.0 L   6.774 -73.093140.8  RSN  7 0.4 1.5LRSN                1
 GAP=145        0.82       5.2     9.5  9.4  0.8017E+01 -0.4168E+02 -0.1299E+02E
 Epicentro: LOS SANTOS - SANTANDER                                             3
 ACTION:UP  11-07-14 19:09 OP:ep   STATUS:               ID:20110630155727 L   I
 2011-06-30-1557-01S.COL___140                                                 6
 STAT SP IPHASW D HRMM SECON CODA AMPLIT PERI AZIMU VELO SNR AR TRES W  DIS CAZ7
 BAR2 SZ EP       1557 45.66                             171    -0.310   22 206 
 BAR2 SZ ES   2   1558  0.26                             171    -0.6 5   22 206 
 BAR2 SZ I        1558  1.41         6.9 0.22                            22 206 
 BTL  SZ EP       1557 46.17                             170     0.110   25 310 
 BTL  SZ ES   2   1558  1.62                             170     0.7 5   25 310 
 PAM  SZ EP       1557 48.76                             150     0.210   76  35 
 BRR  HZ EP       1557 47.70                             150    -0.310   78 298 
 BRR  HN ES   1   1558  4.44                             150     0.1 7   78 298 
 BRR  HZ I        1558 20.90        14.1 0.39                            78 298 
 RUS  HZ EP       1557 50.28                             144     0.210   98 179 
 RUS  HN ES   1   1558  7.87                             144    -0.1 7   98 179 
 RUS  HZ I        1558  9.42         3.9 0.39                            98 179 
 BRI  SZ EP       1557 50.72                             140     0.210  109  17 
 GRA  SZ ES   3   1558  9.69                             135    -1.6 2  127  15 
 GRA  SZ I        1558 12.28         3.7 0.42                           127  15 
                                                                                
