 2012  130 1451 29.4 L   6.292 -73.677 99.6  RSN  6 0.2 1.5LRSN                1
 GAP=134        0.41       2.3     4.1  5.8  0.5071E+01  0.1663E+02  0.6099E+01E
 Epicentro: SANTA HELENA DEL OPON - SANTANDER                                  3
 ACTION:UP  12-02-03 08:22 OP:REBC STATUS:               ID:20120130145129 L   I
 2012-01-30-1450-00M.COL___188                                                 6
 STAT SP IPHASW D HRMM SECON CODA AMPLIT PERI AZIMU VELO SNR AR TRES W  DIS CAZ7
 BAR2 SZ EP       1451 45.74                             145     0.110   64  59 
 BAR2 SZ ES   1   1451 58.35                             145     0.1 7   64  59 
 BAR2 SZ I        1452  0.17        16.4 0.35                            64  59 
 RUS  HZ EP   1   1451 47.03                             139    -0.1 7   79 124 
 RUS  HN ES   1   1452  0.93                             139     0.0 7   79 124 
 RUS  HZ I        1452  3.08         5.0 0.22                            79 124 
 BRR  HZ EP   1   1451 47.33                             135     0.0 7   90 358 
 BRR  HN ES   1   1452  1.41                             135     0.0 7   90 358 
 BRR  HZ I        1452  2.45        13.9 0.33                            90 358 
 GIR2 SZ EP   1   1451 48.40                             131    -0.2 7  102  32 
 CHI  HZ EP   1   1451 57.90                             115     0.3 7  184 182 
 CHI  HN ES   2   1452 19.19                             115    -0.3 4  184 182 
 CHI  HZ I        1452 28.30         2.1 0.34                           184 182 
 ZAR  HZ EP   1   1451 57.27                             114     0.0 7  186 316 
 ZAR  HE ES   2   1452 19.13                             114     0.1 4  186 316 
 ZAR  HZ I        1452 22.83         3.9 0.18                           186 316 
                                                                                
