 2011  430 1553 27.2 L   6.760 -73.116144.7  RSN  6 0.2 2.2LRSN                1
 GAP=142        0.49       4.0     4.6  4.6 -0.3071E+01  0.1230E+01  0.3957E+01E
 Epicentro: LOS SANTOS - SANTANDER                                             3
 ACTION:UP  11-06-22 15:34 OP:REBC STATUS:               ID:20110430155327 L   I
 2011-04-30-1549-09S.COL___130                                                 6
 STAT SP IPHASW D HRMM SECON CODA AMPLIT PERI AZIMU VELO SNR AR TRES W  DIS CAZ7
 BAR2 SZ EP   1   1553 46.38                             172    -0.2 7   20 201 
 BAR2 SZ ES   1   1554  1.47                             172    -0.3 7   20 201 
 BAR2 SZ I        1554  2.53        25.9 0.24                            20 201 
 BTL  SZ EP   1   1553 46.64                             170     0.0 7   24 316 
 BTL  SZ ES   2   1554  1.84                             170    -0.1 5   24 316 
 BRR  HZ EP   1   1553 48.16                             151    -0.3 7   76 300 
 BRR  HZ I        1553 48.41        62.2 0.11                            76 300 
 BRR  HN ES   1   1554  5.47                             151     0.4 7   76 300 
 PAM  SZ EP   1   1553 49.46                             150     0.1 7   79  36 
 PAM  SN ES   2   1554  6.70                             150     0.0 5   79  36 
 RUS  HZ EP   1   1553 50.70                             145     0.2 7   96 178 
 RUS  HN ES   2   1554  8.93                             145     0.3 5   96 178 
 RUS  HZ I        1554 11.03        13.3 0.28                            96 178 
 NOR  SZ EP   1   1554  2.94                             118     0.1 6  235 236 
 NOR  SN ES   2   1554 30.42                             118    -0.2 4  235 236 
                                                                                
