 2014  130 1828 60.0 L   6.552 -73.515108.1  RSN 14 0.5 2.2LRSN                1
 GAP= 64        1.20       2.8     4.0  6.7 -0.3018E+01  0.1251E+02 -0.2289E+01E
 Epicentro: EL CARMEN DE CHUCURI - SANTANDER                                   3
 ACTION:UPD 14-03-13 09:59 OP:ep   STATUS:               ID:20140130182860 L   I
 OLDACT:REG 14-01-30 19:45 OP:nd   STATUS:               ID:20140130182800     3
 2014-01-30-1828-00S.MAN___288                                                 6
 STAT SP IPHASW D HRMM SECON CODA AMPLIT PERI AZIMU VELO AIN AR TRES W  DIS CAZ7
 BAR2 SZ IP     C 1829 15.84                             160    0.2610 37.0  83 
 BAR2 SZ ES       1829 28.11                             160    0.3610 37.0  83 
 BAR2 SZ I        1829 29.97       186.5 0.42            166           37.0  83 
 BRR  HZ EP       1829 16.61                             146   -0.1810 65.1 340 
 BRR  HN ES       1829 30.04                             146    0.1410 65.1 340 
 BRR  HZ I        1829 38.39        18.6 0.26            147           65.1 340 
 RUS  HZ EP       1829 19.06                             138   -0.0610 87.2 147 
 RUS  HN ES       1829 33.91                             138   -0.1410 87.2 147 
 RUS  HZ I        1829 36.01        24.7 0.38            145           87.2 147 
 PTB  HZ EP   4 C 1829 18.66                             132   -1.26 0  104 269 
 PTB  HN ES   4   1829 33.42                             132   -2.06 0  104 269 
 PTB  HZ I        1829 38.36        31.5 0.40            134            104 269 
 SPBC HZ EP   4   1829 18.73                             129   -2.49 0  117 212 
 SPBC HN ES       1829 37.20                             129   -0.5910  117 212 
 SPBC HZ I        1829 42.99        38.5 0.24            132            117 212 
 PAM  SZ EP       1829 22.04                             127   -0.5010  125  46 
 PAM  SN ES       1829 40.03                             127   -0.1110  125  46 
 PAM  SZ I        1829 42.72        12.0 0.18            132            125  46 
 ZAR  HZ EP       1829 28.62                             116    0.87 9  181 305 
 ZAR  HN ES   2   1829 49.77                             116    0.36 4  181 305 
 ZAR  HZ I        1829 52.31        26.8 0.28            118            181 305 
 NOR  HZ EP       1829 27.41                             115   -0.88 9  186 234 
 NOR  HN ES   2   1829 49.87                             115   -0.49 4  186 234 
 NOR  HZ I        1829 53.38        17.5 0.14            118            186 234 
 OCA  HZ EP       1829 29.46                             115    0.80 9  188   7 
 OCA  HN ES       1829 50.81                             115   -0.22 9  188   7 
 OCA  HZ I        1829 57.81        23.4 0.30            118            188   7 
 CHI  HZ EP       1829 31.58                             112   -0.34 8  214 186 
 CHI  HN ES       1829 57.68                             112    0.85 8  214 186 
 CHI  HZ I        1830  2.29         4.6 0.38            116            214 186 
 HEL  HZ EP       1829 34.30                             110    1.02 8  226 260 
 HEL  HN ES       1829 58.85                             110   -0.41 8  226 260 
 HEL  HZ I        1830  3.58         9.9 0.36            113            226 260 
 GUY2CHZ EP       1829 36.56                             108    0.18 8  252 234 
 GUY2CHN ES       1830  4.90                             108    0.13 8  252 234 
 GUY2CHZ I        1830 10.83         9.9 0.28                           252 234 
 SML  HZ EP       1829 35.54                             107   -0.72 8  256 346 
 SML  HN ES       1830  4.22                             107   -0.33 8  256 346 
 SML  HZ I        1830 13.69        18.0 0.10            110            256 346 
 PRA  HZ EP   4   1829 46.86                             101   -0.41 0  349 206 
 PRA  HN ES   4   1830 24.11                             101   -0.05 0  349 206 
 PRA  HZ I        1830 32.80         6.0 0.22            104            349 206 
                                                                                
