 2010  730 1640 44.6 L   6.746 -73.131146.0  RSN  6 0.4 1.9LRSN                1
 GAP=161        0.69       4.8     9.6  8.2 -0.9433E+01  0.3673E+01  0.3308E+01E
 Epicentro: JORDAN - SANTANDER                                                 3
 ACTION:UPD 10-12-01 15:21 OP:pat  STATUS:               ID:20100730164044 L   I
 2010-07-30-1637-37S.COL___123                                                 6
 STAT SP IPHASW D HRMM SECON CODA AMPLIT PERI AZIMU VELO AIN AR TRES W  DIS CAZ7
 BAR2 SZ EP   1   1641  3.96                             173    -0.2 7   18 199 
 BAR2 SZ ES   2   1641 19.26                             173    -0.1 5   18 199 
 BAR2 SZ I        1641 20.67        23.3 0.20                            18 199 
 GIR2 SZ EP   1   1641  4.06                             165    -0.4 7   37 349 
 BRR  HZ IP     D 1641  5.86                             151    -0.210   76 302 
 BRR  HE ES   2   1641 23.10                             151     0.4 5   76 302 
 BRR  HZ I        1641 25.52        15.5 0.68                            76 302 
 RUS  HZ EP   1   1641  7.81                             146    -0.1 7   95 177 
 RUS  HE ES   2   1641 26.53                             146     0.4 5   95 177 
 RUS  HZ I        1641 27.78         7.7 0.33                            95 177 
 GRA  SZ EP   1   1641 10.71                             136     0.4 7  131  16 
 GRA  SZ ES   2   1641 30.74                             136     0.4 5  131  16 
 GRA  SZ I        1641 31.96         7.8 0.48                           131  16 
 PRA  HZ EP   1   1641 37.63                             107     0.0 4  388 210 
 PRA  HE ES   2   1642 20.14                             107     1.2 3  388 210 
 PRA  HZ I        1642 25.63         5.6 0.37                           388 210 
                                                                                
