 2015  130 1035 18.5 L   6.173 -73.670113.4  RSN  6 0.4 1.3LRSN                1
 GAP=113        0.78       3.6     4.4  8.1  0.1217E+01 -0.1855E+01  0.7411E+01E
 Epicentro: LA PAZ - SANTANDER                                                 3
 ACTION:UPD 15-03-02 15:43 OP:nd   STATUS:               ID:20150130103518 L   I
 OLDACT:REG 15-01-30 19:10 OP:spq  STATUS:               ID:20150130102748     3
 2015-01-30-1027-48M.COL___268                                                 6
 STAT SP IPHASW D HRMM SECON CODA AMPLIT PERI AZIMU VELO AIN AR TRES W  DIS CAZ7
 BAR2 EZ EP       1035 36.45                             146   -0.1310 71.1  49 
 BAR2 EZ ES   1   1035 50.54                             146   -0.15 7 71.1  49 
 BAR2 EZ I        1035 51.51         6.0 0.22            150           71.1  49 
 RUS  HZ EP   1   1035 36.57                             146   -0.43 7 72.0 115 
 PTB  HZ EP       1035 37.69                             137   -0.4810 96.0 295 
 PTB  HN ES       1035 53.49                             137   -0.0410 96.0 295 
 PTB  HZ I        1035 54.21         3.2 0.14            140           96.0 295 
 BRR  HZ EP   1   1035 38.80                             134    0.02 7  103 357 
 BRR  HN ES   1   1035 55.35                             134    0.73 7  103 357 
 BRR  HZ I        1035 55.77         8.2 0.30            139            103 357 
 CHI  HZ EP   1   1035 46.40                             119    0.45 7  171 182 
 CHI  HN ES   1   1036  7.83                             119    0.46 7  171 182 
 CHI  HZ I        1036 12.11         1.4 0.32            121            171 182 
 SML  HZ EP   1   1035 59.70                             106    0.33 5  294 351 
 SML  HN ES   2   1036 31.56                             106    0.30 4  294 351 
                                                                                
