 2016  730 1529 16.9 L   7.572 -73.068151.4  RSN 15 0.5 2.3LRSN                1
 GAP= 80        1.00       3.2     3.2  5.4 -0.3820E+01  0.4322E+01 -0.3975E+01E
 Epicentro: EL PLAYON - SANTANDER                                              3
 ACTION:UPD 17-03-29 16:56 OP:lp   STATUS:               ID:20160730152916 L   I
 OLDACT:REG 16-07-30 20:43 OP:edw  STATUS:               ID:20160730151759     3
 2016-07-30-1517-59S.COL___346                                                 6
 STAT SP IPHASW D HRMM SECON CODA AMPLIT PERI AZIMU VELO AIN AR TRES W  DIS CAZ7
 PAM  EZ EP       1529 39.00                             162    0.7210 48.2 122 
 PAM  EN ES       1529 55.40                             162    0.4210 48.2 122 
 PAM  EZ I        1529 56.46        55.7 0.48            165           48.2 122 
 BRR  HZ EP       1529 39.96                             148    0.3410 87.7 234 
 BRR  HN ES       1529 57.50                             148    0.1410 87.7 234 
 BRR  HZ I        1530  0.42        26.5 0.37            145           87.7 234 
 BAR2 EZ EP       1529 41.49                             143    0.0510  109 187 
 BAR2 EZ ES       1530  0.16                             143   -0.4410  109 187 
 BAR2 EZ I        1530  2.16        35.0 0.18            141            109 187 
 RUS  HZ E        1521 54.40                                            186 181 
 RUS  HZ EP       1529 48.63                             127    0.13 9  186 181 
 RUS  HN ES       1530 12.48                             127   -0.70 9  186 181 
 RUS  HZ I        1530 14.04         6.0 0.30            126            186 181 
 PTB  HZ EP       1529 47.78                             126   -0.63 9  191 233 
 PTB  HN ES       1530 12.71                             126   -0.30 9  191 233 
 PTB  HZ I        1530 16.19        13.5 0.20            124            191 233 
 ZAR  HZ EP       1529 48.99                             125   -0.06 9  198 268 
 ZAR  HN ES       1530 14.08                             125   -0.07 9  198 268 
 ZAR  HZ I        1530 16.50        16.1 0.08            123            198 268 
 LL6C HZ EP       1529 53.36                             119   -0.10 8  240 355 
 LL6C HN ES       1530 22.15                             119    0.16 8  240 355 
 SPBC HZ EP   2   1529 53.75                             119    0.25 4  240 208 
 SPBC HN ES       1530 22.33                             119    0.25 8  240 208 
 SPBC HZ I        1530 29.31        24.0 0.20            118            240 208 
 SOCV BZ IP       1529 55.06                             117   -0.16 8  256  72 
 SOCV BN ES       1530 24.52                             117   -0.60 8  256  72 
 URE  HZ EP       1529 56.06                             116   -0.92 8  273 274 
 URE  HN ES   4   1530 25.81                             116   -2.46 0  273 274 
 URE  HZ I        1530 37.33        18.5 0.22            115            273 274 
 NOR  HZ EP       1530  0.58                             113    0.69 7  298 222 
 NOR  HN ES       1530 33.34                             113   -0.10 7  298 222 
 NOR  HZ I        1530 40.52        13.5 0.24            113            298 222 
 HEL  HZ EP       1530  2.05                             113    0.24 7  312 241 
 HEL  HE ES       1530 36.18                             113   -0.68 7  312 241 
 HEL  HZ I        1530 46.26         9.4 0.28            112            312 241 
 GUY2CHZ EP       1530  8.55                             109    0.75 6  363 225 
 GUY2CHE ES       1530 47.36                             109   -0.17 6  363 225 
 GUY2CHZ I        1530 58.47        13.2 0.44                           363 225 
 CBOC HZ EP   2   1530  8.83                             108   -0.10 3  376 240 
 CBOC HE ES       1530 50.35                             108    0.82 6  376 240 
 CBOC HZ I        1531 10.28         2.4 0.46            108            376 240 
 ELA  HN ES   4   1530 57.73                             107    3.41 0  396 221 
 PRA  HZ EP       1530 20.54                             104    0.58 5  472 205 
 PRA  HN ES   4   1531  4.58                             104   -4.59 0  472 205 
 PRA  HZ I        1531 14.71         5.0 0.24            104            472 205 
                                                                                
