 2011 1230 1923 18.1 L   6.537 -73.548113.5  RSN  5 0.5 1.7LRSN                1
 GAP=162        0.79       5.9     6.6  8.2  0.1780E+02  0.1476E+01 -0.8370E+01E
 Epicentro: EL CARMEN DE CHUCURI - SANTANDER                                   3
 ACTION:UPD 12-07-13 16:19 OP:ep   STATUS:               ID:20111230192000 L   I
 2011-12-30-1920-00M.COL___187                                                 6
 STAT SP IPHASW D HRMM SECON CODA AMPLIT PERI AZIMU VELO AIN AR TRES W  DIS CAZ7
 BAR2 SZ IP     D 1923 34.74                             159    0.3010 40.9  81 
 BAR2 SZ ES   1   1923 46.90                             159   -0.32 7 40.9  81 
 BAR2 SZ I        1923 48.53        48.6 0.48                          40.9  81 
 BRR  HZ EP       1923 35.64                             147    0.1910 65.6 344 
 BRR  HZ I        1923 35.78         8.2 0.10                          65.6 344 
 BRR  HE ES   1   1923 49.42                             147    0.40 7 65.6 344 
 RUS  HZ EP   2   1923 37.82                             140    0.06 5 87.9 144 
 RUS  HN ES   1   1923 52.76                             140   -0.36 7 87.9 144 
 RUS  HZ I        1923 54.28         5.7 0.40                          87.9 144 
 PAM  SZ EP       1923 41.53                             127    0.1410  129  47 
 PAM  SN ES   2   1923 58.58                             127   -1.01 5  129  47 
 ZAR  HZ EP   3   1923 44.67                             117   -1.23 2  179 306 
 ZAR  HN ES   2   1924  6.71                             117   -0.91 4  179 306 
 ZAR  HZ I        1924 10.99         6.0 0.58                           179 306 
                                                                                
