 2016 1230 1717  6.5 L   6.810 -73.143145.1  RSN  6 0.5 1.7LRSN                1
 GAP=136        1.23       5.4     6.3  8.2 -0.3528E+01  0.5481E+01  0.1182E+02E
 Epicentro: LOS SANTOS - SANTANDER                                             3
 ACTION:UPD 17-01-11 20:20 OP:rebc STATUS:               ID:20161230171706 L   I
 OLDACT:REG 16-12-30 21:04 OP:cog  STATUS:               ID:20161230170747     3
 2016-12-30-1708-00M.COL___374                                                 6
 STAT SP IPHASW D HRMM SECON CODA AMPLIT PERI AZIMU VELO AIN AR TRES W  DIS CAZ7
 BAR2 HZ EP       1717 25.73                             170   -0.3110 24.5 190 
 BAR2 HZ ES       1717 41.29                             170   -0.0110 24.5 190 
 BAR2 HZ I        1717 43.34        11.5 0.44            170           24.5 190 
 BRR  HZ EP       1717 27.59                             152    0.0610 70.9 298 
 BRR  HE ES       1717 44.67                             152    0.7210 70.9 298 
 BRR  HZ I        1717 55.34        19.5 0.34            151           70.9 298 
 PAM  EZ EP       1717 28.63                             151    0.0810 76.4  40 
 PAM  EE ES       1717 45.76                             151   -0.0110 76.4  40 
 PAM  EZ I        1717 47.62         8.8 0.58            155           76.4  40 
 RUS  HZ EP       1717 29.93                             143   -0.3010  102 176 
 RUS  HN ES       1717 48.41                             143   -0.3510  102 176 
 RUS  HZ I        1717 49.81         9.5 0.22            148            102 176 
 PTB  HZ EP       1717 33.71                             132    0.29 9  148 258 
 PTB  HN ES       1717 53.53                             132   -0.92 9  148 258 
 PTB  HZ I        1717 55.55         4.5 0.10            133            148 258 
 CHI  HZ EP       1717 44.12                             117   -0.13 8  250 195 
 CHI  HE ES       1718 14.91                             117    1.19 8  250 195 
 CHI  HZ I        1718 16.93         1.8 0.46            120            250 195 
                                                                                
