 2017  830 1158 26.0 L   6.831 -73.117142.7  RSN 25 0.6 2.6LRSN                1
 GAP= 60        1.24       3.0     2.9  5.2 -0.1291E+01  0.3336E+01  0.1387E+01E
 Epicentro: LOS SANTOS - SANTANDER                                             3
      44.0      80.0      38.0  5.0  7.0 15.0  0.0  0.1           RSN FPFIT    F
 ACTION:UPD 17-09-04 20:26 OP:rebc STATUS:               ID:20170830115826 L   I
 OLDACT:UP  17-08-30 22:44 OP:dhb  STATUS:               ID:20170830115741     3
 OLDACT:REG 17-08-30 20:28 OP:dhb  STATUS:               ID:20170830115741     3
 2017-08-30-1158-00M.COL___404                                                 6
 STAT SP IPHASW D HRMM SECON CODA AMPLIT PERI AZIMU VELO AIN AR TRES W  DIS CAZ7
 BAR2 EZ IP     C 1158 45.21                             169   -0.1210 27.4 195 
 BAR2 EZ ES       1158 59.62                             169   -0.8010 27.4 195 
 BAR2 EZ I        1159  1.47        79.2 0.38            168           27.4 195 
 BRR  HZ IP     D 1158 47.10                             151    0.2310 72.5 295 
 BRR  HE ES       1159  4.04                             151    0.8710 72.5 295 
 PAM  EZ IP     C 1158 48.31                             152    0.7210 72.7  39 
 PAM  EN ES       1159  4.73                             152    0.2810 72.7  39 
 PAM  EZ I        1159  7.16       145.7 0.35            153           72.7  39 
 RUS  HZ EP       1158 49.51                             142   -0.1610  104 178 
 RUS  HE ES       1159  7.83                             142   -0.3110  104 178 
 RUS  HZ I        1159  9.17        80.8 0.22            142            104 178 
 TAM  HZ IP     C 1158 53.59                             130    0.38 9  153 107 
 TAM  HN ES       1159 14.82                             130    0.37 9  153 107 
 SPBC HZ EP       1158 54.23                             128   -0.46 9  168 219 
 SPBC HN ES       1159 16.46                             128   -0.63 9  168 219 
 SPBC HZ I        1159 19.55        47.8 0.20            127            168 219 
 YPLC HZ IP     C 1158 55.69                             126   -0.01 9  178 153 
 YPLC HN ES       1159 19.30                             126    0.42 9  178 153 
 YPLC HZ I        1159 22.10        80.1 0.44            126            178 153 
 ZAR  HZ EP       1158 58.30                             121   -0.10 8  206 291 
 ZAR  HN ES       1159 24.03                             121    0.33 8  206 291 
 ZAR  HZ I        1159 29.09        41.8 0.28            121            206 291 
 TABC EZ EP       1159  2.90                             118    0.86 8  234 211 
 TABC EZ ES       1159 29.81                             118   -0.35 8  234 211 
 TABC EZ I        1159 34.72        24.0 0.50            118            234 211 
 NOR  HZ IP     C 1159  1.82                             117   -0.21 8  239 234 
 NOR  HE ES       1159 29.62                             117   -0.52 8  239 234 
 NOR  HZ I        1159 30.72        26.1 0.05            117            239 234 
 CHI  HN EP       1159  3.97                             116    0.01 8  253 196 
 CHI  HN ES       1159 32.56                             116   -1.03 8  253 196 
 CHI  HN I        1159 36.29        36.0 0.27            116            253 196 
 ROSC BZ IP     D 1159  5.53                             116    1.10 8  257 211 
 ROSC BE ES       1159 35.24                             116    0.81 8  257 211 
 ROSC BZ I        1159 41.77        24.0 0.45            115            257 211 
 HEL  HZ EP       1159  6.89                             114    0.41 7  276 255 
 HEL  HE ES       1159 37.37                             114   -0.69 7  276 255 
 HEL  HZ I        1159 42.36        15.7 0.31            113            276 255 
 URE  HZ EP   9   1159  5.65                             113   -1.44 0  286 291 
 URE  HE ES       1159 37.80                                    0.08 7  286 291 
 URE  HZ I        1159 49.98        22.6 0.31            112            286 291 
 GUY2CHZ EP   2   1159 11.54                             111    1.57 4  306 235 
 GUY2CHN ES       1159 44.26                             111   -0.02 7  306 235 
 GUY2CHZ I        1159 51.97        14.9 0.33                           306 235 
 PTGC HZ EP   4   1159  8.51                             111   -1.42 0  311 159 
 PTGC HN ES   4   1159 41.52                             111   -2.69 0  311 159 
 PTGC HZ I        1159 46.64        25.0 0.31            111            311 159 
 ELA  HZ EP       1159 14.34                             109    1.10 7  334 229 
 ELA  HE ES       1159 49.89                             109   -0.21 7  334 229 
 ELA  HZ I        1159 56.89        13.2 0.80            109            334 229 
 DBB  EZ EP       1159 13.36                             109   -0.31 7  342 274 
 DBB  EE ES       1159 50.51                             109   -0.36 7  342 274 
 DBB  EZ I        1159 52.64        11.3 0.50            108            342 274 
 SDV  BZ EP       1159 13.94                             108   -1.42 6  356  50 
 SDV  B2 ES       1159 52.72                             108   -1.16 6  356  50 
 SDV  BZ I        1159 56.68        14.1 0.18            108            356  50 
 ARGC HN ES       1159 53.48                             108   -0.24 6  357 340 
 ARGC HZ I        12 0  2.01         9.7 0.26            108            357 340 
 ANIL HZ EP   9   1159 17.37                             108    1.16 0  362 225 
 ANIL HE ES       1159 57.06                                    0.51 6  362 225 
 ANIL HZ I        12 0  1.40        30.4 0.31            107            362 225 
 PRA  HZ EP       1159 19.68                             106   -0.25 6  397 210 
 PRA  HE ES       12 0  1.23                             106   -0.78 6  397 210 
 PRA  HZ I        12 0  6.66        10.3 0.21            106            397 210 
 ORTC HZ EP       1159 20.22                             106   -0.12 6  400 216 
 ORTC HE ES   3   12 0  4.39                             106    1.65 1  400 216 
 ORTC HZ I        12 0  8.63        10.2 0.46            105            400 216 
 SJC  HZ EP   3   1159 19.85                             105   -1.46 1  408 326 
 SJC  HN ES   4   12 0  1.33                             105   -3.14 0  408 326 
 SJC  HZ I        12 0  4.89        16.0 0.52            105            408 326 
 PAL  HZ EP       1159 21.78                             105    0.21 6  410 239 
 PAL  HE ES       12 0  4.81                             105   -0.12 6  410 239 
 PAL  HZ I        12 0 10.16         8.1 0.50            105            410 239 
 SMAR HN ES   4   12 0 20.20                             102   -2.35 0  494 346 
                                                                                
