 2017  830 1717 24.2 L   6.692 -73.256127.4  RSN  6 0.4 1.5LRSN                1
 GAP=192        0.99       4.3     5.5  6.9  0.6458E+01  0.1638E+02  0.4401E+01E
 Epicentro: GALAN - SANTANDER                                                  3
 ACTION:UPD 17-09-04 20:26 OP:rebc STATUS:               ID:20170830171724 L   I
 OLDACT:REG 17-08-30 21:09 OP:dhb  STATUS:               ID:20170830170725     3
 2017-08-30-1708-00M.COL___402                                                 6
 STAT SP IPHASW D HRMM SECON CODA AMPLIT PERI AZIMU VELO AIN AR TRES W  DIS CAZ7
 BAR2 EZ EP       1717 41.20                             174   -0.2510 13.7 144 
 BAR2 EZ ES       1717 55.52                             174    0.6110 13.7 144 
 BAR2 EZ I        1717 57.19         8.2 0.34            174           13.7 144 
 BRR  HZ IP     D 1717 43.02                             150   -0.1910 68.2 312 
 BRR  HN ES       1717 57.56                             150   -0.4810 68.2 312 
 BRR  HZ I        1718  0.84        10.4 0.29            150           68.2 312 
 RUS  HZ EP     D 1717 45.17                             143   -0.2610 90.5 168 
 RUS  HN ES       1718  1.71                             143   -0.2710 90.5 168 
 RUS  HZ I        1718  3.31         5.4 0.37            145           90.5 168 
 SPBC HZ EP       1717 50.06                             128    0.36 9  146 218 
 SPBC HN ES       1718 10.07                             128    0.49 9  146 218 
 SPBC HZ I        1718 14.94         5.1 0.37            129            146 218 
 ZAR  HZ EP       1717 55.25                             119    0.39 9  198 297 
 ZAR  HE ES       1718 18.99                             119    0.21 9  198 297 
 ZAR  HZ I        1718 22.23         4.1 0.23            121            198 297 
 NOR  HZ EP       1717 57.23                             116    0.14 8  218 235 
 NOR  HN ES       1718 22.08                             116   -0.65 8  218 235 
 NOR  HZ I        1718 24.08         2.0 0.36            118            218 235 
                                                                                
