 2016 1230 1107 32.7 L   6.800 -73.167147.4  RSN  6 0.5 1.7LRSN                1
 GAP=235        1.36       7.3     8.8  9.0  0.3579E+02  0.1647E+02  0.1054E+02E
 Epicentro: LOS SANTOS - SANTANDER                                             3
 ACTION:UPD 17-01-11 20:20 OP:rebc STATUS:               ID:20161230110732 L   I
 OLDACT:DUP 16-12-30 22:05 OP:cog  STATUS:               ID:20161230104630d    3
 2016-12-30-1058-00M.COL___372                                                 6
 STAT SP IPHASW D HRMM SECON CODA AMPLIT PERI AZIMU VELO AIN AR TRES W  DIS CAZ7
 BAR2 EZ EP       11 7 52.12                             171   -0.4010 23.1 184 
 BAR2 EZ ES       11 8  7.59                             171   -0.3910 23.1 184 
 BAR2 EZ I        11 8 10.23        15.0 0.34            169           23.1 184 
 BRR  HZ EP       11 7 54.13                             153    0.2210 69.2 299 
 BRR  HN ES       11 8 11.60                             153    1.1410 69.2 299 
 BRR  HZ I        11 8 16.84         6.0 0.25            153           69.2 299 
 RUS  HZ EP       11 7 56.27                             144   -0.3510  101 175 
 RUS  HE ES       11 8 15.17                             144   -0.1210  101 175 
 RUS  HZ I        11 8 17.78         4.5 0.42            147            101 175 
 PTB  HZ EP       11 7 59.42                             133   -0.17 9  145 259 
 PTB  HN ES       11 8 19.92                             133   -0.65 9  145 259 
 PTB  HZ I        11 8 27.51         9.0 0.38            134            145 259 
 ZAR  HZ EP       11 8  5.53                             123    0.50 9  202 292 
 ZAR  HE ES       11 8 29.71                             123   -0.54 9  202 292 
 CHI  HZ EP       11 8 10.61                             117    0.19 8  248 195 
 CHI  HE ES       11 8 40.71                             117    0.86 8  248 195 
                                                                                
