 2010 1030 1346  4.5 L   6.772 -73.158143.7  RSN  8 0.4 1.9LRSN                1
 GAP=154        0.84       6.5    11.5  8.2 -0.4502E+02  0.1681E+02 -0.7674E+01E
 Epicentro: LOS SANTOS - SANTANDER                                             3
 ACTION:UP  11-02-18 11:13 OP:tino STATUS:               ID:20101030134604 L   I
 2010-10-30-1340-41S.COL___127                                                 6
 STAT SP IPHASW D HRMM SECON CODA AMPLIT PERI AZIMU VELO SNR AR TRES W  DIS CAZ7
 BAR2 SZ EP   1   1346 23.75                             172     0.0 7   20 188 
 BAR2 SZ ES   2   1346 38.02                             172    -0.8 5   20 188 
 BTL  SZ EP   1   1346 24.23                             171     0.4 7   20 323 
 BTL  SZ ES   2   1346 38.84                             171     0.0 5   20 323 
 BAR2 SZ I        1346 41.72        29.9 0.34                            20 188 
 GIR2 SZ EP   1   1346 23.94                             166     0.0 7   34 353 
 GIR2 SZ ES   2   1346 39.90                             166     0.7 5   34 353 
 RUS  HZ EP   1   1346 27.59                             144    -0.2 7   98 175 
 RUS  HN ES   2   1346 46.30                             144     0.3 5   98 175 
 RUS  HZ I        1346 47.61         8.5 0.29                            98 175 
 BRI  SZ EP   1   1346 29.19                             140     0.8 7  112  21 
 GUE  SZ EP   1   1346 28.69                             138    -0.6 7  120  12 
 GRA  SZ EP   1   1346 29.43                             136    -0.4 7  129  18 
 GRA  SZ ES   2   1346 49.31                             136    -0.3 5  129  18 
 GRA  SZ I        1346 53.58         8.5 0.22                           129  18 
 NOR  SZ EP   1   1346 39.94                             118     0.2 6  232 235 
 NOR  SN ES   2   1347  7.03                             118    -0.3 4  232 235 
                                                                                
