 2017  930 1412 20.5 L   6.829 -73.163145.9  RSN 12 0.4 2.1LRSN                1
 GAP=109        0.84       3.2     3.3  5.3  0.1797E+00  0.6863E+01  0.5453E+01E
 Epicentro: LOS SANTOS - SANTANDER                                             3
 ACTION:UPD 17-10-05 19:18 OP:rebc STATUS:               ID:20170930141220 L   I
 OLDACT:UP  17-09-30 22:32 OP:osc  STATUS:               ID:20170930140745d    3
 OLDACT:DUP 17-09-30 22:24 OP:osc  STATUS:               ID:20170930140745d    3
 2017-09-30-1408-00M.COL___413                                                 6
 STAT SP IPHASW D HRMM SECON CODA AMPLIT PERI AZIMU VELO AIN AR TRES W  DIS CAZ7
 BAR2 EZ EP       1412 39.97                             169   -0.2210 26.3 185 
 BAR2 EZ ES       1412 55.25                             169   -0.3110 26.3 185 
 BAR2 EZ I        1412 56.61        38.4 0.18            168           26.3 185 
 PAM  EZ EP       1412 42.90                             151    0.2610 76.2  42 
 PAM  EN ES       1413  0.07                             151    0.1510 76.2  42 
 PAM  EZ I        1413  2.12        25.9 0.54            156           76.2  42 
 RUS  HZ EP       1412 44.03                             143   -0.4610  104 175 
 RUS  HN ES       1413  3.08                             143   -0.1310  104 175 
 RUS  HZ I        1413  4.12         6.4 0.38            144            104 175 
 YPLC HZ EP       1412 50.48                             126   -0.17 9  181 151 
 YPLC HE ES       1413 14.88                             126    0.70 9  181 151 
 YPLC HZ I        1413 17.89         6.7 0.30            128            181 151 
 ZAR  HZ EP   4   1412 55.11                             123    2.48 0  201 292 
 ZAR  HE ES       1413 17.81                             123    0.11 9  201 292 
 ZAR  HZ I        1413 24.89        12.0 0.16            123            201 292 
 TABC EZ EP       1412 56.89                             119    0.46 8  232 210 
 TABC EZ ES   3   1413 23.25                             119   -1.21 2  232 210 
 TABC EZ I        1413 31.56        16.8 0.34            120            232 210 
 NOR  HZ EP       1412 56.04                             118   -0.21 8  235 234 
 NOR  HE ES       1413 24.46                             118    0.31 8  235 234 
 NOR  HZ I        1413 32.58         7.7 0.30            119            235 234 
 CHI  HZ EP       1412 58.63                             117    0.16 8  251 195 
 CHI  HN ES       1413 27.75                             117   -0.35 8  251 195 
 CHI  HZ I        1413 31.09         9.8 0.50            118            251 195 
 GUY2CHZ EP       1413  3.53                             112   -0.60 7  301 234 
 GUY2CHE ES       1413 38.90                             112    0.73 7  301 234 
 GUY2CHZ I        1413 47.46         5.9 0.40                           301 234 
 PTGC HZ EP   3   1413  3.29                             111   -1.47 2  312 159 
 PTGC HN ES   4   1413 36.30                             111   -3.00 0  312 159 
 ORTC HZ EP       1413 14.94                             106    0.37 6  397 216 
 ORTC HE ES       1413 56.32                             106   -0.45 6  397 216 
 ORTC HZ I        1414  0.92         4.8 0.30            107            397 216 
 SJC  HZ EP   9   1413 14.18                             106   -1.43 0  405 327 
 SJC  HE ES       1413 56.72                             106   -0.46 6  405 327 
 SJC  HZ I        1414  1.96         2.0 0.31            107            405 327 
                                                                                
