 2010 1230 1044 44.4 L   6.799 -73.125144.5  RSN  5 0.1 1.4LRSN                1
 GAP=161        0.30       3.0    11.7  4.0 -0.2766E+02  0.7965E+01 -0.1592E+01E
 Epicentro: LOS SANTOS - SANTANDER                                             3
 ACTION:UP  11-01-14 15:28 OP:pat  STATUS:               ID:20101230104444 L   I
 2010-12-30-1043-00S.COL___135                                                 6
 STAT SP IPHASW D HRMM SECON CODA AMPLIT PERI AZIMU VELO SNR AR TRES W  DIS CAZ7
 BTL  SZ EP   1   1045  3.90                             171     0.1 8   21 310 
 BAR2 SZ EP   1   1045  3.67                             170    -0.2 8   24 196 
 BAR2 SZ I        1045  4.18         5.7 0.26                            24 196 
 BAR2 SZ ES   2   1045 19.09                             170     0.0 5   24 196 
 RUS  HZ EP   1   1045  8.01                             144     0.0 8  100 177 
 RUS  HN ES   2   1045 26.44                             144     0.0 5  100 177 
 RUS  HZ I        1045 27.55         2.5 0.40                           100 177 
 GRA  SZ IP       1045  9.48                             137     0.010  125  16 
 GRA  SZ ES   2   1045 29.08                             137     0.0 5  125  16 
 GRA  SZ I        1045 29.92         6.7 0.33                           125  16 
 CHI  HZ EP   1   1045 22.11                             117     0.1 6  249 196 
 CHI  HZ I        1045 23.27         1.7 0.68                           249 196 
 CHI  HE ES   2   1045 51.45                             117     0.0 4  249 196 
                                                                                
