 2011 1030 1218 26.0 L   6.763 -73.109147.4  RSN 10 0.3 2.0LRSN                1
 GAP=143        0.38       2.3     2.8  4.0 -0.1079E+01  0.3885E+01  0.1322E+01E
 Epicentro: LOS SANTOS - SANTANDER                                             3
 ACTION:UPD 12-07-13 16:07 OP:ep   STATUS:               ID:20111030121826 L   I
 2011-10-30-1217-08S.COL___157                                                 6
 STAT SP IPHASW D HRMM SECON CODA AMPLIT PERI AZIMU VELO AIN AR TRES W  DIS CAZ7
 BAR2 SZ IP       1218 45.61                             172   -0.1410 20.5 203 
 BAR2 SZ ES   2   1219  0.93                             172   -0.24 5 20.5 203 
 BAR2 SZ I        1219  2.42        28.6 0.31                          20.5 203 
 BRR  HZ IP     D 1218 47.61                             151   -0.0110 76.7 300 
 BRR  HN ES   2   1219  4.97                             151    0.47 5 76.7 300 
 BRR  HZ I        1219  7.42        24.2 0.07                          76.7 300 
 PAM  SZ EP   1   1218 48.50                             151    0.08 7 78.2  35 
 PAM  SN ES   2   1219  5.82                             151   -0.09 5 78.2  35 
 RUS  HZ EP   1   1218 49.57                             145   -0.02 7 96.3 178 
 RUS  HE ES   2   1219  8.45                             145    0.45 5 96.3 178 
 RUS  HZ I        1219  9.29         6.8 0.19                          96.3 178 
 OCA  SZ EP   2   1218 55.25                             129    0.40 5  165 352 
 OCA  SZ ES   2   1219 17.06                             129   -0.30 5  165 352 
 OCA  SZ I        1219 21.97         9.3 0.22                           165 352 
 ZAR  HZ EP   2   1218 59.06                             122   -0.02 4  209 293 
 ZAR  HN ES   2   1219 24.90                             122    0.01 4  209 293 
 ZAR  HZ I        1219 34.45        12.5 0.44                           209 293 
 NOR  SZ EP   1   1219  1.67                             119   -0.24 6  236 236 
 NOR  SN ES   2   1219 29.56                             119   -0.37 4  236 236 
 HEL  HZ EP   2   1219  7.16                             115    0.55 4  275 257 
 HEL  HN ES   2   1219 38.08                             115   -0.21 4  275 257 
 HEL  HZ I        1219 45.24         5.2 0.51                           275 257 
 RREF HZ EP   2   1219 12.34                             111    0.09 3  322 230 
 RREF HN ES   2   1219 48.64                             111    0.31 3  322 230 
 RREF HZ I        1219 58.09         7.3 0.26                           322 230 
 PRA  HZ EP   2   1219 19.64                             107    0.26 3  390 210 
 PRA  HE ES   2   1220  0.95                             107   -0.08 3  390 210 
                                                                                
