 2013 1030 1511 35.4 L   6.807 -73.151141.7  RSN 14 0.5 2.6LRSN 2.9WRSN        1
 SPEC AVERAGE  MO 13.5 ST 24.3 OM  1.8 f0 6.45 R0.3334 AL 0.00 WI 20.0 MW  2.9 3
 SPEC SD       MO  0.1 ST 55.8 OM  0.3 f0 4.43 R0.1496 AL      WI      MW  0.1 3
 GAP=135        1.18       3.2     4.2  6.0 -0.2842E+01  0.9893E+01  0.8913E+00E
 Epicentro: LOS SANTOS - SANTANDER                                             3
 SPEC BAR2SH Z MO 13.8 ST  3.4 OM  2.2 f0 3.71 R0.4189 AL-0.00 WI 20.0 MW  3.1 3
 SPEC BAR2SH Z T1512 7 K 0.000 GD  143 VS 4.20 DE 3.20 Q0300.0 QA 0.60 VS 4.20 3
 SPEC BRR HH Z MO 13.4 ST  3.5 OM  1.8 f0 4.95 R0.3139 AL-0.00 WI 20.0 MW  2.9 3
 SPEC BRR HH Z T151211 K 0.000 GD  158 VS 4.20 DE 3.20 Q0300.0 QA 0.60 VS 4.20 3
 SPEC PAM SH Z MO 13.4 ST0.658 OM  1.8 f0 2.81 R0.5530 AL-0.00 WI 20.0 MW  2.9 3
 SPEC PAM SH Z T151212 K 0.000 GD  161 VS 4.20 DE 3.20 Q0300.0 QA 0.60 VS 4.20 3
 SPEC RUS HH Z MO 13.1 ST0.825 OM  1.5 f0 3.72 R0.4177 AL-0.00 WI 20.0 MW  2.7 3
 SPEC RUS HH Z T151214 K 0.000 GD  174 VS 4.20 DE 3.20 Q0300.0 QA 0.60 VS 4.20 3
 SPEC PTB HH Z MO 13.3 ST 34.1 OM  1.6 f0 11.3 R0.1375 AL-0.00 WI 20.0 MW  2.8 3
 SPEC PTB HH Z T151220 K 0.000 GD  204 VS 4.20 DE 3.20 Q0300.0 QA 0.60 VS 4.20 3
 SPEC SPBCHH Z MO 13.3 ST 13.2 OM  1.6 f0 8.07 R0.1926 AL-0.00 WI 20.0 MW  2.8 3
 SPEC SPBCHH Z T151224 K 0.000 GD  215 VS 4.20 DE 3.20 Q0300.0 QA 0.60 VS 4.20 3
 SPEC ZAR HH Z MO 13.4 ST 19.6 OM  1.6 f0 8.80 R0.1766 AL-0.00 WI 20.0 MW  2.9 3
 SPEC ZAR HH Z T151230 K 0.000 GD  247 VS 4.20 DE 3.20 Q0300.0 QA 0.60 VS 4.20 3
 SPEC NOR HH Z MO 13.4 ST  3.2 OM  1.6 f0 4.67 R0.3328 AL-0.00 WI 20.0 MW  2.9 3
 SPEC NOR HH Z T151237 K 0.000 GD  274 VS 4.20 DE 3.20 Q0300.0 QA 0.60 VS 4.20 3
 SPEC SML HH Z MO 13.4 ST206.4 OM  1.6 f0 18.5 R0.0840 AL-0.00 WI 20.0 MW  2.9 3
 SPEC SML HH Z T151238 K 0.000 GD  281 VS 4.20 DE 3.20 Q0300.0 QA 0.60 VS 4.20 3
 SPEC HEL HH Z MO 13.5 ST  1.3 OM  1.6 f0 3.31 R0.4695 AL-0.00 WI 20.0 MW  2.9 3
 SPEC HEL HH Z T151245 K 0.000 GD  306 VS 4.20 DE 3.20 Q0300.0 QA 0.60 VS 4.20 3
 SPECGUY2CHH Z MO 14.3 ST  0.2 OM  2.4 f00.964 R  1.61 AL-0.00 WI 20.0 MW  3.5 3
 SPECGUY2CHH Z T151251 K       GD332.7 VS 4.20 DE 3.20 Q0300.0 QA 0.60 VS 4.20 3
 SPEC CBOCHH Z MO 13.4 ST  3.2 OM  1.4 f0 4.93 R0.3152 AL-0.00 WI 20.0 MW  2.8 3
 SPEC CBOCHH Z T151256 K 0.000 GD  361 VS 4.20 DE 3.20 Q0300.0 QA 0.60 VS 4.20 3
 SPEC ORTCHH Z MO 14.0 ST  2.3 OM  2.0 f0 2.64 R0.5886 AL-0.00 WI 20.0 MW  3.3 3
 SPEC ORTCHH Z T1513 9 K 0.000 GD  420 VS 4.20 DE 3.20 Q0300.0 QA 0.60 VS 4.20 3
 OLDACT:REG 13-10-30 16:48 OP:carl STATUS:               ID:20131030150839     3
 ACTION:UPD 13-11-25 09:24 OP:ep   STATUS:               ID:20131030151135 L   I
 OLDACT:UP  13-10-30 19:26 OP:carl STATUS:               ID:20131030150839     3
 2013-10-30-1508-39M.COL___224                                                 6
 STAT SP IPHASW D HRMM SECON CODA AMPLIT PERI AZIMU VELO AIN AR TRES W  DIS CAZ7
 BAR2 SZ IP     D 1511 54.62                             170    0.0910 24.0 188 
 BAR2 SZ ES       1512  9.34                             170   -0.1310 24.0 188 
 BAR2 SZ I        1512 10.31       145.7 0.28            168           24.0 188 
 BRR  HZ EP       1511 56.67                             152    0.6410 70.3 298 
 BRR  HN ES       1512 13.28                             152    1.1310 70.3 298 
 BRR  SZ I        1512 17.09        94.4 0.14            150           70.3 298 
 BRR  HZ I        1512 17.10        91.7 0.12                          70.3 298 
 PAM  SZ EP       1511 57.52                             150    0.3810 77.2  40 
 PAM  SN ES       1512 14.27                             150    0.1410 77.2  40 
 PAM  SZ I        1512 16.01        65.5 0.56            155           77.2  40 
 RUS  HZ EP       1511 58.72                             143   -0.0610  101 176 
 RUS  HN ES       1512 16.38                             143   -0.6610  101 176 
 RUS  SZ I        1512 19.38        41.0 0.26            145            101 176 
 PTB  HZ EP       1512  1.40                             131   -0.57 9  147 259 
 PTB  HN ES       1512 21.75                             131   -0.96 9  147 259 
 PTB  SZ I        1512 25.51        47.9 0.12            131            147 259 
 OCA  HE ES       1512 24.27                             129   -0.80 9  159 353 
 SPBC HZ EP       1512  3.69                             128    0.11 9  163 219 
 SPBC HN ES       1512 25.84                             128    0.26 9  163 219 
 SPBC SZ I        1512 31.47        66.3 0.30            129            163 219 
 ZAR  HZ EP       1512  7.83                             122    0.36 9  203 292 
 ZAR  HN ES       1512 32.43                             122   -0.07 9  203 292 
 ZAR  SZ I        1512 37.89        47.6 0.16            123            203 292 
 NOR  HZ EP       1512 10.99                             118    0.13 8  235 234 
 NOR  HN ES       1512 38.64                             118    0.10 8  235 234 
 NOR  SZ I        1512 44.73        35.8 0.18            119            235 234 
 SML  HZ EP       1512 11.10                             117   -0.57 8  243 335 
 SML  HN ES       1512 39.59                             117   -0.39 8  243 335 
 SML  SZ I        1512 42.30        81.9 0.08            119            243 335 
 HEL  HZ EP       1512 16.15                             114    0.82 8  272 256 
 HEL  HN ES       1512 46.56                             114    0.06 8  272 256 
 HEL  SZ I        1512 53.44        25.3 0.52            115            272 256 
 GUY2CHZ EP       1512 18.90                             112    0.11 7  301 235 
 GUY2CHE ES       1512 52.81                             112    0.16 7  301 235 
 GUY2CSZ I        1512 59.33        18.8 0.70                           301 235 
 CBOC HZ EP   1   1512 22.46                             109    0.38 5  333 252 
 CBOC HE ES       1512 58.36                             109   -0.15 7  333 252 
 CBOC SZ I        1513  5.36         6.9 0.46            110            333 252 
 ORTC HZ EP       1512 28.69                             106   -0.49 6  396 216 
 ORTC HN ES       1513 10.88                             106   -0.27 6  396 216 
 ORTC SZ I        1513 17.12        12.8 0.34            107            396 216 
                                                                                
