 2013  730 1036 49.7 L   6.747 -73.163158.0  RSN  4 0.4 1.1LRSN                1
 GAP=241        0.79      13.6     9.4 17.1  0.1033E+03 -0.8298E+02 -0.1469E+03E
 Epicentro: VILLANUEVA - SANTANDER                                             3
 ACTION:UPD 13-08-12 10:41 OP:ep   STATUS:               ID:20130730103649 L   I
 OLDACT:REG 13-07-30 14:30 OP:cam  STATUS:               ID:20130730102959     3
 2013-07-30-1029-59M.COL___267                                                 6
 STAT SP IPHASW D HRMM SECON CODA AMPLIT PERI AZIMU VELO AIN AR TRES W  DIS CAZ7
 BAR2 SZ EP   1   1037 10.10                             174   -0.57 8 17.2 187 
 RUS  HZ EP   1   1037 14.52                             148    0.27 8 94.9 175 
 RUS  HE ES   1   1037 33.77                             148    0.33 8 94.9 175 
 PTB  HZ EP   1   1037 17.41                             136    0.01 7  145 261 
 PTB  HN ES       1037 38.67                             136   -0.3710  145 261 
 PTB  HZ I        1037 43.90         1.5 0.42            131            145 261 
 ZAR  HE ES       1037 49.39                             125    0.41 9  205 294 
                                                                                
