 2017  330 1845 58.8 L   7.443 -73.275 30.9  RSN  6 0.7 1.9LRSN                1
 GAP=188        1.64       7.9     4.0  6.9  0.2631E+01  0.8412E+01  0.2106E+02E
 Epicentro: EL PLAYON - SANTANDER                                              3
 ACTION:UPD 17-05-25 18:47 OP:jn   STATUS:               ID:20170330184558 L   I
 OLDACT:UP  17-03-30 23:21 OP:dnl  STATUS:               ID:20170330183751d    3
 OLDACT:UP  17-03-30 23:21 OP:dnl  STATUS:               ID:20170330183751d    3
 OLDACT:DUP 17-03-30 23:17 OP:dnl  STATUS:               ID:20170330183751d    3
 OLDACT:UP  17-03-30 23:17 OP:dnl  STATUS:               ID:20170330183750     3
 OLDACT:UP  17-03-30 23:16 OP:dnl  STATUS:               ID:20170330183750     3
 OLDACT:REG 17-03-30 21:04 OP:dnl  STATUS:               ID:20170330183750     3
 2017-03-30-1838-00M.COL___364                                                 6
 STAT SP IPHASW D HRMM SECON CODA AMPLIT PERI AZIMU VELO AIN AR TRES W  DIS CAZ7
 BRR  HZ EP       1846  9.43                             110    0.0710 60.9 232 
 BRR  HN ES       1846 17.93                             110    0.3010 60.9 232 
 BRR  HZ I        1846 18.78        26.6 0.44            108           60.9 232 
 PAM  EZ IP     D 1846 10.30                             110   -0.1110 64.5 100 
 PAM  EN ES       1846 19.28                             110   -0.2110 64.5 100 
 PAM  EZ I        1846 19.60        90.5 0.20            109           64.5 100 
 BAR2 HZ EP       1846 13.71                              61   -0.2210 94.6 174 
 BAR2 HZ ES       1846 25.04                              61   -0.7210 94.6 174 
 BAR2 HZ I        1846 26.28        68.7 0.44            102           94.6 174 
 PTB  HZ EP       1846 21.58                              61   -0.80 9  164 233 
 PTB  HN ES       1846 39.78                              61   -1.02 9  164 233 
 PTB  HZ I        1846 44.58         7.9 0.26             56            164 233 
 RUS  HZ EP       1846 25.02                              61    1.02 9  173 173 
 RUS  HN ES       1846 44.93                              61    1.25 9  173 173 
 RUS  HZ I        1846 46.12        17.7 0.24             56            173 173 
 ZAR  HZ EP   2   1846 24.23                              61    0.55 4  175 272 
 ZAR  HE ES       1846 43.68                              61    0.57 9  175 272 
 ZAR  HZ I        1846 48.55         5.8 0.10             56            175 272 
                                                                                
