 2013  530 1412 27.6 L   6.724 -73.157140.5  RSN 12 0.5 2.4LRSN                1
 GAP= 73        1.43       4.6     4.8  6.9 -0.4664E+01  0.6220E+01  0.2084E+01E
 Epicentro: VILLANUEVA - SANTANDER                                             3
 ACTION:UPD 13-06-20 09:54 OP:ep   STATUS:               ID:20130530141227 L   I
 OLDACT:UP  13-05-31 22:29 OP:Juan STATUS:               ID:20130530141227 L   3
 2013-05-30-1408-52M.COL___218                                                 6
 STAT SP IPHASW D HRMM SECON CODA AMPLIT PERI AZIMU VELO AIN AR TRES W  DIS CAZ7
 BAR2 SZ EP       1412 46.34                             174   -0.1410 14.8 191 
 BAR2 SZ ES       1413  1.04                             174   -0.1410 14.8 191 
 BAR2 SZ I        1413  2.07        50.9 0.24            172           14.8 191 
 GIR2 SZ EP       1412 46.36                             164   -0.5710 39.4 354 
 GIR2 SZ ES       1413  1.88                             164   -0.1110 39.4 354 
 BRR  HZ EP       1412 48.22                             150   -0.1810 74.5 305 
 BRR  HZ I        1412 48.46        47.0 0.22            151           74.5 305 
 BRR  HN ES       1413  5.21                             150    0.6010 74.5 305 
 BRR  HE I        1413  5.73        86.3 0.24            151           74.5 305 
 PAM  SZ EP       1412 49.32                             147   -0.4310 84.8  37 
 PAM  SN ES       1413  5.94                             147   -1.0810 84.8  37 
 PAM  SE I        1413  8.43        80.7 0.42            150           84.8  37 
 RUS  HZ EP       1412 50.73                             145    0.4610 92.3 175 
 RUS  HN ES       1413  8.54                             145    0.6110 92.3 175 
 RUS  HE I        1413 10.48        22.6 0.32            146           92.3 175 
 BRI  SZ EP       1412 52.04                             138    0.3610  117  20 
 BRI  SZ ES       1413 11.78                             138    1.3310  117  20 
 PTB  HZ EP       1412 53.00                             131   -0.92 9  145 262 
 PTB  HN ES       1413 13.83                             131   -0.60 9  145 262 
 PTB  HE I        1413 21.11        33.9 0.46            132            145 262 
 TAM  HZ EP       1412 54.64                             129   -0.18 9  154 102 
 OCA  HZ EP       1412 56.51                             127    0.19 9  168 354 
 OCA  HN ES       1413 18.62                             127   -0.09 9  168 354 
 ZAR  HZ EP       1412 59.91                             121   -0.05 8  206 294 
 ZAR  HN ES       1413 25.48                             121    0.31 8  206 294 
 NOR  HZ EP       1413  2.78                             118    0.36 8  229 236 
 NOR  HE ES       1413 29.55                             118   -0.01 8  229 236 
 HEL  HZ EP       1413  7.83                             114    0.61 8  269 257 
 SOCV BZ EP   4   1413  8.73                             111   -2.36 0  307  56 
                                                                                
