 2016  830 1536  9.7 L   7.352 -73.121 11.5  RSN  6 0.4 1.5LRSN                1
 GAP=177        0.91       3.2     2.1  4.0 -0.4175E+00  0.3483E+01 -0.1353E-01E
 Epicentro: RIONEGRO - SANTANDER                                               3
 ACTION:UPD 16-10-29 15:40 OP:rebc STATUS:               ID:20160830153609 L   I
 OLDACT:REG 16-08-30 21:31 OP:drio STATUS:               ID:20160830152759     3
 2016-08-30-1527-59S.COL___328                                                 6
 STAT SP IPHASW D HRMM SECON CODA AMPLIT PERI AZIMU VELO AIN AR TRES W  DIS CAZ7
 PAM  EZ EP       1536 17.99                             101    0.0610 46.5  92 
 PAM  EE ES       1536 24.30                             101   -0.0810 46.5  92 
 PAM  EZ I        1536 24.91        19.4 0.14                          46.5  92 
 BRR  HZ EP       1536 21.16                              96    0.1210 70.6 248 
 BRR  HE ES       1536 30.17                              96    0.2710 70.6 248 
 BAR2 EZ EP       1536 23.80                              95    0.4610 84.2 185 
 BAR2 EZ ES       1536 33.21                              95   -0.7810 84.2 185 
 BAR2 EZ I        1536 34.62        11.6 0.16                          84.2 185 
 RUS  HZ EP       1536 34.99                              56   -0.06 9  161 179 
 RUS  HE ES       1536 55.25                              56    0.40 9  161 179 
 PTB  HZ EP       1536 35.96                              56    0.06 9  173 239 
 PTB  HE ES       1536 56.53                              56    0.18 9  173 239 
 PTB  HZ I        1536 57.21         8.8 0.28                           173 239 
 ZAR  HZ EP       1536 38.20                              56   -0.14 9  192 275 
 ZAR  HN ES       1537  0.15                              56   -0.56 9  192 275 
 ZAR  HZ I        1537  2.70         6.1 0.42                           192 275 
                                                                                
