 2015  930 1803 18.7 L   6.759 -73.099144.0  RSN  9 0.3 1.7LRSN                1
 GAP=144        0.51       2.7     3.0  4.0 -0.1440E+01  0.2439E+01  0.3088E+00E
 Epicentro: LOS SANTOS - SANTANDER                                             3
 ACTION:UPD 15-10-28 16:29 OP:cam  STATUS:               ID:20150930180318 L   I
 OLDACT:REG 15-09-30 21:41 OP:ar   STATUS:               ID:20150930175748     3
 2015-09-30-1757-48M.COL___358                                                 6
 STAT SP IPHASW D HRMM SECON CODA AMPLIT PERI AZIMU VELO AIN AR TRES W  DIS CAZ7
 BAR2 EZ EP     C 18 3 38.06                             171   -0.0510 20.6 207 
 BAR2 EZ ES       18 3 53.27                             171    0.0510 20.6 207 
 BAR2 EZ I        18 3 54.33         7.6 0.42            168           20.6 207 
 PAM  EZ EP       18 3 40.96                             150    0.1610 77.9  34 
 PAM  EN ES       18 3 57.77                             150   -0.2410 77.9  34 
 PAM  EZ I        18 3 59.83        15.0 0.50            154           77.9  34 
 BRR  HN ES       18 3 56.81                             150    0.0510 77.9 300 
 RUS  HZ EP   2   18 3 42.05                             145    0.07 5 95.8 179 
 RUS  HE ES       18 4  0.27                             145    0.1610 95.8 179 
 RUS  HZ I        18 4  1.53         6.1 0.32            145           95.8 179 
 PTB  HZ EP   2   18 3 45.18                             131   -0.78 5  152 261 
 PTB  HN ES   2   18 4  7.01                             131   -0.19 5  152 261 
 PTB  HZ I        18 4  9.67         5.0 0.16            129            152 261 
 SPBC HZ EP   2   18 3 47.29                             129    0.19 5  163 221 
 SPBC HN ES   2   18 4  8.68                             129   -0.53 5  163 221 
 SPBC HZ I        18 4 12.26        10.8 0.12            128            163 221 
 ZAR  HZ EP   2   18 3 51.82                             121    0.07 4  211 293 
 ZAR  HN ES   2   18 4 18.37                             121    0.87 4  211 293 
 ZAR  HZ I        18 4 22.02         6.3 0.42            120            211 293 
 NOR  HZ EP   2   18 3 54.63                             118    0.08 4  236 236 
 NOR  HN ES   2   18 4 22.16                             118   -0.32 4  236 236 
 NOR  HZ I        18 4 29.25         4.0 0.20            117            236 236 
 GUY2CHN ES   4   18 4 39.50                             112    2.93 0  303 236 
 GUY2CHZ I        18 4 42.42         2.1 0.42                           303 236 
                                                                                
