 2012  830 1717  4.3 L   6.869 -73.305120.5  RSN 10 0.4 2.5LRSN                1
 GAP=106        0.71       3.2     2.7  5.8  0.1802E+01  0.1830E+01  0.8665E+00E
 Epicentro: BETULIA - SANTANDER                                                3
 ACTION:UPD 12-09-10 11:59 OP:ep   STATUS:               ID:20120830171704 L   I
 2012-08-30-1710-00M.COL___218                                                 6
 STAT SP IPHASW D HRMM SECON CODA AMPLIT PERI AZIMU VELO AIN AR TRES W  DIS CAZ7
 BAR2 SZ EP       1717 21.24                             164    0.0110 33.5 156 
 BAR2 SZ ES   1   1717 34.37                             164   -0.04 7 33.5 156 
 BAR2 SZ I        1717 35.77       621.0 0.39                          33.5 156 
 BRR  HZ IP     C 1717 21.59                             155   -0.0910 52.1 300 
 BRR  HE ES   1   1717 35.71                             155    0.49 7 52.1 300 
 BRR  HZ I        1717 36.53       115.2 0.20                          52.1 300 
 RUS  HZ EP   1   1717 26.30                             135   -0.25 7  111 167 
 RUS  HN ES   1   1717 43.87                             135    0.00 7  111 167 
 RUS  HZ I        1717 44.92        23.1 0.26                           111 167 
 PTB  HN ES   1   1717 45.82                             129   -0.42 7  132 254 
 PTB  HZ I        1717 48.37        44.8 0.19                           132 254 
 OCA  HN ES   1   1717 49.29                             125   -0.59 7  151 359 
 TAM  HZ EP   1   1717 32.06                             121   -0.04 7  174 106 
 TAM  HN ES   1   1717 54.08                             121    0.32 7  174 106 
 ZAR  HZ EP   1   1717 33.38                             119    0.19 7  185 292 
 ZAR  HN ES   1   1717 56.26                             119    0.56 7  185 292 
 ZAR  HZ I        1717 58.63        36.3 0.11                           185 292 
 YOP  SN ES   2   1717 57.49                             118   -0.20 4  194 150 
 NOR  SN ES   1   1718  3.94                             114    0.24 6  225 230 
 NOR  SZ I        1718 10.47        15.9 0.39                           225 230 
 HEL  HZ EP   1   1717 42.36                             111    0.68 6  257 253 
 HEL  HN ES   1   1718 10.00                             111   -0.80 6  257 253 
 HEL  HZ I        1718 15.48        17.0 0.31                           257 253 
                                                                                
