 2012  730 1530 32.7 L   6.843 -73.278119.8  RSN  4 0.2 1.4LRSN                1
 GAP=218        0.43       8.6     8.5  7.7  0.4910E+02 -0.1515E+02  0.3490E+01E
 Epicentro: ZAPATOCA - SANTANDER                                               3
 ACTION:UPD 12-08-14 11:46 OP:ep   STATUS:               ID:20120730153033 L   I
 2012-07-30-1530-00M.COL___209                                                 6
 STAT SP IPHASW D HRMM SECON CODA AMPLIT PERI AZIMU VELO AIN AR TRES W  DIS CAZ7
 BAR2 SZ EP       1530 49.61                             165     0.210   30 159 
 BAR2 SZ I        1530 49.72        14.1 0.10            157             30 159 
 BAR2 SZ ES   3   1531  2.51                             165     0.1 2   30 159 
 BRR  HZ EP       1530 50.11                             153    -0.110   56 301 
 BRR  HN ES   1   1531  3.80                             153    -0.1 7   56 301 
 RUS  HN ES   3   1531 10.85                             135    -0.8 2  107 168 
 PTB  HZ EP   3   1530 56.55                             128     0.1 2  134 256 
 PTB  HN ES   3   1531 15.07                             128     0.2 2  134 256 
 PTB  HZ I        1531 18.41         2.2 0.28            122            134 256 
