 2011 1130 1452 49.0 L   6.765 -73.098142.0  RSN  5 0.1 1.6LRSN                1
 GAP=144        0.37       2.5     3.2  3.5 -0.1606E+01  0.2859E+01  0.3789E+00E
 Epicentro: LOS SANTOS - SANTANDER                                             3
 ACTION:UPD 12-07-13 16:13 OP:ep   STATUS:               ID:20111130145249 L   I
 2011-11-30-1450-00M.COL___181                                                 6
 STAT SP IPHASW D HRMM SECON CODA AMPLIT PERI AZIMU VELO AIN AR TRES W  DIS CAZ7
 BAR2 SZ EP       1453  8.23                             171    0.1210 21.3 206 
 BAR2 SZ ES   1   1453 22.87                             171   -0.17 7 21.3 206 
 BAR2 SZ I        1453 24.15        10.6 0.30                          21.3 206 
 PAM  SZ EP   1   1453 10.72                             150   -0.06 7 77.3  35 
 PAM  SN ES   1   1453 27.83                             150    0.03 7 77.3  35 
 BRR  HZ EP       1453  9.91                             150   -0.1910 77.7 299 
 BRR  HZ I        1453 17.29        12.9 0.46                          77.7 299 
 BRR  HE ES   1   1453 26.82                             150    0.24 7 77.7 299 
 RUS  HZ EP   2   1453 12.30                             144    0.24 5 96.5 179 
 RUS  HN ES   1   1453 30.05                             144   -0.02 7 96.5 179 
 RUS  HZ I        1453 31.95         4.0 0.29                          96.5 179 
 NOR  SZ EP   1   1453 24.79                             117    0.07 6  237 236 
 NOR  SE ES   2   1453 52.43                             117   -0.16 4  237 236 
                                                                                
