 2017 1030 1348 28.2 L   5.777 -73.933103.6  RSN 12 0.5 1.6LRSN                1
 GAP= 68        1.05       2.6     3.0  5.9 -0.8733E+00  0.3506E+00 -0.3876E+00E
 Epicentro: ALBANIA - SANTANDER                                                3
 ACTION:UPD 17-11-07 19:39 OP:rebc STATUS:               ID:20171030134828 L   I
 OLDACT:UP  17-10-30 22:40 OP:mg   STATUS:               ID:20171030133741     3
 OLDACT:UP  17-10-30 22:39 OP:mg   STATUS:               ID:20171030133741     3
 OLDACT:REG 17-10-30 20:06 OP:mg   STATUS:               ID:20171030133741     3
 2017-10-30-1338-00M.COL___432                                                 6
 STAT SP IPHASW D HRMM SECON CODA AMPLIT PERI AZIMU VELO AIN AR TRES W  DIS CAZ7
 SPBC HZ EP       1348 42.55                             168    0.0210 20.6 228 
 SPBC HN ES       1348 54.12                             168    0.4510 20.6 228 
 SPBC HZ I        1348 55.26        36.6 0.15            168           20.6 228 
 TABC EZ EP   1   1348 47.98                             136    0.83 7 89.8 200 
 RUS  HZ EP     D 1348 47.25                             134   -0.3910 95.0  82 
 RUS  HN ES       1349  2.32                             134   -0.4510 95.0  82 
 RUS  HZ I        1349  4.05         5.4 0.28            135           95.0  82 
 PTB  HZ EP       1348 46.87                             132   -0.7710  102 326 
 PTB  HN ES       1349  2.24                             132   -0.5410  102 326 
 PTB  HZ I        1349  7.54         3.4 0.04            132            102 326 
 NOR  HZ EP       1348 48.08                             130    0.0210  106 257 
 NOR  HN ES       1349  3.27                             130   -0.2510  106 257 
 NOR  HZ I        1349  5.83        13.4 0.20            131            106 257 
 BAR2 EZ EP       1348 49.92                             126    0.0510  123  43 
 BAR2 EZ ES       1349  7.21                             126    0.4610  123  43 
 BAR2 EZ I        1349  8.68        21.1 0.26            127            123  43 
 CHI  HN ES       1349  7.92                             125   -0.3310  129 170 
 CHI  HZ I        1349 12.34         4.6 0.21            126            129 170 
 BRR  HZ IP     D 1348 52.32                             120    0.04 9  149   9 
 BRR  HN ES       1349 11.73                             120    0.70 9  149   9 
 BRR  HZ I        1349 16.64         8.6 0.27            121            149   9 
 GUY2CHZ EP   3   1348 56.09                             117    0.96 2  170 249 
 GUY2CHN ES   3   1349 17.59                             117    1.48 2  170 249 
 GUY2CHZ I        1349 21.16         2.6 0.29                           170 249 
 YPLC HZ EP       1348 55.41                             115    0.01 9  177 104 
 YPLC HE ES   3   1349 17.94                             115    1.35 2  177 104 
 YPLC HZ I        1349 20.82         5.8 0.31            116            177 104 
 ZAR  HZ EP       1348 59.50                             110   -0.15 8  216 332 
 ZAR  HN ES       1349 24.66                             110    0.51 8  216 332 
 ZAR  HZ I        1349 28.53         6.0 0.14            111            216 332 
 PRA  HZ EP       1349  3.60                             106   -0.25 8  251 205 
 PRA  HN ES       1349 32.13                             106    0.50 8  251 205 
 PRA  HZ I        1349 37.98         3.0 0.29            107            251 205 
                                                                                
