 2017  730 1150 23.8 L   6.774 -73.102142.1  RSN 14 0.3 1.8LRSN                1
 GAP= 97        0.64       2.5     2.2  3.4 -0.8778E+00  0.1990E+00  0.2011E+01E
 Epicentro: LOS SANTOS - SANTANDER                                             3
 ACTION:UPD 17-08-30 15:38 OP:rebc STATUS:               ID:20170730115023 L   I
 OLDACT:UP  17-07-30 22:27 OP:and  STATUS:               ID:20170730114740     3
 OLDACT:UP  17-07-30 22:25 OP:and  STATUS:               ID:20170730114740     3
 OLDACT:UP  17-07-30 22:24 OP:and  STATUS:               ID:20170730114740     3
 OLDACT:UP  17-07-30 22:23 OP:and  STATUS:               ID:20170730114740     3
 OLDACT:UP  17-07-30 22:23 OP:and  STATUS:               ID:20170730114740     3
 OLDACT:REG 17-07-30 20:56 OP:and  STATUS:               ID:20170730114740     3
 2017-07-30-1148-00M.COL___380                                                 6
 STAT SP IPHASW D HRMM SECON CODA AMPLIT PERI AZIMU VELO AIN AR TRES W  DIS CAZ7
 BAR2 EZ IP     C 1150 42.87                             171   -0.1010 22.0 204 
 BAR2 EZ ES       1150 57.59                             171   -0.3210 22.0 204 
 BAR2 EZ I        1150 59.18        13.4 0.22            170           22.0 204 
 PAM  EZ EP       1150 45.66                             150    0.0710 76.7  35 
 PAM  EN ES       1151  2.62                             150    0.0410 76.7  35 
 PAM  EZ I        1151  5.34        10.4 0.38            150           76.7  35 
 BRR  HZ IP     C 1150 44.72                             150   -0.1710 76.8 299 
 BRR  HN ES       1151  1.66                             150    0.3210 76.8 299 
 BRR  HZ I        1151  6.45        10.2 0.18            146           76.8 299 
 RUS  HZ EP       1150 46.79                             144   -0.1910 97.5 179 
 RUS  HN ES       1151  5.23                             144    0.1810 97.5 179 
 RUS  HZ I        1151  6.22         9.3 0.24            147           97.5 179 
 TAM  HZ EP       1150 51.14                             131    0.45 9  150 104 
 PTB  HZ EP   9   1150 49.62                             130   -1.25 0  152 260 
 PTB  HN ES       1151 10.47                             131   -0.26 9  152 260 
 PTB  HZ I        1151 12.52         4.8 0.09            129            152 260 
 SPBC HZ EP       1150 51.77                             128   -0.34 9  164 221 
 SPBC HN ES       1151 14.25                             128    0.05 9  164 221 
 SPBC HZ I        1151 15.38        10.4 0.10            128            164 221 
 YPLC HZ EP   2   1150 53.25                             126    0.39 4  172 152 
 ZAR  HZ EP   2   1150 56.19                             121   -0.40 4  210 292 
 ZAR  HN ES       1151 22.02                             121   -0.15 8  210 292 
 ZAR  HZ I        1151 27.16         8.7 0.30            119            210 292 
 NOR  HZ EP       1150 59.34                             117   -0.24 8  237 236 
 NOR  HE ES       1151 27.40                             117   -0.08 8  237 236 
 NOR  HZ I        1151 31.10         4.9 0.14            117            237 236 
 HEL  HZ EP   2   1151  4.95                             114    0.67 4  276 257 
 HEL  HN ES   2   1151 36.26                             114    0.40 4  276 257 
 HEL  HZ I        1151 43.12         3.2 0.36            113            276 257 
 URE  HZ EP   3   1151  3.94                             112   -1.38 2  289 292 
 URE  HN ES   4   1151 42.95                             112    5.24 0  289 292 
 URE  HZ I        1151 47.32         4.4 0.32            111            289 292 
 PTGC HZ EP       1151  6.69                             111   -0.31 7  304 159 
 GUY2CHZ EP   2   1151  8.38                             111    0.87 4  304 236 
 GUY2CHN ES       1151 42.13                             111    0.52 7  304 236 
 GUY2CHZ I        1151 49.41         3.7 0.44                           304 236 
                                                                                
