 2011 1030 1145 54.1 L   6.795 -73.038147.7  RSN  4 0.2 1.6LRSN                1
 GAP=151        0.37       4.0     6.1  5.4  0.5485E+01  0.3969E+01  0.4316E+01E
 Epicentro: CEPITA - SANTANDER                                                 3
 ACTION:UPD 12-07-13 16:07 OP:ep   STATUS:               ID:20111030114554 L   I
 2011-10-30-1142-36S.COL___157                                                 6
 STAT SP IPHASW D HRMM SECON CODA AMPLIT PERI AZIMU VELO AIN AR TRES W  DIS CAZ7
 BAR2 SZ EP   1   1146 14.10                             169    0.04 7 27.5 215 
 BAR2 SZ ES   2   1146 29.28                             169   -0.34 5 27.5 215 
 BAR2 SZ I        1146 30.81         7.1 0.20                          27.5 215 
 PAM  SN ES   2   1146 33.43                             153    0.07 5 70.9  32 
 BRR  HZ EP   1   1146 15.97                             149   -0.14 7 82.1 295 
 BRR  HZ I        1146 16.23         7.3 0.13                          82.1 295 
 BRR  HN ES   2   1146 33.54                             149    0.27 5 82.1 295 
 RUS  HZ EP   1   1146 18.04                             144    0.04 7 99.9 183 
 RUS  HN ES   2   1146 36.76                             144    0.13 5 99.9 183 
 RUS  HZ I        1146 37.00         5.6 0.76                          99.9 183 
                                                                                
