 2017 1230 1113 49.1 L   6.991 -73.200143.4  RSN  4 0.3 1.1LRSN                1
 GAP=128        0.63       5.6     3.6  8.0 -0.3810E+01  0.1473E+02 -0.6605E+01E
 Epicentro: GIRON - SANTANDER                                                  3
 ACTION:UPD 18-01-04 13:25 OP:rebc STATUS:               ID:20171230111349 L   I
 OLDACT:REG 17-12-30 19:47 OP:mg   STATUS:               ID:20171230110741     3
 2017-12-30-1108-00M.COL___456                                                 6
 STAT SP IPHASW D HRMM SECON CODA AMPLIT PERI AZIMU VELO AIN AR TRES W  DIS CAZ7
 BAR2 EZ EP       1114  9.04                             162   -0.0610 44.2 178 
 BAR2 EZ ES       1114 24.38                             162   -0.2810 44.2 178 
 BAR2 EZ I        1114 25.22         4.8 0.18            176           44.2 178 
 PAM  EZ EP   2   1114 10.68                             154    0.15 5 67.3  55 
 PAM  EE ES       1114 27.39                             154    0.1810 67.3  55 
 PAM  EZ I        1114 35.96         1.7 0.18            150           67.3  55 
 PTB  HZ EP   2   1114 15.71                             131   -0.20 5  148 250 
 PTB  HN ES       1114 37.22                             131    0.44 9  148 250 
 PTB  HZ I        1114 39.93         1.0 0.16            136            148 250 
 ZAR  HZ EP   4   1114 22.18                             124    2.05 0  191 287 
 ZAR  HN ES       1114 44.02                             124   -0.28 9  191 287 
 ZAR  HZ I        1114 50.98         1.7 0.32            125            191 287 
                                                                                
