 2013  730 1450 27.9 L   6.764 -73.122144.6  RSN  6 0.4 1.7LRSN                1
 GAP=141        0.94       5.0     6.8  6.8 -0.1670E+01  0.4182E+01  0.5213E+00E
 Epicentro: LOS SANTOS - SANTANDER                                             3
 ACTION:UPD 13-08-12 10:41 OP:ep   STATUS:               ID:20130730145027 L   I
 OLDACT:UP  13-07-30 17:08 OP:cam  STATUS:               ID:20130730144948     3
 OLDACT:REG 13-07-30 17:06 OP:cam  STATUS:               ID:20130730144948     3
 2013-07-30-1449-48M.COL___228                                                 6
 STAT SP IPHASW D HRMM SECON CODA AMPLIT PERI AZIMU VELO AIN AR TRES W  DIS CAZ7
 BAR2 SZ EP       1450 47.23                             172   -0.1010 20.2 199 
 BAR2 SZ ES       1451  1.71                             172   -0.7810 20.2 199 
 BAR2 SZ I        1451  3.41        11.3 0.26            171           20.2 199 
 GIR2 SZ EP       1450 47.36                             165   -0.2010 35.7 347 
 GIR2 SZ ES   1   1451  3.21                             165    0.31 7 35.7 347 
 BRR  HZ EP       1450 49.16                             151   -0.0110 75.4 300 
 BRR  HN ES       1451  6.22                             151    0.4610 75.4 300 
 BRR  HZ I        1451  6.31        13.4 0.64            152           75.4 300 
 PAM  SZ EP       1450 50.24                             150    0.1610 78.9  36 
 PAM  SN ES       1451  7.35                             150   -0.0310 78.9  36 
 PAM  SZ I        1451  8.14         8.1 0.20            151           78.9  36 
 RUS  HZ EP   1   1450 51.72                             145    0.48 7 96.5 177 
 RUS  HN ES       1451  9.77                             145    0.3210 96.5 177 
 RUS  HZ I        1451 10.63         4.8 0.24            145           96.5 177 
 PTB  HZ EP   1   1450 54.40                             131   -0.54 7  150 261 
                                                                                
