 2013  330 1612 14.8 L   6.733 -73.211146.8  RSN  5 0.4 1.6LRSN                1
 GAP=222        1.07       9.3    10.4 11.6  0.6069E+02  0.5075E+02  0.4586E+01E
 Epicentro: VILLANUEVA - SANTANDER                                             3
 ACTION:UPD 13-04-09 14:05 OP:ep   STATUS:               ID:20130330161214 L   I
 2013-03-30-1610-00M.COL___245                                                 6
 STAT SP IPHASW D HRMM SECON CODA AMPLIT PERI AZIMU VELO AIN AR TRES W  DIS CAZ7
 BAR2 SZ ES       1612 49.04                             173   -0.6710 15.8 168 
 BAR2 SZ I        1612 49.67        12.8 0.36            170           15.8 168 
 BRR  HZ EP       1612 35.72                             153   -0.1910 69.1 307 
 BRR  HN ES       1612 52.82                             153    0.4110 69.1 307 
 BRR  HN I        1612 53.21        12.7 0.40            151           69.1 307 
 RUS  HE ES       1612 56.92                             146    0.5210 94.0 171 
 RUS  HE I        1612 59.53         5.3 0.34            143           94.0 171 
 PTB  HZ EP   1   1612 40.91                             134   -0.16 7  139 261 
 PTB  HN ES   1   1613  1.08                             134   -0.51 7  139 261 
 PTB  HZ I        1613  3.27         2.7 0.16            131            139 261 
 PTB  HN I        1613  4.65         6.0 0.20                           139 261 
 ZAR  HN ES       1613 12.32                             123    0.35 9  200 295 
 ZAR  HN I        1613 17.44         5.2 0.44            122            200 295 
                                                                                
