 2013  830 1452 38.4 L   6.793 -73.170141.7  RSN  7 0.5 1.9LRSN                1
 GAP=134        1.32       6.2     5.6  8.3  0.2170E+01  0.1491E+02  0.2866E+01E
 Epicentro: LOS SANTOS - SANTANDER                                             3
 ACTION:UPD 14-01-14 09:08 OP:ep   STATUS:               ID:20130830145238 L   I
 OLDACT:REG 13-08-30 17:46 OP:nd   STATUS:               ID:20130830144959     3
 2013-08-30-1449-59M.COL___238                                                 6
 STAT SP IPHASW D HRMM SECON CODA AMPLIT PERI AZIMU VELO AIN AR TRES W  DIS CAZ7
 BAR2 SZ EP       1452 57.74                             171    0.2210 22.3 184 
 BAR2 SZ ES       1453 11.77                             171   -0.6710 22.3 184 
 BAR2 SZ I        1453 13.77        20.9 0.24            172           22.3 184 
 BRR  HZ EP       1452 59.34                             152    0.3410 69.2 300 
 BRR  HN ES       1453 16.19                             152    1.1210 69.2 300 
 BRR  HZ I        1453 19.69        13.6 0.26            151           69.2 300 
 PAM  SZ EP       1453  0.33                             149    0.0010 79.7  41 
 PAM  SN ES       1453 17.24                             149   -0.1910 79.7  41 
 PAM  SZ I        1453 18.28         8.7 0.20            152           79.7  41 
 RUS  HZ EP       1453  1.52                             143   -0.2010  100 174 
 RUS  HN ES       1453 20.12                             143    0.2210  100 174 
 RUS  HZ I        1453 21.30         9.8 0.26            147            100 174 
 PTB  HZ EP       1453  4.07                             132   -0.72 9  145 259 
 PTB  HN ES       1453 25.00                             132   -0.37 9  145 259 
 PTB  HZ I        1453 27.37        11.0 0.14            132            145 259 
 ZAR  HZ EP       1453 10.29                             122   -0.07 9  202 293 
 ZAR  HN ES       1453 34.69                             122   -0.59 9  202 293 
 ZAR  HZ I        1453 40.92        10.4 0.42            123            202 293 
 GUY2CHZ EP       1453 22.51                             112    0.98 7  299 235 
 GUY2CHN ES   2   1453 55.75                             112    0.58 4  299 235 
 GUY2CHZ I        1454  3.83         4.9 0.34                           299 235 
                                                                                
