 2017 1130 1208 23.8 L   6.798 -73.166144.7  RSN 24 0.6 2.5LRSN                1
 GAP= 64        0.90       2.3     2.3  5.0 -0.1009E+00  0.3262E+01  0.1347E+01E
 Epicentro: LOS SANTOS - SANTANDER                                             3
 ACTION:UPD 17-12-12 20:02 OP:rebc STATUS:               ID:20171130120823 L   I
 OLDACT:UP  17-11-30 22:52 OP:mg   STATUS:               ID:20171130120738     3
 OLDACT:REG 17-11-30 20:55 OP:mg   STATUS:               ID:20171130120738     3
 2017-11-30-1208-00M.COL___474                                                 6
 STAT SP IPHASW D HRMM SECON CODA AMPLIT PERI AZIMU VELO AIN AR TRES W  DIS CAZ7
 BAR2 EZ IP     C 12 8 43.39                             171    0.0710 22.8 185 
 BAR2 EZ ES   2   12 8 58.73                             171    0.20 5 22.8 185 
 BAR2 EZ I        12 8 59.58       114.5 0.26            169           22.8 185 
 PAM  EZ EP       12 8 46.12                             150    0.0910 79.0  41 
 PAM  EN ES       12 9  3.34                             150   -0.0110 79.0  41 
 PAM  EZ I        12 9  5.83        44.0 0.58            155           79.0  41 
 RUS  HZ EP       12 8 47.37                             144   -0.1010  101 175 
 RUS  HN ES       12 9  6.03                             144    0.1210  101 175 
 RUS  HZ I        12 9  7.61        28.8 0.54            145            101 175 
 PTB  HZ EP       12 8 49.75                             132   -0.76 9  146 259 
 PTB  HN ES       12 9 11.00                             132   -0.32 9  146 259 
 PTB  HZ I        12 9 18.12        26.1 0.28            131            146 259 
 TAM  HZ IP     D 12 8 51.82                             130    0.20 9  157 105 
 TAM  HN ES       12 9 13.68                             130    0.38 9  157 105 
 OCA  HZ EP   1   12 8 51.60                             129   -0.46 7  160 354 
 OCA  HE ES   1   12 9 13.72                             129   -0.36 7  160 354 
 OCA  HZ I        12 9 17.55        73.5 0.30            131            160 354 
 SPBC HZ EP   2   12 8 51.75                             129   -0.35 5  162 218 
 SPBC HN ES   2   12 9 14.34                             129    0.20 5  162 218 
 SPBC HZ I        12 9 19.41        57.1 0.19            129            162 218 
 YPLC HZ IP     D 12 8 53.89                             126    0.26 9  178 151 
 YPLC HN ES   1   12 9 16.64                             126   -0.24 7  178 151 
 YPLC HZ I        12 9 21.30        19.4 0.26            129            178 151 
 ZAR  HZ EP       12 8 56.06                             122    0.06 9  202 292 
 ZAR  HE ES       12 9 21.41                             122    0.31 9  202 292 
 ZAR  HZ I        12 9 27.01        25.4 0.15            123            202 292 
 NOR  HZ EP       12 8 59.16                             118   -0.13 8  233 234 
 NOR  HE ES       12 9 26.84                             118   -0.10 8  233 234 
 NOR  HZ I        12 9 33.76        19.2 0.24            119            233 234 
 CHI  HZ EP       12 9  1.64                             117    0.26 8  248 195 
 CHI  HN ES       12 9 31.11                             117    0.44 8  248 195 
 CHI  HZ I        12 9 33.33        24.3 0.32            118            248 195 
 ROSC BN ES   4   12 9 34.28                             117    2.97 0  251 211 
 ROSC BZ I        12 9 37.42        36.8 0.31            117            251 211 
 HEL  HZ EP   1   12 9  4.68                             115    0.94 6  270 256 
 HEL  HE ES       12 9 34.74                             115   -0.13 8  270 256 
 HEL  HZ I        12 9 42.99        14.8 0.30            115            270 256 
 URE  HZ EP   2   12 9  3.92                             113   -0.71 4  282 292 
 URE  HN ES   3   12 9 34.53                             113   -1.92 2  282 292 
 URE  HZ I        12 9 46.44        32.4 0.18            114            282 292 
 DRL03HZ EP   1   12 9  5.73                             113    0.34 5  289 353 
 DRL03HN ES       12 9 37.97                             113    0.17 7  289 353 
 GUY2CHZ EP   2   12 9  8.32                             112    1.15 4  299 235 
 GUY2CHN ES   1   12 9 40.65                             112   -0.32 5  299 235 
 GUY2CHZ I        12 9 51.90        10.9 0.56                           299 235 
 PTGC HZ EP       12 9  6.67                             111   -1.04 7  309 158 
 PTGC HN ES   2   12 9 39.51                             111   -2.42 4  309 158 
 PTGC HZ I        12 9 44.84        10.7 0.27            113            309 158 
 CBOC HZ EP   2   12 9 11.74                             110    1.29 3  331 252 
 CBOC HN ES       12 9 47.11                             110    0.30 7  331 252 
 CBOC HZ I        12 9 54.02         4.0 0.15            111            331 252 
 DBB  EZ EP   1   12 9 11.77                             109    0.76 5  337 274 
 DBB  EN ES   2   12 9 46.63                             109   -1.18 3  337 274 
 DBB  EZ I        12 9 49.63        10.0 0.19            110            337 274 
 PRA  HZ EP       12 9 17.18                             106    0.02 6  391 209 
 PRA  HN ES       12 9 58.28                             106   -0.47 6  391 209 
 PRA  HZ I        1210  7.43         9.8 0.30            107            391 209 
 ORTC HZ EP   1   12 9 18.42                             106    0.88 4  394 216 
 ORTC HN ES   2   1210  0.98                             106    1.56 3  394 216 
 ORTC HZ I        1210  6.55         7.9 0.46            107            394 216 
 PAL  HZ EP   2   12 9 17.68                             106   -1.03 3  404 239 
 PAL  HN ES   1   1210  2.04                             106    0.52 4  404 239 
 PAL  HZ I        1210  7.68         4.9 0.46            107            404 239 
 SJC  HZ EP   4   12 9 17.56                             106   -1.68 0  408 327 
 SJC  HN ES   4   12 9 58.94                             106   -3.52 0  408 327 
 SJC  HZ I        1210 13.09         6.5 0.74            107            408 327 
 CRJC HZ EP   4   12 9 23.40                             103   -2.95 0  468   4 
 CRJC HN ES   4   1210  8.80                             103   -6.31 0  468   4 
 CRJC HZ I        1210 16.38         7.1 0.69            105            468   4 
                                                                                
