 2012  730 1807 17.5 L   6.761 -73.182150.4  RSN  5 0.3 1.6LRSN                1
 GAP=230        0.71       9.5     6.3  7.1  0.2915E+02  0.4586E+01 -0.1596E+01E
 Epicentro: VILLANUEVA - SANTANDER                                             3
 ACTION:UPD 12-08-14 11:46 OP:ep   STATUS:               ID:20120730180717 L   I
 2012-07-30-1800-00M.COL___209                                                 6
 STAT SP IPHASW D HRMM SECON CODA AMPLIT PERI AZIMU VELO AIN AR TRES W  DIS CAZ7
 BAR2 SZ EP       18 7 37.53                             173    -0.110   19 180 
 BAR2 SZ I        18 7 38.04         6.7 0.19            148             19 180 
 BAR2 SZ ES   1   18 7 53.61                             173     0.3 7   19 180 
 BRR  HZ EP       18 7 39.09                             154     0.010   70 303 
 BRR  HZ I        18 7 42.59        14.3 0.44            149             70 303 
 BRR  HN ES   1   18 7 55.69                             154    -0.2 7   70 303 
 RUS  HZ EP   2   18 7 41.16                             146    -0.3 5   97 173 
 RUS  HZ I        18 8  2.49         2.1 0.31            122             97 173 
 PTB  HZ EP   1   18 7 44.13                             134    -0.3 7  143 260 
 PTB  HN ES   1   18 8  5.59                             134     0.1 7  143 260 
 PTB  HZ I        18 8  7.55         5.2 0.16            119            143 260 
 ZAR  HZ EP   1   18 7 50.74                             124     0.7 6  202 294 
 ZAR  HN ES   1   18 8 15.25                             124    -0.2 6  202 294 
 ZAR  HZ I        18 8 21.04         8.5 0.30            114            202 294 
