 2014 1030 1118 46.0 L   6.783 -73.078149.9  RSN 19 0.4 2.2LRSN                1
 GAP=126        0.82       2.9     3.6  4.7 -0.1622E+01  0.3369E+01  0.5640E+01E
 Epicentro: LOS SANTOS - SANTANDER                                             3
 ACTION:UPD 14-11-29 23:58 OP:nd   STATUS:               ID:20141030111846 L   I
 OLDACT:REG 14-11-24 20:23 OP:spq  STATUS:               ID:20141030111746     3
 2014-10-30-1117-46M.COL___265                                                 6
 STAT SP IPHASW D HRMM SECON CODA AMPLIT PERI AZIMU VELO AIN AR TRES W  DIS CAZ7
 BAR2 SZ EP     C 1119  6.11                             170   -0.0210 24.0 209 
 BAR2 SZ ES   1   1119 21.99                             170    0.15 7 24.0 209 
 BAR2 SZ I        1119 22.79        19.9 0.38            166           24.0 209 
 PAM  SZ EP       1119  9.01                             152    0.5410 74.4  34 
 PAM  SN ES       1119 26.11                             152    0.1010 74.4  34 
 PAM  SZ I        1119 28.30        12.8 0.44            159           74.4  34 
 BRR  HZ EP       1119  8.05                             151    0.0410 78.7 297 
 BRR  HN ES       1119 25.42                             151    0.2310 78.7 297 
 BRR  HZ I        1119 27.72        17.7 0.13            150           78.7 297 
 RUS  HZ EP       1119  9.87                             145   -0.1210 98.4 180 
 RUS  HN ES   1   1119 28.50                             145   -0.22 7 98.4 180 
 PTB  HZ EP       1119 13.00                             131   -0.92 9  155 260 
 PTB  HE ES   1   1119 35.15                             131   -0.56 7  155 260 
 PTB  HZ I        1119 40.10        20.6 0.36            131            155 260 
 OCA  HN ES       1119 37.08                             130   -0.36 9  163 351 
 OCA  HZ I        1119 41.99        17.8 0.28            133            163 351 
 SPBC HZ EP     C 1119 15.11                             129   -0.01 9  167 221 
 SPBC HE ES   1   1119 37.82                             129   -0.02 7  167 221 
 SPBC HZ I        1119 44.24        34.7 0.34            129            167 221 
 CHI  HZ EP       1119 24.13                             118    0.19 8  249 197 
 CHI  HN ES   1   1119 53.25                             118   -0.29 6  249 197 
 CHI  HZ I        1119 57.57         5.8 0.38            119            249 197 
 ROSC BZ EP   4   1119 26.61                             117    2.03 0  255 213 
 ROSC BN ES   4   1119 58.09                             117    3.40 0  255 213 
 ROSC BZ I        1120  4.02        16.2 0.40            118            255 213 
 HEL  HZ EP       1119 27.78                             115    0.62 7  279 257 
 HEL  HE ES   1   1119 59.87                             115    0.60 6  279 257 
 HEL  HZ I        1120  6.80         7.2 0.26            116            279 257 
 PTGC HZ EP       1119 29.01                             113   -0.52 7  304 160 
 PTGC HN ES   4   1120  2.22                             113   -1.27 0  304 160 
 PTGC HZ I        1120  5.54        18.9 0.38            115            304 160 
 RREF HZ EP   4   1119 30.04                             111   -2.78 0  326 230 
 RREF HE ES   4   1120  7.37                             111   -1.98 0  326 230 
 RREF HZ I        1120 11.92         9.1 0.28            112            326 230 
 CBOC HZ EP   1   1119 34.02                             110    0.20 5  340 253 
 CBOC HN ES   1   1120 11.12                             110   -0.01 5  340 253 
 TOL  SZ EP       1119 35.04                             110    0.18 6  347 226 
 TOL  SN ES   4   1120 14.93                             110    1.95 0  347 226 
 TOL  SZ I        1120 19.32        16.3 0.54            111            347 226 
 DBB  SZ EP   1   1119 34.18                             110   -0.32 5  347 274 
 DBB  SZ ES   4   1120 10.39                             110   -1.95 0  347 274 
 DBB  SZ I        1120 12.02        14.2 0.40            111            347 274 
 ANIL HN ES   4   1120 17.35                             109    1.62 0  361 226 
 ANIL HZ I        1120 22.67         2.2 0.50            110            361 226 
 PRA  HZ EP       1119 39.58                             107   -0.31 6  394 211 
 PRA  HN ES   1   1120 22.23                             107    0.29 4  394 211 
 PRA  HZ I        1120 27.55         6.9 0.62            108            394 211 
 ORTC HZ EP   1   1119 41.12                             107    0.73 4  398 217 
 ORTC HN ES       1120 23.50                             107    0.68 6  398 217 
 ORTC HZ I        1120 27.74         4.6 0.34            108            398 217 
 SJC  HZ EP   4   1119 39.91                             106   -2.44 0  415 326 
 SJC  HE ES   4   1120 21.93                             106   -4.39 0  415 326 
 SJC  HZ I        1120 26.89         2.8 0.48            108            415 326 
                                                                                
