 2016  330 1602 57.4 L   6.793 -73.156134.0  RSN  7 0.5 1.9LRSN                1
 GAP=136        1.09       4.8     4.6  7.6 -0.4428E+01  0.1660E+02 -0.2915E+00E
 Epicentro: LOS SANTOS - SANTANDER                                             3
 ACTION:UPD 16-05-13 21:29 OP:cam  STATUS:               ID:20160330160257 L   I
 OLDACT:REG 16-03-30 20:38 OP:drio STATUS:               ID:20160330155743     3
 2016-03-30-1557-43M.COL___295                                                 6
 STAT SP IPHASW D HRMM SECON CODA AMPLIT PERI AZIMU VELO AIN AR TRES W  DIS CAZ7
 BAR2 EZ EP       16 3 15.26                             170   -0.3810 22.4 187 
 BAR2 EZ ES       16 3 30.14                             170    0.3110 22.4 187 
 BAR2 EZ I        16 3 31.08        23.3 0.34            172           22.4 187 
 PAM  EZ EP       16 3 18.19                             148   -0.3110 78.7  40 
 PAM  EE ES       16 3 35.10                             148    0.1710 78.7  40 
 PAM  EZ I        16 3 37.49        19.3 0.64            150           78.7  40 
 RUS  HZ EP       16 3 19.75                             141   -0.2510 99.9 175 
 RUS  HE ES       16 3 37.87                             141    0.2810 99.9 175 
 RUS  HZ I        16 3 38.55         5.8 0.22            145           99.9 175 
 PTB  HZ EP   4   16 3 22.06                             129   -1.29 0  146 259 
 PTB  HE ES       16 3 42.95                             129   -0.62 9  146 259 
 PTB  HZ I        16 3 44.80        12.8 0.44            130            146 259 
 ZAR  HZ EP       16 3 29.71                             120    0.64 9  203 292 
 ZAR  HN ES       16 3 53.85                             120    0.12 9  203 292 
 ZAR  HZ I        16 3 59.98        10.7 0.30            120            203 292 
 NOR  HZ EP       16 3 31.84                             116   -0.52 8  233 234 
 NOR  HE ES       16 3 59.15                             116   -0.45 8  233 234 
 NOR  HZ I        16 4  3.15         4.3 0.38            118            233 234 
 GUY2CHZ EP       16 3 41.15                             110    0.78 7  300 235 
 GUY2CHE ES       16 4 14.66                             110    0.80 7  300 235 
 GUY2CHZ I        16 4 21.57         3.3 0.36                           300 235 
 SJC  HZ EP   4   16 3 49.91                             104   -2.73 0  409 327 
 SJC  HN ES   4   16 4 30.07                             104   -5.63 0  409 327 
                                                                                
