 2016  130 1435 58.9 L   6.811 -73.170146.4  RSN  6 0.2 1.9LRSN                1
 GAP=133        0.47       2.2     3.8  5.2 -0.3251E+01  0.9620E+01 -0.4679E+01E
 Epicentro: LOS SANTOS - SANTANDER                                             3
 ACTION:UPD 16-03-09 23:29 OP:cam  STATUS:               ID:20160130143558 L   I
 OLDACT:REG 16-01-30 22:09 OP:ak   STATUS:               ID:20160130143200     3
 2016-01-30-1431-59S.COL___229                                                 6
 STAT SP IPHASW D HRMM SECON CODA AMPLIT PERI AZIMU VELO AIN AR TRES W  DIS CAZ7
 BAR2 EZ EP       1436 18.38                             170   -0.2210 24.2 183 
 BAR2 EZ ES       1436 34.01                             170    0.0210 24.2 183 
 BAR2 EZ I        1436 37.52        11.4 0.36            172           24.2 183 
 PAM  EZ EP       1436 21.48                             151    0.2710 78.2  42 
 PAM  EN ES       1436 38.55                             151   -0.0810 78.2  42 
 PAM  EZ I        1436 40.67        17.9 0.44            153           78.2  42 
 RUS  HN ES       1436 41.37                             143   -0.0810  102 175 
 PTB  HZ EP   2   1436 25.36                             132   -0.31 5  145 258 
 SPBC HN ES       1436 49.74                             129    0.17 9  162 218 
 SML  HN ES       1437  3.70                             118    0.00 8  241 336 
                                                                                
