 2013  830 1821 40.6 L   6.785 -73.182138.4  RSN  4 0.2 1.4LRSN                1
 GAP=133        0.53       2.7     4.0  4.3 -0.4264E-01 -0.1127E+01  0.4779E+00E
 Epicentro: LOS SANTOS - SANTANDER                                             3
 ACTION:UPD 14-01-14 09:08 OP:ep   STATUS:               ID:20130830182140 L   I
 OLDACT:REG 13-08-30 17:54 OP:nd   STATUS:               ID:20130830181959     3
 2013-08-30-1819-59M.COL___238                                                 6
 STAT SP IPHASW D HRMM SECON CODA AMPLIT PERI AZIMU VELO AIN AR TRES W  DIS CAZ7
 BAR2 SZ EP       1821 59.17                             171   -0.1110 21.3 180 
 BAR2 SZ ES       1822 13.57                             171   -0.3010 21.3 180 
 BAR2 SZ I        1822 16.99         4.5 0.50            171           21.3 180 
 BRR  HZ EP       1822  0.82                             152    0.0410 68.5 301 
 BRR  HN ES       1822 16.64                             152    0.1010 68.5 301 
 BRR  HZ I        1822 22.35        15.4 0.50            151           68.5 301 
 PAM  SZ EP       1822  2.03                             148   -0.2310 81.2  41 
 PAM  SN ES       1822 19.40                             148    0.2310 81.2  41 
 PAM  SZ I        1822 20.57         3.3 0.34            153           81.2  41 
 RUS  HZ EP       1822  3.67                             143    0.1510 99.3 174 
 RUS  HN ES       1822 21.54                             143    0.1310 99.3 174 
 RUS  HZ I        1822 23.23         3.1 0.26            147           99.3 174 
                                                                                
