 2010  830 1428 33.1 L   6.806 -73.107145.3  RSN  7 0.2 1.9LRSN                1
 GAP=163        0.52       2.4     5.5  4.6 -0.3927E+01 -0.3894E+01  0.1390E+01E
 Epicentro: LOS SANTOS - SANTANDER                                             3
 ACTION:UP  10-09-07 10:59 OP:vdl  STATUS:               ID:20100830142833 L   I
 2010-08-30-1425-03S.COL___120                                                 6
 STAT SP IPHASW D HRMM SECON CODA AMPLIT PERI AZIMU VELO SNR AR TRES W  DIS CAZ7
 BAR2 SZ EP       1428 52.58                             170    -0.110   25 200 
 BAR2 SZ ES   2   1429  7.26                             170    -0.7 5   25 200 
 BAR2 SZ I        1429  8.85        19.5 0.39                            25 200 
 BRR  HZ EP       1428 54.32                             151     0.010   75 297 
 BRR  HZ I        1428 54.49        27.4 0.15                            75 297 
 BRR  HN ES   1   1429 11.19                             151     0.2 7   75 297 
 RUS  HZ EP       1428 56.87                             144     0.110  101 178 
 RUS  HE ES   1   1429 15.66                             144     0.3 7  101 178 
 RUS  HZ I        1429 16.37         7.6 0.32                           101 178 
 GUE  SZ EP       1428 57.48                             140    -0.110  115  10 
 GRA  SZ EP       1428 58.25                             137     0.110  124  16 
 GRA  SZ I        1428 59.60         9.4 0.35                           124  16 
 GRA  SZ ES   2   1429 17.64                             137     0.0 5  124  16 
 CHI  HZ EP   1   1429 11.03                             117     0.1 6  250 196 
 CHI  HE ES   1   1429 40.30                             117    -0.2 6  250 196 
 CHI  HZ I        1429 44.48         3.5 0.28                           250 196 
 PRA  HZ EP       1429 26.86                             106     0.0 6  395 210 
 PRA  HN ES   2   1430  8.55                             106    -0.3 3  395 210 
 PRA  HZ I        1430 15.89         3.8 0.19                           395 210 
                                                                                
