 2012  730 1512 25.2 L   6.468 -73.829 82.0  RSN  5 0.4 1.5LRSN                1
 GAP=150        0.69       6.7     3.3  9.7 -0.1103E+01  0.1814E+01  0.4693E+00E
 Epicentro: SANTA HELENA DEL OPON - SANTANDER                                  3
 ACTION:UPD 12-08-14 11:46 OP:ep   STATUS:               ID:20120730151225 L   I
 2012-07-30-1510-00M.COL___209                                                 6
 STAT SP IPHASW D HRMM SECON CODA AMPLIT PERI AZIMU VELO AIN AR TRES W  DIS CAZ7
 PTB  HZ IP       1512 39.59                             137    -0.310   70 277 
 PTB  HN ES   1   1512 51.41                             137     0.1 7   70 277 
 PTB  HZ I        1512 52.64         7.9 0.16            140             70 277 
 BRR  HZ EP       1512 39.78                             136    -0.210   72  10 
 BRR  HZ I        1512 39.91        15.1 0.10            136             72  10 
 BRR  HN ES   2   1512 51.73                             136     0.2 5   72  10 
 BAR2 SZ EP       1512 40.38                             136     0.010   73  79 
 BAR2 SZ ES   1   1512 52.60                             136     0.3 7   73  79 
 BAR2 SZ I        1512 54.50        10.9 0.24            140             73  79 
 NOR  SN ES   3   1513  8.06                             114     1.5 2  153 229 
 ZAR  HZ EP   3   1512 50.04                             113     0.7 2  160 315 
 ZAR  HN ES   2   1513  8.67                             113     0.6 5  160 315 
 ZAR  HZ I        1513 11.90         7.7 0.20            115            160 315 
