 2017  630 1611 21.3 L   6.738 -73.034  0.0  RSN  7 0.7 1.7LRSN                1
 GAP=260        1.11       3.7     7.4  4.5 -0.6486E+01  0.5689E+01 -0.9199E+01E
 Epicentro: ARATOCA - SANTANDER                                                3
 ACTION:UPD 17-09-14 16:56 OP:jn   STATUS:               ID:20170630161121 L   I
 OLDACT:UP  17-07-01 01:08 OP:osc  STATUS:               ID:20170630160337     3
 OLDACT:UP  17-07-01 01:03 OP:osc  STATUS:               ID:20170630160337     3
 OLDACT:REG 17-06-30 21:05 OP:osc  STATUS:               ID:20170630160337     3
 2017-06-30-1608-00M.COL___374                                                 6
 STAT SP IPHASW D HRMM SECON CODA AMPLIT PERI AZIMU VELO AIN AR TRES W  DIS CAZ7
 BAR2 EZ IP   2 D 1611 24.41                              95   -1.69 5 22.9 225 
 BAR2 EZ ES       1611 29.64                              95   -0.2010 22.9 225 
 BAR2 EZ I        1611 30.36        52.8 0.26             47           22.9 225 
 BRR  HZ EP       1611 34.84                              47   -0.5510 85.3 299 
 BRR  HE ES       1611 46.57                              47    0.1910 85.3 299 
 PTB  HZ EP       1611 46.80                              47    0.26 9  159 262 
 PTB  HN ES   4   1612  7.50                              47    1.28 0  159 262 
 PTB  HZ I        1612 10.20         8.8 0.20             47            159 262 
 SPBC HZ EP       1611 48.31                              47    0.57 9  166 224 
 SPBC HE ES       1612  8.39                              47    0.04 9  166 224 
 SPBC HZ I        1612 15.08        13.9 0.10             47            166 224 
 ZAR  HZ EP   3   1611 53.53                              37   -0.96 2  218 293 
 ZAR  HE ES       1612 20.58                              37    0.20 8  218 293 
 ZAR  HZ I        1612 23.29         9.7 0.35             37            218 293 
 NOR  HZ EP   9   1611 57.79                              37    0.37 0  241 238 
 NOR  HE ES       1612 26.47                              37    0.51 8  241 238 
 NOR  HZ I        1612 31.02         5.8 0.34             37            241 238 
 CHI  HZ EP   3   1612  1.06                              37    2.64 2  246 198 
 CHI  HN ES   3   1612 28.90                              37    1.52 2  246 198 
                                                                                
