 2013 1030 1009 10.6 L   6.732 -73.113148.8  RSN  6 0.4 1.4LRSN                1
 GAP=236        1.04       5.8     6.0  7.1  0.1881E+01  0.8955E+01  0.5484E+01E
 Epicentro: JORDAN - SANTANDER                                                 3
 ACTION:UPD 13-11-25 09:24 OP:ep   STATUS:               ID:20131030100910 L   I
 OLDACT:REG 13-10-30 16:29 OP:carl STATUS:               ID:20131030100835     3
 2013-10-30-1008-35M.COL___220                                                 6
 STAT SP IPHASW D HRMM SECON CODA AMPLIT PERI AZIMU VELO AIN AR TRES W  DIS CAZ7
 BAR2 SZ EP       10 9 30.60                             173    0.0910 17.2 206 
 BAR2 SZ ES       10 9 45.96                             173   -0.0710 17.2 206 
 BAR2 SZ I        10 9 46.51         6.7 0.26            168           17.2 206 
 BRR  HZ EP       10 9 32.42                             151   -0.0810 78.1 302 
 BRR  HE ES       10 9 50.01                             151    0.4510 78.1 302 
 RUS  HZ EP       10 9 34.61                             147    0.4710 92.9 178 
 RUS  HN ES       10 9 51.92                             147   -0.5710 92.9 178 
 RUS  HZ I        10 9 54.34         2.9 0.26            146           92.9 178 
 PTB  HZ EP       10 9 37.53                             132   -0.51 9  150 262 
 PTB  HN ES       10 9 58.94                             132   -0.49 9  150 262 
 PTB  HZ I        1010  4.39         3.0 0.24            131            150 262 
 SPBC HZ EP       10 9 39.46                             130    0.42 9  160 222 
 SPBC HN ES       1010  1.60                             130    0.40 9  160 222 
 NOR  HZ EP       10 9 45.83                             119   -0.56 8  233 236 
 NOR  HE ES       1010 14.67                             119    0.38 8  233 236 
 NOR  HZ I        1010 19.73         2.6 0.20            119            233 236 
                                                                                
