 2015  630 1500  9.4 L   6.804 -73.100138.2  RSN 15 0.5 2.5LRSN                1
 GAP=188        0.97       2.9     4.8  5.9 -0.6757E+00  0.1261E+02  0.1043E+01E
 Epicentro: LOS SANTOS - SANTANDER                                             3
 ACTION:UPD 15-09-10 22:16 OP:cam  STATUS:               ID:20150630150009 L   I
 OLDACT:UP  15-07-01 01:50 OP:mh   STATUS:               ID:20150630145747     3
 OLDACT:UP  15-07-01 01:48 OP:mh   STATUS:               ID:20150630145747     3
 OLDACT:UP  15-07-01 01:44 OP:mh   STATUS:               ID:20150630145747     3
 OLDACT:UP  15-07-01 01:44 OP:mh   STATUS:               ID:20150630145747     3
 OLDACT:REG 15-06-30 23:27 OP:mh   STATUS:               ID:20150630145747     3
 2015-06-30-1457-47M.COL___313                                                 6
 STAT SP IPHASW D HRMM SECON CODA AMPLIT PERI AZIMU VELO AIN AR TRES W  DIS CAZ7
 BAR2 EZ EP       15 0 28.43                             169    0.3110 25.1 201 
 BAR2 EZ ES       15 0 42.66                             169   -0.1010 25.1 201 
 BAR2 EZ I        15 0 44.53        51.4 0.26             47           25.1 201 
 RUS  HZ EP       15 0 33.02                             142    0.6310  101 179 
 RUS  HN ES       15 0 50.46                             142    0.1110  101 179 
 RUS  HZ I        15 0 51.64        47.1 0.32             47            101 179 
 OCA  HZ EP   1   15 0 36.88                             128   -0.25 7  161 351 
 OCA  HN ES       15 0 58.52                             128   -0.26 9  161 351 
 OCA  HZ I        15 0 59.63        63.5 0.18             47            161 351 
 ZAR  HZ EP   1   15 0 42.15                             120    0.34 6  209 292 
 ZAR  HN ES       15 1  7.41                             120    0.30 8  209 292 
 ZAR  HZ I        15 1 12.14        59.5 0.32             47            209 292 
 NOR  HZ EP       15 0 44.67                             116   -0.47 8  239 235 
 NOR  HN ES       15 1 12.50                             116   -0.55 8  239 235 
 NOR  HZ I        15 1 13.94        21.1 0.16             37            239 235 
 SML  HZ EP       15 0 44.80                             116   -0.98 8  246 334 
 SML  HN ES   4   15 1 15.20                             116    1.02 0  246 334 
 SML  HZ I        15 1 22.28        21.0 0.22             37            246 334 
 CHI  HZ EP       15 0 46.49                             115   -0.36 8  250 196 
 CHI  HN ES       15 1 15.66                             115   -0.42 8  250 196 
 CHI  HZ I        15 1 20.17         8.9 0.40             37            250 196 
 HEL  HZ EP       15 0 50.64                             113    0.88 7  277 256 
 HEL  HN ES       15 1 21.54                             113    0.27 7  277 256 
 HEL  HZ I        15 1 26.98        12.7 0.50             37            277 256 
 URE  HZ EP   4   15 0 51.44                             112    0.85 0  288 291 
 URE  HN ES   4   15 1 20.65                             112   -2.10 0  288 291 
 GUY2CHZ EP       15 0 54.01                             110    0.88 7  306 235 
 GUY2CHN ES   4   15 1 29.98                             110    2.71 0  306 235 
 GUY2CHZ I        15 1 33.35        12.9 0.58                           306 235 
 PTGC HZ EP   4   15 0 51.69                             110   -1.04 0  307 160 
 PTGC HN ES   4   15 1 23.34                             110   -3.21 0  307 160 
 PTGC HZ I        15 2 46.28        27.3 0.42             36            307 160 
 TOL  SZ EP   1   15 0 57.73                             108   -0.04 5  347 225 
 TOL  SN ES   1   15 1 35.28                             108   -0.25 5  347 225 
 TOL  SZ I        15 1 37.18         9.5 0.42             36            347 225 
 MON  HZ EP   4   15 0 55.76                             107   -2.76 0  357 308 
 MON  HN ES   4   15 1 34.34                             107   -2.52 0  357 308 
 MON  HZ I        15 1 35.30         8.7 0.22             36            357 308 
 PRA  HZ EP   1   15 1  2.84                             105   -0.13 4  395 210 
 PRA  HN ES       15 1 44.22                             105   -0.56 6  395 210 
 PRA  HZ I        15 1 51.09         9.7 0.64             36            395 210 
 ORTC HZ EP       15 1  3.71                             105    0.28 6  399 217 
 ORTC HN ES       15 1 45.19                             105   -0.40 6  399 217 
 ORTC HZ I        15 1 51.14         8.1 0.34             36            399 217 
 PAL  HZ EP       15 1  5.29                             104    0.47 6  410 239 
 PAL  HN ES       15 1 47.71                             104   -0.36 6  410 239 
 PAL  HZ I        15 1 53.39         8.3 0.38             36            410 239 
                                                                                
