 2010 1030 1351  7.3 L   6.782 -73.069154.7  RSN  6 0.3 1.7LRSN                1
 GAP=237        0.48       5.0     6.4  5.3  0.2806E+01  0.7714E+01  0.8568E+01E
 Epicentro: LOS SANTOS - SANTANDER                                             3
 ACTION:UP  11-02-18 11:13 OP:tino STATUS:               ID:20101030135107 L   I
 2010-10-30-1350-36S.COL___126                                                 6
 STAT SP IPHASW D HRMM SECON CODA AMPLIT PERI AZIMU VELO SNR AR TRES W  DIS CAZ7
 BAR2 SZ EP   1   1351 27.90                             171    -0.1 7   25 211 
 BAR2 SZ ES   2   1351 43.88                             171    -0.3 5   25 211 
 BTL  SZ EP   1   1351 28.31                             170     0.3 7   27 304 
 BTL  SZ ES   2   1351 44.54                             170     0.3 5   27 304 
 BRR  HZ EP   1   1351 29.85                             151     0.0 7   80 297 
 BRR  HN ES   2   1351 47.26                             151    -0.2 5   80 297 
 BRR  HZ I        1351 48.74        15.2 0.43                            80 297 
 RUS  HZ EP   1   1351 31.74                             146     0.0 7   98 181 
 RUS  HN ES   2   1351 50.82                             146     0.0 5   98 181 
 RUS  HZ I        1351 52.25         3.9 0.60                            98 181 
 NOR  SZ EP   1   1351 43.70                             120    -0.5 6  241 236 
 NOR  SE ES   2   1352 13.45                             120     0.5 4  241 236 
 PRA  HZ EP   1   1352  1.73                             108     0.3 4  395 211 
                                                                                
