 2013  330 1103 38.8 L   6.776 -73.132147.0  RSN  8 0.4 2.3LRSN                1
 GAP=139        0.83       4.6     3.9  5.9  0.3204E+01  0.2463E+01 -0.2773E+01E
 Epicentro: LOS SANTOS - SANTANDER                                             3
 ACTION:UPD 13-04-09 14:05 OP:ep   STATUS:               ID:20130330110338 L   I
 2013-03-30-1100-00M.COL___245                                                 6
 STAT SP IPHASW D HRMM SECON CODA AMPLIT PERI AZIMU VELO AIN AR TRES W  DIS CAZ7
 BAR2 SZ EP       11 3 58.29                             172   -0.2010 21.1 195 
 BAR2 SZ ES       11 4 14.01                             172    0.1310 21.1 195 
 BAR2 SZ I        11 4 14.29        35.9 0.36            167           21.1 195 
 GIR2 SZ EP       11 3 58.42                             166   -0.2410 34.1 349 
 GIR2 SZ ES       11 4 14.11                             166   -0.0610 34.1 349 
 GIR2 SZ I        11 4 15.63        17.0 0.36            165           34.1 349 
 BRR  HZ EP       11 4  0.21                             152    0.0210 73.7 300 
 BRR  HN ES       11 4 17.29                             152    0.3910 73.7 300 
 BRR  HN I        11 4 17.59        71.4 0.24            148           73.7 300 
 PAM  SZ EP       11 4  1.20                             150    0.0310 78.5  37 
 RUS  HZ EP   1   11 4  2.62                             145    0.18 7 97.9 177 
 RUS  HN ES       11 4 21.07                             145    0.1610 97.9 177 
 RUS  HN I        11 4 22.34        20.1 0.30            143           97.9 177 
 PTB  HN ES       11 4 26.21                             132   -0.88 9  149 260 
 PTB  HN I        11 4 31.61        27.7 0.18            128            149 260 
 ZAR  HZ EP   2   11 4 12.18                             122    0.65 4  206 293 
 ZAR  HE ES       11 4 37.29                             122    0.21 8  206 293 
 ZAR  HE I        11 4 42.30        47.5 0.16            120            206 293 
 HEL  HE ES   1   11 4 51.13                             115    0.53 6  273 256 
 HEL  HE I        11 4 58.53         6.9 0.44            113            273 256 
                                                                                
