 2013  930 1058 35.4 L   6.797 -73.132136.2  RSN  6 0.4 1.6LRSN                1
 GAP=202        0.86       4.7     5.8 13.3  0.1087E+02 -0.1698E+01 -0.2997E+02E
 Epicentro: LOS SANTOS - SANTANDER                                             3
 ACTION:UPD 13-10-22 09:26 OP:ep   STATUS:               ID:20130930105835 L   I
 OLDACT:UP  13-09-30 13:38 OP:mher STATUS:               ID:20130930104848     3
 OLDACT:REG 13-09-30 13:22 OP:stll STATUS:               ID:20130930104848     3
 2013-09-30-1048-48M.COL___240                                                 6
 STAT SP IPHASW D HRMM SECON CODA AMPLIT PERI AZIMU VELO AIN AR TRES W  DIS CAZ7
 BAR2 SZ EP   1   1058 54.29                             170    0.44 8 23.3 194 
 BAR2 SZ I        1059 15.58         3.9 0.20            171           23.3 194 
 RUS  HZ EP   1   1058 58.48                             142    0.32 7  100 177 
 RUS  HN ES       1059 15.78                             142   -0.1610  100 177 
 RUS  HZ I        1059 17.50         2.8 0.46            145            100 177 
 PTB  HZ EP   1   1059  0.98                             129   -0.73 7  149 259 
 PTB  HN ES       1059 21.94                             129   -0.31 9  149 259 
 PTB  HZ I        1059 27.50         7.7 0.50            137            149 259 
 SPBC HZ EP   1   1059  3.28                             126    0.06 7  164 219 
 SPBC HN ES   1   1059 25.09                             126    0.15 7  164 219 
 SPBC HZ I        1059 27.03         5.9 0.22            133            164 219 
 ZAR  HN ES       1059 32.97                             120    0.64 8  206 292 
 SML  HN ES       1059 39.50                             115   -0.33 8  245 335 
 SML  HZ I        1059 42.42         6.5 0.10            117            245 335 
                                                                                
