 2016  130 1903 13.8 L   6.789 -73.145141.2  RSN  8 0.5 1.6LRSN                1
 GAP=137        1.04       3.8     4.5  7.3 -0.2797E+01  0.1513E+02 -0.2040E+01E
 Epicentro: LOS SANTOS - SANTANDER                                             3
 ACTION:UPD 16-03-09 23:29 OP:cam  STATUS:               ID:20160130190313 L   I
 OLDACT:UP  16-01-31 01:22 OP:ak   STATUS:               ID:20160130185200     3
 OLDACT:REG 16-01-30 22:49 OP:ak   STATUS:               ID:20160130185200     3
 2016-01-30-1851-59S.COL___226                                                 6
 STAT SP IPHASW D HRMM SECON CODA AMPLIT PERI AZIMU VELO AIN AR TRES W  DIS CAZ7
 BAR2 EZ EP       19 3 33.14                             171    0.3010 22.1 191 
 BAR2 EZ ES       19 3 48.10                             171    0.4010 22.1 191 
 BAR2 EZ I        19 3 50.83        11.0 0.22            170           22.1 191 
 PAM  EZ EP       19 3 36.07                             150    0.5010 78.3  39 
 PAM  EN ES       19 3 52.55                             150   -0.0210 78.3  39 
 PAM  EZ I        19 3 55.52         4.6 0.62            155           78.3  39 
 RUS  HZ EP       19 3 36.74                             143   -0.2610 99.4 176 
 RUS  HN ES       19 3 54.47                             143   -0.6410 99.4 176 
 RUS  HZ I        19 3 56.51         3.2 0.38            149           99.4 176 
 PTB  HZ EP       19 3 40.02                             131   -0.34 9  148 259 
 PTB  HN ES       19 4  0.89                             131   -0.21 9  148 259 
 PTB  HZ I        19 4 10.94         8.8 0.13            133            148 259 
 ZAR  HZ EP   2   19 3 46.58                             121    0.59 4  205 292 
 ZAR  HN ES       19 4 11.38                             121    0.28 9  205 292 
 ZAR  HZ I        19 4 19.00         3.1 0.14            124            205 292 
 NOR  HZ EP       19 3 49.12                             118   -0.06 8  234 235 
 NOR  HE ES       19 4 17.52                             118    0.74 8  234 235 
 NOR  HZ I        19 4 18.86         3.3 0.18            121            234 235 
 SML  HZ EP   2   19 3 49.58                             116   -0.70 4  245 335 
 SML  HN ES       19 4 18.05                             116   -0.70 8  245 335 
 SML  HZ I        19 4 19.12         5.2 0.28            120            245 335 
 GUY2CHZ EP   1   19 3 58.02                             111    0.91 5  301 235 
 GUY2CHN ES       19 4 30.39                             111   -0.51 7  301 235 
 GUY2CHZ I        19 4 38.56         2.5 0.26                           301 235 
                                                                                
