 2016  130 1647 11.4 L   6.806 -73.128152.2  RSN 13 0.3 2.1LRSN                1
 GAP=139        0.71       1.8     2.8  4.1 -0.7572E+00  0.4073E+01 -0.6159E+00E
 Epicentro: LOS SANTOS - SANTANDER                                             3
 ACTION:UPD 16-03-09 23:29 OP:cam  STATUS:               ID:20160130164711 L   I
 OLDACT:REG 16-01-30 22:37 OP:ak   STATUS:               ID:20160130164400     3
 2016-01-30-1643-59S.COL___229                                                 6
 STAT SP IPHASW D HRMM SECON CODA AMPLIT PERI AZIMU VELO AIN AR TRES W  DIS CAZ7
 BAR2 EZ EP     D 1647 31.99                             170    0.1510 24.4 194 
 BAR2 EZ ES       1647 48.08                             170    0.3210 24.4 194 
 BAR2 EZ I        1647 49.16        11.7 0.20            170           24.4 194 
 PAM  EZ EP       1647 34.75                             152    0.5310 75.6  39 
 PAM  EN ES       1647 51.91                             152   -0.0910 75.6  39 
 PAM  EZ I        1647 54.26        14.0 0.54            154           75.6  39 
 RUS  HZ EP       1647 35.83                             145   -0.0110  101 177 
 RUS  HN ES       1647 54.53                             145   -0.3610  101 177 
 RUS  HZ I        1647 55.81         7.0 0.39            147            101 177 
 PTB  HZ EP       1647 38.94                             133   -0.16 9  150 259 
 PTB  HN ES       1648  0.14                             133   -0.55 9  150 259 
 PTB  HZ I        1648  2.16        18.0 0.18            132            150 259 
 OCA  HZ EP       1647 39.86                             131   -0.34 9  160 352 
 OCA  HN ES       1648  2.50                             131   -0.14 9  160 352 
 OCA  HZ I        1648  6.43        30.9 0.18            131            160 352 
 SPBC HZ EP       1647 40.94                             130    0.36 9  165 219 
 SPBC HN ES       1648  3.37                             130    0.05 9  165 219 
 SPBC HZ I        1648  6.47        15.8 0.19            130            165 219 
 ZAR  HZ EP       1647 44.21                             124   -0.24 8  206 292 
 ZAR  HN ES       1648 10.68                             124    0.46 8  206 292 
 ZAR  HZ I        1648 17.12        21.9 0.28            123            206 292 
 NOR  HZ EP       1647 47.33                             120   -0.41 8  237 235 
 NOR  HE ES       1648 16.15                             120    0.08 8  237 235 
 NOR  HZ I        1648 21.00         9.1 0.18            120            237 235 
 SML  HZ EP       1647 48.38                             119   -0.06 8  244 335 
 SML  HN ES       1648 17.30                             119   -0.01 8  244 335 
 SML  HZ I        1648 24.23        19.5 0.16            119            244 335 
 CHI  HZ EP       1647 49.55                             118   -0.05 8  250 196 
 CHI  HN ES       1648 19.36                             118   -0.02 8  250 196 
 CHI  HZ I        1648 27.17         6.6 0.54            119            250 196 
 HEL  HZ EP   2   1647 52.93                             116    0.74 4  274 256 
 GUY2CHZ EP   4   1647 57.38                             113    1.83 0  303 235 
 GUY2CHN ES       1648 30.27                             113    0.29 7  303 235 
 GUY2CHZ I        1648 36.99         5.9 0.32                           303 235 
 MON  HZ EP   4   1647 59.29                             110   -1.52 0  355 308 
 MON  HE ES       1648 39.38                             110    0.05 6  355 308 
 MON  HZ I        1648 53.14         4.3 0.56            110            355 308 
                                                                                
