 2016  730 1305  6.1 L   6.758 -73.135133.9  RSN  9 0.4 1.7LRSN                1
 GAP=140        1.05       4.0     4.4  6.1 -0.2463E+01  0.6509E+01  0.1499E+01E
 Epicentro: LOS SANTOS - SANTANDER                                             3
 ACTION:UPD 17-03-29 16:56 OP:lp   STATUS:               ID:20160730130506 L   I
 OLDACT:UP  16-07-30 22:57 OP:edw  STATUS:               ID:20160730125759     3
 OLDACT:REG 16-07-30 20:28 OP:edw  STATUS:               ID:20160730125759     3
 2016-07-30-1257-59S.COL___346                                                 6
 STAT SP IPHASW D HRMM SECON CODA AMPLIT PERI AZIMU VELO AIN AR TRES W  DIS CAZ7
 BAR2 EZ IP       13 5 23.75                             171   -0.4610 19.0 196 
 BAR2 EZ ES       13 5 38.47                             171    0.1310 19.0 196 
 BAR2 EZ I        13 5 39.40        10.3 0.30            169           19.0 196 
 BRR  HZ EP       13 5 25.69                             149   -0.4910 74.6 301 
 BRR  HE ES       13 5 42.00                             149    0.1610 74.6 301 
 PAM  EZ EP       13 5 27.44                             148    0.1910 80.3  37 
 PAM  HN ES       13 5 43.73                             148   -0.0210 80.3  37 
 RUS  HZ EP       13 5 28.10                             143   -0.2410 95.8 177 
 RUS  HN ES       13 5 45.82                             143    0.1310 95.8 177 
 RUS  HZ I        13 5 47.46         4.9 0.28            143           95.8 177 
 PTB  HZ EP   9   13 5 30.59                             129   -1.56 0  148 261 
 PTB  HN ES       13 5 50.90                             130   -0.01 9  148 261 
 PTB  HZ I        13 5 55.17         6.2 0.10            127            148 261 
 SPBC HZ EP       13 5 34.35                             127    0.92 9  160 220 
 SPBC HN ES       13 5 54.73                             127   -0.02 9  160 220 
 SPBC HZ I        13 5 58.08         8.1 0.30            126            160 220 
 ZAR  HZ EP       13 5 38.94                             119    0.83 8  207 293 
 ZAR  HN ES       13 6  2.82                             119   -0.25 8  207 293 
 ZAR  HZ I        13 6 10.77         5.3 0.26            119            207 293 
 NOR  HZ EP       13 5 40.21                             116   -0.77 8  233 236 
 NOR  HN ES       13 6  8.13                             116   -0.06 8  233 236 
 NOR  HZ I        13 6 13.16         4.0 0.16            116            233 236 
 GUY2CHZ EP   4   13 5 49.24                             110    0.25 0  299 236 
 GUY2CHN ES   4   13 6 26.07                             110    3.63 0  299 236 
 GUY2CHZ I        13 6 29.13         2.9 0.28                           299 236 
                                                                                
