 2014  130 1220 51.5 L   6.784 -73.120149.6  RSN  9 0.4 1.9LRSN                1
 GAP=185        0.95       2.9     5.5  6.3 -0.1076E+01  0.7735E+01 -0.2490E+01E
 Epicentro: LOS SANTOS - SANTANDER                                             3
 ACTION:UPD 14-03-13 09:59 OP:ep   STATUS:               ID:20140130122051 L   I
 OLDACT:REG 14-01-30 15:10 OP:nd   STATUS:               ID:20140130122000     3
 2014-01-30-1220-00M.COL___288                                                 6
 STAT SP IPHASW D HRMM SECON CODA AMPLIT PERI AZIMU VELO AIN AR TRES W  DIS CAZ7
 BAR2 SZ EP       1221 11.59                             171    0.0210 22.3 198 
 BAR2 SZ ES       1221 27.33                             171    0.1010 22.3 198 
 BAR2 SZ I        1221 28.65        12.9 0.28            174           22.3 198 
 RUS  HZ EP       1221 15.46                             145   -0.0310 98.7 178 
 RUS  HN ES       1221 34.29                             145    0.0810 98.7 178 
 RUS  HZ I        1221 35.49         4.5 0.68            144           98.7 178 
 PTB  HZ EP       1221 18.41                             132   -0.59 9  150 260 
 PTB  HN ES       1221 39.93                             132   -0.53 9  150 260 
 PTB  HZ I        1221 41.74         9.9 0.16            129            150 260 
 OCA  HZ EP       1221 20.36                             130    0.06 9  162 352 
 OCA  HN ES       1221 42.80                             130    0.03 9  162 352 
 OCA  HZ I        1221 51.41        10.0 0.40            125            162 352 
 NOR  HZ EP       1221 27.64                             119    0.05 8  236 235 
 NOR  HN ES       1221 56.75                             119    1.00 8  236 235 
 NOR  HZ I        1221 59.37         6.0 0.16            116            236 235 
 SML  HZ EP       1221 28.46                             118   -0.18 8  246 335 
 SML  HN ES       1221 57.90                             118    0.29 8  246 335 
 SML  HZ I        1222  1.92        11.3 0.24            114            246 335 
 CHI  HZ EP       1221 29.86                             118    0.55 8  248 196 
 CHI  HN ES       1221 58.22                             118   -0.59 8  248 196 
 CHI  HZ I        1222  4.15         2.9 0.50            115            248 196 
 GUY2CHZ EP   4   1221 36.89                             113    1.45 0  303 235 
 GUY2CHN ES   4   1222 11.44                             113    1.73 0  303 235 
 GUY2CHZ I        1222 17.48         3.1 0.56                           303 235 
 SJC  HZ EP   4   1221 45.69                             106   -1.85 0  412 327 
 SJC  HZ I        1222 20.40         2.3 0.64            103            412 327 
 SJC  HN ES   4   1222 27.70                             106   -3.55 0  412 327 
                                                                                
