 2017  830 1805 59.8 L   6.811 -73.092149.0  RSN  4 0.1 1.6LRSN                1
 GAP=248        0.37       3.0     2.8  4.5  0.3287E+01  0.1194E+01 -0.4297E+01E
 Epicentro: LOS SANTOS - SANTANDER                                             3
 ACTION:UPD 17-09-04 20:26 OP:rebc STATUS:               ID:20170830180559 L   I
 OLDACT:UP  17-08-31 00:24 OP:osc  STATUS:               ID:20170830175738     3
 OLDACT:REG 17-08-30 21:13 OP:dhb  STATUS:               ID:20170830175738     3
 2017-08-30-1758-00M.COL___405                                                 6
 STAT SP IPHASW D HRMM SECON CODA AMPLIT PERI AZIMU VELO AIN AR TRES W  DIS CAZ7
 RUS  HZ EP       18 6 24.10                             144    0.1510  102 179 
 RUS  HN ES       18 6 42.77                             144   -0.0210  102 179 
 RUS  HZ I        18 6 43.88         2.9 0.20            141            102 179 
 SPBC HZ EP       18 6 28.78                             129   -0.23 9  168 220 
 SPBC HE ES       18 6 51.70                             129   -0.08 9  168 220 
 SPBC HZ I        18 6 55.59         6.5 0.30            126            168 220 
 ZAR  HN EP   2   18 6 33.03                             122    0.04 4  209 291 
 ZAR  HE ES       18 6 58.84                             122   -0.02 8  209 291 
 NOR  HZ EP       18 6 36.35                             118    0.03 8  240 235 
 NOR  HE ES       18 7  4.97                             118    0.17 8  240 235 
 NOR  HZ I        18 7 10.05         3.5 0.20            117            240 235 
                                                                                
