 2010  830 1243 38.2 L   6.779 -73.048144.9  RSN  4 0.1 1.4LRSN                1
 GAP=176        0.38       5.5     9.5  6.9  0.3039E+02 -0.2481E+02 -0.1942E+02E
 Epicentro: LOS SANTOS - SANTANDER                                             3
 ACTION:UP  10-09-07 10:59 OP:vdl  STATUS:               ID:20100830124338 L   I
 2010-08-30-1239-38S.COL___120                                                 6
 STAT SP IPHASW D HRMM SECON CODA AMPLIT PERI AZIMU VELO SNR AR TRES W  DIS CAZ7
 BAR2 SZ ES   2   1244 12.90                             171    -0.1 5   26 216 
 BAR2 SZ I        1244 14.69        10.0 0.20                            26 216 
 BRR  HZ EP       1243 59.81                             149    -0.110   82 296 
 BRR  HZ I        1244  0.26         6.1 0.09                            82 296 
 BRR  HN ES   2   1244 17.06                             149     0.2 5   82 296 
 RUS  HZ EP   2   1244  1.90                             145     0.2 5   98 182 
 RUS  HE ES   2   1244 19.99                             145     0.0 5   98 182 
 RUS  HZ I        1244 21.38         2.0 0.23                            98 182 
 GUE  SZ EP   2   1244  2.98                             139     0.1 5  117   7 
                                                                                
