 2016 1230 1749 11.7 L   6.838 -73.149133.8  RSN 15 0.5 2.2LRSN                1
 GAP=111        1.05       4.3     3.6  6.1  0.7315E+00  0.6740E+01 -0.4079E+00E
 Epicentro: LOS SANTOS - SANTANDER                                             3
 ACTION:UPD 17-01-11 20:20 OP:rebc STATUS:               ID:20161230174911 L   I
 OLDACT:REG 16-12-30 21:07 OP:cog  STATUS:               ID:20161230174747     3
 2016-12-30-1748-00M.COL___374                                                 6
 STAT SP IPHASW D HRMM SECON CODA AMPLIT PERI AZIMU VELO AIN AR TRES W  DIS CAZ7
 BAR2 EZ IP     C 1749 30.16                             168    0.1610 27.5 188 
 BAR2 EZ ES       1749 43.94                             168   -0.3310 27.5 188 
 BAR2 EZ I        1749 48.27        28.4 0.14            166           27.5 188 
 PAM  EZ EP       1749 33.04                             149    0.5610 74.4  42 
 PAM  EN ES   4   1749 49.98                             149    1.30 0 74.4  42 
 PAM  EZ I        1749 52.41        21.2 0.41            155           74.4  42 
 RUS  HZ EP       1749 34.24                             140   -0.4010  105 176 
 RUS  HN ES       1749 52.75                             140    0.2310  105 176 
 RUS  HZ I        1749 54.25        13.4 0.24            142            105 176 
 PTB  HZ EP       1749 37.00                             129   -0.78 9  148 257 
 PTB  HN ES       1749 57.98                             129   -0.13 9  148 257 
 PTB  HZ I        1750  1.57        21.8 0.16            129            148 257 
 TAM  HZ EP       1749 38.63                             127    0.01 9  157 106 
 TAM  HN ES   4   1749 58.20                             127   -1.40 0  157 106 
 TAM  HZ I        1749 59.21        15.8 0.38            132            157 106 
 ZAR  HZ EP       1749 43.00                             120   -0.20 9  202 291 
 ZAR  HN ES       1750  8.33                             120    0.57 9  202 291 
 ZAR  HZ I        1750 13.94        27.2 0.46            121            202 291 
 CHI  HZ EP       1749 48.37                             114   -0.85 8  253 195 
 CHI  HN ES   4   1750 16.82                             114   -1.66 0  253 195 
 CHI  HZ I        1750 25.60         6.7 0.38            116            253 195 
 ROSC BZ EP   4   1749 51.07                             114    1.48 0  256 210 
 ROSC BN ES       1750 19.67                             114    0.53 8  256 210 
 ROSC BZ I        1750 25.89        13.4 0.55            115            256 210 
 GUY2CHZ EP       1749 55.75                             110    0.71 7  303 234 
 GUY2CHE ES   4   1750 30.27                             110    1.43 0  303 234 
 GUY2CHZ I        1750 40.67         9.4 0.56                           303 234 
 ELA  HZ EP   4   1749 59.66                             108    1.29 0  332 229 
 ELA  HN ES       1750 35.10                             108    0.33 7  332 229 
 ELA  HZ I        1750 42.80         6.1 0.43            109            332 229 
 CBOC HZ EP       1749 58.77                             108    0.50 7  335 251 
 CBOC HN ES       1750 33.86                             108   -0.72 7  335 251 
 CBOC HZ I        1750 40.76        16.9 0.10            109            335 251 
 DBB  EZ EP       1749 58.76                             107    0.11 7  339 274 
 DBB  EN ES       1750 35.03                             107   -0.23 7  339 274 
 DBB  EZ I        1750 43.08         3.7 0.17            109            339 274 
 ANIL HN ES   4   1750 41.82                             106    1.65 0  360 224 
 ORTC HZ EP       1750  5.94                             104    0.31 6  399 216 
 ORTC HN ES       1750 48.35                             104    0.67 6  399 216 
 ORTC HZ I        1750 54.66         4.9 0.28            106            399 216 
 SJC  HZ EP   4   1750  4.51                             104   -1.95 0  405 327 
 SJC  HN ES   4   1750 45.56                             104   -3.60 0  405 327 
 SJC  HZ I        1750 54.02         3.5 0.30            106            405 327 
 PAL  HZ EP       1750  6.10                             104   -0.62 6  408 239 
 PAL  HN ES   4   1750 47.86                             104   -1.76 0  408 239 
 PAL  HZ I        1750 53.11         2.6 0.32            105            408 239 
                                                                                
