 2012 1230 1245 58.7 L   6.722 -73.174141.8  RSN  6 0.2 1.7LRSN                1
 GAP=228        0.57       4.4     4.0  4.6  0.1050E+02  0.4143E+01  0.3642E+01E
 Epicentro: VILLANUEVA - SANTANDER                                             3
 ACTION:UPD 13-01-04 14:31 OP:ep   STATUS:               ID:20121230124558 L   I
 2012-12-30-1240-00M.COL___242                                                 6
 STAT SP IPHASW D HRMM SECON CODA AMPLIT PERI AZIMU VELO AIN AR TRES W  DIS CAZ7
 BAR2 SZ EP       1246 17.59                             174   -0.1310 14.4 183 
 BAR2 SZ ES       1246 32.23                             174   -0.3010 14.4 183 
 BAR2 SZ I        1246 34.03        22.1 0.12                          14.4 183 
 BRR  HZ EP       1246 19.45                             151   -0.0910 73.1 306 
 BRR  HN ES       1246 36.23                             151    0.4410 73.1 306 
 BRR  HZ I        1246 37.03         7.5 0.40                          73.1 306 
 RUS  HZ EP   1   1246 21.70                             145    0.21 7 92.3 174 
 RUS  HN ES   1   1246 39.40                             145    0.16 7 92.3 174 
 RUS  HN I        1246 42.08        12.3 0.48                          92.3 174 
 PTB  HZ EP   1   1246 24.87                             132   -0.07 7  143 262 
 PTB  HN ES       1246 45.25                             132   -0.15 9  143 262 
 PTB  HZ I        1246 48.75         5.6 0.15                           143 262 
 ZAR  HN ES       1246 56.04                             121   -0.06 9  205 295 
 ZAR  HZ I        1247  2.19         4.7 0.25                           205 295 
 CHI  HZ EP   1   1246 35.45                             117    0.25 6  239 195 
 CHI  HZ I        1247  8.95         1.9 0.32                           239 195 
                                                                                
