 2010  730 1124 12.8 L   6.809 -73.067150.3  RSN  7 0.3 2.1LRSN                1
 GAP=167        0.56       4.1     8.6  5.9 -0.8191E+01 -0.8143E+01  0.9178E+00E
 Epicentro: LOS SANTOS - SANTANDER                                             3
 ACTION:UPD 10-12-01 15:21 OP:pat  STATUS:               ID:20100730112412 L   I
 2010-07-30-1119-51S.COL___123                                                 6
 STAT SP IPHASW D HRMM SECON CODA AMPLIT PERI AZIMU VELO AIN AR TRES W  DIS CAZ7
 BAR2 SZ EP   1   1124 32.80                             169    -0.3 7   27 208 
 BAR2 SZ ES   2   1124 48.63                             169    -0.2 5   27 208 
 BAR2 SZ I        1124 49.87        15.0 0.24                            27 208 
 GIR2 SZ EP   1   1124 32.90                             167    -0.1 7   33 335 
 GIR2 SZ ES   2   1124 49.29                             167     0.4 5   33 335 
 BRR  HZ EP   1   1124 34.72                             151    -0.1 7   79 295 
 BRR  HZ I        1124 34.99        31.9 0.17                            79 295 
 BRR  HE ES   2   1124 52.21                             151     0.2 5   79 295 
 RUS  HZ EP   1   1124 37.61                             144     0.6 7  101 181 
 RUS  HE ES   2   1124 55.60                             144    -0.4 5  101 181 
 GUE  SZ EP   1   1124 37.84                             141     0.1 7  114   8 
 GRA  SZ EP   1   1124 38.09                             139    -0.1 7  122  14 
 PRA  HZ EP   1   1125  6.84                             107    -0.2 4  397 211 
 PRA  HE ES   2   1125 49.61                             107     0.2 3  397 211 
 PRA  HZ I        1125 52.76         3.2 0.44                           397 211 
                                                                                
