 2012 1230 1249 14.0 L   6.746 -73.188144.0  RSN  7 0.2 2.2LRSN                1
 GAP=228        0.59       3.0     3.4  4.0  0.4783E+01  0.3761E+01  0.2923E+01E
 Epicentro: VILLANUEVA - SANTANDER                                             3
 ACTION:UPD 13-01-04 14:31 OP:ep   STATUS:               ID:20121230124914 L   I
 2012-12-30-1244-50M.COL___205                                                 6
 STAT SP IPHASW D HRMM SECON CODA AMPLIT PERI AZIMU VELO AIN AR TRES W  DIS CAZ7
 BAR2 SZ EP       1249 33.30                             173   -0.0110 17.0 178 
 BAR2 SZ ES       1249 48.06                             173   -0.3110 17.0 178 
 BAR2 SZ I        1249 49.37        55.1 0.27                          17.0 178 
 BRR  HZ EP       1249 35.16                             152    0.2510 70.3 305 
 BRR  HE ES       1249 51.67                             152    0.4510 70.3 305 
 BRR  HZ I        1249 56.69        22.8 0.28                          70.3 305 
 RUS  HZ EP       1249 37.17                             145   -0.0210 95.1 173 
 RUS  HN ES       1249 55.24                             145   -0.0310 95.1 173 
 RUS  HN I        1249 57.76        40.1 0.45                          95.1 173 
 PTB  HZ EP       1249 40.12                             133   -0.20 9  142 261 
 PTB  HN ES       1250  0.64                             133   -0.20 9  142 261 
 PTB  HZ I        1250  3.70        15.4 0.16                           142 261 
 ZAR  HZ EP   1   1249 45.70                             122   -0.43 6  202 294 
 ZAR  HN ES   1   1250 11.04                             122   -0.15 6  202 294 
 ZAR  HZ I        1250 17.42        14.9 0.35                           202 294 
 CHI  HZ EP       1249 51.02                             117    0.17 8  242 194 
 CHI  HN ES       1250 19.76                             117    0.17 8  242 194 
 CHI  HZ I        1250 24.80         7.3 0.59                           242 194 
 HEL  HE ES   1   1250 24.38                             115    0.13 6  266 257 
 HEL  HZ I        1250 32.32         9.5 0.47                           266 257 
                                                                                
