 2016 1230 1109 42.7 L   6.796 -73.146153.6  RSN  7 0.5 1.9LRSN                1
 GAP=220        1.18       6.4     7.4  7.3  0.2730E+02  0.4499E+01  0.6908E+01E
 Epicentro: LOS SANTOS - SANTANDER                                             3
 ACTION:UPD 17-01-11 20:20 OP:rebc STATUS:               ID:20161230110942 L   I
 OLDACT:DUP 16-12-30 22:09 OP:cog  STATUS:               ID:20161230104631d    3
 2016-12-30-1058-00M.COL___372                                                 6
 STAT SP IPHASW D HRMM SECON CODA AMPLIT PERI AZIMU VELO AIN AR TRES W  DIS CAZ7
 BAR2 EZ EP       1110  3.37                             171    0.1310 22.8 190 
 BAR2 EZ ES       1110 18.78                             171   -0.4910 22.8 190 
 BAR2 EZ I        1110 20.02        21.0 0.32            167           22.8 190 
 BRR  HZ EP       1110  5.41                             154    0.7210 71.4 299 
 BRR  HN ES       1110 22.10                             154    0.2410 71.4 299 
 BRR  HZ I        1110 26.66        15.0 0.16            153           71.4 299 
 RUS  HZ EP       1110  7.28                             145    0.1110  100 176 
 RUS  HN ES       1110 26.24                             145   -0.0310  100 176 
 RUS  HZ I        1110 27.17         7.5 0.30            145            100 176 
 PTB  HZ EP       1110 10.31                             134    0.03 9  148 259 
 PTB  HN ES       1110 31.40                             134   -0.42 9  148 259 
 PTB  HZ I        1110 34.75        11.3 0.16            133            148 259 
 ZAR  HZ EP       1110 14.47                             124   -1.19 9  204 292 
 ZAR  HE ES       1110 41.81                             124    0.42 9  204 292 
 CHI  HZ EP       1110 21.26                             119    0.49 8  248 195 
 CHI  HN ES       1110 50.71                             119    0.23 8  248 195 
 CHI  HZ I        1110 56.73         3.3 0.36            119            248 195 
 GUY2CHZ EP   4   1110 28.81                             114    2.19 0  301 235 
 GUY2CHN ES   4   1111  0.50                             114   -0.40 0  301 235 
 PTGC HN EP       1110 26.34                             113   -0.50 7  308 159 
                                                                                
