 2017 1030 1727  3.5 L   6.724 -73.153145.9  RSN  9 0.3 1.8LRSN                1
 GAP=113        0.86       3.2     3.1  5.0  0.2740E+00  0.3662E+01  0.1806E+01E
 Epicentro: VILLANUEVA - SANTANDER                                             3
 ACTION:UPD 17-11-07 19:39 OP:rebc STATUS:               ID:20171030172703 L   I
 OLDACT:UP  17-10-30 22:21 OP:dnai STATUS:               ID:20171030171745     3
 OLDACT:REG 17-10-30 20:30 OP:mg   STATUS:               ID:20171030171745     3
 2017-10-30-1718-00M.COL___426                                                 6
 STAT SP IPHASW D HRMM SECON CODA AMPLIT PERI AZIMU VELO AIN AR TRES W  DIS CAZ7
 BAR2 EZ EP       1727 22.91                             174   -0.0510 14.9 193 
 BAR2 HE ES       1727 37.72                             174   -0.4610 14.9 193 
 BAR2 EZ I        1727 39.02        17.8 0.27            173           14.9 193 
 BRR  HZ EP       1727 25.05                             151    0.2210 74.9 304 
 BRR  HE ES       1727 42.14                             151    0.6410 74.9 304 
 BRR  HZ I        1727 45.33         8.6 0.15            151           74.9 304 
 PAM  EZ EP       1727 26.10                             149   -0.0210 84.5  36 
 PAM  EE ES       1727 43.56                             149   -0.2410 84.5  36 
 PAM  EZ I        1727 46.08         8.2 0.42            152           84.5  36 
 RUS  HZ EP       1727 26.83                             146    0.1910 92.3 175 
 RUS  HN ES       1727 45.16                             146    0.4410 92.3 175 
 RUS  HZ I        1727 46.78        10.4 0.58            148           92.3 175 
 PTB  HZ EP       1727 29.62                             132   -0.61 9  146 262 
 PTB  HN ES       1727 50.59                             132   -0.53 9  146 262 
 PTB  HZ I        1727 54.68         5.7 0.20            133            146 262 
 SPBC HZ EP       1727 31.61                             130    0.30 9  156 221 
 SPBC HN ES       1727 53.08                             130    0.04 9  156 221 
 SPBC HZ I        1727 59.18         8.0 0.20            132            156 221 
 YPLC HZ EP   1   1727 32.78                             128    0.20 7  170 150 
 YPLC HN ES   1   1727 54.90                             128   -0.41 7  170 150 
 YPLC HZ I        1727 57.53         8.1 0.30            131            170 150 
 ZAR  HZ EP       1727 36.25                             122    0.08 8  207 294 
 ZAR  HE ES       1728  1.87                             122    0.18 8  207 294 
 ZAR  HZ I        1728  9.95         5.9 0.21            123            207 294 
 NOR  HZ EP       1727 38.45                             119   -0.16 8  229 236 
 NOR  HN ES       1728  6.03                             119    0.00 8  229 236 
 NOR  HZ I        1728  7.83         4.2 0.10            120            229 236 
                                                                                
