 2016  330 1548  9.1 L   7.114 -73.349120.0  RSN 14 0.5 2.2LRSN                1
 GAP= 91        1.10       3.4     3.6  6.7 -0.7264E+00  0.9102E+01 -0.5278E+01E
 Epicentro: LEBRIJA - SANTANDER                                                3
 ACTION:UPD 16-05-13 21:29 OP:cam  STATUS:               ID:20160330154809 L   I
 OLDACT:UP  16-03-30 23:42 OP:drio STATUS:               ID:20160330153746     3
 OLDACT:UP  16-03-30 23:42 OP:drio STATUS:               ID:20160330153746     3
 OLDACT:UP  16-03-30 23:41 OP:drio STATUS:               ID:20160330153746     3
 OLDACT:UP  16-03-30 23:41 OP:drio STATUS:               ID:20160330153746     3
 OLDACT:REG 16-03-30 20:38 OP:drio STATUS:               ID:20160330153746     3
 2016-03-30-1537-46M.COL___313                                                 6
 STAT SP IPHASW D HRMM SECON CODA AMPLIT PERI AZIMU VELO AIN AR TRES W  DIS CAZ7
 BAR2 EZ IP     D 1548 27.75                             152    0.4910 60.6 162 
 BAR2 EZ ES       1548 41.21                             152   -0.1810 60.6 162 
 PAM  EZ EP       1548 28.96                             146    0.3610 76.0  71 
 PAM  EN ES       1548 44.22                             146    0.4510 76.0  71 
 PAM  EZ I        1548 46.04        24.8 0.32            151           76.0  71 
 PTB  HZ EP       1548 32.96                             128   -0.22 9  138 243 
 PTB  HE ES       1548 51.61                             128   -0.31 9  138 243 
 PTB  HZ I        1548 56.28        19.0 0.20            126            138 243 
 RUS  HZ EP       1548 33.64                             128   -0.21 9  138 168 
 RUS  HE ES       1548 52.28                             128   -0.84 9  138 168 
 RUS  HZ I        1548 53.89        11.4 0.48            127            138 168 
 ZAR  HZ EP   9   1548 38.12                             121    1.53 0  172 284 
 ZAR  HE ES       1549  0.20                                    0.68 9  172 284 
 ZAR  HZ I        1549  1.90        31.2 0.44            120            172 284 
 SPBC HZ EP       1548 37.85                             120    0.24 9  180 206 
 SPBC HE ES       1548 59.86                             120    0.06 9  180 206 
 SPBC HZ I        1549  6.59        27.2 0.34            118            180 206 
 NOR  HZ EP       1548 45.02                             112    0.88 8  240 225 
 NOR  HN ES       1549 11.99                             112    0.56 8  240 225 
 NOR  HZ I        1549 17.58        14.7 0.36            111            240 225 
 URE  HZ EP       1548 45.75                             111    0.42 8  251 286 
 URE  HN ES       1549 13.29                             111   -0.27 8  251 286 
 URE  HZ I        1549 14.88        17.9 0.38            111            251 286 
 HEL  HZ EP   4   1548 49.29                             110    2.30 0  262 247 
 HEL  HN ES   4   1549 18.91                             110    2.40 0  262 247 
 HEL  HZ I        1549 29.36         8.7 0.62            110            262 247 
 CHI  HZ EP   4   1548 50.82                             109    1.90 0  278 189 
 CHI  HN ES       1549 19.90                             109   -0.05 7  278 189 
 CHI  HZ I        1549 33.06         5.2 0.68            108            278 189 
 GUY2CHZ EP   4   1548 54.13                             107    1.91 0  306 227 
 GUY2CHE ES   4   1549 27.25                             107    1.43 0  306 227 
 GUY2CHZ I        1549 35.58         9.6 0.34                           306 227 
 MON  HZ EP       1548 52.29                             106   -0.39 7  315 306 
 MON  HE ES       1549 26.22                             106   -0.42 7  315 306 
 MON  HZ I        1549 27.81         5.2 0.38            106            315 306 
 SDV  BZ EP       1548 57.28                             104   -0.74 6  358  57 
 SDV  BE ES   4   1549 33.85                             104   -2.30 0  358  57 
 SDV  BZ I        1549 36.42         9.3 0.40            105            358  57 
 SJC  HZ EP       1548 58.36                             103   -0.68 6  368 327 
 SJC  HE ES   4   1549 36.38                             103   -1.58 0  368 327 
 SJC  HZ I        1549 38.96         2.6 0.54            104            368 327 
                                                                                
