 2016  730 1017  2.1 L   6.773 -73.187141.1  RSN  4 0.3 1.2LRSN                1
 GAP=274        0.83       7.0     5.3  7.1  0.3762E+01  0.9102E+01 -0.4734E+01E
 Epicentro: LOS SANTOS - SANTANDER                                             3
 ACTION:UPD 17-03-29 16:56 OP:lp   STATUS:               ID:20160730101702 L   I
 OLDACT:UP  16-07-30 21:19 OP:edw  STATUS:               ID:20160730100760d    3
 OLDACT:DUP 16-07-30 21:08 OP:edw  STATUS:               ID:20160730100760d    3
 2016-07-30-1007-59S.COL___337                                                 6
 STAT SP IPHASW D HRMM SECON CODA AMPLIT PERI AZIMU VELO AIN AR TRES W  DIS CAZ7
 BAR2 EZ EP       1017 20.82                             172   -0.3010 19.9 178 
 BAR2 EZ ES       1017 35.89                             172   -0.0510 19.9 178 
 BAR2 HE ES       1017 35.98                             172           19.9 178 
 RUS  HZ EP       1017 25.17                             144   -0.0510 98.0 173 
 RUS  HN ES       1017 43.56                             144    0.3210 98.0 173 
 RUS  HZ I        1017 44.45         1.5 0.26            140           98.0 173 
 PTB  HZ EP       1017 28.13                             132   -0.11 9  143 260 
 PTB  HN ES       1017 48.92                             132    0.31 9  143 260 
 PTB  HZ I        1017 51.11         1.2 0.22            129            143 260 
 SPBC HZ EP       1017 30.22                             129    0.46 9  158 218 
 SPBC HN ES       1017 50.73                             129   -0.59 9  158 218 
 SPBC HZ I        1017 57.55         5.3 0.10            126            158 218 
                                                                                
