 2010  930 1437  1.3 L   6.739 -73.168138.0  RSN  5 0.3 1.7LRSN                1
 GAP=157        0.75       5.9    12.6  9.3 -0.1383E+02  0.1163E+02 -0.2179E+02E
 Epicentro: VILLANUEVA - SANTANDER                                             3
 ACTION:UP  11-02-18 11:06 OP:tino STATUS:               ID:20100930143701 L   I
 2010-09-30-1431-34S.COL___125                                                 6
 STAT SP IPHASW D HRMM SECON CODA AMPLIT PERI AZIMU VELO SNR AR TRES W  DIS CAZ7
 BAR2 SZ EP       1437 19.73                             173    -0.110   16 186 
 BAR2 SZ ES   1   1437 34.59                             173     0.3 7   16 186 
 BAR2 SZ I        1437 35.78        14.7 0.10                            16 186 
 BTL  SZ EP       1437 19.63                             170    -0.310   23 331 
 BRR  HZ EP       1437 21.76                             151     0.110   73 304 
 BRR  HZ I        1438  3.48        18.0 0.04                            73 304 
 RUS  HZ EP   1   1437 23.59                             144    -0.2 7   94 174 
 RUS  HZ I        1437 24.86         5.0 0.64                            94 174 
 RUS  HN ES   2   1437 41.55                             144     0.2 5   94 174 
 GRA  SZ EP       1437 26.87                             133     0.410  133  18 
 GRA  SZ ES   2   1437 45.64                             133    -0.5 5  133  18 
 GRA  SZ I        1437 54.24         5.6 0.22                           133  18 
                                                                                
