 2011 1030 1633  7.6 L   6.810 -73.060154.6  RSN  5 0.3 1.6LRSN                1
 GAP=147        0.51       5.2     5.3  6.9  0.3965E+01  0.3985E+01 -0.3849E+01E
 Epicentro: LOS SANTOS - SANTANDER                                             3
 ACTION:UPD 12-07-13 16:07 OP:ep   STATUS:               ID:20111030163307 L   I
 2011-10-30-1629-57S.COL___157                                                 6
 STAT SP IPHASW D HRMM SECON CODA AMPLIT PERI AZIMU VELO AIN AR TRES W  DIS CAZ7
 BAR2 SZ EP   1   1633 28.62                             169    0.21 7 27.6 209 
 BAR2 SZ ES   2   1633 44.46                             169   -0.16 5 27.6 209 
 BAR2 SZ I        1633 46.30         8.2 0.49                          27.6 209 
 PAM  SZ EP   1   1633 29.98                             154   -0.45 7 70.8  34 
 PAM  SN ES   2   1633 48.67                             154    0.44 5 70.8  34 
 BRR  HZ EP   2   1633 30.62                             151    0.43 5 79.1 295 
 BRR  HZ I        1633 38.00         8.6 0.60                          79.1 295 
 BRR  HN ES   2   1633 47.84                             151    0.06 5 79.1 295 
 RUS  HZ EP   2   1633 32.49                             145    0.17 5  101 181 
 RUS  HN ES   2   1633 51.35                             145   -0.23 5  101 181 
 RUS  HZ I        1633 52.52         5.2 0.25                           101 181 
 ZAR  HZ EP   2   1633 41.66                             123    0.15 4  212 291 
 ZAR  HN ES   2   1634  7.58                             123   -0.37 4  212 291 
 ZAR  HZ I        1634 12.56         3.3 0.41                           212 291 
                                                                                
