 2017 1230 1120 25.0 L   6.797 -73.127152.8  RSN 12 0.4 2.1LRSN                1
 GAP=121        0.92       3.0     3.9  5.5 -0.3965E+01  0.5189E+01 -0.3230E+00E
 Epicentro: LOS SANTOS - SANTANDER                                             3
 ACTION:UPD 18-01-04 13:25 OP:rebc STATUS:               ID:20171230112025 L   I
 OLDACT:UP  17-12-30 22:40 OP:dnl  STATUS:               ID:20171230111739     3
 OLDACT:UP  17-12-30 22:39 OP:dnl  STATUS:               ID:20171230111739     3
 OLDACT:UP  17-12-30 22:39 OP:dnl  STATUS:               ID:20171230111739     3
 OLDACT:REG 17-12-30 19:48 OP:mg   STATUS:               ID:20171230111739     3
 2017-12-30-1118-00M.COL___449                                                 6
 STAT SP IPHASW D HRMM SECON CODA AMPLIT PERI AZIMU VELO AIN AR TRES W  DIS CAZ7
 BAR2 EZ IP     D 1120 45.53                             171    0.0610 23.5 195 
 BAR2 EZ ES       1121  1.35                             171   -0.0910 23.5 195 
 BAR2 EZ I        1121  3.40        14.6 0.26            169           23.5 195 
 PAM  EZ EP       1120 48.39                             152    0.4910 76.3  38 
 PAM  EE ES       1121  5.73                             152   -0.0310 76.3  38 
 PAM  EZ I        1121  7.77        15.1 0.56            156           76.3  38 
 PTB  HZ EP       1120 52.40                             133   -0.32 9  150 259 
 PTB  HE ES       1121 14.81                             133    0.47 9  150 259 
 PTB  HZ I        1121 19.44        11.7 0.40            132            150 259 
 OCA  HZ EP       1120 53.86                             131   -0.05 9  161 352 
 OCA  HN ES       1121 15.99                             131   -0.47 9  161 352 
 OCA  HZ I        1121 19.32        37.4 0.30            132            161 352 
 SPBC HZ EP       1120 54.52                             130    0.38 9  164 220 
 SPBC HE ES       1121 16.86                             130   -0.01 9  164 220 
 SPBC HZ I        1121 18.98        15.4 0.30            130            164 220 
 ZAR  HZ EP       1120 58.21                             124    0.10 8  206 292 
 ZAR  HN ES       1121 24.15                             124    0.21 8  206 292 
 ZAR  HZ I        1121 29.18        16.1 0.32            123            206 292 
 ROSC BZ EP   4   1121  5.67                             118    2.08 0  254 211 
 ROSC BN ES       1121 33.22                             118   -0.48 8  254 211 
 ROSC BZ I        1121 42.89        11.9 0.45            119            254 211 
 URE  HZ EP   2   1121  5.90                             115   -0.74 4  286 292 
 URE  HE ES   4   1121 36.50                             115   -2.62 0  286 292 
 URE  HZ I        1121 50.61         9.7 0.20            115            286 292 
 GUY2CHZ EP   4   1121 10.88                             113    1.78 0  303 235 
 GUY2CHE ES   4   1121 46.25                             113    2.74 0  303 235 
 GUY2CHZ I        1121 52.68         4.2 0.26                           303 235 
 PTGC HZ EP       1121  8.57                             113   -0.48 7  308 159 
 PTGC HN ES   4   1121 41.61                             113   -1.81 0  308 159 
 PTGC HZ I        1121 44.28        11.1 0.40            115            308 159 
 DRL02HZ EP   2   1121 11.08                             112    0.04 3  325 357 
 DRL02HE ES       1121 46.77                             112   -0.20 7  325 357 
 CBOC HZ EP    4  1121 13.48                             111    1.06 7  336 252 
 CBOC HN ES       1121 48.47                             111   -0.94 7  336 252 
 CBOC HZ I        1121 54.66         1.6 0.52            111            336 252 
                                                                                
