 2012  130 1434 53.4 L   6.785 -73.048148.4  RSN  5 0.2 1.7LRSN                1
 GAP=209        0.41       4.8     9.2  5.3  0.3057E+02 -0.1586E+02 -0.7405E+01E
 Epicentro: LOS SANTOS - SANTANDER                                             3
 ACTION:UP  12-02-03 08:22 OP:REBC STATUS:               ID:20120130143453 L   I
 2012-01-30-1430-00M.COL___188                                                 6
 STAT SP IPHASW D HRMM SECON CODA AMPLIT PERI AZIMU VELO SNR AR TRES W  DIS CAZ7
 BAR2 SZ EP   1   1435 13.53                             169     0.1 7   26 215 
 BAR2 SZ ES   2   1435 28.66                                    -0.4 5   26 215 
 BAR2 SZ I        1435 30.39        11.3 0.26                            26 215 
 GIR2 SZ EP   1   1435 13.47                             166    -0.1 7   36 334 
 GIR2 SZ ES   3   1435 30.12                                     0.9 2   36 334 
 BRR  HZ EP       1435 15.38                             149    -0.110   82 296 
 BRR  HZ I        1435 15.79        14.6 0.27                            82 296 
 BRR  HE ES   1   1435 32.74                             149     0.1 7   82 296 
 RUS  HZ EP   2   1435 17.45                             145     0.1 5   99 182 
 RUS  HN ES   1   1435 35.92                             145     0.0 7   99 182 
 CHI  HZ EP   2   1435 31.60                             117     0.2 4  250 198 
 CHI  HZ I        1435 33.19         1.5 0.50                           250 198 
                                                                                
