 2015  930 1915 47.7 L   6.812 -73.154149.8  RSN 10 0.3 1.9LRSN                1
 GAP=135        0.67       2.7     3.5  4.8 -0.1110E+01  0.5515E+01 -0.3313E+01E
 Epicentro: LOS SANTOS - SANTANDER                                             3
 ACTION:UPD 15-10-28 16:29 OP:cam  STATUS:               ID:20150930191547 L   I
 OLDACT:REG 15-09-30 21:52 OP:ar   STATUS:               ID:20150930190748     3
 2015-09-30-1907-48M.COL___361                                                 6
 STAT SP IPHASW D HRMM SECON CODA AMPLIT PERI AZIMU VELO AIN AR TRES W  DIS CAZ7
 BAR2 EZ EP       1916  7.94                             170    0.0810 24.5 187 
 BAR2 EZ ES       1916 23.59                             170    0.0210 24.5 187 
 BAR2 EZ I        1916 23.93        19.6 0.14            168           24.5 187 
 BRR  HZ EP   2   1916  9.55                             154    0.33 5 69.7 298 
 BRR  HN ES   2   1916 26.50                             154    0.50 5 69.7 298 
 BRR  HZ I        1916 31.01        16.6 0.12            150           69.7 298 
 PAM  EZ EP       1916 10.83                             152    0.4910 76.9  41 
 PAM  EN ES       1916 27.75                             152   -0.2310 76.9  41 
 PAM  EZ I        1916 29.74        23.7 0.52            156           76.9  41 
 RUS  HZ EP   2   1916 12.21                             144    0.24 5  102 176 
 RUS  HN ES       1916 30.66                             144   -0.2310  102 176 
 RUS  HZ I        1916 31.77        10.9 0.30            146            102 176 
 PTB  HZ EP       1916 14.43                             133   -0.53 9  147 258 
 PTB  HE ES       1916 36.47                             133    0.26 9  147 258 
 PTB  HZ I        1916 38.88         9.6 0.22            132            147 258 
 SPBC HZ EP   2   1916 16.88                             130    0.31 5  164 218 
 SPBC HN ES   2   1916 39.06                             130   -0.02 5  164 218 
 SPBC HZ I        1916 44.44        14.3 0.28            130            164 218 
 ZAR  HZ EP   2   1916 21.19                             123    0.90 4  203 292 
 ZAR  HN ES   2   1916 45.55                             123   -0.14 4  203 292 
 ZAR  HZ I        1916 52.98         6.4 0.18            123            203 292 
 SML  HZ EP       1916 24.37                             118   -0.03 8  242 335 
 SML  HN ES       1916 52.59                             118   -0.42 8  242 335 
 SML  HZ I        1916 56.08        12.6 0.24            119            242 335 
 CHI  HZ EP   2   1916 25.25                             118   -0.51 4  250 195 
 CHI  HN ES   2   1916 55.40                             118   -0.03 4  250 195 
 CHI  HZ I        1917  1.07         2.2 0.52            119            250 195 
 GUY2CHZ EP   9   1916 34.84                             113    3.32 0  301 234 
 GUY2CHE ES   2   1917  8.76                                   -0.24 4  301 234 
 GUY2CHZ I        1917 14.55         2.5 0.36                           301 234 
                                                                                
