 2016  730 1529 16.9 L   7.569 -73.063151.7  RSN 16 0.5 2.3LRSN                1
 GAP= 77        1.03       3.3     3.3  5.6 -0.4312E+01  0.4300E+01 -0.4013E+01E
 Epicentro: EL PLAYON - SANTANDER                                              3
 ACTION:UPD 17-03-29 16:56 OP:lp   STATUS:               ID:20160730152918dL   I
 OLDACT:UP  16-07-30 22:49 OP:ak   STATUS:               ID:20160730152759     3
 OLDACT:REG 16-07-30 20:44 OP:edw  STATUS:               ID:20160730152759     3
 2016-07-30-1527-59S.COL___346                                                 6
 STAT SP IPHASW D HRMM SECON CODA AMPLIT PERI AZIMU VELO AIN AR TRES W  DIS CAZ7
 PAM  EZ EP       1529 38.96                             162    0.6310 47.5 122 
 PAM  EN ES       1529 55.58                             162    0.5510 47.5 122 
 PAM  EZ I        1529 56.84        52.3 0.26            165           47.5 122 
 BRR  HZ EP       1529 39.76                             148    0.0610 88.0 235 
 BRR  HN ES       1529 57.78                             148    0.3110 88.0 235 
 BRR  HZ I        1529 59.64        31.4 0.17            145           88.0 235 
 BAR2 EZ EP       1529 41.54                             143    0.0510  109 187 
 BAR2 EZ ES       1530  0.57                             143   -0.0810  109 187 
 BAR2 EZ I        1530  2.15        35.0 0.18            141            109 187 
 RUS  HZ EP       1529 48.13                             127   -0.40 9  185 181 
 RUS  HN ES       1530 12.46                             127   -0.74 9  185 181 
 RUS  HZ I        1530 14.04         6.0 0.30            126            185 181 
 PTB  HZ EP       1529 47.92                             126   -0.58 9  191 234 
 PTB  HN ES       1530 12.45                             126   -0.68 9  191 234 
 PTB  HZ E      D 1530 16.54                                            191 234 
 PTB  HZ I        1530 16.54        14.5 0.14            124            191 234 
 ZAR  HZ EP       1529 49.01                             125   -0.16 9  198 268 
 ZAR  HN ES       1530 14.17                             125   -0.15 9  198 268 
 ZAR  HZ I        1530 16.44        16.3 0.21            123            198 268 
 SPBC HZ EP   2   1529 53.54                             119   -0.02 4  240 208 
 SPBC HN ES       1530 22.05                             119   -0.09 8  240 208 
 SPBC HZ I        1530 29.30        24.0 0.20            118            240 208 
 LL6C HZ EP       1529 53.75                             119    0.19 8  241 355 
 LL6C HE ES       1530 22.01                             119   -0.13 8  241 355 
 SOCV BZ EP       1529 55.32                             117    0.09 8  256  72 
 SOCV BN ES       1530 24.45                             117   -0.66 8  256  72 
 URE  HZ EP   4   1529 55.62                             116   -1.48 0  273 274 
 URE  HN ES   4   1530 25.58                             116   -2.87 0  273 274 
 URE  HZ I        1530 37.34        18.5 0.22            114            273 274 
 NOR  HZ EP       1530  0.72                             114    0.76 7  298 222 
 NOR  HN ES       1530 33.57                             114    0.04 7  298 222 
 NOR  HZ I        1530 40.53        13.5 0.24            113            298 222 
 HEL  HZ EP       1530  2.25                             113    0.35 7  312 241 
 HEL  HE ES       1530 35.87                             113   -1.12 7  312 241 
 HEL  HZ I        1530 46.32         9.4 0.28            112            312 241 
 SJC  HZ EP   2   1530  4.95                             110   -0.53 3  347 318 
 SJC  HE ES   4   1530 41.95                             110   -1.41 0  347 318 
 SJC  HZ I        1530 44.53         4.2 0.10            110            347 318 
 GUY2CHZ EP       1530  8.65                             109    0.77 6  363 225 
 GUY2CHE ES       1530 48.31                             109    0.68 6  363 225 
 GUY2CHZ I        1530 58.50        13.2 0.44                           363 225 
 CBOC HZ EP   2   1530  9.07                             108    0.05 3  377 240 
 CBOC HN ES       1530 50.24                             108    0.58 6  377 240 
 CBOC HZ I        1531 10.28         2.4 0.46            108            377 240 
 ELA  HN ES   4   1530 57.92                             107    3.52 0  396 221 
 PRA  HZ EP       1530 20.58                             104    0.58 5  472 205 
 PRA  HN ES   4   1531  4.31                             104   -4.90 0  472 205 
 PRA  HZ I        1531 14.82         4.7 0.26            104            472 205 
                                                                                
