 2011 1030 1632 25.7 L   7.003 -72.944  4.1  RSN  5 0.2 1.0LRSN                1
 GAP=151        0.41       1.8     2.3  6.6 -0.1784E+01  0.6183E+01 -0.3717E+01E
 Epicentro: SANTA BARBARA - SANTANDER                                          3
 ACTION:UPD 12-07-13 16:07 OP:ep   STATUS:               ID:20111030163225 L   I
 2011-10-30-1629-57S.COL___157                                                 6
 STAT SP IPHASW D HRMM SECON CODA AMPLIT PERI AZIMU VELO AIN AR TRES W  DIS CAZ7
 PAM  SZ EP   1   1632 33.73                              90    0.02 7 45.9  36 
 PAM  SN ES   2   1632 39.85                              90   -0.14 5 45.9  36 
 BAR2 SZ EP   1   1632 34.38                              90   -0.08 7 52.6 210 
 BAR2 SZ ES   2   1632 40.78                              90   -0.54 5 52.6 210 
 BAR2 SZ I        1632 43.59        10.5 0.49                          52.6 210 
 BRR  HZ EP   1   1632 39.38                              90    0.16 7 85.6 278 
 BRR  HZ I        1632 47.03         5.8 0.63                          85.6 278 
 BRR  HE ES   2   1632 49.79                              90   -0.01 5 85.6 278 
 RUS  HZ EP   2   1632 45.45                              90   -0.06 5  124 187 
 RUS  HN ES   2   1633  1.55                              90    0.55 5  124 187 
 RUS  HZ I        1633  2.35         2.1 0.21                           124 187 
 ZAR  HZ EP   2   1632 58.21                              56    0.03 4  218 284 
 ZAR  HZ I        1633  3.98         1.6 0.28                           218 284 
 ZAR  HN ES   2   1633 23.56                              56    0.00 4  218 284 
                                                                                
