 2011  430 1435 43.5 L   6.754 -73.054141.8  RSN  4 0.2 1.3LRSN                1
 GAP=151        0.60       4.7     9.6  6.1 -0.2472E+02 -0.1750E+02  0.8285E+01E
 Epicentro: LOS SANTOS - SANTANDER                                             3
 ACTION:UP  11-06-22 15:34 OP:REBC STATUS:               ID:20110430143543 L   I
 2011-04-30-1431-57S.COL___130                                                 6
 STAT SP IPHASW D HRMM SECON CODA AMPLIT PERI AZIMU VELO SNR AR TRES W  DIS CAZ7
 BAR2 SZ EP   1   1436  2.26                             170    -0.4 7   23 218 
 BAR2 SZ ES   2   1436 17.24                             170    -0.3 5   23 218 
 BAR2 SZ I        1436 19.17         5.7 0.28                            23 218 
 BTL  SZ EP   1   1436  2.68                             167    -0.1 7   30 308 
 BTL  SZ ES       1436 18.06                             167     0.210   30 308 
 PAM  SZ EP       1436  5.49                             151     0.310   76  31 
 PAM  SN ES       1436 21.93                             151    -0.210   76  31 
 RUS  HZ EP   1   1436  6.47                             144     0.0 7   95 182 
 RUS  HE ES   1   1436 24.54                             144     0.1 7   95 182 
 RUS  HZ I        1436 25.55         3.0 0.26                            95 182 
                                                                                
