 2013  830 1052 22.4 L   6.788 -73.172153.7  RSN  9 0.6 1.8LRSN                1
 GAP=198        1.40       7.3    10.2  9.9  0.3069E+02 -0.5836E+01 -0.2698E+02E
 Epicentro: LOS SANTOS - SANTANDER                                             3
 ACTION:UPD 14-01-14 09:08 OP:ep   STATUS:               ID:20130830105222 L   I
 OLDACT:DUP 13-08-30 18:04 OP:nd   STATUS:               ID:20130830104960d    3
 2013-08-30-1049-59M.COL___235                                                 6
 STAT SP IPHASW D HRMM SECON CODA AMPLIT PERI AZIMU VELO AIN AR TRES W  DIS CAZ7
 BAR2 SZ EP       1052 43.12                             172    0.1910 21.7 183 
 BAR2 SZ ES       1052 58.49                             172   -0.4810 21.7 183 
 BAR2 SZ I        1053  0.81        13.5 0.22            174           21.7 183 
 BRR  HZ EP     D 1052 44.98                             154    0.6910 69.3 301 
 BRR  HN ES       1053  2.27                             154    0.8910 69.3 301 
 BRR  HZ I        1053  5.96         9.6 0.44            149           69.3 301 
 RUS  HZ EP       1052 47.35                             146    0.5110 99.5 174 
 RUS  HN ES       1053  5.20                             146   -0.7210 99.5 174 
 RUS  HZ I        1053  6.52         5.4 0.38            151           99.5 174 
 PTB  HZ EP       1052 49.77                             134    0.04 9  145 259 
 PTB  HN ES       1053 10.63                             134   -0.44 9  145 259 
 PTB  HZ I        1053 12.68         5.3 0.14            133            145 259 
 OCA  HZ EP   4   1053  3.12                             131   11.71 0  161 354 
 OCA  HN ES   4   1053 13.52                             131   -0.53 0  161 354 
 OCA  HZ I        1053 19.67         9.7 0.24            129            161 354 
 SML  HZ EP       1052 59.46                             119   -0.00 8  244 336 
 SML  HN ES       1053 27.63                             119   -0.76 8  244 336 
 SML  HZ I        1053 30.20        11.1 0.10            118            244 336 
 URE  HZ EP   4   1053  7.60                             115    4.00 0  282 292 
 URE  HN ES   4   1053 34.51                             115   -1.25 0  282 292 
 URE  HZ I        1053 46.42         3.9 0.18            115            282 292 
 GUY2CHZ EP   4   1053  9.12                             114    3.11 0  298 235 
 GUY2CHN ES   4   1053 43.71                             114    3.66 0  298 235 
 GUY2CHZ I        1053 50.97         2.4 0.30                           298 235 
 SJC  HZ EP       1053 17.38                             107   -0.78 6  409 327 
 SJC  HN ES   4   1053 58.40                             107   -3.27 0  409 327 
 SJC  HZ I        1054 20.36         1.4 0.68            107            409 327 
                                                                                
