 2017 1230 1133 41.0 L   6.826 -73.126145.2  RSN  4 0.3 1.7LRSN                1
 GAP=218        0.84       6.2     4.7  9.1 -0.1278E+02  0.1005E+02  0.4576E+01E
 Epicentro: LOS SANTOS - SANTANDER                                             3
 ACTION:UPD 18-01-04 13:25 OP:rebc STATUS:               ID:20171230113341 L   I
 OLDACT:REG 17-12-30 19:49 OP:mg   STATUS:               ID:20171230112356     3
 2017-12-30-1128-00M.COL___449                                                 6
 STAT SP IPHASW D HRMM SECON CODA AMPLIT PERI AZIMU VELO AIN AR TRES W  DIS CAZ7
 PAM  EZ EP       1134  3.41                             152    0.5010 73.8  40 
 PAM  EN ES       1134 19.91                             152   -0.1210 73.8  40 
 PAM  EZ I        1134 22.29         9.5 0.44            153           73.8  40 
 PTB  HZ EP       1134  7.52                             131   -0.62 9  150 258 
 PTB  HE ES       1134 29.41                             131    0.08 9  150 258 
 PTB  HZ I        1134 31.24         2.9 0.34            132            150 258 
 OCA  HZ EP       1134  9.04                             130    0.05 9  158 352 
 OCA  HN ES       1134 30.54                             130   -0.30 9  158 352 
 OCA  HZ I        1134 34.52        12.3 0.18            130            158 352 
 ZAR  HZ EP   2   1134 13.58                             122    0.11 4  205 291 
 ZAR  HN ES       1134 39.19                             122    0.37 9  205 291 
 ZAR  HZ I        1134 45.42         2.9 0.42            123            205 291 
                                                                                
