 2017 1230 1010 19.5 L   6.809 -73.170145.7  RSN  9 0.2 1.8LRSN                1
 GAP=109        0.57       2.1     2.8  4.1 -0.2260E+01  0.4014E+01 -0.2571E+01E
 Epicentro: LOS SANTOS - SANTANDER                                             3
 ACTION:UPD 18-01-04 13:25 OP:rebc STATUS:               ID:20171230101019 L   I
 OLDACT:UP  17-12-30 22:13 OP:dnl  STATUS:               ID:20171230100737     3
 OLDACT:REG 17-12-30 19:38 OP:mg   STATUS:               ID:20171230100737     3
 2017-12-30-1008-00M.COL___461                                                 6
 STAT SP IPHASW D HRMM SECON CODA AMPLIT PERI AZIMU VELO AIN AR TRES W  DIS CAZ7
 BAR2 EZ EP       1010 39.02                             170   -0.0710 24.0 183 
 BAR2 EZ ES       1010 54.33                             170   -0.0710 24.0 183 
 BAR2 EZ I        1010 55.65        12.0 0.22            172           24.0 183 
 PAM  EZ EP       1010 41.77                             150    0.0410 78.4  42 
 PAM  EE ES       1010 59.09                             150    0.0010 78.4  42 
 PAM  EZ I        1011  1.28        13.2 0.56            153           78.4  42 
 PTB  HZ EP       1010 45.93                             132   -0.27 9  145 258 
 PTB  HN ES       1011  6.84                             132   -0.21 9  145 258 
 PTB  HZ I        1011  8.99         3.5 0.30            133            145 258 
 OCA  HZ EP       1010 47.38                             130   -0.26 9  159 354 
 OCA  HE ES       1011  9.62                             130   -0.01 9  159 354 
 OCA  HZ I        1011 12.74        14.6 0.40            131            159 354 
 SPBC HZ EP       1010 47.95                             129    0.09 9  162 218 
 SPBC HE ES       1011 10.47                             129    0.46 9  162 218 
 SPBC HZ I        1011 12.72        10.7 0.30            131            162 218 
 YPLC HZ EP   9   1010 47.80                             126   -1.66 0  179 151 
 YPLC HE ES       1011 10.96                             127   -0.24 9  179 151 
 YPLC HZ I    4   1011 14.26         9.8 0.30            131            179 151 
 ZAR  HZ EP   2   1010 51.71                             123    0.11 4  201 292 
 ZAR  HN ES       1011 16.66                             123   -0.01 9  201 292 
 ZAR  HZ I        1011 24.64         4.4 0.54            123            201 292 
 DRL03HZ EP   2   1011  0.63                             113   -0.29 4  288 353 
 DRL03HN ES       1011 33.85                             113    0.59 7  288 353 
 GUY2CHZ EP   4   1011  4.29                             112    1.41 0  300 234 
 GUY2CHE ES   4   1011 39.66                             112    2.92 0  300 234 
 GUY2CHZ I        1011 46.87         3.1 0.44                           300 234 
                                                                                
