 2010  730 1026 58.4 L   7.393 -73.381113.4  RSN  9 0.5 2.1LRSN                1
 GAP=135        1.08       5.8     9.7 11.7 -0.2329E+02  0.1064E+02  0.1522E+02E
 Epicentro: SABANA DE TORRES - SANTANDER                                       3
 ACTION:UPD 10-12-01 15:21 OP:pat  STATUS:               ID:20100730102658 L   I
 2010-07-30-1025-02S.COL___123                                                 6
 STAT SP IPHASW D HRMM SECON CODA AMPLIT PERI AZIMU VELO AIN AR TRES W  DIS CAZ7
 GIR2 SZ EP   1   1027 14.54                             159    -0.1 7   40 149 
 BRR  HZ IP     C 1027 14.65                             155    -0.210   48 229 
 BRR  HE ES   2   1027 27.50                             155    -0.1 5   48 229 
 BRR  HZ I        1027 28.76        45.5 0.12                            48 229 
 GUE  SZ EP   1   1027 17.27                             146     0.7 7   70  46 
 GUE  SZ ES   2   1027 31.46                             146     0.8 5   70  46 
 GUE  SZ I        1027 31.69        34.2 0.15                            70  46 
 BRI  SZ EP       1027 15.87                             145    -0.710   74  61 
 GRA  SZ EP   1   1027 17.76                             141     0.4 7   84  49 
 GRA  SZ ES   2   1027 32.63                             141     0.6 5   84  49 
 GRA  SZ I        1027 34.17        42.0 0.39                            84  49 
 BAR2 SZ IP     D 1027 18.17                             139     0.110   91 166 
 BAR2 SZ I        1027 18.39        28.0 0.08                            91 166 
 BAR2 SZ ES   2   1027 33.52                             139     0.2 5   91 166 
 OCA  SZ EP   1   1027 17.96                             138    -0.2 7   94   4 
 OCA  SZ ES   2   1027 32.92                             138    -0.6 5   94   4 
 OCA  SZ I        1027 34.00        26.6 0.39                            94   4 
 RUS  HZ EP   1   1027 25.33                             120    -0.5 7  169 169 
 RUS  HN ES   2   1027 46.98                             120    -0.2 5  169 169 
 RREF HZ EP   1   1027 48.09                             102     1.2 5  351 218 
 RREF HE ES   2   1028 24.99                             102     0.3 3  351 218 
 RREF HZ I        1028 33.42         4.2 0.34                           351 218 
                                                                                
