 2013  430 1114 40.7 L   6.858 -73.187134.4  RSN  7 0.4 2.2LRSN                1
 GAP=198        0.89       4.9     6.0  8.4 -0.2200E+00  0.1668E+02 -0.1379E+02E
 Epicentro: ZAPATOCA - SANTANDER                                               3
 ACTION:UPD 13-05-22 14:41 OP:EP   STATUS:               ID:20130430111440 L   I
 2013-04-30-1110-00M.COL___253                                                 6
 STAT SP IPHASW D HRMM SECON CODA AMPLIT PERI AZIMU VELO AIN AR TRES W  DIS CAZ7
 BAR2 SZ EP   1   1114 59.23                             167    0.12 7 29.4 179 
 BAR2 SZ ES       1115 13.34                             167   -0.1310 29.4 179 
 BAR2 SZ I        1115 15.48        17.9 0.20            173           29.4 179 
 BRR  HZ EP     C 1115  1.09                             153    0.8710 64.2 295 
 BRR  HN I        1115 21.40        46.3 0.16            149           64.2 295 
 RUS  HZ EP   1   1115  3.59                             139   -0.28 7  107 174 
 RUS  HN ES   1   1115 21.75                             139   -0.20 7  107 174 
 RUS  HN I        1115 23.31        12.6 0.38            142            107 174 
 PTB  HZ EP       1115  6.22                             130   -0.25 9  145 256 
 PTB  HN ES       1115 26.46                             130   -0.12 9  145 256 
 PTB  HN I        1115 30.56        23.3 0.24            129            145 256 
 NOR  HN ES   1   1115 43.41                             116    0.22 6  235 233 
 NOR  HN I        1115 44.97        19.1 0.14            115            235 233 
 SML  HZ EP   1   1115 15.95                             116    0.09 6  236 336 
 SML  HN ES   1   1115 42.50                             116   -0.79 6  236 336 
 SML  HN I        1115 47.96        17.1 0.28            112            236 336 
 PRA  HN ES   2   1116 15.49                             104   -0.52 3  395 209 
                                                                                
