 2014 1230 1157 13.2 L   6.820 -73.119154.5  RSN  4 0.2 1.6LRSN                1
 GAP=280        0.62       6.3     4.7  5.4  0.7446E+01  0.5546E+01 -0.2574E+01E
 Epicentro: LOS SANTOS - SANTANDER                                             3
 ACTION:UPD 15-02-10 17:08 OP:nd   STATUS:               ID:20141230115713 L   I
 OLDACT:UP  14-12-30 21:37 OP:cam  STATUS:               ID:20141230114821d    3
 OLDACT:UP  14-12-30 21:37 OP:cam  STATUS:               ID:20141230114821d    3
 OLDACT:DUP 14-12-30 21:28 OP:cam  STATUS:               ID:20141230114821d    3
 2014-12-30-1148-20M.COL___265                                                 6
 STAT SP IPHASW D HRMM SECON CODA AMPLIT PERI AZIMU VELO AIN AR TRES W  DIS CAZ7
 BAR2 EZ ES       1157 50.31                             170    0.1910 26.1 195 
 RUS  HZ EP       1157 37.63                             145   -0.3310  103 178 
 RUS  HN ES       1157 57.19                             145   -0.0910  103 178 
 RUS  HZ I        1157 58.17         3.1 0.40            141            103 178 
 PTB  HZ EP       1157 41.28                             133    0.10 9  151 258 
 PTB  HN ES       1158  2.73                             133   -0.28 9  151 258 
 PTB  HZ I        1158  8.26         5.0 0.22            129            151 258 
 SPBC HZ EP       1157 43.05                             130    0.34 9  167 219 
 SPBC HN ES       1158  5.84                             130    0.11 9  167 219 
 SPBC HZ I        1158 12.52         8.1 0.34            126            167 219 
                                                                                
