 2017  830 1144 43.3 L   6.855 -73.141148.1  RSN 22 0.7 2.6LRSN                1
 GAP= 76        1.31       3.3     3.3  5.9  0.3464E+00  0.6904E+01  0.3526E+01E
 Epicentro: LOS SANTOS - SANTANDER                                             3
 ACTION:UPD 17-09-04 20:26 OP:rebc STATUS:               ID:20170830114443 L   I
 OLDACT:REG 17-08-30 20:26 OP:dhb  STATUS:               ID:20170830113742     3
 2017-08-30-1138-00M.COL___395                                                 6
 STAT SP IPHASW D HRMM SECON CODA AMPLIT PERI AZIMU VELO AIN AR TRES W  DIS CAZ7
 BAR2 EZ IP     C 1145  3.13                             169   -0.1810 29.5 189 
 BAR2 EZ ES       1145 18.64                             169   -0.3010 29.5 189 
 BAR2 EZ I        1145 20.40        69.3 0.22            168           29.5 189 
 BRR  HZ IP     C 1145  4.93                             154    0.3910 69.0 294 
 BRR  HN ES       1145 21.94                             154    0.8110 69.0 294 
 BRR  HZ I        1145 25.99        40.4 0.28            152           69.0 294 
 PAM  EZ EP       1145  6.16                             152    0.7210 72.4  42 
 PAM  EN ES       1145 23.28                             152    0.5410 72.4  42 
 PAM  EZ I        1145 25.61        73.2 0.45            157           72.4  42 
 RUS  HZ IP     C 1145  7.41                             143   -0.2710  107 177 
 RUS  HE ES       1145 26.21                             143   -0.5210  107 177 
 RUS  HZ I        1145 27.03        87.9 0.31            144            107 177 
 TAM  HZ IP     D 1145 11.53                             131    0.30 9  156 107 
 TAM  HE ES       1145 32.69                             131   -0.36 9  156 107 
 TAM  HZ I        1145 39.66        17.1 0.15            135            156 107 
 SPBC HZ IP     C 1145 12.11                             129   -0.31 9  168 218 
 SPBC HE ES       1145 34.48                             129   -0.69 9  168 218 
 SPBC HZ I        1145 39.96        52.8 0.28            130            168 218 
 YPLC HZ IP     D 1145 13.59                             126   -0.14 9  182 152 
 YPLC HE ES       1145 37.78                             126    0.29 9  182 152 
 YPLC HZ I        1145 38.59        56.9 0.13            129            182 152 
 ZAR  HZ EP       1145 15.86                             123    0.18 9  202 290 
 ZAR  HE ES       1145 40.94                             123   -0.03 9  202 290 
 ZAR  HZ I        1145 50.00        83.4 0.05            124            202 290 
 TABC EZ EP       1145 20.53                             119    0.79 8  235 210 
 TABC EZ ES       1145 47.20                             119   -0.99 8  235 210 
 TABC EZ I        1145 55.03        33.5 0.42            120            235 210 
 NOR  HZ IP     D 1145 19.29                             119   -0.27 8  239 233 
 NOR  HE ES       1145 47.66                             119   -0.21 8  239 233 
 NOR  HZ I        1145 51.98        29.7 0.14            120            239 233 
 CHI  HZ EP       1145 21.25                             117   -0.50 8  255 195 
 CHI  HE ES       1145 51.21                             117   -0.55 8  255 195 
 CHI  HZ I        1145 53.88        15.7 0.52            119            255 195 
 HEL  HZ EP   2   1145 25.11                             115    1.29 4  274 255 
 HEL  HE ES       1145 55.55                             115    0.09 8  274 255 
 HEL  HZ I        1146  3.25        19.8 0.24            116            274 255 
 URE  HZ EP   3   1145 23.07                             114   -1.18 2  282 291 
 URE  HN ES       1145 56.41                             114    0.19 7  282 291 
 URE  HZ I        1146  5.99        12.7 0.19            115            282 291 
 GUY2CHZ EP       1145 28.52                             112    1.09 7  305 234 
 GUY2CHE ES       1146  2.46                             112    0.58 7  305 234 
 GUY2CHZ I        1146  9.29        18.0 0.36                           305 234 
 PTGC HZ EP   4   1145 26.42                             112   -1.43 0  314 159 
 PTGC HE ES   4   1145 59.90                             112   -2.72 0  314 159 
 PTGC HZ I        1146  2.38        33.0 0.40            114            314 159 
 ELA  HZ EP   2   1145 32.64                             110    1.93 3  334 229 
 ELA  HE ES       1146  8.31                             110    0.58 7  334 229 
 ELA  HZ I        1146 22.60        15.1 0.65            112            334 229 
 DBB  EZ EP       1145 30.59                             110   -0.26 7  340 273 
 DBB  EN ES   2   1146  6.47                             110   -1.49 3  340 273 
 DBB  EZ I        1146  9.13         6.1 0.08            111            340 273 
 ANIL HZ EP       1145 34.40                             109    0.69 6  362 224 
 ANIL HE ES       1146 13.46                             109    0.41 6  362 224 
 ANIL HZ I        1146 20.15        43.5 0.36            110            362 224 
 PRA  HZ IP     C 1145 37.16                             107   -0.36 6  398 209 
 PRA  HE ES       1146 18.69                             107   -1.14 6  398 209 
 PRA  HZ I        1146 25.57        11.9 0.47            108            398 209 
 ORTC HZ EP       1145 38.05                             106    0.17 6  401 216 
 ORTC HN ES       1146 21.06                             106    0.58 6  401 216 
 ORTC HZ I        1146 27.25        11.0 0.33            108            401 216 
 SJC  HZ EP       1145 37.34                             106   -1.00 6  404 326 
 SJC  HE ES       1146 18.91                             106   -2.38 6  404 326 
 SJC  HZ I        1146 23.19         4.9 0.32            108            404 326 
 PAL  HN ES       1146 22.59                             106    0.25 6  409 238 
 PAL  HZ I        1146 24.87         6.4 0.34            107            409 238 
                                                                                
