 2017 1230 1215 21.6 L   6.562 -73.593 17.5  RSN  5 0.4 1.2LRSN                1
 GAP=122        0.89       3.6     2.4  7.0 -0.5374E+01  0.1110E+02 -0.1518E+02E
 Epicentro: EL CARMEN - SANTANDER                                              3
 ACTION:UPD 18-01-04 13:25 OP:rebc STATUS:               ID:20171230121521 L   I
 OLDACT:DUP 17-12-30 22:57 OP:dnl  STATUS:               ID:20171230120742d    3
 2017-12-30-1208-00M.COL___447                                                 6
 STAT SP IPHASW D HRMM SECON CODA AMPLIT PERI AZIMU VELO AIN AR TRES W  DIS CAZ7
 BAR2 EZ IP     D 1215 29.54                             109   -0.1210 45.6  86 
 BAR2 EZ ES       1215 35.46                             109   -0.5110 45.6  86 
 BAR2 EZ I        1215 36.88         9.4 0.30            109           45.6  86 
 PTB  HZ EP       1215 36.88                              98    0.0810 95.5 269 
 PTB  HE ES       1215 48.87                              98    0.1910 95.5 269 
 PTB  HZ I        1215 50.41        14.4 0.28             98           95.5 269 
 SPBC HZ EP   2   1215 40.08                              97    0.45 5  114 208 
 SPBC HN ES       1215 53.67                              97   -0.0410  114 208 
 SPBC HZ I        1215 55.79         6.4 0.24             97            114 208 
 PAM  EZ EP       1215 43.22                              96    0.5910  131  49 
 PAM  EE ES       1215 59.35                              96    0.3010  131  49 
 PAM  EZ I        1216  0.20         4.4 0.20             96            131  49 
 ZAR  HZ EP   2   1215 47.22                              56   -0.15 4  173 306 
 ZAR  HN ES       1216  6.87                              56   -0.61 9  173 306 
 ZAR  HZ I        1216  9.41         2.3 0.50             56            173 306 
                                                                                
