 2012  630 1044 55.7 L   6.775 -73.141145.6  RSN  7 0.4 1.8LRSN                1
 GAP=138        0.72       4.6     4.6  6.3 -0.2302E+00  0.5463E+01  0.4692E+01E
 Epicentro: LOS SANTOS - SANTANDER                                             3
 ACTION:UPD 12-08-06 17:53 OP:ep   STATUS:               ID:20120630104455 L   I
 2012-06-30-1040-00M.COL___201                                                 6
 STAT SP IPHASW D HRMM SECON CODA AMPLIT PERI AZIMU VELO AIN AR TRES W  DIS CAZ7
 BAR2 SZ EP       1045 15.27                             172    0.0510 20.7 193 
 BAR2 SZ ES   1   1045 30.24                             172   -0.23 7 20.7 193 
 BAR2 SZ I        1045 31.53        16.5 0.16                          20.7 193 
 BRR  HZ EP       1045 17.06                             152    0.1710 73.0 300 
 BRR  HE ES   1   1045 34.21                             152    0.76 7 73.0 300 
 BRR  HZ I        1045 38.39        17.4 0.16                          73.0 300 
 PAM  SZ EP       1045 18.05                             150    0.0810 79.3  38 
 PAM  SZ I        1045 18.42        12.6 0.24                          79.3  38 
 PAM  SN ES   1   1045 34.93                             150   -0.44 7 79.3  38 
 RUS  HZ EP       1045 19.41                             145    0.2210 97.7 176 
 RUS  HN ES   2   1045 37.19                             145   -0.35 5 97.7 176 
 RUS  HZ I        1045 39.13         9.8 0.30                          97.7 176 
 PTB  HZ EP       1045 22.10                             132   -0.51 9  148 260 
 PTB  HE ES   2   1045 43.01                             132   -0.62 5  148 260 
 PTB  HZ I        1045 45.30         4.4 0.40                           148 260 
 ZAR  HZ EP   2   1045 28.16                             122   -0.09 4  206 293 
 ZAR  HN ES   2   1045 53.62                             122   -0.05 4  206 293 
 ZAR  HZ I        1045 59.85        11.4 0.24                           206 293 
 CHI  HZ EP   3   1045 33.68                             117    0.61 2  246 195 
 CHI  HN ES   2   1046  2.77                             117    0.53 4  246 195 
 CHI  HZ I        1046  8.48         2.6 0.32                           246 195 
                                                                                
