 2014  730 1933 11.1 L   6.815 -73.165141.5  RSN 12 0.5 2.5LRSN                1
 GAP=133        1.08       3.0     4.3  5.9 -0.1953E+01  0.1045E+02  0.1017E+01E
 Epicentro: LOS SANTOS - SANTANDER                                             3
 ACTION:UPD 15-03-16 20:48 OP:nd   STATUS:               ID:20140730193311 L   I
 OLDACT:REG 14-07-30 22:25 OP:carl STATUS:               ID:20140730192818     3
 2014-07-30-1928-18M.COL___251                                                 6
 STAT SP IPHASW D HRMM SECON CODA AMPLIT PERI AZIMU VELO AIN AR TRES W  DIS CAZ7
 BAR2 SZ EP       1933 30.17                             170   -0.0710 24.7 184 
 BAR2 SZ ES       1933 45.55                             170    0.3710 24.7 184 
 BAR2 SZ I        1933 46.48        97.4 0.16            169           24.7 184 
 PAM  SZ EP       1933 33.01                             150    0.1410 77.6  42 
 PAM  SN ES       1933 50.02                             150    0.1710 77.6  42 
 PAM  SZ I        1933 52.20        63.2 0.48            153           77.6  42 
 RUS  HZ EP       1933 34.19                             142   -0.3710  102 175 
 RUS  HN ES       1933 52.77                             142   -0.1010  102 175 
 RUS  HZ I        1933 53.89        45.5 0.32            143            102 175 
 PTB  HZ EP       1933 36.80                             131   -0.75 9  146 258 
 PTB  HN ES       1933 57.65                             131   -0.54 9  146 258 
 PTB  HZ I        1934  0.32        42.1 0.28            130            146 258 
 SPBC HZ EP       1933 39.17                             128   -0.09 9  163 218 
 SPBC HE ES       1934  1.33                             128    0.10 9  163 218 
 SPBC HZ I        1934  3.78        60.0 0.20            128            163 218 
 ZAR  HZ EP       1933 43.43                             122    0.44 9  201 292 
 ZAR  HN ES       1934  8.48                             122    0.61 9  201 292 
 ZAR  HZ I        1934 14.33        28.1 0.34            122            201 292 
 SML  HZ EP       1933 46.43                             117   -0.79 8  241 336 
 SML  HE ES       1934 15.24                             117   -0.17 8  241 336 
 SML  HZ I        1934 20.70        35.7 0.24            117            241 336 
 CHI  HZ EP       1933 48.51                             116   -0.16 8  250 195 
 CHI  HN ES       1934 17.71                             116   -0.27 8  250 195 
 CHI  HZ I        1934 24.36         8.6 0.26            117            250 195 
 GUY2CHZ EP       1933 55.05                             112    0.64 7  300 234 
 GUY2CHN ES       1934 28.00                             112   -0.20 7  300 234 
 GUY2CHZ I        1934 38.03         9.6 0.34                           300 234 
 RREF HZ EP       1933 58.37                             110    1.38 7  321 229 
 RREF HE ES       1934 32.27                             110   -0.52 7  321 229 
 RREF HZ I        1934 41.28         9.8 0.26            110            321 229 
 TOL  SZ EP       1933 59.92                             108    0.78 7  343 224 
 TOL  SN ES       1934 36.64                             108    0.02 7  343 224 
 TOL  SZ I        1934 44.49        20.4 0.38            109            343 224 
 PRA  HZ EP       1934  4.18                             106   -0.33 6  392 209 
 PRA  HN ES       1934 46.87                             106    0.69 6  392 209 
 PRA  HZ I        1934 52.15         9.0 0.28            106            392 209 
                                                                                
