 2012 1230 1001 47.8 L   7.441 -73.393117.0  RSN  8 0.4 1.5LRSN                1
 GAP=161        0.79       2.8     3.5  5.5  0.8413E+00  0.6083E+01 -0.1856E+01E
 Epicentro: SABANA DE TORRES - SANTANDER                                       3
 ACTION:UPD 13-01-04 14:31 OP:ep   STATUS:               ID:20121230100147 L   I
 2012-12-30-1000-00M.COL___242                                                 6
 STAT SP IPHASW D HRMM SECON CODA AMPLIT PERI AZIMU VELO AIN AR TRES W  DIS CAZ7
 BRR  HZ IP     D 10 2  5.01                             155    0.2710 51.1 224 
 BRR  HE ES       10 2 17.95                             155    0.0210 51.1 224 
 BRR  HZ I        10 2 19.03         6.2 0.22                          51.1 224 
 OCA  HZ EP       10 2  7.57                             140    0.1410 88.6   5 
 OCA  HZ I        10 2  8.17         8.2 0.07                          88.6   5 
 OCA  HN ES       10 2 22.55                             140   -0.1710 88.6   5 
 BAR2 SZ EP       10 2  8.47                             138    0.2710 96.7 166 
 BAR2 SZ ES       10 2 23.72                             138   -0.3710 96.7 166 
 PTB  HZ EP       10 2 13.45                             123    0.19 9  154 230 
 PTB  HN ES       10 2 32.92                             123   -0.18 9  154 230 
 PTB  HZ I        10 2 35.63         3.9 0.23                           154 230 
 ZAR  HZ EP   1   10 2 14.61                             122    0.56 7  162 272 
 ZAR  HN ES   1   10 2 35.08                             122    0.58 7  162 272 
 ZAR  HZ I        10 2 38.67         6.3 0.12                           162 272 
 RUS  HZ EP   1   10 2 15.95                             120   -0.07 7  175 169 
 URE  HZ EP   1   10 2 21.61                             111   -0.85 6  239 278 
 URE  HN ES   1   10 2 48.94                             111   -0.54 6  239 278 
 MON  HZ EP       10 2 27.97                             107   -0.49 7  291 301 
 MON  HZ I        10 2 28.33         1.2 0.25                           291 301 
 MON  HE ES       10 3  0.35                             107    0.19 7  291 301 
                                                                                
