 2016 1030 1154 33.2 L   6.748 -73.182142.3  RSN  7 0.1 1.3LRSN                1
 GAP=229        0.38       1.9     2.4  2.8  0.1080E+00 -0.6032E-01  0.1299E+01E
 Epicentro: VILLANUEVA - SANTANDER                                             3
 ACTION:UPD 16-11-09 19:24 OP:rebc STATUS:               ID:20161030115433 L   I
 OLDACT:UP  16-10-30 21:30 OP:edw  STATUS:               ID:20161030114740     3
 OLDACT:UP  16-10-30 21:29 OP:edw  STATUS:               ID:20161030114740     3
 OLDACT:UP  16-10-30 21:29 OP:edw  STATUS:               ID:20161030114740     3
 OLDACT:REG 16-10-30 19:49 OP:edw  STATUS:               ID:20161030114740     3
 2016-10-30-1148-00M.COL___316                                                 6
 STAT SP IPHASW D HRMM SECON CODA AMPLIT PERI AZIMU VELO AIN AR TRES W  DIS CAZ7
 BAR2 EZ IP     C 1154 52.06                             173   -0.2310 17.2 180 
 BAR2 EZ ES       1155  7.20                             173    0.0110 17.2 180 
 BAR2 EZ I        1155  7.88         3.7 0.20            174           17.2 180 
 BRR  HZ EP       1154 54.10                             152    0.1710 70.8 304 
 BRR  HE ES       1155 10.04                             152   -0.0810 70.8 304 
 BRR  HZ I        1155 14.84         8.0 0.24            150           70.8 304 
 RUS  HZ EP       1154 56.29                             145    0.0810 95.2 173 
 RUS  HN ES       1155 14.30                             145    0.1310 95.2 173 
 RUS  HZ I        1155 15.31         2.9 0.26            148           95.2 173 
 PTB  HZ EP   9   1154 58.95                             132   -0.47 0  143 261 
 PTB  HN ES       1155 19.34                             133   -0.07 9  143 261 
 PTB  HZ I        1155 23.50         2.4 0.16            132            143 261 
 SPBC HZ EP   2   1155  0.78                             130    0.02 5  156 219 
 SPBC HN ES   2   1155 22.44                             130    0.18 5  156 219 
 NOR  HN ES       1155 35.18                             118    0.02 8  228 235 
 CHI  HN ES       1155 38.45                             117   -0.22 8  242 195 
                                                                                
