 2017  330 1331 45.2 L   6.360 -73.487121.4  RSN  7 0.3 1.7LRSN                1
 GAP= 86        0.71       2.9     3.1  5.2 -0.8836E-01  0.5800E+01  0.1711E+01E
 Epicentro: CONTRATACION - SANTANDER                                           3
 ACTION:UPD 17-05-25 18:47 OP:jn   STATUS:               ID:20170330133145 L   I
 OLDACT:UP  17-03-30 21:54 OP:dnl  STATUS:               ID:20170330132745     3
 OLDACT:REG 17-03-30 20:47 OP:dnl  STATUS:               ID:20170330132745     3
 2017-03-30-1328-00M.COL___359                                                 6
 STAT SP IPHASW D HRMM SECON CODA AMPLIT PERI AZIMU VELO AIN AR TRES W  DIS CAZ7
 BAR2 EZ EP       1332  2.57                             160    0.0610 42.3  53 
 BAR2 EZ ES       1332 16.04                             160    0.0010 42.3  53 
 BAR2 EZ I        1332 18.78        12.0 0.54            162           42.3  53 
 RUS  HZ EP       1332  4.38                             149    0.1210 68.3 139 
 RUS  HN ES       1332 19.32                             149    0.1710 68.3 139 
 RUS  HZ I        1332 21.71         5.7 0.40            151           68.3 139 
 BRR  HZ EP       1332  5.06                             142    0.2610 86.3 343 
 BRR  HN ES       1332 20.43                             142    0.3210 86.3 343 
 BRR  HZ I        1332 21.71        14.1 0.14            143           86.3 343 
 PTB  HZ EP       1332  6.42                             135   -0.2410  109 281 
 PTB  HE ES       1332 23.10                             135   -0.3310  109 281 
 PTB  HZ I        1332 24.04         7.1 0.52            135            109 281 
 PAM  EZ EP   2   1332  9.83                             128   -0.20 5  139  39 
 PAM  EE ES       1332 28.87                             128   -0.56 9  139  39 
 PAM  EZ I        1332 30.79         3.1 0.18            130            139  39 
 ZAR  HZ EP       1332 15.70                             117    0.36 9  197 310 
 ZAR  HN ES   4   1332 40.66                             117    1.79 0  197 310 
 ZAR  HZ I        1332 45.59         9.3 0.40            118            197 310 
 PRA  HZ EP   4   1332 32.55                             105    1.81 0  331 208 
 PRA  HN ES       1333  6.04                             105   -0.25 7  331 208 
 PRA  HZ I        1333 11.38         3.9 0.70            106            331 208 
                                                                                
