 2014  930 1634 19.6 L   6.823 -73.168148.1  RSN 13 0.4 2.2LRSN                1
 GAP=199        0.91       3.6     4.6  5.7  0.5758E+01  0.4885E+01 -0.3808E+01E
 Epicentro: LOS SANTOS - SANTANDER                                             3
 ACTION:UPD 14-10-03 23:10 OP:nd   STATUS:               ID:20140930163419 L   I
 OLDACT:UP  14-10-01 02:29 OP:cam  STATUS:               ID:20140930163000     3
 OLDACT:UP  14-10-01 02:29 OP:cam  STATUS:               ID:20140930163000     3
 OLDACT:UP  14-10-01 02:29 OP:cam  STATUS:               ID:20140930163000     3
 OLDACT:REG 14-09-30 20:36 OP:cam  STATUS:               ID:20140930163000     3
 2014-09-30-1630-00M.COL___252                                                 6
 STAT SP IPHASW D HRMM SECON CODA AMPLIT PERI AZIMU VELO AIN AR TRES W  DIS CAZ7
 BAR2 SZ IP     C 1634 39.57                             170    0.0310 25.5 183 
 BAR2 SZ ES       1634 54.85                             170   -0.2610 25.5 183 
 BAR2 SZ I        1634 56.26        28.4 0.24            167           25.5 183 
 BRR  HZ EP       1634 41.48                             154    0.6810 67.8 298 
 BRR  HE ES       1634 57.74                             154    0.3910 67.8 298 
 BRR  HZ I        1634 59.77        23.7 0.42            149           67.8 298 
 RUS  HZ EP       1634 43.73                             143   -0.0310  103 175 
 RUS  HN ES       1635  2.55                             143   -0.0610  103 175 
 RUS  HZ I        1635  3.18        12.9 0.28            145            103 175 
 PTB  HZ EP   1   1634 46.17                             133   -0.40 7  146 258 
 PTB  HN ES       1635  7.12                             133   -0.50 9  146 258 
 PTB  HZ I        1635 13.21        17.1 0.26            130            146 258 
 SPBC HZ EP   1   1634 48.58                             129    0.28 7  164 218 
 SPBC HN ES       1635 10.21                             129   -0.49 9  164 218 
 SPBC HZ I        1635 16.42        27.3 0.24            128            164 218 
 ZAR  HZ EP       1634 52.39                             123    0.54 9  201 292 
 ZAR  HN ES       1635 17.22                             123    0.20 9  201 292 
 ZAR  HZ I        1635 24.06        16.6 0.62            121            201 292 
 SML  HZ EP   1   1634 55.68                             118   -0.31 6  240 336 
 SML  HN ES       1635 24.05                             118   -0.33 8  240 336 
 SML  HZ I        1635 27.31        27.6 0.32            118            240 336 
 GUY2CHZ EP   4   1635  4.89                             113    1.65 0  301 234 
 GUY2CHE ES   4   1635 35.49                             113   -1.79 0  301 234 
 GUY2CHZ I        1635 46.01        10.3 0.48                           301 234 
 PTGC HZ EP   4   1635  2.28                             112   -1.63 0  312 158 
 DBB  SZ ES   `   1635 44.24                             110    0.52 7  337 274 
 TOL  SZ EP   2   1635  8.69                             110    0.75 3  344 224 
 MON  HZ EP   4   1635  5.96                             109   -2.31 0  350 308 
 MON  HE ES       1635 45.45                             109   -0.80 6  350 308 
 MON  HZ I        1636  1.95         3.2 0.28            109            350 308 
 PRA  HZ EP   1   1635 13.44                             107    0.14 4  393 209 
 SJC  HZ EP   2   1635 13.82                             106   -1.00 3  406 327 
                                                                                
