 2012  130 1220 56.8 L   7.041 -73.526111.5  RSN  4 0.2 1.6LRSN                1
 GAP=147        0.49       5.3     4.2  5.8 -0.6651E+00 -0.2233E+01 -0.8113E+00E
 Epicentro: SAN VICENTE DE CHUCURI - SANTANDER                                 3
 ACTION:UP  12-02-03 08:22 OP:REBC STATUS:               ID:20120130122056 L   I
 2012-01-30-1220-00M.COL___188                                                 6
 STAT SP IPHASW D HRMM SECON CODA AMPLIT PERI AZIMU VELO SNR AR TRES W  DIS CAZ7
 BRR  HZ EP       1221 12.04                             168     0.110   22 290 
 BRR  HZ I        1221 13.93        12.2 0.41                            22 290 
 BRR  HE ES   1   1221 23.69                             168    -0.1 7   22 290 
 GIR2 SZ EP       1221 12.54                             160    -0.110   37  83 
 BAR2 SZ EP       1221 14.31                             149     0.210   63 143 
 BAR2 SZ I        1221 14.49        12.3 0.11                            63 143 
 BAR2 SZ ES   1   1221 27.52                             149    -0.1 7   63 143 
 PAM  SZ EP   2   1221 16.58                             136    -0.5 5   97  70 
 PAM  SE ES   1   1221 33.05                             136     0.2 7   97  70 
                                                                                
