 2017 1030 1407 19.5 L   6.821 -73.154154.4  RSN  6 0.2 1.5LRSN                1
 GAP=238        0.53       3.1     3.0  3.7  0.3440E+01  0.2498E+01  0.4187E+00E
 Epicentro: LOS SANTOS - SANTANDER                                             3
 ACTION:UPD 17-11-07 19:39 OP:rebc STATUS:               ID:20171030140719 L   I
 OLDACT:UP  17-10-30 22:45 OP:mg   STATUS:               ID:20171030135737     3
 OLDACT:REG 17-10-30 20:10 OP:mg   STATUS:               ID:20171030135737     3
 2017-10-30-1358-00M.COL___423                                                 6
 STAT SP IPHASW D HRMM SECON CODA AMPLIT PERI AZIMU VELO AIN AR TRES W  DIS CAZ7
 BAR2 EZ EP       14 7 40.16                             170   -0.0810 25.5 187 
 BAR2 EZ ES       14 7 56.27                             170   -0.1210 25.5 187 
 BAR2 EZ I        14 7 56.61         6.8 0.30            170           25.5 187 
 BRR  HZ EP       14 7 41.85                             155    0.3310 69.4 297 
 BRR  HN ES       14 7 58.77                             155    0.1010 69.4 297 
 BRR  HZ I        14 8  5.54        11.6 0.37            152           69.4 297 
 RUS  HZ EP       14 7 44.10                             145   -0.2010  103 176 
 RUS  HN ES       14 8  3.77                             145    0.1510  103 176 
 RUS  HZ I        14 8  5.96         1.9 0.28            148            103 176 
 PTB  HN ES       14 8  8.45                             134   -0.29 9  147 258 
 PTB  HZ I        14 8 12.36         2.1 0.16            134            147 258 
 ZAR  HZ EP       14 7 52.12                             124   -0.26 9  202 292 
 ZAR  HE ES       14 8 18.08                             124    0.07 9  202 292 
 ZAR  HZ I        14 8 24.28         5.2 0.46            125            202 292 
 NOR  HZ EP       14 7 56.02                             120    0.18 8  235 234 
 NOR  HE ES       14 8 24.29                             120    0.13 8  235 234 
 NOR  HZ I        14 8 28.33         2.9 0.14            122            235 234 
                                                                                
