 2010  530 1104 35.1 L   7.549 -73.022154.7  RSN  4 0.5 1.6LRSN                1
 GAP=157        1.23       7.9    21.3 11.5 -0.1610E+02  0.6381E+02  0.2084E+02E
 Epicentro: SURATA - SANTANDER                                                 3
 ACTION:UP  10-08-24 10:07 OP:vdl  STATUS:               ID:20100530110435 L   I
 2010-05-30-1102-29S.COL___109                                                 6
 STAT SP IPHASW D HRMM SECON CODA AMPLIT PERI AZIMU VELO SNR AR TRES W  DIS CAZ7
 GUE  SZ EP       11 4 57.15                             167     1.010   33  19 
 GUE  SZ ES   1   11 5 13.02                             167     0.4 7   33  19 
 GRA  SZ EP       11 4 56.01                             163    -0.310   44  33 
 GRA  SZ ES       11 5 12.29                             163    -0.510   44  33 
 OCA  SZ EP       11 4 57.81                             150    -0.310   83 337 
 OCA  SZ ES   1   11 5 16.18                             150     0.1 7   83 337 
 OCA  SZ I        11 5 18.35         7.2 0.05                            83 337 
 BAR2 SZ EP       11 4 59.69                             143    -0.210  107 190 
 BAR2 SZ ES   1   11 5 19.27                             143     0.1 7  107 190 
                                                                                
