 2011  130 1517 59.3 L   6.800 -73.158132.0  RSN 10 0.4 2.3LRSN                1
 GAP=135        1.07       3.6     6.5  8.2 -0.1773E+01  0.2360E+02  0.1869E+01E
 Epicentro: LOS SANTOS - SANTANDER                                             3
 ACTION:UP  11-02-08 08:43 OP:pat  STATUS:               ID:20110130151759 L   I
 2011-01-30-1516-53S.COL___134                                                 6
 STAT SP IPHASW D HRMM SECON CODA AMPLIT PERI AZIMU VELO SNR AR TRES W  DIS CAZ7
 BAR2 SZ IP       1518 17.51                             170     0.210   23 187 
 BAR2 SZ ES   1   1518 31.58                             170     0.3 7   23 187 
 BAR2 SZ I        1518 33.25        72.2 0.16                            23 187 
 RUS  HZ EP       1518 21.55                             141    -0.210  101 175 
 RUS  HN ES   1   1518 38.83                             141    -0.4 7  101 175 
 RUS  HZ I        1518 41.68        30.9 0.29                           101 175 
 GRA  SZ IP       1518 23.41                             134     0.010  126  18 
 GRA  SZ ES   1   1518 42.55                             134     0.4 7  126  18 
 GRA  SZ I        1518 43.78        34.9 0.38                           126  18 
 OCA  SZ EP   1   1518 26.48                             126    -0.1 7  160 354 
 OCA  SZ ES   1   1518 47.04                             126    -0.8 7  160 354 
 OCA  SZ I        1518 48.83        29.0 0.31                           160 354 
 YOP  SZ EP       1518 28.27                             123    -0.2 9  180 153 
 YOP  SN ES   1   1518 51.65                             123     0.5 7  180 153 
 YOP  SZ I        1518 55.35        18.3 0.51                           180 153 
 NOR  SZ EP       1518 33.48                             116    -0.7 8  234 234 
 NOR  SN ES   1   1519  1.30                             116    -0.1 6  234 234 
 CHI  HZ EP       1518 36.00                             114    -0.2 8  248 195 
 CHI  HN ES   2   1519  4.44                             114    -0.6 4  248 195 
 CHI  HZ I        1519  8.62         8.1 0.37                           248 195 
 HEL  HZ EP       1518 39.69                             112     1.0 8  271 256 
 HEL  HZ I        1519 16.65        10.5 0.37                           271 256 
 DBB  SZ EP       1518 45.89                             107    -0.2 7  338 274 
 TOL  SZ EP       1518 47.57                             107     0.7 7  343 224 
                                                                                
