 2015  630 1250  2.2 L   6.819 -73.135153.9  RSN  8 0.4 2.0LRSN                1
 GAP=155        0.81       2.8     4.5  7.6 -0.2493E+01  0.1293E+02  0.4760E+01E
 Epicentro: LOS SANTOS - SANTANDER                                             3
 ACTION:UPD 15-09-10 22:16 OP:cam  STATUS:               ID:20150630125001 L   I
 OLDACT:UP  15-07-03 21:00 OP:cam  STATUS:               ID:20150630125001 L   3
 OLDACT:UP  15-07-03 21:00 OP:cam  STATUS:               ID:20150630125001 L   3
 OLDACT:UP  15-07-03 21:00 OP:cam  STATUS:               ID:20150630125001 L   3
 OLDACT:UP  15-07-01 05:42 OP:DRIO STATUS:               ID:20150630125001 L   3
 OLDACT:UP  15-07-01 02:27 OP:mh   STATUS:               ID:20150630124749     3
 OLDACT:UP  15-07-01 02:27 OP:mh   STATUS:               ID:20150630124749     3
 OLDACT:REG 15-07-01 02:23 OP:mh   STATUS:               ID:20150630124749     3
 2015-06-30-1247-49M.COL___316                                                 6
 STAT SP IPHASW D HRMM SECON CODA AMPLIT PERI AZIMU VELO AIN AR TRES W  DIS CAZ7
 PAM  EZ IP     C 1250 25.51                             153    0.3810 75.0  40 
 PAM  EN ES       1250 42.81                             153   -0.2210 75.0  40 
 PAM  EZ I        1250 44.73        11.7 0.20            157           75.0  40 
 ZAR  HN ES       1251  1.26                             124    0.32 9  204 291 
 ZAR  HZ I        1251  7.07         8.9 0.10            125            204 291 
 NOR  HZ EP       1250 38.16                             120   -0.45 8  237 234 
 NOR  HN ES       1251  6.55                             120   -0.48 8  237 234 
 NOR  HZ I        1251 10.71         9.4 0.22            122            237 234 
 SML  HZ EP       1250 38.93                             119   -0.18 8  242 335 
 SML  HN ES       1251  8.24                             119    0.31 8  242 335 
 SML  HZ I        1251 11.06        13.7 0.10            121            242 335 
 CHI  HZ EP   1   1250 40.62                             118    0.04 6  251 195 
 CHI  HE ES       1251 10.53                             118   -0.01 8  251 195 
 TOL  SZ EP   4   1250 53.22                             110    2.20 0  346 225 
 TOL  SN ES       1251 29.14                             110    0.01 6  346 225 
 PRA  HZ EP       1250 56.95                             108    0.69 6  394 210 
 PRA  HN ES       1251 38.94                             108    0.49 6  394 210 
 PRA  HZ I        1251 42.99         3.8 0.42            110            394 210 
 SJC  HZ EP       1250 56.97                             107   -0.91 6  408 327 
 SJC  HN ES   4   1251 38.33                             107   -3.00 0  408 327 
 SJC  HZ I        1251 41.86         1.6 0.26            109            408 327 
                                                                                
