 2017 1030 1203 45.3 L   5.853 -74.048 93.0  RSN  6 0.3 1.7LRSN                1
 GAP=124        0.75       3.8     2.7  5.5 -0.6729E+01  0.3640E+01 -0.7403E+01E
 Epicentro: LA BELLEZA - SANTANDER                                             3
 ACTION:UPD 17-11-07 19:39 OP:rebc STATUS:               ID:20171030120345 L   I
 OLDACT:DUP 17-10-30 21:38 OP:mg   STATUS:               ID:20171030115743d    3
 OLDACT:UP  17-10-30 21:38 OP:mg   STATUS:               ID:20171030115742     3
 OLDACT:UP  17-10-30 21:34 OP:mg   STATUS:               ID:20171030115742     3
 OLDACT:REG 17-10-30 19:46 OP:mg   STATUS:               ID:20171030115742     3
 2017-10-30-1158-00M.COL___417                                                 6
 STAT SP IPHASW D HRMM SECON CODA AMPLIT PERI AZIMU VELO AIN AR TRES W  DIS CAZ7
 SPBC HZ EP       12 3 58.24                             166   -0.1010 22.3 187 
 SPBC HN ES       12 4  8.80                             166    0.2710 22.3 187 
 SPBC HZ I        12 4  9.62        25.4 0.10            169           22.3 187 
 NOR  HZ EP       12 4  3.03                             130   -0.2910 96.4 251 
 NOR  HN ES       12 4 16.85                             130   -0.5510 96.4 251 
 NOR  HZ I        12 4 19.40        13.0 0.20            132           96.4 251 
 RUS  HZ EP       12 4  4.74                             128   -0.1810  107  88 
 RUS  HE ES       12 4 20.35                             128    0.1110  107  88 
 BAR2 EZ EP     C 12 4  6.48                             123   -0.0210  126  49 
 BAR2 EZ ES       12 4 22.95                             123   -0.1210  126  49 
 BAR2 EZ I        12 4 23.97        13.2 0.42            125            126  49 
 BRR  HZ EP       12 4  8.23                             119    0.16 9  144  15 
 BRR  HN ES       12 4 25.97                             119    0.11 9  144  15 
 BRR  HZ I        12 4 27.96         8.8 0.41            120            144  15 
 GUY2CHZ EP       12 4 10.84                             116    0.18 9  162 245 
 GUY2CHE ES       12 4 31.06                             116    0.59 9  162 245 
 GUY2CHZ I        12 4 35.77         2.6 0.44                           162 245 
                                                                                
