 2016  930 1753  2.3 L   6.784 -73.167146.0  RSN 18 0.4 2.6LRSN                1
 GAP= 99        0.87       2.9     2.8  4.4 -0.6543E+00  0.2042E+01  0.3282E+01E
 Epicentro: LOS SANTOS - SANTANDER                                             3
 ACTION:UPD 17-08-17 21:18 OP:lp   STATUS:               ID:20160930175302 L   I
 OLDACT:UP  16-10-01 00:02 OP:dani STATUS:               ID:20160930174716     3
 OLDACT:UP  16-10-01 00:01 OP:dani STATUS:               ID:20160930174716     3
 OLDACT:UP  16-10-01 00:01 OP:dani STATUS:               ID:20160930174716     3
 OLDACT:UP  16-10-01 00:00 OP:dani STATUS:               ID:20160930174716     3
 OLDACT:REG 16-09-30 20:19 OP:dani STATUS:               ID:20160930174716     3
 2016-09-30-1748-00M.COL___369                                                 6
 STAT SP IPHASW D HRMM SECON CODA AMPLIT PERI AZIMU VELO AIN AR TRES W  DIS CAZ7
 BAR2 EZ EP       1753 21.72                             171   -0.2110 21.3 184 
 BAR2 EZ ES       1753 37.14                             171   -0.0910 21.3 184 
 BAR2 EZ I        1753 39.59       113.5 0.48            168           21.3 184 
 BRR  HZ EP     C 1753 23.58                             153    0.1710 70.0 301 
 BRR  HN ES       1753 40.71                             153    0.8410 70.0 301 
 BRR  HZ I        1753 42.63        50.9 0.12            150           70.0 301 
 PAM  EZ EP     C 1753 24.61                             150   -0.1110 80.2  40 
 PAM  EN ES       1753 42.08                             150   -0.1210 80.2  40 
 PAM  EZ I        1753 44.87        65.1 0.40            155           80.2  40 
 RUS  HZ EP     D 1753 25.77                             144   -0.2010 99.0 175 
 RUS  HE ES       1753 44.41                             144   -0.0210 99.0 175 
 RUS  HZ I        1753 45.67        54.6 0.36            144           99.0 175 
 PTB  HZ EP       1753 28.36                             133   -0.69 9  145 259 
 PTB  HN ES       1753 49.55                             133   -0.36 9  145 259 
 PTB  HZ I        1753 56.55        27.7 0.40            130            145 259 
 TAM  HZ EP     C 1753 30.21                             130    0.03 9  157 104 
 SPBC HZ EP       1753 30.78                             130    0.23 9  160 219 
 SPBC HE ES       1753 52.51                             130   -0.08 9  160 219 
 SPBC HZ I        1753 55.25        67.8 0.24            128            160 219 
 ZAR  HZ EP       1753 34.32                             123   -0.29 9  203 293 
 ZAR  HN ES       1753 59.61                             123   -0.19 9  203 293 
 ZAR  HZ I        1754  5.11        40.1 0.32            122            203 293 
 NOR  HZ EP       1753 37.89                             119    0.16 8  232 234 
 NOR  HE ES       1754  4.80                             119   -0.57 8  232 234 
 NOR  HZ I        1754 11.38        29.5 0.16            118            232 234 
 CHI  HZ EP       1753 40.11                             117    0.34 8  246 195 
 CHI  HN ES       1754  9.36                             117    0.37 8  246 195 
 CHI  HZ I        1754 19.20        14.2 0.38            117            246 195 
 ROSC BZ EP   4   1753 41.98                             117    1.84 0  250 211 
 HEL  HZ EP       1753 43.09                             115    0.86 8  269 256 
 HEL  HN ES       1754 13.68                             115    0.31 8  269 256 
 HEL  HZ I        1754 22.25        16.5 0.41            114            269 256 
 URE  HZ EP   4   1753 39.73                             114   -3.48 0  282 292 
 URE  HN ES   4   1754 13.19                             114   -1.93 0  282 292 
 URE  HZ I        1754 20.23        17.0 0.21            114            282 292 
 GUY2CHZ EP   4   1753 46.99                             113    1.40 0  298 235 
 GUY2CHN ES   4   1754 24.42                             113    5.06 0  298 235 
 GUY2CHZ I        1754 27.98        19.6 0.34                           298 235 
 VIL  EZ EP       1753 45.61                             112    0.12 7  301 191 
 PTGC HZ EP   4   1753 45.04                             112   -1.05 0  308 158 
 ELA  HZ EP   4   1753 51.56                             111    2.73 0  326 229 
 ELA  HN ES   4   1754 24.29                             111   -0.83 0  326 229 
 ELA  HZ I        1754 41.24        16.6 0.45            110            326 229 
 CBOC HZ EP   4   1753 49.94                             110    1.03 0  331 252 
 ANIL HZ EP   4   1753 53.41                             109    1.63 0  354 224 
 PRA  HZ EP       1753 55.54                             107    0.02 6  389 209 
 PRA  HN ES       1754 36.87                             107   -0.16 6  389 209 
 PRA  HZ I        1754 44.25        23.7 0.40            107            389 209 
 SJC  HZ EP   4   1753 55.46                             106   -2.43 0  409 327 
 SJC  HN ES   4   1754 36.95                             106   -4.30 0  409 327 
 SJC  HZ I        1754 41.36         5.2 0.25            106            409 327 
 CRJC HZ EP   4   1754  2.07                             103   -2.97 0  470   4 
 CRJC HN ES   4   1754 49.09                             103   -4.87 0  470   4 
 CRJC HZ I        1754 59.47         7.4 0.39            104            470   4 
                                                                                
