 2014  630 1109 57.6 L   6.052 -73.745108.6  RSN 12 0.3 1.6LRSN                1
 GAP=133        0.71       1.7     2.6  4.2 -0.1257E+01  0.1555E+01 -0.4034E+00E
 Epicentro: BOLIVAR - SANTANDER                                                3
 ACTION:UPD 14-07-01 22:58 OP:nd   STATUS:               ID:20140630110957 L   I
 OLDACT:REG 14-06-30 20:02 OP:spq  STATUS:               ID:20140630110813     3
 2014-06-30-1108-13M.COL___247                                                 6
 STAT SP IPHASW D HRMM SECON CODA AMPLIT PERI AZIMU VELO AIN AR TRES W  DIS CAZ7
 SPBC HZ IP     D 1110 14.25                             150    0.1410 57.2 219 
 SPBC HN ES       1110 27.33                             150    0.3710 57.2 219 
 SPBC HZ I        1110 30.75         8.7 0.26            150           57.2 219 
 BAR2 SZ EP       1110 16.62                             139    0.2310 86.3  46 
 BAR2 SZ ES   1   1110 30.87                             139   -0.15 7 86.3  46 
 BAR2 SZ I        1110 33.44        10.3 0.24            141           86.3  46 
 PTB  HZ EP       1110 16.57                             135   -0.2810 95.4 304 
 PTB  HN ES       1110 31.63                             135   -0.2110 95.4 304 
 PTB  HZ I        1110 33.38         4.9 0.12            135           95.4 304 
 CHI  HN ES       1110 43.11                             120   -0.34 9  157 179 
 CHI  HZ I        1110 46.31         3.3 0.26            121            157 179 
 HEL  HZ EP       1110 28.17                             114    0.42 9  198 275 
 HEL  HE ES       1110 51.65                             114    0.40 9  198 275 
 HEL  HZ I        1110 56.16         8.5 0.34            114            198 275 
 ZAR  HZ EP       1110 27.46                             113   -0.20 9  201 322 
 ZAR  HN ES       1110 50.73                             113   -0.34 9  201 322 
 ZAR  HZ I        1110 55.76         3.5 0.24            114            201 322 
 GUY2CHZ EP       1110 28.57                             113    0.30 9  201 243 
 GUY2CHN ES       1110 51.67                             113   -0.50 9  201 243 
 GUY2CHZ I        1110 57.69         3.0 0.50                           201 243 
 RREF HZ EP       1110 30.36                             111   -0.03 8  218 234 
 RREF HN ES   1   1110 55.91                             111   -0.03 6  218 234 
 RREF HZ I        1111  2.35         2.6 0.28            112            218 234 
 TOL  SZ EP       1110 32.52                             109    0.24 8  238 227 
 TOL  SN ES       1110 59.23                             109   -0.08 8  238 227 
 TOL  SZ I        1111 10.34         4.5 0.60            110            238 227 
 OCA  HN ES       1111  0.63                             108    0.07 8  246  11 
 OCA  HZ I        1111  7.71         6.1 0.28            109            246  11 
 PRA  HZ EP       1110 36.99                             105   -0.71 7  288 206 
 PRA  HN ES       1111  9.32                             105    0.37 7  288 206 
 PRA  HZ I        1111 13.33         2.4 0.36            105            288 206 
 SML  HZ EP       1110 39.93                             104    0.13 7  306 353 
 SML  HN ES       1111 12.81                             104    0.11 7  306 353 
 SML  HZ I        1111 16.46         3.4 0.06            104            306 353 
                                                                                
