 2010  830 1006  2.4 L   6.785 -73.067143.6  RSN  6 0.2 1.3LRSN                1
 GAP=168        0.55       4.0     6.5  6.0 -0.4968E+01 -0.8203E+01 -0.7074E+01E
 Epicentro: LOS SANTOS - SANTANDER                                             3
 ACTION:UP  10-09-07 10:59 OP:vdl  STATUS:               ID:20100830100602 L   I
 2010-08-30-1002-53S.COL___120                                                 6
 STAT SP IPHASW D HRMM SECON CODA AMPLIT PERI AZIMU VELO SNR AR TRES W  DIS CAZ7
 BAR2 SZ EP       10 6 21.91                             170     0.110   25 211 
 BAR2 SZ ES   1   10 6 36.56                             170    -0.4 7   25 211 
 BAR2 SZ I        10 6 38.49         3.9 0.22                            25 211 
 BRR  HZ EP       10 6 23.68                             149    -0.110   80 297 
 BRR  HN ES   1   10 6 40.72                             149     0.2 7   80 297 
 BRR  HZ I        10 6 42.27         8.4 0.08                            80 297 
 RUS  HN ES   2   10 6 44.28                             144     0.2 5   99 181 
 RUS  HZ I        10 6 46.81         1.6 0.49                            99 181 
 GUE  SZ EP   2   10 6 26.51                             139    -0.4 5  117   8 
 GRA  SZ EP       10 6 27.54                             136     0.210  125  13 
 GRA  SZ ES   1   10 6 46.94                             136     0.1 7  125  13 
 GRA  SZ I        10 6 49.47         3.5 0.49                           125  13 
 OCA  SZ EP   2   10 6 30.55                             128    -0.3 5  163 350 
                                                                                
