 2014  630 1903 56.9 L   6.695 -73.172128.8  RSN  6 0.4 1.3LRSN                1
 GAP=226        1.05       5.9     7.3  8.1  0.2178E+02  0.2905E+02  0.1152E+02E
 Epicentro: VILLANUEVA - SANTANDER                                             3
 ACTION:UPD 14-07-01 22:58 OP:nd   STATUS:               ID:20140630190356 L   I
 OLDACT:REG 14-06-30 21:14 OP:spq  STATUS:               ID:20140630185818     3
 2014-06-30-1858-18M.COL___250                                                 6
 STAT SP IPHASW D HRMM SECON CODA AMPLIT PERI AZIMU VELO AIN AR TRES W  DIS CAZ7
 BAR2 SZ EP       19 4 14.01                             175   -0.2410 11.4 186 
 BAR2 SZ ES   1   19 4 27.43                             175   -0.38 7 11.4 186 
 BAR2 SZ I        19 4 31.97         4.3 0.26            174           11.4 186 
 BRR  HZ EP       19 4 16.06                             148   -0.3810 75.1 307 
 BRR  HN ES       19 4 32.09                             148    0.3710 75.1 307 
 BRR  HZ I        19 4 37.27         3.0 0.14            149           75.1 307 
 RUS  HZ EP       19 4 18.63                             143    0.5010 89.3 174 
 RUS  HN ES       19 4 34.77                             143    0.0510 89.3 174 
 RUS  HZ I        19 4 37.89         2.4 0.30            149           89.3 174 
 PTB  HZ EP       19 4 21.66                             129   -0.39 9  143 263 
 ZAR  HZ EP       19 4 29.33                             118    0.86 8  206 295 
 ZAR  HN ES       19 4 52.92                             118   -0.21 8  206 295 
 ZAR  HZ I        19 4 58.49         3.7 0.30            122            206 295 
 GUY2CHZ EP       19 4 38.01                             110   -0.69 7  292 236 
 GUY2CHE ES       19 5 11.63                             110    0.28 7  292 236 
 GUY2CHZ I        19 5 21.19         1.7 0.40                           292 236 
                                                                                
