 2011 1030 1442  6.0 L   6.795 -73.068149.4  RSN  5 0.3 1.5LRSN                1
 GAP=147        0.49       5.5     6.3  7.6  0.1199E+02  0.1251E+02  0.4039E+01E
 Epicentro: LOS SANTOS - SANTANDER                                             3
 ACTION:UPD 12-07-13 16:07 OP:ep   STATUS:               ID:20111030144206 L   I
 2011-10-30-1439-02S.COL___157                                                 6
 STAT SP IPHASW D HRMM SECON CODA AMPLIT PERI AZIMU VELO AIN AR TRES W  DIS CAZ7
 BAR2 SZ EP   1   1442 26.14                             170    0.04 7 25.8 209 
 BAR2 SZ ES   2   1442 41.34                             170   -0.46 5 25.8 209 
 BAR2 SZ I        1442 43.73         7.1 0.46                          25.8 209 
 PAM  SE ES   2   1442 45.58                             153   -0.16 5 72.6  34 
 BRR  HZ EP   1   1442 28.15                             150    0.17 7 79.1 296 
 BRR  HE ES   2   1442 45.66                             150    0.52 5 79.1 296 
 BRR  HZ I        1442 47.64         7.7 0.62                          79.1 296 
 RUS  HZ EP   2   1442 29.89                             145   -0.15 5 99.9 181 
 RUS  HN ES   2   1442 48.99                             145    0.18 5 99.9 181 
 RUS  HZ I        1442 49.99         1.6 0.19                          99.9 181 
 ZAR  HN ES   2   1443  5.12                             122   -0.54 4  212 291 
 ZAR  HZ I        1443 10.53         4.2 0.49                           212 291 
                                                                                
