 2011 1130 1756 32.7 L   6.787 -73.109145.2  RSN  5 0.2 1.6LRSN                1
 GAP=142        0.48       3.1     3.7  4.3 -0.3641E+01  0.3199E+01  0.6803E+00E
 Epicentro: LOS SANTOS - SANTANDER                                             3
 ACTION:UPD 12-07-13 16:13 OP:ep   STATUS:               ID:20111130175632 L   I
 2011-11-30-1756-03S.COL___161                                                 6
 STAT SP IPHASW D HRMM SECON CODA AMPLIT PERI AZIMU VELO AIN AR TRES W  DIS CAZ7
 BAR2 SZ EP   2   1756 52.02                             171   -0.18 5 23.0 201 
 BAR2 SZ ES   1   1757  7.24                             171   -0.21 7 23.0 201 
 BAR2 SZ I        1757 10.00         8.2 0.33                          23.0 201 
 BRR  HZ EP       1756 53.94                             151   -0.0410 75.5 298 
 BRR  HZ I        1756 54.46         9.3 0.17                          75.5 298 
 BRR  HE ES   1   1757 10.85                             151    0.23 7 75.5 298 
 PAM  SZ EP       1756 54.84                             151    0.1210 76.0  36 
 PAM  SE ES   1   1757 11.78                             151   -0.16 7 76.0  36 
 RUS  HZ EP   1   1756 56.54                             144    0.32 7 98.9 178 
 RUS  HN ES   1   1757 14.63                             144    0.02 7 98.9 178 
 RUS  HZ I        1757 16.54         4.7 0.37                          98.9 178 
 NOR  SZ EP   1   1757  8.09                             118   -0.52 6  237 235 
 NOR  SE ES   1   1757 36.80                             118    0.13 6  237 235 
                                                                                
