 2012 1030 1408 53.6 L   6.790 -73.144139.2  RSN  4 0.3 2.1LRSN                1
 GAP=137        0.57       3.3     5.5  6.4 -0.3515E+01  0.1793E+02 -0.4017E+01E
 Epicentro: LOS SANTOS - SANTANDER                                             3
 ACTION:UPD 12-11-22 17:06 OP:ep   STATUS:               ID:20121030140853 L   I
 2012-10-30-1406-47M.COL___195                                                 6
 STAT SP IPHASW D HRMM SECON CODA AMPLIT PERI AZIMU VELO AIN AR TRES W  DIS CAZ7
 BAR2 SZ EP   1   14 9 12.32                             170   -0.12 7 22.2 191 
 BAR2 SZ ES   1   14 9 26.95                             170   -0.17 7 22.2 191 
 BAR2 SZ I        14 9 28.75        43.0 0.20                          22.2 191 
 PAM  SZ EP   1   14 9 15.12                             149   -0.07 7 78.2  39 
 PAM  SE ES       14 9 32.08                             149    0.0710 78.2  39 
 PAM  SN I        14 9 33.10        20.2 0.50                          78.2  39 
 RUS  HZ EP   1   14 9 16.27                             143   -0.38 7 99.4 176 
 RUS  HN ES       14 9 34.81                             143    0.2010 99.4 176 
 RUS  HN I        14 9 36.57        20.2 0.28                          99.4 176 
 ZAR  HZ EP   1   14 9 26.27                             121    0.55 6  205 292 
 ZAR  HN ES   2   14 9 50.33                             121   -0.41 4  205 292 
 ZAR  HN I        14 9 57.67        14.7 0.28                           205 292 
                                                                                
