 2011  530 1423 24.1 L   6.752 -73.025151.9  RSN  5 0.4 1.7LRSN                1
 GAP=171        1.12       6.8    14.7 15.8 -0.8680E+01 -0.8935E+02 -0.1010E+02E
 Epicentro: CEPITA - SANTANDER                                                 3
 ACTION:UP  11-06-29 08:57 OP:tino STATUS:               ID:20110530142324 L   I
 2011-05-30-1422-39S.COL___113                                                 6
 STAT SP IPHASW D HRMM SECON CODA AMPLIT PERI AZIMU VELO SNR AR TRES W  DIS CAZ7
 BAR2 SZ EP   1   1423 44.62                             170     0.1 7   25 225 
 BAR2 SZ I        1424  0.59        12.3 0.18                            25 225 
 BRR  HZ EP   1   1423 46.53                             149    -0.3 7   86 297 
 BRR  HZ I        1423 46.90        25.9 0.12                            86 297 
 BRR  HN ES   1   1424  4.59                             149     0.1 7   86 297 
 RUS  HZ EP   1   1423 47.39                             147    -0.7 7   95 184 
 RUS  HN ES   1   1424  7.18                             147     0.3 7   95 184 
 RUS  HZ I        1424  7.95         3.9 0.29                            95 184 
 BRI  SZ EP   1   1423 49.29                             142     0.6 7  110  13 
 BRI  SZ I        1424 11.90         5.7 0.36                           110  13 
 GRA  SZ EP   1   1423 50.50                             138     0.4 7  128  11 
 GRA  SZ I        1423 51.66         8.5 0.35                           128  11 
 GRA  SZ ES   1   1424  9.73                             138    -0.6 7  128  11 
                                                                                
