 2012 1130 1047 47.3 L   6.803 -73.166146.4  RSN  4 0.1 1.6LRSN                1
 GAP=142        0.42       3.0     2.6  5.2 -0.1690E+01  0.4124E+01 -0.2931E+01E
 Epicentro: LOS SANTOS - SANTANDER                                             3
 ACTION:UPD 12-12-05 15:37 OP:}ep  STATUS:               ID:20121130104747 L   I
 2012-11-30-1040-00M.COL___236                                                 6
 STAT SP IPHASW D HRMM SECON CODA AMPLIT PERI AZIMU VELO AIN AR TRES W  DIS CAZ7
 BAR2 SZ EP       1048  7.23                             170    0.2210 23.4 184 
 BAR2 SZ I        1048  7.78         8.7 0.18                          23.4 184 
 PAM  SZ EP   1   1048  9.46                             150   -0.19 7 78.6  41 
 PAM  SE ES   1   1048 27.10                             150    0.01 7 78.6  41 
 PAM  SZ I        1048 29.39         4.3 0.60                          78.6  41 
 RUS  HZ EP   1   1048 11.29                             144    0.14 7  101 175 
 RUS  HN ES       1048 29.64                             144   -0.1210  101 175 
 RUS  HN I        1048 31.67         5.7 0.22                           101 175 
 PTB  HZ EP       1048 14.00                             133   -0.13 9  146 259 
 PTB  HN ES       1048 35.08                             133    0.03 9  146 259 
 PTB  HZ I        1048 42.64         6.4 0.27                           146 259 
                                                                                
