 2011 1030 1924 24.3 L   6.781 -73.067148.9  RSN  6 0.3 1.7LRSN                1
 GAP=148        0.51       4.4     4.8  6.7  0.2007E+01  0.7885E+01  0.1853E+01E
 Epicentro: LOS SANTOS - SANTANDER                                             3
 ACTION:UPD 12-07-13 16:07 OP:ep   STATUS:               ID:20111030192424 L   I
 2011-10-30-1922-42S.COL___157                                                 6
 STAT SP IPHASW D HRMM SECON CODA AMPLIT PERI AZIMU VELO AIN AR TRES W  DIS CAZ7
 BAR2 SZ EP   1   1924 44.48                             170    0.13 7 24.4 211 
 BAR2 SZ ES   2   1924 59.51                             170   -0.47 5 24.4 211 
 BAR2 SZ I        1925  2.45         8.8 0.33                          24.4 211 
 PAM  SZ EP   2   1924 46.20                             152   -0.47 5 73.9  33 
 PAM  SN ES   2   1925  3.93                             152   -0.18 5 73.9  33 
 BRR  HZ EP   1   1924 46.57                             150    0.26 7 79.8 297 
 BRR  HE ES   2   1925  3.89                             150    0.43 5 79.8 297 
 BRR  HZ I        1925  6.28         8.9 0.13                          79.8 297 
 RUS  HZ EP   1   1924 48.16                             145   -0.06 7 98.3 181 
 RUS  HN ES   2   1925  7.23                             145    0.37 5 98.3 181 
 RUS  HZ I        1925  8.61         4.3 0.24                          98.3 181 
 ZAR  HZ EP   2   1924 58.13                             122    0.25 4  213 292 
 ZAR  HN ES   2   1925 23.72                             122   -0.34 4  213 292 
 ZAR  HZ I        1925 28.80         6.1 0.37                           213 292 
 NOR  SN ES   2   1925 28.82                             118   -0.55 4  241 236 
                                                                                
