 2011 1230 1941 32.0 L   6.135 -73.843 95.0  RSN  4 0.1 1.5LRSN                1
 GAP=196        0.38       4.6     2.4  7.0  0.4971E+01  0.5512E+01  0.1269E+02E
 Epicentro: EL PEON - SANTANDER                                                3
 ACTION:UPD 12-07-13 16:19 OP:ep   STATUS:               ID:20111230194000 L   I
 2011-12-30-1940-00M.COL___186                                                 6
 STAT SP IPHASW D HRMM SECON CODA AMPLIT PERI AZIMU VELO AIN AR TRES W  DIS CAZ7
 PTB  HZ EP       1941 48.65                             136   -0.1510 81.3 303 
 PTB  HN ES   2   1942  2.19                             136    0.28 5 81.3 303 
 PTB  HZ I        1942  2.85         6.0 0.14                          81.3 303 
 RUS  HZ EP       1941 50.06                             134    0.0110 88.2 108 
 RUS  HN ES   2   1942  4.11                             134   -0.03 5 88.2 108 
 RUS  HZ I        1942  5.12         6.0 0.28                          88.2 108 
 BAR2 SZ EP       1941 49.91                             134    0.1510 88.9  55 
 BAR2 SZ ES   1   1942  3.48                             134   -0.14 7 88.9  55 
 BAR2 SZ I        1942  5.15        13.9 0.42                          88.9  55 
 ZAR  HE ES   3   1942 21.63                             112    0.14 2  187 323 
                                                                                
