 2012  430 1116 27.4 L   6.789 -73.133140.8  RSN 10 0.5 2.1LRSN                1
 GAP=139        1.23       5.6     5.9  8.4 -0.2098E+01  0.1144E+02  0.4328E+01E
 Epicentro: LOS SANTOS - SANTANDER                                             3
 ACTION:UPD 12-07-05 11:56 OP:tino STATUS:               ID:20120430111627 L   I
 2012-04-30-1110-00M.COL___189                                                 6
 STAT SP IPHASW D HRMM SECON CODA AMPLIT PERI AZIMU VELO AIN AR TRES W  DIS CAZ7
 BAR2 SZ IP     C 1116 46.43                             171     0.010   22 194 
 BAR2 SZ ES   1   1117  1.32                             171     0.1 7   22 194 
 BAR2 SZ I        1117  2.82        82.6 0.27                            22 194 
 BRR  HZ EP       1116 48.32                             151     0.210   73 299 
 BRR  HN ES   1   1117  5.33                             151     1.0 7   73 299 
 BRR  HZ I        1117  9.38        57.9 0.12                            73 299 
 PAM  SZ EP       1116 49.30                             150     0.210   77  38 
 PAM  SE ES   1   1117  6.06                             150     0.0 7   77  38 
 RUS  HZ EP       1116 50.41                             143    -0.210   99 177 
 RUS  HN ES   1   1117  8.18                             143    -0.5 7   99 177 
 PTB  HZ EP   1   1116 53.28                             131    -0.8 7  149 259 
 PTB  HN ES   1   1117 13.81                             131    -1.1 7  149 259 
 PTB  HZ I        1117 19.19        12.3 0.15                           149 259 
 OCA  SZ EP       1116 55.08                             128    -0.4 9  162 353 
 OCA  SZ I        1117 21.67         1.2 0.23                           162 353 
 ZAR  HZ EP   1   1116 59.21                             121    -0.5 6  206 292 
 ZAR  HE ES   1   1117 25.15                             121     0.2 6  206 292 
 ZAR  HZ I        1117 30.42        17.0 0.33                           206 292 
 CHI  HZ EP   1   1117  5.39                             116     0.6 6  248 196 
 CHI  HZ I        1117 44.10         7.6 0.43                           248 196 
 HEL  HZ EP   1   1117  8.58                             114     1.1 6  273 256 
 HEL  HN ES   1   1117 38.54                             114    -0.2 6  273 256 
 HEL  HZ I        1117 45.00        11.5 0.39                           273 256 
 PRA  HZ EP       1117 20.97                             106     0.2 6  392 210 
 PRA  HN ES   1   1118  3.14                             106     0.8 4  392 210 
                                                                                
