 2014 1230 1852 35.4 L   6.550 -73.578106.9  RSN  9 0.4 2.3LRSN                1
 GAP= 75        1.06       3.1     3.9  7.4 -0.2713E+01  0.1157E+02 -0.1108E+02E
 Epicentro: EL CARMEN - SANTANDER                                              3
 ACTION:UPD 15-02-10 17:08 OP:nd   STATUS:               ID:20141230185235 L   I
 OLDACT:REG 14-12-30 20:30 OP:cam  STATUS:               ID:20141230184814     3
 2014-12-30-1848-14M.COL___274                                                 6
 STAT SP IPHASW D HRMM SECON CODA AMPLIT PERI AZIMU VELO AIN AR TRES W  DIS CAZ7
 BAR2 EZ EP       1852 51.27                             156    0.0910 43.9  84 
 BAR2 EZ ES       1853  3.77                             156    0.2810 43.9  84 
 BAR2 EZ I        1853  5.49       130.6 0.42            160           43.9  84 
 RUS  HZ EP       1852 54.39                             137   -0.3510 91.0 143 
 RUS  HN ES       1853  9.53                             137   -0.3110 91.0 143 
 RUS  HZ I        1853 11.45        25.3 0.38            143           91.0 143 
 PTB  HZ EP     C 1852 54.23                             134   -0.3910 97.2 269 
 PTB  HN ES       1853  9.09                             134   -0.5310 97.2 269 
 PTB  HZ I        1853 10.38        44.4 0.18            136           97.2 269 
 SPBC HZ EP       1852 56.37                             129    0.1810  113 209 
 SPBC HN ES       1853 12.82                             129    0.4010  113 209 
 SPBC HZ I        1853 19.32        37.8 0.34            134            113 209 
 ZAR  HZ EP       1853  3.31                             116    0.81 9  176 306 
 ZAR  HN ES   4   1853 25.36                             116    1.72 0  176 306 
 ZAR  HZ I        1853 27.46        38.5 0.58            119            176 306 
 NOR  HZ EP       1853  2.76                             116   -0.25 9  180 233 
 NOR  HN ES       1853 24.91                             116    0.36 9  180 233 
 NOR  HZ I        1853 28.11        21.4 0.16            119            180 233 
 OCA  HZ EP       1853  4.91                             114    0.77 9  189   9 
 OCA  HN ES       1853 26.31                             114   -0.25 9  189   9 
 OCA  HZ I        1853 34.87        25.0 0.26            117            189   9 
 SML  HZ EP       1853 10.97                             107   -0.50 8  255 348 
 SML  HN ES       1853 39.77                             107    0.16 8  255 348 
 SML  HZ I        1853 46.96        23.0 0.26            109            255 348 
 MON  HZ EP       1853 20.45                             101   -0.78 7  337 317 
 MON  HN ES       1853 57.16                             101    0.18 7  337 317 
 MON  HZ I        1853 58.43         4.4 0.26            104            337 317 
                                                                                
