 2013  830 1115 36.4 L   6.802 -73.192143.1  RSN 14 0.4 2.2LRSN                1
 GAP=197        0.98       3.0     4.4  5.6  0.2970E+01  0.7367E+01  0.9402E-01E
 Epicentro: ZAPATOCA - SANTANDER                                               3
 ACTION:UPD 14-01-14 09:08 OP:ep   STATUS:               ID:20130830111536 L   I
 OLDACT:REG 13-08-30 16:20 OP:nd   STATUS:               ID:20130830110959     3
 2013-08-30-1109-59M.COL___235                                                 6
 STAT SP IPHASW D HRMM SECON CODA AMPLIT PERI AZIMU VELO AIN AR TRES W  DIS CAZ7
 BAR2 SZ EP       1115 55.72                             170   -0.0210 23.2 177 
 BAR2 SZ ES       1116 10.91                             170    0.1110 23.2 177 
 BAR2 SZ I        1116 12.56        38.4 0.46            172           23.2 177 
 BRR  HZ IP     C 1115 57.60                             154    0.5610 66.6 300 
 BRR  HN ES   2   1116 13.54                             154    0.42 5 66.6 300 
 BRR  HZ I        1116 18.99        22.8 0.12            149           66.6 300 
 RUS  HZ EP       1115 59.68                             143   -0.3010  101 173 
 RUS  HN ES       1116 18.14                             143   -0.2010  101 173 
 RUS  HZ I        1116 19.37        16.8 0.28            146            101 173 
 PTB  HZ EP       1116  2.27                             132   -0.47 9  143 258 
 PTB  HN ES       1116 23.39                             132    0.14 9  143 258 
 PTB  HZ I        1116 25.33        21.7 0.14            131            143 258 
 ZAR  HZ EP       1116  8.64                             122    0.43 9  199 293 
 ZAR  HN ES       1116 33.39                             122    0.40 9  199 293 
 ZAR  HZ I        1116 40.61        25.1 0.34            121            199 293 
 NOR  HZ EP       1116 11.49                             118   -0.09 8  231 234 
 NOR  HN ES       1116 38.49                             118   -0.50 8  231 234 
 NOR  HZ I        1116 48.18        13.2 0.16            118            231 234 
 SML  HZ EP       1116 12.64                             117   -0.02 8  241 336 
 SML  HN ES       1116 40.94                             117    0.02 8  241 336 
 SML  HZ I        1116 45.44        27.8 0.10            116            241 336 
 CHI  HZ EP       1116 13.77                             117   -0.10 8  248 194 
 CHI  HN ES       1116 42.79                             117   -0.28 8  248 194 
 CHI  HZ I        1116 52.90         5.5 0.54            117            248 194 
 HEL  HZ EP   4   1116 17.79                             115    1.82 0  267 255 
 HEL  HN ES   4   1116 48.25                             115    1.44 0  267 255 
 HEL  HZ I        1116 55.00         7.1 0.24            114            267 255 
 URE  HZ EP       1116 16.20                             113   -0.64 7  279 292 
 URE  HN ES       1116 47.23                             113   -1.12 7  279 292 
 URE  HZ I        1116 59.82        15.3 0.26            113            279 292 
 GUY2CHZ EP       1116 20.26                             112    0.79 7  297 234 
 GUY2CHN ES       1116 53.45                             112    0.42 7  297 234 
 GUY2CHZ I        1117  4.40         8.4 0.54                           297 234 
 COD  HZ EP   4   1116 24.04                             108   -0.59 0  348 355 
 COD  HN ES   4   1117  0.25                             108   -1.97 0  348 355 
 COD  HZ I        1117 25.41         3.7 0.74            108            348 355 
 PRA  HZ EP       1116 30.18                             106    0.58 6  390 209 
 PRA  HN ES       1117 11.68                             106    0.62 6  390 209 
 PRA  HZ I        1117 15.74         7.1 0.30            106            390 209 
 SJC  HZ EP   4   1116 29.89                             105   -1.67 0  406 328 
 SJC  HN ES   4   1117 11.04                             105   -3.52 0  406 328 
 SJC  HZ I        1117 15.38         2.0 0.42            105            406 328 
                                                                                
