 2010  430 1603 25.2 L   6.784 -73.062149.7  RSN 12 0.5 2.8LRSN                1
 GAP=182        0.78       4.5     6.5  6.8 -0.1778E+02 -0.2639E+01  0.1107E+02E
 Epicentro: LOS SANTOS - SANTANDER                                             3
 ACTION:UPD 10-08-24 10:02 OP:vdl  STATUS:               ID:20100430160325 L   I
 2010-04-30-1600-05S.COL___105                                                 6
 STAT SP IPHASW D HRMM SECON CODA AMPLIT PERI AZIMU VELO SNR AR TRES W  DIS CAZ7
 BAR2 SZ IP       16 3 45.03                             170    -0.310   25 212 
 BAR2 SZ ES   2   16 4  0.35                             170    -0.7 5   25 212 
 BRR  HZ IP     C 16 3 47.51                             150     0.210   80 297 
 BRR  HZ I        16 3 47.83       167.7 0.20                            80 297 
 BRR  HN ES   1   16 4  4.88                             150     0.4 7   80 297 
 BRI  SZ EP   1   16 3 49.61                             143     0.3 7  107  16 
 BRI  SZ ES   1   16 4  8.42                             143     0.2 7  107  16 
 GUE  SZ IP       16 3 50.05                             140    -0.210  117   7 
 GRA  SZ IP       16 3 50.86                             138     0.210  125  13 
 GRA  SZ ES   1   16 4 10.45                             138    -0.2 7  125  13 
 OCA  SZ EP   1   16 3 53.96                             130    -0.1 7  163 350 
 OCA  SZ ES   1   16 4 16.45                             130    -0.2 7  163 350 
 OCA  SZ I        16 4 21.32       152.8 0.32                           163 350 
 CHI  HZ EP   2   16 4  2.83                             118    -0.3 4  249 197 
 CHI  HZ I        16 4  5.74        16.1 0.34                           249 197 
 CHI  HN ES   2   16 4 33.33                             118     0.5 4  249 197 
 HEL  HZ EP   2   16 4  6.70                             115     0.2 4  281 257 
 HEL  HN ES   2   16 4 37.72                             115    -1.1 4  281 257 
 HEL  HZ I        16 4 43.73        30.2 0.29                           281 257 
 RREF BZ EP   1   16 4 13.10                             111     0.9 5  328 231 
 RREF BE ES   1   16 4 48.65                             111    -0.1 5  328 231 
 RREF BZ I        16 4 54.04        22.8 0.33                           328 231 
 TOL  SZ EP   2   16 4 15.35                             110     1.2 3  349 226 
 DBB  SZ EP   2   16 4 12.92                             110    -1.0 3  349 274 
 PRA  HZ EP   1   16 4 18.37                             107    -0.8 4  395 211 
 PRA  HN ES   2   16 5  1.42                             107     0.1 3  395 211 
 PRA  HZ I        16 5  6.81        16.6 0.66                           395 211 
                                                                                
