 2015  430 1910 32.6 L   6.771 -73.150141.3  RSN  4 0.1 1.6LRSN                1
 GAP=163        0.35       7.8     7.3  3.6 -0.5370E+02  0.1445E+02 -0.1147E+02E
 Epicentro: LOS SANTOS - SANTANDER                                             3
 ACTION:UPD 15-06-03 16:58 OP:cam  STATUS:               ID:20150430191031 L   I
 OLDACT:UP  15-05-01 07:31 OP:SPQ  STATUS:               ID:20150430191031 L   3
 OLDACT:DUP 15-05-01 01:02 OP:ak   STATUS:               ID:20150430190752d    3
 2015-04-30-1907-51M.COL___264                                                 6
 STAT SP IPHASW D HRMM SECON CODA AMPLIT PERI AZIMU VELO AIN AR TRES W  DIS CAZ7
 BAR2 EZ EP       1910 51.74                             172    0.0710 20.1 190 
 BAR2 EZ ES       1911  6.48                             172   -0.0410 20.1 190 
 BAR2 EZ I        1911  8.30         7.4 0.13            171           20.1 190 
 PAM  SZ EP       1910 54.39                             149   -0.1710 80.2  38 
 PAM  SN ES       1911 11.75                             149    0.1010 80.2  38 
 PAM  SZ I        1911 12.85         4.4 0.13            150           80.2  38 
 NOR  HZ EP       1911  7.93                             118    0.05 8  232 235 
 NOR  HN ES       1911 35.27                             118   -0.09 8  232 235 
 NOR  HZ I        1911 39.63         4.4 0.24            119            232 235 
 GUY2CHZ EP   2   1911 16.20                             112    0.40 4  299 235 
 GUY2CHN ES       1911 49.48                             112    0.02 7  299 235 
 GUY2CHZ I        1911 58.51         2.8 0.41                           299 235 
                                                                                
