 2016 1230 1834 59.5 L   6.714 -73.200146.3  RSN  7 0.4 1.5LRSN                1
 GAP=224        1.03       5.5     6.5  7.4  0.1912E+02  0.1227E+02  0.1166E+02E
 Epicentro: VILLANUEVA - SANTANDER                                             3
 ACTION:UPD 17-01-11 20:20 OP:rebc STATUS:               ID:20161230183459 L   I
 OLDACT:REG 16-12-30 21:10 OP:cog  STATUS:               ID:20161230182750     3
 2016-12-30-1828-00M.COL___371                                                 6
 STAT SP IPHASW D HRMM SECON CODA AMPLIT PERI AZIMU VELO AIN AR TRES W  DIS CAZ7
 BAR2 EZ EP       1835 18.78                             174   -0.2510 13.6 172 
 BAR2 EZ ES       1835 34.77                             174    0.5010 13.6 172 
 BAR2 EZ I        1835 36.27         6.9 0.29            170           13.6 172 
 BRR  HZ EP       1835 20.69                             153   -0.0110 71.3 308 
 BRR  HN ES       1835 37.55                             153    0.3010 71.3 308 
 BRR  HZ I        1835 42.20        11.9 0.24            151           71.3 308 
 RUS  HZ EP       1835 22.56                             146   -0.1210 91.7 172 
 RUS  HE ES       1835 40.13                             146   -0.6310 91.7 172 
 RUS  HZ I        1835 42.41         2.5 0.36            147           91.7 172 
 PTB  HZ EP       1835 25.41                             134   -0.42 9  140 262 
 PTB  HN ES       1835 46.09                             134   -0.28 9  140 262 
 PTB  HZ I        1835 51.07         3.6 0.14            132            140 262 
 ZAR  HN ES       1835 57.07                             123    0.08 9  202 295 
 ZAR  HZ I        1836  2.86         2.4 0.26            123            202 295 
 CHI  HZ EP       1835 36.91                             118    0.85 8  238 194 
 CHI  HN ES       1836  4.94                             118    0.36 8  238 194 
 CHI  HZ I        1836 10.23         1.3 0.42            119            238 194 
 GUY2CHZ EP   4   1835 44.89                             113    2.93 0  291 236 
 GUY2CHE ES   4   1836 18.99                             113    3.91 0  291 236 
 GUY2CHZ I        1836 25.14         2.0 0.44                           291 236 
                                                                                
