 2010  930 1003 40.6 L   6.859 -72.935146.0  RSN  4 0.2 1.5LRSN                1
 GAP=261        0.68       7.6    15.2 11.9  0.8473E+02 -0.1164E+03 -0.3414E+02E
 Epicentro: GUACA - SANTANDER                                                  3
 ACTION:UP  11-02-18 11:06 OP:tino STATUS:               ID:20100930100340 L   I
 2010-09-30-0959-00S.COL___125                                                 6
 STAT SP IPHASW D HRMM SECON CODA AMPLIT PERI AZIMU VELO SNR AR TRES W  DIS CAZ7
 BAR2 SZ EP       10 4  0.94                             165     0.210   40 223 
 BAR2 SZ I        10 4 19.33         8.0 0.63                            40 223 
 BRR  HZ EP       10 4  2.62                             147    -0.310   90 288 
 BRR  HZ I        10 4  2.95         8.9 0.21                            90 288 
 BRR  HN ES       10 4 20.55                             147     0.210   90 288 
 RUS  HZ EP       10 4  5.03                             142     0.110  108 189 
 RUS  HN ES   1   10 4 23.69                             142    -0.2 7  108 189 
 RUS  HZ I        10 4 25.13         3.0 1.45                           108 189 
 CHI  HN ES   2   10 4 50.42                             116     0.1 4  262 200 
 CHI  HZ I        10 4 57.91         1.3 0.55                           262 200 
                                                                                
