 2012  430 1447 59.0 L   6.791 -73.074151.6  RSN  4 0.3 1.6LRSN                1
 GAP=146        0.76       5.8     8.4  9.9 -0.1241E+01 -0.4114E+01  0.8573E+01E
 Epicentro: LOS SANTOS - SANTANDER                                             3
 ACTION:UPD 12-07-05 11:56 OP:tino STATUS:               ID:20120430144759 L   I
 2012-04-30-1440-00M.COL___189                                                 6
 STAT SP IPHASW D HRMM SECON CODA AMPLIT PERI AZIMU VELO AIN AR TRES W  DIS CAZ7
 BAR2 SZ EP   1   1448 19.12                             170    -0.3 7   25 209 
 BAR2 SZ I        1448 35.84         7.9 0.35                            25 209 
 PAM  SZ EP   1   1448 21.92                             153     0.3 7   73  34 
 PAM  SN ES   1   1448 39.17                             153    -0.1 7   73  34 
 BRR  HZ EP   1   1448 20.76                             151    -0.5 7   79 296 
 BRR  HZ I        1448 21.25        15.9 0.17                            79 296 
 BRR  HN ES   1   1448 38.87                             151     0.3 7   79 296 
 RUS  HZ EP   1   1448 23.69                             145     0.4 7   99 181 
 RUS  HN ES   1   1448 42.03                             145    -0.1 7   99 181 
 RUS  HZ I        1448 43.38         2.5 0.21                            99 181 
                                                                                
