 2016  630 1830 30.0 L   6.768 -73.164140.8  RSN  7 0.5 1.6LRSN                1
 GAP=136        1.13       5.2     4.7  7.8 -0.6816E+00  0.1110E+02  0.3384E+01E
 Epicentro: LOS SANTOS - SANTANDER                                             3
 ACTION:UPD 16-07-21 22:24 OP:rebc STATUS:               ID:20160630183030 L   I
 OLDACT:REG 16-06-30 22:26 OP:ak   STATUS:               ID:20160630182744     3
 2016-06-30-1827-44M.COL___355                                                 6
 STAT SP IPHASW D HRMM SECON CODA AMPLIT PERI AZIMU VELO AIN AR TRES W  DIS CAZ7
 BAR2 EZ EP       1830 48.93                             172   -0.0110 19.5 186 
 BAR2 EZ ES       1831  3.15                             172   -0.5810 19.5 186 
 BAR2 EZ I        1831  4.71        13.6 0.14                          19.5 186 
 BRR  HZ EP       1830 50.43                             152   -0.1710 71.2 302 
 BRR  HE ES       1831  7.68                             152    1.0010 71.2 302 
 BRR  HZ I        1831 13.15        12.1 0.16                          71.2 302 
 PAM  EZ EP       1830 52.01                             149    0.0910 81.4  39 
 PAM  EN ES       1831  8.76                             149   -0.2810 81.4  39 
 PAM  EZ I        1831 10.81         7.8 0.54                          81.4  39 
 RUS  HZ EP       1830 53.19                             144    0.1910 97.2 175 
 RUS  HN ES       1831 11.43                             144    0.4810 97.2 175 
 RUS  HZ I        1831 13.03         6.2 0.32                          97.2 175 
 PTB  HZ EP       1830 55.88                             131   -0.42 9  145 260 
 PTB  HN ES       1831 16.07                             131   -0.76 9  145 260 
 PTB  HZ I        1831 20.04         4.6 0.14                           145 260 
 ZAR  HZ EP   2   1831  2.27                             121    0.22 4  204 293 
 ZAR  HN ES       1831 27.26                             121    0.19 9  204 293 
 ZAR  HZ I        1831 30.56         5.3 0.10                           204 293 
 GUY2CHZ EP   2   1831 13.26                             112    0.32 4  297 235 
 GUY2CHN ES       1831 46.65                             112    0.20 7  297 235 
 GUY2CHZ I        1831 56.07         1.3 0.48                           297 235 
                                                                                
