 2013  430 1133 51.7 L   6.781 -73.149143.6  RSN  6 0.4 2.1LRSN                1
 GAP=200        0.75       4.7     7.1  7.2  0.1177E+02  0.3379E+01 -0.8606E+01E
 Epicentro: LOS SANTOS - SANTANDER                                             3
 ACTION:UPD 13-05-22 14:41 OP:EP   STATUS:               ID:20130430113351 L   I
 2013-04-30-1130-00M.COL___253                                                 6
 STAT SP IPHASW D HRMM SECON CODA AMPLIT PERI AZIMU VELO AIN AR TRES W  DIS CAZ7
 BAR2 SZ EP     C 1134 11.32                             171    0.2810 21.2 190 
 BAR2 SZ ES   1   1134 25.81                             171   -0.30 7 21.2 190 
 BAR2 SZ I        1134 27.53         9.2 0.62            164           21.2 190 
 BRR  HZ EP   1   1134 13.07                             152    0.41 7 71.9 300 
 BRR  HE ES   1   1134 29.51                             152    0.51 7 71.9 300 
 BRR  HE I        1134 30.39        47.2 0.34            145           71.9 300 
 RUS  HZ EP   1   1134 15.40                             144    0.30 7 98.5 176 
 RUS  HN ES   1   1134 32.79                             144   -0.55 7 98.5 176 
 RUS  HN I        1134 34.78         9.6 0.18            142           98.5 176 
 PTB  HZ EP   1   1134 18.15                             132   -0.28 7  147 260 
 PTB  HN ES   2   1134 39.20                             132   -0.07 5  147 260 
 PTB  HN I        1134 44.12        29.2 0.24            127            147 260 
 NOR  HN ES   2   1134 54.74                             118   -0.05 4  233 235 
 NOR  HN I        1135  2.34         9.6 0.18            115            233 235 
 SML  HZ EP   1   1134 28.08                             117   -0.32 6  245 336 
 SML  HN ES   1   1134 56.40                             117   -0.62 6  245 336 
 SML  HN I        1135  0.47        20.3 0.32            116            245 336 
                                                                                
