 2012  430 1537  6.5 L   6.778 -73.172146.0  RSN  5 0.3 1.5LRSN                1
 GAP=134        0.75       5.2     5.0  7.0 -0.3861E+01  0.1646E+01 -0.1928E+00E
 Epicentro: LOS SANTOS - SANTANDER                                             3
 ACTION:UPD 12-07-05 11:56 OP:tino STATUS:               ID:20120430153706 L   I
 2012-04-30-1530-00M.COL___189                                                 6
 STAT SP IPHASW D HRMM SECON CODA AMPLIT PERI AZIMU VELO AIN AR TRES W  DIS CAZ7
 BAR2 SZ EP       1537 25.93                             172    -0.110   21 183 
 BAR2 SZ ES   1   1537 41.05                             172    -0.3 7   21 183 
 BAR2 SZ I        1537 42.32         8.1 0.20                            21 183 
 BRR  HZ EP   1   1537 27.86                             153     0.3 7   70 301 
 BRR  HN ES   1   1537 44.62                             153     0.6 7   70 301 
 BRR  HZ I        1537 45.51        11.8 0.10                            70 301 
 PAM  SZ EP       1537 28.89                             150     0.010   81  40 
 PAM  SE ES   1   1537 46.25                             150    -0.2 7   81  40 
 RUS  HZ EP   1   1537 30.32                             144     0.2 7   98 174 
 RUS  HN ES   1   1537 48.73                             144     0.2 7   98 174 
 RUS  HZ I        1537 50.32         5.4 0.44                            98 174 
 PTB  HZ EP   1   1537 33.02                             133    -0.1 7  144 260 
 PTB  HN ES   1   1537 53.48                             133    -0.5 7  144 260 
 PTB  HZ I        1537 56.13         2.4 0.12                           144 260 
                                                                                
