 2017  930 1220 19.1 L   6.546 -73.400121.1  RSN  4 0.2 1.3LRSN                1
 GAP=135        0.52       3.4     3.6  6.3  0.4726E+01  0.1507E+02  0.5341E+01E
 Epicentro: HATO - SANTANDER                                                   3
 ACTION:UPD 17-10-05 19:18 OP:rebc STATUS:               ID:20170930122019 L   I
 OLDACT:REG 17-09-30 20:10 OP:osc  STATUS:               ID:20170930121741     3
 2017-09-30-1218-00M.COL___404                                                 6
 STAT SP IPHASW D HRMM SECON CODA AMPLIT PERI AZIMU VELO AIN AR TRES W  DIS CAZ7
 BAR2 EZ EP       1220 35.90                             168    0.0610 24.6  78 
 BAR2 EZ ES       1220 49.09                             168    0.2210 24.6  78 
 BAR2 EZ I        1220 49.94        11.3 0.48            169           24.6  78 
 RUS  HZ EP       1220 39.04                             145    0.0410 80.3 154 
 RUS  HE ES       1220 54.22                             145   -0.2710 80.3 154 
 RUS  HZ I        1220 56.06         2.8 0.26            146           80.3 154 
 ZAR  HN ES       1221 11.75                             118   -0.21 9  192 303 
 GUY2CHE ES       1221 27.10                             110    0.19 8  262 236 
                                                                                
