 2011  730 1416 32.4 L   6.620 -73.515110.0  RSN  5 0.4 1.6LRSN                1
 GAP=189        0.67       3.5     6.2  8.4  0.4286E+01  0.1733E+01  0.5663E+00E
 Epicentro: EL CARMEN DE CHUCURI - SANTANDER                                   3
 ACTION:UPD 12-07-25 14:04 OP:epov STATUS:               ID:20110730141632 L   I
 2011-07-30-1413-11S.COL___142                                                 6
 STAT SP IPHASW D HRMM SECON CODA AMPLIT PERI AZIMU VELO AIN AR TRES W  DIS CAZ7
 BAR2 SZ EP   1   1416 48.52                             161    0.28 7 36.9  95 
 BAR2 SZ ES   1   1417  0.53                             161   -0.05 7 36.9  95 
 BAR2 SZ I        1417  2.13        24.7 0.41                          36.9  95 
 BRR  HZ EP   1   1416 48.70                             150   -0.28 7 58.1 338 
 BRR  HN ES   1   1417  2.02                             150    0.12 7 58.1 338 
 RUS  HZ EP   1   1416 52.31                             137    0.05 7 93.5 149 
 RUS  HE ES       1417  7.76                             137    0.0310 93.5 149 
 RUS  HZ I        1417  8.90         4.7 0.21                          93.5 149 
 PAM  SN ES   1   1417 11.40                             129   -0.57 7  120  48 
 BRI  SZ ES   2   1417 16.52                             123    0.94 5  145  33 
                                                                                
