 2017  130 1131 43.9 L   6.781 -73.161147.6  RSN  7 0.4 1.7LRSN                1
 GAP=135        0.88       3.9     4.4  7.3  0.2391E+01  0.9767E+01  0.6022E+01E
 Epicentro: LOS SANTOS - SANTANDER                                             3
 ACTION:UPD 17-05-22 16:04 OP:jn   STATUS:               ID:20170130113143 L   I
 OLDACT:REG 17-01-30 20:22 OP:dnl  STATUS:               ID:20170130112742     3
 2017-01-30-1128-00M.COL___336                                                 6
 STAT SP IPHASW D HRMM SECON CODA AMPLIT PERI AZIMU VELO AIN AR TRES W  DIS CAZ7
 BAR2 EZ EP       1132  3.73                             171    0.0210 21.0 186 
 BAR2 EZ ES       1132 18.90                             171   -0.2610 21.0 186 
 BAR2 EZ I        1132 20.27         9.1 0.14            171           21.0 186 
 BRR  HZ EP       1132  5.46                             153    0.2310 70.8 301 
 BRR  HN ES       1132 22.61                             153    0.7510 70.8 301 
 BRR  HZ I        1132 25.47         9.5 0.64            151           70.8 301 
 PAM  EZ EP   2   1132  6.80                             150    0.32 5 80.1  40 
 PAM  EN ES       1132 23.76                             150   -0.3310 80.1  40 
 PAM  EZ I        1132 24.98         6.1 0.16            152           80.1  40 
 RUS  HZ EP   2   1132  6.91                             145   -0.79 5 98.6 175 
 RUS  HN ES       1132 26.37                             145    0.1210 98.6 175 
 RUS  HZ I        1132 27.30         4.3 0.20            146           98.6 175 
 PTB  HZ EP   2   1132 10.34                             133   -0.50 5  146 260 
 PTB  HN ES       1132 31.37                             133   -0.47 9  146 260 
 PTB  HZ I        1132 33.30         6.4 0.16            132            146 260 
 ZAR  HZ EP   4   1132 17.73                             123    1.34 0  203 293 
 ZAR  HN ES       1132 41.55                             123   -0.18 9  203 293 
 ZAR  HZ I        1132 46.77         6.8 0.36            123            203 293 
 CHI  HE EP   2   1132 22.12                             118    0.69 4  246 195 
 CHI  HZ ES       1132 50.92                             118    0.21 8  246 195 
 CHI  HE I        1132 53.19         6.4 0.38            119            246 195 
                                                                                
