 2011  530 1538 32.2 L   6.781 -73.109146.0  RSN 11 0.4 2.4LRSN                1
 GAP=160        0.72       3.2     5.5  6.3 -0.6835E+01  0.7667E+01  0.2489E+01E
 Epicentro: LOS SANTOS - SANTANDER                                             3
 ACTION:UP  11-06-29 08:57 OP:tino STATUS:               ID:20110530153832 L   I
 2011-05-30-1536-52S.COL___113                                                 6
 STAT SP IPHASW D HRMM SECON CODA AMPLIT PERI AZIMU VELO SNR AR TRES W  DIS CAZ7
 BAR2 SZ EP   1   1538 51.68                             171    -0.2 7   22 201 
 BAR2 SZ I        1539  8.22       104.4 0.14                            22 201 
 BRR  HZ EP       1538 53.56                             151    -0.110   76 299 
 BRR  HN ES   1   1539 10.73                             151     0.3 7   76 299 
 BRR  HZ I        1539 14.55        57.3 0.12                            76 299 
 RUS  HZ EP   1   1538 55.66                             145    -0.2 7   98 178 
 RUS  HN ES   1   1539 14.47                             145     0.2 7   98 178 
 RUS  HZ I        1539 15.77        33.4 0.26                            98 178 
 BRI  SZ EP   1   1538 56.19                             141     0.0 7  109  18 
 BRI  SZ I        1539 19.86        35.6 0.41                           109  18 
 GRA  SZ EP   1   1538 57.46                             137    -0.1 7  127  15 
 GRA  SZ ES   1   1539 17.51                             137     0.2 7  127  15 
 GRA  SZ I        1539 18.29        27.3 0.29                           127  15 
 OCA  SZ EP   1   1539  0.96                             129     0.1 7  163 352 
 OCA  SZ ES   1   1539 23.03                             129    -0.1 7  163 352 
 NOR  SZ EP   1   1539  7.77                             118    -0.4 6  237 235 
 NOR  SN ES   1   1539 35.66                             118    -0.6 6  237 235 
 NOR  SZ I        1539 40.87         3.8 0.26                           237 235 
 HEL  HZ EP   1   1539 13.43                             115     0.6 6  275 256 
 HEL  HZ I        1539 52.15        16.6 0.45                           275 256 
 DBB  SZ EP   1   1539 20.00                             109    -0.2 5  344 275 
 TOL  SZ EP   1   1539 21.57                             109     0.9 5  345 225 
 PRA  HZ EP   1   1539 25.52                             107    -0.3 4  392 210 
 PRA  HZ I        1539 27.24        40.8 0.08                           392 210 
 PRA  HN ES   1   1540  8.19                             107     0.6 4  392 210 
                                                                                
