 2010 1030 1829 51.7 L   6.773 -73.127142.2  RSN 12 0.5 2.4LRSN                1
 GAP=158        0.92       5.1     8.5  8.0 -0.2017E+02  0.1121E+02 -0.4400E+00E
 Epicentro: LOS SANTOS - SANTANDER                                             3
 ACTION:UP  11-02-18 11:13 OP:tino STATUS:               ID:20101030182951 L   I
 2010-10-30-1827-09S.COL___128                                                 6
 STAT SP IPHASW D HRMM SECON CODA AMPLIT PERI AZIMU VELO SNR AR TRES W  DIS CAZ7
 BAR2 SZ EP   1   1830 10.67                             171    -0.2 7   21 197 
 BAR2 SZ ES   2   1830 25.50                             171    -0.3 5   21 197 
 BAR2 SZ I        1830 26.52        77.0 0.25                            21 197 
 BTL  SZ EP   1   1830 11.15                             171     0.3 7   22 316 
 GIR2 SZ EP   1   1830 10.78                             166    -0.2 7   35 348 
 GIR2 SZ ES   2   1830 25.91                             166    -0.2 5   35 348 
 BRR  HZ IP     C 1830 12.58                             151    -0.110   75 300 
 BRR  HE ES   2   1830 29.61                             151     0.6 5   75 300 
 BRR  HZ I        1830 33.58        53.1 0.12                            75 300 
 RUS  HZ EP   1   1830 14.72                             144    -0.1 7   98 177 
 RUS  HE ES   2   1830 33.09                             144     0.2 5   98 177 
 RUS  HZ I        1830 34.22        25.8 0.21                            98 177 
 BRI  SZ EP   1   1830 15.18                             140    -0.2 7  110  19 
 GUE  SZ EP   1   1830 15.81                             138    -0.5 7  119  11 
 GRA  SZ IP     C 1830 17.57                             136     0.810  128  16 
 GRA  SZ ES   2   1830 37.04                             136     0.7 5  128  16 
 OCA  SZ EP   1   1830 19.22                             128    -0.8 7  163 353 
 OCA  SZ ES   2   1830 41.35                             128    -0.8 5  163 353 
 OCA  SZ I        1830 45.78        38.2 0.26                           163 353 
 NOR  SZ EP   1   1830 27.06                             118    -0.2 6  235 235 
 NOR  SN ES   2   1830 54.38                             118    -0.6 4  235 235 
 HEL  HZ EP   1   1830 32.75                             114     0.9 6  273 257 
 HEL  HZ I        1831  9.14        10.0 0.50                           273 257 
 PRA  HZ EP   1   1830 44.60                             106    -0.3 4  390 210 
 PRA  HN ES   2   1831 26.96                             106     0.6 3  390 210 
                                                                                
