 2010  130 1012 12.6 L   6.804 -73.131140.0  RSN  9 0.7 2.1LRSN                1
 GAP=184        1.13       8.6    17.7 12.4  0.2948E+02  0.1181E+03  0.7727E-01E
 Epicentro: LOS SANTOS - SANTANDER                                             3
 ACTION:UP  10-08-24 09:46 OP:vdl  STATUS:               ID:20100130101212 L   I
 2010-01-30-1011-43S.COL___094                                                 6
 STAT SP IPHASW D HRMM SECON CODA AMPLIT PERI AZIMU VELO SNR AR TRES W  DIS CAZ7
 BAR2 SZ IP       1012 31.36                             170    -0.210   24 194 
 BAR2 SZ ES   1   1012 46.58                             170     0.3 7   24 194 
 GIR2 SZ EP   2   1012 32.55                             167     1.0 5   31 347 
 RUS  BZ EP   1   1012 35.32                             143    -0.5 7  101 177 
 RUS  BE ES   1   1012 54.13                             143     0.2 7  101 177 
 RUS  BZ I        1012 55.70        15.1 0.63                           101 177 
 OCA  SZ EP   2   1012 40.43                             129     0.0 5  160 353 
 CHI  HZ EP   1   1012 49.48                             116    -0.6 6  249 196 
 CHI  HE ES   2   1013 18.79                             116    -0.5 4  249 196 
 CHI  HZ I        1013 24.64         6.0 0.87                           249 196 
 HEL  HZ EP   1   1012 53.39                             114     0.7 6  274 256 
 HEL  HZ I        1013 29.70         5.2 0.80                           274 256 
 RREF BZ EP   2   1013  0.35                             110     1.7 3  323 230 
 RREF BZ I        1013 42.94        10.7 0.43                           323 230 
 MON  HE ES   2   1013 37.62                             108    -1.9 3  354 308 
 PRA  HZ EP   2   1013  5.79                             106    -0.3 3  393 210 
 PRA  HZ I        1013 53.21         8.5 0.35                           393 210 
                                                                                
