 2013 1130 1052 42.6 L   6.806 -73.126144.9  RSN  9 0.4 2.2LRSN                1
 GAP= 89        1.04       4.3     4.3  6.5 -0.4161E+01  0.3195E+01  0.5498E+01E
 Epicentro: LOS SANTOS - SANTANDER                                             3
 ACTION:UPD 14-01-09 16:32 OP:ep   STATUS:               ID:20131130105242 L   I
 OLDACT:UP  13-11-30 15:40 OP:cam  STATUS:               ID:20131130105000     3
 OLDACT:REG 13-11-30 15:03 OP:cam  STATUS:               ID:20131130105000     3
 2013-11-30-1050-00M.COL___282                                                 6
 STAT SP IPHASW D HRMM SECON CODA AMPLIT PERI AZIMU VELO AIN AR TRES W  DIS CAZ7
 BAR2 SZ IP     C 1053  2.07                             170   -0.0710 24.5 195 
 BAR2 SZ ES       1053 16.87                             170   -0.5110 24.5 195 
 BAR2 SZ I        1053 17.91        60.1 0.12            172           24.5 195 
 BRR  HZ EP   1   1053  3.93                             152    0.20 7 72.8 297 
 BRR  HN ES       1053 20.81                             152    0.5810 72.8 297 
 BRR  HZ I        1053 25.75        33.9 0.20            149           72.8 297 
 PAM  SZ IP       1053  4.93                             151    0.3410 75.5  39 
 PAM  SN ES       1053 21.98                             151    0.2210 75.5  39 
 PAM  SZ I        1053 24.87        11.8 0.34            151           75.5  39 
 PTB  HZ EP       1053  8.88                             131   -0.81 9  150 259 
 PTB  HN ES   4   1053 29.35                             131   -1.48 0  150 259 
 PTB  HZ I        1053 30.72        20.0 0.34            132            150 259 
 TAM  HZ IP     D 1053 10.39                             131    0.38 9  153 105 
 OCA  HZ EP   1   1053 10.67                             129   -0.12 7  160 352 
 OCA  HN ES       1053 32.07                             129   -0.72 9  160 352 
 OCA  HZ I        1053 39.41        13.8 0.28            129            160 352 
 SPBC HZ EP       1053 11.08                             128   -0.12 9  165 219 
 SPBC HN ES   1   1053 33.08                             128   -0.44 7  165 219 
 SPBC HZ I        1053 35.31        22.5 0.26            131            165 219 
 ZAR  HZ EP   1   1053 15.13                             122   -0.03 6  206 292 
 ZAR  HN ES       1053 41.00                             122    0.44 8  206 292 
 ZAR  HZ I        1053 46.87        23.1 0.32            122            206 292 
 NOR  HZ EP   1   1053 18.66                             118    0.16 6  237 235 
 NOR  HN ES       1053 47.00                             118    0.49 8  237 235 
 NOR  HZ I        1053 48.84        10.6 0.24            119            237 235 
 CHI  HZ EP   4   1053 20.91                             117    0.54 0  250 196 
 HEL  HZ EP   4   1053 22.15                             114   -0.86 0  274 256 
 GUY2CHZ EP   4   1053 26.53                             112    0.13 0  303 235 
 CBOC HZ EP   4   1053 30.28                             110    0.55 0  336 252 
 PRA  HZ EP   4   1053 36.71                             106    0.44 0  394 210 
 SJC  HZ EP   4   1053 37.25                             105   -0.94 0  410 327 
                                                                                
