 2012 1230 1640 37.9 L   6.285 -73.634107.4  RSN  8 0.2 1.9LRSN                1
 GAP= 70        0.42       1.8     1.7  3.9  0.3288E+00  0.1997E+01  0.1555E+01E
 Epicentro: SANTA HELENA DEL OPON - SANTANDER                                  3
 ACTION:UPD 13-01-04 14:31 OP:ep   STATUS:               ID:20121230164037 L   I
 2012-12-30-1640-00M.COL___242                                                 6
 STAT SP IPHASW D HRMM SECON CODA AMPLIT PERI AZIMU VELO AIN AR TRES W  DIS CAZ7
 BAR2 SZ IP       1640 54.89                             148    0.1810 60.4  56 
 BAR2 SZ ES       1641  7.72                             148   -0.0610 60.4  56 
 BAR2 SZ I        1641  9.44        64.0 0.29                          60.4  56 
 RUS  HZ EP       1640 56.08                             143    0.0210 74.8 125 
 RUS  HN ES   1   1641 10.22                             143    0.03 7 74.8 125 
 RUS  HN I        1641 11.56        15.2 0.25                          74.8 125 
 BRR  HZ EP       1640 56.55                             136   -0.1310 91.3 355 
 BRR  HN ES       1641 11.41                             136    0.1110 91.3 355 
 BRR  HZ I        1641 12.71         9.3 0.11                          91.3 355 
 PTB  HZ IP     D 1640 56.86                             135   -0.1810 95.2 287 
 PTB  HN ES       1641 11.82                             135   -0.1110 95.2 287 
 PTB  HZ I        1641 14.35        16.6 0.22                          95.2 287 
 NOR  HN ES   1   1641 23.37                             119    0.37 7  158 240 
 NOR  HZ I        1641 26.42         8.1 0.17                           158 240 
 CHI  HN ES   1   1641 28.45                             116   -0.20 7  183 183 
 ZAR  HZ EP   1   1641  6.79                             114    0.14 7  190 315 
 MON  HZ EP   4   1641 24.39                             100   -1.56 0  355 321 
 MON  HZ I        1641 24.91         3.4 0.20                           355 321 
                                                                                
