 2011  630 1813 14.2 L   6.791 -73.101150.4  RSN 23 0.5 3.3LRSN                1
 GAP=105        1.06       3.8     5.4  6.9 -0.6198E+01  0.9600E+01  0.9048E+01E
 Epicentro: LOS SANTOS - SANTANDER                                             3
 ACTION:UP  11-07-14 19:09 OP:ep   STATUS:               ID:20110630181314 L   I
 2011-06-30-1811-33S.COL___140                                                 6
 STAT SP IPHASW D HRMM SECON CODA AMPLIT PERI AZIMU VELO SNR AR TRES W  DIS CAZ7
 BTL  SZ IP       1813 34.72                             171     0.310   23 308 
 BAR2 SZ EP       1813 34.17                             170    -0.210   24 202 
 BAR2 SZ I        1813 50.50       295.0 0.33                            24 202 
 GIR2 SZ EP       1813 34.33                             167    -0.110   33 342 
 PAM  SZ EP       1813 36.82                             153     0.010   75  36 
 PAM  SN ES   1   1813 54.39                             153     0.0 7   75  36 
 BRR  HZ IP     C 1813 36.11                             152     0.010   76 297 
 BRR  HN ES   1   1813 53.53                             152     0.3 7   76 297 
 BRR  HZ I        1813 55.23       309.8 0.14                            76 297 
 RUS  HZ IP       1813 37.96                             145    -0.410   99 179 
 RUS  HN ES   2   1813 56.82                             145    -0.3 5   99 179 
 RUS  HZ I        1813 59.81       115.4 0.50                            99 179 
 BRI  SZ IP       1813 38.76                             143     0.310  108  18 
 BRI  SZ ES   1   1813 56.81                             143    -0.6 7  108  18 
 GUE  SZ EP   3   1813 40.60                             141     1.3 2  117  10 
 GRA  SZ IP       1813 40.00                             138     0.210  125  15 
 GRA  SZ ES   1   1813 59.89                             138     0.1 7  125  15 
 GRA  SZ I        1814  0.87       247.6 0.33                           125  15 
 OCA  SZ EP       1813 42.60                             130    -0.4 9  162 351 
 OCA  SZ I        1814  9.56       260.5 0.28                           162 351 
 YOP  SZ EP       1813 44.62                             128     0.3 9  176 155 
 YOP  SN ES   2   1814  8.72                             128     1.0 4  176 155 
 YOP  SZ I        1814 12.66        58.1 0.34                           176 155 
 NOR  SZ EP       1813 49.90                             119    -0.7 8  238 235 
 NOR  SN ES   3   1814 18.32                             119    -0.6 2  238 235 
 CHI  HZ EP       1813 52.20                             118     0.0 8  249 196 
 CHI  HN ES   1   1814 21.28                             118    -0.5 6  249 196 
 CHI  HZ I        1814 25.12        70.0 0.57                           249 196 
 ROSC BZ EP       1813 54.11                             117     1.4 8  254 212 
 ROSC BZ I        1814 28.05       133.9 0.48                           254 212 
 HEL  HZ EP       1813 55.67                             115     0.5 7  277 256 
 HEL  HN ES   3   1814 25.22                             115    -1.9 2  277 256 
 HEL  HZ I        1814 32.27        78.8 0.32                           277 256 
 VIL  SZ EP   2   1813 57.55                             113    -0.3 4  303 193 
 VIL  SN ES   3   1814 30.33                             113    -1.5 2  303 193 
 GUY  SZ EP       1813 58.80                             113     0.1 7  307 236 
 GUY  SN ES   2   1814 33.24                             113    -0.1 4  307 236 
 GUY  SZ I        1814 41.61       152.4 0.44                           307 236 
 RREF HZ EP       1814  1.15                             111     0.3 7  325 230 
 RREF HZ I        1814 46.71       116.1 0.30                           325 230 
 DBB  SZ EP       1814  2.39                             110     0.0 7  344 274 
 TOL  SZ EP       1814  2.82                             110    -0.1 6  346 225 
 SDV  BZ EP       1814  3.01                             109    -1.0 6  357  50 
 PRA  HZ EP       1814  7.72                             107    -0.3 6  394 210 
 PRA  HZ I        1814 52.02       144.7 0.17                           394 210 
 SJA  SZ EP   3   1814  8.49                             107    -0.4 1  400 194 
 SJA  SZ I        1814 57.27        90.3 0.31                           400 194 
                                                                                
