 2012 1230 1900  5.1 L   6.800 -73.120145.9  RSN  9 0.4 2.1LRSN                1
 GAP=240        0.90       4.6     5.5  6.0  0.9026E+01  0.1012E+02  0.7844E+01E
 Epicentro: LOS SANTOS - SANTANDER                                             3
 ACTION:UPD 13-01-04 14:31 OP:ep   STATUS:               ID:20121230190005 L   I
 2012-12-30-1900-00M.COL___239                                                 6
 STAT SP IPHASW D HRMM SECON CODA AMPLIT PERI AZIMU VELO AIN AR TRES W  DIS CAZ7
 BAR2 SZ EP       19 0 24.61                             170   -0.1310 24.0 197 
 BAR2 SZ ES       19 0 39.67                             170   -0.4010 24.0 197 
 BAR2 SZ I        19 0 41.53        52.4 0.22                          24.0 197 
 BRR  HZ EP       19 0 26.87                             152    0.4810 73.7 297 
 BRR  HE ES       19 0 43.55                             152    0.5510 73.7 297 
 BRR  HZ I        19 0 48.04        22.5 0.18                          73.7 297 
 RUS  HZ EP       19 0 28.88                             144    0.0510  100 178 
 RUS  HN ES       19 0 47.33                             144   -0.0310  100 178 
 RUS  HN I        19 0 48.43        19.0 0.25                           100 178 
 PTB  HZ EP       19 0 31.71                             131   -0.60 9  151 259 
 PTB  HE ES   1   19 0 53.30                             131   -0.25 7  151 259 
 PTB  HZ I        19 0 55.33        13.7 0.11                           151 259 
 ZAR  HE ES   1   19 1  2.77                             122   -0.56 6  207 292 
 ZAR  HZ I        19 1  8.14        11.6 0.23                           207 292 
 NOR  HZ EP   1   19 0 40.54                             118   -0.53 6  237 235 
 NOR  HN ES       19 1  9.49                             118    0.35 8  237 235 
 NOR  HZ I        19 1 18.72         9.2 0.46                           237 235 
 CHI  HZ EP   1   19 0 43.02                             117    0.15 6  249 196 
 CHI  HN ES       19 1 12.38                             117    0.04 8  249 196 
 CHI  HZ I        19 1 16.51         6.4 0.40                           249 196 
 ROSC BZ EP   1   19 0 44.19                             116    0.82 6  254 212 
 ROSC BZ I        19 1 19.45        17.9 0.55                           254 212 
 HEL  HZ EP   1   19 0 45.48                             114   -0.13 6  275 256 
 HEL  HZ I        19 1 23.04         6.3 0.28                           275 256 
                                                                                
