 2014  730 1501  4.6 L   7.485 -73.165122.0  RSN  5 0.5 1.7LRSN                1
 GAP=215        1.21       4.7     7.7 13.1  0.9991E+01  0.7808E+01 -0.1289E+02E
 Epicentro: EL PLAYON - SANTANDER                                              3
 ACTION:UPD 15-03-16 20:48 OP:nd   STATUS:               ID:20140730150104 L   I
 OLDACT:REG 14-07-30 22:19 OP:carl STATUS:               ID:20140730145814     3
 2014-07-30-1458-14M.COL___256                                                 6
 STAT SP IPHASW D HRMM SECON CODA AMPLIT PERI AZIMU VELO AIN AR TRES W  DIS CAZ7
 BAR2 SZ EP       15 1 25.68                             139    0.0610 98.7 181 
 BAR2 SZ ES       15 1 42.18                             139    0.1910 98.7 181 
 BAR2 SZ I        15 1 43.32         8.0 0.30            136           98.7 181 
 PTB  HZ EP       15 1 32.32                             121   -0.42 9  177 234 
 PTB  HN ES       15 1 53.67                             121   -0.99 9  177 234 
 PTB  HZ I        15 1 57.74         7.7 0.42            119            177 234 
 SML  HZ EP       15 1 32.26                             121   -0.42 9  177 326 
 SML  HN ES       15 1 54.45                             121   -0.11 9  177 326 
 ZAR  HZ EP       15 1 34.04                             119    0.26 9  187 270 
 ZAR  HN ES       15 1 57.47                             119    0.94 9  187 270 
 ZAR  HZ I        15 1 59.65         6.8 0.24            118            187 270 
 SPBC HZ EP       15 1 38.75                             114    0.57 8  226 206 
 SPBC HN ES       15 2  4.32                             114   -0.03 8  226 206 
 SPBC HZ I        15 2 12.17         4.6 0.36            113            226 206 
                                                                                
