 2016  530 1807  1.8 L   6.782 -73.166145.7  RSN  6 0.3 1.8LRSN                1
 GAP=135        0.83       3.9     4.1  5.6 -0.3990E+01  0.3084E+01  0.2319E+01E
 Epicentro: LOS SANTOS - SANTANDER                                             3
 ACTION:UPD 16-08-18 17:50 OP:cam  STATUS:               ID:20160530180701 L   I
 OLDACT:DUP 16-05-30 21:29 OP:ar   STATUS:               ID:20160530175744d    3
 2016-05-30-1757-43M.COL___316                                                 6
 STAT SP IPHASW D HRMM SECON CODA AMPLIT PERI AZIMU VELO AIN AR TRES W  DIS CAZ7
 BAR2 EZ EP       18 7 21.26                             171   -0.0910 21.1 185 
 BAR2 EZ ES       18 7 36.55                             171   -0.0810 21.1 185 
 BAR2 EZ I        18 7 37.43        12.5 0.20            171           21.1 185 
 BRR  HZ EP       18 7 23.11                             153    0.2510 70.2 301 
 BRR  HN ES       18 7 39.92                             153    0.6110 70.2 301 
 BRR  HZ I        18 7 43.15        12.8 0.46            151           70.2 301 
 PAM  EZ EP       18 7 24.18                             150    0.0210 80.4  40 
 PAM  EN ES       18 7 41.20                             150   -0.4210 80.4  40 
 PAM  EZ I        18 7 43.33        18.2 0.52            153           80.4  40 
 RUS  HZ EP       18 7 25.35                             144   -0.0410 98.8 175 
 RUS  HN ES       18 7 44.09                             144    0.2810 98.8 175 
 RUS  HZ I        18 7 44.92         9.3 0.32            147           98.8 175 
 PTB  HZ EP       18 7 28.35                             132   -0.15 9  145 259 
 PTB  HN ES       18 7 48.85                             132   -0.50 9  145 259 
 PTB  HZ I        18 7 55.61         4.3 0.22            132            145 259 
 SPBC HZ EP       18 7 30.30                             130    0.32 9  160 219 
 SPBC HN ES       18 7 51.72                             130   -0.27 9  160 219 
 SPBC HZ I        18 7 55.38        19.5 0.10            131            160 219 
                                                                                
