 2013 1230 1324 54.2 L   6.806 -73.154136.0  RSN 12 0.5 2.1LRSN                1
 GAP= 70        1.25       3.6     3.5  6.6 -0.1002E+01  0.4852E+01  0.5203E+01E
 Epicentro: LOS SANTOS - SANTANDER                                             3
 ACTION:UPD 14-01-13 10:22 OP:ep   STATUS:               ID:20131230132454 L   I
 OLDACT:REG 13-12-30 15:52 OP:stll STATUS:               ID:20131230131808     3
 2013-12-30-1318-08M.COL___240                                                 6
 STAT SP IPHASW D HRMM SECON CODA AMPLIT PERI AZIMU VELO AIN AR TRES W  DIS CAZ7
 BAR2 SZ IP     C 1325 12.64                             170   -0.0010 23.8 188 
 BAR2 SZ ES       1325 27.20                             170    0.1510 23.8 188 
 BRR  HZ IP     C 1325 14.39                             151    0.1810 70.1 298 
 BRR  HN ES       1325 30.59                             151    0.7510 70.1 298 
 PAM  SZ EP       1325 15.58                             149    0.2110 77.5  40 
 PAM  SN ES       1325 32.05                             149    0.1610 77.5  40 
 PAM  SZ I        1325 34.43        44.2 0.44            151           77.5  40 
 RUS  HZ EP       1325 16.76                             142   -0.2710  101 176 
 RUS  HZ I        1325 17.85        15.1 0.12            143            101 176 
 RUS  HN ES       1325 34.84                             142   -0.0210  101 176 
 PTB  HZ EP       1325 19.34                             130   -0.95 9  147 259 
 PTB  HE ES       1325 40.19                             130   -0.47 9  147 259 
 TAM  HZ EP       1325 21.10                             128   -0.10 9  156 105 
 TAM  HZ I        1325 21.35        26.3 0.22            130            156 105 
 TAM  HN ES       1325 42.35                             128    0.08 9  156 105 
 OCA  HN ES       1325 42.35                             128   -0.77 9  160 353 
 SPBC HZ EP       1325 21.91                             127   -0.03 9  163 219 
 SPBC HN ES       1325 43.61                             127    0.02 9  163 219 
 SPBC HZ I        1325 47.44        16.1 0.26            127            163 219 
 ZAR  HZ EP       1325 26.13                             120    0.24 9  203 292 
 ZAR  HN ES       1325 50.52                             120   -0.10 9  203 292 
 ZAR  HZ I        1325 59.10        20.0 0.14            120            203 292 
 NOR  HZ EP       1325 29.36                             116    0.04 8  234 234 
 NOR  HE ES       1325 56.33                             116   -0.40 8  234 234 
 NOR  HZ I        1326  2.46        10.2 0.18            117            234 234 
 CHI  HZ EP       1325 31.14                             115   -0.25 8  249 195 
 CHI  HN ES       1325 59.90                             115   -0.52 8  249 195 
 CHI  HZ I        1326  3.91         5.1 0.62            116            249 195 
 GUY2CHZ EP       1325 39.26                             110    1.95 7  301 235 
 GUY2CHE ES       1326 11.66                             110    0.71 7  301 235 
 GUY2CHZ I        1326 18.13         6.2 0.24                           301 235 
                                                                                
