 2016  330 1134 17.1 L   6.804 -73.215139.1  RSN  5 0.3 1.5LRSN                1
 GAP=146        0.85       4.7     4.7  6.7 -0.9578E+01  0.9893E+01 -0.1848E+01E
 Epicentro: ZAPATOCA - SANTANDER                                               3
 ACTION:UPD 16-05-13 21:29 OP:cam  STATUS:               ID:20160330113417 L   I
 OLDACT:REG 16-03-30 20:25 OP:drio STATUS:               ID:20160330112743     3
 2016-03-30-1127-43M.COL___310                                                 6
 STAT SP IPHASW D HRMM SECON CODA AMPLIT PERI AZIMU VELO AIN AR TRES W  DIS CAZ7
 BAR2 EZ ES       1134 50.17                             170   -0.5010 23.7 171 
 BAR2 EZ I        1134 51.85         7.6 0.44            171           23.7 171 
 PAM  EZ EP       1134 39.04                             148    0.0910 82.2  44 
 PAM  EN ES       1134 56.29                             148    0.3210 82.2  44 
 PAM  EZ I        1134 58.16         5.2 0.30            151           82.2  44 
 RUS  HZ EP       1134 39.91                             142   -0.4310  102 172 
 RUS  HE ES       1134 58.65                             142    0.2210  102 172 
 RUS  HZ I        1135  0.07         4.1 0.42            145            102 172 
 PTB  HZ EP       1134 42.51                             132   -0.38 9  140 258 
 PTB  HE ES       1135  3.08                             132    0.11 9  140 258 
 PTB  HZ I        1135  6.81         3.2 0.12            133            140 258 
 SPBC HZ EP       1134 45.07                             128    0.36 9  159 217 
 SPBC HE ES       1135  6.49                             128    0.27 9  159 217 
 SPBC HZ I        1135  9.93         7.4 0.40            130            159 217 
                                                                                
