 2017  430 1512 49.6 L   6.841 -73.119151.2  RSN 19 0.5 2.3LRSN                1
 GAP=113        0.88       3.1     3.1  4.8 -0.6846E+00  0.2716E+01  0.2629E+01E
 Epicentro: LOS SANTOS - SANTANDER                                             3
 ACTION:UPD 17-05-30 21:17 OP:jn   STATUS:               ID:20170430151249 L   I
 OLDACT:UP  17-04-30 23:03 OP:and  STATUS:               ID:20170430150740     3
 OLDACT:UP  17-04-30 23:03 OP:and  STATUS:               ID:20170430150740     3
 OLDACT:UP  17-04-30 23:01 OP:and  STATUS:               ID:20170430150740     3
 OLDACT:UP  17-04-30 23:01 OP:and  STATUS:               ID:20170430150740     3
 OLDACT:UP  17-04-30 23:00 OP:and  STATUS:               ID:20170430150740     3
 OLDACT:UP  17-04-30 23:00 OP:and  STATUS:               ID:20170430150740     3
 OLDACT:UP  17-04-30 22:58 OP:and  STATUS:               ID:20170430150740     3
 OLDACT:UP  17-04-30 22:57 OP:and  STATUS:               ID:20170430150740     3
 OLDACT:REG 17-04-30 20:47 OP:and  STATUS:               ID:20170430150740     3
 2017-04-30-1508-00M.COL___374                                                 6
 STAT SP IPHASW D HRMM SECON CODA AMPLIT PERI AZIMU VELO AIN AR TRES W  DIS CAZ7
 BRR  HZ EP       1513 11.70                             153    0.3110 71.8 294 
 BRR  HN ES       1513 28.90                             153    0.5310 71.8 294 
 BRR  HZ I        1513 32.83        34.3 0.28            152           71.8 294 
 PAM  EZ IP     C 1513 12.73                             153    0.6210 72.0  40 
 PAM  EN ES       1513 29.60                             153   -0.0510 72.0  40 
 PAM  EZ I        1513 32.15        27.7 0.52            160           72.0  40 
 RUS  HZ IP     D 1513 13.88                             144   -0.3310  105 178 
 RUS  HN ES       1513 32.84                             144   -0.5610  105 178 
 RUS  HZ I        1513 34.22         8.8 0.27            143            105 178 
 PTB  HZ EP       1513 16.75                             132   -0.62 9  152 257 
 PTB  HN ES   3   1513 37.51                             132   -1.51 2  152 257 
 PTB  HZ I        1513 44.18        16.2 0.42            132            152 257 
 SPBC HZ EP       1513 18.96                             129   -0.08 9  169 219 
 SPBC HN ES       1513 41.67                             129   -0.32 9  169 219 
 SPBC HZ I        1513 45.78        44.4 0.24            129            169 219 
 YPLC HZ EP       1513 20.27                             127    0.21 9  179 153 
 YPLC HE ES   2   1513 44.78                             127    0.97 4  179 153 
 YPLC HZ I        1513 46.01         8.4 0.28            129            179 153 
 ZAR  HZ EP   2   1513 23.00                             123    0.47 4  205 291 
 ZAR  HN ES       1513 47.95                             123   -0.26 9  205 291 
 ZAR  HZ I        1513 53.16        17.1 0.32            124            205 291 
 TABC EZ ES   2   1513 55.38                             120    0.53 4  235 211 
 TABC EZ I        1514  1.38        26.3 0.54            120            235 211 
 NOR  HZ EP       1513 26.28                             119    0.08 8  240 234 
 NOR  HN ES       1513 54.34                             119   -0.40 8  240 234 
 NOR  HZ I        1514  1.76        12.5 0.14            119            240 234 
 CHI  HZ IP     D 1513 28.60                             118    0.42 8  254 196 
 CHI  HN ES   3   1513 57.37                             118   -0.88 2  254 196 
 CHI  HZ I        1514  1.22        11.9 0.54            118            254 196 
 ROSC BZ EP   9   1513 30.29                             117    1.67 0  258 211 
 ROSC BN ES       1514  0.53                             116   -0.18 8  258 211 
 ROSC BZ I        1514  4.41        26.6 0.40            118            258 211 
 HEL  HZ EP   3   1513 31.96                             115    1.41 2  276 255 
 HEL  HN ES       1514  2.55                             115    0.07 7  276 255 
 HEL  HZ I        1514  8.05         6.4 0.24            116            276 255 
 VIL  EZ I        1514 17.64        22.0 0.42            114            308 192 
 PTGC HZ EP   2   1513 32.98                             112   -1.10 3  312 159 
 ELA  HZ EP   9   1513 39.66                             111    2.37 0  334 229 
 ELA  HE ES       1514 16.98                             110    0.13 7  334 229 
 ELA  HZ I        1514 26.53         7.8 0.50            112            334 229 
 CBOC HZ EP       1513 37.83                             110    0.59 7  338 252 
 CBOC HE ES       1514 14.61                             110    0.22 7  338 252 
 CBOC HZ I        1514 22.20         2.7 0.36            111            338 252 
 ANIL HN ES   4   1514 22.42                             109    2.68 0  363 224 
 ORTC HZ EP       1513 44.59                             107    0.23 6  401 216 
 ORTC HN ES   2   1514 27.67                             107    0.62 3  401 216 
 ORTC HZ I        1514 30.78         4.7 0.34            108            401 216 
 SJC  HZ EP       1513 44.20                             106   -0.91 6  407 326 
 SJC  HN ES   3   1514 26.54                             106   -1.85 1  407 326 
 YOT  HZ EP       1513 53.18                             104   -0.25 5  477 229 
                                                                                
