 2017  730 1207 34.1 L   6.372 -73.661103.6  RSN  6 0.3 1.1LRSN                1
 GAP= 80        0.65       3.0     3.2  5.2  0.3359E+01  0.5109E+01 -0.2015E+01E
 Epicentro: SANTA HELENA DEL OPON - SANTANDER                                  3
 ACTION:UPD 17-08-30 15:38 OP:rebc STATUS:               ID:20170730120734 L   I
 OLDACT:UP  17-07-30 22:44 OP:and  STATUS:               ID:20170730115739     3
 OLDACT:UP  17-07-30 22:43 OP:and  STATUS:               ID:20170730115739     3
 OLDACT:REG 17-07-30 20:57 OP:and  STATUS:               ID:20170730115739     3
 2017-07-30-1158-00M.COL___380                                                 6
 STAT SP IPHASW D HRMM SECON CODA AMPLIT PERI AZIMU VELO AIN AR TRES W  DIS CAZ7
 BAR2 EZ IP     C 12 7 50.49                             148    0.1410 58.2  65 
 BAR2 EZ ES       12 8  3.38                             148    0.3710 58.2  65 
 BAR2 EZ I        12 8  5.12         5.7 0.34            151           58.2  65 
 BRR  HZ EP       12 7 51.29                             138   -0.4110 81.5 356 
 BRR  HN ES     D 12 8  5.15                             138   -0.2710 81.5 356 
 RUS  HN ES       12 8  6.73                             138   -0.1310 83.1 130 
 RUS  HZ I        12 8  8.13         3.7 0.46            140           83.1 130 
 PTB  HZ EP   9 C 12 7 51.53                             136   -0.90 0 89.9 282 
 PTB  HN ES       12 8  5.75                             136   -0.0610 89.9 282 
 PTB  HZ I        12 8  7.36         1.6 0.17            136           89.9 282 
 SPBC HN ES   1   12 8  7.14                             135   -0.03 7 91.7 210 
 SPBC HZ I        12 8  9.60         2.5 0.10            135           91.7 210 
 ZAR  HZ EP       12 8  1.82                             114    0.17 9  181 313 
 ZAR  HN ES       12 8 23.37                             114    0.24 9  181 313 
 ZAR  HZ I        12 8 26.76         1.8 0.26            115            181 313 
                                                                                
