 2016  330 1102  3.7 L   6.808 -73.158152.0  RSN 14 0.5 2.2LRSN                1
 GAP=118        1.10       3.3     4.0  5.7 -0.2183E+01  0.6368E+01 -0.2721E+01E
 Epicentro: LOS SANTOS - SANTANDER                                             3
 ACTION:UPD 16-05-13 21:29 OP:cam  STATUS:               ID:20160330110203 L   I
 OLDACT:UP  16-03-30 22:22 OP:drio STATUS:               ID:20160330105748     3
 OLDACT:UP  16-03-30 22:22 OP:drio STATUS:               ID:20160330105748     3
 OLDACT:UP  16-03-30 22:15 OP:drio STATUS:               ID:20160330105748     3
 OLDACT:REG 16-03-30 20:24 OP:drio STATUS:               ID:20160330105748     3
 2016-03-30-1057-48M.COL___310                                                 6
 STAT SP IPHASW D HRMM SECON CODA AMPLIT PERI AZIMU VELO AIN AR TRES W  DIS CAZ7
 BAR2 EZ IP     C 11 2 24.08                             171   -0.0110 24.0 187 
 BAR2 EZ ES       11 2 39.67                             171   -0.3210 24.0 187 
 BAR2 EZ I        11 2 40.96        27.1 0.30            171           24.0 187 
 PAM  EZ EP       11 2 27.15                             152    0.5610 77.6  41 
 PAM  EE ES       11 2 44.26                             152   -0.1810 77.6  41 
 PAM  EZ I        11 2 48.43        11.7 0.36            154           77.6  41 
 RUS  HZ EP       11 2 28.17                             145    0.0410  102 175 
 RUS  HE ES       11 2 46.94                             145   -0.2510  102 175 
 RUS  HZ I        11 2 49.29        18.4 0.50            148            102 175 
 PTB  HZ EP       11 2 30.67                             133   -0.41 9  147 258 
 PTB  HN ES       11 2 52.10                             133   -0.34 9  147 258 
 PTB  HZ I        11 2 55.09        25.8 0.26            133            147 258 
 SPBC HZ EP       11 2 33.05                             130    0.39 9  163 218 
 SPBC HE ES       11 2 55.24                             130   -0.02 9  163 218 
 ZAR  HZ EP       11 2 36.89                             124    0.49 9  203 292 
 ZAR  HN ES       11 3  2.19                             124    0.28 9  203 292 
 ZAR  HZ I        11 3  8.15        29.2 0.36            124            203 292 
 NOR  HZ EP       11 2 40.18                             120    0.45 8  234 234 
 NOR  HE ES       11 3  8.77                             120    0.93 8  234 234 
 NOR  HZ I        11 3 12.35        18.2 0.20            121            234 234 
 CHI  HZ EP       11 2 42.22                             118    0.42 8  249 195 
 CHI  HE ES       11 3 11.85                             118    0.33 8  249 195 
 CHI  HZ I        11 3 17.33         8.3 0.28            120            249 195 
 HEL  HZ EP       11 2 43.93                             116   -0.19 8  271 256 
 HEL  HE ES       11 3 14.97                             116   -0.67 8  271 256 
 HEL  HZ I        11 3 23.30         9.2 0.24            116            271 256 
 URE  HZ EP       11 2 43.99                             115   -0.91 7  282 292 
 URE  HN ES   4   11 3 15.06                             115   -1.99 0  282 292 
 URE  HZ I        11 3 28.18        14.8 0.32            115            282 292 
 GUY2CHZ EP   4   11 2 49.04                             113    1.51 0  301 234 
 GUY2CHE ES   4   11 3 25.24                             113    3.51 0  301 234 
 GUY2CHZ I        11 3 29.88         9.1 0.52                           301 234 
 SOCV BZ EP   4   11 2 45.65                             113   -1.45 0  302  57 
 SOCV BN ES   4   11 3 17.99                             113   -2.97 0  302  57 
 PTGC HZ EP       11 2 47.14                             112   -0.84 7  310 158 
 PTGC HE ES   4   11 3 20.74                             112   -1.78 0  310 158 
 LL6C HZ EP       11 2 49.41                             111   -0.15 7  324 358 
 LL6C HE ES       11 3 26.11                             111    0.77 7  324 358 
 LL6C HZ I        11 3 29.47         4.9 0.62            113            324 358 
 SJC  HZ EP       11 2 58.31                             107   -0.99 6  408 327 
 SJC  HN ES   4   11 3 41.53                             107   -1.14 0  408 327 
 SJC  HZ I        11 3 47.42         2.5 0.48            107            408 327 
                                                                                
