 2010  530 1227 16.6 L   6.735 -73.040146.6  RSN  7 0.2 1.8LRSN                1
 GAP=187        0.50       5.4     9.5  4.8 -0.4464E+02  0.2281E+02 -0.1257E+02E
 Epicentro: ARATOCA - SANTANDER                                                3
 ACTION:UP  10-08-24 10:07 OP:vdl  STATUS:               ID:20100530122716 L   I
 2010-05-30-1225-45S.COL___109                                                 6
 STAT SP IPHASW D HRMM SECON CODA AMPLIT PERI AZIMU VELO SNR AR TRES W  DIS CAZ7
 BAR2 SZ EP       1227 36.49                             171     0.210   22 225 
 BAR2 SZ ES       1227 51.61                             171    -0.110   22 225 
 GUE  SZ EP       1227 41.53                             138    -0.310  122   6 
 GRA  SZ EP       1227 42.28                             136     0.010  130  12 
 GRA  SZ ES       1228  2.29                             136     0.010  130  12 
 OCA  SZ EP       1227 45.93                             128     0.1 9  169 350 
 OCA  SZ I        1228  8.74         6.1 0.54                           169 350 
 CHI  HZ I        1227 57.20         3.2 0.48                           245 198 
 CHI  HN ES   3   1228 23.10                             118     0.0 2  245 198 
 RREF BN ES   1   1228 39.98                             111     0.3 5  326 232 
 RREF BZ I        1228 48.09         3.7 0.50                           326 232 
 TOL  SZ ES   1   1228 42.78                             109    -0.4 5  347 227 
                                                                                
