 2017 1130 1246 35.5 L   6.789 -73.142146.3  RSN 14 0.5 1.9LRSN                1
 GAP=113        0.61       2.2     2.8  4.2 -0.1178E+01  0.1669E+01  0.1339E+01E
 Epicentro: LOS SANTOS - SANTANDER                                             3
 ACTION:UPD 17-12-12 20:02 OP:rebc STATUS:               ID:20171130124635 L   I
 OLDACT:UP  17-11-30 23:03 OP:mg   STATUS:               ID:20171130123742     3
 OLDACT:REG 17-11-30 20:58 OP:mg   STATUS:               ID:20171130123742     3
 2017-11-30-1238-00M.COL___474                                                 6
 STAT SP IPHASW D HRMM SECON CODA AMPLIT PERI AZIMU VELO AIN AR TRES W  DIS CAZ7
 BAR2 EZ EP       1246 55.21                             171    0.0510 22.2 192 
 BAR2 EZ ES   2   1247 10.68                             171    0.17 5 22.2 192 
 BAR2 EZ I        1247 13.14        21.8 0.34            167           22.2 192 
 PAM  EZ IP     D 1246 57.92                             151    0.1210 78.1  39 
 PAM  EN ES       1247 15.22                             151    0.0110 78.1  39 
 PAM  EZ I        1247 17.44        11.9 0.46            158           78.1  39 
 RUS  HZ EP       1246 59.00                             144   -0.2010 99.3 176 
 RUS  HN ES   1   1247 17.48                             144   -0.22 7 99.3 176 
 RUS  HZ I        1247 20.23         5.6 0.22            145           99.3 176 
 PTB  HZ EP   2   1247  2.59                             132    0.07 5  148 259 
 PTB  HN ES   1   1247 23.15                             132   -0.45 7  148 259 
 PTB  HZ I        1247 29.11         5.6 0.16            133            148 259 
 SPBC HZ EP       1247  3.96                             129   -0.00 9  162 219 
 SPBC HN ES       1247 26.09                             129   -0.09 9  162 219 
 SPBC HZ I        1247 33.26        16.8 0.28            130            162 219 
 YPLC HZ EP       1247  5.20                             127    0.00 9  176 151 
 YPLC HN ES   1   1247 28.96                             127    0.59 7  176 151 
 YPLC HZ I        1247 33.54         5.4 0.25            130            176 151 
 ZAR  HN ES   2   1247 33.72                             122    0.26 4  205 292 
 ZAR  HZ I        1247 39.47         7.9 0.18            125            205 292 
 NOR  HZ EP   1   1247 10.77                             119   -0.44 6  234 235 
 NOR  HE ES   1   1247 39.76                             119    0.69 6  234 235 
 NOR  HZ I        1247 43.39        10.6 0.23            120            234 235 
 CHI  HZ EP       1247 13.09                             117   -0.01 8  248 195 
 CHI  HN ES   1   1247 42.23                             117   -0.21 6  248 195 
 CHI  HZ I        1247 50.74         3.8 0.44            119            248 195 
 DRL03HZ EP   1   1247 17.55                             113    0.28 5  290 353 
 DRL03HN ES   1   1247 49.73                             113   -0.12 5  290 353 
 GUY2CHZ EP   3   1247 21.39                             112    2.31 2  301 235 
 GUY2CHZ I        1248  0.08         6.0 0.29                           301 235 
 PTGC HZ EP   2   1247 18.08                             112   -1.14 4  307 159 
 PRA  HZ EP       1247 29.02                             107    0.09 6  391 210 
 PRA  HN ES   3   1248 13.19                             107    2.58 1  391 210 
 PRA  HZ I        1248 16.87         3.4 0.28            109            391 210 
 SJC  HZ EP   9   1247 29.04                             106   -2.17 0  410 327 
 SJC  HN ES       1248 12.52                             105    0.01 6  410 327 
                                                                                
