 2014  930 1505 55.8 L   6.650 -73.316130.0  RSN  5 0.6 1.6LRSN                1
 GAP=154        1.45       8.2     8.6 12.2  0.3128E+01  0.3651E+02 -0.4823E+01E
 Epicentro: GALAN - SANTANDER                                                  3
 ACTION:UPD 14-10-03 23:10 OP:nd   STATUS:               ID:20140930150555 L   I
 OLDACT:UP  14-10-01 02:20 OP:cam  STATUS:               ID:20140930150000     3
 OLDACT:REG 14-09-30 20:28 OP:cam  STATUS:               ID:20140930150000     3
 2014-09-30-1500-00M.COL___252                                                 6
 STAT SP IPHASW D HRMM SECON CODA AMPLIT PERI AZIMU VELO AIN AR TRES W  DIS CAZ7
 BAR2 SZ EP       15 6 13.43                             173    0.0210 16.1 114 
 BAR2 SZ ES       15 6 26.57                             173   -0.5610 16.1 114 
 BAR2 SZ I        15 6 28.08         4.4 0.20            176           16.1 114 
 BRR  HZ EP       15 6 15.04                             151    0.0210 66.9 319 
 BRR  HN ES       15 6 30.83                             151    0.8410 66.9 319 
 BRR  HZ I        15 6 31.86         9.8 0.16            148           66.9 319 
 PTB  HZ EP       15 6 19.01                             133   -0.5810  127 265 
 PTB  HN ES       15 6 37.32                             133   -0.8110  127 265 
 PTB  HZ I        15 6 38.66         5.5 0.14            133            127 265 
 SPBC HN ES       15 6 41.08                             130    0.85 9  139 217 
 ZAR  HZ EP   1   15 6 26.79                             120    0.56 6  194 299 
 ZAR  HN ES       15 6 49.93                             120   -0.03 9  194 299 
 ZAR  HZ I        15 6 55.50         6.9 0.46            120            194 299 
                                                                                
