 2015  730 1052 26.5 L   6.787 -73.146142.4  RSN 11 0.4 2.0LRSN                1
 GAP=183        1.06       3.5     5.0  6.4 -0.1764E+01  0.1276E+02  0.6628E+00E
 Epicentro: LOS SANTOS - SANTANDER                                             3
 ACTION:UPD 15-09-08 21:51 OP:cam  STATUS:               ID:20150730105226 L   I
 OLDACT:UP  15-07-30 22:12 OP:drio STATUS:               ID:20150730104748     3
 OLDACT:REG 15-07-30 19:45 OP:drio STATUS:               ID:20150730104748     3
 2015-07-30-1047-48M.COL___315                                                 6
 STAT SP IPHASW D HRMM SECON CODA AMPLIT PERI AZIMU VELO AIN AR TRES W  DIS CAZ7
 BAR2 EZ EP       1052 45.42                             171   -0.2310 21.9 191 
 BAR2 EZ ES       1053  0.41                             171   -0.2110 21.9 191 
 BAR2 EZ I        1053  2.40        16.4 0.16            171           21.9 191 
 BRR  HZ EP       1052 47.42                             152    0.1410 71.9 300 
 BRR  HN ES       1053  4.12                             152    0.6010 71.9 300 
 RUS  HZ EP       1052 49.53                             143   -0.2410 99.2 176 
 RUS  HE ES       1053  8.31                             143    0.3510 99.2 176 
 RUS  HZ I        1053 10.64        11.0 0.52            147           99.2 176 
 OCA  HZ EP       1052 54.34                             129   -0.30 9  162 353 
 OCA  HE ES       1053 16.59                             129   -0.03 9  162 353 
 OCA  HZ I        1053 21.44        18.1 0.28            128            162 353 
 ZAR  HZ EP       1052 59.58                             121    0.84 9  205 293 
 ZAR  HN ES       1053 23.25                             121   -0.67 9  205 293 
 ZAR  HZ I        1053 29.17        13.9 0.68            120            205 293 
 NOR  HZ EP       1053  1.59                             118   -0.31 8  234 235 
 NOR  HN ES       1053 28.55                             118   -1.00 8  234 235 
 NOR  HZ I        1053 31.54         7.6 0.28            118            234 235 
 HEL  HZ EP       1053  6.71                             114    0.25 8  272 256 
 HEL  HE ES       1053 37.58                             114   -0.08 8  272 256 
 HEL  HZ I        1053 43.59         5.3 0.40            114            272 256 
 GUY2CHZ EP       1053  9.98                             112    0.16 7  300 235 
 GUY2CHN ES       1053 44.04                             112    0.40 7  300 235 
 GUY2CHZ I        1053 54.12         4.5 0.36                           300 235 
 TOL  SZ EP   4   1053 15.68                             109    1.22 0  343 225 
 TOL  SE ES       1053 52.42                             109    0.51 7  343 225 
 TOL  SZ I        1053 58.51         3.3 0.32            109            343 225 
 MON  HZ I        1054  7.77         2.0 0.56            108            355 309 
 SJC  HN EP   4   1053 19.38                             105   -2.67 0  410 327 
 SJC  HE ES   4   1054  3.13                             105   -2.28 0  410 327 
 SJC  HN I        1054 13.84         2.7 0.34            105            410 327 
                                                                                
