 2016  930 1844 13.7 L   6.812 -73.208141.5  RSN  4 0.1 1.3LRSN                1
 GAP=146        0.35       2.1     2.0  2.9 -0.1292E+01  0.1625E+01 -0.6193E+00E
 Epicentro: ZAPATOCA - SANTANDER                                               3
 ACTION:UPD 17-08-17 21:18 OP:lp   STATUS:               ID:20160930184413 L   I
 OLDACT:REG 16-09-30 20:25 OP:dani STATUS:               ID:20160930183740     3
 2016-09-30-1838-00M.COL___369                                                 6
 STAT SP IPHASW D HRMM SECON CODA AMPLIT PERI AZIMU VELO AIN AR TRES W  DIS CAZ7
 BAR2 EZ EP       1844 32.84                             170   -0.0210 24.4 173 
 BAR2 EZ ES       1844 47.87                             170    0.0810 24.4 173 
 BAR2 EZ I        1844 48.81         5.0 0.18            171           24.4 173 
 PAM  EZ EP       1844 35.72                             149    0.0210 81.0  44 
 PAM  EE ES       1844 52.81                             149   -0.0410 81.0  44 
 PAM  EZ I        1844 55.34         4.4 0.56            151           81.0  44 
 RUS  HZ EP       1844 37.36                             142    0.1610  103 172 
 RUS  HN ES       1844 55.39                             142   -0.1310  103 172 
 RUS  HZ I        1844 57.77         2.3 0.18            145            103 172 
 PTB  HZ EP       1844 39.63                             132   -0.12 9  141 258 
 PTB  HE ES       1845  0.11                             132    0.05 9  141 258 
 PTB  HZ I        1845  3.44         3.3 0.14            134            141 258 
                                                                                
