 2011 1130 1348 10.6 L   6.749 -73.078149.6  RSN  6 0.2 2.0LRSN                1
 GAP=148        0.56       2.8     3.7  3.9 -0.2294E+01  0.2129E+01 -0.6208E-01E
 Epicentro: LOS SANTOS - SANTANDER                                             3
 ACTION:UPD 12-07-13 16:13 OP:ep   STATUS:               ID:20111130134810 L   I
 2011-11-30-1345-51S.COL___161                                                 6
 STAT SP IPHASW D HRMM SECON CODA AMPLIT PERI AZIMU VELO AIN AR TRES W  DIS CAZ7
 BAR2 SZ EP       1348 30.49                             172   -0.1710 20.8 214 
 BAR2 SZ ES       1348 46.44                             172    0.1410 20.8 214 
 BAR2 SZ I        1348 47.53        20.3 0.18                          20.8 214 
 PAM  SZ EP       1348 33.34                             151    0.0910 77.5  33 
 PAM  SE ES       1348 50.67                             151   -0.2410 77.5  33 
 BRR  HZ EP       1348 32.54                             150   -0.1810 80.5 300 
 BRR  HN ES       1348 50.16                             150    0.2010 80.5 300 
 BRR  HZ I        1348 51.91        35.1 0.14                          80.5 300 
 RUS  HZ EP       1348 34.73                             146    0.3910 94.7 180 
 RUS  HN ES       1348 52.71                             146   -0.1410 94.7 180 
 RUS  HZ I        1348 54.68        12.0 0.23                          94.7 180 
 OCA  SZ EP   1   1348 40.05                             129    0.20 7  167 351 
 OCA  SZ I        1349  6.13         9.4 0.12                           167 351 
 NOR  SZ EP   1   1348 46.64                             119   -0.25 6  238 237 
 NOR  SE ES   1   1349 14.97                             119   -0.21 6  238 237 
                                                                                
