 2016  530 1325 43.9 L   6.797 -73.132149.4  RSN  9 0.3 2.2LRSN                1
 GAP=138        0.74       2.3     3.3  4.1 -0.2691E+01  0.2946E+01  0.1495E+01E
 Epicentro: LOS SANTOS - SANTANDER                                             3
 ACTION:UPD 16-08-18 17:50 OP:cam  STATUS:               ID:20160530132543 L   I
 OLDACT:REG 16-05-30 20:15 OP:cara STATUS:               ID:20160530131744     3
 2016-05-30-1317-44M.COL___310                                                 6
 STAT SP IPHASW D HRMM SECON CODA AMPLIT PERI AZIMU VELO AIN AR TRES W  DIS CAZ7
 BAR2 EZ IP       1326  3.93                             171   -0.0610 23.3 194 
 BAR2 EZ ES       1326 19.23                             171   -0.4110 23.3 194 
 BAR2 EZ I        1326 20.50        44.1 0.20            169           23.3 194 
 BRR  HZ IP       1326  5.78                             153    0.2310 72.7 298 
 BRR  HN ES       1326 22.86                             153    0.4510 72.7 298 
 BRR  HZ I        1326 25.24        31.6 0.30            151           72.7 298 
 PAM  EZ EP       1326  6.68                             152    0.2010 76.7  39 
 PAM  EN ES       1326 24.06                             152   -0.0210 76.7  39 
 PAM  EN ISg      1326 24.06                             152   -0.0210 76.7  39 
 PAM  EZ I        1326 24.68        20.2 0.22            155           76.7  39 
 RUS  HZ EP       1326  8.01                             145    0.0110  100 177 
 RUS  HN ES       1326 26.67                             145   -0.1210  100 177 
 RUS  HZ I        1326 27.51        14.1 0.18            145            100 177 
 PTB  HZ EP       1326 10.67                             132   -0.65 9  149 259 
 PTB  HE ES       1326 32.62                             132   -0.06 9  149 259 
 PTB  HZ I        1326 34.29        19.8 0.14            131            149 259 
 OCA  HZ EP       1326 12.25                             130   -0.31 9  161 353 
 OCA  HE ES       1326 35.01                             130    0.11 9  161 353 
 OCA  HZ I        1326 37.18        40.0 0.24            131            161 353 
 SPBC HZ EP       1326 12.80                             130    0.03 9  164 219 
 SPBC HN ES       1326 35.74                             130    0.47 9  164 219 
 SPBC HZ I        1326 39.29        38.2 0.20            129            164 219 
 NOR  HZ EP       1326 20.14                             119    0.16 8  236 235 
 NOR  HN ES       1326 47.68                             119   -0.42 8  236 235 
 NOR  HZ I        1326 57.49        11.1 0.16            119            236 235 
 CHI  HZ EP       1326 22.18                             118    0.34 8  249 196 
 CHI  HN ES       1326 51.54                             118    0.13 8  249 196 
 CHI  HZ I        1326 56.50        10.1 0.50            118            249 196 
                                                                                
