 2011 1230 1342  2.2 L   6.792 -73.045148.4  RSN  6 0.3 1.7LRSN                1
 GAP=150        0.40       3.3     5.4  5.2  0.5080E+01  0.2372E+01  0.1470E+01E
 Epicentro: LOS SANTOS - SANTANDER                                             3
 ACTION:UPD 12-07-13 16:19 OP:ep   STATUS:               ID:20111230134000 L   I
 2011-12-30-1340-00M.COL___188                                                 6
 STAT SP IPHASW D HRMM SECON CODA AMPLIT PERI AZIMU VELO AIN AR TRES W  DIS CAZ7
 BAR2 SZ EP       1342 22.14                             169   -0.0610 26.8 214 
 BAR2 SZ I        1342 22.49         8.0 0.20                          26.8 214 
 PAM  SZ EP   3   1342 25.19                             153    0.85 2 71.5  32 
 PAM  SE ES   2   1342 41.34                             153   -0.29 5 71.5  32 
 BRR  HZ EP       1342 24.24                             150    0.0310 81.5 295 
 BRR  HZ I        1342 24.43        14.2 0.16                          81.5 295 
 BRR  HN ES   1   1342 41.50                             150    0.10 7 81.5 295 
 RUS  HZ EP   3   1342 26.31                             145    0.19 2 99.6 182 
 RUS  HZ I        1342 26.90         4.1 0.62                          99.6 182 
 RUS  HN ES   1   1342 44.88                             145    0.09 7 99.6 182 
 ZAR  HZ EP   3   1342 34.77                             122   -1.12 2  215 291 
 ZAR  HZ I        1343  6.51         9.1 0.34                           215 291 
 CHI  HZ EP   2   1342 40.33                             117    0.06 4  251 198 
 CHI  HE ES   3   1343  9.42                             117   -0.57 2  251 198 
                                                                                
