 2016  130 1655 58.6 L   6.816 -73.150144.3  RSN  9 0.4 1.6LRSN                1
 GAP=135        1.03       3.5     4.3  6.9 -0.3740E+01  0.1342E+02 -0.5463E+01E
 Epicentro: LOS SANTOS - SANTANDER                                             3
 ACTION:UPD 16-03-09 23:29 OP:cam  STATUS:               ID:20160130165558 L   I
 OLDACT:UP  16-01-31 00:41 OP:ak   STATUS:               ID:20160130164401d    3
 OLDACT:DUP 16-01-31 00:37 OP:ak   STATUS:               ID:20160130164401d    3
 OLDACT:REG 16-01-30 22:37 OP:ak   STATUS:               ID:20160130164400     3
 2016-01-30-1643-59S.COL___229                                                 6
 STAT SP IPHASW D HRMM SECON CODA AMPLIT PERI AZIMU VELO AIN AR TRES W  DIS CAZ7
 BAR2 EZ EP       1656 17.94                             170   -0.1810 25.0 188 
 BAR2 EZ ES       1656 33.63                             170    0.3110 25.0 188 
 BAR2 EZ I        1656 35.59         8.0 0.22            171           25.0 188 
 PAM  EZ EP       1656 20.87                             151    0.2410 76.4  41 
 PAM  EN ES       1656 38.08                             151    0.2910 76.4  41 
 PAM  EZ I        1656 40.32         7.4 0.66            154           76.4  41 
 RUS  HZ EP       1656 22.69                             143    0.3210  102 176 
 RUS  HN ES       1656 40.26                             143   -0.6310  102 176 
 RUS  HZ I        1656 42.11         4.7 0.50            147            102 176 
 PTB  HZ EP       1656 25.06                             132   -0.41 9  148 258 
 PTB  HN ES       1656 45.92                             132   -0.48 9  148 258 
 PTB  HZ I        1656 48.21                             133            148 258 
 SPBC HN ES       1656 49.35                             128    0.01 9  164 218 
 ZAR  HZ EP       1656 31.38                             122    0.52 9  203 292 
 ZAR  HE ES       1656 56.14                             122    0.14 9  203 292 
 ZAR  HZ I        1657  4.48         3.8 0.28            123            203 292 
 NOR  HZ EP       1656 33.58                             118   -0.76 8  235 234 
 NOR  HN ES       1657  2.78                             118    0.58 8  235 234 
 NOR  HZ I        1657  8.16         4.8 0.30            120            235 234 
 SML  HZ EP       1656 34.98                             117    0.00 8  242 335 
 SML  HN ES       1657  2.76                             117   -0.57 8  242 335 
 GUY2CHZ EP   2   1656 42.74                             112    0.50 4  302 234 
 GUY2CHN ES       1657 16.96                             112    0.70 7  302 234 
 GUY2CHZ I        1657 24.33         3.1 0.28                           302 234 
                                                                                
