 2010  730 1856 32.5 L   6.756 -73.183138.8  RSN  6 0.4 1.6LRSN                1
 GAP=155        0.73       5.0    10.7  8.5 -0.1045E+02 -0.8159E+01 -0.1736E+01E
 Epicentro: VILLANUEVA - SANTANDER                                             3
 ACTION:UPD 10-12-01 15:21 OP:pat  STATUS:               ID:20100730185632 L   I
 2010-07-30-1852-35S.COL___123                                                 6
 STAT SP IPHASW D HRMM SECON CODA AMPLIT PERI AZIMU VELO AIN AR TRES W  DIS CAZ7
 BAR2 SZ EP   1   1856 50.37                             172    -0.8 7   18 180 
 BAR2 SZ ES   2   1857  5.79                             172     0.1 5   18 180 
 BAR2 SZ I        1857  7.67        10.4 0.39                            18 180 
 BRR  HZ EP   1   1856 52.77                             152     0.0 7   70 304 
 BRR  HE ES   2   1857  8.79                             152     0.1 5   70 304 
 BRR  HZ I        1857 13.51        15.8 0.38                            70 304 
 RUS  HZ EP   1   1856 55.26                             144     0.1 7   96 173 
 RUS  HE ES   2   1857 13.35                             144     0.4 5   96 173 
 RUS  HZ I        1857 15.05         3.8 0.27                            96 173 
 GUE  SZ EP   1   1856 56.97                             136     0.0 7  122  13 
 GRA  SZ EP   1   1856 57.74                             134     0.1 7  132  19 
 GRA  SZ ES   2   1857 17.62                             134     0.4 5  132  19 
 GRA  SZ I        1857 19.97         5.5 0.36                           132  19 
 PRA  HZ EP   1   1857 25.56                             106     0.6 4  386 209 
                                                                                
