 2010  730 1754 23.7 L   6.756 -73.083149.9  RSN  9 0.5 2.3LRSN                1
 GAP=166        0.97       5.7    11.8 10.1 -0.2020E+02  0.1910E+02 -0.1489E+01E
 Epicentro: LOS SANTOS - SANTANDER                                             3
 ACTION:UPD 10-12-01 15:21 OP:pat  STATUS:               ID:20100730175423 L   I
 2010-07-30-1749-57S.COL___122                                                 6
 STAT SP IPHASW D HRMM SECON CODA AMPLIT PERI AZIMU VELO AIN AR TRES W  DIS CAZ7
 BAR2 SZ EP   1   1754 43.83                             172     0.0 7   21 212 
 BAR2 SZ ES   2   1754 59.12                             172    -0.4 5   21 212 
 BAR2 SZ I        1755  1.81        41.3 0.38                            21 212 
 GIR2 SZ EP   1   1754 43.89                             165    -0.2 7   38 341 
 BRR  HZ EP   1   1754 45.74                             151    -0.1 7   80 299 
 BRR  HE ES   2   1755  3.21                             151     0.2 5   80 299 
 BRR  HZ I        1755  6.36        39.6 0.22                            80 299 
 RUS  HZ EP   1   1754 47.65                             146     0.1 7   95 180 
 RUS  HN ES   2   1755  6.07                             146     0.0 5   95 180 
 RUS  HZ I        1755  9.15        14.9 0.51                            95 180 
 GUE  SZ EP   1   1754 48.62                             139    -0.5 7  120   8 
 GRA  SZ EP   1   1754 50.45                             137     0.9 7  129  14 
 GRA  SZ ES   2   1755 10.74                             137     1.0 5  129  14 
 GRA  SZ I        1755 12.89        24.3 0.31                           129  14 
 OCA  SZ EP   1   1754 52.10                             129    -0.8 7  166 351 
 OCA  SZ ES   2   1755 15.34                             129    -0.3 5  166 351 
 OCA  SZ I        1755 19.14        34.2 0.53                           166 351 
 HEL  HZ EP   1   1755  5.47                             115     0.7 6  278 257 
 HEL  HZ I        1755 41.62        11.7 0.75                           278 257 
 PRA  HZ EP   1   1755 17.25                             107    -0.1 4  391 211 
 PRA  HE ES   2   1755 58.94                             107    -0.2 3  391 211 
 PRA  HZ I        1756  5.61        11.4 0.57                           391 211 
                                                                                
