 2010  930 1027 12.1 L   6.753 -73.114146.0  RSN  4 0.2 1.3LRSN                1
 GAP=221        0.52       9.5    15.5  8.1  0.1218E+03 -0.6343E+02 -0.3142E+02E
 Epicentro: LOS SANTOS - SANTANDER                                             3
 ACTION:UP  11-02-18 11:06 OP:tino STATUS:               ID:20100930102712 L   I
 2010-09-30-1025-21S.COL___125                                                 6
 STAT SP IPHASW D HRMM SECON CODA AMPLIT PERI AZIMU VELO SNR AR TRES W  DIS CAZ7
 BAR2 SZ EP   1   1027 31.50                             172    -0.1 7   19 203 
 BAR2 SZ ES   2   1027 46.57                             172    -0.3 5   19 203 
 BAR2 SZ I        1027 48.23         7.7 0.32                            19 203 
 BTL  SZ EP       1027 31.97                             170     0.210   25 317 
 BRR  HZ EP       1027 33.45                             151    -0.110   77 301 
 BRR  HN ES   1   1027 50.41                             151     0.1 7   77 301 
 RUS  HZ EP   1   1027 35.28                             146    -0.2 7   95 178 
 RUS  HN ES   2   1027 54.12                             146     0.4 5   95 178 
 RUS  HZ I        1027 55.67         1.7 0.20                            95 178 
                                                                                
