 2017  130 1343 44.8 L   6.796 -73.154142.0  RSN  7 0.4 1.9LRSN                1
 GAP=136        0.87       3.5     3.8  6.0  0.1141E+01  0.5102E+01  0.3266E+01E
 Epicentro: LOS SANTOS - SANTANDER                                             3
 ACTION:UPD 17-05-22 16:05 OP:jn   STATUS:               ID:20170130134344 L   I
 OLDACT:REG 17-01-30 20:31 OP:dnl  STATUS:               ID:20170130133750     3
 2017-01-30-1338-00M.COL___342                                                 6
 STAT SP IPHASW D HRMM SECON CODA AMPLIT PERI AZIMU VELO AIN AR TRES W  DIS CAZ7
 BAR2 EZ IP     C 1344  3.87                             170   -0.1210 22.7 188 
 BAR2 EZ ES       1344 18.78                             170   -0.1510 22.7 188 
 BAR2 EZ I        1344 19.61        17.7 0.30            170           22.7 188 
 BRR  HZ IP     C 1344  5.64                             152    0.1110 70.6 299 
 BRR  HN ES       1344 22.31                             152    0.6310 70.6 299 
 BRR  HZ I        1344 27.10        12.5 0.30            151           70.6 299 
 PAM  EZ IP     D 1344  6.82                             150    0.1210 78.3  40 
 PAM  EN ES       1344 23.50                             150   -0.2610 78.3  40 
 PAM  EZ I        1344 25.61        15.2 0.42            154           78.3  40 
 RUS  HZ EP       1344  8.08                             143   -0.0910  100 175 
 RUS  HN ES       1344 26.60                             143    0.2110  100 175 
 RUS  HZ I        1344 28.33         8.7 0.30            145            100 175 
 PTB  HZ EP       1344 10.73                             131   -0.66 9  147 259 
 PTB  HE ES       1344 31.68                             131   -0.43 9  147 259 
 PTB  HZ I        1344 35.50        10.4 0.20            131            147 259 
 ZAR  HZ EP   2   1344 17.98                             122    1.03 4  203 292 
 ZAR  HE ES       1344 42.11                             122    0.10 9  203 292 
 ZAR  HZ I        1344 47.64        13.6 0.40            122            203 292 
 CHI  HZ EP   2   1344 22.73                             117    0.49 4  248 195 
 CHI  HN ES       1344 51.69                             117    0.27 8  248 195 
 CHI  HZ I        1344 55.45         2.7 0.34            118            248 195 
                                                                                
