 2014  130 1928 19.0 L   6.767 -73.188142.1  RSN  5 0.5 1.7LRSN                1
 GAP=197        1.15       6.9     8.1  8.4  0.2267E+02 -0.1231E+01 -0.1574E+02E
 Epicentro: VILLANUEVA - SANTANDER                                             3
 ACTION:UPD 14-03-13 09:59 OP:ep   STATUS:               ID:20140130192819 L   I
 OLDACT:REG 14-01-30 15:51 OP:nd   STATUS:               ID:20140130192000     3
 2014-01-30-1920-00M.COL___288                                                 6
 STAT SP IPHASW D HRMM SECON CODA AMPLIT PERI AZIMU VELO AIN AR TRES W  DIS CAZ7
 BAR2 SZ EP       1928 38.18                             172    0.0910 19.4 178 
 BAR2 SZ ES       1928 52.49                             172   -0.5110 19.4 178 
 BAR2 SZ I        1928 54.17        20.3 0.34            176           19.4 178 
 BRR  HZ EP       1928 40.21                             152    0.6110 69.0 303 
 BRR  HN ES       1928 56.30                             152    0.6110 69.0 303 
 BRR  HZ I        1929  1.70        17.1 0.42            151           69.0 303 
 RUS  HZ EP       1928 42.61                             144    0.4710 97.4 173 
 RUS  HN ES       1928 59.71                             144   -0.4910 97.4 173 
 RUS  HZ I        1929  1.90         3.9 0.24            150           97.4 173 
 PTB  HZ EP       1928 45.08                             132   -0.09 9  143 260 
 PTB  HN ES       1929  5.41                             132   -0.18 9  143 260 
 PTB  HZ I        1929  8.44         3.2 0.46            134            143 260 
 SML  HZ EP       1928 54.88                             116   -0.67 8  245 337 
 SML  HN ES   2   1929 23.34                             116   -0.73 4  245 337 
 SML  HZ I        1929 29.10         6.4 0.09            118            245 337 
                                                                                
