 2011  330 1222 58.1 L   6.786 -73.111147.3  RSN 10 0.3 2.3LRSN                1
 GAP=118        0.57       3.1     4.1  4.8 -0.5511E+01 -0.1859E+01  0.7003E+01E
 Epicentro: LOS SANTOS - SANTANDER                                             3
 ACTION:UP  11-06-16 14:36 OP:jfem STATUS:               ID:20110330122258 L   I
 2011-03-30-1220-57S.COL___135                                                 6
 STAT SP IPHASW D HRMM SECON CODA AMPLIT PERI AZIMU VELO SNR AR TRES W  DIS CAZ7
 BAR2 SZ IP       1223 17.74                             171    -0.210   23 200 
 BAR2 SZ ES   1   1223 32.98                             171    -0.4 7   23 200 
 BRR  HZ EP   1   1223 19.55                             151    -0.1 7   75 298 
 BRR  HE ES   1   1223 36.86                             151     0.4 7   75 298 
 BRR  HZ I        1223 38.85        49.7 0.14                            75 298 
 PAM  SZ EP   1   1223 20.49                             151     0.1 7   76  37 
 PAM  SZ I        1223 20.92        24.4 0.25                            76  37 
 PAM  SE ES   1   1223 37.92                             151     0.1 7   76  37 
 GRA  SZ EP   2   1223 23.62                             137     0.1 5  126  16 
 GRA  SZ I        1223 24.86        37.3 0.33                           126  16 
 GRA  SZ ES   1   1223 43.40                             137     0.1 7  126  16 
 OCA  SZ EP   1   1223 26.46                             130    -0.3 7  162 352 
 OCA  SZ I        1223 53.35        29.9 0.41                           162 352 
 YOP  SZ EP       1223 28.23                             127     0.3 9  176 154 
 YOP  SZ I        1223 29.26        13.1 0.55                           176 154 
 NOR  SE ES   2   1224  1.84                             118    -0.5 4  237 235 
 CHI  HZ EP   1   1223 35.66                             117    -0.2 6  248 196 
 CHI  HE ES   2   1224  5.23                             117     0.0 4  248 196 
 CHI  HZ I        1224  9.04         9.7 0.48                           248 196 
 RREF HN ES   1   1224 21.03                             111     0.3 5  324 230 
 RREF HZ I        1224 26.39        14.7 0.31                           324 230 
 PRA  HZ EP   1   1223 51.40                             107    -0.3 4  393 210 
 PRA  HN ES   1   1224 34.08                             107     0.5 4  393 210 
                                                                                
