 2015  630 1449 33.2 L   6.723 -73.425115.1  RSN  5 0.2 2.0LRSN                1
 GAP=135        0.56       2.6     3.5  6.1 -0.5800E+00  0.1250E+02 -0.7255E+01E
 Epicentro: EL CARMEN - SANTANDER                                              3
 ACTION:UPD 15-09-10 22:16 OP:cam  STATUS:               ID:20150630144932 L   I
 OLDACT:UP  15-07-03 21:02 OP:cam  STATUS:               ID:20150630144932 L   3
 OLDACT:UP  15-07-01 05:42 OP:DRIO STATUS:               ID:20150630144932 L   3
 OLDACT:UP  15-07-01 02:30 OP:mh   STATUS:               ID:20150630144746     3
 OLDACT:UP  15-07-01 02:30 OP:mh   STATUS:               ID:20150630144746     3
 OLDACT:REG 15-07-01 02:23 OP:mh   STATUS:               ID:20150630144746     3
 2015-06-30-1447-46M.COL___313                                                 6
 STAT SP IPHASW D HRMM SECON CODA AMPLIT PERI AZIMU VELO AIN AR TRES W  DIS CAZ7
 BAR2 EZ IP     D 1449 49.72                             164    0.3010 30.5 118 
 BAR2 EZ ES       1450  1.87                             164   -0.1610 30.5 118 
 BAR2 EZ I        1450  3.69        14.8 0.29            169           30.5 118 
 RUS  HN ES   1   1450 10.21                             137   -0.01 7 99.3 158 
 ZAR  HZ EP       1450  1.39                             118    0.15 9  180 298 
 ZAR  HN ES       1450 23.10                             118    0.02 9  180 298 
 ZAR  HZ I        1450 25.49        17.3 0.24            119            180 298 
 NOR  HN ES       1450 28.00                             115   -0.08 9  205 231 
 NOR  HZ I        1450 32.14         6.0 0.26            116            205 231 
 SML  HZ EP       1450  7.52                             110   -0.49 8  241 343 
 SML  HN ES       1450 35.27                             110    0.15 8  241 343 
 SML  HZ I        1450 37.74        11.9 0.10            112            241 343 
                                                                                
