 2012  930 1707 27.3 L   6.779 -73.164135.8  RSN  7 0.4 2.2LRSN                1
 GAP=135        0.77       5.9     5.1  8.1  0.6397E+01  0.2447E+01 -0.1032E+02E
 Epicentro: LOS SANTOS - SANTANDER                                             3
 ACTION:UPD 12-10-22 14:21 OP:ep   STATUS:               ID:20120930170727 L   I
 2012-09-30-1700-00M.COL___220                                                 6
 STAT SP IPHASW D HRMM SECON CODA AMPLIT PERI AZIMU VELO AIN AR TRES W  DIS CAZ7
 BAR2 SZ EP   1   17 7 45.69                             171    0.00 7 20.8 186 
 BAR2 SZ ES   1   17 7 59.67                             171   -0.35 7 20.8 186 
 BAR2 SZ I        17 8  1.27        24.3 0.11                          20.8 186 
 GIR2 SZ EP   1   17 7 45.68                             165   -0.18 7 33.3 354 
 GIR2 SZ ES   1   17 8  0.02                             165   -0.30 7 33.3 354 
 BRR  HZ EP   1   17 7 47.62                             151    0.27 7 70.6 301 
 BRR  HE ES   1   17 8  3.71                             151    0.73 7 70.6 301 
 BRR  HE I        17 8  4.87        70.3 0.18                          70.6 301 
 PAM  SZ EP   1   17 7 48.54                             148   -0.13 7 80.5  40 
 PAM  SZ I        17 7 48.76        15.2 0.14                          80.5  40 
 RUS  HN ES   1   17 8  7.99                             142    0.42 7 98.4 175 
 PTB  HN ES   1   17 8 12.85                             130   -0.64 7  145 260 
 PTB  HN I        17 8 15.08        44.2 0.44                           145 260 
 ZAR  HN ES   1   17 8 23.87                             120    0.12 6  203 293 
 ZAR  HN I        17 8 25.29        10.2 0.10                           203 293 
                                                                                
