 2014 1030 1950  3.9 L   6.076 -73.677115.0  RSN  7 0.4 1.9LRSN                1
 GAP=116        1.05       4.3     3.4  7.1 -0.3972E+01  0.5006E+01 -0.6675E+01E
 Epicentro: CHIPATA - SANTANDER                                                3
 ACTION:UPD 14-11-29 23:58 OP:nd   STATUS:               ID:20141030195003 L   I
 OLDACT:UP  14-11-25 19:46 OP:cam  STATUS:               ID:20141030193748     3
 OLDACT:REG 14-11-25 16:24 OP:cam  STATUS:               ID:20141030193748     3
 2014-10-30-1937-48M.COL___265                                                 6
 STAT SP IPHASW D HRMM SECON CODA AMPLIT PERI AZIMU VELO AIN AR TRES W  DIS CAZ7
 SPBC HZ EP       1950 21.54                             149    0.0810 64.1 223 
 SPBC HN ES       1950 35.24                             149    0.0610 64.1 223 
 SPBC HZ I        1950 37.01        25.5 0.24            151           64.1 223 
 RUS  HZ IP     D 1950 22.53                             147    0.1910 68.8 107 
 RUS  HN ES       1950 36.38                             147   -0.3610 68.8 107 
 RUS  HZ I        1950 38.44         8.6 0.24            150           68.8 107 
 BAR2 SZ EP       1950 23.11                             143    0.4210 79.1  44 
 BAR2 SZ ES       1950 37.77                             143    0.4110 79.1  44 
 BAR2 SZ I        1950 39.19        67.4 0.20            145           79.1  44 
 PTB  HZ IP     C 1950 23.15                             136   -0.9210  100 301 
 PTB  HN ES       1950 39.52                             136   -0.2910  100 301 
 PTB  HZ I        1950 41.18        14.0 0.12            137            100 301 
 BRR  HZ EP       1950 25.52                             132    0.2610  114 358 
 BRR  HN ES       1950 42.31                             132    0.3810  114 358 
 BRR  HN I        1950 45.28        41.6 0.18            133            114 358 
 PAM  SZ EP       1950 31.96                             119   -0.19 9  177  38 
 PAM  SN ES       1950 53.62                             119   -0.59 9  177  38 
 PAM  SZ I        1950 57.43         4.9 0.50            121            177  38 
 HEL  HZ EP       1950 35.57                             115    0.44 8  205 274 
 HEL  HN ES       1950 59.63                             115    0.13 8  205 274 
 HEL  HZ I        1951  3.49         6.5 0.26            117            205 274 
                                                                                
