 2011 1030 1619  8.6 L   6.794 -73.078150.0  RSN  4 0.2 1.5LRSN                1
 GAP=244        0.39       7.8     8.9  5.7  0.5728E+02 -0.7223E+01 -0.9751E+01E
 Epicentro: LOS SANTOS - SANTANDER                                             3
 ACTION:UPD 12-07-13 16:07 OP:ep   STATUS:               ID:20111030161908 L   I
 2011-10-30-1616-34S.COL___157                                                 6
 STAT SP IPHASW D HRMM SECON CODA AMPLIT PERI AZIMU VELO AIN AR TRES W  DIS CAZ7
 BAR2 SZ EP   1   1619 28.49                             170   -0.24 7 25.1 207 
 BAR2 SZ ES   2   1619 44.30                             170   -0.17 5 25.1 207 
 BAR2 SZ I        1619 45.36         5.7 0.56                          25.1 207 
 BRR  HZ EP   1   1619 30.69                             151    0.13 7 78.1 296 
 BRR  HN ES   2   1619 47.97                             151    0.24 5 78.1 296 
 BRR  HZ I        1619 53.40         7.5 0.80                          78.1 296 
 RUS  HZ EP   1   1619 32.88                             145    0.22 7 99.6 180 
 RUS  HN ES   2   1619 51.40                             145   -0.07 5 99.6 180 
 RUS  HZ I        1619 52.67         2.5 0.63                          99.6 180 
 ZAR  HZ EP   2   1619 41.78                             122   -0.24 4  211 292 
 ZAR  HN ES   2   1620  8.02                             122   -0.10 4  211 292 
 ZAR  HZ I        1620 16.21         3.2 0.41                           211 292 
                                                                                
