 2013  630 1730 46.5 L   6.807 -73.144149.5  RSN 13 0.4 2.3LRSN                1
 GAP=136        0.89       2.7     3.8  5.7 -0.7123E+00  0.6541E+01  0.2731E+01E
 Epicentro: LOS SANTOS - SANTANDER                                             3
 ACTION:UPD 14-01-08 09:58 OP:ep   STATUS:               ID:20130630173046 L   I
 OLDACT:REG 13-06-30 17:54 OP:carl STATUS:               ID:20130630172959     3
 2013-06-30-1729-59M.COL___267                                                 6
 STAT SP IPHASW D HRMM SECON CODA AMPLIT PERI AZIMU VELO AIN AR TRES W  DIS CAZ7
 BAR2 SZ EP       1731  6.58                             170    0.0010 24.1 190 
 BAR2 SZ ES   1   1731 21.78                             170   -0.47 7 24.1 190 
 BAR2 SZ I        1731 23.13        54.7 0.20            168           24.1 190 
 GIR2 SZ EP       1731  6.78                             168    0.2010 30.5 350 
 GIR2 SZ ES   1   1731 22.18                             168   -0.07 7 30.5 350 
 BRR  HZ IP     C 1731  8.43                             153    0.4110 71.0 298 
 BRR  HN ES   1   1731 25.81                             153    0.99 7 71.0 298 
 PAM  SZ EP   1   1731  9.73                             152    0.67 7 76.7  40 
 PAM  SN ES   1   1731 26.91                             152    0.25 7 76.7  40 
 PAM  SZ I        1731 28.84        39.3 0.56            156           76.7  40 
 RUS  HZ EP       1731 10.39                             144   -0.2710  101 176 
 RUS  HN ES   1   1731 29.36                             144   -0.15 7  101 176 
 RUS  HZ I        1731 32.00         7.6 0.42            146            101 176 
 PTB  HZ EP       1731 13.20                             133   -0.59 9  148 259 
 PTB  HN ES   1   1731 34.31                             133   -0.77 7  148 259 
 PTB  HZ I        1731 40.27        24.5 0.18            131            148 259 
 OCA  HZ EP   1   1731 14.77                             131   -0.25 7  160 353 
 OCA  HE ES       1731 36.74                             131   -0.53 9  160 353 
 OCA  HZ I        1731 42.97        17.1 0.18            132            160 353 
 ZAR  HZ EP       1731 19.44                             123    0.28 9  204 292 
 ZAR  HE ES       1731 44.94                             123    0.29 9  204 292 
 ZAR  HZ I        1731 55.34        22.3 0.38            123            204 292 
 NOR  HZ EP   1   1731 22.65                             119    0.16 6  235 234 
 NOR  HE ES       1731 50.82                             119    0.24 8  235 234 
 NOR  HE I        1731 57.95        28.3 0.16            119            235 234 
 SML  HE ES       1731 51.61                             118   -0.32 8  243 335 
 SML  HE I        1731 58.80        47.8 0.30            119            243 335 
 CHI  HZ EP   1   1731 24.16                             118   -0.32 6  249 195 
 CHI  HN ES   1   1731 53.91                             118   -0.20 6  249 195 
 CHI  HZ I        1732  3.57         7.8 0.50            119            249 195 
 HEL  HN ES       1731 58.34                             115   -0.13 8  272 256 
 HEL  HN I        1732  5.18         8.1 0.46            115            272 256 
 PRA  HZ EP   1   1731 40.47                             107    0.25 4  393 210 
 PRA  HE ES       1732 22.71                             107    0.57 6  393 210 
 PRA  HZ I        1732 26.22         6.4 0.32            108            393 210 
                                                                                
