 2011  630 1131 22.9 L   6.777 -73.150151.6  RSN 10 0.5 1.9LRSN                1
 GAP=151        1.01       6.8     9.9  7.0 -0.2837E+02 -0.7793E+01  0.6043E+01E
 Epicentro: LOS SANTOS - SANTANDER                                             3
 ACTION:UP  11-07-14 19:09 OP:ep   STATUS:               ID:20110630113122 L   I
 2011-06-30-1125-42S.COL___140                                                 6
 STAT SP IPHASW D HRMM SECON CODA AMPLIT PERI AZIMU VELO SNR AR TRES W  DIS CAZ7
 BTL  SZ EP       1131 43.76                             172     0.610   20 320 
 BTL  SZ ES   1   1131 59.21                             172     0.2 7   20 320 
 BAR2 SZ EP       1131 42.89                             172    -0.310   21 190 
 BAR2 SZ ES   1   1131 58.64                             172    -0.4 7   21 190 
 BAR2 SZ I        1132  0.57        22.4 0.23                            21 190 
 GIR2 SZ EP       1131 43.27                             166    -0.110   34 352 
 GIR2 SZ ES   3   1131 58.73                             166    -0.6 2   34 352 
 BRR  HZ EP       1131 44.83                             153     0.110   72 301 
 BRR  HN ES   1   1132  2.06                             153     0.3 7   72 301 
 BRR  HZ I        1132  3.79        18.0 0.19                            72 301 
 PAM  SZ EP       1131 45.57                             151    -0.310   80  39 
 BRI  SZ EP   2   1131 49.12                             142     1.5 5  111  21 
 GRA  SZ EP       1131 48.76                             138    -0.110  128  17 
 GRA  SZ I        1132 13.13         6.7 0.27                           128  17 
 OCA  SZ EP       1131 51.79                             130    -0.1 9  163 353 
 OCA  SZ I        1131 52.82         9.3 0.41                           163 353 
 NOR  SZ EP       1131 58.45                             120    -0.3 8  233 235 
 NOR  SN ES   3   1132 25.81                             120    -1.0 2  233 235 
 CHI  HZ EP       1132  1.05                             119     0.4 8  246 195 
 CHI  HZ I        1132 34.32         2.7 0.35                           246 195 
                                                                                
