 2012  430 1114 12.9 L   6.722 -73.160143.7  RSN  5 0.5 1.7LRSN                1
 GAP=153        1.16      12.7     7.3 11.1 -0.2005E+02  0.2260E+02 -0.6617E+01E
 Epicentro: VILLANUEVA - SANTANDER                                             3
 ACTION:UPD 12-07-05 11:56 OP:tino STATUS:               ID:20120430111412 L   I
 2012-04-30-1110-00M.COL___189                                                 6
 STAT SP IPHASW D HRMM SECON CODA AMPLIT PERI AZIMU VELO AIN AR TRES W  DIS CAZ7
 BAR2 SZ EP   1   1114 32.85                             174     0.7 7   15 190 
 BAR2 SZ ES   1   1114 47.06                             174     0.0 7   15 190 
 BAR2 SZ I        1114 48.11        13.3 0.26                            15 190 
 BRR  HZ EP       1114 34.14                             151     0.210   74 305 
 BRR  HZ I        1114 47.37        10.4 0.52                            74 305 
 BRR  HN ES   1   1114 51.26                             151     0.8 7   74 305 
 PAM  SZ EP   1   1114 35.16                             148    -0.2 7   85  37 
 PAM  SN ES   1   1114 52.23                             148    -0.7 7   85  37 
 PTB  HZ EP   1   1114 39.02                             132    -0.4 7  145 262 
 PTB  HN ES   1   1114 59.33                             132    -0.8 7  145 262 
 PTB  HZ I        1115  1.82         3.3 0.11                           145 262 
 ZAR  HZ EP   1   1114 45.61                             122     0.2 6  206 295 
 ZAR  HN ES   1   1115 10.64                             122    -0.1 6  206 295 
 ZAR  HZ I        1115 17.30         6.4 0.36                           206 295 
                                                                                
