 2013 1030 1635  8.6 L   6.557 -73.467118.2  RSN  6 0.5 1.2LRSN                1
 GAP=107        1.18       6.0     5.4 10.0  0.1290E+02  0.2770E+02  0.2389E+02E
 Epicentro: EL CARMEN DE CHUCURI - SANTANDER                                   3
 ACTION:UPD 13-11-25 09:24 OP:ep   STATUS:               ID:20131030163508 L   I
 OLDACT:DUP 13-10-30 19:37 OP:carl STATUS:               ID:20131030162840d    3
 2013-10-30-1628-39M.COL___224                                                 6
 STAT SP IPHASW D HRMM SECON CODA AMPLIT PERI AZIMU VELO AIN AR TRES W  DIS CAZ7
 BAR2 SZ EP       1635 24.94                             164   -0.2610 31.7  83 
 BAR2 SZ ES       1635 38.06                             164   -0.0610 31.7  83 
 BAR2 SZ I        1635 39.11         7.2 0.36            168           31.7  83 
 BRR  HE ES       1635 40.94                             148    0.3710 66.6 336 
 RUS  HZ EP       1635 28.19                             142   -0.3510 84.8 150 
 RUS  HN ES       1635 44.46                             142    0.3910 84.8 150 
 RUS  HZ I        1635 45.06         2.2 0.22            143           84.8 150 
 PTB  HZ EP       1635 30.01                             134    0.1310  109 269 
 PTB  HE ES       1635 45.43                             134   -1.0310  109 269 
 PTB  HZ I        1635 48.10         4.4 0.24            134            109 269 
 ZAR  HE ES       1636  0.27                             118    0.44 9  185 304 
 NOR  HZ EP       1635 37.94                             117   -0.04 9  190 235 
 NOR  HN ES       1636  1.48                             117    0.61 9  190 235 
 NOR  HZ I        1636  5.39         1.4 0.26            118            190 235 
                                                                                
