 2011  130 1836 17.5 L   6.812 -73.168137.6  RSN  4 0.3 1.4LRSN                1
 GAP=184        0.59       8.3    45.8  9.6 -0.3086E+03  0.3071E+02 -0.2261E+02E
 Epicentro: LOS SANTOS - SANTANDER                                             3
 ACTION:UP  11-02-08 08:43 OP:pat  STATUS:               ID:20110130183617 L   I
 2011-01-30-1834-26S.COL___134                                                 6
 STAT SP IPHASW D HRMM SECON CODA AMPLIT PERI AZIMU VELO SNR AR TRES W  DIS CAZ7
 BAR2 SZ ES   2   1836 50.76                             169     0.0 5   24 184 
 BAR2 SZ I        1836 53.12         7.6 0.21                            24 184 
 RUS  HZ EP   2   1836 40.48                             141    -0.1 5  102 175 
 RUS  HN ES   2   1836 58.71                             141     0.1 5  102 175 
 RUS  HZ I        1837  0.53         3.2 0.29                           102 175 
 GRA  SZ EP       1836 42.22                             135     0.210  125  19 
 GRA  SZ I        1836 43.58         4.8 0.34                           125  19 
 GRA  SZ ES   2   1837  0.56                             135    -0.6 5  125  19 
 CHI  HZ EP   3   1836 53.92                             115    -1.0 2  249 195 
 CHI  HZ I        1836 54.22         1.6 0.33                           249 195 
                                                                                
