 2011  930 1021 38.3 L   6.777 -73.172148.0  RSN 10 0.4 2.5LRSN                1
 GAP=134        0.85       3.3     4.6  6.3 -0.1404E+01  0.1018E+02  0.3527E+01E
 Epicentro: LOS SANTOS - SANTANDER                                             3
 ACTION:UPD 12-07-13 16:01 OP:ep   STATUS:               ID:20110930102138 L   I
 2011-09-30-1020-15S.COL___167                                                 6
 STAT SP IPHASW D HRMM SECON CODA AMPLIT PERI AZIMU VELO AIN AR TRES W  DIS CAZ7
 BAR2 SZ EP       1021 58.26                             172    0.1610 20.5 183 
 BAR2 SZ ES   1   1022 13.03                             172   -0.56 7 20.5 183 
 BAR2 SZ I        1022 14.58        53.4 0.31                          20.5 183 
 BRR  HZ IP     C 1022  0.18                             153    0.6110 69.9 301 
 BRR  HZ I        1022  0.48       109.6 0.17                          69.9 301 
 BRR  HN ES   1   1022 17.09                             153    0.88 7 69.9 301 
 PAM  SZ EP   1   1022  1.04                             150    0.10 7 81.2  40 
 PAM  SN ES   1   1022 18.09                             150   -0.54 7 81.2  40 
 PAM  SZ I        1022 20.46        34.3 0.36                          81.2  40 
 RUS  HZ EP   1   1022  2.02                             145   -0.05 7 98.3 174 
 RUS  HN ES   1   1022 21.07                             145    0.42 7 98.3 174 
 RUS  HZ I        1022 22.58        18.3 0.19                          98.3 174 
 OCA  SZ EP   1   1022  6.92                             130   -0.02 7  162 354 
 OCA  SZ ES   1   1022 28.76                             130   -0.56 7  162 354 
 OCA  SZ I        1022 33.32        39.5 0.25                           162 354 
 ZAR  HZ EP   1   1022 10.36                             123   -0.31 6  202 293 
 ZAR  HN ES   1   1022 35.85                             123   -0.10 6  202 293 
 ZAR  HZ I        1022 42.10        44.7 0.33                           202 293 
 NOR  SZ EP   1   1022 13.12                             119   -0.58 6  231 235 
 NOR  SN ES   1   1022 40.61                             119   -0.75 6  231 235 
 CHI  HZ EP   1   1022 15.74                             118    0.01 6  245 195 
 CHI  HN ES   1   1022 44.66                             118   -0.31 6  245 195 
 CHI  HZ I        1022 53.59        11.3 0.30                           245 195 
 HEL  HZ EP   1   1022 18.56                             116    0.36 6  269 256 
 HEL  HN ES   1   1022 49.14                             116   -0.22 6  269 256 
 HEL  HZ I        1022 56.99        19.1 0.34                           269 256 
 PRA  HZ EP   1   1022 31.68                             107    0.25 4  388 209 
 PRA  HN ES   1   1023 13.07                             107    0.16 4  388 209 
 PRA  HZ I        1023 17.62        28.3 0.37                           388 209 
                                                                                
