 2017 1030 1327 30.9 L   6.795 -73.142146.2  RSN  6 0.2 1.5LRSN                1
 GAP=213        0.52       3.2     2.7  4.1  0.4002E+01 -0.1112E+00  0.1578E+01E
 Epicentro: LOS SANTOS - SANTANDER                                             3
 ACTION:UPD 17-11-07 19:39 OP:rebc STATUS:               ID:20171030132730 L   I
 OLDACT:UP  17-10-30 22:19 OP:mg   STATUS:               ID:20171030131742     3
 OLDACT:REG 17-10-30 20:04 OP:mg   STATUS:               ID:20171030131742     3
 2017-10-30-1318-00M.COL___432                                                 6
 STAT SP IPHASW D HRMM SECON CODA AMPLIT PERI AZIMU VELO AIN AR TRES W  DIS CAZ7
 BAR2 EZ EP       1327 50.36                             171   -0.2210 22.9 191 
 BAR2 EZ ES   1   1328  5.74                             171   -0.18 7 22.9 191 
 BAR2 EZ I        1328  8.29         9.0 0.28            168           22.9 191 
 BRR  HZ EP       1327 52.10                             152   -0.0310 71.8 299 
 BRR  HN ES       1328  9.04                             152    0.3510 71.8 299 
 BRR  HZ I        1328 12.34        10.8 0.33            154           71.8 299 
 RUS  HZ EP       1327 54.62                             144   -0.0410  100 176 
 RUS  HN ES       1328 13.04                             144   -0.1510  100 176 
 RUS  HZ I        1328 14.56         2.5 0.30            144            100 176 
 PTB  HZ EP       1327 57.72                             132   -0.21 9  148 259 
 PTB  HN ES       1328 18.90                             132   -0.11 9  148 259 
 PTB  HZ I        1328 20.16         2.2 0.22            133            148 259 
 YPLC HZ EP       1328  0.92                             127    0.25 9  176 151 
 YPLC HN ES       1328 24.05                             127    0.17 9  176 151 
 YPLC HZ I        1328 28.64         3.3 0.25            128            176 151 
 NOR  HN ES       1328 34.72                             119    0.18 8  235 235 
 NOR  HZ I        1328 39.74         2.1 0.15            120            235 235 
                                                                                
