 2013  330 1652 15.7 L   6.755 -73.173145.4  RSN  5 0.5 1.9LRSN                1
 GAP=231        1.04       9.4     7.9  9.5  0.3640E+02  0.1084E+02  0.8470E+01E
 Epicentro: VILLANUEVA - SANTANDER                                             3
 ACTION:UPD 13-04-09 14:05 OP:ep   STATUS:               ID:20130330165215 L   I
 2013-03-30-1650-00M.COL___245                                                 6
 STAT SP IPHASW D HRMM SECON CODA AMPLIT PERI AZIMU VELO AIN AR TRES W  DIS CAZ7
 BAR2 SZ EP       1652 35.06                             173   -0.1210 18.1 183 
 BAR2 SZ ES       1652 49.77                             173   -0.6110 18.1 183 
 BAR2 SZ I        1652 51.00        20.5 0.24            167           18.1 183 
 BRR  HZ EP   1   1652 36.74                             152   -0.05 7 71.1 303 
 BRR  HN ES       1652 53.72                             152    0.4710 71.1 303 
 BRR  HN I        1652 53.99        25.8 0.28            151           71.1 303 
 RUS  HZ EP   1   1652 39.35                             145    0.28 7 95.9 174 
 RUS  HE ES   1   1652 58.13                             145    0.82 7 95.9 174 
 RUS  HE I        1652 58.41         4.9 0.16            143           95.9 174 
 PTB  HZ EP   1   1652 41.93                             133   -0.35 7  144 261 
 PTB  HN ES       1653  2.65                             133   -0.36 9  144 261 
 PTB  HN I        1653  7.62         9.3 0.36            130            144 261 
 ZAR  HN ES   2   1653 14.18                             122    0.94 4  203 294 
                                                                                
