 2011 1130 1618 27.6 L   6.785 -73.114149.0  RSN  4 0.1 1.6LRSN                1
 GAP=141        0.37       2.7     4.4  3.6 -0.1288E+01  0.2331E+01 -0.1247E+01E
 Epicentro: LOS SANTOS - SANTANDER                                             3
 ACTION:UPD 12-07-13 16:13 OP:ep   STATUS:               ID:20111130161827 L   I
 2011-11-30-1615-36S.COL___162                                                 6
 STAT SP IPHASW D HRMM SECON CODA AMPLIT PERI AZIMU VELO AIN AR TRES W  DIS CAZ7
 BAR2 SZ EP   1   1618 47.38                             171   -0.23 7 22.6 200 
 BAR2 SZ ES       1619  3.31                             171    0.1010 22.6 200 
 BAR2 SZ I        1619  4.20         6.9 0.20                          22.6 200 
 BRR  HZ EP       1618 49.28                             152   -0.0410 75.1 298 
 BRR  HZ I        1618 49.50        19.5 0.21                          75.1 298 
 BRR  HN ES   2   1619  6.33                             152    0.06 5 75.1 298 
 PAM  SZ EP   1   1618 50.23                             152    0.12 7 76.5  37 
 PAM  SN ES   1   1619  7.60                             152   -0.08 7 76.5  37 
 RUS  HZ EP   1   1618 51.74                             145    0.20 7 98.7 178 
 RUS  HN ES   1   1619 10.08                             145   -0.14 7 98.7 178 
 RUS  HZ I        1619 11.25         2.3 0.32                          98.7 178 
                                                                                
