 2017  730 1136 27.7 L   6.802 -73.162143.4  RSN  7 0.4 1.4LRSN                1
 GAP=134        0.88       4.6     4.4  6.6 -0.5434E+00  0.3009E+01  0.8250E+00E
 Epicentro: LOS SANTOS - SANTANDER                                             3
 ACTION:UPD 17-08-30 15:38 OP:rebc STATUS:               ID:20170730113627 L   I
 OLDACT:UP  17-07-30 22:17 OP:and  STATUS:               ID:20170730112740     3
 OLDACT:UP  17-07-30 22:16 OP:and  STATUS:               ID:20170730112740     3
 OLDACT:REG 17-07-30 20:52 OP:and  STATUS:               ID:20170730112740     3
 2017-07-30-1128-00M.COL___380                                                 6
 STAT SP IPHASW D HRMM SECON CODA AMPLIT PERI AZIMU VELO AIN AR TRES W  DIS CAZ7
 BAR2 EZ IP     C 1136 46.83                             170   -0.2210 23.3 186 
 BAR2 EZ ES       1137  1.98                             170   -0.1610 23.3 186 
 BAR2 EZ I        1137  3.54         6.5 0.54            168           23.3 186 
 BRR  HZ EP       1136 48.62                             153    0.1210 69.5 299 
 BRR  HN ES       1137  5.49                             153    0.7610 69.5 299 
 BRR  HZ I        1137 10.52         7.5 0.28            140           69.5 299 
 PAM  EZ IP     D 1136 49.76                             150    0.0310 78.3  41 
 PAM  EN ES       1137  6.57                             150   -0.3410 78.3  41 
 PAM  EZ I        1137 17.36         4.4 0.24            142           78.3  41 
 RUS  HZ EP       1136 51.21                             143   -0.0410  101 175 
 RUS  HN ES       1137  9.83                             143    0.2110  101 175 
 RUS  HZ I        1137 11.31         4.6 0.36            135            101 175 
 PTB  HZ EP   3   1136 53.64                             132   -0.68 2  146 259 
 PTB  HN ES       1137 14.69                             132   -0.40 9  146 259 
 PTB  HZ I        1137 20.48         1.7 0.22            120            146 259 
 ZAR  HZ EP   2   1137  0.62                             122    0.80 4  202 292 
 ZAR  HN ES   2   1137 23.79                             122   -1.08 4  202 292 
 ZAR  HZ I        1137 32.92         3.2 0.28            111            202 292 
 NOR  HZ EP   2   1137  3.64                             118    0.48 4  233 234 
 NOR  HZ I        1137 33.24         1.8 0.38            108            233 234 
                                                                                
