 2014 1030 1059 34.0 L   6.756 -73.161142.0  RSN  4 0.3 1.0LRSN                1
 GAP=138        0.62       4.9     4.8  6.8 -0.8567E+01  0.7679E+01 -0.5847E+01E
 Epicentro: LOS SANTOS - SANTANDER                                             3
 ACTION:UPD 14-11-29 23:58 OP:nd   STATUS:               ID:20141030105934 L   I
 OLDACT:REG 14-11-24 20:20 OP:spq  STATUS:               ID:20141030105748     3
 2014-10-30-1057-48M.COL___265                                                 6
 STAT SP IPHASW D HRMM SECON CODA AMPLIT PERI AZIMU VELO AIN AR TRES W  DIS CAZ7
 BAR2 SZ ES   1   11 0  8.39                             172    0.38 7 18.3 188 
 PAM  SZ EP       1059 56.00                             149   -0.1610 82.2  38 
 PAM  SN ES   1   11 0 13.40                             149   -0.01 7 82.2  38 
 PAM  SZ I        11 0 16.17         2.8 0.50            153           82.2  38 
 RUS  HZ EP   1   1059 57.54                             144    0.45 7 95.9 175 
 RUS  HN ES   1   11 0 14.62                             144   -0.44 7 95.9 175 
 RUS  HZ I        11 0 17.35         0.9 0.28            149           95.9 175 
 PTB  HZ EP   1   11 0  0.49                             132    0.01 7  145 261 
 PTB  HN ES   1   11 0 20.98                             132   -0.12 7  145 261 
 PTB  HZ I        11 0 28.01         1.4 0.32            132            145 261 
                                                                                
