 2016 1030 1636  9.0 L   6.778 -73.102142.4  RSN 16 0.3 2.2LRSN                1
 GAP= 97        0.71       2.8     2.7  3.6 -0.1912E+01  0.2640E+01  0.2181E+01E
 Epicentro: LOS SANTOS - SANTANDER                                             3
 ACTION:UPD 16-11-09 19:24 OP:rebc STATUS:               ID:20161030163609 L   I
 OLDACT:UP  16-10-30 23:58 OP:edw  STATUS:               ID:20161030162746     3
 OLDACT:UP  16-10-30 23:57 OP:edw  STATUS:               ID:20161030162746     3
 OLDACT:UP  16-10-30 23:55 OP:edw  STATUS:               ID:20161030162746     3
 OLDACT:UP  16-10-30 23:54 OP:edw  STATUS:               ID:20161030162746     3
 OLDACT:UP  16-10-30 23:54 OP:edw  STATUS:               ID:20161030162746     3
 OLDACT:REG 16-10-30 20:22 OP:edw  STATUS:               ID:20161030162746     3
 2016-10-30-1628-00M.COL___325                                                 6
 STAT SP IPHASW D HRMM SECON CODA AMPLIT PERI AZIMU VELO AIN AR TRES W  DIS CAZ7
 BAR2 EZ EP     D 1636 27.84                             171   -0.3110 22.4 203 
 BAR2 EZ ES       1636 43.16                             171    0.0310 22.4 203 
 BAR2 EZ I        1636 44.45        47.3 0.22            168           22.4 203 
 PAM  EZ EP       1636 30.80                             150    0.0610 76.4  36 
 PAM  EN ES       1636 47.85                             150    0.1110 76.4  36 
 PAM  EZ I        1636 50.28        14.2 0.24            155           76.4  36 
 BRR  HZ EP       1636 29.69                             150   -0.3610 76.5 298 
 BRR  HN ES       1636 46.64                             150    0.1410 76.5 298 
 BRR  HZ I        1636 50.71        25.4 0.24            149           76.5 298 
 RUS  HZ EP       1636 31.95                             144   -0.2310 98.0 179 
 RUS  HN ES       1636 50.32                             144    0.0310 98.0 179 
 RUS  HZ I        1636 51.48        10.0 0.24            144           98.0 179 
 TAM  HN ES   2   1636 57.84                             131    0.97 5  150 105 
 PTB  HZ EP   9   1636 35.01                             130   -1.02 0  152 260 
 PTB  HN ES       1636 55.72                             130   -0.42 9  152 260 
 PTB  HZ I        1636 58.53        11.1 0.16            130            152 260 
 SPBC HZ EP       1636 37.03                             128   -0.28 9  164 221 
 SPBC HN ES       1636 59.47                             128    0.05 9  164 221 
 SPBC HZ I        1637  3.69        29.5 0.20            128            164 221 
 NOR  HZ EP       1636 44.12                             117   -0.64 8  237 236 
 NOR  HN ES       1637 12.60                             117   -0.09 8  237 236 
 NOR  HZ I        1637 19.67         8.4 0.11            118            237 236 
 CHI  HZ EP       1636 46.49                             116    0.14 8  248 196 
 CHI  HN ES       1637 15.49                             116   -0.03 8  248 196 
 CHI  HZ I        1637 18.81         9.9 0.64            117            248 196 
 ROSC BZ EP   4   1636 48.31                             116    1.38 0  253 212 
 ROSC BN ES   4   1637 18.81                             116    2.25 0  253 212 
 ROSC BZ I        1637 22.29        26.0 0.45            116            253 212 
 HEL  HZ EP       1636 50.12                             114    0.68 7  276 257 
 HEL  HN ES       1637 21.20                             114    0.17 7  276 257 
 HEL  HZ I        1637 25.93         7.2 0.30            114            276 257 
 GUY2CHZ EP       1636 53.07                             111    0.38 7  304 236 
 GUY2CHN ES   4   1637 30.00                             111    3.19 0  304 236 
 GUY2CHZ I        1637 34.07         9.7 0.34                           304 236 
 PTGC HZ EP   4   1636 51.02                             111   -1.18 0  305 159 
 PTGC HN ES   4   1637 24.60                             111   -1.34 0  305 159 
 LL6C HZ EP   4   1636 33.20                             109   -21.6 0  328 357 
 LL6C HN ES   4   1637  9.67                             109   -20.9 0  328 357 
 ELA  HZ EP   4   1637  0.67                             109    4.77 0  331 230 
 ELA  HN ES   2   1637 33.53                             109    1.01 3  331 230 
 ELA  HZ I        1637 40.54         6.4 0.52            110            331 230 
 CBOC HZ EP       1636 56.22                             109    0.05 7  337 253 
 CBOC HN ES       1637 33.22                             109    0.23 7  337 253 
 ORTC HZ EP       1637  2.92                             106    0.06 6  396 217 
 ORTC HN ES   4   1637 46.61                             106    1.70 0  396 217 
 ORTC HZ I        1637 49.21         4.2 0.28            106            396 217 
 SJC  HZ EP   4   1637  2.03                             105   -2.92 0  414 327 
 SJC  HN ES   4   1637 43.18                             105   -5.45 0  414 327 
 SJC  HZ I        1637 51.81         2.8 0.42            106            414 327 
                                                                                
