 2012  830 1027  5.7 L   6.805 -73.143136.4  RSN  7 0.5 1.8LRSN                1
 GAP=183        0.94       5.2     6.4  8.2  0.9050E+01  0.8345E+01 -0.2448E+01E
 Epicentro: LOS SANTOS - SANTANDER                                             3
 ACTION:UPD 12-09-10 11:59 OP:ep   STATUS:               ID:20120830102705 L   I
 2012-08-30-1020-00M.COL___218                                                 6
 STAT SP IPHASW D HRMM SECON CODA AMPLIT PERI AZIMU VELO AIN AR TRES W  DIS CAZ7
 BAR2 SZ EP       1027 24.34                             170    0.1210 23.9 190 
 BAR2 SZ ES   1   1027 37.98                             170   -0.69 7 23.9 190 
 BAR2 SZ I        1027 40.71        24.1 0.21                          23.9 190 
 GIR2 SZ EP       1027 24.27                             167    0.0210 30.8 350 
 GIR2 SZ ES   1   1027 38.81                             167    0.09 7 30.8 350 
 BRR  HZ EP       1027 26.07                             151    0.2210 71.2 298 
 BRR  HZ I        1027 26.34        30.8 0.20                          71.2 298 
 BRR  HN ES   1   1027 42.44                             151    0.88 7 71.2 298 
 RUS  HZ EP   1   1027 28.11                             142   -0.48 7  101 176 
 RUS  HN ES   1   1027 46.85                             142    0.42 7  101 176 
 RUS  HZ I        1027 48.55         5.3 0.25                           101 176 
 PTB  HN ES   1   1027 51.78                             130   -0.66 7  148 259 
 PTB  HZ I        1027 59.08         3.7 0.33                           148 259 
 OCA  HN ES   1   1027 54.19                             127   -0.56 7  160 353 
 OCA  HZ I        1027 58.26        18.6 0.19                           160 353 
 ZAR  HZ EP   1   1027 38.01                             120    0.45 6  204 292 
 ZAR  HN ES   1   1028  2.22                             120   -0.19 6  204 292 
 ZAR  HZ I        1028  9.47         5.9 0.24                           204 292 
                                                                                
