 2010  530 1147 26.1 L   6.817 -73.109133.9  RSN  9 0.5 2.0LRSN                1
 GAP=180        1.16       4.3     8.8  9.0 -0.1832E+02  0.2529E+02  0.1159E+01E
 Epicentro: LOS SANTOS - SANTANDER                                             3
 ACTION:UP  10-08-24 10:07 OP:vdl  STATUS:               ID:20100530114726 L   I
 2010-05-30-1143-05S.COL___109                                                 6
 STAT SP IPHASW D HRMM SECON CODA AMPLIT PERI AZIMU VELO SNR AR TRES W  DIS CAZ7
 BAR2 SZ EP       1147 44.17                             168    -0.210   26 198 
 BAR2 SZ ES       1147 58.85                             168     0.210   26 198 
 GUE  SZ EP       1147 49.25                             137    -0.310  114  10 
 GRA  SZ ES   1   1148  8.27                             135    -0.4 7  123  16 
 OCA  SZ EP       1147 52.93                             127    -0.4 9  159 352 
 OCA  SZ ES       1148 15.26                             127     0.6 9  159 352 
 OCA  SZ I        1148 17.36        14.9 0.12                           159 352 
 CHI  HZ EP       1148  4.37                             114     0.9 8  252 196 
 CHI  HN ES       1148 32.40                             114    -0.2 8  252 196 
 CHI  HZ I        1148 36.53         5.8 1.04                           252 196 
 ROSC BN ES   1   1148 32.95                             114    -0.6 6  256 212 
 ROSC BZ I        1148 38.14         7.6 0.65                           256 212 
 HEL  HN ES       1148 37.50                             112     0.0 7  276 256 
 HEL  HZ I        1148 41.81         5.0 1.14                           276 256 
 RREF BZ EP       1148 12.75                             108     0.5 7  326 230 
 RREF BZ I        1148 53.20         5.9 0.44                           326 230 
 TOL  SZ ES   1   1148 51.52                             107    -0.5 5  348 225 
                                                                                
