 2011  130 1036  4.0 L   6.770 -73.024134.5  RSN  6 0.1 1.6LRSN                1
 GAP=173        0.34       2.1    10.9  4.2  0.5928E+01 -0.3106E+02 -0.3702E+01E
 Epicentro: CEPITA - SANTANDER                                                 3
 ACTION:UP  11-02-08 08:43 OP:pat  STATUS:               ID:20110130103604 L   I
 2011-01-30-1034-32S.COL___138                                                 6
 STAT SP IPHASW D HRMM SECON CODA AMPLIT PERI AZIMU VELO SNR AR TRES W  DIS CAZ7
 BAR2 SZ IP       1036 22.33                             168     0.010   26 222 
 BAR2 SZ ES   1   1036 36.48                             168    -0.2 7   26 222 
 BAR2 SZ I        1036 38.02        14.8 0.29                            26 222 
 BTL  SZ EP       1036 22.38                             166    -0.110   32 301 
 BTL  SZ ES   1   1036 37.12                             166     0.2 7   32 301 
 GIR2 SZ EP   3   1036 22.45                             163    -0.1 2   39 331 
 RUS  HZ EP       1036 26.46                             142     0.110   97 184 
 RUS  HN ES   2   1036 44.00                             142     0.1 5   97 184 
 RUS  HZ I        1036 46.64         6.6 0.41                            97 184 
 GRA  SZ EP       1036 28.27                             134     0.010  126  11 
 GRA  SZ I        1036 51.27         3.0 0.60                           126  11 
 OCA  SZ EP       1036 32.04                             126     0.1 9  166 349 
 OCA  SZ ES   2   1036 53.76                             126    -0.1 5  166 349 
 OCA  SZ I        1036 57.07         5.0 0.13                           166 349 
                                                                                
