 2017  130 1003 31.3 L   6.784 -73.169145.1  RSN  7 0.3 1.7LRSN                1
 GAP=134        0.71       3.3     3.2  4.8  0.8286E+00  0.3502E+01  0.2437E+01E
 Epicentro: LOS SANTOS - SANTANDER                                             3
 ACTION:UPD 17-05-22 16:04 OP:jn   STATUS:               ID:20170130100331 L   I
 OLDACT:REG 17-01-30 20:19 OP:y    STATUS:               ID:20170130095739     3
 2017-01-30-0958-00M.COL___336                                                 6
 STAT SP IPHASW D HRMM SECON CODA AMPLIT PERI AZIMU VELO AIN AR TRES W  DIS CAZ7
 BAR2 EZ EP       10 3 50.63                             171   -0.1410 21.2 184 
 BAR2 EZ ES       10 4  5.88                             171   -0.1110 21.2 184 
 BAR2 EZ I        10 4  8.39        17.6 0.30            168           21.2 184 
 BRR  HZ EP   2   10 3 52.33                             153    0.08 5 69.8 301 
 BRR  HN ES       10 4  9.36                             153    0.7210 69.8 301 
 BRR  HZ I        10 4 13.56        12.7 0.18            151           69.8 301 
 PAM  EZ EP       10 3 53.47                             150   -0.1210 80.4  40 
 PAM  EN ES       10 4 10.81                             150   -0.2010 80.4  40 
 PAM  EZ I        10 4 13.02         7.1 0.58            156           80.4  40 
 RUS  HZ EP   2   10 3 55.13                             144    0.30 5 99.0 174 
 RUS  HN ES       10 4 13.23                             144    0.0110 99.0 174 
 RUS  HZ I        10 4 14.49         8.2 0.32            144           99.0 174 
 PTB  HZ EP       10 3 57.94                             132    0.04 9  145 259 
 PTB  HN ES       10 4 18.21                             132   -0.48 9  145 259 
 PTB  HZ I        10 4 25.10         4.0 0.10            131            145 259 
 ZAR  HZ EP   2   10 4  3.69                             122    0.21 4  202 293 
 ZAR  HN ES       10 4 28.44                             122   -0.17 9  202 293 
 ZAR  HZ I        10 4 34.43         5.8 0.34            123            202 293 
 CHI  HZ EP       10 4  8.91                             117    0.26 8  246 195 
 CHI  HN ES   2   10 4 38.09                             117    0.26 4  246 195 
 CHI  HZ I        10 4 47.97         2.6 0.36            118            246 195 
                                                                                
