 2010  130 1236 10.3 L   6.799 -73.080149.6  RSN 13 0.6 3.6LRSN                1
 GAP=131        0.93       4.1     7.5  6.3 -0.5959E+01  0.1517E+02  0.8604E+00E
 Epicentro: LOS SANTOS - SANTANDER                                             3
 ACTION:UP  10-08-24 09:46 OP:vdl  STATUS:               ID:20100130123610 L   I
 2010-01-30-1234-03S.COL___094                                                 6
 STAT SP IPHASW D HRMM SECON CODA AMPLIT PERI AZIMU VELO SNR AR TRES W  DIS CAZ7
 BAR2 SZ IP       1236 30.52                             170     0.110   26 207 
 BAR2 SZ ES   1   1236 45.59                             170    -0.6 7   26 207 
 GIR2 SZ IP       1236 30.61                             167     0.110   33 338 
 GIR2 SZ ES   1   1236 46.83                             167     0.6 7   33 338 
 RUS  BZ IP       1236 34.34                             145    -0.110  100 180 
 RUS  BE ES   1   1236 53.05                             145    -0.2 7  100 180 
 RUS  BZ I        1236 54.41       423.4 0.16                           100 180 
 OCA  SZ EP       1236 38.89                             130    -0.1 9  161 351 
 OCA  SZ ES   2   1237  2.02                             130     0.6 5  161 351 
 CHI  HZ IP       1236 48.09                             118    -0.3 8  251 197 
 CHI  HZ I        1236 51.29       154.3 0.43                           251 197 
 CHI  HE ES   1   1237 18.13                             118     0.0 6  251 197 
 HEL  HZ EP   2   1236 52.66                             115     1.2 4  279 256 
 HEL  HN ES   2   1237 22.88                             115    -0.7 4  279 256 
 HEL  HZ I        1237 29.26       289.9 0.43                           279 256 
 RREF BZ EP   1   1236 57.54                             111     0.3 5  327 230 
 RREF BN ES   2   1237 35.47                             111     1.6 3  327 230 
 RREF BZ I        1237 39.92       203.9 0.49                           327 230 
 DBB  SZ EP   1   1236 58.26                             110    -0.5 5  347 274 
 TOL  SZ EP   1   1236 59.88                             110     0.6 5  349 226 
 SDV  BZ EP   1   1236 59.77                             109    -0.1 5  355  49 
 MON  HE ES   2   1237 36.87                             109    -2.1 3  359 308 
 MON  HZ I        1237 53.08       189.3 0.71                           359 308 
 ANIL BZ EP   1   1237  1.60                             109     0.8 5  362 225 
 PRA  HZ EP   1   1237  3.98                             107    -0.4 4  396 210 
 PRA  HN ES   2   1237 46.56                             107     0.0 3  396 210 
 PRA  HZ I        1237 52.31       132.6 0.60                           396 210 
                                                                                
