 2016 1230 1236  9.5 L   6.783 -73.155145.4  RSN 14 0.5 2.7LRSN                1
 GAP= 99        1.14       4.2     3.6  6.4  0.1214E+01  0.4043E+01  0.6584E+01E
 Epicentro: LOS SANTOS - SANTANDER                                             3
 ACTION:UPD 17-01-11 20:20 OP:rebc STATUS:               ID:20161230123609 L   I
 OLDACT:UP  16-12-30 22:46 OP:cog  STATUS:               ID:20161230122747     3
 OLDACT:UP  16-12-30 22:45 OP:cog  STATUS:               ID:20161230122747     3
 OLDACT:REG 16-12-30 20:32 OP:cog  STATUS:               ID:20161230122747     3
 2016-12-30-1228-00M.COL___375                                                 6
 STAT SP IPHASW D HRMM SECON CODA AMPLIT PERI AZIMU VELO AIN AR TRES W  DIS CAZ7
 BAR2 EZ IP     D 1236 28.95                             171   -0.0610 21.4 188 
 BAR2 EZ ES       1236 43.93                             171   -0.3310 21.4 188 
 BAR2 EZ I        1236 45.37        99.8 0.44            164           21.4 188 
 BRR  HZ IP     D 1236 30.88                             152    0.3110 71.2 300 
 BRR  HN ES       1236 48.01                             152    0.9710 71.2 300 
 BRR  HZ I        1236 49.72        81.6 0.16            150           71.2 300 
 PAM  EZ IP     D 1236 31.79                             150    0.0310 79.4  39 
 PAM  EN ES       1236 48.95                             150   -0.2110 79.4  39 
 PAM  EZ I        1236 51.02        51.3 0.22            156           79.4  39 
 RUS  HZ EP       1236 32.91                             144   -0.1410 98.8 175 
 RUS  HN ES       1236 51.63                             144    0.1810 98.8 175 
 RUS  HZ I        1236 52.36        48.3 0.26            140           98.8 175 
 PTB  HZ EP       1236 35.82                             132   -0.46 9  146 259 
 PTB  HN ES       1236 56.07                             132   -1.13 9  146 259 
 PTB  HZ I        1236 59.34        72.3 0.14            128            146 259 
 TAM  HZ EP       1236 37.18                             130    0.02 9  156 104 
 TAM  HN ES       1236 58.74                             130   -0.02 9  156 104 
 ZAR  HZ EP       1236 41.58                             122   -0.28 9  204 293 
 ZAR  HE ES       1237  7.52                             122    0.39 9  204 293 
 ZAR  HZ I        1237 13.22        55.9 0.40            121            204 293 
 CHI  HZ EP       1236 47.17                             117    0.25 8  247 195 
 CHI  HN ES       1237 16.17                             117    0.03 8  247 195 
 CHI  HZ I        1237 22.35        21.0 0.28            115            247 195 
 ROSC BZ EP   4   1236 49.59                             117    2.26 0  251 211 
 ROSC BN ES   4   1237 19.94                             117    3.06 0  251 211 
 ROSC BZ I        1237 26.86        47.2 0.40            114            251 211 
 GUY2CHZ EP   4   1236 53.46                             112    0.62 0  299 235 
 GUY2CHN ES   4   1237 28.22                             112    1.54 0  299 235 
 GUY2CHZ I        1237 36.54        23.5 0.38                           299 235 
 VIL  EZ EP   4   1236 58.19                             112    5.55 0  301 191 
 VIL  EN ES   4   1237 20.12                             112   -6.19 0  301 191 
 VIL  EZ I        1237 39.09        26.0 0.32            110            301 191 
 ELA  HZ EP   4   1236 58.00                             110    1.93 0  327 230 
 ELA  HE ES   4   1237 31.82                             110   -0.61 0  327 230 
 ELA  HZ I        1237 41.52        15.8 0.48            109            327 230 
 ANIL HZ EP   4   1237  1.03                             108    2.01 0  355 225 
 ANIL HE ES   4   1237 38.79                             108    1.12 0  355 225 
 ANIL HZ I        1237 50.79        54.7 0.28            107            355 225 
 ORTC HZ EP       1237  3.23                             106    0.10 6  393 216 
 ORTC HE ES       1237 46.05                             106    1.07 6  393 216 
 ORTC HZ I        1237 53.29        17.5 0.58            105            393 216 
                                                                                
