 2015  830 1817 25.2 L   6.822 -73.139146.7  RSN 10 0.4 2.0LRSN                1
 GAP=150        0.99       3.6     5.0  6.7 -0.4315E+01  0.5025E+01  0.2761E+01E
 Epicentro: LOS SANTOS - SANTANDER                                             3
 ACTION:UPD 15-09-15 23:06 OP:cam  STATUS:               ID:20150830181725 L   I
 OLDACT:REG 15-08-30 22:06 OP:spq  STATUS:               ID:20150830180748     3
 2015-08-30-1807-48M.COL___334                                                 6
 STAT SP IPHASW D HRMM SECON CODA AMPLIT PERI AZIMU VELO AIN AR TRES W  DIS CAZ7
 BAR2 EZ EP       1817 44.68                             169   -0.2810 25.9 191 
 BAR2 EZ ES   1   1818  0.03                             169   -0.37 7 25.9 191 
 BAR2 EZ I        1818  1.19        14.0 0.26            167           25.9 191 
 BRR  HZ EP       1817 46.52                             153    0.1310 70.8 296 
 BRR  HN ES       1818  3.64                             153    0.7010 70.8 296 
 BRR  HZ I        1818  7.63        13.8 0.14            150           70.8 296 
 PAM  EZ EP     C 1817 47.69                             152    0.3510 75.0  40 
 PAM  EN ES   1   1818  4.84                             152    0.20 7 75.0  40 
 PAM  EZ I        1818  6.85        20.2 0.44            157           75.0  40 
 OCA  HZ EP       1817 53.20                             130   -0.13 9  158 353 
 OCA  HN ES       1818 14.47                             130   -0.83 9  158 353 
 OCA  HZ I        1818 20.25        17.2 0.29            132            158 353 
 ZAR  HN ES       1818 22.93                             123   -0.06 9  204 291 
 ZAR  HZ I        1818 28.87         7.4 0.30            123            204 291 
 NOR  HN ES       1818 28.63                             119   -0.61 8  237 234 
 NOR  HZ I        1818 36.49         5.5 0.20            119            237 234 
 SML  HZ EP       1818  1.49                             118   -0.14 8  242 335 
 SML  HN ES   1   1818 30.58                             118    0.49 6  242 335 
 SML  HZ I        1818 31.87        13.8 0.30            119            242 335 
 CHI  HZ EP   1   1818  2.92                             117   -0.27 6  251 195 
 CHI  HN ES   1   1818 33.06                             117    0.21 6  251 195 
 CHI  HZ I        1818 38.12         4.7 0.62            118            251 195 
 HEL  HZ EP   4   1818  7.43                             115    1.86 0  273 255 
 HEL  HE ES   4   1818 35.72                             115   -1.37 0  273 255 
 HEL  HZ I        1818 43.50         3.2 0.34            115            273 255 
 GUY2CHZ EP       1818  9.82                             112    0.78 7  303 234 
 GUY2CHN ES   1   1818 43.15                             112   -0.12 5  303 234 
 GUY2CHZ I        1818 54.90         3.8 0.48                           303 234 
                                                                                
