 2013  530 1428 54.2 L   6.719 -73.176148.1  RSN  7 0.4 1.9LRSN                1
 GAP=136        1.19       5.4     6.2  7.5 -0.6552E+01 -0.9926E+00 -0.3867E+00E
 Epicentro: VILLANUEVA - SANTANDER                                             3
 ACTION:UPD 13-06-20 09:54 OP:ep   STATUS:               ID:20130530142853 L   I
 OLDACT:UP  13-05-31 22:29 OP:Juan STATUS:               ID:20130530142853 L   3
 2013-05-30-1418-43M.COL___218                                                 6
 STAT SP IPHASW D HRMM SECON CODA AMPLIT PERI AZIMU VELO AIN AR TRES W  DIS CAZ7
 BAR2 SZ IP     D 1429 13.86                             174   -0.1510 14.0 183 
 BAR2 SZ ES       1429 29.14                             174   -0.2810 14.0 183 
 BAR2 SZ I        1429 29.98         9.7 0.26            172           14.0 183 
 GIR2 SZ EP       1429 13.78                             164   -0.6710 39.9 357 
 GIR2 SZ ES       1429 29.65                             164   -0.5610 39.9 357 
 BRR  HZ IP     C 1429 15.72                             152   -0.0410 73.2 306 
 BRR  HN ES       1429 33.19                             152    0.6510 73.2 306 
 BRR  HE I        1429 40.40        18.9 0.40            149           73.2 306 
 PAM  SZ EP       1429 16.72                             148   -0.5510 86.5  37 
 RUS  HZ EP       1429 18.22                             147    0.5910 91.9 174 
 RUS  HE ES       1429 36.11                             147    0.2410 91.9 174 
 RUS  HN I        1429 38.25         9.6 0.18            149           91.9 174 
 BRI  SZ IP       1429 19.48                             139    0.3810  118  21 
 BRI  SZ ES       1429 39.09                             139    0.6110  118  21 
 PTB  HZ EP       1429 20.90                             133   -0.08 9  143 262 
 PTB  HN ES       1429 41.71                             133   -0.12 9  143 262 
 PTB  HE I        1429 47.47        16.4 0.52            132            143 262 
 SOCV BZ EP   4   1429 36.02                             112   -2.25 0  309  56 
                                                                                
