 2016  930 1634 29.2 L   6.783 -73.145143.5  RSN  7 0.6 1.8LRSN                1
 GAP=137        1.49       8.7     8.3  9.9  0.2880E+02  0.2158E+02  0.3547E+01E
 Epicentro: LOS SANTOS - SANTANDER                                             3
 ACTION:UPD 17-08-17 21:18 OP:lp   STATUS:               ID:20160930163429 L   I
 OLDACT:UP  16-09-30 22:37 OP:dani STATUS:               ID:20160930162743     3
 OLDACT:REG 16-09-30 20:13 OP:dani STATUS:               ID:20160930162743     3
 2016-09-30-1628-00M.COL___368                                                 6
 STAT SP IPHASW D HRMM SECON CODA AMPLIT PERI AZIMU VELO AIN AR TRES W  DIS CAZ7
 BAR2 EZ EP       1634 48.48                             171    0.0010 21.5 191 
 BAR2 EZ ES       1635  2.45                             171   -1.1010 21.5 191 
 BAR2 EZ I        1635  4.30        11.6 0.21            165           21.5 191 
 BRR  HZ EP       1634 50.25                             152    0.1310 72.2 300 
 BRR  HN ES       1635  7.21                             152    0.7410 72.2 300 
 BRR  HZ I        1635 11.09        13.9 0.32            145           72.2 300 
 PAM  EZ EP   2   1634 51.12                             150   -0.10 5 78.8  39 
 PAM  EN ES   2   1635  8.36                             150   -0.06 5 78.8  39 
 PAM  EZ I        1635 10.79        11.2 0.36            147           78.8  39 
 RUS  HZ EP       1634 52.63                             144    0.0810 98.7 176 
 RUS  HE ES       1635 11.64                             144    0.8410 98.7 176 
 PTB  HZ EP       1634 55.49                             131   -0.43 9  148 260 
 PTB  HN ES       1635 16.00                             131   -0.79 9  148 260 
 PTB  HZ I        1635 18.50         6.6 0.16            123            148 260 
 ZAR  HZ EP       1635  0.98                             122   -0.56 9  205 293 
 ZAR  HE ES       1635 27.62                             122    0.82 9  205 293 
 ZAR  HZ I        1635 32.34         6.8 0.13            114            205 293 
 NOR  HZ EP       1635  4.97                             118    0.32 8  234 235 
 NOR  HZ I        1635 37.73         3.6 0.23            110            234 235 
                                                                                
