 2015  830 1615 16.1 L   6.788 -73.107140.6  RSN  5 0.2 1.7LRSN                1
 GAP=165        0.56       5.8     3.4  5.2  0.1918E+01  0.1281E+01 -0.1397E+02E
 Epicentro: LOS SANTOS - SANTANDER                                             3
 ACTION:UPD 15-09-15 23:06 OP:cam  STATUS:               ID:20150830161516 L   I
 OLDACT:REG 15-08-30 21:56 OP:spq  STATUS:               ID:20150830160749     3
 2015-08-30-1607-49M.COL___334                                                 6
 STAT SP IPHASW D HRMM SECON CODA AMPLIT PERI AZIMU VELO AIN AR TRES W  DIS CAZ7
 BAR2 EZ ES   1   1615 49.51                             170   -0.42 7 23.2 201 
 BAR2 EZ I        1615 51.02         8.7 0.20            172           23.2 201 
 BRR  HZ EP       1615 36.79                             150   -0.1610 75.6 298 
 BRR  HN ES       1615 53.40                             150    0.1810 75.6 298 
 BRR  HZ I        1615 57.55         9.7 0.16            149           75.6 298 
 PAM  EZ EP       1615 37.83                             150    0.1510 75.8  36 
 PAM  EN ES   1   1615 54.64                             150    0.14 7 75.8  36 
 PAM  EZ I        1615 56.58         7.5 0.52            152           75.8  36 
 ZAR  HE ES       1616 14.23                             121    0.14 8  208 292 
 ZAR  HZ I        1616 18.85         5.0 0.28            122            208 292 
 SML  HZ EP       1615 52.87                             116    0.10 8  247 335 
 SML  HN ES   1   1616 20.90                             116   -0.48 6  247 335 
 SML  HZ I        1616 23.46         5.4 0.10            118            247 335 
                                                                                
