 2016 1130 1651 36.7 L   6.060 -74.160 77.2  RSN  6 0.4 1.7LRSN                1
 GAP=136        1.10       3.5     4.2  9.7 -0.6676E+01 -0.1168E+02  0.1126E+02E
 Epicentro: LA BELLEZA - SANTANDER                                             3
 ACTION:UPD 17-10-26 21:13 OP:lp   STATUS:               ID:20161130165136 L   I
 OLDACT:REG 16-11-30 21:04 OP:lv   STATUS:               ID:20161130164747     3
 2016-11-30-1648-00M.COL___346                                                 6
 STAT SP IPHASW D HRMM SECON CODA AMPLIT PERI AZIMU VELO AIN AR TRES W  DIS CAZ7
 PTB  HZ IP     C 1651 49.63                             137   -0.6910 62.3 328 
 PTB  HN ES       1652  0.73                             137   -0.2110 62.3 328 
 PTB  HZ I        1652  1.66        11.3 0.18            138           62.3 328 
 NOR  HZ EP       1651 52.87                             124   -0.6510 95.8 235 
 NOR  HN ES       1652  7.26                             124    0.6210 95.8 235 
 NOR  HZ I        1652  8.99        36.9 0.18            123           95.8 235 
 BAR2 EZ EP       1651 56.26                             117   -0.4110  123  61 
 BAR2 EZ ES       1652 12.43                             117    0.1810  123  61 
 BAR2 EZ I        1652 16.65         8.6 0.27            116            123  61 
 BRR  HZ EP       1651 56.66                             116   -0.0210  126  23 
 BRR  HN ES       1652 12.79                             116    0.5310  126  23 
 ZAR  HZ EP       1652  2.76                             108    0.30 9  176 334 
 ZAR  HN ES       1652 22.74                             108    0.20 9  176 334 
 ZAR  HZ I        1652 27.11         8.8 0.28            108            176 334 
 PRA  HZ EP       1652 14.36                             101    0.42 8  272 197 
 PRA  HN ES       1652 43.07                             101    0.08 8  272 197 
 PRA  HZ I        1652 49.26         2.1 0.23            100            272 197 
                                                                                
