 2014  730 1646 28.2 L   6.836 -73.168139.9  RSN 14 0.5 2.4LRSN                1
 GAP=132        1.01       2.8     3.7  6.3 -0.1828E+01  0.9049E+01  0.1413E+01E
 Epicentro: ZAPATOCA - SANTANDER                                               3
 ACTION:UPD 15-03-16 20:48 OP:nd   STATUS:               ID:20140730164628 L   I
 OLDACT:REG 14-07-30 22:20 OP:carl STATUS:               ID:20140730163818     3
 2014-07-30-1638-18M.COL___257                                                 6
 STAT SP IPHASW D HRMM SECON CODA AMPLIT PERI AZIMU VELO AIN AR TRES W  DIS CAZ7
 BAR2 SZ EP       1646 47.19                             169    0.0110 27.0 183 
 BAR2 SZ I        1647  4.04        33.4 0.20            169           27.0 183 
 PAM  SZ EP       1646 49.82                             150    0.1310 76.1  43 
 PAM  SN ES       1647  6.80                             150    0.3310 76.1  43 
 PAM  SZ I        1647  8.85        38.9 0.50            153           76.1  43 
 RUS  HZ EP       1646 51.30                             141   -0.3610  105 175 
 RUS  HE ES       1647 10.26                             141    0.2710  105 175 
 RUS  HZ I        1647 11.62        10.9 0.36            144            105 175 
 PTB  HZ EP       1646 53.87                             131   -0.65 9  146 257 
 PTB  HN ES       1647 14.64                             131   -0.43 9  146 257 
 PTB  HZ I        1647 17.60        30.6 0.52            133            146 257 
 SPBC HZ EP       1646 56.14                             127   -0.24 9  165 217 
 SPBC HN ES       1647 18.10                             127   -0.28 9  165 217 
 SPBC HZ I        1647 25.68        28.9 0.24            130            165 217 
 ZAR  HZ EP       1646 59.65                             122   -0.20 9  200 291 
 ZAR  HN ES       1647 25.01                             122    0.46 9  200 291 
 ZAR  HZ I        1647 30.92        29.3 0.40            124            200 291 
 NOR  HZ EP       1647  3.54                             117   -0.06 8  235 233 
 NOR  HN ES       1647 31.17                             117   -0.06 8  235 233 
 NOR  HZ I        1647 34.85        19.1 0.54            119            235 233 
 SML  HZ EP       1647  4.22                             117    0.25 8  239 335 
 SML  HN ES       1647 31.39                             117   -0.50 8  239 335 
 SML  HZ I        1647 39.41        25.2 0.10            119            239 335 
 CHI  HZ EP       1647  5.12                             116   -0.78 8  252 194 
 CHI  HN ES       1647 35.29                             116   -0.04 8  252 194 
 CHI  HZ I        1647 42.93         8.4 0.46            118            252 194 
 GUY2CHZ EP       1647 11.74                             111    0.20 7  301 234 
 GUY2CHN ES       1647 46.53                             111    1.15 7  301 234 
 GUY2CHZ I        1647 54.86        11.3 0.32                           301 234 
 RREF HZ EP       1647 14.99                             110    0.84 7  322 229 
 RREF HN ES       1647 50.53                             110    0.52 7  322 229 
 RREF HZ I        1647 59.85        11.4 0.40            112            322 229 
 CBOC HZ EP       1647 15.37                             109    0.65 7  332 251 
 CBOC HN ES       1647 50.48                             109   -0.54 7  332 251 
 DBB  SZ EP   4   1647 12.42                             109   -2.67 0  337 274 
 DBB  SZ ES   4   1647 48.24                             109   -3.46 0  337 274 
 TOL  SZ EP       1647 17.23                             108    0.91 7  345 224 
 TOL  SE ES       1647 53.90                             108    0.02 7  345 224 
 TOL  SZ I        1648  2.08        24.2 0.60            110            345 224 
 PRA  HZ EP       1647 21.54                             105   -0.22 6  394 209 
 PRA  HN ES       1648  3.08                             105   -0.47 6  394 209 
 PRA  HZ I        1648  7.71         9.2 0.26            107            394 209 
                                                                                
