 2010  730 1452  9.7 L   6.339 -73.570114.7  RSN  5 0.2 1.6LRSN                1
 GAP=143        0.50       4.0     7.9  7.1  0.8136E+01  0.2920E+02  0.6418E+01E
 Epicentro: SANTA HELENA DEL OPON - SANTANDER                                  3
 ACTION:UPD 10-12-01 15:21 OP:pat  STATUS:               ID:20100730145209 L   I
 2010-07-30-1449-44S.COL___123                                                 6
 STAT SP IPHASW D HRMM SECON CODA AMPLIT PERI AZIMU VELO AIN AR TRES W  DIS CAZ7
 BAR2 SZ IP     D 1452 26.94                             154     0.210   51  57 
 BAR2 SZ ES   2   1452 40.28                             154     0.3 5   51  57 
 BAR2 SZ I        1452 41.23        15.6 0.29                            51  57 
 RUS  HZ EP   1   1452 28.21                             145    -0.2 7   73 132 
 RUS  HN ES   2   1452 42.74                             145    -0.3 5   73 132 
 RUS  HZ I        1452 44.26         3.9 0.34                            73 132 
 BRR  HZ EP   1   1452 28.50                             140    -0.2 7   86 350 
 BRR  HE ES   2   1452 43.41                             140    -0.1 5   86 350 
 GUE  SZ EP   1   1452 38.00                             118    -0.1 7  180  23 
 PRA  HZ EP   1   1452 54.54                             104     0.2 5  325 207 
 PRA  HZ I        1453 34.58         2.5 0.32                           325 207 
                                                                                
