 2011 1030 1036 21.0 L   6.755 -73.130151.2  RSN  6 0.2 1.5LRSN                1
 GAP=141        0.35       2.9     3.7  4.7  0.1440E+01  0.3079E+00 -0.2311E+01E
 Epicentro: LOS SANTOS - SANTANDER                                             3
 ACTION:UPD 12-07-13 16:07 OP:ep   STATUS:               ID:20111030103621 L   I
 2011-10-30-1032-46S.COL___157                                                 6
 STAT SP IPHASW D HRMM SECON CODA AMPLIT PERI AZIMU VELO AIN AR TRES W  DIS CAZ7
 BAR2 SZ EP   1   1036 41.23                             173    0.02 7 18.9 198 
 BAR2 SZ ES   2   1036 56.94                             173   -0.03 5 18.9 198 
 BAR2 SZ I        1036 57.77         9.1 0.66                          18.9 198 
 BRR  HZ EP   1   1036 42.98                             152    0.01 7 75.2 301 
 BRR  HN ES   2   1037  0.35                             152    0.25 5 75.2 301 
 BRR  HZ I        1037  4.15         5.0 0.16                          75.2 301 
 PAM  SZ EP   1   1036 44.08                             151    0.11 7 80.2  36 
 PAM  SN ES   2   1037  1.47                             151   -0.41 5 80.2  36 
 RUS  HZ EP   2   1036 44.89                             146   -0.06 5 95.5 177 
 RUS  HZ I        1036 45.50         2.6 0.65                          95.5 177 
 RUS  HE ES   2   1037  3.69                             146    0.07 5 95.5 177 
 OCA  SZ EP   2   1036 50.07                             130   -0.15 5  165 353 
 OCA  SZ ES   2   1037 13.33                             130    0.32 5  165 353 
 OCA  SZ I        1037 17.08         7.0 0.52                           165 353 
 ZAR  HN ES   2   1037 19.68                             123   -0.37 4  208 293 
 ZAR  HZ I        1037 30.72         1.9 0.71                           208 293 
                                                                                
