 2013  130 1011  6.4 L   6.748 -73.160147.2  RSN  8 0.5 1.8LRSN                1
 GAP=150        1.15       6.2     5.8  8.3 -0.8087E+01  0.4764E+01  0.1627E+02E
 Epicentro: LOS SANTOS - SANTANDER                                             3
 ACTION:UPD 13-02-15 09:17 OP:ep   STATUS:               ID:20130130101106 L   I
 2013-01-30-1008-50M.COL___179                                                 6
 STAT SP IPHASW D HRMM SECON CODA AMPLIT PERI AZIMU VELO AIN AR TRES W  DIS CAZ7
 BAR2 SZ EP       1011 25.88                             173   -0.1810 17.4 188 
 BAR2 SZ ES       1011 41.01                             173   -0.4110 17.4 188 
 BAR2 SZ I        1011 41.42        23.1 0.26            172           17.4 188 
 BRR  HZ EP       1011 28.00                             152    0.2410 72.8 303 
 BRR  HZ I        1011 30.67        10.6 0.38            147           72.8 303 
 BRR  HN ES       1011 45.30                             152    0.8610 72.8 303 
 PAM  SZ IP     C 1011 28.95                             149   -0.1110 82.9  38 
 PAM  SZ I        1011 29.25        18.8 0.16            149           82.9  38 
 PAM  SN ES       1011 46.83                             149    0.0610 82.9  38 
 PTB  HZ EP       1011 32.68                             133   -0.54 9  145 261 
 PTB  HN ES       1011 53.34                             133   -0.82 9  145 261 
 PTB  HZ I        1011 55.65         6.7 0.24            129            145 261 
 OCA  HN ES   2   1011 57.45                             129   -0.43 5  166 354 
 ZAR  HZ EP   2   1011 39.34                             123    0.36 4  205 294 
 ZAR  HN ES   2   1012  5.04                             123    0.62 4  205 294 
 ZAR  HZ I        1012 13.47         9.2 0.32            119            205 294 
 CHI  HZ EP       1011 43.69                             118    0.19 8  243 195 
 CHI  HN ES   1   1012 13.50                             118    1.04 6  243 195 
 CHI  HZ I        1012 15.49         2.1 0.40            117            243 195 
 HEL  HE ES   2   1012 18.46                             115    0.96 4  269 257 
                                                                                
