 2016 1030 1301 23.8 L   6.751 -73.146152.7  RSN 11 0.4 1.8LRSN                1
 GAP=139        0.93       4.2     4.4  5.6 -0.6105E+01  0.4204E+01  0.4637E+01E
 Epicentro: LOS SANTOS - SANTANDER                                             3
 ACTION:UPD 16-11-09 19:24 OP:rebc STATUS:               ID:20161030130123 L   I
 OLDACT:UP  16-10-30 22:12 OP:edw  STATUS:               ID:20161030125744     3
 OLDACT:UP  16-10-30 22:11 OP:edw  STATUS:               ID:20161030125744     3
 OLDACT:UP  16-10-30 22:08 OP:edw  STATUS:               ID:20161030125744     3
 OLDACT:UP  16-10-30 22:07 OP:edw  STATUS:               ID:20161030125744     3
 OLDACT:REG 16-10-30 20:05 OP:edw  STATUS:               ID:20161030125744     3
 2016-10-30-1258-00M.COL___325                                                 6
 STAT SP IPHASW D HRMM SECON CODA AMPLIT PERI AZIMU VELO AIN AR TRES W  DIS CAZ7
 BAR2 EZ EP       13 1 44.37                             173    0.1910 18.0 193 
 BAR2 EZ ES       13 1 59.89                             173   -0.1810 18.0 193 
 BAR2 EZ I        13 2  0.43        21.8 0.10            171           18.0 193 
 BRR  HZ EP       13 1 46.39                             153    0.5310 73.9 302 
 BRR  HN ES       13 2  3.10                             153    0.0410 73.9 302 
 BRR  HZ I        13 2  6.61        16.8 0.28            151           73.9 302 
 PAM  HZ EP       13 1 47.47                             151    0.4510 81.7  37 
 PAM  EE ES       13 2  4.72                             151   -0.4010 81.7  37 
 PAM  HZ I        13 2  6.57        16.5 0.44            154           81.7  37 
 RUS  HZ EP       13 1 47.64                             147   -0.2410 95.1 176 
 RUS  HN ES       13 2  6.74                             147    0.0910 95.1 176 
 RUS  HZ I        13 2  7.67         6.4 0.44            147           95.1 176 
 PTB  HZ EP       13 1 51.19                             134   -0.07 9  147 261 
 PTB  HN ES       13 2 12.54                             134   -0.13 9  147 261 
 PTB  HZ I        13 2 15.81         8.5 0.20            133            147 261 
 SPBC HZ EP       13 1 51.58                             131   -0.88 9  159 220 
 SPBC HN ES       13 2 15.31                             131    0.51 9  159 220 
 SPBC HZ I        13 2 17.71         4.7 0.08            131            159 220 
 NOR  HZ EP       13 1 59.29                             120   -0.32 8  231 236 
 NOR  HN ES       13 2 27.53                             120   -0.01 8  231 236 
 NOR  HZ I        13 2 34.74         2.6 0.12            120            231 236 
 CHI  HE ES   2   13 2 31.47                             119    0.86 4  243 195 
 GUY2CHZ EP   4   13 2  9.84                             114    2.45 0  298 236 
 GUY2CHN ES   4   13 2 43.13                             114    1.75 0  298 236 
 GUY2CHZ I        13 2 50.76         2.5 0.70                           298 236 
 PRA  HZ EP       13 2 17.42                             108    0.40 6  387 210 
 PRA  HN ES   2   13 2 57.86                             108   -0.67 3  387 210 
 PRA  HZ I        13 3  4.35         2.3 0.20            108            387 210 
 SJC  HZ EP   4   13 2 17.69                             107   -2.45 0  414 327 
 SJC  HN ES   4   13 3  0.84                             107   -3.24 0  414 327 
 SJC  HZ I        13 3  4.94         3.2 0.48            107            414 327 
                                                                                
