 2011 1130 1653  9.5 L   6.833 -72.962141.6  RSN  4 0.1 1.5LRSN                1
 GAP=160        0.36       3.6     4.6  4.1  0.7108E+01 -0.2043E+01  0.1402E+01E
 Epicentro: CEPITA - SANTANDER                                                 3
 ACTION:UPD 12-07-13 16:13 OP:ep   STATUS:               ID:20111130165309 L   I
 2011-11-30-1647-47S.COL___162                                                 6
 STAT SP IPHASW D HRMM SECON CODA AMPLIT PERI AZIMU VELO AIN AR TRES W  DIS CAZ7
 BAR2 SZ EP   1   1653 28.97                             165    0.05 7 36.0 222 
 BAR2 SZ ES   1   1653 43.96                             165   -0.15 7 36.0 222 
 BAR2 SZ I        1653 45.87         6.2 0.35                          36.0 222 
 PAM  SN ES   2   1653 46.86                             155    0.07 5 63.1  27 
 BRR  HZ EP       1653 31.08                             146   -0.1510 88.2 290 
 BRR  HZ I        1653 35.10        13.6 0.40                          88.2 290 
 BRR  HE ES       1653 48.32                             146    0.1110 88.2 290 
 RUS  HZ EP   1   1653 33.27                             142    0.15 7  105 187 
 RUS  HE ES   2   1653 51.57                             142   -0.01 5  105 187 
 RUS  HZ I        1653 52.68         2.6 0.20                           105 187 
                                                                                
