 2011  830 1451  1.9 L   6.626 -73.504116.0  RSN  4 0.3 1.2LRSN                1
 GAP=187        0.51       6.1    11.9  7.5  0.3091E+02  0.3239E+02  0.2466E+02E
 Epicentro: EL CARMEN DE CHUCURI - SANTANDER                                   3
 ACTION:UPD 12-07-13 15:54 OP:ep   STATUS:               ID:20110830145102 L   I
 2011-08-30-1449-40S.COL___165                                                 6
 STAT SP IPHASW D HRMM SECON CODA AMPLIT PERI AZIMU VELO AIN AR TRES W  DIS CAZ7
 BAR2 SZ EP   1   1451 18.69                             162    0.31 7 35.8  96 
 BAR2 SZ ES   1   1451 31.49                             162    0.27 7 35.8  96 
 BAR2 SZ I        1451 32.51         8.4 0.19                          35.8  96 
 BRR  HN ES   2   1451 32.49                             152   -0.02 5 57.9 337 
 GIR2 SZ EP   1   1451 19.44                             151   -0.04 7 60.7  34 
 GIR2 SZ ES   1   1451 32.90                             151   -0.27 7 60.7  34 
 RUS  HZ EP   1   1451 22.15                             139   -0.15 7 93.5 150 
 RUS  HZ I        1451 23.19         2.2 0.21                          93.5 150 
 RUS  HE ES   3   1451 37.24                             139   -0.96 2 93.5 150 
                                                                                
