 2013  830 1932 55.1 L   6.843 -73.355121.9  RSN 15 0.5 2.4LRSN                1
 GAP= 93        1.22       3.5     4.2  6.8 -0.1430E+01  0.1114E+02 -0.5607E+01E
 Epicentro: ZAPATOCA - SANTANDER                                               3
 ACTION:UPD 14-01-14 09:08 OP:ep   STATUS:               ID:20130830193255 L   I
 OLDACT:REG 13-08-30 18:00 OP:nd   STATUS:               ID:20130830192960d    3
 2013-08-30-1929-59M.COL___238                                                 6
 STAT SP IPHASW D HRMM SECON CODA AMPLIT PERI AZIMU VELO AIN AR TRES W  DIS CAZ7
 BAR2 SZ EP       1933 12.51                             164    0.3710 33.7 145 
 BAR2 SZ ES       1933 25.08                             164   -0.3810 33.7 145 
 BAR2 SZ I        1933 27.03        71.1 0.18            165           33.7 145 
 BRR  HZ EP       1933 12.95                             157    0.5310 49.0 307 
 BRR  HN ES       1933 26.78                             157    0.8210 49.0 307 
 BRR  HZ I        1933 28.01        58.0 0.12            154           49.0 307 
 PAM  SZ EP       1933 15.89                             141    0.1010 90.9  53 
 PAM  SN ES       1933 31.66                             141   -0.2810 90.9  53 
 PAM  SZ I        1933 34.34        32.7 0.26            143           90.9  53 
 RUS  HZ EP       1933 17.39                             136    0.1010  109 164 
 RUS  HN ES       1933 34.74                             136    0.1210  109 164 
 RUS  HZ I        1933 36.42        17.8 0.36            136            109 164 
 PTB  HZ IP     C 1933 17.81                             131   -0.3410  126 255 
 PTB  HN ES       1933 35.68                             131   -0.4710  126 255 
 PTB  HZ I        1933 40.23        43.3 0.20            129            126 255 
 OCA  HZ EP       1933 20.63                             125   -0.42 9  154   1 
 OCA  HN ES       1933 40.37                             125   -0.94 9  154   1 
 OCA  HZ I        1933 43.37        43.6 0.52            125            154   1 
 ZAR  HZ EP       1933 24.39                             120    0.80 9  181 293 
 ZAR  HN ES   2   1933 46.14                             120    0.31 4  181 293 
 ZAR  HZ I        1933 52.10        43.2 0.44            119            181 293 
 SML  HZ EP       1933 28.91                             113   -0.08 8  230 340 
 SML  HN ES       1933 56.12                             113    0.68 8  230 340 
 SML  HZ I        1934  0.66        85.2 0.24            113            230 340 
 CHI  HZ EP   4   1933 32.47                             112    0.94 0  248 190 
 CHI  HN ES   4   1934  1.46                             112    1.50 0  248 190 
 CHI  HZ I        1934  4.71        26.4 0.92            112            248 190 
 HEL  HZ EP   4   1933 33.15                             111    1.38 0  251 253 
 HEL  HN ES   4   1934  2.86                             111    2.46 0  251 253 
 HEL  HZ I        1934  7.47         8.9 0.54            111            251 253 
 URE  HZ EP       1933 31.92                             110   -0.50 8  261 293 
 URE  HN ES       1934  0.96                             110   -0.59 8  261 293 
 URE  HZ I        1934  2.95        30.7 0.36            110            261 293 
 GUY2CHZ EP   4   1933 37.02                             108    1.15 0  286 231 
 GUY2CHE ES       1934  7.02                             108   -0.68 7  286 231 
 GUY2CHZ I        1934 16.60        10.0 0.36                           286 231 
 DBB  SZ EP       1933 39.80                             106    0.87 7  316 274 
 DBB  SZ ES   4   1934 11.55                             106   -1.59 0  316 274 
 DBB  SZ I        1934 17.99         7.1 0.54            106            316 274 
 COD  HZ EP   2   1933 41.64                             105   -0.24 3  342 358 
 COD  HN ES   2   1934 18.92                             105    0.53 3  342 358 
 COD  HZ I        1934 26.53         6.9 0.40            105            342 358 
 PRA  HN EP   4   1933 49.62                             102    2.54 0  385 206 
 PRA  HE ES   4   1934 25.52                             102   -2.13 0  385 206 
 PRA  HN I        1934 33.51         6.3 0.48            102            385 206 
                                                                                
