 2017  330 1153 21.9 L   6.786 -73.157149.5  RSN  8 0.3 1.7LRSN                1
 GAP=136        0.79       3.2     3.4  4.9 -0.7273E+00  0.3592E+01  0.3022E+01E
 Epicentro: LOS SANTOS - SANTANDER                                             3
 ACTION:UPD 17-05-25 18:47 OP:jn   STATUS:               ID:20170330115321 L   I
 OLDACT:REG 17-03-30 20:45 OP:dnl  STATUS:               ID:20170330114741     3
 2017-03-30-1148-00M.COL___353                                                 6
 STAT SP IPHASW D HRMM SECON CODA AMPLIT PERI AZIMU VELO AIN AR TRES W  DIS CAZ7
 BAR2 EZ EP       1153 41.62                             171   -0.2910 21.6 188 
 BAR2 EZ ES       1153 57.27                             171   -0.2710 21.6 188 
 BAR2 EZ I        1153 58.23        20.1 0.16            170           21.6 188 
 BRR  HZ EP       1153 43.67                             153    0.2710 70.9 300 
 BRR  HE ES       1154  0.73                             153    0.5310 70.9 300 
 BRR  HZ I        1154  5.88        12.0 0.40            151           70.9 300 
 PAM  EZ EP       1153 44.58                             151   -0.0110 79.4  39 
 PAM  EN ES       1154  2.31                             151   -0.0110 79.4  39 
 PAM  EZ I        1154  4.18         5.8 0.60            154           79.4  39 
 RUS  HZ EP       1153 45.61                             145   -0.2710 99.1 175 
 RUS  HN ES       1154  4.88                             145    0.2710 99.1 175 
 RUS  HZ I        1154  5.50         5.8 0.26            147           99.1 175 
 PTB  HZ EP       1153 48.56                             133   -0.45 9  146 259 
 PTB  HN ES       1154  9.72                             133   -0.45 9  146 259 
 PTB  HZ I        1154 11.69         6.0 0.18            132            146 259 
 SPBC HZ EP       1153 50.69                             130    0.22 9  161 219 
 SPBC HE ES       1154 12.81                             130    0.04 9  161 219 
 SPBC HZ I        1154 18.67        12.2 0.24            131            161 219 
 ZAR  HZ EP   2   1153 54.39                             123   -0.11 4  204 293 
 ZAR  HN ES       1154 20.01                             123    0.05 9  204 293 
 ZAR  HZ I        1154 27.76         4.5 0.30            123            204 293 
 PRA  HZ EP       1154 16.11                             107    0.82 6  390 210 
 PRA  HN ES       1154 57.07                             107    0.11 6  390 210 
 PRA  HZ I        1155  2.37         1.1 0.18            108            390 210 
                                                                                
