 2010 1030 1658 17.9 L   6.737 -73.108148.5  RSN  8 0.4 2.2LRSN                1
 GAP=161        0.88       6.0    10.6  9.4 -0.2298E+02  0.7273E+01 -0.1219E+01E
 Epicentro: JORDAN - SANTANDER                                                 3
 ACTION:UP  11-02-18 11:13 OP:tino STATUS:               ID:20101030165817 L   I
 2010-10-30-1657-06S.COL___128                                                 6
 STAT SP IPHASW D HRMM SECON CODA AMPLIT PERI AZIMU VELO SNR AR TRES W  DIS CAZ7
 BAR2 SZ EP   1   1658 37.72                             173    -0.1 7   18 208 
 BAR2 SZ ES   2   1658 52.58                             173    -0.7 5   18 208 
 BAR2 SZ I        1658 54.48        38.4 0.25                            18 208 
 BRR  HZ IP     C 1658 39.56                             151    -0.210   78 302 
 BRR  HZ I        1658 39.94        30.3 0.10                            78 302 
 BRR  HN ES   2   1658 57.29                             151     0.5 5   78 302 
 RUS  HZ EP   1   1658 41.69                             146     0.2 7   93 178 
 RUS  HE ES   2   1658 59.97                             146     0.2 5   93 178 
 RUS  HZ I        1659  1.67        14.0 0.49                            93 178 
 BRI  SZ EP   1   1658 42.19                             140    -0.3 7  114  18 
 GUE  SZ EP   1   1658 42.77                             138    -0.6 7  123   9 
 GRA  SZ EP   1   1658 44.50                             136     0.6 7  131  15 
 GRA  SZ ES   2   1659  4.98                             136     0.9 5  131  15 
 NOR  SZ EP   1   1658 53.84                             119     0.1 6  234 237 
 PRA  HZ EP   1   1659 11.57                             107     0.5 4  388 211 
 PRA  HZ I        1659 59.55         8.7 0.50                           388 211 
                                                                                
