 2012 1230 1252  5.5 L   6.701 -73.164141.5  RSN  5 0.4 1.5LRSN                1
 GAP=228        0.86      10.2    11.5  8.4  0.8695E+02  0.2809E+02  0.7099E+01E
 Epicentro: VILLANUEVA - SANTANDER                                             3
 ACTION:UPD 13-01-04 14:31 OP:ep   STATUS:               ID:20121230125205 L   I
 2012-12-30-1250-00M.COL___242                                                 6
 STAT SP IPHASW D HRMM SECON CODA AMPLIT PERI AZIMU VELO AIN AR TRES W  DIS CAZ7
 BAR2 SZ EP       1252 24.66                             175    0.1810 12.2 190 
 BAR2 SZ ES       1252 38.64                             175   -0.6110 12.2 190 
 BAR2 SZ I        1252 40.50        10.4 0.23                          12.2 190 
 BRR  HZ IP     C 1252 26.54                             150    0.0610 75.4 307 
 BRR  HN ES       1252 43.16                             150    0.3610 75.4 307 
 BRR  HZ I        1252 47.52         4.9 0.26                          75.4 307 
 RUS  HZ ES   1   1252 46.15                             146    0.43 7 89.9 174 
 PTB  HZ EP   1   1252 31.43                             132   -0.39 7  144 263 
 PTB  HZ I        1252 35.05         3.9 0.21                           144 263 
 ZAR  HN ES   1   1253  3.17                             121   -0.10 6  207 295 
 ZAR  HZ I        1253  5.95         3.5 0.24                           207 295 
                                                                                
