 2010  630 1016 23.6 L   6.801 -73.291143.9  RSN  5 0.3 1.5LRSN                1
 GAP=192        0.64       4.5    17.1  7.5 -0.2701E+02  0.2406E+02 -0.1500E+02E
 Epicentro: ZAPATOCA - SANTANDER                                               3
 ACTION:UP  10-08-24 10:14 OP:vdl  STATUS:               ID:20100630101623 L   I
 2010-06-30-1012-19S.COL___118                                                 6
 STAT SP IPHASW D HRMM SECON CODA AMPLIT PERI AZIMU VELO SNR AR TRES W  DIS CAZ7
 BAR2 SZ EP   1   1016 42.91                             170    -0.2 8   26 153 
 BAR2 SZ ES   1   1016 58.50                             170     0.3 8   26 153 
 RUS  HZ EP   2   1016 47.39                             143     0.0 5  103 167 
 RUS  HN ES   2   1017  5.47                             143    -0.4 5  103 167 
 RUS  HZ I        1017  6.60         3.6 0.30                           103 167 
 BRI  SZ IP       1016 47.81                             139     0.010  115  28 
 GRA  SZ IP       1016 49.07                             135    -0.110  131  24 
 GRA  SZ ES   1   1017  9.21                             135     0.1 7  131  24 
 OCA  SZ EP   1   1016 52.19                             129     0.5 7  159 359 
 OCA  SZ ES   2   1017 12.71                             129    -0.8 5  159 359 
 OCA  SZ I        1017 17.38         4.7 0.32                           159 359 
                                                                                
