 2017 1130 1504 10.8 L   6.757 -73.203136.7  RSN  4 0.1 1.3LRSN                1
 GAP=141        0.31       1.8     1.9  2.9 -0.1130E+01  0.4680E+00 -0.2646E+00E
 Epicentro: ZAPATOCA - SANTANDER                                               3
 ACTION:UPD 17-12-12 20:02 OP:rebc STATUS:               ID:20171130150410 L   I
 OLDACT:UP  17-12-01 00:06 OP:mg   STATUS:               ID:20171130145736     3
 OLDACT:UP  17-12-01 00:06 OP:mg   STATUS:               ID:20171130145736     3
 OLDACT:REG 17-11-30 21:14 OP:mg   STATUS:               ID:20171130145736     3
 2017-11-30-1458-00M.COL___495                                                 6
 STAT SP IPHASW D HRMM SECON CODA AMPLIT PERI AZIMU VELO AIN AR TRES W  DIS CAZ7
 BAR2 EZ EP   1   15 4 29.06                             172   -0.14 7 18.3 173 
 BAR2 EZ ES       15 4 43.56                             172   -0.0210 18.3 173 
 BAR2 EZ I        15 4 45.37         6.3 0.18            173           18.3 173 
 PAM  EZ EP       15 4 32.47                             147   -0.0410 85.1  41 
 PAM  EN ES       15 4 49.54                             147    0.0610 85.1  41 
 PAM  EZ I        15 4 51.86         3.6 0.45            149           85.1  41 
 RUS  HZ EP       15 4 33.41                             143    0.0910 96.5 172 
 RUS  HN ES       15 4 50.90                             143   -0.0210 96.5 172 
 RUS  HZ I        15 4 53.01         5.2 0.30            145           96.5 172 
 PTB  HN ES       15 4 56.32                             131    0.02 9  141 260 
 PTB  HZ I        15 4 58.31         1.8 0.13            133            141 260 
                                                                                
