 2014  430 1954 50.8 L   6.761 -73.146147.6  RSN  6 0.3 1.2LRSN                1
 GAP=138        0.63       3.5     3.4  6.7 -0.3277E+01  0.7978E+01 -0.2137E+01E
 Epicentro: LOS SANTOS - SANTANDER                                             3
 ACTION:UPD 14-05-13 20:50 OP:nd   STATUS:               ID:20140430195450 L   I
 OLDACT:DUP 14-04-30 22:24 OP:mh   STATUS:               ID:20140430194741d    3
 2014-04-30-1947-39M.COL___245                                                 6
 STAT SP IPHASW D HRMM SECON CODA AMPLIT PERI AZIMU VELO AIN AR TRES W  DIS CAZ7
 BRR  HZ EP       1955 12.38                             152    0.1010 73.3 301 
 PAM  SZ EP       1955 13.62                             150    0.2010 80.7  38 
 PAM  SN ES       1955 31.01                             150   -0.0410 80.7  38 
 PAM  SZ I        1955 33.40         2.1 0.34            154           80.7  38 
 RUS  HZ EP       1955 14.55                             145    0.1110 96.3 176 
 RUS  HE ES       1955 32.76                             145   -0.1110 96.3 176 
 RUS  HZ I        1955 34.70         1.9 0.29            150           96.3 176 
 PTB  HZ EP       1955 17.33                             132   -0.53 9  147 260 
 PTB  HN ES       1955 38.92                             132   -0.03 9  147 260 
 PTB  HZ I        1955 44.65         3.7 0.47            135            147 260 
 ZAR  HN ES   2   1955 49.13                             122    0.06 4  206 293 
 NOR  HN ES   1   1955 54.71                             119    0.58 6  232 235 
