 2015  930 1549 49.0 L   6.822 -73.146147.6  RSN 17 0.5 2.4LRSN                1
 GAP=135        1.02       2.6     4.2  5.3 -0.1370E+01  0.6972E+01  0.2803E+01E
 Epicentro: LOS SANTOS - SANTANDER                                             3
 ACTION:UPD 15-10-28 16:29 OP:cam  STATUS:               ID:20150930154949 L   I
 OLDACT:REG 15-09-30 20:51 OP:ar   STATUS:               ID:20150930154748     3
 2015-09-30-1547-48M.COL___358                                                 6
 STAT SP IPHASW D HRMM SECON CODA AMPLIT PERI AZIMU VELO AIN AR TRES W  DIS CAZ7
 BAR2 EZ EP       1550  8.64                             170   -0.2510 25.7 189 
 BAR2 EZ ES       1550 24.16                             170   -0.2510 25.7 189 
 BAR2 EZ I        1550 24.73        55.5 0.24            169           25.7 189 
 BRR  HZ EP       1550 10.51                             153    0.2410 70.0 297 
 BRR  HN ES       1550 27.73                             153    0.8610 70.0 297 
 BRR  HZ I        1550 30.60        39.4 0.26            151           70.0 297 
 PAM  EZ EP       1550 11.63                             152    0.3310 75.6  41 
 PAM  EN ES       1550 28.89                             152    0.2010 75.6  41 
 PAM  EZ I        1550 31.43        33.5 0.82            155           75.6  41 
 RUS  HZ EP       1550 12.70                             143   -0.4010  103 176 
 RUS  HN ES       1550 31.67                             143   -0.2310  103 176 
 RUS  HZ I        1550 32.79        21.5 0.42            146            103 176 
 PTB  HZ EP       1550 15.37                             132   -0.77 9  148 258 
 PTB  HN ES       1550 36.56                             132   -0.76 9  148 258 
 PTB  HZ I        1550 41.42        23.4 0.50            132            148 258 
 OCA  HN ES       1550 39.43                             130    0.20 9  158 353 
 OCA  HZ I        1550 47.01        49.3 0.24            131            158 353 
 SPBC HZ EP       1550 18.01                             129    0.21 9  165 218 
 SPBC HN ES       1550 40.26                             129   -0.02 9  165 218 
 SPBC HZ I        1550 44.67        33.6 0.14            130            165 218 
 ZAR  HZ EP       1550 21.50                             123    0.04 9  203 292 
 ZAR  HE ES   2   1550 46.42                             123   -0.36 4  203 292 
 ZAR  HZ I        1550 52.75        24.9 0.34            123            203 292 
 NOR  HZ EP       1550 25.19                             119    0.22 8  236 234 
 NOR  HN ES       1550 53.42                             119    0.39 8  236 234 
 NOR  HZ I        1550 57.97        14.4 0.20            119            236 234 
 SML  HN ES       1550 53.20                             118   -0.74 8  241 335 
 SML  HZ I        1550 57.55        29.5 0.10            119            241 335 
 CHI  HZ EP       1550 26.90                             117   -0.14 8  251 195 
 CHI  HN ES       1550 56.27                             117   -0.45 8  251 195 
 CHI  HZ I        1551  1.19        14.0 0.36            119            251 195 
 ROSC BN ES   2   1550 58.13                             117    0.71 4  255 211 
 ROSC BZ I        1551  2.91        38.5 0.35            118            255 211 
 HEL  HZ EP   2   1550 29.75                             115    0.39 4  273 255 
 HEL  HN ES   2   1551  0.99                             115    0.15 4  273 255 
 HEL  HZ I        1551  6.67        10.8 0.36            115            273 255 
 URE  HZ EP   2   1550 29.13                             114   -0.91 4  283 291 
 URE  HN ES   4   1550 59.84                             114   -2.22 0  283 291 
 URE  HZ I        1551  1.77        13.0 0.12            114            283 291 
 GUY2CHZ EP       1550 33.73                             113    0.89 7  303 234 
 GUY2CHN ES   2   1551  7.30                             113    0.27 4  303 234 
 GUY2CHZ I        1551 14.94        10.7 0.58                           303 234 
 VIL  SN ES       1551  7.10                             112    0.20 7  306 191 
 ORTC HZ EP       1550 43.21                             107    0.01 6  397 216 
 ORTC HN ES       1551 26.45                             107    0.97 6  397 216 
 ORTC HZ I        1551 32.38         5.6 0.30            107            397 216 
                                                                                
