 2017  730 1952 24.1 L   6.757 -73.212149.5  RSN  4 0.4 1.4LRSN                1
 GAP=225        1.01       8.1     7.5  8.1  0.2941E+02  0.6025E+01  0.2279E+01E
 Epicentro: ZAPATOCA - SANTANDER                                               3
 ACTION:UPD 17-08-30 15:38 OP:rebc STATUS:               ID:20170730195224 L   I
 OLDACT:REG 17-07-30 21:41 OP:and  STATUS:               ID:20170730194741     3
 2017-07-30-1948-00M.COL___391                                                 6
 STAT SP IPHASW D HRMM SECON CODA AMPLIT PERI AZIMU VELO AIN AR TRES W  DIS CAZ7
 BAR2 EZ EP       1952 43.72                             173   -0.3710 18.5 170 
 BAR2 EZ ES       1952 59.17                             173   -0.5210 18.5 170 
 BAR2 EZ I        1953  1.09         8.0 0.28            171           18.5 170 
 BRR  HZ EP       1952 45.50                             154    0.0510 67.4 305 
 BRR  HN ES       1953  2.64                             154    0.5410 67.4 305 
 RUS  HZ EP       1952 48.49                             146    0.5410 96.7 172 
 RUS  HN ES       1953  6.71                             146    0.1610 96.7 172 
 RUS  HZ I        1953  7.48         3.0 0.28            146           96.7 172 
 PTB  HZ EP       1952 50.28                             135   -0.38 9  140 260 
 PTB  HN ES       1953 11.31                             135   -0.07 9  140 260 
 PTB  HZ I        1953 13.48         4.1 0.48            134            140 260 
                                                                                
