 2012  630 1559 46.8 L   6.780 -73.147145.7  RSN  6 0.3 1.6LRSN                1
 GAP=137        0.62       4.5     5.5  6.1 -0.6773E+01  0.1107E+02  0.1022E+01E
 Epicentro: LOS SANTOS - SANTANDER                                             3
 ACTION:UPD 12-08-06 17:53 OP:ep   STATUS:               ID:20120630155946 L   I
 2012-06-30-1600-00M.COL___201                                                 6
 STAT SP IPHASW D HRMM SECON CODA AMPLIT PERI AZIMU VELO AIN AR TRES W  DIS CAZ7
 BAR2 SZ EP       16 0  6.47                             171    0.0810 21.1 191 
 BAR2 SZ ES   1   16 0 21.66                             171    0.00 7 21.1 191 
 BAR2 SZ I        16 0 24.10        13.2 0.38                          21.1 191 
 BRR  HZ EP       16 0  8.11                             152    0.1010 72.1 300 
 BRR  HZ I        16 0 12.09        19.6 0.46                          72.1 300 
 BRR  HN ES   2   16 0 25.33                             152    0.80 5 72.1 300 
 PAM  SZ EP       16 0  9.36                             150    0.2310 79.2  39 
 PAM  SZ I        16 0  9.51         5.3 0.42                          79.2  39 
 PAM  SN ES   1   16 0 26.03                             150   -0.50 7 79.2  39 
 RUS  HZ EP   2   16 0 10.26                             144   -0.14 5 98.4 176 
 RUS  HZ I        16 0 11.06         2.3 0.42                          98.4 176 
 RUS  HN ES   2   16 0 28.82                             144    0.02 5 98.4 176 
 PTB  HZ EP       16 0 13.33                             132   -0.39 9  147 260 
 PTB  HN ES   3   16 0 34.08                             132   -0.63 2  147 260 
 PTB  HZ I        16 0 41.70         6.8 0.52                           147 260 
 CHI  HZ EP   2   16 0 24.81                             117    0.54 4  246 195 
 CHI  HN ES   2   16 0 53.43                             117   -0.06 4  246 195 
 CHI  HZ I        16 1  2.36         2.4 0.46                           246 195 
                                                                                
