 2015  630 1716 41.1 L   6.845 -73.168147.9  RSN  9 0.5 2.2LRSN                1
 GAP=208        0.96       3.5     6.9  6.8  0.4258E+01  0.1382E+02  0.3166E+01E
 Epicentro: ZAPATOCA - SANTANDER                                               3
 ACTION:UPD 15-09-10 22:16 OP:cam  STATUS:               ID:20150630171641 L   I
 OLDACT:UP  15-07-01 02:20 OP:mh   STATUS:               ID:20150630170748     3
 OLDACT:UP  15-07-01 02:20 OP:mh   STATUS:               ID:20150630170748     3
 OLDACT:UP  15-07-01 02:20 OP:mh   STATUS:               ID:20150630170748     3
 OLDACT:UP  15-07-01 02:20 OP:mh   STATUS:               ID:20150630170748     3
 OLDACT:UP  15-07-01 02:18 OP:mh   STATUS:               ID:20150630170748     3
 OLDACT:REG 15-07-01 00:21 OP:mh   STATUS:               ID:20150630170748     3
 2015-06-30-1707-48M.COL___322                                                 6
 STAT SP IPHASW D HRMM SECON CODA AMPLIT PERI AZIMU VELO AIN AR TRES W  DIS CAZ7
 BAR2 EZ EP   1   1717  1.13                             169    0.05 7 28.0 183 
 BAR2 EZ ES       1717 16.63                             169   -0.0410 28.0 183 
 BAR2 EZ I        1717 17.38        21.9 0.28            164           28.0 183 
 ZAR  HZ EP       1717 13.93                             123    0.67 9  200 291 
 ZAR  HN ES       1717 37.71                             123   -0.63 9  200 291 
 NOR  HZ EP       1717 16.93                             119   -0.12 8  236 233 
 NOR  HN ES       1717 45.47                             119    0.37 8  236 233 
 NOR  HZ I        1717 52.22         9.9 0.22            118            236 233 
 SML  HZ EP       1717 16.47                             118   -0.77 8  238 335 
 SML  HN ES       1717 45.94                             118    0.51 8  238 335 
 SML  HZ I        1717 48.86        26.3 0.26            119            238 335 
 CHI  HZ EP       1717 19.28                             117   -0.09 8  253 194 
 CHI  HN ES       1717 49.14                             117   -0.09 8  253 194 
 CHI  HZ I        1717 51.86        10.5 0.38            117            253 194 
 GUY2CHZ EP   4   1717 24.97                             113    0.06 0  302 234 
 GUY2CHN ES   4   1718  2.59                             113    3.51 0  302 234 
 GUY2CHZ I        1718  8.18         3.9 0.36                           302 234 
 TOL  SZ EP       1717 30.44                             109    0.78 6  345 224 
 TOL  SN ES   4   1718  9.04                             109    1.51 0  345 224 
 TOL  SZ I        1718 14.52         6.3 0.62            109            345 224 
 PRA  HZ EP       1717 34.52                             107   -0.54 6  395 209 
 PRA  HN ES   4   1718 16.53                             107   -0.62 0  395 209 
 PRA  HZ I        1718 21.67         5.2 0.38            107            395 209 
 ORTC HZ EP       1717 35.59                             106    0.19 6  398 215 
 ORTC HN ES   1   1718 17.13                             106   -0.62 4  398 215 
 ORTC HZ I        1718 22.15         5.3 0.34            106            398 215 
                                                                                
