 2010  730 1623 48.3 L   6.780 -73.128148.1  RSN  4 0.2 1.5LRSN                1
 GAP=166        0.42       4.6     9.2  7.0  0.1885E+02 -0.3005E+02 -0.1357E+02E
 Epicentro: LOS SANTOS - SANTANDER                                             3
 ACTION:UPD 10-12-01 15:21 OP:pat  STATUS:               ID:20100730162348 L   I
 2010-07-30-1619-37S.COL___123                                                 6
 STAT SP IPHASW D HRMM SECON CODA AMPLIT PERI AZIMU VELO AIN AR TRES W  DIS CAZ7
 BAR2 SZ EP   1   1624  7.97                             171    -0.2 7   22 196 
 BAR2 SZ I        1624  8.37         7.0 0.43                            22 196 
 BAR2 SZ ES   2   1624 23.53                             171    -0.2 5   22 196 
 BRR  HZ EP   1   1624  9.81                             152    -0.1 7   74 299 
 BRR  HZ I        1624 12.09        14.4 0.48                            74 299 
 BRR  HE ES   2   1624 26.87                             152     0.2 5   74 299 
 RUS  HZ EP   1   1624 12.22                             145     0.1 7   98 177 
 RUS  HZ I        1624 12.84         2.5 0.32                            98 177 
 RUS  HN ES   2   1624 30.93                             145     0.2 5   98 177 
 GUE  SZ EP   1   1624 13.54                             139     0.1 7  118  11 
                                                                                
