 2016  930 1938 51.9 L   6.584 -73.703 98.3  RSN  5 0.5 1.1LRSN                1
 GAP=129        0.94       5.1     3.4  9.0  0.1028E+01  0.7397E+01 -0.8757E+01E
 Epicentro: EL CARMEN - SANTANDER                                              3
 ACTION:UPD 17-08-17 21:18 OP:lp   STATUS:               ID:20160930193851 L   I
 OLDACT:UP  16-10-01 00:58 OP:dani STATUS:               ID:20160930193744     3
 OLDACT:UP  16-10-01 00:58 OP:dani STATUS:               ID:20160930193744     3
 OLDACT:REG 16-09-30 20:32 OP:dani STATUS:               ID:20160930193744     3
 2016-09-30-1938-00M.COL___369                                                 6
 STAT SP IPHASW D HRMM SECON CODA AMPLIT PERI AZIMU VELO AIN AR TRES W  DIS CAZ7
 BAR2 HZ ES       1939 20.04                             148    0.3110 57.6  89 
 PTB  HZ EP       1939  8.69                             137   -0.4810 83.4 267 
 PTB  HN ES       1939 22.46                             137   -0.2010 83.4 267 
 PTB  HZ I        1939 23.31         2.7 0.12            136           83.4 267 
 RUS  HZ EP       1939 11.59                             131    0.0510  103 138 
 RUS  HE ES       1939 27.04                             131    0.1610  103 138 
 RUS  HZ I        1939 28.43         1.5 0.11            132            103 138 
 PAM  EE ES       1939 32.88                             122   -0.41 9  139  53 
 ZAR  HZ EP       1939 17.57                             117    0.52 9  162 308 
 ZAR  HN ES   3   1939 38.79                             117    2.10 2  162 308 
 ZAR  HZ I        1939 41.08         4.4 0.13            117            162 308 
                                                                                
