 2011  830 1850 35.3 L   6.781 -73.096142.6  RSN  4 0.4 1.7LRSN                1
 GAP=197        0.73       8.2    15.0  8.0  0.8723E+02 -0.2738E+02 -0.1357E+02E
 Epicentro: LOS SANTOS - SANTANDER                                             3
 ACTION:UPD 12-07-13 15:54 OP:ep   STATUS:               ID:20110830185035 L   I
 2011-08-30-1849-18S.COL___165                                                 6
 STAT SP IPHASW D HRMM SECON CODA AMPLIT PERI AZIMU VELO AIN AR TRES W  DIS CAZ7
 BAR2 SZ EP   1   1850 54.75                             170    0.23 7 23.0 205 
 BAR2 SZ ES   1   1851  8.81                             170   -0.72 7 23.0 205 
 BAR2 SZ I        1851 10.85        16.5 0.38                          23.0 205 
 GIR2 SZ EP   1   1850 54.84                             166    0.17 7 34.6 342 
 GIR2 SZ ES   2   1851 10.22                             166    0.43 5 34.6 342 
 BRR  HZ EP       1850 56.21                             150   -0.2210 77.1 298 
 BRR  HE ES   1   1851 13.21                             150    0.28 7 77.1 298 
 BRR  HZ I        1851 17.40        17.6 0.17                          77.1 298 
 RUS  HZ EP   1   1850 58.43                             144   -0.12 7 98.3 179 
 RUS  HN ES   1   1851 17.07                             144    0.37 7 98.3 179 
 RUS  HZ I        1851 18.13         4.0 0.27                          98.3 179 
                                                                                
