 2014 1130 1323 23.5 L   6.813 -73.070138.5  RSN  4 0.2 1.5LRSN                1
 GAP=172        0.65       4.1     5.0  6.0 -0.2169E+01 -0.4317E+00 -0.3417E+01E
 Epicentro: LOS SANTOS - SANTANDER                                             3
 ACTION:UPD 14-12-19 15:49 OP:nd   STATUS:               ID:20141130132323 L   I
 OLDACT:DUP 14-11-30 22:57 OP:fm   STATUS:               ID:20141130131752d    3
 2014-11-30-1317-49M.COL___306                                                 6
 STAT SP IPHASW D HRMM SECON CODA AMPLIT PERI AZIMU VELO AIN AR TRES W  DIS CAZ7
 BAR2 SZ EP       1323 42.25                             168   -0.1310 27.4 207 
 BAR2 SZ ES       1323 57.04                             168   -0.0510 27.4 207 
 BAR2 SZ I        1323 58.38         5.3 0.34            172           27.4 207 
 PAM  SZ EP       1323 45.04                             152    0.4410 71.1  35 
 PAM  SN ES       1324  0.90                             152   -0.1410 71.1  35 
 PAM  SZ I        1324  4.26         5.1 0.50            151           71.1  35 
 BRR  HZ EP       1323 44.06                             149   -0.2610 78.1 295 
 BRR  HN ES       1324  0.80                             149    0.2610 78.1 295 
 BRR  HZ I        1324  3.69         7.2 0.38            149           78.1 295 
 OCA  HN ES       1324 12.77                             128   -0.13 9  160 350 
 OCA  HZ I        1324 16.52         5.5 0.26            129            160 350 
                                                                                
