 2014  130 1640 16.5 L   5.760 -74.020 90.4  RSN  5 0.3 1.2LRSN                1
 GAP=175        0.90       5.2     2.9 11.0 -0.4215E+01 -0.6256E+01  0.6786E+01E
 Epicentro: FLORIAN - SANTANDER                                                3
 ACTION:UPD 14-03-13 09:59 OP:ep   STATUS:               ID:20140130164016 L   I
 OLDACT:REG 14-01-30 15:33 OP:nd   STATUS:               ID:20140130164000     3
 2014-01-30-1640-00M.COL___288                                                 6
 STAT SP IPHASW D HRMM SECON CODA AMPLIT PERI AZIMU VELO AIN AR TRES W  DIS CAZ7
 NOR  HZ EP       1640 34.52                             129    0.1510 96.5 257 
 NOR  HN ES       1640 48.56                             129    0.2510 96.5 257 
 NOR  HZ I        1640 50.51         7.1 0.14            147           96.5 257 
 PTB  HZ EP       1640 34.17                             129   -0.3610 98.7 331 
 PTB  HN ES       1640 48.32                             129   -0.2710 98.7 331 
 PTB  HZ I        1640 53.74         4.3 0.14            146           98.7 331 
 RUS  HZ EP     C 1640 35.52                             127   -0.2310  105  82 
 RUS  HN ES       1640 50.42                             127   -0.3410  105  82 
 RUS  HZ I        1641  3.73         1.0 0.44            138            105  82 
 BAR2 SZ EP       1640 38.26                             120    0.2010  131  45 
 BAR2 SZ ES       1640 55.55                             120    0.6710  131  45 
 BAR2 SZ I        1640 57.71        10.8 0.26            133            131  45 
 GUY2CHZ EP   4   1640 41.36                             115   -0.27 0  160 248 
 GUY2CHN ES   4   1641  2.30                             115    1.07 0  160 248 
 GUY2CHZ I        1641  6.24         1.5 0.42                           160 248 
                                                                                
