 2014 1130 1806 22.6 L   6.792 -73.139145.7  RSN 19 0.4 2.3LRSN                1
 GAP=138        0.95       2.6     3.3  4.6 -0.1533E+01  0.5157E+01  0.1636E+01E
 Epicentro: LOS SANTOS - SANTANDER                                             3
 ACTION:UPD 14-12-19 15:49 OP:nd   STATUS:               ID:20141130180622 L   I
 OLDACT:DUP 14-11-30 23:57 OP:fm   STATUS:               ID:20141130175750d    3
 2014-11-30-1757-49M.COL___297                                                 6
 STAT SP IPHASW D HRMM SECON CODA AMPLIT PERI AZIMU VELO AIN AR TRES W  DIS CAZ7
 BAR2 SZ EP     C 18 6 42.46                             171    0.2910 22.6 192 
 BAR2 SZ ES       18 6 57.26                             171   -0.2010 22.6 192 
 BAR2 SZ I        18 7  0.16        43.7 0.28            168           22.6 192 
 BRR  HZ EP       18 6 44.31                             152    0.5410 72.3 299 
 BRR  HE ES       18 7  0.89                             152    0.5910 72.3 299 
 BRR  HZ I        18 7  7.90        17.9 0.14            149           72.3 299 
 PAM  SZ EP       18 6 45.04                             151    0.2610 77.6  39 
 PAM  SN ES       18 7  2.16                             151    0.0510 77.6  39 
 PAM  SZ I        18 7  4.60        33.0 0.22            156           77.6  39 
 RUS  HZ EP       18 6 46.34                             144    0.1010 99.7 176 
 RUS  HN ES       18 7  4.25                             144   -0.4610 99.7 176 
 RUS  HZ I        18 7  6.28        15.3 0.42            147           99.7 176 
 PTB  HZ EP       18 6 49.41                             132   -0.17 9  148 259 
 PTB  HE ES       18 7 10.17                             132   -0.48 9  148 259 
 PTB  HZ I        18 7 16.34        28.7 0.16            132            148 259 
 OCA  HZ EP       18 6 50.51                             129   -0.45 9  161 353 
 OCA  HN ES       18 7 12.74                             129   -0.36 9  161 353 
 OCA  HZ I        18 7 21.03        21.6 0.20            132            161 353 
 SPBC HZ EP       18 6 51.36                             129    0.32 9  163 219 
 SPBC HN ES       18 7 13.53                             129    0.28 9  163 219 
 SPBC HZ I        18 7 19.29        45.4 0.14            130            163 219 
 ZAR  HZ EP       18 6 54.33                             122   -0.78 9  205 292 
 ZAR  HE ES       18 7 20.50                             122    0.01 9  205 292 
 ZAR  HZ I        18 7 31.12        22.6 0.48            123            205 292 
 NOR  HZ EP       18 6 58.65                             118    0.35 8  235 235 
 NOR  HN ES       18 7 26.21                             118    0.03 8  235 235 
 NOR  HZ I        18 7 32.42        14.3 0.44            120            235 235 
 CHI  HZ EP       18 7  0.35                             117    0.16 8  248 195 
 CHI  HN ES       18 7 28.70                             117   -0.84 8  248 195 
 CHI  HZ I        18 7 35.84         7.1 0.26            120            248 195 
 HEL  HZ EP       18 7  3.43                             115    0.60 8  273 256 
 HEL  HN ES       18 7 34.71                             115    0.47 8  273 256 
 HEL  HZ I        18 7 41.17         9.7 0.34            116            273 256 
 GUY2CHZ EP       18 7  6.34                             112    0.16 7  301 235 
 GUY2CHE ES       18 7 40.47                             112    0.27 7  301 235 
 GUY2CHZ I        18 7 49.19        14.0 0.30                           301 235 
 RREF HZ EP   4   18 7  7.06                             111   -1.64 0  322 230 
 RREF HE ES   4   18 7 47.70                             111    3.01 0  322 230 
 RREF HZ I        18 7 55.38        12.2 0.30            113            322 230 
 DBB  SZ EP       18 7  9.21                             109   -0.92 7  340 274 
 DBB  SZ ES       18 7 46.85                             109   -0.38 7  340 274 
 TOL  SZ EP   4   18 7 11.93                             109    1.12 0  343 225 
 TOL  SN ES       18 7 48.39                             109   -0.05 7  343 225 
 TOL  SZ I        18 7 54.94        21.1 0.26            111            343 225 
 MON  HZ EP   4   18 7  6.98                             108   -4.71 0  355 308 
 MON  HN ES   4   18 7 47.42                             108   -2.59 0  355 308 
 MON  HZ I        18 7 54.52         3.9 0.56            110            355 308 
 ANIL HZ EP   4   18 7 10.90                             108   -1.46 0  357 225 
 ANIL HN ES   4   18 7 53.48                             108    2.29 0  357 225 
 ANIL HZ I        18 7 56.60         2.9 0.40            110            357 225 
 ORTC HZ EP       18 7 16.62                             106    0.17 6  395 216 
 ORTC HE ES       18 7 58.19                             106   -0.29 6  395 216 
 ORTC HZ I        18 8  6.28         7.5 0.22            108            395 216 
 PAL  HZ EP       18 7 18.05                             106    0.30 6  406 239 
                                                                                
