 2016  930 1536 49.4 L   6.815 -73.153150.3  RSN  6 0.4 1.5LRSN                1
 GAP=135        0.92       4.5     4.3  7.7 -0.2968E+01  0.9581E+01 -0.3246E+01E
 Epicentro: LOS SANTOS - SANTANDER                                             3
 ACTION:UPD 17-08-17 21:18 OP:lp   STATUS:               ID:20160930153649 L   I
 OLDACT:UP  16-09-30 22:30 OP:dani STATUS:               ID:20160930152748     3
 OLDACT:UP  16-09-30 22:30 OP:dani STATUS:               ID:20160930152748     3
 OLDACT:UP  16-09-30 22:29 OP:dani STATUS:               ID:20160930152748     3
 OLDACT:UP  16-09-30 22:29 OP:dani STATUS:               ID:20160930152748     3
 OLDACT:REG 16-09-30 20:07 OP:dani STATUS:               ID:20160930152748     3
 2016-09-30-1528-00M.COL___369                                                 6
 STAT SP IPHASW D HRMM SECON CODA AMPLIT PERI AZIMU VELO AIN AR TRES W  DIS CAZ7
 BAR2 EZ EP       1537  8.88                             170   -0.7110 24.9 188 
 BAR2 EZ ES       1537 25.20                             170   -0.1510 24.9 188 
 BAR2 EZ I        1537 26.38         9.5 0.34            169           24.9 188 
 PAM  EZ EP       1537 11.83                             152   -0.2110 76.6  41 
 PAM  EZ ES       1537 30.02                             152    0.3110 76.6  41 
 PAM  EZ I        1537 31.83         7.9 0.56            155           76.6  41 
 RUS  HZ EP       1537 14.04                             144    0.3310  102 176 
 RUS  HN ES       1537 32.92                             144    0.2410  102 176 
 RUS  HZ I        1537 33.70         2.8 0.30            148            102 176 
 PTB  HZ EP       1537 16.91                             133    0.22 9  147 258 
 PTB  HN ES       1537 37.57                             133   -0.42 9  147 258 
 PTB  HZ I        1537 44.93         2.5 0.17            132            147 258 
 SPBC HZ EP   4   1537 14.38                             130   -3.94 0  164 218 
 SPBC HN ES       1537 40.97                             130    0.09 9  164 218 
 SPBC HZ I        1537 45.53         4.0 0.14            131            164 218 
 ZAR  HE ES       1537 47.84                             124    0.41 9  203 292 
 ZAR  HZ I        1537 55.04         2.8 0.26            123            203 292 
                                                                                
