 2015  730 1537 11.7 L   5.808 -73.879101.1  RSN  4 0.3 1.5LRSN                1
 GAP=165        0.70       6.7     3.4  8.2 -0.1761E+02  0.7756E+01 -0.2665E+01E
 Epicentro: ALBANIA - SANTANDER                                                3
 ACTION:UPD 15-09-08 21:51 OP:cam  STATUS:               ID:20150730153711 L   I
 OLDACT:DUP 15-07-30 23:40 OP:drio STATUS:               ID:20150730152750d    3
 2015-07-30-1527-49M.COL___343                                                 6
 STAT SP IPHASW D HRMM SECON CODA AMPLIT PERI AZIMU VELO AIN AR TRES W  DIS CAZ7
 RUS  HZ EP       1537 30.17                             136   -0.1610 88.6  84 
 RUS  HE ES       1537 44.95                             136    0.0910 88.6  84 
 RUS  HZ I        1537 48.39         6.1 0.40            140           88.6  84 
 NOR  HZ EP       1537 31.57                             128   -0.4010  113 256 
 NOR  HE ES       1537 47.54                             128   -0.2410  113 256 
 NOR  HZ I        1537 49.56         9.8 0.16            133            113 256 
 BAR2 EZ EP       1537 32.40                             127   -0.1010  116  42 
 BAR2 EZ ES       1537 48.92                             127    0.1910  116  42 
 BAR2 EZ I        1537 50.53        10.0 0.18            133            116  42 
 GUY2CHZ EP       1537 39.58                             115    0.36 9  177 249 
 GUY2CHN ES       1538  1.09                             115    0.40 9  177 249 
 GUY2CHZ I        1538  7.46         2.2 0.26                           177 249 
                                                                                
