 2017 1230 1224 40.9 L   7.409 -73.169131.4  RSN  5 0.3 1.5LRSN                1
 GAP=109        0.57       3.7     3.0  6.3  0.9893E+00  0.9723E+01  0.5579E+01E
 Epicentro: EL PLAYON - SANTANDER                                              3
 ACTION:UPD 18-01-04 13:25 OP:rebc STATUS:               ID:20171230122440 L   I
 OLDACT:UP  17-12-30 22:25 OP:mg   STATUS:               ID:20171230121741d    3
 OLDACT:DUP 17-12-30 22:21 OP:mg   STATUS:               ID:20171230121741d    3
 2017-12-30-1218-00M.COL___447                                                 6
 STAT SP IPHASW D HRMM SECON CODA AMPLIT PERI AZIMU VELO AIN AR TRES W  DIS CAZ7
 PAM  EZ EP       1225  0.38                             157    0.2210 52.4  98 
 PAM  EN ES       1225 15.34                             157    0.1310 52.4  98 
 PAM  EZ I        1225 16.58         5.7 0.18            162           52.4  98 
 BAR2 EZ EP       1225  1.99                             143   -0.1110 90.3 181 
 BAR2 EZ ES   2   1225 18.32                             143   -0.34 5 90.3 181 
 BAR2 EZ I        1225 19.66         9.4 0.10            146           90.3 181 
 OCA  HZ EP   2   1225  2.13                             142   -0.07 5 93.3 350 
 OCA  HN ES   1   1225 18.46                             142   -0.38 7 93.3 350 
 OCA  HZ I        1225 20.17         8.8 0.11            145           93.3 350 
 PTB  HZ EP   1   1225  8.52                             124   -0.53 7  172 236 
 PTB  HN ES   1   1225 31.11                             124    0.07 7  172 236 
 PTB  HZ I        1225 33.32         1.5 0.15            126            172 236 
 ZAR  HZ EP   1   1225 10.87                             121    0.29 7  187 273 
 ZAR  HN ES       1225 33.98                             121    0.22 9  187 273 
 ZAR  HZ I        1225 37.01         3.6 0.50            123            187 273 
                                                                                
