 2011 1030 1143 12.4 L   6.753 -73.100149.3  RSN  4 0.2 1.5LRSN                1
 GAP=145        0.35       3.5     5.1  4.8  0.2831E+01  0.2607E+01  0.7853E+00E
 Epicentro: LOS SANTOS - SANTANDER                                             3
 ACTION:UPD 12-07-13 16:07 OP:ep   STATUS:               ID:20111030114312 L   I
 2011-10-30-1139-24S.COL___157                                                 6
 STAT SP IPHASW D HRMM SECON CODA AMPLIT PERI AZIMU VELO AIN AR TRES W  DIS CAZ7
 BAR2 SZ EP   1   1143 32.24                             172   -0.11 7 20.0 207 
 BAR2 SZ ES   2   1143 47.75                             172   -0.20 5 20.0 207 
 BAR2 SZ I        1143 49.06         8.8 0.36                          20.0 207 
 BRR  HZ EP       1143 34.22                             151   -0.0610 78.1 300 
 BRR  HZ I        1143 34.56         9.2 0.11                          78.1 300 
 BRR  HN ES   2   1143 51.65                             151    0.26 5 78.1 300 
 PAM  SZ EP   2   1143 35.32                             151    0.30 5 78.5  34 
 PAM  SE ES   2   1143 52.61                             151   -0.08 5 78.5  34 
 RUS  HZ EP   1   1143 36.11                             146    0.03 7 95.2 179 
 RUS  HN ES   2   1143 54.75                             146    0.16 5 95.2 179 
 RUS  HZ I        1143 56.18         3.0 0.38                          95.2 179 
                                                                                
