 2012  430 1541 41.2 L   6.739 -73.182154.5  RSN  4 0.2 1.5LRSN                1
 GAP=229        0.56       5.7     5.5  5.5  0.1414E+02  0.3803E+01 -0.1048E+01E
 Epicentro: VILLANUEVA - SANTANDER                                             3
 ACTION:UPD 12-07-05 11:56 OP:tino STATUS:               ID:20120430154141 L   I
 2012-04-30-1540-00M.COL___189                                                 6
 STAT SP IPHASW D HRMM SECON CODA AMPLIT PERI AZIMU VELO AIN AR TRES W  DIS CAZ7
 BAR2 SZ EP   1   1542  1.46                             174    -0.3 7   16 180 
 BAR2 SZ ES   1   1542 17.55                             174    -0.2 7   16 180 
 BAR2 SZ I        1542 18.18         5.7 0.26                            16 180 
 BRR  HZ EP       1542  3.30                             154     0.010   71 305 
 BRR  HZ I        1542  3.56        13.4 0.14                            71 305 
 BRR  HE ES   1   1542 20.84                             154     0.3 7   71 305 
 RUS  HZ EP   1   1542  5.67                             147     0.3 7   94 173 
 RUS  HN ES   1   1542 24.34                             147     0.1 7   94 173 
 RUS  HZ I        1542 25.26         2.5 0.54                            94 173 
 PTB  HZ EP       1542  8.36                             135    -0.1 9  143 261 
 PTB  HN ES   1   1542 29.59                             135    -0.1 7  143 261 
 PTB  HZ I        1542 31.23         2.3 0.47                           143 261 
                                                                                
