 2011 1130 1621 59.9 L   5.953 -73.648122.4  RSN  4 0.1 1.9LRSN                1
 GAP=156        0.34       2.4     2.2  4.4 -0.1547E+01  0.3526E+01 -0.1388E+00E
 Epicentro: BARBOSA - SANTANDER                                                3
 ACTION:UPD 12-07-13 16:13 OP:ep   STATUS:               ID:20111130162159 L   I
 2011-11-30-1617-00S.COL___162                                                 6
 STAT SP IPHASW D HRMM SECON CODA AMPLIT PERI AZIMU VELO AIN AR TRES W  DIS CAZ7
 RUS  HZ EP       1622 18.61                             151   -0.1310 62.9  96 
 RUS  HN ES   1   1622 33.45                             151   -0.01 7 62.9  96 
 BAR2 SZ EP       1622 20.17                             142    0.1510 87.4  36 
 BAR2 SZ ES   1   1622 35.83                             142    0.09 7 87.4  36 
 BAR2 SZ I        1622 37.34         8.9 0.45                          87.4  36 
 BRR  HZ EP   1   1622 22.98                             130   -0.12 7  128 357 
 BRR  HN ES   1   1622 41.14                             130   -0.09 7  128 357 
 BRR  HE I        1622 44.65        22.3 0.20                           128 357 
 NOR  SZ EP   1   1622 24.65                             127    0.13 7  142 252 
 NOR  SN ES   1   1622 43.72                             127   -0.03 7  142 252 
                                                                                
