 2015  830 1627 33.7 L   6.811 -73.133148.0  RSN 21 0.4 2.4LRSN                1
 GAP=120        0.83       2.1     3.1  4.1 -0.5375E+00  0.3457E+01  0.1864E+01E
 Epicentro: LOS SANTOS - SANTANDER                                             3
 ACTION:UPD 15-09-15 23:06 OP:cam  STATUS:               ID:20150830162733 L   I
 OLDACT:REG 15-08-30 21:57 OP:spq  STATUS:               ID:20150830161747     3
 2015-08-30-1617-47M.COL___337                                                 6
 STAT SP IPHASW D HRMM SECON CODA AMPLIT PERI AZIMU VELO AIN AR TRES W  DIS CAZ7
 BAR2 EZ EP       1627 53.62                             170   -0.0510 24.8 193 
 BAR2 EZ ES   1   1628  8.66                             170   -0.55 7 24.8 193 
 BAR2 EZ I        1628  9.80        55.4 0.22            167           24.8 193 
 BRR  HZ IP     C 1627 55.38                             153    0.2110 71.9 297 
 BRR  HN ES       1628 12.62                             153    0.7410 71.9 297 
 BRR  HZ I        1628 15.54        31.3 0.32            150           71.9 297 
 PAM  EZ EP     D 1627 56.63                             152    0.5510 75.5  39 
 PAM  EN ES       1628 13.79                             152    0.2810 75.5  39 
 PAM  EZ I        1628 14.32        24.1 0.26            157           75.5  39 
 RUS  HZ EP       1627 57.64                             144   -0.1510  102 177 
 RUS  HE ES   1   1628 16.50                             144   -0.05 7  102 177 
 RUS  HZ I        1628 17.49        23.6 0.25            145            102 177 
 OCA  HZ EP       1628  1.92                             130   -0.21 9  159 353 
 OCA  HN ES       1628 23.51                             130   -0.76 9  159 353 
 OCA  HZ I        1628 32.07        54.9 0.24            132            159 353 
 SPBC HZ EP       1628  2.71                             129    0.12 9  165 219 
 SPBC HN ES       1628 24.88                             129   -0.21 9  165 219 
 SPBC HZ I        1628 29.62        38.6 0.14            129            165 219 
 ZAR  HZ EP       1628  6.35                             123   -0.07 9  205 292 
 ZAR  HE ES       1628 31.54                             123   -0.37 9  205 292 
 ZAR  HZ I        1628 37.84        25.3 0.34            123            205 292 
 NOR  HZ EP     D 1628  9.78                             119   -0.02 8  237 234 
 NOR  HN ES       1628 37.60                             119   -0.33 8  237 234 
 NOR  HZ I        1628 44.86        13.6 0.16            119            237 234 
 SML  HZ EP       1628 10.52                             118    0.08 8  243 335 
 SML  HE ES   1   1628 38.91                             118   -0.15 6  243 335 
 SML  HZ I        1628 42.58        25.7 0.10            119            243 335 
 CHI  HZ EP       1628 11.83                             117    0.10 8  250 195 
 CHI  HN ES       1628 41.14                             117   -0.22 8  250 195 
 CHI  HZ I        1628 46.45        16.1 0.32            119            250 195 
 ROSC BN ES   4   1628 43.48                             117    1.32 0  255 211 
 ROSC BZ I        1628 48.01        40.3 0.40            118            255 211 
 HEL  HZ EP   1   1628 14.25                             115   -0.00 6  274 256 
 HEL  HN ES   1   1628 46.24                             115    0.38 6  274 256 
 HEL  HZ I        1628 51.78        11.8 0.36            115            274 256 
 GUY2CHZ EP       1628 17.67                             113    0.01 7  303 235 
 GUY2CHE ES   4   1628 54.75                             113    2.83 0  303 235 
 GUY2CHZ I        1629  0.05        11.5 0.56                           303 235 
 VIL  SN ES   1   1628 51.87                             112    0.37 5  305 192 
 VIL  SZ I        1628 54.43        19.4 0.32            114            305 192 
 PTGC HZ EP     C 1628 16.90                             112   -0.87 7  309 159 
 CBOC HZ EP       1628 21.25                             110    0.30 7  335 252 
 CBOC HE ES   1   1628 58.61                             110    0.84 5  335 252 
 CBOC HZ I        1629  3.44         3.7 0.30            111            335 252 
 DBB  SZ EP       1628 21.65                             110    0.19 7  341 274 
 DBB  SZ ES   1   1628 57.83                             110   -0.85 5  341 274 
 TOL  SZ EP       1628 22.40                             110    0.10 6  345 225 
 TOL  SN ES   4   1629  1.30                             110    1.12 0  345 225 
 TOL  SZ I        1629  5.67         9.6 0.27            110            345 225 
 PRA  HZ EP   1   1628 28.22                             107    0.67 4  394 210 
 PRA  HN ES   1   1629  9.51                             107   -0.00 4  394 210 
 PRA  HZ I        1629 16.11        13.4 0.24            108            394 210 
 ORTC HZ EP       1628 28.21                             107    0.26 6  397 216 
 ORTC HN ES   4   1629 11.43                             107    1.19 0  397 216 
 ORTC HZ I        1629 17.63         6.6 0.56            107            397 216 
 SJC  HZ EP   4   1628 27.82                             106   -1.53 0  409 327 
 SJC  HE ES   4   1629  8.72                             106   -4.00 0  409 327 
 SJC  HZ I        1629 15.04         3.6 0.68            107            409 327 
                                                                                
