 2012 1230 1129 42.3 L   7.122 -73.975 23.8  RSN  4 0.2 1.3LRSN                1
 GAP=160        0.64       3.0     1.7  2.5 -0.1026E+01  0.1776E+01 -0.2171E+01E
 Epicentro: BARRANCABERMEJA - SANTANDER                                        3
 ACTION:UPD 13-01-04 14:31 OP:ep   STATUS:               ID:20121230112942 L   I
 2012-12-30-1124-51M.COL___204                                                 6
 STAT SP IPHASW D HRMM SECON CODA AMPLIT PERI AZIMU VELO AIN AR TRES W  DIS CAZ7
 BRR  HZ EP       1129 48.49                             127    0.1510 29.1  93 
 BRR  HN ES       1129 52.83                             127   -0.2110 29.1  93 
 PTB  HZ EP       1129 56.33                             104    0.3910 83.5 220 
 PTB  HN ES       1130  6.32                             104   -0.2510 83.5 220 
 PTB  HZ I        1130  7.43        17.4 0.21                          83.5 220 
 BAR2 SZ EP   1   1129 59.61                              56    0.28 7  105 124 
 BAR2 SZ ES   1   1130 12.42                              56   -0.19 7  105 124 
 BAR2 SZ I        1130 13.02         6.3 0.27                           105 124 
 ZAR  HN ES       1130 12.06                              56   -0.1310  106 293 
 ZAR  HZ I        1130 13.58         5.5 0.08                           106 293 
                                                                                
