 2015 1130 1748 51.5 L   6.860 -73.142143.0  RSN 11 0.5 1.9LRSN                1
 GAP=134        1.26       3.9     5.2  7.6 -0.1670E+01  0.1057E+02  0.1450E+01E
 Epicentro: LOS SANTOS - SANTANDER                                             3
 ACTION:UPD 15-12-28 16:14 OP:cam  STATUS:               ID:20151130174851 L   I
 OLDACT:UP  15-12-01 01:17 OP:mh   STATUS:               ID:20151130174749     3
 OLDACT:UP  15-12-01 01:12 OP:mh   STATUS:               ID:20151130174749     3
 OLDACT:UP  15-12-01 01:11 OP:mh   STATUS:               ID:20151130174749     3
 OLDACT:UP  15-12-01 01:10 OP:mh   STATUS:               ID:20151130174749     3
 OLDACT:REG 15-11-30 22:52 OP:mh   STATUS:               ID:20151130174749     3
 2015-11-30-1747-49M.COL___313                                                 6
 STAT SP IPHASW D HRMM SECON CODA AMPLIT PERI AZIMU VELO AIN AR TRES W  DIS CAZ7
 BAR2 EZ EP       1749 11.09                             168    0.1610 30.0 188 
 BAR2 EZ ES       1749 26.00                             168   -0.1110 30.0 188 
 BAR2 EZ I        1749 29.77         9.8 0.50            168           30.0 188 
 BRR  HZ EP       1749 12.88                             153    0.7010 68.6 293 
 BRR  HN ES       1749 28.65                             153    0.3210 68.6 293 
 BRR  HZ I        1749 33.81        12.5 0.30            150           68.6 293 
 PAM  EZ EP       1749 13.75                             152    0.6610 72.1  43 
 PAM  EN ES       1749 30.37                             152    0.4210 72.1  43 
 PAM  EZ I        1749 32.62        19.4 0.50            156           72.1  43 
 RUS  HZ EP       1749 15.28                             141   -0.1810  107 177 
 RUS  HN ES       1749 33.46                             141   -0.7010  107 177 
 PTB  HZ EP       1749 17.78                             131   -0.61 9  150 256 
 PTB  HN ES       1749 38.97                             131   -0.41 9  150 256 
 PTB  HZ I        1749 44.12         9.0 0.28            131            150 256 
 OCA  HN ES       1749 39.54                             130   -0.85 9  154 353 
 OCA  HZ I        1749 44.80        16.0 0.30            132            154 353 
 ZAR  HN ES       1749 49.15                             122    0.62 9  202 290 
 ZAR  HZ I        1749 55.68         5.9 0.35            123            202 290 
 SML  HZ EP       1749 26.56                             117   -0.75 8  238 335 
 SML  HN ES   1   1749 54.95                             117   -0.31 6  238 335 
 SML  HZ I        1749 58.89        15.3 0.10            119            238 335 
 NOR  HN ES       1749 55.97                             117    0.36 8  239 233 
 NOR  HZ I        1750  1.12         4.5 0.24            119            239 233 
 GUY2CHZ EP   4   1749 36.82                             111    1.38 0  305 234 
 GUY2CHE ES   4   1750 12.55                             111    2.82 0  305 234 
 GUY2CHZ I        1750 19.07         2.3 0.64                           305 234 
 PRA  HZ EP       1749 46.06                             106    0.45 6  398 209 
 PRA  HE ES       1750 28.10                             106    0.27 6  398 209 
 PRA  HZ I        1750 34.41         3.4 0.52            108            398 209 
                                                                                
