 2012  930 1126  0.4 L   6.762 -73.184146.3  RSN  5 0.4 1.6LRSN                1
 GAP=175        0.77       7.5     8.8  7.2  0.4375E+02  0.1867E+02  0.7307E+01E
 Epicentro: VILLANUEVA - SANTANDER                                             3
 ACTION:UPD 12-10-22 14:21 OP:ep   STATUS:               ID:20120930112600 L   I
 2012-09-30-1120-00M.COL___220                                                 6
 STAT SP IPHASW D HRMM SECON CODA AMPLIT PERI AZIMU VELO AIN AR TRES W  DIS CAZ7
 BAR2 SZ EP   1   1126 19.81                             172   -0.15 7 18.8 179 
 BAR2 SZ ES   1   1126 34.93                             172   -0.32 7 18.8 179 
 BAR2 SZ I        1126 35.88        12.7 0.27                          18.8 179 
 GIR2 SZ EP   1   1126 20.08                             166   -0.11 7 35.1 358 
 GIR2 SZ ES   1   1126 35.42                             166   -0.24 7 35.1 358 
 BRR  HZ EP   1   1126 21.79                             153    0.32 7 69.7 303 
 BRR  HZ I        1126 21.92         8.7 0.14                          69.7 303 
 BRR  HN ES   1   1126 38.67                             153    0.73 7 69.7 303 
 RUS  HZ EP   1   1126 23.72                             145   -0.16 7 96.8 173 
 RUS  HN ES   1   1126 42.46                             145    0.23 7 96.8 173 
 RUS  HZ I        1126 43.50         2.9 0.22                          96.8 173 
 ZAR  HZ EP   1   1126 32.93                             123    0.34 6  202 294 
 ZAR  HN ES   1   1126 56.98                             123   -0.76 6  202 294 
 ZAR  HZ I        1127  4.40         4.0 0.10                           202 294 
                                                                                
