 2012 1030 1254  7.7 L   6.779 -73.089145.1  RSN 10 0.4 2.5LRSN                1
 GAP=145        0.73       3.2     4.5  5.6 -0.2093E+01  0.5298E+01  0.7439E+01E
 Epicentro: LOS SANTOS - SANTANDER                                             3
 ACTION:UPD 12-11-22 17:06 OP:ep   STATUS:               ID:20121030125407 L   I
 2012-10-30-1250-00M.COL___230                                                 6
 STAT SP IPHASW D HRMM SECON CODA AMPLIT PERI AZIMU VELO AIN AR TRES W  DIS CAZ7
 BAR2 SZ EP       1254 26.96                             170   -0.2610 23.1 206 
 BAR2 SZ ES   1   1254 42.22                             170   -0.24 7 23.1 206 
 PAM  SZ EP       1254 29.76                             151    0.0510 75.5  35 
 PAM  SN ES       1254 47.09                             151    0.2010 75.5  35 
 PAM  SN I        1254 47.92        50.2 0.74                          75.5  35 
 BRR  HZ EP   1   1254 28.94                             150   -0.20 7 77.8 298 
 BRR  HN ES       1254 46.02                             150    0.1410 77.8 298 
 BRR  HN I        1254 46.63        96.4 0.24                          77.8 298 
 RUS  HZ EP   1   1254 30.88                             144   -0.30 7 98.0 180 
 RUS  HN ES   2   1254 49.46                             144   -0.05 5 98.0 180 
 RUS  HN I        1254 51.25        24.9 0.30                          98.0 180 
 OCA  HN ES   2   1254 59.53                             129    1.03 5  163 351 
 OCA  HN I        1255  2.34        91.9 0.24                           163 351 
 ZAR  HZ EP   1   1254 40.30                             121   -0.47 6  211 292 
 ZAR  HN ES   2   1255  5.45                             121   -1.12 4  211 292 
 ZAR  HN I        1255 11.21        21.8 0.18                           211 292 
 CHI  HZ EP   1   1254 44.96                             117   -0.32 6  248 197 
 CHI  HE ES       1255 14.68                             117    0.07 8  248 197 
 CHI  HN I        1255 16.63        16.4 0.26                           248 197 
 HEL  HE ES   2   1255 20.80                             114    0.52 4  278 257 
 RREF HZ EP   1   1254 54.72                             110    0.56 5  325 230 
 PRA  HZ EP   1   1255  1.50                             106    0.19 4  393 211 
 PRA  HN ES       1255 43.97                             106    0.84 6  393 211 
 PRA  HN I        1255 49.64         6.4 0.22                           393 211 
                                                                                
