 2012  430 1719  5.5 L   6.753 -73.158145.9  RSN  6 0.4 2.1LRSN                1
 GAP=137        1.09       7.1     6.1  9.7  0.1046E+01  0.1001E+02 -0.2537E+01E
 Epicentro: LOS SANTOS - SANTANDER                                             3
 ACTION:UPD 12-07-05 11:56 OP:tino STATUS:               ID:20120430171905 L   I
 2012-04-30-1716-41M.COL___183                                                 6
 STAT SP IPHASW D HRMM SECON CODA AMPLIT PERI AZIMU VELO AIN AR TRES W  DIS CAZ7
 BAR2 SZ EP       1719 25.12                             173     0.110   18 189 
 BAR2 SZ ES   1   1719 40.47                             173     0.2 7   18 189 
 BAR2 SZ I        1719 42.55        18.7 0.24                            18 189 
 BRR  HZ EP       1719 27.03                             152     0.310   73 303 
 BRR  HE ES   1   1719 43.89                             152     0.6 7   73 303 
 BRR  HZ I        1719 44.94        30.3 0.10                            73 303 
 PAM  SZ EP       1719 28.12                             149     0.110   82  38 
 PAM  SN ES   1   1719 44.72                             149    -0.8 7   82  38 
 RUS  HZ EP   1   1719 29.07                             145     0.2 7   95 175 
 RUS  HN ES   1   1719 47.15                             145     0.0 7   95 175 
 RUS  HZ I        1719 48.94        16.1 0.35                            95 175 
 PTB  HZ EP       1719 31.77                             133    -0.5 9  146 261 
 PTB  HN ES   1   1719 52.40                             133    -0.7 7  146 261 
 PTB  HZ I        1719 55.19         9.4 0.14                           146 261 
 ZAR  HN ES   1   1720  3.60                             122     0.2 6  205 294 
 ZAR  HZ I        1720  9.77        22.7 0.38                           205 294 
                                                                                
