 2016  130 1557 15.7 L   6.825 -73.157141.4  RSN 21 0.5 2.4LRSN                1
 GAP=134        1.18       2.7     4.3  6.0 -0.2826E+01  0.9058E+01  0.1542E+01E
 Epicentro: LOS SANTOS - SANTANDER                                             3
 ACTION:UPD 16-03-09 23:29 OP:cam  STATUS:               ID:20160130155715 L   I
 OLDACT:REG 16-01-30 22:33 OP:ak   STATUS:               ID:20160130155600     3
 2016-01-30-1555-59S.COL___229                                                 6
 STAT SP IPHASW D HRMM SECON CODA AMPLIT PERI AZIMU VELO AIN AR TRES W  DIS CAZ7
 BAR2 EZ EP     D 1557 34.94                             169    0.0410 25.9 186 
 BAR2 EZ ES       1557 49.84                             169   -0.0110 25.9 186 
 BAR2 EZ I        1557 51.67        49.3 0.18            168           25.9 186 
 PAM  EZ EP       1557 37.93                             150    0.5210 76.1  42 
 PAM  EN ES       1557 54.91                             150    0.5910 76.1  42 
 PAM  EZ I        1557 57.10        82.2 0.50            153           76.1  42 
 RUS  HZ EP       1557 38.49                             142   -0.7910  103 175 
 RUS  HN ES       1557 57.94                             142    0.3010  103 175 
 RUS  HZ I        1557 58.81        26.7 0.34            143            103 175 
 PTB  HZ EP       1557 41.68                             131   -0.62 9  147 258 
 PTB  HN ES       1558  2.08                             131   -0.93 9  147 258 
 PTB  HZ I        1558  4.70        22.9 0.20            129            147 258 
 OCA  HZ EP       1557 43.57                             129    0.13 9  157 353 
 OCA  HN ES       1558  4.50                             129   -0.54 9  157 353 
 SPBC HZ EP       1557 43.94                             128   -0.11 9  165 218 
 SPBC HN ES       1558  5.67                             128   -0.45 9  165 218 
 SPBC HZ I        1558  8.52        41.4 0.36            127            165 218 
 ZAR  HZ EP       1557 48.23                             122    0.55 9  202 292 
 ZAR  HN ES       1558 13.26                             122    0.67 9  202 292 
 ZAR  HZ I        1558 19.19        32.8 0.28            120            202 292 
 NOR  HZ EP       1557 51.14                             117   -0.15 8  235 234 
 NOR  HN ES       1558 18.39                             117   -0.63 8  235 234 
 NOR  HZ I        1558 24.58        14.3 0.20            117            235 234 
 SML  HZ EP       1557 51.16                             117   -0.63 8  241 335 
 SML  HN ES       1558 20.08                             117    0.17 8  241 335 
 SML  HZ I        1558 23.38        50.2 0.12            116            241 335 
 CHI  HZ EP       1557 53.21                             116   -0.25 8  251 195 
 CHI  HN ES       1558 22.59                             116   -0.30 8  251 195 
 ROSC BZ EP       1557 54.68                             116    0.86 8  255 210 
 ROSC BN ES       1558 24.24                             116    0.72 8  255 210 
 ROSC BZ I        1558 28.79        36.0 0.30            115            255 210 
 URE  HZ EP   4   1558  0.43                             113    4.07 0  282 291 
 URE  HE ES   4   1558 25.58                             113   -2.45 0  282 291 
 URE  HZ I        1558 36.73        18.4 0.32            112            282 291 
 SOCV BZ EP   4   1557 56.27                             111   -2.27 0  301  57 
 SOCV BN ES   4   1558 28.14                             111   -3.78 0  301  57 
 GUY2CHZ EP   2   1557 59.43                             111    0.21 4  302 234 
 GUY2CHN ES       1558 33.84                             111    0.71 7  302 234 
 GUY2CHZ I        1558 40.93        10.4 0.32                           302 234 
 ELA  HZ EP       1558  3.16                             109    0.65 7  330 229 
 ELA  HN ES       1558 39.50                             109    0.50 7  330 229 
 ELA  HZ I        1558 47.71         6.4 0.68            109            330 229 
 MON  HZ EP   9   1558  2.34                             108   -1.92 0  351 308 
 MON  HN ES       1558 39.99                                   -0.20 6  351 308 
 MON  HZ I        1558 55.80         5.9 0.42            107            351 308 
 ANIL HZ EP   1   1558  5.84                             108    0.33 5  358 224 
 ANIL HE ES       1558 45.14                             108    0.81 6  358 224 
 ANIL HZ I        1558 55.72        27.3 0.62            107            358 224 
 SDV  BZ EP   4   1558  4.16                             107   -1.36 0  360  51 
 SDV  B1 ES   4   1558 41.52                             107   -2.83 0  360  51 
 SDV  BZ I        1558 45.35         4.5 0.55            108            360  51 
 PRA  HZ EP       1558  8.51                             106   -0.82 6  394 209 
 PRA  HN ES       1558 50.70                             106   -0.43 6  394 209 
 PRA  HZ I        1558 59.59        10.7 0.36            106            394 209 
 ORTC HZ EP       1558  9.13                             105   -0.57 6  397 216 
 ORTC HN ES       1558 52.06                             105    0.28 6  397 216 
 ORTC HZ I        1558 58.60         9.1 0.76            105            397 216 
 SJC  HZ EP   4   1558  8.99                             105   -1.82 0  406 327 
 SJC  HN ES   4   1558 49.78                             105   -3.97 0  406 327 
 SJC  HZ I        1558 54.62         4.7 0.64            105            406 327 
 CRJC HZ EP   4   1558 14.89                             103   -2.91 0  465   4 
 CRJC HN ES   4   1559  4.32                             103   -1.88 0  465   4 
 CRJC HZ I        1559 13.18         4.8 0.10            103            465   4 
                                                                                
