 2011  430 1846 10.1 L   6.794 -73.078151.2  RSN  5 0.2 1.7LRSN                1
 GAP=173        0.53       5.6     5.7  5.8 -0.2292E+02 -0.2756E+01  0.1071E+02E
 Epicentro: LOS SANTOS - SANTANDER                                             3
 ACTION:UP  11-06-22 15:34 OP:REBC STATUS:               ID:20110430184610 L   I
 2011-04-30-1845-48S.COL___128                                                 6
 STAT SP IPHASW D HRMM SECON CODA AMPLIT PERI AZIMU VELO SNR AR TRES W  DIS CAZ7
 BAR2 SZ EP   1   1846 30.28                             170    -0.2 7   25 207 
 BAR2 SZ ES   2   1846 46.02                             170    -0.3 5   25 207 
 PAM  SZ EP   1   1846 33.14                             153     0.5 7   73  35 
 PAM  SN ES   1   1846 50.43                             153     0.1 7   73  35 
 BRR  HZ EP   1   1846 32.26                             151     0.0 7   78 296 
 BRR  HZ I        1846 32.47        12.5 0.15                            78 296 
 BRR  HE ES   1   1846 49.72                             151     0.2 7   78 296 
 GRA  SZ EP   1   1846 35.50                             139    -0.2 7  124  14 
 GRA  SZ ES   1   1846 55.40                             139    -0.3 7  124  14 
 GRA  SZ I        1846 57.98         5.0 0.28                           124  14 
 NOR  SZ EP   1   1846 46.89                             119     0.1 6  240 236 
 NOR  SN ES   1   1847 15.22                             119    -0.2 6  240 236 
                                                                                
