 2010 1030 1818 43.0 L   6.806 -73.052140.0  RSN  5 0.3 1.5LRSN                1
 GAP=175        0.62       6.4    13.1 10.9  0.3470E+02 -0.7163E+02 -0.3091E+02E
 Epicentro: LOS SANTOS - SANTANDER                                             3
 ACTION:UP  11-02-18 11:13 OP:tino STATUS:               ID:20101030181843 L   I
 2010-10-30-1814-37S.COL___128                                                 6
 STAT SP IPHASW D HRMM SECON CODA AMPLIT PERI AZIMU VELO SNR AR TRES W  DIS CAZ7
 BTL  SZ EP   1   1819  2.53                             169     0.5 7   27 298 
 BAR2 SZ EP   2   1819  1.97                             168    -0.1 5   28 211 
 BAR2 SZ ES   2   1819 16.81                             168    -0.1 5   28 211 
 BAR2 SZ I        1819 17.82        12.9 0.28                            28 211 
 BRR  HZ EP   1   1819  3.72                             148    -0.4 7   80 295 
 BRR  HE ES   2   1819 20.84                             148     0.3 5   80 295 
 BRR  HZ I        1819 24.30         8.4 0.63                            80 295 
 RUS  HZ EP   1   1819  6.43                             142     0.2 7  101 182 
 RUS  HN ES   2   1819 24.10                             142    -0.3 5  101 182 
 RUS  HZ I        1819 25.50         2.3 0.20                           101 182 
 GUE  SZ EP   1   1819  6.93                             139    -0.1 7  114   7 
                                                                                
