 2011 1030 1641 40.1 L   6.807 -73.041145.6  RSN  6 0.3 1.5LRSN                1
 GAP=150        0.50       4.5     6.3  7.3  0.9956E+01 -0.3945E+01 -0.1040E+02E
 Epicentro: LOS SANTOS - SANTANDER                                             3
 ACTION:UPD 12-07-13 16:07 OP:ep   STATUS:               ID:20111030164140 L   I
 2011-10-30-1640-28S.COL___157                                                 6
 STAT SP IPHASW D HRMM SECON CODA AMPLIT PERI AZIMU VELO AIN AR TRES W  DIS CAZ7
 BAR2 SZ EP   1   1641 59.90                             168    0.06 7 28.4 213 
 BAR2 SZ ES   2   1642 14.58                             168   -0.65 5 28.4 213 
 BAR2 SZ I        1642 16.03         6.3 0.63                          28.4 213 
 PAM  SZ EP   2   1642  1.81                             153   -0.07 5 69.9  33 
 BRR  HZ EP   1   1642  1.78                             149   -0.06 7 81.2 294 
 BRR  HZ I        1642  2.07         8.5 0.19                          81.2 294 
 BRR  HN ES   2   1642 19.58                             149    0.79 5 81.2 294 
 RUS  HZ EP   2   1642  4.16                             144    0.26 5  101 183 
 RUS  HZ I        1642 21.46         2.1 0.57                           101 183 
 RUS  HN ES   2   1642 22.50                             144    0.05 5  101 183 
 OCA  SZ EP   2   1642  8.57                             129    0.06 5  161 349 
 OCA  SZ ES   2   1642 30.61                             129   -0.04 5  161 349 
 OCA  SZ I        1642 34.22         5.2 0.43                           161 349 
 ZAR  HZ EP   2   1642 13.48                             121   -0.16 4  215 291 
 ZAR  HN ES   2   1642 39.37                             121   -0.42 4  215 291 
 ZAR  HZ I        1642 44.43         3.0 0.33                           215 291 
                                                                                
