 2013  530 1138 54.5 L   5.831 -73.699119.8  RSN 10 0.5 2.1LRSN                1
 GAP= 97        1.26       3.7     4.1  8.9 -0.6980E+01  0.7261E+01 -0.8018E+00E
 Epicentro: PUENTE NACIONAL - SANTANDER                                        3
 ACTION:UPD 13-06-20 09:54 OP:ep   STATUS:               ID:20130530113854 L   I
 2013-05-30-1128-50M.COL___214                                                 6
 STAT SP IPHASW D HRMM SECON CODA AMPLIT PERI AZIMU VELO AIN AR TRES W  DIS CAZ7
 RUS  HZ EP       1139 13.69                             148    0.2710 68.5  84 
 RUS  HN ES       1139 28.42                             148    0.2210 68.5  84 
 RUS  HE I        1139 29.78        18.4 0.56            148           68.5  84 
 BAR2 SZ EP       1139 15.95                             137    0.4310  102  34 
 BAR2 SZ ES       1139 32.16                             137    0.2210  102  34 
 BAR2 SZ I        1139 33.40        90.2 0.34            138            102  34 
 PTB  HZ EP       1139 15.37                             133   -0.9710  115 313 
 PTB  HN ES       1139 32.75                             133   -0.6410  115 313 
 NOR  HZ EP       1139 18.14                             129    0.0710  133 257 
 NOR  HN ES       1139 37.04                             129    0.5710  133 257 
 NOR  HE I        1139 37.94        37.5 0.14            129            133 257 
 CHI  HN ES       1139 36.67                             129   -0.6510  133 182 
 BRR  HZ EP       1139 18.71                             127   -0.08 9  141 359 
 BRR  HN ES       1139 37.80                             127    0.04 9  141 359 
 BRR  HE I        1139 40.15        27.9 0.50            127            141 359 
 GIR2 SZ EP       1139 20.06                             125    0.31 9  149  22 
 GIR2 SZ ES       1139 39.40                             125   -0.06 9  149  22 
 GUY2CHZ EP       1139 25.00                             117   -0.14 9  196 250 
 GUY2CHN ES       1139 50.02                             117    0.96 9  196 250 
 GUY2CHE I        1139 51.85         3.7 0.44                           196 250 
 PAM  SZ EP       1139 26.15                             117    0.59 9  200  33 
 PAM  SE ES       1139 49.13                             117   -0.68 9  200  33 
 PAM  SN I        1139 52.86        12.8 0.20            117            200  33 
 PRA  HE ES       1140  1.97                             109   -0.53 8  269 209 
 PRA  HN I        1140  8.97         4.6 0.14            109            269 209 
                                                                                
