 2014  930 1155 24.5 L   6.820 -73.144148.0  RSN 11 0.6 2.3LRSN                1
 GAP=215        1.29       4.3     8.0  7.3  0.5828E+01  0.4743E+01  0.1732E+01E
 Epicentro: LOS SANTOS - SANTANDER                                             3
 ACTION:UPD 14-10-03 23:10 OP:nd   STATUS:               ID:20140930115524 L   I
 OLDACT:UP  14-10-01 01:58 OP:cam  STATUS:               ID:20140930115000     3
 OLDACT:REG 14-09-30 20:16 OP:cam  STATUS:               ID:20140930115000     3
 2014-09-30-1150-00M.COL___252                                                 6
 STAT SP IPHASW D HRMM SECON CODA AMPLIT PERI AZIMU VELO AIN AR TRES W  DIS CAZ7
 BAR2 SZ IP     D 1155 44.67                             170    0.2410 25.6 190 
 BAR2 SZ ES       1155 59.20                             170   -0.7910 25.6 190 
 BAR2 SZ I        1156  1.85        20.3 0.16            166           25.6 190 
 BRR  HZ IP     C 1155 46.37                             153    0.5410 70.4 297 
 BRR  HE ES       1156  3.09                             153    0.6110 70.4 297 
 BRR  HZ I        1156  6.31        26.1 0.36            148           70.4 297 
 PTB  HZ EP     C 1155 51.17                             132   -0.52 9  148 258 
 PTB  HN ES       1156 12.23                             132   -0.69 9  148 258 
 PTB  HZ I        1156 14.19        25.6 0.30            129            148 258 
 SPBC HZ EP       1155 53.32                             129   -0.01 9  165 219 
 SPBC HE ES       1156 16.72                             129    0.89 9  165 219 
 SPBC HZ I        1156 23.23        21.7 0.24            128            165 219 
 ZAR  HZ EP       1155 57.65                             123    0.64 9  203 292 
 ZAR  HN ES       1156 22.21                             123   -0.17 9  203 292 
 ZAR  HZ I        1156 28.04        30.7 0.22            121            203 292 
 SML  HZ EP   1   1156  1.07                             118    0.04 6  242 335 
 SML  HN ES       1156 29.49                             118   -0.04 8  242 335 
 SML  HZ I        1156 40.08        17.7 0.10            118            242 335 
 CHI  HZ EP       1156  2.77                             117    0.23 8  251 195 
 CHI  HN ES       1156 31.70                             117   -0.53 8  251 195 
 CHI  HZ I        1156 40.63         6.0 0.32            117            251 195 
 GUY2CHZ EP   4   1156 11.07                             113    2.71 0  303 234 
 GUY2CHN ES   4   1156 43.85                             113    1.27 0  303 234 
 GUY2CHZ I        1156 52.90        11.2 0.54                           303 234 
 DBB  SZ EP       1156 12.06                             110    0.00 7  340 274 
 DBB  SZ ES   4   1156 44.84                             110   -4.32 0  340 274 
 DBB  SZ I        1157  1.39        18.1 0.40            109            340 274 
 PRA  HZ EP       1156 18.84                             107    0.52 6  394 209 
 PRA  HN ES       1156 59.99                             107   -0.32 6  394 209 
 PRA  HZ I        1157  3.60         6.0 0.26            107            394 209 
 SJC  HZ EP       1156 18.35                             106   -1.56 6  407 327 
 SJC  HE ES   4   1156 59.79                             106   -3.36 0  407 327 
 SJC  HZ I        1157  2.83         2.9 0.56            106            407 327 
                                                                                
