 2015 1130 1408 35.1 L   6.822 -73.108148.1  RSN 22 0.4 2.8LRSN                1
 GAP=128        0.98       2.3     3.0  4.3 -0.2155E+01  0.2362E+01  0.9000E+00E
 Epicentro: LOS SANTOS - SANTANDER                                             3
 ACTION:UPD 15-12-28 16:14 OP:cam  STATUS:               ID:20151130140835 L   I
 OLDACT:UP  15-12-01 00:57 OP:mh   STATUS:               ID:20151130140750     3
 OLDACT:UP  15-12-01 00:56 OP:mh   STATUS:               ID:20151130140750     3
 OLDACT:UP  15-12-01 00:50 OP:mh   STATUS:               ID:20151130140750     3
 OLDACT:REG 15-11-30 22:48 OP:mh   STATUS:               ID:20151130140750     3
 2015-11-30-1407-50M.COL___292                                                 6
 STAT SP IPHASW D HRMM SECON CODA AMPLIT PERI AZIMU VELO AIN AR TRES W  DIS CAZ7
 BAR2 EZ EP       14 8 55.35                             169    0.3210 26.7 198 
 BAR2 EZ ES       14 9  9.95                             169   -0.6610 26.7 198 
 BAR2 EZ I        14 9 11.34       132.0 0.24            168           26.7 198 
 PAM  EZ EP   1   14 8 57.76                             153    0.51 7 72.9  38 
 PAM  EN ES       14 9 14.95                             153    0.3810 72.9  38 
 PAM  EZ I        14 9 17.33       192.1 0.48            155           72.9  38 
 BRR  HZ EP       14 8 57.26                             152    0.6610 73.8 295 
 BRR  HN ES       14 9 14.04                             152    0.6410 73.8 295 
 BRR  HZ I        14 9 18.10        87.1 0.16            148           73.8 295 
 RUS  HZ EP       14 8 59.41                             144    0.2210  103 178 
 RUS  HN ES       14 9 18.19                             144    0.1710  103 178 
 RUS  HZ I        14 9 18.83        87.2 0.28            145            103 178 
 PTB  HZ EP       14 9  1.97                             132   -0.65 9  152 258 
 PTB  HE ES       14 9 24.00                             132   -0.12 9  152 258 
 PTB  HZ I        14 9 26.22        45.7 0.10            130            152 258 
 OCA  HZ EP   1   14 9  3.43                             131    0.06 7  158 352 
 OCA  HN ES       14 9 25.09                             131   -0.37 9  158 352 
 OCA  HZ I        14 9 28.48       119.2 0.46            130            158 352 
 SPBC HZ EP       14 9  4.34                             129    0.19 9  168 220 
 SPBC HN ES       14 9 26.22                             129   -0.63 9  168 220 
 SPBC HZ I        14 9 28.59       135.3 0.28            128            168 220 
 ZAR  HZ EP       14 9  8.02                             123    0.07 8  207 291 
 ZAR  HN ES       14 9 33.29                             123   -0.33 8  207 291 
 ZAR  HZ I        14 9 40.50        46.4 0.50            121            207 291 
 NOR  HZ EP       14 9 11.03                             118   -0.40 8  239 235 
 NOR  HN ES       14 9 39.60                             118   -0.20 8  239 235 
 NOR  HZ I        14 9 44.83        53.9 0.14            118            239 235 
 SML  HZ EP       14 9 11.44                             118   -0.32 8  243 334 
 SML  HN ES       14 9 40.26                             118   -0.14 8  243 334 
 SML  HZ I        14 9 43.49        99.5 0.28            117            243 334 
 ROSC BZ EP   4   14 9 15.38                             117    1.62 0  257 212 
 ROSC BN ES       14 9 43.80                             117   -0.15 8  257 212 
 ROSC BZ I        14 9 48.96        66.9 0.40            117            257 212 
 HEL  HZ EP       14 9 15.20                             115   -0.69 7  277 256 
 HEL  HN ES       14 9 47.65                             115   -0.10 7  277 256 
 HEL  HZ I        14 9 53.38        29.1 0.26            114            277 256 
 URE  HZ EP   4   14 9 15.18                             114   -1.39 0  287 291 
 URE  HN ES   4   14 9 47.29                             114   -1.66 0  287 291 
 URE  HZ I        14 9 57.85        35.1 0.28            113            287 291 
 SOCV BZ EP   4   14 9 17.28                             113   -0.38 0  296  57 
 SOCV BN ES   4   14 9 48.45                             113   -2.45 0  296  57 
 GUY2CHZ EP       14 9 19.47                             112    0.16 7  306 235 
 GUY2CHN ES   4   14 9 55.10                             112    1.27 0  306 235 
 GUY2CHZ I        1410  1.43        30.9 0.28                           306 235 
 VIL  SZ EP   1   14 9 18.73                             112   -0.21 5  307 192 
 VIL  SN ES       14 9 52.64                             112   -0.53 7  307 192 
 PTGC HZ EP   4   14 9 17.39                             112   -1.71 0  309 160 
 PTGC HN ES   4   14 9 51.28                             112   -2.17 0  309 160 
 PTGC HZ I        14 9 54.35        52.1 0.46            113            309 160 
 ELA  HZ EP   1   14 9 23.67                             110    1.13 5  334 230 
 ELA  HN ES       1410  0.52                             110    0.94 7  334 230 
 ELA  HZ I        1410  7.89        16.4 0.68            110            334 230 
 CBOC HZ EP   1   14 9 23.43                             110    0.83 5  338 252 
 CBOC HN ES       14 9 59.89                             110    0.20 7  338 252 
 CBOC HZ I        1410 15.92        16.2 0.82            110            338 252 
 MON  HZ EP   4   14 9 22.24                             109   -2.11 0  355 308 
 MON  HN ES   4   14 9 59.95                             109   -2.85 0  355 308 
 SDV  BZ EP       14 9 24.50                             109   -0.13 6  356  50 
 SDV  BN ES       1410  2.89                             109   -0.41 6  356  50 
 SDV  BZ I        1410  5.12        13.7 0.35            110            356  50 
 ANIL HZ EP       14 9 25.66                             109    0.18 6  362 225 
 ANIL HE ES       1410  5.07                             109    0.25 6  362 225 
 ANIL HZ I        1410  9.63        68.5 0.32            108            362 225 
 PRA  HZ EP       14 9 28.69                             107   -0.45 6  396 210 
 PRA  HN ES       1410 11.73                             107    0.40 6  396 210 
 PRA  HZ I        1410 17.14        22.4 0.34            107            396 210 
 SJC  HZ EP   4   14 9 29.06                             106   -1.66 0  409 326 
 SJC  HN ES   4   1410 10.48                             106   -3.66 0  409 326 
 SJC  HZ I        1410 17.11         8.2 0.28            106            409 326 
                                                                                
