 2013  930 1702 18.8 L   6.823 -73.200137.1  RSN  7 0.5 1.4LRSN                1
 GAP=197        1.16       4.9     6.2  7.7  0.4016E+01  0.1715E+02  0.4951E+01E
 Epicentro: ZAPATOCA - SANTANDER                                               3
 ACTION:UPD 13-10-22 09:26 OP:ep   STATUS:               ID:20130930170218 L   I
 OLDACT:DUP 13-09-30 19:34 OP:stll STATUS:               ID:20130930165850d    3
 2013-09-30-1658-49M.COL___228                                                 6
 STAT SP IPHASW D HRMM SECON CODA AMPLIT PERI AZIMU VELO AIN AR TRES W  DIS CAZ7
 BAR2 SZ EP       17 2 37.38                             169   -0.0510 25.6 176 
 BAR2 SZ I        17 2 37.41         6.1 0.40            167           25.6 176 
 BAR2 SZ ES       17 2 52.16                             169    0.1910 25.6 176 
 BRR  HN ES       17 2 54.90                             153    0.7810 64.7 299 
 RUS  HZ EP       17 2 41.79                             141   -0.1410  104 173 
 RUS  HN ES       17 2 59.62                             141   -0.3710  104 173 
 RUS  HZ I        17 3  0.82         2.8 0.28            141            104 173 
 PTB  HZ EP       17 2 44.48                             131   -0.09 9  142 257 
 PTB  HN ES       17 3  3.60                             131   -1.08 9  142 257 
 PTB  HZ I        17 3  7.50         3.5 0.64            130            142 257 
 NOR  HZ EP       17 2 53.81                             117    0.14 8  231 233 
 NOR  HN ES       17 3 21.07                             117    0.19 8  231 233 
 NOR  HZ I        17 3 25.21         2.1 0.38            117            231 233 
 SML  HE ES       17 3 21.96                             116   -0.25 8  239 336 
 GUY2CHZ EP       17 3  2.18                             111    0.55 7  298 234 
 GUY2CHN ES       17 3 35.55                             111    0.51 7  298 234 
 GUY2CHZ I        17 3 43.57         1.3 0.54                           298 234 
                                                                                
