 2017  130 1747 39.8 L   6.765 -73.140143.0  RSN  8 0.4 2.0LRSN                1
 GAP=139        1.04       4.7     4.4  7.0 -0.1282E+01  0.8703E+01  0.4062E+01E
 Epicentro: LOS SANTOS - SANTANDER                                             3
 ACTION:UPD 17-05-22 16:05 OP:jn   STATUS:               ID:20170130174739 L   I
 OLDACT:UP  17-01-30 23:30 OP:dnl  STATUS:               ID:20170130173744d    3
 OLDACT:UP  17-01-30 23:30 OP:dnl  STATUS:               ID:20170130173744d    3
 OLDACT:DUP 17-01-30 23:27 OP:dnl  STATUS:               ID:20170130173744d    3
 2017-01-30-1738-00M.COL___348                                                 6
 STAT SP IPHASW D HRMM SECON CODA AMPLIT PERI AZIMU VELO AIN AR TRES W  DIS CAZ7
 BAR2 EZ EP       1747 58.90                             172   -0.1110 19.7 194 
 BAR2 EZ ES       1748 13.70                             172   -0.3110 19.7 194 
 BAR2 EZ I        1748 14.82        33.2 0.42            171           19.7 194 
 BRR  HZ EP       1748  1.01                             151    0.2310 73.7 301 
 BRR  HE ES       1748 17.85                             151    0.7010 73.7 301 
 BRR  HZ I        1748 23.05        14.3 0.44            150           73.7 301 
 PAM  EZ EP     D 1748  1.83                             149   -0.0310 80.0  37 
 PAM  EE ES       1748 18.85                             149   -0.2410 80.0  37 
 PAM  EZ I        1748 20.89        26.3 0.52            153           80.0  37 
 RUS  HZ EP       1748  3.01                             144    0.0310 96.7 176 
 RUS  HE ES       1748 21.44                             144    0.3610 96.7 176 
 RUS  HZ I        1748 22.33        14.6 0.28            147           96.7 176 
 PTB  HZ EP       1748  6.08                             131   -0.44 9  148 260 
 PTB  HN ES       1748 26.44                             131   -0.94 9  148 260 
 PTB  HZ I        1748 29.32        12.1 0.36            132            148 260 
 ZAR  HZ EP   4   1748 13.55                             121    1.29 0  206 293 
 ZAR  HN ES       1748 37.88                             121    0.28 8  206 293 
 ZAR  HZ I        1748 40.53         9.8 0.44            123            206 293 
 NOR  HZ EP       1748 15.44                             118    0.27 8  233 235 
 NOR  HE ES       1748 43.05                             118    0.28 8  233 235 
 NOR  HZ I        1748 50.16         9.0 0.26            119            233 235 
 SJC  HZ EP   4   1748 34.01                             105   -1.66 0  413 327 
 SJC  HN ES   4   1749 12.92                             105   -6.35 0  413 327 
 SJC  HZ I        1749 18.73         3.5 0.56            107            413 327 
                                                                                
