 2010  730 1037 44.1 L   6.749 -73.121140.4  RSN  4 0.3 1.3LRSN                1
 GAP=167        0.63       6.8    18.2 12.5  0.5489E+02 -0.1479E+03 -0.3767E+02E
 Epicentro: LOS SANTOS - SANTANDER                                             3
 ACTION:UPD 10-12-01 15:21 OP:pat  STATUS:               ID:20100730103744 L   I
 2010-07-30-1034-50S.COL___123                                                 6
 STAT SP IPHASW D HRMM SECON CODA AMPLIT PERI AZIMU VELO AIN AR TRES W  DIS CAZ7
 BAR2 SZ EP   1   1038  2.69                             172    -0.3 7   19 202 
 BAR2 SZ ES   2   1038 17.45                             172    -0.3 5   19 202 
 BAR2 SZ I        1038 18.52         5.1 0.23                            19 202 
 BRR  HZ I        1038  3.72        10.2 0.36                            76 301 
 BRR  HE ES   2   1038 21.44                             150     0.1 5   76 301 
 RUS  HZ EP   1   1038  6.90                             144     0.0 7   95 177 
 RUS  HE ES   2   1038 25.27                             144     0.5 5   95 177 
 RUS  HZ I        1038 26.20         1.7 0.18                            95 177 
 GUE  SZ EP   1   1038  9.00                             137     0.2 7  122  10 
                                                                                
