 2012  130 1347 34.1 L   6.773 -73.049145.0  RSN  5 0.3 1.8LRSN                1
 GAP=151        0.67       4.5     6.1  6.3  0.2610E+01 -0.4267E+01  0.1461E+01E
 Epicentro: LOS SANTOS - SANTANDER                                             3
 ACTION:UP  12-02-03 08:22 OP:REBC STATUS:               ID:20120130134734 L   I
 2012-01-30-1340-00M.COL___188                                                 6
 STAT SP IPHASW D HRMM SECON CODA AMPLIT PERI AZIMU VELO SNR AR TRES W  DIS CAZ7
 BAR2 SZ EP   1   1347 53.61                             170    -0.1 7   25 216 
 BAR2 SZ ES   1   1348  8.45                             170    -0.5 7   25 216 
 BAR2 SZ I        1348 10.46        10.8 0.24                            25 216 
 GIR2 SZ EP   1   1347 53.73                             165    -0.1 7   37 335 
 GIR2 SZ ES   2   1348  9.77                             165     0.5 5   37 335 
 PAM  SZ EP   1   1347 55.99                             152     0.0 7   74  32 
 PAM  SE ES   1   1348 13.17                             152     0.1 7   74  32 
 BRR  HZ EP       1347 55.56                             149    -0.310   82 297 
 BRR  HZ I        1347 55.85        24.8 0.17                            82 297 
 BRR  HE ES       1348 12.95                             149     0.210   82 297 
 RUS  HZ EP   1   1347 58.04                             145     0.5 7   97 182 
 RUS  HN ES   1   1348 15.84                             145     0.0 7   97 182 
 RUS  HZ I        1348 17.56         4.8 0.45                            97 182 
                                                                                
