 2014  430 1045 55.9 L   6.787 -73.114141.0  RSN  5 0.4 1.2LRSN                1
 GAP=203        0.95       5.4     6.9 14.2  0.1192E+02 -0.1238E+02 -0.5018E+02E
 Epicentro: LOS SANTOS - SANTANDER                                             3
 ACTION:UPD 14-05-13 20:50 OP:nd   STATUS:               ID:20140430104555 L   I
 OLDACT:REG 14-04-30 20:03 OP:mh   STATUS:               ID:20140430104000     3
 2014-04-30-1040-00M.COL___270                                                 6
 STAT SP IPHASW D HRMM SECON CODA AMPLIT PERI AZIMU VELO AIN AR TRES W  DIS CAZ7
 RUS  HZ EP       1046 18.90                             143   -0.1410 98.9 178 
 RUS  HN ES       1046 36.98                             143   -0.1310 98.9 178 
 PTB  HZ EP       1046 22.55                             130   -0.20 9  151 260 
 PTB  HN ES   1   1046 43.03                             130   -0.68 7  151 260 
 PTB  HZ I        1046 49.49         1.7 0.19            130            151 260 
 SPBC HE ES       1046 46.91                             128    0.76 9  164 220 
 ZAR  HN ES   1   1046 53.39                             121   -0.39 6  208 292 
 ZAR  HZ I        1047  0.22         1.9 0.10            121            208 292 
 SML  HZ EP       1046 32.48                             116   -0.06 8  246 335 
 SML  HN ES       1047  1.67                             116    0.53 8  246 335 
