 2017 1130 1050 15.1 L   6.088 -73.543126.4  RSN  8 0.6 1.8LRSN                1
 GAP= 79        1.16       5.0     4.5  8.8 -0.6228E+00  0.1822E+02  0.4696E+01E
 Epicentro: SAN BENITO - SANTANDER                                             3
 ACTION:UPD 17-12-12 20:02 OP:rebc STATUS:               ID:20171130105015 L   I
 OLDACT:UP  17-11-30 21:24 OP:dani STATUS:               ID:20171130104739     3
 OLDACT:UP  17-11-30 21:24 OP:dani STATUS:               ID:20171130104739     3
 OLDACT:REG 17-11-30 20:44 OP:mg   STATUS:               ID:20171130104739     3
 2017-11-30-1048-00M.COL___462                                                 6
 STAT SP IPHASW D HRMM SECON CODA AMPLIT PERI AZIMU VELO AIN AR TRES W  DIS CAZ7
 RUS  HZ EP       1050 33.76                             155   -0.2310 55.3 113 
 RUS  HE ES       1050 49.43                             155    0.7110 55.3 113 
 BAR2 EZ EP       1050 34.52                             149    0.1510 68.6  36 
 BAR2 EZ ES       1050 49.48                             149    0.0910 68.6  36 
 BAR2 EZ I        1050 50.34        21.6 0.12            143           68.6  36 
 YPLC HZ EP       1050 41.11                             127    0.27 9  150 121 
 YPLC HN ES       1051  0.60                             127   -0.31 9  150 121 
 YPLC HZ I        1051  3.45        14.8 0.26            120            150 121 
 NOR  HZ EP       1050 41.34                             125   -0.26 9  158 249 
 NOR  HN ES       1051  1.57                             125   -0.71 9  158 249 
 NOR  HZ I        1051  5.18        14.9 0.18            117            158 249 
 CHI  HZ EP       1050 42.66                             125    0.11 9  163 187 
 CHI  HN ES       1051  3.43                             125   -0.54 9  163 187 
 CHI  HZ I        1051  6.86         3.6 0.35            117            163 187 
 ZAR  HZ EP       1050 46.69                             117   -0.61 8  213 317 
 ZAR  HN ES   4   1051  9.94                             117   -2.47 0  213 317 
 ZAR  HZ I        1051 13.85         6.8 0.24            108            213 317 
 HEL  HZ EP   3   1050 49.91                             116    1.35 2  220 273 
 HEL  HZ I        1051 14.96         4.3 0.46            108            220 273 
 HEL  HE ES   3   1051 16.32                             116    1.66 2  220 273 
 GUY2CHZ EP       1050 50.11                             116    1.06 8  223 245 
 GUY2CHN ES   3   1051 16.93                             116    1.40 2  223 245 
 GUY2CHZ I        1051 24.75         3.0 0.56                           223 245 
                                                                                
