 2012  430 1357 40.6 L   6.772 -73.146146.0  RSN  6 0.5 1.7LRSN                1
 GAP=138        1.29       8.5     7.5 11.9  0.8593E+01  0.1188E+02  0.7786E+01E
 Epicentro: LOS SANTOS - SANTANDER                                             3
 ACTION:UPD 12-07-05 11:56 OP:tino STATUS:               ID:20120430135740 L   I
 2012-04-30-1350-00M.COL___189                                                 6
 STAT SP IPHASW D HRMM SECON CODA AMPLIT PERI AZIMU VELO AIN AR TRES W  DIS CAZ7
 BAR2 SZ EP   1   1357 58.99                             172    -1.2 7   20 191 
 BAR2 SZ ES   1   1358 15.05                             172    -0.4 7   20 191 
 BAR2 SZ I        1358 18.01        15.8 0.18                            20 191 
 BRR  HZ EP   1   1358  2.28                             152     0.4 7   73 301 
 BRR  HZ I        1358  6.74        14.7 0.27                            73 301 
 BRR  HN ES       1358 18.95                             152     0.510   73 301 
 PAM  SZ EP   1   1358  3.01                             150     0.0 7   80  38 
 PAM  SN ES   1   1358 20.29                             150    -0.1 7   80  38 
 RUS  HZ EP   1   1358  4.74                             145     0.6 7   98 176 
 RUS  HN ES   1   1358 22.92                             145     0.4 7   98 176 
 RUS  HZ I        1358 24.53         4.4 0.28                            98 176 
 PTB  HZ EP   1   1358  7.37                             132    -0.1 7  147 260 
 PTB  HN ES   1   1358 27.99                             132    -0.5 7  147 260 
 PTB  HZ I        1358 30.31         3.0 0.18                           147 260 
 ZAR  HE ES   1   1358 38.45                             122    -0.1 6  205 293 
 ZAR  HZ I        1358 43.94         6.8 0.41                           205 293 
                                                                                
