 2016  330 1711 36.2 L   6.809 -73.154151.3  RSN 16 0.3 2.5LRSN                1
 GAP=118        0.79       2.6     3.0  4.3  0.8856E-01  0.3982E+01  0.1318E+00E
 Epicentro: LOS SANTOS - SANTANDER                                             3
 ACTION:UPD 16-05-13 21:29 OP:cam  STATUS:               ID:20160330171136 L   I
 OLDACT:UP  16-03-31 00:05 OP:drio STATUS:               ID:20160330170744     3
 OLDACT:UP  16-03-31 00:05 OP:drio STATUS:               ID:20160330170744     3
 OLDACT:UP  16-03-31 00:04 OP:drio STATUS:               ID:20160330170744     3
 OLDACT:REG 16-03-30 20:40 OP:drio STATUS:               ID:20160330170744     3
 2016-03-30-1707-44M.COL___316                                                 6
 STAT SP IPHASW D HRMM SECON CODA AMPLIT PERI AZIMU VELO AIN AR TRES W  DIS CAZ7
 BAR2 EZ IP     C 1711 56.61                             171    0.0910 24.2 188 
 BAR2 EZ ES       1712 12.22                             171   -0.1510 24.2 188 
 BAR2 EZ I        1712 13.62        39.5 0.28            167           24.2 188 
 PAM  EZ EP     C 1711 59.38                             152    0.3810 77.2  41 
 PAM  EE ES       1712 16.87                             152    0.0810 77.2  41 
 PAM  EZ I        1712 18.82        32.4 0.56            155           77.2  41 
 RUS  HZ EP       1712  0.53                             145   -0.0510  102 176 
 RUS  HE ES       1712 19.39                             145   -0.2010  102 176 
 RUS  HZ I        1712 20.25        23.0 0.28            145            102 176 
 PTB  HZ EP       1712  3.21                             133   -0.36 9  147 258 
 PTB  HN ES       1712 24.67                             133   -0.25 9  147 258 
 PTB  HZ I        1712 29.18        37.6 0.32            129            147 258 
 SPBC HZ EP       1712  5.56                             130    0.40 9  163 219 
 SPBC HE ES       1712 28.01                             130    0.27 9  163 219 
 SPBC HZ I        1712 30.45        36.6 0.28            128            163 219 
 ZAR  HZ EP       1712  9.21                             124    0.31 9  203 292 
 ZAR  HE ES       1712 34.49                             124    0.09 9  203 292 
 ZAR  HZ I        1712 41.53        48.0 0.38            121            203 292 
 NOR  HZ EP       1712 12.52                             120    0.27 8  235 234 
 NOR  HN ES       1712 40.57                             120    0.21 8  235 234 
 NOR  HZ I        1712 48.49        23.4 0.36            118            235 234 
 CHI  HZ EP       1712 14.72                             118    0.43 8  249 195 
 CHI  HN ES       1712 43.67                             118   -0.33 8  249 195 
 CHI  HZ I        1712 53.69        10.7 0.46            118            249 195 
 HEL  HZ EP       1712 16.82                             116    0.18 8  271 256 
 HEL  HE ES   4   1712 49.41                             116    1.23 0  271 256 
 HEL  HZ I        1712 56.00        12.0 0.28            114            271 256 
 URE  HZ EP       1712 17.03                             115   -0.39 7  283 292 
 URE  HE ES   4   1712 47.62                             115   -1.95 0  283 292 
 URE  HZ I        1713  0.75        27.8 0.26            113            283 292 
 GUY2CHZ EP   4   1712 21.38                             113    1.32 0  301 235 
 GUY2CHE ES   4   1712 57.41                             113    3.15 0  301 235 
 GUY2CHZ I        1713  2.21        10.5 0.34                           301 235 
 PTGC HZ EP       1712 19.53                             112   -0.92 7  310 159 
 PTGC HN ES   4   1712 52.75                             112   -2.22 0  310 159 
 ELA  HZ EP   4   1712 27.22                             111    3.93 0  329 229 
 ELA  HE ES   4   1713  3.94                             111    3.92 0  329 229 
 ELA  HZ I        1713  9.07        11.8 0.46            110            329 229 
 MON  HZ EP   4   1712 23.56                             109   -1.72 0  352 308 
 MON  HN ES       1713  2.85                             109   -0.70 6  352 308 
 MON  HZ I        1713 17.92        12.0 0.44            109            352 308 
 ANIL HZ EP   9   1712 28.76                             109    2.52 0  357 224 
 ANIL HN ES       1713  7.46                             109   -0.33 6  357 224 
 ANIL HZ I        1713 13.35        27.4 0.30            109            357 224 
 CRJC HZ EP   4   1712 36.71                             104   -2.05 0  467   4 
 CRJC HE ES   4   1713 23.92                             104   -3.62 0  467   4 
 CRJC HZ I        1713 32.02         7.5 0.38            104            467   4 
                                                                                
