 2010  530 1335 13.4 L   6.798 -73.187139.4  RSN  5 0.4 1.9LRSN                1
 GAP=160        0.92       6.5    11.6  9.1 -0.2785E+02  0.2372E+02 -0.2827E+02E
 Epicentro: ZAPATOCA - SANTANDER                                               3
 ACTION:UP  10-08-24 10:07 OP:vdl  STATUS:               ID:20100530133513 L   I
 2010-05-30-1330-31S.COL___109                                                 6
 STAT SP IPHASW D HRMM SECON CODA AMPLIT PERI AZIMU VELO SNR AR TRES W  DIS CAZ7
 BAR2 SZ EP       1335 32.09                             170    -0.110   23 179 
 BAR2 SZ ES       1335 46.88                             170     0.010   23 179 
 GUE  SZ EP       1335 37.41                             138    -0.210  118  14 
 GUE  SZ ES   1   1335 56.52                             138     0.0 7  118  14 
 GRA  SZ EP       1335 38.92                             135     0.710  127  19 
 OCA  SZ EP       1335 40.70                             128    -0.5 9  160 355 
 OCA  SZ ES   1   1336  2.72                             128    -0.1 7  160 355 
 OCA  SZ I        1336  7.06        10.2 0.47                           160 355 
 HEL  HN ES   2   1336 23.89                             114     0.4 4  268 256 
 HEL  HZ I        1336 31.91         3.6 1.00                           268 256 
                                                                                
