 2011  730 1048 10.6 L   5.793 -74.150 32.1  RSN  4 0.3 1.3LRSN                1
 GAP=168        0.64       4.1     2.2 12.6 -0.3727E+01  0.6005E+01  0.1583E+01E
 Epicentro: FLORIAN - SANTANDER                                                3
 ACTION:UPD 12-07-25 14:04 OP:epov STATUS:               ID:20110730104810 L   I
 2011-07-30-1042-48S.COL___142                                                 6
 STAT SP IPHASW D HRMM SECON CODA AMPLIT PERI AZIMU VELO AIN AR TRES W  DIS CAZ7
 NOR  SN ES       1048 34.36                              61   -0.1210 83.6 252 
 RUS  HZ EP   1   1048 29.29                              61    0.38 7  119  85 
 RUS  HN ES   1   1048 42.83                              61   -0.37 7  119  85 
 RUS  HZ I        1048 44.31         3.6 0.42                           119  85 
 BRR  HZ EP   1   1048 32.64                              61    0.00 7  153  18 
 BRR  HN ES   1   1048 49.80                              61   -0.04 7  153  18 
 HEL  HZ EP   1   1048 34.38                              61    0.58 7  159 286 
 HEL  HE ES   1   1048 51.62                              61   -0.29 7  159 286 
 HEL  HZ I        1048 52.87         5.3 0.25                           159 286 
                                                                                
