 2017 1130 1505  2.9 L   6.825 -73.158146.9  RSN 11 0.4 1.9LRSN                1
 GAP=110        0.71       2.8     3.1  5.2 -0.3003E-01  0.5680E+01  0.2972E+01E
 Epicentro: LOS SANTOS - SANTANDER                                             3
 ACTION:UPD 17-12-12 20:02 OP:rebc STATUS:               ID:20171130150502 L   I
 OLDACT:UP  17-12-01 00:16 OP:mg   STATUS:               ID:20171130145738d    3
 OLDACT:DUP 17-12-01 00:10 OP:mg   STATUS:               ID:20171130145738d    3
 OLDACT:UP  17-12-01 00:10 OP:mg   STATUS:               ID:20171130145737d    3
 OLDACT:DUP 17-12-01 00:07 OP:mg   STATUS:               ID:20171130145737d    3
 OLDACT:UP  17-12-01 00:06 OP:mg   STATUS:               ID:20171130145736     3
 OLDACT:UP  17-12-01 00:06 OP:mg   STATUS:               ID:20171130145736     3
 OLDACT:REG 17-11-30 21:14 OP:mg   STATUS:               ID:20171130145736     3
 2017-11-30-1458-00M.COL___495                                                 6
 STAT SP IPHASW D HRMM SECON CODA AMPLIT PERI AZIMU VELO AIN AR TRES W  DIS CAZ7
 BAR2 EZ EP       15 5 22.75                             170    0.0510 25.9 186 
 BAR2 EZ ES   2   15 5 37.61                             170   -0.55 5 25.9 186 
 BAR2 EZ I        15 5 39.47        22.2 0.20            169           25.9 186 
 PAM  EZ EP       15 5 25.60                             151    0.4510 76.2  42 
 PAM  EN ES       15 5 42.57                             151    0.0610 76.2  42 
 PAM  EZ I        15 5 45.63         5.7 0.58            156           76.2  42 
 RUS  HZ EP       15 5 26.70                             143   -0.2510  103 175 
 RUS  HN ES       15 5 45.60                             143   -0.1210  103 175 
 RUS  HZ I        15 5 47.06        11.0 0.24            145            103 175 
 PTB  HZ EP       15 5 29.50                             132   -0.37 9  147 258 
 PTB  HN ES   2   15 5 50.28                             132   -0.64 5  147 258 
 PTB  HZ I        15 5 52.57         5.0 0.18            133            147 258 
 SPBC HZ EP   1   15 5 31.90                             129    0.31 7  164 218 
 SPBC HN ES   2   15 5 54.28                             129    0.30 5  164 218 
 SPBC HZ I        15 5 57.61        10.9 0.12            130            164 218 
 YPLC HZ EP       15 5 33.06                             126    0.00 9  180 151 
 ZAR  HZ EP       15 5 34.92                             123   -0.24 9  202 292 
 ZAR  HN ES       15 6  0.29                             123   -0.05 9  202 292 
 ZAR  HZ I        15 6  5.94        12.1 0.27            124            202 292 
 NOR  HZ EP       15 5 38.86                             119    0.13 8  235 234 
 NOR  HN ES       15 6  7.47                             119    0.78 8  235 234 
 NOR  HZ I        15 6 12.72         4.5 0.18            120            235 234 
 CHI  HZ EP       15 5 40.63                             117   -0.26 8  251 195 
 CHI  HN ES       15 6 10.68                             117    0.14 8  251 195 
 CHI  HZ I        15 6 12.55         3.3 0.44            119            251 195 
 GUY2CHZ EP   3   15 5 47.91                             112    1.31 2  302 234 
 GUY2CHN ES   4   15 6 24.83                             112    4.14 0  302 234 
 GUY2CHZ I        15 6 28.95         3.8 0.29                           302 234 
 PRA  HZ EP   1   15 5 56.02                             107   -0.62 4  394 209 
 PRA  HN ES   3   15 6 37.11                             107   -1.46 1  394 209 
 PRA  HZ I        15 6 43.10         4.1 0.63            108            394 209 
                                                                                
