 2012  130 1154 50.1 L   6.761 -73.137145.3  RSN  8 0.4 1.8LRSN                1
 GAP=139        0.80       5.1     5.0  7.5  0.1066E+00  0.4475E+01  0.6754E+01E
 Epicentro: LOS SANTOS - SANTANDER                                             3
 ACTION:UP  12-02-03 08:22 OP:REBC STATUS:               ID:20120130115450 L   I
 2012-01-30-1150-00M.COL___188                                                 6
 STAT SP IPHASW D HRMM SECON CODA AMPLIT PERI AZIMU VELO SNR AR TRES W  DIS CAZ7
 BAR2 SZ EP   1   1155  9.13                             172    -0.5 7   19 195 
 BAR2 SZ ES   2   1155 24.31                             172    -0.5 5   19 195 
 BAR2 SZ I        1155 26.98         7.5 0.36                            19 195 
 GIR2 SZ EP   1   1155  9.74                             166    -0.1 7   36 350 
 BRR  HZ EP       1155 11.54                             151     0.110   74 301 
 BRR  HZ I        1155 11.83        32.0 0.16                            74 301 
 BRR  HE ES   1   1155 28.66                             151     0.7 7   74 301 
 PAM  SZ EP   1   1155 12.47                             150     0.0 7   80  37 
 PAM  SN ES   1   1155 29.78                             150    -0.1 7   80  37 
 RUS  HZ EP   1   1155 14.02                             145     0.5 7   96 176 
 RUS  HE ES   1   1155 31.71                             145    -0.1 7   96 176 
 RUS  HZ I        1155 33.52         4.6 0.25                            96 176 
 PTB  HZ EP   1   1155 16.60                             132    -0.5 7  148 261 
 PTB  HE ES   1   1155 37.89                             132    -0.2 7  148 261 
 ZAR  HE ES   2   1155 47.97                             122    -0.3 4  207 293 
 ZAR  HZ I        1155 54.82         7.0 0.47                           207 293 
 CHI  HZ EP   1   1155 27.73                             117     0.4 6  245 196 
                                                                                
