 2016  630 1545 25.3 L   6.775 -73.114145.9  RSN  7 0.4 1.7LRSN                1
 GAP=239        0.83       4.4     4.9  6.2  0.9799E+01  0.1062E+02  0.8026E+01E
 Epicentro: LOS SANTOS - SANTANDER                                             3
 ACTION:UPD 16-07-21 22:24 OP:rebc STATUS:               ID:20160630154525 L   I
 OLDACT:REG 16-06-30 22:14 OP:ak   STATUS:               ID:20160630153742     3
 2016-06-30-1537-42M.COL___355                                                 6
 STAT SP IPHASW D HRMM SECON CODA AMPLIT PERI AZIMU VELO AIN AR TRES W  DIS CAZ7
 BAR2 EZ EP       1545 44.99                             171    0.0310 21.6 200 
 BAR2 EZ ES       1546  0.04                             171   -0.2210 21.6 200 
 BAR2 EZ I        1546  1.64        15.3 0.16                          21.6 200 
 BRR  HZ EP   2   1545 46.92                             151    0.16 5 75.6 299 
 BRR  HN ES       1546  3.93                             151    0.4610 75.6 299 
 BRR  HZ I        1546  7.94        13.3 0.40                          75.6 299 
 RUS  HZ EP       1545 48.91                             145    0.0110 97.7 178 
 RUS  HN ES       1546  7.42                             145    0.1410 97.7 178 
 RUS  HZ I        1546  9.06         2.9 0.28                          97.7 178 
 PTB  HZ EP       1545 51.88                             132   -0.71 9  151 260 
 PTB  HN ES       1546 13.22                             132   -0.62 9  151 260 
 PTB  HZ I        1546 20.16         4.8 0.16                           151 260 
 ZAR  HZ EP   2   1545 58.50                             122    0.26 4  208 292 
 ZAR  HE ES       1546 24.20                             122    0.30 8  208 292 
 ZAR  HZ I        1546 28.92         7.2 0.22                           208 292 
 CHI  HZ EP   2   1546  3.23                             117    0.36 4  247 196 
 CHI  HE ES       1546 32.34                             117    0.21 8  247 196 
 GUY2CHZ EP   2   1546  9.26                             112    0.15 4  302 236 
 GUY2CHN ES       1546 43.67                             112    0.43 7  302 236 
 GUY2CHZ I        1546 53.65         2.3 0.50                           302 236 
                                                                                
