 2017  130 1920  7.0 L   7.061 -73.348  9.1  RSN  6 0.4 1.2LRSN                1
 GAP=141        1.05       2.7     2.1  6.9  0.2469E+00  0.3969E+01 -0.5289E+01E
 Epicentro: LEBRIJA - SANTANDER                                                3
 ACTION:UPD 17-05-22 16:05 OP:jn   STATUS:               ID:20170130192007 L   I
 OLDACT:REG 17-01-30 20:47 OP:dnl  STATUS:               ID:20170130191747     3
 2017-01-30-1918-00M.COL___355                                                 6
 STAT SP IPHASW D HRMM SECON CODA AMPLIT PERI AZIMU VELO AIN AR TRES W  DIS CAZ7
 BRR  HZ EP       1920 13.58                              98   -0.2110 40.5 277 
 BRR  HN ES       1920 19.07                              98   -0.0110 40.5 277 
 BAR2 EZ EP       1920 16.39                              96    0.1710 55.0 161 
 BAR2 EZ ES       1920 22.67                              96   -0.7310 55.0 161 
 BAR2 EZ I        1920 23.68        11.2 0.14             93           55.0 161 
 PAM  EZ EP       1920 20.19                              94    0.2510 78.0  67 
 PAM  EN ES       1920 29.70                              94   -0.3310 78.0  67 
 PAM  EZ I        1920 31.28         5.3 0.20             92           78.0  67 
 RUS  HZ EP       1920 28.69                              92    0.4910  133 167 
 RUS  HN ES       1920 45.00                              92    0.2710  133 167 
 RUS  HZ I        1920 46.04         2.4 0.23             91            133 167 
 PTB  HZ EP       1920 28.39                              92    0.25 9  135 245 
 PTB  HN ES       1920 44.45                              92   -0.19 9  135 245 
 PTB  HZ I        1920 46.62         9.8 0.28             91            135 245 
 ZAR  HZ EP       1920 34.22                              56    0.71 9  173 286 
 ZAR  HE ES       1920 53.63                              56   -0.56 9  173 286 
 ZAR  HZ I        1920 56.09         4.7 0.25             56            173 286 
                                                                                
