 2010  730 1628 27.5 L   6.532 -73.537120.0  RSN  4 0.1 1.7LRSN                1
 GAP=198        0.41       5.1     9.0  6.1  0.2412E+02 -0.4219E+01  0.1952E+00E
 Epicentro: EL CARMEN DE CHUCURI - SANTANDER                                   3
 ACTION:UPD 10-12-01 15:21 OP:pat  STATUS:               ID:20100730162827 L   I
 2010-07-30-1625-37S.COL___123                                                 6
 STAT SP IPHASW D HRMM SECON CODA AMPLIT PERI AZIMU VELO AIN AR TRES W  DIS CAZ7
 BAR2 SZ EP   1   1628 44.84                             161     0.3 7   40  80 
 BAR2 SZ ES   2   1628 57.82                             161    -0.1 5   40  80 
 BAR2 SZ I        1628 58.66        16.4 0.46                            40  80 
 BRR  HZ EP   1   1628 45.62                             149     0.0 7   67 343 
 BRR  HE ES   2   1628 59.72                             149     0.0 5   67 343 
 BRR  HZ I        1629 12.61        11.5 0.61                            67 343 
 RUS  HZ EP   1   1628 47.57                             142    -0.1 7   87 145 
 GUE  SZ EP   1   1628 53.89                             124    -0.1 7  159  25 
                                                                                
