 2016  930 1032 25.8 L   6.811 -73.125146.4  RSN 17 0.5 2.3LRSN                1
 GAP=120        1.24       3.5     4.6  6.1 -0.2200E+01  0.4957E+01  0.4447E+01E
 Epicentro: LOS SANTOS - SANTANDER                                             3
 ACTION:UPD 17-08-17 21:18 OP:lp   STATUS:               ID:20160930103225 L   I
 OLDACT:UP  16-09-30 20:47 OP:dani STATUS:               ID:20160930102740     3
 OLDACT:REG 16-09-30 19:34 OP:dani STATUS:               ID:20160930102740     3
 2016-09-30-1028-00M.COL___372                                                 6
 STAT SP IPHASW D HRMM SECON CODA AMPLIT PERI AZIMU VELO AIN AR TRES W  DIS CAZ7
 BAR2 EZ EP     C 1032 45.64                             170    0.1410 25.0 195 
 BAR2 EZ ES       1033  1.25                             170    0.3610 25.0 195 
 BAR2 EZ I        1033  6.51        26.8 0.20            163           25.0 195 
 BRR  HZ EP     C 1032 47.41                             152    0.3510 72.7 297 
 BRR  HN ES       1033  4.24                             152    0.5710 72.7 297 
 BRR  HZ I        1033  7.55        36.4 0.23            141           72.7 297 
 PAM  EZ EP     C 1032 48.37                             152    0.4710 75.0  39 
 PAM  EN ES       1033  5.40                             152    0.2310 75.0  39 
 PAM  EZ I        1033  7.46        68.3 0.50            145           75.0  39 
 RUS  HZ EP     C 1032 49.72                             144    0.0810  102 177 
 RUS  HE ES       1033  7.64                             144   -0.6410  102 177 
 RUS  HZ I        1033  9.72        30.9 0.24            132            102 177 
 PTB  HZ EP       1032 51.95                             132   -1.05 9  150 259 
 PTB  HE ES       1033 13.21                             132   -1.04 9  150 259 
 PTB  HZ I        1033 19.34        18.9 0.32            119            150 259 
 OCA  HZ EP       1032 53.80                             130   -0.24 9  159 352 
 OCA  HN ES       1033 15.22                             130   -0.87 9  159 352 
 OCA  HZ I        1033 20.24        59.5 0.15            119            159 352 
 SPBC HZ EP       1032 54.66                             129    0.13 9  166 219 
 SPBC HN ES       1033 16.82                             129   -0.15 9  166 219 
 SPBC HZ I        1033 19.21        40.4 0.26            117            166 219 
 ZAR  HZ EP       1032 58.72                             122    0.30 8  206 292 
 ZAR  HN ES       1033 24.15                             122    0.25 8  206 292 
 ZAR  HZ I        1033 30.09        39.9 0.34            111            206 292 
 NOR  HZ EP       1033  2.23                             118    0.43 8  237 235 
 NOR  HN ES       1033 30.50                             118    0.59 8  237 235 
 NOR  HZ I        1033 36.23        10.3 0.31            108            237 235 
 CHI  HZ EP       1033  3.93                             117    0.25 8  250 196 
 CHI  HN ES       1033 33.40                             117    0.14 8  250 196 
 CHI  HZ I        1033 40.43         8.3 0.34            107            250 196 
 HEL  HZ EP   2   1033  7.98                             115    1.70 4  275 256 
 HEL  HZ I        1033 47.85         5.5 0.16            105            275 256 
 GUY2CHZ EP   4   1033 12.37                             112    2.68 0  304 235 
 GUY2CHN ES   4   1033 48.02                             112    4.07 0  304 235 
 GUY2CHZ I        1033 50.08         7.6 0.39                           304 235 
 PTGC HZ EP       1033  9.05                             112   -0.62 7  309 159 
 PTGC HN ES   4   1033 42.72                             112   -1.20 0  309 159 
 PTGC HZ I        1033 48.36         9.9 0.52            103            309 159 
 ELA  HZ EP       1033 12.49                             110   -0.43 7  332 230 
 ELA  HZ I        1033 57.91         4.1 0.49            101            332 230 
 ANIL HN ES       1033 55.12                             108    0.16 6  360 225 
 PRA  HZ EP       1033 19.81                             106    0.26 6  394 210 
 PRA  HZ I        1034  9.45         7.9 0.29             98            394 210 
 SJC  HZ EP   4   1033 19.55                             106   -1.82 0  410 327 
 SJC  HN ES   4   1034  1.26                             106   -3.50 0  410 327 
 SJC  HZ I        1034  6.06         3.4 0.30             97            410 327 
                                                                                
