 2011  530 1635 51.2 L   6.789 -73.117152.0  RSN  8 0.4 2.0LRSN                1
 GAP=159        0.95       5.0     6.7  7.9 -0.1505E+02  0.9207E+01  0.3844E+01E
 Epicentro: LOS SANTOS - SANTANDER                                             3
 ACTION:DUP 11-06-29 08:57 OP:tino STATUS:               ID:20110530163552dL   I
 2011-05-30-1633-03S.COL___113                                                 6
 STAT SP IPHASW D HRMM SECON CODA AMPLIT PERI AZIMU VELO SNR AR TRES W  DIS CAZ7
 BAR2 SZ EP   1   1636 11.26                             171    -0.4 7   23 198 
 BAR2 SZ ES   1   1636 27.14                             171    -0.4 7   23 198 
 BAR2 SZ I        1636 29.03        27.7 0.25                            23 198 
 BRR  HZ EP   1   1636 13.11                             153    -0.2 7   75 298 
 BRR  HZ I        1636 13.49        38.2 0.17                            75 298 
 BRR  HN ES   1   1636 30.79                             153     0.4 7   75 298 
 RUS  HZ EP   1   1636 15.14                             145    -0.4 7   99 178 
 RUS  HZ I        1636 16.34         6.0 0.18                            99 178 
 RUS  HN ES   1   1636 35.11                             145     0.7 7   99 178 
 BRI  SZ EP   1   1636 15.86                             143     0.1 7  108  19 
 BRI  SZ ES   2   1636 34.38                             143    -0.5 5  108  19 
 BRI  SZ I        1636 41.25        11.1 0.19                           108  19 
 GRA  SZ EP   1   1636 17.08                             138     0.0 7  126  16 
 GRA  SZ ES   1   1636 37.52                             138     0.3 7  126  16 
 GRA  SZ I        1636 39.01        18.1 0.17                           126  16 
 NOR  SZ EP   1   1636 27.41                             120    -0.1 6  237 235 
 NOR  SN ES   1   1636 54.98                             120    -0.9 6  237 235 
 NOR  SZ I        1637  1.21         1.3 0.21                           237 235 
 HEL  HN ES   1   1637  4.46                             116     0.5 6  275 256 
 HEL  HZ I        1637  9.99         7.2 0.30                           275 256 
 PRA  HZ EP   1   1636 45.71                             108     0.7 4  393 210 
 PRA  HN ES   1   1637 27.59                             108     0.6 4  393 210 
 PRA  HZ I        1637 30.62        17.8 0.34                           393 210 
                                                                                
