 2015  430 1429 12.3 L   6.779 -73.154143.2  RSN  4 0.4 1.5LRSN                1
 GAP=136        1.00       5.3     6.1  8.6  0.2961E+01  0.2124E+02 -0.6410E+01E
 Epicentro: LOS SANTOS - SANTANDER                                             3
 ACTION:UPD 15-06-03 16:58 OP:cam  STATUS:               ID:20150430142912 L   I
 OLDACT:REG 15-04-30 22:15 OP:ak   STATUS:               ID:20150430141750     3
 2015-04-30-1417-50M.COL___265                                                 6
 STAT SP IPHASW D HRMM SECON CODA AMPLIT PERI AZIMU VELO AIN AR TRES W  DIS CAZ7
 BAR2 EZ EP       1429 31.24                             171   -0.3010 20.9 189 
 BAR2 EZ ES       1429 46.22                             171   -0.3510 20.9 189 
 BAR2 EZ I        1429 47.87         8.1 0.12            173           20.9 189 
 PAM  SZ EP       1429 34.78                             150    0.4210 79.8  39 
 PAM  SN ES       1429 51.55                             150   -0.0310 79.8  39 
 PAM  SZ I        1429 54.40         6.5 0.50            151           79.8  39 
 RUS  HZ EP       1429 35.05                             144   -0.5510 98.3 175 
 RUS  HE ES       1429 54.45                             144    0.6510 98.3 175 
 ZAR  HZ EP       1429 44.69                             122    0.13 9  204 293 
 ZAR  HN ES       1430  9.83                             122    0.09 9  204 293 
 ZAR  HZ I        1430 17.14         2.9 0.17            122            204 293 
                                                                                
