 2014  430 1343 32.5 L   6.833 -73.169148.5  RSN 10 0.4 2.0LRSN                1
 GAP=132        0.82       2.9     4.0  6.9 -0.1777E+01  0.9062E+01 -0.4070E+01E
 Epicentro: LOS SANTOS - SANTANDER                                             3
 ACTION:UPD 14-05-13 20:50 OP:nd   STATUS:               ID:20140430134332 L   I
 OLDACT:REG 14-04-30 20:13 OP:mh   STATUS:               ID:20140430134000     3
 2014-04-30-1340-00M.COL___270                                                 6
 STAT SP IPHASW D HRMM SECON CODA AMPLIT PERI AZIMU VELO AIN AR TRES W  DIS CAZ7
 PAM  SZ EP       1343 55.42                             151    0.4410 76.3  43 
 PAM  SN ES   1   1344 12.58                             151    0.09 7 76.3  43 
 PAM  SZ I        1344 14.85        13.2 0.32            158           76.3  43 
 RUS  HZ EP   1   1343 56.13                             143   -0.70 7  104 175 
 RUS  HN ES       1344 15.65                             143   -0.1410  104 175 
 PTB  HZ EP       1343 59.92                             133    0.36 9  146 257 
 PTB  HN ES       1344 20.79                             133    0.14 9  146 257 
 PTB  SZ I        1344 28.03        10.4 0.42            134            146 257 
 SPBC HZ EP   1   1344  1.54                             129    0.18 7  164 217 
 SPBC HN ES   1   1344 23.73                             129   -0.12 7  164 217 
 SPBC SZ I        1344 28.79        16.9 0.26            133            164 217 
 ZAR  HZ EP   1   1344  4.37                             123   -0.40 6  200 291 
 ZAR  HE ES   1   1344 29.45                             123   -0.47 6  200 291 
 ZAR  SZ I        1344 38.32         7.4 0.30            125            200 291 
 NOR  HZ EP   1   1344  9.01                             119    0.59 6  235 233 
 NOR  HN ES   1   1344 35.55                             119   -0.87 6  235 233 
 NOR  SZ I        1344 44.95         5.6 0.34            122            235 233 
 SML  HZ EP   1   1344  8.65                             118   -0.19 6  239 335 
 SML  HN ES       1344 37.04                             118   -0.12 8  239 335 
 SML  SZ I        1344 42.57        13.2 0.08            122            239 335 
 GUY2CHZ EP   4   1344 17.50                             113    1.23 0  301 234 
 GUY2CHN ES   1   1344 51.50                             113    1.12 5  301 234 
 GUY2CSZ I        1344 57.27         5.6 1.50                           301 234 
 PRA  HZ EP   1   1344 25.90                             107   -0.47 4  394 209 
 PRA  HN ES   1   1345  8.33                             107   -0.03 4  394 209 
 SJC  HZ EP   1   1344 27.17                             106   -0.49 4  405 327 
 SJC  HN ES   1   1345 10.85                             106    0.20 4  405 327 
