 2016  630 1020 32.2 L   6.690 -73.168149.1  RSN  6 0.5 1.3LRSN                1
 GAP=226        1.04       5.8     6.4  8.5 -0.3808E+00  0.1796E+02  0.2193E+01E
 Epicentro: VILLANUEVA - SANTANDER                                             3
 ACTION:UPD 16-07-21 22:24 OP:rebc STATUS:               ID:20160630102032 L   I
 OLDACT:DUP 16-06-30 22:45 OP:ak   STATUS:               ID:20160630101748d    3
 OLDACT:REG 16-06-30 20:09 OP:lv   STATUS:               ID:20160630101746     3
 2016-06-30-1017-46M.COL___334                                                 6
 STAT SP IPHASW D HRMM SECON CODA AMPLIT PERI AZIMU VELO AIN AR TRES W  DIS CAZ7
 BAR2 EZ EP       1020 51.94                             176   -0.0710 10.9 188 
 BAR2 EZ ES       1021  7.43                             176   -0.0710 10.9 188 
 BAR2 EZ I        1021  8.68         5.1 0.18                          10.9 188 
 BRR  HZ EP       1020 53.80                             151   -0.1310 75.8 308 
 BRR  HN ES       1021 11.29                             151    0.3810 75.8 308 
 RUS  HZ EP   2   1020 56.26                             148    0.83 5 88.7 174 
 RUS  HE ES       1021 13.05                             148   -0.5410 88.7 174 
 PTB  HZ EP       1020 58.79                             134   -0.23 9  143 263 
 PTB  HN ES       1021 19.82                             134   -0.15 9  143 263 
 PTB  HZ I        1021 27.04         2.0 0.36                           143 263 
 SPBC HZ EP   2   1021  0.64                             132    0.73 5  152 221 
 SPBC HN ES       1021 22.41                             132    0.85 9  152 221 
 SPBC HZ I        1021 26.81         3.4 0.07                           152 221 
 GUY2CHN ES       1021 47.66                             114   -0.63 7  292 236 
                                                                                
