 2011  130 1737 46.5 L   6.782 -73.121146.0  RSN  9 0.4 2.4LRSN                1
 GAP=138        0.97       4.0     7.5  7.8 -0.6423E+01  0.2217E+02 -0.1555E+01E
 Epicentro: LOS SANTOS - SANTANDER                                             3
 ACTION:UP  11-02-08 08:43 OP:pat  STATUS:               ID:20110130173746 L   I
 2011-01-30-1736-13S.COL___134                                                 6
 STAT SP IPHASW D HRMM SECON CODA AMPLIT PERI AZIMU VELO SNR AR TRES W  DIS CAZ7
 BAR2 SZ IP       1738  6.22                             171     0.110   22 198 
 BAR2 SZ ES   1   1738 21.15                             171    -0.3 7   22 198 
 BAR2 SZ I        1738 22.96        64.4 0.30                            22 198 
 RUS  HZ EP       1738 10.29                             144     0.210   98 178 
 RUS  HN ES   1   1738 28.75                             144     0.2 7   98 178 
 RUS  HZ I        1738 30.09        28.4 0.44                            98 178 
 GRA  SZ EP       1738 11.99                             137     0.110  127  16 
 GRA  SZ ES   1   1738 31.74                             137     0.1 7  127  16 
 GRA  SZ I        1738 32.68        41.6 0.24                           127  16 
 OCA  SZ EP       1738 14.70                             129    -0.3 9  163 352 
 OCA  SZ I        1738 42.48        60.0 0.33                           163 352 
 YOP  SZ EP       1738 16.40                             127     0.1 9  176 154 
 YOP  SN ES   2   1738 39.48                             127     0.0 4  176 154 
 YOP  SZ I        1738 42.95        11.5 0.40                           176 154 
 NOR  SZ EP       1738 22.01                             118    -0.4 8  236 235 
 NOR  SN ES   2   1738 49.97                             118    -0.4 4  236 235 
 CHI  HZ EP       1738 23.27                             117    -0.8 8  247 196 
 CHI  HN ES   2   1738 54.07                             117     0.7 4  247 196 
 CHI  HZ I        1738 59.44        12.5 0.32                           247 196 
 HEL  HZ EP       1738 27.73                             115     0.8 8  274 256 
 HEL  HZ I        1739  5.91        11.6 0.34                           274 256 
 GUY  SZ EP   2   1738 31.05                             112     0.8 4  302 235 
 GUY  SZ I        1739 10.54        17.6 0.26                           302 235 
                                                                                
