 2014  730 1043 12.9 L   6.816 -73.156139.8  RSN 20 0.5 2.6LRSN                1
 GAP= 70        1.06       2.9     2.8  5.3 -0.6686E+00  0.6267E+01  0.1627E+01E
 Epicentro: LOS SANTOS - SANTANDER                                             3
 ACTION:UPD 15-03-16 20:48 OP:nd   STATUS:               ID:20140730104312 L   I
 OLDACT:REG 14-07-30 22:09 OP:carl STATUS:               ID:20140730103814     3
 2014-07-30-1038-14M.COL___254                                                 6
 STAT SP IPHASW D HRMM SECON CODA AMPLIT PERI AZIMU VELO AIN AR TRES W  DIS CAZ7
 BAR2 SZ IP     D 1043 31.97                             169    0.0910 24.9 187 
 BAR2 SZ ES       1043 47.29                             169    0.6410 24.9 187 
 BAR2 SZ I        1043 47.81        74.0 0.36            168           24.9 187 
 PAM  SZ EP       1043 34.80                             150    0.3210 76.8  41 
 PAM  SN ES       1043 51.57                             150    0.2910 76.8  41 
 PAM  SZ I        1043 53.90        50.8 0.46            154           76.8  41 
 RUS  HZ EP       1043 35.91                             142   -0.3310  102 175 
 RUS  HN ES       1043 54.23                             142   -0.1910  102 175 
 RUS  HZ I        1043 57.07        19.9 0.30            143            102 175 
 PTB  HZ EP       1043 38.60                             131   -0.74 9  147 258 
 PTB  HN ES       1043 59.06                             131   -0.88 9  147 258 
 PTB  HZ I        1044  6.86        28.3 0.18            131            147 258 
 TAM  HZ EP       1043 40.29                             129   -0.01 9  157 106 
 TAM  HN ES       1044  1.44                             129   -0.20 9  157 106 
 TAM  HZ I        1044 10.57        27.5 0.34            132            157 106 
 ZAR  HZ EP       1043 45.07                             121    0.26 9  202 292 
 ZAR  HN ES       1044 10.19                             121    0.52 9  202 292 
 ZAR  HZ I        1044 16.71        46.2 0.44            123            202 292 
 NOR  HZ EP       1043 48.42                             117    0.09 8  235 234 
 NOR  HN ES       1044 15.94                             117   -0.00 8  235 234 
 NOR  HZ I        1044 19.88        34.0 0.72            118            235 234 
 SML  HZ EP       1043 48.21                             116   -0.79 8  242 335 
 SML  HE ES       1044 16.55                             116   -0.57 8  242 335 
 SML  HZ I        1044 23.28        31.8 0.10            119            242 335 
 CHI  HZ EP       1043 50.14                             116   -0.32 8  250 195 
 CHI  HN ES       1044 18.84                             116   -0.90 8  250 195 
 CHI  HZ I        1044 26.16        15.2 0.22            117            250 195 
 ROSC BZ EP   4   1043 52.18                             115    1.34 0  254 211 
 ROSC BN ES   4   1044 22.49                             115    2.09 0  254 211 
 ROSC BZ I        1044 26.49        39.2 0.35            117            254 211 
 HEL  HZ EP       1043 53.85                             114    1.08 8  271 255 
 HEL  HN ES       1044 23.85                             114    0.01 8  271 255 
 HEL  HZ I        1044 30.27        22.8 0.46            115            271 255 
 URE  HN ES   4   1044 23.59                             112   -1.58 0  282 292 
 URE  HZ I        1044 26.27        17.0 0.14            114            282 292 
 GUY2CHZ EP       1043 56.92                             111    0.64 7  301 234 
 GUY2CHN ES       1044 30.31                             111    0.22 7  301 234 
 RREF HZ EP       1043 59.50                             110    0.64 7  322 229 
 RREF HN ES       1044 35.22                             110    0.55 7  322 229 
 RREF HZ I        1044 42.35        20.4 0.30            111            322 229 
 CBOC HZ EP       1043 59.60                             109    0.06 7  333 252 
 CBOC HN ES       1044 35.81                             109   -0.08 7  333 252 
 CBOC HZ I        1044 48.03         6.9 0.48            110            333 252 
 DBB  SZ EP       1044  0.12                             108    0.10 7  338 274 
 DBB  SZ ES       1044 36.20                             108   -0.55 7  338 274 
 DBB  SZ I        1044 42.76        30.9 0.34            110            338 274 
 TOL  SZ EP       1044  1.54                             108    0.53 7  344 224 
 TOL  SN ES       1044 38.73                             108    0.23 7  344 224 
 TOL  SZ I        1044 47.94        38.0 0.48            109            344 224 
 PRA  HZ EP       1044  5.98                             105   -0.39 6  393 209 
 PRA  HN ES       1044 47.96                             105   -0.09 6  393 209 
 PRA  HZ I        1044 56.15        16.1 0.52            107            393 209 
 ORTC HZ EP       1044  7.28                             105    0.54 6  396 216 
 ORTC HN ES       1044 48.73                             105    0.01 6  396 216 
 ORTC HZ I        1044 54.10        14.9 0.22            107            396 216 
 SJC  HZ EP   4   1044  6.33                             105   -1.72 0  407 327 
 SJC  HN ES   4   1044 47.97                             105   -3.07 0  407 327 
 SJC  HZ I        1044 52.07        13.6 0.48            106            407 327 
                                                                                
