 2010  130 1131 37.7 L   6.792 -72.948144.4  RSN  5 0.2 1.3LRSN                1
 GAP=229        0.41       6.1    17.5  5.0 -0.4877E+02  0.9795E+01  0.6243E+01E
 Epicentro: CEPITA - SANTANDER                                                 3
 ACTION:UP  10-08-24 09:46 OP:vdl  STATUS:               ID:20100130113137 L   I
 2010-01-30-1119-50S.COL___088                                                 6
 STAT SP IPHASW D HRMM SECON CODA AMPLIT PERI AZIMU VELO SNR AR TRES W  DIS CAZ7
 BAR2 SZ EP   1   1131 57.61                             166     0.1 7   34 230 
 BAR2 SZ ES   1   1132 12.75                             166    -0.1 7   34 230 
 GIR2 SZ EP   2   1131 57.77                             163     0.2 5   42 319 
 RUS  HE ES   2   1132 19.95                             144     0.2 5  101 189 
 RUS  HZ I        1132 21.03         3.3 0.70                           101 189 
 CHI  HZ EP   1   1132 15.67                             116    -0.3 6  254 200 
 CHI  HZ I        1132 48.63         1.6 0.54                           254 200 
 PRA  HZ EP   2   1132 32.44                             106     0.0 3  403 212 
 PRA  HE ES   2   1133 15.44                             106     0.3 3  403 212 
                                                                                
