 2011 1130 1624  3.0 L   6.779 -73.126140.9  RSN 17 0.4 2.9LRSN                1
 GAP=116        0.81       2.9     4.0  4.5 -0.2605E+01  0.5027E+01  0.3274E+01E
 Epicentro: LOS SANTOS - SANTANDER                                             3
 ACTION:UPD 12-07-13 16:13 OP:ep   STATUS:               ID:20111130162403 L   I
 2011-11-30-1620-35S.COL___162                                                 6
 STAT SP IPHASW D HRMM SECON CODA AMPLIT PERI AZIMU VELO AIN AR TRES W  DIS CAZ7
 BAR2 SZ IP       1624 22.03                             171   -0.0210 21.5 197 
 BAR2 SZ ES       1624 36.67                             171   -0.2110 21.5 197 
 BAR2 SZ I        1624 38.28       171.1 0.30                          21.5 197 
 BRR  HZ IP     C 1624 23.85                             151    0.0010 74.3 299 
 BRR  HE ES   1   1624 40.64                             151    0.56 7 74.3 299 
 BRR  HZ I        1624 44.54       275.4 0.14                          74.3 299 
 PAM  SZ EP       1624 24.86                             150    0.0910 77.9  37 
 PAM  SE ES   1   1624 41.16                             150   -0.56 7 77.9  37 
 RUS  HZ EP       1624 26.00                             143   -0.1410 98.1 177 
 RUS  HE ES   2   1624 44.18                             143    0.03 5 98.1 177 
 BRI  SZ EP       1624 26.51                             140   -0.0810  110  19 
 OCA  SZ EP       1624 31.59                             128    0.36 9  163 352 
 OCA  SZ I        1624 56.94        97.4 0.17                           163 352 
 YOP  SZ EP       1624 32.84                             126    0.41 9  176 154 
 YOP  SZ I        1624 33.73        42.4 0.23                           176 154 
 YOP  SN ES   2   1624 55.33                             126   -0.03 4  176 154 
 CTAU SZ EP       1624 36.21                             122    0.61 9  202 210 
 NOR  SZ EP       1624 38.23                             117   -0.31 8  235 235 
 NOR  SN ES   1   1625  6.06                             117   -0.17 6  235 235 
 CHI  HZ EP       1624 40.43                             116    0.14 8  247 196 
 CHI  HN ES   1   1625  9.59                             116    0.24 6  247 196 
 CHI  HZ I        1625 16.80        43.2 0.38                           247 196 
 CVER SZ EP       1624 43.88                             114    0.87 8  271 203 
 HEL  HZ EP       1624 42.97                             114   -0.22 8  274 256 
 HEL  HZ I        1625 21.18        56.5 0.54                           274 256 
 VIL  SZ EP       1624 45.04                             111   -0.99 7  302 192 
 GUY  SZ EP       1624 46.58                             111   -0.17 7  304 236 
 GUY  SZ I        1625 28.67        53.9 0.72                           304 236 
 RREF HZ EP   1   1624 48.53                             110   -0.47 5  322 230 
 RREF HE ES   1   1625 24.73                             110   -0.11 5  322 230 
 RREF HZ I        1625 36.12        50.5 0.27                           322 230 
 DBB  SZ EP       1624 50.52                             108   -0.08 7  342 275 
 PRA  HZ EP       1624 55.64                             106   -0.65 6  391 210 
 PRA  HE ES   1   1625 37.91                             106    0.09 4  391 210 
                                                                                
