 2013  730 1013 30.8 L   6.795 -73.134152.0  RSN 12 0.5 1.9LRSN                1
 GAP=184        0.90       3.4     5.5  6.0  0.3581E-01  0.5591E+01  0.2217E+01E
 Epicentro: LOS SANTOS - SANTANDER                                             3
 ACTION:UPD 13-08-12 10:41 OP:ep   STATUS:               ID:20130730101330 L   I
 OLDACT:UP  13-07-30 15:25 OP:cam  STATUS:               ID:20130730100959     3
 OLDACT:REG 13-07-30 14:28 OP:cam  STATUS:               ID:20130730100959     3
 2013-07-30-1009-59M.COL___266                                                 6
 STAT SP IPHASW D HRMM SECON CODA AMPLIT PERI AZIMU VELO AIN AR TRES W  DIS CAZ7
 BAR2 SZ EP       1013 51.07                             171   -0.1210 23.1 193 
 BAR2 SZ ES   1   1014  6.59                             171   -0.49 7 23.1 193 
 BAR2 SZ I        1014  7.90        10.5 0.25            171           23.1 193 
 GIR2 SZ EP   1   1013 51.07                             168   -0.18 7 32.0 348 
 GIR2 SZ ES   1   1014  7.53                             168    0.34 7 32.0 348 
 BRR  HZ EP       1013 53.04                             153    0.3310 72.5 298 
 BRR  HN ES       1014 10.61                             153    0.8110 72.5 298 
 RUS  HZ EP   1   1013 55.29                             145    0.15 7100.0 177 
 RUS  HN ES   1   1014 13.75                             145   -0.37 7100.0 177 
 RUS  HZ I        1014 16.27         7.1 0.46            147          100.0 177 
 PTB  HZ EP   1   1013 57.70                             133   -0.70 7  149 259 
 PTB  HN ES   1   1014 19.23                             133   -0.68 7  149 259 
 PTB  HZ I        1014 22.36         8.4 0.16            131            149 259 
 OCA  HN ES   1   1014 21.87                             131   -0.32 7  161 353 
 OCA  HZ I        1014 33.48         4.6 0.32            129            161 353 
 SPBC HZ EP       1014  0.02                             130    0.18 9  164 219 
 SPBC HN ES   1   1014 22.21                             130   -0.26 7  164 219 
 SPBC HZ I        1014 25.14         8.3 0.56            130            164 219 
 ZAR  HZ EP   2   1014  3.52                             124   -0.29 4  205 292 
 ZAR  HE ES   1   1014 29.02                             124   -0.53 6  205 292 
 ZAR  HZ I        1014 35.12         8.3 0.36            122            205 292 
 NOR  HE ES   1   1014 35.75                             120    0.54 6  235 235 
 SML  HZ EP   1   1014  7.62                             119   -0.28 6  245 335 
 SML  HN ES   1   1014 36.82                             119   -0.01 6  245 335 
 SML  HZ I        1014 38.94        10.3 0.30            118            245 335 
 HEL  HZ I        1014 49.77         3.5 0.30            115            273 256 
 PRA  HZ EP   1   1014 25.55                             108    0.97 4  392 210 
 PRA  HN ES   1   1015  6.86                             108    0.35 4  392 210 
 PRA  HZ I        1015 12.72         2.9 0.34            108            392 210 
                                                                                
