 2014  530 1015 49.5 L   6.850 -73.035117.3  RSN  6 0.4 1.7LRSN                1
 GAP=300        0.80       7.0     9.6 16.3  0.1870E+02 -0.1045E+03 -0.9689E+01E
 Epicentro: CEPITA - SANTANDER                                                 3
 ACTION:UPD 15-03-16 17:02 OP:nd   STATUS:               ID:20140530101549 L   I
 OLDACT:DUP 14-05-30 21:05 OP:stll STATUS:               ID:20140530100811d    3
 2014-05-30-1008-09M.COL___244                                                 6
 STAT SP IPHASW D HRMM SECON CODA AMPLIT PERI AZIMU VELO AIN AR TRES W  DIS CAZ7
 PTB  HZ EP       1016 15.46                             122   -0.2010  161 258 
 PTB  HN ES       1016 36.21                             122    0.1510  161 258 
 PTB  HZ I        1016 43.94         3.5 0.16             61            161 258 
 NOR  HZ EP       1016 25.38                             110    0.11 9  248 235 
 NOR  HE ES       1016 52.90                             110   -0.25 9  248 235 
 NOR  HZ I        1017  1.94         2.9 0.36             61            248 235 
 CHI  HZ EP       1016 26.76                             110   -0.05 8  257 197 
 CHI  HN ES       1016 55.95                             110    0.05 8  257 197 
 CHI  HZ I        1016 59.75         3.1 0.52             61            257 197 
 GUY2CHZ EP       1016 32.95                             105   -0.57 8  314 235 
 GUY2CHN ES       1017  7.84                             105   -0.00 8  314 235 
 GUY2CHZ I        1017 15.05         2.1 0.34                           314 235 
 RREF HZ EP       1016 37.23                             104    1.12 7  335 230 
 RREF HZ I        1017 20.77         2.6 0.38             60            335 230 
 PRA  HZ EP       1016 43.20                             101   -0.31 6  403 211 
 PRA  HZ I        1017 30.72         2.1 0.32             60            403 211 
                                                                                
