 2010  730 1705 53.2 L   6.048 -74.213 32.1  RSN  5 0.4 2.1LRSN                1
 GAP=179        0.81       5.9     3.1 13.3 -0.2074E+01  0.6567E-01 -0.1600E+02E
 Epicentro: LA BELLEZA - SANTANDER                                             3
 ACTION:UPD 10-12-01 15:21 OP:pat  STATUS:               ID:20100730170553 L   I
 2010-07-30-1702-52S.COL___123                                                 6
 STAT SP IPHASW D HRMM SECON CODA AMPLIT PERI AZIMU VELO AIN AR TRES W  DIS CAZ7
 RUS  HZ EP   1   17 6 12.20                              90    -0.3 9  126  98 
 RUS  HE ES   2   17 6 27.19                              90    -0.3 6  126  98 
 RUS  HZ I        17 6 28.86        39.1 0.58                           126  98 
 BAR2 SZ EP   1   17 6 12.53                              90     0.1 9  129  62 
 BAR2 SZ ES   2   17 6 27.43                              90    -0.1 6  129  62 
 BAR2 SZ I        17 6 29.28        24.8 0.41                           129  62 
 BRR  HZ EP   1   17 6 12.18                              90    -0.1 9  130  25 
 BRR  HN ES   2   17 6 26.22                              90    -1.0 6  130  25 
 BRR  HZ I        17 6 29.39        24.7 0.07                           130  25 
 HEL  HZ EP   1   17 6 14.86                              90     0.0 9  147 276 
 HEL  HE ES   2   17 6 31.84                              90     0.1 6  147 276 
 HEL  HZ I        17 6 32.51        25.2 0.25                           147 276 
 GUE  SZ EP       17 6 27.51                              56     0.710  243  36 
                                                                                
