 2012  730 1904 35.3 L   6.687 -73.223148.4  RSN  5 0.4 1.7LRSN                1
 GAP=206        0.91      10.3    10.3  9.9  0.7312E+02  0.2327E+02  0.9304E+01E
 Epicentro: BARICHARA - SANTANDER                                              3
 ACTION:UPD 12-08-14 11:46 OP:ep   STATUS:               ID:20120730190435 L   I
 2012-07-30-1900-00M.COL___209                                                 6
 STAT SP IPHASW D HRMM SECON CODA AMPLIT PERI AZIMU VELO AIN AR TRES W  DIS CAZ7
 BAR2 SZ EP   1   19 4 54.63                             175    -0.4 7   11 157 
 BAR2 SZ ES   1   19 5 10.11                             175    -0.4 7   11 157 
 BAR2 SZ I        19 5 12.05         9.4 0.34            168             11 157 
 BRR  HZ EP   1   19 4 56.75                             153     0.0 7   71 311 
 BRR  HZ I        19 4 57.08        65.8 0.04            149             71 311 
 BRR  HN ES   1   19 5 13.62                             153     0.2 7   71 311 
 RUS  HZ EP   1   19 4 58.54                             147     0.0 7   89 170 
 RUS  HN ES   1   19 5 17.23                             147     0.6 7   89 170 
 RUS  HZ I        19 5 18.24         2.2 0.25            146             89 170 
 PTB  HZ EP   1   19 5  1.51                             135     0.0 7  137 263 
 PTB  HN ES   2   19 5 21.21                             135    -0.8 5  137 263 
 PTB  HZ I        19 5 27.74         3.6 0.18            131            137 263 
 ZAR  HN ES   1   19 5 33.40                             123     0.5 6  201 296 
 ZAR  HZ I        19 5 39.16         5.3 0.51            122            201 296 
