 2012 1030 1218 21.1 L   6.828 -73.130144.0  RSN 23 0.6 4.5LRSN 4.3WRSN        1
 SPEC AVERAGE  MO 15.5 ST392.9 OM  4.0 f0 3.91 R0.4114 AL 3.38 WI 16.1 MW  4.3 3
 SPEC SD       MO  0.3 ST334.2 OM  0.4 f00.966 R0.1482 AL      WI      MW  0.2 3
 GAP= 71        1.07       3.0     3.7  5.4 -0.2418E+00  0.6969E+01  0.2618E+01E
 Epicentro: LOS SANTOS - SANTANDER                                             3
 SPEC ZAR HH E MO 16.0 ST999.9 OM  4.2 f0 4.88 R0.3012 AL 3.11 WI 17.3 MW  4.6 3
 SPEC ZAR HH E T121919 K 0.000 GD  250 VS 4.20 DE 3.20 Q0230.0 QA 0.60 VS 4.20 3
 SPEC TAM HH N MO 15.7 ST 68.1 OM  4.0 f0 2.11 R0.6967 AL 3.18 WI 14.1 MW  4.4 3
 SPEC TAM HH N T1219 9 K 0.000 GD  210 VS 4.20 DE 3.20 Q0230.0 QA 0.60 VS 4.20 3
 SPEC PTA HH N MO 15.5 ST327.2 OM  3.4 f0 4.13 R0.3559 AL 2.86 WI 28.5 MW  4.3 3
 SPEC PTA HH N T122019 K 0.000 GD  537 VS 4.20 DE 3.20 Q0230.0 QA 0.60 VS 4.20 3
 SPEC PRA HH N MO 15.4 ST 25.8 OM  3.4 f0 1.92 R0.7656 AL 1.91 WI 13.4 MW  4.2 3
 SPEC PRA HH N T121955 K 0.000 GD  421 VS 4.20 DE 3.20 Q0230.0 QA 0.60 VS 4.20 3
 SPEC RUS HH N MO 15.0 ST 92.4 OM  3.4 f0 3.92 R0.3750 AL 3.32 WI 13.0 MW  4.0 3
 SPEC RUS HH N T1219 1 K 0.000 GD  177 VS 4.20 DE 3.20 Q0230.0 QA 0.60 VS 4.20 3
 SPEC PAM SH N MO 15.6 ST288.9 OM  4.0 f0 3.73 R0.3941 AL 4.46 WI  9.3 MW  4.3 3
 SPEC PAM SH N T121859 K 0.000 GD  161 VS 4.20 DE 3.20 Q0230.0 QA 0.60 VS 4.20 3
 SPEC ANILHH Z MO 15.9 ST726.4 OM  3.9 f0 4.09 R0.3594 AL 3.39 WI 26.7 MW  4.5 3
 SPEC ANILHH Z T121950 K 0.000 GD  388 VS 4.20 DE 3.20 Q0230.0 QA 0.60 VS 4.20 3
 SPEC HEL HH N MO 15.4 ST160.1 OM  3.5 f0 3.62 R0.4061 AL 2.88 WI 21.6 MW  4.2 3
 SPEC HEL HH N T121931 K 0.000 GD  310 VS 4.20 DE 3.20 Q0230.0 QA 0.60 VS 4.20 3
 SPEC CHI HH N MO 15.2 ST122.7 OM  3.3 f0 3.95 R0.3722 AL 3.71 WI 14.9 MW  4.1 3
 SPEC CHI HH N T121926 K 0.000 GD  290 VS 4.20 DE 3.20 Q0230.0 QA 0.60 VS 4.20 3
 SPEC OCA HH N MO 15.8 ST999.9 OM  4.1 f0 5.09 R0.2888 AL 4.40 WI 16.5 MW  4.5 3
 SPEC OCA HH N T1219 9 K 0.000 GD  213 VS 4.20 DE 3.20 Q0230.0 QA 0.60 VS 4.20 3
 SPEC BRR HH N MO 15.5 ST529.2 OM  3.9 f0 4.94 R0.2976 AL 3.46 WI 10.1 MW  4.3 3
 SPEC BRR HH N T121858 K 0.000 GD  160 VS 4.20 DE 3.20 Q0230.0 QA 0.60 VS 4.20 3
 SPEC BAR2SH Z MO 15.5 ST374.4 OM  3.9 f0 4.54 R0.3238 AL 3.93 WI  7.4 MW  4.3 3
 SPEC BAR2SH Z T121854 K 0.000 GD  146 VS 4.20 DE 3.20 Q0230.0 QA 0.60 VS 4.20 3
 ACTION:UPD 12-11-22 17:06 OP:ep   STATUS:               ID:20121030121821 L   I
 2012-10-30-1216-50M.COL___195                                                 6
 STAT SP IPHASW D HRMM SECON CODA AMPLIT PERI AZIMU VELO AIN AR TRES W  DIS CAZ7
 BAR2 SZ IP     D 1218 40.62                             169    0.0110 26.7 193 
 BAR2 SZ ES   2   1218 55.20                             169   -0.61 5 26.7 193 
 BAR2 SZ I        1218 56.60      8051.1 0.20                          26.7 193 
 GIR2 SZ IP       1218 40.74                             168    0.2310 28.6 346 
 GIR2 SZ ES       1218 55.74                             168    0.1010 28.6 346 
 BRR  HZ IP     C 1218 42.57                             152    0.4910 71.3 296 
 BRR  HN ES   2   1218 59.25                             152    0.81 5 71.3 296 
 BRR  HN I        1218 59.66     14431.7 0.20                          71.3 296 
 PAM  SZ IP     C 1218 43.52                             151    0.5810 73.9  40 
 PAM  SN ES   2   1219  0.22                             151    0.26 5 73.9  40 
 PAM  SN I        1219  1.36     12410.3 0.48                          73.9  40 
 RUS  HZ EP       1218 44.48                             142   -0.4310  104 177 
 RUS  HE ES       1219  2.58                             142   -0.9010  104 177 
 RUS  HN I        1219  6.22      2249.3 0.58                           104 177 
 TAM  HZ IP     D 1218 49.01                             130    0.44 9  154 106 
 TAM  HE ES   1   1219 10.01                             130    0.02 7  154 106 
 TAM  HN I        1219 10.97      4762.1 0.40                           154 106 
 OCA  HZ EP       1218 49.01                             130   -0.01 9  157 352 
 OCA  HN ES       1219 10.42                             130   -0.36 9  157 352 
 OCA  HN I        1219 14.67      9578.6 0.20                           157 352 
 ZAR  HZ EP       1218 53.39                             122   -0.10 9  205 291 
 ZAR  HN ES   1   1219 19.20                             122    0.45 6  205 291 
 ZAR  HN I        1219 23.72      3402.2 0.28                           205 291 
 CHI  HZ EP       1218 58.57                             116   -0.52 8  252 195 
 CHI  HN ES   1   1219 28.29                             116   -0.43 6  252 195 
 CHI  HN I        1219 35.62      1194.4 0.42                           252 195 
 ROSC BZ IP     C 1219  0.45                             116    0.92 8  256 211 
 ROSC BZ I        1219 37.25      1717.4 0.40                           256 211 
 HEL  HZ EP       1219  1.13                             114   -0.38 8  275 255 
 HEL  HN ES   1   1219 32.47                             114   -0.55 6  275 255 
 HEL  HN I        1219 40.14      1381.3 0.34                           275 255 
 GUY  SZ EP       1219  5.31                             111    0.04 7  307 235 
 GUY  SE ES   2   1219 40.77                             111    1.06 4  307 235 
 RREF HZ EP   1   1219  7.97                             110    0.41 5  325 229 
 RREF HE ES   2   1219 44.62                             110    0.83 3  325 229 
 RREF HZ I        1219 50.93       716.6 0.52                           325 229 
 DBB  SZ EP       1219  9.06                             109    0.37 7  341 274 
 MON  HZ EP   1   1219  8.60                             108   -1.38 5  353 308 
 MON  HN ES       1219 46.99                             108   -1.11 6  353 308 
 MON  HN I        1219 49.68       881.8 0.34                           353 308 
 SDV  BZ EP       1219 10.31                             108   -0.39 6  357  50 
 ANIL HZ EP       1219 11.52                             108    0.27 6  361 224 
 ANIL HN ES       1219 51.87                             108    1.51 6  361 224 
 PRA  HZ EP   1   1219 14.48                             106   -0.51 4  396 210 
 PRA  HE ES       1219 56.75                             106   -0.27 6  396 210 
 PRA  HN I        1220  1.16       509.0 0.30                           396 210 
 PAL  HZ EP   1   1219 16.83                             105    0.25 4  409 239 
 YOT  HZ EP   1   1219 23.53                             103   -0.98 3  475 229 
 SMAR HZ EP   1   1219 26.89                             102    0.26 3  494 346 
 SMAR HN I        1220 20.22       280.8 0.32                           494 346 
 PTA  HZ EP       1219 28.93                             101   -0.53 4  518 274 
 HORQ SZ EP   1   1219 31.20                             101   -0.72 3  536 226 
                                                                                
