 2014  330 1207 48.6 L   5.960 -73.760106.1  RSN  5 0.6 1.9LRSN                1
 GAP=232        1.29       7.4     9.3 11.0 -0.3508E+02  0.3057E+02 -0.4007E+02E
 Epicentro: GUAVATA - SANTANDER                                                3
 ACTION:UPD 14-04-09 23:21 OP:nd   STATUS:               ID:20140330120748 L   I
 OLDACT:DUP 14-03-30 19:12 OP:nd   STATUS:               ID:20140330120047d    3
 2014-03-30-1200-46M.COL___250                                                 6
 STAT SP IPHASW D HRMM SECON CODA AMPLIT PERI AZIMU VELO AIN AR TRES W  DIS CAZ7
 SPBC HZ EP       12 8  3.99                             154   -0.3510 48.5 226 
 SPBC HN ES       12 8 16.72                             154    0.1210 48.5 226 
 SPBC HZ I        12 8 17.80        38.2 0.28            154           48.5 226 
 GUY2CHN EP       12 8 18.41                             113   -0.07 9  196 246 
 GUY2CHE ES       12 8 41.47                             113   -0.29 9  196 246 
 GUY2CHN I        12 8 50.09         6.1 0.44                           196 246 
 HEL  HZ EP       12 8 18.65                             113    0.09 9  198 278 
 HEL  HN ES       12 8 41.37                             113   -0.54 9  198 278 
 HEL  HZ I        12 8 45.81         5.4 0.24            113            198 278 
 RREF HZ EP       12 8 19.71                             112   -0.75 8  211 236 
 RREF HN ES       12 8 46.68                             112    1.39 8  211 236 
 RREF HZ I        12 8 50.42         4.2 0.28            113            211 236 
 SML  HZ EP       12 8 32.28                             102    0.37 7  316 354 
 SML  HN ES       12 9  6.07                             102    0.40 7  316 354 
 SML  HZ I        12 9 15.84         6.1 0.24            103            316 354 
                                                                                
