 2014  530 1549 40.1 L   6.816 -73.149139.4  RSN 28 0.5 2.8LRSN 3.5WRSN        1
 SPEC AVERAGE  MO 14.3 ST0.209 OM  4.5 f0 1.18 R1.6305 AL 0.00 WI 60.0 MW  3.5 3
 SPEC SD       MO  0.0 ST0.000 OM  2.1 f00.000 R0.0000 AL      WI      MW  0.0 3
 GAP= 53        1.11       2.2     2.5  4.6 -0.8891E+00  0.3012E+01  0.3468E+00E
 Epicentro: LOS SANTOS - SANTANDER                                             3
 SPEC PAM SH Z MO 14.3 ST0.209 OM  2.4 f0 1.18 R1.6305 AL-0.00 WI 60.0 MW  3.5 3
 SPEC PAM SH Z T155017 K 0.000 GD  158 VS 5.20 DE 3.50 Q0750.0 QA 1.50 VS 5.20 3
 SPECGUY2CHH Z MO 13.8 ST  0.1 OM  1.6 f0 1.37 R  1.41 AL-0.00 WI 60.0 MW  3.2 3
 SPECGUY2CHH Z T155055 K       GD332.6 VS 5.20 DE 3.50 Q0750.0 QA 1.50 VS 5.20 3
 OLDACT:UP  14-05-31 00:38 OP:stll STATUS:               ID:20140530154819     3
 OLDACT:REG 14-05-30 20:41 OP:stll STATUS:               ID:20140530154819     3
 ACTION:UPD 15-03-16 17:02 OP:nd   STATUS:               ID:20140530154940 L   I
 OLDACT:UP  14-05-31 00:41 OP:stll STATUS:               ID:20140530154819     3
 2014-05-30-1548-19M.COL___256                                                 6
 STAT SP IPHASW D HRMM SECON CODA AMPLIT PERI AZIMU VELO AIN AR TRES W  DIS CAZ7
 BAR2 SZ IP     C 1549 59.37                             169    0.4010 25.0 188 
 BAR2 SZ ES       1550 13.78                             169    0.0710 25.0 188 
 BAR2 SZ I        1550 15.23        72.3 0.46            169           25.0 188 
 PAM  SZ EP       1550  2.19                             150    0.6510 76.3  41 
 PAM  SN ES       1550 18.78                             150    0.4910 76.3  41 
 PAM  SZ I        1550 21.46       189.6 0.62            153           76.3  41 
 RUS  HZ EP     C 1550  3.35                             142    0.0210  102 176 
 RUS  HN ES       1550 21.20                             142   -0.2710  102 176 
 RUS  HZ I        1550 22.88        53.5 0.38            143            102 176 
 PTB  HZ IP     C 1550  6.48                             131   -0.04 9  148 258 
 PTB  HN ES       1550 27.16                             131    0.01 9  148 258 
 PTB  HZ I        1550 30.39        79.9 0.14            131            148 258 
 TAM  HZ IP     D 1550  7.75                             129    0.42 9  156 106 
 TAM  HZ I        1550  7.96       164.8 0.38            132            156 106 
 TAM  HN ES       1550 28.41                             129   -0.18 9  156 106 
 OCA  HZ IP     C 1550  7.67                             128   -0.05 9  158 353 
 OCA  HN ES       1550 29.13                             128   -0.16 9  158 353 
 OCA  HZ I        1550 33.17        82.2 0.50            130            158 353 
 SPBC HZ IP     D 1550  8.56                             127    0.37 9  164 218 
 SPBC HN ES       1550 29.61                             127   -0.52 9  164 218 
 SPBC HZ I        1550 34.17        79.3 0.20            128            164 218 
 ZAR  HZ EP       1550 12.33                             121    0.33 9  203 292 
 ZAR  HN ES       1550 37.35                             121    0.45 9  203 292 
 ZAR  HZ I        1550 43.41        96.2 0.32            122            203 292 
 NOR  HZ EP       1550 16.02                             117    0.51 8  235 234 
 NOR  HN ES       1550 42.81                             117   -0.35 8  235 234 
 NOR  HZ I        1550 48.58        36.8 0.30            118            235 234 
 SML  HZ EP       1550 15.73                             116   -0.43 8  242 335 
 SML  HE ES       1550 43.90                             116   -0.40 8  242 335 
 SML  HZ I        1550 47.39        73.7 0.10            118            242 335 
 CHI  HZ EP       1550 17.46                             116   -0.14 8  250 195 
 CHI  HN ES       1550 46.52                             116   -0.35 8  250 195 
 CHI  HZ I        1550 51.00        18.6 0.28            117            250 195 
 ROSC BZ EP       1550 19.21                             115    1.22 8  254 211 
 ROSC BE ES       1550 47.53                             115   -0.04 8  254 211 
 ROSC BZ I        1550 55.47        38.3 0.50            116            254 211 
 HEL  HZ EP       1550 20.40                             113    0.43 8  272 255 
 HEL  HE ES       1550 50.32                             113   -0.77 8  272 255 
 HEL  HZ I        1550 57.65        22.2 0.46            114            272 255 
 URE  HZ EP       1550 20.76                             112    0.04 7  283 292 
 URE  HE ES       1550 51.21                             112   -1.22 7  283 292 
 URE  HZ I        1550 53.18        72.9 0.14            113            283 292 
 SOCV BZ EP       1550 21.88                             111   -0.88 7  301  57 
 SOCV BN ES   4   1550 53.01                             111   -3.05 0  301  57 
 GUY2CHZ EP       1550 24.12                             111    0.65 7  302 234 
 GUY2CHE ES       1550 57.15                             111   -0.17 7  302 234 
 GUY2CHZ I        1551  6.99        28.5 0.58                           302 234 
 VIL  SZ EP       1550 23.51                             111    0.12 7  305 191 
 VIL  SN ES       1550 56.70                             111   -0.48 7  305 191 
 VIL  SZ I        1551  1.03        24.2 0.36            112            305 191 
 PTGC HZ EP       1550 22.68                             110   -1.17 7  310 159 
 PTGC HZ I        1550 23.16        46.6 0.40            112            310 159 
 RREF HZ EP       1550 26.89                             110    0.85 7  323 229 
 RREF HN ES       1551  1.78                             110   -0.11 7  323 229 
 RREF HZ I        1551 12.81        26.2 0.30            111            323 229 
 CBOC HZ EP       1550 27.59                             109    0.84 7  334 252 
 CBOC HZ I        1550 29.78        13.0 0.16            110            334 252 
 DBB  SZ EP       1550 27.36                             108    0.13 7  339 274 
 DBB  SZ ES       1551  3.85                             108   -0.17 7  339 274 
 TOL  SZ EP       1550 28.89                             108    0.70 7  344 224 
 TOL  SE ES       1551  5.85                             108    0.13 7  344 224 
 ARGC HZ EP       1550 29.87                             107    0.59 6  357 340 
 ARGC HZ I        1550 33.50        21.4 0.20            109            357 340 
 ANIL HZ EP   2   1550 29.79                             107    0.04 3  358 224 
 ANIL HE ES       1551  8.60                             107    0.10 6  358 224 
 ANIL HZ I        1551 13.36        50.7 0.32            108            358 224 
 SDV  BZ EP       1550 28.48                             107   -1.30 6  360  50 
 SDV  BE ES   4   1551  3.61                             107   -4.95 0  360  50 
 SDV  BZ I        1551  8.70        16.5 0.40            109            360  50 
 PRA  HZ EP       1550 33.34                             105   -0.19 6  393 209 
 PRA  HN ES       1551 14.65                             105   -0.58 6  393 209 
 PRA  HZ I        1551 18.07        17.0 0.32            106            393 209 
 ORTC HZ EP       1550 33.83                             105   -0.09 6  397 216 
 ORTC HN ES       1551 15.34                             105   -0.58 6  397 216 
 ORTC HZ I        1551 22.43        14.1 0.24            106            397 216 
 SJC  HZ EP       1550 34.19                             105   -1.04 6  408 327 
 SJC  HN ES   4   1551 14.55                             105   -3.71 0  408 327 
 SJC  HZ I        1551 19.08        14.7 0.54            106            408 327 
                                                                                
