 2011  930 1705 10.3 L   6.802 -73.103146.9  RSN  8 0.5 2.5LRSN                1
 GAP=142        0.90       4.5     6.4  7.3  0.3386E+01  0.1678E+02  0.9544E+01E
 Epicentro: LOS SANTOS - SANTANDER                                             3
 ACTION:UPD 12-07-13 16:01 OP:ep   STATUS:               ID:20110930170510 L   I
 2011-09-30-1703-07S.COL___168                                                 6
 STAT SP IPHASW D HRMM SECON CODA AMPLIT PERI AZIMU VELO AIN AR TRES W  DIS CAZ7
 BAR2 SZ EP   1   17 5 30.14                             170    0.01 7 24.8 201 
 BAR2 SZ ES   1   17 5 45.37                             170   -0.20 7 24.8 201 
 BAR2 SZ I        17 5 46.96        96.6 0.24                          24.8 201 
 PAM  SZ EP   1   17 5 32.95                             152    0.47 7 74.3  37 
 PAM  SZ I        17 5 33.27        34.7 0.15                          74.3  37 
 PAM  SN ES   1   17 5 49.57                             152   -0.20 7 74.3  37 
 BRR  HZ IP     C 17 5 32.07                             151    0.2410 75.2 297 
 BRR  HZ I        17 5 32.32       114.8 0.15                          75.2 297 
 BRR  HN ES   1   17 5 49.33                             151    0.73 7 75.2 297 
 RUS  HZ EP   1   17 5 34.03                             144   -0.16 7  101 179 
 RUS  HN ES   1   17 5 52.09                             144   -0.72 7  101 179 
 RUS  HZ I        17 5 54.08        22.8 0.42                           101 179 
 ZAR  HZ EP   1   17 5 43.31                             122    0.02 6  208 292 
 ZAR  HN ES   1   17 6  8.14                             122   -0.85 6  208 292 
 ZAR  HZ I        17 6 15.18        19.8 0.15                           208 292 
 NOR  SZ EP   1   17 5 45.97                             118   -0.58 6  239 235 
 CHI  HZ EP   1   17 5 47.99                             117   -0.26 6  250 196 
 CHI  HN ES   1   17 6 18.75                             117    0.92 6  250 196 
 CHI  HZ I        17 6 27.07         7.7 0.65                           250 196 
 PRA  HZ EP   1   17 6  4.18                             106   -0.01 4  395 210 
 PRA  HN ES   1   17 6 46.83                             106    0.63 4  395 210 
 PRA  HZ I        17 6 52.74        28.4 0.21                           395 210 
                                                                                
