 2017 1130 1036 49.3 L   6.788 -73.131152.8  RSN  4 0.1 1.2LRSN                1
 GAP=139        0.43       3.6     3.5  4.7  0.5768E+01 -0.2404E+01 -0.7263E+01E
 Epicentro: LOS SANTOS - SANTANDER                                             3
 ACTION:UPD 17-12-12 20:02 OP:rebc STATUS:               ID:20171130103649 L   I
 OLDACT:DUP 17-11-30 21:18 OP:dani STATUS:               ID:20171130102739d    3
 OLDACT:REG 17-11-30 20:42 OP:mg   STATUS:               ID:20171130102738     3
 2017-11-30-1028-00M.COL___468                                                 6
 STAT SP IPHASW D HRMM SECON CODA AMPLIT PERI AZIMU VELO AIN AR TRES W  DIS CAZ7
 BAR2 EZ EP       1037  9.47                             171   -0.2610 22.4 195 
 BAR2 EZ ES       1037 25.65                             171   -0.0410 22.4 195 
 BAR2 EZ I        1037 28.25         4.2 0.32            170           22.4 195 
 PAM  EZ EP       1037 12.37                             152    0.1310 77.4  38 
 RUS  HZ EP       1037 13.67                             146    0.0410 99.2 177 
 RUS  HN ES       1037 32.72                             146    0.1010 99.2 177 
 RUS  HZ I        1037 33.74         0.9 0.21            148           99.2 177 
 ZAR  HN ES       1037 48.27                             124    0.05 8  206 292 
 ZAR  HZ I        1037 54.05         2.4 0.19            123            206 292 
                                                                                
