 2013 1030 1931 40.6 L   6.776 -73.143149.3  RSN  8 0.4 2.1LRSN                1
 GAP=138        1.13       4.6     4.8  6.9 -0.2821E+01  0.1001E+02  0.1693E+01E
 Epicentro: LOS SANTOS - SANTANDER                                             3
 ACTION:UPD 13-11-25 09:24 OP:ep   STATUS:               ID:20131030193140 L   I
 OLDACT:REG 13-10-30 16:57 OP:carl STATUS:               ID:20131030192839     3
 2013-10-30-1928-39M.COL___220                                                 6
 STAT SP IPHASW D HRMM SECON CODA AMPLIT PERI AZIMU VELO AIN AR TRES W  DIS CAZ7
 BAR2 SZ ES       1932 16.04                             172   -0.2010 20.8 192 
 BAR2 SZ I        1932 17.54        48.5 0.22            170           20.8 192 
 BRR  HZ EP       1932  2.80                             153    0.5610 72.7 300 
 BRR  HE ES       1932 19.82                             153    0.7210 72.7 300 
 BRR  HE I        1932 20.60        62.5 0.18            155           72.7 300 
 PAM  SZ EP       1932  3.72                             151    0.3910 79.3  38 
 PAM  SE ES       1932 20.72                             151   -0.3110 79.3  38 
 PAM  SZ I        1932 23.16         8.4 0.66            154           79.3  38 
 RUS  HZ EP       1932  4.48                             145   -0.0610 97.9 176 
 RUS  HN ES       1932 22.95                             145   -0.2410 97.9 176 
 RUS  HZ I        1932 25.66        10.4 0.28            145           97.9 176 
 PTB  HZ EP       1932  6.98                             133   -0.88 9  148 260 
 PTB  HN ES       1932 28.65                             133   -0.45 9  148 260 
 PTB  HZ I        1932 29.92        13.8 0.20            134            148 260 
 SPBC HZ EP       1932  9.43                             130    0.21 9  161 220 
 SPBC HE ES       1932 31.64                             130    0.12 9  161 220 
 SPBC HZ I        1932 38.22        13.6 0.66            131            161 220 
 ZAR  HZ EP       1932 12.85                             123   -0.58 8  205 293 
 ZAR  HE ES       1932 38.82                             123   -0.19 8  205 293 
 NOR  HZ EP       1932 16.87                             119    0.45 8  233 235 
 NOR  HE ES       1932 44.75                             119    0.41 8  233 235 
                                                                                
