 2011  130 1317 59.2 L   6.899 -73.273132.7  RSN  7 0.4 1.7LRSN                1
 GAP=167        1.07       5.9    22.3  9.1 -0.6502E+02  0.5064E+02 -0.4455E+01E
 Epicentro: BETULIA - SANTANDER                                                3
 ACTION:UP  11-02-08 08:43 OP:pat  STATUS:               ID:20110130131759 L   I
 2011-01-30-1316-15S.COL___137                                                 6
 STAT SP IPHASW D HRMM SECON CODA AMPLIT PERI AZIMU VELO SNR AR TRES W  DIS CAZ7
 BTL  SZ EP       1318 17.75                             179     0.710    2  16 
 BTL  SZ ES   1   1318 30.18                             179    -0.8 7    2  16 
 GIR2 SZ EP   3   1318 17.12                             170     0.0 2   22  24 
 BAR2 SZ EP       1318 17.72                             164     0.110   35 164 
 BAR2 SZ ES   2   1318 32.72                             164     0.7 5   35 164 
 RUS  HZ EP       1318 22.28                             137    -0.510  113 169 
 RUS  HN ES   2   1318 40.96                             137    -0.1 5  113 169 
 RUS  HZ I        1318 42.18         3.6 0.40                           113 169 
 GRA  SZ EP       1318 22.82                             135    -0.110  121  25 
 GRA  SZ ES   1   1318 41.56                             135     0.2 7  121  25 
 GRA  SZ I        1318 42.92        16.9 0.31                           121  25 
 OCA  SZ EP       1318 25.18                             129    -0.2 9  148 358 
 OCA  SZ I        1318 51.03         9.8 0.34                           148 358 
 CHI  HZ EP       1318 37.30                             113     0.2 8  256 191 
 CHI  HZ I        1319 11.23         1.9 0.41                           256 191 
                                                                                
