 2014 1230 1737  5.7 L   6.743 -73.171151.9  RSN  4 0.3 1.4LRSN                1
 GAP=230        0.78       6.3     6.0  6.3  0.1857E+02  0.3143E+01  0.4365E+00E
 Epicentro: LOS SANTOS - SANTANDER                                             3
 ACTION:UPD 15-02-10 17:08 OP:nd   STATUS:               ID:20141230173705 L   I
 OLDACT:REG 14-12-30 20:28 OP:cam  STATUS:               ID:20141230172820     3
 2014-12-30-1728-20M.COL___274                                                 6
 STAT SP IPHASW D HRMM SECON CODA AMPLIT PERI AZIMU VELO AIN AR TRES W  DIS CAZ7
 BAR2 EZ EP       1737 25.59                             173   -0.3510 16.7 184 
 BAR2 EZ ES       1737 41.48                             173   -0.2610 16.7 184 
 BAR2 EZ I        1737 43.58         4.0 0.22            170           16.7 184 
 BRR  HZ EP       1737 27.38                             153   -0.1610 72.1 304 
 BRR  HN ES       1737 45.05                             153    0.4510 72.1 304 
 BRR  HN I        1737 47.64        13.2 0.20            151           72.1 304 
 RUS  HZ EP       1737 29.80                             147    0.1810 94.5 174 
 RUS  HN ES       1737 48.50                             147    0.2010 94.5 174 
 RUS  HZ I        1737 49.35         1.6 0.42            147           94.5 174 
 PTB  HZ EP       1737 33.10                             134    0.29 9  144 261 
 PTB  HN ES       1737 53.64                             134   -0.34 9  144 261 
 PTB  HZ I        1737 59.67         3.9 0.36            133            144 261 
                                                                                
