 2011 1230 1353 57.7 L   6.766 -73.125139.9  RSN 17 0.5 2.4LRSN                1
 GAP=104        0.86       3.0     3.8  4.8 -0.1406E+01  0.4582E+01  0.1556E+01E
 Epicentro: LOS SANTOS - SANTANDER                                             3
 ACTION:UPD 12-07-13 16:19 OP:ep   STATUS:               ID:20111230135000 L   I
 2011-12-30-1350-00M.COL___188                                                 6
 STAT SP IPHASW D HRMM SECON CODA AMPLIT PERI AZIMU VELO AIN AR TRES W  DIS CAZ7
 BAR2 SZ IP       1354 16.48                             171   -0.0910 20.2 198 
 BAR2 SZ ES   1   1354 31.14                             171   -0.15 7 20.2 198 
 BAR2 SZ I        1354 32.49       103.7 0.28                          20.2 198 
 BRR  HZ EP       1354 18.69                             150    0.2310 75.1 300 
 BRR  HN ES   1   1354 35.19                             150    0.55 7 75.1 300 
 BRR  HZ I        1354 40.56        57.0 0.14                          75.1 300 
 PAM  SZ IP       1354 19.57                             149    0.1710 78.9  36 
 PAM  SZ I        1354 19.69        35.0 0.16                          78.9  36 
 PAM  SN ES   1   1354 36.25                             149   -0.07 7 78.9  36 
 RUS  HZ IP     C 1354 20.46                             144   -0.1410 96.7 177 
 RUS  HZ I        1354 21.60        26.3 0.14                          96.7 177 
 RUS  HN ES   1   1354 38.00                             144   -0.46 7 96.7 177 
 BRI  SZ EP       1354 21.14                             139   -0.1210  111  19 
 OCA  SZ EP       1354 26.42                             127    0.46 9  164 352 
 OCA  SZ ES   2   1354 47.86                             127   -0.13 5  164 352 
 OCA  SZ I        1354 52.07        34.6 0.27                           164 352 
 YOP  SZ EP       1354 27.24                             126    0.34 9  174 153 
 YOP  SN ES   2   1354 51.01                             126    1.35 4  174 153 
 YOP  SZ I        1354 51.43        18.4 0.32                           174 153 
 ZAR  HZ EP       1354 29.88                             121   -0.28 8  208 293 
 ZAR  HE ES   2   1354 55.03                             121   -0.44 4  208 293 
 ZAR  HZ I        1355  0.79        32.9 0.56                           208 293 
 NOR  SZ EP       1354 32.45                             117   -0.63 8  234 236 
 NOR  SN ES   1   1354 59.98                             117   -0.69 6  234 236 
 CHI  HZ EP       1354 34.68                             116   -0.08 8  246 196 
 CHI  HZ I        1354 37.31         7.5 0.24                           246 196 
 CHI  HN ES   2   1355  3.37                             116   -0.29 4  246 196 
 HEL  HZ EP       1354 38.05                             113    0.27 8  273 257 
 HEL  HN ES   3   1355  7.95                             113   -1.09 2  273 257 
 RREF HZ EP       1354 43.81                             110    0.28 7  321 230 
 RREF HZ I        1355 29.39        11.4 0.30                           321 230 
 DBB  SZ EP       1354 45.57                             108    0.31 7  342 275 
 TOL  SZ EP       1354 46.29                             108    0.67 7  342 225 
 COD  HZ EP   3   1354 44.87                             108   -1.45 2  352 354 
 SDV  BZ EP       1354 46.40                             107   -1.21 6  361  49 
 PRA  HZ EP       1354 50.83                             106    0.04 6  390 210 
                                                                                
