 2016  930 1744 52.0 L   6.768 -73.128139.0  RSN 10 0.4 1.9LRSN                1
 GAP=140        1.01       4.1     4.2  5.9 -0.5205E+00  0.9295E+01  0.3166E+01E
 Epicentro: LOS SANTOS - SANTANDER                                             3
 ACTION:UPD 17-08-17 21:18 OP:lp   STATUS:               ID:20160930174452 L   I
 OLDACT:UP  16-09-30 23:40 OP:dani STATUS:               ID:20160930173748     3
 OLDACT:UP  16-09-30 23:39 OP:dani STATUS:               ID:20160930173748     3
 OLDACT:REG 16-09-30 20:18 OP:dani STATUS:               ID:20160930173748     3
 2016-09-30-1738-00M.COL___369                                                 6
 STAT SP IPHASW D HRMM SECON CODA AMPLIT PERI AZIMU VELO AIN AR TRES W  DIS CAZ7
 BAR2 HZ ES       1745 25.40                             171   -0.0110 20.4 197 
 BRR  HZ EP     C 1745 12.51                             150   -0.1410 74.6 300 
 BRR  HN ES       1745 29.18                             150    0.4410 74.6 300 
 BRR  HZ I        1745 32.97        21.0 0.32            151           74.6 300 
 PAM  EZ EP       1745 13.58                             149   -0.0410 78.9  37 
 PAM  EN ES       1745 30.34                             149   -0.1210 78.9  37 
 PAM  EZ I        1745 32.70        15.2 0.38            155           78.9  37 
 RUS  HZ E        1745 14.73                                           97.0 177 
 RUS  HZ EP       1745 14.73                             143   -0.1210 97.0 177 
 RUS  HE ES       1745 32.95                             143    0.3010 97.0 177 
 RUS  HZ I        1745 36.25         5.6 0.32            144           97.0 177 
 PTB  HZ EP       1745 17.69                             130   -0.88 9  149 260 
 PTB  HN ES       1745 38.63                             130   -0.64 9  149 260 
 PTB  HZ I        1745 41.09        12.9 0.10            131            149 260 
 SPBC HZ EP       1745 19.67                             128   -0.20 9  162 220 
 SPBC HE ES   4   1745 43.81                             128    2.22 0  162 220 
 SPBC HZ I        1745 46.28        13.6 0.28            129            162 220 
 ZAR  HZ EP       1745 25.04                             120    0.67 8  207 293 
 ZAR  HN ES       1745 49.56                             120   -0.04 8  207 293 
 ZAR  HZ I        1745 54.73        12.7 0.38            123            207 293 
 NOR  HZ EP       1745 27.44                             117    0.11 8  234 235 
 NOR  HE ES       1745 55.22                             117    0.36 8  234 235 
 NOR  HZ I        1745 58.68         7.7 0.20            119            234 235 
 CHI  HE ES   2   1745 57.74                             116   -0.18 4  246 196 
 CHI  HZ I        1746  4.27         2.8 0.28            118            246 196 
 HEL  HZ EP       1745 32.81                             113    0.79 8  273 257 
                                                                                
