 2017 1230 1238  8.4 L   6.752 -73.181146.9  RSN  4 0.2 1.4LRSN                1
 GAP=141        0.57       5.9     3.3  5.8 -0.8672E+01  0.6544E+01 -0.4725E+01E
 Epicentro: LOS SANTOS - SANTANDER                                             3
 ACTION:UPD 18-01-04 13:25 OP:rebc STATUS:               ID:20171230123808 L   I
 OLDACT:UP  17-12-30 22:30 OP:mg   STATUS:               ID:20171230122739d    3
 OLDACT:UP  17-12-30 22:29 OP:mg   STATUS:               ID:20171230122739d    3
 OLDACT:DUP 17-12-30 22:27 OP:mg   STATUS:               ID:20171230122739d    3
 2017-12-30-1228-00M.COL___447                                                 6
 STAT SP IPHASW D HRMM SECON CODA AMPLIT PERI AZIMU VELO AIN AR TRES W  DIS CAZ7
 BAR2 EZ EP       1238 28.33                             173    0.2610 17.6 180 
 BAR2 EZ ES   1   1238 43.13                             173   -0.27 7 17.6 180 
 BAR2 EZ I        1238 44.61         9.2 0.24            172           17.6 180 
 PAM  EZ EP       1238 31.27                             149    0.1310 84.0  39 
 PAM  EN ES       1238 48.80                             149   -0.0710 84.0  39 
 PAM  EZ I        1238 51.45         2.9 0.38            146           84.0  39 
 PTB  HZ EP   1   1238 34.51                             133   -0.52 7  143 261 
 PTB  HN ES       1238 55.97                             133    0.18 9  143 261 
 PTB  HZ I        1238 58.00         2.1 0.12            132            143 261 
 ZAR  HZ EP   1   1238 40.55                             123   -0.21 6  203 294 
 ZAR  HN ES   1   1239  6.04                             123    0.04 6  203 294 
 ZAR  HZ I        1239 15.23         2.8 0.24            121            203 294 
                                                                                
