 2017  830 1656  1.3 L   6.782 -73.105134.7  RSN  9 0.5 1.7LRSN                1
 GAP=116        1.02       3.7     4.0  5.9  0.3023E+01  0.8126E+01  0.6649E+01E
 Epicentro: LOS SANTOS - SANTANDER                                             3
 ACTION:UPD 17-09-04 20:26 OP:rebc STATUS:               ID:20170830165601 L   I
 OLDACT:REG 17-08-30 21:07 OP:dhb  STATUS:               ID:20170830164733     3
 2017-08-30-1648-00M.COL___405                                                 6
 STAT SP IPHASW D HRMM SECON CODA AMPLIT PERI AZIMU VELO AIN AR TRES W  DIS CAZ7
 BAR2 EZ EP       1656 19.18                             170   -0.4110 22.6 202 
 BAR2 EZ ES       1656 33.73                             170   -0.1210 22.6 202 
 BAR2 EZ I        1656 35.64        15.9 0.23            169           22.6 202 
 BRR  HZ IP     D 1656 21.57                             149   -0.0110 76.1 298 
 BRR  HN ES       1656 37.36                             149   -0.0210 76.1 298 
 BRR  HZ I        1656 41.96        13.9 0.56            149           76.1 298 
 PAM  EZ IP     D 1656 22.51                             149    0.2310 76.2  36 
 PAM  EN ES       1656 38.84                             149    0.2010 76.2  36 
 PAM  EZ I        1656 41.78         8.9 0.28            152           76.2  36 
 RUS  HZ EP       1656 23.61                             142   -0.2110 98.3 179 
 RUS  HN ES       1656 41.91                             142    0.5410 98.3 179 
 RUS  HZ I        1656 43.11         4.7 0.23            144           98.3 179 
 YPLC HZ IP     D 1656 29.93                             125    0.00 9  173 152 
 YPLC HN ES       1656 51.79                             125   -0.46 9  173 152 
 YPLC HZ I        1656 57.13         5.6 0.29            127            173 152 
 ZAR  HZ EP       1656 34.14                             119    0.56 8  209 292 
 ZAR  HN ES       1656 58.48                             119   -0.28 8  209 292 
 ZAR  HZ I        1657  4.56         4.7 0.33            121            209 292 
 NOR  HZ EP       1656 36.13                             116   -0.57 8  237 235 
 NOR  HN ES       1657  3.68                             116   -0.62 8  237 235 
 NOR  HZ I        1657  7.25         3.0 0.09            117            237 235 
 GUY2CHZ EP       1656 45.26                             110    0.54 7  304 236 
 GUY2CHE ES   2   1657 19.41                             110    0.83 4  304 236 
 GUY2CHZ I        1657 26.38         1.7 0.35                           304 236 
 PRA  HZ EP       1656 54.18                             104   -0.35 6  393 210 
 PRA  HE ES       1657 37.50                             104    1.46 6  393 210 
 PRA  HZ I        1657 40.55         2.2 0.39            106            393 210 
                                                                                
