 2017 1230 1352  7.4 L   6.825 -73.145148.3  RSN 20 0.6 2.5LRSN                1
 GAP= 65        0.89       2.4     2.5  5.2  0.1391E+00  0.4547E+01  0.1343E+01E
 Epicentro: LOS SANTOS - SANTANDER                                             3
 ACTION:UPD 18-01-04 13:25 OP:rebc STATUS:               ID:20171230135207 L   I
 OLDACT:UP  17-12-30 22:58 OP:mg   STATUS:               ID:20171230134746d    3
 OLDACT:UP  17-12-30 22:56 OP:mg   STATUS:               ID:20171230134746d    3
 OLDACT:DUP 17-12-30 22:47 OP:mg   STATUS:               ID:20171230134746d    3
 2017-12-30-1348-00M.COL___468                                                 6
 STAT SP IPHASW D HRMM SECON CODA AMPLIT PERI AZIMU VELO AIN AR TRES W  DIS CAZ7
 BAR2 EZ IP     D 1352 27.37                             170   -0.0510 26.1 189 
 BAR2 EZ ES   2   1352 42.78                             170   -0.24 5 26.1 189 
 BAR2 EZ I        1352 43.99        51.9 0.30            168           26.1 189 
 PAM  EZ EP       1352 30.09                             152    0.3010 75.2  41 
 PAM  EN ES       1352 46.70                             152   -0.5310 75.2  41 
 PAM  EZ I        1352 49.74        36.5 0.44            157           75.2  41 
 PTB  HZ EP       1352 34.37                             132   -0.29 9  148 258 
 PTB  HN ES       1352 55.42                             132   -0.48 9  148 258 
 PTB  HZ I        1353  2.76        41.2 0.38            133            148 258 
 TAM  HZ EP   1   1352 35.49                             131    0.12 7  156 106 
 TAM  HN ES       1352 57.23                             131    0.06 9  156 106 
 TAM  HZ I        1352 57.78        21.4 0.31            135            156 106 
 OCA  HZ EP       1352 35.65                             131   -0.03 9  157 353 
 OCA  HN ES       1352 57.91                             131    0.20 9  157 353 
 OCA  HZ I        1353  2.41        95.2 0.26            134            157 353 
 SPBC HZ EP   1   1352 36.31                             129   -0.02 7  165 218 
 SPBC HE ES       1352 59.08                             129    0.21 9  165 218 
 SPBC HZ I        1353  4.36        42.5 0.36            130            165 218 
 YPLC HZ EP       1352 37.46                             127   -0.19 9  179 152 
 YPLC HE ES       1353  1.92                             127    0.70 9  179 152 
 YPLC HZ I        1353  5.13        28.0 0.36            129            179 152 
 ZAR  HZ EP       1352 39.82                             123   -0.12 9  203 291 
 ZAR  HN ES       1353  5.84                             123    0.55 9  203 291 
 ZAR  HZ I        1353 11.33        56.4 0.34            124            203 291 
 ROSC BZ EP   2   1352 47.17                             117    1.22 4  255 211 
 ROSC BN ES   4   1353 20.37                             117    4.37 0  255 211 
 ROSC BZ I        1353 25.63        31.8 0.50            118            255 211 
 URE  HZ EP       1352 47.97                             114   -0.54 7  283 291 
 URE  HN ES   3   1353 18.77                             114   -1.78 2  283 291 
 URE  HZ I        1353 23.23        14.9 0.14            116            283 291 
 DRL03HZ EP       1352 48.83                             114   -0.02 7  286 353 
 DRL03HN ES   2   1353 21.93                             114    0.77 4  286 353 
 GUY2CHZ EP   2   1352 52.37                             113    1.03 4  303 234 
 GUY2CHN ES   2   1353 26.14                             113    0.55 4  303 234 
 GUY2CHZ I        1353 33.06        18.0 0.30                           303 234 
 PTGC HZ EP   2   1352 50.25                             112   -1.44 3  311 159 
 PTGC HN ES   3   1353 23.59                             112   -2.63 2  311 159 
 PTGC HZ I        1353 28.86        16.3 0.24            114            311 159 
 CBOC HZ EP   2   1352 55.63                             110    1.08 3  335 252 
 CBOC HN ES   2   1353 32.36                             110    1.05 3  335 252 
 CBOC HZ I        1353 36.22         5.6 0.39            112            335 252 
 DBB  EZ EP       1352 55.25                             110    0.26 7  339 274 
 DBB  EN ES       1353 31.75                             110   -0.34 7  339 274 
 DBB  EZ I        1353 35.46         8.6 0.25            111            339 274 
 ARGC HZ EP   2   1352 57.86                             109    0.98 3  357 340 
 ARGC HN ES   1   1353 36.26                             109    0.81 5  357 340 
 ARGC HZ I        1353 43.62         5.4 0.30            111            357 340 
 PRA  HZ EP       1353  0.75                             107   -0.57 6  394 209 
 PRA  HN ES       1353 42.82                             107   -0.54 6  394 209 
 PRA  HZ I        1353 52.28        11.1 0.46            108            394 209 
 ORTC HZ EP       1353  1.81                             107    0.11 6  398 216 
 ORTC HN ES   2   1353 45.98                             107    1.94 3  398 216 
 ORTC HZ I        1353 51.54         6.3 0.36            108            398 216 
 SJC  HZ EP   2   1353  1.48                             106   -1.32 3  407 327 
 SJC  HN ES   4   1353 42.37                             106   -3.62 0  407 327 
 SJC  HZ I        1353 47.71         6.0 0.40            108            407 327 
 PAL  HZ EP       1353  2.33                             106   -0.52 6  407 239 
 PAL  HN ES       1353 46.01                             106   -0.06 6  407 239 
 PAL  HZ I        1353 50.76         5.9 0.17            107            407 239 
                                                                                
