 2017  430 1336 21.1 L   6.783 -73.116146.1  RSN  4 0.3 1.2LRSN                1
 GAP=141        0.53       2.9     3.7  4.6  0.9749E+00  0.3949E+01  0.5457E+00E
 Epicentro: LOS SANTOS - SANTANDER                                             3
 ACTION:UPD 17-05-30 21:17 OP:jn   STATUS:               ID:20170430133621 L   I
 OLDACT:UP  17-04-30 22:31 OP:and  STATUS:               ID:20170430132744d    3
 OLDACT:DUP 17-04-30 22:29 OP:and  STATUS:               ID:20170430132744d    3
 2017-04-30-1328-00M.COL___377                                                 6
 STAT SP IPHASW D HRMM SECON CODA AMPLIT PERI AZIMU VELO AIN AR TRES W  DIS CAZ7
 BRR  HZ EP       1336 42.24                             151   -0.2710 74.9 299 
 BRR  HE ES       1336 59.08                             151   -0.1210 74.9 299 
 PAM  EZ IP     C 1336 43.27                             151   -0.0510 76.8  37 
 PAM  EN ES       1337  0.80                             151    0.1510 76.8  37 
 PAM  EZ I        1337  2.60         1.4 0.26            153           76.8  37 
 RUS  HZ EP       1336 44.83                             144    0.0810 98.6 178 
 RUS  HN ES       1337  3.19                             144    0.0010 98.6 178 
 RUS  HZ I        1337  4.26         2.8 0.34            147           98.6 178 
 ZAR  HZ EP       1336 54.13                             122    0.18 8  208 292 
 ZAR  HN ES   3   1337 21.27                             122    1.69 2  208 292 
 ZAR  HZ I        1337 24.16         1.9 0.36            122            208 292 
                                                                                
