 2015 1230 1702 38.4 L   6.703 -73.192140.0  RSN  8 0.5 1.8LRSN                1
 GAP=225        0.95       6.7     6.7  9.5  0.1962E+02  0.3939E+01  0.2242E+02E
 Epicentro: VILLANUEVA - SANTANDER                                             3
 ACTION:UPD 16-02-04 15:09 OP:cam  STATUS:               ID:20151230170238 L   I
 OLDACT:DUP 15-12-30 21:52 OP:dnl  STATUS:               ID:20151230165751d    3
 OLDACT:UP  15-12-30 21:49 OP:dnl  STATUS:               ID:20151230165750     3
 OLDACT:REG 15-12-30 20:25 OP:dnl  STATUS:               ID:20151230165750     3
 2015-12-30-1657-50M.COL___334                                                 6
 STAT SP IPHASW D HRMM SECON CODA AMPLIT PERI AZIMU VELO AIN AR TRES W  DIS CAZ7
 BAR2 EZ EP       17 2 56.74                             175   -0.4510 12.3 175 
 BAR2 EZ ES   2   17 3 11.27                             175   -0.55 5 12.3 175 
 BAR2 EZ I        17 3 14.50        10.3 0.24            167           12.3 175 
 BRR  HZ EP       17 2 58.66                             151   -0.3910 72.8 308 
 BRR  HN ES       17 3 15.92                             151    0.7810 72.8 308 
 BRR  HZ I        17 3 20.20        11.7 0.12            151           72.8 308 
 RUS  HZ EP   2   17 3  1.14                             146    0.25 5 90.5 172 
 RUS  HE ES   2   17 3 18.89                             146    0.48 5 90.5 172 
 RUS  HZ I        17 3 20.69         8.0 0.28            143           90.5 172 
 PTB  HZ EP   2   17 3  4.62                             133    0.30 5  141 263 
 PTB  HE ES       17 3 24.21                             133   -0.30 9  141 263 
 PTB  HZ I        17 3 27.45         6.0 0.09            131            141 263 
 ZAR  HE ES       17 3 35.36                             122   -0.10 9  204 295 
 ZAR  HZ I        17 3 40.86         8.4 0.25            122            204 295 
 NOR  HE ES   3   17 3 38.78                             119   -0.69 2  224 236 
 NOR  HZ I        17 3 45.55         5.6 0.17            118            224 236 
 CHI  HZ EP       17 3 15.11                             118    0.56 8  237 195 
 CHI  HE ES   2   17 3 42.36                             118   -0.35 4  237 195 
 CHI  HZ I        17 3 52.78         1.8 0.21            117            237 195 
 SML  HZ EP   4   17 3 13.34                             116   -2.25 0  251 337 
 SML  HN ES   4   17 3 41.74                             116   -2.83 0  251 337 
 SML  HZ I        17 3 43.82         9.5 0.12            119            251 337 
                                                                                
