 2013  630 1848 32.1 L   6.756 -73.146145.3  RSN  6 0.5 1.9LRSN                1
 GAP=138        0.98       5.6     5.6  8.4 -0.2336E+01  0.2291E+01  0.2974E+00E
 Epicentro: LOS SANTOS - SANTANDER                                             3
 ACTION:UPD 14-01-08 09:58 OP:ep   STATUS:               ID:20130630184832 L   I
 OLDACT:REG 13-06-30 20:04 OP:carl STATUS:               ID:20130630184648     3
 2013-06-30-1846-48M.COL___229                                                 6
 STAT SP IPHASW D HRMM SECON CODA AMPLIT PERI AZIMU VELO AIN AR TRES W  DIS CAZ7
 BAR2 SZ EP   1   1848 51.86                             172    0.27 7 18.5 192 
 BAR2 SZ ES   1   1849  6.00                             172   -0.79 7 18.5 192 
 BAR2 SZ I        1849  9.65        11.1 0.18            173           18.5 192 
 GIR2 SZ ES   2   1849  7.79                             165    0.52 5 36.1 352 
 BRR  HZ EP   1   1848 53.61                             152    0.27 7 73.6 302 
 BRR  HN ES   1   1849 10.83                             152    0.93 7 73.6 302 
 BRR  HN I        1849 11.63        31.9 0.26            153           73.6 302 
 PAM  SZ EP       1848 54.39                             149   -0.1110 81.2  37 
 PAM  SN ES   1   1849 11.55                             149   -0.42 7 81.2  37 
 PAM  SZ I        1849 12.67         6.9 0.18            152           81.2  37 
 RUS  HZ EP       1848 55.74                             145    0.2710 95.7 176 
 RUS  HN ES       1849 13.81                             145    0.1310 95.7 176 
 PTB  HZ EP   1   1848 58.38                             132   -0.57 7  147 261 
 PTB  HN ES       1849 19.56                             132   -0.33 9  147 261 
 PTB  HN I        1849 20.86        20.1 0.24            134            147 261 
                                                                                
