 2011  730 1001 46.6 L   6.763 -73.125146.0  RSN  6 0.4 1.7LRSN                1
 GAP=185        0.62       3.4     7.5  5.9  0.3672E+01 -0.2317E+00 -0.1581E+01E
 Epicentro: LOS SANTOS - SANTANDER                                             3
 ACTION:UPD 12-07-25 14:04 OP:epov STATUS:               ID:20110730100146 L   I
 2011-07-30-1000-00M.COL___143                                                 6
 STAT SP IPHASW D HRMM SECON CODA AMPLIT PERI AZIMU VELO AIN AR TRES W  DIS CAZ7
 BAR2 SZ EP   1   10 2  6.13                             172   -0.11 7 19.9 198 
 BAR2 SZ ES   1   10 2 21.73                             172    0.21 7 19.9 198 
 BAR2 SZ I        10 2 22.99        18.2 0.19                          19.9 198 
 BRR  HZ EP   1   10 2  8.12                             151    0.07 7 75.2 300 
 BRR  HZ I        10 2  8.39        20.5 0.14                          75.2 300 
 BRR  HN ES   1   10 2 25.15                             151    0.41 7 75.2 300 
 RUS  HZ EP   1   10 2 10.17                             145    0.05 7 96.4 177 
 RUS  HN ES   1   10 2 28.13                             145   -0.30 7 96.4 177 
 RUS  HZ I        10 2 30.11         3.5 0.34                          96.4 177 
 OCA  SZ EP   1   10 2 15.30                             129   -0.08 7  165 353 
 OCA  SZ ES   1   10 2 37.42                             129   -0.37 7  165 353 
 OCA  SZ I        10 2 41.14         5.7 0.36                           165 353 
 NOR  SN ES   2   10 2 49.39                             118   -0.79 4  234 236 
 PRA  HZ EP   1   10 2 40.72                             107    0.83 4  390 210 
                                                                                
