 2017  830 1127 29.7 L   6.838 -73.035139.5  RSN  5 0.5 1.4LRSN                1
 GAP=251        1.23       7.4     8.7  8.8  0.3100E+02  0.2201E+02  0.4158E+01E
 Epicentro: CEPITA - SANTANDER                                                 3
 ACTION:UPD 17-09-04 20:26 OP:rebc STATUS:               ID:20170830112729 L   I
 OLDACT:REG 17-08-30 20:24 OP:dhb  STATUS:               ID:20170830111743     3
 2017-08-30-1118-00M.COL___395                                                 6
 STAT SP IPHASW D HRMM SECON CODA AMPLIT PERI AZIMU VELO AIN AR TRES W  DIS CAZ7
 BAR2 EZ EP       1127 48.88                             167    0.0710 31.7 211 
 BAR2 EZ ES       1128  3.95                             167    0.2610 31.7 211 
 BAR2 EZ I        1128  5.40         7.8 0.13            163           31.7 211 
 BRR  HZ IP     C 1127 50.57                             148   -0.2010 80.5 292 
 BRR  HN ES       1128  7.77                             148    0.5910 80.5 292 
 BRR  HZ I        1128 10.59         5.4 0.35            147           80.5 292 
 RUS  HZ EP       1127 53.25                             141    0.0810  105 183 
 RUS  HN ES       1128 10.77                             141   -0.6910  105 183 
 RUS  HZ I        1128 13.58         3.4 0.30            142            105 183 
 ZAR  HZ EP       1128  3.13                             120    0.32 8  214 290 
 ZAR  HE ES       1128 27.47                             120   -1.15 8  214 290 
 ZAR  HZ I        1128 32.08         1.9 0.20            120            214 290 
 NOR  HZ EP       1128  6.76                             116    0.30 8  247 235 
 NOR  HE ES       1128 35.56                             116    0.45 8  247 235 
 NOR  HZ I        1128 39.06         1.6 0.36            116            247 235 
                                                                                
