 2015  830 1252  6.7 L   6.802 -73.082150.3  RSN  8 0.4 1.8LRSN                1
 GAP=170        0.85       3.4     5.1  6.4 -0.6027E+01  0.6484E+01 -0.2653E+01E
 Epicentro: LOS SANTOS - SANTANDER                                             3
 ACTION:UPD 15-09-15 23:06 OP:cam  STATUS:               ID:20150830125206 L   I
 OLDACT:REG 15-08-30 21:43 OP:spq  STATUS:               ID:20150830124749     3
 2015-08-30-1247-49M.COL___361                                                 6
 STAT SP IPHASW D HRMM SECON CODA AMPLIT PERI AZIMU VELO AIN AR TRES W  DIS CAZ7
 BAR2 EZ EP       1252 27.01                             170    0.0910 25.7 205 
 BAR2 EZ ES   1   1252 42.62                             170   -0.07 7 25.7 205 
 BAR2 EZ I        1252 43.18         8.0 0.28            169           25.7 205 
 PAM  EE ES   1   1252 47.03                             153    0.39 7 72.9  35 
 PAM  EZ I        1252 49.36        13.2 0.34            155           72.9  35 
 BRR  HZ EP       1252 29.01                             151    0.3310 77.3 296 
 BRR  HE ES       1252 46.03                             151    0.2010 77.3 296 
 BRR  HZ I        1252 48.96         6.9 0.20            149           77.3 296 
 OCA  HZ EP       1252 35.63                             130    0.21 9  161 351 
 OCA  HE ES       1252 56.95                             130   -0.89 9  161 351 
 OCA  HZ I        1253  1.82        11.0 0.37            131            161 351 
 SPBC HZ EP   1   1252 35.98                             129   -0.00 7  168 221 
 SPBC HE ES       1252 58.34                             129   -0.49 9  168 221 
 SPBC HZ I        1253  2.94         8.5 0.25            131            168 221 
 ZAR  HN ES       1253  6.45                             122    0.31 8  210 291 
 ZAR  HZ I        1253 12.81         6.2 0.28            123            210 291 
 NOR  HE ES       1253 11.87                             119   -0.01 8  241 235 
 NOR  HZ I        1253 14.05         4.5 0.14            120            241 235 
 SML  HZ EP       1252 43.67                             118   -0.20 8  246 334 
 SML  HE ES   1   1253 13.09                             118    0.22 6  246 334 
 SML  HZ I        1253 16.11         7.4 0.24            119            246 334 
                                                                                
