 2016  430 1846 19.9 L   6.797 -73.163140.0  RSN  8 0.3 2.5LRSN                1
 GAP=134        0.80       2.6     3.8  5.4 -0.3306E+01  0.1023E+02 -0.1811E+01E
 Epicentro: LOS SANTOS - SANTANDER                                             3
 ACTION:UPD 16-05-05 14:25 OP:rebc STATUS:               ID:20160430184619 L   I
 OLDACT:DUP 16-04-30 22:51 OP:cara STATUS:               ID:20160430183754d    3
 2016-04-30-1838-00M.COL___267                                                 6
 STAT SP IPHASW D HRMM SECON CODA AMPLIT PERI AZIMU VELO AIN AR TRES W  DIS CAZ7
 BAR2 EZ IP       1846 38.73                             170   -0.1010 22.8 185 
 BAR2 HN ES       1846 53.94                             170    0.3510 22.8 185 
 BAR2 EZ I        1846 54.90       104.6 0.16            171           22.8 185 
 PAM  EZ EP       1846 41.43                             149   -0.1710 78.8  40 
 PAM  EE ES       1846 58.66                             149    0.1410 78.8  40 
 PAM  EZ I        1847  0.65        50.9 0.50            153           78.8  40 
 RUS  HZ IP       1846 42.66                             143   -0.4210  100 175 
 RUS  HN ES       1847  1.13                             143   -0.0310  100 175 
 RUS  HZ I        1847  2.28        46.0 0.32            147            100 175 
 OCA  HZ EP       1846 48.32                             128    0.54 9  160 354 
 OCA  HE ES       1847  9.32                             128   -0.20 9  160 354 
 OCA  HZ I        1847 12.93        91.1 0.16            130            160 354 
 SPBC HZ EP       1846 47.98                             128    0.15 9  162 219 
 SPBC HN ES       1847  9.17                             128   -0.44 9  162 219 
 SPBC HZ I        1847 15.33        49.1 0.10            130            162 219 
 ZAR  HZ EP       1846 51.48                             121   -0.33 9  202 292 
 ZAR  HN ES       1847 16.44                             121   -0.25 9  202 292 
 ZAR  HZ I        1847 22.83        32.4 0.34            123            202 292 
 NOR  HZ EP       1846 54.93                             117   -0.19 8  233 234 
 NOR  HE ES       1847 22.96                             117    0.37 8  233 234 
 NOR  HZ I        1847 24.07        21.5 0.18            120            233 234 
 GUY2CHZ EP       1847  3.73                             111    0.67 7  299 235 
 GUY2CHE ES       1847 37.01                             111    0.30 7  299 235 
 GUY2CHZ I        1847 45.08        10.4 0.40                           299 235 
                                                                                
