 2014  430 1152 32.9 L   6.804 -73.149141.8  RSN  6 0.4 1.8LRSN                1
 GAP=136        0.97       4.4     4.7  9.1 -0.2770E+01  0.1788E+02 -0.1240E+02E
 Epicentro: LOS SANTOS - SANTANDER                                             3
 ACTION:UPD 14-05-13 20:50 OP:nd   STATUS:               ID:20140430115233dL   I
 OLDACT:UP  14-04-30 21:45 OP:mher STATUS:               ID:20140430115001d    3
 OLDACT:DUP 14-04-30 21:45 OP:mher STATUS:               ID:20140430115001d    3
 OLDACT:UP  14-04-30 21:43 OP:mher STATUS:               ID:20140430115000     3
 OLDACT:UP  14-04-30 21:42 OP:mher STATUS:               ID:20140430115000     3
 OLDACT:REG 14-04-30 20:08 OP:mh   STATUS:               ID:20140430115000     3
 2014-04-30-1150-00M.COL___270                                                 6
 STAT SP IPHASW D HRMM SECON CODA AMPLIT PERI AZIMU VELO AIN AR TRES W  DIS CAZ7
 PAM  SZ EP       1152 54.98                             150    0.2510 77.3  40 
 PAM  SN ES       1153 11.55                             150   -0.1710 77.3  40 
 PAM  SZ I        1153 14.65        11.3 0.57            154           77.3  40 
 RUS  HZ EP   1   1152 56.60                             143    0.26 7  101 176 
 RUS  HN ES       1153 14.73                             143    0.1310  101 176 
 PTB  HZ EP       1152 59.05                             131   -0.51 9  147 259 
 PTB  HN ES       1153 19.81                             131   -0.51 9  147 259 
 PTB  HZ I        1153 23.15         7.6 0.11            132            147 259 
 ZAR  HZ EP       1153  5.30                             121    0.23 9  203 292 
 ZAR  HN ES       1153 31.10                             121    0.97 9  203 292 
 ZAR  HZ I        1153 37.20         8.4 0.34            123            203 292 
 NOR  HZ EP   4   1153  9.84                             118    1.40 0  235 234 
 NOR  HE ES   2   1153 36.00                             118   -0.13 4  235 234 
 NOR  HZ I        1153 41.08         3.7 0.11            120            235 234 
 SML  HZ EP       1153  9.03                             117   -0.25 8  243 335 
 SML  HE ES   1   1153 37.20                             117   -0.42 6  243 335 
