 2015  530 1322 13.2 L   6.808 -73.110143.8  RSN 17 0.4 2.4LRSN                1
 GAP=141        0.80       2.2     3.2  4.6 -0.1115E+01  0.5288E+01  0.1630E+01E
 Epicentro: LOS SANTOS - SANTANDER                                             3
 ACTION:UPD 15-09-10 22:08 OP:cam  STATUS:               ID:20150530132213 L   I
 OLDACT:REG 15-05-30 21:15 OP:spq  STATUS:               ID:20150530131750     3
 2015-05-30-1317-50M.COL___315                                                 6
 STAT SP IPHASW D HRMM SECON CODA AMPLIT PERI AZIMU VELO AIN AR TRES W  DIS CAZ7
 BAR2 EZ EP     C 1322 32.58                             170   -0.0210 25.1 198 
 BAR2 EZ ES   1   1322 47.35                             170   -0.40 7 25.1 198 
 BAR2 EZ I        1322 48.66        63.4 0.16            171           25.1 198 
 PAM  SZ EP       1322 35.43                             151    0.4410 74.3  38 
 PAM  SN ES       1322 52.32                             151    0.3110 74.3  38 
 PAM  SZ I        1322 56.88        30.5 0.40            147           74.3  38 
 BRR  HZ EP     C 1322 34.47                             151    0.1910 74.3 297 
 BRR  HN ES       1322 51.24                             151    0.4910 74.3 297 
 BRR  HZ I        1322 55.49        45.2 0.08            150           74.3 297 
 RUS  HZ EP       1322 36.57                             143   -0.2010  101 178 
 RUS  HN ES       1322 55.10                             143   -0.0810  101 178 
 RUS  HZ I        1322 56.79        21.4 0.30            142            101 178 
 OCA  HZ EP   1   1322 40.94                             129   -0.35 7  160 352 
 OCA  HN ES       1323  2.56                             129   -0.67 9  160 352 
 OCA  HZ I        1323 10.42        55.3 0.50            126            160 352 
 SPBC HZ EP       1322 41.59                             128   -0.23 9  166 220 
 SPBC HE ES   1   1323  4.09                             128   -0.07 7  166 220 
 SPBC HZ I        1323  8.61        28.4 0.22            127            166 220 
 ZAR  HZ EP   1   1322 46.09                             121    0.26 6  207 292 
 ZAR  HN ES       1323 11.39                             121    0.09 8  207 292 
 ZAR  HZ I        1323 17.27        31.3 0.30            119            207 292 
 NOR  HZ EP       1322 49.12                             118   -0.06 8  238 235 
 NOR  HE ES       1323 16.65                             118   -0.62 8  238 235 
 NOR  HZ I        1323 22.22        20.0 0.20            116            238 235 
 SML  HZ EP   1   1322 48.88                             117   -0.90 6  245 334 
 SML  HN ES   1   1323 18.13                             117   -0.21 6  245 334 
 SML  HZ I        1323 24.69        17.9 0.28            114            245 334 
 CHI  HZ EP   1   1322 51.21                             116    0.25 6  251 196 
 CHI  HN ES   1   1323 20.13                             116   -0.31 6  251 196 
 CHI  HZ I        1323 26.57        11.1 0.82            115            251 196 
 HEL  HZ EP   4   1322 54.98                             114    1.26 0  276 256 
 HEL  HE ES   1   1323 25.34                             114   -0.02 6  276 256 
 HEL  HZ I        1323 31.59        13.5 0.30            112            276 256 
 GUY2CHZ EP   1   1322 57.92                             112    0.82 5  305 235 
 GUY2CHE ES   1   1323 31.48                             112    0.11 5  305 235 
 GUY2CHZ I        1323 38.02        16.1 0.26                           305 235 
 CBOC HZ EP   1   1323  1.43                             109    0.97 5  338 252 
 CBOC HN ES       1323 37.61                             109    0.27 7  338 252 
 CBOC HZ I        1323 39.80         5.0 0.38            108            338 252 
 TOL  SZ EP   4   1323  2.86                             109    1.13 0  347 225 
 TOL  SN ES   1   1323 39.53                             109   -0.08 5  347 225 
 TOL  SZ I        1323 48.60         7.4 0.54            107            347 225 
 MON  HZ EP   4   1323  0.60                             108   -1.79 0  356 308 
 MON  HN ES   4   1323 39.41                             108   -1.37 0  356 308 
 MON  HZ I        1323 39.70         4.4 0.18            106            356 308 
 PRA  HZ EP   1   1323  7.09                             106    0.16 4  395 210 
 PRA  HN ES   1   1323 48.61                             106   -0.26 4  395 210 
 PRA  HZ I        1323 55.01         8.8 0.26            104            395 210 
 ORTC HZ EP   1   1323  8.14                             106    0.77 4  398 217 
 ORTC HN ES   4   1323 50.90                             106    1.25 0  398 217 
 ORTC HZ I        1323 54.52         9.3 0.50            104            398 217 
                                                                                
