 2012  630 1535 13.8 L   6.812 -73.151150.4  RSN 19 0.4 3.2LRSN 3.8WRSN        1
 SPEC AVERAGE  MO 14.8 ST 23.1 OM  3.4 f0 2.99 R0.6121 AL 2.18 WI 43.4 MW  3.8 3
 SPEC SD       MO  0.2 ST 27.1 OM  0.7 f00.687 R0.1824 AL      WI      MW  0.1 3
 GAP= 56        0.80       2.6     2.8  4.3 -0.7454E+00  0.1915E+01  0.6962E+00E
 Epicentro: LOS SANTOS - SANTANDER                                             3
 SPEC OCA HH N MO 15.0 ST 24.5 OM  3.3 f0 2.74 R0.5672 AL 2.11 WI 50.2 MW  3.9 3
 SPEC OCA HH N T1536 2 K 0.000 GD  218 VS 4.20 DE 3.00 Q0230.0 QA 0.60 VS 4.20 3
 SPEC PTB HH N MO 14.6 ST 10.0 OM  2.9 f0 2.80 R0.5550 AL 1.80 WI 45.0 MW  3.7 3
 SPEC PTB HH N T1536 1 K 0.000 GD  210 VS 4.20 DE 3.00 Q0230.0 QA 0.60 VS 4.20 3
 SPEC COD HH N MO 14.6 ST  8.6 OM  2.7 f0 2.55 R0.6094 AL 1.26 WI 59.6 MW  3.7 3
 SPEC COD HH N T153637 K 0.000 GD  378 VS 4.20 DE 3.00 Q0230.0 QA 0.60 VS 4.20 3
 SPEC HEL HH Z MO 14.6 ST  2.1 OM  2.0 f0 2.92 R0.9630 AL 2.20 WI 32.2 MW  3.7 3
 SPEC HEL HH Z T153553 K 0.000 GD  310 VP 7.60 DE 3.00 Q0230.0 QA 0.60 VS 4.20 3
 SPEC CHI HH N MO 14.8 ST 11.9 OM  3.0 f0 2.46 R0.6317 AL 2.74 WI 47.5 MW  3.8 3
 SPEC CHI HH N T153620 K 0.000 GD  291 VS 4.20 DE 3.00 Q0230.0 QA 0.60 VS 4.20 3
 SPEC BRR HH N MO 14.9 ST 81.8 OM  3.3 f0 4.49 R0.3461 AL 3.00 WI 26.0 MW  3.9 3
 SPEC BRR HH N T153552 K 0.000 GD  165 VS 4.20 DE 3.00 Q0230.0 QA 0.60 VS 4.20 3
 ACTION:UP  12-08-06 17:53 OP:ep   STATUS:               ID:20120630153513 L   I
 2012-06-30-1530-00M.COL___201                                                 6
 STAT SP IPHASW D HRMM SECON CODA AMPLIT PERI AZIMU VELO AIN AR TRES W  DIS CAZ7
 BAR2 SZ IP       1535 34.04                             170    0.0510 24.6 188 
 BAR2 SZ ES   1   1535 49.41                             170   -0.34 7 24.6 188 
 BAR2 SZ I        1535 50.77       271.7 0.24                          24.6 188 
 BRR  HZ IP     D 1535 35.96                             154    0.5910 70.0 298 
 BRR  HZ I        1535 37.30       312.0 0.12                          70.0 298 
 BRR  HN ES   1   1535 53.06                             154    0.86 7 70.0 298 
 PAM  SZ IP       1535 36.81                             152    0.3610 76.7  41 
 PAM  SE ES   1   1535 54.18                             152    0.05 7 76.7  41 
 PAM  SZ I        1535 55.89       138.8 0.46                          76.7  41 
 RUS  HZ IP     D 1535 37.91                             144   -0.1810  102 176 
 RUS  HE ES   1   1535 56.73                             144   -0.31 7  102 176 
 RUS  HZ I        1535 59.19       128.5 0.48                           102 176 
 PTB  HZ EP       1535 40.52                             133   -0.58 9  147 258 
 PTB  HN ES   1   1536  1.63                             133   -0.78 7  147 258 
 PTB  HZ I        1536  7.85       171.4 0.26                           147 258 
 TAM  HZ IP     D 1535 42.21                             131    0.30 9  156 105 
 TAM  HN ES   1   1536  3.79                             131   -0.06 7  156 105 
 OCA  HZ EP       1535 42.28                             131   -0.04 9  159 353 
 OCA  HN ES   1   1536  4.07                             131   -0.51 7  159 353 
 OCA  HZ I        1536  9.84       394.2 0.24                           159 353 
 YOP  SZ EP       1535 44.45                             127    0.15 9  180 153 
 ZAR  HZ EP       1535 46.59                             124    0.17 9  203 292 
 ZAR  HZ I        1536 18.27       240.3 0.36                           203 292 
 NOR  SZ EP       1535 49.80                             119   -0.01 8  235 234 
 NOR  SE ES   1   1536 18.29                             119    0.37 6  235 234 
 CHI  HZ EP       1535 51.93                             118    0.07 8  250 195 
 CHI  HN ES   1   1536 21.03                             118   -0.53 6  250 195 
 CHI  HZ I        1536 27.22        69.4 0.28                           250 195 
 HEL  HZ EP       1535 53.97                             116   -0.23 8  272 255 
 HEL  HN ES   2   1536 25.98                             116    0.25 4  272 255 
 HEL  HZ I        1536 32.84       104.4 0.30                           272 255 
 URE  HZ EP   3   1535 53.92                             115   -1.04 2  283 292 
 GUY  SZ EP   3   1535 58.08                             113    0.18 2  304 235 
 GUY  SN ES   3   1536 33.71                             113    1.40 2  304 235 
 GUY  SZ I        1536 41.46       157.8 0.36                           304 235 
 VIL  SZ EP   2   1535 57.19                             113   -0.35 4  305 191 
 VIL  SN ES   1   1536 31.78                             113    0.10 5  305 191 
 VIL  SZ I        1536 38.82        46.4 0.56                           305 191 
 DBB  SZ EP       1536  1.75                             110    0.38 7  339 274 
 TOL  SZ EP       1536  2.58                             110    0.29 7  344 224 
 COD  HZ EP       1536  1.80                             110   -0.38 6  347 355 
 COD  HZ I        1536 46.17        42.3 0.40                           347 355 
 SDV  BZ EP       1536  3.21                             109   -0.74 6  360  50 
                                                                                
