 2015 1130 1843 18.4 L   6.762 -73.142143.3  RSN 11 0.4 2.1LRSN                1
 GAP=139        0.92       3.0     4.1  5.6 -0.1480E+01  0.6896E+01  0.2347E+01E
 Epicentro: LOS SANTOS - SANTANDER                                             3
 ACTION:UPD 15-12-28 16:14 OP:cam  STATUS:               ID:20151130184318 L   I
 OLDACT:UP  15-12-01 11:00 OP:ak   STATUS:               ID:20151130184318 L   3
 OLDACT:UP  15-12-01 01:43 OP:mh   STATUS:               ID:20151130183748d    3
 OLDACT:DUP 15-12-01 01:32 OP:mh   STATUS:               ID:20151130183748d    3
 OLDACT:UP  15-12-01 01:27 OP:mh   STATUS:               ID:20151130183747     3
 OLDACT:REG 15-11-30 22:52 OP:mh   STATUS:               ID:20151130183747     3
 2015-11-30-1837-47M.COL___313                                                 6
 STAT SP IPHASW D HRMM SECON CODA AMPLIT PERI AZIMU VELO AIN AR TRES W  DIS CAZ7
 BAR2 EZ EP       1843 37.56                             172   -0.1310 19.2 193 
 BAR2 EZ ES       1843 52.27                             172   -0.4410 19.2 193 
 BAR2 EZ I        1843 53.58        28.9 0.32            170           19.2 193 
 BRR  HZ EP       1843 39.24                             151   -0.2210 73.6 301 
 BRR  HZ I        1843 44.20        25.8 0.38            147           73.6 301 
 BRR  HN ES       1843 56.49                             151    0.6310 73.6 301 
 PAM  EZ EP       1843 40.46                             149   -0.1110 80.5  37 
 PAM  EN ES       1843 57.60                             149   -0.2510 80.5  37 
 PAM  EZ I        1843 59.57        29.8 0.50            151           80.5  37 
 RUS  HZ EP       1843 41.43                             144   -0.2010 96.3 176 
 RUS  HN ES       1844  0.34                             144    0.6110 96.3 176 
 RUS  HZ I        1844  1.73         8.9 0.42            146           96.3 176 
 SPBC HZ EP       1843 46.56                             129    0.11 9  160 220 
 SPBC HN ES       1844  8.17                             129   -0.14 9  160 220 
 SPBC HZ I        1844 11.65        17.6 0.10            128            160 220 
 OCA  HN ES       1844  9.54                             128    0.33 9  165 353 
 OCA  HZ I        1844 12.17        32.5 0.48            128            165 353 
 ZAR  HZ EP   1   1843 50.95                             122    0.03 6  206 293 
 ZAR  HN ES       1844 15.87                             122   -0.40 8  206 293 
 ZAR  HZ I        1844 21.39         9.3 0.42            120            206 293 
 NOR  HZ EP   1   1843 53.75                             118   -0.04 6  233 235 
 NOR  HN ES       1844 20.92                             118   -0.45 8  233 235 
 NOR  HZ I        1844 27.37         7.9 0.24            117            233 235 
 SML  HZ EP   9   1843 53.57                             116   -1.79 0  248 336 
 SML  HN ES       1844 22.33                             116   -0.04 8  248 336 
 SML  HZ I        1844 25.75        18.0 0.48            116            248 336 
 URE  HZ EP   4   1844  2.62                             113    3.02 0  286 293 
 URE  HN ES   4   1844 33.35                             113    1.63 0  286 293 
 URE  HZ I        1844 40.34         8.9 0.25            112            286 293 
 GUY2CHZ EP       1844  2.56                             112    0.87 7  299 235 
 GUY2CHN ES   4   1844 38.94                             112    3.51 0  299 235 
 GUY2CHZ I        1844 41.45         4.5 0.32                           299 235 
 ANIL HE ES   4   1844 48.56                             108    2.21 0  355 225 
                                                                                
