 2013  330 1807 21.7 L   6.745 -73.157154.0  RSN  7 0.5 2.2LRSN                1
 GAP=181        0.94       6.9     6.6  6.7  0.2628E+02  0.5417E+01 -0.5018E+01E
 Epicentro: JORDAN - SANTANDER                                                 3
 ACTION:UPD 13-04-09 14:05 OP:ep   STATUS:               ID:20130330180721 L   I
 2013-03-30-1800-00M.COL___245                                                 6
 STAT SP IPHASW D HRMM SECON CODA AMPLIT PERI AZIMU VELO AIN AR TRES W  DIS CAZ7
 BAR2 SZ EP       18 7 42.03                             173   -0.1710 17.1 189 
 BAR2 SZ ES       18 7 57.90                             173   -0.3010 17.1 189 
 BAR2 SZ I        18 7 58.68        28.1 0.36            167           17.1 189 
 GIR2 SZ EP       18 7 42.29                             166   -0.2110 37.1 354 
 BRR  HZ IP     C 18 7 43.89                             153    0.0510 73.2 303 
 BRR  HE ES       18 8  1.83                             153    0.7210 73.2 303 
 BRR  HE I        18 8  2.11        35.9 0.24            152           73.2 303 
 RUS  HZ EP       18 7 45.93                             147    0.0810 94.6 175 
 RUS  HN ES       18 8  4.88                             147    0.1810 94.6 175 
 RUS  HN I        18 8  7.10        11.8 0.66            145           94.6 175 
 PTB  HZ EP       18 7 48.95                             134   -0.18 9  145 261 
 PTB  HN ES   1   18 8 10.10                             134   -0.44 7  145 261 
 PTB  HN I        18 8 15.40        33.2 0.46            132            145 261 
 ZAR  HZ EP       18 7 54.73                             124   -0.07 8  205 294 
 ZAR  HE ES       18 8 20.33                             124   -0.29 8  205 294 
 HEL  HZ EP   2   18 8  3.94                             117    1.91 4  269 257 
                                                                                
