 2010 1030 1144 44.2 L   6.802 -73.088148.2  RSN  5 0.2 1.6LRSN                1
 GAP=165        0.42       3.2     6.9  6.0 -0.2007E+01 -0.1270E+02 -0.3492E+01E
 Epicentro: LOS SANTOS - SANTANDER                                             3
 ACTION:UP  11-02-18 11:13 OP:tino STATUS:               ID:20101030114444 L   I
 2010-10-30-1144-10S.COL___127                                                 6
 STAT SP IPHASW D HRMM SECON CODA AMPLIT PERI AZIMU VELO SNR AR TRES W  DIS CAZ7
 BAR2 SZ EP   1   1145  4.11                             170    -0.1 7   26 205 
 BAR2 SZ I        1145  4.50         7.4 0.82                            26 205 
 BAR2 SZ ES   2   1145 20.02                             170     0.3 5   26 205 
 BRR  HZ EP   1   1145  5.94                             151     0.0 7   77 296 
 BRR  HN ES   2   1145 22.85                             151     0.0 5   77 296 
 BRR  HZ I        1145 26.78        11.6 0.60                            77 296 
 RUS  HZ EP   1   1145  8.25                             144     0.1 7  101 180 
 RUS  HZ I        1145  9.03         2.6 0.32                           101 180 
 RUS  HN ES   2   1145 26.67                             144    -0.2 5  101 180 
 GUE  SZ EP   1   1145  8.80                             140    -0.2 7  115   9 
 GRA  SZ EP   1   1145  9.77                             138     0.3 7  124  15 
 GRA  SZ ES   2   1145 29.11                             138    -0.1 5  124  15 
 GRA  SZ I        1145 30.54         7.9 0.27                           124  15 
                                                                                
