 2012  530 1332 42.6 L   6.843 -73.155143.6  RSN 10 0.2 2.5LRSN                1
 GAP=133        0.60       2.3     2.6  4.0 -0.1166E+01  0.3840E+01  0.9113E+00E
 Epicentro: LOS SANTOS - SANTANDER                                             3
 ACTION:UP  12-07-05 12:09 OP:pat  STATUS:               ID:20120530133242 L   I
 2012-05-30-1330-00M.COL___200                                                 6
 STAT SP IPHASW D HRMM SECON CODA AMPLIT PERI AZIMU VELO AIN AR TRES W  DIS CAZ7
 BAR2 SZ EP       1333  2.29                             168     0.210   28 186 
 BAR2 SZ I        1333  2.62        68.4 0.12                            28 186 
 BAR2 SZ ES       1333 17.42                             168     0.110   28 186 
 PAM  SZ EP       1333  4.80                             151     0.410   74  42 
 PAM  SN ES       1333 21.28                             151    -0.210   74  42 
 RUS  HZ EP       1333  6.45                             142    -0.110  105 176 
 RUS  HN ES   1   1333 24.98                             142    -0.2 7  105 176 
 RUS  HZ I        1333 28.85        20.0 0.46                           105 176 
 PTB  HZ EP       1333  8.97                             131    -0.4 9  148 257 
 PTB  HE ES       1333 30.30                             131     0.0 9  148 257 
 PTB  HZ I        1333 31.69        39.6 0.28                           148 257 
 OCA  HZ EP   1   1333 10.23                             130    -0.1 7  155 353 
 OCA  HE ES   1   1333 31.58                             130    -0.3 7  155 353 
 OCA  HZ I        1333 36.13        87.9 0.23                           155 353 
 ZAR  HZ EP   1   1333 14.78                             122     0.1 6  201 291 
 ZAR  HE ES   1   1333 39.52                             122    -0.1 6  201 291 
 ZAR  HZ I        1333 45.85        75.8 0.31                           201 291 
 NOR  SZ EP   1   1333 18.67                             118     0.2 6  237 233 
 NOR  SN ES   1   1333 46.33                             118     0.0 6  237 233 
 CHI  HZ EP   1   1333 20.75                             116     0.1 6  253 195 
 CHI  HN ES   1   1333 50.39                             116     0.0 6  253 195 
 CHI  HZ I        1333 56.66        10.5 0.37                           253 195 
 HEL  HZ EP   1   1333 23.02                             114     0.3 6  272 255 
 HEL  HN ES   1   1333 54.48                             114     0.4 6  272 255 
 HEL  HZ I        1334  1.39        28.7 0.30                           272 255 
 PRA  HZ EP   1   1333 35.93                             106    -0.6 4  396 209 
 PRA  HN ES   1   1334 18.23                             106    -0.3 4  396 209 
                                                                                
