 2017  930 1835 49.7 L   6.647 -74.091  6.5  RSN  9 0.8 1.6LRSN                1
 GAP=106        1.95       4.8     3.3  8.4 -0.2489E+01 -0.5375E+00  0.5314E+01E
 Epicentro: PUERTO PARRA - SANTANDER                                           3
 ACTION:UPD 17-10-05 19:18 OP:rebc STATUS:               ID:20170930183549 L   I
 OLDACT:REG 17-09-30 21:15 OP:osc  STATUS:               ID:20170930182745     3
 2017-09-30-1828-00M.COL___423                                                 6
 STAT SP IPHASW D HRMM SECON CODA AMPLIT PERI AZIMU VELO AIN AR TRES W  DIS CAZ7
 BAR2 EZ EP       1836  5.84                              92    0.0710  101  93 
 BAR2 EZ ES       1836 18.73                              92    0.4010  101  93 
 ZAR  HN ES       1836 23.82                              91   -0.9410  126 318 
 ZAR  HZ I        1836 27.19         9.8 0.26             47            126 318 
 RUS  HZ EP       1836 12.52                              91    0.64 9  139 127 
 RUS  HN ES       1836 28.27                              91   -0.94 9  139 127 
 RUS  HZ I        1836 32.43         7.6 0.20             47            139 127 
 NOR  HZ EP       1836 13.94                              91    1.27 9  148 216 
 NOR  HE ES       1836 29.90                              91   -0.72 9  148 216 
 NOR  HZ I        1836 33.31         3.8 0.12             47            148 216 
 HEL  HZ EP       1836 16.12                              91    0.20 9  167 252 
 HEL  HE ES       1836 36.03                              91   -0.37 9  167 252 
 HEL  HZ I        1836 36.69        14.0 0.34             47            167 252 
 PAM  EZ EP       1836 17.18                              56    0.41 9  172  63 
 PAM  EE ES       1836 37.73                              56   -0.18 9  172  63 
 PAM  EZ I        1836 39.97        10.4 0.20             47            172  63 
 GUY2CHZ EP       1836 22.40                              56    0.71 8  211 222 
 GUY2CHE ES       1836 47.29                              56    0.63 8  211 222 
 GUY2CHZ I        1836 50.23         3.3 0.46                           211 222 
 CHI  HE ES       1836 47.99                              56   -1.96 8  227 170 
 CHI  HZ I        1836 57.32         5.0 0.50             37            227 170 
 ELA  HZ EP   4   1836 31.22                              56    5.25 0  245 216 
 ELA  HE ES       1836 55.09                              56    0.80 8  245 216 
                                                                                
