 2011  130 1526 27.9 L   6.803 -73.229126.0  RSN  4 0.3 1.4LRSN                1
 GAP=185        0.67       6.5    26.7 10.7 -0.1247E+03  0.1036E+03 -0.3349E+02E
 Epicentro: ZAPATOCA - SANTANDER                                               3
 ACTION:UP  11-02-08 08:43 OP:pat  STATUS:               ID:20110130152627 L   I
 2011-01-30-1524-12S.COL___134                                                 6
 STAT SP IPHASW D HRMM SECON CODA AMPLIT PERI AZIMU VELO SNR AR TRES W  DIS CAZ7
 BAR2 SZ EP       1526 45.17                             169     0.010   24 168 
 BAR2 SZ ES   2   1526 58.52                             169    -0.2 5   24 168 
 BAR2 SZ I        1527  2.29        10.7 0.25                            24 168 
 RUS  HZ EP   2   1526 50.18                             140     0.3 5  102 171 
 RUS  HN ES   2   1527  7.27                             140     0.2 5  102 171 
 RUS  HZ I        1527  9.35         3.3 0.23                           102 171 
 GRA  SZ EP       1526 51.36                             132    -0.410  129  21 
 GRA  SZ ES   1   1527 10.67                             132     0.4 7  129  21 
 OCA  SZ EP   2   1526 55.28                             125     0.6 5  159 356 
                                                                                
