 2012 1130 1503  3.4 L   6.160 -73.712104.7  RSN  5 0.1 1.9LRSN                1
 GAP=116        0.35       2.6     2.0  4.1  0.5196E+00  0.1365E+01  0.4112E+01E
 Epicentro: LANDAZURI - SANTANDER                                              3
 ACTION:UPD 12-12-05 15:37 OP:}ep  STATUS:               ID:20121130150303 L   I
 2012-11-30-1500-00M.COL___236                                                 6
 STAT SP IPHASW D HRMM SECON CODA AMPLIT PERI AZIMU VELO AIN AR TRES W  DIS CAZ7
 BAR2 SZ EP       15 3 21.00                             141    0.0310 75.6  51 
 BAR2 SZ I        15 3 36.60        31.3 0.32                          75.6  51 
 RUS  HZ EP       15 3 21.21                             142   -0.1210 75.6 113 
 BAR2 SZ ES       15 3 34.67                             141    0.0010 75.6  51 
 RUS  HE ES   2   15 3 35.33                             142    0.02 5 75.6 113 
 PTB  HZ EP   1   15 3 21.83                             135   -0.21 7 92.4 297 
 PTB  HN ES   1   15 3 36.65                             135    0.09 7 92.4 297 
 PTB  HZ I        15 3 40.28        16.0 0.04                          92.4 297 
 GIR2 SZ EP       15 3 24.51                             128    0.0910  117  29 
 CHI  HZ EP   1   15 3 30.39                             117    0.17 7  169 181 
                                                                                
