 2011  130 2237 13.6 L   6.770 -73.154142.0  RSN  6 0.3 1.9LRSN                1
 GAP=158        0.80       3.3     8.3 10.2 -0.1363E+02  0.3050E+02 -0.3195E+01E
 Epicentro: LOS SANTOS - SANTANDER                                             3
 ACTION:UP  11-02-08 08:43 OP:pat  STATUS:               ID:20110130223713 L   I
 2011-01-30-2235-10S.COL___135                                                 6
 STAT SP IPHASW D HRMM SECON CODA AMPLIT PERI AZIMU VELO SNR AR TRES W  DIS CAZ7
 BAR2 SZ EP   1   2237 32.79                             172     0.1 8   20 189 
 BAR2 SZ I        2237 49.82        18.4 0.25                            20 189 
 RUS  HZ EP   1   2237 36.68                             144    -0.1 8   97 175 
 RUS  HN ES   1   2237 54.56                             144    -0.2 8   97 175 
 RUS  HZ I        2237 56.54        11.3 0.29                            97 175 
 GRA  SZ IP       2237 38.90                             135     0.110  129  17 
 GRA  SZ I        2237 40.22        16.1 0.13                           129  17 
 GRA  SZ ES   1   2237 59.11                             135     0.7 7  129  17 
 OCA  SZ EP   1   2237 41.73                             128    -0.2 7  163 354 
 OCA  SZ ES   1   2238  3.23                             128    -0.8 7  163 354 
 OCA  SZ I        2238 12.45        12.3 0.21                           163 354 
 NOR  SZ EP   1   2237 48.87                             118     0.0 6  232 235 
 NOR  SN ES   1   2238 16.73                             118     0.4 6  232 235 
 CHI  HZ EP   1   2237 50.61                             117    -0.1 6  245 195 
 CHI  HE ES       2238 19.59                             117    -0.1 8  245 195 
 CHI  HZ I        2238 22.28         2.6 0.38                           245 195 
                                                                                
