 2016  830 2101  8.5 L   6.527 -73.501114.7  RSN 13 0.5 2.0LRSN                1
 GAP= 68        1.17       2.9     3.9  6.8 -0.2510E+01  0.9919E+01 -0.5405E-01E
 Epicentro: EL CARMEN - SANTANDER                                              3
 ACTION:UPD 16-10-29 15:40 OP:rebc STATUS:               ID:20160830210108 L   I
 OLDACT:REG 16-08-31 04:47 OP:ak   STATUS:               ID:20160830205737     3
 2016-08-30-2058-00M.COL___362                                                 6
 STAT SP IPHASW D HRMM SECON CODA AMPLIT PERI AZIMU VELO AIN AR TRES W  DIS CAZ7
 BAR2 EZ IP     D 21 1 25.32                             161    0.5310 35.9  78 
 BAR2 EZ ES       21 1 37.61                             161    0.0910 35.9  78 
 BRR  HZ IP     C 21 1 26.13                             147   -0.0410 68.3 340 
 BRR  HE ES       21 1 40.10                             147    0.1310 68.3 340 
 RUS  HZ EP       21 1 28.23                             141    0.2410 84.0 147 
 RUS  HN ES       21 1 43.33                             141    0.1210 84.0 147 
 RUS  HZ I        21 1 46.46        11.8 0.19                          84.0 147 
 PTB  HZ IP     D 21 1 28.12                             134   -0.9910  106 271 
 PTB  HN ES   4   21 1 43.06                             134   -2.15 0  106 271 
 PTB  HZ I        21 1 44.42        32.1 0.25                           106 271 
 SPBC HZ EP       21 1 30.13                             131    0.0310  116 213 
 SPBC HN ES       21 1 46.95                             131   -0.0110  116 213 
 SPBC HZ I        21 1 53.90        31.3 0.17                           116 213 
 PAM  EZ EP       21 1 31.98                             129    0.3610  126  45 
 PAM  EE ES       21 1 48.73                             129   -0.9310  126  45 
 PAM  EZ I        21 1 51.36        19.7 0.18                           126  45 
 ZAR  HZ EP       21 1 37.62                             117    0.70 9  184 306 
 ZAR  HN ES       21 1 59.52                             117    0.41 9  184 306 
 ZAR  HZ I        21 2  2.89        22.7 0.27                           184 306 
 NOR  HZ EP       21 1 36.96                             117   -0.15 9  185 235 
 NOR  HN ES       21 1 58.67                             117   -0.76 9  185 235 
 NOR  HZ I        21 2  4.17         9.2 0.20                           185 235 
 OCA  HN ES       21 2  0.71                             116    0.06 9  190   6 
 CHI  HZ EP       21 1 39.94                             114   -0.51 8  211 187 
 CHI  HN ES       21 2  5.71                             114    0.33 8  211 187 
 CHI  HZ I        21 2 11.05         6.0 0.34                           211 187 
 GUY2CHZ EP   9   21 1 47.40                             109    2.30 0  252 235 
 GUY2CHE ES       21 2 15.54                                   -0.42 8  252 235 
 GUY2CHZ I        21 2 17.75         6.5 0.32                           252 235 
 ELA  HN ES       21 2 20.20                             107    0.66 7  280 229 
 SJC  HZ EP       21 2  3.97                              99   -0.05 5  416 334 
                                                                                
