 2013 1230 2356 53.6 L   7.196 -74.182 13.5  RSN 15 0.5 2.6LRSN                1
 GAP= 70        1.13       2.1     2.2  3.7 -0.2210E+00 -0.1300E+01  0.2261E+00E
 Epicentro: PUERTO WILCHES - SANTANDER                                         3
 ACTION:UPD 14-01-13 10:22 OP:ep   STATUS:               ID:20131230235653 L   I
 OLDACT:REG 13-12-30 21:12 OP:nd   STATUS:               ID:20131230235000     3
 2013-12-30-2350-00M.COL___285                                                 6
 STAT SP IPHASW D HRMM SECON CODA AMPLIT PERI AZIMU VELO AIN AR TRES W  DIS CAZ7
 BRR  HZ IP     D 2357  1.89                             101   -0.4210 52.8 101 
 BRR  HN ES   4   2357  7.84                             101   -1.28 0 52.8 101 
 BRR  HZ I        2357  9.20       328.2 0.16             47           52.8 101 
 PTB  HZ IP     C 2357  6.23                              97    0.0210 78.7 203 
 PTB  HN ES       2357 15.46                              97   -0.6010 78.7 203 
 PTB  HZ I        2357 16.22       374.0 0.22             47           78.7 203 
 ZAR  HZ EP       2357  7.13                              97    0.5110 81.5 294 
 ZAR  HN ES       2357 16.63                              97   -0.1710 81.5 294 
 ZAR  HZ I        2357 18.31       587.7 0.26             47           81.5 294 
 BAR2 SZ EP       2357 14.27                              94    0.2410  129 121 
 BAR2 SZ ES   2   2357 29.48                              94   -0.50 5  129 121 
 BAR2 SZ I        2357 32.19        79.3 0.54             47            129 121 
 OCA  HZ EP       2357 17.09                              56    0.19 9  149  39 
 OCA  HN ES   2   2357 34.66                              56   -0.42 5  149  39 
 OCA  HZ I        2357 37.37        69.2 0.16             47            149  39 
 URE  HZ EP       2357 18.63                              56    0.43 9  161 292 
 URE  HN ES   2   2357 37.00                              56   -0.41 5  161 292 
 URE  HZ I        2357 38.72        74.3 0.14             47            161 292 
 PAM  SZ EP       2357 19.92                              56    0.75 9  164  84 
 PAM  SN ES       2357 38.65                              56   -0.48 9  164  84 
 PAM  SZ I        2357 42.68       104.5 0.46             47            164  84 
 SPBC HZ EP       2357 19.49                              56   -0.04 9  171 176 
 SPBC HN ES       2357 39.67                              56   -0.10 9  171 176 
 SPBC HZ I        2357 43.69        32.1 0.22             47            171 176 
 SML  HZ EP       2357 19.37                              56   -0.89 9  178   4 
 SML  HE ES       2357 40.97                              56   -0.09 9  178   4 
 SML  HZ I        2357 43.80       120.1 0.12             47            178   4 
 HEL  HZ EP       2357 22.48                              56    0.78 9  186 233 
 HEL  HN ES       2357 43.16                              56   -0.48 9  186 233 
 HEL  HZ I        2357 47.93        56.6 0.22             37            186 233 
 RUS  HZ IP   4 C 2357 23.56                              56    1.38 0  189 140 
 RUS  HN ES       2357 45.17                              56    0.68 9  189 140 
 RUS  HZ I        2357 48.13        94.0 0.82             37            189 140 
 NOR  HZ EP       2357 23.26                              56    0.68 9  196 203 
 NOR  HN ES       2357 44.95                              56   -0.25 9  196 203 
 NOR  HZ I        2357 48.24        55.0 0.20             37            196 203 
 CBOC HZ EP   4   2357 33.07                              56    3.54 0  250 234 
 CBOC HN ES   4   2358  0.73                              56    3.16 0  250 234 
 CBOC HZ I        2358  9.06        15.4 0.64             37            250 234 
 GUY2CHZ EP   4   2357 33.11                              56    2.71 0  254 211 
 GUY2CHN ES       2357 58.78                              56   -0.33 8  254 211 
 GUY2CHZ I        2358  9.64        25.6 0.68                           254 211 
 COD  HZ EP   4   2357 40.40                              55    3.24 0  314  15 
 COD  HN ES   4   2358 14.44                              55    3.29 0  314  15 
 SJC  HZ EP   4   2357 40.40                              55    2.59 0  318 340 
 SJC  HN ES   4   2358 14.75                              55    2.43 0  318 340 
 SJC  HZ I        2358 20.00         7.6 0.48             36            318 340 
                                                                                
