 2017  330 2046 55.5 L   6.832 -73.390115.1  RSN  5 0.3 1.4LRSN                1
 GAP=103        0.85       4.1     4.1  7.5 -0.4259E+01  0.3556E+01  0.1097E+02E
 Epicentro: SAN VICENTE DE CHUCURI - SANTANDER                                 3
 ACTION:UPD 17-05-25 18:47 OP:jn   STATUS:               ID:20170330204655 L   I
 OLDACT:REG 17-03-31 03:01 OP:dani STATUS:               ID:20170330203748     3
 2017-03-30-2038-00M.COL___365                                                 6
 STAT SP IPHASW D HRMM SECON CODA AMPLIT PERI AZIMU VELO AIN AR TRES W  DIS CAZ7
 BAR2 EZ EP       2047 11.37                             162   -0.4310 35.1 139 
 BAR2 EZ I        2047 25.09        18.4 0.46            160           35.1 139 
 BRR  HZ EP       2047 11.63                             156   -0.3310 46.8 311 
 BRR  HN ES       2047 24.79                             156   -0.0310 46.8 311 
 BRR  HZ I        2047 27.04         9.2 0.09            158           46.8 311 
 PAM  EZ EP       2047 16.25                             138    0.3910 94.7  54 
 PAM  EN ES       2047 31.98                             138    0.2210 94.7  54 
 PAM  EZ I        2047 34.15         2.7 0.19            138           94.7  54 
 RUS  HZ EP       2047 16.65                             134   -0.4510  109 162 
 RUS  HN ES       2047 34.19                             134    0.2110  109 162 
 RUS  HZ I        2047 36.47         3.4 0.22            133            109 162 
 NOR  HZ EP       2047 27.73                             113    0.26 8  216 229 
 NOR  HE ES       2047 52.77                             113    0.35 8  216 229 
 NOR  HZ I        2047 56.57         2.9 0.17            113            216 229 
                                                                                
