 2017 1030 2244 24.7 L   6.862 -73.057141.8  RSN  6 0.5 1.3LRSN                1
 GAP=251        1.22       7.3     7.6  7.8  0.2421E+02  0.8503E+01 -0.4206E+00E
 Epicentro: LOS SANTOS - SANTANDER                                             3
 ACTION:UPD 17-11-07 19:39 OP:rebc STATUS:               ID:20171030224424 L   I
 OLDACT:UP  17-10-31 07:24 OP:osc  STATUS:               ID:20171030223746     3
 OLDACT:REG 17-10-31 04:11 OP:osc  STATUS:               ID:20171030223746     3
 2017-10-30-2238-00M.COL___438                                                 6
 STAT SP IPHASW D HRMM SECON CODA AMPLIT PERI AZIMU VELO AIN AR TRES W  DIS CAZ7
 BAR2 EZ EP       2244 43.93                             167   -0.2110 32.9 205 
 BAR2 EZ ES       2244 59.53                             167    0.2610 32.9 205 
 BAR2 EZ I        2245  1.24         5.2 0.40            167           32.9 205 
 BRR  HZ EP       2244 46.20                             150    0.3710 77.3 291 
 BRR  HE ES       2245  2.69                             150    0.4110 77.3 291 
 RUS  HZ EP       2244 48.29                             141   -0.3210  107 182 
 RUS  HE ES       2245  6.91                             141   -0.3210  107 182 
 RUS  HZ I        2245  8.48         2.0 0.24            143            107 182 
 PTB  HZ EP   9   2244 50.80                             129   -1.62 0  159 257 
 PTB  HN ES       2245 11.49                             130   -0.90 9  159 257 
 PTB  HZ I        2245 14.88         3.3 0.12            129            159 257 
 ZAR  HZ EP       2244 57.22                             120   -0.42 8  211 289 
 ZAR  HN ES       2245 22.74                             120   -0.56 8  211 289 
 ZAR  HZ I        2245 31.06         2.4 0.40            120            211 289 
 GUY2CHZ EP       2245 10.69                             111    1.15 7  313 235 
 GUY2CHE ES       2245 44.33                             111   -0.14 7  313 235 
                                                                                
