 2011  430 2214 36.6 L   7.068 -72.941 29.0  RSN  5 0.5 1.1LRSN                1
 GAP=145        1.20       4.3     7.4  8.2 -0.6053E+01  0.3961E+02  0.8163E+01E
 Epicentro: SANTA BARBARA - SANTANDER                                          3
 ACTION:UP  11-06-22 15:34 OP:REBC STATUS:               ID:20110430221436 L   I
 2011-04-30-2210-15S.COL___128                                                 6
 STAT SP IPHASW D HRMM SECON CODA AMPLIT PERI AZIMU VELO SNR AR TRES W  DIS CAZ7
 PAM  SZ IP       2214 45.03                             122     0.010   40  42 
 PAM  SN ES   1   2214 50.94                             122    -0.6 7   40  42 
 BRI  SZ EP   1   2214 50.19                             102     1.1 7   74  13 
 BRI  SZ ES   1   2214 58.91                             102     0.1 7   74  13 
 BRI  SZ I        2215  0.56         5.0 0.11                            74  13 
 BRR  HZ EP   1   2214 50.70                              61     0.2 7   85 273 
 BRR  HN ES   1   2215  0.87                              61    -0.4 7   85 273 
 BRR  HZ I        2215  6.77         9.3 0.35                            85 273 
 GRA  SZ EP   1   2214 50.65                              61    -0.8 7   92  10 
 GRA  SZ ES   1   2215  3.28                              61     0.3 7   92  10 
 GRA  SZ I        2215  6.61         5.0 0.30                            92  10 
 RUS  HZ EP   1   2214 56.93                              61     0.2 7  131 187 
 RUS  HN ES   1   2215 12.51                              61     0.0 7  131 187 
 RUS  HZ I        2215 13.56         4.2 0.19                           131 187 
                                                                                
