 2014  330 2232 49.4 L   6.850 -73.175147.2  RSN  9 0.5 1.7LRSN                1
 GAP=150        1.12       4.7     5.6  8.6 -0.8484E+01  0.4553E+01  0.8373E+01E
 Epicentro: ZAPATOCA - SANTANDER                                               3
 OLDACT:REG 14-03-30 23:51 OP:fm   STATUS:               ID:20140330222806     3
 ACTION:UPD 14-04-09 23:21 OP:nd   STATUS:               ID:20140330223249 L   I
 OLDACT:UP  14-03-31 00:43 OP:fm   STATUS:               ID:20140330222806     3
 2014-03-30-2228-06M.COL___255                                                 6
 STAT SP IPHASW D HRMM SECON CODA AMPLIT PERI AZIMU VELO AIN AR TRES W  DIS CAZ7
 BRR  HZ IP     C 2233 10.77                             155    0.3810 65.8 296 
 BRR  HE ES       2233 27.67                             155    0.8910 65.8 296 
 BRR  HZ I        2233 28.77         8.0 0.42            153           65.8 296 
 PAM  SZ EP       2233 11.86                             152    0.2310 75.4  44 
 PAM  SN ES       2233 28.64                             152   -0.3510 75.4  44 
 PAM  HZ I        2233 32.25         6.5 0.52            155           75.4  44 
 PTB  HZ EP   1   2233 15.73                             133   -0.56 7  146 256 
 PTB  HN ES       2233 36.64                             133   -0.64 9  146 256 
 PTB  HZ I        2233 42.35         4.9 1.00            132            146 256 
 OCA  HN ES   1   2233 38.42                             131   -0.58 7  154 354 
 SPBC HE ES   1   2233 40.01                             129   -0.71 7  166 217 
 ZAR  HZ EP   1   2233 22.22                             123    0.81 6  199 291 
 ZAR  HN ES   1   2233 46.86                             123    0.47 6  199 291 
 ZAR  HZ I        2233 53.60         5.7 0.24            123            199 291 
 NOR  HZ EP   1   2233 25.38                             119    0.11 6  235 233 
 NOR  HN ES   1   2233 53.11                             119   -0.16 6  235 233 
 NOR  HZ I        2233 58.82         4.1 0.16            118            235 233 
 SML  HZ EP   1   2233 25.35                             118   -0.05 6  237 335 
 SML  HN ES   1   2233 52.62                             118   -0.87 6  237 335 
 SML  HZ I        2233 58.63         8.6 0.28            119            237 335 
 CHI  HZ EP   1   2233 27.61                             117   -0.05 6  253 194 
 CHI  HN ES   1   2233 57.91                             117    0.40 6  253 194 
 CHI  HZ I        2234  7.83         2.9 1.38            117            253 194 
                                                                                
