 2012  430 2003 11.2 L   7.316 -73.227127.3  RSN  6 0.4 2.0LRSN                1
 GAP=171        1.10       7.2     5.0  9.9  0.3294E+01  0.1845E+02  0.4328E+01E
 Epicentro: RIONEGRO - SANTANDER                                               3
 ACTION:UPD 12-07-05 11:56 OP:tino STATUS:               ID:20120430200311 L   I
 2012-04-30-2000-00M.COL___189                                                 6
 STAT SP IPHASW D HRMM SECON CODA AMPLIT PERI AZIMU VELO AIN AR TRES W  DIS CAZ7
 PAM  SZ EP   1   20 3 30.17                             154    -0.2 7   58  87 
 BRR  HZ EP   1   20 3 29.87                             154     0.2 7   58 247 
 BRR  HZ I        20 3 30.38        50.5 0.10                            58 247 
 BRR  HN ES   1   20 3 44.67                             154     0.7 7   58 247 
 PAM  SN ES       20 3 44.88                             154    -0.410   58  87 
 PAM  SZ I        20 3 47.59        11.6 0.24                            58  87 
 BAR2 SZ EP   1   20 3 31.55                             146     0.2 7   80 176 
 BAR2 SZ ES   1   20 3 47.72                             146     0.7 7   80 176 
 BAR2 SZ I        20 3 49.37        53.7 0.12                            80 176 
 RUS  HZ EP   1   20 3 38.44                             126     0.1 7  158 174 
 RUS  HN ES   1   20 3 59.12                             126    -0.5 7  158 174 
 PTB  HZ EP   1   20 3 38.19                             125     0.2 7  161 238 
 PTB  HN ES       20 3 58.30                             125    -0.6 9  161 238 
 PTB  HZ I        20 4  3.75         7.3 0.15                           161 238 
 ZAR  HZ EP   1   20 3 40.66                             121     0.6 7  181 276 
 ZAR  HN ES       20 4  2.30                             121    -0.3 9  181 276 
 ZAR  HZ I        20 4  7.91        13.2 0.16                           181 276 
                                                                                
