 2011  730 2052 13.8 L   6.757 -73.116141.8  RSN  6 0.3 2.1LRSN                1
 GAP=142        0.54       3.1     4.2  4.8 -0.5696E+01  0.3501E+01  0.1001E+01E
 Epicentro: LOS SANTOS - SANTANDER                                             3
 ACTION:UPD 12-07-25 14:04 OP:epov STATUS:               ID:20110730205213 L   I
 2011-07-30-2046-43S.COL___142                                                 6
 STAT SP IPHASW D HRMM SECON CODA AMPLIT PERI AZIMU VELO AIN AR TRES W  DIS CAZ7
 BAR2 SZ EP   1   2052 33.03                             172    0.10 7 19.6 202 
 BAR2 SZ ES   1   2052 47.55                             172   -0.26 7 19.6 202 
 BAR2 SZ I        2052 48.81        35.2 0.27                          19.6 202 
 BRR  HZ EP   1   2052 34.81                             150   -0.06 7 76.4 301 
 BRR  HZ I        2052 36.53        29.3 0.10                          76.4 301 
 BRR  HN ES   1   2052 51.79                             150    0.52 7 76.4 301 
 PAM  SZ EP   1   2052 35.88                             150    0.13 7 79.2  36 
 PAM  SN ES   1   2052 52.56                             150   -0.28 7 79.2  36 
 RUS  HZ EP   1   2052 37.21                             144    0.36 7 95.6 178 
 RUS  HN ES   1   2052 54.90                             144    0.11 7 95.6 178 
 RUS  HZ I        2052 57.91        13.1 0.33                          95.6 178 
 BRI  SZ EP   1   2052 37.61                             140   -0.02 7  112  18 
 BRI  SZ ES   1   2052 56.01                             140   -0.17 7  112  18 
 BRI  SZ I        2053  1.27        18.1 0.47                           112  18 
 NOR  SZ EP   1   2052 49.06                             118   -0.28 6  235 236 
 NOR  SN ES   1   2053 16.64                             118   -0.38 6  235 236 
                                                                                
