 2011  630 2342  4.2 L   6.760 -73.127143.1  RSN 11 0.3 1.9LRSN                1
 GAP=141        0.68       3.4     4.6  4.9 -0.5738E+01  0.4108E+01  0.4431E+00E
 Epicentro: LOS SANTOS - SANTANDER                                             3
 ACTION:UP  11-07-14 19:09 OP:ep   STATUS:               ID:20110630234204 L   I
 2011-06-30-2337-47S.COL___140                                                 6
 STAT SP IPHASW D HRMM SECON CODA AMPLIT PERI AZIMU VELO SNR AR TRES W  DIS CAZ7
 BAR2 SZ EP   1   2342 23.35                             172    -0.1 7   20 198 
 BAR2 SZ ES   1   2342 38.12                             172    -0.4 7   20 198 
 BAR2 SZ I        2342 39.69        22.3 0.22                            20 198 
 BTL  SZ EP   1   2342 24.01                             170     0.5 7   23 318 
 BTL  SZ ES   2   2342 38.13                             170    -0.5 5   23 318 
 GIR2 SZ EP   1   2342 23.45                             165    -0.3 7   36 348 
 GIR2 SZ ES   1   2342 39.19                             165     0.3 7   36 348 
 BRR  HZ IP     C 2342 25.22                             151    -0.110   75 301 
 BRR  HZ I        2342 25.68        26.6 0.14                            75 301 
 BRR  HN ES   1   2342 42.17                             151     0.4 7   75 301 
 PAM  SZ EP       2342 26.33                             150     0.010   80  36 
 PAM  SN ES   1   2342 43.43                             150    -0.1 7   80  36 
 RUS  HZ EP   1   2342 27.64                             144     0.2 7   96 177 
 RUS  HN ES   1   2342 45.82                             144     0.3 7   96 177 
 RUS  HZ I        2342 46.81         6.3 0.24                            96 177 
 GRA  SZ EP   1   2342 29.28                             136    -0.3 7  129  16 
 GRA  SZ ES   1   2342 48.93                             136    -0.4 7  129  16 
 GRA  SZ I        2342 49.98        10.5 0.47                           129  16 
 OCA  SZ ES   2   2342 55.74                             128     0.7 5  165 353 
 OCA  SZ I        2342 57.21         9.1 0.29                           165 353 
 NOR  SN ES   2   2343  6.97                             118    -0.4 4  234 236 
 HEL  HZ EP   1   2342 44.71                             114     0.3 6  273 257 
 HEL  HN ES   2   2343 15.63                             114    -0.1 4  273 257 
 HEL  HZ I        2343 21.68         6.0 0.66                           273 257 
 RREF HN ES   2   2343 25.62                             110    -0.3 3  320 230 
 RREF HZ I        2343 32.30         2.4 0.31                           320 230 
                                                                                
