 2011  530 2023 14.0 L   6.737 -72.985151.7  RSN  4 0.3 1.7LRSN                1
 GAP=244        0.62      10.0    21.2  9.6  0.1637E+03 -0.9159E+02 -0.4742E+02E
 Epicentro: CEPITA - SANTANDER                                                 3
 ACTION:UP  11-06-29 08:57 OP:tino STATUS:               ID:20110530202313 L   I
 2011-05-30-2020-51S.COL___115                                                 6
 STAT SP IPHASW D HRMM SECON CODA AMPLIT PERI AZIMU VELO SNR AR TRES W  DIS CAZ7
 BAR2 SZ EP   1   2023 34.28                             170    -0.1 7   27 234 
 BAR2 SZ ES   2   2023 49.87                             170    -0.4 5   27 234 
 BAR2 SZ I        2023 50.51         4.7 0.19                            27 234 
 BTL  SZ EP   1   2023 35.15                             166     0.5 7   37 303 
 BTL  SZ ES   2   2023 50.59                             166    -0.2 5   37 303 
 BRR  HZ EP   1   2023 36.60                             148    -0.3 7   90 297 
 BRR  HZ I        2023 37.69        20.4 0.40                            90 297 
 BRR  HN ES   2   2023 55.08                             148     0.3 5   90 297 
 RUS  HZ EP   2   2023 37.56                             147    -0.3 5   94 187 
 RUS  HE ES   1   2023 56.61                             147     0.1 7   94 187 
                                                                                
