 2015 1230 2108 15.1 L   6.803 -73.165139.8  RSN  7 0.3 2.0LRSN                1
 GAP=134        0.89       3.7     4.1  6.6  0.2164E+00  0.9774E+01 -0.7405E+01E
 Epicentro: LOS SANTOS - SANTANDER                                             3
 ACTION:UPD 16-02-04 15:09 OP:cam  STATUS:               ID:20151230210815 L   I
 OLDACT:REG 15-12-31 03:12 OP:cara STATUS:               ID:20151230205748     3
 2015-12-30-2057-48M.COL___337                                                 6
 STAT SP IPHASW D HRMM SECON CODA AMPLIT PERI AZIMU VELO AIN AR TRES W  DIS CAZ7
 BAR2 EZ IP       21 8 34.04                             170    0.0210 23.4 185 
 BAR2 EZ ES       21 8 48.45                             170   -0.3210 23.4 185 
 BAR2 EZ I        21 8 49.92        13.8 0.28            171           23.4 185 
 BRR  HZ IP       21 8 35.98                             152    0.4910 69.1 299 
 BRR  HE ES   4   21 8 52.70                             152    1.31 0 69.1 299 
 BRR  HZ I        21 8 55.83        17.4 0.14            151           69.1 299 
 PAM  EZ EP       21 8 36.98                             149    0.2210 78.5  41 
 PAM  EN ES       21 8 53.55                             149   -0.1010 78.5  41 
 PAM  EZ I        21 8 55.76        36.8 0.54            153           78.5  41 
 RUS  HZ EP       21 8 38.10                             142   -0.2110  101 175 
 RUS  HN ES       21 8 56.79                             142    0.3810  101 175 
 RUS  HZ I        21 8 58.52        13.2 0.28            147            101 175 
 PTB  HZ EP       21 8 40.76                             131   -0.64 9  146 259 
 PTB  HN ES       21 9  1.65                             131   -0.26 9  146 259 
 PTB  HZ I        21 9  4.92        11.7 0.46            132            146 259 
 ZAR  HZ EP       21 8 47.34                             121    0.40 9  202 292 
 ZAR  HN ES       21 9 12.24                             121    0.46 9  202 292 
 ZAR  HZ I        21 9 19.68         8.9 0.26            123            202 292 
 SML  HZ IP       21 8 50.89                             116   -0.38 8  243 336 
 SML  HE ES       21 9 19.33                             116   -0.15 8  243 336 
 SML  HZ I        21 9 22.25        17.4 0.26            119            243 336 
                                                                                
