 2016  830 2129  3.2 L   6.800 -73.132143.0  RSN 15 0.5 2.2LRSN                1
 GAP= 72        1.14       3.4     3.2  5.7 -0.1350E+01  0.3186E+01  0.1825E+01E
 Epicentro: LOS SANTOS - SANTANDER                                             3
 ACTION:UPD 16-10-29 15:40 OP:rebc STATUS:               ID:20160830212903 L   I
 OLDACT:REG 16-08-31 04:49 OP:ak   STATUS:               ID:20160830212741     3
 2016-08-30-2128-00M.COL___362                                                 6
 STAT SP IPHASW D HRMM SECON CODA AMPLIT PERI AZIMU VELO AIN AR TRES W  DIS CAZ7
 BAR2 EZ IP     C 2129 22.31                             170   -0.1510 23.6 194 
 BAR2 EZ ES       2129 37.66                             170    0.1410 23.6 194 
 BAR2 EZ I        2129 38.08        44.7 0.24                          23.6 194 
 BRR  HZ EP       2129 24.18                             152    0.0910 72.5 298 
 BRR  HE ES       2129 41.18                             152    0.7710 72.5 298 
 BRR  HZ I        2129 44.47        32.7 0.43                          72.5 298 
 PAM  EZ IP     C 2129 25.20                             151    0.1710 76.5  39 
 PAM  EN ES       2129 41.78                             151   -0.3010 76.5  39 
 PAM  EZ I        2129 44.17        49.7 0.48                          76.5  39 
 RUS  HZ EP       2129 26.38                             143   -0.2510  100 177 
 RUS  HN ES       2129 44.78                             143   -0.1510  100 177 
 RUS  HZ I        2129 46.40        30.3 0.30                           100 177 
 PTB  HZ EP       2129 29.46                             131   -0.57 9  149 259 
 PTB  HN ES   4   2129 49.17                             131   -1.83 0  149 259 
 PTB  HZ I        2129 53.13        21.6 0.20                           149 259 
 TAM  HZ IP     C 2129 30.72                             130    0.24 9  154 105 
 TAM  HE ES       2129 52.30                             130    0.50 9  154 105 
 TAM  HZ I        2129 54.37        12.2 0.38                           154 105 
 OCA  HN ES       2129 52.33                             129   -0.88 9  161 353 
 SPBC HZ EP       2129 31.40                             128   -0.13 9  164 219 
 SPBC HE ES       2129 53.46                             128   -0.20 9  164 219 
 SPBC HZ I        2129 56.63        26.6 0.21                           164 219 
 ZAR  HZ EP       2129 36.29                             122    0.72 8  205 292 
 ZAR  HN ES       2130  1.32                             122    0.47 8  205 292 
 ZAR  HZ I        2130  7.43        15.0 0.11                           205 292 
 NOR  HZ EP       2129 38.81                             118   -0.05 8  236 235 
 NOR  HE ES       2130  6.06                             118   -0.64 8  236 235 
 NOR  HZ I        2130 10.68        12.1 0.16                           236 235 
 CHI  HZ EP   1   2129 41.36                             117    0.62 6  249 195 
 CHI  HN ES       2130  9.97                             117   -0.09 8  249 195 
 CHI  HZ I        2130 13.06         6.2 0.09                           249 195 
 HEL  HZ EP       2129 44.21                             114    0.82 8  273 256 
 HEL  HN ES       2130 14.38                             114   -0.39 8  273 256 
 HEL  HZ I        2130 21.66         9.4 0.30                           273 256 
 SOCV BZ EP       2129 45.40                             112   -0.54 7  300  57 
 SOCV BN ES   4   2130 17.39                             112   -1.93 0  300  57 
 GUY2CHZ EP   9   2129 48.32                             112    1.55 0  302 235 
 GUY2CHN ES       2130 23.32                                    0.98 7  302 235 
 GUY2CHZ I        2130 27.28         6.9 0.30                           302 235 
 ELA  HZ EP   4   2129 51.91                             110    1.89 0  330 230 
 ELA  HE ES   4   2130 30.37                             110    3.80 0  330 230 
 ELA  HZ I        2130 33.66         6.0 0.58                           330 230 
 SJC  HN ES   4   2130 38.67                             105   -3.41 0  410 327 
                                                                                
