 2012 1230 2128  1.8 L   6.789 -73.138146.7  RSN  7 0.5 2.9LRSN                1
 GAP=184        1.19       4.1     6.4  7.4  0.6205E+01  0.4051E+01 -0.8989E-01E
 Epicentro: LOS SANTOS - SANTANDER                                             3
 ACTION:UPD 13-01-04 14:31 OP:ep   STATUS:               ID:20121230212801 L   I
 2012-12-30-2120-00M.COL___239                                                 6
 STAT SP IPHASW D HRMM SECON CODA AMPLIT PERI AZIMU VELO AIN AR TRES W  DIS CAZ7
 BAR2 SZ EP       2128 21.75                             171    0.1910 22.3 193 
 BAR2 SZ ES       2128 36.37                             171   -0.5710 22.3 193 
 BAR2 SZ I        2128 37.55       113.6 0.34                          22.3 193 
 BRR  HZ IP     D 2128 23.57                             152    0.4110 72.5 299 
 BRR  HN ES       2128 40.47                             152    0.6710 72.5 299 
 BRR  HN I        2128 41.01       222.2 0.30                          72.5 299 
 RUS  HZ EP       2128 25.77                             144    0.1810 99.3 176 
 RUS  HN ES       2128 44.60                             144    0.4910 99.3 176 
 RUS  HN I        2128 45.90        46.3 0.32                          99.3 176 
 PTB  HZ EP       2128 28.57                             132   -0.37 9  148 259 
 PTB  HN ES       2128 49.38                             132   -0.69 9  148 259 
 PTB  HN I        2128 54.69       134.5 0.26                           148 259 
 OCA  HZ EP       2128 29.84                             130   -0.51 9  162 353 
 OCA  HN ES       2128 52.16                             130   -0.42 9  162 353 
 OCA  HN I        2128 54.87       201.4 0.24                           162 353 
 ZAR  HZ EP       2128 35.28                             122    0.81 8  205 292 
 ZAR  HN ES       2129  0.04                             122    0.11 8  205 292 
 ZAR  HN I        2129  5.74        78.7 0.14                           205 292 
 CHI  HZ EP       2128 39.27                             117   -0.21 8  248 195 
 CHI  HN ES       2129  8.52                             117   -0.32 8  248 195 
 CHI  HN I        2129 12.17        20.8 0.50                           248 195 
                                                                                
