 2010  330 2339 23.0 L   7.094 -73.227114.0  RSN  6 0.3 2.1LRSN                1
 GAP=118        0.68       3.3     6.7  8.7 -0.1340E+01 -0.3360E+02  0.1480E+01E
 Epicentro: LEBRIJA - SANTANDER                                                3
 ACTION:UP  10-08-24 09:56 OP:vdl  STATUS:               ID:20100330233923 L   I
 2010-03-30-2337-15S.COL___098                                                 6
 STAT SP IPHASW D HRMM SECON CODA AMPLIT PERI AZIMU VELO SNR AR TRES W  DIS CAZ7
 BRR  HZ EP       2339 39.54                             154    -0.210   54 272 
 BRR  HN ES   1   2339 52.81                             154     0.0 7   54 272 
 BRR  HZ I        2339 53.72        67.1 0.07                            54 272 
 BAR2 SZ IP       2339 40.56                             153     0.410   56 175 
 OCA  SZ EP       2339 45.63                             129    -0.110  127 355 
 OCA  SZ ES   1   2340  3.52                             129     0.1 7  127 355 
 OCA  SZ I        2340  5.44        48.8 0.25                           127 355 
 RUS  HZ EP       2339 46.38                             128    -0.410  134 173 
 RUS  HE ES   2   2340  5.83                             128     0.4 5  134 173 
 RUS  HZ I        2340 13.50         4.0 0.06                           134 173 
 HEL  HZ EP   2   2340  2.49                             108     0.5 4  273 249 
 HEL  HN ES   3   2340 32.57                             108     0.2 2  273 249 
 HEL  HZ I        2340 35.41         6.5 0.55                           273 249 
 SDV  BZ EP   1   2340 10.90                             103     0.4 5  348  55 
 SDV  B2 ES   2   2340 47.30                             103    -0.3 3  348  55 
                                                                                
