 2010  830 2230 58.9 L   6.793 -73.022139.6  RSN 10 0.3 2.2LRSN                1
 GAP=173        0.82       3.5     5.8  6.6 -0.4569E+01  0.1645E+01  0.1461E+01E
 Epicentro: CEPITA - SANTANDER                                                 3
 ACTION:UP  10-09-07 10:59 OP:vdl  STATUS:               ID:20100830223059 L   I
 2010-08-30-2227-11S.COL___120                                                 6
 STAT SP IPHASW D HRMM SECON CODA AMPLIT PERI AZIMU VELO SNR AR TRES W  DIS CAZ7
 BAR2 SZ EP       2231 17.82                             168    -0.110   29 219 
 BAR2 SZ I        2231 18.25        43.0 0.30                            29 219 
 BAR2 SZ ES   2   2231 32.91                             168     0.2 5   29 219 
 BTL  SZ EP       2231 18.01                             167     0.010   30 297 
 BRR  HZ EP       2231 19.67                             147    -0.510   84 295 
 BRR  HZ I        2231 20.13        51.8 0.24                            84 295 
 BRR  HE ES       2231 36.74                             147     0.010   84 295 
 RUS  HZ EP       2231 21.86                             143    -0.110  100 184 
 RUS  HN ES       2231 40.09                             143     0.110  100 184 
 RUS  HZ I        2231 41.82        15.5 0.08                           100 184 
 GUE  SZ EP   2   2231 22.99                             138     0.0 5  115   5 
 GUE  SZ I        2231 24.03        10.5 0.11                           115   5 
 GRA  SZ EP       2231 23.70                             136     0.310  123  11 
 GRA  SZ I        2231 25.00        20.5 0.16                           123  11 
 GRA  SZ ES   2   2231 42.84                             136     0.4 5  123  11 
 CHI  HN ES   2   2232  6.00                             115     0.0 4  252 198 
 HEL  HZ EP   2   2231 39.91                                    -0.4 4  285 257 
 HEL  HZ I        2232 16.12        10.9 0.40                           285 257 
 RREF HZ EP   1   2231 46.55                             109     0.6 5  332 231 
 RREF HN ES       2232 23.30                             109     0.7 7  332 231 
 RREF HZ I        2232 26.35         5.6 0.35                           332 231 
 PRA  HN ES   1   2232 34.34                             105    -0.8 4  398 211 
 PRA  HZ I        2232 38.34         4.9 0.74                           398 211 
                                                                                
