 2010 1030 2051 27.9 L   6.712 -73.127152.3  RSN  5 0.3 2.0LRSN                1
 GAP=211        0.76       9.2     8.9  8.7  0.5279E+01  0.1521E+02  0.3817E+02E
 Epicentro: JORDAN - SANTANDER                                                 3
 ACTION:UP  11-02-18 11:13 OP:tino STATUS:               ID:20101030205127 L   I
 2010-10-30-2049-02S.COL___127                                                 6
 STAT SP IPHASW D HRMM SECON CODA AMPLIT PERI AZIMU VELO SNR AR TRES W  DIS CAZ7
 BAR2 SZ EP   1   2051 47.61                             174    -0.6 9   15 205 
 BAR2 SZ ES   1   2052  3.87                             174    -0.2 9   15 205 
 BAR2 SZ I        2052  5.19        20.7 0.25                            15 205 
 BTL  SZ EP   1   2051 48.64                             169     0.2 9   28 326 
 BRR  HZ EP   1   2051 50.35                             151     0.2 9   78 304 
 BRR  HZ I        2051 50.58        25.2 0.10                            78 304 
 BRR  HN ES   1   2052  7.62                             151     0.1 9   78 304 
 RUS  HZ EP   1   2051 52.18                             148     0.5 9   91 177 
 RUS  HZ I        2052 12.33         9.4 0.27                            91 177 
 NOR  SZ EP       2052  3.41                             120    -0.210  231 237 
 NOR  SE ES   2   2052 31.66                             120     0.1 5  231 237 
                                                                                
