 2017  330 2247 12.9 L   6.795 -73.131148.8  RSN 10 0.4 2.0LRSN                1
 GAP=139        0.94       3.2     3.8  5.2 -0.9123E+00  0.4791E+01  0.3984E+01E
 Epicentro: LOS SANTOS - SANTANDER                                             3
 ACTION:UPD 17-05-25 18:47 OP:jn   STATUS:               ID:20170330224712 L   I
 OLDACT:REG 17-03-31 03:11 OP:dani STATUS:               ID:20170330223745     3
 2017-03-30-2238-00M.COL___350                                                 6
 STAT SP IPHASW D HRMM SECON CODA AMPLIT PERI AZIMU VELO AIN AR TRES W  DIS CAZ7
 BAR2 EZ EP       2247 32.70                             171   -0.1510 23.1 194 
 BAR2 EZ ES       2247 48.10                             171   -0.3510 23.1 194 
 BAR2 EZ I        2247 51.17        16.9 0.38            168           23.1 194 
 BRR  HZ EP       2247 34.71                             152    0.2710 72.9 298 
 BRR  HN ES       2247 51.98                             152    0.7110 72.9 298 
 BRR  HZ I        2247 54.45        14.3 0.14            152           72.9 298 
 PAM  EZ EP       2247 35.54                             152    0.1710 76.8  38 
 PAM  EN ES       2247 52.92                             152   -0.0010 76.8  38 
 PAM  EZ I        2247 54.92        18.2 0.58            156           76.8  38 
 RUS  HZ EP       2247 36.63                             145   -0.2310 99.9 177 
 RUS  HN ES       2247 55.66                             145    0.0710 99.9 177 
 RUS  HZ I        2247 56.92         9.1 0.52            145           99.9 177 
 PTB  HZ EP       2247 39.55                             132   -0.66 9  149 259 
 PTB  HN ES       2248  0.75                             132   -0.80 9  149 259 
 PTB  HZ I        2248  2.82        16.6 0.12            132            149 259 
 SPBC HZ EP       2247 41.44                             130   -0.21 9  164 220 
 SPBC HN ES       2248  4.31                             130    0.20 9  164 220 
 SPBC HZ I        2248 10.38        17.0 0.22            130            164 220 
 ZAR  HZ EP       2247 45.46                             123   -0.23 8  206 292 
 ZAR  HN ES       2248 11.49                             123    0.20 8  206 292 
 ZAR  HZ I        2248 18.33         9.4 0.05            124            206 292 
 NOR  HZ EP       2247 48.81                             119   -0.07 8  236 235 
 NOR  HN ES       2248 17.40                             119    0.43 8  236 235 
 NOR  HZ I        2248 21.86         7.2 0.32            120            236 235 
 CHI  HZ EP       2247 50.97                             118    0.25 8  248 196 
 CHI  HN ES       2248 20.23                             118   -0.01 8  248 196 
 CHI  HZ I        2248 26.15         4.2 0.54            119            248 196 
 PRA  HZ EP       2248  7.25                             107    0.73 6  392 210 
 PRA  HN ES       2248 48.87                             107    0.49 6  392 210 
 PRA  HZ I        2248 53.97         4.0 0.26            108            392 210 
                                                                                
