 2017 1030 2217 51.6 L   6.836 -73.207140.7  RSN  5 0.4 1.2LRSN                1
 GAP=127        1.17       6.2     5.8  8.6 -0.3429E+01  0.5993E+01  0.3179E+01E
 Epicentro: ZAPATOCA - SANTANDER                                               3
 ACTION:UPD 17-11-07 19:39 OP:rebc STATUS:               ID:20171030221751 L   I
 OLDACT:DUP 17-10-31 06:55 OP:osc  STATUS:               ID:20171030220742d    3
 OLDACT:REG 17-10-31 04:06 OP:osc  STATUS:               ID:20171030220741     3
 2017-10-30-2208-00M.COL___438                                                 6
 STAT SP IPHASW D HRMM SECON CODA AMPLIT PERI AZIMU VELO AIN AR TRES W  DIS CAZ7
 BAR2 EZ EP       2218 10.50                             169   -0.1810 27.1 174 
 BAR2 EZ ES       2218 26.26                             169    0.6810 27.1 174 
 BRR  HZ EP       2218 12.61                             154    0.8810 63.3 298 
 BRR  HN ES       2218 26.80                             154   -0.6610 63.3 298 
 PAM  EZ EP       2218 13.25                             149   -0.1010 79.0  45 
 PAM  EN ES       2218 30.22                             149   -0.1110 79.0  45 
 PAM  EZ I        2218 32.60         3.6 0.50            151           79.0  45 
 RUS  HZ EP       2218 14.75                             141   -0.4310  105 173 
 RUS  HN ES       2218 33.49                             141   -0.1010  105 173 
 RUS  HZ I        2218 34.64         2.3 0.42            143            105 173 
 PTB  HZ EP       2218 17.66                             132    0.06 9  142 257 
 PTB  HN ES       2218 37.85                             132   -0.05 9  142 257 
 PTB  HZ I        2218 42.18         1.5 0.16            133            142 257 
                                                                                
