 2014 1130 2023 57.6 L   6.052 -73.728108.9  RSN 13 0.6 1.9LRSN                1
 GAP= 75        1.46       3.3     3.9  7.9 -0.7734E+00  0.9394E+01  0.5742E+01E
 Epicentro: VELEZ - SANTANDER                                                  3
 ACTION:UPD 14-12-19 15:49 OP:nd   STATUS:               ID:20141130202357 L   I
 OLDACT:DUP 14-12-01 05:58 OP:stll STATUS:               ID:20141130201748d    3
 2014-11-30-2017-47M.COL___297                                                 6
 STAT SP IPHASW D HRMM SECON CODA AMPLIT PERI AZIMU VELO AIN AR TRES W  DIS CAZ7
 SPBC HZ EP       2024 14.26                             150    0.0810 58.4 221 
 SPBC HZ I        2024 14.70        89.2 0.12            151           58.4 221 
 SPBC HE ES       2024 27.69                             150    0.5710 58.4 221 
 RUS  HZ EP       2024 15.62                             144   -0.1410 73.5 104 
 RUS  HZ I        2024 15.99        19.0 0.26            146           73.5 104 
 RUS  HN ES       2024 29.40                             144   -0.5310 73.5 104 
 BAR2 SZ EP       2024 16.35                             139    0.0810 84.9  45 
 BAR2 SZ ES       2024 30.77                             139   -0.0710 84.9  45 
 BAR2 SZ I        2024 32.06        39.4 0.62            141           84.9  45 
 PTB  HN ES       2024 31.25                             135   -0.8310 97.0 304 
 PTB  HZ I        2024 35.50        11.4 0.16            136           97.0 304 
 BRR  HZ EP       2024 19.11                             129    0.3810  117   1 
 BRR  HN ES       2024 35.72                             129    0.5010  117   1 
 BRR  HZ I        2024 41.99         9.6 0.64            131            117   1 
 NOR  HZ EP       2024 20.80                             124   -0.04 9  137 247 
 NOR  HZ I        2024 21.50        13.6 0.12            126            137 247 
 NOR  HE ES       2024 39.93                             124    0.96 9  137 247 
 CHI  HZ EP       2024 23.13                             120   -0.22 9  157 180 
 CHI  HN ES       2024 42.76                             120   -0.69 9  157 180 
 CHI  HZ I        2024 46.32         8.5 0.42            123            157 180 
 HEL  HZ EP       2024 28.21                             114    0.28 9  200 274 
 HEL  HN ES       2024 50.85                             114   -0.76 9  200 274 
 HEL  HZ I        2024 56.06         6.6 0.34            115            200 274 
 ZAR  HZ EP       2024 27.44                             113   -0.31 9  202 322 
 ZAR  HE ES       2024 50.92                             113   -0.36 9  202 322 
 GUY2CHZ EP       2024 28.97                             113    0.54 9  203 243 
 GUY2CHN ES       2024 53.53                             113    1.04 9  203 243 
 GUY2CHZ I        2024 57.76         6.7 0.34                           203 243 
 VIL  SZ EP       2024 29.87                             112    0.59 8  215 179 
 VIL  SE ES       2024 54.76                             112    0.76 8  215 179 
 VIL  SZ I        2024 59.08        11.6 0.38            114            215 179 
 TOL  SZ EP       2024 32.39                             109   -0.02 8  240 228 
 TOL  SN ES       2024 58.92                             109   -0.66 8  240 228 
 ORTC HZ EP       2024 38.01                             105    0.02 7  291 215 
 ORTC HZ I        2024 39.51         6.8 0.16            106            291 215 
 ORTC HN ES       2025  7.82                             105   -1.69 7  291 215 
                                                                                
