 2016 1230 2213 10.1 L   6.184 -73.522124.9  RSN  5 0.4 1.1LRSN                1
 GAP=135        0.77       4.3     5.0  7.9  0.1192E+02  0.1052E+02 -0.4289E+01E
 Epicentro: AGUADA - SANTANDER                                                 3
 ACTION:UPD 17-01-11 20:20 OP:rebc STATUS:               ID:20161230221310 L   I
 OLDACT:UP  16-12-31 03:52 OP:dani STATUS:               ID:20161230215756     3
 OLDACT:REG 16-12-31 02:45 OP:dani STATUS:               ID:20161230215756     3
 2016-12-30-2208-00M.COL___372                                                 6
 STAT SP IPHASW D HRMM SECON CODA AMPLIT PERI AZIMU VELO AIN AR TRES W  DIS CAZ7
 RUS  HZ EP       2213 28.63                             154   -0.3610 58.3 124 
 RUS  HE ES       2213 43.75                             154    0.0310 58.3 124 
 RUS  HZ I        2213 45.68         2.9 0.28            155           58.3 124 
 BRR  HZ EP   2   2213 32.64                             137    1.17 5  104 348 
 PTB  HZ EP       2213 31.77                             136   -0.2610  111 291 
 PTB  HN ES       2213 49.08                             136   -0.0610  111 291 
 PTB  HZ I        2213 50.23         2.0 0.15            137            111 291 
 CHI  HN ES       2214  1.07                             122    0.30 9  173 188 
 CHI  HZ I        2214  3.45         1.2 0.42            123            173 188 
 ZAR  HZ EP       2213 41.52                             117   -0.05 8  207 314 
 ZAR  HN ES       2214  6.31                             117    0.20 8  207 314 
 ZAR  HZ I        2214  8.46         2.4 0.12            118            207 314 
                                                                                
