 2013  630 2316 49.5 L   6.795 -73.156149.3  RSN  7 0.4 1.9LRSN                1
 GAP=135        0.81       3.4     4.9  6.2  0.1956E+00  0.2203E+01  0.4106E+01E
 Epicentro: LOS SANTOS - SANTANDER                                             3
 ACTION:UPD 14-01-08 09:58 OP:ep   STATUS:               ID:20130630231649 L   I
 OLDACT:REG 13-07-01 03:15 OP:cam  STATUS:               ID:20130630230959     3
 2013-06-30-2309-59M.COL___267                                                 6
 STAT SP IPHASW D HRMM SECON CODA AMPLIT PERI AZIMU VELO AIN AR TRES W  DIS CAZ7
 BAR2 SZ EP   1   2317  9.57                             171    0.00 7 22.6 187 
 BAR2 SZ ES   1   2317 24.61                             171   -0.59 7 22.6 187 
 BAR2 SZ I        2317 25.64        24.3 0.25            168           22.6 187 
 BRR  HZ IP     C 2317 11.24                             153    0.2210 70.5 299 
 BRR  HN ES       2317 28.40                             153    0.6210 70.5 299 
 BRR  HZ I        2317 32.23        16.8 0.46            149           70.5 299 
 PAM  SZ EP       2317 12.38                             151    0.1910 78.5  40 
 PAM  SZ I        2317 12.55        29.7 0.20            156           78.5  40 
 PAM  SN ES   1   2317 29.59                             151   -0.27 7 78.5  40 
 RUS  HZ EP       2317 13.42                             145   -0.1710  100 175 
 RUS  HN ES   1   2317 32.41                             145    0.05 7  100 175 
 RUS  HZ I        2317 32.86         5.6 0.36            145            100 175 
 PTB  HZ EP       2317 16.51                             133   -0.16 9  147 259 
 PTB  HN ES   1   2317 37.15                             133   -0.70 7  147 259 
 PTB  HZ I        2317 44.41         8.3 0.46            131            147 259 
 SML  HE ES   1   2317 54.72                             118   -0.36 6  244 336 
 CHI  HZ EP   1   2317 27.24                             118   -0.09 6  248 195 
 CHI  HN ES       2317 57.20                             118    0.38 8  248 195 
 CHI  HZ I        2318  0.46         4.9 0.58            118            248 195 
                                                                                
