 2015  930 2147 48.7 L   6.766 -73.182141.2  RSN  5 0.3 1.8LRSN                1
 GAP=134        0.89       5.0     4.6  7.0 -0.4214E+01  0.6902E+01 -0.4075E+01E
 Epicentro: LOS SANTOS - SANTANDER                                             3
 ACTION:UPD 15-10-28 16:29 OP:cam  STATUS:               ID:20150930214748 L   I
 OLDACT:UP  15-10-01 11:04 OP:mh   STATUS:               ID:20150930214447     3
 OLDACT:REG 15-10-01 11:00 OP:mh   STATUS:               ID:20150930214447     3
 2015-09-30-2144-47M.COL___337                                                 6
 STAT SP IPHASW D HRMM SECON CODA AMPLIT PERI AZIMU VELO AIN AR TRES W  DIS CAZ7
 BAR2 EZ EP       2148  7.44                             172   -0.2410 19.2 180 
 BAR2 EZ ES       2148 22.41                             172   -0.0910 19.2 180 
 BAR2 EZ I        2148 24.15        13.7 0.36            175           19.2 180 
 BRR  HZ EP       2148  9.82                             152    0.5810 69.7 303 
 BRR  HN ES       2148 25.68                             152    0.4010 69.7 303 
 BRR  HZ I        2148 30.44        17.2 0.33            151           69.7 303 
 PAM  EZ EP       2148 10.78                             148    0.0310 82.8  40 
 PAM  EN ES       2148 27.61                             148   -0.3510 82.8  40 
 PAM  EZ I        2148 30.37        10.7 0.58            150           82.8  40 
 RUS  HN ES       2148 29.97                             144    0.2510 97.2 174 
 PTB  HZ EP       2148 14.67                             132   -0.18 9  143 260 
 PTB  HN ES       2148 34.79                             132   -0.48 9  143 260 
 PTB  HZ I        2148 37.88         6.0 0.20            134            143 260 
                                                                                
