 2015  930 2042 11.2 L   6.812 -73.120174.8  RSN  7 0.5 1.8LRSN                1
 GAP=203        1.21       5.3     7.5  8.3  0.1247E+02 -0.2412E+01 -0.1017E+02E
 Epicentro: LOS SANTOS - SANTANDER                                             3
 ACTION:UPD 15-10-28 16:29 OP:cam  STATUS:               ID:20150930204211 L   I
 OLDACT:REG 15-10-01 05:25 OP:mh   STATUS:               ID:20150930203748     3
 2015-09-30-2037-48M.COL___358                                                 6
 STAT SP IPHASW D HRMM SECON CODA AMPLIT PERI AZIMU VELO AIN AR TRES W  DIS CAZ7
 BAR2 EZ EP       2042 33.64                             171   -0.6910 25.3 196 
 BAR2 EZ ES       2042 51.96                             171   -0.4410 25.3 196 
 BAR2 EZ I        2042 52.19         6.5 0.26            167           25.3 196 
 BRR  HZ EP       2042 35.73                             156    0.1210 73.2 297 
 BRR  HN ES       2042 55.19                             156    0.5110 73.2 297 
 RUS  HZ EP       2042 38.40                             149    0.4610  102 178 
 RUS  HN ES       2042 58.89                             149    0.0710  102 178 
 RUS  HZ I        2043  0.57         7.4 0.34            147            102 178 
 PTB  HZ EP       2042 41.29                             137    0.40 9  151 259 
 PTB  HN ES       2043  3.76                             137   -0.32 9  151 259 
 PTB  HZ I        2043  7.43         4.4 0.28            134            151 259 
 SPBC HZ EP       2042 41.60                             134   -0.68 9  166 219 
 SPBC HN ES       2043  7.27                             134    0.72 9  166 219 
 SPBC HZ I        2043 15.62         8.7 0.40            131            166 219 
 ZAR  HN ES       2043 12.28                             128   -0.66 8  206 292 
 ZAR  HZ I        2043 15.79         4.7 0.24            126            206 292 
 SML  HZ EP       2042 49.72                             123    0.15 8  244 335 
 SML  HN ES       2043 19.92                             123    0.38 8  244 335 
 SML  HZ I        2043 22.61         6.3 0.28            123            244 335 
 GUY2CHZ EP   4   2042 58.35                             117    1.75 0  304 235 
 GUY2CHN ES   4   2043 35.97                             117    3.93 0  304 235 
                                                                                
