 2014  830 2231  7.1 L   6.851 -72.905  4.0  RSN  6 0.6 1.4LRSN                1
 GAP=168        1.50       3.3     4.4  8.4 -0.4844E+01  0.1221E+02 -0.3562E+01E
 Epicentro: GUACA - SANTANDER                                                  3
 ACTION:UPD 14-09-15 21:54 OP:nd   STATUS:               ID:20140830223107 L   I
 OLDACT:UP  14-08-31 03:30 OP:cam  STATUS:               ID:20140830223000     3
 OLDACT:REG 14-08-31 02:35 OP:cam  STATUS:               ID:20140830223000     3
 2014-08-30-2230-00M.COL___282                                                 6
 STAT SP IPHASW D HRMM SECON CODA AMPLIT PERI AZIMU VELO AIN AR TRES W  DIS CAZ7
 BAR2 SZ EP       2231 13.94                              47   -0.3810 41.9 227 
 BAR2 SZ ES       2231 18.99                              47   -0.9510 41.9 227 
 BAR2 SZ I        2231 20.31        36.2 0.14             47           41.9 227 
 PAM  SZ EP       2231 16.98                              47   -0.1210 58.6  23 
 PAM  SN ES       2231 24.36                              47   -0.5210 58.6  23 
 PAM  SZ I        2231 24.79        25.1 0.22             47           58.6  23 
 BRR  HZ EP       2231 22.41                              47    0.5210 93.5 288 
 BRR  HN ES       2231 33.24                              47   -0.1710 93.5 288 
 BRR  HZ I        2231 33.24        10.4 0.34             47           93.5 288 
 RUS  HZ EP       2231 25.39                              47    0.8210  108 191 
 RUS  HN ES       2231 38.19                              47    0.0210  108 191 
 RUS  HZ I        2231 41.08         4.2 0.24             47            108 191 
 PTB  HZ EP       2231 34.94                              47    0.69 9  175 259 
 PTB  HN ES       2231 54.91                              47   -0.49 9  175 259 
 PTB  HZ I        2231 58.63         4.3 0.42             47            175 259 
 ZAR  HN ES       2232  7.98                              37    0.96 8  227 288 
 ZAR  HZ I        2232  9.78         4.5 0.24             37            227 288 
                                                                                
