 2013 1030 2022 27.1 L   6.801 -73.165147.6  RSN  8 0.3 1.9LRSN                1
 GAP=134        0.65       2.9     2.9  4.4 -0.1093E+01  0.2458E+01  0.1326E+01E
 Epicentro: LOS SANTOS - SANTANDER                                             3
 ACTION:UPD 13-11-25 09:24 OP:ep   STATUS:               ID:20131030202227 L   I
 OLDACT:UP  13-10-30 22:10 OP:cam  STATUS:               ID:20131030201841     3
 OLDACT:REG 13-10-30 21:50 OP:cam  STATUS:               ID:20131030201841     3
 2013-10-30-2018-41M.COL___219                                                 6
 STAT SP IPHASW D HRMM SECON CODA AMPLIT PERI AZIMU VELO AIN AR TRES W  DIS CAZ7
 BAR2 SZ EP       2022 46.85                             171   -0.1110 23.1 185 
 BAR2 SZ ES       2023  2.55                             171    0.1110 23.1 185 
 BAR2 SZ I        2023  3.36        40.4 0.26            171           23.1 185 
 BRR  HZ EP       2022 48.66                             153    0.3010 69.3 299 
 BRR  HN ES       2023  5.32                             153    0.3910 69.3 299 
 BRR  HZ I        2023  8.30        16.4 0.30            151           69.3 299 
 PAM  SZ EP       2022 49.75                             151    0.1410 78.7  41 
 PAM  SN ES       2023  6.85                             151   -0.2910 78.7  41 
 PAM  SZ I        2023  9.53         7.1 0.64            153           78.7  41 
 RUS  HZ EP       2022 50.83                             144   -0.2410  101 175 
 RUS  HN ES       2023  9.77                             144    0.0310  101 175 
 RUS  HZ I        2023 10.72         7.0 0.36            147            101 175 
 PTB  HZ EP   1   2022 53.96                             133   -0.09 7  146 259 
 PTB  HN ES       2023 14.58                             133   -0.48 9  146 259 
 PTB  HZ I        2023 17.27         9.6 0.10            133            146 259 
 SPBC HZ EP       2022 55.78                             130    0.14 9  162 218 
 SPBC HN ES   1   2023 17.85                             130   -0.03 7  162 218 
 SPBC HZ I        2023 23.33        12.4 0.16            131            162 218 
 ZAR  HZ EP   2   2022 59.80                             123    0.32 4  202 292 
 ZAR  HN ES   1   2023 24.29                             123   -0.43 6  202 292 
 ZAR  HZ I        2023 31.69         6.7 0.12            123            202 292 
 NOR  HE ES   1   2023 30.97                             119    0.38 6  233 234 
                                                                                
