 2014  830 2156 59.5 L   6.800 -73.145147.7  RSN 13 0.5 2.2LRSN                1
 GAP=137        1.15       3.3     4.3  5.7 -0.8571E+00  0.7373E+01  0.1386E+01E
 Epicentro: LOS SANTOS - SANTANDER                                             3
 ACTION:UPD 14-09-15 21:54 OP:nd   STATUS:               ID:20140830215659 L   I
 OLDACT:UP  14-08-31 03:08 OP:cam  STATUS:               ID:20140830215000     3
 OLDACT:UP  14-08-31 03:08 OP:cam  STATUS:               ID:20140830215000     3
 OLDACT:REG 14-08-31 02:33 OP:cam  STATUS:               ID:20140830215000     3
 2014-08-30-2150-00M.COL___282                                                 6
 STAT SP IPHASW D HRMM SECON CODA AMPLIT PERI AZIMU VELO AIN AR TRES W  DIS CAZ7
 BAR2 SZ EP     C 2157 19.31                             171   -0.0310 23.4 190 
 BAR2 SZ ES       2157 34.70                             171   -0.1310 23.4 190 
 BAR2 SZ I        2157 37.00        29.4 0.26            168           23.4 190 
 BRR  HZ EP       2157 21.25                             153    0.4110 71.2 298 
 BRR  HN ES       2157 38.66                             153    1.1710 71.2 298 
 BRR  HZ I        2157 42.04        23.9 0.52            151           71.2 298 
 PAM  SZ EP       2157 22.10                             151    0.2110 77.3  40 
 PAM  SN ES       2157 39.45                             151    0.0810 77.3  40 
 PAM  SZ I        2157 41.43        29.2 0.46            157           77.3  40 
 RUS  HZ EP       2157 23.20                             144   -0.2210  101 176 
 RUS  HE ES       2157 41.55                             144   -0.5410  101 176 
 RUS  HZ I        2157 43.10        10.7 0.44            146            101 176 
 PTB  HZ EP     C 2157 25.92                             132   -0.69 9  148 259 
 PTB  HN ES       2157 46.93                             132   -0.84 9  148 259 
 PTB  HZ I        2157 53.09        22.2 0.18            132            148 259 
 SPBC HZ EP       2157 28.14                             129    0.01 9  163 219 
 SPBC HN ES       2157 50.58                             129    0.10 9  163 219 
 SPBC HZ I        2157 55.15        29.8 0.40            130            163 219 
 ZAR  HZ EP       2157 32.01                             123   -0.05 9  204 292 
 ZAR  HN ES       2157 57.36                             123   -0.10 9  204 292 
 ZAR  HZ I        2158  3.52        18.3 0.30            124            204 292 
 NOR  HZ EP       2157 35.26                             119   -0.07 8  235 234 
 NOR  HN ES       2158  2.93                             119   -0.36 8  235 234 
 NOR  HZ I        2158 10.44        13.1 0.26            120            235 234 
 SML  HZ EP       2157 35.77                             118   -0.44 8  244 335 
 SML  HN ES       2158  4.25                             118   -0.61 8  244 335 
 SML  HZ I        2158  7.78        29.3 0.22            120            244 335 
 CHI  HZ EP     C 2157 37.45                             117    0.16 8  249 195 
 CHI  HN ES       2158  7.04                             117    0.26 8  249 195 
 CHI  HZ I        2158 15.32         6.2 0.64            119            249 195 
 HEL  HZ EP       2157 40.16                             115    0.36 8  272 256 
 HEL  HN ES       2158 11.76                             115    0.51 8  272 256 
 HEL  HZ I        2158 17.82         8.2 0.38            116            272 256 
 GUY2CHZ EP       2157 43.77                             113    0.58 7  301 235 
 GUY2CHZ I        2158 26.05        15.1 0.76                           301 235 
 ORTC HZ EP       2157 54.41                             107    0.94 6  396 216 
                                                                                
