 2014 1030 2227  5.1 L   6.766 -73.143143.3  RSN  5 0.4 1.4LRSN                1
 GAP=138        1.00       5.3     5.1  7.4 -0.2515E+01  0.4807E+01  0.1551E+01E
 Epicentro: LOS SANTOS - SANTANDER                                             3
 ACTION:UPD 14-11-29 23:58 OP:nd   STATUS:               ID:20141030222705 L   I
 OLDACT:UP  14-11-25 15:36 OP:cam  STATUS:               ID:20141030221816     3
 OLDACT:REG 14-11-25 15:08 OP:cam  STATUS:               ID:20141030221816     3
 2014-10-30-2218-16M.COL___274                                                 6
 STAT SP IPHASW D HRMM SECON CODA AMPLIT PERI AZIMU VELO AIN AR TRES W  DIS CAZ7
 BAR2 SZ EP       2227 24.26                             172   -0.0710 19.7 193 
 BAR2 SZ ES       2227 38.83                             172   -0.5210 19.7 193 
 BAR2 SZ I        2227 41.01         7.0 0.26            172           19.7 193 
 BRR  HZ EP       2227 26.32                             151    0.2510 73.3 301 
 BRR  HN ES       2227 43.18                             151    0.7310 73.3 301 
 PAM  SZ EP       2227 27.23                             149    0.0510 80.1  38 
 PAM  SN ES       2227 44.15                             149   -0.2910 80.1  38 
 PAM  SZ I        2227 46.87         5.2 0.56            151           80.1  38 
 RUS  HZ EP       2227 28.55                             144    0.2510 96.8 176 
 RUS  HE ES       2227 46.72                             144    0.3010 96.8 176 
 RUS  HZ I        2227 48.59         2.8 0.54            146           96.8 176 
 PTB  HZ EP       2227 31.33                             131   -0.47 9  147 260 
 PTB  HN ES       2227 52.31                             131   -0.34 9  147 260 
 PTB  HZ I        2227 53.94         4.9 0.18            134            147 260 
                                                                                
