 2013  530 2133 40.1 L   5.844 -73.867105.6  RSN  4 0.5 1.1LRSN                1
 GAP=233        1.05      11.8     9.6 13.9  0.8208E+02  0.4503E+01 -0.1075E+02E
 Epicentro: SUCRE - SANTANDER                                                  3
 ACTION:UPD 13-06-20 09:55 OP:ep   STATUS:               ID:20130530213340 L   I
 2013-05-30-2130-00M.COL___259                                                 6
 STAT SP IPHASW D HRMM SECON CODA AMPLIT PERI AZIMU VELO AIN AR TRES W  DIS CAZ7
 RUS  HZ EP       2133 59.65                             138    0.6910 87.0  86 
 RUS  HN ES       2134 13.38                             138   -0.3310 87.0  86 
 RUS  HZ I        2134 15.65         2.4 0.24            111           87.0  86 
 PTB  HE ES   1   2134 14.63                             132   -0.02 7  101 320 
 PTB  HZ I        2134 16.57         2.6 0.13            109            101 320 
 BAR2 SZ EP       2134  0.55                             130   -0.2910  112  42 
 BAR2 SZ I        2134 17.73         4.5 0.38            105            112  42 
 BRR  HZ EP   1   2134  2.73                             122   -0.62 7  141   7 
 BRR  HN ES   1   2134 22.00                             122    0.49 7  141   7 
                                                                                
