 2014  830 2332 44.2 L   6.815 -73.193146.9  RSN 16 0.5 2.5LRSN                1
 GAP= 68        1.18       3.2     3.9  5.6 -0.1428E+01  0.4664E+01  0.8818E+00E
 Epicentro: ZAPATOCA - SANTANDER                                               3
 ACTION:UPD 14-09-15 21:54 OP:nd   STATUS:               ID:20140830233244 L   I
 OLDACT:UP  14-08-31 03:26 OP:cam  STATUS:               ID:20140830233000     3
 OLDACT:REG 14-08-31 02:37 OP:cam  STATUS:               ID:20140830233000     3
 2014-08-30-2330-00M.COL___282                                                 6
 STAT SP IPHASW D HRMM SECON CODA AMPLIT PERI AZIMU VELO AIN AR TRES W  DIS CAZ7
 BAR2 SZ EP       2333  3.66                             170   -0.3110 24.6 177 
 BAR2 SZ ES       2333 19.17                             170   -0.2310 24.6 177 
 BAR2 SZ I        2333 21.55        81.9 0.28            169           24.6 177 
 BRR  HZ EP     C 2333  5.70                             154    0.5410 65.8 299 
 BRR  HN ES       2333 22.37                             154    0.8510 65.8 299 
 BRR  HZ I        2333 25.24        51.6 0.30            151           65.8 299 
 PAM  SZ EP     D 2333  6.89                             150    0.2510 79.6  43 
 PAM  SN ES       2333 24.00                             150   -0.1710 79.6  43 
 PAM  SZ I        2333 27.10        42.1 0.50            155           79.6  43 
 RUS  HZ EP       2333  7.90                             144   -0.2910  103 173 
 RUS  HN ES       2333 26.78                             144   -0.1410  103 173 
 RUS  HZ I        2333 27.98        29.2 0.28            145            103 173 
 PTB  HZ EP       2333 10.58                             133   -0.23 9  143 258 
 PTB  HN ES       2333 31.30                             133   -0.28 9  143 258 
 PTB  HZ I        2333 34.07        24.9 0.18            132            143 258 
 TAM  HZ EP     C 2333 12.36                             130   -0.09 9  161 105 
 SPBC HZ EP       2333 12.84                             130    0.26 9  161 217 
 SPBC HN ES       2333 34.99                             130    0.26 9  161 217 
 SPBC HZ I        2333 39.43        39.0 0.22            129            161 217 
 ZAR  HZ EP       2333 17.04                             123    0.90 9  199 292 
 ZAR  HN ES       2333 41.17                             123    0.10 9  199 292 
 ZAR  HZ I        2333 46.97        38.2 0.30            123            199 292 
 NOR  HZ EP       2333 20.07                             119    0.44 8  231 233 
 NOR  HN ES       2333 45.90                             119   -1.37 8  231 233 
 NOR  HZ I        2333 57.57        19.8 0.50            119            231 233 
 SML  HZ EP       2333 20.08                             118   -0.39 8  240 336 
 SML  HN ES       2333 48.18                             118   -0.61 8  240 336 
 SML  HZ I        2333 50.74        34.3 0.34            119            240 336 
 CHI  HZ EP     C 2333 22.29                             117    0.32 8  249 194 
 CHI  HN ES       2333 51.42                             117   -0.02 8  249 194 
 CHI  HZ I        2333 56.68        23.7 0.30            118            249 194 
 ROSC BZ EP   4   2333 24.22                             117    1.99 0  252 210 
 HEL  HZ EP       2333 24.69                             115    0.75 8  267 255 
 HEL  HN ES   4   2333 56.42                             115    1.47 0  267 255 
 HEL  HZ I        2334  2.48        16.5 0.26            115            267 255 
 GUY2CHZ EP   4   2333 28.87                             113    1.40 0  298 234 
 GUY2CHN ES       2334  1.37                             113    0.13 7  298 234 
 GUY2CHZ I        2334 10.24        21.8 0.62                           298 234 
 DBB  SZ EP   4   2333 29.68                             110   -1.41 0  334 274 
 TOL  SZ EP   4   2333 33.54                             110    1.34 0  341 224 
 TOL  SZ ES       2334  9.43                             110   -0.22 7  341 224 
 TOL  SZ I        2334 20.19        38.0 0.34            110            341 224 
 MON  HZ EP   4   2333 31.03                             109   -1.60 0  349 309 
 PRA  HZ EP       2333 37.27                             107   -0.34 6  391 209 
 SJC  HZ EP       2333 38.13                             106   -1.15 6  405 327 
 SJC  HN ES   4   2334 19.33                             106   -2.94 0  405 327 
 SJC  HZ I        2334 33.58         6.5 0.74            107            405 327 
                                                                                
