 2012  430 2314  9.9 L   6.823 -73.179130.8  RSN  4 0.2 1.1LRSN                1
 GAP=131        0.53       3.3     3.3  9.4 -0.6736E+00  0.1699E+02 -0.9144E+01E
 Epicentro: ZAPATOCA - SANTANDER                                               3
 ACTION:UPD 12-07-05 11:57 OP:tino STATUS:               ID:20120430231409 L   I
 2012-04-30-2310-00M.COL___189                                                 6
 STAT SP IPHASW D HRMM SECON CODA AMPLIT PERI AZIMU VELO AIN AR TRES W  DIS CAZ7
 PAM  SZ EP   1   2314 30.62                             148     0.0 8   78  43 
 PAM  SZ I        2314 30.96         2.9 0.17                            78  43 
 PAM  SN ES   1   2314 46.58                             148    -0.1 8   78  43 
 RUS  HN ES       2314 50.11                             140     0.110  103 174 
 PTB  HZ EP   1   2314 35.16                             129    -0.2 7  145 258 
 PTB  HN ES   1   2314 54.96                             129    -0.3 7  145 258 
 PTB  HZ I        2314 57.31         1.7 0.17                           145 258 
 ZAR  HE ES       2315  5.42                             119     0.3 9  200 292 
                                                                                
