 2015 1130 2211 55.7 L   6.785 -73.096146.0  RSN  6 0.4 1.6LRSN                1
 GAP=144        0.93       5.0     6.3  7.6 -0.1122E+02  0.1207E+02  0.9524E+00E
 Epicentro: LOS SANTOS - SANTANDER                                             3
 ACTION:UPD 15-12-28 16:14 OP:cam  STATUS:               ID:20151130221155 L   I
 OLDACT:UP  15-12-01 07:44 OP:ak   STATUS:               ID:20151130220746     3
 OLDACT:REG 15-12-01 05:01 OP:ak   STATUS:               ID:20151130220746     3
 2015-11-30-2207-46M.COL___313                                                 6
 STAT SP IPHASW D HRMM SECON CODA AMPLIT PERI AZIMU VELO AIN AR TRES W  DIS CAZ7
 BAR2 EZ ES       2212 29.92                             170   -0.7210 23.4 204 
 PAM  EZ EP       2212 17.91                             151    0.1410 75.3  36 
 PAM  EN ES       2212 35.00                             151   -0.0210 75.3  36 
 PAM  EZ I        2212 37.27         6.8 0.18            154           75.3  36 
 BRR  HZ EP       2212 17.17                             151    0.0210 76.8 298 
 BRR  HN ES   1   2212 34.50                             151    0.58 7 76.8 298 
 RUS  HZ EP       2212 19.12                             144   -0.1710 98.7 179 
 RUS  HN ES       2212 38.28                             144    0.5510 98.7 179 
 RUS  HZ I        2212 38.83         3.7 0.30            146           98.7 179 
 PTB  HZ EP   4   2212 20.90                             131   -2.20 0  153 260 
 PTB  HN ES   4   2212 42.69                             131   -1.83 0  153 260 
 PTB  HZ I        2212 49.11         6.6 0.33            130            153 260 
 NOR  HZ EP   2   2212 31.55                             118   -0.23 4  238 236 
 NOR  HE ES       2212 59.83                             118   -0.13 8  238 236 
 NOR  HZ I        2213  2.96         5.4 0.24            119            238 236 
                                                                                
