 2016 1230 2247 21.8 L   6.779 -73.154149.1  RSN  5 0.3 1.5LRSN                1
 GAP=136        0.85       4.4     3.9  6.7  0.1450E+01  0.5799E+01  0.7832E+00E
 Epicentro: LOS SANTOS - SANTANDER                                             3
 ACTION:UPD 17-01-11 20:20 OP:rebc STATUS:               ID:20161230224721 L   I
 OLDACT:UP  16-12-31 04:04 OP:dani STATUS:               ID:20161230223746     3
 OLDACT:REG 16-12-31 02:47 OP:dani STATUS:               ID:20161230223746     3
 2016-12-30-2238-00M.COL___372                                                 6
 STAT SP IPHASW D HRMM SECON CODA AMPLIT PERI AZIMU VELO AIN AR TRES W  DIS CAZ7
 BRR  HZ EP       2247 43.70                             153    0.3910 71.5 301 
 BRR  HN ES       2248  0.57                             153    0.4710 71.5 301 
 BRR  HZ I        2248  3.80         8.9 0.35            152           71.5 301 
 PAM  EZ EP       2247 44.68                             151    0.1810 79.8  39 
 PAM  EN ES       2248  1.73                             151   -0.4810 79.8  39 
 PAM  EZ I        2248  3.92         4.9 0.44            153           79.8  39 
 RUS  HZ EP       2247 45.92                             145    0.2210 98.3 175 
 RUS  HN ES       2248  4.30                             145   -0.0610 98.3 175 
 RUS  HZ I        2248  5.70         2.3 0.42            149           98.3 175 
 PTB  HZ EP       2247 48.71                             133   -0.19 9  146 260 
 PTB  HN ES       2248  9.69                             133   -0.36 9  146 260 
 PTB  HZ I        2248 12.42         4.5 0.13            134            146 260 
 ZAR  HZ EP       2247 54.03                             123   -0.42 9  204 293 
 ZAR  HN ES       2248 20.01                             123    0.08 9  204 293 
 ZAR  HZ I        2248 26.34         4.7 0.27            124            204 293 
 GUY2CHZ EP   4   2248  8.20                             113    2.90 0  299 235 
                                                                                
