 2013 1130 2229 50.4 L   6.790 -73.180134.0  RSN 12 0.5 2.1LRSN                1
 GAP=140        1.25       4.2     5.9  8.2 -0.9858E+01  0.2092E+02 -0.5070E+01E
 Epicentro: LOS SANTOS - SANTANDER                                             3
 ACTION:UPD 14-01-09 16:32 OP:ep   STATUS:               ID:20131130222950 L   I
 OLDACT:REG 13-12-01 01:21 OP:nd   STATUS:               ID:20131130223000     3
 2013-11-30-2230-00M.COL___282                                                 6
 STAT SP IPHASW D HRMM SECON CODA AMPLIT PERI AZIMU VELO AIN AR TRES W  DIS CAZ7
 BAR2 SZ IP     C 2230  8.68                             170    0.0710 21.9 181 
 BAR2 SZ ES       2230 22.60                             170   -0.1910 21.9 181 
 BAR2 SZ I        2230 25.80        37.1 0.52            171           21.9 181 
 BRR  HZ IP     D 2230 10.71                             151    0.5610 68.5 301 
 BRR  HN ES   2   2230 25.73                             151    0.20 5 68.5 301 
 BRR  HZ I        2230 31.22        21.6 0.32            146           68.5 301 
 PAM  SZ IP     C 2230 11.93                             147    0.3210 80.6  41 
 PAM  SN ES       2230 28.48                             147    0.3510 80.6  41 
 PAM  SZ I        2230 31.30        16.2 0.38            151           80.6  41 
 PTB  HZ EP       2230 15.46                             130   -0.63 9  144 259 
 PTB  HN ES   2   2230 36.16                             130    0.05 5  144 259 
 PTB  HZ I        2230 37.51        14.9 0.12            130            144 259 
 SPBC HZ EP       2230 17.46                             127   -0.27 9  160 218 
 SPBC HN ES       2230 39.21                             127    0.18 9  160 218 
 SPBC HZ I        2230 41.57        18.5 0.50            130            160 218 
 OCA  HZ EP       2230 17.43                             127   -0.48 9  161 355 
 OCA  HN ES       2230 38.46                             127   -0.89 9  161 355 
 OCA  HZ I        2230 44.74        11.7 0.12            128            161 355 
 ZAR  HZ EP   4   2230 22.11                             120    0.31 0  201 293 
 ZAR  HN ES       2230 47.09                             120    0.81 9  201 293 
 ZAR  HZ I        2230 53.42        16.8 0.40            121            201 293 
 NOR  HZ EP       2230 24.64                             116   -0.45 8  231 234 
 NOR  HN ES       2230 51.65                             116   -0.48 8  231 234 
 NOR  HZ I        2230 57.73        13.4 0.32            119            231 234 
 SML  HZ EP       2230 27.49                             115    1.14 8  243 336 
 SML  HN ES       2230 53.66                             115   -0.72 8  243 336 
 SML  HZ I        2231  1.33        18.8 0.10            116            243 336 
 HEL  HZ EP       2230 30.17                             113    0.55 8  268 256 
 HEL  HN ES   2   2231  0.44                             113    0.25 4  268 256 
 HEL  HZ I        2231  7.66         8.3 0.24            114            268 256 
 GUY2CHZ EP   4   2230 33.59                             110    0.50 0  297 235 
 GUY2CHN ES   4   2231  6.74                             110    0.37 0  297 235 
 GUY2CHZ I        2231 15.13         8.4 0.38                           297 235 
 SJC  HZ EP   4   2230 43.07                             104   -2.42 0  408 327 
 SJC  HN ES   4   2231 26.14                             104   -2.30 0  408 327 
 SJC  HZ I        2231 39.46         2.8 0.34            106            408 327 
                                                                                
