 2013  330 2308 24.7 L   6.635 -73.335140.4  RSN  4 0.5 1.5LRSN                1
 GAP=200        1.18       9.8    10.0 10.9  0.6824E+02  0.2285E+02  0.2387E+01E
 Epicentro: GALAN - SANTANDER                                                  3
 ACTION:UPD 13-04-09 14:05 OP:ep   STATUS:               ID:20130330230824 L   I
 2013-03-30-2307-50M.COL___209                                                 6
 STAT SP IPHASW D HRMM SECON CODA AMPLIT PERI AZIMU VELO AIN AR TRES W  DIS CAZ7
 BRR  HN ES       23 9  0.65                             153   -0.1910 66.8 321 
 BRR  HN I        23 9  1.52         9.9 0.38            151           66.8 321 
 RUS  HZ EP   1   23 8 46.60                             147   -0.32 7 86.7 161 
 RUS  HN ES       23 9  4.56                             147    0.2910 86.7 161 
 RUS  HN I        23 9  6.33         3.0 0.32            145           86.7 161 
 PTB  HZ EP       23 8 48.34                             136   -0.8010  124 265 
 PTB  HN ES       23 9  8.39                             136    0.1710  124 265 
 PTB  HN I        23 9 15.12         5.5 0.26            132            124 265 
 ZAR  HZ EP       23 8 56.55                             123    0.91 9  193 299 
 ZAR  HN ES       23 9 19.76                             123   -0.03 9  193 299 
 ZAR  HN I        23 9 26.13         2.6 0.16            122            193 299 
                                                                                
