 2016 1030 2301 23.3 L   6.780 -73.135147.8  RSN 11 0.4 2.1LRSN                1
 GAP=139        1.00       4.0     4.5  5.8 -0.5603E+01  0.3037E+01  0.4932E+01E
 Epicentro: LOS SANTOS - SANTANDER                                             3
 ACTION:UPD 16-11-09 19:24 OP:rebc STATUS:               ID:20161030230123 L   I
 OLDACT:UP  16-10-31 07:57 OP:ar   STATUS:               ID:20161030225745     3
 OLDACT:UP  16-10-31 07:52 OP:ar   STATUS:               ID:20161030225745     3
 OLDACT:REG 16-10-31 07:09 OP:and  STATUS:               ID:20161030225745     3
 2016-10-30-2258-00M.COL___325                                                 6
 STAT SP IPHASW D HRMM SECON CODA AMPLIT PERI AZIMU VELO AIN AR TRES W  DIS CAZ7
 BAR2 EZ EP       23 1 42.94                             171   -0.1810 21.5 194 
 BAR2 EZ ES       23 1 58.01                             171   -0.5810 21.5 194 
 BAR2 EZ I        23 2  0.79        33.9 0.38            169           21.5 194 
 BRR  HZ IP     C 23 1 44.97                             152    0.2010 73.3 300 
 BRR  HN ES       23 2  2.48                             152    0.9510 73.3 300 
 BRR  HZ I        23 2  6.24        18.3 0.38            151           73.3 300 
 PAM  EZ IP     C 23 1 45.82                             151    0.0610 78.3  38 
 PAM  EN ES       23 2  3.28                             151   -0.0310 78.3  38 
 PAM  EZ I        23 2  6.29         7.4 0.40            155           78.3  38 
 RUS  HZ EP       23 1 46.98                             145   -0.0910 98.3 177 
 RUS  HN ES       23 2  5.81                             145    0.1810 98.3 177 
 RUS  HZ I        23 2  6.74        11.9 0.22            145           98.3 177 
 PTB  HZ EP       23 1 49.67                             132   -0.81 9  149 260 
 PTB  HN ES       23 2 11.03                             132   -0.67 9  149 260 
 PTB  HZ I        23 2 16.89        22.3 0.44            132            149 260 
 SPBC HZ EP       23 1 51.97                             130    0.12 9  162 220 
 SPBC HN ES       23 2 14.13                             130   -0.00 9  162 220 
 SPBC HZ I        23 2 15.38        26.4 0.44            130            162 220 
 NOR  HZ EP       23 1 59.28                             119    0.18 8  234 235 
 NOR  HN ES       23 2 27.27                             119    0.23 8  234 235 
 CHI  HZ EP       23 2  1.08                             118    0.18 8  247 196 
 CHI  HN ES       23 2 30.61                             118    0.37 8  247 196 
 CHI  HZ I        23 2 38.07         6.1 0.52            119            247 196 
 ROSC BZ EP   9   23 2  2.88                             117    1.50 0  252 212 
 ROSC BN ES   2   23 2 32.56                             117   -0.04 4  252 212 
 ROSC BZ I        23 2 40.99        11.4 0.50            118            252 212 
 HEL  HZ EP   2   23 2  4.07                             115    0.40 4  273 256 
 HEL  HN ES   4   23 2 37.00                             115    1.83 0  273 256 
 HEL  HZ I        23 2 41.46         8.9 0.36            116            273 256 
 GUY2CHZ EP   9   23 2  9.01                             113    2.06 0  301 235 
 GUY2CHN ES       23 2 43.17                                    0.09 7  301 235 
 GUY2CHZ I        23 2 47.82         6.4 0.38                           301 235 
 LL6C HZ IP   4   23 1 48.36                             111   -21.0 0  327 357 
 LL6C HN ES   4   23 2 22.09                             111   -23.1 0  327 357 
                                                                                
