 2017  530 2042 38.3 L   6.708 -73.208124.6  RSN  4 0.4 1.4LRSN                1
 GAP=236        0.86       6.4     5.5  9.9  0.1852E+02  0.2558E+01 -0.2337E+02E
 Epicentro: VILLANUEVA - SANTANDER                                             3
 ACTION:UPD 17-06-16 13:40 OP:jn   STATUS:               ID:20170530204238 L   I
 OLDACT:DUP 17-05-31 08:40 OP:lv   STATUS:               ID:20170530203737d    3
 2017-05-30-2038-00M.COL___356                                                 6
 STAT SP IPHASW D HRMM SECON CODA AMPLIT PERI AZIMU VELO AIN AR TRES W  DIS CAZ7
 RUS  HZ EP       2042 59.02                             142   -0.2610 91.3 171 
 RUS  HN ES       2043 15.94                             142    0.2710 91.3 171 
 RUS  HZ I        2043 18.37         9.9 0.04            148           91.3 171 
 PTB  HZ EP       2043  2.55                             128   -0.24 9  139 262 
 PTB  HN ES       2043 21.40                             128   -0.51 9  139 262 
 PTB  HZ I        2043 25.53         3.0 0.06            132            139 262 
 ZAR  HZ EP       2043  9.66                             118    0.46 9  202 296 
 ZAR  HE ES       2043 33.54                             118    0.22 9  202 296 
 ZAR  HZ I        2043 40.49         1.5 0.17            121            202 296 
 NOR  HZ EP       2043 11.35                             115   -0.24 8  223 236 
 NOR  HN ES       2043 38.06                             115    0.47 8  223 236 
 NOR  HZ I        2043 41.82         1.6 0.21            119            223 236 
                                                                                
