 2017 1030 2155  6.2 L   6.777 -73.145146.2  RSN  9 0.5 1.5LRSN                1
 GAP=138        1.11       4.1     4.4  6.4 -0.8039E+00  0.8944E+01  0.5946E+01E
 Epicentro: LOS SANTOS - SANTANDER                                             3
 ACTION:UPD 17-11-07 19:39 OP:rebc STATUS:               ID:20171030215506 L   I
 OLDACT:DUP 17-10-31 06:11 OP:osc  STATUS:               ID:20171030214748d    3
 OLDACT:REG 17-10-31 04:02 OP:osc  STATUS:               ID:20171030214746     3
 2017-10-30-2148-00M.COL___438                                                 6
 STAT SP IPHASW D HRMM SECON CODA AMPLIT PERI AZIMU VELO AIN AR TRES W  DIS CAZ7
 BAR2 EZ EP       2155 25.78                             172   -0.0210 20.8 191 
 BAR2 EZ ES       2155 41.39                             172    0.2710 20.8 191 
 BAR2 EZ I        2155 43.28         5.8 0.18            171           20.8 191 
 BRR  HZ EP       2155 27.54                             152    0.1110 72.5 300 
 BRR  HE ES       2155 44.44                             152    0.4210 72.5 300 
 BRR  HZ I        2155 48.78         7.0 0.30            151           72.5 300 
 PAM  EZ EP       2155 28.82                             150    0.2810 79.3  38 
 PAM  EE ES       2155 45.82                             150   -0.1810 79.3  38 
 PAM  EZ I        2155 47.95         4.8 0.50            154           79.3  38 
 RUS  HZ EP       2155 29.88                             145    0.1010 98.1 176 
 RUS  HN ES       2155 47.90                             145   -0.3010 98.1 176 
 RUS  HZ I        2155 49.91         2.3 0.28            148           98.1 176 
 PTB  HZ EP       2155 32.74                             132   -0.39 9  147 260 
 PTB  HN ES       2155 52.96                             132   -1.20 9  147 260 
 PTB  HZ I        2156  0.71         2.9 0.52            133            147 260 
 ZAR  HZ EP       2155 38.82                             122    0.08 9  205 293 
 ZAR  HN ES       2156  4.19                             122    0.04 9  205 293 
 ZAR  HZ I        2156  9.35         5.4 0.36            124            205 293 
 NOR  HZ EP       2155 41.59                             119   -0.17 8  233 235 
 NOR  HE ES       2156 10.26                             119    0.73 8  233 235 
 NOR  HZ I        2156 12.80         2.1 0.24            121            233 235 
 CHI  HZ EP       2155 42.81                             117   -0.81 8  246 195 
 CHI  HE ES       2156 13.22                             117    0.38 8  246 195 
 GUY2CHZ EP       2155 50.26                             112    0.63 7  300 235 
 GUY2CHN ES       2156 23.88                             112    0.35 7  300 235 
                                                                                
