 2010  730 2300 17.8 L   6.281 -73.633110.0  RSN  6 0.3 1.8LRSN                1
 GAP= 87        0.57       3.8     4.5  8.4  0.4323E+01  0.2531E+02  0.1288E+02E
 Epicentro: SANTA HELENA DEL OPON - SANTANDER                                  3
 ACTION:UPD 10-12-01 15:21 OP:pat  STATUS:               ID:20100730230017 L   I
 2010-07-30-2255-48S.COL___123                                                 6
 STAT SP IPHASW D HRMM SECON CODA AMPLIT PERI AZIMU VELO AIN AR TRES W  DIS CAZ7
 BAR2 SZ EP   1   23 0 34.99                             149     0.2 7   60  55 
 BAR2 SZ ES   1   23 0 48.30                             149     0.2 7   60  55 
 BAR2 SZ I        23 0 49.72        52.3 0.30                            60  55 
 RUS  HZ EP   1   23 0 36.01                             144    -0.1 7   75 125 
 RUS  HE ES   1   23 0 50.36                             144    -0.1 7   75 125 
 RUS  HZ I        23 0 52.21         7.9 0.32                            75 125 
 BRR  HZ EP   1   23 0 36.56                             137    -0.2 7   92 355 
 BRR  HN ES   1   23 0 51.62                             137     0.0 7   92 355 
 BRR  HZ I        23 0 53.73        15.5 0.39                            92 355 
 CHI  HZ EP   2   23 0 45.96                             117    -0.4 4  183 183 
 CHI  HZ I        23 0 46.84         3.4 0.25                           183 183 
 HEL  HZ EP   2   23 0 49.44                             113     0.1 4  210 267 
 HEL  HE ES   2   23 1 13.34                             113    -0.6 4  210 267 
 HEL  HZ I        23 1 17.36         3.4 0.27                           210 267 
 GUY  SZ EP   2   23 0 51.84                             111     0.7 4  225 239 
 GUY  SN ES   2   23 1 17.51                             111     0.4 4  225 239 
 GUY  SZ I        23 1 22.75        15.3 0.48                           225 239 
                                                                                
