 2011  130 2228 49.3 L   6.814 -73.135141.3  RSN 14 0.4 2.6LRSN                1
 GAP=104        0.99       3.3     4.5  7.0 -0.2967E+01  0.9611E+01 -0.1591E+01E
 Epicentro: LOS SANTOS - SANTANDER                                             3
 ACTION:UP  11-02-08 08:43 OP:pat  STATUS:               ID:20110130222849 L   I
 2011-01-30-2227-15S.COL___135                                                 6
 STAT SP IPHASW D HRMM SECON CODA AMPLIT PERI AZIMU VELO SNR AR TRES W  DIS CAZ7
 BAR2 SZ EP       2229  8.47                             169     0.010   25 192 
 BAR2 SZ ES   1   2229 23.37                             169     0.0 7   25 192 
 BAR2 SZ I        2229 25.07        92.4 0.17                            25 192 
 RUS  HZ IP     D 2229 12.49                             142    -0.310  102 177 
 RUS  HN ES   1   2229 30.52                             142    -0.5 7  102 177 
 RUS  HZ I        2229 33.13        29.5 0.20                           102 177 
 GRA  SZ EP       2229 14.23                             136     0.210  124  17 
 GRA  SZ I        2229 41.27        35.3 0.32                           124  17 
 OCA  SZ EP       2229 17.06                             129    -0.1 9  159 353 
 OCA  SZ ES   1   2229 39.41                             129     0.5 7  159 353 
 OCA  SZ I        2229 43.47        56.4 0.22                           159 353 
 YOP  SZ EP       2229 19.27                             125     0.1 9  180 154 
 YOP  SN ES   1   2229 42.92                             125     0.5 7  180 154 
 YOP  SZ I        2229 45.73        21.8 0.30                           180 154 
 NOR  SZ EP       2229 24.68                             117    -0.3 8  237 234 
 NOR  SN ES   1   2229 51.98                             117    -0.9 6  237 234 
 CHI  HZ EP       2229 26.76                             116    -0.2 8  250 195 
 CHI  HN ES   1   2229 56.07                             116    -0.3 6  250 195 
 CHI  HZ I        2230  2.32        23.3 0.29                           250 195 
 ROSC BZ EP       2229 28.26                             115     0.8 8  255 211 
 ROSC BN ES   1   2229 57.60                             115     0.5 6  255 211 
 ROSC BZ I        2230  2.63        41.2 0.30                           255 211 
 HEL  HZ EP   1   2229 29.83                             114     0.3 6  274 256 
 HEL  HN ES       2230  0.91                             114     0.1 8  274 256 
 HEL  HZ I        2230  6.99        26.9 0.32                           274 256 
 GUY  SZ EP   1   2229 33.18                             111     0.2 5  303 235 
 GUY  SZ I        2230 14.81        38.3 0.32                           303 235 
 RREF HZ EP   1   2229 34.91                             110    -0.6 5  324 229 
 RREF HN ES   1   2230 12.10                             110     0.6 5  324 229 
 RREF HZ I        2230 18.28        21.5 0.11                           324 229 
 DBB  SZ EP       2229 36.26                             108    -0.5 7  341 274 
 TOL  SZ EP   1   2229 38.30                             108     0.7 5  345 225 
 SDV  BZ EP   1   2229 38.11                             107    -0.9 5  358  50 
                                                                                
