 2012 1130 2210  6.2 L   6.801 -73.130140.0  RSN  9 0.4 2.3LRSN                1
 GAP=138        0.75       3.2     5.0  6.6 -0.1057E+01  0.1437E+02 -0.2593E+01E
 Epicentro: LOS SANTOS - SANTANDER                                             3
 ACTION:UPD 12-12-05 15:37 OP:}ep  STATUS:               ID:20121130221006 L   I
 2012-11-30-2210-00M.COL___236                                                 6
 STAT SP IPHASW D HRMM SECON CODA AMPLIT PERI AZIMU VELO AIN AR TRES W  DIS CAZ7
 BAR2 SZ EP   1   2210 25.15                             170    0.00 7 23.8 194 
 BAR2 SZ ES   1   2210 39.43                             170   -0.50 7 23.8 194 
 BAR2 SZ I        2210 40.81        79.6 0.24                          23.8 194 
 GIR2 SZ EP       2210 25.27                             167    0.0810 31.5 347 
 GIR2 SZ ES   1   2210 39.61                             167   -0.40 7 31.5 347 
 GIR2 SZ I        2210 41.82        40.8 0.64                          31.5 347 
 PAM  SZ EP   1   2210 28.23                             150    0.50 7 76.2  39 
 PAM  SN ES   1   2210 44.89                             150    0.37 7 76.2  39 
 PAM  SZ I        2210 47.13        70.0 0.46                          76.2  39 
 RUS  HZ EP   1   2210 29.16                             142   -0.23 7  101 177 
 RUS  HE ES   1   2210 47.61                             142    0.13 7  101 177 
 RUS  HZ I        2210 49.19        14.4 0.42                           101 177 
 PTB  HZ EP   1   2210 32.92                             130    0.05 7  150 259 
 PTB  HZ I        2210 55.62        20.3 0.16                           150 259 
 OCA  HE ES   1   2210 56.11                             128    0.29 7  160 353 
 ZAR  HN ES   1   2211  4.02                             121    0.43 6  206 292 
 NOR  HN ES   1   2211  9.83                             117    0.32 6  236 235 
 SML  HZ EP   1   2210 41.60                             116   -0.98 6  244 335 
 SML  HE ES   1   2211 10.64                             116   -0.31 6  244 335 
 MON  HN ES   4   2211 31.70                             107   -1.60 0  355 308 
                                                                                
