 2012 1130 2155 54.4 L   6.789 -73.168142.0  RSN  7 0.3 1.7LRSN                1
 GAP=134        0.62       4.1     3.8  5.9 -0.4401E+00  0.6537E+01  0.3071E+00E
 Epicentro: LOS SANTOS - SANTANDER                                             3
 ACTION:UPD 12-12-05 15:37 OP:}ep  STATUS:               ID:20121130215554 L   I
 2012-11-30-2150-00M.COL___236                                                 6
 STAT SP IPHASW D HRMM SECON CODA AMPLIT PERI AZIMU VELO AIN AR TRES W  DIS CAZ7
 BAR2 SZ EP   1   2156 13.74                             171    0.22 7 21.8 184 
 BAR2 SZ ES   1   2156 28.91                             171    0.46 7 21.8 184 
 BAR2 SZ I        2156 30.99        20.0 0.24                          21.8 184 
 GIR2 SZ EP   1   2156 13.53                             167   -0.09 7 32.2 355 
 GIR2 SZ ES   1   2156 28.94                             167    0.30 7 32.2 355 
 GIR2 SZ I        2156 33.66         6.3 0.50                          32.2 355 
 PAM  SZ EP   1   2156 16.57                             149    0.23 7 79.9  40 
 PAM  SN ES   1   2156 32.95                             149   -0.53 7 79.9  40 
 PAM  SZ I        2156 35.61         6.2 0.48                          79.9  40 
 RUS  HZ EP   1   2156 17.78                             143    0.10 7 99.6 175 
 RUS  HN ES   1   2156 35.41                             143   -0.45 7 99.6 175 
 RUS  HZ I        2156 38.23         8.4 0.32                          99.6 175 
 PTB  HZ EP   1   2156 20.65                             132   -0.15 7  145 259 
 PTB  HN ES   1   2156 41.48                             132    0.07 7  145 259 
 PTB  HZ I        2156 44.23         6.6 0.20                           145 259 
 ZAR  HN ES   1   2156 51.06                             122   -0.30 6  202 293 
 SML  HZ EP   3   2156 31.67                             117    0.87 2  244 336 
                                                                                
