 2010 1030 2205 29.5 L   6.795 -73.108146.8  RSN 21 0.5 3.3LRSN                1
 GAP=105        1.13       3.7     5.9  6.1 -0.9192E+01  0.2526E+01  0.5146E+01E
 Epicentro: LOS SANTOS - SANTANDER                                             3
 ACTION:UP  11-02-18 11:13 OP:tino STATUS:               ID:20101030220529 L   I
 2010-10-30-2203-55S.COL___128                                                 6
 STAT SP IPHASW D HRMM SECON CODA AMPLIT PERI AZIMU VELO SNR AR TRES W  DIS CAZ7
 BTL  SZ IP       22 5 49.31                             171     0.110   22 308 
 BTL  SZ ES   1   22 6  4.93                             171     0.3 7   22 308 
 BAR2 SZ IP       22 5 49.07                             170    -0.210   24 200 
 BAR2 SZ ES   1   22 6  3.91                             170    -0.8 7   24 200 
 BAR2 SZ I        22 6  5.97       384.9 0.39                            24 200 
 GIR2 SZ EP   1   22 5 49.12                             167    -0.2 7   33 343 
 BRR  HZ IP     C 22 5 50.94                             151    -0.110   75 297 
 BRR  HN ES   1   22 6  8.31                             151     0.5 7   75 297 
 BRR  HZ I        22 6 10.74       373.0 0.28                            75 297 
 RUS  HZ IP     D 22 5 52.87                             144    -0.410  100 178 
 RUS  HN ES   1   22 6 11.96                             144     0.1 7  100 178 
 BRI  SZ EP       22 5 53.63                             142     0.210  108  19 
 BRI  SZ ES   1   22 6 12.11                             142     0.0 7  108  19 
 BRI  SZ I        22 6 13.97       166.2 0.02                           108  19 
 GUE  SZ EP   1   22 5 54.03                             140    -0.3 7  116  10 
 GRA  SZ IP       22 5 55.86                             137     1.110  125  16 
 GRA  SZ ES   1   22 6 14.91                             137     0.4 7  125  16 
 GRA  SZ I        22 6 17.19       283.0 0.20                           125  16 
 OCA  SZ EP       22 5 57.37                             130    -0.6 9  161 352 
 OCA  SZ ES   1   22 6 19.61                             130    -0.6 7  161 352 
 OCA  SZ I        22 6 24.26       329.0 0.27                           161 352 
 YOP  SZ IP       22 5 59.48                             127     0.1 9  177 154 
 NOR  SZ EP   1   22 6  4.79                             118    -0.9 6  238 235 
 NOR  SN ES   1   22 6 33.21                             118    -0.6 6  238 235 
 ROSC BZ EP   1   22 6  8.20                             117     0.3 6  254 212 
 ROSC BE ES   1   22 6 38.64                             117     0.8 6  254 212 
 ROSC BZ I        22 6 45.13       171.7 0.18                           254 212 
 CVER SZ EP   1   22 6 10.30                             115     0.3 6  273 203 
 CVER SZ I        22 6 52.30       140.0 0.21                           273 203 
 HEL  HZ EP   1   22 6 10.84                             115     0.6 6  276 256 
 HEL  HN ES   2   22 6 42.61                             115     0.6 4  276 256 
 HEL  HZ I        22 6 47.80        73.6 0.33                           276 256 
 VIL  SZ EP   1   22 6 13.80                             112     1.0 5  302 191 
 GUY  SZ EP   1   22 6 13.93                             112     0.4 5  304 235 
 GUY  SZ I        22 6 56.62       232.9 0.25                           304 235 
 DBB  SZ EP   1   22 6 17.29                             109    -0.2 5  344 274 
 TOL  SZ EP   1   22 6 18.45                             109     0.3 5  346 225 
 SDV  BZ EP   1   22 6 18.44                             108    -0.8 5  358  50 
 SDV  BZ I        22 6 57.78        24.1 0.52                           358  50 
 ANIL HZ EP   2   22 6 19.57                             108    -0.1 3  360 225 
 ANIL HE ES   1   22 6 58.56                             108    -0.2 5  360 225 
 ANIL HZ I        22 7  5.11       265.3 0.13                           360 225 
 PRA  HZ EP   1   22 6 22.43                             107    -0.8 4  394 210 
 PRA  HN ES   1   22 7  4.98                             107    -0.2 4  394 210 
                                                                                
