 2012  130 2319  9.3 L   6.783 -73.158149.9  RSN  7 0.3 1.7LRSN                1
 GAP=136        0.57       5.0     5.2  7.1  0.7314E+01  0.6036E+01  0.5842E+01E
 Epicentro: LOS SANTOS - SANTANDER                                             3
 ACTION:UP  12-02-03 08:22 OP:REBC STATUS:               ID:20120130231909 L   I
 2012-01-30-2317-59S.COL___188                                                 6
 STAT SP IPHASW D HRMM SECON CODA AMPLIT PERI AZIMU VELO SNR AR TRES W  DIS CAZ7
 BAR2 SZ EP       2319 29.35                             172     0.010   21 187 
 BAR2 SZ ES   3   2319 45.12                             172     0.1 2   21 187 
 BAR2 SZ I        2319 47.12        14.9 0.36                            21 187 
 GIR2 SZ EP       2319 29.48                             167     0.010   33 353 
 GIR2 SZ ES   2   2319 44.71                             167    -0.6 5   33 353 
 BRR  HZ EP       2319 31.16                             153     0.310   71 300 
 BRR  HN ES   2   2319 48.29                             153     0.6 5   71 300 
 BRR  HZ I        2319 51.10        14.0 0.16                            71 300 
 PAM  SZ EP   1   2319 32.00                             151    -0.1 7   80  39 
 RUS  HZ EP       2319 33.43                             145     0.110   99 175 
 RUS  HN ES   2   2319 51.99                             145    -0.1 5   99 175 
 RUS  HZ I        2319 53.05         5.2 0.26                            99 175 
 PTB  HZ EP       2319 36.24                             133    -0.2 9  146 259 
 ZAR  HE ES   2   2320  7.13                             123    -0.3 4  204 293 
 ZAR  HZ I        2320 15.07         4.5 0.32                           204 293 
                                                                                
