 2013  930 2111 44.0 L   6.783 -73.165145.7  RSN  4 0.4 1.2LRSN                1
 GAP=135        1.06       5.8     6.1  9.4 -0.2835E+01  0.6811E+01  0.7566E+01E
 Epicentro: LOS SANTOS - SANTANDER                                             3
 ACTION:UPD 13-10-22 09:26 OP:ep   STATUS:               ID:20130930211144 L   I
 OLDACT:REG 13-09-30 21:17 OP:jn   STATUS:               ID:20130930210959     3
 2013-09-30-2109-59M.COL___272                                                 6
 STAT SP IPHASW D HRMM SECON CODA AMPLIT PERI AZIMU VELO AIN AR TRES W  DIS CAZ7
 BRR  HZ EP       2112  5.22                             153    0.1710 70.3 301 
 BRR  HN ES       2112 22.19                             153    0.6810 70.3 301 
 PAM  SZ EP       2112  6.39                             150    0.0510 80.1  40 
 PAM  SN ES       2112 23.32                             150   -0.4710 80.1  40 
 PAM  SZ I        2112 23.79         2.9 0.44            153           80.1  40 
 RUS  HZ EP       2112  7.93                             144    0.3410 98.9 175 
 RUS  HN ES       2112 25.91                             144   -0.1110 98.9 175 
 RUS  HZ I        2112 27.60         1.9 0.20            144           98.9 175 
 PTB  HZ EP       2112 10.43                             132   -0.28 9  145 259 
 PTB  HE ES   1   2112 30.72                             132   -0.85 7  145 259 
 PTB  HZ I        2112 33.89         3.9 0.34            133            145 259 
                                                                                
