 2017  630 2120 58.6 L   6.789 -73.113138.8  RSN  6 0.4 1.9LRSN                1
 GAP=267        1.04       6.1     6.5  7.7 -0.1609E+01  0.1633E+02 -0.7162E-01E
 Epicentro: LOS SANTOS - SANTANDER                                             3
 ACTION:UPD 17-09-14 16:56 OP:jn   STATUS:               ID:20170630212058 L   I
 OLDACT:REG 17-07-01 03:15 OP:dhb  STATUS:               ID:20170630210620     3
 2017-06-30-2118-00M.COL___389                                                 6
 STAT SP IPHASW D HRMM SECON CODA AMPLIT PERI AZIMU VELO AIN AR TRES W  DIS CAZ7
 BAR2 EZ EP       2121 17.34                             170   -0.0110 23.0 200 
 BAR2 EZ ES       2121 32.26                             170    0.2610 23.0 200 
 BAR2 EZ I        2121 34.92        34.7 0.27            169           23.0 200 
 PTB  HZ EP       2121 24.46                             130   -0.82 9  151 260 
 PTB  HE ES       2121 45.39                             130   -0.73 9  151 260 
 PTB  HZ I        2121 47.96         6.6 0.10            130            151 260 
 SPBC HZ EP       2121 26.48                             127   -0.18 9  165 220 
 SPBC HE ES       2121 48.70                             127    0.11 9  165 220 
 SPBC HZ I        2121 49.36        11.1 0.12            129            165 220 
 ZAR  HZ EP       2121 31.64                             120    0.67 8  208 292 
 ZAR  HE ES       2121 56.55                             120    0.31 8  208 292 
 ZAR  HZ I        2122  1.51         7.3 0.34            121            208 292 
 NOR  HZ EP       2121 33.93                             117   -0.21 8  237 235 
 NOR  HN ES       2122  2.37                             117    0.48 8  237 235 
 NOR  HZ I        2122  8.20         6.3 0.21            118            237 235 
 GUY2CHZ EP       2121 42.33                             111    0.22 7  303 235 
 GUY2CHN ES       2122 16.39                             111    0.31 7  303 235 
 GUY2CHZ I        2122 22.57         4.1 0.27                           303 235 
                                                                                
