 2012  830 2050 11.2 L   6.734 -73.116146.7  RSN  9 0.3 2.5LRSN                1
 GAP=143        0.70       3.3     3.6  4.6 -0.4978E+00  0.4815E+01  0.2314E+01E
 Epicentro: JORDAN - SANTANDER                                                 3
 ACTION:UPD 12-09-10 11:59 OP:ep   STATUS:               ID:20120830205011 L   I
 2012-08-30-2050-00M.COL___218                                                 6
 STAT SP IPHASW D HRMM SECON CODA AMPLIT PERI AZIMU VELO AIN AR TRES W  DIS CAZ7
 BAR2 SZ EP       2050 30.96                             173    0.1310 17.3 205 
 BAR2 SZ ES       2050 46.21                             173    0.0610 17.3 205 
 BAR2 SZ I        2050 48.81       120.5 0.42                          17.3 205 
 BRR  HZ EP       2050 32.88                             151    0.0610 77.7 302 
 BRR  HE ES   1   2050 50.30                             151    0.61 7 77.7 302 
 BRR  HZ I        2050 53.22        50.4 0.20                          77.7 302 
 PAM  SZ EP       2050 33.80                             150    0.0610 81.3  34 
 PAM  SZ I        2050 34.15        74.1 0.24                          81.3  34 
 PAM  SE ES   1   2050 51.09                             150   -0.24 7 81.3  34 
 RUS  HZ EP   1   2050 34.59                             146    0.08 7 93.1 178 
 RUS  HN ES   1   2050 52.34                             146   -0.36 7 93.1 178 
 PTB  HZ EP       2050 37.73                             132   -0.69 9  150 262 
 PTB  HE ES   1   2050 59.05                             132   -0.60 7  150 262 
 PTB  HZ I        2051  6.48        28.3 0.36                           150 262 
 ZAR  HZ EP   1   2050 44.32                             122    0.01 6  210 294 
 ZAR  HN ES   1   2051 10.34                             122    0.21 6  210 294 
 ZAR  HZ I        2051 16.60        27.4 0.30                           210 294 
 NOR  SZ EP   1   2050 46.86                             119    0.04 6  233 236 
 NOR  SN ES   1   2051 14.80                             119    0.19 6  233 236 
 NOR  SZ I        2051 19.34        27.2 0.18                           233 236 
 CHI  HZ EP       2050 48.55                             118    0.27 8  242 196 
 CHI  HN ES   1   2051 17.50                             118    0.30 6  242 196 
 CHI  HZ I        2051 26.45        12.6 0.60                           242 196 
 HEL  HZ EP   1   2050 51.88                             115    0.26 6  274 257 
 HEL  HZ I        2051 32.41        14.0 0.30                           274 257 
                                                                                
