 2017  730 2018 24.1 L   6.816 -73.122142.3  RSN  8 0.4 1.7LRSN                1
 GAP=241        0.88       4.4     4.7  7.1  0.5726E+01  0.6096E+01  0.5077E+01E
 Epicentro: LOS SANTOS - SANTANDER                                             3
 ACTION:UPD 17-08-30 15:38 OP:rebc STATUS:               ID:20170730201824 L   I
 OLDACT:REG 17-07-31 02:58 OP:dhb  STATUS:               ID:20170730201738     3
 2017-07-30-2018-00M.COL___392                                                 6
 STAT SP IPHASW D HRMM SECON CODA AMPLIT PERI AZIMU VELO AIN AR TRES W  DIS CAZ7
 BRR  HZ IP     C 2018 45.26                             151    0.2910 72.7 296 
 BRR  HN ES       2019  1.47                             151    0.2310 72.7 296 
 RUS  HZ EP       2018 47.89                             143    0.2610  102 178 
 RUS  HN ES       2019  5.86                             143   -0.1210  102 178 
 RUS  HZ I        2019  7.88         4.6 0.36            144            102 178 
 PTB  HZ EP       2018 50.32                             131   -0.74 9  151 258 
 PTB  HN ES       2019 11.45                             131   -0.64 9  151 258 
 PTB  HZ I        2019 13.85         5.9 0.19            131            151 258 
 SPBC HZ IP     D 2018 52.69                             128    0.06 9  166 219 
 SPBC HE ES       2019 14.82                             128   -0.06 9  166 219 
 SPBC HZ I        2019 17.08         7.3 0.18            128            166 219 
 ZAR  HZ EP   4   2018 57.74                             121    1.23 0  206 291 
 ZAR  HE ES       2019 21.90                             121    0.11 8  206 291 
 ZAR  HZ I        2019 27.15         6.2 0.14            122            206 291 
 NOR  HE ES       2019 28.09                             117    0.13 8  238 234 
 NOR  HZ I        2019 31.22         4.5 0.20            118            238 234 
 HEL  HN ES       2019 36.30                             114    0.34 8  275 256 
 GUY2CHZ EP       2019  7.77                             111   -0.14 7  304 235 
 GUY2CHN ES   1   2019 42.92                             111    0.84 5  304 235 
 GUY2CHZ I        2019 49.20         2.1 0.21                           304 235 
                                                                                
