 2011 1130 2048 34.4 L   6.767 -73.118146.0  RSN  8 0.3 2.1LRSN                1
 GAP=142        0.57       3.2     4.0  4.9 -0.3741E+01  0.5274E+01  0.1744E+01E
 Epicentro: LOS SANTOS - SANTANDER                                             3
 ACTION:UPD 12-07-13 16:13 OP:ep   STATUS:               ID:20111130204834 L   I
 2011-11-30-2045-41S.COL___162                                                 6
 STAT SP IPHASW D HRMM SECON CODA AMPLIT PERI AZIMU VELO AIN AR TRES W  DIS CAZ7
 BAR2 SZ EP   1   2048 53.87                             172   -0.11 7 20.6 200 
 BAR2 SZ ES   1   2049  8.93                             172   -0.34 7 20.6 200 
 BAR2 SZ I        2049 10.95        26.8 0.37                          20.6 200 
 BRR  HZ EP       2048 55.73                             151   -0.0810 75.7 300 
 BRR  HZ I        2048 56.15        21.0 0.12                          75.7 300 
 BRR  HE ES   1   2049 12.89                             151    0.36 7 75.7 300 
 PAM  SZ EP       2048 56.62                             151   -0.0610 78.4  36 
 PAM  SE ES   1   2049 13.98                             151   -0.09 7 78.4  36 
 PAM  SZ I        2049 15.98        14.0 0.56                          78.4  36 
 RUS  HZ EP   1   2048 58.08                             145    0.20 7 96.7 178 
 RUS  HN ES   1   2049 16.77                             145    0.56 7 96.7 178 
 RUS  HZ I        2049 18.21        16.5 0.43                          96.7 178 
 NOR  SZ EP   1   2049 10.05                             119   -0.11 6  235 236 
 NOR  SN ES   1   2049 37.74                             119   -0.34 6  235 236 
 CHI  HN ES   1   2049 40.50                             118   -0.48 6  246 196 
 CHI  HZ I        2049 47.18         6.1 0.34                           246 196 
 HEL  HZ EP   2   2049 15.28                             115    0.44 4  274 257 
 HEL  HN ES   2   2049 46.56                             115    0.17 4  274 257 
 HEL  HZ I        2049 50.22         7.6 0.44                           274 257 
 RREF HZ EP   2   2049 21.05                             111    0.52 3  322 230 
 RREF HZ I        2050  5.43         9.0 0.26                           322 230 
                                                                                
