 2012 1130 2023 29.8 L   6.774 -73.164142.5  RSN  4 0.3 1.5LRSN                1
 GAP=135        0.59       4.2     3.8  8.7 -0.4114E+00  0.1093E+02 -0.1068E+01E
 Epicentro: LOS SANTOS - SANTANDER                                             3
 ACTION:UPD 12-12-05 15:37 OP:}ep  STATUS:               ID:20121130202329 L   I
 2012-11-30-2020-00M.COL___236                                                 6
 STAT SP IPHASW D HRMM SECON CODA AMPLIT PERI AZIMU VELO AIN AR TRES W  DIS CAZ7
 PAM  SZ EP   1   2023 52.00                             149    0.16 7 80.9  39 
 PAM  SN ES   1   2024  8.86                             149   -0.21 7 80.9  39 
 PAM  SZ I        2024 11.48         5.0 0.68                          80.9  39 
 RUS  HZ EP   1   2023 52.99                             144    0.00 7 97.8 175 
 RUS  HN ES   1   2024 11.36                             144    0.25 7 97.8 175 
 RUS  HZ I        2024 13.08         4.2 0.26                          97.8 175 
 PTB  HZ EP   1   2023 55.90                             132   -0.32 7  145 260 
 PTB  HN ES   1   2024 16.52                             132   -0.35 7  145 260 
 PTB  HZ I        2024 21.52         4.6 0.12                           145 260 
 ZAR  HN ES   1   2024 27.52                             122    0.53 6  203 293 
                                                                                
