 2017 1030 2134 27.9 L   5.841 -73.870126.0  RSN  5 0.3 1.4LRSN                1
 GAP=279        0.76       6.5     4.9 10.1  0.1628E+02 -0.1185E+02 -0.1471E+02E
 Epicentro: JESUS MARIA - SANTANDER                                            3
 ACTION:UPD 17-11-07 19:39 OP:rebc STATUS:               ID:20171030213427 L   I
 OLDACT:DUP 17-10-31 05:47 OP:osc  STATUS:               ID:20171030212744d    3
 OLDACT:REG 17-10-31 04:00 OP:osc  STATUS:               ID:20171030212742     3
 2017-10-30-2128-00M.COL___438                                                 6
 STAT SP IPHASW D HRMM SECON CODA AMPLIT PERI AZIMU VELO AIN AR TRES W  DIS CAZ7
 NOR  HZ EP       2134 50.01                             135   -0.3010  115 255 
 NOR  HN ES       2135  7.84                             135    0.0210  115 255 
 NOR  HZ I        2135 10.50         7.1 0.14            138            115 255 
 CHI  HZ EP       2134 52.46                             130   -0.1410  135 173 
 CHI  HN ES       2135 12.00                             130    0.1110  135 173 
 GUY2CHZ EP       2134 57.58                             122    0.51 9  179 248 
 GUY2CHE ES       2135 20.21                             122    0.36 9  179 248 
 GUY2CHZ I        2135 25.29         1.7 0.44                           179 248 
 NIZA HE ES       2135 22.34                             119   -0.50 9  197 244 
 PRA  HE ES       2135 34.74                             111   -0.03 8  261 206 
                                                                                
