 2011  530 2008 42.9 L   6.759 -73.112145.7  RSN  6 0.3 1.6LRSN                1
 GAP=163        0.58       4.6     6.5  8.7 -0.4611E+01 -0.9918E+01  0.1095E+02E
 Epicentro: LOS SANTOS - SANTANDER                                             3
 ACTION:UP  11-06-29 08:57 OP:tino STATUS:               ID:20110530200842 L   I
 2011-05-30-2000-00M.COL___116                                                 6
 STAT SP IPHASW D HRMM SECON CODA AMPLIT PERI AZIMU VELO SNR AR TRES W  DIS CAZ7
 BAR2 SZ EP   1   20 9  2.44                             172    -0.1 7   20 203 
 BAR2 SZ I        20 9 19.34         6.3 0.62                            20 203 
 BTL  SZ EP   2   20 9  3.04                             170     0.4 5   25 316 
 BRR  HZ EP   1   20 9  4.38                             151     0.0 7   77 300 
 BRR  HN ES   1   20 9 21.33                             151     0.2 7   77 300 
 BRR  HZ I        20 9 29.89        26.1 0.40                            77 300 
 RUS  HZ EP   1   20 9  6.78                             145     0.4 7   96 178 
 RUS  HN ES   2   20 9 24.16                             145    -0.5 5   96 178 
 GRA  SZ EP   2   20 9  8.10                             136    -0.4 5  129  15 
 GRA  SZ ES   2   20 9 28.04                             136    -0.3 5  129  15 
 GRA  SZ I        20 9 31.18         2.8 0.50                           129  15 
 NOR  SZ EP   2   20 9 18.45                             118    -0.3 4  235 236 
 NOR  SN ES   2   20 9 46.20                             118    -0.4 4  235 236 
                                                                                
