 2012  530 2022 49.3 L   6.775 -73.149146.2  RSN  5 0.3 1.4LRSN                1
 GAP=137        0.69       4.9     4.3  7.6 -0.5035E+00  0.9997E+01 -0.3107E+01E
 Epicentro: LOS SANTOS - SANTANDER                                             3
 ACTION:UP  12-07-05 12:09 OP:pat  STATUS:               ID:20120530202249 L   I
 2012-05-30-2020-00M.COL___201                                                 6
 STAT SP IPHASW D HRMM SECON CODA AMPLIT PERI AZIMU VELO AIN AR TRES W  DIS CAZ7
 BAR2 SZ EP   1   2023  9.01                             172     0.1 7   21 190 
 BAR2 SZ ES   1   2023 24.47                             172     0.3 7   21 190 
 BAR2 SZ I        2023 24.75         5.7 0.36                            21 190 
 PAM  SZ EP   1   2023 11.89                             150     0.2 7   80  38 
 PAM  SN ES   1   2023 28.74                             150    -0.4 7   80  38 
 RUS  HZ EP   1   2023 12.90                             145     0.0 7   98 176 
 RUS  HN ES   1   2023 31.32                             145     0.1 7   98 176 
 RUS  HZ I        2023 33.08         3.1 0.27                            98 176 
 PTB  HZ EP   1   2023 15.81                             132    -0.4 7  147 260 
 PTB  HE ES   1   2023 36.80                             132    -0.4 7  147 260 
 PTB  HZ I        2023 39.69         3.1 0.14                           147 260 
 ZAR  HN ES   1   2023 47.69                             122     0.5 6  205 293 
                                                                                
