 2017  130 2357  1.3 L   6.791 -73.169146.4  RSN  6 0.4 1.9LRSN                1
 GAP=134        1.03       5.2     4.6  7.0  0.2592E+01  0.7910E+01 -0.1529E+01E
 Epicentro: LOS SANTOS - SANTANDER                                             3
 ACTION:UPD 17-05-22 16:05 OP:jn   STATUS:               ID:20170130235701 L   I
 OLDACT:DUP 17-01-31 06:37 OP:cog  STATUS:               ID:20170130234745d    3
 OLDACT:REG 17-01-31 05:32 OP:cog  STATUS:               ID:20170130234744     3
 2017-01-30-2348-00M.COL___343                                                 6
 STAT SP IPHASW D HRMM SECON CODA AMPLIT PERI AZIMU VELO AIN AR TRES W  DIS CAZ7
 BAR2 EZ EP       2357 21.55                             171    0.6110 22.0 184 
 BAR2 EZ ES       2357 35.79                             171   -0.5110 22.0 184 
 BAR2 EZ I        2357 36.74        30.7 0.14            172           22.0 184 
 BRR  HZ EP       2357 22.57                             153    0.1910 69.4 300 
 BRR  HE ES       2357 39.54                             153    0.6910 69.4 300 
 BRR  HZ I        2357 42.70        20.1 0.16            153           69.4 300 
 PAM  EZ EP       2357 23.54                             150   -0.1510 79.8  41 
 PAM  EE ES       2357 40.88                             150   -0.3010 79.8  41 
 PAM  EZ I        2357 42.37        14.7 0.58            152           79.8  41 
 RUS  HZ EP       2357 25.35                             144    0.3310 99.8 175 
 RUS  HN ES       2357 43.54                             144   -0.0110 99.8 175 
 RUS  HZ I        2357 44.27         6.4 0.20            147           99.8 175 
 PTB  HZ EP       2357 27.40                             133   -0.64 9  145 259 
 PTB  HN ES       2357 48.73                             133   -0.19 9  145 259 
 PTB  HZ I        2357 50.70        12.4 0.16            134            145 259 
 ZAR  HZ EP       2357 33.40                             123   -0.14 9  202 293 
 ZAR  HN ES       2357 58.70                             123   -0.02 9  202 293 
                                                                                
