 2014  330 2251 21.1 L   6.779 -73.123148.7  RSN 14 0.5 2.2LRSN                1
 GAP=140        0.95       3.4     4.2  5.8 -0.2508E+01  0.4476E+01  0.2739E+01E
 Epicentro: LOS SANTOS - SANTANDER                                             3
 OLDACT:DUP 14-03-31 00:45 OP:fm   STATUS:               ID:20140330224807d    3
 ACTION:UPD 14-04-09 23:21 OP:nd   STATUS:               ID:20140330225121 L   I
 OLDACT:UP  14-03-31 00:56 OP:fm   STATUS:               ID:20140330224807d    3
 2014-03-30-2248-06M.COL___258                                                 6
 STAT SP IPHASW D HRMM SECON CODA AMPLIT PERI AZIMU VELO AIN AR TRES W  DIS CAZ7
 BAR2 SZ EP   1   2251 41.11                             171    0.08 7 21.7 198 
 BAR2 SZ ES   1   2251 55.89                             171   -0.70 7 21.7 198 
 BAR2 SZ I        2251 59.09        35.3 0.30            170           21.7 198 
 BRR  HZ EP       2251 42.95                             152    0.2210 74.5 299 
 BRR  HN ES       2252  0.21                             152    0.5910 74.5 299 
 PAM  SZ EP   1   2251 43.97                             151    0.35 7 77.7  37 
 PAM  SN ES       2252  1.18                             151   -0.0310 77.7  37 
 PAM  SZ I        2252  3.13        19.7 0.54            153           77.7  37 
 RUS  HZ EP   1   2251 45.58                             145    0.64 7 98.1 177 
 RUS  HE ES   2   2252  3.48                             145   -0.08 5 98.1 177 
 RUS  HZ I        2252  4.41        14.1 0.64            146           98.1 177 
 PTB  HZ EP       2251 48.10                             132   -0.37 9  150 260 
 PTB  HN ES       2252  9.22                             132   -0.62 9  150 260 
 PTB  HZ I        2252 14.19        10.9 0.66            131            150 260 
 SPBC HZ EP   1   2251 50.04                             130    0.26 7  163 220 
 SPBC HN ES   1   2252 12.45                             130    0.27 7  163 220 
 SPBC HZ I        2252 15.74        23.2 0.18            129            163 220 
 ZAR  HZ EP   1   2251 53.65                             123   -0.40 6  207 292 
 ZAR  HE ES   1   2252 19.66                             123   -0.10 6  207 292 
 ZAR  HZ I        2252 25.32        12.3 0.32            122            207 292 
 NOR  HZ EP   1   2251 57.16                             119    0.11 6  235 235 
 NOR  HE ES       2252 25.66                             119    0.54 8  235 235 
 NOR  HZ I        2252 28.64        13.2 0.20            119            235 235 
 CHI  HZ EP       2251 59.20                             118    0.43 8  247 196 
 CHI  HN ES       2252 27.29                             118   -0.88 8  247 196 
 CHI  HZ I        2252 36.20         6.0 0.72            118            247 196 
 SML  HZ EP   1   2251 57.49                             118   -0.72 6  247 335 
 SML  HE ES   1   2252 27.30                             118    0.12 6  247 335 
 SML  HZ I        2252 29.55        24.2 0.08            118            247 335 
 HEL  HZ EP   2   2252  2.10                             115    0.45 4  274 256 
 HEL  HN ES   1   2252 33.47                             115    0.18 6  274 256 
 HEL  HZ I        2252 40.15         6.5 0.30            115            274 256 
 GUY2CHZ EP   4   2252  7.23                             113    2.33 0  302 235 
 GUY2CHN ES   4   2252 42.26                             113    3.17 0  302 235 
 GUY2CHZ I        2252 46.09         6.5 0.48                           302 235 
 COD  HZ EP   1   2252  9.10                             109   -0.77 5  351 354 
 COD  HE ES   4   2252 46.26                             109   -1.66 0  351 354 
 COD  HZ I        2252 55.01         5.6 4.20            110            351 354 
 SJC  HZ EP   4   2252 15.56                             106   -1.57 0  413 327 
 SJC  HN ES   4   2252 55.40                             106   -5.45 0  413 327 
 SJC  HZ I        2253  4.44         8.7 2.18            106            413 327 
                                                                                
