 2015 1130 2204 47.9 L   6.835 -73.180149.3  RSN  6 0.3 1.7LRSN                1
 GAP=137        0.72       5.2     3.6  6.7 -0.4523E+01  0.5682E+01 -0.8252E+01E
 Epicentro: ZAPATOCA - SANTANDER                                               3
 ACTION:UPD 15-12-28 16:14 OP:cam  STATUS:               ID:20151130220447 L   I
 OLDACT:UP  15-12-01 07:38 OP:ak   STATUS:               ID:20151130215751d    3
 OLDACT:DUP 15-12-01 07:33 OP:ak   STATUS:               ID:20151130215751d    3
 OLDACT:UP  15-12-01 07:32 OP:ak   STATUS:               ID:20151130215750     3
 OLDACT:REG 15-12-01 05:01 OP:ak   STATUS:               ID:20151130215750     3
 2015-11-30-2157-50M.COL___313                                                 6
 STAT SP IPHASW D HRMM SECON CODA AMPLIT PERI AZIMU VELO AIN AR TRES W  DIS CAZ7
 BAR2 EZ ES   2   22 5 22.92                             169   -0.79 5 26.9 181 
 BAR2 EZ I        22 5 24.28        11.5 0.30            168           26.9 181 
 BRR  HZ EP       22 5  9.39                             155    0.2510 66.0 297 
 BRR  HN ES       22 5 26.22                             155    0.5110 66.0 297 
 PAM  EZ EP       22 5 10.48                             152    0.0310 77.0  44 
 PAM  EN ES       22 5 27.89                             152   -0.1610 77.0  44 
 PAM  EZ I        22 5 29.75         9.6 0.52            155           77.0  44 
 PTB  HZ EP   2   22 5 15.29                             133    0.41 5  145 257 
 PTB  HE ES       22 5 35.83                             133   -0.11 9  145 257 
 PTB  HZ I        22 5 42.47         4.0 0.14            132            145 257 
 ZAR  HZ EP   2   22 5 19.95                             124   -0.11 4  199 292 
 ZAR  HE ES       22 5 44.65                             124   -0.50 9  199 292 
 ZAR  HZ I        22 5 52.30         5.6 0.43            124            199 292 
 SML  HZ EP   2   22 5 23.85                             119   -0.31 4  239 336 
 SML  HE ES       22 5 52.46                             119    0.01 8  239 336 
                                                                                
