 2010  130 2213 52.2 L   6.795 -73.452130.0  RSN  5 0.4 1.2LRSN                1
 GAP=178        0.73       4.3    30.4 14.3  0.2635E+01  0.3198E+03 -0.8790E+00E
 Epicentro: SAN VICENTE DE CHUCURI - SANTANDER                                 3
 ACTION:UP  10-08-24 09:46 OP:vdl  STATUS:               ID:20100130221352 L   I
 2010-01-30-2210-24S.COL___094                                                 6
 STAT SP IPHASW D HRMM SECON CODA AMPLIT PERI AZIMU VELO SNR AR TRES W  DIS CAZ7
 BAR2 SZ ES   3   2214 24.57                             163     0.0 2   37 127 
 GIR2 SZ EP       2214 10.80                             161     0.410   42  42 
 GIR2 SZ ES   2   2214 25.02                             161     0.4 5   42  42 
 RUS  BZ EP       2214 14.98                             138    -0.110  108 158 
 RUS  BN ES   2   2214 32.33                             138    -0.5 5  108 158 
 RUS  BZ I        2214 34.38         3.5 0.45                           108 158 
 OCA  SZ EP       2214 18.99                             126    -0.4 9  160   5 
 OCA  SZ ES   3   2214 40.00                             126    -0.6 2  160   5 
 CHI  HZ EP   2   2214 29.13                             114     0.8 4  241 187 
 CHI  HZ I        2214 29.85         1.1 0.37                           241 187 
 CHI  HN ES   2   2214 56.03                             114    -0.4 4  241 187 
                                                                                
