 2017  130 2041 26.9 L   6.763 -73.164142.2  RSN  4 0.2 1.3LRSN                1
 GAP=136        0.57       3.0     2.7  6.3 -0.2421E+00  0.5747E+01 -0.7282E+00E
 Epicentro: LOS SANTOS - SANTANDER                                             3
 ACTION:UPD 17-05-22 16:05 OP:jn   STATUS:               ID:20170130204126 L   I
 OLDACT:DUP 17-01-31 05:43 OP:cog  STATUS:               ID:20170130203746d    3
 2017-01-30-2038-00M.COL___361                                                 6
 STAT SP IPHASW D HRMM SECON CODA AMPLIT PERI AZIMU VELO AIN AR TRES W  DIS CAZ7
 PAM  EZ EP       2041 48.87                             149   -0.1510 81.8  39 
 PAM  EN ES       2042  6.30                             149    0.0310 81.8  39 
 PAM  EZ I        2042  8.07         6.0 0.52            154           81.8  39 
 RUS  HZ EP       2041 50.38                             144    0.3510 96.6 175 
 RUS  HN ES       2042  7.97                             144   -0.0910 96.6 175 
 RUS  HZ I        2042 10.12         2.7 0.24            147           96.6 175 
 PTB  HZ EP       2041 53.05                             132   -0.29 9  145 260 
 PTB  HN ES       2042 13.87                             132   -0.08 9  145 260 
 PTB  HZ I        2042 19.55         2.0 0.24            134            145 260 
 ZAR  HE ES       2042 24.44                             122    0.24 9  204 293 
                                                                                
