 2016 1130 2201 32.5 L   6.819 -73.202137.5  RSN  4 0.1 1.5LRSN                1
 GAP=131        0.31       2.9     1.7  2.9 -0.2223E+01  0.2669E+01 -0.3233E+01E
 Epicentro: ZAPATOCA - SANTANDER                                               3
 ACTION:UPD 17-10-26 21:13 OP:lp   STATUS:               ID:20161130220132 L   I
 OLDACT:REG 16-12-01 03:06 OP:cara STATUS:               ID:20161130215749     3
 2016-11-30-2158-00M.COL___349                                                 6
 STAT SP IPHASW D HRMM SECON CODA AMPLIT PERI AZIMU VELO AIN AR TRES W  DIS CAZ7
 BAR2 EZ ES       22 2  5.70                             169   -0.0410 25.2 175 
 BAR2 EZ I        22 2  9.08        17.1 0.32            172           25.2 175 
 PAM  EZ EP       22 1 54.00                             148   -0.0010 79.9  44 
 PAM  EN ES       22 2 10.80                             148    0.0310 79.9  44 
 PAM  EZ I        22 2 13.02         2.5 0.24            153           79.9  44 
 PTB  HZ EP       22 1 58.38                             131    0.09 9  142 258 
 PTB  HN ES       22 2 18.40                             131    0.00 9  142 258 
 PTB  HZ I        22 2 24.65         3.7 0.24            133            142 258 
 ZAR  HZ EP       22 2  3.62                             121   -0.12 9  198 292 
 ZAR  HN ES       22 2 28.12                             121    0.02 9  198 292 
 ZAR  HZ I        22 2 35.20         5.2 0.68            123            198 292 
                                                                                
