 2010  430 2138 36.9 L   6.796 -73.002144.0  RSN 12 0.5 2.6LRSN                1
 GAP=150        1.11       5.9     7.5  9.0 -0.2974E+02 -0.3093E+02  0.2642E+02E
 Epicentro: CEPITA - SANTANDER                                                 3
 ACTION:UP  10-08-24 10:02 OP:vdl  STATUS:               ID:20100430213836 L   I
 2010-04-30-2133-35S.COL___105                                                 6
 STAT SP IPHASW D HRMM SECON CODA AMPLIT PERI AZIMU VELO SNR AR TRES W  DIS CAZ7
 BAR2 SZ EP   1   2138 56.55                             168     0.1 7   30 222 
 BAR2 SZ ES   2   2139 10.95                             168    -0.8 5   30 222 
 BRR  HZ IP     D 2138 58.87                             147     0.110   86 294 
 BRR  HN ES       2139 15.90                             147     0.110   86 294 
 BRR  HZ I        2139 16.68        96.2 0.11                            86 294 
 BRI  SZ EP       2139  1.03                             142     0.710  104  13 
 BRI  SZ ES   2   2139 18.34                             142    -0.2 5  104  13 
 GUE  SZ EP       2139  1.35                             140     0.010  115   4 
 GRA  SZ EP       2139  1.27                             137    -0.410  122  10 
 GRA  SZ ES   2   2139 20.71                             137    -0.3 5  122  10 
 OCA  SZ EP       2139  4.75                             129    -0.6 9  163 348 
 OCA  SZ ES   1   2139 28.10                             129     0.5 7  163 348 
 CHI  HZ EP   1   2139 14.77                             116    -0.2 6  253 199 
 CHI  HN ES   2   2139 44.41                             116    -0.3 4  253 199 
 CHI  HZ I        2139 47.55        25.3 0.69                           253 199 
 HEL  HZ EP   3   2139 18.98                             113     0.2 2  287 257 
 HEL  HZ I        2139 54.93        19.4 0.42                           287 257 
 RREF BZ EP       2139 25.06                             110     0.7 7  334 231 
 RREF BN ES   1   2140  2.15                             110     0.8 5  334 231 
 RREF BZ I        2140  8.56        22.3 0.43                           334 231 
 SDV  BZ EP       2139 26.12                             109     0.6 6  349  48 
 SDV  BZ I        2139 26.90         6.8 0.24                           349  48 
 SDV  BN ES       2140  3.26                             109    -0.2 6  349  48 
 DBB  SZ EP   1   2139 24.59                             108    -1.6 5  355 274 
 PRA  HZ EP       2139 30.54                             106    -0.7 6  400 212 
 PRA  HN ES   1   2140 13.88                             106     0.2 4  400 212 
 PRA  HZ I        2140 18.03        21.0 0.25                           400 212 
                                                                                
