 2010  930 2301 14.0 L   6.790 -73.066146.0  RSN  5 0.2 1.7LRSN                1
 GAP=168        0.63       5.3     8.1  9.0 -0.1474E+02 -0.2843E+02 -0.4943E+00E
 Epicentro: LOS SANTOS - SANTANDER                                             3
 ACTION:UP  11-02-18 11:06 OP:tino STATUS:               ID:20100930230114 L   I
 2010-09-30-2259-12S.COL___125                                                 6
 STAT SP IPHASW D HRMM SECON CODA AMPLIT PERI AZIMU VELO SNR AR TRES W  DIS CAZ7
 BTL  SZ EP       23 1 34.15                             169     0.410   26 303 
 BRR  HZ EP       23 1 35.48                             150    -0.210   80 296 
 BRR  HE ES   1   23 1 52.69                             150     0.1 7   80 296 
 BRR  HZ I        23 1 57.77        13.5 0.39                            80 296 
 RUS  HZ EP   3   23 1 38.17                             144     0.5 2   99 181 
 RUS  HE ES   2   23 1 55.82                             144    -0.4 5   99 181 
 RUS  HZ I        23 1 57.00         4.2 0.21                            99 181 
 GUE  SZ EP       23 1 38.54                             140    -0.210  116   8 
 GRA  SZ EP       23 1 39.26                             137     0.110  124  13 
 GRA  SZ ES   1   23 1 58.83                             137     0.0 7  124  13 
 GRA  SZ I        23 2  0.26         9.9 0.27                           124  13 
                                                                                
