 2012 1030 2347 42.2 L   6.785 -73.121142.8  RSN  5 0.2 1.6LRSN                1
 GAP=140        0.40       2.6     3.0  4.0  0.1890E+01  0.1652E+01  0.4874E+00E
 Epicentro: LOS SANTOS - SANTANDER                                             3
 ACTION:UPD 12-11-22 17:06 OP:ep   STATUS:               ID:20121030234742 L   I
 2012-10-30-2340-00M.COL___231                                                 6
 STAT SP IPHASW D HRMM SECON CODA AMPLIT PERI AZIMU VELO AIN AR TRES W  DIS CAZ7
 BAR2 SZ ES   1   2348 16.49                             171   -0.01 7 22.4 198 
 BAR2 SZ I        2348 17.46        16.8 0.33                          22.4 198 
 BRR  HZ EP       2348  3.23                             151    0.0010 74.3 299 
 BRR  HN ES   1   2348 19.89                             151    0.27 7 74.3 299 
 BRR  HZ I        2348 20.74         8.7 0.22                          74.3 299 
 PAM  SZ EP   1   2348  4.29                             150    0.19 7 77.0  37 
 PAM  SE ES   1   2348 20.95                             150   -0.22 7 77.0  37 
 PAM  SZ I        2348 23.30         5.9 0.40                          77.0  37 
 RUS  HZ EP       2348  5.55                             144    0.0010 98.8 178 
 RUS  HE ES   1   2348 23.70                             144   -0.05 7 98.8 178 
 RUS  HE I        2348 26.25         6.2 0.25                          98.8 178 
 ZAR  HE ES   1   2348 39.96                             121   -0.25 6  207 292 
 ZAR  HZ I        2348 42.30         3.8 0.14                           207 292 
                                                                                
