 2013  430 2324 31.9 L   6.739 -73.152154.0  RSN  8 0.4 1.9LRSN                1
 GAP=138        0.95       4.5     4.8  6.7  0.5779E+00  0.7814E+01 -0.3861E+01E
 Epicentro: JORDAN - SANTANDER                                                 3
 ACTION:UPD 13-05-22 14:41 OP:EP   STATUS:               ID:20130430232431 L   I
 2013-04-30-2320-00M.COL___253                                                 6
 STAT SP IPHASW D HRMM SECON CODA AMPLIT PERI AZIMU VELO AIN AR TRES W  DIS CAZ7
 BAR2 SZ EP       2324 52.82                             174    0.4410 16.6 192 
 BAR2 SZ ES   2   2325  7.84                             174   -0.54 5 16.6 192 
 BAR2 SZ I        2325  9.36        16.8 0.40            171           16.6 192 
 BRR  HZ IP     C 2324 54.56                             153    0.4910 74.1 303 
 BRR  HN ES       2325 11.99                             153    0.6010 74.1 303 
 BRR  HZ I        2325 18.33        11.0 0.30            152           74.1 303 
 PAM  SZ IP     D 2324 55.59                             151    0.2810 83.1  37 
 PAM  SN ES       2325 13.07                             151   -0.5110 83.1  37 
 PAM  SZ I        2325 16.75         7.1 0.54            157           83.1  37 
 RUS  HZ EP       2324 55.85                             147   -0.1410 93.9 175 
 RUS  HN ES       2325 14.76                             147   -0.0510 93.9 175 
 RUS  HZ I        2325 18.74         7.7 0.46            150           93.9 175 
 PTB  HZ EP       2324 59.24                             134   -0.12 9  146 261 
 PTB  HN ES   1   2325 20.03                             134   -0.77 7  146 261 
 PTB  HZ I        2325 26.54        10.9 0.18            135            146 261 
 ZAR  HZ EP       2325  4.54                             124   -0.53 8  206 294 
 ZAR  HN ES   1   2325 31.03                             124    0.07 6  206 294 
 ZAR  HZ I        2325 33.55         9.4 0.32            126            206 294 
 NOR  HZ EP   4   2325  9.16                             121    1.53 0  230 236 
 NOR  HN ES   2   2325 35.93                             121    0.41 4  230 236 
 NOR  HZ I        2325 42.64         7.6 0.16            123            230 236 
 SML  HZ EP       2325  9.27                             119   -0.33 8  250 336 
 SML  HN ES   2   2325 39.07                             119    0.05 4  250 336 
 SML  HZ I        2325 41.22        22.2 0.22            122            250 336 
 SJC  HZ EP   4   2325 26.89                             107   -1.44 0  414 328 
 SJC  HN ES   4   2326  9.69                             107   -2.68 0  414 328 
                                                                                
