 2016 1030 2315  3.9 L   6.752 -73.101141.5  RSN  4 0.3 1.2LRSN                1
 GAP=145        0.76       3.9     5.9  6.2 -0.4205E+00 -0.2531E+01  0.6447E+00E
 Epicentro: LOS SANTOS - SANTANDER                                             3
 ACTION:UPD 16-11-09 19:24 OP:rebc STATUS:               ID:20161030231503 L   I
 OLDACT:REG 16-10-31 07:10 OP:and  STATUS:               ID:20161030230747     3
 2016-10-30-2308-00M.COL___325                                                 6
 STAT SP IPHASW D HRMM SECON CODA AMPLIT PERI AZIMU VELO AIN AR TRES W  DIS CAZ7
 BAR2 EZ EP       2315 22.64                             172   -0.3510 19.8 207 
 BAR2 EZ ES       2315 37.55                             172   -0.2910 19.8 207 
 BAR2 EZ I        2315 39.38         5.8 0.26            171           19.8 207 
 BRR  HZ EP       2315 24.74                             149   -0.3010 78.1 300 
 BRR  HE ES       2315 41.84                             149    0.3410 78.1 300 
 PAM  EZ EP       2315 25.80                             150    0.0210 78.6  34 
 PAM  EN ES       2315 42.93                             150    0.1210 78.6  34 
 PAM  EZ I        2315 45.12         4.3 0.58            151           78.6  34 
 RUS  HZ EP       2315 27.30                             144    0.4310 95.1 179 
 RUS  HN ES       2315 44.80                             144    0.0410 95.1 179 
 RUS  HZ I        2315 47.96         1.4 0.26            145           95.1 179 
                                                                                
