 2012  530 2159 22.4 L   7.051 -73.379121.1  RSN  5 0.4 1.4LRSN                1
 GAP=140        0.90       6.1     4.7 11.3  0.3536E+00  0.1787E+02 -0.2591E+01E
 Epicentro: SAN VICENTE DE CHUCURI - SANTANDER                                 3
 ACTION:UP  12-07-05 12:09 OP:pat  STATUS:               ID:20120530215922 L   I
 2012-05-30-2157-38M.COL___185                                                 6
 STAT SP IPHASW D HRMM SECON CODA AMPLIT PERI AZIMU VELO AIN AR TRES W  DIS CAZ7
 BAR2 SZ ES   1   2159 54.31                             154     0.1 7   55 157 
 PAM  SZ EP   1   2159 41.84                             144    -0.5 7   82  67 
 PAM  SN ES   1   2159 57.95                             144     0.1 7   82  67 
 PTB  HZ EP   1   2159 45.39                             129    -0.5 7  132 245 
 PTB  HN ES   1   22 0  3.92                             129    -0.3 7  132 245 
 PTB  HZ I        22 0  7.90         6.4 0.16                           132 245 
 RUS  HZ EP   1   2159 47.29                             129     0.7 7  132 166 
 RUS  HN ES   1   22 0  5.36                             129    -0.1 7  132 166 
 RUS  HZ I        22 0  9.62         3.0 0.35                           132 166 
 ZAR  HN ES   1   22 0 11.62                             121     0.5 7  170 287 
                                                                                
