 2016  330 2024  1.2 L   6.480 -73.460114.7  RSN  5 0.3 1.4LRSN                1
 GAP=122        0.63       4.6     3.7  6.1  0.9553E+01  0.1216E+02  0.5438E+01E
 Epicentro: SIMACOTA - SANTANDER                                               3
 ACTION:UPD 16-05-13 21:29 OP:cam  STATUS:               ID:20160330202401 L   I
 OLDACT:REG 16-03-31 02:27 OP:dnl  STATUS:               ID:20160330201744     3
 2016-03-30-2017-44M.COL___314                                                 6
 STAT SP IPHASW D HRMM SECON CODA AMPLIT PERI AZIMU VELO AIN AR TRES W  DIS CAZ7
 BAR2 EZ EP   2   2024 17.09                             163   -0.30 5 33.1  68 
 BAR2 EZ ES       2024 29.99                             163   -0.0410 33.1  68 
 BAR2 EZ I        2024 31.70        15.3 0.36            162           33.1  68 
 RUS  HZ EP       2024 20.52                             144    0.3410 77.2 147 
 RUS  HN ES       2024 35.05                             144    0.0410 77.2 147 
 RUS  HZ I        2024 37.51         2.3 0.23            147           77.2 147 
 PTB  HZ EP       2024 21.73                             133   -0.4910  110 273 
 PTB  HN ES       2024 38.57                             133   -0.0710  110 273 
 PTB  HZ I        2024 39.80         5.2 0.16            134            110 273 
 ZAR  HZ EP   2   2024 30.54                             116    0.19 4  191 306 
 ZAR  HN ES       2024 53.41                             116    0.31 9  191 306 
 ZAR  HZ I        2024 58.94         3.2 0.24            117            191 306 
 GUY2CHZ EP   2   2024 37.55                             109   -0.33 4  253 237 
 GUY2CHN ES   2   2025  6.93                             109    0.42 4  253 237 
 GUY2CHZ I        2025 22.28         1.3 0.48                           253 237 
                                                                                
