 2014 1230 2112 25.7 L   6.815 -73.142150.5  RSN  6 0.2 1.7LRSN                1
 GAP=183        0.48       2.5     3.2  4.3  0.2306E+01  0.1876E+01  0.1065E+01E
 Epicentro: LOS SANTOS - SANTANDER                                             3
 ACTION:UPD 15-02-10 17:08 OP:nd   STATUS:               ID:20141230211225 L   I
 OLDACT:REG 14-12-31 03:30 OP:spq  STATUS:               ID:20141230210743     3
 2014-12-30-2107-43M.COL___274                                                 6
 STAT SP IPHASW D HRMM SECON CODA AMPLIT PERI AZIMU VELO AIN AR TRES W  DIS CAZ7
 BAR2 EZ EP       2112 46.11                             170    0.1810 25.0 190 
 BAR2 EZ ES   1   2113  1.64                             170   -0.07 7 25.0 190 
 BAR2 EZ I        2113  4.08         9.4 0.18            169           25.0 190 
 RUS  HZ EP       2112 50.03                             144   -0.0010  102 176 
 RUS  HE ES   1   2113  9.30                             144    0.29 7  102 176 
 RUS  HZ I        2113 11.34         5.1 0.60            146            102 176 
 PTB  HZ EP       2112 53.10                             133   -0.02 9  148 258 
 PTB  HN ES       2113 14.36                             133   -0.15 9  148 258 
 PTB  HZ I        2113 17.61         9.0 0.12            133            148 258 
 OCA  HN ES   1   2113 16.14                             131   -0.35 7  159 353 
 OCA  HZ I        2113 20.40         7.1 0.24            133            159 353 
 ZAR  HZ EP   1   2112 58.48                             123    0.05 6  204 292 
 ZAR  HE ES   1   2113 24.34                             123    0.38 6  204 292 
 ZAR  HZ I        2113 30.73        10.7 0.42            124            204 292 
 CHI  HZ EP       2113  3.85                             118    0.01 8  250 195 
 CHI  HE ES   1   2113 33.14                             118   -0.46 6  250 195 
 CHI  HZ I        2113 39.92         2.1 0.50            120            250 195 
                                                                                
