 2012  430 2247 25.3 L   6.808 -73.183144.5  RSN  5 0.3 1.6LRSN                1
 GAP=132        0.90       5.7     4.5  9.8 -0.8271E+00  0.7421E+01  0.1424E+02E
 Epicentro: LOS SANTOS - SANTANDER                                             3
 ACTION:UP  12-07-05 11:57 OP:tino STATUS:               ID:20120430224725 L   I
 2012-04-30-2240-00M.COL___189                                                 6
 STAT SP IPHASW D HRMM SECON CODA AMPLIT PERI AZIMU VELO AIN AR TRES W  DIS CAZ7
 BRR  HZ EP   1   2247 46.78                             154     0.7 7   67 300 
 BRR  HZ I        2247 47.20        12.2 0.11                            67 300 
 BRR  HE ES   1   2248  2.78                             154     0.5 7   67 300 
 PAM  SZ EP   1   2247 47.67                             150     0.2 7   79  42 
 PAM  SZ I        2247 48.02         5.5 0.19                            79  42 
 PAM  SN ES       2248  4.49                             150    -0.310   79  42 
 RUS  HZ EP       2247 48.83                             143    -0.210  102 174 
 RUS  HN ES   1   2248  7.67                             143     0.2 7  102 174 
 RUS  HZ I        2248 10.41         3.8 0.18                           102 174 
 PTB  HZ EP   1   2247 51.80                             132     0.0 7  144 258 
 PTB  HN ES       2248 12.25                             132    -0.2 9  144 258 
 PTB  HZ I        2248 18.76         6.4 0.43                           144 258 
 ZAR  HN ES   1   2248 21.73                             123    -0.4 6  200 292 
                                                                                
