 2014  830 2322  8.9 L   6.735 -73.168159.5  RSN  6 0.4 1.5LRSN                1
 GAP=148        0.92       4.8     6.8  9.8 -0.6395E+01 -0.2415E+02 -0.8806E+01E
 Epicentro: VILLANUEVA - SANTANDER                                             3
 ACTION:UPD 14-09-15 21:54 OP:nd   STATUS:               ID:20140830232208 L   I
 OLDACT:UP  14-08-31 03:22 OP:cam  STATUS:               ID:20140830232000     3
 OLDACT:REG 14-08-31 02:37 OP:cam  STATUS:               ID:20140830232000     3
 2014-08-30-2320-00M.COL___282                                                 6
 STAT SP IPHASW D HRMM SECON CODA AMPLIT PERI AZIMU VELO AIN AR TRES W  DIS CAZ7
 BAR2 SZ EP       2322 29.83                             174   -0.2410 15.9 186 
 BAR2 SZ I        2322 46.03         4.8 0.18            165           15.9 186 
 BRR  HZ EP       2322 32.14                             154    0.5010 72.8 304 
 BRR  HN ES       2322 49.69                             154    0.3210 72.8 304 
 BRR  HN I        2322 53.99         9.7 0.20            168           72.8 304 
 PAM  SZ EP       2322 32.66                             151   -0.3410 84.5  38 
 PTB  HZ EP       2322 36.85                             136    0.14 9  144 261 
 PTB  HN ES       2322 57.71                             136   -0.68 9  144 261 
 PTB  HZ I        2322 58.22         2.5 0.16            148            144 261 
 SPBC HE ES       2323  0.69                             133    0.26 9  156 220 
 SML  HZ EP       2322 47.05                             120    0.13 8  249 336 
 SML  HN ES       2323 16.45                             120   -0.12 8  249 336 
                                                                                
