 2010  830 2017 19.9 L   6.788 -73.111148.9  RSN 13 0.5 3.2LRSN                1
 GAP=163        1.20       4.0     7.9  6.9 -0.5343E+01  0.1059E+02  0.2039E+01E
 Epicentro: LOS SANTOS - SANTANDER                                             3
 ACTION:UP  10-09-07 10:59 OP:vdl  STATUS:               ID:20100830201720 L   I
 2010-08-30-2013-12S.COL___120                                                 6
 STAT SP IPHASW D HRMM SECON CODA AMPLIT PERI AZIMU VELO SNR AR TRES W  DIS CAZ7
 BAR2 SZ EP       2017 39.66                             171    -0.310   23 200 
 BAR2 SZ ES   1   2017 55.63                             171     0.1 7   23 200 
 BAR2 SZ I        2017 57.45       255.1 0.62                            23 200 
 BRR  HZ IP     C 2017 41.62                             152     0.010   75 298 
 BRR  HZ I        2017 41.91       582.5 0.13                            75 298 
 BRR  HN ES       2017 58.95                             152     0.410   75 298 
 RUS  HZ EP       2017 43.51                             145    -0.410   99 178 
 RUS  HN ES       2018  2.61                             145     0.010   99 178 
 RUS  HZ I        2018  3.38       106.3 0.20                            99 178 
 GUE  SZ EP       2017 45.68                             140     0.710  117  10 
 GUE  SZ I        2017 48.12        81.6 0.14                           117  10 
 GRA  SZ EP       2017 45.46                             138     0.010  126  16 
 GRA  SZ I        2018  7.48       257.2 0.47                           126  16 
 OCA  SZ EP       2017 48.04                             130    -0.6 9  162 352 
 OCA  SZ ES   1   2018 10.80                             130    -0.3 7  162 352 
 OCA  SZ I        2018 15.05       249.3 0.35                           162 352 
 CHI  HZ EP       2017 57.55                             118    -0.2 8  248 196 
 CHI  HN ES   1   2018 27.40                             118     0.1 6  248 196 
 CHI  HZ I        2018 35.01        75.4 0.19                           248 196 
 CVER SZ EP   1   2018  1.84                             115     1.4 6  272 203 
 CVER SZ I        2018  3.47       108.7 0.04                           272 203 
 HEL  HZ EP       2018  0.87                             115     0.2 7  275 256 
 HEL  HN ES   2   2018 31.79                             115    -0.7 4  275 256 
 HEL  HZ I        2018 37.53       121.0 0.82                           275 256 
 DBB  SZ EP       2018  7.44                             110    -0.5 7  343 274 
 TOL  SZ EP       2018  9.15                             110     0.6 7  345 225 
 ANIL HZ EP   1   2018 10.91                             109     0.8 5  359 225 
 PRA  HZ EP       2018 12.92                             107    -0.7 6  393 210 
 PRA  HN ES       2018 55.24                             107    -0.3 6  393 210 
 PRA  HZ I        2018 59.66        92.8 0.62                           393 210 
                                                                                
