 2011 1030 2123 48.9 L   6.774 -73.112140.0  RSN  4 0.1 1.1LRSN                1
 GAP=142        0.31       2.7     3.1  4.3 -0.2144E+00 -0.7794E-01  0.3695E+01E
 Epicentro: LOS SANTOS - SANTANDER                                             3
 ACTION:UPD 12-07-13 16:07 OP:ep   STATUS:               ID:20111030212348 L   I
 2011-10-30-2120-49S.COL___157                                                 6
 STAT SP IPHASW D HRMM SECON CODA AMPLIT PERI AZIMU VELO AIN AR TRES W  DIS CAZ7
 BAR2 SZ EP   1   2124  7.75                             171   -0.10 7 21.5 201 
 BAR2 SZ I        2124 25.65         4.1 0.41                          21.5 201 
 BRR  HZ EP       2124  9.73                             150   -0.0210 75.8 299 
 BRR  HZ I        2124 10.09         4.4 0.14                          75.8 299 
 BRR  HN ES   1   2124 26.01                             150    0.03 7 75.8 299 
 PAM  SZ EP   1   2124 10.51                             150   -0.04 7 77.4  36 
 PAM  SN ES   1   2124 27.44                             150    0.03 7 77.4  36 
 RUS  HZ EP   1   2124 12.07                             143    0.16 7 97.5 178 
 RUS  HZ I        2124 12.78         1.2 0.19                          97.5 178 
 RUS  HE ES   2   2124 29.74                             143   -0.08 5 97.5 178 
                                                                                
