 2015  830 2112 30.0 L   6.799 -73.133149.3  RSN 12 0.5 2.0LRSN                1
 GAP=155        0.88       3.9     4.3  6.6 -0.3056E+01  0.5340E+01  0.1063E+02E
 Epicentro: LOS SANTOS - SANTANDER                                             3
 ACTION:UPD 15-09-15 23:06 OP:cam  STATUS:               ID:20150830211230 L   I
 OLDACT:REG 15-08-31 05:32 OP:ar   STATUS:               ID:20150830210750     3
 2015-08-30-2107-50M.COL___358                                                 6
 STAT SP IPHASW D HRMM SECON CODA AMPLIT PERI AZIMU VELO AIN AR TRES W  DIS CAZ7
 BAR2 EZ EP       2112 49.85                             171   -0.1810 23.4 193 
 BAR2 EZ ES       2113  5.49                             171   -0.1910 23.4 193 
 BAR2 EZ I        2113  7.50        16.0 0.30            168           23.4 193 
 BRR  HZ EP   2   2112 51.98                             153    0.40 5 72.5 298 
 BRR  HN ES       2113  9.20                             153    0.7710 72.5 298 
 BRR  HZ I        2113 11.90        17.0 0.28            149           72.5 298 
 PAM  EZ EP       2112 52.76                             152    0.2410 76.6  39 
 PAM  EN ES       2113 10.00                             152   -0.1210 76.6  39 
 PAM  EZ I        2113 11.94        13.0 0.20            155           76.6  39 
 OCA  HN ES   2   2113 19.93                             130   -0.99 5  161 353 
 OCA  HZ I        2113 26.36        15.8 0.52            130            161 353 
 SPBC HZ EP   2   2112 58.89                             130    0.07 5  164 219 
 SPBC HN ES   2   2113 21.39                             130    0.08 5  164 219 
 SPBC HZ I        2113 26.65        19.8 0.14            128            164 219 
 ZAR  HE ES       2113 27.61                             123   -0.77 8  205 292 
 ZAR  HZ I        2113 34.20         9.6 0.26            121            205 292 
 NOR  HZ EP   2   2113  5.90                             119   -0.12 4  236 235 
 NOR  HE ES       2113 34.21                             119    0.07 8  236 235 
 NOR  HZ I        2113 40.86         6.6 0.24            118            236 235 
 CHI  HZ EP       2113  8.22                             118    0.33 8  249 195 
 CHI  HN ES       2113 36.82                             118   -0.65 8  249 195 
 CHI  HZ I        2113 45.84         2.9 0.60            117            249 195 
 HEL  HZ EP   2   2113 11.36                             115    0.85 4  273 256 
 HEL  HE ES   2   2113 42.54                             115    0.41 4  273 256 
 HEL  HZ I        2113 48.66         4.0 0.36            114            273 256 
 GUY2CHZ EP   4   2113 16.37                             113    2.51 0  302 235 
 GUY2CHN ES   4   2113 53.64                             113    5.54 0  302 235 
 GUY2CHZ I        2113 56.70         7.2 0.74                           302 235 
 TOL  SN ES   2   2113 56.68                             110    0.38 3  344 225 
 TOL  SZ I        2114  1.01         4.1 0.22            109            344 225 
 PRA  HZ EP   2   2113 23.88                             107    0.20 3  393 210 
 PRA  HE ES   2   2114  6.21                             107    0.64 3  393 210 
 PRA  HZ I        2114 11.61         3.5 0.24            107            393 210 
                                                                                
