 2011  530 2356 55.9 L   6.348 -73.538103.8  RSN  5 0.2 1.6LRSN                1
 GAP=184        0.38       5.4     4.8  7.2 -0.1380E+02  0.3243E+01  0.5001E+01E
 Epicentro: CONTRATACION - SANTANDER                                           3
 ACTION:UP  11-06-29 08:57 OP:tino STATUS:               ID:20110530235655 L   I
 2011-05-30-2356-37S.COL___114                                                 6
 STAT SP IPHASW D HRMM SECON CODA AMPLIT PERI AZIMU VELO SNR AR TRES W  DIS CAZ7
 BAR2 SZ EP   2   2357 11.68                             154     0.2 5   48  55 
 BAR2 SZ ES   2   2357 23.56                             154    -0.2 5   48  55 
 BAR2 SZ I        2357 25.95        11.5 0.20                            48  55 
 BTL  SZ EP       2357 13.05                             143     0.110   70  25 
 BRR  HZ EP   2   2357 13.57                             137    -0.3 5   86 347 
 BRR  HZ I        2357 25.52        10.5 0.26                            86 347 
 BRR  HN ES   2   2357 28.04                             137     0.1 5   86 347 
 GIR2 SZ EP   1   2357 14.24                             136    -0.1 7   89  25 
 NOR  SN ES   2   2357 43.02                             116     0.0 4  171 240 
                                                                                
