 2014 1230 2321 28.4 L   6.778 -73.132149.3  RSN 11 0.4 1.8LRSN                1
 GAP=184        0.88       3.1     4.9  5.9  0.3963E+01  0.3401E+01  0.1277E+01E
 Epicentro: LOS SANTOS - SANTANDER                                             3
 ACTION:UPD 15-02-10 17:08 OP:nd   STATUS:               ID:20141230232128 L   I
 OLDACT:UP  14-12-31 08:21 OP:spq  STATUS:               ID:20141230231745     3
 OLDACT:REG 14-12-31 03:58 OP:spq  STATUS:               ID:20141230231745     3
 2014-12-30-2317-45M.COL___271                                                 6
 STAT SP IPHASW D HRMM SECON CODA AMPLIT PERI AZIMU VELO AIN AR TRES W  DIS CAZ7
 BAR2 EZ ES   1   2322  3.79                             172   -0.27 7 21.2 195 
 BAR2 EZ I        2322  5.97        11.3 0.14            169           21.2 195 
 BRR  HZ EP   1   2321 49.71                             152   -0.39 7 73.7 300 
 BRR  HN ES       2322  7.66                             152    0.6510 73.7 300 
 BRR  HZ I        2322 12.60         9.3 0.26            149           73.7 300 
 RUS  HZ EP       2321 52.15                             145   -0.2010 98.0 177 
 RUS  HN ES       2322 11.09                             145    0.0810 98.0 177 
 RUS  HZ I        2322 12.18         4.3 0.30            148           98.0 177 
 PTB  HZ EP       2321 55.31                             133   -0.47 9  149 260 
 PTB  HN ES       2322 16.44                             133   -0.68 9  149 260 
 PTB  HZ I        2322 23.72         9.5 0.50            132            149 260 
 SPBC HZ EP       2321 57.25                             130    0.14 9  162 220 
 SPBC HN ES       2322 19.72                             130    0.23 9  162 220 
 SPBC HZ I        2322 26.63        13.7 0.28            131            162 220 
 OCA  HN ES   1   2322 19.73                             130   -0.02 7  163 353 
 OCA  HZ I        2322 23.70         6.5 0.16            132            163 353 
 ZAR  HZ EP       2322  1.74                             123    0.39 8  206 293 
 ZAR  HN ES       2322 26.90                             123   -0.13 8  206 293 
 ZAR  HZ I        2322 34.08         6.0 0.41            123            206 293 
 NOR  HE ES   1   2322 32.89                             119    0.53 6  235 235 
 NOR  HZ I        2322 36.05         7.5 0.18            120            235 235 
 SML  HE ES   1   2322 34.48                             118   -0.05 6  247 335 
 SML  HZ I        2322 41.09        12.8 0.05            119            247 335 
 CHI  HZ EP       2322  6.57                             118    0.46 8  247 196 
 CHI  HE ES   1   2322 35.19                             118   -0.31 6  247 196 
 CHI  HZ I        2322 40.66         2.5 0.38            120            247 196 
 SJC  HZ EP   4   2322 22.65                             106   -1.80 0  412 327 
 SJC  HN ES   4   2323  5.48                             106   -2.67 0  412 327 
 SJC  HZ I        2323  9.10         1.2 0.32            107            412 327 
                                                                                
