 2014 1130 2317 50.3 L   6.775 -73.074152.7  RSN  5 0.4 1.6LRSN                1
 GAP=243        0.90       5.6     6.3  8.3  0.8521E+01 -0.6085E+01 -0.1199E+01E
 Epicentro: LOS SANTOS - SANTANDER                                             3
 ACTION:UPD 14-12-19 15:49 OP:nd   STATUS:               ID:20141130231750 L   I
 OLDACT:DUP 14-12-01 10:10 OP:stll STATUS:               ID:20141130230749d    3
 OLDACT:DUP 14-12-01 10:03 OP:stll STATUS:               ID:20141130230748d    3
 2014-11-30-2307-47M.COL___300                                                 6
 STAT SP IPHASW D HRMM SECON CODA AMPLIT PERI AZIMU VELO AIN AR TRES W  DIS CAZ7
 BAR2 SZ EP       2318 10.82                             171    0.0810 23.5 211 
 BAR2 SZ I        2318 11.05         7.6 0.42            168           23.5 211 
 BRR  HZ EP       2318 12.74                             151    0.1010 79.4 298 
 BRR  HZ I        2318 13.06         7.7 0.24            151           79.4 298 
 BRR  HN ES       2318 30.17                             151    0.0810 79.4 298 
 RUS  HZ EP       2318 14.75                             146    0.2510 97.6 181 
 RUS  HN ES       2318 33.08                             146   -0.3310 97.6 181 
 RUS  HZ I        2318 34.26         2.7 0.50            144           97.6 181 
 PTB  HZ EP       2318 17.60                             132   -0.86 9  155 260 
 PTB  HN ES       2318 40.61                             132    0.16 9  155 260 
 PTB  HZ I        2318 41.02         4.3 0.16            131            155 260 
 SPBC HZ EP       2318 20.01                             130    0.42 9  166 222 
 SPBC HN ES       2318 42.55                             130    0.09 9  166 222 
 SPBC HZ I        2318 45.84         9.3 0.24            129            166 222 
                                                                                
