 2017 1030 2210 38.8 L   6.733 -73.102137.0  RSN  5 0.5 1.1LRSN                1
 GAP=145        1.20       6.1     6.1  8.8 -0.3421E+01  0.7672E+01  0.1678E+01E
 Epicentro: JORDAN - SANTANDER                                                 3
 ACTION:UPD 17-11-07 19:39 OP:rebc STATUS:               ID:20171030221038 L   I
 OLDACT:REG 17-10-31 04:06 OP:osc  STATUS:               ID:20171030220741     3
 2017-10-30-2208-00M.COL___438                                                 6
 STAT SP IPHASW D HRMM SECON CODA AMPLIT PERI AZIMU VELO AIN AR TRES W  DIS CAZ7
 BAR2 EZ EP       2210 57.50                             172    0.2710 17.9 210 
 BAR2 EZ ES       2211 10.87                             172   -0.7710 17.9 210 
 BAR2 EZ I        2211 13.64         4.0 0.18            171           17.9 210 
 BRR  HZ EP       2210 59.72                             148    0.2710 79.1 302 
 BRR  HE ES       2211 16.26                             148    0.6710 79.1 302 
 PAM  EZ EP       2210 59.85                             148   -0.4010 80.5  34 
 PAM  EE ES       2211 17.04                             148    0.0410 80.5  34 
 PAM  EZ I        2211 19.45         3.4 0.42            151           80.5  34 
 RUS  HZ EP       2211  1.57                             144    0.4810 92.9 179 
 RUS  HN ES       2211 18.70                             144    0.1810 92.9 179 
 RUS  HZ I        2211 21.59         1.9 0.38            145           92.9 179 
 PTB  HZ EP       2211  4.66                             129   -0.69 9  151 262 
 PTB  HE ES       2211 25.93                             129   -0.17 9  151 262 
 PTB  HZ I        2211 29.14         1.5 0.16            131            151 262 
                                                                                
