 2014  130 2023 27.1 L   6.796 -73.149151.1  RSN  9 0.4 1.8LRSN                1
 GAP=136        0.76       3.1     4.0  5.6  0.3317E+00  0.6463E+01  0.1991E+01E
 Epicentro: LOS SANTOS - SANTANDER                                             3
 ACTION:UPD 14-03-13 09:59 OP:ep   STATUS:               ID:20140130202327 L   I
 OLDACT:UP  14-01-30 23:22 OP:cam  STATUS:               ID:20140130202000     3
 OLDACT:REG 14-01-30 23:09 OP:cam  STATUS:               ID:20140130202000     3
 2014-01-30-2020-00M.COL___288                                                 6
 STAT SP IPHASW D HRMM SECON CODA AMPLIT PERI AZIMU VELO AIN AR TRES W  DIS CAZ7
 BAR2 SZ EP       2023 47.48                             171    0.1510 22.9 189 
 BAR2 SZ ES   1   2024  2.72                             171   -0.42 7 22.9 189 
 BAR2 SZ I        2024  4.04        22.7 0.40            170           22.9 189 
 BRR  HZ EP       2023 49.09                             153    0.3010 71.1 299 
 BRR  HN ES   1   2024  6.64                             153    0.91 7 71.1 299 
 PAM  SZ EP   2   2023 50.02                             151    0.13 5 77.9  40 
 PAM  SN ES       2024  7.64                             151   -0.0510 77.9  40 
 PAM  SZ I        2024  9.06         5.1 0.78            152           77.9  40 
 RUS  HZ EP       2023 51.38                             145    0.0610  100 176 
 RUS  HN ES       2024 10.04                             145   -0.2010  100 176 
 RUS  HZ I        2024 11.47         5.5 0.38            144            100 176 
 PTB  HZ EP       2023 53.95                             133   -0.49 9  147 259 
 PTB  HN ES       2024 15.55                             133   -0.24 9  147 259 
 PTB  HZ I        2024 17.22         9.0 0.38            131            147 259 
 ZAR  HE ES   2   2024 25.29                             124   -0.13 4  204 292 
 NOR  HZ EP   2   2024  2.99                             120   -0.07 4  234 234 
 NOR  HN ES   2   2024 31.93                             120    0.80 4  234 234 
 NOR  HZ I        2024 38.46         4.8 0.18            118            234 234 
 SML  HZ EP   2   2024  4.16                             118    0.14 4  244 335 
 SML  HN ES   1   2024 32.26                             118   -0.58 6  244 335 
 SML  HZ I        2024 39.74         7.6 0.32            117            244 335 
 CHI  HZ EP   1   2024  5.38                             118    0.36 6  248 195 
 CHI  HE ES   1   2024 34.71                             118    0.09 6  248 195 
 CHI  HZ I        2024 40.41         2.1 0.30            117            248 195 
                                                                                
