 2017  730 2044  7.4 L   6.792 -73.185132.3  RSN  5 0.4 1.4LRSN                1
 GAP=233        1.01       7.3     6.9  7.8  0.3274E+02  0.4831E+01 -0.6755E+01E
 Epicentro: ZAPATOCA - SANTANDER                                               3
 ACTION:UPD 17-08-30 15:38 OP:rebc STATUS:               ID:20170730204407 L   I
 OLDACT:DUP 17-07-31 04:03 OP:dhb  STATUS:               ID:20170730203738d    3
 OLDACT:REG 17-07-31 03:01 OP:dhb  STATUS:               ID:20170730203737     3
 2017-07-30-2038-00M.COL___392                                                 6
 STAT SP IPHASW D HRMM SECON CODA AMPLIT PERI AZIMU VELO AIN AR TRES W  DIS CAZ7
 BAR2 EZ IP       2044 24.88                             170   -0.4810 22.1 179 
 BAR2 EZ ES       2044 39.16                             170   -0.2410 22.1 179 
 BAR2 EZ I        2044 40.34         6.5 0.20            168           22.1 179 
 BRR  HZ IP       2044 26.48                             151   -0.4110 67.9 301 
 BRR  HE ES       2044 42.65                             151    0.5510 67.9 301 
 BRR  HZ I        2044 43.10         5.9 0.28            149           67.9 301 
 RUS  HZ EP       2044 30.02                             141    0.2210  100 174 
 RUS  HN ES       2044 47.61                             141    0.3310  100 174 
 RUS  HZ I        2044 49.16         3.6 0.30            141            100 174 
 PTB  HZ EP   4   2044 31.56                             130   -1.31 0  143 259 
 PTB  HN ES       2044 52.35                             130   -0.40 9  143 259 
 PTB  HZ I        2044 54.32         1.9 0.14            128            143 259 
 ZAR  HZ EP       2044 39.14                             120    0.55 9  200 293 
 ZAR  HE ES       2045  2.91                             120   -0.03 9  200 293 
 ZAR  HZ I        2045  8.66         3.8 0.14            119            200 293 
                                                                                
