 2010  930 2052 15.2 L   6.758 -73.103141.2  RSN 14 0.5 2.4LRSN                1
 GAP=164        1.16       4.9     7.6  7.7 -0.1467E+02  0.1141E+02  0.3458E+01E
 Epicentro: LOS SANTOS - SANTANDER                                             3
 ACTION:UP  11-02-18 11:06 OP:tino STATUS:               ID:20100930205215 L   I
 2010-09-30-2050-54S.COL___125                                                 6
 STAT SP IPHASW D HRMM SECON CODA AMPLIT PERI AZIMU VELO SNR AR TRES W  DIS CAZ7
 BAR2 SZ IP       2052 34.18                             171    -0.110   20 206 
 BAR2 SZ I        2052 34.31        68.2 0.14                            20 206 
 BAR2 SZ ES   1   2052 49.02                             171    -0.1 7   20 206 
 BTL  SZ EP       2052 33.67                             169    -0.710   25 314 
 GIR2 SZ EP       2052 35.25                             165     0.710   37 344 
 GIR2 SZ ES   2   2052 49.65                             165     0.1 5   37 344 
 URB  SZ EP       2052 35.80                             156     0.410   59 334 
 BRR  HZ IP     C 2052 36.09                             150    -0.210   78 300 
 BRR  HZ I        2052 36.54       104.7 0.09                            78 300 
 BRR  HE ES   1   2052 52.97                             150     0.3 7   78 300 
 RUS  HZ EP       2052 38.08                             144    -0.110   96 179 
 RUS  HE ES   1   2052 56.33                             144     0.2 7   96 179 
 RUS  HZ I        2053  0.04        14.2 0.38                            96 179 
 GUE  SZ EP       2052 39.22                             137    -0.610  120   9 
 GRA  SZ IP     C 2052 41.10                             135     0.810  129  15 
 GRA  SZ ES   1   2052 59.44                             135    -0.5 7  129  15 
 GRA  SZ I        2053  1.84        23.1 0.47                           129  15 
 OCA  SZ EP   3   2052 43.34                             128    -0.4 2  166 352 
 OCA  SZ I        2053  5.83        27.5 0.43                           166 352 
 NOR  SZ EP       2052 50.05                             117    -0.8 8  236 236 
 NOR  SN ES   1   2053 18.12                             117    -0.5 6  236 236 
 CHI  HZ EP   1   2052 52.50                             117     0.2 6  245 197 
 CHI  HE ES   2   2053 21.86                             117     0.6 4  245 197 
 CHI  HZ I        2053 28.39         5.2 0.53                           245 197 
 HEL  HZ EP       2052 56.10                             114     0.5 7  276 257 
 HEL  HN ES   2   2053 27.25                             114     0.2 4  276 257 
 HEL  HZ I        2053 33.33        12.9 0.72                           276 257 
 ANIL HE ES   3   2053 44.25                             108     0.7 2  357 226 
 PRA  HZ EP       2053  8.44                             106     0.0 6  390 211 
 PRA  HN ES   2   2053 49.97                             106     0.1 3  390 211 
 PRA  HZ I        2053 54.63        22.1 0.33                           390 211 
                                                                                
