 2017 1230 2131 17.0 L   6.824 -73.158135.6  RSN 13 0.5 2.2LRSN                1
 GAP= 64        1.35       3.7     3.7  7.4 -0.1114E+00  0.6048E+01 -0.7731E+00E
 Epicentro: LOS SANTOS - SANTANDER                                             3
 ACTION:UPD 18-01-04 13:25 OP:rebc STATUS:               ID:20171230213117 L   I
 OLDACT:REG 17-12-31 06:04 OP:dhb  STATUS:               ID:20171230212529     3
 2017-12-30-2128-00M.COL___409                                                 6
 STAT SP IPHASW D HRMM SECON CODA AMPLIT PERI AZIMU VELO AIN AR TRES W  DIS CAZ7
 BAR2 EZ IP     C 2131 35.42                             169   -0.0810 25.8 186 
 BAR2 EZ ES       2131 50.00                             169    0.1010 25.8 186 
 BAR2 EZ I        2131 51.41        42.2 0.18            167           25.8 186 
 PAM  EZ EP     C 2131 38.31                             149    0.2010 76.3  42 
 PAM  EN ES       2131 55.14                             149    0.5910 76.3  42 
 PAM  EZ I        2131 57.35        40.1 0.44            154           76.3  42 
 PTB  HZ EP       2131 42.44                             130   -0.68 9  147 258 
 PTB  HE ES       2132  3.27                             130   -0.19 9  147 258 
 PTB  HZ I        2132  7.05        11.5 0.50            131            147 258 
 TAM  HZ IP     C 2131 43.82                             128   -0.31 9  157 106 
 TAM  HN ES       2132  5.20                             128   -0.06 9  157 106 
 TAM  HZ I        2132 15.24         7.5 0.36            131            157 106 
 OCA  HZ EP       2131 43.82                             128   -0.49 9  157 354 
 OCA  HE ES       2132  5.22                             128   -0.35 9  157 354 
 OCA  HZ I        2132  7.50        58.0 0.44            132            157 354 
 SPBC HZ EP       2131 44.57                             126   -0.33 9  164 218 
 SPBC HN ES       2132  6.12                             126   -0.50 9  164 218 
 SPBC HZ I        2132 15.27        62.8 0.20            128            164 218 
 YPLC HZ IP     D 2131 45.87                             124   -0.55 9  180 151 
 YPLC HE ES       2132  9.83                             124    0.49 9  180 151 
 YPLC HZ I        2132 12.30        27.0 0.24            126            180 151 
 ZAR  HZ EP       2131 48.48                             120   -0.12 9  202 292 
 ZAR  HN ES       2132 13.28                             120    0.07 9  202 292 
 ZAR  HZ I        2132 21.77        14.7 0.10            123            202 292 
 ROSC BZ EP   9   2131 55.24                             114    0.44 0  254 210 
 ROSC BN ES       2132 26.56                                    1.87 8  254 210 
 ROSC BZ I        2132 30.00         9.2 0.30            116            254 210 
 DRL03HN EP       2131 58.08                             111    0.22 7  286 353 
 DRL03HE ES       2132 30.58                             111    0.88 7  286 353 
 GUY2CHZ EP       2132  1.46                             110    1.22 7  302 234 
 GUY2CHE ES   4   2132 36.57                             110    2.63 0  302 234 
 GUY2CHZ I        2132 42.02         6.4 0.28                           302 234 
 CBOC HZ EP       2132  4.14                             108    0.65 7  333 252 
 CBOC HN ES       2132 40.23                             108    0.50 7  333 252 
 CBOC HZ I        2132 45.93         2.9 0.26            110            333 252 
 SJC  HZ EP   9   2132 10.17                             104   -1.76 0  406 327 
 SJC  HE ES       2132 53.01                                    0.03 6  406 327 
 SJC  HZ I        2132 54.95         3.4 0.40            106            406 327 
                                                                                
