 2012 1230 2324 26.4 L   6.802 -73.127145.0  RSN  8 0.5 2.2LRSN                1
 GAP=185        1.15       4.3     6.1  7.1  0.1051E+02  0.1143E+02  0.2640E+01E
 Epicentro: LOS SANTOS - SANTANDER                                             3
 ACTION:UPD 13-01-04 14:31 OP:ep   STATUS:               ID:20121230232426 L   I
 2012-12-30-2320-00M.COL___239                                                 6
 STAT SP IPHASW D HRMM SECON CODA AMPLIT PERI AZIMU VELO AIN AR TRES W  DIS CAZ7
 BAR2 SZ EP       2324 46.20                             170    0.2510 24.0 195 
 BAR2 SZ ES       2325  1.09                             170   -0.1110 24.0 195 
 BAR2 SZ I        2325  2.02        32.0 0.26                          24.0 195 
 BRR  HZ IP       2324 48.16                             152    0.6010 72.9 298 
 BRR  HN ES       2325  4.54                             152    0.4810 72.9 298 
 BRR  HN I        2325  9.12        38.9 0.18                          72.9 298 
 RUS  HZ EP       2324 50.37                             144    0.2910  101 177 
 RUS  HN ES       2325  8.05                             144   -0.5110  101 177 
 RUS  HN I        2325 10.22         9.1 0.32                           101 177 
 PTB  HZ EP       2324 52.90                             131   -0.58 9  150 259 
 PTB  HN ES       2325 13.95                             131   -0.67 9  150 259 
 PTB  HN I        2325 16.85        24.4 0.22                           150 259 
 OCA  HN ES       2325 16.17                             129   -0.51 9  160 352 
 OCA  HN I        2325 19.39        40.2 0.20                           160 352 
 ZAR  HZ EP       2324 59.30                             122    0.33 8  206 292 
 ZAR  HN ES       2325 24.89                             122    0.50 8  206 292 
 ZAR  HN I        2325 33.15        19.0 0.10                           206 292 
 CHI  HZ EP       2325  3.68                             117   -0.45 8  249 196 
 CHI  HN ES       2325 34.28                             117    0.71 8  249 196 
 CHI  HN I        2325 38.70         7.0 0.46                           249 196 
 URE  HZ EP       2325  7.24                             113   -0.39 7  286 292 
 URE  HN ES       2325 39.69                             113   -0.10 7  286 292 
 URE  HN I        2325 47.87        13.9 0.26                           286 292 
                                                                                
