 2014  330 2139  9.3 L   6.783 -73.143146.4  RSN 12 0.5 2.1LRSN                1
 GAP=138        0.99       3.3     4.1  5.8 -0.2535E+01  0.5818E+01  0.3032E+01E
 Epicentro: LOS SANTOS - SANTANDER                                             3
 OLDACT:REG 14-03-30 23:48 OP:fm   STATUS:               ID:20140330213806     3
 ACTION:UPD 14-04-09 23:21 OP:nd   STATUS:               ID:20140330213909 L   I
 OLDACT:UP  14-03-31 00:29 OP:fm   STATUS:               ID:20140330213806     3
 OLDACT:UP  14-03-31 00:29 OP:fm   STATUS:               ID:20140330213806     3
 2014-03-30-2138-06M.COL___258                                                 6
 STAT SP IPHASW D HRMM SECON CODA AMPLIT PERI AZIMU VELO AIN AR TRES W  DIS CAZ7
 BAR2 SZ EP   1   2139 28.80                             171   -0.13 7 21.5 192 
 BAR2 SZ ES   1   2139 44.18                             171   -0.09 7 21.5 192 
 BAR2 SZ I        2139 45.07        35.5 0.14            167           21.5 192 
 BRR  HZ IP     C 2139 30.85                             152    0.3110 72.3 300 
 BRR  HN ES       2139 47.98                             152    0.8510 72.3 300 
 BRR  HZ I        2139 49.07        16.4 0.24            151           72.3 300 
 PAM  SZ IP     C 2139 31.89                             150    0.2710 78.7  39 
 PAM  SN ES       2139 48.76                             150   -0.3010 78.7  39 
 PAM  SZ I        2139 50.01         8.5 0.16            157           78.7  39 
 RUS  HZ EP   1   2139 32.73                             144   -0.21 7 98.7 176 
 RUS  HN ES   1   2139 51.52                             144    0.12 7 98.7 176 
 RUS  HZ I        2139 53.77         7.0 0.48            144           98.7 176 
 PTB  HZ EP       2139 35.78                             132   -0.49 9  148 260 
 PTB  HE ES       2139 56.49                             132   -0.84 9  148 260 
 PTB  HZ I        2140  2.22        12.9 0.12            131            148 260 
 SPBC HZ EP       2139 37.79                             129    0.11 9  162 219 
 SPBC HN ES       2139 59.52                             129   -0.33 9  162 219 
 SPBC HZ I        2140  6.67        19.5 0.26            129            162 219 
 ZAR  HZ EP   1   2139 41.66                             122   -0.18 6  205 293 
 ZAR  HN ES   1   2140  7.97                             122    0.71 6  205 293 
 ZAR  HZ I        2140 13.03        13.0 0.24            123            205 293 
 NOR  HZ EP       2139 44.78                             119   -0.15 8  234 235 
 NOR  HE ES   1   2140 12.94                             119    0.19 6  234 235 
 NOR  HZ I        2140 18.88        12.8 0.16            119            234 235 
 SML  HZ EP   1   2139 46.12                             117    0.00 6  246 335 
 SML  HE ES   1   2140 13.96                             117   -0.90 6  246 335 
 SML  HZ I        2140 16.60        13.3 0.06            119            246 335 
 CHI  HZ EP       2139 46.90                             117    0.10 8  247 195 
 CHI  HN ES       2140 16.11                             117    0.03 8  247 195 
 CHI  HZ I        2140 29.86         5.2 2.54            118            247 195 
 HEL  HZ EP   1   2139 50.36                             115    0.88 6  272 256 
 HEL  HN ES   1   2140 20.10                             115   -0.75 6  272 256 
 HEL  HZ I        2140 27.39         6.6 0.40            115            272 256 
 GUY2CHZ EP   1   2139 53.10                             112    0.30 5  300 235 
 GUY2CHE ES       2140 27.34                             112    0.58 7  300 235 
 GUY2CHZ I        2140 34.93         9.2 0.44                           300 235 
                                                                                
