 2011  530 2230 41.9 L   6.743 -73.107147.7  RSN  9 0.3 2.2LRSN                1
 GAP=189        0.63       4.9     6.5  6.7 -0.1583E+02 -0.1429E+02  0.1264E+02E
 Epicentro: JORDAN - SANTANDER                                                 3
 ACTION:UP  11-06-29 08:57 OP:tino STATUS:               ID:20110530223041 L   I
 2011-05-30-2226-58S.COL___115                                                 6
 STAT SP IPHASW D HRMM SECON CODA AMPLIT PERI AZIMU VELO SNR AR TRES W  DIS CAZ7
 BAR2 SZ EP       2231  1.89                             172     0.210   19 207 
 BAR2 SZ ES   2   2231 16.36                             172    -0.8 5   19 207 
 BAR2 SZ I        2231 18.43        53.2 0.14                            19 207 
 BTL  SZ EP       2231  2.06                             169     0.210   26 318 
 GIR2 SZ EP   1   2231  2.31                             165     0.3 7   38 346 
 BRR  HZ EP       2231  3.59                             151    -0.110   78 301 
 BRR  HN ES       2231 20.92                             151     0.310   78 301 
 BRR  HZ I        2231 22.73        26.5 0.27                            78 301 
 BRI  SZ EP   2   2231  6.10                             141    -0.3 5  113  18 
 GRA  SZ EP   1   2231  7.61                             136    -0.1 7  131  15 
 GRA  SZ ES   2   2231 27.36                             136    -0.5 5  131  15 
 GRA  SZ I        2231 28.59        11.8 0.53                           131  15 
 OCA  SZ EP   2   2231 11.37                             129     0.3 5  167 352 
 OCA  SZ ES   2   2231 33.26                             129    -0.5 5  167 352 
 OCA  SZ I        2231 37.20        18.3 0.27                           167 352 
 NOR  SZ EP   1   2231 17.33                             119    -0.4 6  235 236 
 NOR  SN ES   2   2231 45.48                             119    -0.2 4  235 236 
 PRA  HZ EP   2   2231 35.19                             107     0.1 3  389 211 
 PRA  HN ES   2   2232 16.33                             107    -0.3 3  389 211 
                                                                                
