 2014  130 2136 34.2 L   6.826 -73.121147.9  RSN 10 0.5 2.0LRSN                1
 GAP=138        1.03       3.9     5.5  6.3  0.3138E+01  0.1018E+02  0.5337E+01E
 Epicentro: LOS SANTOS - SANTANDER                                             3
 ACTION:UPD 14-03-13 09:59 OP:ep   STATUS:               ID:20140130213634 L   I
 OLDACT:UP  14-01-30 23:32 OP:cam  STATUS:               ID:20140130213000     3
 OLDACT:REG 14-01-30 23:11 OP:cam  STATUS:               ID:20140130213000     3
 2014-01-30-2130-00M.COL___288                                                 6
 STAT SP IPHASW D HRMM SECON CODA AMPLIT PERI AZIMU VELO AIN AR TRES W  DIS CAZ7
 BAR2 SZ EP   1   2136 54.09                             169   -0.07 7 26.7 195 
 BAR2 SZ ES       2137  9.81                             169    0.0810 26.7 195 
 BAR2 SZ I        2137 10.29        24.4 0.18            168           26.7 195 
 BRR  HZ EP   1   2136 55.90                             152    0.25 7 72.3 296 
 BRR  HN ES       2137 12.69                             152    0.3210 72.3 296 
 BRR  HZ I        2137 17.01        14.0 0.14            152           72.3 296 
 PAM  SZ EP       2136 56.88                             152    0.4610 73.5  39 
 PAM  SN ES       2137 13.87                             152    0.1210 73.5  39 
 PAM  SZ I        2137 16.12        14.8 0.56            156           73.5  39 
 RUS  HZ EP       2136 58.10                             143   -0.2610  103 178 
 RUS  HN ES       2137 16.32                             143   -0.8810  103 178 
 RUS  HZ I        2137 19.94         6.1 0.36            143            103 178 
 PTB  HZ EP       2137  1.00                             132   -0.64 9  151 258 
 PTB  HN ES   4   2137 21.53                             132   -1.50 0  151 258 
 PTB  HZ I        2137 24.31        11.4 0.20            132            151 258 
 ZAR  HN ES       2137 32.32                             122   -0.15 8  206 291 
 SML  HZ EP   1   2137 10.53                             118   -0.27 6  242 334 
 SML  HN ES   2   2137 39.00                             118   -0.34 4  242 334 
 SML  HZ I        2137 41.78        14.7 0.10            119            242 334 
 CHI  HZ EP       2137 12.52                             117    0.13 8  252 196 
 CHI  HN ES       2137 43.18                             117    1.00 8  252 196 
 CHI  HZ I        2137 48.93         3.8 0.50            118            252 196 
 GUY2CHZ EP   2   2137 18.80                             112    0.46 4  305 235 
 PRA  HZ EP       2137 28.60                             107    0.36 6  396 210 
 PRA  HE ES   4   2138 11.80                             107    1.41 0  396 210 
 PRA  HZ I        2138 16.64         6.7 0.28            107            396 210 
                                                                                
