 2016  330 2144 50.9 L   6.802 -73.171137.8  RSN  4 0.3 1.4LRSN                1
 GAP=133        0.70       4.0     6.6  6.6 -0.6444E+01  0.1198E+02 -0.3553E+01E
 Epicentro: LOS SANTOS - SANTANDER                                             3
 ACTION:UPD 16-05-13 21:29 OP:cam  STATUS:               ID:20160330214450 L   I
 OLDACT:DUP 16-03-31 04:51 OP:dnl  STATUS:               ID:20160330213747d    3
 OLDACT:REG 16-03-31 02:33 OP:dnl  STATUS:               ID:20160330213746     3
 2016-03-30-2137-46M.COL___295                                                 6
 STAT SP IPHASW D HRMM SECON CODA AMPLIT PERI AZIMU VELO AIN AR TRES W  DIS CAZ7
 BAR2 EZ ES       2145 24.28                             170    0.1610 23.3 183 
 BAR2 EZ I        2145 25.74        12.2 0.14            169           23.3 183 
 PAM  EZ EP       2145 12.68                             149    0.3210 79.0  41 
 PAM  EN ES       2145 28.87                             149   -0.2410 79.0  41 
 PAM  EZ I        2145 31.36         5.0 0.42            152           79.0  41 
 RUS  HZ EP       2145 13.52                             142   -0.3810  101 174 
 RUS  HE ES       2145 31.94                             142    0.0910  101 174 
 RUS  HZ I        2145 33.03         4.1 0.26            146            101 174 
 ZAR  HZ EP   2   2145 23.22                             121    0.68 4  201 292 
 ZAR  HN ES   2   2145 46.79                             121   -0.44 4  201 292 
 ZAR  HZ I        2145 54.54         1.8 0.18            119            201 292 
                                                                                
