 2010  530 2017 58.6 L   6.649 -73.422118.3  RSN  7 0.5 1.8LRSN                1
 GAP=106        0.83       5.4     8.4 11.0 -0.2854E+02  0.4524E+02 -0.1051E+02E
 Epicentro: EL CARMEN DE CHUCURI - SANTANDER                                   3
 ACTION:UP  10-08-24 10:07 OP:vdl  STATUS:               ID:20100530201758 L   I
 2010-05-30-2016-16S.COL___109                                                 6
 STAT SP IPHASW D HRMM SECON CODA AMPLIT PERI AZIMU VELO SNR AR TRES W  DIS CAZ7
 BAR2 SZ EP   1   2018 14.72                             166    -0.3 7   27 104 
 BAR2 SZ ES   2   2018 27.96                             166     0.1 5   27 104 
 GUE  SZ EP   1   2018 23.33                             126     0.1 7  142  23 
 GUE  SZ ES   2   2018 42.59                             126     0.1 5  142  23 
 GRA  SZ EP   1   2018 24.77                             124     0.6 7  153  27 
 GRA  SZ ES   2   2018 44.54                             124     0.4 5  153  27 
 OCA  SZ EP   1   2018 25.77                             120    -0.8 7  176   4 
 OCA  SZ I        2018 54.79        12.2 0.13                           176   4 
 CHI  HZ EP   1   2018 31.81                             113    -0.6 6  226 189 
 CHI  HE ES   2   2018 59.04                             113     0.3 4  226 189 
 CHI  HZ I        2019  1.11         4.8 0.34                           226 189 
 HEL  HZ EP   1   2018 33.99                             112     0.3 6  238 258 
 HEL  HE ES   2   2019  0.80                             112    -0.3 4  238 258 
 HEL  HZ I        2019  6.28         4.6 0.45                           238 258 
 RREF BZ EP   1   2018 40.41                             107     0.7 5  288 228 
 RREF BE ES   2   2019 11.94                             107     0.1 4  288 228 
 RREF BZ I        2019 20.36         3.5 0.37                           288 228 
                                                                                
