 2016  830 2340 57.4 L   6.793 -73.148147.1  RSN 13 0.4 2.1LRSN                1
 GAP=137        0.85       2.9     3.1  4.7 -0.1263E+01  0.3879E+01  0.1968E+01E
 Epicentro: LOS SANTOS - SANTANDER                                             3
 ACTION:UPD 16-10-29 15:40 OP:rebc STATUS:               ID:20160830234057 L   I
 OLDACT:REG 16-08-31 04:57 OP:ak   STATUS:               ID:20160830233742     3
 2016-08-30-2338-00M.COL___344                                                 6
 STAT SP IPHASW D HRMM SECON CODA AMPLIT PERI AZIMU VELO AIN AR TRES W  DIS CAZ7
 BAR2 EZ EP       2341 17.13                             171   -0.0610 22.6 190 
 BAR2 EZ ES       2341 32.45                             171   -0.1710 22.6 190 
 BAR2 EZ I        2341 35.06        33.5 0.26                          22.6 190 
 BRR  HZ IP     C 2341 18.98                             153    0.2610 71.3 299 
 BRR  HN ES       2341 36.10                             153    0.7710 71.3 299 
 BRR  HZ I        2341 40.16        30.3 0.32                          71.3 299 
 PAM  EZ EP       2341 19.89                             151    0.0710 78.1  39 
 PAM  EN ES       2341 37.29                             151   -0.0010 78.1  39 
 PAM  EZ I        2341 39.48        16.6 0.29                          78.1  39 
 RUS  HZ EP       2341 21.00                             144   -0.2510 99.9 176 
 RUS  HN ES       2341 39.61                             144   -0.2310 99.9 176 
 RUS  HZ I        2341 40.92        14.0 0.28                          99.9 176 
 PTB  HZ EP       2341 23.93                             132   -0.53 9  147 259 
 PTB  HN ES       2341 45.15                             132   -0.40 9  147 259 
 PTB  HZ I        2341 48.14        12.0 0.20                           147 259 
 SPBC HZ EP       2341 25.98                             130    0.03 9  162 219 
 SPBC HN ES       2341 48.53                             130    0.33 9  162 219 
 SPBC HZ I        2341 50.34        28.4 0.12                           162 219 
 ZAR  HZ EP       2341 30.25                             123    0.30 9  204 292 
 ZAR  HN ES       2341 54.48                             123   -0.85 9  204 292 
 ZAR  HZ I        2342  3.03        12.0 0.12                           204 292 
 NOR  HZ EP       2341 33.10                             119   -0.06 8  234 235 
 NOR  HN ES       2342  1.10                             119    0.07 8  234 235 
 NOR  HZ I        2342  9.30        11.1 0.32                           234 235 
 CHI  HZ EP       2341 35.18                             118    0.07 8  248 195 
 CHI  HN ES       2342  4.52                             118    0.02 8  248 195 
 CHI  HZ I        2342  8.82         5.8 0.34                           248 195 
 ROSC BZ EP   9   2341 37.35                             117    1.82 0  252 211 
 ROSC BE ES       2342  7.26                                    0.18 8  252 211 
 ROSC BZ I        2342 13.16        19.1 0.55                           252 211 
 HEL  HE ES       2342  9.30                             115    0.27 8  272 256 
 GUY2CHZ EP   2   2341 41.54                             113    0.52 4  301 235 
 GUY2CHN ES       2342 15.51                             113    0.49 7  301 235 
 GUY2CHZ I        2342 23.61         7.8 0.26                           301 235 
 ELA  HN ES   4   2342 24.89                             111    4.12 0  328 230 
 ELA  HZ I        2342 28.80         5.2 0.38                           328 230 
                                                                                
