 2010  430 2211 13.6 L   6.773 -73.021148.0  RSN 13 0.4 3.1LRSN                1
 GAP=150        0.88       4.3     5.4  6.4 -0.1524E+02 -0.1256E+02  0.1486E+02E
 Epicentro: CEPITA - SANTANDER                                                 3
 ACTION:UPD 10-08-24 10:02 OP:vdl  STATUS:               ID:20100430221113 L   I
 2010-04-30-2206-55S.COL___105                                                 6
 STAT SP IPHASW D HRMM SECON CODA AMPLIT PERI AZIMU VELO SNR AR TRES W  DIS CAZ7
 BAR2 SZ EP       2211 33.47                             169    -0.210   27 222 
 BAR2 SZ ES   2   2211 48.23                             169    -1.0 5   27 222 
 BRR  HZ IP     C 2211 35.99                             149     0.110   85 296 
 BRR  HZ I        2211 36.31       358.1 0.44                            85 296 
 BRR  HN ES       2211 53.30                             149     0.110   85 296 
 BRI  SZ EP       2211 38.10                             142     0.410  107  13 
 BRI  SZ ES   1   2211 56.24                             142    -0.2 7  107  13 
 GUE  SZ EP       2211 38.60                             140     0.010  117   5 
 GUE  SZ ES   2   2211 58.09                             140     0.0 5  117   5 
 GRA  SZ EP       2211 39.31                             138     0.310  125  11 
 GRA  SZ ES   1   2211 59.38                             138     0.5 7  125  11 
 OCA  SZ EP   1   2211 42.14                             129    -0.5 7  165 349 
 OCA  SZ ES   1   2212  4.82                             129    -0.4 7  165 349 
 OCA  SZ I        2212  9.80       289.5 0.55                           165 349 
 CHI  HZ EP       2211 51.42                             117    -0.2 8  250 198 
 CHI  HN ES   1   2212 21.81                             117     0.6 6  250 198 
 CHI  HZ I        2212 24.91        30.1 0.60                           250 198 
 HEL  HZ EP       2211 54.83                             114    -0.5 7  285 257 
 HEL  HN ES   2   2212 27.47                             114    -0.5 4  285 257 
 HEL  HZ I        2212 33.22        54.1 0.25                           285 257 
 RREF BZ EP       2212  1.62                             111     0.7 7  330 231 
 RREF BZ I        2212 42.00        46.5 0.35                           330 231 
 TOL  SZ EP       2212  3.05                             109     0.2 6  351 227 
 SDV  BZ EP       2212  2.85                             109     0.1 6  352  48 
 SDV  BN ES       2212 40.66                             109    -0.5 6  352  48 
 SDV  BZ I        2212 42.41        11.0 0.68                           352  48 
 ANIL BZ EP   2   2212  4.59                             108     0.2 3  365 226 
 ANIL BN ES   2   2212 44.32                             108     0.3 3  365 226 
 ANIL BZ I        2212 50.24       116.5 0.09                           365 226 
 PRA  HZ EP       2212  6.90                             107    -0.9 6  396 212 
 PRA  HE ES   2   2212 49.66                             107    -0.3 3  396 212 
 PRA  HZ I        2212 55.33        34.7 0.79                           396 212 
                                                                                
