 2012  530 2148 58.1 L   6.612 -73.600109.9  RSN  5 0.3 1.0LRSN                1
 GAP=146        0.76       6.3     3.9 10.4 -0.3056E+01  0.1191E+02  0.6869E+01E
 Epicentro: EL CARMEN DE CHUCURI - SANTANDER                                   3
 ACTION:UP  12-07-05 12:09 OP:pat  STATUS:               ID:20120530214858 L   I
 2012-05-30-2147-38M.COL___185                                                 6
 STAT SP IPHASW D HRMM SECON CODA AMPLIT PERI AZIMU VELO AIN AR TRES W  DIS CAZ7
 BAR2 SZ EP   1   2149 14.76                             156     0.5 7   46  93 
 BAR2 SZ ES   1   2149 27.10                             156     0.2 7   46  93 
 PTB  HZ EP   1   2149 17.60                             136     0.2 7   95 265 
 PTB  HN ES   1   2149 32.00                             136    -0.4 7   95 265 
 PTB  HZ I        2149 35.66         3.2 0.14                            95 265 
 RUS  HZ EP   1   2149 17.68                             135    -0.6 7   98 144 
 RUS  HE ES   1   2149 34.01                             135     0.0 7   98 144 
 RUS  HZ I        2149 34.11         1.4 0.50                            98 144 
 PAM  SN ES   2   2149 38.68                             127    -0.2 5  128  51 
 NOR  SE ES   1   2149 48.20                             116     0.3 7  182 231 
                                                                                
