 2016 1030 2241 20.9 L   6.669 -73.576109.0  RSN  5 0.2 1.1LRSN                1
 GAP=114        0.62       3.3     2.7  4.7  0.2111E+01  0.5078E-01  0.9144E+00E
 Epicentro: EL CARMEN - SANTANDER                                              3
 ACTION:UPD 16-11-09 19:24 OP:rebc STATUS:               ID:20161030224120 L   I
 OLDACT:UP  16-10-31 08:04 OP:and  STATUS:               ID:20161030223745     3
 OLDACT:REG 16-10-31 07:08 OP:and  STATUS:               ID:20161030223745     3
 2016-10-30-2238-00M.COL___325                                                 6
 STAT SP IPHASW D HRMM SECON CODA AMPLIT PERI AZIMU VELO AIN AR TRES W  DIS CAZ7
 BAR2 EZ EP     D 2241 36.65                             156   -0.2510 44.3 101 
 BAR2 EZ ES       2241 49.07                             156   -0.3310 44.3 101 
 BAR2 EZ I        2241 50.00         5.8 0.20            156           44.3 101 
 BRR  HZ EP       2241 36.89                             153    0.0110 50.7 343 
 BRR  HN ES       2241 49.72                             153    0.3410 50.7 343 
 PTB  HZ EP       2241 40.46                             135    0.0910 98.4 262 
 PTB  HN ES       2241 55.39                             135   -0.2010 98.4 262 
 RUS  HZ EP       2241 41.35                             134    0.0410  102 148 
 RUS  HE ES       2241 57.57                             134    0.3110  102 148 
 RUS  HZ I        2241 58.48         1.8 0.22            134            102 148 
 PAM  EZ EP       2241 43.16                             128   -0.0110  122  53 
 PAM  EN ES   4   2241 58.16                             128   -2.40 0  122  53 
                                                                                
