 2015 1130 2203 47.4 L   6.797 -73.141142.0  RSN  6 0.4 1.8LRSN                1
 GAP=152        0.96       5.6     4.5  6.9 -0.3136E+01  0.9935E+01 -0.6997E+01E
 Epicentro: LOS SANTOS - SANTANDER                                             3
 ACTION:UPD 15-12-28 16:14 OP:cam  STATUS:               ID:20151130220347 L   I
 OLDACT:UP  15-12-01 07:32 OP:ak   STATUS:               ID:20151130215750     3
 OLDACT:REG 15-12-01 05:01 OP:ak   STATUS:               ID:20151130215750     3
 2015-11-30-2157-50M.COL___313                                                 6
 STAT SP IPHASW D HRMM SECON CODA AMPLIT PERI AZIMU VELO AIN AR TRES W  DIS CAZ7
 BAR2 EZ EP       22 4  6.16                             170   -0.3710 23.1 191 
 BAR2 EZ ES       22 4 20.98                             170   -0.5010 23.1 191 
 BAR2 EZ I        22 4 22.73        15.8 0.34            170           23.1 191 
 BRR  HZ EP       22 4  8.26                             151    0.1310 71.8 299 
 BRR  HN ES       22 4 24.59                             151    0.2510 71.8 299 
 PAM  EZ EP       22 4  9.50                             150    0.3410 77.3  39 
 PAM  EN ES       22 4 26.48                             150    0.3110 77.3  39 
 PAM  EZ I        22 4 28.67        14.8 0.54            153           77.3  39 
 PTB  HZ EP       22 4 13.69                             131   -0.37 9  148 259 
 PTB  HE ES       22 4 35.18                             131    0.29 9  148 259 
 PTB  HZ I        22 4 41.42         5.3 0.18            131            148 259 
 ZAR  HZ EP       22 4 20.22                             121    0.60 9  205 292 
 ZAR  HE ES       22 4 44.76                             121   -0.03 9  205 292 
 ZAR  HZ I        22 4 50.70         6.7 0.19            122            205 292 
 SML  HZ EP   3   22 4 23.29                             116   -0.54 2  244 335 
 SML  HN ES       22 4 51.53                             116   -0.74 8  244 335 
 SML  HZ I        22 4 54.65                             118            244 335 
                                                                                
