 2013  330 2124 17.8 L   6.770 -73.155144.5  RSN  5 0.4 1.9LRSN                1
 GAP=137        1.01       4.4     4.8 10.9  0.4508E+00  0.1819E+02 -0.7151E+01E
 Epicentro: LOS SANTOS - SANTANDER                                             3
 ACTION:UPD 13-04-09 14:05 OP:ep   STATUS:               ID:20130330212417 L   I
 2013-03-30-2120-00M.COL___245                                                 6
 STAT SP IPHASW D HRMM SECON CODA AMPLIT PERI AZIMU VELO AIN AR TRES W  DIS CAZ7
 PAM  SZ EP       2124 40.51                             149    0.4110 80.6  39 
 PAM  SN ES       2124 57.25                             149   -0.2310 80.6  39 
 PAM  SN I        2124 59.00         9.3 0.64            153           80.6  39 
 RUS  HZ EP       2124 41.57                             144    0.3510 97.3 175 
 RUS  HN ES       2124 59.36                             144   -0.1010 97.3 175 
 RUS  HN I        2125  1.85         4.6 0.18            149           97.3 175 
 PTB  HZ EP       2124 43.70                             132   -0.84 9  146 260 
 PTB  HN ES       2125  5.50                             132    0.12 9  146 260 
 PTB  HN I        2125 11.23        18.0 0.36            133            146 260 
 ZAR  HN ES       2125 15.93                             122    0.44 9  204 293 
 ZAR  HN I        2125 21.68         6.8 0.26            123            204 293 
 SML  HN ES       2125 23.20                             117   -0.20 8  246 336 
 SML  HN I        2125 29.39        12.3 0.10            119            246 336 
                                                                                
