 2017 1230 2302 52.0 L   6.693 -73.115142.9  RSN  4 0.3 1.4LRSN                1
 GAP=181        0.71       6.4     3.8  6.1 -0.8768E+01  0.1007E+02 -0.7895E+01E
 Epicentro: JORDAN - SANTANDER                                                 3
 ACTION:UPD 18-01-04 13:25 OP:rebc STATUS:               ID:20171230230252 L   I
 OLDACT:REG 17-12-31 05:27 OP:dhb  STATUS:               ID:20171230225740     3
 2017-12-30-2258-00M.COL___406                                                 6
 STAT SP IPHASW D HRMM SECON CODA AMPLIT PERI AZIMU VELO AIN AR TRES W  DIS CAZ7
 BAR2 EZ EP       23 3 11.20                             174    0.1210 13.4 214 
 BAR2 EZ ES       23 3 26.32                             174    0.3210 13.4 214 
 BAR2 EZ I        23 3 27.59         8.3 0.66            174           13.4 214 
 PAM  EZ EP       23 3 14.45                             148    0.1010 85.0  33 
 PAM  EN ES       23 3 31.47                             148   -0.3410 85.0  33 
 PAM  EZ I        23 3 33.58         3.6 0.60            148           85.0  33 
 PTB  HZ EP       23 3 18.49                             131   -0.34 9  149 264 
 PTB  HN ES       23 3 39.46                             131   -0.33 9  149 264 
 PTB  HZ I        23 3 40.99         1.5 0.40            132            149 264 
 ZAR  HZ EP       23 3 25.30                             121    0.27 8  212 295 
 ZAR  HN ES       23 3 51.08                             121    0.25 8  212 295 
 ZAR  HZ I        23 3 55.48         3.8 0.30            121            212 295 
                                                                                
