 2014  530 2008 38.4 L   6.794 -73.145131.0  RSN  6 0.3 1.4LRSN                1
 GAP=237        0.67       4.2     5.2  6.4  0.2931E+01  0.1227E+02  0.4158E+01E
 Epicentro: LOS SANTOS - SANTANDER                                             3
 ACTION:UPD 15-03-16 17:02 OP:nd   STATUS:               ID:20140530200838 L   I
 OLDACT:REG 14-05-31 05:23 OP:spq  STATUS:               ID:20140530200813     3
 2014-05-30-2008-13M.COL___259                                                 6
 STAT SP IPHASW D HRMM SECON CODA AMPLIT PERI AZIMU VELO AIN AR TRES W  DIS CAZ7
 BAR2 SZ ES   1   20 9  9.82                             170   -0.31 7 22.7 190 
 BAR2 SZ I        20 9 13.42         4.8 0.44            163           22.7 190 
 BRR  HZ EP       20 8 57.66                             150   -0.3110 71.6 299 
 BRR  HE ES   1   20 9 13.74                             150    0.49 7 71.6 299 
 BRR  HZ I        20 9 17.06        11.9 0.36            148           71.6 299 
 RUS  HZ EP       20 9  0.91                             141    0.2610100.0 176 
 RUS  HN ES       20 9 18.08                             141    0.0510100.0 176 
 RUS  HZ I        20 9 21.83         2.3 0.48            141          100.0 176 
 SPBC HN ES   1   20 9 26.94                             125   -0.14 7  163 219 
 SPBC HZ I        20 9 33.41         3.7 0.12            126            163 219 
 NOR  HN ES   1   20 9 39.98                             115   -0.49 6  234 235 
 NOR  HZ I        20 9 47.89         2.0 0.18            117            234 235 
 GUY2CHZ EP   1   20 9 21.34                             109    0.03 5  301 235 
 GUY2CHN ES   1   20 9 55.29                             109    0.50 5  301 235 
 GUY2CHZ I        2010  5.34         1.2 0.32                           301 235 
                                                                                
