 2014  730 2016 15.6 L   6.824 -73.153142.8  RSN  5 0.4 1.6LRSN                1
 GAP=134        0.78       3.7     4.0  7.9 -0.6585E+00  0.1383E+02 -0.6655E+01E
 Epicentro: LOS SANTOS - SANTANDER                                             3
 ACTION:UPD 15-03-16 20:48 OP:nd   STATUS:               ID:20140730201615 L   I
 OLDACT:REG 14-07-31 02:48 OP:fm   STATUS:               ID:20140730200814     3
 2014-07-30-2008-14M.COL___251                                                 6
 STAT SP IPHASW D HRMM SECON CODA AMPLIT PERI AZIMU VELO AIN AR TRES W  DIS CAZ7
 PAM  SZ EP   1   2016 37.21                             151   -0.24 7 75.9  41 
 PAM  SN ES       2016 54.72                             151    0.2610 75.9  41 
 PAM  SZ I        2016 57.86         4.1 0.60            153           75.9  41 
 RUS  HZ EP   1   2016 39.69                             142    0.40 7  103 176 
 RUS  HN ES       2016 57.48                             142   -0.2710  103 176 
 RUS  HZ I        2016 59.50         2.4 0.36            148            103 176 
 PTB  HZ EP       2016 42.23                             131   -0.11 9  148 258 
 PTB  HN ES       2017  3.05                             131   -0.12 9  148 258 
 PTB  HZ I        2017  5.54         4.4 0.12            134            148 258 
 ZAR  HZ EP   1   2016 48.40                             122    0.68 6  202 292 
 ZAR  HE ES       2017 13.04                             122    0.30 9  202 292 
 ZAR  HZ I        2017 18.32         5.6 0.32            124            202 292 
 SML  HZ EP   1   2016 51.61                             117   -0.20 6  241 335 
 SML  HN ES   1   2017 19.18                             117   -0.84 6  241 335 
 SML  HZ I        2017 23.31         6.4 0.10            120            241 335 
                                                                                
