 2011  830 2356 28.8 L   6.869 -73.294127.4  RSN  8 0.3 2.0LRSN                1
 GAP=106        0.67       2.7     4.8  6.4 -0.2409E+01  0.7219E+01  0.3434E+01E
 Epicentro: BETULIA - SANTANDER                                                3
 ACTION:UPD 12-07-13 15:54 OP:ep   STATUS:               ID:20110830235628 L   I
 2011-08-30-2352-06S.COL___165                                                 6
 STAT SP IPHASW D HRMM SECON CODA AMPLIT PERI AZIMU VELO AIN AR TRES W  DIS CAZ7
 GIR2 SZ EP       2356 46.30                             168    0.2110 25.7  26 
 BAR2 SZ EP       2356 46.73                             165    0.2810 33.0 158 
 BAR2 SZ I        2356 46.96        64.4 0.11                          33.0 158 
 BRR  HZ IP     D 2356 47.14                             156    0.2210 53.2 300 
 BRR  HZ I        2356 47.56        30.1 0.11                          53.2 300 
 BRR  HN ES   1   2357  1.06                             156   -0.03 7 53.2 300 
 PAM  SE ES   1   2357  5.49                             145   -0.16 7 83.7  52 
 RUS  HZ EP   1   2356 51.58                             137    0.03 7  111 168 
 RUS  HN ES   1   2357  8.78                             137   -0.55 7  111 168 
 RUS  HZ I        2357 12.05         7.4 0.20                           111 168 
 OCA  SZ EP       2356 54.79                             127   -0.04 9  151 359 
 OCA  SZ ES   1   2357 14.94                             127   -0.23 7  151 359 
 OCA  SZ I        2357 16.45        35.4 0.33                           151 359 
 NOR  SZ EP   1   2357  2.05                             115   -0.51 6  226 230 
 NOR  SN ES   1   2357 28.76                             115   -0.18 6  226 230 
 CHI  HZ EP   1   2357  5.45                             113   -0.47 6  252 191 
 CHI  HN ES   1   2357 35.65                             113    0.74 6  252 191 
 CHI  HZ I        2357 39.88         3.5 0.40                           252 191 
                                                                                
