 2016 1130 2111  6.4 L   6.783 -73.140143.0  RSN 16 0.3 3.0LRSN 3.4WRSN        1
 SPEC AVERAGE  MO 14.2 ST0.654 OM  2.2 f0 1.72 R1.4618 AL 0.00 WI 30.0 MW  3.4 3
 SPEC SD       MO  0.3 ST0.801 OM  0.4 f00.941 R0.6935 AL      WI      MW  0.2 3
 GAP= 99        0.76       2.9     2.2  4.5 -0.6383E+00  0.2200E+01  0.6113E+01E
 Epicentro: LOS SANTOS - SANTANDER                                             3
 SPEC BRR HH Z MO 14.0 ST  2.0 OM  2.1 f0 3.14 R0.6127 AL-0.00 WI 30.0 MW  3.3 3
 SPEC BRR HH Z T211142 K 0.000 GD  160 VS 5.20 DE 3.50 Q0750.0 QA 1.50 VS 5.20 3
 SPEC PTB HH Z MO 13.9 ST  2.3 OM  1.9 f0 3.56 R0.5404 AL-0.00 WI 30.0 MW  3.2 3
 SPEC PTB HH Z T211152 K 0.000 GD  205 VS 5.20 DE 3.50 Q0750.0 QA 1.50 VS 5.20 3
 SPEC ZAR HH Z MO 14.0 ST  2.0 OM  1.9 f0 3.14 R0.6127 AL-0.00 WI 30.0 MW  3.3 3
 SPEC ZAR HH Z T2112 2 K 0.000 GD  249 VS 5.20 DE 3.50 Q0750.0 QA 1.50 VS 5.20 3
 SPEC CHI HH Z MO 14.6 ST0.078 OM  2.4 f00.699 R2.7525 AL-0.00 WI 30.0 MW  3.7 3
 SPEC CHI HH Z T211211 K 0.000 GD  285 VS 5.20 DE 3.50 Q0750.0 QA 1.50 VS 5.20 3
 SPEC ROSCBH Z MO 14.5 ST0.238 OM  2.3 f0 1.09 R1.7651 AL-0.00 WI 30.0 MW  3.6 3
 SPEC ROSCBH Z T211210 K 0.000 GD  288 VS 5.20 DE 3.50 Q0750.0 QA 1.50 VS 5.20 3
 SPEC PTGCHH Z MO 14.2 ST0.182 OM  2.0 f0 1.19 R1.6168 AL-0.00 WI 30.0 MW  3.4 3
 SPEC PTGCHH Z T211220 K 0.000 GD  338 VS 5.20 DE 3.50 Q0750.0 QA 1.50 VS 5.20 3
 SPEC LL6CHH Z MO 13.8 ST0.231 OM  1.5 f0 1.86 R1.0344 AL-0.00 WI 30.0 MW  3.1 3
 SPEC LL6CHH Z T2112 2 K 0.000 GD  356 VS 5.20 DE 3.50 Q0750.0 QA 1.50 VS 5.20 3
 SPEC ELA HH Z MO 14.6 ST0.115 OM  2.3 f00.797 R2.4141 AL-0.00 WI 30.0 MW  3.7 3
 SPEC ELA HH Z T211228 K 0.000 GD  357 VS 5.20 DE 3.50 Q0750.0 QA 1.50 VS 5.20 3
 SPEC CBOCHH Z MO 13.9 ST0.391 OM  1.6 f0 2.04 R0.9431 AL-0.00 WI 30.0 MW  3.2 3
 SPEC CBOCHH Z T211228 K 0.000 GD  363 VS 5.20 DE 3.50 Q0750.0 QA 1.50 VS 5.20 3
 SPEC ANILHH Z MO 14.5 ST0.406 OM  2.2 f0 1.28 R1.5031 AL-0.00 WI 30.0 MW  3.6 3
 SPEC ANILHH Z T211233 K 0.000 GD  383 VS 5.20 DE 3.50 Q0750.0 QA 1.50 VS 5.20 3
 SPEC PRA HH Z MO 14.4 ST0.125 OM  2.1 f00.908 R2.1189 AL-0.00 WI 30.0 MW  3.6 3
 SPEC PRA HH Z T211239 K 0.000 GD  416 VS 5.20 DE 3.50 Q0750.0 QA 1.50 VS 5.20 3
 SPEC ORTCHH Z MO 14.4 ST0.155 OM  2.1 f00.973 R1.9774 AL-0.00 WI 30.0 MW  3.6 3
 SPEC ORTCHH Z T211240 K 0.000 GD  419 VS 5.20 DE 3.50 Q0750.0 QA 1.50 VS 5.20 3
 SPEC PAL HH Z MO 13.9 ST0.282 OM  1.6 f0 1.73 R1.1121 AL-0.00 WI 30.0 MW  3.2 3
 SPEC PAL HH Z T211243 K 0.000 GD  429 VS 5.20 DE 3.50 Q0750.0 QA 1.50 VS 5.20 3
 OLDACT:REG 16-12-01 03:02 OP:cara STATUS:               ID:20161130210751     3
 ACTION:UPD 17-10-26 21:13 OP:lp   STATUS:               ID:20161130211106 L   I
 OLDACT:UP  16-12-01 04:14 OP:cara STATUS:               ID:20161130210751     3
 2016-11-30-2108-00M.COL___349                                                 6
 STAT SP IPHASW D HRMM SECON CODA AMPLIT PERI AZIMU VELO AIN AR TRES W  DIS CAZ7
 BAR2 EZ IP     D 2111 25.76                             171    0.0810 21.6 193 
 BAR2 EZ ES       2111 40.66                             171   -0.0410 21.6 193 
 BAR2 EZ I        2111 42.50       263.7 0.32            165           21.6 193 
 BRR  HZ EP       2111 27.61                             151    0.2610 72.7 300 
 BRR  HE ES       2111 44.17                             151    0.4910 72.7 300 
 BRR  HZ I        2111 47.82       183.3 0.42            155           72.7 300 
 PAM  EZ IP     D 2111 28.60                             150    0.2010 78.4  38 
 PAM  EN ES       2111 45.49                             150   -0.0610 78.4  38 
 PAM  EZ I        2111 47.94       338.1 0.48            160           78.4  38 
 PTB  HZ EP       2111 32.64                             131   -0.55 9  148 260 
 PTB  HN ES       2111 53.52                             131   -0.55 9  148 260 
 PTB  HZ I        2111 55.71       101.5 0.78            134            148 260 
 TAM  HZ IP     D 2111 34.07                             130    0.30 9  154 104 
 TAM  HN ES       2111 54.74                             130   -0.37 9  154 104 
 ZAR  HZ EP       2111 38.67                             121   -0.15 8  205 293 
 ZAR  HE ES       2112  3.77                             121   -0.33 8  205 293 
 ZAR  HZ I        2112 10.01        83.7 0.32            126            205 293 
 CHI  HZ EP       2111 43.93                             117    0.15 8  247 195 
 CHI  HE ES       2112 12.74                             117   -0.19 8  247 195 
 CHI  HZ I        2112 17.00        71.0 0.54            119            247 195 
 ROSC BZ EP   4   2111 45.85                             116    1.61 0  251 211 
 ROSC BE ES   4   2112 11.93                             116   -1.82 0  251 211 
 ROSC BZ I        2112 17.87       139.3 0.40            118            251 211 
 PTGC HZ EP   4   2111 48.79                             111   -1.13 0  307 159 
 PTGC HN ES   4   2112 22.00                             111   -1.85 0  307 159 
 PTGC HZ I        2112 27.34        67.1 0.42            114            307 159 
 LL6C HZ EP   4   2111 31.59                             110   -20.6 0  327 357 
 LL6C HN ES   4   2112  4.25                             110   -23.7 0  327 357 
 LL6C HZ I        2112 13.33        30.5 0.42            115            327 357 
 ELA  HZ EP   4   2111 54.86                             110    1.79 0  328 230 
 ELA  HE ES       2112 29.95                             110    0.50 7  328 230 
 ELA  HZ I        2112 37.80        41.2 0.58            112            328 230 
 CBOC HZ EP   4   2111 54.26                             109    1.04 0  334 252 
 CBOC HE ES       2112 29.78                             109    0.05 7  334 252 
 CBOC HZ I        2112 35.39        16.3 0.66            112            334 252 
 ANIL HZ EP   4   2111 57.07                             108    1.06 0  356 225 
 ANIL HE ES       2112 35.27                             108    0.57 6  356 225 
 PRA  HZ EP       2111 59.55                             106   -0.14 6  391 210 
 PRA  HN ES       2112 40.67                             106   -0.57 6  391 210 
 PRA  HZ I        2112 46.20        31.5 0.30            109            391 210 
 ORTC HZ EP       2112  0.09                             106   -0.02 6  394 216 
 ORTC HN ES       2112 42.15                             106    0.16 6  394 216 
 ORTC HZ I        2112 49.58        30.6 0.52            108            394 216 
 PAL  HZ EP       2112  1.28                             105   -0.16 6  405 239 
 PAL  HN ES       2112 45.04                             105    0.69 6  405 239 
 PAL  HZ I        2112 47.39        18.2 0.22            108            405 239 
                                                                                
