 2016 1230 2341  6.2 L   6.706 -73.214152.7  RSN  4 0.3 1.2LRSN                1
 GAP=222        0.70       5.9     5.9  6.8  0.2398E+02 -0.4846E+01 -0.9795E+01E
 Epicentro: VILLANUEVA - SANTANDER                                             3
 ACTION:UPD 17-01-11 20:20 OP:rebc STATUS:               ID:20161230234106 L   I
 OLDACT:UP  16-12-31 04:46 OP:dani STATUS:               ID:20161230233743     3
 OLDACT:UP  16-12-31 04:45 OP:dani STATUS:               ID:20161230233743     3
 OLDACT:REG 16-12-31 02:52 OP:dani STATUS:               ID:20161230233743     3
 2016-12-30-2338-00M.COL___372                                                 6
 STAT SP IPHASW D HRMM SECON CODA AMPLIT PERI AZIMU VELO AIN AR TRES W  DIS CAZ7
 BRR  HZ EP       2341 27.91                             154   -0.2010 70.7 309 
 BRR  HN ES       2341 45.09                             154   -0.0810 70.7 309 
 BRR  HZ I        2341 48.09         7.1 0.32            152           70.7 309 
 RUS  HZ EP       2341 30.25                             148    0.2210 91.1 171 
 RUS  HE ES       2341 48.66                             148    0.0710 91.1 171 
 RUS  HZ I        2341 49.06         1.1 0.37            151           91.1 171 
 PTB  HN ES       2341 53.54                             135   -0.30 9  139 262 
 PTB  HZ I        2341 56.01         1.2 0.11            135            139 262 
 ZAR  HZ EP       2341 38.64                             124   -0.23 9  201 296 
 ZAR  HN ES       2342  4.89                             124    0.57 9  201 296 
 ZAR  HZ I        2342 11.07         2.1 0.30            124            201 296 
                                                                                
