 2017 1030 2300  6.3 L   6.836 -74.117 81.9  RSN  7 0.3 1.5LRSN                1
 GAP=105        0.69       2.2     2.0  4.9  0.5822E+00 -0.2413E+01 -0.1736E+00E
 Epicentro: PUERTO PARRA - SANTANDER                                           3
 ACTION:UPD 17-11-07 19:39 OP:rebc STATUS:               ID:20171030230006 L   I
 OLDACT:REG 17-10-31 04:14 OP:osc  STATUS:               ID:20171030225744     3
 2017-10-30-2258-00M.COL___435                                                 6
 STAT SP IPHASW D HRMM SECON CODA AMPLIT PERI AZIMU VELO AIN AR TRES W  DIS CAZ7
 PTB  HZ EP       23 0 19.13                             146   -0.2710 49.8 229 
 PTB  HE ES       23 0 29.49                             146   -0.1310 49.8 229 
 PTB  HZ I        23 0 30.65         4.4 0.20            152           49.8 229 
 BRR  HZ EP       23 0 19.43                             144   -0.2310 53.9  56 
 BRR  HN ES       23 0 30.13                             144    0.0410 53.9  56 
 BRR  HZ I        23 0 34.10        18.1 0.52            145           53.9  56 
 BAR2 EZ EP       23 0 24.90                             123    0.1010  107 105 
 BAR2 EZ ES       23 0 39.06                             123   -0.1810  107 105 
 BAR2 EZ I        23 0 40.17         6.8 0.52            127            107 105 
 ZAR  HZ EP       23 0 24.76                             122   -0.0110  109 312 
 ZAR  HN ES       23 0 39.38                             122    0.2010  109 312 
 ZAR  HZ I        23 0 41.54        22.3 0.30            126            109 312 
 SPBC HE ES       23 0 44.09                             117    0.5810  131 178 
 RUS  HZ EP       23 0 30.04                             113   -0.34 9  155 132 
 RUS  HN ES       23 0 49.05                             113   -0.11 9  155 132 
 RUS  HZ I        23 0 50.55         3.6 0.20            117            155 132 
 PAM  EZ EP       23 0 31.63                             111   -0.05 9  166  70 
 PAM  EE ES       23 0 51.92                             111    0.44 9  166  70 
 PAM  EZ I        23 0 53.64         7.0 0.36            114            166  70 
                                                                                
