 2016  130 2027 21.2 L   5.910 -73.629128.6  RSN 14 0.4 1.9LRSN                1
 GAP= 93        0.91       2.3     2.6  4.8 -0.1669E+01  0.3482E+01 -0.1755E+01E
 Epicentro: BARBOSA - SANTANDER                                                3
 ACTION:UPD 16-03-09 23:29 OP:cam  STATUS:               ID:20160130202721 L   I
 OLDACT:UP  16-01-31 04:24 OP:mh   STATUS:               ID:20160130200000     3
 OLDACT:UP  16-01-31 04:24 OP:mh   STATUS:               ID:20160130200000     3
 OLDACT:UP  16-01-31 04:24 OP:mh   STATUS:               ID:20160130200000     3
 OLDACT:UP  16-01-31 04:23 OP:mh   STATUS:               ID:20160130200000     3
 OLDACT:UP  16-01-31 04:22 OP:mh   STATUS:               ID:20160130200000     3
 OLDACT:UP  16-01-31 04:22 OP:mh   STATUS:               ID:20160130200000     3
 OLDACT:UP  16-01-31 04:22 OP:mh   STATUS:               ID:20160130200000     3
 OLDACT:REG 16-01-31 02:57 OP:mh   STATUS:               ID:20160130200000     3
 2016-01-30-1959-59S.COL___226                                                 6
 STAT SP IPHASW D HRMM SECON CODA AMPLIT PERI AZIMU VELO AIN AR TRES W  DIS CAZ7
 SPBC HZ EP   1   2027 39.86                             155    0.09 7 56.7 240 
 SPBC HE ES   1   2027 54.03                             155   -0.26 7 56.7 240 
 SPBC HZ I        2027 54.91        28.1 0.36            155           56.7 240 
 RUS  HZ EP       2027 40.81                             154    0.2510 60.5  92 
 RUS  HN ES       2027 55.58                             154   -0.1110 60.5  92 
 RUS  HZ I        2027 57.86         9.8 0.20            157           60.5  92 
 BAR2 EZ EP   1   2027 42.19                             143    0.08 7 90.2  33 
 BAR2 EZ ES       2027 58.55                             143    0.0910 90.2  33 
 PTB  HZ EP       2027 43.03                             135   -0.7510  115 307 
 PTB  HE ES       2028  1.61                             135    0.1810  115 307 
 PTB  HZ I        2028  8.23         7.1 0.10            136            115 307 
 CHI  HZ EP       2027 46.58                             129   -0.18 9  142 185 
 CHI  HN ES       2028  6.45                             129   -0.28 9  142 185 
 CHI  HZ I        2028 11.39         4.1 0.52            132            142 185 
 NOR  HZ EP       2027 46.26                             129   -0.07 9  143 254 
 NOR  HN ES       2028  6.63                             129    0.67 9  143 254 
 NOR  HZ I        2028  9.39        23.7 0.14            130            143 254 
 PAM  EZ EP       2027 51.82                             121    0.30 9  189  33 
 PAM  EE ES       2028 15.32                             121    0.11 9  189  33 
 PAM  EZ I        2028 19.47         5.1 0.24            123            189  33 
 GUY2CHZ EP       2027 54.32                             118    0.89 8  207 249 
 GUY2CHE ES   4   2028 20.17                             118    1.57 0  207 249 
 GUY2CHZ I        2028 22.56         6.7 0.38                           207 249 
 HEL  HZ EP       2027 53.88                             117   -0.04 8  213 279 
 HEL  HN ES       2028 19.42                             117   -0.06 8  213 279 
 HEL  HZ I        2028 23.83         4.9 0.40            119            213 279 
 ZAR  HZ EP   1   2027 54.68                             116    0.24 6  222 322 
 ZAR  HN ES       2028 20.20                             116   -0.20 8  222 322 
 ZAR  HZ I        2028 25.57         8.0 0.32            118            222 322 
 OCA  HZ EP       2027 59.53                             112    0.64 8  260   8 
 OCA  HN ES       2028 27.83                             112   -0.50 8  260   8 
 OCA  HZ I        2028 32.25        17.0 0.09            114            260   8 
 CBOC HZ EP       2027 58.47                             112   -0.90 8  264 269 
 CBOC HN ES       2028 29.33                             112    0.14 8  264 269 
 CBOC HZ I        2028 31.37         5.3 0.30            113            264 269 
 PRA  HZ EP   1   2028  1.36                             110    0.32 6  280 210 
 PRA  HN ES       2028 31.82                             110   -0.33 7  280 210 
 PRA  HZ I        2028 38.19         5.8 0.40            112            280 210 
 SML  HZ EP       2028  5.96                             107   -0.05 7  323 351 
 SML  HN ES       2028 40.73                             107   -0.26 7  323 351 
 SML  HZ I        2028 42.85         8.5 0.22            109            323 351 
                                                                                
