 2011  930 2018 56.3 L   6.955 -73.146151.0  RSN  6 0.3 1.8LRSN                1
 GAP=127        0.65       4.3     4.2  5.9  0.9453E+00  0.6292E+01 -0.6113E+00E
 Epicentro: PIEDECUESTA - SANTANDER                                            3
 ACTION:UPD 12-07-13 16:01 OP:ep   STATUS:               ID:20110930201856 L   I
 2011-09-30-2017-22S.COL___168                                                 6
 STAT SP IPHASW D HRMM SECON CODA AMPLIT PERI AZIMU VELO AIN AR TRES W  DIS CAZ7
 BAR2 SZ ES   1   2019 32.92                             164   -0.25 7 40.3 186 
 BAR2 SZ I        2019 38.56        13.8 0.38                          40.3 186 
 BRR  HZ EP   1   2019 18.05                             155    0.35 7 64.8 285 
 BRR  HE ES   1   2019 34.88                             155    0.50 7 64.8 285 
 PAM  SZ EP       2019 18.56                             156    0.1310 65.1  49 
 PAM  SN ES   1   2019 35.25                             156   -0.43 7 65.1  49 
 RUS  HZ EP   1   2019 21.88                             140    0.02 7  118 177 
 RUS  HN ES   1   2019 41.90                             140    0.13 7  118 177 
 RUS  HZ I        2019 44.40         4.2 0.30                           118 177 
 ZAR  HZ EP   1   2019 28.00                             124   -0.53 6  198 288 
 ZAR  HN ES   1   2019 53.59                             124   -0.06 6  198 288 
 ZAR  HZ I        2019 59.73        10.8 0.24                           198 288 
 NOR  SZ EP   2   2019 33.77                             118    0.31 4  245 231 
 NOR  SN ES   2   2020  1.72                             118   -0.71 4  245 231 
                                                                                
