 2013  730 2315  9.3 L   6.694 -73.176139.3  RSN  4 0.3 1.7LRSN                1
 GAP=236        0.63       8.7     5.6  9.3 -0.2937E+01 -0.9215E+01  0.3006E+02E
 Epicentro: VILLANUEVA - SANTANDER                                             3
 ACTION:UPD 13-08-12 10:41 OP:ep   STATUS:               ID:20130730231509 L   I
 OLDACT:REG 13-07-30 23:19 OP:mh   STATUS:               ID:20130730230959     3
 2013-07-30-2309-59M.COL___268                                                 6
 STAT SP IPHASW D HRMM SECON CODA AMPLIT PERI AZIMU VELO AIN AR TRES W  DIS CAZ7
 BAR2 SZ EP   1   2315 28.38                             175    0.44 7 11.3 184 
 BAR2 SZ I        2315 45.65         4.5 0.38            165           11.3 184 
 BRR  HZ EP       2315 29.88                             150   -0.0610 74.8 308 
 BRR  HN ES       2315 45.88                             150   -0.1910 74.8 308 
 BRR  HN I        2315 52.04        17.8 0.18            157           74.8 308 
 PTB  HZ EP   1   2315 34.81                             132   -0.44 7  143 263 
 PTB  HN ES       2315 55.60                             132    0.08 9  143 263 
 PTB  HN I        2315 58.12         7.8 0.26            137            143 263 
 ZAR  HN ES   1   2316  6.96                             121    0.36 6  206 295 
 ZAR  HN I        2316 13.79         6.3 0.28            123            206 295 
                                                                                
