 2013  930 2157 13.7 L   6.694 -73.168146.0  RSN  5 0.5 1.4LRSN                1
 GAP=138        1.17       7.4     7.2  9.8 -0.1870E+01  0.3257E+01  0.6567E+01E
 Epicentro: VILLANUEVA - SANTANDER                                             3
 ACTION:UPD 13-10-22 09:26 OP:ep   STATUS:               ID:20130930215713 L   I
 OLDACT:REG 13-09-30 21:18 OP:jn   STATUS:               ID:20130930214959     3
 2013-09-30-2149-59M.COL___272                                                 6
 STAT SP IPHASW D HRMM SECON CODA AMPLIT PERI AZIMU VELO AIN AR TRES W  DIS CAZ7
 BAR2 SZ ES   1   2157 47.98                             175   -0.36 7 11.4 188 
 BRR  HZ EP       2157 35.53                             151    0.4410 75.5 307 
 BRR  HN ES       2157 52.52                             151    0.7210 75.5 307 
 PAM  SZ EP       2157 36.42                             148   -0.1710 88.2  36 
 PAM  SN ES   1   2157 53.82                             148   -0.64 7 88.2  36 
 PAM  SZ I        2157 55.52         3.8 0.74            150           88.2  36 
 RUS  HZ EP       2157 36.99                             147    0.3410 89.1 174 
 RUS  HN ES   1   2157 54.77                             147    0.19 7 89.1 174 
 RUS  HZ I        2157 57.21         3.2 0.60            147           89.1 174 
 PTB  HZ EP       2157 39.78                             133   -0.49 9  143 263 
 PTB  HN ES   1   2158  0.15                             133   -0.87 7  143 263 
 PTB  HZ I        2158  2.08         4.4 0.12            135            143 263 
                                                                                
