 2017 1030 2351 59.5 L   6.524 -73.606107.0  RSN  5 0.3 0.9LRSN                1
 GAP= 93        0.79       4.1     3.5  7.1  0.3820E+01  0.1247E+02  0.1382E+02E
 Epicentro: SANTA HELENA DEL OPON - SANTANDER                                  3
 ACTION:UPD 17-11-07 19:39 OP:rebc STATUS:               ID:20171030235159 L   I
 OLDACT:UP  17-10-31 08:01 OP:osc  STATUS:               ID:20171030234013     3
 OLDACT:REG 17-10-31 04:19 OP:osc  STATUS:               ID:20171030234013     3
 2017-10-30-2348-00M.COL___435                                                 6
 STAT SP IPHASW D HRMM SECON CODA AMPLIT PERI AZIMU VELO AIN AR TRES W  DIS CAZ7
 BAR2 EZ ES       2352 28.00                             154    0.0110 47.5  81 
 BRR  HZ EP       2352 16.25                             146   -0.0310 65.6 350 
 BRR  HE ES       2352 29.64                             146    0.3110 65.6 350 
 RUS  HZ EP       2352 19.26                             137    0.3810 90.7 140 
 RUS  HN ES       2352 33.69                             137   -0.2710 90.7 140 
 RUS  HZ I        2352 35.25         1.7 0.44            138           90.7 140 
 PTB  HZ EP       2352 18.08                             135   -0.4310 94.0 271 
 PTB  HE ES       2352 33.13                             135   -0.1710 94.0 271 
 PTB  HZ I        2352 34.55         2.1 0.08            137           94.0 271 
 GUY2CHZ EP       2352 34.51                             108   -0.23 8  242 234 
 GUY2CHE ES       2353  2.73                             108    0.54 8  242 234 
                                                                                
