 2011 1230 2126  4.1 L   6.748 -73.159140.1  RSN  8 0.5 1.9LRSN                1
 GAP=137        0.92       4.4     5.9  7.2 -0.1687E+01  0.5435E+01  0.2872E+01E
 Epicentro: LOS SANTOS - SANTANDER                                             3
 ACTION:UPD 12-07-13 16:19 OP:ep   STATUS:               ID:20111230212604 L   I
 2011-12-30-2120-00M.COL___186                                                 6
 STAT SP IPHASW D HRMM SECON CODA AMPLIT PERI AZIMU VELO AIN AR TRES W  DIS CAZ7
 BAR2 SZ EP       2126 22.99                             173    0.1010 17.4 188 
 BAR2 SZ ES   1   2126 37.02                             173   -0.57 7 17.4 188 
 BAR2 SZ I        2126 39.04        27.7 0.29                          17.4 188 
 BRR  HZ IP     D 2126 24.78                             151    0.0910 72.9 303 
 BRR  HE ES   1   2126 41.62                             151    0.83 7 72.9 303 
 BRR  HZ I        2126 42.47        14.5 0.14                          72.9 303 
 PAM  SZ EP   1   2126 25.61                             148   -0.40 7 82.8  38 
 PAM  SN ES   1   2126 42.64                             148   -0.50 7 82.8  38 
 RUS  HZ EP       2126 27.03                             144    0.1910 95.0 175 
 RUS  HN ES   1   2126 45.18                             144    0.56 7 95.0 175 
 RUS  HZ I        2126 47.51         8.2 0.31                          95.0 175 
 PTB  HZ EP   1   2126 29.59                             131   -0.75 7  145 261 
 PTB  HN ES   1   2126 50.47                             131   -0.37 7  145 261 
 OCA  SZ EP   1   2126 33.10                             127    0.64 7  166 354 
 ZAR  HZ EP   2   2126 36.08                             121   -0.15 4  205 294 
 ZAR  HZ I        2127  7.49        11.7 0.21                           205 294 
 CHI  HZ EP   1   2126 40.93                             116    0.13 6  243 195 
 CHI  HN ES   1   2127  9.19                             116   -0.26 6  243 195 
 CHI  HZ I        2127 14.01         2.8 0.44                           243 195 
                                                                                
