 2013  830 2051 27.3 L   6.159 -73.823 95.5  RSN  5 0.4 1.4LRSN                1
 GAP=129        0.92       5.1     2.8  9.1 -0.3176E+01  0.6282E+01  0.1733E+02E
 Epicentro: LANDAZURI - SANTANDER                                              3
 ACTION:UPD 14-01-14 09:08 OP:ep   STATUS:               ID:20130830205127 L   I
 OLDACT:REG 13-08-31 01:37 OP:stll STATUS:               ID:20130830204843     3
 2013-08-30-2048-43M.COL___214                                                 6
 STAT SP IPHASW D HRMM SECON CODA AMPLIT PERI AZIMU VELO AIN AR TRES W  DIS CAZ7
 PTB  HZ EP       2051 43.66                             136   -0.5710 81.7 301 
 PTB  HN ES       2051 57.37                             136   -0.0410 81.7 301 
 PTB  HZ I        2052  0.55         4.8 0.32            137           81.7 301 
 BAR2 SZ EP       2051 45.12                             135    0.2610 85.5  56 
 BAR2 SZ ES       2051 58.97                             135    0.4410 85.5  56 
 BAR2 SZ I        2052  0.47        12.0 0.26            137           85.5  56 
 RUS  HZ EP       2051 44.91                             135   -0.4210 87.0 110 
 RUS  HZ I        2051 45.15        10.9 0.12            138           87.0 110 
 RUS  HN ES       2051 59.25                             135   -0.1310 87.0 110 
 NOR  HZ EP       2051 49.29                             122    0.0310  133 240 
 NOR  HZ I        2051 49.50         4.0 0.32            123            133 240 
 NOR  HN ES       2052  6.14                             122   -0.2210  133 240 
 GUY2CHZ EP       2051 57.41                             111    0.25 9  200 239 
 GUY2CHZ I        2051 59.38         1.1 0.24                           200 239 
 GUY2CHN ES       2052 21.03                             111    0.61 9  200 239 
                                                                                
