 2011  530 2144 25.7 L   6.888 -73.228132.0  RSN  6 0.3 1.5LRSN                1
 GAP=144        0.55       7.0     9.9  9.2 -0.2517E+02 -0.3049E+02 -0.1407E+02E
 Epicentro: BETULIA - SANTANDER                                                3
 ACTION:UP  11-06-29 08:57 OP:tino STATUS:               ID:20110530214425 L   I
 2011-05-30-2140-33S.COL___115                                                 6
 STAT SP IPHASW D HRMM SECON CODA AMPLIT PERI AZIMU VELO SNR AR TRES W  DIS CAZ7
 BTL  SZ EP   1   2144 43.45                             178     0.1 7    6 308 
 GIR2 SZ EP   1   2144 43.42                             170     0.0 7   21  10 
 BAR2 SZ EP   2   2144 43.23                             165    -0.7 5   33 171 
 BAR2 SZ ES   2   2144 58.44                             165     0.3 5   33 171 
 BAR2 SZ I        2144 59.37         8.4 0.15                            33 171 
 BRR  HZ EP   2   2144 45.15                             155     0.5 5   59 294 
 BRR  HE ES   2   2144 59.10                             155    -0.3 5   59 294 
 BRR  HZ I        2145 17.06        13.6 0.26                            59 294 
 BRI  SZ EP   1   2144 47.95                             140     0.1 7  103  27 
 GRA  SZ EP   1   2144 49.12                             135    -0.1 7  120  23 
 GRA  SZ ES   2   2145  7.49                             135     0.0 5  120  23 
 GRA  SZ I        2145 10.85         3.2 0.32                           120  23 
                                                                                
