 2017 1130 2358  3.7 L   6.775 -73.103141.0  RSN  6 0.4 1.3LRSN                1
 GAP=143        0.87       4.1     4.0  6.2 -0.2141E+01  0.1150E+02 -0.1214E+01E
 Epicentro: LOS SANTOS - SANTANDER                                             3
 ACTION:UPD 17-12-12 20:02 OP:rebc STATUS:               ID:20171130235803 L   I
 OLDACT:REG 17-12-01 02:11 OP:edw  STATUS:               ID:20171130234740     3
 2017-11-30-2348-00M.COL___498                                                 6
 STAT SP IPHASW D HRMM SECON CODA AMPLIT PERI AZIMU VELO AIN AR TRES W  DIS CAZ7
 BAR2 EZ EP       2358 22.36                             171   -0.4110 22.0 204 
 BAR2 EZ ES       2358 37.71                             171    0.0910 22.0 204 
 BAR2 EZ I        2358 41.50         6.3 0.30            172           22.0 204 
 PAM  EZ EP       2358 25.61                             150    0.2010 76.7  35 
 PAM  EN ES       2358 42.38                             150    0.0710 76.7  35 
 PAM  EZ I        2358 44.69         3.7 0.46            152           76.7  35 
 RUS  HZ EP       2358 26.60                             144   -0.2110 97.6 179 
 RUS  HN ES       2358 44.87                             144    0.0710 97.6 179 
 RUS  HZ I        2358 46.39         2.1 0.48            146           97.6 179 
 PTB  HZ EP       2358 30.34                             130   -0.37 9  152 260 
 PTB  HE ES       2358 51.99                             130    0.24 9  152 260 
 PTB  HZ I        2358 52.66         2.4 0.34            133            152 260 
 ZAR  HZ EP       2358 37.26                             121    0.81 8  210 292 
 ZAR  HN ES       2359  1.38                             121   -0.59 8  210 292 
 GUY2CHZ EP       2358 47.32                             111   -0.08 7  303 236 
 GUY2CHE ES       2359 21.81                             111    0.36 7  303 236 
 GUY2CHZ I        2359 28.34         0.9 0.52                           303 236 
                                                                                
