 2013  930 2355 39.9 L   6.756 -73.143146.4  RSN  8 0.5 1.7LRSN                1
 GAP=139        1.07       4.7     5.2  8.3 -0.5325E+00  0.1112E+02 -0.3456E+00E
 Epicentro: LOS SANTOS - SANTANDER                                             3
 ACTION:UPD 13-10-22 09:26 OP:ep   STATUS:               ID:20130930235539 L   I
 OLDACT:REG 13-09-30 21:21 OP:jn   STATUS:               ID:20130930234959     3
 2013-09-30-2349-59M.COL___272                                                 6
 STAT SP IPHASW D HRMM SECON CODA AMPLIT PERI AZIMU VELO AIN AR TRES W  DIS CAZ7
 BAR2 SZ ES   1   2356 14.25                             172   -0.60 7 18.6 194 
 BAR2 SZ I        2356 17.35        21.0 0.40            170           18.6 194 
 BRR  HZ EP       2356  1.68                             152    0.3910 73.9 302 
 BRR  HN ES       2356 18.72                             152    0.7610 73.9 302 
 BRR  HZ I        2356 25.36         7.9 0.62            150           73.9 302 
 PAM  SZ EP       2356  2.58                             150    0.1610 81.0  37 
 PAM  SN ES       2356 19.73                             150   -0.2410 81.0  37 
 PAM  SZ I        2356 22.08         6.5 0.64            156           81.0  37 
 RUS  HZ EP       2356  3.64                             145    0.2510 95.7 176 
 RUS  HN ES       2356 21.64                             145   -0.0610 95.7 176 
 RUS  HZ I        2356 23.67         5.2 0.28            149           95.7 176 
 PTB  HZ EP       2356  6.48                             132   -0.41 9  147 261 
 PTB  HN ES   1   2356 27.23                             132   -0.69 7  147 261 
 PTB  HZ I        2356 32.18         5.9 0.46            133            147 261 
 ZAR  HE ES   1   2356 38.50                             122    0.36 6  206 293 
 ZAR  HZ I        2356 44.08         8.2 0.30            124            206 293 
 NOR  HN ES   1   2356 43.05                             119   -0.05 6  232 235 
 NOR  HZ I        2356 50.12         6.5 0.20            121            232 235 
 SML  HE ES   1   2356 45.03                             117   -1.02 6  248 336 
                                                                                
