 2017  330 2034 32.7 L   7.045 -73.395120.5  RSN  5 0.4 1.5LRSN                1
 GAP=228        1.11       8.3     6.6  8.8  0.3489E+02  0.8844E+01  0.9046E+01E
 Epicentro: SAN VICENTE DE CHUCURI - SANTANDER                                 3
 ACTION:UPD 17-05-25 18:47 OP:jn   STATUS:               ID:20170330203432 L   I
 OLDACT:DUP 17-03-31 07:34 OP:dani STATUS:               ID:20170330202749d    3
 OLDACT:UP  17-03-31 07:30 OP:dani STATUS:               ID:20170330202748     3
 OLDACT:UP  17-03-31 07:30 OP:dani STATUS:               ID:20170330202748     3
 OLDACT:UP  17-03-31 06:39 OP:dani STATUS:               ID:20170330202748     3
 OLDACT:UP  17-03-31 06:39 OP:dani STATUS:               ID:20170330202748     3
 OLDACT:UP  17-03-31 06:33 OP:dani STATUS:               ID:20170330202748     3
 OLDACT:UP  17-03-31 06:32 OP:dani STATUS:               ID:20170330202748     3
 OLDACT:UP  17-03-31 06:32 OP:dani STATUS:               ID:20170330202748     3
 OLDACT:UP  17-03-31 06:32 OP:dani STATUS:               ID:20170330202748     3
 OLDACT:UP  17-03-31 06:30 OP:dani STATUS:               ID:20170330202748     3
 OLDACT:REG 17-03-31 03:01 OP:dani STATUS:               ID:20170330202748     3
 2017-03-30-2028-00M.COL___365                                                 6
 STAT SP IPHASW D HRMM SECON CODA AMPLIT PERI AZIMU VELO AIN AR TRES W  DIS CAZ7
 BRR  HZ EP       2034 49.37                             162    0.0510 35.7 281 
 BRR  HN ES       2035  2.73                             162    0.4410 35.7 281 
 BRR  HZ I        2035  4.17         9.4 0.25            159           35.7 281 
 BAR2 EZ EP       2034 50.55                             154   -0.0210 55.3 155 
 BAR2 EZ ES       2035  4.23                             154   -0.2810 55.3 155 
 BAR2 EZ I        2035  5.61        15.4 0.20            153           55.3 155 
 PTB  HZ EP       2034 55.86                             129   -0.1510  130 245 
 PTB  HN ES       2035 14.66                             129    0.4710  130 245 
 PTB  HZ I        2035 18.65         2.3 0.42            129            130 245 
 RUS  HZ EP       2034 57.49                             129    0.6510  132 165 
 RUS  HE ES       2035 15.13                             129   -0.5510  132 165 
 ZAR  HE ES       2035 20.37                             121   -0.71 9  169 287 
                                                                                
