 2017 1030 2224 34.8 L   6.805 -73.140143.1  RSN  6 0.2 1.3LRSN                1
 GAP=137        0.51       2.6     2.4  3.5 -0.1529E+01  0.1953E+01  0.1220E+01E
 Epicentro: LOS SANTOS - SANTANDER                                             3
 ACTION:UPD 17-11-07 19:39 OP:rebc STATUS:               ID:20171030222434 L   I
 OLDACT:DUP 17-10-31 06:59 OP:osc  STATUS:               ID:20171030221745d    3
 2017-10-30-2218-00M.COL___438                                                 6
 STAT SP IPHASW D HRMM SECON CODA AMPLIT PERI AZIMU VELO AIN AR TRES W  DIS CAZ7
 BAR2 EZ EP       2224 53.99                             170   -0.1610 24.0 191 
 BAR2 EZ ES       2225  9.49                             170    0.2710 24.0 191 
 BRR  HZ EP       2224 55.83                             152    0.1310 71.5 298 
 BRR  HN ES       2225 11.92                             152   -0.0710 71.5 298 
 PAM  EZ EP       2224 56.90                             151    0.2010 76.5  39 
 PAM  EN ES       2225 13.70                             151   -0.0710 76.5  39 
 PAM  EZ I        2225 14.38         2.7 0.32            152           76.5  39 
 RUS  HZ EP       2224 58.21                             143   -0.1410  101 176 
 RUS  HN ES       2225 16.58                             143   -0.1310  101 176 
 PTB  HZ EP       2225  1.53                             131   -0.12 9  149 259 
 PTB  HE ES       2225 22.30                             131   -0.27 9  149 259 
 PTB  HZ I        2225 23.96         2.2 0.06            131            149 259 
 NOR  HZ EP       2225 10.57                             118    0.07 8  236 234 
 NOR  HN ES       2225 38.71                             118    0.39 8  236 234 
 NOR  HZ I        2225 41.94         1.9 0.46            118            236 234 
                                                                                
