 2012  730 2112 37.5 L   6.395 -73.246 19.9  RSN  6 0.4 1.7LRSN                1
 GAP=132        1.01       2.7     5.2  6.6  0.3570E+01  0.2523E+02  0.4780E+01E
 Epicentro: CONFINES - SANTANDER                                               3
 ACTION:UPD 12-08-14 11:46 OP:ep   STATUS:               ID:20120730211237 L   I
 2012-07-30-2110-00M.COL___209                                                 6
 STAT SP IPHASW D HRMM SECON CODA AMPLIT PERI AZIMU VELO AIN AR TRES W  DIS CAZ7
 BAR2 SZ EP       2112 42.61                             129    -0.210   23  18 
 BAR2 SZ ES   1   2112 46.53                             129    -0.3 7   23  18 
 BAR2 SZ I        2112 47.31       136.2 0.22             47             23  18 
 RUS  HZ EP       2112 47.97                             107     0.110   58 162 
 RUS  HN ES   1   2112 55.53                             107    -0.4 7   58 162 
 RUS  HZ I        2112 55.80        18.0 0.10             47             58 162 
 BRR  HZ EP       2112 52.85                             100     0.210   94 327 
 BRR  HZ I        2112 53.11        27.6 0.14             47             94 327 
 BRR  HE ES   1   2113  4.40                             100     0.0 7   94 327 
 PAM  SZ EP       2112 57.71                              98     0.610  121  30 
 PAM  SN ES   1   2113 11.75                              98    -0.6 7  121  30 
 PTB  HZ EP       2112 58.60                              56     0.310  135 277 
 PTB  HN ES   1   2113 14.09                              56    -0.4 7  135 277 
 PTB  HZ I        2113 15.51        21.0 0.16             47            135 277 
 ZAR  HN ES   2   2113 31.67                              56    -0.8 4  216 304 
 ZAR  HZ I        2113 38.02         4.4 0.30             37            216 304 
