 2011 1030 2135 47.2 L   6.649 -73.493111.9  RSN  5 0.3 1.5LRSN                1
 GAP=183        0.68       4.0     6.4  6.5  0.5517E+01 -0.2304E+00 -0.3608E+01E
 Epicentro: EL CARMEN DE CHUCURI - SANTANDER                                   3
 ACTION:UPD 12-07-13 16:07 OP:ep   STATUS:               ID:20111030213547 L   I
 2011-10-30-2131-54S.COL___157                                                 6
 STAT SP IPHASW D HRMM SECON CODA AMPLIT PERI AZIMU VELO AIN AR TRES W  DIS CAZ7
 BAR2 SZ EP       2136  3.51                             162    0.3810 34.9 100 
 BAR2 SZ ES   1   2136 15.87                             162    0.30 7 34.9 100 
 BAR2 SZ I        2136 17.03        20.8 0.12                          34.9 100 
 BRR  HZ EP   1   2136  3.47                             151   -0.35 7 56.2 334 
 BRR  HE ES   1   2136 16.74                             151   -0.06 7 56.2 334 
 BRR  HZ I        2136 18.71         6.7 0.13                          56.2 334 
 RUS  HZ EP   1   2136  7.58                             137    0.27 7 95.1 152 
 RUS  HE ES   1   2136 22.48                             137   -0.54 7 95.1 152 
 RUS  HZ I        2136 24.86         3.6 0.15                          95.1 152 
 PAM  SZ EP   1   2136  8.87                             131   -0.30 7  116  49 
 PAM  SN ES   1   2136 26.23                             131   -0.10 7  116  49 
 OCA  SZ EP   1   2136 14.97                             118    0.10 7  177   6 
 OCA  SZ I        2136 39.51         4.2 0.11                           177   6 
                                                                                
