 2013  930 2224 22.4 L   6.761 -73.160139.1  RSN  8 0.3 1.7LRSN                1
 GAP=136        0.66       3.0     3.3  5.4 -0.9809E+00  0.5382E+01  0.9622E+00E
 Epicentro: LOS SANTOS - SANTANDER                                             3
 ACTION:UPD 13-10-22 09:26 OP:ep   STATUS:               ID:20130930222422 L   I
 OLDACT:REG 13-09-30 21:20 OP:jn   STATUS:               ID:20130930221959     3
 2013-09-30-2219-59M.COL___272                                                 6
 STAT SP IPHASW D HRMM SECON CODA AMPLIT PERI AZIMU VELO AIN AR TRES W  DIS CAZ7
 BAR2 SZ ES   1   2224 55.79                             172   -0.01 7 18.9 187 
 BAR2 SZ I        2224 57.64        24.2 0.58            170           18.9 187 
 BRR  HZ EP       2224 43.06                             151    0.1510 72.0 302 
 BRR  HN ES   1   2224 59.10                             151    0.21 7 72.0 302 
 BRR  HZ I        2225  0.78        19.1 0.18            150           72.0 302 
 PAM  SZ EP       2224 43.92                             148   -0.3010 81.7  38 
 PAM  SN ES       2225  1.01                             148   -0.2010 81.7  38 
 PAM  SZ I        2225  2.97         4.5 0.44            153           81.7  38 
 RUS  HZ EP       2224 45.55                             143    0.3210 96.5 175 
 RUS  HN ES   1   2225  3.25                             143    0.23 7 96.5 175 
 RUS  HZ I        2225  5.50         5.9 0.32            146           96.5 175 
 PTB  HZ EP   1   2224 48.13                             131   -0.52 7  145 260 
 PTB  HN ES   1   2225  8.63                             131   -0.47 7  145 260 
 PTB  HZ I        2225 15.35         6.5 0.22            131            145 260 
 ZAR  HE ES   1   2225 20.03                             121    0.57 6  204 293 
 ZAR  HZ I        2225 25.23         4.5 0.20            122            204 293 
 NOR  HZ EP   1   2224 57.60                             117    0.22 6  231 235 
 NOR  HN ES   1   2225 24.42                             117   -0.21 6  231 235 
 NOR  HZ I        2225 26.97         5.3 0.16            119            231 235 
 SML  HE ES   1   2225 27.76                             116    0.15 6  247 336 
                                                                                
