 2017 1130 2105 29.6 L   6.841 -73.141142.6  RSN 23 0.9 2.3LRSN                1
 GAP= 56        1.93       3.7     4.3  8.5 -0.1882E+01  0.1037E+02 -0.3341E+01E
 Epicentro: LOS SANTOS - SANTANDER                                             3
 ACTION:UPD 17-12-12 20:02 OP:rebc STATUS:               ID:20171130210529 L   I
 OLDACT:UP  17-12-01 04:20 OP:edw  STATUS:               ID:20171130205452d    3
 OLDACT:UP  17-12-01 04:07 OP:edw  STATUS:               ID:20171130205452d    3
 OLDACT:DUP 17-12-01 04:01 OP:edw  STATUS:               ID:20171130205452d    3
 2017-11-30-2058-00M.COL___498                                                 6
 STAT SP IPHASW D HRMM SECON CODA AMPLIT PERI AZIMU VELO AIN AR TRES W  DIS CAZ7
 BAR2 EZ EP       21 5 49.21                             169    0.2510 27.9 190 
 BAR2 EZ ES       21 6  3.93                             169   -0.1210 27.9 190 
 BAR2 EZ I        21 6  6.42        35.5 0.32            169           27.9 190 
 PAM  EZ IP     D 21 5 52.04                             151    0.7810 73.6  41 
 PAM  EN ES       21 6  9.08                             151    0.9310 73.6  41 
 PAM  EZ I        21 6 11.40        27.8 0.56            155           73.6  41 
 RUS  HZ EP       21 5 53.27                             142   -0.1110  105 177 
 RUS  HN ES       21 6 11.66                             142   -0.2610  105 177 
 RUS  HZ I        21 6 12.43        17.4 0.26            144            105 177 
 PTB  HZ EP       21 5 56.14                             131   -0.32 9  149 257 
 PTB  HN ES       21 6 17.20                             131   -0.20 9  149 257 
 PTB  HZ I        21 6 20.16        29.3 0.32            132            149 257 
 OCA  HN ES       21 6 19.21                             130    0.38 9  156 353 
 TAM  HZ EP       21 5 57.42                             130    0.32 9  156 107 
 TAM  HN ES       21 6 17.38                             130   -1.17 9  156 107 
 TAM  HZ I        21 6 19.62        21.4 0.52            133            156 107 
 SPBC HZ EP       21 5 58.74                             128    0.50 9  167 218 
 SPBC HN ES       21 6 20.52                             128   -0.05 9  167 218 
 SPBC HZ I        21 6 25.40        23.0 0.24            129            167 218 
 YPLC HZ EP       21 5 59.25                             125   -0.29 9  181 152 
 YPLC HN ES       21 6 22.25                             125   -0.64 9  181 152 
 YPLC HZ I        21 6 25.93        28.8 0.24            128            181 152 
 ZAR  HZ EP       21 6  2.24                             122    0.51 9  203 291 
 ZAR  HN ES       21 6 28.26                             122    1.47 9  203 291 
 ZAR  HZ I        21 6 34.14        36.3 0.30            123            203 291 
 NOR  HZ EP       21 6  5.88                             118    0.39 8  238 234 
 NOR  HN ES       21 6 32.81                             118   -0.67 8  238 234 
 NOR  HZ I        21 6 35.81        13.7 0.32            119            238 234 
 CHI  HZ EP       21 6  7.64                             116    0.01 8  253 195 
 CHI  HN ES       21 6 36.40                             116   -0.88 8  253 195 
 CHI  HZ I        21 6 39.88         6.4 0.26            118            253 195 
 HEL  HZ EP       21 6 11.30                             114    1.45 8  274 255 
 HEL  HN ES       21 6 40.50                             114   -0.74 8  274 255 
 HEL  HZ I        21 6 50.16         8.7 0.26            115            274 255 
 URE  HZ EP       21 6  9.71                             113   -0.69 7  283 291 
 URE  HN ES       21 6 41.16                             113   -1.06 7  283 291 
 URE  HZ I        21 6 50.84        18.0 0.34            114            283 291 
 DRL03HZ EP       21 6 12.05                             113    1.48 7  285 353 
 DRL03HE ES       21 6 43.97                             113    1.44 7  285 353 
 GUY2CHZ EP       21 6 15.09                             112    1.67 7  304 234 
 GUY2CHE ES       21 6 47.11                             112   -0.48 7  304 234 
 GUY2CHZ I        21 6 54.63         7.5 0.28                           304 234 
 VIL  EE ES       21 6 49.56                             111    2.01 7  308 192 
 LL6C HZ EP       21 6 13.77                             110   -0.89 7  320 357 
 LL6C HE ES       21 6 48.82                             110   -0.99 7  320 357 
 CBOC HZ EP       21 6 15.16                             109   -1.46 7  336 251 
 CBOC HN ES       21 6 52.82                             109   -0.46 7  336 251 
 CBOC HZ I        21 6 58.31         5.5 0.62            111            336 251 
 DBB  HZ EP       21 6 17.76                             109    0.77 7  340 273 
 DBB  EN ES       21 6 52.76                             109   -1.18 7  340 273 
 DBB  HZ I        21 6 55.61        14.2 0.30            110            340 273 
 SDV  BZ EP       21 6 18.98                             108   -0.17 6  357  51 
 SDV  B2 ES       21 6 56.69                             108   -1.10 6  357  51 
 SDV  BZ I        21 6 59.06         5.7 0.45            110            357  51 
 PRA  HZ EP       21 6 23.84                             106    0.32 6  396 209 
 PRA  HE ES       21 7  5.58                             106    0.02 6  396 209 
 PRA  HZ I        21 7 11.00         7.2 0.40            107            396 209 
 ORTC HE ES       21 7  5.89                             106   -0.34 6  399 216 
 SJC  HZ EP       21 6 24.08                             105   -0.58 6  406 327 
 SJC  HN ES       21 7  4.42                             105   -3.18 6  406 327 
 SJC  HZ I        21 7  8.73         8.0 0.54            107            406 327 
                                                                                
