 2010  130 2134 42.8 L   6.821 -73.299140.0  RSN  7 0.4 1.9LRSN                1
 GAP=132        0.97       4.8    16.2  9.8 -0.1964E+02  0.1044E+03 -0.8506E+00E
 Epicentro: ZAPATOCA - SANTANDER                                               3
 ACTION:UP  10-08-24 09:46 OP:vdl  STATUS:               ID:20100130213442 L   I
 2010-01-30-2131-05S.COL___094                                                 6
 STAT SP IPHASW D HRMM SECON CODA AMPLIT PERI AZIMU VELO SNR AR TRES W  DIS CAZ7
 BAR2 SZ EP       2135  1.79                             168    -0.110   28 153 
 BAR2 SZ ES   2   2135 16.15                             168    -0.6 5   28 153 
 GIR2 SZ EP       2135  2.18                             167     0.410   31  22 
 GIR2 SZ ES   1   2135 17.14                             167     0.5 7   31  22 
 RUS  BZ EP       2135  6.00                             141    -0.410  105 167 
 RUS  BN ES   1   2135 24.54                             141    -0.2 7  105 167 
 RUS  BZ I        2135 25.74         9.6 0.30                           105 167 
 OCA  SZ EP       2135  9.99                             129    -0.4 9  157 359 
 OCA  SZ ES   3   2135 32.26                             129     0.4 2  157 359 
 OCA  SZ I        2135 37.17        18.6 0.15                           157 359 
 CHI  HZ EP       2135 20.76                             116     0.7 8  247 191 
 CHI  HN ES   1   2135 49.15                             116     0.1 6  247 191 
 CHI  HZ I        2135 52.76         2.7 0.44                           247 191 
 RREF BZ EP       2135 26.85                             111    -0.6 7  311 227 
 RREF BN ES   3   2136  2.78                             111     0.5 2  311 227 
 RREF BZ I        2136  9.63         3.6 0.35                           311 227 
 PRA  HZ EP       2135 35.91                             106     0.5 6  386 207 
 PRA  HZ I        2135 38.17         3.3 0.24                           386 207 
 PRA  HN ES   3   2136 16.08                             106    -0.4 1  386 207 
                                                                                
