 2015  330 2223 21.6 L   6.951 -73.176140.5  RSN  9 0.5 1.9LRSN                1
 GAP=115        1.74       6.6     7.1 10.9  0.5621E+01  0.2030E+02 -0.1117E+02E
 Epicentro: GIRON - SANTANDER                                                  3
 ACTION:UPD 15-04-30 16:30 OP:nd   STATUS:               ID:20150330222321 L   I
 OLDACT:REG 15-03-31 03:04 OP:stll STATUS:               ID:20150330221748     3
 2015-03-30-2217-48M.COL___281                                                 6
 STAT SP IPHASW D HRMM SECON CODA AMPLIT PERI AZIMU VELO AIN AR TRES W  DIS CAZ7
 BAR2 EZ EP       2223 41.27                             163    0.2510 39.6 181 
 BAR2 EZ ES       2223 55.63                             163   -0.5610 39.6 181 
 BAR2 EZ I        2223 57.50        27.5 0.30            165           39.6 181 
 BRR  HZ IP     C 2223 42.17                             155    0.5510 61.6 286 
 BRR  HN ES       2223 58.18                             155    0.9110 61.6 286 
 BRR  HZ I        2224  1.32        10.7 0.38            153           61.6 286 
 PAM  SZ EP       2223 42.85                             153    0.1810 68.0  51 
 PAM  SZ I        2223 43.64        14.1 0.14            156           68.0  51 
 PAM  SN ES       2223 59.41                             153    0.2710 68.0  51 
 RUS  HZ EP       2223 46.57                             137    0.4610  117 175 
 RUS  HN ES       2224  4.40                             137   -0.8610  117 175 
 RUS  HZ I        2224  6.91         6.9 0.30            141            117 175 
 PTB  HZ EP       2223 48.15                             130   -0.04 9  149 252 
 PTB  HN ES       2224  8.59                             130   -0.36 9  149 252 
 PTB  HZ I        2224 11.49         5.4 0.14            131            149 252 
 ZAR  HZ EP       2223 52.85                             122    0.10 9  195 288 
 ZAR  HN ES       2224 17.13                             122    0.06 9  195 288 
 ZAR  HZ I        2224 22.33         6.1 0.30            123            195 288 
 SML  HZ EP       2223 55.84                             118   -0.27 8  227 334 
 SML  HE ES       2224 21.84                             118   -1.21 8  227 334 
 SML  HZ I        2224 27.09        11.4 0.10            119            227 334 
 SOCV BZ EP   9   2224  3.34                             111   -0.37 0  295  60 
 SOCV BN ES       2224 33.98                                   -2.23 7  295  60 
 SJC  HZ EP   9   2224 13.21                             105   -1.89 0  393 326 
 SJC  HZ I        2224 14.04         3.7 0.12            107            393 326 
 SJC  HN ES       2224 53.92                                   -1.05 6  393 326 
                                                                                
