 2012  530 2219 13.8 L   6.798 -73.198135.2  RSN 10 0.4 2.0LRSN                1
 GAP=130        0.77       3.6     4.8  6.6 -0.4274E+01  0.1375E+02  0.1543E+01E
 Epicentro: ZAPATOCA - SANTANDER                                               3
 ACTION:UP  12-07-05 12:09 OP:pat  STATUS:               ID:20120530221913 L   I
 2012-05-30-2217-38M.COL___185                                                 6
 STAT SP IPHASW D HRMM SECON CODA AMPLIT PERI AZIMU VELO AIN AR TRES W  DIS CAZ7
 BAR2 SZ EP       2219 32.27                             170     0.110   23 176 
 BAR2 SZ ES   1   2219 46.94                             170     0.5 7   23 176 
 PAM  SZ EP   1   2219 35.28                             147     0.1 7   81  43 
 PAM  SN ES   1   2219 51.98                             147     0.2 7   81  43 
 RUS  HZ EP   1   2219 36.28                             141    -0.2 7  101 173 
 RUS  HN ES   1   2219 53.86                             141    -0.4 7  101 173 
 RUS  HZ I        2219 56.14        23.9 0.29                           101 173 
 PTB  HZ EP   1   2219 39.13                             131    -0.2 7  142 258 
 PTB  HN ES   1   2219 59.16                             131    -0.2 7  142 258 
 PTB  HZ I        2220  3.25        12.7 0.25                           142 258 
 OCA  HN ES   1   2220  2.05                             127    -0.6 7  160 355 
 ZAR  HZ EP   1   2219 45.32                             121     0.3 6  199 293 
 NOR  SE ES   1   2220 15.05                             117    -0.3 6  230 234 
 CHI  HZ EP   1   2219 50.51                             115    -0.2 6  247 194 
 CHI  HZ I        2219 52.85         5.2 0.24                           247 194 
 HEL  HZ EP   1   2219 53.64                             113     0.8 6  266 256 
 HEL  HZ I        2220 33.47         7.2 0.48                           266 256 
 PRA  HZ EP   1   2220  6.35                             105    -0.2 4  389 209 
 PRA  HE ES   1   2220 48.29                             105     0.5 4  389 209 
                                                                                
