 2017  830 2244 53.1 L   6.769 -73.085153.8  RSN  4 0.2 1.4LRSN                1
 GAP=146        0.55       3.8     5.6  6.4 -0.4474E+00 -0.1920E+01  0.3008E+01E
 Epicentro: LOS SANTOS - SANTANDER                                             3
 ACTION:UPD 17-09-04 20:26 OP:rebc STATUS:               ID:20170830224453 L   I
 OLDACT:UP  17-08-31 10:27 OP:mg   STATUS:               ID:20170830222847     3
 OLDACT:UP  17-08-31 10:27 OP:mg   STATUS:               ID:20170830222847     3
 OLDACT:UP  17-08-31 10:20 OP:mg   STATUS:               ID:20170830222847     3
 OLDACT:REG 17-08-31 08:36 OP:mg   STATUS:               ID:20170830222847     3
 2017-08-30-2238-00M.COL___408                                                 6
 STAT SP IPHASW D HRMM SECON CODA AMPLIT PERI AZIMU VELO AIN AR TRES W  DIS CAZ7
 BAR2 EZ EP   1   2245 13.48                             171   -0.18 7 22.3 209 
 BAR2 EZ ES   4   2245 28.44                             171   -1.27 0 22.3 209 
 BAR2 EZ I        2245 30.90         5.8 0.20            170           22.3 209 
 PAM  EZ IP     C 2245 16.19                             153    0.1010 76.2  34 
 PAM  EE ES   1   2245 33.94                             153   -0.09 7 76.2  34 
 PAM  EZ I        2245 35.45         4.8 0.50            155           76.2  34 
 BRR  HZ EP       2245 15.25                             151   -0.2810 78.7 298 
 BRR  HN ES   1   2245 33.31                             151    0.28 7 78.7 298 
 BRR  HZ I        2245 37.48         8.6 0.46            150           78.7 298 
 RUS  HZ EP       2245 17.66                             146    0.2810 96.9 180 
 RUS  HN ES   1   2245 36.16                             146   -0.17 7 96.9 180 
 RUS  HZ I        2245 36.97         2.1 0.42            150           96.9 180 
                                                                                
