 2013  330 2005 12.8 L   6.753 -73.161144.4  RSN  7 0.5 2.1LRSN                1
 GAP=137        1.16       5.7     6.1  9.0  0.1291E+02 -0.2043E+01 -0.1441E+02E
 Epicentro: LOS SANTOS - SANTANDER                                             3
 ACTION:UPD 13-04-09 14:05 OP:ep   STATUS:               ID:20130330200512 L   I
 2013-03-30-2000-00M.COL___245                                                 6
 STAT SP IPHASW D HRMM SECON CODA AMPLIT PERI AZIMU VELO AIN AR TRES W  DIS CAZ7
 BAR2 SZ EP       20 5 32.15                             173   -0.0110 17.9 188 
 BAR2 SZ ES       20 5 46.72                             173   -0.5410 17.9 188 
 BAR2 SZ I        20 5 48.22        21.7 0.22            168           17.9 188 
 BRR  HZ EP       20 5 34.07                             152    0.2110 72.4 303 
 BRR  HN ES       20 5 50.93                             152    0.6410 72.4 303 
 BRR  HN I        20 5 51.81        26.4 0.38            148           72.4 303 
 PAM  SZ EP       20 5 35.15                             149   -0.0210 82.5  38 
 RUS  HZ EP       20 5 36.30                             145    0.2510 95.5 175 
 RUS  HN ES       20 5 54.39                             145    0.2110 95.5 175 
 RUS  HN I        20 5 56.34        10.0 0.22            144           95.5 175 
 PTB  HZ EP       20 5 39.15                             132   -0.26 9  145 261 
 PTB  HN ES       20 5 59.41                             132   -0.76 9  145 261 
 PTB  HN I        20 6  5.25        17.3 0.22            129            145 261 
 ZAR  HN ES       20 6 11.21                             122    0.74 9  205 294 
 ZAR  HN I        20 6 19.67        13.3 0.18            120            205 294 
 SML  HE ES       20 6 18.01                             117   -0.62 8  248 336 
 SML  HE I        20 6 20.31        11.9 0.10            116            248 336 
                                                                                
