 2016  730 2341 24.0 L   6.796 -72.995142.4  RSN  5 0.5 1.6LRSN                1
 GAP=252        1.24       8.4    10.6  9.6  0.2722E+02  0.2655E+02  0.1605E+02E
 Epicentro: CEPITA - SANTANDER                                                 3
 ACTION:UPD 17-03-29 16:57 OP:lp   STATUS:               ID:20160730234124 L   I
 OLDACT:REG 16-07-31 02:35 OP:lv   STATUS:               ID:20160730233759     3
 2016-07-30-2337-59S.COL___340                                                 6
 STAT SP IPHASW D HRMM SECON CODA AMPLIT PERI AZIMU VELO AIN AR TRES W  DIS CAZ7
 BAR2 EZ EP       2341 42.59                             167   -0.8010 30.6 223 
 BAR2 EZ ES       2341 57.92                             167   -0.6010 30.6 223 
 BAR2 EZ I        2342  0.86        12.9 0.21            168           30.6 223 
 BRR  HZ EP       2341 45.93                             147    0.2010 86.4 293 
 BRR  HE ES       2342  3.14                             147    0.4710 86.4 293 
 BRR  HZ I        2342  5.27         7.3 0.15            149           86.4 293 
 RUS  HZ EP       2341 47.89                             143    0.4910  100 186 
 RUS  HE ES       2342  6.08                             143    0.4210  100 186 
 RUS  HZ I        2342  8.08         6.0 0.20            145            100 186 
 PTB  HZ EP   4   2341 50.70                             128   -1.53 0  164 260 
 PTB  HE ES   4   2342 12.01                             128   -2.23 0  164 260 
 PTB  HZ I        2342 14.15         4.6 0.16            130            164 260 
 GUY2CHZ EP       2342  9.04                             110    0.05 7  315 237 
 GUY2CHE ES       2342 43.68                             110   -0.41 7  315 237 
 GUY2CHZ I        2342 50.22         1.8 0.34                           315 237 
                                                                                
