 2010  730 2015 17.9 L   6.760 -73.144149.0  RSN  7 0.4 1.7LRSN                1
 GAP=159        0.74       4.1     8.7  7.7 -0.7232E+01 -0.1127E+02 -0.1572E+00E
 Epicentro: LOS SANTOS - SANTANDER                                             3
 ACTION:UPD 10-12-01 15:21 OP:pat  STATUS:               ID:20100730201517 L   I
 2010-07-30-2010-58S.COL___123                                                 6
 STAT SP IPHASW D HRMM SECON CODA AMPLIT PERI AZIMU VELO AIN AR TRES W  DIS CAZ7
 BAR2 SZ IP       2015 37.77                             172     0.010   19 193 
 BAR2 SZ I        2015 38.32        14.6 0.44                            19 193 
 BAR2 SZ ES   2   2015 53.24                             172    -0.1 5   19 193 
 GIR2 SZ EP   2   2015 37.79                             166    -0.3 5   36 351 
 BRR  HZ EP   1   2015 39.41                             152    -0.1 7   74 302 
 BRR  HZ I        2015 39.90        17.4 0.27                            74 302 
 BRR  HN ES   1   2015 56.51                             152     0.1 7   74 302 
 RUS  HZ EP   1   2015 41.55                             146    -0.1 7   96 176 
 RUS  HN ES   1   2016  0.31                             146     0.2 7   96 176 
 RUS  HZ I        2016  2.25         3.8 0.36                            96 176 
 GUE  SZ EP   1   2015 42.65                             139    -0.6 7  121  12 
 GUE  SZ I        2015 48.87         2.6 0.14                           121  12 
 GRA  SZ EP   1   2015 44.47                             137     0.7 7  130  17 
 GRA  SZ ES   1   2016  3.94                             137     0.0 7  130  17 
 GRA  SZ I        2016  7.06         6.9 0.42                           130  17 
 PRA  HZ EP   2   2016 11.88                             107     0.8 3  388 210 
 PRA  HN ES   2   2016 52.08                             107    -0.5 3  388 210 
 PRA  HZ I        2017  0.96         1.8 0.37                           388 210 
                                                                                
