 2015  130 2022 36.5 L   6.785 -73.148149.7  RSN 10 0.5 2.2LRSN                1
 GAP=137        1.17       3.5     4.8  6.3 -0.6515E+00  0.8040E+01  0.8400E+00E
 Epicentro: LOS SANTOS - SANTANDER                                             3
 ACTION:UPD 15-03-02 15:43 OP:nd   STATUS:               ID:20150130202236 L   I
 OLDACT:DUP 15-01-31 10:46 OP:carl STATUS:               ID:20150130201752d    3
 2015-01-30-2017-50M.COL___274                                                 6
 STAT SP IPHASW D HRMM SECON CODA AMPLIT PERI AZIMU VELO AIN AR TRES W  DIS CAZ7
 BAR2 EZ EP       2022 56.75                             171    0.1410 21.6 190 
 BAR2 EZ ES       2023 12.50                             171    0.2410 21.6 190 
 BAR2 EZ I        2023 14.28        22.2 0.38            169           21.6 190 
 BRR  HZ EP       2022 58.17                             153    0.0310 71.8 300 
 BRR  HE ES       2023 15.86                             153    0.8710 71.8 300 
 PAM  SZ EP       2022 59.60                             151    0.3410 78.8  39 
 PAM  SN ES       2023 16.86                             151   -0.1210 78.8  39 
 PAM  SZ I        2023 19.22        19.4 0.68            156           78.8  39 
 RUS  HZ EP       2023  0.33                             145   -0.2310 98.9 176 
 RUS  HN ES       2023 18.61                             145   -0.6910 98.9 176 
 PTB  HZ EP       2023  3.61                             133   -0.16 9  147 259 
 PTB  HN ES       2023 24.46                             133   -0.56 9  147 259 
 PTB  HZ I        2023 32.15        29.7 0.40            132            147 259 
 SPBC HZ EP       2023  5.73                             130    0.53 9  162 219 
 SPBC HN ES       2023 27.00                             130   -0.56 9  162 219 
 SPBC HZ I        2023 34.85        31.6 0.30            130            162 219 
 ZAR  HZ EP       2023  9.29                             123    0.01 9  204 293 
 ZAR  HN ES       2023 35.44                             123    0.63 9  204 293 
 ZAR  HZ I        2023 42.98        19.8 0.28            124            204 293 
 SML  HZ EP       2023 12.87                             118   -0.66 8  245 336 
 SML  HN ES       2023 41.55                             118   -0.84 8  245 336 
 SML  HZ I        2023 46.49        30.7 0.10            120            245 336 
 CHI  HZ EP       2023 14.71                             118    0.44 8  247 195 
 CHI  HN ES       2023 44.15                             118    0.44 8  247 195 
 CHI  HZ I        2023 51.70         4.1 0.26            120            247 195 
 GUY2CHZ EP       2023 20.57                             113    0.38 7  300 235 
 GUY2CHN ES       2023 53.87                             113   -0.38 7  300 235 
 GUY2CHZ I        2024  1.63         8.0 0.32                           300 235 
                                                                                
