 2016  330 2032  9.1 L   6.717 -73.176130.9  RSN  4 0.1 1.3LRSN                1
 GAP=239        0.29       3.9     4.7  5.3  0.1509E+02  0.1331E+02  0.8253E+01E
 Epicentro: VILLANUEVA - SANTANDER                                             3
 ACTION:UPD 16-05-13 21:29 OP:cam  STATUS:               ID:20160330203209 L   I
 OLDACT:REG 16-03-31 02:28 OP:dnl  STATUS:               ID:20160330202747     3
 2016-03-30-2027-47M.COL___314                                                 6
 STAT SP IPHASW D HRMM SECON CODA AMPLIT PERI AZIMU VELO AIN AR TRES W  DIS CAZ7
 BAR2 EZ EP   2   2032 26.72                             174   -0.04 6 13.8 183 
 BAR2 EZ ES   2   2032 40.43                             174   -0.11 6 13.8 183 
 BAR2 EZ I        2032 43.72         2.5 0.09            158           13.8 183 
 RUS  HZ EP   2   2032 30.79                             143    0.05 6 91.8 174 
 RUS  HN ES   2   2032 47.77                             143    0.14 6 91.8 174 
 RUS  HZ I        2032 50.40         2.9 0.24            139           91.8 174 
 ZAR  HZ EP   4   2032 43.48                             119    2.81 0  205 295 
 ZAR  HN ES       2033  5.32                             119    0.0210  205 295 
 ZAR  HZ I        2033 10.94         4.7 0.24            120            205 295 
 CHI  HZ EP   2   2032 44.87                             115   -0.05 5  239 195 
 CHI  HE ES   2   2033 12.79                             115   -0.09 5  239 195 
 CHI  HZ I        2033 20.01         2.1 0.34            115            239 195 
                                                                                
