 2017  530 2216 40.9 L   6.839 -73.193134.0  RSN  8 0.4 1.7LRSN                1
 GAP=213        0.89       4.7     4.6  7.1  0.6977E+01 -0.1530E+01  0.2633E+01E
 Epicentro: ZAPATOCA - SANTANDER                                               3
 ACTION:UPD 17-06-16 13:40 OP:jn   STATUS:               ID:20170530221640 L   I
 OLDACT:REG 17-05-31 08:11 OP:lv   STATUS:               ID:20170530220738     3
 2017-05-30-2208-00M.COL___353                                                 6
 STAT SP IPHASW D HRMM SECON CODA AMPLIT PERI AZIMU VELO AIN AR TRES W  DIS CAZ7
 BRR  HZ EP       2217  1.04                             153    0.6610 64.5 297 
 BRR  HN ES       2217 15.37                             153   -0.2210 64.5 297 
 RUS  HZ EP       2217  3.41                             140   -0.4510  105 173 
 RUS  HN ES       2217 21.96                             140    0.1710  105 173 
 RUS  HZ I        2217 23.12        10.4 0.35            137            105 173 
 PTB  HZ EP       2217  6.53                             130    0.01 9  144 257 
 PTB  HN ES       2217 26.03                             130   -0.49 9  144 257 
 PTB  HZ I        2217 29.56         6.9 0.29            126            144 257 
 SPBC HN ES   1   2217 30.35                             126    0.27 7  163 217 
 SPBC HZ I        2217 34.69        12.7 0.24            123            163 217 
 YPLC HN ES   1   2217 33.77                             123    0.18 7  183 151 
 ZAR  HZ EP   9   2217 13.49                             121    1.59 0  198 292 
 ZAR  HN ES       2217 38.18                                    0.49 9  198 292 
 ZAR  HZ I        2217 43.05         4.2 0.19            118            198 292 
 NOR  HZ EP       2217 15.49                             116   -0.28 8  233 233 
 NOR  HN ES       2217 43.34                             116    0.35 8  233 233 
 NOR  HZ I        2217 45.34         4.9 0.15            113            233 233 
 CHI  HZ EP   9   2217 16.75                             114   -1.52 0  252 194 
 CHI  HN ES       2217 45.92                                    0.00 8  252 194 
 CHI  HZ I        2217 54.25         2.2 0.30            112            252 194 
 SJC  HZ EP   4   2217 33.99                             104   -1.32 0  403 327 
 SJC  HN ES   4   2218 14.11                             104   -3.66 0  403 327 
                                                                                
