 2015  130 2131 16.1 L   6.854 -73.213138.1  RSN  8 0.4 1.9LRSN                1
 GAP=126        1.04       3.4     4.2  6.9 -0.2372E+01  0.1244E+02 -0.4707E+01E
 Epicentro: ZAPATOCA - SANTANDER                                               3
 ACTION:UPD 15-03-02 15:43 OP:nd   STATUS:               ID:20150130213116 L   I
 OLDACT:REG 15-01-31 10:40 OP:carl STATUS:               ID:20150130212746     3
 2015-01-30-2127-46M.COL___277                                                 6
 STAT SP IPHASW D HRMM SECON CODA AMPLIT PERI AZIMU VELO AIN AR TRES W  DIS CAZ7
 BAR2 EZ EP       2131 34.86                             167   -0.1310 29.1 173 
 BAR2 EZ ES       2131 49.84                             167    0.1510 29.1 173 
 BAR2 EZ I        2131 50.71        23.1 0.18            169           29.1 173 
 PAM  SZ EP       2131 37.85                             149    0.2610 78.1  47 
 PAM  SN ES       2131 54.71                             149    0.3910 78.1  47 
 PAM  SZ I        2131 56.04         8.6 0.42            154           78.1  47 
 RUS  HZ EP       2131 39.46                             140   -0.2010  107 172 
 RUS  HN ES       2131 57.59                             140   -0.4110  107 172 
 RUS  HZ I        2131 59.05         9.3 0.30            145            107 172 
 PTB  HZ EP       2131 42.01                             131    0.06 9  142 256 
 PTB  HN ES       2132  1.51                             131   -0.56 9  142 256 
 PTB  HZ I        2132  7.88         8.1 0.10            132            142 256 
 SPBC HZ EP       2131 44.27                             127    0.18 9  163 216 
 SPBC HN ES       2132  5.70                             127   -0.18 9  163 216 
 SPBC HZ I        2132  8.09        10.8 0.12            129            163 216 
 ZAR  HZ EP       2131 48.03                             122    0.87 9  195 291 
 ZAR  HN ES       2132 11.59                             122    0.25 9  195 291 
 ZAR  HZ I        2132 18.51         8.4 0.30            123            195 291 
 NOR  HZ EP       2131 51.44                             117    0.26 8  232 232 
 NOR  HN ES       2132 18.93                             117    0.43 8  232 232 
 NOR  HZ I        2132 23.19         5.0 0.22            119            232 232 
 SML  HZ EP       2131 50.43                             117   -1.00 8  235 336 
 SML  HN ES       2132 18.53                             117   -0.42 8  235 336 
 SML  HZ I        2132 22.25        10.8 0.36            119            235 336 
                                                                                
