 2012 1030 2350 33.4 L   6.791 -73.136153.3  RSN  6 0.3 1.6LRSN                1
 GAP=138        0.69       4.9     4.8  7.4  0.4785E+01 -0.2264E+01  0.2201E+01E
 Epicentro: LOS SANTOS - SANTANDER                                             3
 ACTION:UPD 12-11-22 17:06 OP:ep   STATUS:               ID:20121030235033 L   I
 2012-10-30-2350-00M.COL___231                                                 6
 STAT SP IPHASW D HRMM SECON CODA AMPLIT PERI AZIMU VELO AIN AR TRES W  DIS CAZ7
 BAR2 SZ EP   1   2350 53.66                             171   -0.28 7 22.6 193 
 BAR2 SZ I        2350 54.50         8.3 0.19                          22.6 193 
 GIR2 SZ EP   2   2350 54.20                             167    0.18 5 32.4 349 
 BRR  HZ EP       2350 55.70                             153    0.2410 72.6 299 
 BRR  HE ES       2351 13.00                             153    0.3410 72.6 299 
 BRR  HZ I        2351 21.92        13.3 0.48                          72.6 299 
 PAM  SZ EP       2350 56.57                             152    0.1310 77.4  38 
 PAM  SZ I        2350 56.99         4.4 0.28                          77.4  38 
 PAM  SE ES   1   2351 13.98                             152   -0.42 7 77.4  38 
 RUS  HZ EP   1   2350 57.83                             146   -0.01 7 99.5 177 
 RUS  HN ES   1   2351 16.77                             146   -0.12 7 99.5 177 
 RUS  HN I        2351 18.17         4.4 0.20                          99.5 177 
 ZAR  HN ES   1   2351 31.61                             124   -0.70 6  205 292 
 ZAR  HZ I        2351 38.77         5.4 0.46                           205 292 
                                                                                
