 2010  330 2207 39.9 L   6.882 -72.894140.0  RSN  4 0.2 2.0LRSN                1
 GAP=265        0.47       8.0    13.2  7.0  0.8855E+02 -0.5571E+02 -0.3273E+02E
 Epicentro: GUACA - SANTANDER                                                  3
 ACTION:DUP 10-08-24 09:56 OP:vdl  STATUS:               ID:20100330220740dL   I
 2010-03-30-2205-16S.COL___098                                                 6
 STAT SP IPHASW D HRMM SECON CODA AMPLIT PERI AZIMU VELO SNR AR TRES W  DIS CAZ7
 BAR2 SZ EP       22 7 59.61                             163     0.110   45 225 
 BAR2 SZ ES   1   22 8 14.97                             163     0.2 7   45 225 
 BRR  HZ EP       22 8  1.71                             146    -0.110   94 285 
 BRR  HN ES   1   22 8 19.02                             146     0.0 7   94 285 
 BRR  HZ I        22 8 23.22        37.0 0.17                            94 285 
 RUS  HZ EP   1   22 8  3.66                             141    -0.2 7  111 191 
 RUS  HN ES   1   22 8 22.54                             141    -0.1 7  111 191 
 RUS  HZ I        22 8 23.38        10.0 0.22                           111 191 
 HEL  HZ EP   3   22 8 23.70                             112     0.6 2  301 255 
 HEL  HZ I        22 8 58.76         5.3 0.34                           301 255 
                                                                                
