 2010  430 2036 17.1 L   6.869 -73.277124.8  RSN  5 0.5 1.8LRSN                1
 GAP=154        1.12      11.4    29.1 16.8 -0.2836E+03  0.1928E+03 -0.5045E+02E
 Epicentro: BETULIA - SANTANDER                                                3
 ACTION:UPD 10-08-24 10:02 OP:vdl  STATUS:               ID:20100430203617 L   I
 2010-04-30-2034-41S.COL___105                                                 6
 STAT SP IPHASW D HRMM SECON CODA AMPLIT PERI AZIMU VELO SNR AR TRES W  DIS CAZ7
 BAR2 SZ ES   2   2036 47.61                             165    -0.4 5   32 161 
 GUE  SZ EP       2036 40.22                             135     0.610  113  20 
 GUE  SZ ES   2   2036 58.11                             135     0.9 5  113  20 
 GRA  SZ EP       2036 39.70                             132    -0.710  124  25 
 GRA  SZ ES   1   2036 58.37                             132    -0.2 7  124  25 
 CHI  HN ES   1   2037 23.37                             112     0.3 6  253 192 
 CHI  HZ I        2037 29.96         4.1 0.39                           253 192 
 RREF BN ES   2   2037 36.32                             107    -0.3 4  316 227 
 RREF BZ I        2037 48.68         3.4 0.37                           316 227 
                                                                                
