 2014 1030 2346 10.8 L   6.784 -73.188137.9  RSN  6 0.4 1.5LRSN                1
 GAP=132        0.95       4.8     4.7  6.5 -0.2404E+01  0.5031E+01  0.4509E+01E
 Epicentro: ZAPATOCA - SANTANDER                                               3
 ACTION:UPD 14-11-29 23:58 OP:nd   STATUS:               ID:20141030234610 L   I
 OLDACT:UP  14-11-25 16:06 OP:cam  STATUS:               ID:20141030233819     3
 OLDACT:REG 14-11-25 15:11 OP:cam  STATUS:               ID:20141030233819     3
 2014-10-30-2338-19M.COL___274                                                 6
 STAT SP IPHASW D HRMM SECON CODA AMPLIT PERI AZIMU VELO AIN AR TRES W  DIS CAZ7
 BAR2 SZ EP       2346 29.50                             171    0.0710 21.2 178 
 BAR2 SZ ES       2346 43.55                             171   -0.4210 21.2 178 
 BAR2 SZ I        2346 45.39         8.6 0.32            170           21.2 178 
 BRR  HZ EP       2346 31.18                             152    0.2710 68.0 302 
 BRR  HN ES       2346 47.27                             152    0.6710 68.0 302 
 BRR  HZ I        2346 49.74        10.3 0.34            152           68.0 302 
 PAM  SZ EP       2346 32.43                             148   -0.0210 81.7  41 
 PAM  SN ES       2346 49.10                             148   -0.2510 81.7  41 
 PAM  SZ I        2346 51.34         8.7 0.52            153           81.7  41 
 RUS  HZ EP       2346 33.61                             142   -0.0710 99.3 173 
 RUS  HN ES       2346 51.80                             142    0.2710 99.3 173 
 RUS  HN I        2346 55.34         4.2 0.28            145           99.3 173 
 PTB  HZ EP       2346 36.18                             131   -0.49 9  143 259 
 PTB  HN ES       2346 56.39                             131   -0.47 9  143 259 
 PTB  HZ I        2347  4.44         3.8 0.46            132            143 259 
 SPBC HZ EP       2346 38.65                             128    0.37 9  159 218 
                                                                                
