 2017  330 2203 17.2 L   6.817 -73.392121.8  RSN  4 0.1 1.3LRSN                1
 GAP=185        0.45       3.2     2.8  3.7  0.4318E+01  0.2125E+01  0.2543E+01E
 Epicentro: SAN VICENTE DE CHUCURI - SANTANDER                                 3
 ACTION:UPD 17-05-25 18:47 OP:jn   STATUS:               ID:20170330220317 L   I
 OLDACT:UP  17-03-31 08:02 OP:dani STATUS:               ID:20170330215740d    3
 OLDACT:DUP 17-03-31 08:00 OP:dani STATUS:               ID:20170330215740d    3
 OLDACT:UP  17-03-31 08:00 OP:dani STATUS:               ID:20170330215739     3
 OLDACT:REG 17-03-31 03:07 OP:dani STATUS:               ID:20170330215739     3
 2017-03-30-2158-00M.COL___350                                                 6
 STAT SP IPHASW D HRMM SECON CODA AMPLIT PERI AZIMU VELO AIN AR TRES W  DIS CAZ7
 BAR2 EZ EP       22 3 34.29                             163   -0.0210 34.0 137 
 BAR2 EZ ES       22 3 47.60                             163   -0.0210 34.0 137 
 BRR  HZ EP       22 3 34.77                             157    0.2510 47.7 312 
 BRR  HN ES       22 3 47.87                             157   -0.1210 47.7 312 
 BRR  HZ I        22 3 50.36        19.6 0.64            158           47.7 312 
 RUS  HZ EP       22 3 39.33                             136    0.0210  108 161 
 RUS  HN ES       22 3 56.54                             136    0.0110  108 161 
 RUS  HZ I        22 3 59.75         1.6 0.40            137            108 161 
 PTB  HZ EP       22 3 39.60                             132   -0.2710  122 255 
 PTB  HN ES       22 3 57.67                             132    0.1410  122 255 
 PTB  HZ I        22 4  2.06         1.8 0.14            131            122 255 
                                                                                
