 2012  930 2011 36.7 L   6.759 -73.108142.3  RSN  6 0.2 1.8LRSN                1
 GAP=143        0.39       2.4     3.9  3.6  0.2377E+00  0.1681E+00  0.9337E+00E
 Epicentro: LOS SANTOS - SANTANDER                                             3
 ACTION:UPD 12-10-22 14:21 OP:ep   STATUS:               ID:20120930201136 L   I
 2012-09-30-2010-37M.COL___208                                                 6
 STAT SP IPHASW D HRMM SECON CODA AMPLIT PERI AZIMU VELO AIN AR TRES W  DIS CAZ7
 BAR2 SZ EP       2011 56.04                             171    0.1910 20.2 204 
 BAR2 SZ ES   1   2012 10.74                             171   -0.05 7 20.2 204 
 BAR2 SZ I        2012 12.43        30.3 0.21                          20.2 204 
 GIR2 SZ EP       2011 55.87                             165   -0.2510 36.6 345 
 BRR  HZ EP       2011 57.90                             150    0.0810 77.1 300 
 BRR  HN ES   1   2012 14.29                             150    0.00 7 77.1 300 
 BRR  HZ I        2012 17.46        10.9 0.16                          77.1 300 
 PAM  SZ EP   1   2011 58.72                             150    0.11 7 78.5  35 
 PAM  SN ES   1   2012 15.63                             150   -0.07 7 78.5  35 
 RUS  HZ EP       2011 59.84                             144    0.0710 95.8 178 
 RUS  HE ES   1   2012 17.71                             144   -0.05 7 95.8 178 
 RUS  HZ I        2012 20.04         6.7 0.33                          95.8 178 
 CHI  HZ EP   2   2012 13.46                             117   -0.39 4  245 196 
                                                                                
