 2013  530 2308 14.1 L   6.741 -73.149145.8  RSN  8 0.5 1.8LRSN                1
 GAP=139        1.37       6.3     5.9  8.9 -0.5948E+01  0.1117E+02  0.7107E+01E
 Epicentro: JORDAN - SANTANDER                                                 3
 ACTION:UPD 13-06-20 09:55 OP:ep   STATUS:               ID:20130530230814 L   I
 2013-05-30-2306-41M.COL___221                                                 6
 STAT SP IPHASW D HRMM SECON CODA AMPLIT PERI AZIMU VELO AIN AR TRES W  DIS CAZ7
 BAR2 SZ EP       23 8 33.69                             173    0.0410 16.9 193 
 BAR2 SZ ES       23 8 49.51                             173    0.6410 16.9 193 
 BAR2 SZ I        23 8 50.43        15.5 0.26            173           16.9 193 
 GIR2 SZ EP       23 8 34.01                             165    0.0210 37.7 352 
 GIR2 SZ ES       23 8 49.30                             165   -0.1810 37.7 352 
 BRR  HZ EP       23 8 35.90                             152    0.4510 74.2 303 
 BRR  HN ES       23 8 52.83                             152    0.7410 74.2 303 
 BRR  HZ I        23 8 58.06         9.7 0.16            151           74.2 303 
 PAM  SZ EP       23 8 36.93                             149    0.2610 82.7  37 
 PAM  SN ES       23 8 53.32                             149   -0.9310 82.7  37 
 PAM  SZ I        23 8 55.16         5.0 0.20            152           82.7  37 
 RUS  HZ EP       23 8 37.48                             146    0.0610 94.1 176 
 RUS  HN ES       23 8 55.59                             146   -0.0110 94.1 176 
 RUS  HZ I        23 8 57.47         8.3 0.38            149           94.1 176 
 PTB  HZ EP       23 8 40.61                             132   -0.35 9  146 261 
 PTB  HN ES       23 9  0.71                             132   -1.19 9  146 261 
 PTB  HZ I        23 9  5.55         8.7 0.12            133            146 261 
 ZAR  HN ES   1   23 9 12.85                             122    0.56 6  206 294 
 ZAR  HZ I        23 9 14.76         8.2 0.17            123            206 294 
 NOR  HN ES       23 9 17.01                             119    0.04 8  231 236 
                                                                                
