 2013  930 2128 33.0 L   6.830 -73.192132.5  RSN  4 0.1 1.4LRSN                1
 GAP=147        0.35       3.7     3.1  4.1 -0.7487E+01  0.6097E+01 -0.6164E+01E
 Epicentro: ZAPATOCA - SANTANDER                                               3
 ACTION:UPD 13-10-22 09:26 OP:ep   STATUS:               ID:20130930212833 L   I
 OLDACT:REG 13-09-30 21:32 OP:jn   STATUS:               ID:20130930212746     3
 2013-09-30-2127-46M.COL___243                                                 6
 STAT SP IPHASW D HRMM SECON CODA AMPLIT PERI AZIMU VELO AIN AR TRES W  DIS CAZ7
 BAR2 SZ ES       2129  5.33                             168    0.1010 26.3 178 
 PAM  SZ EP       2128 53.90                             148    0.0110 78.4  44 
 PAM  SE ES       2129 10.12                             148   -0.0610 78.4  44 
 PAM  SZ I        2129 13.01         5.2 0.48            149           78.4  44 
 RUS  HE ES   2   2129 13.31                             140   -0.21 5  104 173 
 PTB  HZ EP   1   2128 58.62                             130    0.11 7  143 257 
 PTB  HN ES   1   2129 18.28                             130   -0.12 7  143 257 
 PTB  HZ I        2129 21.76         3.1 0.30            130            143 257 
                                                                                
