 2016  330 2355 19.8 L   7.433 -73.197131.6  RSN 17 0.5 2.5LRSN                1
 GAP= 69        1.12       3.3     3.2  6.3 -0.3141E+00  0.6619E+01  0.1733E+01E
 Epicentro: EL PLAYON - SANTANDER                                              3
 ACTION:UPD 16-05-13 21:29 OP:cam  STATUS:               ID:20160330235519 L   I
 OLDACT:REG 16-03-31 02:38 OP:dnl  STATUS:               ID:20160330234749     3
 2016-03-30-2347-49M.COL___295                                                 6
 STAT SP IPHASW D HRMM SECON CODA AMPLIT PERI AZIMU VELO AIN AR TRES W  DIS CAZ7
 PAM  EZ EP     C 2355 39.58                             156    0.3110 55.9 101 
 PAM  EN ES       2355 54.30                             156   -0.1810 55.9 101 
 PAM  EZ I        2355 57.99        51.3 0.18            160           55.9 101 
 OCA  HZ EP       2355 41.14                             143    0.2310 90.1 351 
 OCA  HN ES       2355 57.38                             143   -0.0110 90.1 351 
 OCA  HZ I        2355 59.84       191.4 0.18            147           90.1 351 
 BAR2 EZ EP     C 2355 41.25                             143    0.0210 93.0 179 
 BAR2 EZ ES       2355 57.78                             143   -0.1910 93.0 179 
 BAR2 EZ I        2355 58.88       157.3 0.12            142           93.0 179 
 RUS  HZ EP       2355 48.28                             124   -0.24 9  171 176 
 RUS  HN ES       2356 10.09                             124   -0.85 9  171 176 
 RUS  HZ I        2356 11.61        12.3 0.30            125            171 176 
 PTB  HZ EP       2355 47.77                             124   -0.11 9  171 235 
 PTB  HE ES       2356  9.41                             124   -0.39 9  171 235 
 PTB  HZ I        2356 11.17        26.4 0.26            124            171 235 
 ZAR  HZ EP       2355 49.35                             122    0.17 9  183 272 
 ZAR  HN ES       2356 12.78                             122    0.67 9  183 272 
 ZAR  HZ I        2356 15.94        94.1 0.42            123            183 272 
 TAM  HZ EP       2355 50.16                             121    0.20 9  191 125 
 TAM  HN ES       2356 13.72                             121    0.22 9  191 125 
 TAM  HZ I        2356 14.94        42.4 0.26            123            191 125 
 SPBC HZ EP   4   2355 53.92                             117    0.82 0  219 206 
 SPBC HE ES       2356 20.41                             117    1.32 8  219 206 
 SPBC HZ I        2356 27.86        34.3 0.26            118            219 206 
 URE  HZ EP       2355 56.54                             113   -0.97 8  260 278 
 URE  HN ES   4   2356 25.45                             113   -1.49 0  260 278 
 URE  HZ I        2356 28.15        28.9 0.14            114            260 278 
 NOR  HZ EP       2355 59.81                             111    0.30 7  277 222 
 NOR  HE ES       2356 30.80                             111    0.30 7  277 222 
 NOR  HZ I        2356 39.44        14.2 0.18            112            277 222 
 HEL  HZ EP   2   2356  2.93                             110    1.35 4  292 242 
 HEL  HN ES   4   2356 31.29                             110   -2.90 0  292 242 
 HEL  HZ I        2356 42.67        11.1 0.18            111            292 242 
 MON  HZ EP   4   2356  1.62                             109   -1.57 0  310 299 
 MON  HE ES   2   2356 36.24                             109   -0.80 4  310 299 
 MON  HZ I        2356 37.63         5.0 0.18            110            310 299 
 SDV  BZ EP       2356  4.97                             108   -0.21 7  325  60 
 SDV  BN ES   4   2356 38.38                             108   -2.22 0  325  60 
 DBB  SZ EP       2356  6.23                             107   -0.07 7  336 262 
 DBB  SZ ES   4   2356 39.87                             107   -2.71 0  336 262 
 GUY2CHZ EP   4   2356  9.18                             107    1.64 0  342 225 
 GUY2CHE ES       2356 44.33                             107   -0.46 7  342 225 
 GUY2CHZ I        2356 54.84         7.9 0.28                           342 225 
 SJC  HZ EP   4   2356  7.08                             106   -0.73 0  349 321 
 SJC  HN ES   4   2356 42.72                             106   -2.55 0  349 321 
 CBOC HZ EP   2   2356  9.59                             106    0.79 3  356 241 
 CBOC HN ES       2356 46.11                             106   -0.93 6  356 241 
 CBOC HZ I        2356 55.65         4.3 0.56            107            356 241 
 ANIL HZ EP   4   2356 18.17                             103    3.26 0  407 217 
 ANIL HN ES   4   2357  0.35                             103    2.45 0  407 217 
 ANIL HZ I        2357  5.26        21.7 0.38            104            407 217 
                                                                                
