 2014  730 2255 26.6 L   6.813 -73.119148.3  RSN 25 0.5 2.6LRSN                1
 GAP= 72        1.07       2.8     3.0  5.1 -0.4345E+00  0.4490E+01  0.2554E+01E
 Epicentro: LOS SANTOS - SANTANDER                                             3
 ACTION:UPD 15-03-16 20:48 OP:nd   STATUS:               ID:20140730225526 L   I
 OLDACT:REG 14-07-31 02:59 OP:fm   STATUS:               ID:20140730224815     3
 2014-07-30-2248-15M.COL___257                                                 6
 STAT SP IPHASW D HRMM SECON CODA AMPLIT PERI AZIMU VELO AIN AR TRES W  DIS CAZ7
 BAR2 SZ EP     C 2255 46.55                             170   -0.0410 25.4 196 
 BAR2 SZ ES   1   2256  1.97                             170   -0.21 7 25.4 196 
 BAR2 SZ I        2256  4.27        51.3 0.28            167           25.4 196 
 BRR  HZ EP     D 2255 48.41                             152    0.2610 73.1 296 
 BRR  HN ES       2256  5.74                             152    0.8010 73.1 296 
 BRR  HZ I        2256  8.13        36.9 0.20            151           73.1 296 
 PAM  SZ EP       2255 49.39                             152    0.4610 74.4  39 
 PAM  SN ES       2256  6.44                             152    0.1010 74.4  39 
 PAM  SZ I        2256  8.70        51.2 0.20            153           74.4  39 
 RUS  HZ EP     D 2255 50.42                             144   -0.2810  102 178 
 RUS  HE ES       2256  8.91                             144   -0.5910  102 178 
 PTB  HZ EP       2255 53.18                             132   -0.89 9  151 259 
 PTB  HN ES       2256 14.95                             132   -0.54 9  151 259 
 PTB  HZ I        2256 20.36        58.7 0.22            129            151 259 
 TAM  HZ EP       2255 54.35                             131    0.08 9  153 106 
 TAM  HN ES       2256 16.10                             131    0.26 9  153 106 
 TAM  HZ I        2256 17.05        24.0 0.24            130            153 106 
 OCA  HN ES       2256 16.68                             130   -0.51 9  159 352 
 OCA  HZ I        2256 25.05        28.3 0.20            129            159 352 
 SPBC HZ EP       2255 55.44                             129   -0.14 9  166 219 
 SPBC HN ES       2256 17.97                             129   -0.21 9  166 219 
 SPBC HZ I        2256 24.70        78.3 0.34            126            166 219 
 ZAR  HZ EP       2255 58.97                             123   -0.48 8  206 291 
 ZAR  HN ES       2256 25.06                             123    0.00 8  206 291 
 ZAR  HZ I        2256 31.01        48.7 0.58            121            206 291 
 NOR  HZ EP   1   2256  2.73                             119   -0.10 6  238 235 
 NOR  HN ES       2256 31.25                             119    0.17 8  238 235 
 NOR  HZ I        2256 34.20        33.2 0.18            116            238 235 
 SML  HZ EP       2256  3.11                             118   -0.27 8  244 335 
 SML  HN ES       2256 32.50                             118    0.45 8  244 335 
 SML  HZ I        2256 36.24        45.9 0.10            116            244 335 
 CHI  HZ EP       2256  4.37                             117   -0.31 8  251 196 
 CHI  HN ES   4   2256 33.46                             117   -0.92 0  251 196 
 CHI  HZ I        2256 39.58        10.4 0.44            115            251 196 
 ROSC BZ EP       2256  6.18                             117    1.01 8  255 211 
 ROSC BN ES   4   2256 38.41                             117    3.17 0  255 211 
 ROSC BZ I        2256 42.79        35.2 0.50            114            255 211 
 HEL  HZ EP   1   2256  8.19                             115    0.88 6  275 256 
 HEL  HN ES   4   2256 41.09                             115    2.04 0  275 256 
 HEL  HZ I        2256 45.21        19.4 0.36            113            275 256 
 URE  HZ EP   1   2256  7.02                             114   -1.03 6  286 291 
 URE  HN ES   4   2256 36.95                             114   -3.42 0  286 291 
 URE  HZ I        2256 47.31        19.5 0.32            112            286 291 
 GUY2CHZ EP       2256 10.95                             112    0.25 7  304 235 
 GUY2CHE ES   4   2256 48.24                             112    3.15 0  304 235 
 GUY2CHZ I        2256 53.37        35.1 0.78                           304 235 
 VIL  SZ EP   4   2256  5.39                             112   -4.98 0  305 192 
 VIL  SZ I        2256 54.85        16.7 0.68            110            305 192 
 RREF HZ EP   4   2256 13.63                             111    0.41 0  325 230 
 RREF HN ES   4   2256 52.03                             111    2.45 0  325 230 
 RREF HZ I        2256 55.00        20.4 0.28            109            325 230 
 CBOC HZ EP   1   2256 14.28                             110    0.28 5  337 252 
 CBOC HN ES       2256 51.75                             110    0.79 7  337 252 
 CBOC HZ I        2256 54.70         6.4 0.16            108            337 252 
 DBB  SZ EP     D 2256 14.12                             110   -0.39 7  342 274 
 DBB  SZ ES   4   2256 49.97                             110   -1.91 0  342 274 
 DBB  SZ I        2256 53.01        46.0 0.52            108            342 274 
 TOL  SZ EP       2256 15.80                             109    0.48 6  347 225 
 TOL  SN ES   4   2256 55.17                             109    1.85 0  347 225 
 ANIL HZ EP   4   2256 18.41                             109    1.54 0  360 225 
 ANIL HE ES       2256 56.18                             109    0.11 6  360 225 
 ANIL HZ I        2257  0.61        47.4 0.32            107            360 225 
 PRA  HZ EP   1   2256 19.81                             107   -0.72 4  395 210 
 PRA  HE ES   4   2257  0.43                             107   -2.16 0  395 210 
 PRA  HZ I        2257  8.00        18.3 0.58            105            395 210 
 ORTC HZ EP   1   2256 21.20                             107    0.25 4  398 216 
 ORTC HN ES       2257  4.26                             107    0.92 6  398 216 
 ORTC HZ I        2257  9.43        12.5 0.46            105            398 216 
 SJC  HZ EP   4   2256 20.65                             106   -1.66 0  410 327 
 SJC  HN ES   4   2257  1.96                             106   -3.79 0  410 327 
 SJC  HZ I        2257  7.21         5.1 0.26            105            410 327 
                                                                                
