 2017 1030 2134  9.0 L   6.843 -73.161146.0  RSN  5 0.5 1.2LRSN                1
 GAP=133        1.35       7.3     6.9  9.9 -0.5139E+01  0.8273E+01  0.4148E+01E
 Epicentro: LOS SANTOS - SANTANDER                                             3
 ACTION:UPD 17-11-07 19:39 OP:rebc STATUS:               ID:20171030213409 L   I
 OLDACT:UP  17-10-31 05:47 OP:osc  STATUS:               ID:20171030212742     3
 OLDACT:REG 17-10-31 04:00 OP:osc  STATUS:               ID:20171030212742     3
 2017-10-30-2128-00M.COL___438                                                 6
 STAT SP IPHASW D HRMM SECON CODA AMPLIT PERI AZIMU VELO AIN AR TRES W  DIS CAZ7
 BAR2 EZ EP       2134 28.45                             169   -0.2810 27.8 185 
 BAR2 EZ ES       2134 44.31                             169    0.1710 27.8 185 
 BRR  HZ EP       2134 30.54                             154    0.5910 67.6 296 
 BRR  HE ES       2134 46.28                             154   -0.0310 67.6 296 
 PAM  EZ EP       2134 30.10                             152   -0.9710 74.9  43 
 PAM  EN ES       2134 48.67                             152    0.3710 74.9  43 
 PAM  EZ I        2134 50.52         4.4 0.54            150           74.9  43 
 RUS  HZ EP       2134 33.14                             143    0.0410  105 175 
 RUS  HZ I        2134 47.77         1.6 0.42            134            105 175 
 RUS  HN ES       2134 51.96                             143    0.0410  105 175 
 PTB  HZ EP       2134 36.71                             132    0.81 9  147 257 
 PTB  HN ES       2134 56.17                             132   -0.74 9  147 257 
 PTB  HZ I        2135  4.15         2.4 0.14            127            147 257 
                                                                                
