 2016  830 2318 57.1 L   6.789 -73.142148.2  RSN  6 0.4 1.4LRSN                1
 GAP=138        1.02       4.9     5.2  7.4 -0.6372E+01  0.5380E+01  0.1857E+01E
 Epicentro: LOS SANTOS - SANTANDER                                             3
 ACTION:UPD 16-10-29 15:40 OP:rebc STATUS:               ID:20160830231857 L   I
 OLDACT:REG 16-08-31 04:56 OP:ak   STATUS:               ID:20160830230741     3
 2016-08-30-2308-00M.COL___344                                                 6
 STAT SP IPHASW D HRMM SECON CODA AMPLIT PERI AZIMU VELO AIN AR TRES W  DIS CAZ7
 BAR2 EZ EP   2   2319 18.02                             171    0.97 5 22.3 192 
 BAR2 EZ ES       2319 32.42                             171   -0.1610 22.3 192 
 BAR2 EZ I        2319 33.64         7.6 0.14                          22.3 192 
 BRR  HZ EP       2319 18.65                             153    0.0410 72.2 299 
 BRR  HN ES       2319 35.84                             153    0.4810 72.2 299 
 PAM  EZ EP       2319 19.64                             151   -0.0210 78.0  39 
 PAM  EE ES       2319 37.15                             151   -0.0710 78.0  39 
 PAM  EZ I        2319 39.19         5.3 0.50                          78.0  39 
 RUS  HZ EP       2319 20.53                             145   -0.5210 99.4 176 
 RUS  HN ES       2319 39.70                             145   -0.0010 99.4 176 
 RUS  HZ I        2319 41.44         1.5 0.30                          99.4 176 
 PTB  HZ EP       2319 24.41                             133    0.08 9  148 259 
 PTB  HN ES       2319 44.76                             133   -0.78 9  148 259 
 PTB  HZ I        2319 47.77         1.8 0.16                           148 259 
 SPBC HZ EP   2   2319 26.20                             130    0.43 5  163 219 
 SPBC HN ES       2319 48.75                             130    0.65 9  163 219 
 SPBC HZ I        2319 52.83         5.2 0.29                           163 219 
                                                                                
