 2017  330 2305  1.7 L   6.763 -73.154144.0  RSN  5 0.3 1.1LRSN                1
 GAP=137        0.73       4.6     4.1  7.4  0.7676E+01 -0.4527E+01 -0.5720E+01E
 Epicentro: LOS SANTOS - SANTANDER                                             3
 OLDACT:UP  17-03-31 08:39 OP:dani STATUS:               ID:20170330225744     3
 OLDACT:REG 17-03-31 03:12 OP:dani STATUS:               ID:20170330225744     3
 ACTION:UPD 17-05-25 18:47 OP:jn   STATUS:               ID:20170330230501 L   I
 OLDACT:UP  17-03-31 08:55 OP:dani STATUS:               ID:20170330225746d    3
 2017-03-30-2258-00M.COL___344                                                 6
 STAT SP IPHASW D HRMM SECON CODA AMPLIT PERI AZIMU VELO AIN AR TRES W  DIS CAZ7
 BRR  HN ES       23 5 39.32                             152    0.1710 72.5 302 
 PAM  EZ EP       23 5 23.66                             149   -0.3110 81.1  38 
 RUS  HZ EP       23 5 25.37                             145    0.3610 96.6 175 
 RUS  HN ES       23 5 43.15                             145   -0.0210 96.6 175 
 RUS  HZ I        23 5 43.65         1.5 0.35            144           96.6 175 
 PTB  HZ EP       23 5 28.35                             132   -0.05 9  146 260 
 PTB  HN ES       23 5 48.77                             132   -0.43 9  146 260 
 PTB  HZ I        23 5 51.48         2.1 0.22            131            146 260 
 ZAR  HN ES       23 5 59.72                             122    0.31 9  205 293 
                                                                                
