 2012 1230 2013 33.5 L   6.738 -73.178150.4  RSN  5 0.3 2.0LRSN                1
 GAP=229        0.73       5.7     5.6  5.4  0.2070E+02  0.5869E+01 -0.1147E+01E
 Epicentro: VILLANUEVA - SANTANDER                                             3
 ACTION:UPD 13-01-04 14:31 OP:ep   STATUS:               ID:20121230201333 L   I
 2012-12-30-2010-00M.COL___239                                                 6
 STAT SP IPHASW D HRMM SECON CODA AMPLIT PERI AZIMU VELO AIN AR TRES W  DIS CAZ7
 BAR2 SZ ES       2014  8.75                             174   -0.4610 16.2 182 
 BRR  HZ EP       2013 55.29                             153    0.1210 71.7 305 
 BRR  HN ES       2014 12.45                             153    0.3810 71.7 305 
 BRR  HN I        2014 16.90        23.3 0.16                          71.7 305 
 RUS  HZ EP       2013 57.58                             147    0.3310 94.1 174 
 RUS  HN ES       2014 15.78                             147   -0.0110 94.1 174 
 RUS  HN I        2014 16.77         6.2 0.42                          94.1 174 
 PTB  HZ EP       2014  0.34                             134   -0.08 9  143 261 
 PTB  HN ES       2014 21.46                             134    0.04 9  143 261 
 PTB  HN I        2014 26.81        14.2 0.28                           143 261 
 ZAR  HZ EP       2014  5.73                             123   -0.44 9  203 294 
 ZAR  HN ES       2014 31.66                             123   -0.01 9  203 294 
 ZAR  HN I        2014 36.41        11.2 0.26                           203 294 
                                                                                
