 2017  131 0834 17.4 L   6.622 -73.171153.0  RSN  5 0.2 1.3LRSN                1
 GAP=221        0.51       6.5     4.1  4.4  0.3700E+01  0.1679E+01 -0.9181E+01E
 Epicentro: VILLANUEVA - SANTANDER                                             3
 ACTION:UPD 17-05-22 16:05 OP:jn   STATUS:               ID:20170131083417 L   I
 OLDACT:UP  17-01-31 16:25 OP:and  STATUS:               ID:20170131082741     3
 OLDACT:REG 17-01-31 14:19 OP:dnl  STATUS:               ID:20170131082741     3
 2017-01-31-0828-00M.COL___325                                                 6
 STAT SP IPHASW D HRMM SECON CODA AMPLIT PERI AZIMU VELO AIN AR TRES W  DIS CAZ7
 BAR2 EZ EP        834 37.89                             179    0.2610 3.56 200 
 BAR2 EZ ES        834 53.24                             179   -0.2210 3.56 200 
 BAR2 EZ I         834 56.09         4.4 0.27             47           3.56 200 
 BRR  HZ EP   2    834 39.65                             150   -0.15 5 80.3 312 
 BRR  HN ES        834 57.40                             150    0.0810 80.3 312 
 RUS  HZ EP   9    834 42.53                             151    1.95 0 81.3 173 
 RUS  HN ES        835  0.36                             148   -0.2910 81.3 173 
 RUS  HZ I         835  1.25         3.5 0.26             47           81.3 173 
 PTB  HN ES        835  5.56                             134   -0.03 9  142 266 
 PTB  HZ I         835 12.93         1.9 0.12             47            142 266 
 ZAR  HZ EP   2    834 50.48                             123   -0.37 4  210 297 
 ZAR  HN ES   3    835 17.14                             123    0.15 2  210 297 
 ZAR  HZ I         835 26.00         1.9 0.18             47            210 297 
                                                                                
