 2015  831 0726  1.1 L   6.841 -73.407125.6  RSN  5 0.5 1.2LRSN                1
 GAP=156        1.14       4.6     9.4  8.5  0.1467E+02  0.5521E+01 -0.8037E+01E
 Epicentro: SAN VICENTE DE CHUCURI - SANTANDER                                 3
 ACTION:UPD 15-09-15 23:06 OP:cam  STATUS:               ID:20150831072600 L   I
 OLDACT:UP  15-09-04 18:01 OP:cam  STATUS:               ID:20150831072600 L   3
 OLDACT:UP  15-09-01 11:28 OP:ar   STATUS:               ID:20150831072600 L   3
 OLDACT:DUP 15-08-31 17:02 OP:stll STATUS:               ID:20150831071749d    3
 2015-08-31-0717-48M.COL___352                                                 6
 STAT SP IPHASW D HRMM SECON CODA AMPLIT PERI AZIMU VELO AIN AR TRES W  DIS CAZ7
 BAR2 EZ EP        726 18.77                             163    0.0910 37.1 138 
 BAR2 EZ ES        726 31.81                             163   -0.6110 37.1 138 
 BAR2 EZ I         726 32.55         5.1 0.42            165           37.1 138 
 BRR  HZ EP        726 19.00                             159    0.3710 44.7 311 
 BRR  HN ES        726 32.96                             159    0.6210 44.7 311 
 BRR  HZ I         726 35.06         3.6 0.54            158           44.7 311 
 RUS  HZ EP        726 24.29                             136    0.5610  111 161 
 RUS  HE ES   1    726 41.24                             136   -0.17 7  111 161 
 RUS  HZ I         726 44.19         1.4 0.60            138            111 161 
 SPBC HN ES        726 46.54                             126   -0.41 9  151 209 
 SML  HZ EP        726 34.67                             114   -0.30 8  229 341 
 SML  HN ES        727  0.87                             114   -0.55 8  229 341 
 SML  HZ I         727  8.07         3.5 0.26            114            229 341 
                                                                                
