 2017 1031 0906 39.7 L   7.502 -73.297 14.7  RSN  5 0.4 1.1LRSN                1
 GAP=235        0.95       5.6     3.0  4.7 -0.7709E+01  0.3982E+01  0.6698E+00E
 Epicentro: EL PLAYON - SANTANDER                                              3
 ACTION:UPD 17-11-07 19:39 OP:rebc STATUS:               ID:20171031090639 L   I
 OLDACT:UP  17-10-31 18:47 OP:dani STATUS:               ID:20171031085741d    3
 OLDACT:DUP 17-10-31 18:43 OP:dani STATUS:               ID:20171031085741d    3
 OLDACT:UP  17-10-31 18:43 OP:dani STATUS:               ID:20171031085740     3
 OLDACT:REG 17-10-31 13:27 OP:dani STATUS:               ID:20171031085740     3
 2017-10-31-0858-00M.COL___429                                                 6
 STAT SP IPHASW D HRMM SECON CODA AMPLIT PERI AZIMU VELO AIN AR TRES W  DIS CAZ7
 BRR  HE ES        9 6 58.57                             100    0.4810 63.3 226 
 PAM  EZ EP        9 6 51.35                             100    0.0410 68.4 105 
 PAM  EN ES        9 7  0.37                             100    0.0210 68.4 105 
 PAM  EZ I         9 7  1.23         7.4 0.14             98           68.4 105 
 BAR2 EZ EP        9 6 55.60                              96   -0.4010  101 173 
 BAR2 HN ES        9 7  8.40                              96   -0.3110  101 173 
 BAR2 EZ I         9 7 11.70         3.3 0.22             95            101 173 
 PTB  HN ES        9 7 23.96                              56   -0.56 9  167 230 
 RUS  HZ EP        9 7  7.48                              56    0.39 9  180 172 
 RUS  HN ES        9 7 28.86                              56    0.42 9  180 172 
 RUS  HZ I         9 7 30.76         2.6 0.36             56            180 172 
                                                                                
