 2012 1031 0415 22.8 L   6.817 -73.107140.4  RSN 10 0.5 2.2LRSN                1
 GAP= 72        1.18       4.5     4.5  6.4  0.5503E+01  0.5007E+00  0.2758E-01E
 Epicentro: LOS SANTOS - SANTANDER                                             3
 ACTION:UPD 12-11-22 17:06 OP:ep   STATUS:               ID:20121031041523dL   I
 2012-10-31-0410-00M.COL___231                                                 6
 STAT SP IPHASW D HRMM SECON CODA AMPLIT PERI AZIMU VELO AIN AR TRES W  DIS CAZ7
 BAR2 SZ EP        415 41.60                             169   -0.2510 26.3 199 
 BAR2 SZ ES        415 56.24                             169   -0.4610 26.3 199 
 BAR2 SZ I         415 57.70        29.8 0.22                          26.3 199 
 GIR2 SZ EP        415 41.21                             167   -0.6010 30.5 342 
 GIR2 SZ ES        415 57.08                             167    0.4410 30.5 342 
 PAM  SZ EP        415 44.55                             151    0.3610 73.2  38 
 PAM  SN I         416  2.39        39.0 0.48                          73.2  38 
 BRR  HZ EP        415 43.80                             151    0.2610 74.2 296 
 BRR  HN ES        416  0.34                             151    0.6210 74.2 296 
 BRR  HN I         416  4.35        33.7 0.22                          74.2 296 
 RUS  HZ EP        415 45.85                             142   -0.3010  102 179 
 RUS  HN ES        416  3.85                             142   -0.5210  102 179 
 RUS  HN I         416  5.73        12.4 0.36                           102 179 
 TAM  HZ EP        415 50.06                             130    0.35 9  151 106 
 TAM  HN ES        416 11.44                             130    0.73 9  151 106 
 TAM  HN I         416 12.11        23.2 0.32                           151 106 
 OCA  HZ EP        415 50.07                             129   -0.50 9  159 352 
 OCA  HN ES        416 11.68                             129   -0.55 9  159 352 
 OCA  HN I         416 15.28        61.7 0.36                           159 352 
 ZAR  HN ES        416 20.58                             121    0.03 8  207 291 
 ZAR  HN I         416 21.00        14.9 0.12                           207 291 
 HEL  HZ EP        416  3.89                             113    0.63 7  277 256 
 HEL  HN ES   2    416 35.75                             113    0.93 4  277 256 
 HEL  HN I         416 39.06         3.8 0.22                           277 256 
 PRA  HZ EP        416 16.26                             105   -0.32 6  396 210 
                                                                                
