 2015  531 0247 34.2 L   6.845 -73.080138.6  RSN 11 0.5 2.0LRSN                1
 GAP=143        1.23       3.9     5.6  6.9 -0.3250E+01  0.1556E+02 -0.6028E+00E
 Epicentro: LOS SANTOS - SANTANDER                                             3
 ACTION:UPD 15-09-10 22:08 OP:cam  STATUS:               ID:20150531024734 L   I
 OLDACT:UP  15-05-31 16:51 OP:ar   STATUS:               ID:20150531023738     3
 OLDACT:REG 15-05-31 12:29 OP:ar   STATUS:               ID:20150531023738     3
 2015-05-31-0237-38M.COL___315                                                 6
 STAT SP IPHASW D HRMM SECON CODA AMPLIT PERI AZIMU VELO AIN AR TRES W  DIS CAZ7
 BAR2 EZ EP        247 53.12                             167    0.0310 30.1 202 
 BAR2 EZ ES        248  7.90                             167    0.0410 30.1 202 
 BAR2 EZ I         248  9.02        15.7 0.24            166           30.1 202 
 PAM  SZ EP        247 55.71                             152    0.5910 69.0  38 
 PAM  SE ES        248 11.13                             152   -0.3410 69.0  38 
 PAM  SZ I         248 12.97        15.1 0.44            157           69.0  38 
 BRR  HZ EP     C  247 54.75                             150   -0.0510 75.6 293 
 BRR  HE ES        248 11.79                             150    0.8910 75.6 293 
 BRR  HZ I         248 14.93        19.3 0.16            150           75.6 293 
 RUS  HZ EP        247 57.36                             141   -0.2110  105 180 
 RUS  HE ES        248 15.80                             141   -0.0310  105 180 
 RUS  HZ I         248 17.47         8.2 0.26            143            105 180 
 OCA  HZ EP        248  2.11                             129    0.56 9  156 350 
 OCA  HE ES        248 22.17                             129   -0.75 9  156 350 
 OCA  HZ I         248 23.75        27.5 0.22            132            156 350 
 SPBC HZ EP        248  2.26                             126   -0.68 9  172 220 
 SPBC HN ES        248 24.91                             126   -0.48 9  172 220 
 SPBC HZ I         248 31.67        12.5 0.40            127            172 220 
 ZAR  HZ EP        248  7.24                             120    0.57 8  209 290 
 ZAR  HN ES        248 31.33                             120   -0.69 8  209 290 
 ZAR  HZ I         248 33.32        15.3 0.12            122            209 290 
 HEL  HZ EP        248 14.96                             113    0.02 7  280 255 
 HEL  HN ES   4    248 44.95                             113   -1.80 0  280 255 
 URE  HZ EP        248 14.96                             112   -0.49 7  289 290 
 URE  HN ES   4    248 43.69                             112   -3.96 0  289 290 
 URE  HZ I         248 48.93         7.4 0.12            114            289 290 
 GUY2CHZ EP        248 18.70                             110    0.25 7  310 235 
 GUY2CHN ES        248 53.79                             110    0.80 7  310 235 
 GUY2CHZ I         249  1.26         5.6 0.34                           310 235 
 MON  HZ EP   4    248 20.19                             107   -3.02 0  356 307 
 MON  HN ES   4    248 58.28                             107   -3.18 0  356 307 
 MON  HZ I         248 59.07         3.8 0.16            109            356 307 
                                                                                
