 2011  731 0922 32.1 L   6.790 -73.158138.7  RSN 13 0.3 2.8LRSN                1
 GAP=135        0.62       2.3     3.9  4.9 -0.4423E+01  0.1006E+02 -0.5880E+00E
 Epicentro: LOS SANTOS - SANTANDER                                             3
 ACTION:UPD 12-07-25 14:04 OP:epov STATUS:               ID:20110731092232 L   I
 2011-07-31-0920-00M.COL___141                                                 6
 STAT SP IPHASW D HRMM SECON CODA AMPLIT PERI AZIMU VELO AIN AR TRES W  DIS CAZ7
 BAR2 SZ IP        922 50.94                             170    0.0910 22.1 187 
 BAR2 SZ ES   1    923  5.76                             170    0.29 7 22.1 187 
 BAR2 SZ I         923  6.65       171.0 0.20                          22.1 187 
 BRR  HZ IP     D  922 52.79                             151    0.3510 70.6 300 
 BRR  HZ I         923 14.12       163.1 0.13                          70.6 300 
 PAM  SZ EP   1    922 53.80                             149    0.14 7 79.0  40 
 PAM  SE ES   1    923 10.25                             149   -0.24 7 79.0  40 
 RUS  HZ EP   1    922 54.88                             143   -0.20 7 99.6 175 
 RUS  HE ES   1    923 12.86                             143   -0.15 7 99.6 175 
 RUS  HZ I         923 15.16        89.3 0.35                          99.6 175 
 BRI  SZ EP        922 55.54                             139    0.1110  110  21 
 BRI  SZ ES   1    923 13.62                             139   -0.01 7  110  21 
 BRI  SZ I         923 15.80       136.4 0.27                           110  21 
 OCA  SZ EP   1    922 59.75                             128   -0.20 7  161 354 
 OCA  SZ ES   1    923 21.07                             128   -0.61 7  161 354 
 OCA  SZ I         923 24.89       109.0 0.36                           161 354 
 NOR  SZ EP        923  7.59                             117    0.35 8  233 234 
 NOR  SN ES   1    923 34.71                             117    0.06 6  233 234 
 CHI  HZ EP   1    923  8.92                             116   -0.34 6  247 195 
 CHI  HN ES   1    923 38.06                             116   -0.19 6  247 195 
 CHI  HZ I         923 42.08        34.7 0.27                           247 195 
 ROSC BN ES   1    923 39.08                             115    0.12 6  251 211 
 ROSC BZ I         923 45.06        67.1 0.44                           251 211 
 HEL  HZ EP   1    923 11.49                             113   -0.29 6  271 256 
 HEL  HN ES   1    923 42.02                             113   -0.72 6  271 256 
 GUY  SZ EP   1    923 16.00                             111    0.54 5  302 235 
 GUY  SE ES   1    923 49.48                             111    0.20 5  302 235 
 DBB  SZ EP   1    923 19.79                             108    0.64 5  338 274 
 DBB  SZ I         923 57.59         5.9 0.17                           338 274 
 PRA  HZ EP   1    923 24.52                             105   -0.67 4  390 209 
 PRA  HE ES   1    924  6.10                             105   -0.51 4  390 209 
                                                                                
