 2011  331 0958  8.3 L   6.823 -73.003147.3  RSN  6 0.4 1.7LRSN                1
 GAP=207        1.04      10.5    16.1 10.5 -0.4607E+02 -0.3086E+02 -0.4347E+02E
 Epicentro: CEPITA - SANTANDER                                                 3
 ACTION:UP  11-06-16 14:36 OP:jfem STATUS:               ID:20110331095808 L   I
 2011-03-31-0955-54S.COL___138                                                 6
 STAT SP IPHASW D HRMM SECON CODA AMPLIT PERI AZIMU VELO SNR AR TRES W  DIS CAZ7
 BTL  SZ ES   1    958 44.61                             168     0.7 7   31 290 
 BAR2 SZ EP        958 28.19                             167    -0.110   33 218 
 BAR2 SZ ES   1    958 43.60                             167    -0.3 7   33 218 
 BAR2 SZ I         958 44.90        14.9 0.16                            33 218 
 GIR2 SZ EP        958 28.71                             166     0.510   35 323 
 BRR  HZ EP        958 30.02                             149    -0.410   84 292 
 BRR  HZ I         958 30.28        22.4 0.10                            84 292 
 BRR  HN ES   2    958 47.32                             149    -0.3 5   84 292 
 GRA  SZ EP        958 32.96                             139    -0.210  119  11 
 GRA  SZ I         958 34.48         2.4 0.51                           119  11 
 GRA  SZ ES   2    958 51.92                             139    -0.6 5  119  11 
 OCA  SZ EP        958 37.01                             130     0.3 9  160 347 
 OCA  SZ I         959  4.57         4.2 0.00                           160 347 
                                                                                
