 2010  331 0339 58.6 L   6.784 -72.954144.8  RSN  5 0.4 2.1LRSN                1
 GAP=202        0.94       8.4    16.6 10.1  0.8834E+02 -0.3813E+02 -0.1644E+02E
 Epicentro: CEPITA - SANTANDER                                                 3
 ACTION:UP  10-08-24 09:56 OP:vdl  STATUS:               ID:20100331033958 L   I
 2010-03-31-0336-59S.COL___098                                                 6
 STAT SP IPHASW D HRMM SECON CODA AMPLIT PERI AZIMU VELO SNR AR TRES W  DIS CAZ7
 BAR2 SZ IP        340 18.97                             167     0.610   33 230 
 BAR2 SZ ES   1    340 34.05                             167     0.3 7   33 230 
 BRR  HZ IP        340 20.91                             146     0.010   91 293 
 BRR  HZ I         340 21.24        31.6 0.14                            91 293 
 BRR  HE ES   1    340 38.24                             146    -0.1 7   91 293 
 RUS  HZ EP        340 22.07                             144    -0.210  100 188 
 RUS  HN ES   1    340 40.03                             144    -0.6 7  100 188 
 OCA  SZ ES   2    340 49.07                             128    -0.8 5  166 346 
 OCA  SZ I         340 53.30        22.6 0.37                           166 346 
 HEL  HZ EP   2    340 40.91                             113    -0.1 4  292 257 
 HEL  HZ I         341 17.58         2.6 0.31                           292 257 
                                                                                
