 2013  131 0309 45.0 L   6.779 -73.116146.4  RSN 11 0.4 2.5LRSN                1
 GAP= 73        0.97       3.5     3.5  5.8  0.5651E+00  0.3112E+01  0.3820E+01E
 Epicentro: LOS SANTOS - SANTANDER                                             3
 ACTION:UPD 13-02-15 09:18 OP:ep   STATUS:               ID:20130131030945 L   I
 2013-01-31-0310-00M.COL___241                                                 6
 STAT SP IPHASW D HRMM SECON CODA AMPLIT PERI AZIMU VELO AIN AR TRES W  DIS CAZ7
 BAR2 SZ EP        310  4.61                             171   -0.0810 21.9 200 
 BAR2 SZ ES   1    310 19.99                             171   -0.05 7 21.9 200 
 BAR2 SZ I         310 22.68       134.5 0.25            164           21.9 200 
 BRR  HZ IP     C  310  6.59                             151    0.1310 75.2 299 
 BRR  HE ES        310 23.78                             151    0.5910 75.2 299 
 BRR  HZ I         310 27.89        71.7 0.15            141           75.2 299 
 PAM  SZ EP        310  7.55                             151    0.2610 77.2  37 
 PAM  SZ I         310  7.98        59.7 0.29            151           77.2  37 
 PAM  SN ES        310 24.79                             151    0.1310 77.2  37 
 RUS  HZ IP     D  310  8.55                             145   -0.1010 98.1 178 
 RUS  HE ES        310 26.87                             145   -0.2110 98.1 178 
 RUS  HE I         310 28.39        53.2 0.49            139           98.1 178 
 PTB  HZ EP        310 11.52                             132   -0.77 9  151 260 
 PTB  HE ES   1    310 32.93                             132   -0.63 7  151 260 
 PTB  HZ I         310 35.79        43.4 0.10            123            151 260 
 TAM  HZ EP        310 12.86                             131    0.47 9  151 104 
 TAM  HZ I         310 13.04        34.8 0.18            130            151 104 
 TAM  HN ES   1    310 33.06                             131   -0.69 7  151 104 
 OCA  HZ EP   1    310 13.11                             129   -0.52 7  163 352 
 ZAR  HZ EP   1    310 18.65                             122    0.74 6  208 292 
 ZAR  HE ES        310 43.10                             122   -0.46 8  208 292 
 ZAR  HZ I         310 50.71        27.4 0.19            115            208 292 
 CHI  HZ EP        310 22.69                             117    0.09 8  247 196 
 CHI  HE ES        310 51.81                             117   -0.10 8  247 196 
 CHI  HZ I         310 56.11        15.0 0.46            112            247 196 
 ROSC BZ EP   1    310 23.17                             117    0.03 6  252 212 
 ROSC BE ES   1    310 53.77                             117    0.90 6  252 212 
 ROSC BZ I         311  1.17        37.3 0.60            111            252 212 
 HEL  HZ EP   1    310 26.08                             115    0.53 6  275 256 
 HEL  HZ I         311  3.05        16.6 0.33            109            275 256 
                                                                                
