 2015 1031 0317 59.4 L   6.786 -73.129142.6  RSN 12 0.5 1.6LRSN                1
 GAP=139        1.04       3.1     5.7  6.6 -0.1163E+01  0.8248E+01  0.1410E+01E
 Epicentro: LOS SANTOS - SANTANDER                                             3
 ACTION:UPD 15-12-22 20:44 OP:cam  STATUS:               ID:20151031031759 L   I
 OLDACT:REG 15-10-31 12:53 OP:ar   STATUS:               ID:20151031030749     3
 2015-10-31-0307-49M.COL___322                                                 6
 STAT SP IPHASW D HRMM SECON CODA AMPLIT PERI AZIMU VELO AIN AR TRES W  DIS CAZ7
 BAR2 EZ ES        318 33.18                             171   -0.4910 22.2 195 
 BAR2 EZ I         318 34.14        13.5 0.14            169           22.2 195 
 BRR  HZ EP        318 20.61                             151    0.2210 73.6 299 
 BRR  HN ES        318 37.21                             151    0.4810 73.6 299 
 BRR  HZ I         318 37.55         5.8 0.18            148           73.6 299 
 PAM  EZ EP        318 21.54                             150    0.2110 77.4  38 
 PAM  EN ES        318 38.65                             150    0.2510 77.4  38 
 PAM  EZ I         318 40.64         8.0 0.64            152           77.4  38 
 RUS  HZ EP        318 23.06                             144    0.3010 98.9 177 
 RUS  HN ES        318 41.23                             144    0.2710 98.9 177 
 RUS  HZ I         318 41.80         6.6 0.38            144           98.9 177 
 OCA  HN ES        318 48.60                             129   -1.10 9  162 353 
 SPBC HZ EP        318 27.53                             128   -0.17 9  163 220 
 SPBC HE ES        318 49.32                             128   -0.42 9  163 220 
 SPBC HZ I         318 51.81         7.5 0.24            127            163 220 
 ZAR  HN ES   2    318 57.57                             121    0.31 4  206 292 
 ZAR  HZ I         319  1.52         4.3 0.28            120            206 292 
 SML  HZ EP   2    318 35.57                             117   -0.56 4  246 335 
 SML  HE ES        319  5.26                             117    0.51 8  246 335 
 SML  HZ I         319  7.67         5.6 0.10            116            246 335 
 CHI  HZ EP        318 36.53                             117   -0.33 8  248 196 
 CHI  HN ES   2    319  6.05                             117    0.01 4  248 196 
 CHI  HZ I         319  9.17         1.8 0.48            116            248 196 
 HEL  HZ EP   4    318 40.87                             114    1.22 0  273 256 
 HEL  HN ES   2    319 11.53                             114    0.51 4  273 256 
 HEL  HZ I         319 17.16         2.9 0.38            113            273 256 
 GUY2CHZ EP   4    318 44.13                             112    1.15 0  302 235 
 GUY2CHN ES   4    319 19.23                             112    2.30 0  302 235 
 GUY2CHZ I         319 23.20         1.8 0.26                           302 235 
 MON  HZ EP   4    318 46.18                             108   -2.42 0  356 308 
 MON  HN ES   4    319 25.32                             108   -1.63 0  356 308 
 MON  HZ I         319 27.90         0.9 0.32            107            356 308 
                                                                                
