 2015  731 0727 21.7 L   6.754 -73.133138.0  RSN  7 0.4 1.8LRSN                1
 GAP=184        0.89       4.1     4.5  5.7  0.2637E+01  0.8552E+01 -0.1903E+01E
 Epicentro: LOS SANTOS - SANTANDER                                             3
 ACTION:UPD 15-09-08 21:51 OP:cam  STATUS:               ID:20150731072721 L   I
 OLDACT:REG 15-07-31 12:32 OP:drio STATUS:               ID:20150731071735     3
 2015-07-31-0717-35M.COL___337                                                 6
 STAT SP IPHASW D HRMM SECON CODA AMPLIT PERI AZIMU VELO AIN AR TRES W  DIS CAZ7
 BAR2 EZ EP     C  727 40.01                             172   -0.2510 18.8 197 
 BAR2 EZ ES        727 54.42                             172   -0.3510 18.8 197 
 BAR2 EZ I         727 55.77        18.8 0.22            171           18.8 197 
 BRR  HZ EP     C  727 41.93                             150   -0.2610 75.0 301 
 BRR  HN ES        727 58.73                             150    0.5210 75.0 301 
 BRR  HZ I         728  2.78        10.9 0.12            148           75.0 301 
 RUS  HZ EP        727 44.17                             144   -0.1010 95.5 177 
 RUS  HN ES        728  2.32                             144    0.4110 95.5 177 
 RUS  HZ I         728  3.17         7.1 0.24            146           95.5 177 
 OCA  HZ EP        727 49.92                             127    0.05 9  165 353 
 OCA  HN ES   4    728 10.02                             127   -1.86 0  165 353 
 OCA  HZ I         728 15.85        14.5 0.16            128            165 353 
 ZAR  HZ EP        727 54.14                             120    0.19 8  207 293 
 ZAR  HN ES        728 18.96                             120   -0.18 8  207 293 
 ZAR  HZ I         728 20.23         7.1 0.36            121            207 293 
 NOR  HZ EP        727 56.38                             117   -0.38 8  233 236 
 NOR  HN ES        728 24.24                             117    0.10 8  233 236 
 NOR  HZ I         728 29.73         4.0 0.20            118            233 236 
 HEL  HZ EP        728  2.31                             113    0.81 8  272 257 
 HEL  HN ES        728 32.06                             113   -0.53 8  272 257 
 HEL  HZ I         728 38.94         3.3 0.28            114            272 257 
                                                                                
