 2011 1031 0700 19.4 L   6.911 -72.881132.1  RSN  4 0.3 1.3LRSN                1
 GAP=265        0.50       9.2    14.5  8.0  0.1141E+03 -0.6571E+02 -0.4399E+02E
 Epicentro: GUACA - SANTANDER                                                  3
 ACTION:UPD 12-07-13 16:07 OP:ep   STATUS:               ID:20111031070019 L   I
 2011-10-31-0657-13S.COL___157                                                 6
 STAT SP IPHASW D HRMM SECON CODA AMPLIT PERI AZIMU VELO AIN AR TRES W  DIS CAZ7
 BAR2 SZ EP   1    7 0 38.62                             159    0.36 7 48.5 223 
 BAR2 SZ ES   1    7 0 52.93                             159   -0.02 7 48.5 223 
 BAR2 SZ I         7 0 56.56         5.5 0.29                          48.5 223 
 BRR  HZ EP   1    7 0 40.42                             143   -0.27 7 94.4 283 
 BRR  HN ES   1    7 0 57.26                             143   -0.02 7 94.4 283 
 BRR  HZ I         7 0 57.73         4.8 0.47                          94.4 283 
 RUS  HZ EP   2    7 0 42.56                             137   -0.44 5  115 191 
 RUS  HN ES   1    7 1  1.40                             137    0.01 7  115 191 
 RUS  HZ I         7 1  2.55         2.2 0.37                           115 191 
 ZAR  HZ EP   2    7 0 53.98                             116    0.42 4  228 287 
 ZAR  HZ I         7 1 22.95         1.3 0.28                           228 287 
                                                                                
