 2017  831 0203  8.7 L   6.799 -73.148143.8  RSN 12 0.4 1.9LRSN                1
 GAP=112        1.00       3.2     3.8  5.6  0.6410E+00  0.7518E+01  0.5076E+01E
 Epicentro: LOS SANTOS - SANTANDER                                             3
 ACTION:UPD 17-09-04 20:26 OP:rebc STATUS:               ID:20170831020308 L   I
 OLDACT:REG 17-08-31 12:09 OP:dhb  STATUS:               ID:20170831015727     3
 2017-08-31-0158-00M.COL___402                                                 6
 STAT SP IPHASW D HRMM SECON CODA AMPLIT PERI AZIMU VELO AIN AR TRES W  DIS CAZ7
 BAR2 EZ EP        2 3 27.60                             170   -0.4410 23.1 189 
 BAR2 EZ ES        2 3 42.49                             170   -0.6710 23.1 189 
 BAR2 EZ I         2 3 45.52        40.4 0.05            170           23.1 189 
 BRR  HZ IP     C  2 3 29.54                             152   -0.0310 71.0 299 
 BRR  HN ES        2 3 46.80                             152    0.9110 71.0 299 
 BRR  HZ I         2 3 48.03         8.3 0.12            152           71.0 299 
 PAM  EZ IP     C  2 3 30.65                             150   -0.0210 77.7  40 
 PAM  EN ES        2 3 47.96                             150    0.1110 77.7  40 
 PAM  EZ I         2 3 49.95        16.3 0.45            153           77.7  40 
 RUS  HZ EP        2 3 32.16                             143   -0.0410  100 176 
 RUS  HN ES        2 3 50.26                             143   -0.3010  100 176 
 RUS  HZ I         2 3 51.78        20.6 0.09            144            100 176 
 SPBC HZ IP     C  2 3 36.98                             129    0.01 9  163 219 
 SPBC HN ES        2 3 58.54                             129   -0.51 9  163 219 
 SPBC HZ I         2 4  1.35        15.6 0.46            129            163 219 
 YPLC HN ES        2 4  2.12                             126    0.69 9  177 151 
 YPLC HZ I         2 4  3.16        14.0 0.40            128            177 151 
 ZAR  HZ EP        2 3 41.05                             122    0.11 9  204 292 
 ZAR  HE ES        2 4  5.99                             122   -0.14 9  204 292 
 ZAR  HZ I         2 4 11.59         6.5 0.18            123            204 292 
 NOR  HZ EP        2 3 44.06                             118   -0.17 8  234 234 
 NOR  HN ES        2 4 12.20                             118    0.22 8  234 234 
 NOR  HZ I         2 4 14.71         3.5 0.20            119            234 234 
 CHI  HZ EP        2 3 46.00                             117   -0.21 8  248 195 
 CHI  HE ES        2 4 16.25                             117    0.74 8  248 195 
 CHI  HZ I         2 4 19.30         2.1 0.10            118            248 195 
 GUY2CHZ EP        2 3 52.53                             112    0.40 7  301 235 
 GUY2CHN ES        2 4 26.06                             112    0.02 7  301 235 
 GUY2CHZ I         2 4 33.69         3.4 0.31                           301 235 
 PRA  HZ EP        2 4  1.44                             106   -0.63 6  392 210 
 PRA  HE ES        2 4 43.74                             106    0.00 6  392 210 
 PRA  HZ I         2 4 49.92         2.5 0.30            107            392 210 
 SJC  HZ EP   9    2 3 59.42                             105   -4.72 0  409 327 
 SJC  HN ES        2 4 42.21                                   -0.49 6  409 327 
 SJC  HZ I         2 4 47.42         1.0 0.10            107            409 327 
                                                                                
