 2013  531 0402 28.4 L   6.811 -73.145142.6  RSN 15 0.4 2.2LRSN                1
 GAP=111        0.93       2.5     2.7  4.2 -0.1340E+00  0.2503E+01 -0.1055E+00E
 Epicentro: LOS SANTOS - SANTANDER                                             3
 ACTION:UPD 13-06-20 09:55 OP:ep   STATUS:               ID:20130531040228 L   I
 2013-05-31-0400-00M.COL___261                                                 6
 STAT SP IPHASW D HRMM SECON CODA AMPLIT PERI AZIMU VELO AIN AR TRES W  DIS CAZ7
 BAR2 SZ IP     C  4 2 47.73                             170    0.0110 24.5 190 
 BAR2 SZ ES        4 3  2.74                             170   -0.0110 24.5 190 
 BAR2 SZ I         4 3  4.31        35.6 0.20            171           24.5 190 
 GIR2 SZ IP     D  4 2 47.79                             167    0.0810 30.1 350 
 GIR2 SZ ES        4 3  3.21                             167    0.4810 30.1 350 
 GIR2 SZ I         4 3  6.99        16.2 0.48            166           30.1 350 
 BRR  HZ IP     D  4 2 49.62                             152    0.3910 70.7 298 
 BRR  HN ES        4 3  5.53                             152    0.1010 70.7 298 
 BRR  HZ I         4 3 12.04        30.4 0.16            151           70.7 298 
 RUS  HZ EP        4 2 51.73                             143   -0.2410  102 176 
 RUS  HN ES        4 3  9.87                             143   -0.4510  102 176 
 RUS  HZ I         4 3 13.00        21.1 0.50            143            102 176 
 PTB  HZ EP        4 2 54.72                             131   -0.47 9  148 258 
 PTB  HN ES        4 3 15.57                             131   -0.47 9  148 258 
 PTB  HZ I         4 3 21.64        24.6 0.42            131            148 258 
 TAM  HZ IP     D  4 2 55.89                             130   -0.01 9  155 105 
 TAM  HZ I         4 3 12.90        10.2 0.54            130            155 105 
 TAM  HN ES        4 3 17.51                             130    0.21 9  155 105 
 OCA  HZ EP        4 2 56.51                             129    0.11 9  159 353 
 OCA  HN ES        4 3 18.04                             129   -0.16 9  159 353 
 OCA  HZ I         4 3 24.33        28.6 0.26            128            159 353 
 ZAR  HZ EP        4 3  0.08                             122   -0.57 9  204 292 
 ZAR  HN ES        4 3 26.28                             122    0.51 9  204 292 
 ZAR  HZ I         4 3 37.39        24.0 0.12            121            204 292 
 NOR  HZ EP        4 3  3.86                             118   -0.22 8  235 234 
 NOR  HN ES        4 3 31.89                             118    0.02 8  235 234 
 NOR  HZ I         4 3 35.94        19.7 0.22            117            235 234 
 SML  HZ EP        4 3  4.68                             117   -0.10 8  243 335 
 SML  HN ES        4 3 32.64                             117   -0.49 8  243 335 
 HEL  HZ EP        4 3  9.54                             114    1.00 8  272 256 
 HEL  HN ES        4 3 40.32                             114    0.50 8  272 256 
 HEL  HZ I         4 3 46.07        10.6 0.30            114            272 256 
 GUY2CHZ EP        4 3 12.73                             112    0.73 7  302 235 
 GUY2CHN ES        4 3 45.17                             112   -0.80 7  302 235 
 GUY2CHZ I         4 3 55.15        11.2 0.68                           302 235 
 RREF HZ EP   4    4 3 16.07                             110    1.52 0  323 229 
 RREF HN ES   4    4 3 52.33                             110    1.82 0  323 229 
 RREF HZ I         4 3 58.70        11.6 0.24            110            323 229 
 COD  HZ EP   1    4 3 16.09                             108   -0.47 5  347 355 
 COD  HN ES   1    4 3 53.95                             108   -0.14 5  347 355 
 COD  HZ I         4 4  3.09         4.7 0.36            108            347 355 
 PRA  HZ EP        4 3 22.46                             106    0.47 6  393 209 
 PRA  HN ES   2    4 4  4.42                             106    0.67 3  393 209 
 PRA  HZ I         4 4  8.73         6.9 0.58            106            393 209 
                                                                                
