 2016  131 0414  4.8 L   6.777 -73.127151.9  RSN  5 0.4 1.3LRSN                1
 GAP=202        0.89       4.1     5.9  7.1  0.2273E+01  0.6525E+01 -0.1075E+02E
 Epicentro: LOS SANTOS - SANTANDER                                             3
 ACTION:UPD 16-03-09 23:29 OP:cam  STATUS:               ID:20160131041404 L   I
 OLDACT:UP  16-01-31 16:25 OP:ak   STATUS:               ID:20160131040002d    3
 OLDACT:DUP 16-01-31 16:23 OP:ak   STATUS:               ID:20160131040002d    3
 OLDACT:REG 16-01-31 14:16 OP:ak   STATUS:               ID:20160131040000     3
 2016-01-31-0359-59S.COL___226                                                 6
 STAT SP IPHASW D HRMM SECON CODA AMPLIT PERI AZIMU VELO AIN AR TRES W  DIS CAZ7
 BAR2 EZ EP        414 24.81                             172   -0.3010 21.3 197 
 BAR2 EZ ES        414 40.96                             172   -0.0010 21.3 197 
 BAR2 EZ I         414 43.25         3.0 0.22            172           21.3 197 
 RUS  HZ EP        414 28.85                             146   -0.1010 97.9 177 
 RUS  HN ES        414 47.91                             146    0.1010 97.9 177 
 RUS  HZ I         414 49.28         1.2 0.20            150           97.9 177 
 PTB  HZ EP        414 32.50                             133    0.11 9  149 260 
 PTB  HN ES        414 53.35                             133   -0.58 9  149 260 
 PTB  HZ I         414 58.63         2.3 0.24            134            149 260 
 SPBC HZ EP        414 33.37                             130   -0.32 9  163 220 
 SPBC HN ES        414 57.00                             130    0.75 9  163 220 
 SPBC HZ I         414 58.32         3.4 0.10            133            163 220 
 SML  HZ EP        414 42.39                             118    0.29 8  247 335 
 SML  HE ES        415 11.47                             118    0.27 8  247 335 
 SML  HZ I         415 16.84         2.5 0.13            120            247 335 
                                                                                
