 2010  831 0520 19.0 L   6.797 -73.082146.2  RSN  5 0.1 1.6LRSN                1
 GAP=166        0.44       3.6     5.4  5.5 -0.5613E+01 -0.9748E+01 -0.2036E+01E
 Epicentro: LOS SANTOS - SANTANDER                                             3
 ACTION:UP  10-09-07 10:59 OP:vdl  STATUS:               ID:20100831052019 L   I
 2010-08-31-0518-08S.COL___120                                                 6
 STAT SP IPHASW D HRMM SECON CODA AMPLIT PERI AZIMU VELO SNR AR TRES W  DIS CAZ7
 BRR  HZ EP        520 40.38                             150    -0.210   78 296 
 BRR  HE ES   1    520 57.55                             150     0.1 7   78 296 
 BRR  HZ I         521  1.42         7.5 0.28                            78 296 
 RUS  HN ES   2    521  1.44                             144     0.1 5  100 180 
 GUE  SZ EP        520 43.80                             140     0.110  116   9 
 GRA  SZ IP        520 44.23                             137     0.010  124  14 
 GRA  SZ ES   1    521  3.64                             137    -0.2 7  124  14 
 GRA  SZ I         521  6.20         4.1 0.22                           124  14 
 OCA  SZ EP        520 47.67                             129     0.2 9  162 351 
 OCA  SZ ES   2    521  9.79                                     0.1 5  162 351 
 OCA  SZ I         521 14.37         6.5 0.18                           162 351 
                                                                                
