 2014  131 0056  5.1 L   6.758 -73.139136.0  RSN  8 0.5 1.8LRSN                1
 GAP=139        1.27       4.9     5.6  7.6 -0.6975E+01  0.7231E+01  0.9963E+01E
 Epicentro: LOS SANTOS - SANTANDER                                             3
 ACTION:UPD 14-03-13 09:59 OP:ep   STATUS:               ID:20140131005605 L   I
 OLDACT:REG 14-01-31 07:20 OP:nd   STATUS:               ID:20140131005000     3
 2014-01-31-0050-00M.COL___288                                                 6
 STAT SP IPHASW D HRMM SECON CODA AMPLIT PERI AZIMU VELO AIN AR TRES W  DIS CAZ7
 BAR2 SZ EP        056 23.55                             172    0.0610 18.9 195 
 BAR2 SZ ES        056 36.96                             172   -0.8610 18.9 195 
 BAR2 SZ I         056 40.74        31.0 0.24            170           18.9 195 
 BRR  HZ EP     C  056 25.42                             150    0.0110 74.2 301 
 BRR  HN ES        056 42.11                             150    0.8910 74.2 301 
 BRR  HZ I         056 46.63        10.4 0.13            152           74.2 301 
 PAM  SZ EP        056 26.47                             148   -0.0410 80.6  37 
 PAM  SN ES        056 43.16                             148   -0.0310 80.6  37 
 PAM  SZ I         056 45.70         8.7 0.60            154           80.6  37 
 RUS  HZ EP        056 27.58                             143    0.0010 95.9 176 
 RUS  HN ES        056 45.47                             143    0.3810 95.9 176 
 RUS  HZ I         056 48.41         7.4 0.42            145           95.9 176 
 PTB  HZ EP        056 30.58                             130   -0.73 9  148 261 
 PTB  HN ES        056 51.39                             130   -0.33 9  148 261 
 PTB  HZ I         056 53.99         8.6 0.28            132            148 261 
 SPBC HZ EP        056 32.63                             127    0.04 9  160 220 
 SPBC HN ES        056 54.43                             127    0.42 9  160 220 
 SPBC HZ I         056 59.88         9.1 0.34            130            160 220 
 NOR  HZ EP        056 39.68                             117   -0.40 8  233 235 
 NOR  HN ES        057  7.50                             117    0.15 8  233 235 
 NOR  HZ I         057 11.44         6.3 0.45            119            233 235 
 CHI  HZ EP        056 42.91                             115    1.08 8  244 196 
 CHI  HN ES        057  9.84                             115   -0.62 8  244 196 
 CHI  HZ I         057 15.54         2.0 0.26            118            244 196 
                                                                                
