 2012 1231 0444  8.6 L   6.788 -73.139148.9  RSN  9 0.5 1.8LRSN                1
 GAP=183        1.04       4.6     6.5  8.0  0.6316E+01  0.1291E+02  0.8332E+01E
 Epicentro: LOS SANTOS - SANTANDER                                             3
 ACTION:UPD 13-01-04 14:31 OP:ep   STATUS:               ID:20121231044408 L   I
 2012-12-31-0440-00M.COL___239                                                 6
 STAT SP IPHASW D HRMM SECON CODA AMPLIT PERI AZIMU VELO AIN AR TRES W  DIS CAZ7
 BAR2 SZ IP        444 28.37                             171   -0.2310 22.2 192 
 BAR2 SZ ES   1    444 43.81                             171   -0.38 7 22.2 192 
 BAR2 SZ I         444 45.21        20.2 0.48                          22.2 192 
 BRR  HZ EP        444 30.28                             153    0.1110 72.4 299 
 BRR  HE ES   1    444 47.67                             153    0.69 7 72.4 299 
 BRR  HZ I         444 53.41         8.5 0.22                          72.4 299 
 RUS  HZ EP   1    444 32.32                             145   -0.26 7 99.3 176 
 RUS  HE ES   1    444 51.34                             145    0.07 7 99.3 176 
 RUS  HZ I         444 53.65         8.4 0.46                          99.3 176 
 PTB  HZ EP        444 35.22                             133   -0.66 9  148 259 
 PTB  HN ES   1    444 56.57                             133   -0.57 7  148 259 
 PTB  HZ I         444 58.44        12.3 0.14                           148 259 
 OCA  HN ES   1    445  0.46                             130    0.79 7  162 353 
 OCA  HZ I         445  4.15         8.2 0.22                           162 353 
 ZAR  HZ EP   1    444 40.43                             123   -0.95 6  205 292 
 ZAR  HN ES   1    445  6.67                             123   -0.27 6  205 292 
 ZAR  HZ I         445  8.51         6.1 0.10                           205 292 
 CHI  HZ EP        444 46.56                             118    0.18 8  248 195 
 CHI  HN ES   1    445 15.74                             118   -0.09 6  248 195 
 CHI  HZ I         445 19.78         3.1 0.40                           248 195 
 ROSC BZ EP   1    444 47.83                             117    1.00 6  252 211 
 ROSC BN ES   1    445 17.45                             117    0.82 6  252 211 
 ROSC BZ I         445 21.92         5.8 0.35                           252 211 
 HEL  HZ EP   1    444 49.32                             115    0.29 6  272 256 
 HEL  HN ES   1    445 21.27                             115    0.72 6  272 256 
 HEL  HZ I         445 26.70         4.3 0.30                           272 256 
 URE  HZ EP   4    444 48.42                             114   -1.55 0  285 292 
 URE  HN ES   4    445 19.15                             114   -3.07 0  285 292 
 MON  HZ EP   4    444 55.32                             109   -2.58 0  355 308 
 MON  HN ES   4    445 34.23                             109   -2.10 0  355 308 
                                                                                
