 2016 1031 0101 35.1 L   6.788 -73.153156.7  RSN  4 0.1 0.9LRSN                1
 GAP=136        0.40       2.7     2.7  4.1  0.1675E+01 -0.2699E+01 -0.2025E+01E
 Epicentro: LOS SANTOS - SANTANDER                                             3
 *PRA-ORTC                                                                     3
 ACTION:UPD 16-11-09 19:24 OP:rebc STATUS:               ID:20161031010135 L   I
 OLDACT:UP  16-10-31 15:28 OP:dani STATUS:               ID:20161031005801d    3
 OLDACT:DUP 16-10-31 15:25 OP:dani STATUS:               ID:20161031005801d    3
 2016-10-31-0058-00M.COL___316                                                 6
 STAT SP IPHASW D HRMM SECON CODA AMPLIT PERI AZIMU VELO AIN AR TRES W  DIS CAZ7
 BRR  HZ EP        1 1 57.59                             154    0.1810 71.2 300 
 BRR  HE ES        1 2 14.70                             154   -0.1410 71.2 300 
 BRR  HZ I         1 2 17.91         2.9 0.27            154           71.2 300 
 PAM  EZ EP        1 1 58.59                             152    0.0410 78.9  39 
 RUS  HZ EP        1 1 59.71                             146   -0.1110 99.3 176 
 RUS  HE ES        1 2 19.19                             146    0.0610 99.3 176 
 RUS  HZ I         1 2 19.36         0.6 0.17            149           99.3 176 
 PTB  HZ EP        1 2  2.73                             135   -0.13 9  147 259 
 PTB  HE ES        1 2 24.65                             135    0.11 9  147 259 
 PTB  HZ I         1 2 26.47         0.8 0.17            136            147 259 
                                                                                
