 2012  831 0548 35.5 L   6.691 -73.182141.2  RSN  4 0.2 1.4LRSN                1
 GAP=182        0.42       7.1     5.4  5.1  0.1305E+02  0.2233E+01  0.3621E+01E
 Epicentro: VILLANUEVA - SANTANDER                                             3
 ACTION:UPD 12-09-10 11:59 OP:ep   STATUS:               ID:20120831054835 L   I
 2012-08-31-0540-00M.COL___218                                                 6
 STAT SP IPHASW D HRMM SECON CODA AMPLIT PERI AZIMU VELO AIN AR TRES W  DIS CAZ7
 BAR2 SZ EP        548 54.47                             175    0.0610 10.9 180 
 BAR2 SZ ES   1    549  9.17                             175    0.03 7 10.9 180 
 BAR2 SZ I         549 12.18         9.5 0.24                          10.9 180 
 GIR2 SZ ES   2    549  9.83                             162   -0.42 5 42.9 358 
 BRR  HZ EP        548 56.32                             151   -0.0510 74.5 308 
 BRR  HZ I         548 57.56         3.7 0.24                          74.5 308 
 BRR  HN ES   1    549 12.86                             151    0.23 7 74.5 308 
 PTB  HN ES   2    549 21.68                             132   -0.23 5  142 263 
                                                                                
