 2012  731 0901 20.7 L   6.812 -73.176139.3  RSN 12 0.4 2.7LRSN                1
 GAP=111        0.97       3.5     4.6  7.3  0.1231E+01  0.1106E+02  0.4662E+01E
 Epicentro: LOS SANTOS - SANTANDER                                             3
 ACTION:UPD 12-08-14 11:46 OP:ep   STATUS:               ID:20120731090120 L   I
 2012-07-31-0900-00M.COL___209                                                 6
 STAT SP IPHASW D HRMM SECON CODA AMPLIT PERI AZIMU VELO AIN AR TRES W  DIS CAZ7
 BAR2 SZ IP        9 1 39.70                             170     0.110   24 182 
 BAR2 SZ ES   1    9 1 54.15                             170    -0.2 7   24 182 
 BAR2 SZ I         9 1 55.58       165.6 0.26            167             24 182 
 BRR  HZ EP        9 1 41.52                             153     0.510   68 299 
 BRR  HZ I         9 2  1.58        97.1 0.21            139             68 299 
 PAM  SZ EP   1    9 1 42.70                             149     0.4 7   79  42 
 PAM  SN ES   1    9 1 59.17                             149     0.0 7   79  42 
 PAM  SZ I         9 2  1.55        42.5 0.47            144             79  42 
 RUS  HZ EP   1    9 1 43.72                             142    -0.3 7  102 174 
 RUS  HN ES   1    9 2  1.52                             142    -0.6 7  102 174 
 RUS  HZ I         9 2  4.07        63.1 0.24            137            102 174 
 PTB  HZ EP   1    9 1 46.30                             131    -0.6 7  145 258 
 PTB  HN ES   1    9 2  7.20                             131    -0.1 7  145 258 
 PTB  HZ I         9 2  9.66        54.5 0.23            120            145 258 
 OCA  HZ EP   1    9 1 47.95                             128    -0.4 7  159 354 
 OCA  HN ES   1    9 2  9.40                             128    -0.6 7  159 354 
 YOP  SZ EP   1    9 1 50.54                             124     0.0 7  182 153 
 YOP  SZ I         9 1 51.37        40.2 0.21            119            182 153 
 YOP  SN ES   1    9 2 14.81                             124     0.9 7  182 153 
 ZAR  HZ EP   1    9 1 52.50                             121     0.1 6  200 292 
 ZAR  HE ES   1    9 2 17.83                             121     0.7 6  200 292 
 ZAR  HZ I         9 2 23.47        76.0 0.37            112            200 292 
 NOR  SZ EP   1    9 1 56.27                             117     0.4 6  233 234 
 NOR  SN ES   1    9 2 23.13                             117    -0.2 6  233 234 
 HEL  HZ EP   1    9 2  0.33                             114     0.0 6  269 255 
 HEL  HZ I         9 2 37.99        32.2 0.42            106            269 255 
 VIL  SZ EP   1    9 2  3.53                             111    -0.4 5  304 191 
 VIL  SE ES   1    9 2 37.81                             111     0.2 5  304 191 
 VIL  SZ I         9 2 46.60        28.7 0.33            104            304 191 
 PRA  HZ EP   1    9 2 13.34                             105    -0.6 4  391 209 
 PRA  HN ES   1    9 2 55.18                             105    -0.3 4  391 209 
 PRA  HZ I         9 3  2.48        53.8 0.27             99            391 209 
