 2010  831 0226 32.4 L   6.750 -73.133142.0  RSN  5 0.4 1.4LRSN                1
 GAP=161        0.98       8.7    15.4 14.7  0.4482E+02 -0.1309E+03 -0.5483E+02E
 Epicentro: LOS SANTOS - SANTANDER                                             3
 ACTION:UP  10-09-07 10:59 OP:vdl  STATUS:               ID:20100831022632 L   I
 2010-08-31-0223-44S.COL___120                                                 6
 STAT SP IPHASW D HRMM SECON CODA AMPLIT PERI AZIMU VELO SNR AR TRES W  DIS CAZ7
 BAR2 SZ ES   2    227  5.53                             173    -0.8 5   18 198 
 BAR2 SZ I         227  7.85        11.6 0.17                            18 198 
 BRR  HZ EP        226 53.01                             151    -0.310   75 302 
 BRR  HE ES   1    227 10.18                             151     0.5 7   75 302 
 BRR  HZ I         227 12.73         6.0 0.28                            75 302 
 RUS  HZ EP   1    226 55.41                             145     0.1 7   95 177 
 RUS  HN ES   2    227 13.77                             145     0.5 5   95 177 
 RUS  HZ I         227 15.06         2.8 0.48                            95 177 
 GUE  SZ EP   2    226 56.57                             137    -0.6 5  122  11 
 GRA  SZ EP        226 57.96                                     0.310  131  16 
 GRA  SZ I         227 21.91         3.1 0.30                           131  16 
                                                                                
