 2014  331 0025 32.9 L   6.867 -73.336122.0  RSN 16 0.5 2.3LRSN                1
 GAP= 97        1.23       2.5     3.7  5.5 -0.2020E+01  0.6346E+01  0.2905E+00E
 Epicentro: BETULIA - SANTANDER                                                3
 ACTION:UPD 14-04-09 23:21 OP:nd   STATUS:               ID:20140331002532 L   I
 OLDACT:UP  14-03-31 08:08 OP:carl STATUS:               ID:20140331002044     3
 OLDACT:REG 14-03-31 07:34 OP:carl STATUS:               ID:20140331002044     3
 2014-03-31-0020-44M.COL___258                                                 6
 STAT SP IPHASW D HRMM SECON CODA AMPLIT PERI AZIMU VELO AIN AR TRES W  DIS CAZ7
 BAR2 SZ IP     C  025 50.11                             163    0.0810 34.8 151 
 BAR2 SZ ES        026  3.32                             163   -0.0610 34.8 151 
 BRR  HZ IP     C  025 50.49                             157    0.2010 49.3 303 
 BRR  HN ES        026  4.63                             157    0.7810 49.3 303 
 BRR  HZ I         026  5.25        94.7 0.12            155           49.3 303 
 PAM  SZ EP        025 53.29                             142   -0.1010 87.6  53 
 PAM  SN ES        026  9.72                             142    0.3610 87.6  53 
 PAM  SZ I         026 13.62        39.5 0.38            145           87.6  53 
 RUS  HZ EP        025 55.02                             135   -0.2810  111 165 
 RUS  HE ES        026 12.64                             135   -0.1310  111 165 
 PTB  HZ IP     D  025 55.35                             130   -0.9010  129 254 
 PTB  HE ES        026 13.32                             130   -1.1410  129 254 
 PTB  HZ I         026 17.66        30.8 0.30            130            129 254 
 OCA  HZ EP        025 58.18                             125   -0.45 9  152   1 
 OCA  HN ES        026 18.37                             125   -0.32 9  152   1 
 OCA  HZ I         026 23.08        46.0 0.48            126            152   1 
 SPBC HZ EP        025 58.70                             124   -0.38 9  157 211 
 SPBC HN ES        026 19.29                             124   -0.21 9  157 211 
 SPBC HZ I         026 27.38        19.9 0.26            125            157 211 
 ZAR  HZ EP        026  1.78                             120    0.25 9  182 292 
 ZAR  HN ES        026 24.73                             120    0.87 9  182 292 
 ZAR  HZ I         026 29.04        41.9 0.32            120            182 292 
 NOR  HZ EP        026  5.53                             114   -0.50 8  223 230 
 NOR  HN ES        026 32.24                             114    0.38 8  223 230 
 NOR  HZ I         026 38.12        16.5 0.16            115            223 230 
 SML  HZ EP        026  6.05                             114   -0.59 8  229 339 
 SML  HN ES        026 33.37                             114    0.42 8  229 339 
 SML  HZ I         026 37.67        56.4 0.22            114            229 339 
 CHI  HZ EP        026  9.97                             112    0.27 8  251 190 
 CHI  HN ES        026 39.20                             112    0.80 8  251 190 
 CHI  HZ I         026 44.07        11.2 0.52            112            251 190 
 HEL  HZ EP        026 10.81                             111    0.87 8  254 253 
 HEL  HE ES        026 38.52                             111   -0.30 8  254 253 
 HEL  HZ I         026 44.42         8.7 0.30            111            254 253 
 URE  HZ EP   4    026  9.17                             110   -1.20 0  262 292 
 URE  HN ES   4    026 37.23                             110   -2.37 0  262 292 
 GUY2CHZ EP        026 14.83                             108    0.73 7  289 231 
 GUY2CHN ES        026 45.91                             108   -0.32 7  289 231 
 GUY2CHZ I         026 51.17         7.6 0.42                           289 231 
 RREF HZ EP   4    026 18.08                             107    1.18 0  311 226 
 RREF HN ES   4    026 49.95                             107   -1.26 0  311 226 
 COD  HZ EP        026 19.52                             105    0.10 7  340 358 
 COD  HN ES        026 55.30                             105   -0.41 7  340 358 
 COD  HZ I         027  4.56         6.2 0.40            105            340 358 
 PRA  HZ EP        026 26.21                             102    0.90 6  389 206 
 PRA  HN ES        027  5.76                             102   -0.43 6  389 206 
 PRA  HZ I         027 11.82         8.2 0.36            103            389 206 
 ORTC HZ EP        026 25.53                             102    0.11 6  390 213 
 ORTC HE ES        027  6.95                             102    0.57 6  390 213 
 ORTC HZ I         027 15.05         4.9 0.44            103            390 213 
                                                                                
