 2017 1031 0546 48.4 L   6.396 -73.673 98.0  RSN 10 0.8 1.6LRSN                1
 GAP= 71        1.43       4.2     4.1  9.5  0.2261E+01  0.4747E+01  0.7847E+01E
 Epicentro: SANTA HELENA DEL OPON - SANTANDER                                  3
 ACTION:UPD 17-11-07 19:39 OP:rebc STATUS:               ID:20171031054648 L   I
 OLDACT:UP  17-10-31 16:10 OP:dani STATUS:               ID:20171031053737     3
 OLDACT:UP  17-10-31 16:10 OP:dani STATUS:               ID:20171031053737     3
 OLDACT:UP  17-10-31 16:09 OP:dani STATUS:               ID:20171031053737     3
 OLDACT:REG 17-10-31 13:14 OP:dani STATUS:               ID:20171031053737     3
 2017-10-31-0538-00M.COL___441                                                 6
 STAT SP IPHASW D HRMM SECON CODA AMPLIT PERI AZIMU VELO AIN AR TRES W  DIS CAZ7
 BAR2 EZ EP        547  4.16                             148    0.1210 58.4  68 
 BAR2 EZ ES        547 16.12                             148   -0.1410 58.4  68 
 BAR2 EZ I         547 18.11        23.4 0.14            150           58.4  68 
 BRR  HZ EP        547  5.22                             139   -0.0110 78.8 357 
 BRR  HN ES        547 19.38                             139    1.0110 78.8 357 
 BRR  HZ I         547 28.16         7.8 0.32            140           78.8 357 
 RUS  HZ EP        547  6.09                             137   -0.4010 85.8 130 
 RUS  HN ES        547 20.11                             137   -0.5110 85.8 130 
 RUS  HZ I         547 23.96         7.3 0.60            142           85.8 130 
 PTB  HZ EP        547  5.21                             135   -0.8310 88.1 280 
 PTB  HN ES        547 19.31                             135   -0.5110 88.1 280 
 PTB  HZ I         547 21.97         6.5 0.32            138           88.1 280 
 SPBC HZ EP        547  6.33                             134   -0.2810 93.4 208 
 SPBC HN ES        547 21.23                             134    0.4010 93.4 208 
 SPBC HZ I         547 23.27        10.3 0.36            139           93.4 208 
 NOR  HZ EP   2    547 12.27                             118   -1.20 5  161 235 
 NOR  HN ES        547 33.06                             118    0.02 9  161 235 
 NOR  HZ I         547 35.54         4.2 0.28            121            161 235 
 ZAR  HZ EP        547 15.28                             115   -0.04 9  178 313 
 ZAR  HE ES   2    547 37.96                             115    1.62 4  178 313 
 ZAR  HZ I         547 43.45         6.9 0.26            116            178 313 
 YPLC HZ EP        547 15.27                             115   -0.40 9  181 128 
 YPLC HE ES        547 37.45                             115    0.49 9  181 128 
 YPLC HZ I         547 39.07         8.8 0.30            118            181 128 
 CHI  HN ES        547 41.74                             113    1.07 9  195 182 
 GUY2CHZ EP   3    547 23.59                             110    2.02 2  228 235 
 GUY2CHN ES   3    547 50.79                             110    3.33 2  228 235 
 GUY2CHZ I         547 53.18         2.1 0.48                           228 235 
                                                                                
