 2014  531 0454 46.6 L   6.710 -73.482113.6  RSN  6 0.6 1.6LRSN                1
 GAP=106        1.49       5.9     6.5 11.8  0.1206E+02  0.1506E+02 -0.1272E+01E
 Epicentro: EL CARMEN DE CHUCURI - SANTANDER                                   3
 ACTION:UPD 15-03-16 17:02 OP:nd   STATUS:               ID:20140531045446 L   I
 OLDACT:REG 14-05-31 13:43 OP:stll STATUS:               ID:20140531044814     3
 2014-05-31-0448-14M.COL___256                                                 6
 STAT SP IPHASW D HRMM SECON CODA AMPLIT PERI AZIMU VELO AIN AR TRES W  DIS CAZ7
 BAR2 SZ IP     C  455  2.96                             161    0.1510 35.6 111 
 BAR2 SZ ES        455 15.44                             161    0.0210 35.6 111 
 BAR2 SZ I         455 17.13        18.3 0.36            161           35.6 111 
 BRR  HZ EP        455  3.66                             154    0.5110 50.7 330 
 BRR  HN ES        455 16.47                             154    0.4310 50.7 330 
 BRR  HZ I         455 17.64        11.8 0.12            152           50.7 330 
 RUS  HZ EP        455  7.53                             136    0.1510  101 154 
 RUS  HN ES        455 23.57                             136    0.0110  101 154 
 RUS  HZ I         455 26.10         4.1 0.28            137            101 154 
 PTB  HZ IP     D  455  7.21                             133   -0.2910  109 260 
 PTB  HN ES        455 22.77                             133   -1.0010  109 260 
 PTB  HZ I         455 24.14        10.5 0.44            133            109 260 
 OCA  HN ES        455 33.79                             119   -1.00 9  170   6 
 OCA  HZ I         455 40.61         5.3 0.42            118            170   6 
 ZAR  HN ES        455 36.38                             119    1.00 9  175 300 
 ZAR  HZ I         455 40.67         7.5 0.30            118            175 300 
                                                                                
