 2012 1231 0337 47.3 L   6.728 -73.208148.1  RSN  5 0.3 1.1LRSN                1
 GAP=222        0.59       6.1     5.5  6.3  0.2054E+02  0.5462E+01  0.8483E+00E
 Epicentro: VILLANUEVA - SANTANDER                                             3
 ACTION:UPD 13-01-04 14:31 OP:ep   STATUS:               ID:20121231033747 L   I
 2012-12-31-0330-00M.COL___239                                                 6
 STAT SP IPHASW D HRMM SECON CODA AMPLIT PERI AZIMU VELO AIN AR TRES W  DIS CAZ7
 BAR2 SZ EP   1    338  6.96                             174   -0.12 7 15.3 169 
 BAR2 SZ ES   1    338 21.97                             174   -0.53 7 15.3 169 
 BAR2 SZ I         338 22.89         6.7 0.16                          15.3 169 
 BRR  HZ EP   1    338  8.90                             153    0.29 7 69.7 307 
 BRR  HN ES   1    338 25.63                             153    0.39 7 69.7 307 
 BRR  HZ I         338 26.87         2.1 0.30                          69.7 307 
 RUS  HZ EP   1    338 10.73                             146   -0.05 7 93.5 171 
 RUS  HN ES   1    338 29.43                             146    0.33 7 93.5 171 
 RUS  HZ I         338 31.14         1.1 0.34                          93.5 171 
 PTB  HZ EP   1    338 13.59                             134   -0.14 7  140 261 
 PTB  HN ES   1    338 34.33                             134   -0.02 7  140 261 
 PTB  HZ I         338 37.06         2.1 0.12                           140 261 
 ZAR  HN ES   1    338 44.53                             123   -0.21 6  201 295 
                                                                                
