 2017  731 0316 21.4 L   5.966 -73.785111.9  RSN 19 0.7 2.0LRSN                1
 GAP= 41        1.49       3.3     3.0  7.3 -0.1450E+01  0.4974E+01  0.1390E+01E
 Epicentro: BOLIVAR - SANTANDER                                                3
 ACTION:UPD 17-08-30 15:38 OP:rebc STATUS:               ID:20170731031621 L   I
 OLDACT:REG 17-07-31 12:46 OP:osc  STATUS:               ID:20170731030737     3
 2017-07-31-0308-00M.COL___377                                                 6
 STAT SP IPHASW D HRMM SECON CODA AMPLIT PERI AZIMU VELO AIN AR TRES W  DIS CAZ7
 SPBC HZ IP     C  316 37.31                             155   -0.3510 47.1 223 
 SPBC HE ES        316 50.14                             155   -0.2210 47.1 223 
 SPBC HZ I         316 51.67        64.0 0.10            156           47.1 223 
 RUS  HZ EP        316 39.94                             143   -0.2410 78.1  96 
 RUS  HE ES        316 54.14                             143   -0.7110 78.1  96 
 RUS  HZ I         316 59.16         7.1 0.26            143           78.1  96 
 BAR2 EZ IP     D  316 41.45                             136    0.1910 96.1  44 
 BAR2 EZ ES        316 57.16                             136    0.4010 96.1  44 
 PTB  HZ EP     C  316 39.92                             136   -1.1710 97.7 311 
 PTB  HE ES        316 56.69                             136    0.2310 97.7 311 
 PTB  HZ I         316 57.14        16.4 0.12            138           97.7 311 
 BRR  HZ EP        316 43.76                             128    0.0710  127   4 
 BRR  HE ES        317  1.39                             128    0.3010  127   4 
 BRR  HZ I         317  4.60        18.6 0.14            130            127   4 
 NOR  HZ EP        316 43.79                             127   -0.1310  128 250 
 NOR  HE ES        317  2.35                             127    0.8510  128 250 
 NOR  HZ I         317  2.99        34.9 0.28            129            128 250 
 ROSC BZ EP        316 45.58                             125    0.25 9  138 206 
 ROSC BE ES   4    317  5.03                             125    1.02 0  138 206 
 ROSC BZ I         317  9.84        14.7 0.30            126            138 206 
 CHI  HZ EP        316 46.05                             123   -0.31 9  148 178 
 CHI  HE ES        317  5.25                             123   -0.60 9  148 178 
 CHI  HZ I         317  9.62        10.2 0.34            124            148 178 
 YPLC HZ EP     D  316 48.19                             119    0.19 9  168 112 
 YPLC HE ES        317  9.66                             119    0.89 9  168 112 
 YPLC HZ I         317 13.20        11.7 0.23            120            168 112 
 GUY2CHZ EP        316 51.15                             115   -0.14 9  193 245 
 GUY2CHE ES        317 16.16                             115    1.55 9  193 245 
 GUY2CHZ I         317 20.20         8.4 0.42                           193 245 
 PAM  EZ EP        316 51.56                             115    0.23 9  194  38 
 PAM  EE ES        317 14.67                             115   -0.02 9  194  38 
 PAM  EZ I         317 19.22         8.0 0.36            117            194  38 
 HEL  HZ EP        316 51.89                             115    0.59 9  195 277 
 HEL  HE ES        317 13.33                             115   -1.30 9  195 277 
 HEL  HZ I         317 19.55        10.5 0.24            117            195 277 
 ZAR  HZ EP        316 52.30                             113    0.16 8  206 325 
 ZAR  HE ES        317 15.95                             113   -0.17 8  206 325 
 ZAR  HZ I         317 18.51        13.1 0.24            115            206 325 
 TAM  HE ES   2    317 20.31                             111    0.04 4  227  77 
 CBOC HZ EP        316 57.31                             109    0.36 8  247 268 
 CBOC HN ES        317 25.86                             109    1.16 8  247 268 
 CBOC HZ I         317 27.75         4.1 0.06            110            247 268 
 PTGC HZ EP   9    316 57.54                             107   -1.61 0  268 137 
 PTGC HE ES        317 27.01                                    0.02 8  268 137 
 PTGC HZ I         317 33.68         6.8 0.40            108            268 137 
 URE  HN ES   2    317 27.97                             106   -2.45 4  276 316 
 URE  HZ I         317 31.58         9.2 0.18            108            276 316 
 ORTC HZ EP        317  0.57                             106    0.03 7  279 216 
 ORTC HE ES        317 30.99                             106   -0.10 7  279 216 
 ORTC HZ I         317 36.94         8.7 0.40            107            279 216 
 PAL  HZ EP        317  2.63                             105   -0.47 7  301 247 
 PAL  HE ES        317 34.71                             105   -0.93 7  301 247 
 PAL  HZ I         317 39.22         2.6 0.26            106            301 247 
                                                                                
