 2016 1031 0112 18.7 L   6.007 -73.925  0.0  RSN  5 0.7 0.9LRSN                1
 GAP=105        1.43       4.0     3.4  9.9  0.4833E+00 -0.1692E+01 -0.2162E+01E
 Epicentro: EL PENON - SANTANDER                                               3
 ACTION:UPD 16-11-09 19:24 OP:rebc STATUS:               ID:20161031011218 L   I
 OLDACT:UP  16-10-31 15:37 OP:dani STATUS:               ID:20161031010800     3
 OLDACT:UP  16-10-31 15:37 OP:dani STATUS:               ID:20161031010800     3
 OLDACT:UP  16-10-31 15:37 OP:dani STATUS:               ID:20161031010800     3
 OLDACT:UP  16-10-31 15:36 OP:dani STATUS:               ID:20161031010800     3
 OLDACT:ARG 16-10-31 12:39 OP:dani STATUS:               ID:20161031010800     3
 2016-10-31-0108-00M.COL___316                                                 6
 STAT SP IPHASW D HRMM SECON CODA AMPLIT PERI AZIMU VELO AIN AR TRES W  DIS CAZ7
 SPBC HN ES        112 32.93                              47    0.4810 42.5 203 
 SPBC HZ I         112 35.71         5.8 0.12             47           42.5 203 
 PTB  HZ EP   3    112 31.04                              47   -1.48 2 83.2 315 
 PTB  HE ES        112 43.20                              47   -0.0710 83.2 315 
 PTB  HZ I         112 43.64         5.0 0.07             47           83.2 315 
 RUS  HZ EP        112 34.90                              47    0.2310 94.1  98 
 RUS  HE ES        112 46.24                              47   -0.8510 94.1  98 
 RUS  HZ I         112 47.23         1.8 0.34             47           94.1  98 
 HEL  HZ EP        112 46.50                              47   -0.86 9  179 277 
 HEL  HN ES   4    113  7.12                              47   -2.56 0  179 277 
 HEL  HZ I         113  8.69         2.5 0.26             47            179 277 
 PAM  EE EP        112 50.93                              37    0.66 9  200  43 
 PAM  EN ES        113 15.54                              37    0.68 9  200  43 
                                                                                
