 2016  331 0219 35.0 L   6.827 -73.164146.7  RSN 15 0.4 2.2LRSN                1
 GAP= 69        0.94       2.7     2.7  5.0 -0.8334E+00  0.3981E+01  0.6826E+00E
 Epicentro: LOS SANTOS - SANTANDER                                             3
 ACTION:UPD 16-05-13 21:29 OP:cam  STATUS:               ID:20160331021935 L   I
 OLDACT:UP  16-04-01 11:33 OP:AR   STATUS:               ID:20160331021935 L   3
 OLDACT:UP  16-03-31 14:01 OP:drio STATUS:               ID:20160331021744     3
 OLDACT:UP  16-03-31 13:57 OP:drio STATUS:               ID:20160331021744     3
 OLDACT:REG 16-03-31 12:18 OP:drio STATUS:               ID:20160331021744     3
 2016-03-31-0217-44M.COL___290                                                 6
 STAT SP IPHASW D HRMM SECON CODA AMPLIT PERI AZIMU VELO AIN AR TRES W  DIS CAZ7
 BAR2 EZ EP        219 54.89                             169    0.0710 26.0 184 
 BAR2 EZ ES        220 10.15                             169   -0.1110 26.0 184 
 BAR2 EZ I         220 11.31        45.2 0.24            167           26.0 184 
 PAM  EZ EP        219 57.73                             151    0.4510 76.5  42 
 PAM  EE ES        220 14.91                             151    0.2710 76.5  42 
 PAM  EZ I         220 15.51        14.7 0.22            149           76.5  42 
 RUS  HZ EP        219 58.88                             143   -0.2110  104 175 
 RUS  HE ES        220 17.74                             143   -0.1210  104 175 
 RUS  HZ I         220 18.95        13.8 0.20            139            104 175 
 PTB  HZ EP        220  1.62                             132   -0.32 9  146 258 
 PTB  HE ES        220 22.65                             132   -0.28 9  146 258 
 PTB  HZ I         220 25.23        16.0 0.12            129            146 258 
 OCA  HZ EP        220  2.11                             130   -1.00 9  157 354 
 OCA  HE ES        220 24.80                             130   -0.21 9  157 354 
 OCA  HZ I         220 28.42        30.5 0.16            127            157 354 
 TAM  HZ EP        220  3.24                             130    0.21 9  158 106 
 TAM  HZ I         220 24.31         8.8 0.36            126            158 106 
 TAM  HE ES        220 25.02                             130    0.15 9  158 106 
 SPBC HZ EP        220  3.89                             129    0.20 9  164 218 
 SPBC HE ES        220 26.00                             129   -0.05 9  164 218 
 SPBC HZ I         220 33.63        27.6 0.22            125            164 218 
 ZAR  HZ EP        220  7.98                             123    0.76 9  201 292 
 ZAR  HN ES        220 32.82                             123    0.48 9  201 292 
 ZAR  HZ I         220 38.06        21.9 0.28            120            201 292 
 NOR  HZ EP        220 11.07                             119    0.25 8  235 234 
 NOR  HE ES        220 38.42                             119   -0.31 8  235 234 
 NOR  HZ I         220 48.41        12.6 0.46            115            235 234 
 CHI  HZ EP        220 12.82                             117   -0.21 8  251 195 
 CHI  HE ES        220 42.51                             117   -0.16 8  251 195 
 CHI  HZ I         220 47.68         8.7 0.30            114            251 195 
 ROSC BZ EP        220 13.44                             117    0.08 8  254 210 
 ROSC BN ES   4    220 45.45                             117    2.19 0  254 210 
 ROSC BZ I         220 49.53        30.3 0.45            113            254 210 
 HEL  HZ EP   4    220 16.44                             115    1.29 0  271 255 
 HEL  HN ES        220 46.99                             115    0.55 8  271 255 
 HEL  HZ I         220 52.93         9.4 0.32            112            271 255 
 URE  HZ EP        220 15.07                             114   -0.74 7  281 292 
 URE  HE ES   4    220 45.43                             114   -2.18 0  281 292 
 URE  HZ I         220 53.92         8.6 0.16            111            281 292 
 GUY2CHZ EP        220 19.05                             112    0.37 7  301 234 
 GUY2CHE ES   4    220 57.38                             112    4.64 0  301 234 
 GUY2CHZ I         221  1.07        11.0 0.34                           301 234 
 ANIL HZ EP   4    220 33.89                             108    8.94 0  358 224 
 ANIL HN ES   4    221  5.48                             108    1.60 0  358 224 
 SJC  HZ EP   4    220 28.93                             106   -1.27 0  406 327 
 SJC  HE ES   4    221  9.39                             106   -3.84 0  406 327 
 SJC  HZ I         221 18.79         4.0 0.56            103            406 327 
                                                                                
