 2014  831 0747  7.4 L   6.815 -73.127146.0  RSN 22 0.6 2.3LRSN                1
 GAP=138        1.24       3.2     4.6  7.1 -0.1179E+01  0.8729E+01  0.2219E+01E
 Epicentro: LOS SANTOS - SANTANDER                                             3
 ACTION:UPD 14-09-15 21:54 OP:nd   STATUS:               ID:20140831074707 L   I
 OLDACT:REG 14-08-31 13:16 OP:fm   STATUS:               ID:20140831073805     3
 2014-08-31-0738-05M.COL___263                                                 6
 STAT SP IPHASW D HRMM SECON CODA AMPLIT PERI AZIMU VELO AIN AR TRES W  DIS CAZ7
 BAR2 SZ EP     D  747 27.22                             170    0.1610 25.3 194 
 BAR2 SZ ES   1    747 41.91                             170   -0.52 7 25.3 194 
 BAR2 SZ I         747 43.56        52.8 0.20            165           25.3 194 
 BRR  HZ EP     C  747 29.07                             152    0.4810 72.2 297 
 BRR  HN ES        747 45.81                             152    0.6610 72.2 297 
 BRR  HZ I         747 49.18        20.3 0.16            147           72.2 297 
 PAM  SZ EP        747 30.13                             152    0.6810 74.8  39 
 PAM  SN ES   1    747 47.30                             152    0.62 7 74.8  39 
 PAM  SZ I         747 49.48        40.5 0.62            157           74.8  39 
 RUS  HZ EP        747 30.41                             143   -0.8310  102 177 
 RUS  HN ES   1    747 48.93                             143   -0.94 7  102 177 
 RUS  HZ I         747 50.61        17.3 0.22            143            102 177 
 PTB  HZ EP        747 33.86                             132   -0.69 9  150 258 
 PTB  HE ES        747 55.36                             132   -0.41 9  150 258 
 PTB  HZ I         748  0.32        22.8 0.14            128            150 258 
 OCA  HZ EP   1    747 34.81                             130   -0.74 7  159 352 
 OCA  HE ES        747 57.23                             130   -0.32 9  159 352 
 OCA  HZ I         748  0.64        22.2 0.22            130            159 352 
 SPBC HZ EP        747 36.17                             129    0.06 9  166 219 
 SPBC HN ES        747 57.94                             129   -0.60 9  166 219 
 SPBC HZ I         748  0.76        35.7 0.14            126            166 219 
 ZAR  HZ EP   1    747 40.77                             122    0.82 6  205 292 
 ZAR  HN ES        748  6.17                             122    0.80 8  205 292 
 ZAR  HZ I         748 11.11        27.6 0.26            120            205 292 
 SML  HZ EP   1    747 43.51                             118   -0.41 6  243 335 
 SML  HN ES   1    748 12.21                             118   -0.24 6  243 335 
 SML  HZ I         748 18.22        12.7 0.24            117            243 335 
 CHI  HZ EP   1    747 45.99                             117    0.70 6  251 196 
 CHI  HN ES        748 15.42                             117    0.54 8  251 196 
 CHI  HZ I         748 22.58         6.9 0.40            117            251 196 
 ROSC BN ES   1    748 16.57                             116    0.87 6  255 211 
 ROSC BZ I         748 24.87        16.1 0.40            116            255 211 
 HEL  HZ EP   4    747 49.13                             115    1.29 0  274 256 
 HEL  HE ES        748 19.22                             115   -0.20 8  274 256 
 HEL  HZ I         748 25.54        10.4 0.28            113            274 256 
 URE  HZ EP   1    747 49.03                             113    0.45 6  285 291 
 URE  HE ES   4    748 19.40                             113   -1.33 0  285 291 
 URE  HZ I         748 31.87        12.9 0.22            112            285 291 
 GUY2CHZ EP   4    747 52.54                             112    1.28 0  304 235 
 GUY2CHN ES   1    748 25.80                             112    0.28 5  304 235 
 GUY2CHZ I         748 30.37         7.1 0.42                           304 235 
 CBOC HZ EP   1    747 53.86                             110   -0.69 5  336 252 
 CBOC HN ES   4    748 30.12                             110   -1.25 0  336 252 
 CBOC HZ I         748 43.81         4.3 0.60            109            336 252 
 DBB  SZ EP   1    747 55.09                             109    0.03 5  341 274 
 DBB  SZ ES   1    748 31.65                             109   -0.62 5  341 274 
 DBB  SZ I         748 47.91        25.0 0.66            109            341 274 
 TOL  SZ EP   4    747 57.25                             109    1.34 0  346 225 
 TOL  SN ES   4    748 36.64                             109    2.85 0  346 225 
 TOL  SZ I         748 43.74        13.7 0.56            109            346 225 
 MON  HZ EP   4    748  0.48                             109    4.05 0  354 308 
 MON  HN ES        748 33.62                             109   -1.09 6  354 308 
 MON  HZ I         748 34.11         3.8 0.18            108            354 308 
 ANIL HN ES   1    748 37.44                             108    0.89 5  360 225 
 ANIL HZ I         748 46.39         2.1 0.30            108            360 225 
 PRA  HZ EP   1    748  1.57                             106    0.41 4  394 210 
 PRA  HN ES   1    748 42.95                             106   -0.18 4  394 210 
 PRA  HZ I         748 48.27         6.7 0.22            106            394 210 
 ORTC HZ EP   4    748  0.68                             106   -0.89 0  398 216 
 ORTC HN ES   1    748 44.82                             106    0.96 4  398 216 
 ORTC HZ I         748 48.78         4.4 0.40            106            398 216 
 SJC  HZ EP   4    748  1.79                             106   -1.10 0  409 327 
 SJC  HE ES   4    748 43.09                             106   -3.12 0  409 327 
 SJC  HZ I         748 47.51         3.5 0.34            106            409 327 
                                                                                
