 2011  331 0319 57.8 L   7.386 -73.179130.8  RSN  7 0.2 1.6LRSN                1
 GAP=108        0.54       3.4     5.2  5.5 -0.7397E+01  0.5147E+01 -0.3629E+01E
 Epicentro: EL PLAYON - SANTANDER                                              3
 ACTION:UP  11-06-16 14:36 OP:jfem STATUS:               ID:20110331031957 L   I
 2011-03-31-0320-00M.COL___140                                                 6
 STAT SP IPHASW D HRMM SECON CODA AMPLIT PERI AZIMU VELO SNR AR TRES W  DIS CAZ7
 GIR2 SZ IP        320 15.82                             165     0.010   34 183 
 BTL  SZ EP        320 16.77                             157     0.110   53 191 
 PAM  SN ES   2    320 32.53                             157     0.4 5   53  95 
 BRR  HZ IP     D  320 16.95                             151    -0.110   66 242 
 BRR  HN ES   1    320 32.33                             151     0.2 7   66 242 
 BRR  HZ I         320 37.11        15.5 0.05                            66 242 
 GRA  SZ EP        320 17.64                             150     0.210   69  37 
 GRA  SZ ES   1    320 32.49                             150    -0.3 7   69  37 
 BAR2 SZ EP        320 18.84                             144     0.010   88 180 
 BAR2 SZ I         320 19.26         6.9 0.06                            88 180 
 BAR2 SZ ES   1    320 34.84                             144    -0.3 7   88 180 
 OCA  SZ EP        320 19.13                             142    -0.110   96 351 
 OCA  SZ I         320 38.20         6.9 0.16                            96 351 
                                                                                
