 2010 1231 0806  0.3 L   6.787 -73.142136.1  RSN 10 0.3 2.0LRSN                1
 GAP=159        0.59       2.5     4.3  5.1 -0.4552E+01  0.9854E+01 -0.1515E+01E
 Epicentro: LOS SANTOS - SANTANDER                                             3
 ACTION:UP  11-01-14 15:28 OP:pat  STATUS:               ID:20101231080600 L   I
 2010-12-31-0802-37S.COL___135                                                 6
 STAT SP IPHASW D HRMM SECON CODA AMPLIT PERI AZIMU VELO SNR AR TRES W  DIS CAZ7
 BTL  SZ EP        8 6 19.02                             171     0.310   20 316 
 BAR2 SZ IP        8 6 18.89                             170     0.110   22 192 
 BAR2 SZ ES   1    8 6 32.73                             170    -0.4 7   22 192 
 BAR2 SZ I         8 6 35.01        34.8 0.23                            22 192 
 RUS  HZ EP   1    8 6 22.80                             142    -0.2 7   99 176 
 RUS  HN ES   1    8 6 40.89                             142     0.2 7   99 176 
 RUS  HZ I         8 6 42.80        13.5 0.47                            99 176 
 GRA  SZ IP        8 6 24.80                             134     0.010  127  17 
 GRA  SZ ES   1    8 6 43.98                             134     0.1 7  127  17 
 GRA  SZ I         8 6 45.41        14.3 0.34                           127  17 
 OCA  SZ EP   1    8 6 27.52                             127    -0.5 7  162 353 
 OCA  SZ ES   1    8 6 49.67                             127     0.0 7  162 353 
 OCA  SZ I         8 6 56.07        19.1 0.21                           162 353 
 NOR  SZ EP        8 6 35.34                             116    -0.1 8  234 235 
 NOR  SE ES   1    8 7  2.90                             116     0.0 6  234 235 
 CHI  HZ EP   1    8 6 37.21                             115    -0.1 6  247 195 
 CHI  HE ES   2    8 7  6.02                             115    -0.2 4  247 195 
 CHI  HZ I         8 7  9.14         3.0 0.40                           247 195 
 HEL  HZ EP   1    8 6 40.69                             113     0.6 6  272 256 
 HEL  HN ES   1    8 7 10.90                             113    -0.1 6  272 256 
 HEL  HZ I         8 7 18.57         6.8 0.19                           272 256 
 DBB  SZ EP   2    8 6 47.05                             108    -0.4 3  340 274 
 PRA  HZ EP   1    8 6 53.31                             105    -0.1 4  391 210 
                                                                                
