 2015  131 0341 20.8 L   6.751 -73.176145.9  RSN  5 0.2 1.3LRSN                1
 GAP=197        0.50       2.7     3.6  3.9  0.4269E+01  0.7332E+00 -0.1742E+01E
 Epicentro: LOS SANTOS - SANTANDER                                             3
 ACTION:UPD 15-03-02 15:44 OP:nd   STATUS:               ID:20150131034120 L   I
 OLDACT:UP  15-01-31 14:44 OP:cam  STATUS:               ID:20150131033819     3
 OLDACT:REG 15-01-31 13:06 OP:cam  STATUS:               ID:20150131033819     3
 2015-01-31-0338-19M.COL___280                                                 6
 STAT SP IPHASW D HRMM SECON CODA AMPLIT PERI AZIMU VELO AIN AR TRES W  DIS CAZ7
 BAR2 EZ EP     C  341 40.29                             173   -0.0510 17.6 182 
 BAR2 EZ ES        341 55.41                             173   -0.1710 17.6 182 
 BAR2 EZ I         341 56.66         4.2 0.18            173           17.6 182 
 BRR  HZ IP     C  341 42.04                             153    0.0910 71.1 304 
 BRR  HN ES        341 58.75                             153    0.3010 71.1 304 
 BRR  HZ I         342  2.41         4.0 0.54            153           71.1 304 
 RUS  HZ EP        341 44.45                             145    0.2510 95.5 174 
 RUS  HE ES        342  2.32                             145   -0.1310 95.5 174 
 RUS  HE I         342  4.09         2.6 0.20            148           95.5 174 
 PTB  HZ EP        341 47.24                             133   -0.15 9  144 261 
 PTB  HN ES        342  8.08                             133   -0.05 9  144 261 
 PTB  HZ I         342  9.76         2.8 0.62            134            144 261 
 SML  HE ES        342 26.50                             117   -0.19 8  247 337 
                                                                                
