 2013  531 0135 39.9 L   6.780 -73.132139.1  RSN 16 0.5 2.5LRSN                1
 GAP=139        1.20       3.4     4.7  6.3 -0.3489E+01  0.8988E+01  0.2503E+01E
 Epicentro: LOS SANTOS - SANTANDER                                             3
 ACTION:UPD 13-06-20 09:55 OP:ep   STATUS:               ID:20130531013540 L   I
 2013-05-31-0130-00M.COL___261                                                 6
 STAT SP IPHASW D HRMM SECON CODA AMPLIT PERI AZIMU VELO AIN AR TRES W  DIS CAZ7
 BAR2 SZ IP     C  135 58.91                             171    0.2010 21.5 195 
 BAR2 SZ ES        136 12.50                             171   -0.8610 21.5 195 
 BAR2 SZ I         136 15.17        45.8 0.14            172           21.5 195 
 GIR2 SZ IP     D  135 58.92                             166    0.0610 33.7 348 
 GIR2 SZ I         136 15.90        85.8 0.36            162           33.7 348 
 BRR  HZ IP     D  136  0.71                             151    0.2210 73.6 299 
 BRR  HN ES        136 17.29                             151    0.7610 73.6 299 
 BRR  HZ I         136 18.50        88.8 0.32            147           73.6 299 
 PAM  SZ EP     D  136  1.76                             149    0.2910 78.1  38 
 PAM  SN ES        136 18.66                             149    0.3810 78.1  38 
 PAM  SZ I         136 20.85        60.3 0.52            147           78.1  38 
 RUS  HZ IP     D  136  2.87                             143    0.0210 98.3 177 
 RUS  HN ES        136 20.86                             143    0.1310 98.3 177 
 RUS  HZ I         136 22.50        39.0 0.24            143           98.3 177 
 PTB  HZ EP     D  136  5.43                             130   -1.02 9  149 260 
 PTB  HN ES        136 26.27                             130   -0.87 9  149 260 
 PTB  HZ I         136 30.12        43.6 0.16            128            149 260 
 OCA  HZ EP        136  7.30                             128   -0.64 9  163 353 
 OCA  HN ES   2    136 29.10                             128   -0.70 5  163 353 
 OCA  HZ I         136 33.56        48.4 0.54            125            163 353 
 NOR  HZ IP     C  136 15.49                             117    0.22 8  235 235 
 NOR  HN ES        136 42.93                             117    0.09 8  235 235 
 NOR  HZ I         136 47.89        23.1 0.38            115            235 235 
 SML  HZ EP   2    136 15.68                             116   -0.78 4  246 335 
 SML  HN ES        136 45.31                             116    0.34 8  246 335 
 SML  HZ I         136 52.81        66.6 0.10            113            246 335 
 CHI  HZ EP        136 17.57                             116    0.50 8  247 196 
 CHI  HN ES        136 46.19                             116    0.14 8  247 196 
 CHI  HZ I         136 52.96        11.2 0.38            115            247 196 
 HEL  HZ EP        136 19.82                             113   -0.09 8  273 256 
 HEL  HN ES        136 52.01                             113    0.91 8  273 256 
 HEL  HZ I         136 57.23        23.4 0.40            111            273 256 
 URE  HZ EP   4    136 18.85                             112   -2.07 0  286 292 
 URE  HN ES   4    136 50.39                             112   -2.51 0  286 292 
 URE  HZ I         136 59.61        22.8 0.36            110            286 292 
 GUY2CHZ EP   4    136 24.29                             111    1.06 0  301 235 
 GUY2CHN ES   4    136 57.19                             111    0.19 0  301 235 
 GUY2CHZ I         137  6.95        17.0 0.64                           301 235 
 RREF HZ EP   4    136 28.24                             109    2.49 0  322 230 
 RREF HN ES        137  1.61                             109    0.11 7  322 230 
 RREF HZ I         137 11.00        15.2 0.30            108            322 230 
 COD  HZ EP   4    136 26.76                             107   -1.55 0  351 354 
 COD  HN ES   4    137  3.84                             107   -2.21 0  351 354 
 COD  HZ I         137 13.48         5.4 0.66            106            351 354 
 PRA  HZ EP        136 33.12                             105    0.04 6  391 210 
 PRA  HN ES        137 14.18                             105   -0.37 6  391 210 
 PRA  HZ I         137 19.40        14.0 0.28            104            391 210 
                                                                                
