 2017 1231 0532 58.3 L   6.777 -73.151144.5  RSN 11 0.7 1.6LRSN                1
 GAP=151        1.40       4.7     7.2  7.9 -0.1773E+02  0.1197E+02 -0.1602E+01E
 Epicentro: LOS SANTOS - SANTANDER                                             3
 ACTION:UPD 18-01-04 13:26 OP:rebc STATUS:               ID:20171231053258 L   I
 OLDACT:UP  17-12-31 13:51 OP:osc  STATUS:               ID:20171231052501d    3
 OLDACT:UP  17-12-31 13:48 OP:osc  STATUS:               ID:20171231052501d    3
 OLDACT:DUP 17-12-31 13:40 OP:osc  STATUS:               ID:20171231052501d    3
 OLDACT:REG 17-12-31 11:08 OP:osc  STATUS:               ID:20171231052500     3
 2017-12-31-0528-00M.COL___409                                                 6
 STAT SP IPHASW D HRMM SECON CODA AMPLIT PERI AZIMU VELO AIN AR TRES W  DIS CAZ7
 BAR2 EZ EP        533 17.66                             171   -0.0410 20.8 190 
 BAR2 EZ ES        533 33.08                             171    0.2210 20.8 190 
 BAR2 EZ I         533 34.43         6.3 0.20            168           20.8 190 
 PAM  EZ EP        533 20.68                             150    0.1910 79.7  39 
 PAM  EE ES        533 37.42                             150   -0.4010 79.7  39 
 PAM  EZ I         533 39.96         7.0 0.60            151           79.7  39 
 PTB  HZ EP        533 24.86                             132   -0.19 9  147 260 
 PTB  HN ES        533 45.52                             132   -0.41 9  147 260 
 PTB  HZ I         533 48.34         2.2 0.36            129            147 260 
 SPBC HZ EP        533 26.70                             129    0.24 9  161 219 
 SPBC HE ES        533 48.76                             129    0.32 9  161 219 
 SPBC HZ I         533 55.48         5.2 0.22            126            161 219 
 OCA  HZ EP        533 26.49                             129   -0.23 9  163 353 
 OCA  HN ES        533 48.32                             129   -0.58 9  163 353 
 OCA  HZ I         533 52.24        15.2 0.19            128            163 353 
 ZAR  HZ EP   9    533 32.85                             122    2.16 0  205 293 
 ZAR  HE ES        533 57.20                             121   -0.93 9  205 293 
 ZAR  HZ I         534  2.10         4.2 0.26            120            205 293 
 ROSC BZ EP        533 35.44                             117   -0.62 8  250 211 
 ROSC BZ I         533 55.41         3.1 0.35            114            250 211 
 DRL03HZ EP        533 40.71                             113    0.61 7  291 353 
 DRL03HE ES        534 14.56                             113    1.84 7  291 353 
 GUY2CHZ EP   3    533 43.84                             112    2.23 2  299 235 
 GUY2CHN ES        534 15.77                             112    0.36 7  299 235 
 GUY2CHZ I         534 22.76         1.9 0.32                           299 235 
 PRA  HZ EP        533 51.01                             106   -0.46 6  390 210 
 PRA  HE ES        534 33.70                             106    0.75 6  390 210 
 PRA  HZ I         534 39.93         1.6 0.32            105            390 210 
 SJC  HZ EP        533 52.38                             105   -1.63 6  411 327 
 SJC  HN ES   4    534 34.57                             105   -2.91 0  411 327 
                                                                                
