 2012 1031 0556 12.2 L   6.787 -73.086137.9  RSN  4 0.3 1.7LRSN                1
 GAP=243        0.72       8.2    10.3  6.7  0.6746E+02 -0.6620E+00 -0.1215E+02E
 Epicentro: LOS SANTOS - SANTANDER                                             3
 ACTION:UPD 12-11-22 17:06 OP:ep   STATUS:               ID:20121031055613dL   I
 2012-10-31-0550-00M.COL___231                                                 6
 STAT SP IPHASW D HRMM SECON CODA AMPLIT PERI AZIMU VELO AIN AR TRES W  DIS CAZ7
 BAR2 SZ EP        556 30.77                             169   -0.1410 24.0 206 
 BAR2 SZ ES        556 45.34                             169   -0.1510 24.0 206 
 BRR  HZ EP        556 32.79                             149   -0.1210 77.8 297 
 BRR  HN ES   1    556 49.58                             149    0.52 7 77.8 297 
 BRR  HN I         556 53.42        10.3 0.16                          77.8 297 
 RUS  HZ EP   1    556 35.09                             142    0.02 7 98.9 180 
 RUS  HN ES        556 52.99                             142    0.0910 98.9 180 
 RUS  HN I         556 54.11         5.0 0.24                          98.9 180 
 ZAR  HZ EP   1    556 45.53                             120    0.67 6  211 292 
 ZAR  HN ES   1    557  9.72                             120   -0.61 6  211 292 
 ZAR  HN I         557 11.06         5.4 0.12                           211 292 
                                                                                
