 2017 1031 0330 18.4 L   6.811 -73.110144.3  RSN  6 0.6 1.3LRSN                1
 GAP=242        1.02       6.1     8.3  7.2  0.1113E+02  0.1526E+02  0.7257E+01E
 Epicentro: LOS SANTOS - SANTANDER                                             3
 ACTION:UPD 17-11-07 19:39 OP:rebc STATUS:               ID:20171031033018 L   I
 OLDACT:UP  17-10-31 15:31 OP:dani STATUS:               ID:20171031032736     3
 OLDACT:REG 17-10-31 12:53 OP:dani STATUS:               ID:20171031032736     3
 2017-10-31-0328-00M.COL___432                                                 6
 STAT SP IPHASW D HRMM SECON CODA AMPLIT PERI AZIMU VELO AIN AR TRES W  DIS CAZ7
 BAR2 EZ EP        330 37.78                             170   -0.1010 25.4 198 
 BAR2 EZ ES        330 53.22                             170    0.1310 25.4 198 
 BAR2 EZ I         330 54.78         4.4 0.56            167           25.4 198 
 BRR  HZ EP        330 39.70                             151    0.1610 74.2 296 
 BRR  HE ES        330 56.27                             151    0.2210 74.2 296 
 BRR  HZ I         330 58.17         6.1 0.31            150           74.2 296 
 RUS  HZ EP        330 42.16                             144    0.1110  102 178 
 RUS  HE ES        331  0.53                             144    0.0010  102 178 
 RUS  HZ I         331  3.77         1.3 0.30            144            102 178 
 PTB  HZ EP   1    330 44.74                             131   -0.86 7  152 259 
 PTB  HN ES   3    331  4.70                             131   -2.14 2  152 259 
 PTB  HZ I         331 11.79         1.8 0.17            131            152 259 
 SPBC HZ EP        330 46.76                             128   -0.33 9  167 220 
 SPBC HE ES        331  9.07                             128   -0.41 9  167 220 
 SPBC HZ I         331 10.58         3.1 0.20            129            167 220 
 GUY2CHZ EP        331  3.40                             112    1.04 7  305 235 
 GUY2CHE ES   3    331 39.31                             112    2.65 2  305 235 
 GUY2CHZ I         331 45.90         1.3 0.58                           305 235 
                                                                                
