 2016  131 0815 34.9 L   6.823 -73.100151.8  RSN 27 0.5 2.5LRSN                1
 GAP= 73        1.11       2.5     2.8  4.5 -0.1854E+01  0.7626E+00 -0.3840E+00E
 Epicentro: LOS SANTOS - SANTANDER                                             3
 ACTION:UPD 16-03-09 23:29 OP:cam  STATUS:               ID:20160131081534 L   I
 OLDACT:REG 16-01-31 14:34 OP:ak   STATUS:               ID:20160131081200     3
 2016-01-31-0811-59S.COL___229                                                 6
 STAT SP IPHASW D HRMM SECON CODA AMPLIT PERI AZIMU VELO AIN AR TRES W  DIS CAZ7
 BAR2 EZ EP     D  815 55.63                             169    0.2810 27.1 200 
 BAR2 EZ ES        816 10.82                             169   -0.4710 27.1 200 
 BAR2 EZ I         816 13.53        61.7 0.34            168           27.1 200 
 PAM  EZ EP     C  815 58.40                             153    0.9110 72.2  38 
 PAM  EN ES        816 15.84                             153    0.7510 72.2  38 
 PAM  EZ I         816 20.36        23.8 0.30            157           72.2  38 
 RUS  HZ EP        815 59.51                             144    0.0810  103 179 
 RUS  HZ E         816 15.53                                            103 179 
 RUS  HN ES        816 18.14                             144   -0.4110  103 179 
 RUS  HZ I         816 19.83        25.9 0.20            146            103 179 
 PTB  HZ EP        816  2.23                             132   -0.64 9  153 258 
 PTB  HN ES        816 23.87                             132   -0.81 9  153 258 
 PTB  HZ I         816 31.01        49.9 0.38            132            153 258 
 OCA  HZ EP        816  4.02                             131    0.49 9  158 351 
 OCA  HN ES        816 26.25                             131    0.40 9  158 351 
 OCA  HZ I         816 31.25        60.0 0.22            133            158 351 
 SPBC HZ EP        816  4.48                             129    0.11 9  168 220 
 SPBC HN ES        816 27.21                             129   -0.14 9  168 220 
 SPBC HZ I         816 34.54        53.6 0.36            130            168 220 
 ZAR  HZ EP        816  7.87                             123   -0.28 8  208 291 
 ZAR  HN ES        816 33.96                             123   -0.10 8  208 291 
 ZAR  HZ I         816 39.96        37.7 0.30            124            208 291 
 NOR  HZ EP        816 11.55                             119   -0.05 8  240 235 
 NOR  HN ES        816 40.15                             119   -0.06 8  240 235 
 NOR  HZ I         816 43.30        33.2 0.32            120            240 235 
 SML  HZ EP        816 11.83                             119   -0.04 8  244 334 
 SML  HN ES        816 40.47                             119   -0.23 8  244 334 
 SML  HZ I         816 45.44        30.4 0.22            120            244 334 
 CHI  HZ EP        816 13.65                             118    0.28 8  252 196 
 CHI  HN ES        816 42.78                             118   -0.58 8  252 196 
 CHI  HZ I         816 51.74        10.6 0.54            119            252 196 
 ROSC BZ EP   9    816 15.34                             117    1.45 0  258 212 
 ROSC BE ES        816 46.40                                    0.66 8  258 212 
 ROSC BZ I         816 53.37        37.0 0.40            119            258 212 
 HEL  HZ EP        816 16.82                             115    0.77 7  278 256 
 HEL  HN ES        816 49.09                             115    0.95 7  278 256 
 HEL  HZ I         816 54.79        19.8 0.34            116            278 256 
 URE  HZ EP   9    816 14.95                             114   -1.76 0  288 291 
 URE  HN ES        816 47.09                                   -0.45 7  288 291 
 URE  HZ I         816 56.25        14.4 0.18            115            288 291 
 SOCV BZ EP        816 17.15                             114   -0.46 7  296  57 
 SOCV BE ES   4    816 49.14                             114   -1.78 0  296  57 
 GUY2CHZ EP        816 19.89                             113    0.45 7  307 235 
 GUY2CHN ES        816 54.94                             113    0.77 7  307 235 
 GUY2CHZ I         816 57.40         9.4 0.34                           307 235 
 PTGC HZ EP        816 18.59                             113   -0.53 7  309 160 
 PTGC HN ES   4    816 51.69                             113   -1.90 0  309 160 
 LL6C HZ EP        816 20.74                             112    0.12 7  323 357 
 LL6C HN ES        816 55.15                             112   -1.11 7  323 357 
 LL6C HZ I         817  5.72         5.2 0.19            113            323 357 
 ELA  HZ EP   9    816 25.00                             111    2.34 0  335 230 
 ELA  HE ES        817  3.02                                    0.78 7  335 230 
 ELA  HZ I         817 15.56        28.1 0.88            112            335 230 
 CBOC HZ EP        816 22.85                             111    0.12 7  339 252 
 CBOC HE ES        816 59.29                             111   -0.73 7  339 252 
 CBOC HZ I         817  3.79         6.9 0.22            112            339 252 
 DBB  EZ EP        816 22.75                             110   -0.45 7  344 274 
 DBB  EZ ES        817  0.44                             110   -0.43 7  344 274 
 DBB  EZ I         817  2.11         7.7 0.52            111            344 274 
 SDV  BZ EP        816 25.02                             110    0.46 6  355  50 
 SDV  B1 ES   4    817  1.60                             110   -1.67 0  355  50 
 SDV  BZ I         817  4.54         4.1 0.40            112            355  50 
 MON  HZ EP   9    816 22.42                             109   -2.02 0  356 308 
 MON  HN ES        817  0.78                                   -0.27 6  356 308 
 MON  HZ I         817  3.69         6.7 0.46            111            356 308 
 ANIL HZ EP   1    816 26.48                             109    0.90 5  363 225 
 ANIL HN ES   4    817  7.32                             109    2.22 0  363 225 
 ELOV BZ EP        816 29.33                             107   -0.21 6  400  87 
 ELOV BN ES        817 11.52                             107   -0.62 6  400  87 
 ORTC HZ EP        816 29.62                             107   -0.02 6  401 217 
 ORTC HE ES        817 12.69                             107    0.37 6  401 217 
 ORTC HZ I         817 19.07        13.1 0.72            108            401 217 
 PAL  HZ EP        816 30.78                             107   -0.17 6  411 239 
 PAL  HN ES        817 14.89                             107    0.24 6  411 239 
 PAL  HZ I         817 24.42         6.2 0.32            108            411 239 
 CRJC HZ EP        816 36.61                             104   -0.64 5  465   3 
 CRJC HE ES   4    817 23.95                             104   -1.92 0  465   3 
 CRJC HZ I         817 28.05         6.9 0.20            106            465   3 
 MACC HZ EP   4    816 42.28                             102   -1.89 0  524 189 
 MACC HN ES   4    817 33.29                             102   -4.91 0  524 189 
                                                                                
