 2015  131 0545 32.6 L   6.559 -73.455117.4  RSN 10 0.5 1.7LRSN                1
 GAP= 68        1.23       3.3     4.1  6.7 -0.8637E+00  0.5519E+01 -0.3929E+01E
 Epicentro: HATO - SANTANDER                                                   3
 ACTION:UPD 15-03-02 15:44 OP:nd   STATUS:               ID:20150131054532 L   I
 OLDACT:UP  15-01-31 15:11 OP:cam  STATUS:               ID:20150131053813d    3
 OLDACT:DUP 15-01-31 15:06 OP:cam  STATUS:               ID:20150131053813d    3
 OLDACT:UP  15-01-31 15:05 OP:cam  STATUS:               ID:20150131053812     3
 OLDACT:REG 15-01-31 13:10 OP:cam  STATUS:               ID:20150131053812     3
 2015-01-31-0538-12M.COL___271                                                 6
 STAT SP IPHASW D HRMM SECON CODA AMPLIT PERI AZIMU VELO AIN AR TRES W  DIS CAZ7
 BAR2 EZ EP        545 49.22                             164    0.1510 30.4  83 
 BAR2 EZ ES        546  1.62                             164   -0.2610 30.4  83 
 BAR2 EZ I         546  3.37        36.4 0.62            168           30.4  83 
 BRR  HZ EP     C  545 50.55                             148    0.0310 67.0 335 
 BRR  HN ES        546  4.96                             148    0.4910 67.0 335 
 BRR  HZ I         546  6.74         9.8 0.18            148           67.0 335 
 RUS  HZ EP        545 52.58                             142    0.1510 84.4 151 
 RUS  HN ES        546  8.11                             142    0.2410 84.4 151 
 RUS  HZ I         546  9.28         8.9 0.20            146           84.4 151 
 PTB  HZ EP        545 53.16                             133   -0.7810  111 269 
 PTB  HN ES        546  9.63                             133   -0.9210  111 269 
 PTB  HZ I         546 13.65         8.1 0.14            134            111 269 
 PAM  SZ EP        545 55.20                             131   -0.2310  120  44 
 PAM  SN ES        546 13.15                             131   -0.0510  120  44 
 PAM  SZ I         546 16.37         6.0 0.22            134            120  44 
 SPBC HZ EP        545 55.08                             131    0.0910  121 214 
 SPBC HN ES        546 12.40                             131   -0.0310  121 214 
 SPBC HZ I         546 14.26         9.4 0.22            132            121 214 
 ZAR  HZ EP        546  1.88                             118    0.42 9  186 304 
 ZAR  HE ES        546 24.95                             118    1.00 9  186 304 
 ZAR  HN I         546 32.36        12.2 0.14            119            186 304 
 OCA  HZ EP        546  0.82                             118   -0.85 9  186   5 
 OCA  HE ES        546 24.63                             118    0.31 9  186   5 
 CHI  HZ EP        546  5.95                             114    0.76 8  215 188 
 CHI  HZ I         546  6.76         3.0 0.16            116            215 188 
 SML  HZ EP        546  9.07                             110   -0.31 8  257 345 
 SML  HE ES        546 38.14                             110    0.10 8  257 345 
                                                                                
