 2013 1231 0713  7.9 L   6.936 -73.380118.6  RSN  8 0.6 1.4LRSN                1
 GAP=147        1.53       4.5     7.0  9.3 -0.3781E+01  0.1246E+02  0.5096E+01E
 Epicentro: SAN VICENTE DE CHUCURI - SANTANDER                                 3
 ACTION:UPD 14-01-13 10:22 OP:ep   STATUS:               ID:20131231071307 L   I
 OLDACT:REG 13-12-31 08:49 OP:stll STATUS:               ID:20131231070816     3
 2013-12-31-0708-16M.COL___231                                                 6
 STAT SP IPHASW D HRMM SECON CODA AMPLIT PERI AZIMU VELO AIN AR TRES W  DIS CAZ7
 BRR  HZ EP        713 24.79                             160    0.2310 41.2 297 
 BRR  HN ES        713 37.94                             160    0.4110 41.2 297 
 BRR  HZ I         713 38.68         4.5 0.14            160           41.2 297 
 BAR2 SZ EP        713 25.17                             159    0.1410 43.9 150 
 BAR2 SZ ES        713 38.74                             159    0.3810 43.9 150 
 BAR2 SZ I         713 39.35        13.7 0.30            158           43.9 150 
 RUS  HZ EP        713 30.30                             132   -0.5110  120 164 
 RUS  HN ES        713 48.02                             132   -0.6410  120 164 
 RUS  HZ I         713 49.78         1.7 0.10            133            120 164 
 PTB  HZ EP        713 30.01                             130   -0.7910  127 250 
 PTB  HN ES        713 47.70                             130   -0.9410  127 250 
 OCA  HZ EP        713 32.13                             126   -0.53 9  144   3 
 OCA  HN ES        713 52.17                             126    0.22 9  144   3 
 SPBC HZ EP        713 35.24                             122    0.93 9  161 208 
 SPBC HN ES        713 55.52                             122    0.63 9  161 208 
 SPBC HZ I         714  0.79         5.4 0.26            123            161 208 
 CHI  HN ES        714 14.27                             110   -0.28 8  258 189 
 GUY2CHZ EP        713 50.50                             107    1.37 7  290 229 
 GUY2CHN ES        714 21.12                             107   -0.14 7  290 229 
 GUY2CHZ I         714 28.58         2.0 0.52                           290 229 
                                                                                
