 2017 1031 0210 11.8 L   6.840 -73.125143.1  RSN 13 0.7 1.9LRSN                1
 GAP=112        1.67       5.3     5.7  8.5  0.3795E+01  0.1371E+02  0.1211E+02E
 Epicentro: LOS SANTOS - SANTANDER                                             3
 ACTION:UPD 17-11-07 19:39 OP:rebc STATUS:               ID:20171031021011 L   I
 OLDACT:UP  17-10-31 15:01 OP:dani STATUS:               ID:20171031020743     3
 OLDACT:REG 17-10-31 12:46 OP:dani STATUS:               ID:20171031020743     3
 2017-10-31-0208-00M.COL___444                                                 6
 STAT SP IPHASW D HRMM SECON CODA AMPLIT PERI AZIMU VELO AIN AR TRES W  DIS CAZ7
 BAR2 EZ EP        210 31.05                             169   -0.1310 28.1 193 
 BAR2 EZ ES        210 45.73                             169   -0.6010 28.1 193 
 BAR2 EZ I         210 47.22        28.7 0.44            166           28.1 193 
 BRR  HZ EP        210 32.88                             152    0.2510 71.3 295 
 BRR  HE ES        210 49.51                             152    0.6110 71.3 295 
 BRR  HZ I         210 52.44        12.8 0.24            149           71.3 295 
 PAM  EZ EP        210 34.02                             151    0.6110 72.5  40 
 PAM  EN ES        210 50.68                             151    0.3910 72.5  40 
 PAM  EZ I         210 51.86         8.1 0.38            152           72.5  40 
 RUS  HZ EP        210 35.11                             142   -0.4610  105 177 
 RUS  HN ES        210 53.71                             142   -0.4310  105 177 
 RUS  HZ I         210 55.21         5.7 0.22            139            105 177 
 PTB  HZ EP        210 38.01                             131   -0.79 9  151 257 
 PTB  HN ES        210 58.35                             131   -1.55 9  151 257 
 PTB  HZ I         211  1.73         8.2 0.22            127            151 257 
 SPBC HZ EP        210 40.09                             127   -0.44 9  168 219 
 SPBC HZ I         211  9.79        12.4 0.22            124            168 219 
 YPLC HZ EP     C  210 41.64                             125   -0.00 9  180 153 
 YPLC HN ES        211  5.57                             125    0.62 9  180 153 
 YPLC HZ I         211  6.25        10.3 0.26            123            180 153 
 ZAR  HZ EP        210 44.38                             121    0.29 9  205 291 
 ZAR  HN ES        211 10.01                             121    0.71 9  205 291 
 ZAR  HZ I         211 15.35         8.8 0.60            119            205 291 
 NOR  HZ EP        210 47.13                             117   -0.69 8  239 234 
 NOR  HN ES        211 15.74                             117   -0.20 8  239 234 
 NOR  HZ I         211 19.09         6.3 0.50            114            239 234 
 CHI  HZ EP        210 49.48                             116   -0.37 8  254 195 
 CHI  HE ES        211 19.98                             116    0.43 8  254 195 
 CHI  HZ I         211 24.70         3.0 0.20            113            254 195 
 GUY2CHZ EP        210 56.86                             111    1.11 7  306 234 
 GUY2CHE ES        211 32.15                             111    2.09 7  306 234 
 GUY2CHZ I         211 38.53         3.6 0.44                           306 234 
 PRA  HZ EP        211  5.53                             106   -0.24 6  397 210 
 PRA  HN ES        211 48.51                             106    0.60 6  397 210 
 PRA  HZ I         211 54.26         3.3 0.30            104            397 210 
 SJC  HZ EP        211  6.05                             105   -0.90 6  407 326 
                                                                                
