 2016  731 0650 14.4 L   6.794 -73.236121.0  RSN  6 0.4 1.5LRSN                1
 GAP=121        1.07       4.2     4.9  6.9 -0.1875E+01  0.1094E+02 -0.1061E+01E
 Epicentro: ZAPATOCA - SANTANDER                                               3
 ACTION:UPD 17-03-29 16:57 OP:lp   STATUS:               ID:20160731065014 L   I
 OLDACT:REG 16-07-31 12:59 OP:edw  STATUS:               ID:20160731064732     3
 2016-07-31-0648-00M.COL___347                                                 6
 STAT SP IPHASW D HRMM SECON CODA AMPLIT PERI AZIMU VELO AIN AR TRES W  DIS CAZ7
 BAR2 EZ EP        650 30.53                             169   -0.5410 23.1 165 
 BAR2 EZ ES        650 43.91                             169   -0.1610 23.1 165 
 BRR  HZ EP   9    650 30.98                             151   -1.46 0 63.0 303 
 BRR  HN ES        650 45.06                                    0.0210 63.0 303 
 BRR  HZ I         650 46.03        10.2 0.12            151           63.0 303 
 PAM  EZ EP        650 34.27                             143   -0.3110 84.5  44 
 PAM  EN ES        650 50.90                             143    0.6010 84.5  44 
 PAM  EZ I         650 52.39         7.5 0.24            145           84.5  44 
 RUS  HZ EP        650 35.34                             138   -0.5310  101 170 
 RUS  HN ES        650 52.78                             138    0.1810  101 170 
 RUS  HZ I         650 54.12         2.5 0.24            138            101 170 
 SPBC HZ EP        650 41.15                             124    0.68 9  157 216 
 SPBC HN ES        651  0.97                             124    0.18 9  157 216 
 SPBC HZ I         651  4.70         3.1 0.22            124            157 216 
 ZAR  HZ EP        650 44.81                             118    0.40 9  195 293 
 ZAR  HN ES        651  7.44                             118   -0.37 9  195 293 
 ZAR  HZ I         651  9.96         5.3 0.30            118            195 293 
                                                                                
