 2016 1231 0420 28.2 L   6.756 -73.226152.7  RSN  4 0.4 1.1LRSN                1
 GAP=225        0.84       7.8     7.5  8.7  0.4283E+02  0.5288E+01  0.4422E+01E
 Epicentro: ZAPATOCA - SANTANDER                                               3
 ACTION:UPD 17-01-11 20:20 OP:rebc STATUS:               ID:20161231042028 L   I
 OLDACT:REG 16-12-31 12:23 OP:dnl  STATUS:               ID:20161231041743     3
 2016-12-31-0418-00M.COL___368                                                 6
 STAT SP IPHASW D HRMM SECON CODA AMPLIT PERI AZIMU VELO AIN AR TRES W  DIS CAZ7
 BRR  HE EP   2    420 50.21                             155    0.32 5 66.3 306 
 BRR  HN ES        421  6.99                             155    0.2210 66.3 306 
 RUS  HZ EP        420 52.45                             146    0.0310 96.8 171 
 RUS  HN ES        421 10.95                             146   -0.3310 96.8 171 
 RUS  HZ I         421 12.34         1.2 0.46            144           96.8 171 
 PTB  HZ EP        420 55.18                             136    0.23 9  138 260 
 PTB  HN ES        421 16.12                             136    0.34 9  138 260 
 PTB  HZ I         421 20.62         1.4 0.26            131            138 260 
 ZAR  HZ EP   4    421  2.55                             125    2.03 0  198 294 
 ZAR  HN ES        421 25.01                             125   -0.69 9  198 294 
 ZAR  HZ I         421 31.27         1.9 0.40            123            198 294 
                                                                                
