 2013  331 0010  2.8 L   6.790 -73.142146.1  RSN 10 0.5 2.1LRSN                1
 GAP=137        0.97       4.1     4.6  7.0 -0.2778E+01  0.9007E+01 -0.2169E+01E
 Epicentro: LOS SANTOS - SANTANDER                                             3
 ACTION:UPD 13-04-09 14:05 OP:ep   STATUS:               ID:20130331001002 L   I
 2013-03-31-0010-00M.COL___245                                                 6
 STAT SP IPHASW D HRMM SECON CODA AMPLIT PERI AZIMU VELO AIN AR TRES W  DIS CAZ7
 BAR2 SZ EP        010 22.33                             171   -0.0810 22.3 192 
 BAR2 SZ ES   1    010 37.50                             171   -0.24 7 22.3 192 
 BAR2 SZ I         010 38.32        46.0 0.28            170           22.3 192 
 BRR  HZ IP     C  010 24.32                             152    0.3210 72.1 299 
 BRR  HN ES   1    010 41.40                             152    0.84 7 72.1 299 
 BRR  HZ I         010 42.35        29.9 0.18            148           72.1 299 
 PAM  SZ IP     C  010 25.30                             150    0.2510 78.0  39 
 PAM  SN ES   1    010 42.50                             150    0.07 7 78.0  39 
 PAM  SZ I         010 44.10        19.8 0.72            153           78.0  39 
 RUS  HZ EP        010 26.35                             144   -0.1210 99.5 176 
 RUS  HN ES   1    010 44.94                             144   -0.01 7 99.5 176 
 RUS  HZ I         010 47.56         6.6 0.22            147           99.5 176 
 PTB  HZ EP        010 29.03                             132   -0.75 9  148 259 
 PTB  HN ES   1    010 50.19                             132   -0.65 7  148 259 
 PTB  HZ I         010 54.49        16.9 0.42            131            148 259 
 OCA  HZ EP   1    010 31.59                             129    0.39 7  161 353 
 OCA  HE ES   1    010 52.68                             129   -0.71 7  161 353 
 OCA  HZ I         010 55.89        20.4 0.28            130            161 353 
 ZAR  HZ EP   1    010 36.27                             122    0.96 6  205 292 
 ZAR  HN ES   1    011  1.12                             122    0.42 6  205 292 
 ZAR  HZ I         011  7.25        14.6 0.34            122            205 292 
 NOR  HZ EP   1    010 39.05                             119    0.57 6  234 235 
 NOR  HN ES   1    011  6.09                             119   -0.25 6  234 235 
 NOR  HZ I         011  9.48        11.2 0.18            119            234 235 
 SML  HZ EP   1    010 38.91                             117   -0.62 6  245 335 
 SML  HN ES   2    011  7.44                             117   -0.77 4  245 335 
 SML  HZ I         011 15.80        12.7 0.26            118            245 335 
 HEL  HZ EP   2    010 43.68                             115    0.67 4  272 256 
 HEL  HN ES   1    011 14.17                             115   -0.23 6  272 256 
 HEL  HZ I         011 22.15         6.6 0.56            115            272 256 
                                                                                
