 2014  731 0959 40.8 L   6.388 -73.696 89.5  RSN 23 0.4 2.4LRSN                1
 GAP= 61        0.99       1.7     2.3  5.0 -0.9639E+00  0.2780E+01  0.1062E+01E
 Epicentro: SANTA HELENA DEL OPON - SANTANDER                                  3
 ACTION:UPD 15-03-16 20:48 OP:nd   STATUS:               ID:20140731095940 L   I
 OLDACT:UP  14-07-31 17:45 OP:spq  STATUS:               ID:20140731095745     3
 OLDACT:REG 14-07-31 17:12 OP:spq  STATUS:               ID:20140731095745     3
 2014-07-31-0957-45M.COL___260                                                 6
 STAT SP IPHASW D HRMM SECON CODA AMPLIT PERI AZIMU VELO AIN AR TRES W  DIS CAZ7
 BAR2 SZ IP     C  959 56.75                             143    0.9410 61.1  68 
 BAR2 SZ ES   1   10 0  7.46                             143   -0.04 7 61.1  68 
 BRR  HZ IP     C  959 57.68                             135    0.7110 79.5 359 
 BRR  HN ES       10 0  9.49                             135   -0.0710 79.5 359 
 BRR  HZ I        10 0 18.22        46.0 0.14            131           79.5 359 
 PTB  HZ IP     C  959 57.34                             133   -0.2110 85.8 281 
 PTB  HE ES       10 0 10.10                             133   -0.5010 85.8 281 
 PTB  HZ I        10 0 11.43       146.3 0.14            127           85.8 281 
 RUS  HZ EP        959 58.48                             133    0.1610 87.2 129 
 RUS  HE ES   1   10 0 11.48                             133   -0.50 7 87.2 129 
 RUS  HZ I        10 0 13.60        36.2 0.26            128           87.2 129 
 SPBC HZ IP     D  959 58.53                             131    0.3610 91.5 207 
 SPBC HN ES       10 0 12.08                             131    0.3710 91.5 207 
 SPBC HZ I        10 0 14.49        63.4 0.26            125           91.5 207 
 PAM  SE ES       10 0 23.40                             116   -0.47 9  152  46 
 PAM  SZ I        10 0 26.17        31.6 0.16            112            152  46 
 NOR  HZ EP       10 0  4.76                             115   -0.41 9  159 235 
 NOR  HE ES       10 0 24.19                             115    0.03 9  159 235 
 NOR  HZ I        10 0 27.57        37.0 0.24            110            159 235 
 ZAR  HZ EP       10 0  7.76                             112    0.56 9  177 314 
 ZAR  HE ES       10 0 27.91                             112    0.13 9  177 314 
 ZAR  HZ I        10 0 32.90        59.9 0.24            108            177 314 
 ROSC BN ES       10 0 30.04                             111   -0.13 9  185 202 
 ROSC BZ I        10 0 41.08        15.0 0.35            107            185 202 
 CHI  HZ EP       10 0  9.43                             110   -0.28 9  195 181 
 CHI  HN ES       10 0 32.48                             110    0.23 9  195 181 
 CHI  HZ I        10 0 39.13        15.7 0.30            106            195 181 
 HEL  HZ EP       10 0 10.96                             109    0.21 9  204 264 
 HEL  HE ES       10 0 33.73                             109   -0.38 9  204 264 
 HEL  HZ I        10 0 37.87        39.0 0.32            105            204 264 
 OCA  HZ EP       10 0 10.42                             108   -0.63 8  209  11 
 OCA  HE ES       10 0 34.35                             108   -0.28 8  209  11 
 OCA  HZ I        10 0 41.21        28.2 0.16            105            209  11 
 GUY2CHZ EP       10 0 13.21                             107   -0.17 8  225 235 
 GUY2CHE ES       10 0 38.60                             107   -0.19 8  225 235 
 GUY2CHZ I        10 0 45.12        13.7 0.24                           225 235 
 RREF HZ EP       10 0 16.44                             106    0.40 8  246 228 
 RREF HN ES       10 0 43.69                             106    0.17 8  246 228 
 RREF HZ I        10 0 49.19        13.6 0.20            102            246 228 
 VIL  SZ EP   1   10 0 16.09                             105   -0.01 6  252 180 
 VIL  SE ES       10 0 42.87                             105   -0.75 8  252 180 
 VIL  SZ I        10 0 47.98        48.1 0.48            102            252 180 
 URE  HZ EP   1   10 0 15.22                             105   -0.86 6  253 307 
 URE  HN ES   4   10 0 42.21                             105   -1.38 0  253 307 
 URE  HZ I        10 0 52.56        25.1 0.34            102            253 307 
 CBOC HZ EP       10 0 18.09                             104    0.61 8  263 257 
 CBOC HN ES       10 0 46.32                             104    0.24 8  263 257 
 CBOC HZ I        10 0 55.66         7.5 0.28            101            263 257 
 TOL  SZ EP       10 0 18.48                             104    0.11 8  269 222 
 TOL  SE ES       10 0 47.26                             104   -0.40 8  269 222 
 TOL  SZ I        10 0 56.60        20.4 0.48            101            269 222 
 SML  HZ EP       10 0 17.64                             104   -0.47 8  270 351 
 SML  HN ES       10 0 47.56                             104    0.35 8  270 351 
 SML  HZ I        10 0 51.63        33.6 0.09            101            270 351 
 ANIL HZ EP   1   10 0 19.71                             103   -0.27 6  282 222 
 ANIL HE ES       10 0 49.93                             103   -0.61 7  282 222 
 ANIL HZ I        10 0 57.91        27.2 0.28            100            282 222 
 DBB  SZ ES   4   10 0 48.07                             103   -2.86 0  287 284 
 PTGC HZ EP   4   10 0 20.06                             102   -1.39 0  298 144 
 PTGC HN ES   4   10 0 49.87                             102   -3.27 0  298 144 
 PTGC HZ I    4   10 0 52.55        21.6 0.30            100            298 144 
 ORTC HZ EP       10 0 25.06                             101    0.43 7  324 212 
 PRA  HZ EP       10 0 24.46                             101   -0.21 7  324 204 
 PRA  HZ I        10 1  8.72         9.4 0.32             99            324 204 
 ORTC HN ES       10 0 59.53                             101    0.72 7  324 212 
 ORTC HZ I        10 1  5.67         8.2 0.20             99            324 212 
 PRA  HE ES       10 0 58.86                             101   -0.01 7  324 204 
 SJC  HZ EP   4   10 0 35.20                              98   -1.32 0  421 337 
 SJC  HE ES   4   10 1 17.13                              98   -2.83 0  421 337 
 SJC  HZ I        10 1 20.62         8.4 0.50             96            421 337 
                                                                                
