 2017  331 0729 36.7 L   6.722 -73.176148.0  RSN  5 0.4 1.3LRSN                1
 GAP=228        0.87       6.7     6.2  6.8  0.2552E+02  0.6066E+01 -0.8665E+00E
 Epicentro: VILLANUEVA - SANTANDER                                             3
 ACTION:UPD 17-05-25 18:47 OP:jn   STATUS:               ID:20170331072936 L   I
 OLDACT:REG 17-03-31 13:13 OP:ar   STATUS:               ID:20170331072739     3
 2017-03-31-0728-00M.COL___343                                                 6
 STAT SP IPHASW D HRMM SECON CODA AMPLIT PERI AZIMU VELO AIN AR TRES W  DIS CAZ7
 BAR2 EZ EP        729 56.29                             174   -0.1110 14.4 183 
 BAR2 EZ ES        730 11.38                             174   -0.4310 14.4 183 
 BAR2 EZ I         730 12.60         9.5 0.82            172           14.4 183 
 BRR  HZ EP        729 58.05                             152   -0.0910 72.9 306 
 BRR  HN ES        730 15.22                             152    0.3210 72.9 306 
 BRR  HZ I         730 15.78         4.8 0.54            152           72.9 306 
 RUS  HZ EP        730  0.06                             147    0.0110 92.3 174 
 RUS  HN ES        730 18.81                             147    0.5110 92.3 174 
 RUS  HZ I         730 19.25         1.7 0.20            146           92.3 174 
 PTB  HZ EP        730  2.94                             134   -0.44 9  143 262 
 PTB  HN ES        730 23.97                             134   -0.25 9  143 262 
 PTB  HZ I         730 27.08         2.2 0.20            133            143 262 
 ZAR  HZ EP   2    730 10.23                             123    0.96 4  204 295 
 ZAR  HE ES        730 35.03                             123    0.31 9  204 295 
                                                                                
