 2014 1231 0406 38.8 L   6.813 -73.154149.7  RSN 10 0.5 1.9LRSN                1
 GAP= 70        1.37       4.3     4.5  8.2  0.3182E+01 -0.1054E+01 -0.8530E+01E
 Epicentro: LOS SANTOS - SANTANDER                                             3
 ACTION:UPD 15-02-10 17:08 OP:nd   STATUS:               ID:20141231040638 L   I
 OLDACT:DUP 14-12-31 17:06 OP:stll STATUS:               ID:20141231035746d    3
 2014-12-31-0357-45M.COL___268                                                 6
 STAT SP IPHASW D HRMM SECON CODA AMPLIT PERI AZIMU VELO AIN AR TRES W  DIS CAZ7
 BAR2 EZ EP        4 6 58.89                             170   -0.0810 24.6 187 
 BAR2 EZ ES        4 7 13.94                             170   -0.7210 24.6 187 
 BAR2 EZ I         4 7 15.15        14.5 0.22            173           24.6 187 
 BRR  HZ EP        4 7  0.76                             154    0.4310 69.7 298 
 BRR  HN ES        4 7 17.93                             154    0.8410 69.7 298 
 BRR  HZ I         4 7 19.12         9.4 0.12            151           69.7 298 
 PAM  SZ EP        4 7  1.91                             152    0.4710 76.9  41 
 PAM  SZ I         4 7  2.24        13.5 0.16            151           76.9  41 
 RUS  HZ EP        4 7  3.23                             144    0.1510  102 176 
 RUS  HN ES        4 7 21.87                             144   -0.1210  102 176 
 RUS  HZ I         4 7 22.65         7.5 0.26            148            102 176 
 PTB  HZ EP        4 7  5.79                             133   -0.29 9  147 258 
 PTB  HN ES        4 7 27.05                             133   -0.27 9  147 258 
 PTB  HZ I         4 7 28.84         9.3 0.14            133            147 258 
 TAM  HZ EP        4 7  7.37                             131    0.43 9  156 105 
 TAM  HZ I         4 7  7.60         6.7 0.14            134            156 105 
 TAM  HN ES        4 7 29.08                             131    0.22 9  156 105 
 OCA  HZ EP        4 7  5.87                             131   -1.44 9  159 353 
 OCA  HN ES        4 7 28.86                             131   -0.66 9  159 353 
 OCA  HZ I         4 7 37.42         7.4 0.22            130            159 353 
 SPBC HZ EP        4 7  7.46                             130   -0.23 9  164 218 
 SPBC HE ES        4 7 30.43                             130    0.23 9  164 218 
 SPBC HZ I         4 7 34.63        12.8 0.10            132            164 218 
 ZAR  HZ EP        4 7 11.48                             123    0.08 9  203 292 
 ZAR  HN ES        4 7 36.86                             123    0.06 9  203 292 
 ZAR  HZ I         4 7 44.09         6.2 0.20            123            203 292 
 SML  HZ EP        4 7 15.56                             118    0.05 8  242 335 
 SML  HE ES        4 7 45.08                             118    0.97 8  242 335 
 SML  HZ I         4 7 52.64        10.4 0.10            118            242 335 
                                                                                
