 2017 1231 0033 43.8 L   6.825 -73.166144.6  RSN 10 0.4 2.0LRSN                1
 GAP= 64        0.89       2.7     2.6  5.2 -0.1292E+00  0.3054E+01  0.2727E+01E
 Epicentro: LOS SANTOS - SANTANDER                                             3
 ACTION:UPD 18-01-04 13:25 OP:rebc STATUS:               ID:20171231003343 L   I
 OLDACT:REG 17-12-31 10:48 OP:osc  STATUS:               ID:20171231001318     3
 2017-12-31-0028-00M.COL___409                                                 6
 STAT SP IPHASW D HRMM SECON CODA AMPLIT PERI AZIMU VELO AIN AR TRES W  DIS CAZ7
 BAR2 EZ EP        034  3.25                             169   -0.1210 25.7 184 
 BAR2 EZ ES        034 18.50                             169   -0.1110 25.7 184 
 BAR2 EZ I         034 21.09        24.7 0.30            169           25.7 184 
 PAM  EZ EP        034  6.06                             151    0.1810 76.8  42 
 PAM  EN ES        034 23.33                             151    0.2410 76.8  42 
 PAM  EZ I         034 26.36        12.4 0.30            156           76.8  42 
 PTB  HZ EP        034 10.00                             132   -0.55 9  146 258 
 PTB  HN ES        034 30.94                             132   -0.45 9  146 258 
 PTB  HZ I         034 38.24         5.0 0.15            133            146 258 
 OCA  HZ EP        034 11.79                             130    0.02 9  157 354 
 OCA  HE ES        034 33.66                             130    0.09 9  157 354 
 OCA  HZ I         034 36.27        19.6 0.24            134            157 354 
 TAM  HZ EP     C  034 11.68                             130    0.00 9  158 106 
 TAM  HE ES        034 33.05                             130   -0.36 9  158 106 
 SPBC HZ EP        034 12.26                             129   -0.05 9  164 218 
 SPBC HE ES        034 35.07                             129    0.55 9  164 218 
 SPBC HZ I         034 42.13        12.4 0.19            131            164 218 
 YPLC HZ EP        034 13.48                             126   -0.40 9  180 151 
 YPLC HE ES        034 37.71                             126    0.39 9  180 151 
 YPLC HZ I         034 38.61        12.8 0.24            130            180 151 
 ZAR  HZ EP        034 15.81                             123   -0.07 9  201 292 
 ZAR  HE ES        034 41.08                             123    0.20 9  201 292 
 ZAR  HZ I         034 50.21         8.0 0.16            125            201 292 
 GUY2CHZ EP        034 28.60                             112    1.25 7  301 234 
 GUY2CHE ES        035  0.96                             112   -0.34 7  301 234 
 GUY2CHZ I         035  8.49         4.1 0.38                           301 234 
 PRA  HZ EP        034 37.21                             106   -0.24 6  393 209 
 PRA  HE ES        035 19.33                             106    0.05 6  393 209 
 PRA  HZ I         035 25.45         4.7 0.50            109            393 209 
                                                                                
