 2011  831 0258 57.0 L   6.746 -73.065143.2  RSN  6 0.3 1.7LRSN                1
 GAP=150        0.69       3.6     6.2  5.5  0.2807E+01 -0.4864E+01 -0.4862E+01E
 Epicentro: LOS SANTOS - SANTANDER                                             3
 ACTION:UPD 12-07-13 15:54 OP:ep   STATUS:               ID:20110831025857 L   I
 2011-08-31-0254-23S.COL___165                                                 6
 STAT SP IPHASW D HRMM SECON CODA AMPLIT PERI AZIMU VELO AIN AR TRES W  DIS CAZ7
 BAR2 SZ EP        259 16.49                             171    0.1910 21.4 217 
 BAR2 SZ I         259 16.85         6.9 0.10                          21.4 217 
 BAR2 SZ ES        259 31.02                             171   -0.3210 21.4 217 
 GIR2 SZ EP   1    259 16.67                             164    0.04 7 39.4 339 
 PAM  SZ EP   1    259 19.15                             150    0.21 7 77.0  32 
 PAM  SZ I         259 19.50         5.8 0.13                          77.0  32 
 PAM  SE ES   1    259 36.01                             150   -0.03 7 77.0  32 
 BRR  HZ EP        259 18.40                             148   -0.1310 81.9 299 
 BRR  HZ I         259 18.69        17.7 0.18                          81.9 299 
 BRR  HN ES        259 35.47                             148    0.1510 81.9 299 
 RUS  HZ EP   1    259 20.44                             145    0.37 7 94.4 181 
 RUS  HE ES   1    259 38.06                             145    0.00 7 94.4 181 
 OCA  SZ EP        259 25.25                             128   -0.56 9  167 350 
 OCA  SZ ES   1    259 48.80                             128    0.52 7  167 350 
 OCA  SZ I         259 51.48         5.9 0.32                           167 350 
                                                                                
