 2017  731 0718 16.6 L   6.742 -73.128148.0  RSN  9 0.5 1.1LRSN                1
 GAP=141        1.07       4.8     4.5  7.5 -0.2424E+01  0.9103E+01  0.1195E+01E
 Epicentro: LOS SANTOS - SANTANDER                                             3
 ACTION:UPD 17-08-30 15:38 OP:rebc STATUS:               ID:20170731071816 L   I
 OLDACT:DUP 17-07-31 16:51 OP:osc  STATUS:               ID:20170731071744d    3
 OLDACT:UP  17-07-31 16:42 OP:osc  STATUS:               ID:20170731071743     3
 OLDACT:REG 17-07-31 13:15 OP:osc  STATUS:               ID:20170731071743     3
 2017-07-31-0718-00M.COL___377                                                 6
 STAT SP IPHASW D HRMM SECON CODA AMPLIT PERI AZIMU VELO AIN AR TRES W  DIS CAZ7
 BAR2 EZ EP        718 36.34                             173   -0.0810 17.6 200 
 BAR2 EZ ES        718 51.26                             173   -0.6010 17.6 200 
 BRR  HZ EP        718 38.44                             152    0.1510 76.1 302 
 BRR  HE ES        718 55.99                             152    0.8010 76.1 302 
 PAM  EZ EP        718 39.15                             150   -0.1610 81.3  36 
 PAM  EN ES        718 57.24                             150    0.2410 81.3  36 
 RUS  HZ EP        718 40.30                             146    0.1610 94.1 177 
 RUS  HN ES        718 58.61                             146    0.1310 94.1 177 
 RUS  HZ I         719  0.07         1.2 0.38            148           94.1 177 
 PTB  HZ EP        718 43.18                             133   -0.66 9  149 261 
 PTB  HE ES        719  4.62                             133   -0.45 9  149 261 
 PTB  HZ I         719 11.69         1.2 0.26            132            149 261 
 SPBC HE ES   2    719  8.02                             130    0.98 5  159 221 
 ZAR  HZ EP   2    718 50.38                             122    0.74 4  208 294 
 ZAR  HN ES        719 14.99                             122   -0.42 8  208 294 
 ZAR  HZ I         719 20.68         1.9 0.26            122            208 294 
 NOR  HN ES        719 20.24                             119    0.19 8  233 236 
 GUY2CHE ES   2    719 35.15                             113    1.14 4  299 236 
                                                                                
