 2010  331 0141 44.6 L   6.875 -73.237117.5  RSN  4 0.2 2.0LRSN                1
 GAP=173        0.42       3.8     7.3  5.7  0.1059E+02 -0.9563E+01 -0.1256E+02E
 Epicentro: BETULIA - SANTANDER                                                3
 ACTION:UP  10-08-24 09:56 OP:vdl  STATUS:               ID:20100331014144 L   I
 2010-03-31-0139-43S.COL___098                                                 6
 STAT SP IPHASW D HRMM SECON CODA AMPLIT PERI AZIMU VELO SNR AR TRES W  DIS CAZ7
 BAR2 SZ IP        142  1.36                             164     0.210   32 169 
 BAR2 SZ ES   1    142 13.83                             164    -0.2 7   32 169 
 BRR  HZ IP        142  1.92                             151    -0.110   58 296 
 BRR  HE ES   2    142 15.81                             151     0.2 5   58 296 
 BRR  HZ I         142 16.99        23.9 0.17                            58 296 
 RUS  HZ EP   3    142  6.36                             134    -0.2 2  110 171 
 RUS  HN ES   3    142 23.18                             134    -0.4 2  110 171 
 OCA  SZ EP        142  9.96                             124     0.0 9  151 357 
 OCA  SZ ES   2    142 29.66                             124    -0.1 5  151 357 
 OCA  SZ I         142 35.84        15.2 0.37                           151 357 
                                                                                
