 2015  731 0642  8.3 L   6.780 -73.010146.6  RSN  4 0.3 1.4LRSN                1
 GAP=250        0.75       8.3     9.7  6.0  0.6711E+02 -0.5527E+01 -0.1193E+02E
 Epicentro: CEPITA - SANTANDER                                                 3
 ACTION:UPD 15-09-08 21:51 OP:cam  STATUS:               ID:20150731064208 L   I
 OLDACT:DUP 15-07-31 15:46 OP:drio STATUS:               ID:20150731063751d    3
 2015-07-31-0637-49M.COL___343                                                 6
 STAT SP IPHASW D HRMM SECON CODA AMPLIT PERI AZIMU VELO AIN AR TRES W  DIS CAZ7
 BAR2 EZ EP        642 28.35                             169    0.1710 28.1 223 
 BAR2 EZ ES        642 43.63                             169   -0.0310 28.1 223 
 BAR2 EZ I         642 45.97         5.4 0.46            162           28.1 223 
 BRR  HZ EP        642 30.25                             148   -0.2110 85.6 295 
 BRR  HN ES        642 47.73                             148    0.0310 85.6 295 
 BRR  HZ I         642 47.96         4.6 0.40            145           85.6 295 
 RUS  HZ EP        642 32.46                             145    0.4310 98.4 185 
 RUS  HN ES        642 50.22                             145   -0.2810 98.4 185 
 RUS  HZ I         642 52.10         1.6 0.32            142           98.4 185 
 ZAR  HZ EP        642 41.87                             121   -0.51 8  219 291 
 ZAR  HN ES        643  9.26                             121    0.34 8  219 291 
 ZAR  HZ I         643 12.96         4.2 0.38            120            219 291 
                                                                                
