 2015  331 0320 42.5 L   6.808 -73.154153.0  RSN  6 0.5 1.8LRSN                1
 GAP=200        1.16       5.0     8.0  8.6  0.4053E+01  0.9946E+01 -0.1357E+02E
 Epicentro: LOS SANTOS - SANTANDER                                             3
 ACTION:UPD 15-04-30 16:30 OP:nd   STATUS:               ID:20150331032042 L   I
 OLDACT:UP  15-03-31 13:40 OP:mh   STATUS:               ID:20150331031750     3
 OLDACT:UP  15-03-31 13:40 OP:mh   STATUS:               ID:20150331031750     3
 OLDACT:REG 15-03-31 12:28 OP:mh   STATUS:               ID:20150331031750     3
 2015-03-31-0317-50M.COL___283                                                 6
 STAT SP IPHASW D HRMM SECON CODA AMPLIT PERI AZIMU VELO AIN AR TRES W  DIS CAZ7
 BAR2 EZ EP        321  3.24                             171    0.2710 24.0 187 
 BAR2 EZ ES        321 18.59                             171   -0.3810 24.0 187 
 BAR2 EZ I         321 19.80        14.3 0.22            168           24.0 187 
 BRR  HZ EP     D  321  5.13                             154    0.8010 69.9 298 
 BRR  HN ES        321 21.96                             154    0.5810 69.9 298 
 BRR  HZ I         321 25.50         6.1 0.30            149           69.9 298 
 RUS  HN ES        321 25.88                             145   -0.2410  102 176 
 PTB  HZ EP        321  9.54                             134   -0.42 9  147 258 
 PTB  HN ES        321 31.33                             134   -0.07 9  147 258 
 PTB  HZ I         321 38.25         7.8 0.34            132            147 258 
 SPBC HZ EP   1    321 12.18                             131    0.65 7  163 219 
 SPBC HN ES        321 33.88                             131   -0.32 9  163 219 
 SPBC HZ I         321 36.96         7.8 0.26            131            163 219 
 SML  HZ EP        321 18.80                             119   -0.58 8  243 335 
 SML  HN ES        321 47.71                             119   -0.46 8  243 335 
 SML  HZ I         321 51.44         6.8 0.08            120            243 335 
                                                                                
