 2013  331 0729 57.2 L   6.801 -73.149144.0  RSN  9 0.4 1.9LRSN                1
 GAP=183        0.77       3.1     4.8  5.9  0.2132E+01  0.5855E+01  0.4869E+00E
 Epicentro: LOS SANTOS - SANTANDER                                             3
 ACTION:UPD 13-04-09 14:06 OP:ep   STATUS:               ID:20130331072957 L   I
 2013-03-31-0730-00M.COL___245                                                 6
 STAT SP IPHASW D HRMM SECON CODA AMPLIT PERI AZIMU VELO AIN AR TRES W  DIS CAZ7
 BAR2 SZ IP        730 16.51                             170   -0.1010 23.3 189 
 BAR2 SZ ES   1    730 31.59                             170   -0.17 7 23.3 189 
 BAR2 SZ I         730 32.94        19.0 0.14            168           23.3 189 
 BRR  HZ EP        730 18.31                             152    0.1710 70.9 299 
 BRR  HN ES   1    730 35.09                             152    0.62 7 70.9 299 
 RUS  HZ EP        730 20.61                             143   -0.1710  101 176 
 RUS  HN ES   1    730 39.12                             143   -0.05 7  101 176 
 RUS  HZ I         730 40.26         3.1 0.46            145            101 176 
 PTB  HZ EP   1    730 23.38                             132   -0.61 7  147 259 
 PTB  HN ES   1    730 44.27                             132   -0.62 7  147 259 
 PTB  HZ I         730 47.80         8.3 0.28            130            147 259 
 OCA  HN ES   1    730 47.90                             129    0.57 7  160 353 
 OCA  HZ I         730 50.81         8.7 0.26            130            160 353 
 ZAR  HZ EP   1    730 29.72                             122    0.23 6  204 292 
 ZAR  HN ES   1    730 54.47                             122   -0.22 6  204 292 
 ZAR  HZ I         731  0.66         6.6 0.14            121            204 292 
 NOR  HZ EP   1    730 33.01                             118    0.21 6  234 234 
 NOR  HN ES   1    731  0.94                             118    0.37 6  234 234 
 NOR  HZ I         731  6.63         5.6 0.22            118            234 234 
 SML  HZ EP   1    730 33.11                             117   -0.59 6  244 335 
 SML  HE ES   1    731  1.93                             117   -0.25 6  244 335 
 SML  HZ I         731  5.22         9.3 0.10            117            244 335 
 PRA  HZ EP   1    730 51.26                             106    0.62 4  392 210 
 PRA  HN ES   1    731 33.26                             106    0.93 4  392 210 
 PRA  HZ I         731 37.39         3.6 0.34            107            392 210 
 SJC  HZ EP   4    730 50.86                             105   -1.81 0  409 327 
 SJC  HN ES   4    731 33.38                             105   -2.57 0  409 327 
                                                                                
