 2010  731 0048 50.4 L   6.701 -73.225152.2  RSN  4 0.3 1.7LRSN                1
 GAP=144        0.64       6.5    13.6  8.7  0.5786E+02 -0.6235E+02 -0.2450E+02E
 Epicentro: VILLANUEVA - SANTANDER                                             3
 ACTION:UPD 10-12-01 15:21 OP:pat  STATUS:               ID:20100731004850 L   I
 2010-07-31-0046-38S.COL___123                                                 6
 STAT SP IPHASW D HRMM SECON CODA AMPLIT PERI AZIMU VELO AIN AR TRES W  DIS CAZ7
 BAR2 SZ EP   1    049 10.13                             175    -0.5 7   13 159 
 BAR2 SZ ES   2    049 26.30                             175    -0.1 5   13 159 
 BAR2 SZ I         049 26.87        12.3 0.30                            13 159 
 BRR  HZ EP   1    049 12.03                             154    -0.2 7   70 310 
 BRR  HZ I         049 19.92        13.8 0.34                            70 310 
 BRR  HE ES   1    049 29.37                             154     0.2 7   70 310 
 RUS  HZ EP        049 14.32                             148     0.210   91 170 
 RUS  HN ES   1    049 32.68                             148     0.0 7   91 170 
 RUS  HZ I         049 34.51         6.2 0.61                            91 170 
 GUE  SZ EP   1    049 16.94                             138     0.2 7  129  15 
                                                                                
