 2017 1231 0452  8.6 L   6.756 -73.116146.0  RSN 10 0.5 1.6LRSN                1
 GAP=123        1.21       3.4     4.6  7.3 -0.2943E+01  0.5442E+01  0.3272E+01E
 Epicentro: LOS SANTOS - SANTANDER                                             3
 ACTION:UPD 18-01-04 13:25 OP:rebc STATUS:               ID:20171231045208 L   I
 OLDACT:UP  17-12-31 13:15 OP:osc  STATUS:               ID:20171231044438d    3
 OLDACT:DUP 17-12-31 13:10 OP:osc  STATUS:               ID:20171231044438d    3
 2017-12-31-0448-00M.COL___409                                                 6
 STAT SP IPHASW D HRMM SECON CODA AMPLIT PERI AZIMU VELO AIN AR TRES W  DIS CAZ7
 BAR2 EZ EP        452 28.23                             172    0.0110 19.5 202 
 BAR2 EZ ES        452 43.62                             172    0.1210 19.5 202 
 BAR2 EZ I         452 44.52         7.4 0.13            169           19.5 202 
 PAM  EZ EP        452 31.16                             150    0.1810 79.2  35 
 PAM  EE ES        452 48.35                             150   -0.0610 79.2  35 
 PAM  EZ I         452 52.75         2.4 0.64            156           79.2  35 
 PTB  HZ EP        452 34.94                             132   -0.90 9  150 261 
 PTB  HE ES        452 56.43                             132   -0.63 9  150 261 
 PTB  HZ I         453  1.91         3.2 0.26            132            150 261 
 SPBC HZ EP        452 37.06                             129    0.06 9  162 221 
 SPBC HE ES        452 59.60                             129    0.48 9  162 221 
 SPBC HZ I         453  6.53         9.1 0.10            130            162 221 
 OCA  HZ EP        452 37.80                             129    0.34 9  166 352 
 OCA  HN ES        453  0.46                             129    0.52 9  166 352 
 ZAR  HZ EP        452 41.44                             122   -0.16 8  209 293 
 ZAR  HN ES        453  6.42                             122   -0.90 8  209 293 
 ZAR  HZ I         453 14.78         3.9 0.28            123            209 293 
 ROSC BZ EP   4    452 47.83                             117    1.33 0  250 212 
 ROSC BE ES        453 16.40                             117    0.36 8  250 212 
 ROSC BZ I         453 26.21         5.5 0.35            119            250 212 
 DRL03HE ES        453 23.83                             113    0.06 7  294 352 
 GUY2CHZ EP        452 53.19                             112    0.94 7  301 236 
 GUY2CHE ES        453 27.24                             112    0.97 7  301 236 
 GUY2CHZ I         453 34.82         3.0 0.38                           301 236 
 PTGC HZ EP        452 51.36                             112   -0.49 7  303 159 
 PTGC HE ES        453 24.92                             112   -0.63 7  303 159 
                                                                                
