 2012  131 0104 33.1 L   6.736 -73.157125.4  RSN  6 0.2 1.2LRSN                1
 GAP=138        0.47       3.0     2.9  7.2  0.1470E+01  0.5941E+01  0.3507E+01E
 Epicentro: VILLANUEVA - SANTANDER                                             3
 ACTION:UP  12-02-03 08:22 OP:REBC STATUS:               ID:20120131010433 L   I
 2012-01-31-0100-00M.COL___188                                                 6
 STAT SP IPHASW D HRMM SECON CODA AMPLIT PERI AZIMU VELO SNR AR TRES W  DIS CAZ7
 GIR2 SZ EP   1    1 4 50.72                             162     0.1 7   38 354 
 BRR  HZ EP   2    1 4 52.20                             147    -0.1 5   74 304 
 BRR  HN ES   1    1 5  7.34                             147     0.1 7   74 304 
 BRR  HZ I         1 5 10.48         3.6 0.17                            74 304 
 PAM  SN ES   1    1 5  9.63                             144     0.0 7   84  37 
 RUS  HZ EP   1    1 4 54.52                             141     0.1 7   94 175 
 RUS  HN ES   1    1 5 10.73                             141    -0.2 7   94 175 
 RUS  HZ I         1 5 13.81         3.0 0.27                            94 175 
 PTB  HN ES   1    1 5 18.13                             127     0.2 7  145 261 
 ZAR  HN ES   1    1 5 28.59                             117    -0.4 6  206 294 
                                                                                
