 2014 1231 0551 28.9 L   6.791 -73.163138.6  RSN 15 0.6 2.1LRSN                1
 GAP= 70        1.27       3.4     3.4  6.0 -0.1487E+01  0.5433E+01  0.3754E+01E
 Epicentro: LOS SANTOS - SANTANDER                                             3
 ACTION:UPD 15-02-10 17:08 OP:nd   STATUS:               ID:20141231055128 L   I
 OLDACT:REG 14-12-31 13:50 OP:stll STATUS:               ID:20141231054746     3
 2014-12-31-0547-46M.COL___268                                                 6
 STAT SP IPHASW D HRMM SECON CODA AMPLIT PERI AZIMU VELO AIN AR TRES W  DIS CAZ7
 BAR2 EZ EP        551 47.95                             170    0.3110 22.1 185 
 BAR2 EZ ES        552  1.54                             170   -0.7210 22.1 185 
 BAR2 EZ I         552  4.33        52.9 0.18            169           22.1 185 
 BRR  HZ EP        551 49.75                             152    0.5510 70.0 300 
 BRR  HN ES        552  6.37                             152    1.3310 70.0 300 
 BRR  HZ I         552 10.68        21.5 0.66            149           70.0 300 
 PAM  SZ EP        551 50.77                             149    0.2910 79.3  40 
 PAM  SZ I         551 51.02        34.4 0.22            153           79.3  40 
 PAM  SE ES        552  7.15                             149   -0.1610 79.3  40 
 RUS  HZ EP        551 51.99                             143    0.1010 99.8 175 
 RUS  HN ES        552 10.08                             143    0.2510 99.8 175 
 RUS  HZ I         552 11.65        17.0 0.36            145           99.8 175 
 PTB  HZ EP        551 54.60                             131   -0.50 9  146 259 
 PTB  HN ES        552 15.27                             131   -0.26 9  146 259 
 PTB  HZ I         552 19.77        13.3 0.36            130            146 259 
 TAM  HZ IP     D  551 56.28                             129    0.11 9  157 104 
 TAM  HZ I         551 56.39        23.2 0.20            133            157 104 
 TAM  HN ES        552 16.94                             129   -0.51 9  157 104 
 SPBC HZ EP        551 56.50                             128   -0.17 9  161 219 
 SPBC HN ES        552 18.49                             128    0.16 9  161 219 
 OCA  HZ EP        551 56.72                             128   -0.01 9  161 354 
 OCA  HN ES        552 17.76                             128   -0.68 9  161 354 
 OCA  HZ I         552 21.03        16.3 0.22            129            161 354 
 ZAR  HZ EP        552  0.66                             121   -0.07 9  203 293 
 ZAR  HN ES        552 25.36                             121   -0.21 9  203 293 
 ZAR  HZ I         552 32.65        10.7 0.40            121            203 293 
 NOR  HZ EP        552  3.94                             117   -0.05 8  233 234 
 NOR  HN ES        552 30.99                             117   -0.37 8  233 234 
 NOR  HZ I         552 38.66        12.4 0.16            118            233 234 
 CHI  HZ EP        552  5.97                             116   -0.08 8  247 195 
 CHI  HZ I         552  6.94         5.6 0.28            117            247 195 
 CHI  HN ES        552 35.12                             116    0.09 8  247 195 
 HEL  HZ EP        552  9.04                             113    0.52 8  270 256 
 HEL  HN ES        552 39.66                             113    0.24 8  270 256 
 HEL  HZ I         552 48.18         5.8 0.28            114            270 256 
 CBOC HZ EP        552 15.75                             109    0.47 7  331 252 
 CBOC HN ES        552 49.51                             109   -1.94 7  331 252 
 CBOC HZ I         553  1.38         2.4 0.48            109            331 252 
 TOL  SZ EP        552 17.03                             108    0.39 7  341 225 
 TOL  SN ES        552 54.71                             108    0.84 7  341 225 
 ORTC HZ EP        552 22.44                             105    0.09 6  394 216 
 ORTC HE ES        553  3.41                             105   -0.64 6  394 216 
 ORTC HZ I         553 11.91         4.7 0.44            106            394 216 
                                                                                
