 2010  731 0001 57.1 L   6.774 -73.100142.0  RSN 12 0.5 2.7LRSN                1
 GAP=164        1.03       4.1     6.3  6.8 -0.9752E+01  0.7175E+01  0.1072E+01E
 Epicentro: LOS SANTOS - SANTANDER                                             3
 ACTION:UPD 10-12-01 15:21 OP:pat  STATUS:               ID:20100731000157 L   I
 2010-07-30-2359-36S.COL___123                                                 6
 STAT SP IPHASW D HRMM SECON CODA AMPLIT PERI AZIMU VELO AIN AR TRES W  DIS CAZ7
 BAR2 SZ IP        0 2 16.17                             171    -0.110   22 205 
 BAR2 SZ ES   1    0 2 30.69                             171    -0.5 7   22 205 
 BAR2 SZ I         0 2 32.07       109.9 0.27                            22 205 
 BRR  HZ IP     C  0 2 18.10                             150    -0.110   77 299 
 BRR  HN ES        0 2 35.11                             150     0.510   77 299 
 BRR  HZ I         0 2 37.55        99.0 0.16                            77 299 
 RUS  HZ IP     D  0 2 20.17                             144    -0.110   98 179 
 RUS  HN ES   1    0 2 38.40                             144     0.1 7   98 179 
 RUS  HZ I         0 2 39.70        50.0 0.30                            98 179 
 GUE  SZ EP   1    0 2 22.32                             138     0.7 7  118   9 
 GRA  SZ IP        0 2 22.11                             136     0.010  127  15 
 GRA  SZ ES   1    0 2 41.86                             136     0.2 7  127  15 
 GRA  SZ I         0 2 43.49        65.1 0.37                           127  15 
 OCA  SZ IP        0 2 24.81                             128    -0.6 9  164 352 
 OCA  SZ ES   2    0 2 47.29                             128    -0.3 5  164 352 
 OCA  SZ I         0 2 53.65        53.8 0.29                           164 352 
 ROSC BZ EP   2    0 2 36.03                             116     1.0 4  253 212 
 ROSC BE ES   2    0 3  4.65                             116     0.0 4  253 212 
 ROSC BZ I         0 3 11.19        20.5 0.30                           253 212 
 HEL  HZ EP   2    0 2 37.94                             114     0.4 4  276 257 
 HEL  HN ES   2    0 3  7.24                             114    -1.9 4  276 257 
 HEL  HZ I         0 3 17.09        16.9 0.35                           276 257 
 GUY  SZ EP   2    0 2 41.55                             112     0.7 4  304 236 
 GUY  SN ES   1    0 3 15.71                             112     0.8 5  304 236 
 GUY  SZ I         0 3 23.09        50.0 0.67                           304 236 
 RREF HZ EP   2    0 2 42.99                             110    -0.3 3  324 230 
 RREF HE ES   1    0 3 19.57                             110     0.2 5  324 230 
 RREF HZ I         0 3 28.14        24.0 0.38                           324 230 
 DBB  SZ IP        0 2 44.51                             109    -0.5 7  345 275 
 PRA  HZ EP   1    0 2 50.27                             106    -0.2 4  392 210 
 PRA  HE ES   1    0 3 31.77                             106    -0.4 4  392 210 
 PRA  HZ I         0 3 38.88        20.2 0.20                           392 210 
                                                                                
