 2012  531 0446 26.2 L   6.583 -73.740 87.5  RSN  5 0.3 1.2LRSN                1
 GAP=140        0.78       6.4     3.6 11.2  0.1102E+02  0.1385E+02  0.9478E+01E
 Epicentro: EL CARMEN DE CHUCURI - SANTANDER                                   3
 ACTION:UP  12-07-05 12:09 OP:pat  STATUS:               ID:20120531044630 L   I
 2012-05-31-0440-00M.COL___201                                                 6
 STAT SP IPHASW D HRMM SECON CODA AMPLIT PERI AZIMU VELO AIN AR TRES W  DIS CAZ7
 BAR2 SZ EP   1    446 40.88                             142    -0.2 7   62  89 
 BAR2 SZ I         446 41.04        11.5 0.10                            62  89 
 BAR2 SZ ES   1    446 52.88                             142     0.3 7   62  89 
 PTB  HZ EP   1    446 41.62                             134    -0.6 7   79 267 
 PTB  HN ES   1    446 54.35                             134    -0.3 7   79 267 
 PTB  HZ I         446 55.79         4.1 0.21                            79 267 
 RUS  HZ EP   1    446 45.25                             126     0.0 7  105 136 
 RUS  HN ES   1    447  0.29                             126     0.1 7  105 136 
 RUS  HZ I         447  2.50         2.1 0.35                           105 136 
 ZAR  HE ES   1    447  9.60                             114     0.2 7  159 309 
 HEL  HN ES   1    447 19.68                             109     0.6 6  203 258 
                                                                                
