 2011  731 0313 49.3 L   6.749 -73.042144.9  RSN  5 0.2 1.4LRSN                1
 GAP=169        0.38       2.9     5.8  4.9  0.4278E+01 -0.4960E+01  0.1794E+00E
 Epicentro: ARATOCA - SANTANDER                                                3
 ACTION:UPD 12-07-25 14:04 OP:epov STATUS:               ID:20110731031349 L   I
 2011-07-31-0312-40S.COL___141                                                 6
 STAT SP IPHASW D HRMM SECON CODA AMPLIT PERI AZIMU VELO AIN AR TRES W  DIS CAZ7
 BAR2 SZ EP   1    314  9.01                             171    0.17 7 23.2 222 
 BAR2 SZ ES   1    314 24.08                             171    0.01 7 23.2 222 
 BAR2 SZ I         314 25.76         5.0 0.76                          23.2 222 
 BRR  HZ EP   1    314 11.08                             148   -0.06 7 83.9 298 
 BRR  HE ES   1    314 28.07                             148   -0.10 7 83.9 298 
 BRR  HZ I         314 32.76         6.6 0.46                          83.9 298 
 RUS  HZ EP   1    314 12.44                             145   -0.13 7 94.8 183 
 RUS  HE ES   2    314 30.92                             145    0.21 5 94.8 183 
 RUS  HZ I         314 32.84         2.3 0.39                          94.8 183 
 BRI  SZ ES   2    314 31.69                             141   -0.28 5  110  14 
 OCA  SZ ES   2    314 41.24                             128    0.41 5  168 350 
 OCA  SZ I         314 45.11         3.7 0.43                           168 350 
                                                                                
