 2010  531 0200 39.1 L   6.846 -72.992131.7  RSN  6 0.3 1.7LRSN                1
 GAP=207        0.56       4.0     9.6  6.3 -0.1949E+02  0.1727E+02 -0.6343E+01E
 Epicentro: CEPITA - SANTANDER                                                 3
 ACTION:UP  10-08-24 10:07 OP:vdl  STATUS:               ID:20100531020039 L   I
 2010-05-31-0157-00S.COL___109                                                 6
 STAT SP IPHASW D HRMM SECON CODA AMPLIT PERI AZIMU VELO SNR AR TRES W  DIS CAZ7
 BAR2 SZ IP        2 0 57.13                             164    -0.210   35 217 
 BAR2 SZ ES   1    2 1 11.71                             164     0.1 7   35 217 
 GUE  SZ EP   1    2 1  2.07                             138     0.2 7  109   4 
 GUE  SZ ES   2    2 1 19.77                             138     0.1 5  109   4 
 GRA  SZ EP   2    2 1  2.74                             136     0.5 5  117  10 
 OCA  SZ EP   1    2 1  5.82                             127    -0.3 7  158 347 
 OCA  SZ ES   1    2 1 27.07                             127    -0.1 7  158 347 
 OCA  SZ I         2 1 31.01         5.7 0.54                           158 347 
 HEL  HZ EP   2    2 1 21.54                             110     0.9 4  290 256 
 HEL  HZ I         2 1 56.26         2.6 0.25                           290 256 
 RREF BZ EP   2    2 1 26.27                             107    -0.3 3  338 231 
 RREF BE ES   2    2 2  3.43                             107    -0.1 3  338 231 
 RREF BZ I         2 2  6.12         2.1 0.45                           338 231 
                                                                                
