 2010  331 0035 43.2 L   6.583 -73.422116.8  RSN  6 0.3 2.0LRSN                1
 GAP= 84        0.43       3.3     6.3  5.3  0.9262E+01  0.1813E+00 -0.2576E+01E
 Epicentro: HATO - SANTANDER                                                   3
 ACTION:UP  10-08-24 09:56 OP:vdl  STATUS:               ID:20100331003543 L   I
 2010-03-31-0034-01S.COL___098                                                 6
 STAT SP IPHASW D HRMM SECON CODA AMPLIT PERI AZIMU VELO SNR AR TRES W  DIS CAZ7
 BAR2 SZ EP        035 59.47                             167     0.010   26  88 
 BAR2 SZ ES   2    036 12.00                             167    -0.1 5   26  88 
 BRR  HZ IP        036  1.04                             148     0.010   66 331 
 BRR  HZ I         036  1.14        32.8 0.13                            66 331 
 BRR  HE ES   2    036 15.10                             148     0.2 5   66 331 
 RUS  HZ EP        036  2.93                             142    -0.110   85 154 
 RUS  HN ES   3    036 18.29                             142    -0.2 2   85 154 
 RUS  HZ I         036 19.85        19.5 0.15                            85 154 
 OCA  SZ EP        036 12.03                             118     0.1 9  183   4 
 OCA  SZ ES   3    036 32.83                             118    -1.4 2  183   4 
 CHI  HN ES   3    036 41.96                             114     0.2 2  219 189 
 HEL  HN ES   3    036 44.70                             111    -0.6 2  237 260 
                                                                                
