 2011  531 0224 56.7 L   7.552 -73.041152.3  RSN  5 0.2 1.7LRSN                1
 GAP=132        0.56       4.4     6.2  5.6 -0.9715E+01  0.9985E+00  0.5520E+01E
 Epicentro: EL PLAYON - SANTANDER                                              3
 ACTION:UP  11-06-29 08:57 OP:tino STATUS:               ID:20110531022456 L   I
 2011-05-31-0224-02S.COL___115                                                 6
 STAT SP IPHASW D HRMM SECON CODA AMPLIT PERI AZIMU VELO SNR AR TRES W  DIS CAZ7
 BRI  SZ EP   1    225 17.51                             167     0.3 7   33  56 
 BRI  SZ ES   1    225 33.37                             167     0.1 7   33  56 
 BRI  SZ I         225 39.93         6.5 0.42                            33  56 
 GRA  SZ EP   1    225 17.64                             163     0.0 7   45  35 
 GRA  SZ ES   1    225 33.79                             163    -0.1 7   45  35 
 GRA  SZ I         225 35.08        11.8 0.27                            45  35 
 OCA  SZ EP   1    225 19.62                             150     0.2 7   82 338 
 OCA  SZ I         225 19.81        11.3 0.18                            82 338 
 OCA  SZ ES   1    225 36.77                             150    -0.3 7   82 338 
 BRR  HZ EP   1    225 19.51                             148    -0.1 7   89 236 
 BRR  HE ES   1    225 37.74                             148     0.3 7   89 236 
 BAR2 SZ EP   1    225 20.85                             143    -0.4 7  107 188 
 BAR2 SZ ES   2    225 40.29                             143    -0.1 5  107 188 
 BAR2 SZ I         225 44.28         5.1 0.37                           107 188 
                                                                                
