 2013  831 0250 24.8 L   6.756 -73.115156.9  RSN 12 0.5 1.7LRSN                1
 GAP=184        0.97       2.8     4.8  6.8 -0.4703E+00  0.2153E+01 -0.4457E+01E
 Epicentro: LOS SANTOS - SANTANDER                                             3
 2013-08-31-0250-00M.COL___269                                                 6
 OLDACT:REG 13-08-31 09:10 OP:mh   STATUS:               ID:20130831025000     3
 ACTION:UPD 14-01-14 09:08 OP:ep   STATUS:               ID:20130831025024 L   I
 OLDACT:DUP 13-08-31 12:11 OP:mh   STATUS:               ID:20130831025001d    3
 OLDACT:UP  13-08-31 11:22 OP:mh   STATUS:               ID:20130831025000     3
 STAT SP IPHASW D HRMM SECON CODA AMPLIT PERI AZIMU VELO AIN AR TRES W  DIS CAZ7
 BAR2 SZ EP   1    250 46.12                             173    0.40 7 19.6 202 
 BAR2 SZ ES   1    251  1.21                             173   -0.82 7 19.6 202 
 BAR2 SZ I         251  2.28         6.2 0.38            170           19.6 202 
 BRR  HZ EP   1    250 47.91                             153    0.44 7 76.6 300 
 BRR  HN ES   1    251  5.33                             153    0.19 7 76.6 300 
 BRR  HZ I         251  8.04         6.7 0.28            153           76.6 300 
 RUS  HZ EP        250 49.76                             147    0.4210 95.6 178 
 RUS  HN ES        251  8.22                             147   -0.2510 95.6 178 
 RUS  HZ I         251 11.25         4.6 0.48            146           95.6 178 
 PTB  HZ EP   1    250 53.13                             134    0.20 7  150 261 
 PTB  HN ES   2    251 14.03                             134   -0.83 5  150 261 
 PTB  HZ I         251 16.29         5.2 0.14            134            150 261 
 SPBC HZ EP   4    250 55.13                             132    1.08 0  162 221 
 SPBC HN ES        251 17.52                             132    0.66 9  162 221 
 SPBC HZ I         251 25.24         8.2 0.30            131            162 221 
 OCA  HZ EP   1    250 54.90                             131    0.41 7  165 352 
 OCA  HN ES   1    251 17.91                             131    0.27 7  165 352 
 OCA  HZ I         251 19.97         7.3 0.46            133            165 352 
 ZAR  HN ES        251 24.59                             124   -0.21 8  209 293 
 NOR  HE ES        251 30.07                             121    0.46 8  235 236 
 CHI  HZ EP        251  1.87                             120   -0.89 8  245 196 
 CHI  HN ES        251 32.28                             120   -0.08 8  245 196 
 CHI  HZ I         251 41.94         2.8 0.54            120            245 196 
 SML  HZ EP        251  2.58                             119   -0.13 8  250 335 
 SML  HE ES        251 32.42                             119    0.15 8  250 335 
 SML  HZ I         251 33.72        10.1 0.10            120            250 335 
 HEL  HE ES        251 37.31                             117   -0.56 8  274 257 
 COD  HZ EP   1    251 13.51                             110   -0.73 5  353 354 
 COD  HN ES        251 52.46                             110   -0.33 6  353 354 
 SJC  HZ EP   4    251 20.39                             107   -1.06 0  415 327 
 SJC  HN ES   4    252  2.59                             107   -3.04 0  415 327 
                                                                                
