 2017 1231 0119 27.9 L   7.427 -73.217128.0  RSN  8 0.5 1.8LRSN                1
 GAP=107        1.15       3.2     4.4  7.5  0.5331E+00  0.1086E+02  0.2515E+01E
 Epicentro: EL PLAYON - SANTANDER                                              3
 ACTION:UPD 18-01-04 13:25 OP:rebc STATUS:               ID:20171231011927 L   I
 OLDACT:DUP 17-12-31 12:10 OP:osc  STATUS:               ID:20171231011737d    3
 OLDACT:DUP 17-12-31 11:53 OP:osc  STATUS:               ID:20171231011736d    3
 2017-12-31-0118-00M.COL___409                                                 6
 STAT SP IPHASW D HRMM SECON CODA AMPLIT PERI AZIMU VELO AIN AR TRES W  DIS CAZ7
 PAM  EZ EP        119 47.04                             154   -0.0610 58.0 100 
 PAM  EE ES        120  1.94                             154   -0.1310 58.0 100 
 PAM  EZ I         120  4.34        10.6 0.60            159           58.0 100 
 OCA  HZ EP        119 48.29                             143   -0.4110 90.5 353 
 OCA  HE ES        120  5.38                             143    0.4510 90.5 353 
 OCA  HZ I         120 11.53        13.3 0.34            145           90.5 353 
 BAR2 EZ EP        119 48.69                             142   -0.2710 92.4 178 
 BAR2 EZ ES        120  5.15                             142   -0.2410 92.4 178 
 BAR2 EZ I         120  6.31        24.5 0.12            146           92.4 178 
 PTB  HZ EP        119 54.90                             124   -0.63 9  168 234 
 PTB  HE ES        120 16.54                             124   -0.54 9  168 234 
 PTB  HZ I         120 19.14         3.8 0.24            127            168 234 
 ZAR  HZ EP        119 57.01                             121    0.17 9  181 272 
 ZAR  HE ES        120 20.40                             121    0.99 9  181 272 
 ZAR  HZ I         120 24.68        11.6 0.30            124            181 272 
 DRL03HZ EP        120  0.72                             116   -0.14 8  219 353 
 DRL03HE ES        120 26.48                             116   -0.10 8  219 353 
 YPLC HZ EP        120  3.77                             114    0.17 8  243 158 
 YPLC HN ES        120 32.64                             114    1.19 8  243 158 
 YPLC HZ I         120 34.65         5.0 0.40            117            243 158 
 SDV  B2 ES   4    120 45.42                             107   -3.54 0  327  60 
 GUY2CHZ EP        120 15.56                             106    0.27 7  340 224 
 GUY2CHE ES        120 52.01                             106   -0.25 7  340 224 
 GUY2CHZ I         121  3.92         2.2 0.56                           340 224 
                                                                                
