 2010 1231 0412 45.5 L   6.779 -73.098149.5  RSN  7 0.3 1.5LRSN                1
 GAP=164        0.66       5.3     8.1  9.0 -0.2295E+02  0.3250E+02 -0.2430E+02E
 Epicentro: LOS SANTOS - SANTANDER                                             3
 ACTION:UP  11-01-14 15:28 OP:pat  STATUS:               ID:20101231041245 L   I
 2010-12-31-0409-21S.COL___136                                                 6
 STAT SP IPHASW D HRMM SECON CODA AMPLIT PERI AZIMU VELO SNR AR TRES W  DIS CAZ7
 BAR2 SZ ES   2    413 20.77                             171    -0.4 5   23 205 
 BAR2 SZ I         413 23.26         9.1 0.26                            23 205 
 BTL  SZ EP        413  5.94                             170     0.410   24 309 
 RUS  HZ EP   1    413  9.34                             145    -0.1 7   98 179 
 RUS  HN ES   1    413 28.00                             145    -0.1 7   98 179 
 RUS  HZ I         413 29.23         3.2 0.26                            98 179 
 GRA  SZ EP   1    413 11.25                             138     0.1 7  127  15 
 GRA  SZ I         413 12.55         5.1 0.24                           127  15 
 OCA  SZ EP   1    413 13.92                             130    -0.4 7  163 351 
 OCA  SZ I         413 41.90         6.3 0.22                           163 351 
 NOR  SZ EP   1    413 21.49                             119    -0.3 6  238 236 
 NOR  SN ES   1    413 50.19                             119     0.1 6  238 236 
 CHI  HZ EP   2    413 23.32                             118     0.0 4  248 196 
 CHI  HZ I         413 56.70         1.6 0.28                           248 196 
                                                                                
