 2017  331 0226 30.7 L   6.393 -73.714 98.6  RSN  5 0.4 1.2LRSN                1
 GAP=153        0.97       5.1     4.1  8.2  0.1019E+02  0.1115E+02  0.5742E+01E
 Epicentro: SANTA HELENA DEL OPON - SANTANDER                                  3
 ACTION:UPD 17-05-25 18:47 OP:jn   STATUS:               ID:20170331022630 L   I
 OLDACT:UP  17-05-02 20:30 OP:nlst STATUS:               ID:20170331022630 L   3
 OLDACT:DUP 17-03-31 15:36 OP:ar   STATUS:               ID:20170331021747d    3
 2017-03-31-0218-00M.COL___344                                                 6
 STAT SP IPHASW D HRMM SECON CODA AMPLIT PERI AZIMU VELO AIN AR TRES W  DIS CAZ7
 BAR2 EZ EP        226 46.76                             145    0.0810 62.8  69 
 BAR2 EZ ES        226 58.57                             145   -0.6110 62.8  69 
 BAR2 EZ I         227  0.56         9.0 0.20            149           62.8  69 
 BRR  HZ EP        226 47.24                             138   -0.3410 79.0   0 
 BRR  HE ES        227  1.25                             138    0.4710 79.0   0 
 PTB  HZ EP        226 47.56                             137   -0.4410 83.7 281 
 PTB  HN ES        227  1.44                             137   -0.0910 83.7 281 
 PTB  HZ I         227  4.17         2.2 0.16            138           83.7 281 
 RUS  HZ EP        226 49.23                             135    0.1210 89.1 128 
 RUS  HN ES        227  3.96                             135    0.4510 89.1 128 
 ZAR  HZ EP        226 57.42                             115    0.13 9  175 314 
 ZAR  HE ES   1    227 18.63                             115    0.57 7  175 314 
                                                                                
