 2012  531 0226 33.9 L   6.807 -73.168142.4  RSN  7 0.2 1.6LRSN                1
 GAP=133        0.60       5.3     4.0 10.8 -0.6974E+00  0.1973E+02  0.2650E+02E
 Epicentro: LOS SANTOS - SANTANDER                                             3
 ACTION:UP  12-07-05 12:09 OP:pat  STATUS:               ID:20120531022633 L   I
 2012-05-31-0220-00M.COL___201                                                 6
 STAT SP IPHASW D HRMM SECON CODA AMPLIT PERI AZIMU VELO AIN AR TRES W  DIS CAZ7
 BAR2 SZ EP        226 53.35                             170     0.210   24 184 
 BAR2 SZ I         227 10.86         8.6 0.38                            24 184 
 PAM  SZ EP        226 56.09                             150     0.210   78  41 
 PAM  SN ES   1    227 12.78                             150    -0.2 7   78  41 
 RUS  HZ EP        226 57.26                             143    -0.210  102 175 
 PTB  HZ EP        227  0.14                             132    -0.3 9  146 258 
 PTB  HZ I         227 26.95         4.4 0.44                           146 258 
 ZAR  HN ES   1    227 30.83                             122     0.0 6  202 292 
 NOR  SN ES   1    227 37.29                             118     0.4 6  233 234 
 HEL  HZ EP   1    227 13.85                             114     0.1 6  270 256 
 HEL  HZ I         227 51.86         2.1 0.44                           270 256 
                                                                                
