 2017  131 0633 14.5 L   6.432 -73.784 92.8  RSN  5 0.4 1.2LRSN                1
 GAP=152        1.05       5.3     4.1  8.9  0.1087E+02  0.1005E+02  0.6181E+01E
 Epicentro: SANTA HELENA DEL OPON - SANTANDER                                  3
 ACTION:UPD 17-05-22 16:05 OP:jn   STATUS:               ID:20170131063314 L   I
 OLDACT:REG 17-01-31 14:15 OP:dnl  STATUS:               ID:20170131062746     3
 2017-01-31-0628-00M.COL___337                                                 6
 STAT SP IPHASW D HRMM SECON CODA AMPLIT PERI AZIMU VELO AIN AR TRES W  DIS CAZ7
 BAR2 EZ EP     C  633 30.06                             141   -0.3210 68.9  75 
 BAR2 EZ ES        633 42.84                             141    0.0510 68.9  75 
 BAR2 EZ I         633 44.83        12.6 0.28            135           68.9  75 
 BRR  HZ EP        633 29.96                             138   -0.5810 75.0   6 
 BRR  HE ES        633 43.17                             138    0.0910 75.0   6 
 BRR  HZ I         633 45.37         3.9 0.74            136           75.0   6 
 PTB  HZ EP     D  633 29.91                             138   -0.6810 75.3 279 
 PTB  HE ES        633 43.16                             138    0.0010 75.3 279 
 PTB  HZ I         633 45.37         4.6 0.16            134           75.3 279 
 RUS  HZ EP        633 33.57                             130    0.3310 97.9 128 
 RUS  HZ I         633 45.77         1.1 0.32            123           97.9 128 
 RUS  HN ES        633 48.13                             130    0.2510 97.9 128 
 ZAR  HZ EP        633 40.36                             115    0.52 9  167 315 
 ZAR  HN ES        634  0.15                             115    0.52 9  167 315 
 ZAR  HZ I         634  2.29         3.2 0.28            111            167 315 
                                                                                
