 2015 1231 0834 43.3 L   6.766 -73.199141.6  RSN  4 0.4 1.5LRSN                1
 GAP=231        0.94       7.5     7.1  7.9  0.1424E+01  0.1133E+02  0.2798E+02E
 Epicentro: ZAPATOCA - SANTANDER                                               3
 ACTION:UPD 16-02-04 15:09 OP:cam  STATUS:               ID:20151231083443 L   I
 OLDACT:REG 15-12-31 13:08 OP:ak   STATUS:               ID:20151231082748     3
 2015-12-31-0827-48M.COL___331                                                 6
 STAT SP IPHASW D HRMM SECON CODA AMPLIT PERI AZIMU VELO AIN AR TRES W  DIS CAZ7
 BAR2 EZ EP        835  2.25                             172   -0.0710 19.3 175 
 BAR2 EZ ES        835 16.94                             172   -0.2410 19.3 175 
 BAR2 EZ I         835 18.82         7.0 0.32            165           19.3 175 
 BRR  HZ EP        835  4.11                             152    0.3110 68.1 304 
 BRR  HN ES        835 20.22                             152    0.4210 68.1 304 
 PTB  HZ EP        835  9.23                             132   -0.08 9  141 260 
 PTB  HN ES        835 29.13                             132   -0.49 9  141 260 
 PTB  HZ I         835 35.56         2.6 0.40            130            141 260 
 PRA  HZ EP        835 35.27                             106   -0.66 6  386 209 
 PRA  HN ES        836 17.90                             106    0.91 6  386 209 
 PRA  HZ I         836 23.37         1.5 0.28            107            386 209 
                                                                                
