 2015  731 0528 26.1 L   6.778 -73.121150.3  RSN  4 0.2 1.4LRSN                1
 GAP=238        0.54       6.1     6.9  4.8  0.3486E+02 -0.1448E+01 -0.3276E+01E
 Epicentro: LOS SANTOS - SANTANDER                                             3
 ACTION:UPD 15-09-08 21:51 OP:cam  STATUS:               ID:20150731052826 L   I
 OLDACT:DUP 15-07-31 14:23 OP:drio STATUS:               ID:20150731051749d    3
 2015-07-31-0517-48M.COL___343                                                 6
 STAT SP IPHASW D HRMM SECON CODA AMPLIT PERI AZIMU VELO AIN AR TRES W  DIS CAZ7
 BAR2 EZ EP        528 46.15                             171   -0.0510 21.7 198 
 BAR2 EZ ES        529  1.61                             171   -0.3010 21.7 198 
 BAR2 EZ I         529  3.50         4.2 0.26            171           21.7 198 
 BRR  HZ EP        528 47.99                             152    0.0910 74.8 299 
 BRR  HN ES        529  5.21                             152    0.2810 74.8 299 
 BRR  HZ I         529  6.72         7.0 0.40            153           74.8 299 
 RUS  HZ EP        528 50.06                             145   -0.0210 98.1 178 
 RUS  HN ES        529  8.96                             145    0.1510 98.1 178 
 RUS  HZ I         529 10.62         2.5 0.34            146           98.1 178 
 ZAR  HE ES        529 24.76                             123   -0.21 8  208 292 
                                                                                
