 2016 1031 0230 28.4 L   6.798 -73.150149.3  RSN  5 0.4 1.3LRSN                1
 GAP=136        1.11       5.5     5.7  9.7 -0.8172E+01  0.3551E+01  0.5579E+01E
 Epicentro: LOS SANTOS - SANTANDER                                             3
 ACTION:UPD 16-11-09 19:24 OP:rebc STATUS:               ID:20161031023028 L   I
 OLDACT:UP  16-10-31 16:41 OP:dani STATUS:               ID:20161031022800     3
 OLDACT:UP  16-10-31 16:41 OP:dani STATUS:               ID:20161031022800     3
 OLDACT:ARG 16-10-31 12:39 OP:dani STATUS:               ID:20161031022800     3
 2016-10-31-0228-00M.COL___316                                                 6
 STAT SP IPHASW D HRMM SECON CODA AMPLIT PERI AZIMU VELO AIN AR TRES W  DIS CAZ7
 BRR  HZ EP        230 50.42                             153    0.4810 70.9 299 
 BRR  HN ES        231  7.26                             153    0.5310 70.9 299 
 BRR  HZ I         231  8.85         4.6 0.29            154           70.9 299 
 PAM  EZ EP        230 51.19                             151    0.1410 77.9  40 
 PAM  EE ES        231  8.31                             151   -0.3910 77.9  40 
 PAM  EZ I         231 10.28         3.3 0.56            154           77.9  40 
 RUS  HZ EP        230 52.61                             145    0.0910  100 176 
 RUS  HE ES        231 11.11                             145   -0.2010  100 176 
 RUS  HZ I         231 12.44         2.0 0.50            146            100 176 
 PTB  HZ EP        230 55.11                             133   -0.53 9  147 259 
 PTB  HN ES        231 16.19                             133   -0.68 9  147 259 
 PTB  HZ I         231 17.96         1.8 0.18            134            147 259 
 SPBC HE ES        231 20.04                             130    0.48 9  163 219 
 SPBC HZ I         231 23.21         4.5 0.08            131            163 219 
 GUY2CHZ EP   4    231 14.92                             113    2.78 0  301 235 
                                                                                
