 2010  731 0519 43.8 L   6.785 -73.103147.6  RSN  5 0.2 1.4LRSN                1
 GAP=164        0.48       4.7     9.1  9.1  0.2544E+02 -0.5335E+02 -0.2412E+02E
 Epicentro: LOS SANTOS - SANTANDER                                             3
 ACTION:UPD 10-12-01 15:21 OP:pat  STATUS:               ID:20100731051943 L   I
 2010-07-31-0518-36S.COL___123                                                 6
 STAT SP IPHASW D HRMM SECON CODA AMPLIT PERI AZIMU VELO AIN AR TRES W  DIS CAZ7
 BAR2 SZ EP   1    520  3.62                             171     0.0 7   23 203 
 GIR2 SZ EP   1    520  3.54                             166    -0.2 7   34 343 
 BRR  HZ IP     C  520  5.30                             151    -0.110   76 298 
 BRR  HN ES   1    520 22.49                             151     0.2 7   76 298 
 RUS  HZ EP   1    520  7.89                             145     0.3 7   99 179 
 RUS  HZ I         520 11.34         4.3 0.89                            99 179 
 RUS  HN ES   1    520 26.04                             145    -0.1 7   99 179 
 GRA  SZ EP   1    520  9.37                             137     0.1 7  126  15 
 GRA  SZ I         520 11.03         3.2 0.41                           126  15 
                                                                                
