 2017  531 0820 14.8 L   6.805 -73.164154.1  RSN  6 0.4 1.5LRSN                1
 GAP=236        1.04       5.5     6.3  8.4  0.1108E+02  0.2962E+01  0.4620E+01E
 Epicentro: LOS SANTOS - SANTANDER                                             3
 ACTION:UPD 17-06-16 13:40 OP:jn   STATUS:               ID:20170531082014 L   I
 OLDACT:UP  17-05-31 14:34 OP:ar   STATUS:               ID:20170531081739     3
 OLDACT:REG 17-05-31 13:23 OP:osc  STATUS:               ID:20170531081739     3
 2017-05-31-0818-00M.COL___341                                                 6
 STAT SP IPHASW D HRMM SECON CODA AMPLIT PERI AZIMU VELO AIN AR TRES W  DIS CAZ7
 BRR  HZ IP     C  820 36.92                             154    0.1410 69.1 299 
 BRR  HE ES        820 54.48                             154    0.5810 69.1 299 
 BRR  HZ I         820 56.46         6.0 0.32            151           69.1 299 
 RUS  HZ EP        820 39.66                             145    0.1910  101 175 
 RUS  HN ES        820 58.08                             145   -0.6010  101 175 
 RUS  HZ I         820 58.89         2.7 0.28            145            101 175 
 PTB  HZ EP        820 41.68                             134   -0.65 9  146 258 
 PTB  HN ES        821  3.32                             134   -0.46 9  146 258 
 PTB  HZ I         821  9.90         3.3 0.26            132            146 258 
 SPBC HZ EP        820 44.05                             131    0.14 9  162 218 
 SPBC HN ES        821  7.04                             131    0.45 9  162 218 
 SPBC HZ I         821 12.81         3.6 0.10            130            162 218 
 ZAR  HN ES        821 12.97                             124   -0.23 9  202 292 
 ZAR  HZ I         821 16.78         4.5 0.05            124            202 292 
 NOR  HZ EP        820 51.28                             120    0.35 8  233 234 
 NOR  HN ES        821 19.25                             120    0.17 8  233 234 
 NOR  HZ I         821 24.02         2.0 0.16            120            233 234 
                                                                                
