 2014  131 0658 46.7 L   6.847 -73.147145.9  RSN  5 0.4 1.5LRSN                1
 GAP=134        1.07       5.4     6.3 10.4 -0.7695E+01  0.2474E+02 -0.1439E+02E
 Epicentro: LOS SANTOS - SANTANDER                                             3
 ACTION:UPD 14-03-13 10:00 OP:ep   STATUS:               ID:20140131065846 L   I
 OLDACT:REG 14-01-31 07:33 OP:nd   STATUS:               ID:20140131065000     3
 2014-01-31-0650-00M.COL___288                                                 6
 STAT SP IPHASW D HRMM SECON CODA AMPLIT PERI AZIMU VELO AIN AR TRES W  DIS CAZ7
 BAR2 SZ EP        659  7.05                             168    0.6110 28.4 188 
 BAR2 SZ I         659 24.52         6.6 0.18            166           28.4 188 
 PAM  SZ EP        659  7.88                             152   -0.8110 73.6  42 
 PAM  SN ES        659 26.03                             152    0.1810 73.6  42 
 PAM  SZ I         659 28.55         6.3 0.54            150           73.6  42 
 RUS  HZ EP        659 11.29                             142    0.4710  106 176 
 RUS  HN ES        659 29.44                             142   -0.2210  106 176 
 RUS  HZ I         659 31.41         3.7 0.34            139            106 176 
 PTB  HZ EP        659 13.50                             132   -0.25 9  149 257 
 PTB  HN ES        659 34.68                             132   -0.18 9  149 257 
 PTB  HZ I         659 37.05         3.6 0.14            131            149 257 
 SML  HZ EP        659 22.88                             118    0.08 8  239 335 
 SML  HN ES   2    659 51.60                             118    0.62 4  239 335 
                                                                                
