 2010  331 0221  0.9 L   6.808 -73.051144.2  RSN 13 0.5 2.9LRSN                1
 GAP=133        0.92       4.1     6.3  6.3 -0.8485E+01  0.7799E+01  0.5356E+00E
 Epicentro: LOS SANTOS - SANTANDER                                             3
 ACTION:UP  10-08-24 09:56 OP:vdl  STATUS:               ID:20100331022100 L   I
 2010-03-31-0218-59S.COL___098                                                 6
 STAT SP IPHASW D HRMM SECON CODA AMPLIT PERI AZIMU VELO SNR AR TRES W  DIS CAZ7
 BAR2 SZ IP        221 20.66                             168     0.210   28 211 
 BAR2 SZ ES   1    221 35.55                             168    -0.2 7   28 211 
 BRR  HZ IP        221 22.67                             149     0.210   80 294 
 BRR  HN ES   2    221 39.76                             149     0.5 5   80 294 
 BRR  HZ I         221 42.41       153.8 0.32                            80 294 
 RUS  HZ IP        221 24.49                             143    -0.110  101 182 
 RUS  HN ES   2    221 42.86                             143    -0.2 5  101 182 
 OCA  SZ EP        221 28.97                             129    -0.2 9  161 349 
 OCA  SZ ES   2    221 50.58                             129    -0.6 5  161 349 
 OCA  SZ I         221 58.16       137.5 0.53                           161 349 
 CHI  HZ EP   2    221 38.74                             116    -0.2 4  252 197 
 CHI  HE ES   2    222  7.64                             116    -1.0 4  252 197 
 CHI  HZ I         222 17.47        29.9 0.90                           252 197 
 ROSC BZ EP        221 40.23                             116     0.6 8  259 213 
 ROSC BE ES   1    222 10.32                             116     0.5 6  259 213 
 ROSC BZ I         222 16.64        46.5 0.55                           259 213 
 HEL  HZ EP        221 42.79                             113     0.6 7  282 256 
 HEL  HN ES   2    222 13.75                             113    -0.7 4  282 256 
 HEL  HZ I         222 18.96        23.2 0.34                           282 256 
 RREF BZ EP        221 47.61                             110    -0.4 7  330 230 
 RREF BE ES   2    222 24.00                             110    -0.7 3  330 230 
 RREF BZ I         222 33.17        43.4 0.28                           330 230 
 DBB  SZ EP        221 48.91                             109    -0.6 6  350 274 
 SDV  BZ IP        221 50.01                             108     0.1 6  352  49 
 SDV  BZ I         221 50.79        42.6 0.15                           352  49 
 TOL  SZ EP        221 50.66                             108     0.6 6  352 226 
 ANIL BZ EP   3    221 51.80                             108     0.2 2  365 226 
 ANIL BN ES   2    222 31.43                             108     0.3 3  365 226 
 ANIL BZ I         222 38.58        60.7 0.23                           365 226 
 PRA  HZ EP        221 54.36                             106    -0.7 6  398 211 
 PRA  HE ES   2    222 35.71                             106    -1.6 3  398 211 
 PRA  HZ I         222 42.36        25.7 0.31                           398 211 
                                                                                
