 2012  731 0357 14.3 L   6.759 -73.159149.7  RSN  5 0.4 1.5LRSN                1
 GAP=137        0.86       6.3     6.0  8.4 -0.3532E+01  0.5813E+01  0.1882E+01E
 Epicentro: LOS SANTOS - SANTANDER                                             3
 ACTION:UPD 12-08-14 11:46 OP:ep   STATUS:               ID:20120731035714 L   I
 2012-07-31-0350-00M.COL___209                                                 6
 STAT SP IPHASW D HRMM SECON CODA AMPLIT PERI AZIMU VELO AIN AR TRES W  DIS CAZ7
 BAR2 SZ EP   1    357 34.42                             173     0.1 7   19 188 
 BAR2 SZ ES   1    357 49.97                             173     0.1 7   19 188 
 BAR2 SZ I         357 51.22        12.8 0.22            173             19 188 
 BRR  HZ EP   1    357 36.27                             153     0.4 7   72 302 
 BRR  HN ES   1    357 53.31                             153     0.5 7   72 302 
 BRR  HZ I         357 56.26         6.7 0.20            151             72 302 
 PAM  SZ EP   1    357 37.35                             150     0.2 7   82  38 
 PAM  SE ES   1    357 54.41                             150    -0.6 7   82  38 
 RUS  HZ EP   1    357 37.85                             146    -0.2 7   96 175 
 RUS  HN ES   1    357 56.90                             146     0.2 7   96 175 
 PTB  HZ EP   1    357 41.26                             133    -0.1 7  145 260 
 PTB  HN ES   1    358  1.81                             133    -0.7 7  145 260 
 PTB  HZ I         358  5.05         1.9 0.18            134            145 260 
