 2013  331 0500 14.1 L   6.732 -73.289146.8  RSN  4 0.3 1.4LRSN                1
 GAP=191        0.73      10.0    10.1  7.8  0.8657E+02  0.2669E+02  0.2008E+02E
 Epicentro: ZAPATOCA - SANTANDER                                               3
 ACTION:UPD 13-04-09 14:06 OP:ep   STATUS:               ID:20130331050014 L   I
 2013-03-31-0500-00M.COL___245                                                 6
 STAT SP IPHASW D HRMM SECON CODA AMPLIT PERI AZIMU VELO AIN AR TRES W  DIS CAZ7
 BAR2 SZ EP   1    5 0 33.34                             172   -0.43 7 19.4 143 
 BAR2 SZ ES        5 0 48.86                             172   -0.2710 19.4 143 
 BAR2 SZ I         5 0 51.69         7.4 0.28            174           19.4 143 
 BRR  HZ EP   1    5 0 35.42                             156    0.53 7 62.5 312 
 BRR  HE ES        5 0 51.36                             156    0.2510 62.5 312 
 BRR  HZ I         5 0 55.03         4.3 0.48            158           62.5 312 
 RUS  HZ EP   1    5 0 37.59                             145    0.00 7 95.6 166 
 RUS  HN ES   1    5 0 56.20                             145    0.28 7 95.6 166 
 RUS  HZ I         5 0 57.59         3.1 0.28            149           95.6 166 
 ZAR  HE ES        5 1  9.64                             124   -0.25 9  193 296 
                                                                                
