 2013 1231 0131 37.6 L   6.805 -73.190141.3  RSN  5 0.5 1.4LRSN                1
 GAP=275        1.20       7.9     7.6  9.0  0.7642E+01  0.1358E+02  0.8144E+01E
 Epicentro: ZAPATOCA - SANTANDER                                               3
 ACTION:UPD 14-01-13 10:22 OP:ep   STATUS:               ID:20131231013137 L   I
 OLDACT:REG 13-12-31 08:38 OP:stll STATUS:               ID:20131231012817     3
 2013-12-31-0128-17M.COL___237                                                 6
 STAT SP IPHASW D HRMM SECON CODA AMPLIT PERI AZIMU VELO AIN AR TRES W  DIS CAZ7
 BAR2 SZ EP        131 56.69                             170    0.0410 23.6 178 
 BAR2 SZ I         131 57.08         7.2 0.36            167           23.6 178 
 BAR2 SZ ES        132 11.73                             170    0.1910 23.6 178 
 RUS  HZ EP        132  1.16                             142    0.2210  102 173 
 RUS  HZ I         132  1.59         1.6 0.42            143            102 173 
 RUS  HN ES        132 18.68                             142   -0.5010  102 173 
 PTB  HZ EP        132  3.43                             132   -0.30 9  143 258 
 PTB  HN ES        132 23.65                             132   -0.50 9  143 258 
 PTB  HZ I         132 30.74         3.3 0.52            129            143 258 
 SPBC HZ EP        132  5.75                             128    0.29 9  161 218 
 SPBC HN ES        132 28.33                             128    1.10 9  161 218 
 SPBC HZ I         132 33.60         5.1 0.14            127            161 218 
 CHI  HZ EP        132 14.98                             116    0.05 8  248 194 
 CHI  HN ES        132 43.38                             116   -0.71 8  248 194 
                                                                                
