 2017 1231 0121 39.3 L   6.755 -73.185140.0  RSN  7 0.4 1.5LRSN                1
 GAP=139        1.06       4.6     5.1  7.6 -0.1033E+02  0.1655E+02 -0.6808E+01E
 Epicentro: LOS SANTOS - SANTANDER                                             3
 ACTION:UPD 18-01-04 13:25 OP:rebc STATUS:               ID:20171231012139 L   I
 OLDACT:DUP 17-12-31 12:15 OP:osc  STATUS:               ID:20171231011738d    3
 OLDACT:DUP 17-12-31 12:10 OP:osc  STATUS:               ID:20171231011737d    3
 OLDACT:DUP 17-12-31 11:53 OP:osc  STATUS:               ID:20171231011736d    3
 2017-12-31-0118-00M.COL___409                                                 6
 STAT SP IPHASW D HRMM SECON CODA AMPLIT PERI AZIMU VELO AIN AR TRES W  DIS CAZ7
 BAR2 EZ EP        121 58.10                             172    0.0110 18.0 179 
 BAR2 EZ ES        122 12.96                             172    0.1810 18.0 179 
 BAR2 EZ I         122 14.34        10.8 0.24            175           18.0 179 
 PAM  EZ EP        122  0.87                             148   -0.4110 84.0  40 
 PAM  EN ES        122 18.20                             148   -0.2610 84.0  40 
 PAM  EZ I         122 20.55         3.8 0.58            150           84.0  40 
 PTB  HZ EP        122  4.80                             132   -0.48 9  143 260 
 PTB  HE ES        122 25.81                             132    0.23 9  143 260 
 PTB  HZ I         122 28.25         2.9 0.08            133            143 260 
 OCA  HZ EP        122  8.11                             127    0.55 9  165 355 
 OCA  HE ES        122 30.23                             127    0.59 9  165 355 
 OCA  HZ I         122 33.44         7.9 0.32            129            165 355 
 ZAR  HZ EP        122 10.37                             121   -0.74 9  202 294 
 ZAR  HN ES        122 35.47                             121   -0.49 9  202 294 
 ZAR  HZ I         122 42.39         3.4 0.46            122            202 294 
 DRL03HE ES        122 53.91                             112    0.17 7  293 354 
 GUY2CHZ EP        122 22.57                             112    0.70 7  295 235 
 GUY2CHE ES        122 55.49                             112    0.39 7  295 235 
 GUY2CHZ I         123  4.52         1.5 0.34                           295 235 
                                                                                
