 2015  131 0042  2.2 L   6.798 -73.202145.3  RSN  6 0.3 1.7LRSN                1
 GAP=196        0.71       2.7     6.2  4.9  0.4736E+01  0.4472E+01  0.1954E+01E
 Epicentro: ZAPATOCA - SANTANDER                                               3
 ACTION:UPD 15-03-02 15:43 OP:nd   STATUS:               ID:20150131004202 L   I
 OLDACT:UP  15-01-31 14:04 OP:cam  STATUS:               ID:20150131003816     3
 OLDACT:REG 15-01-31 13:00 OP:cam  STATUS:               ID:20150131003816     3
 2015-01-31-0038-16M.COL___280                                                 6
 STAT SP IPHASW D HRMM SECON CODA AMPLIT PERI AZIMU VELO AIN AR TRES W  DIS CAZ7
 BAR2 EZ EP        042 21.57                             171   -0.2010 22.9 174 
 BAR2 EZ ES        042 36.65                             171   -0.3810 22.9 174 
 BAR2 EZ I         042 37.81         5.1 0.22            168           22.9 174 
 BRR  HZ EP        042 23.50                             154    0.4810 65.9 301 
 BRR  HN ES        042 39.44                             154    0.2010 65.9 301 
 BRR  HN I         042 41.06        14.0 0.20            153           65.9 301 
 RUS  HZ EP        042 26.14                             144    0.1910  101 172 
 RUS  HN ES        042 44.69                             144    0.2410  101 172 
 SPBC HZ EP        042 29.99                             130   -0.30 9  159 217 
 SPBC HN ES        042 52.22                             130    0.03 9  159 217 
 SPBC HZ I         042 54.08         5.1 0.30            128            159 217 
 SML  HN ES        043  6.60                             118   -0.31 8  241 337 
 CHI  HZ EP        042 39.78                             117    0.09 8  247 194 
 CHI  HN ES        043  8.68                             117   -0.24 8  247 194 
 CHI  HN I         043 14.15         3.8 0.30            117            247 194 
                                                                                
