 2012  131 0752 11.8 L   6.638 -73.238155.5  RSN  6 0.3 1.4LRSN                1
 GAP=123        0.80       7.7     7.2  9.4  0.2691E+02 -0.5085E+01 -0.1597E+02E
 Epicentro: BARICHARA - SANTANDER                                              3
 ACTION:UP  12-02-03 08:22 OP:REBC STATUS:               ID:20120131075211 L   I
 2012-01-31-0750-00M.COL___187                                                 6
 STAT SP IPHASW D HRMM SECON CODA AMPLIT PERI AZIMU VELO SNR AR TRES W  DIS CAZ7
 BAR2 SZ EP   1    752 32.42                             177     0.0 7    8 129 
 BAR2 SZ I         752 49.64         8.3 0.32                             8 129 
 GIR2 SZ EP   1    752 33.06                             162    -0.2 7   49   6 
 BRR  HZ EP   1    752 34.47                             153     0.3 7   74 315 
 BRR  HZ I         752 34.73         6.0 0.13                            74 315 
 BRR  HE ES   1    752 51.74                             153     0.1 7   74 315 
 RUS  HZ EP   1    752 35.36                             150    -0.1 7   84 168 
 RUS  HN ES   1    752 53.81                             150    -0.1 7   84 168 
 RUS  HZ I         752 56.93         2.7 0.43                            84 168 
 PTB  HZ EP   1    752 39.25                             137     0.7 7  135 265 
 PTB  HN ES   1    752 59.18                             137    -0.2 7  135 265 
 PTB  HZ I         753  3.54         0.0 0.15                           135 265 
 ZAR  HZ EP   1    752 44.09                             125    -0.7 6  202 298 
 ZAR  HN ES   2    753 10.12                             125    -0.3 4  202 298 
 ZAR  HZ I         753 14.54         1.8 0.14                           202 298 
                                                                                
