 2011  731 0512 30.3 L   7.163 -72.948169.3  RSN  6 0.4 1.5LRSN                1
 GAP=171        0.73       4.4     9.1  6.8 -0.1438E+02 -0.5818E+01  0.1823E+01E
 Epicentro: TONA - SANTANDER                                                   3
 ACTION:UPD 12-07-25 14:04 OP:epov STATUS:               ID:20110731051230 L   I
 2011-07-31-0500-00M.COL___141                                                 6
 STAT SP IPHASW D HRMM SECON CODA AMPLIT PERI AZIMU VELO AIN AR TRES W  DIS CAZ7
 BRI  SZ EP   1    512 54.26                             159    0.37 7 63.4  15 
 BRI  SZ ES   1    513 12.87                             159    0.55 7 63.4  15 
 BAR2 SZ EP   1    512 53.87                             157   -0.33 7 68.2 202 
 BAR2 SZ ES   1    513 12.67                             157   -0.20 7 68.2 202 
 BAR2 SZ I         513 13.62         4.0 0.22                          68.2 202 
 GRA  SZ EP   1    512 54.84                             153    0.09 7 81.4  11 
 GRA  SZ ES   1    513 13.10                             153   -0.76 7 81.4  11 
 GRA  SZ I         513 13.71         7.6 0.52                          81.4  11 
 BRR  HZ EP   1    512 54.55                             152   -0.15 7 84.6 266 
 BRR  HZ I         513  1.25         6.2 0.10                          84.6 266 
 BRR  HN ES   1    513 13.94                             152    0.17 7 84.6 266 
 OCA  SZ EP   1    512 57.83                             142    0.15 7  126 341 
 OCA  SZ I         514 55.70         7.4 0.40                           126 341 
 RUS  HZ EP   1    512 59.19                             139   -0.17 7  141 186 
 RUS  HZ I         512 59.63         1.6 0.12                           141 186 
 RUS  HE ES   1    513 22.38                             139    0.32 7  141 186 
                                                                                
