 2013  331 0032 25.5 L   6.765 -73.160152.6  RSN  7 0.5 1.9LRSN                1
 GAP=199        1.01       5.4     6.6  8.1  0.9602E+01  0.7655E+01 -0.6152E+01E
 Epicentro: LOS SANTOS - SANTANDER                                             3
 ACTION:UPD 13-04-09 14:05 OP:ep   STATUS:               ID:20130331003225 L   I
 2013-03-31-0030-00M.COL___245                                                 6
 STAT SP IPHASW D HRMM SECON CODA AMPLIT PERI AZIMU VELO AIN AR TRES W  DIS CAZ7
 BAR2 SZ EP        032 46.09                             172    0.2410 19.3 187 
 BAR2 SZ ES   1    033  1.35                             172   -0.39 7 19.3 187 
 BAR2 SZ I         033  6.00        14.3 0.36            169           19.3 187 
 BRR  HZ EP        032 47.80                             153    0.4110 71.8 302 
 BRR  HN ES   1    033  5.29                             153    0.80 7 71.8 302 
 BRR  HZ I         033  7.46         7.8 0.14            150           71.8 302 
 RUS  HZ EP        032 49.66                             146    0.0210 96.9 175 
 RUS  HN ES   1    033  8.00                             146   -0.49 7 96.9 175 
 RUS  HZ I         033  9.55         3.9 0.16            149           96.9 175 
 PTB  HZ EP        032 52.66                             134   -0.14 9  145 260 
 PTB  HN ES   1    033 14.09                             134   -0.03 7  145 260 
 PTB  HZ I         033 21.07         9.7 0.22            133            145 260 
 ZAR  HZ EP   1    032 58.87                             124    0.50 6  204 293 
 ZAR  HE ES   1    033 24.07                             124    0.04 6  204 293 
 ZAR  HZ I         033 29.33         7.8 0.58            125            204 293 
 NOR  HZ EP   1    033  1.80                             120    0.57 6  231 235 
 NOR  HN ES   1    033 28.35                             120   -0.77 6  231 235 
 NOR  HZ I         033 35.60         5.8 0.52            121            231 235 
 SML  HZ EP   1    033  2.14                             118   -0.65 6  247 336 
 SML  HN ES   1    033 30.73                             118   -1.17 6  247 336 
 SML  HZ I         033 35.43        14.6 0.24            121            247 336 
 SJC  HZ EP   4    033 20.32                             107   -1.21 0  412 327 
 SJC  HN ES   4    034  2.99                             107   -2.28 0  412 327 
                                                                                
