 2013  731 0552 45.8 L   6.807 -73.130151.3  RSN 12 0.5 2.2LRSN                1
 GAP=185        0.95       3.1     4.9  6.2 -0.1577E+01  0.7743E+01  0.8463E+00E
 Epicentro: LOS SANTOS - SANTANDER                                             3
 ACTION:UPD 13-08-12 10:41 OP:ep   STATUS:               ID:20130731055245 L   I
 OLDACT:REG 13-07-31 10:10 OP:carl STATUS:               ID:20130731054959     3
 2013-07-31-0549-59M.COL___266                                                 6
 STAT SP IPHASW D HRMM SECON CODA AMPLIT PERI AZIMU VELO AIN AR TRES W  DIS CAZ7
 BAR2 SZ IP     D  553  6.19                             170    0.0410 24.5 194 
 BAR2 SZ ES   1    553 21.57                             170   -0.43 7 24.5 194 
 BAR2 SZ I         553 23.07        24.1 0.38            168           24.5 194 
 GIR2 SZ IP     C  553  6.25                             168    0.1010 30.8 347 
 GIR2 SZ ES   1    553 22.64                             168    0.64 7 30.8 347 
 GIR2 SZ I         553 24.32        17.7 0.26            164           30.8 347 
 BRR  HZ IP     C  553  8.07                             153    0.4310 72.3 297 
 BRR  HN ES   1    553 25.64                             153    0.99 7 72.3 297 
 BRR  HZ I         553 29.50        19.8 0.12            148           72.3 297 
 RUS  HZ EP        553 10.26                             145    0.0810  101 177 
 RUS  HN ES   1    553 28.58                             145   -0.59 7  101 177 
 RUS  HZ I         553 30.04        13.5 0.24            148            101 177 
 PTB  HZ EP        553 12.73                             133   -0.68 9  150 259 
 PTB  HN ES   1    553 34.71                             133   -0.23 7  150 259 
 PTB  HZ I         553 39.37        15.7 0.24            132            150 259 
 OCA  HZ EP   1    553 14.64                             131    0.12 7  160 352 
 OCA  HE ES        553 36.59                             131   -0.31 9  160 352 
 OCA  HZ I         553 42.89        15.8 0.30            132            160 352 
 SPBC HZ EP   1    553 15.11                             130    0.20 7  165 219 
 SPBC HN ES   1    553 37.39                             130   -0.22 7  165 219 
 SPBC HZ I         553 40.00        29.1 0.30            131            165 219 
 ZAR  HZ EP   1    553 18.88                             123    0.11 6  205 292 
 ZAR  HE ES   1    553 44.62                             123    0.16 6  205 292 
 ZAR  HE I         553 50.36        74.3 0.34            123            205 292 
 ZAR  HZ I         553 51.27        27.4 0.26                           205 292 
 NOR  HZ EP   4    553 19.92                             119   -2.16 0  237 235 
 NOR  HE ES   4    553 49.85                             119   -0.51 0  237 235 
 SML  HZ EP   1    553 22.72                             119   -0.04 6  244 335 
 SML  HE ES        553 50.82                             119   -0.76 8  244 335 
 SML  HZ I         553 56.60        20.1 0.10            119            244 335 
 HEL  HN ES   1    553 58.56                             116    0.28 6  274 256 
 HEL  HN I         554  7.89         6.4 0.36            116            274 256 
 URE  HZ EP   4    553 29.20                             115    1.89 0  285 292 
 URE  HE ES   4    553 56.71                             115   -2.96 0  285 292 
 GUY2CHZ EP   1    553 30.89                             113    0.99 5  303 235 
 GUY2CHN ES        554  3.93                             113   -0.36 7  303 235 
 GUY2CHZ I         554 14.10         5.9 0.42                           303 235 
 RREF HN ES   4    554 10.92                             112    2.15 0  324 229 
 PRA  HZ EP   1    553 40.62                             107    0.90 4  394 210 
 PRA  HN ES   1    554 21.38                             107   -0.38 4  394 210 
 PRA  HZ I         554 25.54         4.0 0.50            109            394 210 
                                                                                
