 2016  731 0411  1.2 L   6.700 -74.211 30.4  RSN  6 0.3 1.0LRSN                1
 GAP=162        0.76       3.5     2.3  5.7 -0.3307E+01 -0.1712E+00  0.1393E+02E
 Epicentro: PUERTO PARRA - SANTANDER                                           3
 ACTION:UPD 17-03-29 16:57 OP:lp   STATUS:               ID:20160731041101 L   I
 OLDACT:DUP 16-07-31 15:43 OP:edw  STATUS:               ID:20160731040736d    3
 2016-07-31-0408-00M.COL___347                                                 6
 STAT SP IPHASW D HRMM SECON CODA AMPLIT PERI AZIMU VELO AIN AR TRES W  DIS CAZ7
 BRR  HZ EP        411 12.78                             105   -0.3610 71.2  51 
 BRR  HE ES        411 22.93                             105    0.4410 71.2  51 
 SPBC HZ EP        411 18.41                              61   -0.5610  117 172 
 SPBC HN ES        411 33.09                              61    0.2310  117 172 
 SPBC HZ I         411 33.27         3.5 0.14             56            117 172 
 RUS  HZ EP        411 24.06                              61    0.04 9  153 126 
 RUS  HN ES        411 41.85                              61   -0.00 9  153 126 
 RUS  HZ I         411 44.66         1.4 0.16             56            153 126 
 HEL  HZ EP   4    411 26.19                              61    1.96 0  156 249 
 HEL  HN ES        411 42.14                              61   -0.09 9  156 249 
 HEL  HZ I         411 43.59         3.1 0.34             56            156 249 
 PAM  EZ EP   3    411 27.91                              61    0.40 2  181  67 
 PAM  EE ES        411 47.93                              61   -0.12 9  181  67 
 GUY2CHZ EP        411 30.84                              61    0.10 8  207 218 
 GUY2CHN ES        411 54.20                              61    0.40 8  207 218 
 GUY2CHZ I         411 58.02         0.9 0.26                           207 218 
                                                                                
