 2011  131 0951 56.2 L   6.574 -73.596107.6  RSN  5 0.3 1.4LRSN                1
 GAP=159        0.68       4.1     5.7  7.0 -0.1202E+02  0.2166E+02 -0.7978E+01E
 Epicentro: EL CARMEN DE CHUCURI - SANTANDER                                   3
 ACTION:UP  11-02-08 08:44 OP:pat  STATUS:               ID:20110131095156 L   I
 2011-01-31-0949-54S.COL___135                                                 6
 STAT SP IPHASW D HRMM SECON CODA AMPLIT PERI AZIMU VELO SNR AR TRES W  DIS CAZ7
 BAR2 SZ IP     C  952 12.39                             155     0.310   46  88 
 BAR2 SZ ES        952 24.51                             155     0.010   46  88 
 RUS  HZ EP   1    952 15.43                             136    -0.4 7   94 143 
 RUS  HZ I         952 15.85         3.1 0.26                            94 143 
 RUS  HN ES   1    952 30.95                             136    -0.3 7   94 143 
 GRA  SZ EP        952 22.89                             117     0.1 9  169  31 
 GRA  SZ I         952 53.31         6.0 0.41                           169  31 
 NOR  SZ EP   2    952 23.22                             116    -0.6 4  180 232 
 NOR  SN ES   1    952 45.40                             116     0.0 7  180 232 
 CHI  HZ EP   2    952 28.26                             111     0.0 4  216 184 
 CHI  HE ES   1    952 53.80                             111     0.5 6  216 184 
 CHI  HZ I         952 57.09         2.0 0.40                           216 184 
                                                                                
