 2014 1031 0221  9.4 L   6.765 -73.128151.2  RSN  4 0.5 1.3LRSN                1
 GAP=237        1.25       7.8     9.4 11.4  0.2303E+02 -0.7780E+01  0.7299E+00E
 Epicentro: LOS SANTOS - SANTANDER                                             3
 ACTION:UPD 14-11-29 23:58 OP:nd   STATUS:               ID:20141031022109 L   I
 OLDACT:REG 14-10-31 13:55 OP:carl STATUS:               ID:20141031021746     3
 2014-10-31-0217-46M.COL___268                                                 6
 STAT SP IPHASW D HRMM SECON CODA AMPLIT PERI AZIMU VELO AIN AR TRES W  DIS CAZ7
 BRR  HZ EP        221 31.44                             152    0.1510 74.8 300 
 BRR  HN ES        221 48.84                             152    0.4410 74.8 300 
 BRR  HZ I         221 52.78         5.2 0.30            154           74.8 300 
 RUS  HZ EP        221 33.26                             146   -0.1110 96.6 177 
 RUS  HN ES        221 51.67                             146   -0.4310 96.6 177 
 RUS  HZ I         221 53.22         1.8 0.28            151           96.6 177 
 PTB  HZ EP        221 36.60                             133   -0.28 9  149 260 
 PTB  HN ES        221 57.47                             133   -0.88 9  149 260 
 SPBC HZ EP        221 38.41                             131    0.30 9  161 220 
 SPBC HN ES        222  1.39                             131    0.85 9  161 220 
                                                                                
