 2013  131 0710 14.3 L   6.231 -73.144187.9  RSN  4 0.5 1.6LRSN                1
 GAP=176        1.04      12.6    11.7 10.4  0.7096E+02  0.2469E+02  0.2007E+02E
 Epicentro: CHARALA - SANTANDER                                                3
 ACTION:UP  13-02-15 09:18 OP:ep   STATUS:               ID:20130131071013 L   I
 2013-01-31-0710-00M.COL___241                                                 6
 STAT SP IPHASW D HRMM SECON CODA AMPLIT PERI AZIMU VELO AIN AR TRES W  DIS CAZ7
 RUS  HZ EP        710 40.41                             168    0.7110 38.0 170 
 RUS  HE ES   1    710 59.23                             168   -0.27 7 38.0 170 
 RUS  HE I         711  1.33         6.0 0.38            168           38.0 170 
 BAR2 SZ EP   1    710 38.99                             168   -0.38 7 40.2 354 
 BAR2 SZ ES   1    710 58.37                             168   -0.56 7 40.2 354 
 BAR2 SZ I         710 59.33        13.2 0.41            169           40.2 354 
 BRR  HZ EP   1    710 42.55                             147   -0.07 7  115 327 
 BRR  HE ES   1    711  5.33                             147    0.63 7  115 327 
 BRR  HE I         711  7.12         5.1 0.25            148            115 327 
 PTB  HZ EP        710 44.62                             140   -0.47 9  149 283 
 PTB  HN ES   1    711  9.26                             140    0.16 7  149 283 
 PTB  HN I         711 11.35         1.8 0.09            140            149 283 
                                                                                
