 2013  831 0554 20.9 L   7.430 -73.185132.1  RSN  8 0.5 2.0LRSN                1
 GAP=186        1.00       3.2     5.5  8.2  0.2842E+01  0.2456E+01  0.8413E+00E
 Epicentro: EL PLAYON - SANTANDER                                              3
 ACTION:UPD 14-01-14 09:08 OP:ep   STATUS:               ID:20130831055420 L   I
 OLDACT:UP  13-08-31 14:19 OP:mh   STATUS:               ID:20130831054959     3
 OLDACT:REG 13-08-31 09:16 OP:mh   STATUS:               ID:20130831054959     3
 2013-08-31-0549-59M.COL___269                                                 6
 STAT SP IPHASW D HRMM SECON CODA AMPLIT PERI AZIMU VELO AIN AR TRES W  DIS CAZ7
 BRR  HZ EP   1    554 40.91                             151    0.54 7 68.2 239 
 BRR  HN ES        554 55.81                             151    0.2210 68.2 239 
 BRR  HN I         554 56.60        51.1 0.56            151           68.2 239 
 OCA  HZ EP   1    554 42.27                             144    0.19 7 90.7 351 
 OCA  HN ES        554 58.80                             144    0.1710 90.7 351 
 OCA  HN I         555  0.79        43.9 0.22            144           90.7 351 
 BAR2 SZ EP   1    554 42.90                             143    0.56 7 92.6 180 
 BAR2 SZ ES   1    554 59.02                             143   -0.07 7 92.6 180 
 BAR2 SZ I         555  0.23         8.8 0.50            145           92.6 180 
 RUS  HZ EP   1    554 49.36                             125   -0.23 7  170 176 
 RUS  HN ES        555 11.55                             125   -0.45 9  170 176 
 PTB  HZ EP   1    554 49.27                             124    0.18 7  172 235 
 PTB  HN ES        555 10.26                             124   -0.84 9  172 235 
 PTB  HN I         555 12.15         7.4 0.24            125            172 235 
 SML  HZ EP   1    554 49.55                             123   -0.41 7  180 327 
 SML  HN ES        555 12.01                             123   -0.65 9  180 327 
 SML  HZ I         555 13.21        14.3 0.10            124            180 327 
 ZAR  HZ EP   1    554 50.65                             122    0.22 7  185 272 
 ZAR  HN ES        555 14.08                             122    0.58 9  185 272 
 ZAR  HN I         555 16.85         9.6 0.30            123            185 272 
 SPBC HN ES   2    555 21.11                             117    0.83 4  220 207 
                                                                                
