 2012  131 0127 40.6 L   6.532 -73.575102.9  RSN  7 0.4 1.5LRSN                1
 GAP= 88        0.85       4.3     4.1  8.8  0.1224E+01  0.8934E+01 -0.4234E+01E
 Epicentro: EL CARMEN DE CHUCURI - SANTANDER                                   3
 ACTION:UP  12-02-03 08:22 OP:REBC STATUS:               ID:20120131012740 L   I
 2012-01-31-0120-00M.COL___188                                                 6
 STAT SP IPHASW D HRMM SECON CODA AMPLIT PERI AZIMU VELO SNR AR TRES W  DIS CAZ7
 BAR2 SZ EP   1    127 56.14                             155     0.2 7   44  81 
 BAR2 SZ ES   1    128  8.31                             155     0.4 7   44  81 
 BAR2 SZ I         128 10.38        33.5 0.36                            44  81 
 GIR2 SZ EP   1    127 57.76                             141     0.1 7   74  35 
 RUS  HZ EP   1    127 59.99                             136     0.6 7   89 142 
 RUS  HN ES   1    128 13.95                             136    -0.2 7   89 142 
 RUS  HZ I         128 15.78         2.2 0.17                            89 142 
 PTB  HZ EP   1    127 59.18                             133    -0.3 7   97 271 
 PTB  HN ES   1    128 13.94                             133    -0.3 7   97 271 
 PAM  SZ EP   1    128  3.09                             124    -0.3 7  132  47 
 PAM  SN ES   2    128 20.24                             124    -1.0 5  132  47 
 ZAR  HZ EP   1    128  8.26                             115     0.6 7  177 307 
 ZAR  HN ES   2    128 28.62                             115    -0.1 4  177 307 
 ZAR  HZ I         128 33.61         5.3 0.16                           177 307 
 CHI  HN ES   1    128 36.14                             110    -0.3 6  211 185 
                                                                                
