 2010  331 0153 24.7 L   6.820 -73.041141.3  RSN  8 0.5 2.1LRSN                1
 GAP=133        0.88       5.3     8.1  6.9 -0.1360E+02 -0.7865E+00 -0.5232E+00E
 Epicentro: LOS SANTOS - SANTANDER                                             3
 ACTION:UP  10-08-24 09:56 OP:vdl  STATUS:               ID:20100331015324 L   I
 2010-03-31-0151-57S.COL___098                                                 6
 STAT SP IPHASW D HRMM SECON CODA AMPLIT PERI AZIMU VELO SNR AR TRES W  DIS CAZ7
 BAR2 SZ IP        153 44.01                             167     0.110   30 212 
 BAR2 SZ ES   1    153 58.53                             167    -0.4 7   30 212 
 BRR  HZ IP        153 45.98                             148     0.110   81 293 
 BRR  HZ I         153 46.23        25.7 0.10                            81 293 
 BRR  HN ES   2    154  3.13                             148     0.6 5   81 293 
 RUS  HZ EP   2    153 47.94                             142    -0.2 5  103 183 
 RUS  HN ES   2    154  6.27                             142    -0.2 5  103 183 
 RUS  HZ I         154  7.82        14.2 0.27                           103 183 
 OCA  SZ EP   1    153 52.75                             128     0.2 7  160 349 
 OCA  SZ ES   2    154 13.89                             128    -0.5 5  160 349 
 OCA  SZ I         154 17.66        20.2 0.16                           160 349 
 ROSC BZ EP        154  4.26                             115     0.8 8  261 213 
 HEL  HZ EP   2    154  5.48                             113    -0.5 4  284 256 
 RREF BZ EP        154 11.27                             109    -0.5 7  332 230 
 RREF BE ES   2    154 47.37                             109    -1.2 3  332 230 
 RREF BZ I         154 55.52         6.9 0.24                           332 230 
 SDV  BZ EP        154 13.22                             108    -0.1 6  350  49 
                                                                                
