 2013 1231 0718 12.9 L   6.742 -73.140147.1  RSN  6 0.5 1.4LRSN                1
 GAP=234        1.29       6.3     8.2  8.7  0.1087E+02  0.7515E+01  0.1329E+02E
 Epicentro: JORDAN - SANTANDER                                                 3
 ACTION:UPD 14-01-13 10:22 OP:ep   STATUS:               ID:20131231071812 L   I
 OLDACT:DUP 13-12-31 12:47 OP:stll STATUS:               ID:20131231070817d    3
 2013-12-31-0708-16M.COL___231                                                 6
 STAT SP IPHASW D HRMM SECON CODA AMPLIT PERI AZIMU VELO AIN AR TRES W  DIS CAZ7
 BAR2 SZ EP        718 32.48                             173   -0.1110 17.2 196 
 BAR2 SZ ES        718 47.80                             173   -0.1410 17.2 196 
 BAR2 SZ I         718 49.12         9.5 0.14            166           17.2 196 
 BRR  HZ EP        718 34.59                             151    0.1810 75.0 303 
 BRR  HN ES        718 52.08                             151    0.8910 75.0 303 
 BRR  HZ I         718 54.21         3.7 0.16            148           75.0 303 
 RUS  HZ EP        718 36.05                             146   -0.2910 94.2 176 
 RUS  HN ES        718 54.19                             146   -0.4210 94.2 176 
 RUS  HZ I         718 56.25         2.4 0.36            145           94.2 176 
 PTB  HZ EP        718 39.16                             132   -0.78 9  147 261 
 PTB  HN ES        719  0.28                             132   -0.74 9  147 261 
 PTB  HZ I         719  6.37         2.9 0.46            130            147 261 
 SPBC HZ EP        718 41.74                             130    0.66 9  159 221 
 SPBC HN ES        719  3.23                             130    0.17 9  159 221 
 SPBC HZ I         719 11.30         4.5 0.38            128            159 221 
 CHI  HZ EP        718 50.26                             118    0.23 8  243 196 
 CHI  HZ I         718 52.65         1.0 0.24            118            243 196 
 CHI  HN ES        719 19.58                             118    0.59 8  243 196 
                                                                                
