 2012  731 0013  4.1 L   6.756 -73.193150.3  RSN  5 0.4 1.4LRSN                1
 GAP=133        0.79       6.9     6.5  8.3  0.9909E+01 -0.2815E+01 -0.8834E+01E
 Epicentro: VILLANUEVA - SANTANDER                                             3
 ACTION:UPD 12-08-14 11:46 OP:ep   STATUS:               ID:20120731001304 L   I
 2012-07-31-0010-00M.COL___208                                                 6
 STAT SP IPHASW D HRMM SECON CODA AMPLIT PERI AZIMU VELO AIN AR TRES W  DIS CAZ7
 BAR2 SZ ES   1    013 39.44                             173    -0.4 7   18 176 
 BRR  HZ EP   1    013 25.81                             154     0.2 7   69 304 
 BRR  HN ES   1    013 43.02                             154     0.6 7   69 304 
 PAM  SZ EP   1    013 26.87                             149    -0.4 7   84  40 
 RUS  HZ EP   1    013 28.25                             146     0.2 7   96 173 
 RUS  HN ES   1    013 46.84                             146     0.2 7   96 173 
 RUS  HZ I         013 47.91         4.4 0.38            143             96 173 
 PTB  HZ EP   1    013 30.95                             134     0.0 7  142 260 
 PTB  HN ES   1    013 51.36                             134    -0.5 7  142 260 
 PTB  HZ I         013 59.29         2.7 0.28            129            142 260 
