 2011  731 0423 28.8 L   7.356 -73.502107.8  RSN  7 0.3 1.3LRSN                1
 GAP=131        0.55       2.4     4.4  6.1 -0.8389E+00  0.8233E+01  0.7252E+00E
 Epicentro: SABANA DE TORRES - SANTANDER                                       3
 ACTION:UPD 12-07-25 14:04 OP:epov STATUS:               ID:20110731042328 L   I
 2011-07-31-0421-17S.COL___141                                                 6
 STAT SP IPHASW D HRMM SECON CODA AMPLIT PERI AZIMU VELO AIN AR TRES W  DIS CAZ7
 BRR  HZ EP   1    423 43.94                             160   -0.03 8 36.0 220 
 BRR  HN ES   2    423 55.93                             160    0.13 6 36.0 220 
 BRI  SZ EP   1    423 47.71                             138    0.21 8 87.4  63 
 BRI  SZ ES   2    424  2.08                             138   -0.01 6 87.4  63 
 BAR2 SZ EP   1    423 47.94                             136    0.01 8 91.6 157 
 BAR2 SZ ES   1    424  2.60                             136   -0.24 8 91.6 157 
 BAR2 SZ I         424  4.20         4.9 0.34                          91.6 157 
 OCA  SZ EP   1    423 48.39                             134   -0.12 8 99.7  12 
 OCA  SZ ES   2    424  3.80                             134   -0.08 6 99.7  12 
 OCA  SZ I         424  5.42         9.5 0.30                          99.7  12 
 RUS  HZ EP   1    423 55.25                             118   -0.52 7  168 164 
 RUS  HE ES        424 17.13                             118    0.3210  168 164 
 RUS  HZ I         424 25.05         1.0 0.16                           168 164 
 NOR  SN ES   2    424 31.41                             108   -0.65 4  249 217 
 HEL  HZ EP   1    424  6.30                             107    0.50 6  258 240 
 HEL  HZ I         424 15.84         1.6 0.40                           258 240 
                                                                                
