 2013  131 0206  1.6 L   6.810 -73.101141.4  RSN  4 0.3 1.5LRSN                1
 GAP=142        0.65       4.5     4.1  6.8 -0.2183E+01 -0.1205E+01  0.4895E+01E
 Epicentro: LOS SANTOS - SANTANDER                                             3
 ACTION:UPD 13-02-15 09:18 OP:ep   STATUS:               ID:20130131020601 L   I
 2013-01-31-0200-00M.COL___241                                                 6
 STAT SP IPHASW D HRMM SECON CODA AMPLIT PERI AZIMU VELO AIN AR TRES W  DIS CAZ7
 PAM  SZ EP        2 6 23.44                             151    0.3110 73.5  37 
 PAM  SZ I         2 6 23.69         5.2 0.24            154           73.5  37 
 PAM  SN ES   1    2 6 39.35                             151   -0.56 7 73.5  37 
 BRR  HZ EP        2 6 22.56                             150    0.0410 75.1 296 
 BRR  HN ES        2 6 39.05                             150    0.2310 75.1 296 
 BRR  HN I         2 6 43.07         9.2 0.19            148           75.1 296 
 RUS  HZ EP   1    2 6 24.82                             143   -0.18 7  101 179 
 RUS  HE ES   1    2 6 43.42                             143    0.18 7  101 179 
 PTB  HZ EP   1    2 6 28.41                             130   -0.28 7  153 259 
 PTB  HN ES   1    2 6 49.55                             130   -0.26 7  153 259 
 PTB  HZ I         2 6 53.85         2.5 0.15            130            153 259 
                                                                                
