 2010 1231 0152 52.1 L   6.802 -73.169136.0  RSN  5 0.2 1.4LRSN                1
 GAP=156        0.56       3.6     6.9  9.8 -0.1612E+02  0.3268E+02 -0.1232E+02E
 Epicentro: LOS SANTOS - SANTANDER                                             3
 ACTION:UP  11-01-14 15:28 OP:pat  STATUS:               ID:20101231015252 L   I
 2010-12-31-0149-13S.COL___136                                                 6
 STAT SP IPHASW D HRMM SECON CODA AMPLIT PERI AZIMU VELO SNR AR TRES W  DIS CAZ7
 BAR2 SZ EP        153 10.66                             170     0.110   23 184 
 BAR2 SZ I         153 26.38         4.6 0.08                            23 184 
 RUS  HZ EP   1    153 14.64                             141    -0.3 7  101 175 
 RUS  HE ES   1    153 32.85                             141     0.1 7  101 175 
 RUS  HZ I         153 33.75         4.7 0.26                           101 175 
 GRA  SZ EP        153 16.69                             134     0.210  126  19 
 GRA  SZ ES   1    153 35.21                             134    -0.3 7  126  19 
 GRA  SZ I         153 37.31         5.2 0.29                           126  19 
 NOR  SZ EP   2    153 27.06                             116     0.0 4  233 234 
 NOR  SN ES   1    153 54.31                             116     0.0 6  233 234 
 CHI  HE ES   2    153 57.68                             115    -0.5 4  248 195 
 CHI  HZ I         154  2.17         2.1 0.24                           248 195 
                                                                                
