 2016  831 0315  0.2 L   6.793 -73.144139.9  RSN 15 0.4 2.2LRSN                1
 GAP= 71        0.86       2.5     2.8  4.7 -0.1367E+01  0.3869E+01  0.2941E+00E
 Epicentro: LOS SANTOS - SANTANDER                                             3
 ACTION:UPD 16-10-29 15:40 OP:rebc STATUS:               ID:20160831031500 L   I
 OLDACT:UP  16-08-31 15:40 OP:drio STATUS:               ID:20160831030736     3
 OLDACT:UP  16-08-31 15:40 OP:drio STATUS:               ID:20160831030736     3
 OLDACT:REG 16-08-31 12:45 OP:drio STATUS:               ID:20160831030736     3
 2016-08-31-0308-00M.COL___347                                                 6
 STAT SP IPHASW D HRMM SECON CODA AMPLIT PERI AZIMU VELO AIN AR TRES W  DIS CAZ7
 BAR2 EZ EP        315 19.26                             170    0.1110 22.6 191 
 BAR2 EZ ES        315 33.90                             170   -0.0010 22.6 191 
 BAR2 EZ I         315 34.94        75.4 0.28                          22.6 191 
 BRR  HZ IP     C  315 20.99                             151    0.2010 71.8 299 
 BRR  HE ES   4    315 38.15                             151    1.32 0 71.8 299 
 BRR  HZ I         315 39.08        25.8 0.12                          71.8 299 
 PAM  EZ EP        315 22.12                             150    0.2610 77.9  39 
 PAM  HN ES        315 39.13                             150    0.4010 77.9  39 
 PAM  EZ I         315 41.41        44.4 0.46                          77.9  39 
 RUS  HZ EP        315 23.08                             143   -0.2810 99.8 176 
 RUS  HE ES        315 41.69                             143    0.3010 99.8 176 
 RUS  HZ I         315 42.48        19.6 0.22                          99.8 176 
 PTB  HZ EP   4    315 25.82                             131   -0.92 0  148 259 
 PTB  HE ES        315 47.02                             131   -0.40 9  148 259 
 PTB  HZ I         315 48.67        29.3 0.48                           148 259 
 TAM  HZ EP        315 27.28                             129   -0.14 9  155 105 
 OCA  HZ EP        315 27.47                             128   -0.71 9  161 353 
 OCA  HN ES        315 49.63                             128   -0.35 9  161 353 
 OCA  HZ I         315 52.62        55.0 0.24                           161 353 
 SPBC HZ EP        315 28.11                             128   -0.14 9  163 219 
 SPBC HN ES        315 49.45                             128   -0.65 9  163 219 
 SPBC HZ I         315 52.11        30.6 0.24                           163 219 
 ZAR  HZ EP        315 32.44                             121    0.08 9  205 292 
 ZAR  HN ES        315 57.69                             121    0.27 9  205 292 
 ZAR  HZ I         316  3.88        24.4 0.26                           205 292 
 NOR  HZ EP        315 35.92                             117    0.32 8  234 235 
 NOR  HE ES        316  3.45                             117    0.26 8  234 235 
 NOR  HZ I         316  8.18        12.5 0.52                           234 235 
 CHI  HZ EP        315 37.42                             116   -0.12 8  248 195 
 CHI  HN ES        316  6.60                             116   -0.03 8  248 195 
 CHI  HZ I         316 13.46         5.1 0.54                           248 195 
 HEL  HZ EP        315 41.15                             114    0.99 8  272 256 
 HEL  HE ES        316 11.34                             114    0.04 8  272 256 
 HEL  HZ I         316 20.04         6.0 0.24                           272 256 
 GUY2CHZ EP   4    315 45.23                             111    1.68 0  301 235 
 GUY2CHE ES   4    316 18.69                             111    1.36 0  301 235 
 GUY2CHZ I         316 24.67         6.4 0.34                           301 235 
 CBOC HZ EP        315 46.73                             109   -0.18 7  334 252 
 CBOC HN ES        316 23.27                             109   -0.05 7  334 252 
 CBOC HZ I         316 36.12         2.4 0.70                           334 252 
 SJC  HZ EP   4    315 53.16                             105   -2.55 0  410 327 
 SJC  HE ES   4    316 35.15                             105   -3.82 0  410 327 
 SJC  HZ I         316 39.15         5.2 0.54                           410 327 
                                                                                
