 2011  131 0841 55.0 L   6.831 -73.152151.6  RSN  5 0.4 1.5LRSN                1
 GAP=158        0.64       5.0    11.5  8.3 -0.1710E+01  0.2807E+02 -0.3073E+01E
 Epicentro: LOS SANTOS - SANTANDER                                             3
 ACTION:UP  11-02-08 08:44 OP:pat  STATUS:               ID:20110131084155 L   I
 2011-01-31-0839-39S.COL___135                                                 6
 STAT SP IPHASW D HRMM SECON CODA AMPLIT PERI AZIMU VELO SNR AR TRES W  DIS CAZ7
 BAR2 SZ EP        842 15.30                             170    -0.110   27 188 
 BAR2 SZ ES   1    842 31.39                             170     0.1 7   27 188 
 RUS  HZ EP   2    842 18.65                             144    -0.9 5  104 176 
 RUS  HE ES   2    842 38.59                             144    -0.1 5  104 176 
 GRA  SZ EP   2    842 21.11                             139     0.6 5  123  18 
 GRA  SZ I         842 48.64         4.4 0.25                           123  18 
 CHI  HZ EP   2    842 33.53                             118     0.2 4  252 195 
 CHI  HE ES   1    843  3.66                             118     0.4 6  252 195 
 MON  HE ES   2    843 21.82                             110    -0.2 3  350 308 
                                                                                
