 2014 1231 0756 23.9 L   6.749 -73.218145.6  RSN 10 0.7 1.8LRSN                1
 GAP=217        1.61       6.8     7.2  9.2  0.1687E+02  0.2100E+02  0.1154E+02E
 Epicentro: ZAPATOCA - SANTANDER                                               3
 ACTION:UPD 15-02-10 17:08 OP:nd   STATUS:               ID:20141231075623 L   I
 OLDACT:REG 14-12-31 13:53 OP:stll STATUS:               ID:20141231074748     3
 2014-12-31-0747-48M.COL___268                                                 6
 STAT SP IPHASW D HRMM SECON CODA AMPLIT PERI AZIMU VELO AIN AR TRES W  DIS CAZ7
 BAR2 EZ EP        756 43.29                             173   -0.1210 17.8 167 
 BAR2 EZ I         756 43.30        17.0 0.20            164           17.8 167 
 BAR2 EZ ES        756 58.18                             173   -0.4410 17.8 167 
 BRR  HZ IP     D  756 45.22                             154    0.4010 67.5 306 
 BRR  HZ I         756 45.47        19.8 0.26            150           67.5 306 
 BRR  HN ES        757  1.19                             154    0.0510 67.5 306 
 RUS  HZ EP        756 46.45                             145   -0.8510 95.9 171 
 RUS  HN ES        757  5.86                             145    0.3110 95.9 171 
 RUS  HZ I         757  8.58         5.5 0.28            141           95.9 171 
 PTB  HZ EP        756 49.89                             134   -0.17 9  139 260 
 PTB  HN ES        757 10.87                             134    0.40 9  139 260 
 PTB  HZ I         757 14.51         9.1 0.18            130            139 260 
 SPBC HZ EP        756 52.19                             131    0.68 9  154 218 
 SPBC HN ES        757 13.57                             131    0.53 9  154 218 
 SPBC HZ I         757 20.72        15.3 0.10            127            154 218 
 ZAR  HZ EP        756 55.97                             123    0.16 9  199 294 
 ZAR  HE ES        757 20.67                             123   -0.03 9  199 294 
 ZAR  HZ I         757 27.88        12.5 0.32            122            199 294 
 CHI  HZ EP        756 59.51                             118   -1.27 8  241 194 
 CHI  HN ES        757 29.92                             118    0.37 8  241 194 
 CHI  HZ I         757 40.48         2.1 0.38            116            241 194 
 HEL  HZ EP        757  4.00                             116    0.90 8  263 257 
 HEL  HE ES        757 33.34                             116   -0.34 8  263 257 
 HEL  HZ I         757 41.91         5.5 0.28            114            263 257 
 CBOC HZ EP        757 10.81                             110    1.07 7  324 253 
 CBOC HE ES        757 43.43                             110   -2.07 7  324 253 
 CBOC HZ I         757 55.49         1.8 0.28            110            324 253 
 MON  HZ EP   9    757 10.80                             109   -1.79 0  351 310 
 MON  HN ES        757 47.72                                   -1.06 6  351 310 
 MON  HZ I         757 50.86         1.6 0.32            109            351 310 
                                                                                
