 2017 1031 0857 37.3 L   6.768 -73.104145.1  RSN  5 0.2 1.1LRSN                1
 GAP=143        0.58       3.8     4.5  5.3  0.5541E+01 -0.7301E+01 -0.5199E+01E
 Epicentro: LOS SANTOS - SANTANDER                                             3
 ACTION:UPD 17-11-07 19:39 OP:rebc STATUS:               ID:20171031085737 L   I
 OLDACT:UP  17-10-31 18:37 OP:dani STATUS:               ID:20171031084740d    3
 OLDACT:DUP 17-10-31 18:35 OP:dani STATUS:               ID:20171031084740d    3
 2017-10-31-0848-00M.COL___429                                                 6
 STAT SP IPHASW D HRMM SECON CODA AMPLIT PERI AZIMU VELO AIN AR TRES W  DIS CAZ7
 BAR2 EZ EP        857 56.62                             171   -0.1510 21.3 204 
 BAR2 HE ES        858 11.71                             171   -0.2710 21.3 204 
 BAR2 EZ I         858 12.61         3.7 0.38            171           21.3 204 
 BRR  HZ EP        857 58.39                             150   -0.2810 77.0 299 
 BRR  HE ES        858 15.66                             150    0.2910 77.0 299 
 BRR  HZ I         858 16.58         3.8 0.33            152           77.0 299 
 PAM  EZ EP        857 59.56                             151    0.1610 77.3  35 
 RUS  HZ EP        858  0.82                             145    0.1410 96.9 179 
 RUS  HN ES        858 19.07                             145    0.1310 96.9 179 
 RUS  HZ I         858 20.76         1.1 0.54            145           96.9 179 
 PTB  HN ES   1    858 25.79                             131   -0.01 7  152 260 
                                                                                
