 2012 1031 0825 22.4 L   5.932 -73.876 32.0  RSN  5 0.5 2.0LRSN                1
 GAP=235        1.06      12.0    10.6 20.9  0.1063E+03 -0.6724E+02 -0.1015E+03E
 Epicentro: SUCRE - SANTANDER                                                  3
 ACTION:UPD 12-11-22 17:06 OP:ep   STATUS:               ID:20121031082522 L   I
 2012-10-31-0820-00M.COL___231                                                 6
 STAT SP IPHASW D HRMM SECON CODA AMPLIT PERI AZIMU VELO AIN AR TRES W  DIS CAZ7
 RUS  HZ EP        825 37.27                              61    0.4010 87.9  93 
 RUS  HN ES   1    825 47.52                              61   -0.64 7 87.9  93 
 RUS  HN I         825 48.89        20.2 0.32                          87.9  93 
 BAR2 SZ EP        825 38.34                              61   -0.4810  106  46 
 BAR2 SZ I         825 51.69        62.2 0.48                           106  46 
 BRR  HZ EP        825 41.85                              61    0.1610  131   8 
 BRR  HN ES   1    825 56.91                              61    0.16 7  131   8 
 BRR  HN I         825 57.75        42.2 0.14                           131   8 
 GIR2 SZ EP        825 44.48                              61    0.57 9  148  31 
 ZAR  HN ES   1    826 12.24                              61   -0.70 6  204 328 
 ZAR  HN I         826 13.31         9.3 0.34                           204 328 
                                                                                
