 2013  731 0140  1.6 L   6.806 -73.135148.4  RSN  8 0.5 1.7LRSN                1
 GAP=184        1.03       4.5     6.5  8.8  0.5535E+01  0.7534E+01 -0.7397E+01E
 Epicentro: LOS SANTOS - SANTANDER                                             3
 ACTION:UPD 13-08-12 10:41 OP:ep   STATUS:               ID:20130731014001 L   I
 OLDACT:REG 13-07-31 10:04 OP:carl STATUS:               ID:20130731013959     3
 2013-07-31-0139-59M.COL___267                                                 6
 STAT SP IPHASW D HRMM SECON CODA AMPLIT PERI AZIMU VELO AIN AR TRES W  DIS CAZ7
 BAR2 SZ EP   1    140 21.85                             170    0.31 8 24.2 192 
 BAR2 SZ ES   1    140 36.43                             170   -0.68 8 24.2 192 
 BAR2 SZ I         140 38.73         7.8 0.28            170           24.2 192 
 GIR2 SZ EP   1    140 21.93                             168    0.39 8 30.8 348 
 GIR2 SZ ES   1    140 37.19                             168    0.07 8 30.8 348 
 GIR2 SZ I         140 39.82         6.3 0.30            168           30.8 348 
 BRR  HZ EP   1    140 23.81                             153    0.77 8 71.9 298 
 BRR  HN ES   1    140 40.54                             153    0.75 8 71.9 298 
 BRR  HN I         140 41.05        12.5 0.48            153           71.9 298 
 RUS  HZ EP   1    140 25.85                             144    0.22 8  101 177 
 RUS  HN ES   1    140 44.09                             144   -0.30 8  101 177 
 RUS  HZ I         140 45.04         3.3 0.22            146            101 177 
 PTB  HZ EP   1    140 28.67                             132   -0.20 8  149 259 
 PTB  HN ES   1    140 49.46                             132   -0.70 8  149 259 
 PTB  HZ I         140 52.85         4.2 0.20            133            149 259 
 OCA  HZ EP   1    140 29.29                             130   -0.75 7  160 353 
 OCA  HE ES        140 52.36                             130    0.1210  160 353 
 ZAR  HE ES        141  0.11                             123    0.34 9  205 292 
 ZAR  HE I         141  2.09        17.5 0.20            124            205 292 
 SML  HN ES        141  6.33                             118   -0.67 9  244 335 
                                                                                
