 2016  131 0049 32.7 L   6.819 -73.142145.6  RSN  6 0.5 1.5LRSN                1
 GAP=136        0.99       3.8     5.5  7.3 -0.4837E+01  0.1636E+02 -0.6863E+01E
 Epicentro: LOS SANTOS - SANTANDER                                             3
 ACTION:UPD 16-03-09 23:29 OP:cam  STATUS:               ID:20160131004932 L   I
 OLDACT:UP  16-01-31 15:15 OP:ak   STATUS:               ID:20160131004800     3
 OLDACT:REG 16-01-31 13:25 OP:ak   STATUS:               ID:20160131004800     3
 2016-01-31-0047-59S.COL___229                                                 6
 STAT SP IPHASW D HRMM SECON CODA AMPLIT PERI AZIMU VELO AIN AR TRES W  DIS CAZ7
 BAR2 EZ EP   2    049 50.80                             170   -1.51 5 25.4 190 
 BAR2 EZ ES        050  7.05                             170   -0.5910 25.4 190 
 BAR2 EZ I         050  8.19         4.2 0.24            170           25.4 190 
 PAM  EZ EP   1    049 54.22                             151   -0.52 7 75.5  40 
 PAM  EE ES        050 12.52                             151    0.5510 75.5  40 
 PAM  EZ I         050 14.75         5.6 0.50            155           75.5  40 
 RUS  HZ EP        049 56.56                             143    0.0210  103 176 
 RUS  HN ES        050 15.53                             143    0.3610  103 176 
 RUS  HZ I         050 18.07         2.7 0.40            147            103 176 
 PTB  HZ EP        049 59.64                             132   -0.04 9  149 258 
 PTB  HN ES        050 20.74                             132   -0.03 9  149 258 
 PTB  HZ I         050 26.45         3.6 0.22            132            149 258 
 SPBC HZ EP        050  1.49                             129    0.17 9  165 219 
 SPBC HN ES        050 23.82                             129    0.14 9  165 219 
 SPBC HZ I         050 28.63         6.6 0.19            130            165 219 
 SML  HZ EP        050  9.38                             117    0.29 8  242 335 
 SML  HN ES        050 37.43                             117   -0.07 8  242 335 
 SML  HZ I         050 43.83         4.5 0.08            119            242 335 
                                                                                
