 2013 1031 0346 38.9 L   6.836 -74.034 86.0  RSN  5 0.1 1.3LRSN                1
 GAP=101        0.38       2.1     1.4  3.5  0.6814E+00  0.2096E+00  0.4926E+00E
 Epicentro: PUERTO PARRA - SANTANDER                                           3
 ACTION:UPD 13-11-25 09:24 OP:ep   STATUS:               ID:20131031034638 L   I
 OLDACT:REG 13-10-31 05:55 OP:jn   STATUS:               ID:20131031034000     3
 2013-10-31-0340-00M.COL___273                                                 6
 STAT SP IPHASW D HRMM SECON CODA AMPLIT PERI AZIMU VELO AIN AR TRES W  DIS CAZ7
 BRR  HZ EP   1    346 52.07                             149   -0.08 7 46.6  50 
 BRR  HN ES        347  2.61                             149    0.0910 46.6  50 
 BRR  HZ I         347  4.59         8.8 0.28            148           46.6  50 
 PTB  HZ EP        346 52.80                             144   -0.0810 57.0 235 
 PTB  HN ES        347  3.91                             144    0.0810 57.0 235 
 PTB  HZ I         347  4.67         7.5 0.12            143           57.0 235 
 BAR2 SZ EP   1    346 56.77                             128    0.01 7 98.0 106 
 BAR2 SZ ES        347 10.67                             128   -0.0610 98.0 106 
 BAR2 SZ I         347 12.04        11.3 0.18            126           98.0 106 
 ZAR  HZ EP   1    346 58.62                             122    0.29 7  116 309 
 ZAR  HN ES   1    347 13.27                             122   -0.26 7  116 309 
 ZAR  HZ I         347 16.23         6.6 0.32            122            116 309 
 RUS  HN ES   1    347 20.74                             116   -0.02 7  148 135 
 RUS  HZ I         347 25.04         1.2 0.42            115            148 135 
                                                                                
