 2016 1231 0250 30.4 L   6.488 -73.602102.0  RSN  7 0.5 1.6LRSN                1
 GAP= 96        1.22       6.1     5.0  8.6  0.8846E+01  0.9133E+01  0.1070E+01E
 Epicentro: SANTA HELENA DEL OPON - SANTANDER                                  3
 ACTION:UPD 17-01-11 20:20 OP:rebc STATUS:               ID:20161231025030 L   I
 OLDACT:REG 16-12-31 12:20 OP:dnl  STATUS:               ID:20161231024740     3
 2016-12-31-0248-00M.COL___362                                                 6
 STAT SP IPHASW D HRMM SECON CODA AMPLIT PERI AZIMU VELO AIN AR TRES W  DIS CAZ7
 BAR2 EZ EP        250 45.62                             153   -0.2110 47.9  76 
 BAR2 EZ ES        250 57.88                             153    0.0010 47.9  76 
 BRR  HZ EP        250 46.40                             143   -0.5010 69.6 350 
 BRR  HN ES        251  0.39                             143    0.6110 69.6 350 
 BRR  HZ I         251 10.76         7.5 0.26            144           69.6 350 
 RUS  HZ EP        250 48.79                             136   -0.2010 87.4 139 
 RUS  HE ES        251  3.99                             136    0.4810 87.4 139 
 RUS  HZ I         251  4.57         8.9 0.22            147           87.4 139 
 PTB  HZ IP     D  250 48.39                             133   -0.5810 94.6 274 
 PTB  HN ES        251  3.27                             133   -0.1910 94.6 274 
 PTB  HZ I         251  4.42        12.9 0.48            138           94.6 274 
 PAM  EZ EP        250 53.40                             122   -0.32 9  137  47 
 PAM  EN ES   4    251 10.07                             122   -1.85 0  137  47 
 PAM  EZ I         251 11.34         5.0 0.26            128            137  47 
 ZAR  HZ EP        250 58.25                             114    0.80 9  178 309 
 ZAR  HE ES   4    251 20.98                             114    2.41 0  178 309 
 ZAR  HZ I         251 22.54        13.8 0.38            119            178 309 
 GUY2CHZ EP   2    251  6.70                             107    1.54 4  240 234 
 GUY2CHE ES   4    251 35.62                             107    3.34 0  240 234 
 GUY2CHZ I         251 42.22         2.7 0.44                           240 234 
                                                                                
