 2013  831 0017 43.9 L   6.800 -73.143140.3  RSN 12 0.4 2.2LRSN                1
 GAP=137        0.90       2.9     4.1  5.3 -0.1709E+01  0.4593E+01  0.3900E+01E
 Epicentro: LOS SANTOS - SANTANDER                                             3
 ACTION:UPD 14-01-14 09:08 OP:ep   STATUS:               ID:20130831001743 L   I
 OLDACT:DUP 13-08-31 09:44 OP:mh   STATUS:               ID:20130831000960d    3
 OLDACT:UP  13-08-31 09:43 OP:mh   STATUS:               ID:20130831000959     3
 OLDACT:REG 13-08-31 09:05 OP:mh   STATUS:               ID:20130831000959     3
 2013-08-31-0009-59M.COL___269                                                 6
 STAT SP IPHASW D HRMM SECON CODA AMPLIT PERI AZIMU VELO AIN AR TRES W  DIS CAZ7
 BAR2 SZ EP        018  2.91                             170    0.0010 23.4 191 
 BAR2 SZ ES   1    018 17.49                             170   -0.22 7 23.4 191 
 BAR2 SZ I         018 19.52        36.6 0.20            167           23.4 191 
 BRR  HZ EP        018  4.79                             151    0.2810 71.5 298 
 BRR  HN ES        018 20.90                             151    0.3410 71.5 298 
 BRR  HZ I         018 25.02        33.5 0.24            151           71.5 298 
 PAM  SZ EP        018  5.73                             150    0.1710 77.2  39 
 PAM  SN ES   1    018 22.94                             150    0.52 7 77.2  39 
 PAM  SZ I         018 25.65        18.4 0.42            156           77.2  39 
 RUS  HZ EP        018  6.92                             143   -0.2310  101 176 
 RUS  HN ES        018 25.22                             143   -0.0310  101 176 
 RUS  HZ I         018 27.53        13.9 0.28            144            101 176 
 PTB  HZ EP        018  9.58                             131   -0.91 9  148 259 
 PTB  HN ES        018 30.75                             131   -0.46 9  148 259 
 PTB  HZ I         018 35.50        20.1 0.36            131            148 259 
 OCA  HZ EP   1    018 11.85                             128    0.02 7  160 353 
 OCA  HN ES        018 33.16                             128   -0.43 9  160 353 
 NOR  HZ EP   1    018 19.18                             117   -0.20 6  235 235 
 NOR  HN ES   2    018 46.45                             117   -0.58 4  235 235 
 NOR  HZ I         018 54.84        14.7 0.16            118            235 235 
 CHI  HZ EP        018 21.32                             116   -0.02 8  249 195 
 CHI  HN ES        018 50.59                             116    0.07 8  249 195 
 CHI  HZ I         018 56.53         8.6 0.36            118            249 195 
 HEL  HZ EP        018 24.69                             114    0.78 8  272 256 
 HEL  HN ES   1    018 56.06                             114    0.97 6  272 256 
 HEL  HZ I         019  1.62        11.4 0.46            115            272 256 
 GUY2CHZ EP   4    018 27.86                             111    0.54 0  301 235 
 GUY2CHN ES   4    019  5.18                             111    4.01 0  301 235 
 RREF HZ EP   1    018 30.51                             110    0.64 5  322 229 
 RREF HN ES   4    019  8.05                             110    2.35 0  322 229 
 PRA  HZ EP   1    018 36.80                             106   -0.49 4  392 210 
 PRA  HN ES   1    019 19.23                             106    0.33 4  392 210 
 PRA  HZ I         019 25.32         8.6 0.30            107            392 210 
 ORTC HZ EP        018 37.63                             105   -0.06 6  396 216 
 ORTC HN ES   1    019 20.23                             105    0.61 4  396 216 
 ORTC HZ I         019 24.34         4.9 0.20            107            396 216 
                                                                                
