 2017 1031 0752 32.2 L   7.469 -73.182130.1  RSN 13 0.5 2.0LRSN                1
 GAP=107        0.98       3.0     3.0  5.3 -0.7181E+00  0.1410E+01 -0.1103E+01E
 Epicentro: EL PLAYON - SANTANDER                                              3
 ACTION:UPD 17-11-07 19:39 OP:rebc STATUS:               ID:20171031075232 L   I
 OLDACT:UP  17-10-31 18:06 OP:dani STATUS:               ID:20171031074742     3
 OLDACT:UP  17-10-31 18:05 OP:dani STATUS:               ID:20171031074742     3
 OLDACT:REG 17-10-31 13:22 OP:dani STATUS:               ID:20171031074742     3
 2017-10-31-0748-00M.COL___441                                                 6
 STAT SP IPHASW D HRMM SECON CODA AMPLIT PERI AZIMU VELO AIN AR TRES W  DIS CAZ7
 PAM  EZ EP        752 52.06                             156    0.5910 55.1 105 
 PAM  EN ES        753  6.70                             156    0.1910 55.1 105 
 PAM  EZ I         753  8.61        16.2 0.16            149           55.1 105 
 BRR  HZ EP     C  752 51.71                             150    0.0610 70.9 236 
 BRR  HE ES        753  6.92                             150    0.1010 70.9 236 
 BRR  HZ I         753  7.92        19.2 0.12            143           70.9 236 
 BAR2 EZ EP     C  752 53.66                             141   -0.1410 96.9 180 
 BAR2 EZ ES        753 10.26                             141   -0.3910 96.9 180 
 BAR2 EZ I         753 11.92        16.5 0.42            133           96.9 180 
 PTB  HZ EP        753  0.07                             123   -0.49 9  174 234 
 PTB  HE ES        753 22.59                             123   -0.10 9  174 234 
 PTB  HZ I         753 24.42         8.0 0.14            117            174 234 
 RUS  HZ EP        753  0.56                             123   -0.66 9  175 176 
 ZAR  HZ EP        753  1.74                             121    0.08 9  185 271 
 ZAR  HN ES        753 25.19                             121    0.55 9  185 271 
 ZAR  HZ I         753 33.03         6.1 0.10            116            185 271 
 TAM  HZ EP        753  2.74                             120    0.37 9  191 127 
 TAM  HN ES        753 26.04                             120    0.13 9  191 127 
 SPBC HZ EP        753  5.56                             116   -0.34 8  224 206 
 SPBC HN ES        753 31.74                             116   -0.45 8  224 206 
 SPBC HZ I         753 38.33        11.6 0.20            110            224 206 
 YPLC HZ EP        753  8.36                             114    0.05 8  246 159 
 YPLC HZ I         753 39.89         4.0 0.36            108            246 159 
 LL6C HZ EP        753  9.20                             113    0.41 8  251 358 
 LL6C HE ES        753 36.49                             113   -0.85 8  251 358 
 LL6C HZ I         753 40.40         7.5 0.70            108            251 358 
 NOR  HZ EP   3    753 14.07                             111    1.74 2  281 222 
 NOR  HN ES        753 43.87                             111    0.24 7  281 222 
 NOR  HZ I         753 49.34         9.1 0.18            105            281 222 
 GUY2CHZ EP   9    753 22.43                             106    2.06 0  346 224 
 GUY2CHN ES        753 59.51                             106   -0.50 6  346 224 
 GUY2CHZ I         754  9.32         3.3 0.60                           346 224 
 PRA  HZ EP        753 32.84                             101   -0.01 5  456 205 
 PRA  HN ES        754 21.47                             101    1.31 5  456 205 
 PRA  HZ I         754 28.45         3.9 0.28             96            456 205 
                                                                                
