 2012  831 0547  7.2 L   6.708 -73.225143.1  RSN  4 0.1 1.6LRSN                1
 GAP=155        0.36       6.5     5.2  4.2  0.1475E+02 -0.1051E+01 -0.2417E+01E
 Epicentro: VILLANUEVA - SANTANDER                                             3
 ACTION:UPD 12-09-10 11:59 OP:ep   STATUS:               ID:20120831054707 L   I
 2012-08-31-0540-00M.COL___218                                                 6
 STAT SP IPHASW D HRMM SECON CODA AMPLIT PERI AZIMU VELO AIN AR TRES W  DIS CAZ7
 BAR2 SZ EP        547 26.46                             174    0.1110 13.6 160 
 BAR2 SZ ES   1    547 41.24                             174   -0.05 7 13.6 160 
 BAR2 SZ I         547 42.74        13.1 0.18                          13.6 160 
 GIR2 SZ EP        547 26.69                             163   -0.1810 41.2   5 
 BRR  HZ EP        547 28.08                             152    0.1110 69.7 309 
 BRR  HN ES   1    547 44.20                             152    0.02 7 69.7 309 
 BRR  HZ I         547 48.68         5.7 0.66                          69.7 309 
 PTB  HZ EP   2    547 32.90                             133   -0.12 5  137 262 
 PTB  HN ES   3    547 53.09                             133   -0.08 2  137 262 
                                                                                
