 2011  331 0925 25.7 L   6.831 -73.132143.9  RSN  9 0.4 2.2LRSN                1
 GAP=137        0.87       3.9     4.6  8.3 -0.4132E+01  0.7949E+00  0.9410E+01E
 Epicentro: LOS SANTOS - SANTANDER                                             3
 ACTION:UP  11-06-16 14:36 OP:jfem STATUS:               ID:20110331092525 L   I
 2011-03-31-0924-32S.COL___138                                                 6
 STAT SP IPHASW D HRMM SECON CODA AMPLIT PERI AZIMU VELO SNR AR TRES W  DIS CAZ7
 BTL  SZ EP        925 45.29                             173     0.310   18 303 
 BAR2 SZ EP        925 45.29                             168     0.110   27 192 
 BAR2 SZ ES   3    925 59.73                             168    -0.6 2   27 192 
 BRR  HZ IP        925 46.92                             153     0.310   71 296 
 BRR  HN ES   1    926  2.90                             153     0.0 7   71 296 
 BRR  HZ I         926  8.64        38.8 0.14                            71 296 
 GRA  SZ IP        925 49.81                             138    -0.610  122  17 
 GRA  SZ ES   1    926  9.39                             138    -0.4 7  122  17 
 GRA  SZ I         926 10.50        14.8 0.28                           122  17 
 OCA  SZ EP        925 53.49                             130     0.0 9  157 352 
 OCA  SZ ES   3    926 17.13                             130     1.9 2  157 352 
 OCA  SZ I         926 20.94        19.4 0.19                           157 352 
 YOP  SZ EP   1    925 55.70                             125    -0.1 7  181 154 
 YOP  SE ES   1    926 19.64                             125     0.3 7  181 154 
 YOP  SZ I         926 23.70        10.2 0.47                           181 154 
 NOR  SZ EP   1    926  1.39                             118    -0.3 6  238 234 
 NOR  SE ES        926 29.49                             118    -0.2 8  238 234 
 CHI  HZ EP        926  3.83                             116     0.2 8  252 195 
 HEL  HZ EP   1    926  6.73                             114     0.7 6  274 255 
 HEL  HE ES   1    926 37.03                             114    -0.5 6  274 255 
 HEL  HZ I         926 44.76        10.2 0.41                           274 255 
                                                                                
