 2011 1231 0759 26.5 L   6.584 -73.447112.4  RSN  5 0.3 2.0LRSN                1
 GAP=115        0.67       6.8     8.8  9.3  0.4635E+02  0.5680E+02  0.2944E+02E
 Epicentro: EL CARMEN DE CHUCURI - SANTANDER                                   3
 ACTION:UPD 12-07-13 16:19 OP:ep   STATUS:               ID:20111231075926 L   I
 2011-12-31-0758-00S.COL___179                                                 6
 STAT SP IPHASW D HRMM SECON CODA AMPLIT PERI AZIMU VELO AIN AR TRES W  DIS CAZ7
 BAR2 SZ IP        759 42.61                             164    0.2910 29.3  88 
 BAR2 SZ ES   1    759 54.83                             164    0.18 7 29.3  88 
 BAR2 SZ I         759 56.36       118.2 0.43                          29.3  88 
 BRR  HZ EP   1    759 43.52                             148   -0.22 7 64.8 333 
 BRR  HZ I         8 0  3.39        17.2 0.16                          64.8 333 
 RUS  HZ EP   1    759 45.37                             140   -0.63 7 86.5 152 
 RUS  HE ES   1    8 0  1.06                             140   -0.13 7 86.5 152 
 ZAR  HZ EP   1    759 55.02                             116    0.04 7  185 303 
 ZAR  HN ES   1    8 0 17.06                             116   -0.11 7  185 303 
 ZAR  HZ I         8 0 19.61        13.2 0.32                           185 303 
 CHI  HZ EP   1    759 59.66                             112    0.50 6  218 188 
 CHI  HZ I         8 0 27.98         3.7 0.85                           218 188 
                                                                                
