 2017  831 0537  9.7 L   6.812 -73.123137.1  RSN  9 0.5 1.5LRSN                1
 GAP=139        1.09       3.8     5.0  6.6 -0.1287E+01  0.1206E+02  0.5543E+01E
 Epicentro: LOS SANTOS - SANTANDER                                             3
 ACTION:UPD 17-09-04 20:26 OP:rebc STATUS:               ID:20170831053709 L   I
 OLDACT:REG 17-08-31 12:30 OP:dhb  STATUS:               ID:20170831052728     3
 2017-08-31-0528-00M.COL___402                                                 6
 STAT SP IPHASW D HRMM SECON CODA AMPLIT PERI AZIMU VELO AIN AR TRES W  DIS CAZ7
 BAR2 EZ IP        537 28.16                             169   -0.1710 25.2 195 
 BAR2 EZ ES        537 42.42                             169   -0.4410 25.2 195 
 BAR2 EZ I         537 44.11         7.7 0.18            167           25.2 195 
 BRR  HZ IP     C  537 29.91                             150   -0.1010 72.8 297 
 BRR  HN ES        537 46.78                             150    0.9210 72.8 297 
 BRR  HZ I         537 50.00         6.5 0.34            150           72.8 297 
 PAM  EZ EP        537 30.64                             150   -0.1910 74.7  39 
 PAM  EE ES        537 46.91                             150   -0.4110 74.7  39 
 PAM  EZ I         537 50.13         7.6 0.32            155           74.7  39 
 RUS  HZ EP        537 33.02                             142    0.3210  102 178 
 RUS  HE ES        537 51.15                             142    0.5110  102 178 
 RUS  HZ I         537 52.83         4.6 0.19            143            102 178 
 SPBC HZ IP     C  537 37.63                             127   -0.17 9  166 219 
 SPBC HE ES        537 59.80                             127    0.07 9  166 219 
 SPBC HZ I         538  5.42         5.1 0.53            127            166 219 
 ZAR  HZ EP        537 42.46                             120    0.67 8  206 292 
 ZAR  HE ES        538  6.05                             120   -0.77 8  206 292 
 ZAR  HZ I         538 12.54         3.6 0.12            121            206 292 
 CHI  HN ES        538 16.03                             115   -0.33 8  251 196 
 CHI  HZ I         538 23.08         1.1 0.13            117            251 196 
 GUY2CHZ EP        537 53.60                             110    0.36 7  304 235 
 GUY2CHN ES        538 27.00                             110   -0.21 7  304 235 
 GUY2CHZ I         538 36.80         1.1 0.31                           304 235 
 PRA  HZ EP        538  3.35                             105    0.13 6  394 210 
 PRA  HE ES        538 44.31                             105   -0.65 6  394 210 
 PRA  HZ I         538 49.07         1.3 0.15            106            394 210 
                                                                                
