 2017  831 0539 37.4 L   6.779 -73.178146.0  RSN  5 0.3 1.3LRSN                1
 GAP=232        0.85       4.8     6.1  6.2  0.1414E+02  0.8630E+01  0.9068E+00E
 Epicentro: LOS SANTOS - SANTANDER                                             3
 ACTION:UPD 17-09-04 20:26 OP:rebc STATUS:               ID:20170831053937 L   I
 OLDACT:REG 17-08-31 12:31 OP:dhb  STATUS:               ID:20170831053728     3
 2017-08-31-0538-00M.COL___393                                                 6
 STAT SP IPHASW D HRMM SECON CODA AMPLIT PERI AZIMU VELO AIN AR TRES W  DIS CAZ7
 BAR2 EZ IP     D  539 56.55                             172   -0.4410 20.7 181 
 BAR2 EZ ES        540 11.91                             172   -0.3710 20.7 181 
 BAR2 EZ I         540 20.06         3.8 0.13            176           20.7 181 
 BRR  HZ IP     D  539 58.31                             153   -0.1310 69.2 302 
 BRR  HZ I         540 10.99         4.0 0.10            153           69.2 302 
 BRR  HN ES        540 15.34                             153    0.4710 69.2 302 
 RUS  HZ EP        540  1.10                             144    0.0910 98.6 174 
 RUS  HN ES        540 19.90                             144    0.4510 98.6 174 
 RUS  HZ I         540 21.24         2.8 0.20            149           98.6 174 
 SPBC HZ EP        540  5.71                             130    0.19 9  159 218 
 SPBC HN ES        540 27.12                             130   -0.34 9  159 218 
 SPBC HZ I         540 31.51         2.8 0.13            133            159 218 
 ZAR  HZ EP        540  9.85                             123    0.26 9  202 293 
 ZAR  HN ES        540 34.52                             123   -0.19 9  202 293 
 ZAR  HZ I         540 39.00         2.1 0.07            124            202 293 
                                                                                
