 2011  731 0017 33.0 L   6.730 -73.100147.6  RSN  6 0.2 1.7LRSN                1
 GAP=162        0.34       2.1     4.1  3.5 -0.1645E+01 -0.4178E+01 -0.1109E+01E
 Epicentro: JORDAN - SANTANDER                                                 3
 ACTION:UPD 12-07-25 14:04 OP:epov STATUS:               ID:20110731001733 L   I
 2011-07-31-0016-01S.COL___142                                                 6
 STAT SP IPHASW D HRMM SECON CODA AMPLIT PERI AZIMU VELO AIN AR TRES W  DIS CAZ7
 BAR2 SZ IP        017 52.61                             173   -0.1210 17.7 211 
 BAR2 SZ ES   1    018  8.19                             173    0.05 7 17.7 211 
 BAR2 SZ I         018  8.64         8.5 0.23                          17.7 211 
 BRR  HZ EP   1    017 54.78                             150   -0.03 7 79.5 302 
 BRR  HE ES   1    018 11.88                             150    0.04 7 79.5 302 
 BRR  HZ I         018 16.66        11.1 0.14                          79.5 302 
 RUS  HZ EP   2    017 56.84                             146    0.48 5 92.6 179 
 RUS  HN ES   2    018 14.43                             146   -0.16 5 92.6 179 
 RUS  HZ I         018 16.42         5.9 0.30                          92.6 179 
 BRI  SZ EP   1    017 57.59                             140    0.10 7  114  17 
 BRI  SZ ES   2    018 16.38                             140   -0.22 5  114  17 
 GRA  SZ EP        017 58.85                             136   -0.0510  132  14 
 GRA  SZ ES   1    018 19.29                             136    0.17 7  132  14 
 GRA  SZ I         018 19.90         5.6 0.47                           132  14 
 OCA  SZ EP   2    018  2.08                             129   -0.14 5  169 352 
 OCA  SZ ES   2    018 24.99                             129   -0.05 5  169 352 
 OCA  SZ I         018 25.94        10.4 0.23                           169 352 
                                                                                
