 2016  531 0125 35.8 L   6.816 -73.134141.1  RSN 15 0.5 2.5LRSN                1
 GAP=137        1.16       3.1     4.1  5.7 -0.2525E+01  0.7267E+01  0.3676E+01E
 Epicentro: LOS SANTOS - SANTANDER                                             3
 ACTION:UPD 16-08-18 17:50 OP:cam  STATUS:               ID:20160531012535 L   I
 OLDACT:UP  16-05-31 16:35 OP:edw  STATUS:               ID:20160531011745     3
 OLDACT:REG 16-05-31 12:29 OP:edw  STATUS:               ID:20160531011745     3
 2016-05-31-0117-45M.COL___316                                                 6
 STAT SP IPHASW D HRMM SECON CODA AMPLIT PERI AZIMU VELO AIN AR TRES W  DIS CAZ7
 BAR2 EZ EP        125 54.89                             169   -0.0210 25.3 192 
 BAR2 EZ ES        126  9.61                             169   -0.2110 25.3 192 
 BAR2 EZ I         126 10.94        67.3 0.18            168           25.3 192 
 BRR  HZ EP        125 56.82                             152    0.3610 71.5 297 
 BRR  HE ES        126 13.63                             152    1.0510 71.5 297 
 BRR  HZ I         126 17.71        55.2 0.10            150           71.5 297 
 PAM  EZ EP        125 57.71                             151    0.3310 75.2  40 
 PAM  EN ES        126 14.62                             151    0.4010 75.2  40 
 PAM  EZ I         126 16.79        96.4 0.50            154           75.2  40 
 RUS  HZ EP        125 58.95                             142   -0.2710  102 177 
 RUS  HN ES        126 17.00                             142   -0.4910  102 177 
 RUS  HZ I         126 18.62        39.2 0.24            144            102 177 
 PTB  HZ EP        126  2.01                             131   -0.53 9  149 258 
 PTB  HN ES        126 22.90                             131   -0.50 9  149 258 
 PTB  HZ I         126 25.85        42.0 0.40            131            149 258 
 OCA  HZ EP        126  3.11                             129   -0.49 9  159 353 
 OCA  HN ES        126 24.76                             129   -0.52 9  159 353 
 OCA  HZ I         126 30.23       105.1 0.24            130            159 353 
 SPBC HZ EP        126  4.01                             128   -0.15 9  165 219 
 SPBC HN ES        126 25.63                             128   -0.65 9  165 219 
 NOR  HZ EP        126 11.43                             117   -0.06 8  237 234 
 NOR  HN ES        126 39.00                             117   -0.33 8  237 234 
 NOR  HZ I         126 40.94        25.8 0.14            118            237 234 
 CHI  HZ EP        126 13.17                             116   -0.30 8  251 195 
 CHI  HN ES        126 43.20                             116    0.35 8  251 195 
 CHI  HZ I         126 46.74         9.3 0.48            117            251 195 
 ROSC BZ EP        126 14.51                             115    0.60 8  255 211 
 ROSC BN ES        126 44.24                             115    0.60 8  255 211 
 ROSC BZ I         126 52.72        22.0 0.35            117            255 211 
 HEL  HZ EP        126 17.01                             114    1.04 8  274 256 
 HEL  HE ES        126 47.83                             114    0.53 8  274 256 
 HEL  HZ I         126 55.32        15.5 0.64            114            274 256 
 URE  HN ES        126 47.92                             113   -0.70 7  284 291 
 CBOC HZ EP        126 23.11                             109    0.38 7  335 252 
 CBOC HE ES        126 59.14                             109   -0.20 7  335 252 
 CBOC HZ I         127  2.97         5.6 0.54            110            335 252 
 PRA  HZ EP        126 28.88                             106   -0.54 6  394 210 
 PRA  HN ES        127 11.18                             106   -0.06 6  394 210 
 PRA  HZ I         127 17.60        14.4 0.68            107            394 210 
 ORTC HZ EP        126 29.97                             105    0.15 6  398 216 
 ORTC HN ES        127 12.81                             105    0.85 6  398 216 
 ORTC HZ I         127 17.98         8.1 0.28            106            398 216 
 SJC  HZ EP   4    126 29.72                             105   -1.40 0  408 327 
 SJC  HN ES   4    127 10.90                             105   -3.37 0  408 327 
                                                                                
