 2017 1031 0439 39.4 L   6.831 -73.140144.8  RSN 12 0.6 2.0LRSN                1
 GAP=216        1.35       5.1     5.5  7.1  0.9839E+01  0.6964E+01  0.8400E+01E
 Epicentro: LOS SANTOS - SANTANDER                                             3
 ACTION:UPD 17-11-07 19:39 OP:rebc STATUS:               ID:20171031043939 L   I
 OLDACT:UP  17-10-31 16:00 OP:dani STATUS:               ID:20171031043742     3
 OLDACT:REG 17-10-31 13:07 OP:dani STATUS:               ID:20171031043742     3
 2017-10-31-0438-00M.COL___441                                                 6
 STAT SP IPHASW D HRMM SECON CODA AMPLIT PERI AZIMU VELO AIN AR TRES W  DIS CAZ7
 BAR2 EZ EP        439 59.01                             169   -0.0110 26.9 190 
 BAR2 EZ ES        440 14.25                             169   -0.0610 26.9 190 
 BAR2 EZ I         440 15.60        20.0 0.16            163           26.9 190 
 BRR  HZ EP     C  440  0.78                             153    0.3610 70.1 296 
 BRR  HE ES        440 17.55                             153    0.7610 70.1 296 
 BRR  HZ I         440 21.16        16.8 0.30            151           70.1 296 
 RUS  HZ EP        440  2.98                             143   -0.3610  104 177 
 RUS  HN ES        440 21.57                             143   -0.4210  104 177 
 RUS  HZ I         440 23.70         7.0 0.28            141            104 177 
 PTB  HZ EP        440  5.72                             131   -0.72 9  149 258 
 PTB  HN ES        440 26.88                             131   -0.63 9  149 258 
 PTB  HZ I         440 27.82         8.6 0.16            130            149 258 
 SPBC HZ EP        440  7.97                             128   -0.18 9  166 218 
 SPBC HN ES        440 30.18                             128   -0.37 9  166 218 
 SPBC HZ I         440 37.64        13.4 0.22            127            166 218 
 YPLC HZ EP        440  9.47                             126    0.04 9  180 152 
 YPLC HN ES        440 32.97                             126    0.14 9  180 152 
 YPLC HZ I         440 34.43        10.6 0.24            127            180 152 
 ZAR  HN EP        440 11.11                             122   -0.63 9  203 291 
 ZAR  HE ES        440 37.22                             122    0.28 9  203 291 
 ZAR  HN I         440 42.20        19.7 0.16            123            203 291 
 NOR  HZ EP        440 15.23                             118   -0.15 8  237 234 
 NOR  HN ES        440 43.03                             118   -0.38 8  237 234 
 NOR  HZ I         440 49.68         6.3 0.50            118            237 234 
 CHI  HZ EP        440 17.39                             117   -0.07 8  252 195 
 CHI  HN ES        440 47.06                             117   -0.06 8  252 195 
 CHI  HZ I         440 52.83         4.0 0.32            117            252 195 
 ROSC BZ EP        440 18.79                             116    0.93 8  256 211 
 ROSC BN ES        440 49.60                             116    1.77 8  256 211 
 ROSC BZ I         440 57.10         5.7 0.35            116            256 211 
 GUY2CHZ EP        440 24.40                             112    1.12 7  304 234 
 GUY2CHZ I         441  9.31         4.9 0.44                           304 234 
 PRA  HZ EP        440 32.97                             106   -0.34 6  395 209 
 PRA  HE ES        441 14.70                             106   -0.63 6  395 209 
 PRA  HZ I         441 22.10         3.1 0.34            107            395 209 
                                                                                
