 2012  831 0332 59.8 L   6.792 -73.148149.3  RSN  7 0.2 1.8LRSN                1
 GAP=183        0.49       4.4     4.6  5.3  0.5891E+01  0.3083E+01  0.8734E+01E
 Epicentro: LOS SANTOS - SANTANDER                                             3
 ACTION:UPD 12-09-10 11:59 OP:ep   STATUS:               ID:20120831033259 L   I
 2012-08-31-0330-00M.COL___218                                                 6
 STAT SP IPHASW D HRMM SECON CODA AMPLIT PERI AZIMU VELO AIN AR TRES W  DIS CAZ7
 BAR2 SZ EP        333 19.93                             171    0.0610 22.4 190 
 BAR2 SZ I         333 36.59        26.0 0.24                          22.4 190 
 GIR2 SZ EP        333 19.86                             167   -0.0910 32.1 351 
 GIR2 SZ ES   1    333 35.34                             167   -0.30 7 32.1 351 
 BRR  HZ EP        333 21.74                             153    0.3710 71.4 299 
 BRR  HZ I         333 23.58        10.1 0.12                          71.4 299 
 BRR  HN ES   1    333 38.44                             153    0.26 7 71.4 299 
 RUS  HZ EP        333 23.79                             145   -0.0810 99.7 176 
 RUS  HN ES   2    333 42.69                             145    0.07 5 99.7 176 
 RUS  HZ I         333 43.84         4.8 0.28                          99.7 176 
 PTB  HZ EP        333 26.86                             133   -0.19 9  147 259 
 PTB  HN ES   2    333 47.94                             133   -0.34 5  147 259 
 OCA  HE ES   3    333 50.71                             130   -0.15 2  161 353 
 ZAR  HE ES   3    333 57.85                             123   -0.16 2  204 292 
                                                                                
