 2012  731 0814 15.1 L   6.737 -73.148143.0  RSN  6 0.4 1.6LRSN                1
 GAP=139        0.98       6.5     5.8  9.6  0.3124E+01  0.1117E+02  0.8321E-01E
 Epicentro: JORDAN - SANTANDER                                                 3
 ACTION:UPD 12-08-14 11:46 OP:ep   STATUS:               ID:20120731081415 L   I
 2012-07-31-0810-00M.COL___209                                                 6
 STAT SP IPHASW D HRMM SECON CODA AMPLIT PERI AZIMU VELO AIN AR TRES W  DIS CAZ7
 BAR2 SZ EP   1    814 34.50                             173     0.2 7   16 193 
 BAR2 SZ ES   1    814 49.15                             173    -0.1 7   16 193 
 BAR2 SZ I         814 50.55        16.1 0.25            173             16 193 
 BRR  HZ EP   1    814 36.35                             151     0.2 7   75 303 
 BRR  HE ES   1    814 53.39                             151     0.8 7   75 303 
 BRR  HZ I         814 57.38         9.3 0.14            151             75 303 
 PAM  SZ EP   1    814 37.46                             148     0.1 7   83  37 
 PAM  SE ES   1    814 54.15                             148    -0.6 7   83  37 
 RUS  HZ EP   1    814 38.46                             145     0.3 7   94 176 
 RUS  HE ES   1    814 56.09                             145     0.0 7   94 176 
 RUS  HZ I         814 57.99         3.5 0.23            148             94 176 
 PTB  HZ EP   1    814 41.27                             132    -0.5 7  146 261 
 PTB  HN ES   1    815  1.78                             132    -0.7 7  146 261 
 PTB  HZ I         815  4.61         3.8 0.09            134            146 261 
 ZAR  HE ES   1    815 13.20                             121     0.2 6  207 294 
