 2013  831 0248  9.8 L   6.777 -73.145145.6  RSN  9 0.4 2.1LRSN                1
 GAP=236        0.74       4.3     4.7  5.3  0.2908E+01  0.6542E+01  0.5734E+01E
 Epicentro: LOS SANTOS - SANTANDER                                             3
 ACTION:UPD 14-01-14 09:08 OP:ep   STATUS:               ID:20130831024809 L   I
 OLDACT:DUP 13-08-31 11:10 OP:mh   STATUS:               ID:20130831023960d    3
 2013-08-31-0239-59M.COL___269                                                 6
 STAT SP IPHASW D HRMM SECON CODA AMPLIT PERI AZIMU VELO AIN AR TRES W  DIS CAZ7
 BAR2 SZ EP        248 29.38                             172   -0.0410 20.8 191 
 BAR2 SZ ES        248 44.63                             172   -0.0510 20.8 191 
 BAR2 SZ I         248 47.07        23.4 0.24            161           20.8 191 
 BRR  HZ EP        248 31.21                             152    0.1510 72.5 300 
 BRR  HN ES        248 47.85                             152    0.2510 72.5 300 
 BRR  HN I         248 48.78        56.1 0.44            148           72.5 300 
 RUS  HZ EP   1    248 33.41                             145    0.01 7 98.0 176 
 RUS  HN ES   2    248 51.77                             145   -0.01 5 98.0 176 
 RUS  HZ I         248 53.16        10.5 0.28            141           98.0 176 
 PTB  HZ EP   1    248 35.93                             132   -0.84 7  147 260 
 PTB  HN ES   2    248 57.14                             132   -0.63 5  147 260 
 PTB  HZ I         248 59.70        11.0 0.16            128            147 260 
 SPBC HZ EP   1    248 38.35                             129    0.20 7  161 220 
 SPBC HN ES   1    248 59.93                             129   -0.30 7  161 220 
 SPBC HN I         249  6.86        31.0 0.40            126            161 220 
 ZAR  HZ EP   1    248 41.93                             122   -0.46 6  205 293 
 ZAR  HN ES   2    249  7.75                             122   -0.03 4  205 293 
 ZAR  HZ I         249 12.23         5.9 0.26            121            205 293 
 NOR  HZ EP   1    248 46.13                             119    0.71 6  233 235 
 NOR  HN ES   1    249 12.71                             119   -0.45 6  233 235 
 NOR  HN I         249 23.33        19.5 0.22            117            233 235 
 CHI  HZ EP   1    248 47.43                             117    0.16 6  246 195 
 CHI  HN ES   2    249 16.79                             117    0.33 4  246 195 
 CHI  HN I         249 21.39        11.0 0.28            116            246 195 
 ROSC BZ EP   4    248 49.08                             117    1.35 0  251 211 
 ROSC BN ES   4    249 20.75                             117    3.48 0  251 211 
 HEL  HN ES   1    249 22.17                             115    0.86 6  272 256 
 HEL  HN I         249 27.82         4.2 0.24            114            272 256 
                                                                                
