 2013 1031 0521 59.5 L   6.790 -73.119150.8  RSN 14 0.5 2.1LRSN                1
 GAP=122        1.15       3.4     4.7  6.3 -0.1799E+01  0.1053E+02  0.2643E+01E
 Epicentro: LOS SANTOS - SANTANDER                                             3
 ACTION:UPD 13-11-25 09:24 OP:ep   STATUS:               ID:20131031052159 L   I
 OLDACT:REG 13-10-31 05:57 OP:jn   STATUS:               ID:20131031052000     3
 2013-10-31-0520-00M.COL___273                                                 6
 STAT SP IPHASW D HRMM SECON CODA AMPLIT PERI AZIMU VELO AIN AR TRES W  DIS CAZ7
 BAR2 SZ EP        522 19.80                             171    0.0610 23.0 198 
 BAR2 SZ ES        522 35.53                             171    0.0210 23.0 198 
 BAR2 SZ I         522 36.66        58.3 0.20            166           23.0 198 
 BRR  HZ EP        522 21.81                             152    0.4310 74.4 298 
 BRR  HN ES        522 39.15                             152    0.7110 74.4 298 
 BRR  HZ I         522 41.49        25.8 0.10            141           74.4 298 
 PAM  SZ EP        522 22.94                             152    0.7410 76.4  37 
 PAM  SN ES        522 39.85                             152   -0.0510 76.4  37 
 PAM  SZ I         522 43.09         7.1 0.18            145           76.4  37 
 RUS  HZ EP        522 23.57                             145   -0.1010 99.3 178 
 RUS  HN ES        522 42.21                             145   -0.3010 99.3 178 
 RUS  HZ I         522 43.79        18.2 0.24            135           99.3 178 
 PTB  HZ EP        522 26.10                             132   -1.04 9  150 259 
 PTB  HE ES   2    522 48.72                             132    0.04 5  150 259 
 PTB  HZ I         522 49.69        15.2 0.28            121            150 259 
 OCA  HN ES        522 50.26                             130   -0.59 9  162 352 
 SPBC HZ EP        522 28.69                             130    0.19 9  164 220 
 SPBC HN ES        522 50.48                             130   -0.62 9  164 220 
 SPBC HZ I         522 57.55        25.6 0.32            119            164 220 
 ZAR  HZ EP   1    522 32.87                             123    0.26 6  207 292 
 ZAR  HE ES        522 58.13                             123   -0.30 8  207 292 
 NOR  HZ EP        522 35.79                             119    0.06 8  236 235 
 NOR  HN ES        523  3.75                             119   -0.23 8  236 235 
 NOR  HZ I         523 10.44        15.7 0.24            109            236 235 
 SML  HE ES        523  5.18                             118   -0.47 8  246 335 
 HEL  HZ EP        522 40.52                             115    0.25 8  275 256 
 HEL  HZ I         523 18.85         7.1 0.32            106            275 256 
 GUY2CHZ EP        522 44.21                             113    0.65 7  303 235 
 GUY2CHN ES        523 18.83                             113    0.91 7  303 235 
 GUY2CHZ I         523 25.93         9.5 0.24                           303 235 
 PTGC HZ EP   1    522 42.57                             113   -0.79 5  307 159 
 PTGC HN ES   4    523 15.29                             113   -2.27 0  307 159 
 CBOC HZ EP   1    522 47.00                             111    0.08 5  336 252 
 CBOC HZ I         523 37.70         2.4 0.38            102            336 252 
                                                                                
