 2015 1231 0958 54.4 L   6.791 -73.184144.4  RSN  5 0.3 1.2LRSN                1
 GAP=238        0.73       4.6     4.7  5.9  0.3839E+01  0.5818E+01  0.4030E+01E
 Epicentro: ZAPATOCA - SANTANDER                                               3
 ACTION:UPD 16-02-04 15:09 OP:cam  STATUS:               ID:20151231095854 L   I
 OLDACT:UP  15-12-31 17:18 OP:ak   STATUS:               ID:20151231094749d    3
 OLDACT:DUP 15-12-31 17:16 OP:ak   STATUS:               ID:20151231094749d    3
 OLDACT:UP  15-12-31 17:15 OP:ak   STATUS:               ID:20151231094748d    3
 OLDACT:UP  15-12-31 17:14 OP:ak   STATUS:               ID:20151231094748d    3
 OLDACT:DUP 15-12-31 17:10 OP:ak   STATUS:               ID:20151231094748d    3
 OLDACT:REG 15-12-31 13:11 OP:ak   STATUS:               ID:20151231094747     3
 2015-12-31-0947-47M.COL___319                                                 6
 STAT SP IPHASW D HRMM SECON CODA AMPLIT PERI AZIMU VELO AIN AR TRES W  DIS CAZ7
 BAR2 EZ EP        959 13.83                             171   -0.0210 22.0 179 
 BAR2 EZ ES        959 28.86                             171   -0.1510 22.0 179 
 BAR2 EZ I         959 31.43         3.2 0.19            165           22.0 179 
 BRR  HZ EP        959 15.41                             153    0.1810 68.0 301 
 BRR  HN ES        959 31.61                             153    0.1410 68.0 301 
 BRR  HZ I         959 32.31         2.8 0.61            154           68.0 301 
 PTB  HZ EP        959 20.38                             133   -0.49 9  143 259 
 PTB  HN ES        959 41.04                             133   -0.46 9  143 259 
 PTB  HZ I         959 46.42         2.4 0.30            132            143 259 
 SPBC HZ EP        959 22.64                             129    0.16 9  160 218 
 SPBC HN ES        959 44.76                             129    0.39 9  160 218 
 SPBC HZ I         959 49.76         2.3 0.22            129            160 218 
 ZAR  HZ EP   3    959 26.28                             123   -0.12 2  200 293 
 ZAR  HN ES        959 51.66                             123    0.32 9  200 293 
                                                                                
