 2017  131 0722 28.2 L   6.793 -73.109142.5  RSN  6 0.4 1.2LRSN                1
 GAP=142        0.89       4.6     4.6  6.4  0.3752E+01 -0.8535E+00 -0.1909E+01E
 Epicentro: LOS SANTOS - SANTANDER                                             3
 ACTION:UPD 17-05-22 16:05 OP:jn   STATUS:               ID:20170131072228 L   I
 OLDACT:UP  17-01-31 15:44 OP:and  STATUS:               ID:20170131071741     3
 OLDACT:REG 17-01-31 14:17 OP:dnl  STATUS:               ID:20170131071741     3
 2017-01-31-0718-00M.COL___331                                                 6
 STAT SP IPHASW D HRMM SECON CODA AMPLIT PERI AZIMU VELO AIN AR TRES W  DIS CAZ7
 BAR2 EZ EP        722 47.15                             170   -0.2510 23.7 200 
 BAR2 EZ ES        723  1.82                             170   -0.5910 23.7 200 
 BAR2 EZ I         723  9.87         2.7 0.27            169           23.7 200 
 BRR  HZ EP        722 49.14                             151   -0.0410 75.1 298 
 BRR  HN ES        723  5.99                             151    0.4110 75.1 298 
 BRR  HZ I         723 10.26         3.1 0.26            148           75.1 298 
 PAM  EZ EP        722 50.02                             151    0.1110 75.5  37 
 PAM  EN ES        723  7.00                             151    0.1210 75.5  37 
 PAM  EZ I         723  9.36         2.9 0.22            155           75.5  37 
 RUS  HZ EP        722 51.20                             143   -0.3210 99.6 178 
 RUS  HN ES        723 10.36                             143    0.6210 99.6 178 
 RUS  HZ I         723 10.65         3.6 0.32            148           99.6 178 
 PTB  HZ EP   9    722 54.16                             131   -1.05 0  152 259 
 PTB  HN ES        723 15.02                                   -0.25 9  152 259 
 PTB  HZ I         723 20.36         2.0 0.16            131            152 259 
 ZAR  HZ EP   3    723  1.59                             121    0.78 2  208 292 
 ZAR  HN ES        723 26.14                             121   -0.14 8  208 292 
 ZAR  HZ I         723 36.14         2.1 0.21            122            208 292 
                                                                                
