 2014  731 0646 48.3 L   6.794 -73.148150.5  RSN  6 0.3 1.4LRSN                1
 GAP=183        0.80       3.4     5.0  8.9  0.4040E+01 -0.1764E+01 -0.9193E+01E
 Epicentro: LOS SANTOS - SANTANDER                                             3
 ACTION:UPD 15-03-16 20:48 OP:nd   STATUS:               ID:20140731064648 L   I
 OLDACT:UP  14-07-31 17:14 OP:mh   STATUS:               ID:20140731063812     3
 OLDACT:REG 14-07-31 13:03 OP:mh   STATUS:               ID:20140731063812     3
 2014-07-31-0638-12M.COL___177                                                 6
 STAT SP IPHASW D HRMM SECON CODA AMPLIT PERI AZIMU VELO AIN AR TRES W  DIS CAZ7
 RUS  HZ EP        647 12.70                             145    0.1710100.0 176 
 RUS  HN ES        647 31.16                             145   -0.2310100.0 176 
 RUS  HZ I         647 32.97         1.8 0.11            150          100.0 176 
 PTB  HZ EP        647 14.99                             133   -0.69 9  147 259 
 PTB  HN ES        647 36.78                             133   -0.22 9  147 259 
 PTB  HZ I         647 40.48         1.8 0.41            137            147 259 
 OCA  HZ EP   4    647 29.05                             131   11.97 0  161 353 
 OCA  HN ES   1    647 39.80                             131    0.30 7  161 353 
 OCA  HZ I         647 44.21         3.3 0.10            133            161 353 
 SPBC HZ EP        647 17.43                             130    0.27 9  163 219 
 SPBC HN ES        647 40.00                             130    0.37 9  163 219 
 SPBC HZ I         647 43.34         3.4 0.87            135            163 219 
 ZAR  HN ES        647 46.98                             123    0.32 9  204 292 
 SML  HZ EP   1    647 25.41                             118    0.12 6  244 335 
 SML  HN ES   1    647 53.80                             118   -0.31 6  244 335 
 SML  HZ I         647 59.30         2.9 0.53            121            244 335 
                                                                                
