 2017  731 0111 16.7 L   6.737 -73.144142.1  RSN  7 0.4 1.5LRSN                1
 GAP=139        1.10       4.9     4.6  7.4 -0.1200E+01  0.1043E+02 -0.8010E+00E
 Epicentro: LOS SANTOS - SANTANDER                                             3
 ACTION:UPD 17-08-30 15:38 OP:rebc STATUS:               ID:20170731011116 L   I
 OLDACT:REG 17-07-31 12:32 OP:osc  STATUS:               ID:20170731010742     3
 2017-07-31-0108-00M.COL___377                                                 6
 STAT SP IPHASW D HRMM SECON CODA AMPLIT PERI AZIMU VELO AIN AR TRES W  DIS CAZ7
 BAR2 EZ EP        111 35.58                             173   -0.2110 16.5 195 
 BAR2 EZ ES        111 50.07                             173   -0.5910 16.5 195 
 BAR2 EZ I         111 51.95        12.6 0.14            173           16.5 195 
 BRR  HZ IP     C  111 37.73                             151    0.0410 74.9 303 
 BRR  HE ES        111 54.95                             151    0.9010 74.9 303 
 PAM  EZ EP        111 38.73                             148   -0.1510 82.8  36 
 PAM  EN ES        111 56.00                             148   -0.1710 82.8  36 
 PAM  EZ I         111 58.21         5.7 0.64            151           82.8  36 
 RUS  HZ EP        111 39.94                             145    0.3310 93.6 176 
 RUS  HN ES        111 57.92                             145    0.4510 93.6 176 
 RUS  HZ I         111 59.38         3.6 0.26            148           93.6 176 
 PTB  HZ EP        111 43.04                             131   -0.25 9  147 262 
 PTB  HN ES        112  3.28                             131   -0.74 9  147 262 
 PTB  HZ I         112  8.89         1.9 0.11            132            147 262 
 ZAR  HZ EP        111 49.39                             121    0.16 8  207 294 
 ZAR  HE ES        112 14.75                             121    0.16 8  207 294 
 ZAR  HZ I         112 20.19         4.4 0.32            122            207 294 
 NOR  HN ES        112 19.27                             118    0.07 8  231 236 
                                                                                
