 2010 1231 0404 36.4 L   6.879 -73.303119.8  RSN  9 0.4 1.8LRSN                1
 GAP=115        0.88       3.5     7.4  8.9 -0.8874E+01  0.2946E+02 -0.6409E+01E
 Epicentro: BETULIA - SANTANDER                                                3
 ACTION:UP  11-01-14 15:28 OP:pat  STATUS:               ID:20101231040436 L   I
 2010-12-31-0401-51S.COL___136                                                 6
 STAT SP IPHASW D HRMM SECON CODA AMPLIT PERI AZIMU VELO SNR AR TRES W  DIS CAZ7
 BTL  SZ EP   1    4 4 52.94                             177     0.3 8    6  42 
 GIR2 SZ EP   1    4 4 53.14                             167     0.4 8   25  29 
 BAR2 SZ EP   1    4 4 53.55                             163     0.3 8   34 157 
 BAR2 SZ ES   1    4 5  6.13                             163    -0.2 8   34 157 
 RUS  HZ EP   1    4 4 58.89                             134     0.3 8  112 167 
 RUS  HN ES   1    4 5 15.66                             134    -0.3 8  112 167 
 RUS  HZ I         4 5 17.03         4.2 0.13                           112 167 
 GRA  SZ EP   1    4 4 58.29                             131    -1.0 8  124  26 
 GRA  SZ I         4 5 20.87        18.5 0.23                           124  26 
 OCA  SZ EP        4 5  2.05                             125     0.310  150 359 
 OCA  SZ ES   1    4 5 21.65                             125     0.0 7  150 359 
 OCA  SZ I         4 5 24.72        18.3 0.14                           150 359 
 NOR  SZ EP   1    4 5  9.16                             113    -0.6 7  226 230 
 NOR  SE ES   1    4 5 35.69                             113    -0.2 7  226 230 
 CHI  HZ EP   1    4 5 13.54                             111     0.2 6  253 191 
 CHI  HN ES   1    4 5 42.26                             111     0.2 6  253 191 
 CHI  HZ I         4 5 47.52         2.9 0.31                           253 191 
 HEL  HN ES   2    4 5 43.11                             110     0.2 4  258 253 
 HEL  HZ I         4 5 47.39         4.8 0.52                           258 253 
                                                                                
