 2010 1031 0009 39.9 L   6.901 -72.946140.9  RSN  5 0.4 1.8LRSN                1
 GAP=263        0.77       8.0    11.8  9.5  0.5246E+02 -0.7166E+01 -0.6770E+01E
 Epicentro: GUACA - SANTANDER                                                  3
 ACTION:UP  11-02-18 11:13 OP:tino STATUS:               ID:20101031000939 L   I
 2010-10-31-0000-00M.COL___115                                                 6
 STAT SP IPHASW D HRMM SECON CODA AMPLIT PERI AZIMU VELO SNR AR TRES W  DIS CAZ7
 BAR2 SZ EP   2    010  0.42                             162     0.9 5   43 218 
 BAR2 SZ ES   2    010 15.23                             162     0.4 5   43 218 
 BAR2 SZ I         010 17.26        12.6 0.12                            43 218 
 BRR  HZ IP     C  010  1.51                             146     0.010   88 285 
 BRR  HE ES   1    010 18.19                             146    -0.2 7   88 285 
 BRR  HZ I         010 19.39        15.2 0.11                            88 285 
 RUS  HZ EP   1    010  3.83                             140    -0.2 7  112 188 
 RUS  HN ES   1    010 22.67                             140    -0.2 7  112 188 
 RUS  HZ I         010 23.81         4.9 0.20                           112 188 
 HEL  HZ EP   2    010 22.38                             112    -0.2 4  296 255 
 HEL  HZ I         010 57.85         3.2 0.22                           296 255 
 GUY  SE ES   2    011  2.58                             110     0.5 3  326 236 
 GUY  SZ I         011  4.59         3.6 0.43                           326 236 
                                                                                
