 2017 1231 0026 53.8 L   6.809 -73.144138.0  RSN 17 0.7 2.1LRSN                1
 GAP= 65        1.42       3.3     3.8  7.2 -0.7704E+00  0.7504E+01  0.2418E+01E
 Epicentro: LOS SANTOS - SANTANDER                                             3
 ACTION:UPD 18-01-04 13:25 OP:rebc STATUS:               ID:20171231002653 L   I
 OLDACT:UP  17-12-31 11:52 OP:osc  STATUS:               ID:20171231001319d    3
 OLDACT:REG 17-12-31 11:37 OP:osc  STATUS:               ID:20171231001319d    3
 2017-12-31-0027-00M.COL___465                                                 6
 STAT SP IPHASW D HRMM SECON CODA AMPLIT PERI AZIMU VELO AIN AR TRES W  DIS CAZ7
 BAR2 EZ EP     C  027 12.33                             169   -0.2310 24.3 190 
 BAR2 EZ ES        027 27.02                             169   -0.1410 24.3 190 
 BAR2 EZ I         027 29.52        37.1 0.32            168           24.3 190 
 PAM  EZ EP        027 15.29                             150    0.1110 76.5  40 
 PAM  EN ES        027 32.01                             150    0.1910 76.5  40 
 PAM  EZ I         027 35.07        14.2 0.30            154           76.5  40 
 PTB  HZ EP        027 18.86                             130   -1.36 9  148 258 
 PTB  HN ES        027 40.33                             130   -0.47 9  148 258 
 PTB  HZ I         027 43.16        22.9 0.10            132            148 258 
 TAM  HZ EP        027 20.73                             129   -0.19 9  155 105 
 TAM  HE ES        027 42.32                             129    0.28 9  155 105 
 TAM  HZ I         027 42.67        14.8 0.24            132            155 105 
 OCA  HZ EP        027 20.95                             128   -0.52 9  159 353 
 OCA  HE ES        027 42.55                             128   -0.46 9  159 353 
 OCA  HZ I         027 47.23        41.0 0.24            131            159 353 
 SPBC HZ EP        027 21.26                             127   -0.58 9  164 219 
 SPBC HE ES        027 44.24                             127    0.56 9  164 219 
 SPBC HZ I         027 49.05        14.6 0.18            129            164 219 
 YPLC HZ EP        027 22.74                             125   -0.42 9  178 152 
 YPLC HE ES        027 46.63                             125    0.61 9  178 152 
 YPLC HZ I         027 49.04        31.2 0.24            127            178 152 
 ZAR  HZ EP        027 25.53                             121   -0.24 9  204 292 
 ZAR  HN ES        027 51.20                             121    0.52 9  204 292 
 ZAR  HZ I         027 56.35        19.7 0.44            123            204 292 
 ROSC BZ EP        027 31.92                             115    0.27 8  254 211 
 ROSC BN ES   4    028  5.68                             115    4.54 0  254 211 
 ROSC BZ I         028  8.62        10.1 0.50            117            254 211 
 URE  HZ EP   9    027 32.75                             112   -1.77 0  284 292 
 URE  HE ES        028  4.61                             113    0.13 7  284 292 
 DRL03HZ EP        027 35.22                             112    0.24 7  288 353 
 DRL03HE ES        028  8.08                             112    1.01 7  288 353 
 GUY2CHZ EP        027 37.89                             111    0.71 7  302 235 
 GUY2CHN ES        028 12.86                             111    1.87 7  302 235 
 GUY2CHZ I         028 19.90         5.0 0.68                           302 235 
 CBOC HZ EP        027 41.32                             108    0.82 7  334 252 
 CBOC HE ES        028 16.14                             108   -0.76 7  334 252 
 CBOC HZ I         028 18.95         2.8 0.20            110            334 252 
 ARGC HN ES        028 22.31                             107    0.77 6  358 340 
 PRA  HZ EP        027 46.74                             105   -0.47 6  393 210 
 PRA  HE ES        028 27.74                             105   -1.11 6  393 210 
 PRA  HZ I         028 34.48         4.1 0.28            107            393 210 
 ORTC HZ EP        027 47.35                             105   -0.26 6  396 216 
 ORTC HE ES        028 30.18                             105    0.63 6  396 216 
 ORTC HZ I         028 36.31         3.0 0.34            107            396 216 
 SJC  HZ EP   4    027 46.88                             104   -2.19 0  409 327 
 SJC  HN ES   4    028 28.55                             104   -3.61 0  409 327 
 SJC  HZ I         028 32.02         3.2 0.42            106            409 327 
                                                                                
