 2014  531 0507 46.9 L   6.914 -73.132139.8  RSN  8 0.5 1.8LRSN                1
 GAP=204        1.18       4.3     6.0  7.2  0.1109E+01  0.1088E+02 -0.3349E+01E
 Epicentro: PIEDECUESTA - SANTANDER                                            3
 ACTION:UPD 15-03-16 17:02 OP:nd   STATUS:               ID:20140531050746 L   I
 OLDACT:REG 14-05-31 13:44 OP:stll STATUS:               ID:20140531045814     3
 2014-05-31-0458-14M.COL___256                                                 6
 STAT SP IPHASW D HRMM SECON CODA AMPLIT PERI AZIMU VELO AIN AR TRES W  DIS CAZ7
 BAR2 SZ EP        5 8  6.39                             165    0.2310 36.0 189 
 BAR2 SZ ES        5 8 21.48                             165    0.3010 36.0 189 
 BAR2 SZ I         5 8 23.17         8.5 0.30            167           36.0 189 
 BRR  HZ EP        5 8  7.98                             153    0.7710 67.5 288 
 BRR  HN ES        5 8 23.29                             153    0.2510 67.5 288 
 BRR  HZ I         5 8 27.33         8.8 0.12            150           67.5 288 
 RUS  HZ EP        5 8 10.60                             139   -0.4510  113 177 
 RUS  HN ES        5 8 29.78                             139   -0.1010  113 177 
 RUS  HZ I         5 8 31.44         7.1 0.30            143            113 177 
 PTB  HZ EP        5 8 13.17                             130   -0.63 9  152 254 
 PTB  HN ES        5 8 34.56                             130   -0.22 9  152 254 
 PTB  HZ I         5 8 36.33        12.3 0.14            130            152 254 
 SPBC HZ EP        5 8 15.90                             126   -0.12 9  174 217 
 SPBC HN ES        5 8 37.97                             126   -0.76 9  174 217 
 SPBC HZ I         5 8 45.52        11.0 0.36            128            174 217 
 SML  HZ EP        5 8 21.84                             117   -0.19 8  233 334 
 SML  HN ES        5 8 48.94                             117   -0.49 8  233 334 
 SML  HZ I         5 9  0.43         5.1 0.28            118            233 334 
 HEL  HZ EP        5 8 28.03                             113    0.67 7  277 253 
 HEL  HN ES        5 8 58.57                             113   -0.34 7  277 253 
 HEL  HZ I         5 9  5.74         5.0 0.32            114            277 253 
 GUY2CHZ EP   1    5 8 32.41                             111    1.18 5  310 233 
 GUY2CHN ES        5 9  6.51                             111    0.71 7  310 233 
 GUY2CHZ I         5 9 13.91         4.7 0.52                           310 233 
                                                                                
