 2011 1231 0427 12.9 L   6.784 -73.168148.5  RSN  7 0.4 1.8LRSN                1
 GAP=134        0.87       5.6     5.1  7.7  0.3461E+01  0.6352E+01  0.7560E+01E
 Epicentro: LOS SANTOS - SANTANDER                                             3
 ACTION:UPD 12-07-13 16:19 OP:ep   STATUS:               ID:20111231042713dL   I
 2011-12-31-0420-00M.COL___186                                                 6
 STAT SP IPHASW D HRMM SECON CODA AMPLIT PERI AZIMU VELO AIN AR TRES W  DIS CAZ7
 BAR2 SZ EP        427 32.79                             171    0.0010 21.2 184 
 BAR2 SZ ES   1    427 47.85                             171   -0.48 7 21.2 184 
 BAR2 SZ I         427 49.58        19.0 0.37                          21.2 184 
 BRR  HZ EP   1    427 34.69                             153    0.45 7 69.9 301 
 BRR  HN ES   1    427 51.90                             153    0.98 7 69.9 301 
 PAM  SZ EP   1    427 35.59                             150    0.04 7 80.3  40 
 PAM  SZ I         427 35.85         6.7 0.23                          80.3  40 
 PAM  SE ES   1    427 52.93                             150   -0.32 7 80.3  40 
 RUS  HZ EP   1    427 36.90                             145    0.12 7 99.0 175 
 RUS  HN ES   1    427 55.41                             145   -0.02 7 99.0 175 
 RUS  HZ I         427 56.70        10.0 0.43                          99.0 175 
 PTB  HZ EP   1    427 39.24                             133   -0.57 7  145 259 
 PTB  HN ES   1    428  0.78                             133   -0.05 7  145 259 
 ZAR  HE ES   1    428 10.03                             123   -0.62 6  202 293 
 CHI  HZ EP   1    427 50.82                             118    0.36 6  246 195 
 CHI  HZ I         428 29.96         3.4 0.33                           246 195 
                                                                                
