 2014 1031 0840 16.1 L   6.795 -73.178146.8  RSN  9 0.4 2.2LRSN                1
 GAP=133        0.99       3.4     4.7  6.1 -0.5340E+01  0.5286E+01  0.1266E+00E
 Epicentro: LOS SANTOS - SANTANDER                                             3
 ACTION:UPD 14-11-29 23:58 OP:nd   STATUS:               ID:20141031084016 L   I
 OLDACT:DUP 14-10-31 18:24 OP:carl STATUS:               ID:20141031083744d    3
 2014-10-31-0837-43M.COL___265                                                 6
 STAT SP IPHASW D HRMM SECON CODA AMPLIT PERI AZIMU VELO AIN AR TRES W  DIS CAZ7
 BAR2 SZ EP        840 35.73                             171   -0.0910 22.4 181 
 BAR2 SZ ES        840 50.52                             171   -0.7010 22.4 181 
 BAR2 SZ I         840 51.86        39.9 0.24            172           22.4 181 
 BRR  HZ IP     C  840 37.47                             154    0.2810 68.4 300 
 BRR  HN ES        840 54.44                             154    0.7910 68.4 300 
 BRR  HZ I         840 55.65        26.0 0.18            149           68.4 300 
 PAM  SZ EP        840 38.81                             150    0.2410 80.1  41 
 PAM  SN ES        840 56.26                             150    0.1510 80.1  41 
 PAM  SZ I         840 58.43        15.4 0.44            150           80.1  41 
 RUS  HZ EP        840 39.95                             144    0.0310  100 174 
 RUS  HN ES        840 58.70                             144    0.1910  100 174 
 RUS  HZ I         840 59.94        13.8 0.56            146            100 174 
 PTB  HZ EP        840 42.29                             133   -0.53 9  144 259 
 PTB  HN ES        841  3.30                             133   -0.37 9  144 259 
 PTB  HZ I         841  5.17        15.0 0.12            131            144 259 
 OCA  HZ EP        840 44.31                             130   -0.18 9  160 354 
 OCA  HN ES        841  6.40                             130   -0.24 9  160 354 
 OCA  HZ I         841 15.46        14.2 0.14            128            160 354 
 SPBC HZ EP        840 44.54                             130    0.12 9  161 218 
 SPBC HN ES        841  6.37                             130   -0.15 9  161 218 
 SPBC HZ I         841 11.74        26.8 0.18            129            161 218 
 URE  HZ EP   4    840 58.80                             114    1.94 0  281 292 
 URE  HN ES   4    841 26.06                             114   -2.61 0  281 292 
 URE  HZ I         841 38.60        14.4 0.20            113            281 292 
 TOL  SN ES        841 42.13                             110    0.66 7  341 224 
 TOL  SZ I         841 47.59        16.0 0.36            109            341 224 
                                                                                
