 2014  531 0014 14.6 L   6.754 -73.139137.5  RSN  9 0.4 1.6LRSN                1
 GAP=139        0.89       3.4     3.5  5.2 -0.2026E+01  0.6292E+01  0.1606E+01E
 Epicentro: LOS SANTOS - SANTANDER                                             3
 ACTION:UPD 15-03-16 17:02 OP:nd   STATUS:               ID:20140531001414 L   I
 OLDACT:DUP 14-05-31 15:12 OP:stll STATUS:               ID:20140531000808d    3
 2014-05-31-0008-07M.COL___256                                                 6
 STAT SP IPHASW D HRMM SECON CODA AMPLIT PERI AZIMU VELO AIN AR TRES W  DIS CAZ7
 BAR2 SZ EP        014 33.39                             172    0.2010 18.6 195 
 BAR2 SZ ES        014 47.66                             172    0.0110 18.6 195 
 BAR2 SZ I         014 51.11         7.9 0.30            170           18.6 195 
 BRR  HZ EP        014 35.35                             150    0.2610 74.3 302 
 BRR  HN ES        014 51.70                             150    0.6610 74.3 302 
 PAM  SZ EP        014 36.28                             148    0.0710 80.9  37 
 PAM  SZ I         014 36.55        11.6 0.24            153           80.9  37 
 PAM  SN ES        014 52.56                             148   -0.4710 80.9  37 
 RUS  HZ EP        014 37.41                             144    0.2010 95.5 176 
 RUS  HN ES        014 54.51                             144   -0.3110 95.5 176 
 RUS  HZ I         014 57.24         3.3 0.40            146           95.5 176 
 PTB  HZ EP        014 40.51                             130   -0.42 9  148 261 
 PTB  HE ES        015  1.12                             130   -0.31 9  148 261 
 PTB  HZ I         015  7.27         5.8 0.42            131            148 261 
 SPBC HZ EP        014 42.47                             128    0.28 9  160 220 
 SPBC HN ES        015  4.07                             128    0.40 9  160 220 
 SPBC HZ I         015  8.44         6.4 0.36            129            160 220 
 ZAR  HZ EP        014 46.85                             120    0.02 8  207 293 
 ZAR  HE ES        015 11.68                             120   -0.26 8  207 293 
 ZAR  HZ I         015 18.55         3.3 0.26            122            207 293 
 NOR  HZ EP        014 49.17                             117   -0.48 8  232 236 
 NOR  HN ES        015 16.44                             117   -0.52 8  232 236 
 NOR  HZ I         015 21.28         3.0 0.18            119            232 236 
 GUY2CHZ EP   1    014 58.33                             111    0.71 5  299 236 
 GUY2CHN ES        015 31.29                             111    0.15 7  299 236 
 GUY2CHZ I         015 40.18         1.8 0.26                           299 236 
                                                                                
