 2017  331 0756 30.9 L   6.807 -73.147151.3  RSN  5 0.4 1.1LRSN                1
 GAP=251        1.03       6.9     7.1  9.7  0.6821E+01  0.3061E+01  0.5104E+01E
 Epicentro: LOS SANTOS - SANTANDER                                             3
 ACTION:UPD 17-05-25 18:47 OP:jn   STATUS:               ID:20170331075631 L   I
 OLDACT:UP  17-05-03 12:54 OP:jn   STATUS:               ID:20170331075631 L   3
 OLDACT:UP  17-05-02 20:30 OP:nlst STATUS:               ID:20170331075631 L   3
 OLDACT:REG 17-03-31 13:15 OP:ar   STATUS:               ID:20170331074741     3
 2017-03-31-0748-00M.COL___343                                                 6
 STAT SP IPHASW D HRMM SECON CODA AMPLIT PERI AZIMU VELO AIN AR TRES W  DIS CAZ7
 BAR2 EZ EP        756 51.04                             171   -0.1310 24.0 189 
 BAR2 EZ ES   1    757  6.82                             171   -0.18 7 24.0 189 
 BRR  HZ EP        756 52.79                             154    0.2110 70.7 298 
 BRR  HE ES   1    757  9.80                             154    0.28 7 70.7 298 
 PTB  HZ EP        756 58.06                             133   -0.22 9  148 259 
 PTB  HN ES        757 18.81                             133   -0.86 9  148 259 
 PTB  HZ I         757 19.81         1.7 0.14            133            148 259 
 SPBC HZ EP        756 59.76                             130   -0.07 9  164 219 
 SPBC HN ES        757 23.10                             130    0.67 9  164 219 
 ZAR  HE ES        757 29.63                             124    0.44 9  204 292 
                                                                                
