 2011 1031 0512  1.4 L   6.930 -72.863138.8  RSN  4 0.1 1.1LRSN                1
 GAP=266        0.33       8.0    12.0  6.6  0.8230E+02 -0.4832E+02 -0.3255E+02E
 Epicentro: GUACA - SANTANDER                                                  3
 ACTION:UPD 12-07-13 16:07 OP:ep   STATUS:               ID:20111031051201 L   I
 2011-10-31-0508-37S.COL___157                                                 6
 STAT SP IPHASW D HRMM SECON CODA AMPLIT PERI AZIMU VELO AIN AR TRES W  DIS CAZ7
 BAR2 SZ EP   1    512 20.99                             158   -0.12 7 51.4 223 
 BAR2 SZ ES   2    512 36.75                             158    0.26 5 51.4 223 
 BAR2 SZ I         512 39.43         2.8 0.35                          51.4 223 
 BRR  HZ EP   1    512 23.40                             143   -0.01 7 95.8 282 
 BRR  HN ES   2    512 40.48                             143   -0.12 5 95.8 282 
 BRR  HZ I         512 44.01         3.5 0.34                          95.8 282 
 RUS  HZ EP   1    512 25.84                             138    0.08 7  117 192 
 RUS  HN ES   2    512 44.64                             138   -0.14 5  117 192 
 RUS  HZ I         512 45.98         1.2 0.51                           117 192 
 ZAR  HZ EP   2    512 36.22                             118    0.18 4  229 286 
 ZAR  HZ I         513  6.69         1.6 0.24                           229 286 
                                                                                
