 2013  131 0244 46.6 L   6.531 -73.564111.6  RSN  6 0.4 1.7LRSN                1
 GAP= 86        0.99       4.3     4.4  7.8 -0.2623E+01  0.1300E+01  0.1149E+02E
 Epicentro: EL CARMEN DE CHUCURI - SANTANDER                                   3
 ACTION:UPD 13-02-15 09:18 OP:ep   STATUS:               ID:20130131024446 L   I
 2013-01-31-0240-00M.COL___241                                                 6
 STAT SP IPHASW D HRMM SECON CODA AMPLIT PERI AZIMU VELO AIN AR TRES W  DIS CAZ7
 BAR2 SZ EP        245  3.14                             158    0.3210 42.7  81 
 BAR2 SZ ES        245 15.29                             158   -0.2010 42.7  81 
 BAR2 SZ I         245 17.35        74.6 0.54            163           42.7  81 
 BRR  HZ EP        245  4.00                             147    0.2210 65.8 346 
 BRR  HE ES        245 17.97                             147    0.7610 65.8 346 
 BRR  HE I         245 29.13        13.6 0.25            154           65.8 346 
 RUS  HZ EP        245  6.11                             139   -0.0110 88.3 143 
 RUS  HN ES   2    245 20.91                             139   -0.47 5 88.3 143 
 RUS  HN I         245 25.67         5.1 0.36            145           88.3 143 
 PTB  HZ EP        245  5.93                             135   -0.4010 98.7 271 
 PTB  HN ES   1    245 21.02                             135   -0.73 7 98.7 271 
 PTB  HZ I         245 22.11        12.1 0.13            141           98.7 271 
 PAM  SZ EP        245  9.69                             127   -0.2310  131  47 
 PAM  SE ES        245 27.82                             127   -0.3210  131  47 
 PAM  SZ I         245 29.26         7.4 0.34            135            131  47 
 CHI  HZ EP   1    245 18.92                             113    0.58 6  211 185 
 CHI  HN ES   1    245 43.39                             113    0.26 6  211 185 
 CHI  HZ I         245 48.60         1.8 0.73            119            211 185 
                                                                                
