 2016  531 0415 50.7 L   6.798 -73.056150.7  RSN 14 0.4 2.6LRSN                1
 GAP=127        0.97       2.4     4.2  5.3 -0.1355E+01  0.3684E+01  0.2943E+01E
 Epicentro: LOS SANTOS - SANTANDER                                             3
 ACTION:UPD 16-08-18 17:50 OP:cam  STATUS:               ID:20160531041550 L   I
 OLDACT:UP  16-06-01 05:08 OP:dnl  STATUS:               ID:20160531041550 L   3
 OLDACT:UP  16-05-31 17:27 OP:edw  STATUS:               ID:20160531040742     3
 OLDACT:UP  16-05-31 17:25 OP:edw  STATUS:               ID:20160531040742     3
 OLDACT:REG 16-05-31 13:33 OP:edw  STATUS:               ID:20160531040742     3
 2016-05-31-0407-42M.COL___316                                                 6
 STAT SP IPHASW D HRMM SECON CODA AMPLIT PERI AZIMU VELO AIN AR TRES W  DIS CAZ7
 BAR2 EZ EP     D  416 10.95                             170   -0.0110 26.7 212 
 BAR2 EZ I         416 27.76       114.9 0.17            169           26.7 212 
 PAM  EZ EP        416 13.78                             153    0.6910 71.7  33 
 PAM  EN ES        416 30.88                             153    0.3110 71.7  33 
 BRR  HZ EP        416 12.74                             151   -0.1310 80.2 295 
 BRR  HE ES        416 29.97                             151   -0.2110 80.2 295 
 BRR  HZ I         416 32.97        69.8 0.30            150           80.2 295 
 RUS  HZ EP        416 15.01                             145    0.1410  100 182 
 RUS  HN ES        416 33.90                             145    0.1510  100 182 
 RUS  HZ I         416 34.58        27.6 0.28            146            100 182 
 OCA  HZ EP        416 18.93                             130   -0.59 9  162 350 
 OCA  HN ES        416 42.24                             130    0.21 9  162 350 
 OCA  HZ I         416 46.17        82.0 0.20            131            162 350 
 SPBC HZ EP        416 19.91                             129   -0.22 9  169 222 
 SPBC HE ES        416 42.27                             129   -0.85 9  169 222 
 SPBC HZ I         416 46.83        44.0 0.32            129            169 222 
 NOR  HN ES   4    416 54.94                             119   -1.36 0  243 236 
 CHI  HZ EP        416 29.20                             118    0.28 8  251 197 
 CHI  HN ES        416 58.50                             118   -0.25 8  251 197 
 CHI  HZ I         417  2.07        12.1 0.38            119            251 197 
 ROSC BZ EP        416 30.53                             117    0.92 8  258 213 
 ROSC BE ES        417  0.06                             117    0.08 8  258 213 
 ROSC BZ I         417  5.39        23.4 0.55            118            258 213 
 HEL  HZ EP        416 32.69                             115    0.50 7  282 256 
 HEL  HN ES        417  4.82                             115    0.24 7  282 256 
 HEL  HZ I         417 11.26        15.8 0.26            115            282 256 
 PTGC HZ EP        416 34.15                             113   -0.18 7  305 160 
 PTGC HN ES        417  7.54                             113   -0.84 7  305 160 
 ARGC HZ EP        416 40.62                             109   -0.32 6  363 339 
 ARGC HN ES        417 19.28                             109   -0.87 6  363 339 
 PRA  HZ EP        416 44.75                             107   -0.17 6  397 211 
 PRA  HE ES        417 27.51                             107    0.28 6  397 211 
 PRA  HZ I         417 31.93        18.5 0.52            108            397 211 
 ORTC HZ EP        416 45.53                             107    0.10 6  401 217 
 ORTC HE ES        417 28.53                             107    0.39 6  401 217 
 ORTC HZ I         417 32.38         8.5 0.22            107            401 217 
 SJC  HZ EP   4    416 45.16                             106   -1.90 0  415 326 
 SJC  HN ES   4    417 25.96                             106   -5.09 0  415 326 
 CRJC HZ EP   9    416 51.30                             104   -1.98 0  467   2 
 CRJC HN ES        417 40.28                             104    0.15 5  467   2 
 CRJC HZ I         417 43.92         7.5 0.40            105            467   2 
                                                                                
