 2013  731 0237 15.1 L   6.812 -73.149148.0  RSN  9 0.4 1.8LRSN                1
 GAP=183        0.94       3.4     5.4  7.1 -0.1007E+01  0.8419E+01  0.1450E+01E
 Epicentro: LOS SANTOS - SANTANDER                                             3
 ACTION:UPD 13-08-12 10:41 OP:ep   STATUS:               ID:20130731023715 L   I
 OLDACT:REG 13-07-31 10:05 OP:carl STATUS:               ID:20130731022959     3
 2013-07-31-0229-59M.COL___265                                                 6
 STAT SP IPHASW D HRMM SECON CODA AMPLIT PERI AZIMU VELO AIN AR TRES W  DIS CAZ7
 BAR2 SZ EP   1    237 35.20                             170    0.19 7 24.5 189 
 BAR2 SZ ES   1    237 50.28                             170   -0.26 7 24.5 189 
 BAR2 SZ I         237 51.65        11.0 0.26            169           24.5 189 
 GIR2 SZ EP   1    237 35.22                             168    0.23 7 29.9 351 
 GIR2 SZ ES   1    237 50.64                             168    0.13 7 29.9 351 
 GIR2 SZ I         237 51.88         5.2 0.28            169           29.9 351 
 BRR  HZ EP   1    237 37.02                             153    0.60 7 70.3 298 
 BRR  HE ES        237 53.70                             153    0.6310 70.3 298 
 BRR  HE I         237 54.59        25.8 0.40            153           70.3 298 
 RUS  HZ EP        237 39.06                             144   -0.0910  102 176 
 RUS  HN ES   1    237 57.93                             144    0.01 7  102 176 
 RUS  HZ I         237 59.78         4.9 0.28            145            102 176 
 PTB  HZ EP        237 41.90                             133   -0.32 9  148 258 
 PTB  HN ES   1    238  2.48                             133   -0.91 7  148 258 
 PTB  HZ I         238  6.18         5.4 0.10            133            148 258 
 OCA  HN ES        238  5.18                             130   -0.39 9  159 353 
 OCA  HN I         238  9.23        19.1 0.20            132            159 353 
 SPBC HZ EP   1    237 44.12                             129    0.29 7  164 219 
 SPBC HN ES        238  5.86                             129   -0.39 9  164 219 
 SPBC HN I         238 13.48        18.0 0.22            130            164 219 
 SML  HN ES        238 19.95                             118   -0.30 8  242 335 
 HEL  HN ES        238 27.50                             115    0.64 8  272 256 
                                                                                
