 2016  731 0132 24.4 L   6.861 -73.086140.5  RSN  9 0.4 1.7LRSN                1
 GAP=248        0.67       3.5     3.9  4.3  0.2746E+01  0.3620E+01  0.3585E+01E
 Epicentro: LOS SANTOS - SANTANDER                                             3
 ACTION:UPD 17-03-29 16:57 OP:lp   STATUS:               ID:20160731013224 L   I
 OLDACT:UP  16-07-31 14:16 OP:edw  STATUS:               ID:20160731012739     3
 OLDACT:REG 16-07-31 12:30 OP:edw  STATUS:               ID:20160731012739     3
 2016-07-31-0128-00M.COL___353                                                 6
 STAT SP IPHASW D HRMM SECON CODA AMPLIT PERI AZIMU VELO AIN AR TRES W  DIS CAZ7
 BAR2 EZ EP        132 43.79                             167    0.2210 31.6 200 
 BAR2 EZ ES        132 58.59                             167    0.0510 31.6 200 
 BRR  HZ EP        132 45.63                             151    0.4910 74.3 292 
 BRR  HN ES        133  1.45                             151    0.1210 74.3 292 
 RUS  HZ EP        132 48.01                             141   -0.0910  107 180 
 RUS  HN ES        133  6.43                             141   -0.1810  107 180 
 RUS  HZ I         133  7.20         4.1 0.20            139            107 180 
 PTB  HZ EP        132 51.42                             129   -0.23 9  156 257 
 PTB  HN ES        133 12.92                             129   -0.00 9  156 257 
 SPBC HZ EP        132 53.09                             126   -0.30 9  173 219 
 SPBC HN ES        133 15.72                             126   -0.30 9  173 219 
 SPBC HZ I         133 17.18         9.2 0.22            125            173 219 
 ZAR  HZ EP   3    132 56.19                             121   -0.68 2  208 290 
 ZAR  HE ES   2    133 21.40                             121   -0.82 4  208 290 
 NOR  HZ EP   2    133  0.63                             116   -0.18 4  244 234 
 NOR  HE ES   2    133 29.04                             116   -0.20 4  244 234 
 NOR  HZ I         133 31.57         3.5 0.28            116            244 234 
 URE  HZ EP   4    133  4.22                             112   -1.39 0  288 290 
 URE  HN ES   4    133 35.14                             112   -2.64 0  288 290 
 GUY2CHZ EP   2    133  8.43                             111   -0.37 3  310 234 
 GUY2CHN ES   2    133 43.87                             111    0.42 3  310 234 
 GUY2CHZ I         133 48.16         1.9 0.34                           310 234 
 PRA  HZ EP        133 18.72                             105   -0.07 6  401 210 
 PRA  HN ES        134  2.18                             105    0.94 6  401 210 
 PRA  HZ I         134  4.84         2.4 0.50            105            401 210 
 SJC  HZ EP   4    133 18.09                             105   -1.44 0  407 326 
 SJC  HN ES   4    134  0.74                             105   -1.82 0  407 326 
                                                                                
