 2017 1231 0752 48.4 L   6.832 -73.180147.2  RSN  6 0.2 1.1LRSN                1
 GAP=137        0.64       4.0     3.2  7.3 -0.5098E+01  0.4051E+01  0.8535E+01E
 Epicentro: ZAPATOCA - SANTANDER                                               3
 ACTION:UPD 18-01-04 13:26 OP:rebc STATUS:               ID:20171231075248 L   I
 OLDACT:REG 17-12-31 11:16 OP:osc  STATUS:               ID:20171231074737     3
 2017-12-31-0748-00M.COL___409                                                 6
 STAT SP IPHASW D HRMM SECON CODA AMPLIT PERI AZIMU VELO AIN AR TRES W  DIS CAZ7
 BAR2 EZ EP        753  8.05                             169   -0.2610 26.6 180 
 BAR2 EZ I         753 25.18         3.5 0.28            161           26.6 180 
 PAM  EZ EP        753 11.06                             151    0.2610 77.2  43 
 PAM  EN ES        753 28.26                             151    0.0210 77.2  43 
 PAM  EZ I         753 33.21         1.9 0.48            151           77.2  43 
 PTB  HZ EP        753 14.84                             133   -0.41 9  145 257 
 PTB  HN ES        753 35.94                             133   -0.23 9  145 257 
 PTB  HZ I         753 37.71         1.1 0.18            137            145 257 
 SPBC HZ EP        753 17.17                             129    0.08 9  164 217 
 SPBC HN ES        753 39.63                             129    0.19 9  164 217 
 SPBC HZ I         753 46.07         3.0 0.34            130            164 217 
 ZAR  HE ES        753 45.71                             123    0.24 9  199 292 
 GUY2CHE ES        754  6.28                             113    0.30 7  300 234 
                                                                                
