 2014  531 0908 44.5 L   7.188 -73.082149.2  RSN  6 0.5 1.5LRSN                1
 GAP=112        1.33       5.7     6.8 11.3  0.5789E+00  0.3426E+02 -0.1909E+02E
 Epicentro: BUCARAMANGA - SANTANDER                                            3
 ACTION:UPD 15-03-16 17:02 OP:nd   STATUS:               ID:20140531090844 L   I
 OLDACT:DUP 14-05-31 18:40 OP:stll STATUS:               ID:20140531090806d    3
 2014-05-31-0908-05M.COL___247                                                 6
 STAT SP IPHASW D HRMM SECON CODA AMPLIT PERI AZIMU VELO AIN AR TRES W  DIS CAZ7
 PAM  SZ EP        9 9  5.70                             162    0.1810 45.4  68 
 PAM  SZ I         9 9  6.69         6.0 0.18            167           45.4  68 
 PAM  SN ES        9 9 22.58                             162    0.6410 45.4  68 
 BAR2 SZ EP        9 9  6.30                             155    0.1910 66.8 190 
 BAR2 SZ ES        9 9 22.40                             155   -0.5910 66.8 190 
 BAR2 SZ I         9 9 27.38         7.3 0.74            156           66.8 190 
 RUS  HN ES        9 9 32.98                             134   -0.44 9  143 180 
 RUS  HZ I         9 9 35.39         1.3 0.52            137            143 180 
 PTB  HZ EP        9 9 13.40                             129   -0.19 9  168 245 
 PTB  HZ I         9 9 14.30         5.7 0.10            130            168 245 
 PTB  HN ES        9 9 36.54                             129    0.23 9  168 245 
 ZAR  HZ EP        9 9 16.64                             124    0.01 9  199 280 
 ZAR  HN ES        9 9 42.50                             124    0.79 9  199 280 
 ZAR  HZ I         9 9 49.19         3.8 0.38            125            199 280 
 SML  HZ EP        9 9 17.96                             122    0.32 8  209 329 
 SML  HN ES        9 9 42.26                             122   -1.26 8  209 329 
                                                                                
