 2012  131 0338 36.0 L   6.753 -73.193144.9  RSN  7 0.3 1.4LRSN                1
 GAP=173        0.74       4.8     5.7  6.9  0.1186E+02  0.6285E+01  0.6689E+01E
 Epicentro: VILLANUEVA - SANTANDER                                             3
 ACTION:UP  12-02-03 08:22 OP:REBC STATUS:               ID:20120131033836 L   I
 2012-01-31-0336-42S.COL___156                                                 6
 STAT SP IPHASW D HRMM SECON CODA AMPLIT PERI AZIMU VELO SNR AR TRES W  DIS CAZ7
 BAR2 SZ EP   1    338 55.21                             173    -0.2 7   18 176 
 BAR2 SZ ES   1    339 10.39                             173    -0.2 7   18 176 
 BAR2 SZ I         339 12.27        13.5 0.19                            18 176 
 GIR2 SZ EP   1    338 56.03                             165     0.3 7   36 360 
 BRR  HZ EP   1    338 56.34                             153    -0.6 7   69 304 
 BRR  HN ES   1    339 13.49                             153     0.2 7   69 304 
 BRR  HZ I         339 17.88         4.2 0.20                            69 304 
 RUS  HZ EP   1    338 59.50                             145     0.2 7   96 173 
 RUS  HN ES   1    339 17.83                             145     0.3 7   96 173 
 RUS  HZ I         339 19.43         2.6 0.29                            96 173 
 PTB  HZ EP   1    339  2.40                             133     0.0 7  142 260 
 PTB  HN ES   1    339 23.00                             133     0.1 7  142 260 
 PTB  HZ I         339 26.65         0.0 0.16                           142 260 
 ZAR  HE ES   1    339 33.27                             123     0.1 6  201 294 
 CHI  HZ EP   1    339 13.47                             118     0.5 6  242 194 
 CHI  HZ I         339 14.26         1.0 0.16                           242 194 
 CHI  HN ES   1    339 41.25                             118    -0.6 6  242 194 
                                                                                
