 2010 1231 0112 46.7 L   6.757 -73.132151.8  RSN  4 0.4 1.6LRSN                1
 GAP=184        0.79       4.4     9.3 11.2 -0.9370E+01  0.3581E+02 -0.5821E+01E
 Epicentro: LOS SANTOS - SANTANDER                                             3
 ACTION:UP  11-01-14 15:28 OP:pat  STATUS:               ID:20101231011246 L   I
 2010-12-31-0110-43S.COL___134                                                 6
 STAT SP IPHASW D HRMM SECON CODA AMPLIT PERI AZIMU VELO SNR AR TRES W  DIS CAZ7
 RUS  HZ EP   1    113 10.55                             146    -0.1 7   96 177 
 RUS  HN ES   1    113 29.37                             146    -0.1 7   96 177 
 RUS  HZ I         113 32.24         3.7 0.39                            96 177 
 OCA  SZ EP   1    113 15.32                             130    -0.6 7  165 353 
 OCA  SZ ES   1    113 39.20                             130     0.5 7  165 353 
 OCA  SZ I         113 42.59         6.5 0.25                           165 353 
 NOR  SZ EP   1    113 22.72                             120     0.1 6  233 236 
 NOR  SE ES   1    113 50.52                             120    -0.1 6  233 236 
 CHI  HZ EP   1    113 24.85                             119     0.6 6  244 196 
 CHI  HZ I         114  0.18         2.3 0.31                           244 196 
                                                                                
