 2017  331 0554 54.8 L   6.554 -73.435122.0  RSN  6 0.4 1.5LRSN                1
 GAP=108        1.09       4.6     5.0  7.7  0.7418E+01  0.1310E+02  0.1940E+01E
 Epicentro: HATO - SANTANDER                                                   3
 ACTION:UPD 17-05-25 18:47 OP:jn   STATUS:               ID:20170331055454 L   I
 OLDACT:UP  17-03-31 16:40 OP:ar   STATUS:               ID:20170331054743d    3
 OLDACT:DUP 17-03-31 16:37 OP:ar   STATUS:               ID:20170331054743d    3
 2017-03-31-0548-00M.COL___343                                                 6
 STAT SP IPHASW D HRMM SECON CODA AMPLIT PERI AZIMU VELO AIN AR TRES W  DIS CAZ7
 BAR2 EZ EP        555 11.58                             166   -0.0910 28.3  81 
 BAR2 EZ ES        555 24.83                             166   -0.0310 28.3  81 
 BAR2 EZ I         555 25.37        13.1 0.21            173           28.3  81 
 BRR  HZ EP        555 13.03                             149   -0.1810 68.4 333 
 BRR  HE ES        555 27.51                             149   -0.1010 68.4 333 
 BRR  HZ I         555 27.76         7.0 0.42            150           68.4 333 
 RUS  HZ EP        555 14.95                             144    0.0610 82.9 152 
 RUS  HE ES     C  555 30.92                             144    0.3210 82.9 152 
 RUS  HZ I         555 31.87         3.9 0.22            145           82.9 152 
 PTB  HZ EP        555 15.52                             134   -1.1210  113 269 
 PTB  HE ES        555 33.77                             134    0.0610  113 269 
 PTB  HZ I         555 35.91         5.5 0.18            133            113 269 
 SPBC HZ EP        555 17.84                             132    0.2810  122 215 
 SPBC HN ES        555 35.28                             132   -0.0710  122 215 
 SPBC HZ I         555 41.33         5.9 0.20            131            122 215 
 ZAR  HZ EP        555 24.68                             119    0.60 9  188 304 
 ZAR  HE ES        555 47.49                             119    0.54 9  188 304 
 ZAR  HZ I         555 52.17         2.9 0.26            120            188 304 
                                                                                
