 2010  331 0307 13.1 L   6.821 -73.033139.4  RSN  6 0.3 1.8LRSN                1
 GAP=194        0.53       3.2     7.3  5.8  0.2924E+01  0.3916E+01 -0.9390E+00E
 Epicentro: CEPITA - SANTANDER                                                 3
 ACTION:UP  10-08-24 09:56 OP:vdl  STATUS:               ID:20100331030713 L   I
 2010-03-31-0304-25S.COL___098                                                 6
 STAT SP IPHASW D HRMM SECON CODA AMPLIT PERI AZIMU VELO SNR AR TRES W  DIS CAZ7
 BAR2 SZ IP        3 7 32.23                             167     0.110   30 213 
 BAR2 SZ ES   2    3 7 46.74                             167    -0.3 5   30 213 
 BRR  HZ IP        3 7 34.40                             147     0.210   81 293 
 BRR  HE ES   2    3 7 50.82                             147     0.1 5   81 293 
 RUS  HZ EP        3 7 36.66                             141     0.210  103 183 
 RUS  HN ES   2    3 7 53.98                             141    -0.6 5  103 183 
 RUS  HZ I         3 7 55.89         5.3 0.33                           103 183 
 OCA  SZ EP        3 7 40.63                             128    -0.3 9  160 349 
 OCA  SZ ES   2    3 8  2.55                             128    -0.1 5  160 349 
 OCA  SZ I         3 8  9.41        13.2 0.19                           160 349 
 HEL  HZ EP   3    3 7 53.77                             112    -0.7 2  285 256 
 HEL  HZ I         3 8 31.16         5.0 0.32                           285 256 
 RREF BZ EP        3 8  0.26                             109     0.0 7  333 230 
 RREF BN ES   3    3 8 37.10                             109     0.1 2  333 230 
                                                                                
