 2015  831 0007 31.4 L   6.829 -73.137147.1  RSN 23 0.5 2.4LRSN                1
 GAP= 70        1.08       2.4     2.8  4.5 -0.1433E+01  0.2527E+01  0.9538E+00E
 Epicentro: LOS SANTOS - SANTANDER                                             3
      98.0      70.0      38.0 19.0  8.0 27.0  0.0  0.1           RSN FPFIT    F
 ACTION:UPD 15-09-15 23:06 OP:cam  STATUS:               ID:20150831000731 L   I
 OLDACT:REG 15-08-31 13:40 OP:stll STATUS:               ID:20150831000005     3
 2015-08-31-0000-05M.COL___358                                                 6
 STAT SP IPHASW D HRMM SECON CODA AMPLIT PERI AZIMU VELO AIN AR TRES W  DIS CAZ7
 BAR2 EZ IP     C  0 7 51.53                             169    0.2310 26.6 191 
 BAR2 EZ ES        0 8  6.66                             169   -0.1310 26.6 191 
 BAR2 EZ I         0 8  8.13        31.1 0.44            168           26.6 191 
 BRR  HZ IP     C  0 7 53.35                             153    0.6510 70.6 296 
 BRR  HE ES        0 8  9.86                             153    0.5810 70.6 296 
 BRR  HZ I         0 8 13.86        26.3 0.14            151           70.6 296 
 PAM  EZ EP     D  0 7 54.29                             152    0.6610 74.4  41 
 PAM  EN ES        0 8 10.93                             152    0.0110 74.4  41 
 PAM  EZ I         0 8 13.29        25.6 0.46            155           74.4  41 
 RUS  HZ EP     C  0 7 55.41                             143   -0.1410  104 177 
 RUS  HN ES        0 8 13.90                             143   -0.4510  104 177 
 RUS  HZ I         0 8 15.01        20.4 0.36            144            104 177 
 CPBEREZ EP        0 7 58.53                             132   -0.14 9  149 258 
 CPBEREN ES        0 8 19.32                             132   -0.57 9  149 258 
 TAM  HZ IP     C  0 7 59.70                             131    0.48 9  155 106 
 TAM  HZ I         0 7 59.85        30.1 0.20            134            155 106 
 TAM  HN ES        0 8 20.81                             131   -0.08 9  155 106 
 OCA  HZ EP        0 7 59.74                             130    0.16 9  157 353 
 OCA  HE ES        0 8 21.76                             130    0.24 9  157 353 
 OCA  HZ I         0 8 27.93        53.4 0.38            132            157 353 
 SPBC HZ EP        0 8  0.52                             129    0.18 9  166 219 
 SPBC HN ES        0 8 22.66                             129   -0.21 9  166 219 
 SPBC HZ I         0 8 24.84        37.0 0.24            129            166 219 
 ZAR  HZ EP        0 8  4.52                             123    0.57 9  204 291 
 ZAR  HN ES        0 8 28.96                             123   -0.33 9  204 291 
 ZAR  HZ I         0 8 34.97        32.2 0.36            123            204 291 
 NOR  HZ EP        0 8  7.22                             118   -0.31 8  237 234 
 NOR  HE ES        0 8 35.36                             118   -0.32 8  237 234 
 NOR  HZ I         0 8 43.08        20.5 0.14            119            237 234 
 SML  HZ EP        0 8  7.79                             118   -0.09 8  241 335 
 SML  HE ES        0 8 36.01                             118   -0.28 8  241 335 
 SML  HZ I         0 8 40.01        22.4 0.38            119            241 335 
 CHI  HZ EP        0 8  9.55                             117   -0.03 8  252 195 
 CHI  HE ES        0 8 39.04                             117   -0.28 8  252 195 
 CHI  HZ I         0 8 45.43         6.6 0.30            118            252 195 
 ROSC BZ EP        0 8 10.58                             117    0.59 8  256 211 
 ROSC BN ES        0 8 40.08                             117    0.03 8  256 211 
 ROSC BZ I         0 8 49.31        22.4 0.40            117            256 211 
 HEL  HZ EP        0 8 12.30                             115    0.39 8  274 255 
 HEL  HN ES        0 8 43.18                             115   -0.30 8  274 255 
 HEL  HZ I         0 8 50.02        13.2 0.34            115            274 255 
 URE  HZ EP   4    0 8 11.75                             114   -0.80 0  284 291 
 URE  HE ES   4    0 8 42.23                             114   -2.37 0  284 291 
 SOCV BZ EP        0 8 12.89                             113   -1.38 7  299  57 
 SOCV BN ES   4    0 8 44.74                             113   -2.94 0  299  57 
 GUY2CHZ EP        0 8 15.32                             112   -0.09 7  304 234 
 GUY2CHN ES        0 8 49.32                             112   -0.38 7  304 234 
 GUY2CHZ I         0 8 58.37        17.7 0.70                           304 234 
 PTGC HZ EP   4    0 8 14.44                             112   -1.22 0  311 159 
 ELA  HE ES        0 8 55.32                             110   -0.18 7  332 229 
 ELA  HZ I         0 9  3.27         9.0 0.38            111            332 229 
 CBOC HZ EP   1    0 8 19.41                             110    0.78 5  335 252 
 CBOC HZ I         0 8 20.35         5.8 0.36            110            335 252 
 TOL  SZ EP     D  0 8 21.33                             109    1.24 6  346 224 
 TOL  SN ES        0 8 58.18                             109    0.15 6  346 224 
 TOL  SZ I         0 9  5.40        10.4 0.36            110            346 224 
 PRA  HZ EP        0 8 25.12                             107   -0.27 6  395 209 
 PRA  HN ES        0 9  7.56                             107    0.10 6  395 209 
 PRA  HZ I         0 9 15.95        10.7 0.62            107            395 209 
 ORTC HZ EP        0 8 25.78                             106    0.00 6  399 216 
 ORTC HN ES        0 9  7.93                             106   -0.22 6  399 216 
 ORTC HZ I         0 9 15.46         6.5 0.78            107            399 216 
 SJC  HZ EP        0 8 25.32                             106   -1.48 6  407 327 
 SJC  HZ I         0 8 27.58         4.8 0.32            107            407 327 
 SJC  HN ES   4    0 9  6.31                             106   -3.67 0  407 327 
 CRJC HZ EP        0 8 31.97                             104   -1.63 5  464   3 
 CRJC HN ES   4    0 9 20.76                             104   -1.32 0  464   3 
                                                                                
