 2015 1231 0125 52.1 L   6.987 -73.398107.0  RSN 11 0.5 1.8LRSN                1
 GAP= 88        1.10       2.7     3.7  5.9  0.9860E+00  0.8074E+01  0.6391E-02E
 Epicentro: SAN VICENTE DE CHUCURI - SANTANDER                                 3
 ACTION:UPD 16-02-04 15:09 OP:cam  STATUS:               ID:20151231012552 L   I
 OLDACT:REG 15-12-31 12:33 OP:ak   STATUS:               ID:20151231011747     3
 2015-12-31-0117-47M.COL___332                                                 6
 STAT SP IPHASW D HRMM SECON CODA AMPLIT PERI AZIMU VELO AIN AR TRES W  DIS CAZ7
 BRR  HZ EP        126  7.10                             159   -0.1210 37.1 291 
 BRR  HN ES        126 19.24                             159    0.2210 37.1 291 
 BRR  HZ I         126 19.94        12.8 0.07            160           37.1 291 
 BAR2 EZ EP        126  8.34                             153    0.1610 49.7 151 
 BAR2 EZ ES        126 20.40                             153   -0.3410 49.7 151 
 BAR2 EZ I         126 21.88        25.2 0.24            154           49.7 151 
 PAM  EZ EP        126 11.85                             138    0.7810 86.5  63 
 PAM  EN ES        126 25.84                             138   -0.0310 86.5  63 
 PAM  EZ I         126 29.73        16.7 0.34            138           86.5  63 
 RUS  HZ EP        126 13.84                             127   -0.7910  126 164 
 RUS  HN ES        126 32.11                             127   -0.1110  126 164 
 RUS  HZ I         126 33.22         4.1 0.20            128            126 164 
 PTB  HZ EP   4    126 12.32                             126   -1.79 0  127 247 
 PTB  HN ES   4    126 28.06                             126   -3.23 0  127 247 
 PTB  HZ I         126 29.96        11.5 0.24            127            127 247 
 OCA  HZ EP        126 15.33                             123   -0.14 9  139   4 
 OCA  HN ES        126 33.94                             123    0.23 9  139   4 
 OCA  HZ I         126 39.17        24.9 0.26            123            139   4 
 ZAR  HZ EP        126 18.66                             117    0.01 9  171 289 
 ZAR  HN ES        126 39.13                             117   -0.23 9  171 289 
 ZAR  HZ I         126 41.34        12.8 0.28            118            171 289 
 SML  HZ EP        126 22.57                             111   -0.88 8  214 340 
 SML  HN ES        126 48.13                             111    0.22 8  214 340 
 SML  HZ I         126 51.02        12.6 0.10            111            214 340 
 HEL  HZ EP        126 29.07                             107    0.82 8  252 250 
 HEL  HE ES        126 56.53                             107    0.07 8  252 250 
 HEL  HZ I         126 59.60         3.2 0.28            108            252 250 
 CHI  HZ EP        126 30.40                             106    0.72 8  263 188 
 CHI  HN ES        126 59.07                             106    0.08 8  263 188 
 CHI  HZ I         127  2.09         2.1 0.46            107            263 188 
 SJC  HZ EP        126 41.96                              99   -0.80 6  377 329 
 SJC  HE ES   4    127 19.53                              99   -2.75 0  377 329 
                                                                                
