 2014 1031 0221 38.6 L   6.789 -73.132147.1  RSN  5 0.3 1.4LRSN                1
 GAP=139        0.77       4.1     4.4  8.9 -0.2412E+01  0.4423E+01  0.1063E+02E
 Epicentro: LOS SANTOS - SANTANDER                                             3
 ACTION:UPD 14-11-29 23:58 OP:nd   STATUS:               ID:20141031022138 L   I
 OLDACT:DUP 14-10-31 15:04 OP:carl STATUS:               ID:20141031021748d    3
 2014-10-31-0217-46M.COL___268                                                 6
 STAT SP IPHASW D HRMM SECON CODA AMPLIT PERI AZIMU VELO AIN AR TRES W  DIS CAZ7
 BRR  HZ EP        221 59.88                             152   -0.1210 73.1 299 
 BRR  HN ES        222 17.18                             152    0.4910 73.1 299 
 BRR  HZ I         222 19.31         5.4 0.38            152           73.1 299 
 PAM  SN ES        222 18.07                             151   -0.3210 77.4  38 
 PAM  SZ I         222 19.48         4.0 0.38            157           77.4  38 
 RUS  HZ EP        222  2.73                             144    0.3410 99.3 177 
 RUS  HN ES        222 20.95                             144    0.0110 99.3 177 
 RUS  HZ I         222 22.41         2.5 0.46            145           99.3 177 
 PTB  HN ES        222 26.73                             132   -0.27 9  149 259 
 PTB  HZ I         222 30.90         4.1 0.10            132            149 259 
 SPBC HN ES        222 29.31                             129   -0.20 9  163 220 
 SPBC HZ I         222 37.47         3.9 0.24            129            163 220 
                                                                                
