 2016  131 0054 40.4 L   6.827 -73.127148.4  RSN  5 0.3 1.4LRSN                1
 GAP=137        0.71       3.0     4.5  7.5 -0.1853E+01  0.1520E+02 -0.4562E+01E
 Epicentro: LOS SANTOS - SANTANDER                                             3
 ACTION:UPD 16-03-09 23:29 OP:cam  STATUS:               ID:20160131005440 L   I
 OLDACT:UP  16-01-31 15:20 OP:ak   STATUS:               ID:20160131004801d    3
 OLDACT:DUP 16-01-31 15:16 OP:ak   STATUS:               ID:20160131004801d    3
 OLDACT:UP  16-01-31 15:15 OP:ak   STATUS:               ID:20160131004800     3
 OLDACT:REG 16-01-31 13:25 OP:ak   STATUS:               ID:20160131004800     3
 2016-01-31-0047-59S.COL___229                                                 6
 STAT SP IPHASW D HRMM SECON CODA AMPLIT PERI AZIMU VELO AIN AR TRES W  DIS CAZ7
 PAM  EN ES        055 19.85                             152   -0.2310 73.8  40 
 RUS  HZ EP        055  4.74                             143    0.1110  103 177 
 RUS  HE ES        055 23.71                             143    0.1910  103 177 
 PTB  HZ EP        055  7.30                             132   -0.53 9  150 258 
 PTB  HN ES        055 29.11                             132   -0.10 9  150 258 
 PTB  HZ I         055 36.55         3.4 0.32            132            150 258 
 SPBC HN ES   1    055 32.40                             129    0.29 7  167 219 
 SML  HZ EP   1    055 17.18                             118    0.19 6  242 335 
 SML  HN ES        055 45.95                             118    0.44 8  242 335 
                                                                                
