 2011  331 0234 32.7 L   6.755 -73.074140.7  RSN  7 0.2 2.0LRSN                1
 GAP=165        0.56       4.0     5.3  4.2 -0.8551E+01 -0.1980E+01 -0.7399E+00E
 Epicentro: LOS SANTOS - SANTANDER                                             3
 ACTION:UP  11-06-16 14:36 OP:jfem STATUS:               ID:20110331023432 L   I
 2011-03-31-0230-41S.COL___138                                                 6
 STAT SP IPHASW D HRMM SECON CODA AMPLIT PERI AZIMU VELO SNR AR TRES W  DIS CAZ7
 BAR2 SZ EP        234 51.69                             171     0.010   22 214 
 BAR2 SZ ES   1    235  6.42                             171    -0.1 7   22 214 
 BAR2 SZ I         235  7.64        18.7 0.21                            22 214 
 BTL  SZ IP        234 51.91                             168     0.110   28 310 
 BTL  SZ ES   1    235  6.73                             168     0.0 7   28 310 
 PAM  SZ EP        234 54.73                             150     0.410   77  33 
 PAM  SZ I         234 54.92        14.3 0.25                            77  33 
 PAM  SN ES   1    235 11.01                             150    -0.2 7   77  33 
 BRR  HZ IP     C  234 53.67                             149    -0.210   81 299 
 BRR  HZ I         234 55.57        37.5 0.06                            81 299 
 BRR  HN ES   1    235 10.69                             149     0.3 7   81 299 
 GRA  SZ IP        234 57.67                             135    -0.110  128  13 
 GRA  SZ ES   1    235 17.27                             135     0.0 7  128  13 
 GRA  SZ I         235 18.28        14.4 0.32                           128  13 
 OCA  SZ EP        235  1.09                             127    -0.1 9  166 351 
 OCA  SZ I         235 26.87        13.8 0.25                           166 351 
 CHI  HZ EP   2    235  9.45                             116    -0.4 4  246 197 
 CHI  HN ES   3    235 39.68                             116     0.9 2  246 197 
 CHI  HZ I         235 45.79         2.7 0.33                           246 197 
                                                                                
