 2014  131 0315 59.2 L   6.801 -73.162144.2  RSN 16 0.5 2.0LRSN                1
 GAP=134        1.13       2.8     4.0  6.1 -0.2165E+01  0.8156E+01  0.4704E+00E
 Epicentro: LOS SANTOS - SANTANDER                                             3
 ACTION:UPD 14-03-13 09:59 OP:ep   STATUS:               ID:20140131031559 L   I
 OLDACT:REG 14-01-31 07:25 OP:nd   STATUS:               ID:20140131031000     3
 2014-01-31-0310-00M.COL___288                                                 6
 STAT SP IPHASW D HRMM SECON CODA AMPLIT PERI AZIMU VELO AIN AR TRES W  DIS CAZ7
 BAR2 SZ EP        316 18.81                             170    0.1610 23.2 185 
 BAR2 SZ ES        316 33.94                             170    0.1310 23.2 185 
 BAR2 SZ I         316 35.47        25.3 0.26            170           23.2 185 
 BRR  HZ EP        316 20.63                             153    0.5310 69.5 299 
 BRR  HN ES   2    316 36.72                             153    0.33 5 69.5 299 
 BRR  HZ I         316 40.58        14.9 0.14            149           69.5 299 
 PAM  SZ EP        316 21.60                             150    0.2710 78.5  41 
 PAM  SN ES        316 38.56                             150   -0.0210 78.5  41 
 PAM  SZ I         316 39.49         5.6 0.38            154           78.5  41 
 RUS  HZ EP        316 22.56                             143   -0.2710  101 175 
 RUS  HN ES        316 41.10                             143   -0.1510  101 175 
 RUS  HZ I         316 42.39        10.2 0.30            147            101 175 
 PTB  HZ EP        316 25.56                             132   -0.33 9  146 259 
 PTB  HN ES        316 46.78                             132    0.09 9  146 259 
 PTB  HZ I         316 54.27        17.3 0.48            131            146 259 
 OCA  HZ EP        316 27.70                             129    0.33 9  160 354 
 OCA  HN ES        316 48.87                             129   -0.47 9  160 354 
 OCA  HZ I         316 54.01         9.3 0.28            130            160 354 
 SPBC HZ EP        316 27.66                             129    0.17 9  162 218 
 SPBC HN ES        316 49.43                             129   -0.11 9  162 218 
 SPBC HZ I         316 54.80        17.1 0.20            130            162 218 
 ZAR  HZ EP   4    316 34.43                             122    3.06 0  202 292 
 ZAR  HN ES        316 56.31                             122   -0.15 9  202 292 
 ZAR  HZ I         317  2.69        13.0 0.58            122            202 292 
 NOR  HZ EP        316 33.08                             118   -1.61 8  233 234 
 NOR  HN ES        317  2.45                             118    0.08 8  233 234 
 NOR  HZ I         317  5.38         6.0 0.44            119            233 234 
 SML  HZ EP        316 35.67                             117    0.01 8  243 336 
 SML  HN ES        317  3.57                             117   -0.51 8  243 336 
 SML  HZ I         317 10.24        15.8 0.26            118            243 336 
 CHI  HZ EP        316 36.79                             117    0.01 8  248 195 
 CHI  HN ES        317  5.97                             117   -0.11 8  248 195 
 CHI  HZ I         317 12.05         5.1 0.30            119            248 195 
 HEL  HZ EP        316 40.78                             115    1.63 8  270 256 
 HEL  HN ES        317 10.34                             115    0.04 8  270 256 
 HEL  HZ I         317 17.04         5.7 0.30            115            270 256 
 GUY2CHZ EP   4    316 38.23                             112   -4.35 0  300 235 
 GUY2CHN ES   4    317 20.14                             112    3.73 0  300 235 
 GUY2CHZ I         317 25.26         4.3 0.26                           300 235 
 CBOC HZ EP   4    316 46.54                             110    0.68 0  332 252 
 CBOC HN ES        317 22.37                             110    0.12 7  332 252 
 CBOC HZ I         317 24.36         1.9 0.38            111            332 252 
 PRA  HZ EP        316 52.56                             106   -0.02 6  391 209 
 PRA  HN ES        317 34.26                             106    0.05 6  391 209 
 PRA  HZ I         317 38.76         4.7 0.34            108            391 209 
 SJC  HZ EP   4    316 52.75                             105   -1.84 0  408 327 
 SJC  HN ES   4    317 35.40                             105   -2.39 0  408 327 
 SJC  HZ I         317 47.94         2.2 0.76            107            408 327 
                                                                                
