 2017 1231 0537 33.2 L   6.867 -73.130144.6  RSN 19 0.9 2.4LRSN                1
 GAP= 57        1.90       4.0     4.6  8.8 -0.2546E+01  0.8366E+01  0.3212E+01E
 Epicentro: LOS SANTOS - SANTANDER                                             3
 ACTION:UPD 18-01-04 13:26 OP:rebc STATUS:               ID:20171231053733 L   I
 OLDACT:REG 17-12-31 11:08 OP:osc  STATUS:               ID:20171231052500     3
 2017-12-31-0528-00M.COL___409                                                 6
 STAT SP IPHASW D HRMM SECON CODA AMPLIT PERI AZIMU VELO AIN AR TRES W  DIS CAZ7
 BAR2 EZ EP        537 52.89                             167    0.0310 30.9 191 
 BAR2 EZ ES        538  7.34                             167   -0.8610 30.9 191 
 BAR2 EZ I         538 11.77        64.9 0.40            167           30.9 191 
 PAM  EZ EP     D  537 55.62                             153    0.7210 70.7  42 
 PAM  EN ES        538 12.64                             153    0.8110 70.7  42 
 PAM  EZ I         538 14.77        33.2 0.54            157           70.7  42 
 PTB  HZ EP        537 59.51                             131   -0.85 9  151 256 
 PTB  HE ES        538 20.77                             131   -0.79 9  151 256 
 PTB  HZ I         538 23.36        31.8 0.15            133            151 256 
 OCA  HZ EP        538  1.10                             131    0.35 9  153 352 
 OCA  HE ES        538 22.55                             131    0.30 9  153 352 
 OCA  HZ I         538 30.07        69.1 0.18            134            153 352 
 TAM  HZ EP     D  538  1.36                             130    0.55 9  156 108 
 TAM  HE ES        538 23.13                             130    0.77 9  156 108 
 TAM  HZ I         538 29.32         9.3 0.50            135            156 108 
 SPBC HZ EP        538  1.90                             128   -0.36 9  170 218 
 SPBC HE ES        538 24.16                             128   -0.77 9  170 218 
 SPBC HZ I         538 31.22        46.0 0.28            130            170 218 
 YPLC HZ EP        538  3.58                             125    0.12 9  183 153 
 YPLC HE ES        538 27.55                             125    0.47 9  183 153 
 YPLC HZ I         538 30.41        44.7 0.26            129            183 153 
 ZAR  HZ EP        538  4.99                             122   -0.46 9  203 290 
 ZAR  HN ES        538 30.88                             122    0.26 9  203 290 
 ZAR  HZ I         538 38.00        30.0 0.32            125            203 290 
 ROSC BZ EP        538 13.00                             116    0.96 8  260 211 
 ROSC BN ES        538 42.89                             116    0.55 8  260 211 
 ROSC BZ I         538 50.26        19.0 0.45            118            260 211 
 DRL03HZ EP        538 15.04                             113    1.09 7  282 352 
 DRL03HN ES        538 45.57                             113   -0.17 7  282 352 
 GUY2CHZ EP        538 18.36                             112    0.97 7  307 234 
 GUY2CHN ES        538 51.71                             112   -0.15 7  307 234 
 GUY2CHZ I         538 58.84        13.7 0.60                           307 234 
 PTGC HZ EP        538 16.29                             111   -1.42 7  315 159 
 PTGC HN ES        538 49.83                             111   -2.60 7  315 159 
 PTGC HZ I         538 52.44         9.2 0.62            114            315 159 
 ELA  HZ EP        538 22.39                             110    1.70 7  335 229 
 ELA  HN ES        538 58.77                             110    1.02 7  335 229 
 ELA  HZ I         539  6.81         9.4 0.36            112            335 229 
 CBOC HZ EP        538 21.65                             109    1.14 7  338 251 
 CBOC HE ES        538 57.01                             109   -0.41 7  338 251 
 CBOC HZ I         539  9.06         5.7 0.58            112            338 251 
 SDV  BZ EP        538 22.43                             108   -0.06 6  354  51 
 SDV  B1 ES        538 58.92                             108   -2.02 6  354  51 
 PRA  HZ EP        538 26.60                             106   -0.92 6  399 209 
 PRA  HE ES        539  9.88                             106   -0.02 6  399 209 
 PRA  HZ I         539 15.59        12.0 0.30            108            399 209 
 ORTC HZ EP        538 27.72                             106   -0.17 6  402 216 
 ORTC HN ES        539 12.42                             106    1.87 6  402 216 
 ORTC HZ I         539 17.22         8.2 0.48            108            402 216 
 SJC  HZ EP        538 26.96                             106   -1.14 6  404 326 
 SJC  HE ES        539  9.24                             106   -1.70 6  404 326 
 SJC  HZ I         539 11.50         5.8 0.34            108            404 326 
 YOT  HZ EP        538 36.60                             103   -0.33 5  478 228 
 YOT  HN ES        539 25.73                             103   -0.92 5  478 228 
                                                                                
