 2014  831 0044  3.1 L   6.799 -73.138145.1  RSN 16 0.5 2.0LRSN                1
 GAP=138        0.99       3.0     4.2  5.8 -0.1582E+01  0.5179E+01 -0.1961E+00E
 Epicentro: LOS SANTOS - SANTANDER                                             3
 ACTION:UPD 14-09-15 21:54 OP:nd   STATUS:               ID:20140831004403 L   I
 OLDACT:REG 14-08-31 12:49 OP:fm   STATUS:               ID:20140831003815     3
 2014-08-31-0038-15M.COL___266                                                 6
 STAT SP IPHASW D HRMM SECON CODA AMPLIT PERI AZIMU VELO AIN AR TRES W  DIS CAZ7
 BAR2 SZ EP        044 22.69                             170   -0.0010 23.4 192 
 BAR2 SZ ES   1    044 38.18                             170    0.23 7 23.4 192 
 BAR2 SZ I         044 38.77        16.5 0.18            169           23.4 192 
 BRR  HZ EP   1    044 24.69                             152    0.42 7 72.0 298 
 BRR  HE ES        044 41.22                             152    0.4810 72.0 298 
 BRR  HZ I         044 44.72        18.1 0.28            149           72.0 298 
 PAM  SZ EP        044 25.68                             151    0.4210 77.0  39 
 PAM  SN ES        044 42.53                             151    0.0110 77.0  39 
 PAM  SZ I         044 44.78        26.9 0.54            154           77.0  39 
 RUS  HZ EP   1    044 26.76                             144   -0.06 7  100 177 
 RUS  HN ES        044 45.07                             144   -0.2110  100 177 
 RUS  HZ I         044 46.37         9.3 0.30            144            100 177 
 PTB  HZ EP        044 29.69                             132   -0.44 9  149 259 
 PTB  HN ES        044 50.57                             132   -0.61 9  149 259 
 PTB  HZ I         044 52.37        11.3 0.46            130            149 259 
 OCA  HZ EP        044 31.19                             129   -0.23 9  161 353 
 OCA  HN ES        044 52.96                             129   -0.52 9  161 353 
 OCA  HZ I         044 57.25         9.7 0.20            130            161 353 
 SPBC HZ EP   1    044 31.40                             129   -0.23 7  164 219 
 SPBC HN ES        044 53.60                             129   -0.25 9  164 219 
 SPBC HZ I         044 55.16         8.0 0.12            128            164 219 
 ZAR  HZ EP   1    044 36.35                             122    0.72 6  205 292 
 ZAR  HE ES        045  1.73                             122    0.76 9  205 292 
 ZAR  HZ I         045  7.27        13.6 0.44            121            205 292 
 SML  HZ EP   1    044 38.92                             117   -0.86 6  244 335 
 SML  HN ES   1    045  7.89                             117   -0.47 6  244 335 
 SML  HZ I         045 10.78        10.5 0.10            117            244 335 
 CHI  HZ EP   1    044 41.74                             117    0.93 6  249 195 
 CHI  HN ES   4    045  8.60                             117   -1.60 0  249 195 
 CHI  HZ I         045 14.00         3.6 0.22            117            249 195 
 HEL  HZ EP   1    044 43.82                             115    0.41 6  273 256 
 HEL  HN ES   4    045 16.31                             115    1.50 0  273 256 
 HEL  HZ I         045 22.46         3.7 0.20            114            273 256 
 GUY2CHN ES   4    045 24.95                             112    4.12 0  302 235 
 GUY2CHZ I         045 27.85         5.3 0.32                           302 235 
 TOL  SN ES   4    045 31.44                             109    2.35 0  344 225 
 TOL  SZ I         045 35.82        10.5 0.30            109            344 225 
 MON  HZ EP   4    044 55.39                             108    3.19 0  354 308 
 MON  HN ES   4    045 29.13                             108   -1.34 0  354 308 
 MON  HZ I         045 31.70         2.6 0.50            108            354 308 
 PRA  HZ EP   1    044 57.22                             106    0.55 4  392 210 
 PRA  HN ES   1    045 37.90                             106   -0.53 4  392 210 
 PRA  HZ I         045 45.55         4.0 0.22            106            392 210 
 SJC  HZ EP   4    044 57.37                             106   -1.38 0  410 327 
 SJC  HN ES   4    045 37.62                             106   -4.50 0  410 327 
 SJC  HZ I         045 42.50         1.9 0.56            106            410 327 
                                                                                
