 2015  131 0749 17.5 L   6.805 -73.163145.6  RSN 17 0.4 2.1LRSN                1
 GAP= 70        0.97       2.8     2.9  4.8 -0.1328E+01  0.2813E+01  0.8855E+00E
 Epicentro: LOS SANTOS - SANTANDER                                             3
 ACTION:UPD 15-03-02 15:44 OP:nd   STATUS:               ID:20150131074917 L   I
 OLDACT:UP  15-01-31 16:15 OP:cam  STATUS:               ID:20150131074812     3
 OLDACT:UP  15-01-31 16:15 OP:cam  STATUS:               ID:20150131074812     3
 OLDACT:REG 15-01-31 13:25 OP:cam  STATUS:               ID:20150131074812     3
 2015-01-31-0748-12M.COL___271                                                 6
 STAT SP IPHASW D HRMM SECON CODA AMPLIT PERI AZIMU VELO AIN AR TRES W  DIS CAZ7
 BAR2 EZ IP     C  749 37.24                             170    0.1210 23.6 185 
 BAR2 EZ ES        749 51.75                             170   -0.6710 23.6 185 
 BAR2 EZ I         749 53.66        23.9 0.20            168           23.6 185 
 BRR  HZ EP        749 38.77                             153    0.2510 69.2 299 
 BRR  HN ES        749 55.94                             153    1.0210 69.2 299 
 BRR  HZ I         750  0.45        14.1 0.14            145           69.2 299 
 PAM  SZ IP     C  749 40.14                             150    0.3910 78.2  41 
 PAM  SN ES        749 57.11                             150    0.0110 78.2  41 
 RUS  HZ EP        749 40.81                             144   -0.4810  101 175 
 RUS  HN ES        750  0.02                             144    0.1810  101 175 
 RUS  HZ I         750  0.64        13.5 0.24            140            101 175 
 PTB  HZ EP        749 44.18                             132   -0.11 9  146 258 
 PTB  HN ES        750  4.95                             132   -0.24 9  146 258 
 TAM  HZ IP     C  749 45.42                             130    0.07 9  157 105 
 TAM  HN ES        750  6.92                             130   -0.16 9  157 105 
 TAM  HN I         750  7.74        25.6 0.48            128            157 105 
 OCA  HZ EP   1    749 45.39                             130   -0.34 7  159 354 
 OCA  HN ES        750  7.40                             130   -0.34 9  159 354 
 OCA  HZ I         750 11.13        26.2 0.20            124            159 354 
 SPBC HZ EP        749 46.15                             129    0.24 9  162 218 
 SPBC HN ES        750  8.11                             129    0.04 9  162 218 
 SPBC HZ I         750 10.57        29.2 0.10            123            162 218 
 ZAR  HZ EP        749 49.82                             123    0.09 9  202 292 
 NOR  HZ EP        749 53.62                             119    0.54 8  233 234 
 NOR  HN ES        750 20.82                             119   -0.02 8  233 234 
 NOR  HZ I         750 27.96        12.1 0.28            113            233 234 
 SML  HZ EP        749 53.64                             118   -0.33 8  242 336 
 CHI  HZ EP        749 55.29                             117    0.10 8  249 195 
 CHI  HN ES        750 24.50                             117   -0.09 8  249 195 
 CHI  HZ I         750 33.35         3.8 0.58            113            249 195 
 HEL  HZ EP   4    749 58.71                             115    1.20 0  270 256 
 HEL  HN ES        750 27.87                             115   -0.85 8  270 256 
 HEL  HZ I         750 35.53         7.9 0.26            110            270 256 
 GUY2CHZ EP   4    750  2.07                             112    1.11 0  300 234 
 GUY2CHZ I         750 44.13         7.2 0.34                           300 234 
 PTGC HZ EP   4    750  0.20                             111   -1.29 0  310 158 
 CBOC HZ EP   4    750  5.74                             110    1.53 0  332 252 
 CBOC HN I         750 44.32         6.9 0.28            106            332 252 
 TOL  SZ EP   4    750  7.42                             109    1.78 0  343 224 
 MON  HZ EP   4    750  4.48                             109   -1.80 0  352 309 
 MON  HN ES   4    750 41.46                             109   -2.86 0  352 309 
 MON  HZ I         750 59.66         3.0 0.36            104            352 309 
 PAL  HZ EP        750 12.74                             106    0.25 6  404 239 
                                                                                
