 2016 1031 0812 50.0 L   6.040 -73.664114.4  RSN 10 0.3 1.5LRSN                1
 GAP= 79        0.75       2.2     2.6  5.2 -0.2078E+01  0.7190E+00  0.1079E+01E
 Epicentro: VELEZ - SANTANDER                                                  3
 ACTION:UPD 16-11-09 19:24 OP:rebc STATUS:               ID:20161031081250 L   I
 OLDACT:UP  16-10-31 16:52 OP:dnl  STATUS:               ID:20161031080800     3
 OLDACT:ARG 16-10-31 12:40 OP:dani STATUS:               ID:20161031080800     3
 2016-10-31-0808-00M.COL___316                                                 6
 STAT SP IPHASW D HRMM SECON CODA AMPLIT PERI AZIMU VELO AIN AR TRES W  DIS CAZ7
 SPBC HZ EP        813  7.33                             150   -0.0410 62.3 227 
 SPBC HN ES        813 20.97                             150    0.0110 62.3 227 
 SPBC HZ I         813 22.48        11.5 0.24            149           62.3 227 
 RUS  HZ EP        813  8.54                             148    0.3310 66.4 104 
 RUS  HE ES        813 22.59                             148    0.1510 66.4 104 
 RUS  HZ I         813 24.62         4.6 0.24            147           66.4 104 
 BAR2 EZ EP        813  9.24                             142    0.3710 81.0  41 
 BAR2 EZ ES        813 23.84                             142    0.2310 81.0  41 
 PTB  HZ EP   4    813  9.22                             135   -1.17 0  104 302 
 PTB  HE ES        813 26.17                             135   -0.1510  104 302 
 PTB  HZ I         813 26.61         8.7 0.44            135            104 302 
 BRR  HZ EP        813 11.52                             131   -0.1510  118 357 
 BRR  HN ES        813 28.76                             131    0.1610  118 357 
 BRR  HZ I         813 32.00         5.2 0.10            131            118 357 
 NOR  HZ EP   2    813 14.40                             125    0.20 5  143 249 
 NOR  HE ES        813 33.00                             125   -0.10 9  143 249 
 NOR  HZ I         813 34.57         6.0 0.28            124            143 249 
 CHI  HZ EP   2    813 15.92                             122   -0.04 5  156 183 
 CHI  HN ES        813 35.65                             122   -0.59 9  156 183 
 CHI  HZ I         813 38.26         6.4 0.92            122            156 183 
 PAM  EZ EP   2    813 18.63                             118    0.18 4  179  37 
 PAM  EN ES        813 39.85                             118   -0.83 9  179  37 
 PAM  EZ I         813 42.72         2.2 0.16            118            179  37 
 GUY2CHZ EP   2    813 21.99                             114    0.27 4  209 244 
 GUY2CHN ES   4    813 48.43                             114    1.95 0  209 244 
 GUY2CHZ I         813 52.92         1.7 0.70                           209 244 
 PRA  HZ EP   2    813 30.83                             106    0.27 4  291 208 
 PRA  HE ES        814  2.51                             106    0.29 7  291 208 
 PRA  HZ I         814  9.17         2.2 0.26            106            291 208 
                                                                                
