 2017  131 0717  1.2 L   6.245 -73.655103.2  RSN  5 0.2 1.1LRSN                1
 GAP=169        0.48       4.0     2.4  5.9  0.4566E+01  0.3741E+01  0.6147E+01E
 Epicentro: LA PAZ - SANTANDER                                                 3
 ACTION:UPD 17-05-22 16:05 OP:jn   STATUS:               ID:20170131071701 L   I
 OLDACT:UP  17-01-31 15:38 OP:and  STATUS:               ID:20170131070646     3
 OLDACT:UP  17-01-31 15:38 OP:and  STATUS:               ID:20170131070646     3
 OLDACT:UP  17-01-31 15:36 OP:and  STATUS:               ID:20170131070646     3
 OLDACT:UP  17-01-31 15:36 OP:and  STATUS:               ID:20170131070646     3
 OLDACT:UP  17-01-31 15:35 OP:and  STATUS:               ID:20170131070646     3
 OLDACT:REG 17-01-31 15:33 OP:and  STATUS:               ID:20170131070646     3
 2017-01-31-0707-00M.COL___331                                                 6
 STAT SP IPHASW D HRMM SECON CODA AMPLIT PERI AZIMU VELO AIN AR TRES W  DIS CAZ7
 BAR2 EZ EP        717 17.80                             145   -0.0010 64.9  54 
 BAR2 EZ ES        717 30.65                             145   -0.1310 64.9  54 
 BAR2 EZ I         717 32.59         5.0 0.27            151           64.9  54 
 RUS  HZ EP        717 19.02                             141    0.1710 74.3 122 
 RUS  HN ES   4    717 33.83                             141    1.20 0 74.3 122 
 PTB  HZ EP   2    717 20.00                             134    0.16 5 94.4 290 
 PTB  HN ES        717 34.33                             134   -0.0710 94.4 290 
 PTB  HZ I         717 37.62         1.5 0.16            136           94.4 290 
 BRR  HZ EP   2    717 19.39                             133   -0.52 5 95.6 356 
 BRR  HN ES   2    717 35.05                             133    0.52 5 95.6 356 
 ZAR  HN ES        717 52.20                             113   -0.01 9  192 316 
 ZAR  HZ I         717 53.88         2.0 0.21            116            192 316 
                                                                                
