 2015  331 0330  4.2 L   6.821 -73.157139.4  RSN  9 0.5 1.7LRSN                1
 GAP=134        1.16       4.1     5.4  6.9 -0.2766E+01  0.8760E+01 -0.2129E+01E
 Epicentro: LOS SANTOS - SANTANDER                                             3
 ACTION:UPD 15-04-30 16:30 OP:nd   STATUS:               ID:20150331033004 L   I
 OLDACT:UP  15-03-31 13:49 OP:mh   STATUS:               ID:20150331032749     3
 OLDACT:UP  15-03-31 13:49 OP:mh   STATUS:               ID:20150331032749     3
 OLDACT:UP  15-03-31 13:47 OP:mh   STATUS:               ID:20150331032749     3
 OLDACT:REG 15-03-31 12:28 OP:mh   STATUS:               ID:20150331032749     3
 2015-03-31-0327-49M.COL___277                                                 6
 STAT SP IPHASW D HRMM SECON CODA AMPLIT PERI AZIMU VELO AIN AR TRES W  DIS CAZ7
 BAR2 EZ EP   1    330 23.18                             169    0.05 7 25.4 186 
 BAR2 EZ ES        330 37.72                             169   -0.1710 25.4 186 
 BAR2 EZ I         330 41.88         6.1 0.23            171           25.4 186 
 BRR  HZ EP        330 25.14                             152    0.5810 69.1 297 
 BRR  HN ES        330 41.04                             152    0.6110 69.1 297 
 BRR  HZ I         330 44.97         5.5 0.30            150           69.1 297 
 PAM  SZ EP        330 25.87                             150    0.1610 76.4  41 
 PAM  SN ES   1    330 43.02                             150    0.55 7 76.4  41 
 PAM  SZ I         330 44.91         8.1 0.54            153           76.4  41 
 RUS  HZ EP   1    330 27.24                             142   -0.29 7  103 175 
 RUS  HN ES        330 45.64                             142   -0.0710  103 175 
 RUS  HZ I         330 47.31         3.7 0.24            149            103 175 
 PTB  HZ EP        330 29.86                             131   -0.75 9  147 258 
 PTB  HN ES        330 50.50                             131   -0.69 9  147 258 
 PTB  HZ I         330 58.39         7.0 0.48            132            147 258 
 OCA  HZ EP        330 31.58                             129   -0.24 9  158 353 
 OCA  HN ES        330 52.54                             129   -0.80 9  158 353 
 OCA  HZ I         331  2.34        11.6 0.35            131            158 353 
 SPBC HZ EP        330 32.26                             127   -0.08 9  164 218 
 SPBC HN ES   1    330 54.25                             127   -0.02 7  164 218 
 SPBC HZ I         330 56.48        10.4 0.46            131            164 218 
 ZAR  HZ EP        330 36.37                             121    0.32 9  202 292 
 ZAR  HN ES   1    331  1.47                             121    0.59 6  202 292 
 ZAR  HZ I         331  7.62         7.2 0.46            123            202 292 
 GUY2CHZ EP        330 48.46                             111    0.88 7  302 234 
 GUY2CHN ES   4    331 25.87                             111    4.47 0  302 234 
 GUY2CHZ I         331 30.05         3.5 0.70                           302 234 
                                                                                
