 2013  531 0355 30.5 L   6.826 -73.147137.2  RSN  5 0.5 1.6LRSN                1
 GAP=201        1.19       5.9     8.3  8.8  0.2070E+02 -0.3522E+01 -0.1735E+02E
 Epicentro: LOS SANTOS - SANTANDER                                             3
 ACTION:UPD 13-06-20 09:55 OP:ep   STATUS:               ID:20130531035530 L   I
 2013-05-31-0350-00M.COL___261                                                 6
 STAT SP IPHASW D HRMM SECON CODA AMPLIT PERI AZIMU VELO AIN AR TRES W  DIS CAZ7
 BAR2 SZ EP     D  355 49.57                             169    0.3710 26.1 189 
 BAR2 SZ ES        356  3.20                             169   -0.5610 26.1 189 
 BAR2 SZ I         356  5.69         8.6 0.38            171           26.1 189 
 BRR  HZ EP        355 51.28                             151    0.6010 69.8 297 
 BRR  HN ES        356  6.93                             151    0.5410 69.8 297 
 BRR  HZ I         356 15.80         8.9 0.28            150           69.8 297 
 RUS  HZ EP        355 54.15                             141    0.4810  103 176 
 RUS  HN ES        356 11.30                             141   -0.4110  103 176 
 RUS  HZ I         356 13.53         3.4 0.28            148            103 176 
 PTB  HZ EP        355 56.56                             130   -0.30 9  148 258 
 PTB  HN ES        356 17.25                             130   -0.14 9  148 258 
 PTB  HZ I         356 22.20         4.3 0.20            132            148 258 
 SML  HZ EP        356  5.63                             116   -0.77 8  241 335 
 SML  HN ES        356 34.16                             116   -0.22 8  241 335 
 SML  HZ I         356 40.53         6.1 0.24            119            241 335 
                                                                                
