 2010  331 0647  1.0 L   6.070 -73.784 99.4  RSN  5 0.2 1.6LRSN                1
 GAP=129        0.45       3.1     3.0  8.1 -0.2938E+01  0.9842E+01  0.9480E+01E
 Epicentro: EL PEON - SANTANDER                                                3
 ACTION:UP  10-08-24 09:57 OP:vdl  STATUS:               ID:20100331064701 L   I
 2010-03-31-0643-25S.COL___098                                                 6
 STAT SP IPHASW D HRMM SECON CODA AMPLIT PERI AZIMU VELO SNR AR TRES W  DIS CAZ7
 RUS  HZ EP   1    647 18.68                             139    -0.1 7   80 104 
 RUS  HZ I         647 19.01        11.3 0.17                            80 104 
 RUS  HN ES   3    647 32.49                             139    -0.2 2   80 104 
 BAR2 SZ EP        647 19.12                             136     0.010   88  49 
 BAR2 SZ ES   1    647 33.37                             136     0.2 7   88  49 
 BRR  HZ EP        647 21.15                             127    -0.110  115   4 
 BRR  HZ I         647 24.28        11.3 0.06                           115   4 
 BRR  HN ES   1    647 37.09                             127     0.0 7  115   4 
 HEL  HN ES   2    647 53.13                             113     0.2 4  194 274 
 HEL  HZ I         647 57.18         3.5 0.26                           194 274 
 RREF BZ EP        647 33.41                             111     0.3 8  216 233 
 RREF BN ES   1    647 57.88                             111    -0.3 6  216 233 
 RREF BZ I         648  4.32         4.1 0.29                           216 233 
                                                                                
