 2016  731 0112 38.7 L   6.805 -73.120143.0  RSN 14 0.4 2.1LRSN                1
 GAP=101        0.82       3.0     2.4  4.0 -0.7413E+00  0.2151E+01  0.2255E+01E
 Epicentro: LOS SANTOS - SANTANDER                                             3
 ACTION:UPD 17-03-29 16:57 OP:lp   STATUS:               ID:20160731011238 L   I
 OLDACT:UP  16-07-31 13:36 OP:edw  STATUS:               ID:20160731010737     3
 OLDACT:REG 16-07-31 12:22 OP:edw  STATUS:               ID:20160731010737     3
 2016-07-31-0108-00M.COL___353                                                 6
 STAT SP IPHASW D HRMM SECON CODA AMPLIT PERI AZIMU VELO AIN AR TRES W  DIS CAZ7
 BAR2 EZ EP        112 57.67                             170   -0.3910 24.5 196 
 BAR2 EZ ES        113 13.08                             170   -0.0610 24.5 196 
 BRR  HZ IP     C  112 59.44                             151   -0.2810 73.5 297 
 BRR  HE ES        113 16.36                             151    0.2710 73.5 297 
 BRR  HZ I         113 17.18        23.6 0.14            150           73.5 297 
 PAM  EZ EP        113  0.63                             151    0.1010 75.2  38 
 PAM  EN ES        113 17.55                             151    0.0210 75.2  38 
 PAM  EZ I         113 19.29        22.2 0.16            155           75.2  38 
 RUS  HZ EP        113  1.72                             143   -0.5310  101 178 
 RUS  HN ES        113 20.64                             143    0.0610  101 178 
 RUS  HZ I         113 22.54        13.4 0.20            142            101 178 
 PTB  HZ EP   9    113  4.79                             131   -0.96 0  151 259 
 PTB  HN ES        113 25.82                                   -0.04 9  151 259 
 TAM  HZ EP        113  6.11                             130    0.16 9  152 105 
 TAM  HN ES        113 27.70                             130    0.52 9  152 105 
 SPBC HZ EP        113  6.77                             128   -0.47 9  165 220 
 SPBC HN ES        113 29.15                             128   -0.32 9  165 220 
 SPBC HZ I         113 37.62        17.8 0.24            127            165 220 
 ZAR  HZ EP        113 11.28                             121    0.02 8  207 292 
 ZAR  HE ES        113 36.40                             121   -0.23 8  207 292 
 ZAR  HZ I         113 41.46        22.1 0.44            121            207 292 
 NOR  HZ EP        113 14.35                             118   -0.24 8  237 235 
 NOR  HN ES        113 42.73                             118    0.17 8  237 235 
 NOR  HZ I         113 43.63         7.9 0.18            117            237 235 
 HEL  HZ EP        113 19.71                             114    0.58 8  275 256 
 HEL  HN ES        113 51.33                             114    0.68 8  275 256 
 HEL  HZ I         113 58.27         6.2 0.20            114            275 256 
 URE  HZ EP   4    113 18.34                             113   -1.61 0  286 292 
 URE  HE ES   4    113 49.06                             113   -3.04 0  286 292 
 URE  HZ I         113 54.82         8.1 0.18            113            286 292 
 SOCV BZ EP   4    113 20.39                             112   -0.96 0  299  57 
 SOCV BN ES   4    113 51.92                             112   -2.68 0  299  57 
 GUY2CHZ EP   2    113 23.14                             112    0.62 4  304 235 
 GUY2CHN ES   2    113 57.37                             112    0.70 4  304 235 
 GUY2CHZ I         114  6.29         8.0 0.72                           304 235 
 ELA  HZ EP        113 26.05                             110    0.29 7  332 230 
 ELA  HN ES   4    114  3.99                             110    1.55 0  332 230 
 ELA  HZ I         114 13.04         5.5 0.34            110            332 230 
 PRA  HZ EP        113 31.87                             106   -0.51 6  394 210 
 PRA  HE ES        114 14.97                             106    0.74 6  394 210 
 PRA  HZ I         114 20.60         5.4 0.32            106            394 210 
 SJC  HZ EP   4    113 31.58                             105   -2.76 0  410 327 
 SJC  HN ES   4    114 13.88                             105   -3.84 0  410 327 
                                                                                
