 2015 1231 0042 56.1 L   7.307 -73.068159.4  RSN 21 0.5 2.3LRSN                1
 GAP= 96        1.22       2.9     4.1  5.4 -0.1321E+01  0.3251E+01  0.2064E+00E
 Epicentro: MATANZA - SANTANDER                                                3
 ACTION:UPD 16-02-04 15:09 OP:cam  STATUS:               ID:20151231004256 L   I
 OLDACT:REG 15-12-31 12:29 OP:ak   STATUS:               ID:20151231003748     3
 2015-12-31-0037-48M.COL___329                                                 6
 STAT SP IPHASW D HRMM SECON CODA AMPLIT PERI AZIMU VELO AIN AR TRES W  DIS CAZ7
 PAM  EZ EP        043 18.72                             165    0.4910 40.8  85 
 PAM  EN ES        043 35.55                             165    0.1010 40.8  85 
 PAM  EZ I         043 37.47        49.2 0.60            165           40.8  85 
 BRR  HZ EP        043 19.65                             154    0.6910 74.5 253 
 BRR  HE ES        043 37.59                             154    0.8410 74.5 253 
 BRR  HZ I         043 40.88        32.9 0.18            150           74.5 253 
 BAR2 EZ EP        043 19.52                             152   -0.1010 80.1 189 
 BAR2 EZ ES        043 36.88                             152   -1.0410 80.1 189 
 BAR2 EZ I         043 39.21        23.9 0.14            151           80.1 189 
 OCA  HZ EP        043 21.61                             145    0.4110  107 345 
 OCA  HN ES        043 40.93                             145    0.1810  107 345 
 RUS  HZ EP        043 25.68                             133    0.01 9  156 181 
 RUS  HE ES        043 48.30                             133   -0.40 9  156 181 
 PTB  HZ EP        043 26.47                             130   -0.28 9  175 241 
 PTB  HN ES        043 49.95                             130   -0.67 9  175 241 
 PTB  HZ I         043 53.32        23.4 0.26            126            175 241 
 ZAR  HZ EP        043 28.74                             126   -0.24 9  199 276 
 ZAR  HN ES        043 54.94                             126    0.34 9  199 276 
 ZAR  HZ I         043 59.98        18.0 0.12            122            199 276 
 SML  HZ EP        043 29.22                             126    0.24 9  199 326 
 SML  HN ES        043 53.65                             126   -0.93 9  199 326 
 SML  HZ I         043 55.70        46.3 0.10            122            199 326 
 SPBC HZ EP        043 31.44                             124    0.80 8  214 211 
 SPBC HN ES        043 58.20                             124    0.66 8  214 211 
 SPBC HZ I         044  0.42        17.2 0.20            121            214 211 
 SOCV BZ EP        043 35.33                             118   -0.74 8  267  66 
 SOCV BN ES   4    044  4.96                             118   -2.26 0  267  66 
 LL6C HZ EP        043 35.89                             117   -0.44 8  269 355 
 LL6C HZ I         044 11.65         4.5 0.46            114            269 355 
 URE  HZ EP   9    043 36.06                             117   -1.05 0  276 280 
 URE  HN ES        044  7.71                                   -0.30 7  276 280 
 URE  HZ I         044 19.35        17.9 0.28            114            276 280 
 NOR  HZ EP        043 37.72                             117    0.47 7  277 226 
 NOR  HN ES   4    044  8.08                             117   -1.23 0  277 226 
 NOR  HZ I         044 16.01        11.7 0.22            114            277 226 
 HEL  HZ EP        043 40.54                             115    0.53 7  299 246 
 HEL  HE ES        044 13.93                             115   -0.29 7  299 246 
 HEL  HZ I         044 21.90        10.2 0.26            112            299 246 
 CHI  HZ EP        043 41.02                             114    0.25 7  305 194 
 CHI  HN ES        044 14.88                             114   -0.70 7  305 194 
 CHI  HZ I         044 24.71         4.6 0.36            112            305 194 
 ARGC HZ EP   4    043 42.78                             114    1.94 0  310 335 
 ARGC HN ES        044 15.63                             114   -0.07 7  310 335 
 ARGC HZ I         044 17.91         6.0 0.20            111            310 335 
 GUY2CHZ EP   4    043 47.12                             112    2.01 0  343 228 
 GUY2CHN ES        044 23.56                             112    0.27 7  343 228 
 GUY2CHZ I         044 31.83         7.0 0.76                           343 228 
 CBOC HZ EP        043 46.33                             110   -0.62 6  363 244 
 CBOC HN ES        044 25.73                             110   -0.85 6  363 244 
 CBOC HZ I         044 31.37         3.1 0.50            108            363 244 
 SJC  HZ EP        043 47.13                             110   -0.39 6  369 321 
 SJC  HN ES   4    044 24.68                             110   -2.91 0  369 321 
 SJC  HZ I         044 29.45        11.5 0.46            107            369 321 
 ANIL HN ES   4    044 37.80                             108    2.30 0  405 220 
 ANIL HZ I         044 43.58        10.4 0.20            106            405 220 
 PRA  HZ EP   1    043 56.88                             106    0.48 4  446 207 
 PRA  HE ES        044 43.55                             106    0.16 5  446 207 
 PRA  HZ I         044 49.46         5.4 0.20            104            446 207 
                                                                                
