 2012 1031 0824 27.1 L   6.817 -73.089145.9  RSN  5 0.4 2.0LRSN                1
 GAP=189        0.80       5.7     7.4  9.2  0.1844E+02  0.1380E+02 -0.1081E+02E
 Epicentro: LOS SANTOS - SANTANDER                                             3
 ACTION:UPD 12-11-22 17:06 OP:ep   STATUS:               ID:20121031082427 L   I
 2012-10-31-0820-00M.COL___231                                                 6
 STAT SP IPHASW D HRMM SECON CODA AMPLIT PERI AZIMU VELO AIN AR TRES W  DIS CAZ7
 BAR2 SZ EP        824 46.88                             169    0.0510 26.9 203 
 BAR2 SZ ES   1    825  2.16                             169   -0.05 7 26.9 203 
 BRR  HZ EP   1    824 48.91                             151    0.37 7 75.9 295 
 BRR  HN ES   1    825  5.97                             151    0.71 7 75.9 295 
 BRR  HN I         825  6.70        19.3 0.28                          75.9 295 
 RUS  HN ES   1    825  9.28                             143   -0.34 7  102 180 
 OCA  HN ES   1    825 16.96                             130   -0.39 7  159 351 
 OCA  HN I         825 20.74        14.6 0.09                           159 351 
 ZAR  HZ EP   1    825  0.35                             122    0.26 6  209 291 
 ZAR  HN ES        825 25.32                             122   -0.50 8  209 291 
 ZAR  HN I         825 28.42         6.8 0.12                           209 291 
                                                                                
