 2016  831 0032 18.6 L   6.544 -74.106 19.0  RSN  4 0.1 1.5LRSN                1
 GAP=147        0.44       2.4     1.3  3.5 -0.1727E+01 -0.3155E+01  0.6059E+01E
 Epicentro: PUERTO PARRA - SANTANDER                                           3
 ACTION:UPD 16-10-29 15:40 OP:rebc STATUS:               ID:20160831003218 L   I
 OLDACT:REG 16-08-31 12:40 OP:drio STATUS:               ID:20160831002735     3
 2016-08-31-0028-00M.COL___350                                                 6
 STAT SP IPHASW D HRMM SECON CODA AMPLIT PERI AZIMU VELO AIN AR TRES W  DIS CAZ7
 PTB  HZ EP        032 25.39                             113   -0.1310 38.7 269 
 PTB  HE ES        032 31.01                             113    0.0710 38.7 269 
 PTB  HZ I         032 31.35        80.4 0.26                          38.7 269 
 BRR  HZ EP        032 30.70                             102   -0.2210 76.0  35 
 BRR  HE ES        032 40.67                             102    0.1210 76.0  35 
 BRR  HZ I         032 40.94        11.3 0.42                          76.0  35 
 BAR2 EZ EP        032 35.25                              99    0.1610  102  87 
 BAR2 EZ ES        032 47.88                              99   -0.0910  102  87 
 BAR2 EZ I         032 48.76         8.7 0.32                           102  87 
 RUS  HZ EP        032 40.08                              56    0.1810  134 122 
 RUS  HE ES        032 56.44                              56   -0.1010  134 122 
 RUS  HZ I         032 57.95         4.9 0.14                           134 122 
                                                                                
