 2016 1031 0122 39.3 L   6.768 -73.154145.8  RSN  5 0.5 1.3LRSN                1
 GAP=137        1.24       6.6     6.4  9.1 -0.3941E+01  0.7045E+01  0.2355E+01E
 Epicentro: LOS SANTOS - SANTANDER                                             3
 ACTION:UPD 16-11-09 19:24 OP:rebc STATUS:               ID:20161031012239 L   I
 OLDACT:UP  16-10-31 15:40 OP:dani STATUS:               ID:20161031011800     3
 OLDACT:ARG 16-10-31 12:39 OP:dani STATUS:               ID:20161031011800     3
 2016-10-31-0118-00M.COL___316                                                 6
 STAT SP IPHASW D HRMM SECON CODA AMPLIT PERI AZIMU VELO AIN AR TRES W  DIS CAZ7
 BAR2 EZ EP        122 58.13                             172   -0.6910 19.6 189 
 BAR2 EZ ES        123 13.49                             172   -0.6010 19.6 189 
 BAR2 EZ I         123 14.57         5.3 0.09            172           19.6 189 
 BRR  HZ EP        123  0.85                             152    0.3810 72.2 301 
 BRR  HE ES        123 17.74                             152    0.7210 72.2 301 
 BRR  HZ I         123 20.56         6.9 0.25            152           72.2 301 
 PAM  EZ EP        123  1.88                             150    0.2010 80.7  38 
 PAM  EN ES        123 18.96                             150   -0.2110 80.7  38 
 PAM  EZ I         123 20.79         5.4 0.42            152           80.7  38 
 RUS  HZ EP        123  2.87                             145    0.1110 97.1 175 
 RUS  HN ES        123 21.71                             145    0.6110 97.1 175 
 RUS  HZ I         123 22.84         1.3 0.32            147           97.1 175 
 PTB  HZ EP        123  5.91                             132   -0.18 9  146 260 
 PTB  HE ES        123 26.60                             132   -0.42 9  146 260 
 PTB  HZ I         123 29.61         3.2 0.32            133            146 260 
                                                                                
