 2016  331 0125 18.1 L   6.834 -73.178140.0  RSN 18 0.4 2.2LRSN                1
 GAP= 68        0.93       2.4     2.7  4.7 -0.6127E+00  0.4691E+01  0.5963E+00E
 Epicentro: ZAPATOCA - SANTANDER                                               3
 ACTION:UPD 16-05-13 21:29 OP:cam  STATUS:               ID:20160331012518 L   I
 OLDACT:UP  16-03-31 13:20 OP:drio STATUS:               ID:20160331011745     3
 OLDACT:UP  16-03-31 13:16 OP:drio STATUS:               ID:20160331011745     3
 OLDACT:UP  16-03-31 13:15 OP:drio STATUS:               ID:20160331011745     3
 OLDACT:REG 16-03-31 12:17 OP:drio STATUS:               ID:20160331011745     3
 2016-03-31-0117-45M.COL___290                                                 6
 STAT SP IPHASW D HRMM SECON CODA AMPLIT PERI AZIMU VELO AIN AR TRES W  DIS CAZ7
 BAR2 EZ EP        125 37.02                             169   -0.0610 26.8 181 
 BAR2 EZ ES        125 51.64                             169   -0.2710 26.8 181 
 BAR2 EZ I         125 53.67        39.3 0.22            170           26.8 181 
 PAM  EZ EP        125 39.97                             150    0.3310 76.9  43 
 PAM  EE ES        125 57.16                             150    0.6910 76.9  43 
 PAM  EZ I         125 59.17        40.7 0.52            146           76.9  43 
 RUS  HZ EP        125 41.05                             141   -0.5110  105 174 
 RUS  HE ES        126  0.10                             141    0.2210  105 174 
 RUS  HZ I         126  0.81        19.8 0.28            140            105 174 
 PTB  HZ EP        125 43.80                             131   -0.52 9  145 257 
 PTB  HN ES        126  4.70                             131   -0.09 9  145 257 
 PTB  HZ I         126  6.75        17.1 0.42            129            145 257 
 OCA  HZ EP        125 45.44                             129   -0.10 9  156 354 
 OCA  HE ES        126  6.86                             129   -0.11 9  156 354 
 OCA  HZ I         126 10.46        33.2 0.18            126            156 354 
 TAM  HZ EP        125 45.38                             128   -0.34 9  160 106 
 TAM  HZ I         126  6.33         7.0 0.26            126            160 106 
 TAM  HE ES        126  7.14                             128   -0.14 9  160 106 
 SPBC HZ EP        125 46.32                             128    0.12 9  164 217 
 SPBC HE ES        126  8.02                             128   -0.13 9  164 217 
 SPBC HZ I         126 12.47        34.0 0.18            126            164 217 
 ZAR  HZ EP        125 49.62                             122   -0.03 9  199 292 
 ZAR  HN ES        126 14.61                             122    0.33 9  199 292 
 ZAR  HZ I         126 20.25        15.3 0.22            119            199 292 
 NOR  HZ EP        125 53.30                             117   -0.09 8  234 233 
 NOR  HE ES        126 20.60                             117   -0.35 8  234 233 
 NOR  HZ I         126 26.46        12.1 0.20            115            234 233 
 CHI  HZ EP        125 55.26                             116   -0.49 8  251 194 
 CHI  HN ES        126 24.80                             116   -0.35 8  251 194 
 CHI  HZ I         126 28.02        12.3 0.54            114            251 194 
 ROSC BZ EP        125 56.42                             115    0.39 8  254 210 
 ROSC BN ES        126 26.27                             115    0.62 8  254 210 
 ROSC BZ I         126 31.53        25.8 0.40            113            254 210 
 HEL  HZ EP        125 58.39                             114    0.68 8  270 255 
 HEL  HN ES   4    126 26.61                             114   -2.02 0  270 255 
 HEL  HZ I         126 35.11        10.5 0.30            112            270 255 
 URE  HZ EP        125 57.72                             113   -0.61 7  279 291 
 URE  HE ES   4    126 27.70                             113   -2.03 0  279 291 
 URE  HZ I         126 36.14        12.0 0.12            111            279 291 
 GUY2CHZ EP        126  1.78                             111    0.45 7  300 234 
 GUY2CHE ES   4    126 38.52                             111    3.44 0  300 234 
 GUY2CHZ I         126 43.33         9.8 0.36                           300 234 
 PTGC HZ EP   4    126  0.24                             110   -1.98 0  314 158 
 PTGC HE ES   4    126 33.41                             110   -3.25 0  314 158 
 CBOC HZ EP        126  5.02                             109    0.53 7  331 251 
 CBOC HE ES   4    126 41.87                             109    1.17 0  331 251 
 CBOC HZ I         126 44.45         3.8 0.26            107            331 251 
 MON  HZ EP   4    126  4.06                             108   -2.19 0  349 308 
 MON  HE ES        126 43.13                             108   -0.70 6  349 308 
 MON  HZ I         126 57.95         3.8 0.58            106            349 308 
 ANIL HZ EP        126  8.50                             107    0.82 6  358 224 
 ANIL HE ES        126 46.67                             107    0.29 6  358 224 
 SJC  HZ EP   4    126 11.24                             105   -1.60 0  404 327 
 SJC  HN ES   4    126 51.48                             105   -4.08 0  404 327 
 SJC  HZ I         127  0.09         3.3 0.50            103            404 327 
                                                                                
