 2011  531 0628 48.4 L   7.407 -73.184127.8  RSN 12 0.3 2.8LRSN                1
 GAP= 88        0.65       3.2     4.4  4.5 -0.5741E+01  0.8255E+01 -0.2079E+00E
 Epicentro: EL PLAYON - SANTANDER                                              3
 ACTION:UP  11-06-29 08:57 OP:tino STATUS:               ID:20110531062848 L   I
 2011-05-31-0627-07S.COL___115                                                 6
 STAT SP IPHASW D HRMM SECON CODA AMPLIT PERI AZIMU VELO SNR AR TRES W  DIS CAZ7
 GIR2 SZ EP   1    629  6.09                             163    -0.1 7   36 182 
 GIR2 SZ ES   1    629 19.30                             163    -0.7 7   36 182 
 PAM  SZ EP   1    629  7.48                             156     0.1 7   54  98 
 PAM  SZ I         629  7.74        50.7 0.27                            54  98 
 PAM  SN ES   1    629 22.31                             156     0.1 7   54  98 
 BRI  SZ EP   1    629  7.28                             155     0.3 7   55  51 
 BRI  SZ I         629  7.78       141.3 0.27                            55  51 
 BRI  SZ ES   2    629 21.57                             155     0.1 5   55  51 
 BTL  SZ EP   1    629  6.96                             155    -0.1 7   55 190 
 BRR  HZ IP     D  629  7.27                             150    -0.210   67 240 
 BRR  HN ES   1    629 22.51                             150     0.3 7   67 240 
 BRR  HZ I         629 23.69       224.7 0.13                            67 240 
 GRA  SZ IP        629  7.87                             150     0.210   67  38 
 GRA  SZ ES   2    629 23.09                             150     0.4 5   67  38 
 GRA  SZ I         629 24.27       309.0 0.32                            67  38 
 BAR2 SZ EP   1    629  9.25                             143    -0.1 7   90 180 
 BAR2 SZ ES   1    629 25.55                             143    -0.1 7   90 180 
 BAR2 SZ I         629 26.76       168.3 0.13                            90 180 
 OCA  SZ EP   1    629  9.30                             142    -0.1 7   93 351 
 OCA  SZ ES   1    629 25.70                             142    -0.1 7   93 351 
 OCA  SZ I         629 27.93       132.0 0.22                            93 351 
 NOR  SZ EP   1    629 27.68                             110    -0.2 6  276 223 
 NOR  SE ES   1    629 59.44                             110     0.8 6  276 223 
 HEL  HZ EP   1    629 29.93                             109    -0.2 5  292 243 
 HEL  HZ I         630 10.17        24.2 0.29                           292 243 
 DBB  SZ EP   1    629 34.70                             106    -0.2 5  337 263 
 DBB  SZ I         630 12.16        12.8 0.39                           337 263 
 PRA  HZ EP   1    629 47.80                             101    -0.5 4  450 205 
 PRA  HN ES   1    630 35.64                             101     0.7 4  450 205 
                                                                                
