 2010  531 0403 27.1 L   6.781 -73.069145.6  RSN 10 0.3 2.3LRSN                1
 GAP=184        0.60       3.6     6.5  4.8 -0.1523E+02  0.5818E+01  0.1543E+00E
 Epicentro: LOS SANTOS - SANTANDER                                             3
 ACTION:UP  10-08-24 10:07 OP:vdl  STATUS:               ID:20100531040327 L   I
 2010-05-31-0400-37S.COL___109                                                 6
 STAT SP IPHASW D HRMM SECON CODA AMPLIT PERI AZIMU VELO SNR AR TRES W  DIS CAZ7
 BAR2 SZ IP        4 3 46.79                             170     0.110   24 211 
 BAR2 SZ ES   1    4 4  1.46                             170    -0.6 7   24 211 
 GIR2 SZ EP   1    4 3 46.72                             166    -0.1 7   36 337 
 GIR2 SZ ES   1    4 4  2.53                             166     0.3 7   36 337 
 GUE  SZ EP   1    4 3 51.61                             139    -0.2 7  117   8 
 GUE  SZ ES   2    4 4 11.69                             139     0.6 5  117   8 
 GRA  SZ IP        4 3 52.54                             137     0.310  126  13 
 OCA  SZ EP   1    4 3 55.18                             129    -0.5 7  164 350 
 OCA  SZ ES   1    4 4 17.95                             129     0.0 7  164 350 
 OCA  SZ I         4 4 23.21        27.7 0.19                           164 350 
 CHI  HZ EP   2    4 4  4.90                             117     0.1 4  249 197 
 CHI  HZ I         4 4 43.37         7.5 0.31                           249 197 
 ROSC BZ EP   2    4 4  5.22                             116    -0.3 4  255 213 
 ROSC BN ES   1    4 4 35.72                             116     0.3 6  255 213 
 ROSC BZ I         4 4 40.19        12.5 0.50                           255 213 
 HEL  HZ EP   2    4 4  8.04                             114    -0.1 4  280 257 
 HEL  HN ES   2    4 4 39.99                             114    -0.2 4  280 257 
 HEL  HZ I         4 4 45.32        11.8 0.50                           280 257 
 RREF BZ EP   2    4 4 14.08                             110     0.3 3  327 231 
 RREF BN ES   1    4 4 50.50                             110     0.3 5  327 231 
 RREF BZ I         4 4 58.88        13.4 0.29                           327 231 
 TOL  SZ EP   2    4 4 15.64                             109    -0.2 3  348 226 
                                                                                
