 2015  731 0617 30.9 L   6.869 -72.966142.2  RSN  4 0.2 1.2LRSN                1
 GAP=259        0.52       7.0    10.6  4.7  0.6425E+02 -0.1965E+02 -0.1509E+02E
 Epicentro: GUACA - SANTANDER                                                  3
 ACTION:UPD 15-09-08 21:51 OP:cam  STATUS:               ID:20150731061730 L   I
 OLDACT:REG 15-07-31 12:29 OP:drio STATUS:               ID:20150731060747     3
 2015-07-31-0607-47M.COL___343                                                 6
 STAT SP IPHASW D HRMM SECON CODA AMPLIT PERI AZIMU VELO AIN AR TRES W  DIS CAZ7
 BAR2 EZ EP        617 50.72                             164    0.2010 38.9 218 
 BAR2 EZ ES        618  5.52                             164   -0.3110 38.9 218 
 BAR2 EZ I         618  6.94         5.2 0.40            163           38.9 218 
 BRR  HZ EP        617 52.58                             147   -0.0310 86.6 288 
 BRR  HN ES        618  9.76                             147    0.2010 86.6 288 
 RUS  HZ EP        617 54.92                             141    0.0110  109 187 
 RUS  HE ES        618 13.71                             141    0.0710  109 187 
 RUS  HZ I         618 14.80         1.6 0.40            141            109 187 
 ZAR  HZ EP        618  4.58                             119   -0.21 8  220 288 
 ZAR  HN ES   4    618 29.47                             119   -1.76 0  220 288 
                                                                                
