 2017  531 0144 34.4 L   6.805 -73.119149.6  RSN 19 0.4 2.4LRSN                1
 GAP=166        0.90       3.0     3.5  4.9  0.2527E+01 -0.2583E+01 -0.1034E+01E
 Epicentro: LOS SANTOS - SANTANDER                                             3
 ACTION:UPD 17-06-16 13:40 OP:jn   STATUS:               ID:20170531014434 L   I
 OLDACT:REG 17-05-31 12:38 OP:osc  STATUS:               ID:20170531013740     3
 2017-05-31-0138-00M.COL___353                                                 6
 STAT SP IPHASW D HRMM SECON CODA AMPLIT PERI AZIMU VELO AIN AR TRES W  DIS CAZ7
 BRR  HZ IP     C  144 56.35                             152    0.2610 73.5 297 
 BRR  HE ES        145 13.32                             152    0.3010 73.5 297 
 BRR  HZ I         145 16.68        32.2 0.14            149           73.5 297 
 RUS  HZ EP     D  144 58.30                             144   -0.2510  101 178 
 RUS  HN ES        145 17.21                             144   -0.1910  101 178 
 RUS  HZ I         145 18.03        35.8 0.26            143            101 178 
 PTB  HZ EP   9    145  1.39                             132   -0.56 0  151 259 
 PTB  HN ES        145 22.33                                   -0.55 9  151 259 
 PTB  HZ I         145 26.31        28.1 0.38            130            151 259 
 SPBC HZ EP        145  3.43                             129    0.02 9  165 220 
 SPBC HE ES        145 25.52                             129   -0.52 9  165 220 
 SPBC HZ I         145 33.28        40.4 0.12            127            165 220 
 YPLC HZ IP     D  145  4.64                             128    0.26 9  176 152 
 YPLC HE ES        145 28.40                             128    0.63 9  176 152 
 YPLC HZ I         145 29.27        25.6 0.30            128            176 152 
 ZAR  HZ EP        145  7.22                             123   -0.13 8  207 292 
 ZAR  HE ES        145 32.77                             123   -0.29 8  207 292 
 ZAR  HZ I         145 39.43        27.5 0.36            122            207 292 
 TABC EZ EP   4    145 11.94                             120    1.36 0  232 211 
 TABC EZ ES        145 39.19                             120    0.38 8  232 211 
 TABC EZ I         145 47.68        20.1 0.33            119            232 211 
 NOR  HZ EP        145 10.41                             119   -0.23 8  237 235 
 NOR  HE ES        145 38.60                             119   -0.31 8  237 235 
 NOR  HZ I         145 45.14        23.4 0.20            118            237 235 
 CHI  HZ EP        145 12.63                             118    0.18 8  250 196 
 CHI  HE ES        145 41.66                             118   -0.47 8  250 196 
 CHI  HZ I         145 45.41         9.3 0.72            117            250 196 
 ROSC BZ EP   9    145 14.55                             117    1.61 0  255 212 
 ROSC BE ES        145 44.63                                    0.01 8  255 212 
 ROSC BZ I         145 49.99        22.7 0.35            116            255 212 
 HEL  HZ EP   9    145 16.29                             115    1.16 0  275 256 
 HEL  HE ES        145 48.18                                    0.11 8  275 256 
 HEL  HZ I         145 53.28        19.8 0.26            114            275 256 
 VIL  EN ES        145 51.95                             113   -0.27 7  305 192 
 PTGC HZ EP        145 17.28                             112   -1.08 7  308 159 
 PTGC HE ES   4    145 50.42                             112   -2.24 0  308 159 
 PTGC HZ I         145 55.36        10.5 0.46            113            308 159 
 ELA  HZ EP   9    145 23.47                             111    1.76 0  332 230 
 ELA  HE ES        146  0.64                                    0.27 7  332 230 
 ELA  HZ I         146  5.81        13.7 0.28            110            332 230 
 CBOC HN ES   4    145 57.23                             110   -1.56 0  337 252 
 DBB  EZ EP        145 22.80                             110    0.44 7  342 274 
 DBB  EN ES   4    145 58.42                             110   -1.36 0  342 274 
 DBB  EZ I         146  1.80         6.0 0.16            110            342 274 
 ANIL HZ EP        145 25.22                             109    0.59 6  360 225 
 ANIL HE ES        146  4.65                             109    0.83 6  360 225 
 ORTC HZ EP        145 29.16                             107    0.46 6  398 216 
 ORTC HN ES   4    146 12.28                             107    1.22 0  398 216 
 SJC  HZ EP   9    145 28.80                             106   -1.42 0  410 327 
 SJC  HN ES   4    146 10.15                                   -2.19 0  410 327 
 SJC  HZ I         146 15.71         4.9 0.28            107            410 327 
 SMAR HZ EP        145 40.05                             103   -0.34 4  497 346 
 SMAR HN ES   4    146 28.75                             103   -3.11 0  497 346 
                                                                                
