 2017 1231 0618 20.6 L   6.828 -73.162141.7  RSN 14 0.6 1.9LRSN                1
 GAP= 64        1.26       3.1     3.6  6.9  0.3615E+00  0.3622E+01  0.1773E+01E
 Epicentro: LOS SANTOS - SANTANDER                                             3
 ACTION:UPD 18-01-04 13:26 OP:rebc STATUS:               ID:20171231061820 L   I
 OLDACT:REG 17-12-31 11:11 OP:osc  STATUS:               ID:20171231061741     3
 2017-12-31-0618-00M.COL___409                                                 6
 STAT SP IPHASW D HRMM SECON CODA AMPLIT PERI AZIMU VELO AIN AR TRES W  DIS CAZ7
 BAR2 EZ EP        618 39.77                             169   -0.0210 26.2 185 
 BAR2 EZ ES        618 54.75                             169   -0.0210 26.2 185 
 BAR2 EZ I         618 55.68        10.2 0.26            168           26.2 185 
 PAM  EZ EP        618 42.31                             150    0.0110 76.2  42 
 PAM  EN ES        618 59.47                             150    0.2410 76.2  42 
 PAM  EZ I         619  0.08         8.6 0.22            154           76.2  42 
 PTB  HZ EP        618 46.45                             131   -0.68 9  147 258 
 PTB  HN ES        619  7.52                             131   -0.31 9  147 258 
 PTB  HZ I         619  9.39         5.7 0.34            132            147 258 
 OCA  HZ EP        618 48.85                             129    0.58 9  157 354 
 OCA  HE ES        619  9.07                             129   -0.80 9  157 354 
 OCA  HZ I         619 13.18        15.5 0.26            131            157 354 
 TAM  HZ EP        618 47.53                             129   -0.66 9  158 106 
 TAM  HE ES        619  9.87                             129    0.16 9  158 106 
 SPBC HZ EP        618 48.84                             128   -0.07 9  165 218 
 SPBC HE ES        619 11.33                             128    0.33 9  165 218 
 SPBC HZ I         619 18.30         7.0 0.15            128            165 218 
 YPLC HZ EP        618 50.48                             125    0.03 9  180 151 
 YPLC HN ES        619 14.59                             125    0.85 9  180 151 
 YPLC HZ I         619 16.51         8.6 0.30            127            180 151 
 ZAR  HZ EP        618 52.78                             122    0.30 9  201 292 
 ZAR  HN ES        619 17.29                             122   -0.07 9  201 292 
 ZAR  HZ I         619 23.56        13.0 0.32            123            201 292 
 DRL03HZ EP        619  2.13                             113    0.49 7  286 353 
 DRL03HE ES        619 34.09                             113    0.44 7  286 353 
 GUY2CHZ EP   9    619  5.50                             111    1.44 0  302 234 
 GUY2CHE ES        619 39.49                                    0.09 7  302 234 
 GUY2CHZ I         619 48.25         3.4 0.40                           302 234 
 PTGC HE ES        619 37.47                             110   -1.58 7  312 159 
 PRA  HZ EP        619 14.67                             106    0.48 6  394 209 
 PRA  HE ES        619 57.44                             106    1.44 6  394 209 
 PRA  HZ I         619 58.11         2.4 0.42            107            394 209 
 ORTC HE ES        619 56.02                             106   -0.61 6  397 216 
 SJC  HZ EP   4    619 14.07                             105   -1.53 0  406 327 
 SJC  HE ES   4    619 55.34                             105   -3.17 0  406 327 
 SJC  HZ I         619 58.72         1.8 0.72            106            406 327 
                                                                                
