 2017 1031 0401 56.8 L   6.840 -73.311122.0  RSN  7 0.7 1.6LRSN                1
 GAP=209        1.44       6.6     7.1  9.4  0.1820E+02  0.2223E+02  0.9432E+01E
 Epicentro: ZAPATOCA - SANTANDER                                               3
 ACTION:UPD 17-11-07 19:39 OP:rebc STATUS:               ID:20171031040156 L   I
 OLDACT:UP  17-10-31 15:48 OP:dani STATUS:               ID:20171031035739     3
 OLDACT:REG 17-10-31 12:55 OP:dani STATUS:               ID:20171031035739     3
 2017-10-31-0358-00M.COL___432                                                 6
 STAT SP IPHASW D HRMM SECON CODA AMPLIT PERI AZIMU VELO AIN AR TRES W  DIS CAZ7
 BAR2 EZ EP        4 2 13.73                             165   -0.0110 30.8 152 
 BAR2 EZ ES        4 2 26.96                             165   -0.0310 30.8 152 
 BAR2 EZ I         4 2 28.16        31.2 0.28            166           30.8 152 
 BRR  HZ EP        4 2 14.13                             155   -0.2010 53.3 304 
 BRR  HN ES        4 2 28.13                             155    0.0910 53.3 304 
 BRR  HZ I         4 2 28.62         8.5 0.10            154           53.3 304 
 RUS  HZ EP        4 2 18.77                             136   -0.0710  108 166 
 RUS  HN ES        4 2 36.40                             136    0.3310  108 166 
 RUS  HZ I         4 2 37.44         2.3 0.30            138            108 166 
 PTB  HZ EP        4 2 19.08                             130   -1.1910  131 255 
 PTB  HN ES        4 2 39.14                             130    0.5310  131 255 
 PTB  HZ I         4 2 41.46         3.6 0.20            130            131 255 
 SPBC HZ EP        4 2 23.02                             125    0.21 9  156 213 
 SPBC HN ES        4 2 42.96                             125   -0.18 9  156 213 
 SPBC HZ I         4 2 44.77         8.5 0.38            125            156 213 
 ZAR  HZ EP        4 2 25.71                             120   -0.06 9  185 293 
 ZAR  HE ES        4 2 48.78                             120    0.38 9  185 293 
 ZAR  HZ I         4 2 51.33         5.0 0.30            120            185 293 
 GUY2CHZ EP   1    4 2 40.20                             108    2.23 5  289 232 
 GUY2CHE ES   1    4 3  8.67                             108   -1.46 5  289 232 
 GUY2CHZ I         4 3 17.78         1.6 0.42                           289 232 
                                                                                
