 2017 1031 0832 51.1 L   6.830 -72.786  0.0  RSN  5 0.5 0.6LRSN                1
 GAP=270        0.82       5.1    10.1  9.7  0.3925E+02  0.8115E+02  0.3257E+02E
 Epicentro: SAN ANDRES - SANTANDER                                             3
 ACTION:UPD 17-11-07 19:39 OP:rebc STATUS:               ID:20171031083251 L   I
 OLDACT:UP  17-10-31 18:23 OP:dani STATUS:               ID:20171031082740     3
 OLDACT:UP  17-10-31 18:23 OP:dani STATUS:               ID:20171031082740     3
 OLDACT:UP  17-10-31 18:22 OP:dani STATUS:               ID:20171031082740     3
 OLDACT:UP  17-10-31 18:22 OP:dani STATUS:               ID:20171031082740     3
 OLDACT:UP  17-10-31 18:22 OP:dani STATUS:               ID:20171031082740     3
 OLDACT:UP  17-10-31 18:21 OP:dani STATUS:               ID:20171031082740     3
 OLDACT:UP  17-10-31 18:20 OP:dani STATUS:               ID:20171031082740     3
 OLDACT:UP  17-10-31 18:19 OP:dani STATUS:               ID:20171031082740     3
 OLDACT:UP  17-10-31 18:18 OP:dani STATUS:               ID:20171031082740     3
 OLDACT:UP  17-10-31 18:18 OP:dani STATUS:               ID:20171031082740     3
 OLDACT:UP  17-10-31 18:18 OP:dani STATUS:               ID:20171031082740     3
 OLDACT:REG 17-10-31 13:25 OP:dani STATUS:               ID:20171031082740     3
 2017-10-31-0828-00M.COL___441                                                 6
 STAT SP IPHASW D HRMM SECON CODA AMPLIT PERI AZIMU VELO AIN AR TRES W  DIS CAZ7
 BAR2 EZ EP        832 59.58                              47   -0.6410 51.1 239 
 BAR2 EZ ES        833  7.17                              47   -0.1810 51.1 239 
 BAR2 EZ I         833  7.81         3.9 0.20             47           51.1 239 
 BRR  HZ EP        833  8.34                              47   -0.0710  107 287 
 BRR  HN ES        833 22.15                              47    0.2010  107 287 
 BRR  HZ I         833 29.58         2.1 0.35             47            107 287 
 RUS  HZ EP   1    833  9.55                              47    0.34 7  109 198 
 RUS  HN ES   1    833 23.76                              47    0.40 7  109 198 
 RUS  HZ I         833 31.16         0.8 0.40             47            109 198 
 PTB  HZ EP   3    833 21.48                              37    1.04 2  187 260 
 PTB  HE ES        833 43.59                              37    0.24 9  187 260 
 PTB  HZ I         833 47.05         0.9 0.21             37            187 260 
 ZAR  HN ES   3    833 56.54                              37    1.44 2  240 288 
                                                                                
