 2012 1231 0541 27.7 L   7.468 -73.259134.9  RSN  4 0.3 1.5LRSN                1
 GAP=264        0.68      10.3     6.2  9.0  0.3608E+02 -0.1297E+02 -0.4544E+02E
 Epicentro: EL PLAYON - SANTANDER                                              3
 ACTION:UPD 13-01-04 14:31 OP:ep   STATUS:               ID:20121231054127 L   I
 2012-12-31-0540-00M.COL___239                                                 6
 STAT SP IPHASW D HRMM SECON CODA AMPLIT PERI AZIMU VELO AIN AR TRES W  DIS CAZ7
 BRR  HZ EP   1    541 46.68                             153   -0.58 7 64.0 231 
 BRR  HN ES   1    542  2.53                             153    0.01 7 64.0 231 
 BRR  HZ I         542  4.21         8.1 0.14                          64.0 231 
 BAR2 SZ EP        541 49.82                             142    0.0410 97.2 175 
 BAR2 SZ ES   1    542  7.25                             142    0.24 7 97.2 175 
 BAR2 SZ I         542  7.97        12.1 0.34                          97.2 175 
 PTB  HZ EP   1    541 55.43                             126   -0.28 7  168 232 
 PTB  HN ES   1    542 17.53                             126   -0.03 7  168 232 
 PTB  HZ I         542 19.51         1.7 0.30                           168 232 
 ZAR  HZ EP   1    541 57.30                             124    0.70 7  177 271 
 ZAR  HN ES   1    542 19.10                             124   -0.05 7  177 271 
 ZAR  HZ I         542 20.27         4.6 0.20                           177 271 
 MON  HZ EP   4    542  7.48                             110   -2.85 0  302 299 
 MON  HN ES   4    542 39.90                             110   -3.68 0  302 299 
                                                                                
