 2013  731 0816 44.0 L   6.797 -73.146148.3  RSN 12 0.4 1.9LRSN                1
 GAP=137        0.84       2.9     4.0  5.5 -0.2422E+01  0.5087E+01 -0.4294E+00E
 Epicentro: LOS SANTOS - SANTANDER                                             3
 ACTION:UPD 13-08-12 10:41 OP:ep   STATUS:               ID:20130731081644 L   I
 OLDACT:UP  13-07-31 12:10 OP:carl STATUS:               ID:20130731080959     3
 OLDACT:REG 13-07-31 10:11 OP:carl STATUS:               ID:20130731080959     3
 2013-07-31-0809-59M.COL___267                                                 6
 STAT SP IPHASW D HRMM SECON CODA AMPLIT PERI AZIMU VELO AIN AR TRES W  DIS CAZ7
 BAR2 SZ EP        817  3.91                             171   -0.0410 23.0 190 
 BAR2 SZ ES   1    817 19.01                             171   -0.49 7 23.0 190 
 BAR2 SZ I         817 20.06        15.5 0.24            167           23.0 190 
 GIR2 SZ EP        817  3.93                             167   -0.0710 31.6 350 
 GIR2 SZ ES   1    817 19.96                             167    0.37 7 31.6 350 
 BRR  HZ IP     C  817  5.72                             153    0.2710 71.3 299 
 BRR  HN ES   1    817 22.87                             153    0.70 7 71.3 299 
 BRR  HZ I         817 26.84         8.8 0.12            148           71.3 299 
 PAM  SZ EP        817  6.75                             151    0.2310 77.7  39 
 PAM  SN ES   1    817 24.15                             151    0.07 7 77.7  39 
 PAM  SZ I         817 25.03         6.3 0.22            156           77.7  39 
 PAM  SN I         817 25.15        17.2 0.46                          77.7  39 
 RUS  HZ EP        817  7.92                             144   -0.0810  100 176 
 RUS  HN ES   1    817 26.31                             144   -0.39 7  100 176 
 RUS  HZ I         817 27.77         6.6 0.26            147            100 176 
 PTB  HZ EP   1    817 10.88                             133   -0.30 7  148 259 
 PTB  HN ES   1    817 31.75                             133   -0.62 7  148 259 
 PTB  HZ I         817 39.10        10.8 0.58            131            148 259 
 OCA  HZ EP   1    817 12.77                             130    0.21 7  161 353 
 OCA  HE ES        817 34.80                             130   -0.02 9  161 353 
 OCA  HZ I         817 40.52         9.9 0.18            131            161 353 
 SPBC HZ EP   1    817 12.85                             130    0.16 7  163 219 
 SPBC HN ES   1    817 34.45                             130   -0.60 7  163 219 
 SPBC HZ I         817 40.22        15.0 0.78            130            163 219 
 ZAR  HZ EP   1    817 16.36                             123   -0.28 6  204 292 
 ZAR  HE ES   1    817 41.90                             123   -0.18 6  204 292 
 ZAR  HZ I         817 45.65         6.7 0.30            122            204 292 
 NOR  HZ EP   1    817 20.34                             119    0.47 6  234 235 
 NOR  HE ES        817 48.71                             119    0.87 8  234 235 
 NOR  HZ I         817 56.24         6.6 0.16            119            234 235 
 SML  HZ EP   1    817 20.22                             118   -0.60 6  244 335 
 SML  HN ES   1    817 48.87                             118   -0.65 6  244 335 
 SML  HZ I         817 53.59        15.4 0.10            119            244 335 
 HEL  HZ EP   4    817 26.34                             115    1.99 0  272 256 
 HEL  HN ES   4    817 58.44                             115    2.64 0  272 256 
 HEL  HZ I         818  3.28         4.8 0.24            115            272 256 
                                                                                
