 2014  831 0847 19.7 L   7.405 -73.160140.7  RSN  6 0.4 1.6LRSN                1
 GAP=192        0.86       4.8     6.0  7.8 -0.2518E+01  0.3599E+01 -0.7497E+01E
 Epicentro: EL PLAYON - SANTANDER                                              3
 ACTION:UPD 14-09-15 21:54 OP:nd   STATUS:               ID:20140831084719 L   I
 OLDACT:DUP 14-08-31 16:56 OP:fm   STATUS:               ID:20140831083818d    3
 2014-08-31-0838-17M.COL___263                                                 6
 STAT SP IPHASW D HRMM SECON CODA AMPLIT PERI AZIMU VELO AIN AR TRES W  DIS CAZ7
 BRR  HZ EP        847 40.81                             152    0.6510 69.3 242 
 BRR  HN ES        847 56.10                             152   -0.0410 69.3 242 
 BRR  HZ I         847 56.79         9.3 0.24            152           69.3 242 
 BAR2 SZ EP   1    847 41.33                             146   -0.48 7 89.9 182 
 BAR2 SZ ES   1    847 59.24                             146    0.17 7 89.9 182 
 BAR2 SZ I         848  0.33         8.5 0.16            148           89.9 182 
 OCA  HZ EP   1    847 41.74                             144   -0.23 7 93.9 349 
 OCA  HN ES   1    847 59.29                             144   -0.07 7 93.9 349 
 OCA  HZ I         848  3.19         3.9 0.12            145           93.9 349 
 PTB  HZ EP   1    847 48.73                             126    0.16 7  172 236 
 PTB  HN ES   1    848 10.23                             126   -0.88 7  172 236 
 PTB  HZ I         848 14.97         2.5 0.20            128            172 236 
 SML  HZ EP   1    847 49.31                             124   -0.43 7  184 327 
 SML  HN ES   4    848 11.30                             124   -1.89 0  184 327 
 SML  HZ I         848 13.29        10.6 0.10            125            184 327 
 ZAR  HZ EP   1    847 50.38                             124    0.27 7  188 273 
 ZAR  HN ES        848 14.02                             124    0.18 9  188 273 
 ZAR  HZ I         848 17.33         4.4 0.54            125            188 273 
                                                                                
