 2016  531 0445 21.9 L   6.733 -73.166148.3  RSN  5 0.4 1.4LRSN                1
 GAP=230        1.03       6.1     6.5  7.6  0.8192E+01  0.6528E+01  0.4107E+01E
 Epicentro: VILLANUEVA - SANTANDER                                             3
 ACTION:UPD 16-08-18 17:50 OP:cam  STATUS:               ID:20160531044521 L   I
 OLDACT:DUP 16-05-31 17:39 OP:edw  STATUS:               ID:20160531043745d    3
 2016-05-31-0437-44M.COL___316                                                 6
 STAT SP IPHASW D HRMM SECON CODA AMPLIT PERI AZIMU VELO AIN AR TRES W  DIS CAZ7
 BAR2 EZ EP        445 41.48                             174   -0.2510 15.7 187 
 BAR2 EZ ES        445 56.87                             174   -0.3210 15.7 187 
 BAR2 EZ I         445 58.40         4.7 0.34            171           15.7 187 
 BRR  HZ EP        445 43.64                             152    0.1810 73.1 304 
 BRR  HN ES        446  0.87                             152    0.6210 73.1 304 
 RUS  HZ EP        445 45.60                             146    0.1710 93.4 174 
 RUS  HN ES        446  3.62                             146   -0.1410 93.4 174 
 RUS  HZ I         446  5.04         3.4 0.28            146           93.4 174 
 PTB  HZ EP        445 48.46                             133   -0.33 9  144 262 
 PTB  HE ES        446  9.05                             133   -0.69 9  144 262 
 PTB  HZ I         446 13.39         2.8 0.12            133            144 262 
 SPBC HZ EP        445 50.11                             131    0.16 9  156 220 
 SPBC HN ES        446 12.42                             131    0.60 9  156 220 
 SPBC HZ I         446 14.57         3.6 0.24            130            156 220 
                                                                                
