 2016 1031 0256 12.1 L   6.793 -73.182158.1  RSN  6 0.3 1.3LRSN                1
 GAP=233        0.68       3.7     5.2  5.9  0.5350E+01 -0.3957E+01  0.3092E+01E
 Epicentro: LOS SANTOS - SANTANDER                                             3
 ACTION:UPD 16-11-09 19:24 OP:rebc STATUS:               ID:20161031025612 L   I
 OLDACT:UP  16-10-31 16:48 OP:dani STATUS:               ID:20161031024800     3
 OLDACT:UP  16-10-31 16:48 OP:dani STATUS:               ID:20161031024800     3
 OLDACT:ARG 16-10-31 12:39 OP:dani STATUS:               ID:20161031024800     3
 2016-10-31-0248-00M.COL___316                                                 6
 STAT SP IPHASW D HRMM SECON CODA AMPLIT PERI AZIMU VELO AIN AR TRES W  DIS CAZ7
 BRR  HZ EP        256 34.70                             155    0.2210 68.1 301 
 BRR  HN ES        256 52.03                             155    0.1310 68.1 301 
 BRR  HZ I         256 53.03         3.6 0.26            155           68.1 301 
 RUS  HZ EP        256 37.15                             146    0.0510  100 174 
 RUS  HE ES        256 56.29                             146   -0.2810  100 174 
 RUS  HZ I         256 57.65         1.6 0.30            145            100 174 
 PTB  HZ EP        256 39.78                             135   -0.01 9  144 259 
 PTB  HN ES        257  0.96                             135   -0.40 9  144 259 
 PTB  HZ I         257  2.75         2.0 0.13            135            144 259 
 SPBC HN ES        257  4.38                             132    0.27 9  160 218 
 SPBC HZ I         257  8.21         3.4 0.07            131            160 218 
 CHI  HZ EP        256 49.98                             120   -0.39 8  247 194 
 CHI  HN ES        257 20.59                             120    0.40 8  247 194 
 CHI  HZ I         257 23.21         1.0 0.21            120            247 194 
 GUY2CHZ EP   4    256 58.42                             115    2.48 0  297 234 
 GUY2CHZ I         257 39.26         1.2 0.32                           297 234 
                                                                                
