 2013 1231 0417 15.3 L   6.794 -73.080142.3  RSN  4 0.1 1.3LRSN                1
 GAP=244        0.33       3.5     6.6  2.8  0.1816E+02  0.6523E+00  0.8454E+00E
 Epicentro: LOS SANTOS - SANTANDER                                             3
 ACTION:UPD 14-01-13 10:22 OP:ep   STATUS:               ID:20131231041715 L   I
 OLDACT:DUP 13-12-31 11:32 OP:stll STATUS:               ID:20131231040820d    3
 2013-12-31-0408-17M.COL___237                                                 6
 STAT SP IPHASW D HRMM SECON CODA AMPLIT PERI AZIMU VELO AIN AR TRES W  DIS CAZ7
 BAR2 SZ EP        417 34.51                             169   -0.0310 25.0 207 
 BAR2 SZ ES        417 49.47                             169   -0.0810 25.0 207 
 BAR2 SZ I         417 50.74         7.5 0.18            156           25.0 207 
 BRR  HZ EP        417 36.54                             150    0.0810 77.9 296 
 BRR  HN ES        417 52.97                             150   -0.0110 77.9 296 
 BRR  HZ I         417 57.70         4.1 0.56            140           77.9 296 
 RUS  HN ES        417 56.93                             143    0.0910 99.7 180 
 RUS  HZ I         417 58.92         2.7 0.34            138           99.7 180 
 CHI  HZ EP        417 52.86                             116   -0.09 8  250 197 
 CHI  HZ I         417 55.13         0.9 0.44            114            250 197 
                                                                                
