 2010  131 0955 25.2 L   6.816 -73.032150.3  RSN  7 0.6 1.9LRSN                1
 GAP=195        1.07       5.0    22.1 15.2 -0.3544E+02  0.2248E+03 -0.9018E+01E
 Epicentro: CEPITA - SANTANDER                                                 3
 ACTION:UP  10-08-24 09:46 OP:vdl  STATUS:               ID:20100131095525 L   I
 2010-01-31-0955-28S.COL___094                                                 6
 STAT SP IPHASW D HRMM SECON CODA AMPLIT PERI AZIMU VELO SNR AR TRES W  DIS CAZ7
 BAR2 SZ EP        955 45.52                             169     0.010   30 214 
 RUS  BZ EP   1    955 49.56                             144     0.1 7  102 183 
 RUS  BN ES   1    956  8.55                             144     0.1 7  102 183 
 RUS  BZ I         956 10.13         7.1 0.35                           102 183 
 OCA  SZ EP        955 54.32                             130     0.5 9  161 349 
 OCA  SZ ES   1    956 15.59                             130    -0.7 7  161 349 
 CHI  HZ EP   1    956  3.80                             117     0.1 6  254 198 
 CHI  HN ES   1    956 33.61                             117    -0.1 6  254 198 
 CHI  HZ I         956 39.82         4.8 0.31                           254 198 
 RREF BZ EP   1    956 14.06                             111     1.3 5  333 231 
 RREF BZ I         956 57.53         4.6 1.07                           333 231 
 TOL  SZ EP        956 14.23                             109    -0.6 6  354 226 
 PRA  HZ EP        956 18.69                             107    -1.1 6  400 211 
 PRA  HN ES   1    957  2.82                             107     0.5 4  400 211 
                                                                                
