 2014  531 0214 27.4 L   6.700 -73.199143.2  RSN  5 0.2 1.4LRSN                1
 GAP=152        0.62       4.5     3.5  4.6  0.6337E+01 -0.2777E+01 -0.1790E+01E
 Epicentro: VILLANUEVA - SANTANDER                                             3
 ACTION:UPD 15-03-16 17:02 OP:nd   STATUS:               ID:20140531021427 L   I
 OLDACT:REG 14-05-31 13:35 OP:stll STATUS:               ID:20140531020820     3
 2014-05-31-0208-20M.COL___256                                                 6
 STAT SP IPHASW D HRMM SECON CODA AMPLIT PERI AZIMU VELO AIN AR TRES W  DIS CAZ7
 BAR2 SZ EP        214 46.66                             175    0.0910 12.1 171 
 BAR2 SZ ES        215  1.33                             175   -0.1710 12.1 171 
 BAR2 SZ I         215  2.66         5.2 0.34            178           12.1 171 
 BRR  HZ EP        214 48.74                             152    0.3710 72.4 308 
 BRR  HN ES        215  4.74                             152    0.0410 72.4 308 
 BRR  HZ I         215 10.64         5.3 0.44            152           72.4 308 
 RUS  HZ EP        214 50.41                             146    0.2110 90.2 172 
 RUS  HN ES        215  8.09                             146    0.1310 90.2 172 
 RUS  HZ I         215 10.35         2.5 0.34            151           90.2 172 
 PTB  HZ EP        214 53.33                             133   -0.17 9  140 263 
 PTB  HN ES        215 13.60                             133   -0.24 9  140 263 
 PTB  HZ I         215 15.37         2.8 0.12            136            140 263 
 TAM  HZ EP        214 54.84                             129   -0.37 9  158 101 
 TAM  HZ I         214 55.01         7.3 0.18            133            158 101 
                                                                                
