 2015  131 0734 53.2 L   6.775 -73.142148.3  RSN  5 0.5 1.2LRSN                1
 GAP=138        1.26       6.1     6.5 10.2 -0.1040E+02  0.4966E+01  0.1054E+02E
 Epicentro: LOS SANTOS - SANTANDER                                             3
 ACTION:UPD 15-03-02 15:44 OP:nd   STATUS:               ID:20150131073453 L   I
 OLDACT:REG 15-01-31 13:25 OP:cam  STATUS:               ID:20150131072812     3
 2015-01-31-0728-12M.COL___271                                                 6
 STAT SP IPHASW D HRMM SECON CODA AMPLIT PERI AZIMU VELO AIN AR TRES W  DIS CAZ7
 BRR  HZ EP        735 14.96                             152    0.2110 72.9 300 
 BRR  HN ES        735 32.51                             152    0.9710 72.9 300 
 BRR  HZ I         735 36.34         2.0 0.28            152           72.9 300 
 PAM  SZ EP        735 15.79                             151   -0.0410 79.2  38 
 PAM  SN ES        735 32.82                             151   -0.6410 79.2  38 
 PAM  SZ I         735 35.20         2.7 0.42            156           79.2  38 
 RUS  HZ EP        735 17.20                             145    0.1610 97.8 176 
 RUS  HN ES        735 35.79                             145    0.1710 97.8 176 
 RUS  HZ I         735 36.84         2.0 0.26            148           97.8 176 
 PTB  HZ EP        735 20.18                             133   -0.22 9  148 260 
 PTB  HN ES        735 40.81                             133   -0.78 9  148 260 
 PTB  HZ I         735 46.52         2.7 0.40            134            148 260 
 SPBC HZ EP        735 22.13                             130    0.38 9  161 220 
 SPBC HN ES        735 43.67                             130   -0.33 9  161 220 
 SPBC HZ I         735 51.08         3.4 0.40            132            161 220 
                                                                                
