 2013 1031 0733  8.7 L   6.764 -73.128147.8  RSN  7 0.4 1.5LRSN                1
 GAP=140        0.97       4.9     6.1  7.2 -0.5049E+00  0.5538E+01 -0.1138E+01E
 Epicentro: LOS SANTOS - SANTANDER                                             3
 ACTION:UPD 13-11-25 09:24 OP:ep   STATUS:               ID:20131031073308 L   I
 OLDACT:REG 13-10-31 06:01 OP:jn   STATUS:               ID:20131031073000     3
 2013-10-31-0730-00M.COL___273                                                 6
 STAT SP IPHASW D HRMM SECON CODA AMPLIT PERI AZIMU VELO AIN AR TRES W  DIS CAZ7
 BAR2 SZ EP        733 28.56                             172    0.1010 19.9 198 
 BAR2 SZ ES        733 44.06                             172    0.1410 19.9 198 
 BAR2 SZ I         733 44.69        15.7 0.22            166           19.9 198 
 BRR  HZ EP        733 30.49                             152    0.2610 74.9 300 
 BRR  HN ES        733 47.48                             152    0.4210 74.9 300 
 BRR  HZ I         733 48.29         8.1 0.30            139           74.9 300 
 PAM  SZ EP        733 31.55                             150    0.3510 79.3  37 
 PAM  SE ES   1    733 47.78                             150   -1.00 7 79.3  37 
 PAM  SZ I         733 50.92         2.9 0.26            145           79.3  37 
 RUS  HZ EP        733 32.47                             146    0.1610 96.5 177 
 RUS  HN ES        733 50.66                             146   -0.1110 96.5 177 
 RUS  HZ I         733 52.23         3.4 0.34            139           96.5 177 
 PTB  HZ EP        733 35.32                             132   -0.58 9  149 260 
 PTB  HZ I         733 57.53         3.9 0.14            121            149 260 
 SPBC HN ES   1    733 59.02                             130   -0.33 7  161 220 
 SPBC HZ I         734  2.05         6.2 0.32            120            161 220 
 ZAR  HN ES   2    734  6.68                             122   -0.57 4  207 293 
 ZAR  HZ I         734 14.59         3.1 0.32            113            207 293 
                                                                                
