 2015  131 0234 47.5 L   6.081 -73.705 96.7  RSN  4 0.4 1.6LRSN                1
 GAP=260        0.89       4.6     9.6  9.8  0.1565E+02 -0.7256E+01 -0.1120E+02E
 Epicentro: CHIPATA - SANTANDER                                                3
 ACTION:UPD 15-03-02 15:44 OP:nd   STATUS:               ID:20150131023447 L   I
 OLDACT:DUP 15-01-31 14:26 OP:cam  STATUS:               ID:20150131022821d    3
 2015-01-31-0228-20M.COL___250                                                 6
 STAT SP IPHASW D HRMM SECON CODA AMPLIT PERI AZIMU VELO AIN AR TRES W  DIS CAZ7
 SPBC HZ EP        235  3.04                             145   -0.1010 62.4 221 
 SPBC HN ES        235 15.63                             145    0.3210 62.4 221 
 SPBC HZ I         235 17.22         7.8 0.40            147           62.4 221 
 PTB  HN ES        235 19.74                             132   -0.5410 97.4 301 
 PTB  HN I         235 21.63         7.3 0.30            132           97.4 301 
 NOR  HZ EP        235 10.16                             120   -0.20 9  141 246 
 NOR  HN ES        235 28.26                             120    0.10 9  141 246 
 NOR  HZ I         235 29.25        10.6 0.26            121            141 246 
 ZAR  HN ES        235 40.62                             111    0.56 9  202 321 
 ZAR  HN I         235 42.84         6.4 0.16            111            202 321 
                                                                                
