 2017 1031 0019 21.7 L   6.822 -73.098150.2  RSN 11 0.7 1.7LRSN                1
 GAP=187        1.27       5.9     5.6  7.0  0.1033E+02  0.5122E+01  0.9335E+01E
 Epicentro: LOS SANTOS - SANTANDER                                             3
 ACTION:UPD 17-11-07 19:39 OP:rebc STATUS:               ID:20171031001921 L   I
 OLDACT:UP  17-10-31 13:45 OP:dani STATUS:               ID:20171031001737     3
 OLDACT:UP  17-10-31 13:41 OP:dani STATUS:               ID:20171031001737     3
 OLDACT:REG 17-10-31 12:34 OP:dani STATUS:               ID:20171031001737     3
 2017-10-31-0018-00M.COL___441                                                 6
 STAT SP IPHASW D HRMM SECON CODA AMPLIT PERI AZIMU VELO AIN AR TRES W  DIS CAZ7
 BAR2 EZ EP        019 42.50                             170    0.5910 27.1 200 
 BAR2 EZ ES        019 57.35                             170   -0.3510 27.1 200 
 BAR2 EZ I         019 58.69        12.6 0.46            167           27.1 200 
 BRR  HZ EP        019 43.67                             152    0.1710 74.8 295 
 BRR  HN ES        020  0.88                             152    0.3510 74.8 295 
 BRR  HZ I         020  7.60         8.6 0.34            150           74.8 295 
 RUS  HZ EP        019 46.07                             144    0.0510  103 179 
 RUS  HN ES        020  4.81                             144   -0.1910  103 179 
 RUS  HZ I         020  5.72         3.6 0.18            146            103 179 
 PTB  HZ EP        019 48.86                             132   -0.65 9  153 258 
 PTB  HE ES        020 11.01                             132   -0.22 9  153 258 
 PTB  HZ I         020 17.49         3.0 0.36            131            153 258 
 YPLC HZ EP        019 52.14                             127    0.38 9  177 153 
 ZAR  HZ EP        019 54.72                             123   -0.10 8  208 291 
 ZAR  HN ES        020 20.20                             123   -0.47 8  208 291 
 ZAR  HZ I         020 27.01         6.6 0.30            123            208 291 
 NOR  HZ EP        019 58.58                             119    0.31 8  240 235 
 NOR  HN ES        020 26.58                             119   -0.24 8  240 235 
 NOR  HZ I         020 31.63         4.5 0.28            120            240 235 
 GUY2CHZ EP        020  7.45                             113    1.32 7  307 235 
 GUY2CHE ES        020 41.79                             113    0.98 7  307 235 
 GUY2CHZ I         020 48.94         2.8 0.51                           307 235 
 PTGC HZ EP        020  4.86                             112   -0.92 7  309 160 
 PRA  HZ EP        020 16.42                             107    0.52 6  397 210 
 PRA  HN ES        020 56.69                             107   -1.51 6  397 210 
 PRA  HZ I         021  2.01         1.8 0.44            108            397 210 
 SJC  HZ EP   2    020 16.02                             106   -1.47 3  410 326 
 SJC  HE ES   3    020 58.20                             106   -2.82 1  410 326 
 SJC  HZ I         020 59.76         1.2 0.44            108            410 326 
                                                                                
