 2017 1231 0425 59.3 L   6.882 -73.362117.3  RSN  6 0.3 1.4LRSN                1
 GAP= 93        0.80       3.4     3.3  6.3 -0.4587E+01  0.9300E+01 -0.3376E+01E
 Epicentro: SAN VICENTE DE CHUCURI - SANTANDER                                 3
 ACTION:UPD 18-01-04 13:25 OP:rebc STATUS:               ID:20171231042559 L   I
 OLDACT:DUP 17-12-31 12:58 OP:osc  STATUS:               ID:20171231041740d    3
 2017-12-31-0418-00M.COL___409                                                 6
 STAT SP IPHASW D HRMM SECON CODA AMPLIT PERI AZIMU VELO AIN AR TRES W  DIS CAZ7
 BAR2 EZ EP        426 16.06                             161    0.1210 37.7 148 
 BAR2 EZ ES        426 28.90                             161   -0.0510 37.7 148 
 PAM  EZ EP        426 19.37                             141   -0.0110 88.9  55 
 PAM  EE ES        426 35.33                             141    0.2510 88.9  55 
 PAM  EZ I         426 37.74         3.3 0.28            143           88.9  55 
 PTB  HZ EP        426 21.43                             129   -0.6010  127 253 
 PTB  HE ES        426 39.43                             129   -0.3510  127 253 
 PTB  HZ I         426 43.68         2.4 0.48            132            127 253 
 OCA  HZ EP        426 24.27                             124   -0.21 9  150   2 
 OCA  HE ES        426 44.09                             124   -0.07 9  150   2 
 OCA  HZ I         426 49.65        16.3 0.17            126            150   2 
 ZAR  HE ES        426 49.57                             119    0.49 9  179 292 
 GUY2CHZ EP        426 40.50                             107    0.36 7  288 231 
 GUY2CHN ES        427 12.50                             107    0.47 7  288 231 
 GUY2CHZ I         427 19.74         1.0 0.54                           288 231 
                                                                                
