 2011 1231 0852 42.9 L   6.791 -73.130147.8  RSN  8 0.3 2.3LRSN                1
 GAP=139        0.64       3.4     4.4  5.3  0.2783E+01  0.9023E+01  0.3566E+01E
 Epicentro: LOS SANTOS - SANTANDER                                             3
 ACTION:UPD 12-07-13 16:19 OP:ep   STATUS:               ID:20111231085242 L   I
 2011-12-31-0850-00M.COL___185                                                 6
 STAT SP IPHASW D HRMM SECON CODA AMPLIT PERI AZIMU VELO AIN AR TRES W  DIS CAZ7
 BAR2 SZ IP        853  2.70                             171   -0.0210 22.7 195 
 BAR2 SZ ES   1    853 18.00                             171   -0.21 7 22.7 195 
 BAR2 SZ I         853 20.33        34.2 0.29                          22.7 195 
 BRR  HZ EP        853  4.51                             152    0.1710 73.2 299 
 BRR  HN ES   1    853 21.32                             152    0.22 7 73.2 299 
 BRR  HZ I         853 25.17        52.5 0.13                          73.2 299 
 PAM  SZ EP   1    853  5.23                             151   -0.04 7 77.1  38 
 PAM  SN ES   1    853 22.65                             151   -0.10 7 77.1  38 
 PAM  SZ I         853 24.36        12.4 0.26                          77.1  38 
 RUS  HZ EP   1    853  6.64                             145   -0.09 7 99.5 177 
 RUS  HE ES   1    853 25.73                             145    0.38 7 99.5 177 
 RUS  HZ I         853 27.21        22.2 0.41                          99.5 177 
 PTB  HZ EP   1    853  9.55                             132   -0.58 7  149 259 
 ZAR  HZ EP   1    853 15.39                             122   -0.25 6  206 292 
 ZAR  HN ES   1    853 41.09                             122   -0.12 6  206 292 
 ZAR  HZ I         853 46.57        56.7 0.37                           206 292 
 CHI  HZ EP   1    853 20.94                             118    0.33 6  248 196 
 CHI  HN ES   1    853 49.52                             118   -0.54 6  248 196 
 HEL  HZ EP   1    853 24.16                             115    0.83 6  274 256 
 HEL  HZ I         854  2.07        13.6 0.42                           274 256 
                                                                                
