 2010 1031 0149  5.6 L   6.775 -73.085146.5  RSN  9 0.3 2.2LRSN                1
 GAP=166        0.57       2.4     4.3  4.4 -0.3726E+01  0.3101E+01  0.5748E+00E
 Epicentro: LOS SANTOS - SANTANDER                                             3
 ACTION:UP  11-02-18 11:13 OP:tino STATUS:               ID:20101031014905 L   I
 2010-10-31-0148-25S.COL___128                                                 6
 STAT SP IPHASW D HRMM SECON CODA AMPLIT PERI AZIMU VELO SNR AR TRES W  DIS CAZ7
 BAR2 SZ IP        149 25.38                             171     0.110   23 208 
 BAR2 SZ ES   1    149 40.69                             171     0.0 7   23 208 
 BAR2 SZ I         149 41.94        64.9 0.14                            23 208 
 BRR  HZ IP     D  149 27.30                             150     0.110   79 298 
 BRR  HN ES   1    149 44.39                             150     0.3 7   79 298 
 BRR  HZ I         149 46.30        25.9 0.19                            79 298 
 RUS  HZ IP     D  149 29.23                             145     0.010   98 180 
 RUS  HE ES   1    149 47.33                             145    -0.3 7   98 180 
 RUS  HZ I         149 49.18        17.4 0.24                            98 180 
 GRA  SZ IP        149 31.19                             137     0.210  127  14 
 GRA  SZ ES   1    149 50.65                             137    -0.1 7  127  14 
 GRA  SZ I         149 52.01        18.0 0.51                           127  14 
 OCA  SZ EP   1    149 33.77                             129    -0.5 7  164 351 
 OCA  SZ ES   1    149 56.61                             129    -0.1 7  164 351 
 OCA  SZ I         150  0.53        17.2 0.22                           164 351 
 NOR  SZ EP   1    149 41.31                             118    -0.5 6  239 236 
 NOR  SE ES   1    150  9.76                             118    -0.3 6  239 236 
 HEL  HZ EP   2    149 46.37                             114    -0.1 4  278 257 
 HEL  HZ I         150 24.54         8.4 0.41                           278 257 
 GUY  SZ EP   2    149 50.30                             112     0.6 4  305 236 
 GUY  SE ES   2    150 24.25                             112     0.2 4  305 236 
 GUY  SZ I         150 32.78        15.6 0.29                           305 236 
 PRA  HZ EP   1    149 59.49                             107     0.3 4  393 211 
 PRA  HE ES   1    150 41.46                             107     0.4 4  393 211 
                                                                                
