 2012  831 0833  9.1 L   6.787 -73.140146.0  RSN  7 0.4 2.2LRSN                1
 GAP=154        0.88       7.1     8.1  6.6 -0.1577E+02  0.2477E+01  0.3507E+01E
 Epicentro: LOS SANTOS - SANTANDER                                             3
 ACTION:UPD 12-09-10 11:59 OP:ep   STATUS:               ID:20120831083309 L   I
 2012-08-31-0830-00M.COL___218                                                 6
 STAT SP IPHASW D HRMM SECON CODA AMPLIT PERI AZIMU VELO AIN AR TRES W  DIS CAZ7
 BAR2 SZ EP        833 28.79                             171    0.0310 22.0 192 
 BAR2 SZ ES   1    833 43.62                             171   -0.46 7 22.0 192 
 BAR2 SZ I         833 44.71        39.5 0.24                          22.0 192 
 GIR2 SZ EP        833 28.86                             167   -0.0110 32.8 350 
 GIR2 SZ ES   1    833 43.96                             167   -0.32 7 32.8 350 
 BRR  HZ EP        833 30.73                             152    0.3510 72.5 299 
 BRR  HZ I         833 31.07        31.7 0.12                          72.5 299 
 BRR  HN ES   1    833 47.74                             152    0.79 7 72.5 299 
 PAM  SZ EP        833 31.77                             151    0.3510 78.1  38 
 PAM  SZ I         833 31.95        36.3 0.24                          78.1  38 
 PTB  HZ EP        833 35.69                             132   -0.46 9  148 259 
 PTB  HN ES   3    833 56.33                             132   -0.90 2  148 259 
 PTB  HZ I         833 59.22         6.2 0.10                           148 259 
 OCA  HZ EP        833 37.14                             129   -0.46 9  162 353 
 OCA  HN ES   3    833 59.25                             129   -0.56 2  162 353 
 OCA  HZ I         834  3.48        26.5 0.22                           162 353 
 PRA  HZ EP        834  2.95                             107    0.40 6  391 210 
 PRA  HZ I         834 51.38         4.7 0.26                           391 210 
                                                                                
