 2015  131 0825 51.2 L   6.810 -73.142147.9  RSN 13 0.5 2.3LRSN                1
 GAP=119        1.07       3.0     4.2  5.8 -0.2258E+01  0.5651E+01  0.6191E+00E
 Epicentro: LOS SANTOS - SANTANDER                                             3
 ACTION:UPD 15-03-02 15:44 OP:nd   STATUS:               ID:20150131082551 L   I
 OLDACT:UP  15-01-31 16:38 OP:cam  STATUS:               ID:20150131081812     3
 OLDACT:UP  15-01-31 16:37 OP:cam  STATUS:               ID:20150131081812     3
 OLDACT:UP  15-01-31 16:37 OP:cam  STATUS:               ID:20150131081812     3
 OLDACT:REG 15-01-31 13:27 OP:cam  STATUS:               ID:20150131081812     3
 2015-01-31-0818-12M.COL___271                                                 6
 STAT SP IPHASW D HRMM SECON CODA AMPLIT PERI AZIMU VELO AIN AR TRES W  DIS CAZ7
 BAR2 EZ IP     D  826 11.28                             170    0.1610 24.4 190 
 BAR2 EZ ES        826 26.14                             170   -0.5110 24.4 190 
 BAR2 EZ I         826 29.23        19.6 0.24            169           24.4 190 
 BRR  HZ EP        826 12.90                             153    0.3210 71.0 298 
 BRR  HN ES   4    826 30.72                             153    1.47 0 71.0 298 
 BRR  HZ I         826 34.34        22.7 0.14            151           71.0 298 
 PAM  SZ IP        826 14.22                             151    0.6210 76.3  40 
 PAM  SN ES        826 31.51                             151    0.4610 76.3  40 
 PAM  SZ I         826 33.39        50.5 0.58            156           76.3  40 
 RUS  HZ EP        826 15.11                             144   -0.1410  102 176 
 RUS  HE ES        826 34.19                             144    0.1910  102 176 
 RUS  HZ I         826 36.76        12.6 0.38            148            102 176 
 PTB  HZ EP        826 18.18                             132   -0.23 9  148 258 
 PTB  HN ES        826 38.86                             132   -0.76 9  148 258 
 PTB  HZ I         826 45.05        16.9 0.26            133            148 258 
 OCA  HZ EP        826 19.14                             130   -0.46 9  159 353 
 OCA  HN ES        826 41.45                             130   -0.28 9  159 353 
 OCA  HZ I         826 46.36        25.9 0.34            133            159 353 
 SPBC HZ EP     C  826 20.26                             129    0.28 9  164 219 
 SPBC HN ES        826 42.61                             129    0.20 9  164 219 
 SPBC HZ I         826 45.89        35.7 0.42            131            164 219 
 ZAR  HZ EP   4    826 24.94                             123    1.15 0  204 292 
 ZAR  HN ES        826 49.55                             123    0.35 9  204 292 
 ZAR  HZ I         826 56.29        16.6 0.28            124            204 292 
 NOR  HZ EP        826 27.18                             119    0.01 8  236 234 
 NOR  HN ES        826 55.21                             119    0.00 8  236 234 
 NOR  HZ I         827  3.02        16.8 0.52            121            236 234 
 SML  HZ EP        826 27.46                             118   -0.41 8  243 335 
 SML  HN ES   4    826 55.56                             118   -0.91 0  243 335 
 SML  HZ I         827  0.52        17.4 0.10            120            243 335 
 CHI  HZ EP        826 29.38                             117    0.22 8  250 195 
 CHI  HN ES        826 58.75                             117    0.00 8  250 195 
 CHI  HZ I         827  2.31         7.4 0.60            120            250 195 
 HEL  HZ EP   4    826 32.87                             115    1.26 0  273 256 
 GUY2CHZ EP   4    826 36.00                             113    0.97 0  302 235 
 PTGC HZ EP        826 34.10                             112   -1.17 7  310 159 
 PTGC HZ I         826 34.39        16.8 0.12            115            310 159 
 PTGC HN ES   4    827  7.63                             112   -1.99 0  310 159 
 RREF HZ EP   4    826 39.78                             111    2.22 0  323 229 
 CBOC HZ EP        826 39.25                             110    0.95 7  334 252 
 TOL  SZ EP   4    826 40.55                             110    0.88 0  345 225 
                                                                                
