 2017  831 0206 54.7 L   6.539 -73.478111.9  RSN 29 0.6 2.6LRSN                1
 GAP= 43        1.23       2.2     2.5  5.0 -0.6642E+00  0.3249E+01  0.9134E+00E
 Epicentro: EL CARMEN - SANTANDER                                              3
 ACTION:UPD 17-09-04 20:26 OP:rebc STATUS:               ID:20170831020654 L   I
 OLDACT:UP  17-08-31 14:25 OP:dhb  STATUS:               ID:20170831015728d    3
 OLDACT:UP  17-08-31 14:24 OP:dhb  STATUS:               ID:20170831015728d    3
 OLDACT:DUP 17-08-31 14:05 OP:dhb  STATUS:               ID:20170831015728d    3
 OLDACT:REG 17-08-31 12:09 OP:dhb  STATUS:               ID:20170831015727     3
 2017-08-31-0158-00M.COL___402                                                 6
 STAT SP IPHASW D HRMM SECON CODA AMPLIT PERI AZIMU VELO AIN AR TRES W  DIS CAZ7
 BAR2 EZ IP     C  2 7 10.82                             162    0.2410 33.2  80 
 BAR2 EZ ES        2 7 23.33                             162    0.3610 33.2  80 
 BRR  HZ IP     D  2 7 11.54                             146   -0.5310 67.9 338 
 BRR  HN ES        2 7 25.24                             146   -0.3910 67.9 338 
 BRR  HZ I         2 7 27.18        74.4 0.13            143           67.9 338 
 RUS  HZ EP        2 7 13.69                             141   -0.2310 83.8 149 
 RUS  HN ES        2 7 29.10                             141    0.1810 83.8 149 
 RUS  HZ I         2 7 30.86       158.0 0.33            137           83.8 149 
 SPBC HZ IP     D  2 7 15.55                             130   -0.7710  118 214 
 SPBC HE ES        2 7 32.47                             130   -0.7210  118 214 
 SPBC HZ I         2 7 38.02        74.2 0.14            125            118 214 
 PAM  EZ EP        2 7 17.36                             129    0.0110  123  44 
 PAM  EN ES        2 7 35.37                             129    0.3410  123  44 
 PAM  EZ I         2 7 36.91        36.4 0.60            126            123  44 
 YPLC HZ IP     C  2 7 22.61                             118    0.50 9  175 136 
 YPLC HE ES   3    2 7 44.85                             118    1.35 2  175 136 
 YPLC HZ I         2 7 46.00       174.6 0.09            114            175 136 
 ZAR  HZ IP     C  2 7 23.44                             116    0.32 9  185 305 
 ZAR  HE ES        2 7 45.54                             116    0.25 9  185 305 
 ZAR  HZ I         2 7 47.87        80.2 0.66            112            185 305 
 TABC EZ EP   1    2 7 23.70                             116   -0.19 7  187 206 
 TABC EZ ES        2 7 45.96                             116   -0.72 9  187 206 
 TABC EZ I         2 7 50.60        29.1 0.55            112            187 206 
 TAM  HZ IP     C  2 7 23.54                             116    0.22 9  187  93 
 TAM  HN ES        2 7 45.90                             116    0.24 9  187  93 
 TAM  HZ I         2 7 45.99        36.0 0.14            113            187  93 
 NOR  HZ IP   9 D  2 7 22.20                             116   -1.27 0  188 235 
 NOR  HN ES        2 7 44.04                                   -0.61 9  188 235 
 NOR  HZ I         2 7 48.28        48.5 0.39            112            188 235 
 ROSC BZ EP        2 7 26.92                             113    0.61 8  210 206 
 ROSC BE ES        2 7 51.75                             113    0.77 8  210 206 
 ROSC BZ I         2 7 55.40        29.6 0.39            109            210 206 
 CHI  HN EP        2 7 26.57                             113   -0.13 8  213 188 
 CHI  HE ES        2 7 52.14                             113    0.46 8  213 188 
 CHI  HN I         2 7 55.38        39.0 0.09            109            213 188 
 HEL  HZ EP        2 7 28.49                             111   -0.10 8  230 260 
 HEL  HE ES        2 7 54.18                             111   -0.85 8  230 260 
 HEL  HZ I         2 7 56.96        19.9 0.25            107            230 260 
 GUY2CHZ EP        2 7 31.65                             108    0.13 8  255 235 
 GUY2CHE ES        2 8  2.08                             108    1.82 8  255 235 
 GUY2CHZ I         2 8  5.77        30.0 0.46                           255 235 
 URE  HZ EP        2 7 30.82                             107   -1.17 8  264 301 
 URE  HE ES   2    2 8  0.34                             107   -0.75 4  264 301 
 URE  HZ I         2 8  8.78        28.1 0.20            104            264 301 
 VIL  EZ EP        2 7 32.75                             107   -0.07 8  269 185 
 VIL  HE ES        2 8  2.88                             107    0.32 8  269 185 
 VIL  EZ I         2 8 11.31        31.5 0.39            104            269 185 
 ELA  HZ EP   3    2 7 36.62                             106    1.78 2  282 229 
 ELA  HZ I         2 8 14.65        14.4 0.24            103            282 229 
 PTGC HZ EP        2 7 35.10                             105   -0.97 7  299 150 
 PTGC HE ES        2 8  7.47                             105   -0.88 7  299 150 
 PTGC HZ I         2 8 17.86        21.9 0.25            102            299 150 
 DBB  EZ EP        2 7 36.68                             104   -0.44 7  307 280 
 DBB  EE ES        2 8 10.80                             104    0.58 7  307 280 
 DBB  EZ I         2 8 13.66        16.3 0.11            101            307 280 
 ANIL HZ EP   2    2 7 39.11                             104    1.20 3  311 223 
 ANIL HE ES        2 8 12.21                             104    0.58 7  311 223 
 ANIL HZ I         2 8 15.65        33.0 0.24            101            311 223 
 PRA  HZ EP        2 7 41.53                             102   -0.60 6  349 207 
 PRA  HE ES        2 8 19.05                             102   -0.09 6  349 207 
 PRA  HZ I         2 8 23.56        30.5 0.15             98            349 207 
 ORTC HZ EP        2 7 42.46                             102    0.15 6  351 214 
 ORTC HN ES        2 8 19.25                             102   -0.20 6  351 214 
 ORTC HZ I         2 8 24.34        10.1 0.24             98            351 214 
 LL6C HZ EP        2 7 42.74                             102    0.07 6  354   4 
 LL6C HE ES   2    2 8 21.57                             102    1.47 3  354   4 
 LL6C HZ I         2 8 31.13        12.1 0.45             98            354   4 
 PAL  HZ EP        2 7 43.17                             101   -0.21 6  359 240 
 PAL  HE ES        2 8 21.43                             101    0.06 6  359 240 
 PAL  HZ I         2 8 24.15        16.4 0.24             98            359 240 
 ARGC HZ EP        2 7 46.18                             100    0.82 6  377 347 
 ARGC HN ES        2 8 25.65                             100    0.77 6  377 347 
 ARGC HZ I         2 8 36.40        10.7 0.51             97            377 347 
 SDV  BZ EP        2 7 49.15                              99   -0.11 6  407  50 
 SDV  B2 ES   2    2 8 29.79                              99   -2.04 3  407  50 
 SDV  BZ I         2 8 33.90        17.6 0.31             96            407  50 
 SJC  HZ EP        2 7 49.60                              99   -0.56 5  416 333 
 SJC  HN ES   4    2 8 30.95                              99   -2.48 0  416 333 
 SJC  HZ I         2 8 34.62         8.8 0.35             95            416 333 
 YOT  HE ES        2 8 35.82                              98    0.25 5  425 228 
 MACC HZ EP   4    2 7 56.98                              96   -1.78 0  488 185 
 MACC HE ES   4    2 8 46.24                              96   -2.51 0  488 185 
 MACC HZ I         2 8 51.52         3.8 0.29             91            488 185 
                                                                                
