 2013  731 0501  8.9 L   6.805 -73.144145.4  RSN  7 0.5 1.5LRSN                1
 GAP=183        1.02       4.6     6.1  8.8  0.5120E+01  0.1574E+02 -0.3618E+01E
 Epicentro: LOS SANTOS - SANTANDER                                             3
 ACTION:UPD 13-08-12 10:41 OP:ep   STATUS:               ID:20130731050108 L   I
 OLDACT:REG 13-07-31 10:08 OP:carl STATUS:               ID:20130731045959     3
 2013-07-31-0459-59M.COL___265                                                 6
 STAT SP IPHASW D HRMM SECON CODA AMPLIT PERI AZIMU VELO AIN AR TRES W  DIS CAZ7
 BAR2 SZ ES   1    5 1 43.24                             170   -0.52 8 23.9 190 
 BAR2 SZ I         5 1 44.33         6.7 0.18            169           23.9 190 
 GIR2 SZ EP   1    5 1 28.73                             167    0.24 8 30.7 350 
 GIR2 SZ ES   1    5 1 43.86                             167    0.07 8 30.7 350 
 GIR2 SZ I         5 1 45.60         6.5 0.40            167           30.7 350 
 BRR  HZ EP   1    5 1 30.47                             153    0.49 8 71.1 298 
 BRR  HN ES   1    5 1 47.30                             153    0.86 8 71.1 298 
 BRR  HN I         5 1 47.54        10.1 0.24            151           71.1 298 
 RUS  HZ EP   1    5 1 32.48                             144   -0.15 7  101 176 
 RUS  HN ES        5 1 51.41                             144    0.2510  101 176 
 RUS  HZ I         5 1 52.68         2.6 0.38            145            101 176 
 PTB  HZ EP   1    5 1 35.45                             132   -0.39 7  148 259 
 PTB  HN ES        5 1 56.17                             132   -0.70 9  148 259 
 PTB  HZ I         5 1 58.50         4.0 0.18            131            148 259 
 OCA  HN ES        5 1 58.61                             130   -0.51 9  160 353 
 ZAR  HZ EP   1    5 1 41.53                             122    0.24 6  204 292 
 ZAR  HE ES        5 2  7.01                             122    0.44 9  204 292 
 ZAR  HZ I         5 2 13.31         3.6 0.22            122            204 292 
                                                                                
