 2014  131 0919 43.5 L   6.796 -73.151141.4  RSN  6 0.3 1.6LRSN                1
 GAP=277        0.87       5.6     4.9  6.1  0.1153E+01  0.7700E+01  0.2880E+01E
 Epicentro: LOS SANTOS - SANTANDER                                             3
 ACTION:UPD 14-03-13 10:00 OP:ep   STATUS:               ID:20140131091943 L   I
 OLDACT:REG 14-01-31 07:51 OP:nd   STATUS:               ID:20140131091740     3
 2014-01-31-0917-40M.COL___208                                                 6
 STAT SP IPHASW D HRMM SECON CODA AMPLIT PERI AZIMU VELO AIN AR TRES W  DIS CAZ7
 BAR2 SZ EP        920  2.81                             170    0.2310 22.8 189 
 BAR2 SZ ES        920 17.80                             170    0.3310 22.8 189 
 BAR2 SZ I         920 19.44        21.1 0.22            161           22.8 189 
 RUS  HZ EP        920  6.69                             143   -0.0910  100 176 
 RUS  HN ES        920 24.33                             143   -0.6210  100 176 
 RUS  HZ I         920 26.65         3.3 0.36            139            100 176 
 PTB  HZ EP        920  9.51                             131   -0.53 9  147 259 
 PTB  HN ES        920 30.83                             131    0.08 9  147 259 
 PTB  HZ I         920 33.81         4.2 0.14            129            147 259 
 SPBC HZ EP        920 11.69                             128    0.10 9  162 219 
 SPBC HN ES        920 33.70                             128    0.20 9  162 219 
 SPBC HZ I         920 38.74         5.9 0.20            125            162 219 
 NOR  HZ EP        920 19.28                             118    0.39 8  234 234 
 NOR  HN ES        920 46.10                             118   -0.40 8  234 234 
 NOR  HZ I         920 54.37         3.4 0.20            117            234 234 
 CHI  HZ EP        920 20.86                             116   -0.02 8  248 195 
 CHI  HN ES        920 50.55                             116    0.50 8  248 195 
 CHI  HZ I         920 58.79         1.7 0.48            115            248 195 
                                                                                
