 2017  531 0754 36.2 L   6.803 -73.456106.4  RSN  4 0.4 1.3LRSN                1
 GAP=198        1.06       6.5     6.4  9.1  0.2681E+02  0.9257E+01  0.7298E+01E
 Epicentro: SAN VICENTE DE CHUCURI - SANTANDER                                 3
 ACTION:UPD 17-06-16 13:40 OP:jn   STATUS:               ID:20170531075435 L   I
 OLDACT:UP  17-06-06 20:30 OP:nlst STATUS:               ID:20170531075435 L   3
 OLDACT:DUP 17-05-31 14:04 OP:ar   STATUS:               ID:20170531074741d    3
 2017-05-31-0748-00M.COL___341                                                 6
 STAT SP IPHASW D HRMM SECON CODA AMPLIT PERI AZIMU VELO AIN AR TRES W  DIS CAZ7
 BRR  HZ IP     D  754 51.09                             156   -0.5110 44.0 320 
 BRR  HN ES        755  3.74                             156    0.1510 44.0 320 
 BRR  HZ I         755  4.69         4.8 0.12            155           44.0 320 
 RUS  HZ EP        754 57.65                             131    0.5610  109 158 
 RUS  HN ES        755 13.23                             131   -0.1410  109 158 
 PTB  HZ EP        754 57.08                             129    0.1110  114 255 
 PTB  HN ES        755 12.87                             129   -0.2910  114 255 
 PTB  HZ I         755 14.13         5.9 0.34            129            114 255 
 ZAR  HZ EP        755  2.43                             117   -0.53 9  173 296 
 ZAR  HN ES        755 24.47                             117    0.66 9  173 296 
 ZAR  HZ I         755 25.76         2.7 0.26            117            173 296 
                                                                                
