 2011  331 0735 47.8 L   6.760 -73.105146.0  RSN 12 0.4 2.3LRSN                1
 GAP=182        0.90       5.4     7.8  6.2 -0.2649E+02 -0.2575E-01  0.8446E+01E
 Epicentro: LOS SANTOS - SANTANDER                                             3
 ACTION:UP  11-06-16 14:36 OP:jfem STATUS:               ID:20110331073547 L   I
 2011-03-31-0732-22S.COL___138                                                 6
 STAT SP IPHASW D HRMM SECON CODA AMPLIT PERI AZIMU VELO SNR AR TRES W  DIS CAZ7
 BAR2 SZ EP        736  7.42                             172     0.010   21 205 
 BAR2 SZ ES   1    736 22.51                             172    -0.2 7   21 205 
 BAR2 SZ I         736 23.98        60.4 0.20                            21 205 
 BTL  SZ IP        736  7.73                             170     0.210   25 314 
 GIR2 SZ EP        736  7.73                             165     0.110   37 344 
 GIR2 SZ ES   1    736 23.31                             165     0.1 7   37 344 
 BRR  HZ IP     C  736  9.28                             151    -0.110   77 300 
 BRR  HZ I         736  9.52        77.3 0.12                            77 300 
 BRR  HN ES   1    736 26.44                             151     0.3 7   77 300 
 GRA  SZ EP        736 13.20                             137    -0.110  129  15 
 GRA  SZ ES   1    736 33.60                             137     0.4 7  129  15 
 GRA  SZ I         736 34.89        11.7 0.27                           129  15 
 OCA  SZ EP        736 16.22                             129    -0.4 9  165 352 
 OCA  SZ I         736 42.01        13.3 0.15                           165 352 
 NOR  SZ EP        736 23.43                             119    -0.3 8  236 236 
 NOR  SN ES   1    736 50.69                             119    -1.0 6  236 236 
 CHI  HZ EP        736 25.28                             118     0.1 8  246 196 
 CHI  HZ I         737  3.38         6.7 0.46                           246 196 
 HEL  HZ EP   2    736 29.03                             115     0.6 4  275 257 
 HEL  HZ I         737  7.86         7.5 0.43                           275 257 
 RREF HN ES   1    737 11.39                             111     1.3 5  322 230 
 RREF HZ I         737 16.70        11.2 0.33                           322 230 
 DBB  SZ EP   3    736 36.94                             109     1.1 2  344 275 
 PRA  HZ EP   2    736 41.19                             107     0.0 3  390 210 
 PRA  HN ES   2    737 23.21                             107     0.4 3  390 210 
 PRA  HZ I         737 27.08        16.6 0.26                           390 210 
                                                                                
