 2016 1231 0046 18.8 L   6.777 -73.116141.3  RSN 12 0.5 2.2LRSN                1
 GAP= 97        1.10       3.8     3.4  5.9  0.2007E+01  0.4152E+01  0.7112E+01E
 Epicentro: LOS SANTOS - SANTANDER                                             3
 ACTION:UPD 17-01-11 20:20 OP:rebc STATUS:               ID:20161231004618 L   I
 OLDACT:UP  16-12-31 13:04 OP:dnl  STATUS:               ID:20161231003745     3
 OLDACT:REG 16-12-31 12:14 OP:dnl  STATUS:               ID:20161231003745     3
 2016-12-31-0038-00M.COL___362                                                 6
 STAT SP IPHASW D HRMM SECON CODA AMPLIT PERI AZIMU VELO AIN AR TRES W  DIS CAZ7
 BAR2 EZ EP        046 37.71                             171   -0.1910 21.8 200 
 BAR2 EZ ES        046 52.50                             171   -0.2710 21.8 200 
 BAR2 EZ I         046 54.96        35.5 0.28            170           21.8 200 
 BRR  HZ EP        046 39.71                             150   -0.0410 75.3 299 
 BRR  HN ES        046 56.45                             150    0.3910 75.3 299 
 BRR  HZ I         047  0.93        29.6 0.10            152           75.3 299 
 PAM  EZ EP     C  046 40.67                             150    0.1010 77.3  36 
 PAM  EN ES        046 57.42                             150   -0.1110 77.3  36 
 PAM  EZ I         046 59.65        52.8 0.50            152           77.3  36 
 RUS  HZ EP        046 41.91                             144   -0.0510 97.9 178 
 RUS  HN ES        047  0.12                             144    0.1310 97.9 178 
 RUS  HZ I         047  1.24        22.8 0.36            145           97.9 178 
 TAM  HZ EP        046 46.12                             130    0.32 9  151 104 
 TAM  HN ES        047  7.34                             130    0.50 9  151 104 
 TAM  HZ I         047 14.53        12.4 0.44            132            151 104 
 PTB  HZ EP        046 44.90                             130   -0.80 9  151 260 
 PTB  HN ES        047  6.67                             130    0.02 9  151 260 
 PTB  HZ I         047  8.81        16.7 0.22            132            151 260 
 ZAR  HZ EP        046 51.16                             121   -0.25 8  208 292 
 ZAR  HN ES        047 16.66                             121   -0.16 8  208 292 
 ZAR  HZ I         047 21.87        22.3 0.32            122            208 292 
 CHI  HZ EP        046 56.09                             116   -0.03 8  247 196 
 CHI  HE ES        047 25.20                             116   -0.01 8  247 196 
 CHI  HZ I         047 29.59         4.1 0.48            118            247 196 
 GUY2CHZ EP        047  3.39                             111    1.00 7  302 236 
 GUY2CHN ES   4    047 38.98                             111    2.63 0  302 236 
 GUY2CHZ I         047 45.43         5.6 0.56                           302 236 
 PTGC HZ EP   4    047  1.06                             111   -1.03 0  305 159 
 PTGC HN ES        047 34.50                             111   -1.34 7  305 159 
 PTGC HZ I         047 36.61         9.7 0.34            112            305 159 
 ANIL HZ EP   2    047  8.66                             108    0.13 3  358 225 
 ANIL HN ES   4    047 49.58                             108    2.28 0  358 225 
 ANIL HZ I         047 52.44        13.1 0.30            109            358 225 
 ORTC HZ EP        047 12.51                             106   -0.09 6  395 217 
 ORTC HN ES        047 56.04                             106    1.50 6  395 217 
 ORTC HZ I         047 59.70         4.0 0.36            107            395 217 
                                                                                
