 2016  331 0037 14.8 L   6.785 -73.154139.6  RSN  8 0.3 1.7LRSN                1
 GAP=136        0.77       3.0     3.3  5.1 -0.5377E+00  0.6551E+01  0.1592E+01E
 Epicentro: LOS SANTOS - SANTANDER                                             3
 ACTION:UPD 16-05-13 21:29 OP:cam  STATUS:               ID:20160331003714 L   I
 OLDACT:UP  16-03-31 12:59 OP:drio STATUS:               ID:20160331002745     3
 OLDACT:UP  16-03-31 12:58 OP:drio STATUS:               ID:20160331002745     3
 OLDACT:UP  16-03-31 12:56 OP:drio STATUS:               ID:20160331002745     3
 OLDACT:UP  16-03-31 12:55 OP:drio STATUS:               ID:20160331002745     3
 OLDACT:REG 16-03-31 12:15 OP:drio STATUS:               ID:20160331002745     3
 2016-03-31-0027-45M.COL___296                                                 6
 STAT SP IPHASW D HRMM SECON CODA AMPLIT PERI AZIMU VELO AIN AR TRES W  DIS CAZ7
 BAR2 EZ EP        037 33.50                             171   -0.1110 21.6 188 
 BAR2 EZ ES        037 48.30                             171   -0.0210 21.6 188 
 BAR2 EZ I         037 49.69        22.8 0.18            168           21.6 188 
 PAM  EZ EP        037 36.51                             149    0.0810 79.2  39 
 PAM  EN ES        037 53.29                             149   -0.0510 79.2  39 
 PAM  EZ I         037 54.74         7.8 0.18            154           79.2  39 
 RUS  HZ EP        037 37.62                             143   -0.1710 99.0 175 
 RUS  HN ES        037 56.07                             143    0.3110 99.0 175 
 RUS  HZ I         037 59.42         3.1 0.18            144           99.0 175 
 PTB  HZ EP        037 40.53                             131   -0.59 9  147 259 
 PTB  HE ES        038  1.15                             131   -0.53 9  147 259 
 PTB  HZ I         038  3.92         9.3 0.16            130            147 259 
 ZAR  HZ EP        037 47.03                             121    0.25 9  204 293 
 ZAR  HN ES        038 12.41                             121    0.65 9  204 293 
 ZAR  HZ I         038 21.78         5.2 0.44            121            204 293 
 NOR  HZ EP        037 49.94                             117   -0.01 8  233 235 
 NOR  HN ES        038 17.60                             117    0.19 8  233 235 
 NOR  HZ I         038 25.14         4.3 0.40            118            233 235 
 CHI  HZ EP        037 52.09                             116    0.17 8  247 195 
 CHI  HN ES        038 21.03                             116    0.12 8  247 195 
 CHI  HZ I         038 27.18         1.7 0.22            117            247 195 
 GUY2CHZ EP   4    037 59.75                             111    1.85 0  300 235 
 GUY2CHN ES   4    038 32.97                             111    1.42 0  300 235 
 GUY2CHZ I         038 41.01         3.1 0.42                           300 235 
                                                                                
