 2013  131 0422 33.9 L   6.782 -73.091142.8  RSN  7 0.3 1.7LRSN                1
 GAP=144        0.64       2.9     3.8  4.7  0.8788E+00  0.4094E+01  0.3563E+01E
 Epicentro: LOS SANTOS - SANTANDER                                             3
 ACTION:UPD 13-02-15 09:18 OP:ep   STATUS:               ID:20130131042233 L   I
 2013-01-31-0420-00M.COL___241                                                 6
 STAT SP IPHASW D HRMM SECON CODA AMPLIT PERI AZIMU VELO AIN AR TRES W  DIS CAZ7
 BAR2 SZ EP        422 53.03                             170   -0.1510 23.3 206 
 BAR2 SZ ES   1    423  7.89                             170   -0.33 7 23.3 206 
 BAR2 SZ I         423  9.49        22.8 0.22            162           23.3 206 
 PAM  SZ EP        422 56.09                             151    0.4110 75.3  35 
 PAM  SN ES        423 12.49                             151   -0.1810 75.3  35 
 PAM  SN I         423 14.27        12.9 0.43            148           75.3  35 
 BRR  HZ EP        422 55.05                             150   -0.0610 77.5 298 
 BRR  HE ES        423 12.06                             150    0.4110 77.5 298 
 BRR  HE I         423 12.39        17.5 0.23            138           77.5 298 
 RUS  HZ EP        422 57.06                             144   -0.1510 98.4 180 
 RUS  HE ES        423 15.40                             144    0.0210 98.4 180 
 RUS  HE I         423 17.64         7.1 0.52            136           98.4 180 
 PTB  HZ EP        423  0.99                             130   -0.16 9  153 260 
 PTB  HZ I         423 26.46         4.0 0.25            120            153 260 
 ZAR  HE ES   1    423 32.12                             121   -0.38 6  210 292 
 CHI  HZ EP        423 11.45                             116    0.03 8  248 197 
 CHI  HN ES   1    423 41.14                             116    0.47 6  248 197 
 CHI  HZ I         423 47.49         1.7 0.27            109            248 197 
                                                                                
