 2017  831 0432 45.9 L   7.460 -73.378113.2  RSN 25 0.7 2.4LRSN                1
 GAP= 97        1.44       3.1     3.4  6.6  0.9039E+00  0.5235E+01 -0.7874E+00E
 Epicentro: SABANA DE TORRES - SANTANDER                                       3
 ACTION:UPD 17-09-04 20:26 OP:rebc STATUS:               ID:20170831043245 L   I
 OLDACT:UP  17-08-31 16:16 OP:dhb  STATUS:               ID:20170831042737     3
 OLDACT:REG 17-08-31 12:23 OP:dhb  STATUS:               ID:20170831042737     3
 2017-08-31-0428-00M.COL___402                                                 6
 STAT SP IPHASW D HRMM SECON CODA AMPLIT PERI AZIMU VELO AIN AR TRES W  DIS CAZ7
 BRR  HZ IP     D  433  2.25                             153   -0.2710 53.7 223 
 BRR  HE ES        433 15.60                             153    0.1010 53.7 223 
 BRR  HZ I         433 15.95        90.3 0.16            145           53.7 223 
 PAM  EZ IP     C  433  4.86                             144    0.2010 76.1 100 
 PAM  EN ES        433 19.89                             144    0.5810 76.1 100 
 PAM  EZ I         433 21.57        64.5 0.26            139           76.1 100 
 BAR2 EZ IP     C  433  5.72                             136   -0.3410 98.4 167 
 BAR2 EZ ES        433 20.83                             136   -0.9710 98.4 167 
 BAR2 EZ I         433 22.50       207.9 0.21            129           98.4 167 
 ZAR  HZ EP        433 12.12                             120    0.10 9  163 271 
 ZAR  HE ES        433 33.60                             120    1.18 9  163 271 
 RUS  HZ IP     D  433 13.80                             119   -0.23 9  176 169 
 RUS  HE ES        433 35.74                             119   -0.24 9  176 169 
 RUS  HZ I         433 41.11        13.2 0.72            113            176 169 
 TAM  HZ IP     C  433 16.84                             114   -0.17 8  209 123 
 TAM  HN ES        433 41.30                             114    0.01 8  209 123 
 TAM  HZ I         433 43.93        10.8 0.32            110            209 123 
 SPBC HZ EP        433 17.52                             113   -0.15 8  214 201 
 SPBC HN ES        433 42.55                             113    0.09 8  214 201 
 SPBC HZ I         433 46.79        27.5 0.18            109            214 201 
 URE  HZ EP        433 19.41                             110   -1.09 8  240 278 
 URE  HN ES        433 46.04                             110   -1.46 8  240 278 
 URE  HZ I         433 49.67        24.3 0.19            107            240 278 
 LL6C HZ EP        433 22.21                             109    0.35 8  252   3 
 LL6C HE ES        433 49.90                             109   -0.03 8  252   3 
 LL6C HZ I         433 55.41         9.8 0.44            107            252   3 
 YPLC HZ IP     C  433 21.97                             109   -0.16 8  253 154 
 YPLC HN ES        433 50.44                             109    0.03 8  253 154 
 YPLC HZ I         433 53.52        11.4 0.32            106            253 154 
 NOR  HZ EP        433 22.71                             108   -0.94 8  267 218 
 NOR  HE ES        433 52.92                             108   -0.19 8  267 218 
 NOR  HZ I         433 57.84        18.2 0.40            105            267 218 
 HEL  HZ EP        433 24.68                             107   -0.44 7  276 240 
 HEL  HE ES        433 56.21                             107    0.48 7  276 240 
 HEL  HZ I         434  4.59        17.3 0.38            105            276 240 
 ARGC HZ EP        433 25.94                             107    0.60 7  282 340 
 ARGC HN ES   2    433 58.00                             107    1.87 4  282 340 
 TABC EZ EP        433 27.68                             106    1.31 7  286 199 
 TABC EZ ES        434  0.23                             106    2.27 7  286 199 
 TABC EZ I         434  6.89        26.4 0.77            104            286 199 
 ROSC BZ EP        433 28.39                             105   -0.49 7  308 200 
 ROSC BE ES        434  1.87                             105   -0.56 7  308 200 
 ROSC BZ I         434 10.22        13.1 0.25            103            308 200 
 CHI  HZ EP   9    433 31.23                             104    1.43 0  315 187 
 CHI  HE ES        434  5.21                                   -0.28 7  315 187 
 CHI  HZ I         434 11.30         6.4 0.39            103            315 187 
 DBB  EZ EP        433 30.17                             104    0.65 7  317 261 
 DBB  EN ES   4    434  1.62                             104   -1.94 0  317 261 
 DBB  EZ I         434 14.51         6.4 0.44            103            317 261 
 GUY2CHZ EP        433 32.45                             103    0.75 7  331 222 
 GUY2CHE ES   3    434  7.90                             103    0.46 2  331 222 
 GUY2CHZ I         434 17.25        12.4 0.32                           331 222 
 SJC  HZ IP     C  433 30.68                             103   -0.95 7  335 324 
 SJC  HE ES   4    434  5.19                             103   -2.13 0  335 324 
 SJC  HZ I         434  6.16         6.6 0.15            102            335 324 
 ELA  HZ EP   9    433 38.84                             102    3.09 0  364 218 
 ELA  HE ES        434 18.30                                    0.56 6  364 218 
 ELA  HZ I         434 25.77        15.9 0.20            101            364 218 
 PTGC HZ EP        433 37.27                             100   -0.43 6  386 159 
 PTGC HZ I         434 17.78         7.0 0.36            100            386 159 
 PTGC HE ES        434 18.65                             100    0.52 6  386 159 
 ANIL HE ES   2    434 22.22                             100    0.99 3  397 214 
 ANIL HZ I         434 29.32        28.0 0.36            100            397 214 
 PAL  HZ IP     C  433 42.86                              99    0.03 5  428 229 
 PAL  HE ES        434 26.88                              99   -0.37 5  428 229 
 PAL  HZ I         434 31.64         3.3 0.08             99            428 229 
 ORTC HZ EP   9    433 47.04                              98    2.33 0  444 208 
 ORTC HN ES        434 33.59                                    0.66 5  444 208 
 ORTC HZ I         434 41.15         5.0 0.29             99            444 208 
 PRA  HZ EP     C  433 45.66                              98    0.61 5  447 202 
 PRA  HE ES        434 30.83                              98   -0.37 5  447 202 
 PRA  HZ I         434 42.61         8.1 0.19             99            447 202 
                                                                                
