 2015  331 0641 27.3 L   7.191 -73.384122.0  RSN  7 0.5 1.6LRSN                1
 GAP=158        1.13       3.1     5.1 10.0  0.1458E+01  0.1120E+02 -0.4551E+01E
 Epicentro: LEBRIJA - SANTANDER                                                3
 ACTION:UPD 15-04-30 16:31 OP:nd   STATUS:               ID:20150331064127 L   I
 OLDACT:UP  15-03-31 16:17 OP:mh   STATUS:               ID:20150331063737     3
 OLDACT:UP  15-03-31 16:17 OP:mh   STATUS:               ID:20150331063737     3
 OLDACT:UP  15-03-31 16:16 OP:mh   STATUS:               ID:20150331063737     3
 OLDACT:REG 15-03-31 12:35 OP:mh   STATUS:               ID:20150331063737     3
 2015-03-31-0637-37M.COL___280                                                 6
 STAT SP IPHASW D HRMM SECON CODA AMPLIT PERI AZIMU VELO AIN AR TRES W  DIS CAZ7
 BAR2 EZ EP   1    641 46.67                             148    0.52 7 69.9 161 
 BAR2 EZ ES        642  1.33                             148    0.4510 69.9 161 
 BAR2 EZ I         642  3.01         8.5 0.09            154           69.9 161 
 OCA  HZ EP        641 49.83                             133    0.2310  116   3 
 OCA  HN ES        642  6.93                             133   -0.1010  116   3 
 OCA  HZ I         642  9.62        13.7 0.32            136            116   3 
 PTB  HZ EP        641 51.30                             128   -0.22 9  139 239 
 PTB  HN ES        642  9.66                             128   -0.79 9  139 239 
 PTB  HZ I         642 12.44         3.4 0.16            131            139 239 
 RUS  HZ EP        641 52.98                             126   -0.02 9  147 167 
 RUS  HE ES        642 12.53                             126   -0.54 9  147 167 
 ZAR  HZ EP        641 54.66                             122    0.41 9  166 282 
 ZAR  HN ES        642 16.07                             122    0.77 9  166 282 
 ZAR  HZ I         642 21.34         3.9 0.46            125            166 282 
 SPBC HE ES        642 19.44                             119    0.16 9  186 204 
 SML  HZ EP   1    641 56.94                             118   -0.17 7  193 337 
 SML  HN ES        642 19.73                             118   -0.67 9  193 337 
 SML  HZ I         642 24.41         6.2 0.06            121            193 337 
                                                                                
