 2013  831 0436 35.8 L   6.770 -73.155144.8  RSN 13 0.4 2.0LRSN                1
 GAP=181        0.72       2.7     4.0  4.6 -0.7856E+00  0.4303E+01 -0.3553E+01E
 Epicentro: LOS SANTOS - SANTANDER                                             3
 ACTION:UPD 14-01-14 09:08 OP:ep   STATUS:               ID:20130831043635 L   I
 OLDACT:UP  13-08-31 14:11 OP:mh   STATUS:               ID:20130831043000     3
 OLDACT:UP  13-08-31 14:09 OP:mh   STATUS:               ID:20130831043000     3
 OLDACT:UP  13-08-31 14:08 OP:mh   STATUS:               ID:20130831043000     3
 OLDACT:REG 13-08-31 09:13 OP:mh   STATUS:               ID:20130831043000     3
 2013-08-31-0430-00M.COL___268                                                 6
 STAT SP IPHASW D HRMM SECON CODA AMPLIT PERI AZIMU VELO AIN AR TRES W  DIS CAZ7
 BAR2 SZ EP   1    436 55.30                             172    0.06 7 19.9 189 
 BAR2 SZ ES        437 10.32                             172   -0.0810 19.9 189 
 BAR2 SZ I         437 11.33        10.8 0.18            168           19.9 189 
 BRR  HZ EP        436 57.31                             152    0.4310 72.0 301 
 BRR  HN ES   1    437 13.86                             152    0.54 7 72.0 301 
 BRR  HN I         437 15.30        39.7 0.18            145           72.0 301 
 RUS  HZ EP   1    436 59.36                             145    0.14 7 97.4 175 
 RUS  HN ES        437 17.31                             145   -0.1810 97.4 175 
 RUS  HZ I         437 18.31         6.4 0.28            146           97.4 175 
 PTB  HZ EP   1    437  1.84                             132   -0.69 7  146 260 
 PTB  HN ES   1    437 22.87                             132   -0.52 7  146 260 
 PTB  HZ I         437 25.54         8.5 0.10            128            146 260 
 SPBC HZ EP   1    437  3.94                             130    0.03 7  160 219 
 SPBC HN ES   1    437 25.82                             130   -0.03 7  160 219 
 SPBC HN I         437 32.60        23.4 0.20            127            160 219 
 OCA  HZ EP        437  4.63                             129    0.31 9  163 354 
 OCA  HN ES   2    437 26.11                             129   -0.46 5  163 354 
 OCA  HZ I         437 34.87         8.0 0.28            128            163 354 
 ZAR  HZ EP   1    437  8.52                             122    0.31 6  204 293 
 ZAR  HN ES   1    437 33.60                             122    0.11 6  204 293 
 ZAR  HN I         437 43.10        14.1 0.14            119            204 293 
 NOR  HN ES   1    437 38.30                             119   -0.47 6  232 235 
 NOR  HN I         437 43.85        16.5 0.20            117            232 235 
 CHI  HN ES   2    437 42.21                             117    0.07 4  245 195 
 CHI  HN I         437 49.09         6.4 0.52            117            245 195 
 SML  HZ EP   1    437 11.98                             117   -0.66 6  246 336 
 SML  HN ES   2    437 41.05                             117   -0.33 4  246 336 
 SML  HZ I         437 50.02        10.5 0.10            116            246 336 
 HEL  HZ EP   1    437 16.61                             115    0.85 6  270 256 
 HEL  HN ES   2    437 47.22                             115    0.29 4  270 256 
 HEL  HN I         437 56.31         3.9 0.40            113            270 256 
 GUY2CHN ES   4    437 53.96                             112    1.17 0  298 235 
 COD  HZ EP   1    437 23.86                             108   -0.63 5  351 355 
 COD  HN ES   2    438  2.58                             108    0.10 3  351 355 
 ORTC HZ EP   1    437 28.86                             106   -0.44 4  392 216 
 ORTC HN ES   2    438 11.30                             106    0.27 3  392 216 
 ORTC HZ I         438 18.16         1.3 0.20            106            392 216 
 SJC  HZ EP   4    437 29.84                             105   -1.74 0  411 327 
 SJC  HN ES   4    438 10.44                             105   -4.65 0  411 327 
                                                                                
