 2017 1031 0144 24.3 L   7.386 -73.185133.0  RSN  6 0.1 1.4LRSN                1
 GAP=182        0.36       2.1     1.6  3.0  0.1338E+00  0.1996E+01 -0.1022E+01E
 Epicentro: EL PLAYON - SANTANDER                                              3
 ACTION:UPD 17-11-07 19:39 OP:rebc STATUS:               ID:20171031014424 L   I
 OLDACT:UP  17-10-31 14:28 OP:dani STATUS:               ID:20171031013551     3
 OLDACT:REG 17-10-31 12:44 OP:dani STATUS:               ID:20171031013551     3
 2017-10-31-0138-00M.COL___440                                                 6
 STAT SP IPHASW D HRMM SECON CODA AMPLIT PERI AZIMU VELO AIN AR TRES W  DIS CAZ7
 PAM  EZ EP        144 44.09                             157    0.1910 53.9  95 
 PAM  EN ES        144 59.04                             157   -0.1110 53.9  95 
 PAM  EZ I         145  0.06         4.3 0.12            161           53.9  95 
 BRR  HZ EP        144 43.72                             152   -0.0910 65.8 242 
 BRR  HE ES        144 59.09                             152    0.0910 65.8 242 
 BRR  HZ I         145  0.83         8.6 0.17            152           65.8 242 
 BAR2 EZ ES        145  2.01                             145   -0.1010 87.8 180 
 RUS  HN ES        145 14.88                             126    0.13 9  166 176 
 PTB  HZ EP        144 52.23                             125   -0.13 9  169 236 
 PTB  HN ES        145 14.18                             125   -0.03 9  169 236 
 PTB  HZ I         145 15.55         1.8 0.24            126            169 236 
 ZAR  HZ EP        144 53.95                             122   -0.05 9  185 274 
 ZAR  HN ES        145 17.22                             122    0.09 9  185 274 
 ZAR  HZ I         145 21.54         3.0 0.16            123            185 274 
                                                                                
