 2016  131 0427 46.9 L   6.861 -73.291122.6  RSN  4 0.3 1.0LRSN                1
 GAP=180        0.82       4.1     5.1  7.6  0.5824E+01  0.5509E+01 -0.1395E+02E
 Epicentro: BETULIA - SANTANDER                                                3
 ACTION:UPD 16-03-09 23:29 OP:cam  STATUS:               ID:20160131042746 L   I
 OLDACT:REG 16-01-31 14:17 OP:ak   STATUS:               ID:20160131041600     3
 2016-01-31-0415-59S.COL___226                                                 6
 STAT SP IPHASW D HRMM SECON CODA AMPLIT PERI AZIMU VELO AIN AR TRES W  DIS CAZ7
 BAR2 EZ EP        428  4.19                             164    0.1710 32.1 158 
 BAR2 EZ ES        428 17.17                             164   -0.1910 32.1 158 
 RUS  HZ EP        428  9.38                             136    0.1610  110 168 
 RUS  HE ES        428 26.63                             136    0.0210  110 168 
 PTB  HZ EP        428 10.89                             129    0.1510  134 255 
 PTB  HN ES        428 29.22                             129   -0.1010  134 255 
 PTB  HZ I         428 31.41         0.9 0.21            130            134 255 
 SML  HZ EP        428 20.13                             113   -0.81 8  231 338 
 SML  HN ES        428 48.00                             113    0.52 8  231 338 
 SML  HZ I         428 52.12         1.4 0.25            114            231 338 
                                                                                
