 2015 1031 0615  9.4 L   6.819 -73.126151.2  RSN 14 0.5 1.9LRSN                1
 GAP=138        0.86       3.5     4.9  6.2  0.1434E+01  0.7240E+01  0.5274E+01E
 Epicentro: LOS SANTOS - SANTANDER                                             3
 ACTION:UPD 15-12-22 20:44 OP:cam  STATUS:               ID:20151031061509 L   I
 OLDACT:UP  15-10-31 16:01 OP:ar   STATUS:               ID:20151031060748     3
 OLDACT:UP  15-10-31 16:00 OP:ar   STATUS:               ID:20151031060748     3
 OLDACT:REG 15-10-31 13:19 OP:ar   STATUS:               ID:20151031060748     3
 2015-10-31-0607-48M.COL___319                                                 6
 STAT SP IPHASW D HRMM SECON CODA AMPLIT PERI AZIMU VELO AIN AR TRES W  DIS CAZ7
 BAR2 EZ EP     D  615 29.42                             170   -0.2710 25.8 194 
 BAR2 EZ ES        615 45.38                             170   -0.1710 25.8 194 
 BAR2 EZ I         615 46.03        10.5 0.28            166           25.8 194 
 BRR  HZ EP     D  615 31.29                             153    0.1410 72.1 296 
 BRR  HN ES   1    615 48.80                             153    0.66 7 72.1 296 
 BRR  HZ I         615 50.87         7.2 0.18            148           72.1 296 
 PAM  EZ EP        615 32.81                             152    0.8210 74.4  39 
 PAM  EN ES   2    615 49.52                             152   -0.12 5 74.4  39 
 PAM  EZ I         615 51.53        10.9 0.44            157           74.4  39 
 RUS  HZ EP   2    615 33.43                             144   -0.35 5  103 177 
 RUS  HN ES   2    615 52.84                             144    0.01 5  103 177 
 RUS  HZ I         615 54.94         4.6 0.36            145            103 177 
 OCA  HN ES        615 59.68                             131   -0.54 9  159 352 
 OCA  HZ I         616  7.90        11.6 0.22            132            159 352 
 SPBC HZ EP        615 38.34                             130   -0.21 9  166 219 
 SPBC HN ES   4    615 59.52                             130   -1.80 0  166 219 
 SPBC HZ I         616  9.79        20.8 0.18            129            166 219 
 ZAR  HZ EP   2    615 42.58                             123    0.29 4  205 291 
 ZAR  HN ES        616  7.87                             123   -0.10 8  205 291 
 ZAR  HZ I         616 13.87        10.1 0.54            122            205 291 
 NOR  HN ES   2    616 13.99                             119   -0.09 4  238 234 
 NOR  HZ I         616 17.02         6.6 0.68            119            238 234 
 SML  HZ EP   4    615 54.29                             119    8.10 0  243 335 
 SML  HN ES   2    616 14.36                             119   -0.56 4  243 335 
 SML  HZ I         616 18.99         7.7 0.10            119            243 335 
 CHI  HZ EP        615 47.48                             118   -0.16 8  251 196 
 CHI  HN ES   2    616 16.52                             118   -0.97 4  251 196 
 CHI  HZ I         616 20.67         3.6 0.42            118            251 196 
 ROSC BZ EP   2    615 49.14                             117    1.05 4  256 211 
 ROSC BN ES   4    616 22.22                             117    3.92 0  256 211 
 ROSC BZ I         616 25.45         7.3 0.40            117            256 211 
 HEL  HN ES   2    616 22.30                             116    0.36 4  275 255 
 HEL  HZ I         616 27.57         3.9 0.38            115            275 255 
 URE  HZ EP   2    615 50.09                             114   -0.74 4  285 291 
 URE  HE ES   4    616 20.18                             114   -3.00 0  285 291 
 URE  HZ I         616 30.17         4.1 0.34            114            285 291 
 GUY2CHZ EP   2    615 54.37                             113    0.82 4  304 235 
 GUY2CHN ES   4    616 31.80                             113    3.78 0  304 235 
 GUY2CHZ I         616 36.03         6.0 0.76                           304 235 
                                                                                
