 2017  131 0809 15.8 L   6.732 -73.132144.6  RSN  5 0.2 1.2LRSN                1
 GAP=141        0.52       4.8     3.7  4.7  0.4964E+00  0.4350E+01  0.1082E+01E
 Epicentro: JORDAN - SANTANDER                                                 3
 ACTION:UPD 17-05-22 16:05 OP:jn   STATUS:               ID:20170131080915 L   I
 OLDACT:REG 17-01-31 14:18 OP:dnl  STATUS:               ID:20170131080744     3
 2017-01-31-0808-00M.COL___325                                                 6
 STAT SP IPHASW D HRMM SECON CODA AMPLIT PERI AZIMU VELO AIN AR TRES W  DIS CAZ7
 BAR2 EZ EP        8 9 35.33                             174    0.1810 16.4 200 
 BAR2 EZ ES        8 9 50.02                             174   -0.2310 16.4 200 
 BAR2 EZ I         8 9 52.24         4.5 0.30            173           16.4 200 
 BRR  HZ EP        8 9 37.26                             150    0.1610 76.3 303 
 BRR  HN ES        8 9 53.91                             150    0.1810 76.3 303 
 BRR  HZ I         8 9 58.36         3.4 0.16            151           76.3 303 
 PAM  EN ES   2    8 9 55.41                             148   -0.24 5 82.5  35 
 PAM  EZ I         8 9 56.38         3.7 0.24            152           82.5  35 
 RUS  HN ES   2    8 9 57.20                             146    0.30 5 93.0 177 
 RUS  HZ I         8 9 58.64         1.6 0.22            149           93.0 177 
 PTB  HZ EP        8 9 42.45                             132   -0.22 9  148 262 
 PTB  HN ES        810  3.50                             132   -0.14 9  148 262 
 PTB  HZ I         810  5.72         2.0 0.15            134            148 262 
                                                                                
