 2013  831 0519 59.5 L   6.789 -73.143149.7  RSN  7 0.4 2.0LRSN                1
 GAP=201        0.95       4.7     6.9  7.8  0.1148E+02 -0.6458E+00 -0.9219E+01E
 Epicentro: LOS SANTOS - SANTANDER                                             3
 ACTION:UPD 14-01-14 09:08 OP:ep   STATUS:               ID:20130831051959 L   I
 OLDACT:UP  13-08-31 16:10 OP:mh   STATUS:               ID:20130831051842     3
 OLDACT:REG 13-08-31 16:04 OP:mh   STATUS:               ID:20130831051842     3
 2013-08-31-0518-42M.COL___214                                                 6
 STAT SP IPHASW D HRMM SECON CODA AMPLIT PERI AZIMU VELO AIN AR TRES W  DIS CAZ7
 BAR2 SZ EP   1    520 19.67                             171    0.10 7 22.1 191 
 BAR2 SZ ES   1    520 34.91                             171   -0.32 7 22.1 191 
 BRR  HZ EP        520 21.56                             153    0.4510 72.1 299 
 BRR  HN ES        520 38.70                             153    0.7210 72.1 299 
 BRR  HN I         520 39.71        18.4 0.26            146           72.1 299 
 RUS  HZ EP   1    520 23.60                             145    0.06 7 99.3 176 
 RUS  HN ES        520 42.00                             145   -0.3010 99.3 176 
 RUS  HZ I         520 43.35         2.1 0.24            142           99.3 176 
 PTB  HZ EP   1    520 26.50                             133   -0.28 7  148 259 
 PTB  HN ES        520 47.55                             133   -0.53 9  148 259 
 PTB  HN I         520 53.31        23.5 0.32            127            148 259 
 SPBC HZ EP   1    520 28.56                             130    0.34 7  162 219 
 SPBC HN ES   2    520 50.73                             130    0.10 5  162 219 
 SPBC HN I         520 56.10        15.9 0.30            126            162 219 
 ZAR  HE ES   2    520 58.27                             123    0.43 4  205 292 
 ZAR  HN I         521  4.54         9.5 0.22            120            205 292 
 SML  HZ EP   1    520 36.52                             118    0.05 6  245 335 
 SML  HN ES        521  4.58                             118   -0.74 8  245 335 
 SML  HN I         521  6.88        10.0 0.12            117            245 335 
                                                                                
