 2017  731 0727 25.4 L   6.750 -73.104149.1  RSN 12 0.6 1.6LRSN                1
 GAP=125        1.17       4.4     4.5  6.5 -0.2662E+01  0.1004E+02  0.3761E+01E
 Epicentro: LOS SANTOS - SANTANDER                                             3
 ACTION:UPD 17-08-30 15:38 OP:rebc STATUS:               ID:20170731072725 L   I
 OLDACT:UP  17-07-31 16:42 OP:osc  STATUS:               ID:20170731071743     3
 OLDACT:REG 17-07-31 13:15 OP:osc  STATUS:               ID:20170731071743     3
 2017-07-31-0718-00M.COL___377                                                 6
 STAT SP IPHASW D HRMM SECON CODA AMPLIT PERI AZIMU VELO AIN AR TRES W  DIS CAZ7
 BAR2 EZ EP        727 45.30                             172   -0.0910 19.5 206 
 BAR2 EZ ES        728  0.66                             172   -0.2910 19.5 206 
 BAR2 EZ I         728  1.83        14.0 0.24            170           19.5 206 
 BRR  HZ IP     C  727 47.37                             151    0.0510 77.9 300 
 BRR  HE ES        728  4.55                             151    0.1610 77.9 300 
 BRR  HZ I         728  5.29         7.8 0.20            151           77.9 300 
 PAM  EZ EP        727 48.43                             151    0.3410 79.0  34 
 PAM  EE ES        728  5.62                             151   -0.1510 79.0  34 
 PAM  EZ I         728  6.02         4.5 0.18            154           79.0  34 
 RUS  HZ EP        727 49.41                             146    0.3010 94.9 179 
 RUS  HN ES        728  7.61                             146    0.0310 94.9 179 
 RUS  HZ I         728  8.35         7.0 0.22            146           94.9 179 
 PTB  HZ EP        727 52.12                             132   -0.87 9  151 261 
 PTB  HE ES        728 14.84                             132    0.35 9  151 261 
 PTB  HZ I         728 17.08         2.7 0.12            132            151 261 
 SPBC HZ EP        727 54.32                             130    0.25 9  162 221 
 SPBC HE ES        728 16.81                             130    0.40 9  162 221 
 SPBC HZ I         728 22.03         5.0 0.16            130            162 221 
 ZAR  HZ EP        727 58.71                             122   -0.03 8  210 293 
 ZAR  HE ES        728 24.64                             122   -0.09 8  210 293 
 ZAR  HZ I         728 26.89         4.3 0.07            123            210 293 
 NOR  HZ EP        728  1.18                             119   -0.24 8  235 236 
 NOR  HE ES        728 29.93                             119    0.43 8  235 236 
 NOR  HZ I         728 34.31         2.5 0.26            120            235 236 
 CHI  HN ES   2    728 31.74                             118   -0.35 4  245 197 
 PTGC HN ES   2    728 40.23                             113   -2.17 4  302 159 
 GUY2CHZ EP        728 10.59                             113    1.32 7  302 236 
 GUY2CHE ES        728 42.91                             113   -0.55 7  302 236 
 GUY2CHZ I         728 51.83         1.5 0.50                           302 236 
 CBOC HZ EP        728 12.93                             110    0.14 7  336 253 
 CBOC HE ES        728 48.31                             110   -1.43 7  336 253 
                                                                                
