 2012 1031 0422 38.3 L   6.839 -73.079147.4  RSN  5 0.2 1.9LRSN                1
 GAP=190        0.50       2.9     5.5  6.0  0.5152E+01 -0.1585E+01 -0.1774E+01E
 Epicentro: LOS SANTOS - SANTANDER                                             3
 ACTION:UPD 12-11-22 17:06 OP:ep   STATUS:               ID:20121031042238 L   I
 2012-10-31-0420-00M.COL___231                                                 6
 STAT SP IPHASW D HRMM SECON CODA AMPLIT PERI AZIMU VELO AIN AR TRES W  DIS CAZ7
 BAR2 SZ EP        422 58.29                             168   -0.0110 29.6 203 
 BAR2 SZ I         423 14.94         9.9 0.22                          29.6 203 
 BRR  HZ EP        423  0.21                             151    0.2810 76.0 293 
 BRR  HN ES        423 16.88                             151    0.1010 76.0 293 
 BRR  HN I         423 17.54        19.3 0.22                          76.0 293 
 RUS  HN ES   1    423 21.21                             143   -0.21 7  105 180 
 RUS  HN I         423 22.50         4.2 0.34                           105 180 
 OCA  HN ES        423 28.28                             131   -0.14 9  157 350 
 OCA  HN I         423 32.10        25.0 0.48                           157 350 
 ZAR  HZ EP   1    423 11.30                             122   -0.13 6  209 290 
 ZAR  HE ES   2    423 36.71                             122   -0.54 4  209 290 
 ZAR  HN I         423 40.33         7.2 0.42                           209 290 
                                                                                
