 2017  831 0240 22.3 L   6.792 -73.140148.5  RSN  8 0.3 1.7LRSN                1
 GAP=138        0.72       2.7     3.4  4.9 -0.1207E+01  0.4297E+01  0.2717E+01E
 Epicentro: LOS SANTOS - SANTANDER                                             3
 ACTION:UPD 17-09-04 20:26 OP:rebc STATUS:               ID:20170831024022 L   I
 OLDACT:DUP 17-08-31 14:47 OP:dhb  STATUS:               ID:20170831023732d    3
 OLDACT:UP  17-08-31 14:39 OP:dhb  STATUS:               ID:20170831023731     3
 OLDACT:REG 17-08-31 12:14 OP:dhb  STATUS:               ID:20170831023731     3
 2017-08-31-0238-00M.COL___402                                                 6
 STAT SP IPHASW D HRMM SECON CODA AMPLIT PERI AZIMU VELO AIN AR TRES W  DIS CAZ7
 BAR2 EZ IP     D  240 42.10                             171   -0.1610 22.6 192 
 BAR2 EZ ES        240 57.61                             171   -0.2110 22.6 192 
 BAR2 EZ I         241  0.59        10.0 0.14            170           22.6 192 
 BRR  HZ IP     D  240 43.87                             153    0.0510 72.2 299 
 BRR  HN ES        241  0.87                             153    0.2710 72.2 299 
 BRR  HZ I         241  2.73         7.4 0.26            152           72.2 299 
 PAM  EZ IP     D  240 45.13                             151    0.2910 77.6  39 
 PAM  EE ES        241  2.35                             151   -0.0610 77.6  39 
 PAM  EZ I         241  4.90         5.8 0.15            154           77.6  39 
 RUS  HZ EP        240 46.13                             145   -0.1410 99.6 176 
 RUS  HN ES        241  5.22                             145    0.2610 99.6 176 
 RUS  HZ I         241  7.07         2.9 0.20            146           99.6 176 
 SPBC HZ EP        240 50.96                             130   -0.04 9  163 219 
 SPBC HE ES        241 12.99                             130   -0.39 9  163 219 
 SPBC HZ I         241 16.31         7.7 0.22            131            163 219 
 ZAR  HE ES        241 20.14                             123   -0.43 9  205 292 
 ZAR  HZ I         241 25.93        13.8 0.04            124            205 292 
 NOR  HZ IP     D  240 58.25                             119    0.04 8  235 235 
 NOR  HE ES        241 26.93                             119    0.72 8  235 235 
 NOR  HZ I         241 29.01         3.2 0.35            120            235 235 
 CHI  HN ES        241 29.37                             118   -0.19 8  248 195 
 CHI  HZ I         241 33.37         2.6 0.40            119            248 195 
                                                                                
