 2010  731 0900 44.3 L   6.743 -73.206152.5  RSN  4 0.2 1.5LRSN                1
 GAP=176        0.50       7.7    16.2  9.9  0.1065E+03 -0.1167E+03 -0.5584E+02E
 Epicentro: VILLANUEVA - SANTANDER                                             3
 ACTION:UPD 10-12-01 15:21 OP:pat  STATUS:               ID:20100731090044 L   I
 2010-07-31-0857-52S.COL___123                                                 6
 STAT SP IPHASW D HRMM SECON CODA AMPLIT PERI AZIMU VELO AIN AR TRES W  DIS CAZ7
 BAR2 SZ EP   1    9 1  4.27                             173    -0.4 7   17 171 
 BAR2 SZ I         9 1 20.31         4.7 0.13                            17 171 
 BRR  HZ IP     C  9 1  6.11                             154     0.110   69 306 
 BRR  HE ES   1    9 1 22.99                             154     0.0 7   69 306 
 BRR  HZ I         9 1 27.15         6.1 0.46                            69 306 
 RUS  HZ EP   1    9 1  8.34                             147     0.0 7   95 172 
 RUS  HN ES   1    9 1 27.24                             147     0.2 7   95 172 
 OCA  SZ EP   1    9 1 13.84                             130     0.2 7  166 356 
 OCA  SZ I         9 1 15.96         5.1 0.33                           166 356 
                                                                                
