 2015 1231 0143  8.5 L   6.802 -73.150145.0  RSN 10 0.5 1.7LRSN                1
 GAP=136        1.13       3.7     4.3  6.6 -0.2184E+01  0.8811E+01 -0.1557E+01E
 Epicentro: LOS SANTOS - SANTANDER                                             3
 ACTION:UPD 16-02-04 15:09 OP:cam  STATUS:               ID:20151231014308 L   I
 OLDACT:UP  15-12-31 14:32 OP:ak   STATUS:               ID:20151231013748     3
 OLDACT:REG 15-12-31 12:34 OP:ak   STATUS:               ID:20151231013748     3
 2015-12-31-0137-48M.COL___332                                                 6
 STAT SP IPHASW D HRMM SECON CODA AMPLIT PERI AZIMU VELO AIN AR TRES W  DIS CAZ7
 BAR2 EZ EP        143 28.17                             170    0.1710 23.4 189 
 BAR2 EZ ES        143 43.02                             170   -0.2210 23.4 189 
 BAR2 EZ I         143 46.53        13.6 0.26            169           23.4 189 
 BRR  HZ EP        143 30.30                             153    0.8110 70.7 299 
 BRR  HN ES        143 46.52                             153    0.6210 70.7 299 
 PAM  EZ EP        143 31.00                             151    0.4010 77.5  40 
 PAM  EE ES        143 47.38                             151   -0.5010 77.5  40 
 PAM  EZ I         143 49.19        10.3 0.22            156           77.5  40 
 RUS  HZ EP        143 31.85                             144   -0.3010  101 176 
 RUS  HN ES        143 50.68                             144    0.0510  101 176 
 RUS  HZ I         143 53.54         6.3 0.42            146            101 176 
 PTB  HZ EP        143 34.79                             132   -0.53 9  147 259 
 PTB  HN ES        143 56.19                             132   -0.08 9  147 259 
 PTB  HZ I         144  2.17         6.2 0.16            132            147 259 
 SPBC HZ EP        143 37.05                             129    0.17 9  163 219 
 SPBC HN ES        143 59.02                             129   -0.03 9  163 219 
 ZAR  HZ EP   2    143 41.29                             122    0.49 4  204 292 
 ZAR  HN ES        144  6.53                             122    0.51 9  204 292 
 ZAR  HZ I         144 13.28         4.7 0.13            123            204 292 
 NOR  HZ EP        143 44.68                             118    0.57 8  234 234 
 NOR  HE ES        144 11.31                             118   -0.61 8  234 234 
 NOR  HZ I         144 17.62         4.5 0.30            120            234 234 
 SML  HZ EP        143 44.68                             117   -0.32 8  243 335 
 SML  HN ES        144 12.64                             117   -0.86 8  243 335 
 HEL  HE ES        144 19.38                             115   -0.50 8  272 256 
 HEL  HZ I         144 27.17         3.3 0.34            116            272 256 
 SJC  HZ EP   4    144  2.37                             106   -1.57 0  409 327 
 SJC  HN ES   4    144 42.23                             106   -4.99 0  409 327 
                                                                                
