 2014  831 0205 35.5 L   6.735 -73.138144.9  RSN  4 0.4 1.0LRSN                1
 GAP=233        0.77       6.2     6.3 10.2  0.1377E+02 -0.1181E+02 -0.3554E+01E
 Epicentro: LOS SANTOS - SANTANDER                                             3
 ACTION:UPD 14-09-15 21:54 OP:nd   STATUS:               ID:20140831020535 L   I
 OLDACT:REG 14-08-31 12:55 OP:fm   STATUS:               ID:20140831015814     3
 2014-08-31-0158-14M.COL___266                                                 6
 STAT SP IPHASW D HRMM SECON CODA AMPLIT PERI AZIMU VELO AIN AR TRES W  DIS CAZ7
 BRR  HZ EP   1    2 5 56.78                             151   -0.06 7 75.6 303 
 BRR  HN ES   1    2 6 13.72                             151    0.25 7 75.6 303 
 BRR  HZ I         2 6 21.31         2.2 0.18            152           75.6 303 
 RUS  HZ EP        2 5 59.04                             146    0.3610 93.4 176 
 RUS  HN ES   1    2 6 16.19                             146   -0.56 7 93.4 176 
 RUS  HZ I         2 6 18.67         0.9 0.48            156           93.4 176 
 PTB  HZ EP   1    2 6  1.89                             132   -0.50 7  147 262 
 PTB  HN ES        2 6 23.23                             132   -0.12 9  147 262 
 PTB  HZ I         2 6 28.97         1.5 0.18            138            147 262 
 SPBC HN ES   1    2 6 25.72                             130    0.41 7  158 221 
                                                                                
