 2015  831 0854  7.0 L   6.816 -73.119143.8  RSN 18 0.5 2.0LRSN                1
 GAP= 95        1.07       2.8     3.1  4.9 -0.6786E+00  0.2253E+01  0.5506E+00E
 Epicentro: LOS SANTOS - SANTANDER                                             3
 ACTION:UPD 15-09-15 23:06 OP:cam  STATUS:               ID:20150831085407 L   I
 OLDACT:UP  15-09-01 11:28 OP:ar   STATUS:               ID:20150831085407 L   3
 OLDACT:REG 15-08-31 14:04 OP:stll STATUS:               ID:20150831084742     3
 2015-08-31-0847-42M.COL___352                                                 6
 STAT SP IPHASW D HRMM SECON CODA AMPLIT PERI AZIMU VELO AIN AR TRES W  DIS CAZ7
 BAR2 EZ IP     D  854 26.56                             169    0.1510 25.7 196 
 BAR2 EZ I         854 26.70        19.0 0.20            150           25.7 196 
 BAR2 EZ ES        854 41.05                             169   -0.5210 25.7 196 
 BRR  HZ EP        854 28.46                             152    0.4510 73.0 296 
 BRR  HZ I         854 28.75        22.2 0.24            125           73.0 296 
 BRR  HE ES        854 44.73                             152    0.3210 73.0 296 
 RUS  HZ EP        854 30.47                             143   -0.1710  102 178 
 RUS  HN ES        854 49.30                             143    0.1910  102 178 
 RUS  HZ I         854 49.83         9.6 0.22            123            102 178 
 CPBEREZ EP        854 33.37                             131   -0.70 9  151 258 
 CPBEREE ES        854 55.17                             131   -0.04 9  151 258 
 TAM  HZ I         854 34.71        13.3 0.40            118            153 106 
 TAM  HZ EP        854 34.75                             130    0.47 9  153 106 
 TAM  HE ES        854 55.90                             130    0.33 9  153 106 
 OCA  HZ EP        854 35.22                             129    0.22 9  159 352 
 OCA  HE ES        854 57.02                             129    0.16 9  159 352 
 OCA  HZ I         855  3.55        14.3 0.30            111            159 352 
 SPBC HZ EP        854 35.45                             128   -0.17 9  166 219 
 SPBC HZ I         854 36.04        15.9 0.10            108            166 219 
 SPBC HN ES        854 58.21                             128    0.24 9  166 219 
 NOR  HZ EP        854 42.71                             118   -0.24 8  238 235 
 NOR  HN ES        855 11.20                             118    0.19 8  238 235 
 NOR  HZ I         855 16.66        11.7 0.20            102            238 235 
 SML  HZ EP        854 43.26                             117   -0.19 8  243 335 
 SML  HN ES        855 10.99                             117   -0.91 8  243 335 
 SML  HZ I         855 19.29         7.7 0.26            103            243 335 
 CHI  HZ EP        854 44.89                             116    0.06 8  251 196 
 CHI  HN ES        855 13.21                             116   -1.15 8  251 196 
 CHI  HZ I         855 22.07         2.5 0.26            102            251 196 
 HEL  HZ EP        854 47.86                             114    0.41 7  275 256 
 HEL  HN ES        855 18.85                             114   -0.16 7  275 256 
 HEL  HZ I         855 25.37         7.8 0.82            101            275 256 
 GUY2CHZ EP        854 52.08                             112    1.21 7  305 235 
 GUY2CHN ES        855 25.08                             112   -0.03 7  305 235 
 GUY2CHZ I         855 33.18         8.9 0.38                           305 235 
 CBOC HZ EP        854 54.39                             109    0.21 7  337 252 
 CBOC HE ES   4    855 27.80                             109   -3.21 0  337 252 
 CBOC HZ I         855 40.90         2.6 0.10             98            337 252 
 DBB  SZ EP        854 54.64                             109   -0.05 7  342 274 
 DBB  SZ I         855 44.95        12.8 0.36             98            342 274 
 TOL  SZ EP        854 56.06                             109    0.53 6  347 225 
 TOL  SZ I         855 39.71         4.3 0.34             98            347 225 
 PRA  HZ EP        854 59.89                             106   -0.88 6  395 210 
 PRA  HZ I         855 48.79         3.7 0.38             97            395 210 
 ORTC HZ EP        855  1.65                             106    0.46 6  399 216 
 ORTC HZ I         855 48.86         2.1 0.22             97            399 216 
 ELOV BZ EP        855  0.60                             106   -0.98 6  402  87 
                                                                                
