 2011 1031 0920 54.4 L   6.762 -73.147148.4  RSN  6 0.3 1.7LRSN                1
 GAP=138        0.48       4.3     5.4  6.8  0.7044E+01 -0.3686E+01 -0.9388E+01E
 Epicentro: LOS SANTOS - SANTANDER                                             3
 ACTION:UPD 12-07-13 16:07 OP:ep   STATUS:               ID:20111031092054 L   I
 2011-10-31-0918-42S.COL___157                                                 6
 STAT SP IPHASW D HRMM SECON CODA AMPLIT PERI AZIMU VELO AIN AR TRES W  DIS CAZ7
 BAR2 SZ EP   1    921 14.26                             172   -0.04 7 19.2 192 
 BAR2 SZ ES   2    921 29.21                             172   -0.59 5 19.2 192 
 BAR2 SZ I         921 30.76        17.1 0.13                          19.2 192 
 BRR  HZ EP   1    921 16.17                             152    0.20 7 73.1 301 
 BRR  HN ES   2    921 33.42                             152    0.65 5 73.1 301 
 BRR  HZ I         921 36.00         9.0 0.18                          73.1 301 
 PAM  SZ EP   1    921 17.20                             150    0.07 7 80.8  38 
 RUS  HZ EP   2    921 18.33                             145    0.18 5 96.4 176 
 RUS  HN ES   2    921 36.62                             145   -0.02 5 96.4 176 
 RUS  HZ I         921 38.59         6.4 0.35                          96.4 176 
 OCA  SZ EP   2    921 23.24                             129   -0.09 5  164 353 
 OCA  SZ ES   2    921 45.65                             129   -0.23 5  164 353 
 OCA  SZ I         921 49.46         7.2 0.24                           164 353 
 ZAR  HZ EP   2    921 26.78                             123   -0.42 4  206 293 
 ZAR  HN ES   2    921 52.50                             123   -0.25 4  206 293 
 ZAR  HZ I         921 59.17         3.6 0.20                           206 293 
                                                                                
