 2017  331 0626  5.3 L   6.738 -73.131145.4  RSN  6 0.4 1.5LRSN                1
 GAP=141        0.99       5.2     5.0  7.1  0.5666E+01  0.1319E+02  0.1994E+01E
 Epicentro: LOS SANTOS - SANTANDER                                             3
 ACTION:UPD 17-05-25 18:47 OP:jn   STATUS:               ID:20170331062605 L   I
 OLDACT:REG 17-03-31 13:09 OP:ar   STATUS:               ID:20170331061741     3
 2017-03-31-0618-00M.COL___343                                                 6
 STAT SP IPHASW D HRMM SECON CODA AMPLIT PERI AZIMU VELO AIN AR TRES W  DIS CAZ7
 BAR2 EZ EP        626 24.75                             173   -0.0710 17.1 199 
 BAR2 EZ ES        626 40.17                             173    0.1610 17.1 199 
 BAR2 EZ I         626 48.91        13.6 0.72            172           17.1 199 
 BRR  HZ EP        626 26.69                             151   -0.0410 76.0 302 
 BRR  HE ES        626 43.78                             151    0.3710 76.0 302 
 BRR  HZ I         626 46.88         5.4 0.18            153           76.0 302 
 PAM  EN ES        626 44.91                             149   -0.3810 81.8  36 
 RUS  HZ EP        626 28.74                             146    0.1710 93.7 177 
 RUS  HN ES        626 46.83                             146    0.1410 93.7 177 
 RUS  HZ I         626 50.58         1.7 0.38            149           93.7 177 
 PTB  HZ EP        626 31.64                             132   -0.68 9  148 262 
 PTB  HN ES        626 52.87                             132   -0.48 9  148 262 
 PTB  HZ I         626 54.69         3.8 0.10            135            148 262 
 ZAR  HZ EP        626 39.04                             122    0.85 8  208 294 
 ZAR  HE ES        627  3.87                             122    0.06 8  208 294 
 ZAR  HZ I         627  9.48         3.5 0.34            126            208 294 
                                                                                
