 2017 1031 0557 51.4 L   6.754 -73.113147.7  RSN  5 0.4 0.9LRSN                1
 GAP=143        0.87       6.5     5.6  7.2  0.3414E+01 -0.1377E+01 -0.7258E+01E
 Epicentro: LOS SANTOS - SANTANDER                                             3
 ACTION:UPD 17-11-07 19:39 OP:rebc STATUS:               ID:20171031055751 L   I
 OLDACT:UP  17-10-31 16:16 OP:dani STATUS:               ID:20171031054739d    3
 OLDACT:DUP 17-10-31 16:14 OP:dani STATUS:               ID:20171031054739d    3
 OLDACT:UP  17-10-31 16:13 OP:dani STATUS:               ID:20171031054738     3
 OLDACT:REG 17-10-31 13:15 OP:dani STATUS:               ID:20171031054738     3
 2017-10-31-0548-00M.COL___441                                                 6
 STAT SP IPHASW D HRMM SECON CODA AMPLIT PERI AZIMU VELO AIN AR TRES W  DIS CAZ7
 BAR2 EZ ES        558 26.12                             172   -0.4610 19.4 203 
 BRR  HZ EP        558 13.20                             151    0.1610 76.8 301 
 BRR  HN ES        558 30.01                             151    0.0610 76.8 301 
 BRR  HZ I         558 31.35         2.9 0.46            151           76.8 301 
 PAM  HZ EP        558 14.16                             150    0.2710 79.3  35 
 RUS  HZ EP   1    558 14.91                             146   -0.02 7 95.3 178 
 RUS  HN ES   1    558 33.74                             146    0.43 7 95.3 178 
 RUS  HZ I         558 34.96         0.8 0.27            145           95.3 178 
 PTB  HZ EP        558 18.10                             132   -0.62 9  150 261 
 PTB  HN ES        558 40.39                             132    0.33 9  150 261 
 PTB  HZ I         558 42.98         0.7 0.61            131            150 261 
                                                                                
