 2013  831 0155 17.9 L   6.109 -73.433127.9  RSN  7 0.4 1.7LRSN                1
 GAP= 94        0.75       3.1     4.8  7.4  0.3414E+01  0.1728E+02  0.6337E+01E
 Epicentro: SUAITA - SANTANDER                                                 3
 ACTION:UPD 14-01-14 09:08 OP:ep   STATUS:               ID:20130831015517 L   I
 OLDACT:UP  13-08-31 10:42 OP:mh   STATUS:               ID:20130831014959     3
 OLDACT:REG 13-08-31 09:08 OP:mh   STATUS:               ID:20130831014959     3
 2013-08-31-0149-59M.COL___269                                                 6
 STAT SP IPHASW D HRMM SECON CODA AMPLIT PERI AZIMU VELO AIN AR TRES W  DIS CAZ7
 RUS  HN ES   1    155 50.60                             159   -0.39 8 45.5 122 
 RUS  HN I         155 52.18         7.0 0.32            169           45.5 122 
 BAR2 SZ ES   1    155 52.07                             153    0.46 8 60.2  27 
 BRR  HZ EP   1    155 40.83                             135    0.43 8  115 344 
 BRR  HE ES   1    155 58.10                             135    0.14 8  115 344 
 BRR  HE I         156  5.80         6.5 0.20            136            115 344 
 PTB  HZ EP        155 40.98                             133   -0.1610  123 293 
 PTB  HN ES        155 59.02                             133   -0.2610  123 293 
 PTB  HN I         156  3.56         8.4 0.20            133            123 293 
 CHI  HZ EP   1    155 45.58                             124   -0.30 7  167 191 
 CHI  HN ES        156  7.69                             124   -0.03 9  167 191 
 NOR  HZ EP        155 45.87                             123    0.14 9  170 249 
 NOR  HN ES   1    156  8.16                             123    0.71 7  170 249 
 NOR  HN I         156 12.55         9.6 0.16            126            170 249 
 ZAR  HN ES   1    156 16.11                             116   -0.57 6  220 314 
 ZAR  HN I         156 22.86         5.9 0.42            118            220 314 
 GUY2CHZ EP   4    155 54.71                             115    1.46 0  235 246 
 GUY2CHN ES   4    156 24.96                             115    4.12 0  235 246 
                                                                                
