 2015 1231 0346 55.4 L   6.805 -73.154144.0  RSN  7 0.4 1.5LRSN                1
 GAP=194        0.98       3.9     5.6  6.3 -0.6112E+01  0.5013E+01  0.1707E+00E
 Epicentro: LOS SANTOS - SANTANDER                                             3
 ACTION:UPD 16-02-04 15:09 OP:cam  STATUS:               ID:20151231034655 L   I
 OLDACT:REG 15-12-31 12:43 OP:ak   STATUS:               ID:20151231033746     3
 2015-12-31-0337-46M.COL___332                                                 6
 STAT SP IPHASW D HRMM SECON CODA AMPLIT PERI AZIMU VELO AIN AR TRES W  DIS CAZ7
 BAR2 EZ EP        347 14.99                             170    0.1510 23.7 188 
 BAR2 EZ ES        347 29.94                             170   -0.0510 23.7 188 
 BAR2 EZ I         347 31.02         7.3 0.26            172           23.7 188 
 BRR  HZ EP   2    347 16.80                             153    0.49 5 70.1 299 
 BRR  HN ES        347 32.92                             153    0.3210 70.1 299 
 BRR  HZ I         347 35.44         3.7 0.34            150           70.1 299 
 PTB  HZ EP        347 22.30                             132    0.14 9  147 259 
 PTB  HN ES        347 42.60                             132   -0.42 9  147 259 
 PTB  HZ I         347 50.08         4.4 0.54            132            147 259 
 OCA  HZ EP        347 22.55                             129   -0.97 9  160 353 
 OCA  HN ES        347 45.86                             129    0.41 9  160 353 
 OCA  HZ I         347 52.50         7.7 0.32            130            160 353 
 SPBC HZ EP        347 23.61                             129   -0.15 9  163 219 
 SPBC HN ES        347 45.50                             129   -0.37 9  163 219 
 SPBC HZ I         347 48.51         3.7 0.19            131            163 219 
 ZAR  HZ EP        347 27.83                             122    0.20 9  203 292 
 ZAR  HN ES        347 52.52                             122   -0.24 9  203 292 
 NOR  HZ EP        347 31.59                             118    0.60 8  234 234 
 NOR  HE ES        347 59.10                             118    0.36 8  234 234 
 NOR  HZ I         348  0.61         2.4 0.11            120            234 234 
                                                                                
