 2015 1031 0828 33.3 L   6.805 -73.116149.3  RSN 12 0.5 1.8LRSN                1
 GAP=140        0.97       3.9     6.8  5.9  0.5398E+01  0.1375E+01 -0.1829E+01E
 Epicentro: LOS SANTOS - SANTANDER                                             3
 ACTION:UPD 15-12-22 20:44 OP:cam  STATUS:               ID:20151031082833 L   I
 OLDACT:UP  15-11-01 03:33 OP:DRIO STATUS:               ID:20151031082833 L   3
 OLDACT:REG 15-10-31 13:31 OP:ar   STATUS:               ID:20151031082741     3
 2015-10-31-0827-41M.COL___319                                                 6
 STAT SP IPHASW D HRMM SECON CODA AMPLIT PERI AZIMU VELO AIN AR TRES W  DIS CAZ7
 BAR2 EZ EP        828 53.11                             170   -0.2210 24.7 197 
 BAR2 EZ ES        829  8.45                             170   -0.5410 24.7 197 
 BAR2 EZ I         829 10.48        11.5 0.40            165           24.7 197 
 BRR  HZ EP        828 54.99                             152    0.0610 73.8 297 
 BRR  HN ES        829 12.69                             152    0.8610 73.8 297 
 BRR  HZ I         829 15.58         6.1 0.12            148           73.8 297 
 PAM  EZ EP        828 56.09                             152    0.3910 74.9  38 
 PAM  EN ES   2    829 13.22                             152    0.02 5 74.9  38 
 PAM  EZ I         829 15.15         7.6 0.54            158           74.9  38 
 RUS  HZ EP        828 57.03                             144   -0.3510  101 178 
 RUS  HN ES   2    829 16.35                             144    0.16 5  101 178 
 RUS  HZ I         829 18.72         4.0 0.22            146            101 178 
 OCA  HZ EP        829  2.32                             130    0.50 9  160 352 
 OCA  HE ES   4    829 25.61                             130    1.50 0  160 352 
 OCA  HZ I         829 30.66        20.9 0.28            132            160 352 
 SPBC HZ EP   2    829  2.13                             129   -0.13 5  166 220 
 SPBC HE ES   2    829 24.66                             129   -0.22 5  166 220 
 SPBC HZ I         829 31.33        14.0 0.14            129            166 220 
 ZAR  HZ EP        829  5.89                             123   -0.33 8  207 292 
 ZAR  HN ES   4    829 34.22                             123    2.29 0  207 292 
 ZAR  HZ I         829 42.01         5.8 0.42            122            207 292 
 SML  HZ EP        829  9.98                             118   -0.19 8  245 335 
 SML  HE ES        829 38.18                             118   -0.79 8  245 335 
 SML  HZ I         829 42.74        13.9 0.10            119            245 335 
 CHI  HZ EP        829 11.39                             118    0.09 8  250 196 
 CHI  HN ES   2    829 41.53                             118    0.55 4  250 196 
 CHI  HZ I         829 46.14         1.8 0.36            119            250 196 
 HEL  HN ES   4    829 51.84                             115    6.04 0  275 256 
 HEL  HZ I         829 52.48         5.3 0.26            115            275 256 
 GUY2CHZ EP   2    829 18.26                             113    0.90 4  304 235 
 GUY2CHN ES   4    829 55.25                             113    3.48 0  304 235 
 GUY2CHZ I         829 58.24         3.8 0.46                           304 235 
 MON  HZ EP   9    829 20.35                             109   -2.30 0  356 308 
 MON  HN ES        829 58.55                             109   -0.33 6  356 308 
 MON  HZ I         830  0.43         1.4 0.22            110            356 308 
                                                                                
