 2011  531 0201 50.1 L   6.831 -73.120156.8  RSN  4 0.2 1.6LRSN                1
 GAP=275        0.57       9.9    10.6  7.3 -0.7167E+02 -0.3632E+02  0.1848E+02E
 Epicentro: LOS SANTOS - SANTANDER                                             3
 ACTION:UP  11-06-29 08:57 OP:tino STATUS:               ID:20110531020150 L   I
 2011-05-31-0200-12S.COL___115                                                 6
 STAT SP IPHASW D HRMM SECON CODA AMPLIT PERI AZIMU VELO SNR AR TRES W  DIS CAZ7
 BTL  SZ EP   1    2 2 10.62                             173    -0.4 7   19 301 
 BTL  SZ ES   1    2 2 27.52                             173     0.2 7   19 301 
 BRR  HZ EP   1    2 2 12.51                             154     0.0 7   72 295 
 BRR  HZ I         2 2 12.78        10.0 0.15                            72 295 
 BRR  HE ES   1    2 2 30.05                             154     0.0 7   72 295 
 BRI  SZ EP   1    2 2 14.98                             145     0.2 7  104  20 
 GRA  SZ EP   1    2 2 16.35                             140     0.3 7  122  17 
 GRA  SZ ES   1    2 2 36.02                             140    -0.3 7  122  17 
 GRA  SZ I         2 2 37.08         3.8 0.35                           122  17 
                                                                                
