 2010 1231 0032  1.7 L   6.768 -73.146146.0  RSN  5 0.3 1.7LRSN                1
 GAP=159        0.61       3.2     8.3  9.3 -0.8731E+01  0.1839E+02 -0.8864E+01E
 Epicentro: LOS SANTOS - SANTANDER                                             3
 ACTION:UP  11-01-14 15:28 OP:pat  STATUS:               ID:20101231003201 L   I
 2010-12-31-0028-20S.COL___135                                                 6
 STAT SP IPHASW D HRMM SECON CODA AMPLIT PERI AZIMU VELO SNR AR TRES W  DIS CAZ7
 RUS  HZ EP   1    032 25.49                             145     0.3 8   97 176 
 RUS  HN ES   1    032 43.43                             145    -0.1 8   97 176 
 RUS  HZ I         032 44.86         5.4 0.32                            97 176 
 GRA  SZ EP        032 27.14                             136    -0.110  129  17 
 GRA  SZ I         032 28.28        12.2 0.31                           129  17 
 OCA  SZ EP   1    032 29.88                             129    -0.4 7  164 353 
 OCA  SZ ES   1    032 52.99                             129     0.3 7  164 353 
 OCA  SZ I         032 57.85        12.9 0.34                           164 353 
 NOR  SZ EP   2    032 37.67                             119     0.5 4  233 235 
 NOR  SE ES   2    033  4.63                             119    -0.3 4  233 235 
 CHI  HZ EP   2    032 39.35                             118     0.3 4  245 195 
 CHI  HE ES   2    033  7.79                             118    -0.3 4  245 195 
 CHI  HZ I         033 12.61         1.7 0.28                           245 195 
                                                                                
