 2017 1231 0611 18.2 L   6.844 -73.151146.7  RSN 20 0.8 2.5LRSN                1
 GAP=101        1.62       3.7     4.4  7.6 -0.3338E+01  0.7886E+01 -0.2097E+01E
 Epicentro: LOS SANTOS - SANTANDER                                             3
 ACTION:UPD 18-01-04 13:26 OP:rebc STATUS:               ID:20171231061118 L   I
 OLDACT:UP  17-12-31 14:14 OP:osc  STATUS:               ID:20171231060528     3
 OLDACT:REG 17-12-31 11:10 OP:osc  STATUS:               ID:20171231060528     3
 2017-12-31-0608-00M.COL___400                                                 6
 STAT SP IPHASW D HRMM SECON CODA AMPLIT PERI AZIMU VELO AIN AR TRES W  DIS CAZ7
 BAR2 EZ EP     C  611 38.06                             169    0.0410 28.1 187 
 BAR2 EZ ES        611 52.85                             169   -0.6510 28.1 187 
 BAR2 EZ I         611 54.29        84.4 0.28            169           28.1 187 
 PAM  EZ EP        611 40.84                             152    0.5510 74.1  42 
 PAM  EN ES        611 58.02                             152    0.4710 74.1  42 
 PAM  EZ I         612  0.21        38.1 0.52            154           74.1  42 
 PTB  HZ EP        611 44.70                             132   -0.55 9  148 257 
 PTB  HN ES        612  5.60                             132   -0.78 9  148 257 
 PTB  HZ I         612 10.84        21.6 0.32            132            148 257 
 OCA  HZ EP        611 46.13                             131    0.04 9  155 353 
 OCA  HE ES        612  8.14                             131    0.26 9  155 353 
 OCA  HZ I         612 12.36        86.7 0.20            132            155 353 
 SPBC HZ EP        611 46.85                             129   -0.22 9  167 218 
 SPBC HN ES        612  9.22                             129   -0.39 9  167 218 
 SPBC HZ I         612 13.60        49.9 0.21            129            167 218 
 YPLC HZ IP     C  611 48.51                             126    0.03 9  181 152 
 YPLC HE ES        612 12.42                             126    0.30 9  181 152 
 YPLC HZ I         612 15.26        14.5 0.28            128            181 152 
 ZAR  HZ EP        611 51.72                             123    1.29 9  202 291 
 ZAR  HN ES        612 16.04                             123    0.44 9  202 291 
 ZAR  HZ I         612 21.22        36.9 0.38            123            202 291 
 ROSC BZ EP   9    611 58.01                             116    1.25 0  257 210 
 ROSC BN ES        612 28.43                             116    0.31 8  257 210 
 ROSC BZ I         612 32.94        55.2 0.40            117            257 210 
 URE  HZ EP        611 58.27                             114   -0.75 7  281 291 
 URE  HN ES        612 29.28                             114   -1.61 7  281 291 
 DRL03HZ EP        611 59.77                             114    0.50 7  284 353 
 DRL03HE ES        612 32.68                             114    1.35 7  284 353 
 GUY2CHZ EP        612  1.76                             112   -0.33 7  304 234 
 GUY2CHN ES        612 38.37                             112    2.03 7  304 234 
 GUY2CHZ I         612 44.50        17.6 0.58                           304 234 
 CBOC HZ EP        612  5.67                             110    0.44 7  335 251 
 CBOC HE ES        612 42.98                             110    1.04 7  335 251 
 CBOC HZ I         612 47.96         4.8 0.20            111            335 251 
 DBB  HZ EP        612  5.58                             110    0.00 7  339 273 
 DBB  HN ES        612 41.27                             110   -1.28 7  339 273 
 DBB  HZ I         612 43.98         9.8 0.14            110            339 273 
 ARGC HZ EP        612  8.31                             109    1.01 6  354 340 
 ARGC HE ES        612 44.91                             109   -0.72 6  354 340 
 SDV  BZ EP        612  7.44                             109   -0.50 6  358  51 
 SDV  B1 ES        612 45.24                             109   -1.52 6  358  51 
 SDV  BZ I         612 48.12         3.9 0.30            110            358  51 
 PRA  HZ EP        612 11.85                             106   -0.33 6  396 209 
 PRA  HN ES        612 53.91                             106   -0.41 6  396 209 
 PRA  HZ I         613  0.58        16.3 0.26            107            396 209 
 ORTC HZ EP        612 12.47                             106   -0.07 6  399 216 
 ORTC HN ES        612 55.69                             106    0.74 6  399 216 
 ORTC HZ I         612 59.51        10.5 0.24            107            399 216 
 SJC  HZ EP        612 12.22                             106   -1.02 6  405 327 
 SJC  HN ES   4    612 53.19                             106   -3.01 0  405 327 
 SJC  HZ I         613  7.95         4.9 0.42            107            405 327 
 CRJC HZ EP   4    612 18.50                             104   -1.62 0  463   4 
 CRJC HN ES   4    613  5.68                             104   -2.76 0  463   4 
 CRJC HZ I         613 13.35         9.3 0.26            104            463   4 
 YOT  HZ EP        612 20.83                             103   -0.74 5  475 228 
                                                                                
