 2013  731 0626 53.9 L   6.769 -73.150148.6  RSN  6 0.3 1.6LRSN                1
 GAP=184        0.69       4.7     5.5  6.1  0.7531E+00  0.5271E+01  0.5555E+01E
 Epicentro: LOS SANTOS - SANTANDER                                             3
 ACTION:UPD 13-08-12 10:41 OP:ep   STATUS:               ID:20130731062653 L   I
 OLDACT:REG 13-07-31 10:10 OP:carl STATUS:               ID:20130731061959     3
 2013-07-31-0619-59M.COL___264                                                 6
 STAT SP IPHASW D HRMM SECON CODA AMPLIT PERI AZIMU VELO AIN AR TRES W  DIS CAZ7
 BAR2 SZ EP   1    627 13.81                             172    0.00 7 19.8 190 
 BAR2 SZ ES   1    627 29.19                             172   -0.14 7 19.8 190 
 BAR2 SZ I         627 30.31         7.3 0.22            167           19.8 190 
 GIR2 SZ EP   1    627 13.88                             166   -0.12 7 34.6 352 
 GIR2 SZ ES   1    627 29.97                             166    0.29 7 34.6 352 
 GIR2 SZ I         627 30.49         7.4 0.30            171           34.6 352 
 BRR  HZ EP   1    627 15.65                             153    0.22 7 72.5 301 
 BRR  HN ES   1    627 32.30                             153    0.08 7 72.5 301 
 BRR  HN I         627 33.41        22.2 0.20            154           72.5 301 
 RUS  HZ EP   1    627 17.82                             145    0.13 7 97.2 176 
 RUS  HN ES   1    627 35.83                             145   -0.42 7 97.2 176 
 RUS  HZ I         627 38.59         2.9 0.34            144           97.2 176 
 PTB  HZ EP   1    627 20.25                             133   -0.75 7  147 260 
 PTB  HN ES   1    627 41.88                             133   -0.25 7  147 260 
 PTB  HZ I         627 42.57         5.5 0.16            133            147 260 
 SPBC HZ EP   1    627 22.80                             130    0.46 7  160 220 
 SPBC HN ES   1    627 45.05                             130    0.53 7  160 220 
 SPBC HZ I         627 50.73         5.6 0.46            130            160 220 
                                                                                
