 2013 1231 0132 41.5 L   5.788 -73.876108.5  RSN  5 0.6 1.2LRSN                1
 GAP= 90        1.45       5.9     6.5 12.6  0.3168E+01 -0.1186E+02 -0.1560E+02E
 Epicentro: ALBANIA - SANTANDER                                                3
 ACTION:UPD 14-01-13 10:22 OP:ep   STATUS:               ID:20131231013241 L   I
 OLDACT:DUP 13-12-31 09:45 OP:stll STATUS:               ID:20131231012818d    3
 2013-12-31-0128-17M.COL___237                                                 6
 STAT SP IPHASW D HRMM SECON CODA AMPLIT PERI AZIMU VELO AIN AR TRES W  DIS CAZ7
 SPBC HN ES        133  8.68                             165    0.4310 26.4 235 
 RUS  HZ EP        133  0.18                             138   -0.5810 88.5  82 
 RUS  HZ I         133  2.76         1.0 0.20            138           88.5  82 
 RUS  HN ES        133 15.69                             138   -0.1210 88.5  82 
 PTB  HZ EP        133  2.45                             132    0.9210  105 322 
 PTB  HN ES        133 16.23                             132   -0.9310  105 322 
 PTB  HZ I         133 20.32         3.0 0.38            131            105 322 
 BAR2 SZ EP        133  2.93                             129   -0.0510  117  41 
 BAR2 SZ ES        133 20.21                             129    0.4610  117  41 
 BAR2 SZ I         133 21.78        10.8 0.50            128            117  41 
 CHI  HN ES        133 22.05                             126   -0.1210  129 173 
                                                                                
