 2015 1031 0839 56.1 L   6.778 -73.094155.1  RSN  5 0.3 1.4LRSN                1
 GAP=241        0.61       6.8     6.3  7.0  0.2490E+02  0.4356E+01 -0.9926E+01E
 Epicentro: LOS SANTOS - SANTANDER                                             3
 ACTION:UPD 15-12-22 20:44 OP:cam  STATUS:               ID:20151031083956 L   I
 OLDACT:REG 15-10-31 13:32 OP:ar   STATUS:               ID:20151031083738     3
 2015-10-31-0837-38M.COL___319                                                 6
 STAT SP IPHASW D HRMM SECON CODA AMPLIT PERI AZIMU VELO AIN AR TRES W  DIS CAZ7
 BAR2 EZ EP        840 17.04                             172    0.1910 22.8 206 
 BAR2 EZ ES        840 32.79                             172   -0.2510 22.8 206 
 BAR2 EZ I         840 33.06         6.1 0.26            168           22.8 206 
 BRR  HZ EP        840 18.84                             152    0.2210 77.4 298 
 BRR  HE ES   2    840 36.67                             152    0.49 5 77.4 298 
 BRR  HZ I         840 42.10         3.8 0.22            148           77.4 298 
 RUS  HZ EP   2    840 20.00                             146   -0.61 5 97.9 179 
 RUS  HN ES   2    840 39.81                             146    0.09 5 97.9 179 
 RUS  HZ I         840 40.35         2.4 0.26            149           97.9 179 
 SPBC HN ES   2    840 48.66                             131    0.22 5  165 221 
 SPBC HZ I         840 50.65         2.9 0.34            131            165 221 
 ZAR  HZ EP   4    840 31.68                             123    1.87 0  210 292 
 ZAR  HE ES        840 55.81                             123   -0.29 8  210 292 
 ZAR  HZ I         841  1.05         1.6 0.20            123            210 292 
                                                                                
