 2010  331 0334 59.5 L   6.848 -72.978138.5  RSN  4 0.2 2.0LRSN                1
 GAP=200        0.45       3.6     8.3  6.0  0.1523E+02 -0.2976E+02 -0.8970E+01E
 Epicentro: CEPITA - SANTANDER                                                 3
 ACTION:UP  10-08-24 09:56 OP:vdl  STATUS:               ID:20100331033459 L   I
 2010-03-31-0331-58S.COL___098                                                 6
 STAT SP IPHASW D HRMM SECON CODA AMPLIT PERI AZIMU VELO SNR AR TRES W  DIS CAZ7
 BAR2 SZ EP        335 18.61                             164     0.010   36 219 
 BAR2 SZ ES   1    335 33.36                             164    -0.2 7   36 219 
 BRR  HZ IP        335 20.78                             146     0.010   86 289 
 BRR  HZ I         335 22.30        17.7 0.34                            86 289 
 BRR  HE ES   1    335 37.55                             146     0.1 7   86 289 
 RUS  HZ EP        335 23.15                             140     0.210  106 186 
 OCA  SZ EP        335 26.87                             128    -0.2 9  158 346 
 OCA  SZ ES   2    335 48.94                             128     0.4 5  158 346 
 OCA  SZ I         335 52.60        11.0 0.18                           158 346 
                                                                                
