 2013  831 0330  3.9 L   6.856 -73.117154.4  RSN  8 0.4 2.1LRSN                1
 GAP=202        0.71       4.2     5.8  8.1 -0.7517E+01 -0.9947E+01  0.8053E+01E
 Epicentro: LOS SANTOS - SANTANDER                                             3
 ACTION:UPD 14-01-14 09:08 OP:ep   STATUS:               ID:20130831033004dL   I
 OLDACT:DUP 13-08-31 13:40 OP:mh   STATUS:               ID:20130831032960d    3
 OLDACT:UP  13-08-31 13:40 OP:mh   STATUS:               ID:20130831032959     3
 OLDACT:REG 13-08-31 09:11 OP:mh   STATUS:               ID:20130831032959     3
 2013-08-31-0329-59M.COL___269                                                 6
 STAT SP IPHASW D HRMM SECON CODA AMPLIT PERI AZIMU VELO AIN AR TRES W  DIS CAZ7
 BAR2 SZ EP        330 24.71                             169    0.0410 30.0 194 
 BAR2 SZ I         330 41.08         6.6 0.16            169           30.0 194 
 BRR  HZ EP   1    330 26.45                             154    0.50 7 71.4 293 
 BRR  HN ES   1    330 43.37                             154    0.18 7 71.4 293 
 BRR  HN I         330 47.05        23.4 0.28            160           71.4 293 
 PTB  HZ EP   1    330 31.31                             133   -0.62 7  152 257 
 PTB  HN ES        330 53.53                             133   -0.29 9  152 257 
 PTB  HN I         330 57.34        15.9 0.34            138            152 257 
 OCA  HN ES   2    330 54.28                             133   -0.27 5  155 352 
 OCA  HN I         330 58.34        18.7 0.22            133            155 352 
 SPBC HZ EP   1    330 33.77                             130    0.11 7  170 219 
 SPBC HN ES        330 56.73                             130   -0.17 9  170 219 
 ZAR  HZ EP   1    330 36.45                             124   -0.50 6  205 290 
 ZAR  HN ES   2    331  3.29                             124    0.53 4  205 290 
 ZAR  HZ I         331  8.99         8.7 0.58            128            205 290 
 NOR  HZ EP   1    330 41.44                             120    0.69 6  241 234 
 NOR  HN ES        331  9.79                             120    0.26 8  241 234 
 NOR  HN I         331 14.40        12.7 0.16            123            241 234 
 CHI  HN ES   2    331 12.85                             118   -0.27 4  255 195 
 CHI  HN I         331 15.33         7.2 0.30            120            255 195 
 GUY2CHZ EP   4    330 51.58                             113    3.02 0  307 234 
 GUY2CHN ES   4    331 27.65                             113    4.22 0  307 234 
                                                                                
