 2012 1231 0052 28.4 L   6.674 -73.261158.4  RSN  4 0.3 1.0LRSN                1
 GAP=213        0.55       6.2     6.0  7.2  0.2449E+02 -0.1382E+00 -0.2231E+01E
 Epicentro: GALAN - SANTANDER                                                  3
 ACTION:UPD 13-01-04 14:31 OP:ep   STATUS:               ID:20121231005228 L   I
 2012-12-31-0050-00M.COL___239                                                 6
 STAT SP IPHASW D HRMM SECON CODA AMPLIT PERI AZIMU VELO AIN AR TRES W  DIS CAZ7
 BRR  HZ EP   1    052 50.49                             155   -0.37 7 69.1 314 
 BRR  HN ES   1    053  8.58                             155    0.24 7 69.1 314 
 BRR  HZ I         053 11.62         1.7 0.34                          69.1 314 
 RUS  HZ EP   1    052 52.65                             150   -0.03 7 88.6 167 
 RUS  HN ES   1    053 11.57                             150   -0.01 7 88.6 167 
 RUS  HZ I         053 14.19         1.4 0.38                          88.6 167 
 PTB  HZ EP   1    052 55.69                             138    0.47 7  133 264 
 PTB  HN ES   1    053 15.89                             138   -0.22 7  133 264 
 PTB  HZ I         053 18.77         1.6 0.12                           133 264 
 ZAR  HE ES   1    053 26.62                             126   -0.07 6  198 297 
                                                                                
