 2015 1231 0809 56.4 L   6.825 -73.113150.6  RSN 28 0.5 2.5LRSN                1
 GAP= 53        1.12       2.4     2.8  4.6 -0.9774E+00  0.2618E+01  0.1041E+01E
 Epicentro: LOS SANTOS - SANTANDER                                             3
 ACTION:UPD 16-02-04 15:09 OP:cam  STATUS:               ID:20151231080956 L   I
 OLDACT:UP  15-12-31 16:41 OP:ak   STATUS:               ID:20151231080748     3
 OLDACT:REG 15-12-31 13:03 OP:ak   STATUS:               ID:20151231080748     3
 2015-12-31-0807-48M.COL___331                                                 6
 STAT SP IPHASW D HRMM SECON CODA AMPLIT PERI AZIMU VELO AIN AR TRES W  DIS CAZ7
 BAR2 EZ IP     C  810 16.75                             169    0.1110 26.9 197 
 BAR2 EZ ES        810 31.79                             169   -0.6710 26.9 197 
 BAR2 EZ I         810 32.84        52.7 0.24            166           26.9 197 
 PAM  EZ EP        810 19.64                             153    0.8010 72.9  39 
 PAM  EN ES        810 36.39                             153    0.0210 72.9  39 
 PAM  EZ I         810 38.52        58.4 0.60            158           72.9  39 
 BRR  HZ IP     D  810 18.57                             153    0.4310 73.2 295 
 BRR  HN ES        810 35.48                             153    0.3510 73.2 295 
 BRR  HZ I         810 38.94        31.2 0.34            150           73.2 295 
 RUS  HZ EP        810 20.60                             144   -0.1710  103 178 
 RUS  HN ES        810 39.62                             144   -0.1910  103 178 
 PTB  HZ EP        810 23.22                             132   -0.88 9  152 258 
 PTB  HN ES   4    810 44.02                             132   -1.71 0  152 258 
 PTB  HZ I         810 51.94        45.6 0.34            131            152 258 
 TAM  HZ EP        810 24.88                             132    0.71 9  152 106 
 TAM  HN ES        810 46.53                             132    0.67 9  152 106 
 TAM  HZ I         810 47.76        16.9 0.32            137            152 106 
 OCA  HZ EP        810 24.62                             131   -0.22 9  158 352 
 OCA  HN ES        810 47.00                             131   -0.05 9  158 352 
 OCA  HZ I         810 50.82        80.4 0.18            133            158 352 
 SPBC HZ EP        810 25.81                             129    0.16 9  168 219 
 SPBC HN ES        810 47.97                             129   -0.53 9  168 219 
 SPBC HZ I         810 55.27        37.5 0.22            129            168 219 
 ZAR  HZ EP   2    810 30.17                             123    0.80 4  206 291 
 ZAR  HN ES        810 55.74                             123    0.63 8  206 291 
 ZAR  HZ I         811  5.41        25.0 0.24            123            206 291 
 NOR  HZ EP        810 32.52                             119   -0.34 8  239 234 
 NOR  HN ES        811  0.71                             119   -0.62 8  239 234 
 NOR  HZ I         811  9.32        23.9 0.24            119            239 234 
 SML  HZ EP        810 32.58                             119   -0.58 8  243 334 
 SML  HN ES        811  1.52                             119   -0.34 8  243 334 
 SML  HZ I         811  7.99        22.9 0.15            120            243 334 
 CHI  HZ EP        810 34.96                             118    0.24 8  252 196 
 CHI  HN ES        811  4.21                             118   -0.43 8  252 196 
 CHI  HZ I         811 14.04        10.5 0.64            118            252 196 
 ROSC BZ EP   9    810 36.75                             117    1.54 0  257 211 
 ROSC BN ES        811  7.78                             116    0.73 8  257 211 
 ROSC BZ I         811 14.61        34.9 0.45            118            257 211 
 HEL  HZ EP   4    810 38.55                             115    1.26 0  276 255 
 HEL  HE ES        811  9.41                             115    0.20 7  276 255 
 HEL  HZ I         811 15.39        13.3 0.28            115            276 255 
 URE  HZ EP        810 37.63                             114   -0.30 7  286 291 
 URE  HE ES   4    811  8.45                             114   -1.91 0  286 291 
 URE  HZ I         811 17.49        11.1 0.30            115            286 291 
 SOCV BZ EP        810 38.30                             113   -0.82 7  297  57 
 SOCV BN ES   4    811  9.88                             113   -2.59 0  297  57 
 GUY2CHZ EP   4    810 42.23                             113    1.52 0  306 235 
 GUY2CHN ES        811 16.06                             113    0.76 7  306 235 
 GUY2CHZ I         811 23.61        16.2 0.70                           306 235 
 VIL  SZ EP        810 40.78                             113    0.39 7  307 192 
 VIL  SN ES        811 14.91                             113    0.18 7  307 192 
 PTGC HZ EP        810 39.55                             112   -1.03 7  310 159 
 PTGC HN ES   4    811 12.18                             112   -2.89 0  310 159 
 PTGC HZ I         811 15.66        12.4 0.42            114            310 159 
 LL6C HZ EP        810 41.27                             111   -0.71 7  322 357 
 ELA  HZ EP   9    810 45.59                             111    1.65 0  334 230 
 ELA  HE ES        811 22.92                                    0.22 7  334 230 
 ELA  HZ I         811 29.62        15.8 0.44            111            334 230 
 CBOC HZ EP        810 44.93                             110    0.96 7  338 252 
 CBOC HE ES        811 21.20                             110    0.09 7  338 252 
 CBOC HZ I         811 29.87         4.9 0.42            111            338 252 
 DBB  SZ EP        810 44.89                             110    0.46 7  343 274 
 DBB  SZ ES        811 21.89                             110   -0.04 7  343 274 
 DBB  SZ I         811 28.22        24.3 0.40            111            343 274 
 ANIL HZ EP        810 47.45                             109    0.57 6  362 225 
 ANIL HE ES        811 26.59                             109    0.31 6  362 225 
 ANIL HZ I         811 34.51        24.2 0.36            110            362 225 
 PRA  HZ EP        810 49.88                             107   -0.66 6  396 210 
 PRA  HN ES        811 32.83                             107    0.03 6  396 210 
 PRA  HZ I         811 36.26        14.0 0.66            108            396 210 
 ORTC HZ EP        810 51.11                             107    0.15 6  400 216 
 ORTC HN ES        811 33.54                             107   -0.01 6  400 216 
 ORTC HZ I         811 40.61         8.7 0.54            108            400 216 
 SJC  HZ EP   4    810 50.74                             106   -1.31 0  409 326 
 SJC  HN ES   4    811 32.44                             106   -3.05 0  409 326 
 SJC  HZ I         811 36.48         8.2 0.40            107            409 326 
 MACC HZ EP   4    811  3.23                             102   -2.36 0  524 189 
 MACC HE ES   4    811 53.09                             102   -6.49 0  524 189 
 MACC HZ I         812 15.31         2.4 0.58            103            524 189 
                                                                                
