 2011 1231 0312  1.1 L   6.821 -73.148140.7  RSN  6 0.4 1.7LRSN                1
 GAP=135        0.81       5.6     5.0  8.9 -0.3834E+00  0.1445E+02 -0.5075E+01E
 Epicentro: LOS SANTOS - SANTANDER                                             3
 ACTION:UPD 12-07-13 16:19 OP:ep   STATUS:               ID:20111231031201 L   I
 2011-12-31-0310-00M.COL___186                                                 6
 STAT SP IPHASW D HRMM SECON CODA AMPLIT PERI AZIMU VELO AIN AR TRES W  DIS CAZ7
 BAR2 SZ IP        312 20.25                             169    0.1010 25.6 189 
 BAR2 SZ I         312 20.78        11.0 0.15                          25.6 189 
 BAR2 SZ ES   1    312 34.55                             169   -0.48 7 25.6 189 
 BRR  HZ EP   1    312 21.45                             152   -0.16 7 69.9 297 
 BRR  HZ I         312 39.77        12.7 0.12                          69.9 297 
 PAM  SZ EP   1    312 22.89                             150    0.23 7 75.7  41 
 PAM  SN ES   1    312 39.41                             150   -0.08 7 75.7  41 
 PAM  SZ I         312 41.82        15.2 0.32                          75.7  41 
 RUS  HZ EP   1    312 24.47                             142   -0.05 7  103 176 
 RUS  HN ES   1    312 43.36                             142    0.57 7  103 176 
 RUS  HZ I         312 44.55         3.2 0.39                           103 176 
 PTB  HZ EP   1    312 26.96                             131   -0.71 7  148 258 
 PTB  HE ES   1    312 48.21                             131   -0.19 7  148 258 
 ZAR  HN ES   1    312 58.85                             121    0.79 6  203 292 
 ZAR  HZ I         313  3.34        10.9 0.27                           203 292 
                                                                                
