 2011  131 0421 30.9 L   6.596 -73.335122.0  RSN  4 0.4 1.2LRSN                1
 GAP=192        0.83       7.8     7.6  8.8 -0.6674E+01  0.3980E+02  0.3045E+01E
 Epicentro: HATO - SANTANDER                                                   3
 ACTION:UP  11-02-08 08:44 OP:pat  STATUS:               ID:20110131042130 L   I
 2011-01-31-0419-04S.COL___135                                                 6
 STAT SP IPHASW D HRMM SECON CODA AMPLIT PERI AZIMU VELO SNR AR TRES W  DIS CAZ7
 BAR2 SZ EP        421 47.34                             172    -0.210   17  92 
 BAR2 SZ ES        422  0.70                             172     0.110   17  92 
 BAR2 SZ I         422  1.84         7.3 0.26                            17  92 
 RUS  HZ EP        421 50.83                             144    -0.210   83 160 
 RUS  HZ I         421 51.27         2.3 0.30                            83 160 
 RUS  HN ES        422  6.95                             144     0.210   83 160 
 NOR  SZ EP   1    422  2.37                             117     0.3 6  205 236 
 NOR  SN ES   1    422 25.96                             117    -0.4 6  205 236 
 HEL  HZ EP   2    422  8.40                             112     1.2 4  247 260 
                                                                                
