 2010  331 0531 22.6 L   6.761 -73.061145.3  RSN  6 0.4 1.8LRSN                1
 GAP=133        0.83       8.8     9.9 12.2  0.1490E+02 -0.5002E+02 -0.6673E+02E
 Epicentro: LOS SANTOS - SANTANDER                                             3
 ACTION:UP  10-08-24 09:56 OP:vdl  STATUS:               ID:20100331053122 L   I
 2010-03-31-0526-26S.COL___098                                                 6
 STAT SP IPHASW D HRMM SECON CODA AMPLIT PERI AZIMU VELO SNR AR TRES W  DIS CAZ7
 BAR2 SZ EP        531 42.63                             169     0.410   23 216 
 BAR2 SZ ES   2    531 57.33                             169    -0.1 5   23 216 
 BRR  HZ EP        531 44.61                             149     0.310   82 298 
 BRR  HE ES   2    532  1.03                             149    -0.3 5   82 298 
 BRR  HZ I         532  4.80         7.8 0.08                            82 298 
 RUS  HZ EP   3    531 45.77                             144    -0.2 2   96 181 
 RUS  HE ES   2    532  3.56                             144    -0.7 5   96 181 
 RUS  HZ I         532  6.64         5.8 0.45                            96 181 
 OCA  SZ EP        531 50.96                             128    -0.5 9  166 350 
 HEL  HZ EP   2    532  3.59                             113    -0.1 4  280 257 
 HEL  HZ I         532 42.26         2.1 0.30                           280 257 
 SDV  BZ EP        532 12.17                             108     0.0 6  356  49 
 SDV  BZ I         532 12.96         6.3 0.10                           356  49 
                                                                                
