 2012  131 0509  4.1 L   6.782 -73.161146.9  RSN 10 0.5 2.0LRSN                1
 GAP=135        1.06       4.4     6.0  7.9  0.9162E-01  0.9091E+01  0.3620E+01E
 Epicentro: LOS SANTOS - SANTANDER                                             3
 ACTION:UP  12-02-03 08:22 OP:REBC STATUS:               ID:20120131050904 L   I
 2012-01-31-0506-42S.COL___157                                                 6
 STAT SP IPHASW D HRMM SECON CODA AMPLIT PERI AZIMU VELO SNR AR TRES W  DIS CAZ7
 BAR2 SZ EP   1    5 9 23.85                             171     0.0 7   21 186 
 BAR2 SZ I         5 9 24.60        16.4 0.08                            21 186 
 BAR2 SZ ES   1    5 9 38.68                             171    -0.5 7   21 186 
 GIR2 SZ EP   1    5 9 24.09                             167     0.1 7   33 354 
 BRR  HZ EP   1    5 9 25.89                             153     0.5 7   71 301 
 BRR  HZ I         5 9 26.20        54.6 0.15                            71 301 
 BRR  HN ES   1    5 9 43.01                             153     1.1 7   71 301 
 PAM  SZ EP   1    5 9 26.80                             150     0.2 7   80  40 
 PAM  SZ I         5 9 27.07        14.4 0.19                            80  40 
 PAM  SN ES   1    5 9 43.77                             150    -0.4 7   80  40 
 RUS  HZ EP   1    5 9 27.63                             145    -0.2 7   99 175 
 RUS  HN ES   1    5 9 46.07                             145    -0.3 7   99 175 
 RUS  HZ I         5 9 47.92        11.8 0.37                            99 175 
 PTB  HZ EP   1    5 9 30.61                             133    -0.4 7  146 259 
 PTB  HN ES   1    5 9 51.86                             133    -0.1 7  146 259 
 PTB  HZ I         5 9 55.47         0.0 0.14                           146 259 
 OCA  SZ EP   1    5 9 32.44                             130    -0.2 7  162 354 
 OCA  SZ ES   1    5 9 55.32                             130     0.4 7  162 354 
 OCA  SZ I         510  0.64        14.6 0.25                           162 354 
 ZAR  HZ EP   1    5 9 36.15                             123    -0.4 6  203 293 
 ZAR  HN ES   1    510  1.01                             123    -0.8 6  203 293 
 ZAR  HZ I         510  9.10        15.6 0.17                           203 293 
 CHI  HZ EP   1    5 9 41.96                             118     0.3 6  246 195 
 CHI  HZ I         5 9 44.09         2.8 0.19                           246 195 
 CHI  HN ES   1    510 11.49                             118     0.6 6  246 195 
 PRA  HZ EP   1    5 9 57.47                             107     0.1 4  389 209 
                                                                                
