 2012  531 0602 48.4 L   6.786 -73.177137.0  RSN  7 0.4 1.7LRSN                1
 GAP=133        0.91       5.1     5.1  9.9 -0.1004E+01  0.2031E+02  0.3596E+01E
 Epicentro: LOS SANTOS - SANTANDER                                             3
 ACTION:UP  12-07-05 12:09 OP:pat  STATUS:               ID:20120531060247 L   I
 2012-05-31-0600-00M.COL___201                                                 6
 STAT SP IPHASW D HRMM SECON CODA AMPLIT PERI AZIMU VELO AIN AR TRES W  DIS CAZ7
 BAR2 SZ EP   1    6 3  7.22                             171     0.3 7   21 182 
 BAR2 SZ ES   1    6 3 21.61                             171     0.2 7   21 182 
 BAR2 SZ I         6 3 23.54        18.8 0.27                            21 182 
 PAM  SZ EP   1    6 3 10.01                             148     0.1 7   81  41 
 PAM  SN ES   1    6 3 25.95                             148    -0.7 7   81  41 
 RUS  HZ EP   1    6 3 11.51                             142     0.3 7   99 174 
 RUS  HN ES   1    6 3 29.21                             142     0.2 7   99 174 
 RUS  HZ I         6 3 31.68         6.6 0.42                            99 174 
 PTB  HZ EP   1    6 3 14.39                             131     0.1 7  144 259 
 PTB  HN ES   1    6 3 34.46                             131    -0.1 7  144 259 
 PTB  HZ I         6 3 38.09         5.7 0.11                           144 259 
 ZAR  HN ES   1    6 3 45.01                             121     0.3 6  201 293 
 ZAR  HZ I         6 3 52.20         6.1 0.13                           201 293 
 CHI  HN ES   1    6 3 53.42                             115    -0.8 6  246 194 
 CHI  HZ I         6 3 58.21         2.9 0.41                           246 194 
 HEL  HE ES   1    6 3 57.95                             113    -0.5 6  268 256 
 HEL  HZ I         6 4  6.55         3.7 0.46                           268 256 
                                                                                
