 2012 1031 0035 41.7 L   6.785 -73.116145.8  RSN 10 0.4 1.9LRSN                1
 GAP=141        0.77       3.0     5.0  5.7  0.7115E+00  0.1346E+02  0.3765E+01E
 Epicentro: LOS SANTOS - SANTANDER                                             3
 ACTION:UPD 12-11-22 17:06 OP:ep   STATUS:               ID:20121031003541 L   I
 2012-10-31-0030-00M.COL___231                                                 6
 STAT SP IPHASW D HRMM SECON CODA AMPLIT PERI AZIMU VELO AIN AR TRES W  DIS CAZ7
 BAR2 SZ EP   1    036  1.21                             171   -0.08 7 22.5 199 
 BAR2 SZ ES   1    036 16.42                             171   -0.17 7 22.5 199 
 BAR2 SZ I         036 20.21        13.8 0.48                          22.5 199 
 GIR2 SZ EP   1    036  1.61                             166    0.20 7 33.6 345 
 BRR  HZ EP   1    036  3.05                             151    0.02 7 74.9 298 
 BRR  HN ES   1    036 20.37                             151    0.67 7 74.9 298 
 BRR  HN I         036 23.65        41.0 0.18                          74.9 298 
 PAM  SZ EP   1    036  3.88                             151    0.03 7 76.6  37 
 PAM  SN ES        036 21.39                             151    0.2510 76.6  37 
 PAM  SN I         036 23.76         8.8 0.50                          76.6  37 
 RUS  HZ EP   1    036  5.00                             144   -0.29 7 98.8 178 
 RUS  HN ES        036 23.29                             144   -0.4310 98.8 178 
 RUS  HN I         036 25.29         7.1 0.14                          98.8 178 
 OCA  HN ES   2    036 32.02                             129   -0.39 5  162 352 
 ZAR  HZ EP        036 13.77                             122   -0.73 8  208 292 
 ZAR  HN ES   1    036 39.90                             122   -0.20 6  208 292 
 ZAR  HN I         036 45.78        14.5 0.24                           208 292 
 CHI  HZ EP   1    036 19.49                             117    0.20 6  248 196 
 CHI  HN ES        036 48.82                             117    0.18 8  248 196 
 CHI  HN I         036 52.74         7.1 0.36                           248 196 
 HEL  HZ EP   1    036 22.56                             114    0.37 6  275 256 
 HEL  HN I         037  1.25         3.7 0.28                           275 256 
 PRA  HZ IP        036 35.98                             106    0.77 6  392 210 
 PRA  HZ EP        036 35.98                             106            392 210 
 PRA  HN ES   1    037 17.42                             106    0.44 4  392 210 
                                                                                
