 2016 1231 0814 13.4 L   5.933 -73.692118.0  RSN  5 0.3 1.2LRSN                1
 GAP=127        0.55       2.3     2.9  6.5  0.1573E+01  0.8053E+01 -0.2131E+00E
 Epicentro: GUAVATA - SANTANDER                                                3
 ACTION:UPD 17-01-11 20:20 OP:rebc STATUS:               ID:20161231081413 L   I
 OLDACT:DUP 16-12-31 15:35 OP:dnl  STATUS:               ID:20161231080746d    3
 2016-12-31-0808-00M.COL___362                                                 6
 STAT SP IPHASW D HRMM SECON CODA AMPLIT PERI AZIMU VELO AIN AR TRES W  DIS CAZ7
 RUS  HZ EP   2    814 31.81                             149   -0.32 5 67.5  94 
 RUS  HN ES        814 46.64                             149   -0.0710 67.5  94 
 RUS  HZ I         814 47.33         3.4 0.34            151           67.5  94 
 BAR2 EZ EP        814 33.61                             139    0.0710 92.1  38 
 BAR2 EZ ES        814 49.30                             139    0.0810 92.1  38 
 PTB  HZ EP   2    814 35.28                             134    0.73 5  108 308 
 PTB  HN ES        814 51.13                             134    0.1110  108 308 
 PTB  HZ I         814 53.76         3.2 0.14            132            108 308 
 CHI  HN ES        814 57.95                             126   -0.06 9  144 182 
 CHI  HZ I         815  3.48         1.7 0.28            123            144 182 
 ZAR  HZ EP   2    814 45.84                             114    0.35 4  215 323 
 ZAR  HN ES        815 10.07                             114   -0.42 8  215 323 
 ZAR  HZ I         815 16.82         2.9 0.28            113            215 323 
                                                                                
