 2011 1231 0405 16.5 L   6.794 -73.160146.5  RSN  6 0.3 1.7LRSN                1
 GAP=135        0.66       4.5     4.7  6.4  0.4261E+01  0.6903E+01  0.1769E+01E
 Epicentro: LOS SANTOS - SANTANDER                                             3
 ACTION:UPD 12-07-13 16:19 OP:ep   STATUS:               ID:20111231040516 L   I
 2011-12-31-0400-00M.COL___186                                                 6
 STAT SP IPHASW D HRMM SECON CODA AMPLIT PERI AZIMU VELO AIN AR TRES W  DIS CAZ7
 BAR2 SZ EP        4 5 36.16                             171   -0.0410 22.4 186 
 BAR2 SZ ES   1    4 5 51.06                             171   -0.51 7 22.4 186 
 BAR2 SZ I         4 5 52.26        10.4 0.29                          22.4 186 
 BRR  HZ EP   1    4 5 37.98                             153    0.32 7 70.1 300 
 BRR  HN ES   1    4 5 54.64                             153    0.46 7 70.1 300 
 BRR  HZ I         4 5 55.66        10.9 0.08                          70.1 300 
 PAM  SZ EP   1    4 5 39.09                             150    0.21 7 78.9  40 
 PAM  SZ I         4 5 39.23         5.4 0.17                          78.9  40 
 PAM  SN ES   1    4 5 56.13                             150   -0.22 7 78.9  40 
 RUS  HZ EP   1    4 5 40.24                             144   -0.04 7  100 175 
 RUS  HN ES   1    4 5 59.18                             144    0.35 7  100 175 
 RUS  HZ I         4 6  0.67         5.2 0.23                           100 175 
 PTB  HZ EP   1    4 5 42.92                             132   -0.45 7  146 259 
 ZAR  HN ES   1    4 6 13.95                             123   -0.16 6  203 292 
 ZAR  HZ I         4 6 20.36         6.7 0.31                           203 292 
                                                                                
