 2016 1031 0335 13.3 L   6.747 -73.179151.0  RSN  4 0.4 0.8LRSN                1
 GAP=229        1.01       8.4     8.3  8.4  0.3750E+02  0.1255E+02  0.5724E+01E
 Epicentro: VILLANUEVA - SANTANDER                                             3
 ACTION:UPD 16-11-09 19:24 OP:rebc STATUS:               ID:20161031033513 L   I
 OLDACT:UP  16-10-31 15:36 OP:edw  STATUS:               ID:20161031032801d    3
 OLDACT:DUP 16-10-31 15:34 OP:edw  STATUS:               ID:20161031032801d    3
 2016-10-31-0328-00M.COL___316                                                 6
 STAT SP IPHASW D HRMM SECON CODA AMPLIT PERI AZIMU VELO AIN AR TRES W  DIS CAZ7
 BAR2 EZ ES        335 48.49                             173   -0.6810 17.1 181 
 BRR  HZ EP        335 34.90                             153   -0.1010 71.1 304 
 BRR  HN ES        335 52.53                             153    0.5910 71.1 304 
 RUS  HZ EP        335 37.36                             146    0.1810 95.1 174 
 RUS  HN ES        335 56.16                             146    0.3410 95.1 174 
 RUS  HZ I         335 57.02         1.1 0.26            145           95.1 174 
 PTB  HZ EP        335 40.07                             134   -0.21 9  143 261 
 PTB  HN ES        336  1.18                             134   -0.15 9  143 261 
 PTB  HZ I         336  2.70         0.8 0.32            133            143 261 
                                                                                
