 2014 1231 0744 16.3 L   6.788 -73.155149.2  RSN  9 0.3 1.6LRSN                1
 GAP=182        0.81       2.4     4.3  4.8  0.2041E+01  0.2229E+01 -0.3644E+00E
 Epicentro: LOS SANTOS - SANTANDER                                             3
 ACTION:UPD 15-02-10 17:08 OP:nd   STATUS:               ID:20141231074416 L   I
 OLDACT:REG 14-12-31 13:52 OP:stll STATUS:               ID:20141231073745     3
 2014-12-31-0737-45M.COL___268                                                 6
 STAT SP IPHASW D HRMM SECON CODA AMPLIT PERI AZIMU VELO AIN AR TRES W  DIS CAZ7
 BAR2 EZ EP        744 36.17                             171   -0.1310 21.9 188 
 BAR2 EZ ES        744 51.44                             171   -0.4810 21.9 188 
 BAR2 EZ I         744 52.94        20.0 0.20            169           21.9 188 
 BRR  HZ EP        744 38.24                             153    0.4510 70.9 300 
 BRR  HN ES        744 54.97                             153    0.4010 70.9 300 
 BRR  HZ I         744 59.20         7.3 0.44            149           70.9 300 
 RUS  HZ EP        744 40.23                             145   -0.0610 99.4 175 
 RUS  HN ES        744 59.11                             145    0.1010 99.4 175 
 RUS  HZ I         745  0.14         3.6 0.38            146           99.4 175 
 PTB  HZ EP        744 43.02                             133   -0.40 9  147 259 
 PTB  HN ES        745  4.44                             133   -0.15 9  147 259 
 PTB  HZ I         745 12.43         3.6 0.22            131            147 259 
 OCA  HN ES        745  7.79                             130    0.44 9  161 354 
 SPBC HZ EP        744 45.32                             130    0.42 9  162 219 
 SPBC HN ES        745  6.99                             130   -0.22 9  162 219 
 ZAR  HZ EP        744 48.98                             123    0.07 9  204 293 
 ZAR  HE ES        745 14.50                             123    0.14 9  204 293 
 ZAR  HZ I         745 20.51         4.4 0.48            122            204 293 
 SML  HZ EP        744 52.78                             118   -0.41 8  244 336 
 SML  HN ES        745 21.40                             118   -0.57 8  244 336 
 SML  HZ I         745 32.06         4.8 0.20            118            244 336 
 CHI  HZ EP        744 54.12                             118    0.11 8  247 195 
 CHI  HN ES        745 23.57                             118    0.13 8  247 195 
 CHI  HZ I         745 29.44         2.3 0.56            119            247 195 
                                                                                
