 2017  331 0746 45.7 L   6.514 -73.723 96.4  RSN  7 0.4 1.4LRSN                1
 GAP= 70        1.16       3.6     3.6  8.8  0.9372E+00  0.6829E+01  0.8876E-01E
 Epicentro: SANTA HELENA DEL OPON - SANTANDER                                  3
 ACTION:UPD 17-05-25 18:47 OP:jn   STATUS:               ID:20170331074645 L   I
 OLDACT:UP  17-05-02 20:30 OP:nlst STATUS:               ID:20170331074645 L   3
 OLDACT:UP  17-03-31 18:27 OP:ar   STATUS:               ID:20170331073742     3
 OLDACT:REG 17-03-31 13:13 OP:ar   STATUS:               ID:20170331073742     3
 2017-03-31-0738-00M.COL___343                                                 6
 STAT SP IPHASW D HRMM SECON CODA AMPLIT PERI AZIMU VELO AIN AR TRES W  DIS CAZ7
 BAR2 EZ EP   1    747  1.62                             146    0.25 7 60.4  82 
 BAR2 EZ ES        747 13.73                             146    0.1610 60.4  82 
 BAR2 EZ I         747 15.16        17.4 0.34            148           60.4  82 
 BRR  HZ EP        747  1.24                             143   -0.1610 65.6   1 
 BRR  HN ES        747 13.89                             143    0.2710 65.6   1 
 BRR  HZ I         747 15.36         6.3 0.14            145           65.6   1 
 PTB  HZ IP        747  1.80                             137   -0.8510 81.1 272 
 PTB  HN ES        747 15.12                             137   -0.7310 81.1 272 
 PTB  HZ I         747 15.57         6.4 0.30            137           81.1 272 
 RUS  HZ EP        747  4.80                             131   -0.0710 98.7 134 
 RUS  HN ES        747 19.74                             131   -0.0510 98.7 134 
 RUS  HZ I         747 20.93         1.6 0.22            133           98.7 134 
 SPBC HZ EP        747  4.88                             130    0.1710  103 202 
 SPBC HE ES        747 20.06                             130    0.5410  103 202 
 SPBC HZ I         747 24.50         7.1 0.28            130            103 202 
 PAM  EZ EP   4    747 16.23                             120    6.67 0  145  51 
 PAM  EN ES        747 27.83                             120   -0.32 9  145  51 
 PAM  EZ I         747 28.58         4.5 0.20            121            145  51 
 ZAR  HZ EP        747 11.41                             116    0.26 9  166 311 
 ZAR  HN ES        747 31.77                             116    0.79 9  166 311 
 ZAR  HZ I         747 35.72         3.8 0.44            116            166 311 
                                                                                
