 2016  731 0540 26.4 L   6.784 -73.135145.2  RSN  7 0.3 1.4LRSN                1
 GAP=237        0.71       3.4     3.8  4.6  0.3387E+01  0.7118E+01  0.1768E+01E
 Epicentro: LOS SANTOS - SANTANDER                                             3
 ACTION:UPD 17-03-29 16:57 OP:lp   STATUS:               ID:20160731054026 L   I
 OLDACT:REG 16-07-31 12:52 OP:edw  STATUS:               ID:20160731053730     3
 2016-07-31-0538-00M.COL___347                                                 6
 STAT SP IPHASW D HRMM SECON CODA AMPLIT PERI AZIMU VELO AIN AR TRES W  DIS CAZ7
 BAR2 EZ EP        540 45.72                             171   -0.2210 21.8 194 
 BAR2 EZ ES        541  1.12                             171   -0.0510 21.8 194 
 BRR  HZ EP        540 47.77                             152    0.1710 73.1 299 
 BRR  HN ES        541  4.50                             152    0.3710 73.1 299 
 BRR  HZ I         541  5.62         4.2 0.18            149           73.1 299 
 RUS  HZ EP        540 50.14                             144    0.1710 98.7 177 
 RUS  HN ES        541  8.22                             144   -0.1210 98.7 177 
 RUS  HZ I         541  8.98         2.7 0.24            146           98.7 177 
 SPBC HZ EP        540 54.80                             129    0.00 9  163 220 
 SPBC HN ES        541 16.74                             129   -0.20 9  163 220 
 SPBC HZ I         541 19.59         3.1 0.15            129            163 220 
 ZAR  HZ EP        540 58.35                             122   -0.65 8  206 292 
 ZAR  HN ES        541 24.33                             122   -0.08 8  206 292 
 ZAR  HZ I         541 31.97         3.5 0.28            122            206 292 
 HEL  HZ EP        541  6.80                             115    0.13 8  273 256 
 HEL  HN ES        541 37.81                             115   -0.26 8  273 256 
 GUY2CHZ EP        541 10.66                             112    0.68 7  301 235 
 GUY2CHN ES        541 44.15                             112    0.19 7  301 235 
 GUY2CHZ I         541 52.32         0.9 0.38                           301 235 
                                                                                
