 2013  331 0913 48.0 L   6.767 -73.156152.1  RSN  4 0.3 1.2LRSN                1
 GAP=234        0.70       8.6     7.4  7.4  0.3406E+02  0.1288E+02  0.1336E+02E
 Epicentro: LOS SANTOS - SANTANDER                                             3
 ACTION:UP  13-04-09 14:16 OP:ep   STATUS:               ID:20130331091348 L   I
 2013-03-31-0910-00M.COL___245                                                 6
 STAT SP IPHASW D HRMM SECON CODA AMPLIT PERI AZIMU VELO AIN AR TRES W  DIS CAZ7
 BAR2 SZ EP   1    914  7.95                             172   -0.33 7 19.5 188 
 BAR2 SZ ES        914 23.82                             172   -0.3110 19.5 188 
 BRR  HN ES   1    914 27.44                             153    0.54 7 72.0 302 
 RUS  HZ EP   1    914 12.24                             146    0.16 7 97.0 175 
 RUS  HN ES   1    914 31.28                             146    0.37 7 97.0 175 
 RUS  HZ I         914 31.98         1.8 0.58            140           97.0 175 
 PTB  HZ EP   1    914 15.35                             134    0.07 7  146 260 
 PTB  HN ES   1    914 36.30                             134   -0.30 7  146 260 
 PTB  HZ I         914 43.48         2.8 0.38            127            146 260 
                                                                                
