 2017  731 0153 15.9 L   6.066 -73.602114.0  RSN  7 0.4 1.4LRSN                1
 GAP=226        0.94       3.7     6.1  7.5  0.6847E+01 -0.3776E+01 -0.6890E+01E
 Epicentro: CHIPATA - SANTANDER                                                3
 ACTION:UPD 17-08-30 15:38 OP:rebc STATUS:               ID:20170731015315 L   I
 OLDACT:REG 17-07-31 12:38 OP:osc  STATUS:               ID:20170731014737     3
 2017-07-31-0148-00M.COL___377                                                 6
 STAT SP IPHASW D HRMM SECON CODA AMPLIT PERI AZIMU VELO AIN AR TRES W  DIS CAZ7
 SPBC HZ EP        153 34.07                             147    0.3810 69.3 229 
 SPBC HE ES        153 47.92                             147    0.3310 69.3 229 
 SPBC HZ I         153 53.95         5.6 0.17            152           69.3 229 
 PTB  HZ EP        153 36.08                             133   -0.5810  108 299 
 PTB  HE ES        153 53.11                             133    0.2410  108 299 
 PTB  HZ I         153 53.69         2.6 0.10            139            108 299 
 NOR  HZ EP        153 40.63                             123   -0.20 9  151 248 
 NOR  HE ES        153 59.78                             123   -0.52 9  151 248 
 NOR  HZ I         154  0.46         6.0 0.14            129            151 248 
 CHI  HN ES        154  2.32                             122   -0.38 9  159 185 
 ZAR  HZ EP        153 47.65                             114    0.50 8  210 319 
 ZAR  HE ES        154 11.09                             114   -0.46 8  210 319 
 ZAR  HZ I         154 13.01         4.2 0.28            119            210 319 
 HEL  HZ EP        153 47.98                             114   -0.03 8  214 274 
 HEL  HN ES        154 13.20                             114    0.12 8  214 274 
 GUY2CHZ EP        153 48.86                             113    0.42 8  216 245 
 GUY2CHE ES        154 14.10                             113    0.26 8  216 245 
 GUY2CHZ I         154 16.71         1.9 0.38                           216 245 
                                                                                
