 2011 1031 0418 30.7 L   6.766 -73.129146.4  RSN  5 0.3 1.4LRSN                1
 GAP=140        0.61       4.2     4.5  5.9  0.4437E+01  0.6165E+01 -0.1196E+01E
 Epicentro: LOS SANTOS - SANTANDER                                             3
 ACTION:UPD 12-07-13 16:07 OP:ep   STATUS:               ID:20111031041830 L   I
 2011-10-31-0415-27S.COL___157                                                 6
 STAT SP IPHASW D HRMM SECON CODA AMPLIT PERI AZIMU VELO AIN AR TRES W  DIS CAZ7
 BAR2 SZ EP   1    418 50.17                             172   -0.22 7 20.1 197 
 BAR2 SZ ES   1    419  5.27                             172   -0.44 7 20.1 197 
 BAR2 SZ I         419  6.26         5.8 0.22                          20.1 197 
 BRR  HZ EP   1    418 52.20                             151    0.04 7 74.6 300 
 BRR  HZ I         418 52.58         6.2 0.11                          74.6 300 
 BRR  HE ES   1    419  9.44                             151    0.58 7 74.6 300 
 PAM  SZ EP   1    418 53.27                             150    0.13 7 79.2  37 
 PAM  SZ I         418 53.50         3.5 0.16                          79.2  37 
 PAM  SN ES   1    419 10.50                             150   -0.10 7 79.2  37 
 RUS  HZ EP   1    418 54.62                             145    0.33 7 96.7 177 
 RUS  HN ES   1    419 12.68                             145    0.04 7 96.7 177 
 RUS  HZ I         419 13.50         3.3 0.46                          96.7 177 
 ZAR  HZ EP   1    419  3.23                             122   -0.32 6  207 293 
 ZAR  HN ES   1    419 28.96                             122   -0.18 6  207 293 
 ZAR  HZ I         419 36.41         3.8 0.35                           207 293 
                                                                                
