 2012  131 0023  5.5 L   6.739 -73.123138.5  RSN  7 0.5 1.4LRSN                1
 GAP=142        1.02       7.4     6.1  8.7  0.5580E+01  0.9652E+01  0.5697E+01E
 Epicentro: JORDAN - SANTANDER                                                 3
 ACTION:UP  12-02-03 08:22 OP:REBC STATUS:               ID:20120131002305 L   I
 2012-01-31-0020-00M.COL___188                                                 6
 STAT SP IPHASW D HRMM SECON CODA AMPLIT PERI AZIMU VELO SNR AR TRES W  DIS CAZ7
 BAR2 SZ EP   1    023 24.12                             172     0.0 7   17 202 
 BAR2 SZ ES   1    023 38.22                             172    -0.5 7   17 202 
 BAR2 SZ I         023 40.67         8.8 0.18                            17 202 
 GIR2 SZ EP        023 24.96                             164     0.410   38 348 
 BRR  HZ EP   1    023 26.25                             149     0.1 7   77 302 
 BRR  HZ I         023 28.07         8.0 0.12                            77 302 
 BRR  HN ES        023 42.69                             149     0.410   77 302 
 PAM  SZ EP   1    023 26.81                             148    -0.4 7   81  35 
 PAM  SN ES   1    023 43.68                             148    -0.4 7   81  35 
 PAM  SZ I         023 46.51         3.2 0.24                            81  35 
 RUS  HZ EP   1    023 28.32                             144     0.3 7   94 177 
 RUS  HZ I         023 29.69         2.3 0.13                            94 177 
 RUS  HN ES   2    023 46.26                             144     0.7 5   94 177 
 PTB  HZ EP   1    023 31.08                             130    -0.9 7  149 262 
 PTB  HN ES   2    023 51.68                             130    -1.0 5  149 262 
 ZAR  HZ EP   1    023 38.23                             120     0.3 6  209 294 
 ZAR  HE ES   1    024  3.49                             120     0.2 6  209 294 
                                                                                
