 2012  131 0056 29.0 L   6.792 -73.090153.1  RSN  7 0.3 1.3LRSN                1
 GAP=144        0.70       4.9     4.8  7.2  0.3194E+01  0.2600E+01 -0.1684E+01E
 Epicentro: LOS SANTOS - SANTANDER                                             3
 ACTION:UP  12-02-03 08:22 OP:REBC STATUS:               ID:20120131005629 L   I
 2012-01-31-0050-00M.COL___188                                                 6
 STAT SP IPHASW D HRMM SECON CODA AMPLIT PERI AZIMU VELO SNR AR TRES W  DIS CAZ7
 BAR2 SZ EP   1    056 49.35                             171    -0.2 7   24 205 
 BAR2 SZ ES   1    057  5.30                             171    -0.3 7   24 205 
 BAR2 SZ I         057  7.37         5.3 0.32                            24 205 
 GIR2 SZ EP   1    056 49.61                             167     0.0 7   34 340 
 PAM  SZ EP   1    056 51.48                             153    -0.4 7   74  35 
 PAM  SN ES   1    057  9.82                             153     0.1 7   74  35 
 BRR  HZ EP   1    056 51.62                             152     0.3 7   77 297 
 BRR  HZ I         057  8.83         4.7 0.26                            77 297 
 BRR  HN ES   1    057  9.16                             152     0.5 7   77 297 
 RUS  HZ EP   1    056 53.91                             146     0.5 7   99 180 
 RUS  HN ES   1    057 12.45                             146     0.0 7   99 180 
 RUS  HZ I         057 13.73         2.3 0.23                            99 180 
 PTB  HN ES   2    057 18.57                             132    -0.5 5  154 260 
 ZAR  HN ES   1    057 28.53                             123    -0.2 6  210 292 
                                                                                
