 2013  331 0847 20.0 L   6.832 -73.136148.1  RSN  6 0.5 1.5LRSN                1
 GAP=184        1.04       5.3     7.0 11.5  0.9082E+01  0.1404E+02 -0.4619E+01E
 Epicentro: LOS SANTOS - SANTANDER                                             3
 ACTION:UPD 13-04-09 14:06 OP:ep   STATUS:               ID:20130331084720 L   I
 2013-03-31-0840-00M.COL___245                                                 6
 STAT SP IPHASW D HRMM SECON CODA AMPLIT PERI AZIMU VELO AIN AR TRES W  DIS CAZ7
 BAR2 SZ EP        847 40.30                             169    0.2710 26.9 191 
 BAR2 SZ ES   1    847 55.99                             169    0.37 7 26.9 191 
 BAR2 SZ I         847 57.60        12.1 0.66            169           26.9 191 
 BRR  HZ IP     C  847 42.12                             153    0.7110 70.5 296 
 BRR  HN ES   2    847 58.61                             153    0.54 5 70.5 296 
 BRR  HZ I         847 59.80         5.9 0.12            154           70.5 296 
 RUS  HZ EP   1    847 44.15                             143   -0.12 7  104 177 
 RUS  HN ES   1    848  2.53                             143   -0.64 7  104 177 
 RUS  HZ I         848  3.88         2.9 0.26            145            104 177 
 PTB  HZ EP   1    847 47.01                             132   -0.35 7  150 258 
 PTB  HN ES   1    848  8.07                             132   -0.60 7  150 258 
 PTB  HZ I         848 11.17         4.9 0.26            133            150 258 
 OCA  HN ES        848  9.61                             131   -0.60 9  157 353 
 ZAR  HN ES        848 18.11                             123    0.10 9  204 291 
                                                                                
