 2016  131 0552 33.6 L   6.787 -73.118148.0  RSN 23 0.5 2.1LRSN                1
 GAP=103        1.15       2.6     3.4  5.2 -0.1652E+01  0.5271E+01  0.4938E+00E
 Epicentro: LOS SANTOS - SANTANDER                                             3
 ACTION:UPD 16-03-09 23:29 OP:cam  STATUS:               ID:20160131055233 L   I
 OLDACT:DUP 16-01-31 16:35 OP:ak   STATUS:               ID:20160131053602d    3
 OLDACT:REG 16-01-31 14:24 OP:ak   STATUS:               ID:20160131053600     3
 2016-01-31-0535-59S.COL___229                                                 6
 STAT SP IPHASW D HRMM SECON CODA AMPLIT PERI AZIMU VELO AIN AR TRES W  DIS CAZ7
 BAR2 EZ EP        552 53.68                             171    0.2010 22.7 198 
 BAR2 EZ ES        553  9.56                             171    0.5710 22.7 198 
 BAR2 EZ I         553 10.92        14.4 0.32            169           22.7 198 
 PAM  EZ EP     C  552 56.65                             151    0.6510 76.6  37 
 PAM  EN ES        553 13.79                             151    0.3110 76.6  37 
 PAM  EZ I         553 16.55        12.6 0.44            155           76.6  37 
 RUS  HZ EP        552 57.39                             145   -0.0610 99.0 178 
 RUS  HN ES        553 15.54                             145   -0.5210 99.0 178 
 RUS  HZ I         553 16.87        12.4 0.42            147           99.0 178 
 PTB  HZ EP        553  0.22                             132   -0.77 9  151 260 
 PTB  HN ES        553 21.42                             132   -0.94 9  151 260 
 PTB  HZ I         553 23.85        25.0 0.16            131            151 260 
 OCA  HZ EP        553  3.02                             130    0.77 9  162 352 
 OCA  HN ES        553 23.89                             130   -0.71 9  162 352 
 OCA  HZ I         553 29.48        31.9 0.28            131            162 352 
 SPBC HZ EP        553  2.52                             129    0.18 9  164 220 
 SPBC HN ES        553 24.37                             129   -0.40 9  164 220 
 SPBC HZ I         553 31.31        21.5 0.22            130            164 220 
 ZAR  HZ EP        553  6.90                             122    0.37 8  207 292 
 ZAR  HN ES        553 32.88                             122    0.65 8  207 292 
 ZAR  HZ I         553 38.55        28.9 0.32            122            207 292 
 NOR  HZ EP        553  9.19                             119   -0.44 8  236 235 
 NOR  HN ES        553 37.66                             119   -0.08 8  236 235 
 NOR  HZ I         553 43.03        12.9 0.16            119            236 235 
 SML  HZ EP        553 10.51                             118   -0.12 8  246 335 
 SML  HN ES        553 39.53                             118    0.02 8  246 335 
 SML  HZ I         553 45.97        14.7 0.09            119            246 335 
 CHI  HZ EP        553 11.60                             118    0.25 8  248 196 
 CHI  HN ES        553 40.55                             118   -0.26 8  248 196 
 CHI  HZ I         553 43.18         2.4 0.24            119            248 196 
 ROSC BZ EP        553 12.22                             117    0.35 8  253 212 
 ROSC BN ES   4    553 46.08                             117    4.34 0  253 212 
 ROSC BZ I         553 47.89         7.7 0.30            118            253 212 
 HEL  HZ EP        553 14.69                             115    0.48 8  275 256 
 HEL  HE ES        553 45.83                             115   -0.06 8  275 256 
 HEL  HZ I         553 53.19         6.4 0.18            115            275 256 
 URE  HZ EP   2    553 14.06                             114   -1.09 4  287 292 
 URE  HN ES   4    553 46.01                             114   -1.56 0  287 292 
 URE  HZ I         553 56.30        10.2 0.18            114            287 292 
 SOCV BZ EP        553 15.43                             113   -1.11 7  300  56 
 SOCV BN ES   4    553 47.22                             113   -2.82 0  300  56 
 SOCV BT ES   4    553 47.28                             113   -2.76 0  300  56 
 GUY2CHZ EP        553 18.22                             113    0.73 7  303 235 
 GUY2CHN ES        553 52.58                             113    0.84 7  303 235 
 GUY2CHZ I         554  0.64         7.1 0.64                           303 235 
 PTGC HZ EP   1    553 17.00                             112   -0.27 5  306 159 
 PTGC HN ES   4    553 49.57                             112   -1.77 0  306 159 
 ELA  HZ EP   9    553 22.92                             111    2.22 0  331 230 
 ELA  HN ES   1    554  0.47                                    0.81 5  331 230 
 ELA  HZ I         554  4.41         4.7 0.64            112            331 230 
 CBOC HZ EP        553 21.50                             110    0.62 7  336 252 
 CBOC HN ES        553 57.41                             110   -0.36 7  336 252 
 CBOC HZ I         554  2.65         2.0 0.38            111            336 252 
 DBB  EZ EP        553 21.26                             110   -0.26 7  343 274 
 DBB  EZ ES        553 59.25                             110    0.34 7  343 274 
 DBB  EZ I         554 12.18         3.0 0.52            110            343 274 
 MON  HZ EP   4    553 21.44                             109   -1.62 0  357 308 
 MON  HN ES        554  0.62                             109   -1.03 6  357 308 
 MON  HZ I         554  5.20         1.7 0.14            110            357 308 
 PRA  HZ EP        553 26.63                             107   -0.59 6  392 210 
 PRA  HN ES        554  8.69                             107   -0.36 6  392 210 
 PRA  HZ I         554 13.07         3.4 0.66            108            392 210 
 ORTC HZ EP        553 27.77                             107    0.11 6  396 217 
 ORTC HN ES        554 10.28                             107    0.44 6  396 217 
 ORTC HZ I         554 17.56         2.1 0.33            108            396 217 
 PAL  HZ EP   1    553 29.22                             106    0.17 4  408 239 
 PAL  HN ES        554 12.57                             106    0.26 6  408 239 
 PAL  HZ I         554 18.44         3.2 0.26            107            408 239 
                                                                                
