 2017 1231 0959 56.2 L   6.639 -73.523118.0  RSN 10 0.5 1.6LRSN                1
 GAP= 59        0.75       2.5     2.5  5.9 -0.7512E+00 -0.9504E+00 -0.1731E+01E
 Epicentro: EL CARMEN - SANTANDER                                              3
 ACTION:UPD 18-01-04 13:26 OP:rebc STATUS:               ID:20171231095956 L   I
 OLDACT:UP  17-12-31 21:32 OP:mg   STATUS:               ID:20171231095212     3
 OLDACT:REG 17-12-31 20:02 OP:mg   STATUS:               ID:20171231095212     3
 2017-12-31-0958-00M.COL___460                                                 6
 STAT SP IPHASW D HRMM SECON CODA AMPLIT PERI AZIMU VELO AIN AR TRES W  DIS CAZ7
 BAR2 EZ EP       10 0 13.00                             161    0.0210 38.0  98 
 BAR2 EZ ES   2   10 0 25.71                             161   -0.35 5 38.0  98 
 BAR2 EZ I        10 0 27.21        30.5 0.40            164           38.0  98 
 PTB  HZ EP       10 0 16.62                             136   -0.3410  104 264 
 PTB  HN ES       10 0 33.03                             136   -0.1210  104 264 
 PTB  HZ I        10 0 36.15         5.1 0.08            138            104 264 
 PAM  EZ EP       10 0 18.77                             132   -0.2210  119  50 
 PAM  EN ES       10 0 36.99                             132    0.2410  119  50 
 PAM  EZ I        10 0 40.26         3.4 0.37            135            119  50 
 SPBC HZ EP       10 0 18.97                             130    0.0210  125 209 
 SPBC HN ES       10 0 37.11                             130    0.4210  125 209 
 SPBC HZ I        10 0 42.62         7.1 0.18            133            125 209 
 ZAR  HZ EP       10 0 23.84                             120   -0.05 9  175 303 
 ZAR  HE ES   1   10 0 45.15                             120   -0.32 7  175 303 
 ZAR  HZ I        10 0 51.11         4.1 0.11            122            175 303 
 OCA  HZ EP   1   10 0 24.36                             119   -0.05 7  178   7 
 OCA  HN ES   2   10 0 46.36                             119   -0.05 4  178   7 
 OCA  HZ I        10 0 52.71        10.5 0.16            122            178   7 
 YPLC HZ EP       10 0 25.25                             118    0.04 9  187 137 
 YPLC HE ES   1   10 0 47.76                             118   -0.07 7  187 137 
 YPLC HZ I        10 0 49.24         6.7 0.38            121            187 137 
 GUY2CHZ EP   2   10 0 35.11                             110    1.54 4  257 233 
 GUY2CHN ES   4   10 1  6.20                             110    3.48 0  257 233 
 GUY2CHZ I        10 1 10.91         0.9 0.17                           257 233 
 DRL03HZ EP   1   10 0 39.10                             106    0.63 5  304   1 
 DRL03HE ES   1   10 1 11.89                             106    0.46 5  304   1 
 PTGC HZ EP   2   10 0 37.87                             106   -1.33 3  311 150 
 PTGC HN ES   3   10 1 10.50                             106   -2.24 2  311 150 
 PTGC HZ I        10 1 17.77         2.3 0.36            108            311 150 
                                                                                
