 2014 1231 0418 46.1 L   6.752 -73.151141.8  RSN  6 0.5 1.5LRSN                1
 GAP=161        1.19       6.9     5.9  8.8  0.6096E+01 -0.8820E+01 -0.3487E+01E
 Epicentro: LOS SANTOS - SANTANDER                                             3
 ACTION:UPD 15-02-10 17:08 OP:nd   STATUS:               ID:20141231041846 L   I
 OLDACT:DUP 14-12-31 17:20 OP:stll STATUS:               ID:20141231040746d    3
 OLDACT:REG 14-12-31 13:48 OP:stll STATUS:               ID:20141231040745     3
 2014-12-31-0407-45M.COL___268                                                 6
 STAT SP IPHASW D HRMM SECON CODA AMPLIT PERI AZIMU VELO AIN AR TRES W  DIS CAZ7
 BAR2 EZ EP        419  5.13                             172   -0.0710 18.0 191 
 BAR2 EZ ES        419 19.32                             172   -0.7510 18.0 191 
 BAR2 EZ I         419 21.13        11.3 0.22            172           18.0 191 
 BRR  HZ EP        419  7.00                             151    0.0010 73.4 302 
 BRR  HN ES        419 24.06                             151    0.8010 73.4 302 
 RUS  HZ EP        419  9.69                             144    0.5610 95.3 175 
 RUS  HN ES        419 27.16                             144    0.1010 95.3 175 
 RUS  HZ I         419 28.58         3.8 0.20            144           95.3 175 
 PTB  HZ EP        419 12.09                             131   -0.57 9  146 261 
 PTB  HN ES        419 32.98                             131   -0.35 9  146 261 
 PTB  HZ I         419 35.78         3.5 0.36            132            146 261 
 TAM  HZ EP        419 13.37                             130   -0.08 9  154 103 
 TAM  HZ I         419 15.19         3.8 0.24            130            154 103 
 SPBC HN ES        419 35.86                             129    0.28 9  159 220 
                                                                                
