 2010  531 0625 56.9 L   6.844 -73.048134.2  RSN  5 0.3 2.1LRSN                1
 GAP=219        0.56       4.7    10.5  7.0 -0.3298E+02  0.4169E+02 -0.1405E+02E
 Epicentro: CEPITA - SANTANDER                                                 3
 ACTION:UP  10-08-24 10:07 OP:vdl  STATUS:               ID:20100531062556 L   I
 2010-05-31-0622-39S.COL___109                                                 6
 STAT SP IPHASW D HRMM SECON CODA AMPLIT PERI AZIMU VELO SNR AR TRES W  DIS CAZ7
 BAR2 SZ IP        626 15.45                             166     0.110   32 208 
 BAR2 SZ ES   1    626 29.68                             166    -0.1 7   32 208 
 OCA  SZ IP        626 23.98                             127    -0.1 9  157 349 
 OCA  SZ ES   2    626 45.33                             127     0.1 5  157 349 
 OCA  SZ I         626 52.78        12.5 0.32                           157 349 
 ROSC BZ EP   2    626 35.88                             113     0.4 4  263 213 
 ROSC BN ES   2    627  4.86                             113    -0.8 4  263 213 
 ROSC BZ I         627 12.12         6.3 0.35                           263 213 
 HEL  HZ EP   2    626 37.24                             111    -0.6 4  284 255 
 HEL  HZ I         627 14.09         8.2 0.47                           284 255 
 RREF BZ EP   2    626 44.00                             108     0.1 3  333 230 
 RREF BN ES   1    627 20.99                             108     0.4 5  333 230 
 RREF BZ I         627 23.95         4.7 0.29                           333 230 
                                                                                
