 2011  831 0931 59.5 L   6.988 -73.446105.1  RSN  5 0.4 2.0LRSN                1
 GAP=143        0.84       5.6     5.4  7.5  0.5883E+01 -0.3613E+00 -0.1716E+02E
 Epicentro: SAN VICENTE DE CHUCURI - SANTANDER                                 3
 ACTION:UPD 12-07-13 15:54 OP:ep   STATUS:               ID:20110831093159 L   I
 2011-08-31-0929-52S.COL___164                                                 6
 STAT SP IPHASW D HRMM SECON CODA AMPLIT PERI AZIMU VELO AIN AR TRES W  DIS CAZ7
 GIR2 SZ EP   1    932 14.78                             163    0.49 7 29.6  70 
 BRR  HZ IP     D  932 14.18                             162    0.0110 32.2 294 
 BRR  HZ I         932 14.31        60.2 0.10                          32.2 294 
 BRR  HN ES        932 25.82                             162    0.1710 32.2 294 
 BAR2 SZ EP   1    932 15.84                             152    0.32 7 52.6 146 
 BAR2 SZ ES   1    932 27.43                             152   -0.61 7 52.6 146 
 BAR2 SZ I         932 29.62        39.1 0.22                          52.6 146 
 OCA  SZ EP        932 22.94                             123    0.19 9  139   6 
 OCA  SZ ES   1    932 40.48                             123   -0.43 7  139   6 
 OCA  SZ I         932 42.71        11.2 0.16                           139   6 
 ZAR  HZ EP   1    932 24.59                             117   -0.78 7  166 290 
 ZAR  HE ES   1    932 45.80                             117    0.23 7  166 290 
 ZAR  HZ I         932 48.17        13.2 0.20                           166 290 
                                                                                
