 2015  131 0308 41.0 L   7.474 -73.136130.4  RSN  4 0.4 1.2LRSN                1
 GAP=270        0.95       5.3     9.9 11.6  0.7352E+00 -0.8092E+01 -0.5008E+01E
 Epicentro: EL PLAYON - SANTANDER                                              3
 ACTION:UPD 15-03-02 15:44 OP:nd   STATUS:               ID:20150131030841 L   I
 OLDACT:REG 15-01-31 13:05 OP:cam  STATUS:               ID:20150131030816     3
 2015-01-31-0308-16M.COL___280                                                 6
 STAT SP IPHASW D HRMM SECON CODA AMPLIT PERI AZIMU VELO AIN AR TRES W  DIS CAZ7
 BRR  HZ EP        3 9  1.19                             148    0.3710 75.4 237 
 BRR  HN ES        3 9 16.27                             148    0.0310 75.4 237 
 BRR  HZ I         3 9 17.39         3.1 0.42            150           75.4 237 
 PTB  HZ EP        3 9  9.77                             123   -0.12 9  179 235 
 PTB  HN ES        3 9 31.78                             123   -0.61 9  179 235 
 SML  HN ES        3 9 32.10                             122   -0.35 9  179 325 
 ZAR  HN ES        3 9 35.04                             121    0.58 9  190 271 
                                                                                
