 2013  331 0133 58.7 L   6.730 -73.185155.0  RSN  4 0.2 1.2LRSN                1
 GAP=227        0.45       4.6     4.8  6.3  0.1412E+02  0.1965E+01 -0.8419E+01E
 Epicentro: VILLANUEVA - SANTANDER                                             3
 ACTION:UPD 13-04-09 14:05 OP:ep   STATUS:               ID:20130331013358 L   I
 2013-03-31-0130-00M.COL___245                                                 6
 STAT SP IPHASW D HRMM SECON CODA AMPLIT PERI AZIMU VELO AIN AR TRES W  DIS CAZ7
 BRR  HZ EP        134 21.04                             154    0.1210 71.6 306 
 BRR  HN ES   1    134 37.99                             154   -0.22 7 71.6 306 
 BRR  HZ I         134 38.17         2.4 0.56            153           71.6 306 
 RUS  HN ES        134 41.84                             148    0.0610 93.3 173 
 PTB  HZ EP   1    134 25.68                             135   -0.32 7  142 262 
 PTB  HN ES   1    134 47.25                             135    0.00 7  142 262 
 PTB  HZ I         134 49.30         2.2 0.14            133            142 262 
 ZAR  HN ES        134 57.58                             124    0.15 9  203 295 
                                                                                
