 2013 1031 0440 28.6 L   6.803 -73.139147.4  RSN 15 0.4 2.4LRSN                1
 GAP= 71        1.06       3.0     3.1  5.2 -0.1065E+01  0.3921E+01  0.1364E+00E
 Epicentro: LOS SANTOS - SANTANDER                                             3
 ACTION:UPD 13-11-25 09:24 OP:ep   STATUS:               ID:20131031044028 L   I
 OLDACT:REG 13-10-31 05:56 OP:jn   STATUS:               ID:20131031044000     3
 2013-10-31-0440-00M.COL___273                                                 6
 STAT SP IPHASW D HRMM SECON CODA AMPLIT PERI AZIMU VELO AIN AR TRES W  DIS CAZ7
 BAR2 SZ EP        440 48.34                             170   -0.0410 23.8 192 
 BAR2 SZ ES        441  3.83                             170   -0.0210 23.8 192 
 BAR2 SZ I         441  4.52        68.4 0.28            168           23.8 192 
 BRR  HZ EP        440 50.24                             153    0.3410 71.7 298 
 BRR  HN ES        441  7.66                             153    1.1110 71.7 298 
 BRR  HZ I         441 11.71        23.4 0.12            146           71.7 298 
 PAM  SZ EP        440 51.23                             151    0.3410 76.6  39 
 PAM  SN ES        441  8.35                             151    0.0310 76.6  39 
 PAM  SZ I         441 10.53        49.0 0.48            151           76.6  39 
 RUS  HZ EP        440 52.24                             144   -0.2410  101 177 
 RUS  HN ES        441 10.51                             144   -0.6310  101 177 
 RUS  HZ I         441 12.37        22.4 0.36            142            101 177 
 PTB  HZ EP        440 55.05                             132   -0.67 9  149 259 
 PTB  HN ES        441 16.41                             132   -0.51 9  149 259 
 PTB  HZ I         441 22.31        47.4 0.40            127            149 259 
 TAM  HZ EP        440 56.47                             131    0.18 9  154 105 
 TAM  HN ES        441 17.99                             131    0.06 9  154 105 
 OCA  HZ EP        440 56.59                             130   -0.37 9  160 353 
 OCA  HN ES        441 18.39                             130   -0.74 9  160 353 
 OCA  HZ I         441 23.70        26.4 0.16            127            160 353 
 SPBC HZ EP        440 57.17                             129   -0.07 9  164 219 
 SPBC HE ES        441 19.86                             129    0.24 9  164 219 
 SPBC HZ I         441 24.40        56.2 0.20            125            164 219 
 ZAR  HN ES   1    441 26.07                             123   -0.53 6  205 292 
 ZAR  HZ I         441 32.71        38.3 0.28            118            205 292 
 NOR  HZ EP        441  4.45                             119   -0.01 8  236 235 
 NOR  HN ES        441 32.35                             119   -0.12 8  236 235 
 SML  HZ EP        441  5.26                             118   -0.01 8  244 335 
 SML  HE ES        441 34.22                             118    0.31 8  244 335 
 ROSC BZ EP   2    441  8.10                             117    1.27 4  253 211 
 HEL  HZ EP        441  9.37                             115    0.43 8  273 256 
 HEL  HN ES        441 40.87                             115    0.43 8  273 256 
 HEL  HZ I         441 47.02        14.9 0.34            112            273 256 
 GUY2CHZ EP        441 12.34                             113    0.01 7  302 235 
 GUY2CHZ I         441 55.21        24.5 0.76                           302 235 
 CBOC HZ EP        441 15.92                             110    0.29 7  334 252 
 CBOC HZ I         442  1.46         5.2 0.40            107            334 252 
                                                                                
