 2017 1031 0705 47.1 L   6.794 -73.162133.5  RSN 10 0.7 1.3LRSN                1
 GAP=110        1.67       5.5     5.9  9.1  0.6159E+01  0.1123E+02  0.1211E+02E
 Epicentro: LOS SANTOS - SANTANDER                                             3
 ACTION:UPD 17-11-07 19:39 OP:rebc STATUS:               ID:20171031070547 L   I
 OLDACT:UP  17-10-31 17:02 OP:dani STATUS:               ID:20171031065741     3
 OLDACT:UP  17-10-31 17:02 OP:dani STATUS:               ID:20171031065741     3
 OLDACT:REG 17-10-31 13:19 OP:dani STATUS:               ID:20171031065741     3
 2017-10-31-0658-00M.COL___441                                                 6
 STAT SP IPHASW D HRMM SECON CODA AMPLIT PERI AZIMU VELO AIN AR TRES W  DIS CAZ7
 BAR2 EZ EP        7 6  4.81                             170   -0.4310 22.4 186 
 BAR2 EZ ES        7 6 19.40                             170    0.0110 22.4 186 
 BAR2 EZ I         7 6 20.76         4.2 0.32            167           22.4 186 
 BRR  HZ EP        7 6  6.50                             151   -0.3710 69.9 300 
 BRR  HN ES        7 6 23.27                             151    0.9910 69.9 300 
 BRR  HZ I         7 6 27.39         4.1 0.17            151           69.9 300 
 PAM  EZ EP        7 6  7.77                             148   -0.3710 79.1  40 
 PAM  EN ES        7 6 24.64                             148    0.0910 79.1  40 
 PAM  EZ I         7 6 26.75         5.6 0.52            154           79.1  40 
 RUS  HZ EP        7 6  8.99                             141   -0.6410  100 175 
 RUS  HN ES        7 6 27.17                             141   -0.0310  100 175 
 RUS  HZ I         7 6 29.45         2.0 0.40            142            100 175 
 PTB  HZ EP        7 6 12.37                             130   -0.55 9  146 259 
 PTB  HN ES        7 6 32.43                             130   -0.62 9  146 259 
 PTB  HZ I         7 6 34.80         2.1 0.14            130            146 259 
 SPBC HZ EP        7 6 14.21                             126   -0.32 9  162 219 
 SPBC HN ES        7 6 36.13                             126    0.21 9  162 219 
 SPBC HZ I         7 6 43.75         3.4 0.24            127            162 219 
 YPLC HZ EP        7 6 15.46                             124   -0.61 9  177 151 
 YPLC HN ES        7 6 39.54                             124    0.88 9  177 151 
 YPLC HZ I         7 6 42.27         2.6 0.26            126            177 151 
 ZAR  HZ EP        7 6 20.54                             120    1.91 9  203 293 
 ZAR  HE ES        7 6 42.47                             120   -0.75 9  203 293 
 ZAR  HZ I         7 6 48.79         3.9 0.30            122            203 293 
 CHI  HZ EP        7 6 24.88                             115    0.85 8  248 195 
 CHI  HN ES        7 6 52.85                             115    0.02 8  248 195 
 CHI  HZ I         7 7  0.25         1.9 0.06            116            248 195 
 GUY2CHZ EP        7 6 30.47                             110    0.51 7  299 235 
                                                                                
