 2010  131 0400  2.5 L   6.837 -73.119149.2  RSN 13 0.8 3.2LRSN                1
 GAP=127        1.75       5.4     9.9 10.4 -0.5457E+01  0.4115E+02 -0.2027E+01E
 Epicentro: LOS SANTOS - SANTANDER                                             3
 ACTION:UP  10-08-24 09:46 OP:vdl  STATUS:               ID:20100131040002 L   I
 2010-01-31-0356-36S.COL___094                                                 6
 STAT SP IPHASW D HRMM SECON CODA AMPLIT PERI AZIMU VELO SNR AR TRES W  DIS CAZ7
 GIR2 SZ EP        4 0 22.80                             169     0.310   28 343 
 BAR2 SZ IP        4 0 22.72                             169     0.110   28 195 
 BAR2 SZ ES   1    4 0 38.01                             169    -0.3 7   28 195 
 GIR2 SZ ES   1    4 0 38.02                             169     0.0 7   28 343 
 RUS  BZ EP        4 0 26.47                             143    -0.410  104 178 
 RUS  BN ES        4 0 45.35                             143    -0.510  104 178 
 RUS  BZ I         4 0 47.09       193.5 0.57                           104 178 
 OCA  SZ EP        4 0 30.95                             131     0.2 9  157 352 
 OCA  SZ ES   1    4 0 53.96                             131     1.2 7  157 352 
 CHI  HZ EP        4 0 40.40                             117    -0.5 8  253 196 
 CHI  HN ES        4 1  9.65                             117    -1.2 8  253 196 
 CHI  HZ I         4 1 13.47       110.2 1.18                           253 196 
 ROSC BZ EP        4 0 42.66                             117     1.3 8  258 211 
 ROSC BN ES        4 1 12.91                             117     1.3 8  258 211 
 ROSC BZ I         4 1 16.55       122.6 0.68                           258 211 
 HEL  HZ EP        4 0 44.17                             115     0.9 7  276 255 
 HEL  HN ES   1    4 1 15.30                             115     0.2 6  276 255 
 HEL  HZ I         4 1 20.88        78.2 0.36                           276 255 
 RREF BZ EP        4 0 49.67                             111     0.3 7  327 229 
 DBB  SZ EP        4 0 50.27                             110    -0.1 7  342 274 
 TOL  SZ EP   1    4 0 52.11                             109     0.7 5  348 225 
 MON  HZ EP        4 0 49.69                             109    -1.9 6  353 308 
 MON  HN ES        4 1 28.56                             109    -1.3 6  353 308 
 MON  HZ I         4 1 45.10        32.7 0.69                           353 308 
 SDV  BZ IP        4 0 52.10                             109     0.0 6  356  50 
 SDV  BZ I         4 0 52.39        71.8 0.39                           356  50 
 PRA  HZ EP        4 0 56.09                             107    -0.6 6  397 210 
 PRA  HN ES   1    4 1 38.80                             107    -0.2 4  397 210 
                                                                                
