 2011  531 0852 38.4 L   6.787 -73.221134.9  RSN  5 0.2 1.6LRSN                1
 GAP=144        0.41       3.2     6.1  5.1 -0.1080E+02  0.8736E+01 -0.6462E+01E
 Epicentro: ZAPATOCA - SANTANDER                                               3
 ACTION:UP  11-06-29 08:57 OP:tino STATUS:               ID:20110531085238 L   I
 2011-05-31-0851-10S.COL___115                                                 6
 STAT SP IPHASW D HRMM SECON CODA AMPLIT PERI AZIMU VELO SNR AR TRES W  DIS CAZ7
 BAR2 SZ EP   1    852 56.54                             170    -0.1 7   22 169 
 BAR2 SZ ES   1    853 11.01                             170     0.1 7   22 169 
 BAR2 SZ I         853 12.71         9.4 0.23                            22 169 
 BRI  SZ EP   1    853  1.63                             138     0.0 7  113  24 
 GRA  SZ EP   1    853  2.82                             133    -0.2 7  130  21 
 GRA  SZ ES   1    853 22.25                             133     0.0 7  130  21 
 GRA  SZ I         853 23.59         4.4 0.32                           130  21 
 OCA  SZ EP   1    853  6.23                             127     0.3 7  161 356 
 OCA  SZ ES   1    853 27.26                             127    -0.1 7  161 356 
 OCA  SZ I         853 30.27         6.2 0.52                           161 356 
 NOR  SE ES   2    853 39.33                             117    -0.1 4  227 234 
                                                                                
