 2014  831 0931 23.3 L   6.922 -73.088138.0  RSN  6 0.4 1.4LRSN                1
 GAP=223        0.88       4.6    15.6 19.7  0.2957E+02 -0.2326E+03 -0.2823E+02E
 Epicentro: PIEDECUESTA - SANTANDER                                            3
 ACTION:UPD 14-09-15 21:54 OP:nd   STATUS:               ID:20140831093123 L   I
 OLDACT:UP  14-08-31 17:28 OP:fm   STATUS:               ID:20140831092818     3
 OLDACT:REG 14-08-31 13:21 OP:fm   STATUS:               ID:20140831092818     3
 2014-08-31-0928-18M.COL___263                                                 6
 STAT SP IPHASW D HRMM SECON CODA AMPLIT PERI AZIMU VELO AIN AR TRES W  DIS CAZ7
 PTB  HZ EP        931 50.40                             129   -0.1210  157 254 
 PTB  HN ES        932 11.33                             129   -0.4310  157 254 
 PTB  HZ I         932 13.30         2.7 0.16             37            157 254 
 SPBC HZ EP        931 51.96                             125   -0.6910  178 218 
 SPBC HE ES        932 16.11                             125    0.5710  178 218 
 SPBC HZ I         932 22.33         2.1 0.28             37            178 218 
 ZAR  HZ EP   1    931 55.45                             121    0.06 7  205 288 
 ZAR  HN ES   1    932 20.66                             121    0.24 7  205 288 
 ZAR  HZ I         932 26.54         2.3 0.36             37            205 288 
 SML  HN ES   1    932 26.43                             117    0.51 7  234 333 
 CHI  HN ES   1    932 32.79                             115    0.23 6  263 196 
 CHI  HZ I         932 41.00         1.5 0.36             37            263 196 
 PRA  HZ EP   1    932 19.01                             105    0.69 5  407 209 
 PRA  HE ES   1    933  1.54                             105    0.31 5  407 209 
 PRA  HZ I         933  8.40         1.2 0.34             36            407 209 
                                                                                
