 2013  731 0421 30.2 L   6.796 -73.205153.4  RSN  5 0.3 1.5LRSN                1
 GAP=231        0.57       4.6     5.1  6.8  0.5139E+01 -0.3911E+01  0.7197E+00E
 Epicentro: ZAPATOCA - SANTANDER                                               3
 ACTION:UPD 13-08-12 10:41 OP:ep   STATUS:               ID:20130731042130 L   I
 OLDACT:REG 13-07-31 10:07 OP:carl STATUS:               ID:20130731041959     3
 2013-07-31-0419-59M.COL___266                                                 6
 STAT SP IPHASW D HRMM SECON CODA AMPLIT PERI AZIMU VELO AIN AR TRES W  DIS CAZ7
 BAR2 SZ EP   1    421 50.48                             171   -0.30 7 22.7 174 
 BAR2 SZ I         422  6.98         4.3 0.20            167           22.7 174 
 BRR  HZ EP   1    421 52.29                             156    0.36 7 65.8 302 
 BRR  HN ES   1    422  9.01                             156    0.16 7 65.8 302 
 BRR  HN I         422 10.09         7.9 0.24            156           65.8 302 
 RUS  HZ EP   1    421 54.90                             145    0.13 7  101 172 
 RUS  HN ES   1    422 13.70                             145   -0.19 7  101 172 
 RUS  HN I         422 14.99         2.6 0.24            142            101 172 
 PTB  HZ EP   1    421 56.99                             135   -0.29 7  141 258 
 PTB  HN ES   1    422 18.02                             135   -0.34 7  141 258 
 PTB  HZ I         422 19.30         2.4 0.16            136            141 258 
 SPBC HZ EP   1    421 59.00                             132    0.06 7  159 217 
 SPBC HN ES   1    422 21.73                             132    0.41 7  159 217 
 SPBC HN I         422 24.61         7.8 0.10            131            159 217 
                                                                                
