 2013  731 0556 52.2 L   6.789 -73.174146.4  RSN  5 0.5 1.5LRSN                1
 GAP=178        1.03       8.9     9.2 10.5  0.1480E+02  0.2418E+02  0.2547E+01E
 Epicentro: LOS SANTOS - SANTANDER                                             3
 ACTION:UPD 13-08-12 10:41 OP:ep   STATUS:               ID:20130731055652 L   I
 OLDACT:DUP 13-07-31 11:48 OP:carl STATUS:               ID:20130731054960d    3
 OLDACT:REG 13-07-31 10:10 OP:carl STATUS:               ID:20130731054959     3
 2013-07-31-0549-59M.COL___266                                                 6
 STAT SP IPHASW D HRMM SECON CODA AMPLIT PERI AZIMU VELO AIN AR TRES W  DIS CAZ7
 BAR2 SZ EP   1    557 12.10                             171    0.22 7 21.7 183 
 BAR2 SZ ES   1    557 26.53                             171   -0.69 7 21.7 183 
 BAR2 SZ I         557 27.67         7.2 0.32            171           21.7 183 
 GIR2 SZ EP   1    557 12.01                             167    0.04 7 32.1 356 
 GIR2 SZ ES   1    557 26.90                             167   -0.49 7 32.1 356 
 GIR2 SZ I         557 29.39         4.9 0.46            168           32.1 356 
 BRR  HZ EP   1    557 13.63                             153    0.33 7 69.1 301 
 BRR  HN ES   1    557 30.63                             153    0.87 7 69.1 301 
 BRR  HZ I         557 31.07         7.5 0.32            154           69.1 301 
 RUS  HN ES   1    557 34.96                             144    0.50 7 99.6 174 
 RUS  HN I         557 36.34         4.6 0.40            145           99.6 174 
 PTB  HZ EP   1    557 18.21                             133   -0.71 7  144 259 
 PTB  HN ES   1    557 39.60                             133   -0.17 7  144 259 
 PTB  HZ I         557 40.92         3.3 0.24            134            144 259 
                                                                                
