 2010 1031 0932 23.0 L   6.799 -73.096147.4  RSN 12 0.4 2.4LRSN                1
 GAP=140        0.80       3.0     5.3  6.0 -0.2773E+01  0.4591E+01  0.2623E+01E
 Epicentro: LOS SANTOS - SANTANDER                                             3
 ACTION:UP  11-02-18 11:13 OP:tino STATUS:               ID:20101031093223 L   I
 2010-10-31-0930-54S.COL___125                                                 6
 STAT SP IPHASW D HRMM SECON CODA AMPLIT PERI AZIMU VELO SNR AR TRES W  DIS CAZ7
 BAR2 SZ IP        932 42.77                             170    -0.110   25 203 
 BAR2 SZ ES   1    932 58.05                             170    -0.3 7   25 203 
 BAR2 SZ I         933  0.46        41.9 0.28                            25 203 
 BRR  HZ EP        932 44.65                             151     0.110   76 297 
 BRR  HE ES   1    933  1.92                             151     0.5 7   76 297 
 BRR  HZ I         933  5.62        36.6 0.46                            76 297 
 RUS  HZ IP        932 46.63                             144    -0.210  100 179 
 RUS  HE ES   1    933  5.43                             144    -0.1 7  100 179 
 RUS  HZ I         933  6.63        11.1 0.27                           100 179 
 GRA  SZ IP        932 48.58                             137     0.310  124  15 
 GRA  SZ ES   1    933  7.97                             137     0.0 7  124  15 
 GRA  SZ I         933  9.39        28.3 0.33                           124  15 
 OCA  SZ EP   1    932 51.21                             130    -0.3 7  161 351 
 OCA  SZ ES   1    933 13.61                             130    -0.1 7  161 351 
 OCA  SZ I         933 17.97        25.4 0.26                           161 351 
 YOP  SZ EP   2    932 52.73                             127    -0.2 4  176 155 
 YOP  SN ES   2    933 16.48                             127     0.2 4  176 155 
 NOR  SZ EP   2    932 58.53                             118    -0.8 4  239 235 
 NOR  SE ES   2    933 27.47                             118    -0.1 4  239 235 
 ROSC BZ EP   1    933  2.66                             117     1.2 6  255 212 
 ROSC BZ I         933 38.74        14.5 0.63                           255 212 
 HEL  HZ EP   2    933  4.12                             114     0.3 4  277 256 
 HEL  HN ES   2    933 34.94                             114    -0.8 4  277 256 
 HEL  HZ I         933 40.79         9.0 0.44                           277 256 
 VIL  SE ES   2    933 39.15                             112    -1.1 4  302 191 
 GUY  SZ EP   2    933  7.15                             112     0.0 4  306 235 
 GUY  SE ES   2    933 41.79                             112     0.1 4  306 235 
 GUY  SZ I         933 50.20        21.7 0.32                           306 235 
 PRA  HZ EP   1    933 16.48                             107    -0.4 4  395 210 
 PRA  HZ I         933 18.51        31.8 0.18                           395 210 
 PRA  HE ES   1    933 59.49                             107     0.6 4  395 210 
                                                                                
