 2010 1031 0501 26.2 L   7.237 -73.792 95.1  RSN  4 0.2 1.7LRSN                1
 GAP=265        0.49       3.1     5.2  5.1 -0.3486E+01 -0.6620E+01 -0.2203E+01E
 Epicentro: PUERTO WILCHES - SANTANDER                                         3
 ACTION:UP  11-02-18 11:13 OP:tino STATUS:               ID:20101031050126 L   I
 2010-10-31-0459-36S.COL___125                                                 6
 STAT SP IPHASW D HRMM SECON CODA AMPLIT PERI AZIMU VELO SNR AR TRES W  DIS CAZ7
 BRR  HZ IP     C  5 1 39.24                             169     0.010   17 148 
 BRR  HN ES   1    5 1 49.42                             169     0.0 7   17 148 
 BRR  HZ I         5 1 50.31        41.6 0.14                            17 148 
 BAR2 SZ EP   1    5 1 44.48                             131    -0.4 7   98 137 
 BAR2 SZ ES   1    5 1 59.54                             131     0.2 7   98 137 
 BAR2 SZ I         5 2  1.13         7.4 0.58                            98 137 
 GRA  SZ IP        5 1 48.16                             122     0.210  131  57 
 GRA  SZ ES   1    5 2  4.73                             122    -0.2 7  131  57 
 GRA  SZ I         5 2  6.20         6.8 0.33                           131  57 
 RUS  HZ EP   2    5 1 52.59                             115     0.1 5  168 152 
 RUS  HE ES   2    5 2 12.90                             115     0.0 5  168 152 
                                                                                
