 2012 1231 0357 42.1 L   6.798 -73.095148.8  RSN  8 0.4 1.7LRSN                1
 GAP=188        0.84       4.1     5.7  7.0  0.5961E+01  0.1014E+02  0.3793E+01E
 Epicentro: LOS SANTOS - SANTANDER                                             3
 ACTION:UPD 13-01-04 14:31 OP:ep   STATUS:               ID:20121231035742 L   I
 2012-12-31-0350-00M.COL___239                                                 6
 STAT SP IPHASW D HRMM SECON CODA AMPLIT PERI AZIMU VELO AIN AR TRES W  DIS CAZ7
 BAR2 SZ EP   1    358  2.18                             170    0.07 7 24.7 203 
 BAR2 SZ ES   1    358 17.57                             170   -0.16 7 24.7 203 
 BAR2 SZ I         358 18.88        20.3 0.38                          24.7 203 
 BRR  HZ IP     C  358  4.02                             151    0.1710 76.2 297 
 BRR  HE ES   1    358 21.52                             151    0.69 7 76.2 297 
 BRR  HZ I         358 28.93         6.1 0.18                          76.2 297 
 RUS  HZ EP   1    358  6.34                             145    0.24 7  100 179 
 RUS  HE ES   1    358 24.56                             145   -0.28 7  100 179 
 RUS  HZ I         358 25.98         5.1 0.26                           100 179 
 PTB  HZ EP   1    358  8.85                             132   -0.94 7  153 259 
 PTB  HE ES   1    358 31.20                             132   -0.21 7  153 259 
 PTB  HZ I         358 37.37        11.7 0.40                           153 259 
 OCA  HN ES   1    358 32.86                             130   -0.20 7  161 351 
 OCA  HZ I         358 38.06         8.7 0.22                           161 351 
 ZAR  HZ EP   1    358 15.88                             122    0.61 6  209 292 
 ZAR  HN ES   1    358 40.36                             122   -0.79 6  209 292 
 ZAR  HZ I         358 47.24         7.2 0.34                           209 292 
 CHI  HZ EP   1    358 19.85                             118   -0.24 6  250 196 
 CHI  HN ES   1    358 50.01                             118    0.27 6  250 196 
 CHI  HZ I         358 54.70         1.5 0.60                           250 196 
 HEL  HZ EP   1    358 23.20                             115    0.16 6  277 256 
 HEL  HN ES   1    358 55.52                             115    0.53 6  277 256 
 HEL  HZ I         359  0.45         3.4 0.32                           277 256 
 URE  HZ EP   4    358 26.32                             114    2.43 0  289 292 
 URE  HN ES   4    358 54.09                             114   -2.41 0  289 292 
 MON  HZ EP   4    358 30.66                             109   -1.06 0  358 308 
 MON  HN ES   4    359  8.11                             109   -2.33 0  358 308 
                                                                                
