 2011  831 0347 12.7 L   6.720 -73.078134.6  RSN  6 0.4 1.8LRSN                1
 GAP=189        0.87       3.7     9.8  7.1  0.5659E+01 -0.4900E+01  0.3799E+01E
 Epicentro: JORDAN - SANTANDER                                                 3
 ACTION:UPD 12-07-13 15:54 OP:ep   STATUS:               ID:20110831034712 L   I
 2011-08-31-0340-00M.COL___166                                                 6
 STAT SP IPHASW D HRMM SECON CODA AMPLIT PERI AZIMU VELO AIN AR TRES W  DIS CAZ7
 BAR2 SZ EP        347 31.06                             172    0.1210 18.2 219 
 BAR2 SZ ES   1    347 45.55                             172    0.43 7 18.2 219 
 BAR2 SZ I         347 47.37        13.6 0.39                          18.2 219 
 BRR  HZ EP        347 32.84                             147   -0.5510 82.1 301 
 BRR  HE ES        347 49.56                             147    0.0710 82.1 301 
 BRR  HZ I         347 52.32         9.3 0.20                          82.1 301 
 RUS  HZ EP   1    347 35.26                             144    0.51 7 91.5 180 
 RUS  HZ I         347 35.78         4.1 0.13                          91.5 180 
 RUS  HE ES   1    347 51.14                             144   -0.77 7 91.5 180 
 OCA  SZ EP   1    347 40.69                             125   -0.48 7  170 351 
 OCA  SZ ES   1    348  3.89                             125    0.54 7  170 351 
 CHI  HZ EP   1    347 49.44                             115    0.29 6  242 197 
 CHI  HN ES   1    348 17.82                             115    0.28 6  242 197 
 CHI  HZ I         348 22.60         2.5 0.33                           242 197 
 PRA  HZ EP   2    348  5.22                             105   -0.23 3  388 211 
 PRA  HN ES   1    348 46.80                             105    0.24 4  388 211 
 PRA  HZ I         348 53.13         9.5 0.26                           388 211 
                                                                                
