 2017 1031 0549 57.6 L   7.219 -74.252  4.0  RSN  8 0.5 1.7LRSN                1
 GAP=151        1.23       3.2     2.2  5.9  0.4638E+00 -0.3599E+00  0.5758E+01E
 Epicentro: PUERTO WILCHES - SANTANDER                                         3
 ACTION:UPD 17-11-07 19:39 OP:rebc STATUS:               ID:20171031054957 L   I
 OLDACT:UP  17-10-31 16:13 OP:dani STATUS:               ID:20171031054738     3
 OLDACT:REG 17-10-31 13:15 OP:dani STATUS:               ID:20171031054738     3
 2017-10-31-0548-00M.COL___441                                                 6
 STAT SP IPHASW D HRMM SECON CODA AMPLIT PERI AZIMU VELO AIN AR TRES W  DIS CAZ7
 BRR  HZ IP     D  550  7.53                              47    0.1110 61.0 102 
 BRR  HE ES        550 15.40                              47    0.3110 61.0 102 
 BRR  HZ I         550 16.08        34.6 0.56             47           61.0 102 
 ZAR  HZ EP        550  9.34                              47    0.0310 73.4 294 
 ZAR  HN ES        550 17.98                              47   -0.4710 73.4 294 
 ZAR  HZ I         550 18.98        80.3 0.26             47           73.4 294 
 PTB  HZ EP        550 10.41                              47    0.3110 78.5 197 
 PTB  HE ES        550 19.73                              47   -0.1210 78.5 197 
 PTB  HZ I         550 20.87        15.0 0.46             47           78.5 197 
 BAR2 EZ EP        550 19.79                              47    0.58 9  137 120 
 BAR2 EZ ES        550 35.10                              47   -0.96 9  137 120 
 BAR2 EZ I         550 37.89        17.0 0.56             47            137 120 
 PAM  EZ EP        550 25.28                              47    0.53 9  172  85 
 PAM  EZ ES        550 45.09                              47   -0.84 9  172  85 
 PAM  EZ I         550 47.32        15.7 0.20             47            172  85 
 SPBC HZ EP        550 24.92                              47    0.21 9  174 173 
 SPBC HE ES        550 45.30                              47   -0.56 9  174 173 
 SPBC HZ I         550 48.18         2.6 0.24             47            174 173 
 NOR  HN ES        550 50.60                              37    0.06 9  195 200 
 RUS  HZ EP        550 28.64                              37    0.75 9  196 139 
 RUS  HN ES        550 51.65                              37    0.13 9  196 139 
 RUS  HZ I         550 53.16         6.1 0.18             37            196 139 
                                                                                
