 2014  331 0604 52.4 L   6.848 -73.163138.7  RSN 10 0.5 1.9LRSN                1
 GAP=132        1.15       3.4     4.4  8.0 -0.1159E+01  0.1364E+02  0.2795E+01E
 Epicentro: LOS SANTOS - SANTANDER                                             3
 ACTION:UPD 14-04-09 23:21 OP:nd   STATUS:               ID:20140331060452 L   I
 OLDACT:REG 14-03-31 07:43 OP:carl STATUS:               ID:20140331060047     3
 2014-03-31-0600-47M.COL___243                                                 6
 STAT SP IPHASW D HRMM SECON CODA AMPLIT PERI AZIMU VELO AIN AR TRES W  DIS CAZ7
 PAM  SZ EP        6 5 14.08                             150    0.3610 74.7  43 
 PAM  SN ES        6 5 30.85                             150    0.5210 74.7  43 
 PAM  SZ I         6 5 32.88        12.0 0.30            156           74.7  43 
 RUS  HZ EP        6 5 15.62                             141   -0.2710  106 175 
 RUS  HN ES        6 5 33.97                             141   -0.2310  106 175 
 RUS  HZ I         6 5 37.68         2.6 0.30            143            106 175 
 PTB  HZ EP        6 5 18.11                             130   -0.64 9  147 257 
 PTB  HN ES        6 5 39.01                             130   -0.28 9  147 257 
 PTB  HZ I         6 5 42.19         8.0 0.48            132            147 257 
 ZAR  HZ EP        6 5 24.91                             121    0.89 9  200 291 
 ZAR  HN ES        6 5 48.89                             121    0.22 9  200 291 
 ZAR  HZ I         6 5 54.53        11.7 0.46            124            200 291 
 NOR  HZ EP        6 5 28.12                             117    0.20 8  236 233 
 NOR  HE ES        6 5 55.61                             117   -0.00 8  236 233 
 NOR  HZ I         6 6  0.03         6.2 0.50            119            236 233 
 SML  HZ EP        6 5 27.10                             116   -0.94 8  238 335 
 SML  HN ES        6 5 54.98                             116   -0.85 8  238 335 
 SML  HZ I         6 5 58.95        15.6 0.10            120            238 335 
 CHI  HZ EP        6 5 30.04                             115   -0.20 8  253 194 
 CHI  HN ES        6 5 59.60                             115   -0.15 8  253 194 
 CHI  HZ I         6 6  7.48         3.2 0.52            118            253 194 
 HEL  HZ EP        6 5 33.17                             113    0.95 8  272 255 
 HEL  HE ES        6 6  3.47                             113    0.20 8  272 255 
 HEL  HZ I         6 6 10.08         4.7 0.34            116            272 255 
 GUY2CHZ EP        6 5 36.66                             111    0.78 7  303 234 
 GUY2CHN ES        6 6  9.70                             111   -0.09 7  303 234 
 GUY2CHZ I         6 6 19.25         4.5 0.38                           303 234 
 PRA  HZ EP        6 5 45.90                             105   -0.23 6  396 209 
 PRA  HN ES        6 6 27.76                             105   -0.28 6  396 209 
 PRA  HZ I         6 6 33.53         3.7 0.36            107            396 209 
                                                                                
