 2014  131 0859  8.1 L   6.340 -73.604110.3  RSN 20 0.5 2.4LRSN                1
 GAP= 54        1.09       2.4     2.6  5.4 -0.1452E+01  0.3424E+01 -0.1357E+01E
 Epicentro: SANTA HELENA DEL OPON - SANTANDER                                  3
 ACTION:UPD 14-03-13 10:00 OP:ep   STATUS:               ID:20140131085908 L   I
 OLDACT:REG 14-01-31 07:50 OP:nd   STATUS:               ID:20140131085747     3
 2014-01-31-0857-47M.COL___208                                                 6
 STAT SP IPHASW D HRMM SECON CODA AMPLIT PERI AZIMU VELO AIN AR TRES W  DIS CAZ7
 BAR2 SZ IP     C  859 25.21                             152    0.4210 54.3  59 
 BAR2 SZ ES        859 38.38                             152    0.5610 54.3  59 
 BAR2 SZ I         859 39.55       168.2 0.44            146           54.3  59 
 RUS  HZ EP        859 26.50                             143   -0.0710 76.0 131 
 RUS  HN ES        859 40.68                             143   -0.3110 76.0 131 
 RUS  HZ I         859 43.68        30.0 0.54            137           76.0 131 
 SPBC HZ EP        859 27.29                             137    0.0210 92.1 214 
 SPBC HN ES        859 42.41                             137    0.1710 92.1 214 
 SPBC HZ I         859 44.75        74.2 0.12            134           92.1 214 
 PTB  HZ EP     D  859 26.91                             135   -0.6610 96.8 283 
 PTB  HN ES        859 41.93                             135   -0.8410 96.8 283 
 PTB  HZ I         859 44.46       104.4 0.12            133           96.8 283 
 PAM  SZ EP        859 33.34                             122    0.17 9  149  42 
 PAM  SN ES        859 52.61                             122   -0.13 9  149  42 
 PAM  SZ I         859 57.63        20.4 0.26            118            149  42 
 NOR  HZ EP        859 33.75                             119   -0.46 9  164 239 
 NOR  HN ES        859 55.38                             119    0.79 9  164 239 
 NOR  HZ I         9 0  0.37        38.5 0.14            117            164 239 
 ROSC BZ EP   4    859 38.58                             116    1.82 0  184 206 
 ROSC BN ES   4    9 0  0.98                             116    1.86 0  184 206 
 ZAR  HZ EP        859 36.79                             115    0.04 9  188 313 
 ZAR  HN ES        859 59.26                             115    0.16 9  188 313 
 ZAR  HZ I         9 0  3.97        70.3 0.32            113            188 313 
 CHI  HZ EP        859 37.00                             115   -0.42 9  190 184 
 CHI  HN ES        9 0  0.14                             115   -0.17 9  190 184 
 CHI  HZ I         9 0  4.67        13.2 0.36            113            190 184 
 TAM  HZ EP     D  859 38.03                             114   -0.15 9  201  87 
 TAM  HZ I         9 0  0.25        17.0 0.26            110            201  87 
 TAM  HN ES   2    9 0  1.09                             114   -0.56 4  201  87 
 OCA  HZ EP        859 40.65                             112    1.04 8  212   8 
 OCA  HN ES        9 0  4.28                             112    0.08 8  212   8 
 OCA  HZ I         9 0 13.27        35.0 0.22            110            212   8 
 HEL  HZ EP        859 40.32                             112    0.28 8  214 266 
 HEL  HN ES        9 0  5.45                             112    0.49 8  214 266 
 HEL  HZ I         9 0  9.35        12.9 0.32            110            214 266 
 GUY2CHZ EP   4    859 42.32                             110    0.20 0  231 238 
 GUY2CHN ES   4    9 0 11.28                             110    2.61 0  231 238 
 GUY2CHZ I         9 0 16.63        12.2 0.32                           231 238 
 URE  HZ EP   4    859 43.77                             107   -1.62 0  264 306 
 URE  HN ES   4    9 0 10.52                             107   -3.97 0  264 306 
 URE  HZ I         9 0 15.04        32.4 0.14            106            264 306 
 CBOC HZ EP        859 46.88                             106    0.40 8  272 259 
 CBOC HN ES        9 0 15.67                             106   -0.75 8  272 259 
 CBOC HZ I         9 0 18.78         4.1 0.18            106            272 259 
 SML  HZ EP        859 46.26                             106   -0.61 7  277 349 
 SML  HN ES        9 0 16.83                             106   -0.29 7  277 349 
 SML  HZ I         9 0 22.65        32.4 0.10            105            277 349 
 PRA  HZ EP        859 52.14                             103   -0.26 7  323 206 
 PRA  HN ES        9 0 27.75                             103    0.78 7  323 206 
 PRA  HZ I         9 0 33.05        24.3 0.28            103            323 206 
 ORTC HZ EP        859 52.67                             103    0.11 7  325 214 
 ORTC HN ES   2    9 0 27.44                             103    0.19 3  325 214 
 ORTC HZ I         9 0 35.44        19.1 0.40            103            325 214 
 COD  HZ EP   4    9 0  1.58                              99    0.31 0  398   3 
 COD  HN ES   4    9 0 42.91                              99    0.15 0  398   3 
 COD  HZ I         9 0 50.62         5.0 0.58            100            398   3 
 SJC  HZ EP   4    9 0  3.94                              98   -1.27 0  430 336 
 SJC  HN ES   4    9 0 44.68                              98   -5.09 0  430 336 
 SJC  HZ I         9 0 50.97         5.2 0.80             99            430 336 
 SDV  BZ EP   4    9 0  4.71                              98   -0.92 0  432  49 
 SDV  BN ES   4    9 0 46.55                              98   -3.96 0  432  49 
 MACC HZ EP   4    9 0  7.60                              97   -1.76 0  465 183 
 MACC HN ES   4    9 0 53.88                              97   -3.27 0  465 183 
 MACC HZ I         9 1  2.90         5.6 0.42             98            465 183 
                                                                                
