 2016  331 0451  7.9 L   6.811 -73.165146.7  RSN  7 0.3 1.4LRSN                1
 GAP=134        0.71       2.9     3.2  5.0 -0.9164E+00  0.4010E+01  0.2263E+01E
 Epicentro: LOS SANTOS - SANTANDER                                             3
 ACTION:UPD 16-05-13 21:29 OP:cam  STATUS:               ID:20160331045107 L   I
 OLDACT:REG 16-03-31 12:21 OP:drio STATUS:               ID:20160331044745     3
 2016-03-31-0447-45M.COL___287                                                 6
 STAT SP IPHASW D HRMM SECON CODA AMPLIT PERI AZIMU VELO AIN AR TRES W  DIS CAZ7
 BAR2 EZ EP        451 27.47                             170   -0.2410 24.3 185 
 BAR2 EZ ES        451 43.32                             170    0.2010 24.3 185 
 BAR2 EZ I         451 45.89         3.1 0.54            170           24.3 185 
 PAM  EZ EP        451 30.45                             151    0.1710 77.8  41 
 PAM  EN ES        451 47.65                             151   -0.0610 77.8  41 
 PAM  EZ I         451 49.87         3.2 0.58            156           77.8  41 
 RUS  HZ EP        451 31.97                             144    0.0810  102 175 
 RUS  HE ES        451 50.37                             144   -0.1910  102 175 
 RUS  HZ I         451 51.20         2.5 0.26            147            102 175 
 PTB  HZ EP        451 34.21                             133   -0.62 9  146 258 
 PTB  HE ES        451 55.64                             133   -0.15 9  146 258 
 PTB  HZ I         452  2.70         5.0 0.60            133            146 258 
 SPBC HZ EP        451 36.83                             129    0.35 9  163 218 
 SPBC HN ES        451 58.62                             129   -0.12 9  163 218 
 SPBC HZ I         452  4.62         5.2 0.34            131            163 218 
 ZAR  HZ EP   4    451 36.32                             123   -3.89 0  202 292 
 ZAR  HE ES        452  5.77                             123    0.40 9  202 292 
 ZAR  HZ I         452 11.20         5.2 0.46            124            202 292 
 CHI  HZ EP        451 45.72                             117   -0.05 8  249 195 
 CHI  HN ES        452 15.68                             117    0.41 8  249 195 
                                                                                
