 2017  131 0048 13.3 L   6.863 -73.239130.0  RSN  6 0.2 1.5LRSN                1
 GAP=120        0.65       4.0     3.7  5.4  0.6309E+01 -0.4519E+01 -0.7338E+01E
 Epicentro: ZAPATOCA - SANTANDER                                               3
 ACTION:UPD 17-05-22 16:05 OP:jn   STATUS:               ID:20170131004813 L   I
 OLDACT:UP  17-01-31 15:08 OP:dnl  STATUS:               ID:20170131003745     3
 OLDACT:REG 17-01-31 14:05 OP:dnl  STATUS:               ID:20170131003745     3
 2017-01-31-0038-00M.COL___355                                                 6
 STAT SP IPHASW D HRMM SECON CODA AMPLIT PERI AZIMU VELO AIN AR TRES W  DIS CAZ7
 BAR2 EZ EP        048 31.09                             166   -0.1410 30.6 168 
 BAR2 EZ ES        048 45.05                             166   -0.1710 30.6 168 
 BAR2 EZ I         048 45.98        14.6 0.44            167           30.6 168 
 BRR  HZ EP        048 32.01                             154   -0.0510 58.8 297 
 BRR  HN ES        048 46.86                             154    0.1810 58.8 297 
 BRR  HZ I         048 47.46         9.6 0.44            152           58.8 297 
 PAM  EZ EP        048 34.06                             147    0.0510 79.6  49 
 PAM  EE ES   2    048 50.04                             147   -0.13 5 79.6  49 
 PAM  EZ I         048 52.86         2.5 0.32            147           79.6  49 
 RUS  HZ EP   2    048 35.80                             138   -0.39 5  109 171 
 RUS  HN ES        048 54.23                             138    0.1910  109 171 
 RUS  HZ I         048 55.97         2.4 0.34            138            109 171 
 PTB  HZ EP   9    048 36.87                             130   -1.36 0  139 255 
 PTB  HN ES        048 55.67                             131   -0.64 9  139 255 
 PTB  HZ I         048 59.70         4.6 0.36            128            139 255 
 ZAR  HZ EP   4    048 47.34                             120    3.86 0  192 291 
 ZAR  HN ES        049  7.11                             120    0.10 9  192 291 
 ZAR  HZ I         049 13.22         4.3 0.28            119            192 291 
                                                                                
