 2013 1031 0613 57.5 L   6.769 -73.187145.0  RSN  8 0.3 1.5LRSN                1
 GAP=133        0.87       3.1     4.0  5.8 -0.2350E+01  0.4209E+01  0.7555E+00E
 Epicentro: VILLANUEVA - SANTANDER                                             3
 ACTION:UPD 13-11-25 09:24 OP:ep   STATUS:               ID:20131031061357 L   I
 OLDACT:REG 13-10-31 05:59 OP:jn   STATUS:               ID:20131031061000     3
 2013-10-31-0610-00M.COL___273                                                 6
 STAT SP IPHASW D HRMM SECON CODA AMPLIT PERI AZIMU VELO AIN AR TRES W  DIS CAZ7
 BAR2 SZ EP        614 16.96                             172   -0.0110 19.5 178 
 BAR2 SZ ES        614 32.67                             172    0.5110 19.5 178 
 BAR2 SZ I         614 33.51        12.5 0.22            172           19.5 178 
 BRR  HZ EP        614 18.78                             153    0.3310 69.0 303 
 BRR  HN ES        614 34.54                             153   -0.2410 69.0 303 
 BRR  HZ I         614 39.90         7.0 0.26            151           69.0 303 
 PAM  SZ EP        614 19.96                             149   -0.0210 83.0  40 
 PAM  SN ES        614 37.02                             149   -0.5010 83.0  40 
 PAM  SZ I         614 39.68         4.1 0.24            153           83.0  40 
 RUS  HZ EP        614 20.95                             144   -0.0110 97.6 173 
 RUS  HN ES        614 38.96                             144   -0.3010 97.6 173 
 RUS  HZ I         614 41.66         2.2 0.26            149           97.6 173 
 PTB  HZ EP        614 23.56                             133   -0.38 9  143 260 
 PTB  HN ES        614 44.24                             133   -0.33 9  143 260 
 PTB  HZ I         614 49.75         4.3 0.32            133            143 260 
 SPBC HZ EP        614 25.62                             130    0.20 9  158 218 
 SPBC HN ES        614 47.63                             130    0.44 9  158 218 
 OCA  HE ES        614 48.82                             129    0.53 9  163 355 
 ZAR  HZ EP   2    614 29.00                             123   -0.60 4  201 294 
 ZAR  HE ES   2    614 54.66                             123    0.03 4  201 294 
 ZAR  HZ I         615  1.09         4.2 0.34            124            201 294 
                                                                                
