 2014  531 0140 37.1 L   6.824 -73.127145.7  RSN 23 0.6 2.4LRSN                1
 GAP= 71        1.21       2.7     3.0  5.0 -0.1720E+01  0.3676E+01  0.1975E+01E
 Epicentro: LOS SANTOS - SANTANDER                                             3
 ACTION:UPD 15-03-16 17:02 OP:nd   STATUS:               ID:20140531014037 L   I
 OLDACT:REG 14-05-31 13:32 OP:stll STATUS:               ID:20140531013818     3
 2014-05-31-0138-18M.COL___256                                                 6
 STAT SP IPHASW D HRMM SECON CODA AMPLIT PERI AZIMU VELO AIN AR TRES W  DIS CAZ7
 BAR2 SZ IP     D  140 56.86                             169    0.1010 26.3 193 
 BAR2 SZ I         140 57.26        46.6 0.38            168           26.3 193 
 BAR2 SZ ES        141 12.20                             169    0.0910 26.3 193 
 BRR  HZ IP     C  140 58.76                             152    0.5110 71.8 296 
 BRR  HE ES        141 15.42                             152    0.6610 71.8 296 
 BRR  HZ I         141 20.58        33.5 0.24            151           71.8 296 
 PAM  SZ IP     C  140 59.83                             152    0.7410 74.1  40 
 PAM  SN ES        141 16.39                             152    0.1410 74.1  40 
 PAM  SZ I         141 19.02        37.4 0.48            156           74.1  40 
 RUS  HZ EP     C  141  0.74                             143   -0.2610  103 177 
 RUS  HZ I         141  1.68        16.2 0.42            145            103 177 
 RUS  HN ES        141 19.22                             143   -0.4410  103 177 
 PTB  HZ EP        141  3.45                             131   -0.81 9  150 258 
 PTB  HN ES        141 24.95                             131   -0.52 9  150 258 
 PTB  HZ I         141 30.72        33.7 0.22            132            150 258 
 TAM  HZ IP     C  141  5.06                             131    0.43 9  154 106 
 TAM  HZ I         141  5.25        27.8 0.32            135            154 106 
 TAM  HN ES        141 26.17                             131    0.05 9  154 106 
 OCA  HZ EP        141  5.47                             130    0.31 9  158 352 
 OCA  HN ES        141 26.71                             130   -0.35 9  158 352 
 OCA  HZ I         141 32.23        15.7 0.16            132            158 352 
 SPBC HZ EP        141  5.74                             128   -0.14 9  166 219 
 SPBC HZ I         141  6.18        40.3 0.10            130            166 219 
 SPBC HN ES        141 28.28                             128   -0.07 9  166 219 
 ZAR  HZ EP        141  9.42                             122   -0.19 9  205 291 
 ZAR  HE ES        141 34.98                             122   -0.00 9  205 291 
 ZAR  HZ I         141 41.33        27.7 0.52            123            205 291 
 NOR  HZ EP        141 12.45                             118   -0.69 8  238 234 
 NOR  HN ES        141 40.43                             118   -0.84 8  238 234 
 NOR  HZ I         141 44.69        14.8 0.26            119            238 234 
 SML  HZ EP        141 13.25                             118   -0.28 8  242 335 
 SML  HE ES        141 41.38                             118   -0.59 8  242 335 
 SML  HZ I         141 45.36        37.6 0.10            119            242 335 
 CHI  HZ EP        141 14.95                             117   -0.15 8  252 195 
 CHI  HN ES        141 43.63                             117   -1.13 8  252 195 
 CHI  HZ I         141 46.83        11.0 0.22            119            252 195 
 ROSC BZ EP        141 16.54                             116    0.99 8  256 211 
 ROSC BE ES        141 45.77                             116    0.22 8  256 211 
 ROSC BZ I         141 54.62        21.3 0.45            118            256 211 
 HEL  HZ EP        141 17.96                             114    0.39 8  275 255 
 HEL  HE ES        141 49.59                             114    0.43 8  275 255 
 HEL  HZ I         141 55.50        10.8 0.32            116            275 255 
 SOCV BZ EP        141 18.85                             112   -0.91 7  298  57 
 GUY2CHZ EP        141 21.19                             112    0.15 7  304 235 
 GUY2CHE ES        141 56.83                             112    1.50 7  304 235 
 GUY2CHZ I         142  3.70        19.3 0.74                           304 235 
 RREF HZ EP        141 23.84                             111    0.26 7  325 229 
 RREF HN ES        141 59.94                             111    0.08 7  325 229 
 RREF HZ I         142  9.44        11.7 0.48            112            325 229 
 CBOC HZ EP        141 24.55                             110    0.25 7  336 252 
 CBOC HZ I         141 25.52         4.9 0.20            111            336 252 
 CBOC HE ES        142  0.34                             110   -0.79 7  336 252 
 DBB  SZ EP        141 24.31                             109   -0.45 7  341 274 
 TOL  SZ EP        141 26.09                             109    0.39 6  347 225 
 TOL  SN ES        142  3.05                             109   -0.58 6  347 225 
 ANIL HZ EP        141 28.31                             108    1.06 6  361 224 
 ANIL HN ES        142  7.29                             108    0.89 6  361 224 
 ANIL HZ I         142 15.15        24.5 0.28            110            361 224 
 PRA  HZ EP        141 30.72                             106   -0.25 6  395 210 
 PRA  HN ES        142 12.71                             106   -0.30 6  395 210 
 PRA  HZ I         142 18.59        10.9 0.36            108            395 210 
 ORTC HZ EP        141 31.21                             106   -0.17 6  399 216 
 ORTC HN ES        142 14.09                             106    0.36 6  399 216 
 ORTC HZ I         142 21.52         6.9 0.54            108            399 216 
                                                                                
