 2012  131 0300  1.0 L   6.804 -73.162141.6  RSN 14 0.5 2.2LRSN                1
 GAP=134        1.02       3.9     5.1  7.1 -0.1867E+01  0.1298E+02  0.5343E+01E
 Epicentro: LOS SANTOS - SANTANDER                                             3
 ACTION:UP  12-02-03 08:22 OP:REBC STATUS:               ID:20120131030002dL   I
 2012-01-31-0300-00M.COL___188                                                 6
 STAT SP IPHASW D HRMM SECON CODA AMPLIT PERI AZIMU VELO SNR AR TRES W  DIS CAZ7
 BAR2 SZ EP        3 0 20.16                             170     0.010   24 186 
 BAR2 SZ ES   1    3 0 35.29                             170     0.2 7   24 186 
 BAR2 SZ I         3 0 36.77        34.3 0.20                            24 186 
 GIR2 SZ EP   1    3 0 20.23                             167     0.0 7   31 353 
 BRR  HZ EP        3 0 21.98                             152     0.410   69 299 
 BRR  HZ I         3 0 23.45        68.0 0.12                            69 299 
 BRR  HN ES   2    3 0 38.24                             152     0.5 5   69 299 
 PAM  SZ EP   1    3 0 22.81                             150     0.0 7   78  41 
 PAM  SN ES   1    3 0 39.55                             150    -0.3 7   78  41 
 PAM  SZ I         3 0 42.30        17.5 0.28                            78  41 
 RUS  HZ EP   1    3 0 24.06                             143    -0.4 7  101 175 
 RUS  HN ES   1    3 0 42.83                             143     0.2 7  101 175 
 RUS  HZ I         3 0 45.76        10.5 0.25                           101 175 
 PTB  HZ EP   1    3 0 26.79                             131    -0.7 7  146 259 
 PTB  HN ES   1    3 0 47.78                             131    -0.4 7  146 259 
 OCA  SZ EP   1    3 0 28.44                             129    -0.5 7  160 354 
 OCA  SZ ES   1    3 0 51.09                             129     0.3 7  160 354 
 OCA  SZ I         3 0 55.35        40.9 0.30                           160 354 
 ZAR  HZ EP   1    3 0 32.54                             122    -0.5 6  202 292 
 ZAR  HN ES   1    3 0 58.18                             122     0.2 6  202 292 
 ZAR  HZ I         3 1  4.27        19.1 0.15                           202 292 
 CHI  HZ EP   1    3 0 38.27                             116    -0.2 6  249 195 
 CHI  HN ES   1    3 1  7.32                             116    -0.4 6  249 195 
 CHI  HZ I         3 1 16.26         5.7 0.59                           249 195 
 ROSC BZ EP   1    3 0 39.76                             116     0.9 6  252 211 
 HEL  HZ EP   1    3 0 41.74                             114     0.9 6  270 256 
 HEL  HN ES   1    3 1 10.95                             114    -1.0 6  270 256 
 HEL  HZ I         3 1 19.62        18.7 0.40                           270 256 
 RREF HZ EP        3 0 47.45                             110     0.6 7  321 229 
 RREF HN ES   1    3 1 22.96                             110     0.3 5  321 229 
 RREF HZ I         3 1 32.11        10.3 0.24                           321 229 
 TOL  SZ EP   1    3 0 49.80                             109     0.8 5  343 224 
 PRA  HZ EP   1    3 0 53.47                             106    -0.9 4  392 209 
                                                                                
