 2011  831 0134 49.0 L   6.417 -73.729 78.0  RSN  8 0.4 1.8LRSN                1
 GAP=116        0.81       2.6     3.5  8.7  0.3441E+00  0.1216E+02  0.7071E+01E
 Epicentro: SANTA HELENA DEL OPON - SANTANDER                                  3
 ACTION:UPD 12-07-13 15:54 OP:ep   STATUS:               ID:20110831013449 L   I
 2011-08-31-0120-00M.COL___166                                                 6
 STAT SP IPHASW D HRMM SECON CODA AMPLIT PERI AZIMU VELO AIN AR TRES W  DIS CAZ7
 BRR  HZ IP     C  135  3.65                             132   -0.2510 76.3   1 
 BRR  HZ I         135  4.10        34.1 0.15                          76.3   1 
 BRR  HN ES        135 15.86                             132    0.3410 76.3   1 
 RUS  HZ EP   1    135  5.63                             127   -0.44 7 92.0 129 
 RUS  HN ES   1    135 19.18                             127   -0.20 7 92.0 129 
 NOR  SZ EP   1    135 12.86                             111    0.17 7  158 233 
 NOR  SE ES   1    135 31.56                             111    0.40 7  158 233 
 ZAR  HZ EP   1    135 13.87                             109   -0.48 7  172 314 
 ZAR  HE ES   1    135 33.57                             109   -0.54 7  172 314 
 ZAR  HZ I         135 35.55        12.8 0.40                           172 314 
 CHI  HZ EP   1    135 18.82                             106    0.99 6  198 180 
 CHI  HZ I         135 48.94         2.9 0.36                           198 180 
 HEL  HZ EP   1    135 17.94                             106   -0.20 6  201 263 
 HEL  HN ES   1    135 41.03                             106    0.17 6  201 263 
 HEL  HZ I         135 44.36         5.5 0.33                           201 263 
 OCA  SZ EP   1    135 19.11                             105    0.55 6  206  13 
 OCA  SZ ES   1    135 41.73                             105    0.12 6  206  13 
 OCA  SZ I         135 46.69        15.8 0.41                           206  13 
 PRA  HZ EP   1    135 32.47                              99   -0.32 5  325 203 
 PRA  HE ES   1    136  6.45                              99   -0.49 5  325 203 
                                                                                
