 2012  831 0437 52.2 L   6.623 -73.235144.4  RSN  4 0.2 1.4LRSN                1
 GAP=165        0.47       5.6     4.9  8.7  0.7479E+01 -0.1437E+02  0.1458E+02E
 Epicentro: BARICHARA - SANTANDER                                              3
 ACTION:UPD 12-09-10 11:59 OP:ep   STATUS:               ID:20120831043752 L   I
 2012-08-31-0430-00M.COL___218                                                 6
 STAT SP IPHASW D HRMM SECON CODA AMPLIT PERI AZIMU VELO AIN AR TRES W  DIS CAZ7
 BAR2 SZ EP        438 11.23                             177   -0.2310 6.73 121 
 BAR2 SZ I         438 29.44         9.7 0.36                          6.73 121 
 BRR  HZ EP        438 13.44                             151   -0.0110 75.1 315 
 BRR  HN ES   1    438 30.20                             151    0.20 7 75.1 315 
 BRR  HZ I         438 46.99         5.8 0.38                          75.1 315 
 RUS  HZ EP        438 14.72                             149    0.1110 82.5 168 
 RUS  HN ES   3    438 32.31                             149    0.24 2 82.5 168 
 PTB  HZ EP   2    438 18.43                             134    0.46 5  135 266 
 PTB  HE ES   1    438 37.86                             134   -0.20 7  135 266 
 PTB  HZ I         438 43.54         1.6 0.16                           135 266 
                                                                                
