 2013 1231 0320 34.5 L   6.744 -73.121133.7  RSN  7 0.5 1.4LRSN                1
 GAP=236        1.29       6.0     7.8  8.4  0.7948E+01  0.2031E+02  0.1516E+02E
 Epicentro: JORDAN - SANTANDER                                                 3
 ACTION:UPD 14-01-13 10:22 OP:ep   STATUS:               ID:20131231032034 L   I
 OLDACT:REG 13-12-31 08:41 OP:stll STATUS:               ID:20131231031817     3
 2013-12-31-0318-17M.COL___237                                                 6
 STAT SP IPHASW D HRMM SECON CODA AMPLIT PERI AZIMU VELO AIN AR TRES W  DIS CAZ7
 BAR2 SZ EP        320 52.75                             172    0.1510 18.1 202 
 BAR2 SZ ES        321  6.24                             172   -0.4710 18.1 202 
 BAR2 SZ I         321  9.19         8.9 0.50            169           18.1 202 
 BRR  HZ EP        320 54.81                             148    0.0910 76.6 302 
 BRR  HN ES        321 11.22                             148    0.7510 76.6 302 
 RUS  HN ES        321 14.29                             143    0.4110 94.3 177 
 RUS  HZ I         321 16.19         2.3 0.40            144           94.3 177 
 PTB  HZ EP        321  0.38                             129   -0.31 9  149 261 
 PTB  HN ES        321 20.04                             129   -1.06 9  149 261 
 PTB  HZ I         321 27.93         3.0 0.40            129            149 261 
 SPBC HZ EP        321  1.72                             127   -0.11 9  160 221 
 SPBC HN ES        321 23.06                             127   -0.08 9  160 221 
 SPBC HZ I         321 26.07         5.4 0.28            128            160 221 
 CHI  HZ EP        321 10.84                             115   -0.17 8  243 196 
 CHI  HZ I         321 11.48         1.1 0.36            117            243 196 
 CHI  HE ES        321 39.13                             115   -0.33 8  243 196 
 GUY2CHZ EP        321 17.59                             110    0.13 7  300 236 
 GUY2CHN ES        321 52.25                             110    1.31 7  300 236 
 GUY2CHZ I         321 59.24         1.5 0.46                           300 236 
                                                                                
