 2012  531 0701 58.1 L   6.835 -73.190140.0  RSN  6 0.3 2.3LRSN                1
 GAP=150        0.76       3.9     4.4  9.3 -0.4190E+01  0.9371E+01  0.1334E+02E
 Epicentro: ZAPATOCA - SANTANDER                                               3
 ACTION:UP  12-07-05 12:09 OP:pat  STATUS:               ID:20120531070157 L   I
 2012-05-31-0700-00M.COL___201                                                 6
 STAT SP IPHASW D HRMM SECON CODA AMPLIT PERI AZIMU VELO AIN AR TRES W  DIS CAZ7
 PAM  SZ EP   1    7 2 20.01                             150     0.3 8   78  44 
 PAM  SN ES   1    7 2 36.93                             150     0.3 8   78  44 
 PTB  HZ EP   1    7 2 23.82                             132    -0.4 8  144 257 
 PTB  HN ES   1    7 2 44.71                             132     0.1 8  144 257 
 PTB  HZ I         7 2 52.04        19.1 0.35                           144 257 
 OCA  HZ EP   1    7 2 25.46                             129    -0.1 7  156 355 
 OCA  HN ES        7 2 46.50                             129    -0.510  156 355 
 OCA  HZ I         7 2 51.88        51.2 0.39                           156 355 
 ZAR  HZ EP   1    7 2 29.70                             122     0.2 7  198 292 
 ZAR  HN ES   1    7 2 54.24                             122     0.2 7  198 292 
 ZAR  HZ I         7 2 57.70        12.5 0.14                           198 292 
 CHI  HZ EP   1    7 2 35.53                             116    -0.2 6  251 194 
 CHI  HZ I         7 2 38.07        13.7 0.43                           251 194 
 CHI  HN ES   1    7 3  4.75                             116    -0.4 6  251 194 
 HEL  HZ EP   1    7 2 38.34                             114     0.7 6  268 255 
 HEL  HN ES   1    7 3  8.51                             114     0.1 6  268 255 
 HEL  HZ I         7 3 15.50        12.0 0.28                           268 255 
                                                                                
