 2011  731 0819 34.0 L   7.491 -73.035153.3  RSN 11 0.5 2.3LRSN                1
 GAP= 97        0.93       3.8     6.1  5.9 -0.8370E+01  0.5481E+01  0.5799E+01E
 Epicentro: SURATA - SANTANDER                                                 3
 ACTION:UPD 12-07-25 14:04 OP:epov STATUS:               ID:20110731081934 L   I
 2011-07-31-0817-55S.COL___142                                                 6
 STAT SP IPHASW D HRMM SECON CODA AMPLIT PERI AZIMU VELO AIN AR TRES W  DIS CAZ7
 BRI  SZ EP   1    819 55.01                             166    0.24 7 36.2  46 
 BRI  SZ ES   1    820 11.03                             166    0.07 7 36.2  46 
 BRI  SZ I         820 17.70        25.5 0.46                          36.2  46 
 PAM  SZ EP   1    819 55.62                             164    0.25 7 40.6 114 
 PAM  SN ES   1    820 11.73                             164   -0.29 7 40.6 114 
 GRA  SZ EP        819 55.42                             161    0.1910 50.5  30 
 GRA  SZ ES   1    820 11.33                             161   -0.45 7 50.5  30 
 GRA  SZ I         820 13.50        45.4 0.23                          50.5  30 
 BRR  HZ IP     C  819 57.11                             149    0.2710 86.0 240 
 BRR  HN ES   1    820 14.81                             149    0.17 7 86.0 240 
 BRR  HZ I         820 18.16        49.8 0.14                          86.0 240 
 OCA  SZ EP   1    819 57.42                             148    0.20 7 88.5 339 
 OCA  SZ ES   1    820 14.88                             148   -0.44 7 88.5 339 
 OCA  SZ I         820 17.68        49.3 0.18                          88.5 339 
 BAR2 SZ EP        819 58.56                             145    0.4010  101 189 
 BAR2 SZ ES   1    820 17.67                             145    0.68 7  101 189 
 BAR2 SZ I         820 21.49        58.6 0.22                           101 189 
 RUS  HZ EP        820  5.14                             128    0.22 9  177 182 
 RUS  HE ES        820 28.70                             128   -0.32 9  177 182 
 RUS  HZ I         820 30.67         7.9 0.21                           177 182 
 NOR  SZ EP   1    820 17.21                             114    0.54 5  294 224 
 NOR  SN ES        820 48.85                             114   -1.08 7  294 224 
 SDV  BZ EP   1    820 17.02                             113   -1.18 5  306  60 
 SDV  BZ I         820 50.39         9.3 0.46                           306  60 
 HEL  HZ EP   1    820 18.91                             113   -0.02 5  311 243 
 CHI  HZ EP   1    820 20.67                             112    0.02 5  326 194 
 CHI  HZ I         820 22.77         6.8 0.16                           326 194 
 CHI  HE ES        820 56.43                             112   -0.60 7  326 194 
                                                                                
