 2017 1031 0029 25.7 L   6.861 -73.137140.5  RSN  4 0.1 1.4LRSN                1
 GAP=280        0.35       3.6     2.7  4.1  0.3762E+01 -0.6768E+00 -0.4537E+01E
 Epicentro: LOS SANTOS - SANTANDER                                             3
 ACTION:UPD 17-11-07 19:39 OP:rebc STATUS:               ID:20171031002925 L   I
 OLDACT:UP  17-10-31 13:55 OP:dani STATUS:               ID:20171031002106     3
 OLDACT:REG 17-10-31 12:35 OP:dani STATUS:               ID:20171031002106     3
 2017-10-31-0028-00M.COL___438                                                 6
 STAT SP IPHASW D HRMM SECON CODA AMPLIT PERI AZIMU VELO AIN AR TRES W  DIS CAZ7
 RUS  HZ EP        029 49.42                             141   -0.0210  107 177 
 RUS  HN ES        030  7.98                             141    0.0210  107 177 
 RUS  HZ I         030  9.39         3.2 0.26            137            107 177 
 PTB  HZ EP        029 52.37                             130   -0.10 9  150 256 
 PTB  HN ES        030 13.42                             130    0.07 9  150 256 
 PTB  HZ I         030 16.27         1.6 0.56            127            150 256 
 SPBC HE ES        030 16.70                             127   -0.04 9  169 218 
 SPBC HZ I         030 19.94         4.7 0.18            123            169 218 
 PRA  HZ EP        030 20.09                             105    0.30 6  398 209 
 PRA  HE ES   1    031  1.76                             105   -0.22 4  398 209 
 PRA  HZ I         031  7.67         1.1 0.31            104            398 209 
                                                                                
