 2013  831 0543 47.7 L   6.824 -73.103147.8  RSN  4 0.3 1.8LRSN                1
 GAP=208        0.71       4.8     9.4  9.5 -0.7096E+01 -0.7702E+01 -0.3810E+01E
 Epicentro: LOS SANTOS - SANTANDER                                             3
 ACTION:UPD 14-01-14 09:08 OP:ep   STATUS:               ID:20130831054347 L   I
 OLDACT:REG 13-08-31 09:16 OP:mh   STATUS:               ID:20130831053959     3
 2013-08-31-0539-59M.COL___269                                                 6
 STAT SP IPHASW D HRMM SECON CODA AMPLIT PERI AZIMU VELO AIN AR TRES W  DIS CAZ7
 BAR2 SZ EP   1    544  7.81                             168    0.14 7 27.1 199 
 BAR2 SZ ES   1    544 22.96                             168   -0.28 7 27.1 199 
 BAR2 SZ I         544 24.29         6.8 0.18            163           27.1 199 
 BRR  HZ EP   1    544  9.80                             151    0.55 7 74.2 295 
 BRR  HN ES        544 26.22                             151    0.1610 74.2 295 
 BRR  HZ I         544 30.26         5.4 0.44            143           74.2 295 
 OCA  HE ES        544 37.68                             130   -0.37 9  158 351 
 OCA  HE I         544 42.57        13.2 0.18            127            158 351 
 NOR  HN ES   2    544 52.04                             118   -0.51 4  240 235 
 NOR  HN I         544 58.99         7.7 0.16            115            240 235 
                                                                                
