 2012  131 0934 24.1 L   6.777 -73.165138.6  RSN 13 0.4 2.3LRSN                1
 GAP=135        0.89       3.2     4.0  6.0 -0.2722E+01  0.6460E+01  0.2777E+01E
 Epicentro: LOS SANTOS - SANTANDER                                             3
 ACTION:UP  12-02-03 08:22 OP:REBC STATUS:               ID:20120131093424 L   I
 2012-01-31-0930-00M.COL___187                                                 6
 STAT SP IPHASW D HRMM SECON CODA AMPLIT PERI AZIMU VELO SNR AR TRES W  DIS CAZ7
 BAR2 SZ EP   1    934 42.92                             171     0.1 7   20 185 
 BAR2 SZ ES   1    934 57.35                             171     0.0 7   20 185 
 BAR2 SZ I         935  0.38        63.2 0.34                            20 185 
 GIR2 SZ EP        934 43.07                             166     0.110   34 355 
 BRR  HZ EP        934 44.87                             151     0.510   71 301 
 BRR  HN ES   1    935  1.16                             151     0.9 7   71 301 
 BRR  HZ I         935  5.52        36.0 0.12                            71 301 
 PAM  SZ EP        934 45.84                             148     0.110   81  40 
 PAM  SZ I         934 46.18        37.7 0.17                            81  40 
 PAM  SN ES   1    935  2.58                             148    -0.1 7   81  40 
 RUS  HZ EP   1    934 46.84                             143    -0.1 7   98 175 
 RUS  HN ES   1    935  4.52                             143    -0.3 7   98 175 
 RUS  HZ I         935  6.72        22.8 0.31                            98 175 
 PTB  HZ EP   1    934 49.99                             131    -0.2 7  145 260 
 PTB  HN ES   1    935  9.94                             131    -0.7 7  145 260 
 OCA  SZ EP   1    934 51.73                             127    -0.3 7  163 354 
 OCA  SZ ES   1    935 12.99                             127    -0.9 7  163 354 
 OCA  SZ I         935 18.15        24.2 0.30                           163 354 
 ZAR  HZ EP   1    934 55.78                             121    -0.2 6  203 293 
 ZAR  HN ES   1    935 20.57                             121    -0.2 6  203 293 
 ZAR  HZ I         935 27.65        26.5 0.43                           203 293 
 NOR  SZ EP   1    934 59.02                             117     0.0 6  231 235 
 NOR  SN ES        935 26.43                             117     0.1 8  231 235 
 CHI  HZ EP   1    935  1.14                             116     0.1 6  246 195 
 CHI  HN ES   1    935 29.67                             116    -0.2 6  246 195 
 CHI  HZ I         935 36.18         7.0 0.28                           246 195 
 ROSC BZ EP   1    935  2.06                             115     0.6 6  249 211 
 ROSC BN ES   1    935 29.82                             115    -0.8 6  249 211 
 HEL  HZ EP        935  3.74                             114     0.1 8  269 256 
 HEL  HN ES   1    935 34.88                             114     0.4 6  269 256 
 HEL  HZ I         935 41.38        10.7 0.44                           269 256 
 PRA  HZ EP   1    935 16.91                             105     0.0 4  389 209 
                                                                                
