 2017 1231 0601 57.2 L   6.873 -73.142150.1  RSN 25 0.7 2.7LRSN                1
 GAP= 57        1.35       2.8     3.1  5.9 -0.1477E+01  0.4848E+01 -0.1972E+00E
 Epicentro: LOS SANTOS - SANTANDER                                             3
 ACTION:UPD 18-01-04 13:26 OP:rebc STATUS:               ID:20171231060157 L   I
 OLDACT:UP  17-12-31 14:04 OP:osc  STATUS:               ID:20171231055535     3
 OLDACT:REG 17-12-31 11:10 OP:osc  STATUS:               ID:20171231055535     3
 2017-12-31-0558-00M.COL___400                                                 6
 STAT SP IPHASW D HRMM SECON CODA AMPLIT PERI AZIMU VELO AIN AR TRES W  DIS CAZ7
 BAR2 EZ EP     D  6 2 17.47                             168   -0.0910 31.3 188 
 BAR2 EZ ES        6 2 32.71                             168   -0.7110 31.3 188 
 BAR2 EZ I         6 2 33.64        68.4 0.38            167           31.3 188 
 PAM  EZ EP        6 2 20.18                             154    0.6310 71.1  43 
 PAM  EE ES        6 2 37.27                             154    0.3010 71.1  43 
 PAM  EZ I         6 2 39.31       133.7 0.48            157           71.1  43 
 PTB  HZ EP        6 2 23.93                             133   -0.81 9  150 256 
 PTB  HE ES        6 2 45.22                             133   -0.98 9  150 256 
 PTB  HZ I         6 2 52.20        48.1 0.42            133            150 256 
 OCA  HZ EP        6 2 25.28                             132    0.13 9  152 353 
 OCA  HN ES        6 2 47.26                             132    0.33 9  152 353 
 OCA  HZ I         6 2 50.43       120.0 0.14            134            152 353 
 TAM  HZ IP     D  6 2 25.90                             131    0.48 9  157 108 
 TAM  HN ES        6 2 47.53                             131    0.11 9  157 108 
 TAM  HZ I         6 2 48.11        15.4 0.36            134            157 108 
 SPBC HZ EP        6 2 26.32                             129   -0.36 9  170 217 
 SPBC HN ES        6 2 49.22                             129   -0.43 9  170 217 
 SPBC HZ I         6 2 56.14        74.8 0.32            130            170 217 
 YPLC HZ EP        6 2 28.15                             126    0.14 9  184 153 
 YPLC HE ES        6 2 52.32                             126    0.29 9  184 153 
 YPLC HZ I         6 2 54.59        29.8 0.52            129            184 153 
 ZAR  HZ EP        6 2 30.30                             124    0.60 9  202 290 
 ZAR  HN ES        6 2 55.09                             124    0.06 9  202 290 
 ZAR  HZ I         6 3  1.79        88.4 0.20            125            202 290 
 ROSC BZ EP        6 2 37.86                             117    1.50 8  260 210 
 ROSC BN ES        6 3  7.78                             117    0.90 8  260 210 
 ROSC BZ I         6 3 13.19        64.4 0.35            118            260 210 
 DRL03HZ EP        6 2 38.05                             115   -0.11 7  281 353 
 DRL03HN ES        6 3 11.31                             115    1.22 7  281 353 
 URE  HZ EP        6 2 37.81                             115   -0.41 7  281 290 
 URE  HN ES   4    6 3  7.94                             115   -2.27 0  281 290 
 GUY2CHZ EP        6 2 41.93                             113    0.33 7  306 234 
 GUY2CHN ES        6 3 17.40                             113    1.19 7  306 234 
 GUY2CHZ I         6 3 24.92        14.3 0.54                           306 234 
 PTGC HZ EP        6 2 40.84                             112   -1.27 7  316 159 
 PTGC HE ES   4    6 3 14.14                             112   -2.98 0  316 159 
 PTGC HZ I         6 3 19.19        22.7 0.36            113            316 159 
 DRL02HZ EP        6 2 41.83                             112   -0.37 7  317 357 
 DRL02HE ES        6 3 16.59                             112   -0.69 7  317 357 
 CBOC HZ EP        6 2 45.26                             110    0.61 7  337 251 
 CBOC HN ES        6 3 22.36                             110    0.71 7  337 251 
 DBB  HZ EP        6 2 45.22                             110    0.36 7  339 273 
 DBB  HN ES        6 3 21.54                             110   -0.49 7  339 273 
 DBB  HZ I         6 3 23.19        16.5 0.32            111            339 273 
 ARGC HZ EP   9    6 2 47.57                             109    1.38 0  352 340 
 ARGC HE ES        6 3 26.22                             109    0.45 6  352 340 
 SDV  BZ EP        6 2 47.01                             109    0.20 6  355  51 
 SDV  B1 ES        6 3 23.96                             109   -1.53 6  355  51 
 SDV  BZ I         6 3 26.38         8.3 0.40            111            355  51 
 APAC HZ EP        6 2 51.61                             107    0.29 6  396 287 
 APAC HN ES        6 3 32.85                             107   -0.67 6  396 287 
 APAC HZ I         6 3 38.91         9.0 0.28            108            396 287 
 PRA  HZ EP        6 2 51.30                             107   -0.44 6  399 209 
 PRA  HN ES        6 3 33.01                             107   -1.24 6  399 209 
 PRA  HZ I         6 3 41.29        31.6 0.64            108            399 209 
 ORTC HZ EP        6 2 52.31                             107    0.23 6  402 216 
 ORTC HN ES        6 3 34.79                             107   -0.08 6  402 216 
 ORTC HZ I         6 3 40.07        23.8 0.52            108            402 216 
 SJC  HZ EP        6 2 51.29                             107   -0.88 6  403 326 
 SJC  HN ES   4    6 3 32.63                             107   -2.40 0  403 326 
 SJC  HZ I         6 3 36.89        13.1 0.50            108            403 326 
 PAL  HZ EP        6 2 53.24                             106    0.18 6  410 238 
 PAL  HN ES        6 3 36.55                             106   -0.06 6  410 238 
 PAL  HZ I         6 3 42.60         5.8 0.34            107            410 238 
 YOT  HZ EP        6 3  0.14                             104   -0.91 5  478 228 
 YOT  HN ES        6 3 50.59                             104   -0.25 5  478 228 
 SMAR HZ EP        6 3  2.40                             103    0.11 4  489 346 
 SMAR HN ES   4    6 3 50.98                             103   -2.07 0  489 346 
 MACC HZ EP   4    6 3 45.16                             102   38.16 0  529 189 
 MACC HE ES   4    6 4 37.90                             102   36.48 0  529 189 
                                                                                
