 2010  831 0507  8.8 L   6.792 -73.086146.5  RSN 10 0.3 1.9LRSN                1
 GAP=165        0.60       2.7     5.0  4.7 -0.2797E+01  0.8387E-01 -0.7305E+00E
 Epicentro: LOS SANTOS - SANTANDER                                             3
 ACTION:UP  10-09-07 10:59 OP:vdl  STATUS:               ID:20100831050708 L   I
 2010-08-31-0505-09S.COL___120                                                 6
 STAT SP IPHASW D HRMM SECON CODA AMPLIT PERI AZIMU VELO SNR AR TRES W  DIS CAZ7
 BAR2 SZ EP        5 7 28.37                             170    -0.110   25 206 
 BAR2 SZ ES   1    5 7 43.69                             170    -0.2 7   25 206 
 BAR2 SZ I         5 7 44.68        19.8 0.34                            25 206 
 BRR  HZ IP     C  5 7 30.29                             151    -0.110   77 297 
 BRR  HZ I         5 7 30.55        41.1 0.13                            77 297 
 BRR  HN ES   1    5 7 47.59                             151     0.4 7   77 297 
 RUS  HZ EP   1    5 7 32.78                             144     0.3 7   99 180 
 RUS  HN ES   1    5 7 50.93                             144    -0.1 7   99 180 
 RUS  HZ I         5 7 52.29         8.6 0.27                            99 180 
 GUE  SZ EP   1    5 7 33.50                             140     0.0 7  116   9 
 GRA  SZ EP        5 7 34.15                             137     0.210  125  14 
 GRA  SZ I         5 7 35.34        10.9 0.35                           125  14 
 OCA  SZ EP   1    5 7 36.84                             130    -0.5 7  162 351 
 OCA  SZ ES   2    5 7 59.70                             130     0.1 5  162 351 
 OCA  SZ I         5 8  4.98        10.1 0.26                           162 351 
 CHI  HZ EP   1    5 7 46.64                             117     0.0 6  250 197 
 CHI  HZ I         5 7 49.11         4.0 0.32                           250 197 
 CHI  HN ES   2    5 8 16.57                             117     0.4 4  250 197 
 HEL  HZ EP   2    5 7 49.97                                     0.3 4  278 256 
 HEL  HN ES   2    5 8 20.94                             114    -0.7 4  278 256 
 HEL  HZ I         5 8 26.75         4.2 0.26                           278 256 
 RREF HE ES   2    5 8 32.08                                     0.2 3  326 230 
 RREF HZ I         5 8 37.32         3.5 0.28                           326 230 
 PRA  HZ EP   1    5 8  2.92                             107     0.3 4  395 210 
 PRA  HN ES   2    5 8 43.82                             107    -0.8 3  395 210 
 PRA  HZ I         5 8 50.18         3.0 0.48                           395 210 
                                                                                
