 2017 1231 0738 11.1 L   6.822 -73.153153.2  RSN  6 0.5 1.4LRSN                1
 GAP=146        1.14       6.3     5.8  8.3 -0.1381E+02  0.1798E+02  0.4164E+00E
 Epicentro: LOS SANTOS - SANTANDER                                             3
 ACTION:UPD 18-01-04 13:26 OP:rebc STATUS:               ID:20171231073811 L   I
 OLDACT:REG 17-12-31 11:15 OP:osc  STATUS:               ID:20171231073314     3
 2017-12-31-0738-00M.COL___409                                                 6
 STAT SP IPHASW D HRMM SECON CODA AMPLIT PERI AZIMU VELO AIN AR TRES W  DIS CAZ7
 BAR2 EZ EP        738 31.90                             170    0.1810 25.6 187 
 BAR2 EZ ES        738 47.30                             170   -0.4610 25.6 187 
 BAR2 EZ I         738 48.48         4.8 0.14            167           25.6 187 
 PAM  EZ EP        738 34.40                             153    0.3210 76.0  41 
 PAM  EN ES        738 51.88                             153   -0.0910 76.0  41 
 PTB  HZ EP        738 38.45                             134   -0.25 9  147 258 
 PTB  HE ES        739  0.99                             134    0.79 9  147 258 
 PTB  HZ I         739  3.32         2.0 0.20            134            147 258 
 SPBC HZ EP        738 40.93                             130    0.57 9  165 218 
 SPBC HN ES        739  3.04                             130   -0.10 9  165 218 
 SPBC HZ I         739  9.25         3.3 0.34            130            165 218 
 ZAR  HZ EP        738 42.98                             124   -0.94 9  202 292 
 ZAR  HN ES        739  9.66                             124    0.18 9  202 292 
 GUY2CHZ EP        738 55.39                             114    0.20 7  302 234 
 GUY2CHE ES        739 28.86                             114   -0.69 7  302 234 
 GUY2CHZ I         739 39.75         1.1 0.28                           302 234 
                                                                                
