 2012  731 0828 10.9 L   6.714 -73.216153.1  RSN  5 0.4 1.3LRSN                1
 GAP=216        0.83       8.6     7.8  9.5  0.4083E+02 -0.1577E+01 -0.1176E+02E
 Epicentro: VILLANUEVA - SANTANDER                                             3
 ACTION:UPD 12-08-14 11:46 OP:ep   STATUS:               ID:20120731082811dL   I
 2012-07-31-0820-00M.COL___209                                                 6
 STAT SP IPHASW D HRMM SECON CODA AMPLIT PERI AZIMU VELO AIN AR TRES W  DIS CAZ7
 BAR2 SZ EP   1    828 30.88                             175    -0.4 7   14 165 
 BAR2 SZ I         828 31.54         6.1 0.19            174             14 165 
 BAR2 SZ ES   1    828 46.70                             175    -0.4 7   14 165 
 BRR  HZ EP        828 32.81                             154     0.110   70 308 
 BRR  HZ I         828 32.98         6.1 0.13            154             70 308 
 BRR  HN ES   1    828 50.14                             154     0.3 7   70 308 
 RUS  HZ EP   1    828 34.81                             148     0.0 7   92 171 
 RUS  HZ I         828 35.59         1.8 0.26            147             92 171 
 RUS  HN ES   1    828 53.96                             148     0.5 7   92 171 
 PTB  HN ES   1    828 58.08                             136    -0.5 7  139 262 
 ZAR  HN ES   1    829  9.25                             124     0.3 6  201 295 
