 2017  531 0428  1.1 L   6.828 -73.094138.3  RSN 11 0.3 2.0LRSN                1
 GAP=219        1.05       4.8     6.4  6.8  0.9358E+01 -0.9298E+01 -0.3599E+01E
 Epicentro: LOS SANTOS - SANTANDER                                             3
 ACTION:UPD 17-06-16 13:40 OP:jn   STATUS:               ID:20170531042801 L   I
 OLDACT:DUP 17-05-31 16:26 OP:osc  STATUS:               ID:20170531041740d    3
 2017-05-31-0418-00M.COL___353                                                 6
 STAT SP IPHASW D HRMM SECON CODA AMPLIT PERI AZIMU VELO AIN AR TRES W  DIS CAZ7
 BRR  HZ EP     D  428 21.66                             150   -0.0110 75.0 294 
 BRR  HE ES        428 37.98                             150    0.2610 75.0 294 
 BRR  HZ I         428 39.11        26.2 0.12            144           75.0 294 
 RUS  HZ EP        428 24.11                             141   -0.2210  103 179 
 RUS  HN ES        428 42.49                             141    0.0410  103 179 
 RUS  HZ I         428 44.58         7.9 0.16            137            103 179 
 PTB  HZ EP   9    428 26.78                             129   -1.27 0  154 258 
 PTB  HN ES        428 47.00                                   -0.81 9  154 258 
 PTB  HZ I         428 55.30        23.5 0.50            124            154 258 
 SPBC HZ EP        428 29.17                             126   -0.44 9  169 220 
 SPBC HE ES        428 51.46                             126   -0.40 9  169 220 
 SPBC HZ I         428 57.09        18.5 0.14            122            169 220 
 YPLC HZ EP     C  428 30.53                             125    0.17 9  177 153 
 YPLC HE ES   4    428 55.05                             125    1.87 0  177 153 
 YPLC HZ I         428 56.49         6.4 0.24            124            177 153 
 ZAR  HZ EP        428 33.26                             120   -0.25 8  208 291 
 ZAR  HE ES   4    428 57.92                             120   -0.87 0  208 291 
 ZAR  HZ I         429  3.58        13.8 0.24            118            208 291 
 NOR  HZ EP   9    428 34.62                             116   -2.48 0  241 235 
 NOR  HE ES        429  3.94                                    1.23 8  241 235 
 NOR  HZ I         429  4.84         6.4 0.18            114            241 235 
 CHI  HZ EP        428 39.17                             115    0.29 8  253 196 
 CHI  HE ES        429  8.63                             115    0.27 8  253 196 
 CHI  HZ I         429 15.41         4.0 0.40            113            253 196 
 HEL  HZ EP        428 42.12                             113    0.48 7  278 255 
 HEL  HE ES   4    429 14.13                             113    0.86 0  278 255 
 HEL  HZ I         429 18.15         5.3 0.40            111            278 255 
 PTGC HZ EP   9    428 43.38                             110   -1.33 0  310 160 
 PTGC HN ES        429 17.19                                   -0.22 7  310 160 
 CBOC HZ EP        428 48.53                             108    0.08 7  340 252 
 CBOC HE ES   4    429 23.15                             108   -2.24 0  340 252 
 CBOC HZ I         429 39.31         1.6 0.60            107            340 252 
                                                                                
