 2010  731 0931  2.5 L   6.784 -73.141142.0  RSN  6 0.3 1.6LRSN                1
 GAP=159        0.74       4.9     9.4  7.6  0.9721E+01 -0.1215E+02 -0.6017E+01E
 Epicentro: LOS SANTOS - SANTANDER                                             3
 ACTION:UPD 10-12-01 15:21 OP:pat  STATUS:               ID:20100731093102 L   I
 2010-07-31-0929-23S.COL___123                                                 6
 STAT SP IPHASW D HRMM SECON CODA AMPLIT PERI AZIMU VELO AIN AR TRES W  DIS CAZ7
 BAR2 SZ EP        931 21.44                             171    -0.210   22 192 
 BAR2 SZ ES   1    931 36.25                             171    -0.3 7   22 192 
 BAR2 SZ I         931 39.60         8.9 0.27                            22 192 
 BRR  HZ IP     D  931 23.17                             151    -0.110   73 300 
 BRR  HN ES   1    931 39.81                             151     0.3 7   73 300 
 BRR  HZ I         931 43.17        10.9 0.61                            73 300 
 RUS  HZ EP   1    931 25.66                             143    -0.1 7   99 176 
 RUS  HN ES   1    931 44.29                             143     0.4 7   99 176 
 RUS  HZ I         931 45.80         4.5 0.22                            99 176 
 GUE  SZ EP   1    931 27.49                             138     0.5 7  118  12 
 GRA  SZ ES   2    931 46.74                             136    -0.3 5  127  17 
 GRA  SZ I         931 47.91         3.1 0.19                           127  17 
 PRA  HZ EP   2    931 55.48                             106    -0.2 3  391 210 
 PRA  HZ I         932 44.32         2.4 0.28                           391 210 
                                                                                
