 2014  831 0631 47.3 L   6.814 -73.126144.5  RSN 13 0.4 1.7LRSN                1
 GAP=185        0.78       2.7     3.9  5.7 -0.6986E-01  0.3624E+01 -0.1589E+01E
 Epicentro: LOS SANTOS - SANTANDER                                             3
 ACTION:UPD 14-09-15 21:54 OP:nd   STATUS:               ID:20140831063147 L   I
 OLDACT:DUP 14-08-31 16:22 OP:fm   STATUS:               ID:20140831062817d    3
 2014-08-31-0628-16M.COL___263                                                 6
 STAT SP IPHASW D HRMM SECON CODA AMPLIT PERI AZIMU VELO AIN AR TRES W  DIS CAZ7
 BAR2 SZ EP   1    632  6.69                             170   -0.16 8 25.3 194 
 BAR2 SZ ES   1    632 22.08                             170    0.00 8 25.3 194 
 BAR2 SZ I         632 23.66         5.0 0.28            167           25.3 194 
 RUS  HZ EP   1    632 11.36                             143    0.30 8  102 177 
 RUS  HN ES   1    632 29.40                             143   -0.16 8  102 177 
 RUS  HZ I         632 31.07         3.6 0.34            144            102 177 
 PTB  HZ EP        632 14.12                             131   -0.3010  150 258 
 PTB  HN ES        632 35.64                             131    0.0910  150 258 
 PTB  HZ I         632 38.14         5.6 0.18            131            150 258 
 OCA  HZ EP   1    632 15.53                             130    0.10 7  159 352 
 OCA  HN ES   1    632 37.80                             130    0.46 7  159 352 
 OCA  HZ I         632 42.19         7.7 0.30            131            159 352 
 SPBC HZ EP        632 16.22                             128    0.2510  166 219 
 SPBC HN ES        632 38.32                             128    0.0010  166 219 
 SPBC HZ I         632 43.81         9.6 0.40            129            166 219 
 ZAR  HZ EP   1    632 19.18                             122   -0.66 7  206 292 
 ZAR  HN ES        632 45.87                             122    0.66 9  206 292 
 ZAR  HZ I         632 50.12         3.6 0.34            122            206 292 
 NOR  HE ES   1    632 50.43                             118   -0.87 6  237 234 
 NOR  HZ I         632 58.07         4.1 0.24            118            237 234 
 SML  HZ EP   1    632 23.64                             117   -0.20 6  243 335 
 SML  HN ES   1    632 51.41                             117   -0.90 6  243 335 
 SML  HZ I         632 56.30         8.9 0.10            119            243 335 
 CHI  HZ EP   1    632 24.77                             117   -0.41 6  251 196 
 CHI  HN ES   1    632 54.70                             117    0.00 6  251 196 
 CHI  HZ I         633  0.20         2.0 0.30            118            251 196 
 HEL  HZ EP   1    632 27.92                             114    0.17 6  275 256 
 HEL  HN ES   1    632 59.43                             114    0.14 6  275 256 
 HEL  HZ I         633  6.05         2.9 0.32            115            275 256 
 CBOC HZ EP   1    632 35.30                             110    0.82 5  336 252 
 CBOC HN ES   1    633 11.00                             110   -0.26 5  336 252 
 CBOC HZ I         633 15.40         1.0 0.26            110            336 252 
 TOL  SN ES   4    633 15.37                             109    1.70 0  346 225 
 PRA  HZ EP   1    632 41.70                             106    0.62 5  394 210 
 PRA  HN ES   4    633 20.88                             106   -2.13 0  394 210 
 PRA  HZ I         633 28.01         1.8 0.52            107            394 210 
 SJC  HZ EP   4    632 41.41                             106   -1.43 0  409 327 
 SJC  HN ES   4    633 22.17                             106   -3.97 0  409 327 
 SJC  HZ I         633 23.88         1.5 0.72            107            409 327 
                                                                                
