 2014  331 0650 33.1 L   6.725 -73.512110.6  RSN 11 0.5 1.8LRSN                1
 GAP= 59        1.18       2.7     4.2  8.2 -0.2364E+01  0.1847E+02 -0.2724E+01E
 Epicentro: EL CARMEN DE CHUCURI - SANTANDER                                   3
 ACTION:UPD 14-04-09 23:21 OP:nd   STATUS:               ID:20140331065033 L   I
 OLDACT:REG 14-03-31 09:44 OP:carl STATUS:               ID:20140331064848     3
 2014-03-31-0648-48M.COL___249                                                 6
 STAT SP IPHASW D HRMM SECON CODA AMPLIT PERI AZIMU VELO AIN AR TRES W  DIS CAZ7
 BAR2 SZ EP        650 49.36                             159    0.3110 39.3 112 
 BAR2 SZ ES        651  1.82                             159    0.3110 39.3 112 
 BAR2 SZ I         651  3.44        26.9 0.20            161           39.3 112 
 RUS  HZ EP        650 53.90                             134    0.0910  104 153 
 RUS  HN ES        651 10.21                             134    0.2110  104 153 
 RUS  HZ I         651 10.87        11.2 0.46            136            104 153 
 PTB  HZ IP     C  650 52.34                             133   -1.0710  106 259 
 PTB  HN ES   4    651  6.67                             133   -2.61 0  106 259 
 PTB  HZ I         651  8.23        24.6 0.16            132            106 259 
 PAM  SZ EP        650 54.77                             131    0.1510  113  53 
 PAM  SN ES        651 11.47                             131    0.0510  113  53 
 PAM  SZ I         651 13.10        11.6 0.14            131            113  53 
 SPBC HZ EP        650 56.39                             126    0.2710  134 208 
 SPBC HE ES        651 13.48                             126   -0.6210  134 208 
 SPBC HZ I         651 14.70        12.2 0.34            127            134 208 
 OCA  HN ES        651 20.05                             119   -0.61 9  169   7 
 OCA  HZ I         651 28.27         5.7 0.12            118            169   7 
 ZAR  HZ EP        651  0.35                             118    0.47 9  171 300 
 ZAR  HE ES        651 20.88                             118    0.09 9  171 300 
 ZAR  HZ I         651 24.84        10.5 0.28            117            171 300 
 NOR  HZ EP        651  2.28                             114   -0.55 9  198 230 
 NOR  HE ES        651 25.99                             114   -0.06 9  198 230 
 NOR  HZ I         651 29.88         6.4 0.12            115            198 230 
 CHI  HZ EP        651  6.88                             110   -0.41 8  233 186 
 CHI  HE ES        651 33.69                             110   -0.29 8  233 186 
 CHI  HZ I         651 38.35         1.8 0.24            111            233 186 
 SML  HZ EP        651  7.37                             110    0.08 8  238 345 
 SML  HN ES        651 34.16                             110    0.17 8  238 345 
 SML  HZ I         651 43.60        10.2 0.10            109            238 345 
 GUY2CHZ EP        651 11.63                             107    0.71 8  264 231 
 GUY2CHN ES        651 41.54                             107    1.08 8  264 231 
 GUY2CHZ I         651 47.06         2.6 0.32                           264 231 
                                                                                
