 2013  731 0410 53.0 L   6.811 -73.130147.6  RSN 11 0.4 2.1LRSN                1
 GAP=185        0.83       2.9     4.3  5.7 -0.2271E+01  0.6533E+01 -0.6540E+00E
 Epicentro: LOS SANTOS - SANTANDER                                             3
 ACTION:UPD 13-08-12 10:41 OP:ep   STATUS:               ID:20130731041053 L   I
 OLDACT:REG 13-07-31 10:07 OP:carl STATUS:               ID:20130731040959     3
 2013-07-31-0409-59M.COL___265                                                 6
 STAT SP IPHASW D HRMM SECON CODA AMPLIT PERI AZIMU VELO AIN AR TRES W  DIS CAZ7
 BAR2 SZ IP     C  411 13.04                             170    0.1210 24.9 194 
 BAR2 SZ ES   1    411 27.64                             170   -0.79 7 24.9 194 
 BAR2 SZ I         411 30.30        12.2 0.18            166           24.9 194 
 GIR2 SZ EP   1    411 13.13                             168    0.22 7 30.4 347 
 GIR2 SZ ES   1    411 28.85                             168    0.45 7 30.4 347 
 BRR  HZ IP     D  411 14.84                             152    0.4010 72.2 297 
 BRR  HN ES   1    411 31.86                             152    0.73 7 72.2 297 
 BRR  HZ I         411 32.56        17.0 0.12            148           72.2 297 
 RUS  HZ EP   1    411 17.05                             144   -0.00 7  102 177 
 RUS  HE ES   1    411 35.76                             144   -0.02 7  102 177 
 RUS  HZ I         411 36.60         9.1 0.24            145            102 177 
 PTB  HZ EP   1    411 19.69                             132   -0.65 7  150 259 
 PTB  HN ES   1    411 40.94                             132   -0.68 7  150 259 
 PTB  HZ I         411 46.84        10.1 0.24            130            150 259 
 OCA  HZ EP   1    411 21.34                             130   -0.06 7  159 352 
 OCA  HN ES        411 43.26                             130   -0.26 9  159 352 
 SPBC HZ EP        411 22.01                             129    0.13 9  165 219 
 SPBC HN ES   1    411 44.06                             129   -0.30 7  165 219 
 SPBC HN I         411 49.47        28.2 0.40            128            165 219 
 ZAR  HZ EP   1    411 25.23                             123   -0.50 6  205 292 
 ZAR  HE ES   1    411 51.42                             123    0.20 6  205 292 
 ZAR  HE I         411 56.39        50.8 0.34            122            205 292 
 ZAR  HZ I         411 56.87        12.2 0.44                           205 292 
 NOR  HZ EP   1    411 29.60                             119    0.49 6  237 234 
 NOR  HN ES        411 57.12                             119   -0.12 8  237 234 
 NOR  HZ I         412  1.95         7.1 0.38            118            237 234 
 SML  HZ EP   1    411 29.59                             118   -0.14 6  243 335 
 SML  HN ES   1    411 58.00                             118   -0.35 6  243 335 
 SML  HN I         412  2.35        31.6 0.10            118            243 335 
 HEL  HN ES        412  5.68                             115    0.50 8  274 256 
 HEL  HN I         412 12.76         7.4 0.38            115            274 256 
                                                                                
