 2017 1031 0447  0.2 L   6.753 -73.165144.6  RSN  4 0.3 0.9LRSN                1
 GAP=232        0.70       5.8     6.5  5.9  0.2185E+02  0.1884E+01  0.4486E+00E
 Epicentro: LOS SANTOS - SANTANDER                                             3
 ACTION:UPD 17-11-07 19:39 OP:rebc STATUS:               ID:20171031044700 L   I
 OLDACT:UP  17-10-31 16:04 OP:dani STATUS:               ID:20171031043743d    3
 OLDACT:UP  17-10-31 16:04 OP:dani STATUS:               ID:20171031043743d    3
 OLDACT:DUP 17-10-31 16:01 OP:dani STATUS:               ID:20171031043743d    3
 OLDACT:UP  17-10-31 16:00 OP:dani STATUS:               ID:20171031043742     3
 OLDACT:REG 17-10-31 13:07 OP:dani STATUS:               ID:20171031043742     3
 2017-10-31-0438-00M.COL___441                                                 6
 STAT SP IPHASW D HRMM SECON CODA AMPLIT PERI AZIMU VELO AIN AR TRES W  DIS CAZ7
 BAR2 EZ EP        447 19.24                             173   -0.3910 17.9 186 
 BAR2 EZ ES        447 34.52                             173   -0.2410 17.9 186 
 BAR2 EZ I         447 36.88         2.5 0.40            173           17.9 186 
 BRR  HZ EP        447 21.64                             152    0.3310 72.0 303 
 BRR  HE ES        447 37.90                             152    0.1610 72.0 303 
 BRR  HZ I         447 39.55         1.8 0.15            154           72.0 303 
 RUS  HZ EP        447 23.46                             145   -0.0610 95.6 175 
 RUS  HN ES        447 42.01                             145    0.3310 95.6 175 
 RUS  HZ I         447 43.19         0.9 0.20            147           95.6 175 
 PTB  HZ EP   1    447 26.90                             132    0.06 7  145 261 
 PTB  HN ES   1    447 47.26                             132   -0.33 7  145 261 
 PTB  HZ I         447 48.20         0.7 0.30            134            145 261 
                                                                                
