 2016  831 0807  7.8 L   6.834 -73.144147.5  RSN 17 0.5 2.4LRSN                1
 GAP= 70        1.09       3.1     3.1  5.5 -0.1315E+01  0.3646E+01  0.2476E+01E
 Epicentro: LOS SANTOS - SANTANDER                                             3
 ACTION:UPD 16-10-29 15:40 OP:rebc STATUS:               ID:20160831080707 L   I
 OLDACT:UP  16-08-31 17:03 OP:drio STATUS:               ID:20160831075733     3
 OLDACT:UP  16-08-31 17:02 OP:drio STATUS:               ID:20160831075733     3
 OLDACT:REG 16-08-31 12:56 OP:drio STATUS:               ID:20160831075733     3
 2016-08-31-0758-00M.COL___344                                                 6
 STAT SP IPHASW D HRMM SECON CODA AMPLIT PERI AZIMU VELO AIN AR TRES W  DIS CAZ7
 BAR2 EZ EP        8 7 27.67                             169   -0.0910 27.1 189 
 BAR2 EZ ES        8 7 43.15                             169   -0.1510 27.1 189 
 BAR2 EZ I         8 7 43.65        48.5 0.66                          27.1 189 
 BRR  HZ EP     C  8 7 29.39                             153    0.3010 69.6 296 
 BRR  HN ES        8 7 46.22                             153    0.5610 69.6 296 
 BRR  HZ I         8 7 50.57        32.8 0.12                          69.6 296 
 PAM  EZ EP        8 7 30.63                             152    0.5610 74.4  41 
 PAM  EE ES        8 7 47.47                             152    0.0710 74.4  41 
 PAM  EZ I         8 7 49.36        58.2 0.48                          74.4  41 
 RUS  HZ EP        8 7 31.63                             143   -0.4110  104 176 
 RUS  HN ES        8 7 50.81                             143   -0.1010  104 176 
 PTB  HZ EP        8 7 34.35                             132   -0.68 9  149 257 
 PTB  HN ES        8 7 55.53                             132   -0.71 9  149 257 
 PTB  HZ I         8 8  0.92        32.7 0.24                           149 257 
 TAM  HZ EP        8 7 35.98                             131    0.24 9  156 106 
 TAM  HN ES        8 7 57.76                             131    0.26 9  156 106 
 OCA  HZ EP        8 7 35.54                             131   -0.40 9  157 353 
 OCA  HE ES        8 7 57.34                             131   -0.51 9  157 353 
 OCA  HZ I         8 8  1.88        72.0 0.26                           157 353 
 SPBC HZ EP        8 7 36.71                             129   -0.05 9  166 218 
 SPBC HN ES        8 7 59.38                             129    0.06 9  166 218 
 SPBC HZ I         8 8  6.71        40.1 0.24                           166 218 
 ZAR  HZ EP        8 7 40.58                             123    0.31 9  203 291 
 ZAR  HN ES        8 8  5.75                             123    0.19 9  203 291 
 ZAR  HZ I         8 8  7.73        22.0 0.28                           203 291 
 NOR  HZ EP        8 7 43.87                             119   -0.05 8  237 234 
 NOR  HE ES        8 8 11.68                             119   -0.39 8  237 234 
 NOR  HZ I         8 8 18.50        13.8 0.16                           237 234 
 CHI  HZ EP        8 7 45.72                             117   -0.32 8  252 195 
 CHI  HN ES        8 8 15.53                             117   -0.30 8  252 195 
 CHI  HZ I         8 8 23.56         8.1 0.36                           252 195 
 ROSC BZ EP   4    8 7 47.58                             117    1.16 0  256 211 
 ROSC BE ES   4    8 8 20.38                             117    3.87 0  256 211 
 ROSC BZ I         8 8 22.04        12.0 0.35                           256 211 
 HEL  HZ EP   4    8 7 50.04                             115    1.78 0  273 255 
 HEL  HN ES   4    8 8 22.94                             115    3.15 0  273 255 
 HEL  HZ I         8 8 27.00        12.3 0.32                           273 255 
 URE  HZ EP   4    8 7 51.66                             114    2.81 0  283 291 
 URE  HE ES   4    8 8 19.39                             114   -1.45 0  283 291 
 GUY2CHZ EP   4    8 7 53.41                             112    1.62 0  304 234 
 GUY2CHN ES        8 8 27.65                             112    1.58 7  304 234 
 GUY2CHZ I         8 8 36.27        11.1 0.70                           304 234 
 PTGC HZ EP   4    8 7 51.07                             112   -1.10 0  312 159 
 PTGC HN ES   4    8 8 24.83                             112   -1.92 0  312 159 
 PTGC HZ I         8 8 30.63         8.4 0.46                           312 159 
 ELA  HZ EP   4    8 8  0.09                             110    5.03 0  332 229 
 ELA  HN ES        8 8 32.00                             110    0.11 7  332 229 
 ELA  HZ I         8 8 42.40         8.1 0.36                           332 229 
 CBOC HZ EP        8 7 55.52                             110    0.54 7  335 251 
 CBOC HE ES   4    8 8 30.74                             110   -1.01 0  335 251 
 CBOC HZ I         8 8 43.82         5.3 0.56                           335 251 
                                                                                
