 2011 1031 0945 26.2 L   5.894 -73.762113.7  RSN  4 0.2 1.3LRSN                1
 GAP=236        0.37       7.2     9.8 14.2  0.5321E+02  0.1103E+03  0.5108E+02E
 Epicentro: JESUS MARIA - SANTANDER                                            3
 ACTION:UPD 12-07-13 16:07 OP:ep   STATUS:               ID:20111031094526 L   I
 2011-10-31-0943-41S.COL___157                                                 6
 STAT SP IPHASW D HRMM SECON CODA AMPLIT PERI AZIMU VELO AIN AR TRES W  DIS CAZ7
 RUS  HZ EP   2    945 44.88                             145   -0.08 5 75.1  90 
 RUS  HZ I         945 59.47         2.6 0.70                          75.1  90 
 RUS  HN ES   2    945 59.73                             145    0.14 5 75.1  90 
 BAR2 SZ ES   2    946  2.19                             136   -0.30 5  100  40 
 BAR2 SZ I         946  3.34         7.5 0.34                           100  40 
 BRR  HZ EP   2    945 49.53                             126    0.14 5  134   2 
 BRR  HZ I         945 49.89         3.7 0.15                           134   2 
 BRR  HN ES   2    946  7.74                             126    0.26 5  134   2 
 ZAR  HN ES   2    946 22.51                             113   -0.17 4  214 326 
                                                                                
