 2011 1031 0636  9.9 L   6.782 -73.286  4.0  RSN  5 0.4 1.2LRSN                1
 GAP=153        0.69       3.6     5.1  6.1  0.1480E+02  0.7158E+01  0.2584E+01E
 Epicentro: ZAPATOCA - SANTANDER                                               3
 ACTION:UPD 12-07-13 16:07 OP:ep   STATUS:               ID:20111031063609 L   I
 2011-10-31-0634-12S.COL___157                                                 6
 STAT SP IPHASW D HRMM SECON CODA AMPLIT PERI AZIMU VELO AIN AR TRES W  DIS CAZ7
 BAR2 SZ EP        636 14.17                              47   -0.2210 23.9 151 
 BAR2 SZ ES   1    636 18.22                              47    0.35 7 23.9 151 
 BAR2 SZ I         636 19.38        35.2 0.41                          23.9 151 
 BRR  HZ EP   1    636 19.18                              47   -0.33 7 59.3 307 
 BRR  HN ES   1    636 27.07                              47    0.10 7 59.3 307 
 BRR  HZ I         636 28.10        10.2 0.27                          59.3 307 
 RUS  HZ EP   1    636 26.83                              47    0.51 7  101 167 
 RUS  HZ I         636 28.83         5.3 0.15                           101 167 
 RUS  HN ES   2    636 38.10                              47   -0.99 5  101 167 
 OCA  SZ EP   2    636 35.35                              47    0.24 5  161 359 
 OCA  SZ ES   2    636 54.56                              47   -0.19 5  161 359 
 OCA  SZ I         636 59.96         4.6 0.46                           161 359 
 ZAR  HZ EP   2    636 39.35                              37    0.32 4  191 294 
 ZAR  HZ I         636 39.92         2.1 0.81                           191 294 
 ZAR  HN ES   2    637  1.92                              37    0.20 4  191 294 
                                                                                
