 2017 1031 0827 28.9 L   6.814 -72.846  0.0  RSN  5 0.6 1.0LRSN                1
 GAP=266        1.11       6.0    10.6 10.6  0.3777E+02  0.7403E+02  0.2528E+02E
 Epicentro: SAN ANDRES - SANTANDER                                             3
 ACTION:UPD 17-11-07 19:39 OP:rebc STATUS:               ID:20171031082728 L   I
 OLDACT:UP  17-10-31 18:16 OP:dani STATUS:               ID:20171031081740d    3
 OLDACT:UP  17-10-31 18:16 OP:dani STATUS:               ID:20171031081740d    3
 OLDACT:UP  17-10-31 18:15 OP:dani STATUS:               ID:20171031081740d    3
 OLDACT:UP  17-10-31 18:15 OP:dani STATUS:               ID:20171031081740d    3
 OLDACT:UP  17-10-31 18:15 OP:dani STATUS:               ID:20171031081740d    3
 OLDACT:UP  17-10-31 18:14 OP:dani STATUS:               ID:20171031081740d    3
 OLDACT:UP  17-10-31 18:14 OP:dani STATUS:               ID:20171031081740d    3
 OLDACT:UP  17-10-31 18:14 OP:dani STATUS:               ID:20171031081740d    3
 OLDACT:DUP 17-10-31 18:12 OP:dani STATUS:               ID:20171031081740d    3
 OLDACT:UP  17-10-31 18:11 OP:dani STATUS:               ID:20171031081739     3
 OLDACT:REG 17-10-31 13:24 OP:dani STATUS:               ID:20171031081739     3
 2017-10-31-0818-00M.COL___441                                                 6
 STAT SP IPHASW D HRMM SECON CODA AMPLIT PERI AZIMU VELO AIN AR TRES W  DIS CAZ7
 BAR2 EZ EP        827 36.47                              47   -0.6210 44.5 237 
 BAR2 EZ ES        827 43.46                              47    0.0010 44.5 237 
 BAR2 EZ I         827 44.72         8.3 0.18             91           44.5 237 
 RUS  HZ EP        827 46.26                              47   -0.2910  105 194 
 RUS  HN ES        828  0.51                              47    0.2310  105 194 
 RUS  HZ I         828  2.54         2.1 0.52             90            105 194 
 PTB  HZ EP        827 58.36                              37    0.90 9  181 260 
 PTB  HN ES   3    828 21.13                              37    1.43 2  181 260 
 PTB  HZ I         828 23.84         2.0 0.14             90            181 260 
 SPBC HZ EP   3    827 59.76                              37    1.44 2  187 227 
 SPBC HZ I         828 30.64         2.8 0.38             56            187 227 
 ZAR  HE ES        828 31.44                              37   -0.25 8  235 289 
                                                                                
