 2016  331 0130 46.9 L   6.638 -73.537101.6  RSN 14 0.5 1.9LRSN                1
 GAP= 68        1.12       3.0     2.7  6.4 -0.2437E+01  0.4986E+01 -0.2298E+01E
 Epicentro: EL CARMEN - SANTANDER                                              3
 ACTION:UPD 16-05-13 21:29 OP:cam  STATUS:               ID:20160331013047 L   I
 OLDACT:UP  16-04-01 11:33 OP:AR   STATUS:               ID:20160331013047 L   3
 OLDACT:UP  16-03-31 13:51 OP:drio STATUS:               ID:20160331012747     3
 OLDACT:UP  16-03-31 13:51 OP:drio STATUS:               ID:20160331012747     3
 OLDACT:REG 16-03-31 12:17 OP:drio STATUS:               ID:20160331012747     3
 2016-03-31-0127-47M.COL___290                                                 6
 STAT SP IPHASW D HRMM SECON CODA AMPLIT PERI AZIMU VELO AIN AR TRES W  DIS CAZ7
 BAR2 EZ EP        131  2.47                             157    0.6110 39.6  97 
 BAR2 EZ ES        131 13.84                             157    0.3110 39.6  97 
 BAR2 EZ I         131 15.83        74.7 0.20            161           39.6  97 
 RUS  HZ EP     C  131  6.11                             133   -0.1410 96.5 149 
 RUS  HE ES        131 21.69                             133    0.3410 96.5 149 
 RUS  HZ I         131 22.92         9.5 0.24            135           96.5 149 
 PTB  HZ IP     C  131  5.53                             131   -0.5910  102 264 
 PTB  HE ES        131 20.38                             131   -0.7510  102 264 
 PTB  HZ I         131 21.69        23.2 0.16            130            102 264 
 PAM  EZ EP        131  8.78                             126    0.2510  121  50 
 PAM  EE ES        131 25.58                             126    0.1710  121  50 
 PAM  EZ I         131 27.12        25.9 0.36            129            121  50 
 SPBC HZ EP        131  8.10                             125   -0.2310  124 209 
 SPBC HE ES        131 24.77                             125   -0.2810  124 209 
 SPBC HZ I         131 31.11        28.4 0.20            125            124 209 
 ZAR  HZ EP   4    131 14.69                             115    1.19 0  174 303 
 ZAR  HE ES   4    131 36.85                             115    2.59 0  174 303 
 ZAR  HZ I         131 39.01        17.1 0.60            116            174 303 
 OCA  HZ EP        131 14.05                             114   -0.17 9  179   8 
 OCA  HN ES        131 35.59                             114    0.04 9  179   8 
 NOR  HZ EP        131 14.91                             113   -0.38 9  189 231 
 NOR  HE ES        131 37.08                             113   -0.37 9  189 231 
 NOR  HZ I         131 42.46         6.0 0.28            113            189 231 
 TAM  HZ EP        131 15.46                             112   -0.39 9  194  97 
 TAM  HE ES        131 37.86                             112   -0.58 9  194  97 
 TAM  HZ I         131 40.82         6.9 0.28            114            194  97 
 CHI  HZ EP        131 20.00                             109    0.40 8  223 186 
 CHI  HE ES        131 45.35                             109    0.23 8  223 186 
 CHI  HZ I         131 49.05         4.4 0.34            109            223 186 
 HEL  HZ EP        131 20.79                             108    0.93 8  226 257 
 HEL  HN ES        131 46.43                             108    0.85 8  226 257 
 HEL  HZ I         131 49.97         4.3 0.32            109            226 257 
 URE  HZ EP        131 22.27                             106   -0.26 8  252 299 
 URE  HN ES   4    131 48.40                             106   -1.93 0  252 299 
 URE  HZ I         131 52.39         9.0 0.14            106            252 299 
 GUY2CHZ EP   4    131 24.82                             105    1.34 0  256 232 
 GUY2CHE ES   4    131 55.15                             105    3.12 0  256 232 
 GUY2CHZ I         132  0.83         4.8 0.66                           256 232 
 CBOC HZ EP   4    131 28.69                             103    1.89 0  287 253 
 CBOC HE ES        131 58.34                             103    0.41 7  287 253 
 CBOC HZ I         132 10.06         1.5 0.20            104            287 253 
                                                                                
