 2015  531 0705  1.5 L   6.779 -73.131143.0  RSN  4 0.2 1.5LRSN                1
 GAP=237        0.53       3.1     4.7  4.2  0.3189E+01  0.1490E+01  0.1885E+01E
 Epicentro: LOS SANTOS - SANTANDER                                             3
 ACTION:UPD 15-09-10 22:08 OP:cam  STATUS:               ID:20150531070501 L   I
 OLDACT:REG 15-05-31 13:13 OP:ar   STATUS:               ID:20150531065748     3
 2015-05-31-0657-48M.COL___313                                                 6
 STAT SP IPHASW D HRMM SECON CODA AMPLIT PERI AZIMU VELO AIN AR TRES W  DIS CAZ7
 BAR2 EZ EP        7 5 20.59                             171   -0.1810 21.4 195 
 BAR2 EZ ES        7 5 35.56                             171   -0.2310 21.4 195 
 BAR2 EZ I         7 5 37.77         7.8 0.16            164           21.4 195 
 BRR  HZ EP        7 5 22.41                             151   -0.1010 73.7 300 
 BRR  HN ES        7 5 39.14                             151    0.2510 73.7 300 
 BRR  HZ I         7 5 41.12         4.4 0.40            148           73.7 300 
 RUS  HZ EP        7 5 24.98                             144    0.1610 98.1 177 
 RUS  HN ES        7 5 43.19                             144    0.2010 98.1 177 
 RUS  HZ I         7 5 44.69         5.0 0.42            142           98.1 177 
 SPBC HZ EP        7 5 29.78                             129    0.06 9  162 220 
 SPBC HN ES        7 5 51.55                             129   -0.18 9  162 220 
 SPBC HZ I         7 5 58.42         6.1 0.20            127            162 220 
                                                                                
