 2017 1231 0951 28.4 L   6.794 -73.171139.0  RSN 11 0.5 1.7LRSN                1
 GAP= 64        1.17       3.3     3.2  6.8 -0.3994E+00  0.5882E+01  0.1335E+01E
 Epicentro: LOS SANTOS - SANTANDER                                             3
 ACTION:UPD 18-01-04 13:26 OP:rebc STATUS:               ID:20171231095128 L   I
 OLDACT:REG 17-12-31 11:24 OP:osc  STATUS:               ID:20171231094507     3
 2017-12-31-0948-00M.COL___397                                                 6
 STAT SP IPHASW D HRMM SECON CODA AMPLIT PERI AZIMU VELO AIN AR TRES W  DIS CAZ7
 BAR2 EZ EP        951 47.28                             170    0.0510 22.3 183 
 BAR2 EZ ES        952  1.60                             170   -0.2910 22.3 183 
 BAR2 EZ I         952  3.14        14.6 0.44            167           22.3 183 
 PAM  EZ EP        951 50.18                             149    0.1010 79.7  41 
 PAM  EN ES        952  7.38                             149    0.4210 79.7  41 
 PAM  EZ I         952  9.22         6.6 0.50            150           79.7  41 
 PTB  HZ EP        951 54.30                             131   -0.29 9  145 259 
 PTB  HE ES        952 14.98                             131   -0.02 9  145 259 
 PTB  HZ I         952 17.37         4.9 0.26            128            145 259 
 TAM  HZ EP        951 55.63                             128   -0.19 9  158 104 
 TAM  HE ES        952 17.26                             128    0.08 9  158 104 
 OCA  HZ EP        951 55.84                             128   -0.42 9  161 354 
 OCA  HN ES        952 17.24                             128   -0.73 9  161 354 
 OCA  HZ I         952 19.50        16.0 0.30            127            161 354 
 SPBC HZ EP        951 56.24                             128    0.04 9  161 218 
 SPBC HN ES        952 17.99                             128    0.13 9  161 218 
 SPBC HZ I         952 20.48         7.2 0.16            125            161 218 
 YPLC HZ EP        951 57.74                             125   -0.07 9  178 150 
 YPLC HE ES        952 20.82                             125    0.09 9  178 150 
 YPLC HZ I         952 24.99         5.0 0.32            122            178 150 
 ZAR  HZ EP        952  0.56                             121    0.35 9  202 293 
 ZAR  HN ES        952 26.25                             121    1.26 9  202 293 
 ZAR  HZ I         952 32.25         7.1 0.20            119            202 293 
 DRL03HE ES        952 41.89                             112   -0.12 7  289 353 
 GUY2CHZ EP        952 12.09                             111    0.66 7  299 235 
 GUY2CHE ES        952 44.65                             111   -0.32 7  299 235 
 GUY2CHZ I         952 54.91         2.2 0.68                           299 235 
 CBOC HZ EP        952 15.39                             109    0.65 7  331 252 
 CBOC HE ES        952 49.31                             109   -1.56 7  331 252 
                                                                                
