 2014  131 0915 59.6 L   6.817 -73.188142.5  RSN 11 0.4 1.7LRSN                1
 GAP=131        0.76       2.4     3.5  4.6 -0.2293E+01  0.5657E+01 -0.2477E+00E
 Epicentro: ZAPATOCA - SANTANDER                                               3
 ACTION:UPD 14-03-13 10:00 OP:ep   STATUS:               ID:20140131091559 L   I
 OLDACT:REG 14-01-31 07:43 OP:nd   STATUS:               ID:20140131091000     3
 2014-01-31-0910-00M.COL___288                                                 6
 STAT SP IPHASW D HRMM SECON CODA AMPLIT PERI AZIMU VELO AIN AR TRES W  DIS CAZ7
 BAR2 SZ EP        916 18.89                             170    0.0310 24.8 179 
 BAR2 SZ ES        916 33.84                             170   -0.0610 24.8 179 
 BAR2 SZ I         916 35.01        31.0 0.26            170           24.8 179 
 PAM  SZ EP        916 21.89                             150    0.3210 79.1  43 
 PAM  SN ES        916 38.71                             150    0.0010 79.1  43 
 PAM  SZ I         916 40.76         3.7 0.24            150           79.1  43 
 RUS  HZ EP        916 23.26                             142    0.0710  103 174 
 RUS  HN ES        916 41.45                             142   -0.1510  103 174 
 RUS  HZ I         916 43.05         6.7 0.24            143            103 174 
 PTB  HZ EP        916 25.87                             132   -0.04 9  144 258 
 PTB  HN ES        916 46.44                             132   -0.00 9  144 258 
 PTB  HZ I         916 48.32         5.4 0.26            129            144 258 
 SPBC HZ EP        916 28.12                             129    0.42 9  162 217 
 SPBC HN ES        916 49.73                             129    0.10 9  162 217 
 SPBC HZ I         916 52.44         7.7 0.26            127            162 217 
 NOR  HZ EP   2    916 35.92                             118    1.08 4  232 233 
 NOR  HN ES        917  2.82                             118    0.48 8  232 233 
 NOR  HZ I         917  9.19         2.5 0.38            117            232 233 
 SML  HZ EP        916 35.22                             117   -0.42 8  240 336 
 SML  HN ES        917  3.44                             117   -0.33 8  240 336 
 SML  HZ I         917 10.32         7.8 0.10            116            240 336 
 CHI  HZ EP        916 37.22                             116    0.04 8  249 194 
 CHI  HN ES        917  6.04                             116   -0.45 8  249 194 
 CHI  HZ I         917 12.74         2.1 0.36            116            249 194 
 GUY2CHZ EP   4    916 44.35                             112    1.61 0  298 234 
 GUY2CHN ES   4    917 20.05                             112    3.65 0  298 234 
 GUY2CHZ I         917 24.40         1.5 0.54                           298 234 
 PRA  HZ EP        916 52.96                             106    0.04 6  391 209 
 PRA  HN ES        917 33.42                             106   -1.10 6  391 209 
 PRA  HZ I         917 41.37         2.0 0.32            105            391 209 
 SJC  HZ EP   4    916 52.85                             105   -1.72 0  405 327 
 SJC  HN ES   4    917 34.63                             105   -2.82 0  405 327 
 SJC  HZ I         917 50.74         2.0 0.50            104            405 327 
                                                                                
