 2012  731 0106 45.6 L   6.736 -73.135142.5  RSN  6 0.4 1.8LRSN                1
 GAP=141        0.98       6.3     5.6  8.6  0.5271E+00  0.1059E+02 -0.6950E+01E
 Epicentro: JORDAN - SANTANDER                                                 3
 ACTION:UPD 12-08-14 11:46 OP:ep   STATUS:               ID:20120731010645 L   I
 2012-07-31-0100-00M.COL___209                                                 6
 STAT SP IPHASW D HRMM SECON CODA AMPLIT PERI AZIMU VELO AIN AR TRES W  DIS CAZ7
 BAR2 SZ ES   1    1 7 19.46                             173    -0.1 7   17 198 
 BAR2 SZ I         1 7 20.77        17.8 0.24            170             17 198 
 BRR  HZ EP        1 7  6.78                             150     0.110   76 303 
 BRR  HZ I         1 7  9.10        20.1 0.12            151             76 303 
 BRR  HN ES   1    1 7 23.72                             150     0.7 7   76 303 
 PAM  SZ EP        1 7  7.73                             149     0.010   82  36 
 PAM  SN ES   1    1 7 24.57                             149    -0.5 7   82  36 
 RUS  HZ EP   1    1 7  8.40                             145    -0.1 7   94 176 
 RUS  HN ES   1    1 7 26.78                             145     0.4 7   94 176 
 RUS  HZ I         1 7 28.95         4.2 0.34            144             94 176 
 PTB  HZ EP   1    1 7 11.71                             131    -0.6 7  148 262 
 PTB  HN ES   1    1 7 32.43                             131    -0.7 7  148 262 
 PTB  HZ I         1 7 35.53        12.4 0.11            131            148 262 
 ZAR  HZ EP   1    1 7 18.92                             121     0.7 6  208 294 
 ZAR  HN ES   1    1 7 43.55                             121    -0.1 6  208 294 
