 2017  731 0117  7.6 L   6.559 -73.511109.6  RSN 18 0.7 1.9LRSN                1
 GAP= 66        1.52       3.5     3.5  7.1  0.1737E+01  0.1025E+02  0.5852E+01E
 Epicentro: EL CARMEN - SANTANDER                                              3
 ACTION:UPD 17-08-30 15:38 OP:rebc STATUS:               ID:20170731011707 L   I
 OLDACT:DUP 17-07-31 13:58 OP:osc  STATUS:               ID:20170731010743d    3
 OLDACT:REG 17-07-31 12:32 OP:osc  STATUS:               ID:20170731010742     3
 2017-07-31-0108-00M.COL___377                                                 6
 STAT SP IPHASW D HRMM SECON CODA AMPLIT PERI AZIMU VELO AIN AR TRES W  DIS CAZ7
 BAR2 EZ IP     D  117 23.52                             160    0.1710 36.6  84 
 BAR2 EZ ES        117 35.18                             160   -0.4610 36.6  84 
 BRR  HZ EP        117 24.40                             147   -0.1310 64.6 340 
 BRR  HE ES        117 38.35                             147    0.6210 64.6 340 
 BRR  HZ I         117 47.35        17.0 0.28            151           64.6 340 
 RUS  HZ EP        117 26.81                             138   -0.1010 87.6 147 
 RUS  HN ES        117 42.12                             138    0.1410 87.6 147 
 RUS  HZ I         117 43.65        11.8 0.36            143           87.6 147 
 PTB  HZ IP   9 C  117 26.40                             133   -1.30 0  105 269 
 PTB  HE ES        117 41.47                                   -0.6110  105 269 
 PTB  HZ I         117 44.75        15.8 0.10            136            105 269 
 SPBC HZ EP        117 28.74                             129   -0.3010  118 212 
 SPBC HE ES        117 45.31                             129   -0.4410  118 212 
 SPBC HZ I         117 50.39        16.1 0.10            133            118 212 
 PAM  EZ EP        117 30.19                             127   -0.0110  125  46 
 PAM  EE ES        117 47.42                             127   -0.4010  125  46 
 PAM  EZ I         117 49.40        14.3 0.46            134            125  46 
 YPLC HZ EP        117 35.47                             116    0.13 9  179 136 
 YPLC HE ES        117 58.30                             116    1.32 9  179 136 
 YPLC HZ I         117 59.23        34.4 0.34            121            179 136 
 ZAR  HZ EP        117 35.34                             116   -0.10 9  181 305 
 ZAR  HE ES        117 58.47                             116    1.32 9  181 305 
 ZAR  HZ I         118  0.83        27.8 0.48            120            181 305 
 NOR  HZ EP        117 35.37                             115   -0.70 9  186 234 
 NOR  HN ES        117 57.23                             115   -1.04 9  186 234 
 NOR  HZ I         118  0.39        11.0 0.32            119            186 234 
 CHI  HZ EP        117 39.93                             112    0.23 8  215 187 
 CHI  HE ES        118  4.77                             112    0.04 8  215 187 
 CHI  HZ I         118 12.08         3.9 0.38            116            215 187 
 HEL  HZ EP        117 41.86                             110    0.83 8  227 260 
 HEL  HE ES   4    118  5.81                             110   -1.28 0  227 260 
 HEL  HZ I         118 10.92         6.8 0.26            114            227 260 
 GUY2CHZ EP        117 44.50                             108    0.36 8  253 234 
 GUY2CHE ES        118 12.32                             108   -0.32 8  253 234 
 GUY2CHZ I         118 18.90         4.4 0.24                           253 234 
 URE  HZ EP        117 43.61                             107   -0.72 8  259 301 
 URE  HE ES        118 12.15                             107   -0.82 8  259 301 
 URE  HZ I         118 14.10        11.9 0.13            111            259 301 
 CBOC HZ EP        117 48.64                             105    0.85 7  287 255 
 CBOC HE ES        118 19.64                             105    0.51 7  287 255 
 CBOC HZ I         118 21.98         2.8 0.23            109            287 255 
 PTGC HN ES        118 20.53                             104   -1.39 7  302 150 
 DBB  EZ EP        117 48.60                             104   -0.89 7  303 280 
 DBB  EN ES        118 21.58                             104   -0.58 7  303 280 
 DBB  EZ I         118 23.00         3.3 0.32            107            303 280 
 PRA  HZ EP        117 54.90                             101   -0.13 6  350 206 
 PRA  HN ES        118 32.72                             101    0.70 6  350 206 
 PRA  HZ I         118 38.61         4.2 0.20            105            350 206 
 PAL  HZ EP        117 56.15                             101    0.16 6  357 239 
 PAL  HE ES        118 35.35                             101    1.62 6  357 239 
 PAL  HZ I         118 37.34         3.4 0.34            104            357 239 
                                                                                
