 2016 1031 0433 14.2 L   5.763 -73.990103.8  RSN  6 0.7 1.2LRSN                1
 GAP=135        1.65       8.4     9.3 16.5 -0.3652E+02 -0.5851E+02  0.3054E+02E
 Epicentro: FLORIAN - SANTANDER                                                3
 ACTION:UPD 16-11-09 19:24 OP:rebc STATUS:               ID:20161031043314 L   I
 OLDACT:DUP 16-10-31 17:12 OP:dani STATUS:               ID:20161031042801d    3
 OLDACT:ARG 16-10-31 12:39 OP:dani STATUS:               ID:20161031042800     3
 2016-10-31-0428-00M.COL___316                                                 6
 STAT SP IPHASW D HRMM SECON CODA AMPLIT PERI AZIMU VELO AIN AR TRES W  DIS CAZ7
 SPBC HZ EP   2    433 27.00                             171   -1.39 5 15.3 217 
 SPBC HN ES   2    433 39.45                             171   -0.02 5 15.3 217 
 SPBC HZ I         433 40.50        17.1 0.07            173           15.3 217 
 NOR  HZ EP        433 33.16                             133   -0.2810 99.9 257 
 NOR  HE ES        433 49.35                             133    0.8810 99.9 257 
 NOR  HZ I         433 50.00         5.0 0.26            135           99.9 257 
 PTB  HZ EP        433 32.70                             133   -0.7210  100 329 
 PTB  HN ES        433 47.54                             133   -0.8810  100 329 
 PTB  HZ I         433 47.99         1.8 0.11            134            100 329 
 RUS  HZ EP        433 34.26                             133    0.0910  101  82 
 BRR  HZ EP        433 38.56                             120    0.05 9  152  12 
 BRR  HE ES        433 58.67                             120    1.18 9  152  12 
 BRR  HZ I         434  0.72         1.4 0.26            121            152  12 
 GUY2CHZ EP        433 40.65                             118    0.25 9  164 249 
                                                                                
