 2014 1031 0227 44.6 L   6.753 -73.141148.5  RSN  4 0.3 1.3LRSN                1
 GAP=234        0.74       4.5     6.9  6.7  0.6862E+01 -0.2540E+01  0.7569E+00E
 Epicentro: LOS SANTOS - SANTANDER                                             3
 ACTION:UPD 14-11-29 23:58 OP:nd   STATUS:               ID:20141031022744 L   I
 OLDACT:DUP 14-10-31 15:02 OP:carl STATUS:               ID:20141031021747d    3
 2014-10-31-0217-46M.COL___268                                                 6
 STAT SP IPHASW D HRMM SECON CODA AMPLIT PERI AZIMU VELO AIN AR TRES W  DIS CAZ7
 BAR2 SZ EP        228  4.22                             173   -0.2610 18.4 194 
 BAR2 SZ ES        228 19.67                             173   -0.3110 18.4 194 
 BAR2 SZ I         228 20.34         5.7 0.36            159           18.4 194 
 BRR  HZ EP        228  6.05                             152   -0.1810 74.3 302 
 BRR  HN ES        228 23.45                             152    0.3610 74.3 302 
 RUS  HZ EP        228  8.62                             146    0.3510 95.4 176 
 RUS  HN ES        228 26.90                             146    0.1810 95.4 176 
 RUS  HZ I         228 28.71         1.4 0.26            139           95.4 176 
 SPBC HN ES        228 34.93                             130   -0.18 9  160 220 
 SPBC HZ I         228 44.90         3.0 0.38            123            160 220 
                                                                                
