 2013 1231 0658 55.9 L   6.678 -74.000 70.0  RSN  4 0.5 1.3LRSN                1
 GAP=141        1.20       9.2     5.0 12.0 -0.2269E+02 -0.1600E+02  0.5507E+02E
 Epicentro: PUERTO PARRA - SANTANDER                                           3
 ACTION:UPD 14-01-13 10:22 OP:ep   STATUS:               ID:20131231065855 L   I
 OLDACT:REG 13-12-31 08:49 OP:stll STATUS:               ID:20131231065805     3
 2013-12-31-0658-05M.COL___231                                                 6
 STAT SP IPHASW D HRMM SECON CODA AMPLIT PERI AZIMU VELO AIN AR TRES W  DIS CAZ7
 PTB  HZ EP        659  7.41                             140   -0.6210 52.7 253 
 PTB  HN ES        659 17.59                             140    0.0810 52.7 253 
 PTB  HZ I         659 18.21         8.5 0.10            141           52.7 253 
 BRR  HZ EP        659  7.88                             137   -0.4910 57.1  34 
 BRR  HN ES        659 18.71                             137    0.5810 57.1  34 
 BRR  HZ I         659 19.48        17.6 0.28            138           57.1  34 
 BAR2 SZ EP        659 11.81                             123   -0.1310 91.0  96 
 BAR2 SZ I         659 12.00        10.4 0.34            124           91.0  96 
 BAR2 SZ ES        659 24.47                             123   -0.0010 91.0  96 
 GUY2CHZ EP        659 28.14                             102    0.85 8  221 223 
 GUY2CHZ I         7 0  0.10         1.1 0.54                           221 223 
                                                                                
