 2013  731 0502 43.9 L   6.801 -73.139150.0  RSN 12 0.4 2.0LRSN                1
 GAP=184        0.85       3.0     4.4  5.5 -0.4766E+00  0.5083E+01  0.6599E+00E
 Epicentro: LOS SANTOS - SANTANDER                                             3
 ACTION:UPD 13-08-12 10:41 OP:ep   STATUS:               ID:20130731050243 L   I
 OLDACT:DUP 13-07-31 11:23 OP:carl STATUS:               ID:20130731045960d    3
 2013-07-31-0459-59M.COL___265                                                 6
 STAT SP IPHASW D HRMM SECON CODA AMPLIT PERI AZIMU VELO AIN AR TRES W  DIS CAZ7
 BAR2 SZ EP        5 3  4.03                             171   -0.0110 23.6 192 
 BAR2 SZ ES   1    5 3 19.39                             171   -0.36 7 23.6 192 
 BAR2 SZ I         5 3 20.74         8.4 0.26            168           23.6 192 
 GIR2 SZ EP   1    5 3  3.90                             168   -0.17 7 31.2 349 
 GIR2 SZ ES   1    5 3 19.62                             168   -0.19 7 31.2 349 
 BRR  HZ EP        5 3  5.96                             153    0.4310 71.7 298 
 BRR  HE ES   1    5 3 23.53                             153    1.12 7 71.7 298 
 BRR  HZ I         5 3 27.15         8.9 0.18            149           71.7 298 
 RUS  HZ EP        5 3  7.91                             145   -0.1610  101 176 
 RUS  HN ES   1    5 3 27.07                             145    0.14 7  101 176 
 RUS  HZ I         5 3 29.27         5.9 0.50            147            101 176 
 PTB  HZ EP   1    5 3 10.85                             133   -0.43 7  148 259 
 PTB  HN ES   1    5 3 32.36                             133   -0.27 7  148 259 
 PTB  HN I         5 3 37.37        11.9 0.48            132            148 259 
 OCA  HZ EP   1    5 3 13.15                             131    0.62 7  160 353 
 OCA  HN ES   1    5 3 34.24                             131   -0.63 7  160 353 
 OCA  HN I         5 3 38.12        42.8 0.20            132            160 353 
 SPBC HZ EP   1    5 3 13.03                             130    0.26 7  164 219 
 SPBC HN ES   1    5 3 35.16                             130   -0.14 7  164 219 
 SPBC HN I         5 3 41.65        25.9 0.36            130            164 219 
 ZAR  HZ EP   1    5 3 16.77                             123    0.09 6  205 292 
 ZAR  HE ES        5 3 42.40                             123    0.15 9  205 292 
 ZAR  HZ I         5 3 50.66         5.1 0.22            123            205 292 
 NOR  HZ EP   1    5 3 20.05                             119    0.11 6  235 235 
 NOR  HN ES   1    5 3 47.26                             119   -0.80 6  235 235 
 NOR  HZ I         5 3 50.21         4.7 0.34            120            235 235 
 SML  HZ EP   1    5 3 20.23                             118   -0.55 6  244 335 
 SML  HN ES   1    5 3 49.17                             118   -0.38 6  244 335 
 SML  HN I         5 3 53.83        30.4 0.10            120            244 335 
 GUY2CHZ EP   4    5 3 29.23                             113    1.45 0  302 235 
 GUY2CHN ES   1    5 4  2.12                             113    0.12 5  302 235 
 GUY2CHN I         5 4 13.47         5.9 0.64                           302 235 
 PRA  HZ EP   1    5 3 38.55                             107    0.93 4  392 210 
 PRA  HN ES   1    5 4 19.32                             107   -0.21 4  392 210 
 PRA  HZ I         5 4 25.27         3.0 0.26            109            392 210 
                                                                                
