 2015  531 0021  1.5 L   5.900 -73.709115.0  RSN  5 0.3 1.5LRSN                1
 GAP=145        0.76       4.0     3.4  6.2 -0.7062E+01  0.5764E+01 -0.6573E+01E
 Epicentro: PUENTE NACIONAL - SANTANDER                                        3
 ACTION:UPD 15-09-10 22:08 OP:cam  STATUS:               ID:20150531002102dL   I
 OLDACT:REG 15-05-31 12:17 OP:ar   STATUS:               ID:20150531001749     3
 2015-05-31-0017-49M.COL___321                                                 6
 STAT SP IPHASW D HRMM SECON CODA AMPLIT PERI AZIMU VELO AIN AR TRES W  DIS CAZ7
 SPBC HZ EP        021 18.01                             155   -0.1710 48.6 236 
 SPBC HE ES        021 30.88                             155   -0.3210 48.6 236 
 SPBC HZ I         021 33.08         7.6 0.22            159           48.6 236 
 RUS  HZ EP        021 20.22                             147    0.2410 69.3  91 
 RUS  HE ES        021 34.55                             147    0.1510 69.3  91 
 RUS  HZ I         021 39.17         3.8 0.34            150           69.3  91 
 BAR2 EZ EP        021 21.79                             137    0.1510 96.2  37 
 BAR2 EZ ES        021 37.16                             137   -0.1910 96.2  37 
 BAR2 EZ I         021 38.46         7.1 0.54            140           96.2  37 
 NOR  HZ EP        021 24.79                             127   -0.0010  134 254 
 NOR  HE ES        021 43.32                             127    0.3510  134 254 
 NOR  HZ I         021 44.25         9.7 0.46            131            134 254 
 BRR  HZ EP        021 24.15                             127   -0.5410  134 360 
 BRR  HE ES        021 43.15                             127    0.3510  134 360 
 BRR  HZ I         021 45.47         6.0 0.14            131            134 360 
                                                                                
