 2017 1031 0729 23.4 L   6.853 -73.145154.0  RSN 30 1.3 2.7LRSN                1
 GAP= 56        2.45       5.0     5.2  9.1  0.1485E+00  0.9184E+01  0.4351E+01E
 Epicentro: LOS SANTOS - SANTANDER                                             3
 ACTION:UPD 17-11-07 19:39 OP:rebc STATUS:               ID:20171031072923 L   I
 OLDACT:REG 17-10-31 13:21 OP:dani STATUS:               ID:20171031072743     3
 2017-10-31-0728-00M.COL___441                                                 6
 STAT SP IPHASW D HRMM SECON CODA AMPLIT PERI AZIMU VELO AIN AR TRES W  DIS CAZ7
 BAR2 EZ IP     D  729 44.21                             169    0.1210 29.1 188 
 BAR2 EZ ES        729 59.48                             169   -0.7910 29.1 188 
 BAR2 EZ I         730  0.73       227.8 0.12            166           29.1 188 
 BRR  HZ IP     C  729 46.04                             155    0.7810 68.7 294 
 BRR  HN ES        730  3.21                             155    0.8610 68.7 294 
 BRR  HZ I         730  6.48        90.0 0.28            153           68.7 294 
 PAM  EZ EP        729 47.04                             153    0.8410 72.9  42 
 PAM  EE ES        730  4.25                             153    0.2310 72.9  42 
 PAM  EZ I         730  6.47        62.4 0.46            155           72.9  42 
 RUS  HZ IP     D  729 48.08                             144   -0.2510  106 176 
 RUS  HE ES        730  7.11                             144   -0.7010  106 176 
 RUS  HZ I         730  8.70        46.5 0.38            142            106 176 
 PTB  HZ EP        729 50.71                             133   -0.41 9  149 257 
 PTB  HN ES        730 12.06                             133   -0.71 9  149 257 
 PTB  HZ I         730 13.97        34.0 0.20            132            149 257 
 TAM  HZ IP     D  729 52.47                             132    0.64 9  157 107 
 TAM  HN ES        730 14.25                             132    0.20 9  157 107 
 TAM  HZ I         730 14.81        24.7 0.28            132            157 107 
 SPBC HZ EP        729 53.11                             130    0.19 9  168 218 
 SPBC HE ES        730 15.03                             130   -0.95 9  168 218 
 SPBC HZ I         730 17.83       130.1 0.42            128            168 218 
 YPLC HZ EP     D  729 54.44                             127    0.20 9  182 152 
 YPLC HE ES        730 19.11                             127    0.77 9  182 152 
 YPLC HZ I         730 28.73        20.3 0.28            126            182 152 
 ZAR  HZ EP        729 56.98                             124    0.84 9  202 291 
 ZAR  HE ES        730 22.41                             124    0.70 9  202 291 
 ZAR  HZ I         730 27.54        68.7 0.40            123            202 291 
 TABC EZ EP        730  2.25                             120    2.12 8  235 210 
 TABC EZ I         730 33.31        60.2 0.52            119            235 210 
 NOR  HZ EP        730  0.09                             120    0.15 8  238 233 
 NOR  HN ES        730 28.03                             120   -0.45 8  238 233 
 NOR  HZ I         730 34.62        28.8 0.16            118            238 233 
 CHI  HZ EP        730  2.37                             118    0.25 8  254 195 
 CHI  HE ES        730 31.55                             118   -0.81 8  254 195 
 CHI  HZ I         730 35.04        19.5 0.50            117            254 195 
 ROSC BZ EP        730  3.81                             118    1.34 8  258 210 
 ROSC BN ES        730 34.57                             118    1.58 8  258 210 
 ROSC BZ I         730 38.53        45.9 0.50            116            258 210 
 URE  HZ EP        730  4.14                             115   -0.47 7  282 291 
 URE  HN ES        730 34.89                             115   -1.89 7  282 291 
 URE  HZ I         730 46.69        29.9 0.18            114            282 291 
 GUY2CHZ EP        730  8.28                             113    0.54 7  305 234 
 GUY2CHE ES        730 44.11                             113    1.75 7  305 234 
 GUY2CHZ I         730 56.18        22.5 0.60                           305 234 
 VIL  EZ EP        730  7.71                             113   -0.09 7  309 191 
 VIL  EE ES        730 41.47                             113   -0.99 7  309 191 
 VIL  EZ I         730 51.67        39.0 0.40            112            309 191 
 PTGC HZ IP     D  730  7.11                             112   -1.08 7  314 159 
 PTGC HN ES        730 40.49                             112   -2.68 7  314 159 
 PTGC HZ I         730 46.63         9.3 0.50            112            314 159 
 ELA  HZ EP        730 12.90                             111    1.90 7  333 229 
 ELA  HE ES        730 47.45                             111   -0.71 7  333 229 
 ELA  HZ I         730 55.68        25.2 0.40            110            333 229 
 DBB  EZ EP        730 12.40                             111    1.26 7  339 273 
 DBB  EN ES        730 48.23                             111   -0.18 7  339 273 
 DBB  EZ I         730 49.07        13.8 0.26            110            339 273 
 SDV  BZ EP        730 13.68                             110    0.39 6  357  51 
 SDV  B2 ES        730 51.13                             110   -1.10 6  357  51 
 SDV  BZ I         730 54.13         8.8 0.45            110            357  51 
 ANIL HZ EP        730 15.82                             109    1.85 6  362 224 
 ANIL HE ES        730 55.02                             109    1.57 6  362 224 
 APAC HZ EP        730 18.57                             107    0.94 6  397 287 
 APAC HN ES        730 59.55                             107   -0.42 6  397 287 
 APAC HZ I         731  5.14         9.4 0.54            107            397 287 
 PRA  HZ EP        730 17.75                             107   -0.01 6  397 209 
 PRA  HE ES        731  0.25                             107    0.05 6  397 209 
 PRA  HZ I         731  5.94        28.1 0.26            107            397 209 
 ORTC HZ EP        730 18.34                             107    0.23 6  400 216 
 ORTC HN ES        731  1.71                             107    0.88 6  400 216 
 ORTC HZ I         731  8.74        13.8 0.48            106            400 216 
 SJC  HZ EP        730 18.32                             107   -0.31 6  404 326 
 SJC  HN ES        730 59.41                             107   -2.34 6  404 326 
 SJC  HZ I         731  4.75         6.9 0.24            107            404 326 
 PAL  HZ EP        730 19.60                             107    0.45 6  409 238 
 PAL  HN ES        730 57.04                             107   -5.64 6  409 238 
 PAL  HZ I         731 12.30        12.4 0.20            106            409 238 
 CRJC HZ EP        730 24.41                             105   -0.99 5  462   4 
 CRJC HN ES        731 10.01                             105   -3.80 5  462   4 
 CRJC HZ I         731 18.07        12.3 0.20            104            462   4 
 YOT  HZ EP        730 26.72                             104   -0.37 5  476 228 
 GUA  EZ EP        730 27.40                             104   -0.02 5  480 173 
 GUA  EN ES        731 16.38                             104   -1.02 5  480 173 
 GUA  EZ I         731 23.16        24.5 0.32            103            480 173 
 MACC HZ EP        730 31.38                             102   -1.58 4  526 189 
 MACC HE ES        731 22.92                             102   -4.33 4  526 189 
 MACC HZ I         731 32.39         3.9 0.36            102            526 189 
                                                                                
