 2016  831 0837 55.6 L   6.788 -73.125146.1  RSN 12 0.4 2.0LRSN                1
 GAP=167        0.97       3.0     4.3  5.3  0.7739E+00  0.9674E+00  0.2053E+01E
 Epicentro: LOS SANTOS - SANTANDER                                             3
 ACTION:UPD 16-10-29 15:40 OP:rebc STATUS:               ID:20160831083755 L   I
 OLDACT:UP  16-08-31 17:14 OP:drio STATUS:               ID:20160831082728     3
 OLDACT:UP  16-08-31 17:13 OP:drio STATUS:               ID:20160831082728     3
 OLDACT:UP  16-08-31 17:12 OP:drio STATUS:               ID:20160831082728     3
 OLDACT:UP  16-08-31 17:12 OP:drio STATUS:               ID:20160831082728     3
 OLDACT:REG 16-08-31 12:56 OP:drio STATUS:               ID:20160831082728     3
 2016-08-31-0828-00M.COL___344                                                 6
 STAT SP IPHASW D HRMM SECON CODA AMPLIT PERI AZIMU VELO AIN AR TRES W  DIS CAZ7
 BAR2 EZ EP        838 15.16                             171   -0.0710 22.6 196 
 BAR2 EZ ES        838 30.55                             171   -0.0210 22.6 196 
 BAR2 EZ I         838 33.09        24.8 0.32                          22.6 196 
 BRR  HZ EP        838 17.01                             152    0.1010 73.8 299 
 BRR  HN ES        838 34.40                             152    0.8510 73.8 299 
 BRR  HZ I         838 38.22        14.2 0.16                          73.8 299 
 RUS  HZ EP        838 19.30                             144    0.0410 99.1 177 
 RUS  HN ES        838 37.53                             144   -0.2010 99.1 177 
 RUS  HZ I         838 39.18        11.5 0.26                          99.1 177 
 PTB  HZ EP        838 22.13                             132   -0.62 9  150 259 
 PTB  HE ES        838 43.71                             132   -0.24 9  150 259 
 PTB  HZ I         838 48.10        11.2 0.12                           150 259 
 OCA  HZ EP        838 24.59                             129    0.53 9  162 352 
 OCA  HN ES        838 45.72                             129   -0.56 9  162 352 
 OCA  HZ I         838 48.85        18.3 0.16                           162 352 
 SPBC HZ EP        838 24.14                             129   -0.00 9  164 220 
 SPBC HN IS        838 46.11                             129   -0.31 9  164 220 
 SPBC HN ES        838 46.11                             128            164 220 
 SPBC HZ I         838 49.09        18.2 0.28                           164 220 
 ZAR  HZ EP   4    838 26.68                             122   -1.63 0  207 292 
 ZAR  HE ES        838 53.42                             122   -0.42 8  207 292 
 ZAR  HZ I         838 58.95         9.1 0.22                           207 292 
 NOR  HZ EP        838 31.42                             118   -0.02 8  236 235 
 NOR  HE ES        838 59.53                             118    0.11 8  236 235 
 NOR  HZ I         839  4.83        11.4 0.16                           236 235 
 CHI  HZ EP        838 33.67                             117    0.45 8  248 196 
 CHI  HN ES        839  2.92                             117    0.33 8  248 196 
 CHI  HZ I         839  8.78         4.1 0.40                           248 196 
 ROSC BZ EP   4    838 35.38                             117    1.66 0  253 212 
 ROSC BN ES   4    839  6.79                             117    3.32 0  253 212 
 HEL  HZ EP        838 36.63                             115    0.62 8  274 256 
 HEL  HN ES   4    839  9.34                             115    1.79 0  274 256 
 HEL  HZ I         839 14.03         6.3 0.46                           274 256 
 GUY2CHZ EP   4    838 41.45                             112    2.13 0  302 235 
 GUY2CHE ES   4    839 15.26                             112    1.81 0  302 235 
 GUY2CHZ I         839 21.38         6.2 0.38                           302 235 
 PTGC HZ EP        838 38.73                             112   -0.49 7  307 159 
 PTGC HN ES   4    839 12.19                             112   -1.07 0  307 159 
 LL6C HZ EP   4    838 39.87                             110   -1.58 0  326 357 
                                                                                
