 2011 1031 0747  5.0 L   6.786 -73.119151.8  RSN  5 0.3 1.7LRSN                1
 GAP=186        0.59       3.8     5.8  5.8  0.9823E+01 -0.3710E+00 -0.5502E+01E
 Epicentro: LOS SANTOS - SANTANDER                                             3
 ACTION:UPD 12-07-13 16:07 OP:ep   STATUS:               ID:20111031074705 L   I
 2011-10-31-0745-32S.COL___157                                                 6
 STAT SP IPHASW D HRMM SECON CODA AMPLIT PERI AZIMU VELO AIN AR TRES W  DIS CAZ7
 BAR2 SZ EP        747 25.36                             171    0.0210 22.5 198 
 BAR2 SZ ES   1    747 41.01                             171   -0.19 7 22.5 198 
 BAR2 SZ I         747 43.27        11.3 0.23                          22.5 198 
 BRR  HZ EP   1    747 27.25                             152    0.26 7 74.6 299 
 BRR  HE ES   1    747 44.69                             152    0.55 7 74.6 299 
 BRR  HZ I         747 46.94        14.8 0.13                          74.6 299 
 RUS  HZ EP   1    747 29.27                             145    0.05 7 98.8 178 
 RUS  HZ I         747 29.78         4.5 0.64                          98.8 178 
 RUS  HN ES   1    747 47.92                             145   -0.20 7 98.8 178 
 OCA  SZ EP   1    747 34.24                             131    0.28 7  162 352 
 OCA  SZ ES   1    747 56.13                             131   -0.43 7  162 352 
 OCA  SZ I         748  2.49         4.8 0.30                           162 352 
 ZAR  HZ EP   1    747 37.97                             123   -0.21 6  207 292 
 ZAR  HN ES   1    748  3.74                             123   -0.33 6  207 292 
 ZAR  HZ I         748 10.48         8.4 0.25                           207 292 
                                                                                
