 2011  731 0130 19.6 L   6.805 -73.032133.4  RSN  4 0.3 1.0LRSN                1
 GAP=171        0.49       3.6     6.7  7.2  0.1686E+01 -0.2195E+02 -0.2398E+01E
 Epicentro: CEPITA - SANTANDER                                                 3
 *MAL-HORQ                                                                     3
 ACTION:UPD 12-07-25 14:04 OP:epov STATUS:               ID:20110731013019 L   I
 2011-07-31-0128-06S.COL___142                                                 6
 STAT SP IPHASW D HRMM SECON CODA AMPLIT PERI AZIMU VELO AIN AR TRES W  DIS CAZ7
 BAR2 SZ EP   2    130 38.01                             167    0.16 5 28.8 215 
 BAR2 SZ I         130 47.82         3.3 0.38                          28.8 215 
 BAR2 SZ ES   2    130 51.62                             167   -0.49 5 28.8 215 
 BRR  HZ EP   1    130 39.74                             146   -0.36 7 82.2 294 
 BRR  HN ES   1    130 56.37                             146    0.25 7 82.2 294 
 BRR  HZ I         131 11.97         4.2 0.60                          82.2 294 
 RUS  HZ EP   1    130 42.38                             141    0.21 7  101 183 
 RUS  HE ES   2    130 59.80                             141    0.01 5  101 183 
 RUS  HZ I         131  2.58         1.1 0.26                           101 183 
 GRA  SZ EP   1    130 43.38                             135   -0.03 7  122  12 
 GRA  SZ ES   2    131  2.18                             135    0.17 5  122  12 
 GRA  SZ I         131  8.50         1.3 0.42                           122  12 
                                                                                
