 2016  531 0946 19.4 L   6.687 -73.471 30.6  RSN  5 0.3 1.4LRSN                1
 GAP=108        0.84       2.4     2.1  2.8  0.1344E+01  0.1255E+01  0.1928E+01E
 Epicentro: EL CARMEN - SANTANDER                                              3
 ACTION:UPD 16-08-18 17:51 OP:cam  STATUS:               ID:20160531094619 L   I
 OLDACT:REG 16-05-31 15:26 OP:edw  STATUS:               ID:20160531093746     3
 2016-05-31-0937-46M.COL___310                                                 6
 STAT SP IPHASW D HRMM SECON CODA AMPLIT PERI AZIMU VELO AIN AR TRES W  DIS CAZ7
 BAR2 EZ IP        946 26.80                             129    0.0110 33.6 108 
 BAR2 EZ ES        946 32.90                             129    0.3110 33.6 108 
 BAR2 EZ I         946 33.04        17.7 0.24            128           33.6 108 
 BRR  HZ EP        946 28.76                             113   -0.2110 53.5 330 
 BRR  HN ES        946 36.16                             113   -0.3010 53.5 330 
 BRR  HZ I         946 37.41        18.8 0.24            111           53.5 330 
 RUS  HZ EP        946 35.48                              61    0.2210 97.8 154 
 RUS  HN ES        946 47.05                              61   -0.6010 97.8 154 
 RUS  HZ I         946 48.36         5.9 0.10             61           97.8 154 
 PTB  HZ EP        946 36.08                              61   -0.1610  110 262 
 PTB  HN ES        946 49.89                              61    0.5010  110 262 
 PTB  HZ I         946 51.14        12.1 0.14             61            110 262 
 PAM  EZ EP        946 37.17                              61    0.1910  112  50 
 PAM  EN ES        946 50.78                              61    0.0510  112  50 
 PAM  EZ I         946 51.69        16.0 0.40             61            112  50 
                                                                                
