 2010 1231 0922 24.7 L   6.866 -73.060139.0  RSN  5 0.3 1.4LRSN                1
 GAP=192        0.54       5.4     8.2  9.2 -0.1208E+02  0.4095E+02 -0.2722E+02E
 Epicentro: LOS SANTOS - SANTANDER                                             3
 ACTION:UP  11-01-14 15:28 OP:pat  STATUS:               ID:20101231092224 L   I
 2010-12-31-0918-39S.COL___120                                                 6
 STAT SP IPHASW D HRMM SECON CODA AMPLIT PERI AZIMU VELO SNR AR TRES W  DIS CAZ7
 BAR2 SZ EP        922 43.86                             166     0.110   33 204 
 BAR2 SZ ES   2    922 58.58                             166    -0.1 5   33 204 
 BAR2 SZ I         923  2.27         4.3 0.29                            33 204 
 RUS  HN ES   1    923  6.74                             140     0.0 7  108 181 
 RUS  HZ I         923  8.34         3.3 0.34                           108 181 
 OCA  SZ EP   1    922 51.77                             129    -0.2 7  154 349 
 OCA  SZ I         923 17.69         5.4 0.12                           154 349 
 CHI  HZ EP   2    923  2.55                             115    -0.5 4  258 197 
 CHI  HZ I         923 35.75         1.5 0.34                           258 197 
 HEL  HZ EP   1    923  6.24                             112     0.4 6  283 255 
 HEL  HN ES   2    923 37.42                             112    -0.5 4  283 255 
                                                                                
