 2010 1031 0644 51.3 L   6.809 -73.015146.4  RSN  6 0.3 1.6LRSN                1
 GAP=173        0.55       3.5     6.3  5.3  0.1670E+01 -0.4401E+01 -0.1112E+01E
 Epicentro: CEPITA - SANTANDER                                                 3
 ACTION:UP  11-02-18 11:13 OP:tino STATUS:               ID:20101031064451 L   I
 2010-10-31-0641-33S.COL___125                                                 6
 STAT SP IPHASW D HRMM SECON CODA AMPLIT PERI AZIMU VELO SNR AR TRES W  DIS CAZ7
 BAR2 SZ IP        645 11.33                             168     0.110   30 218 
 BAR2 SZ ES   1    645 26.64                             168    -0.1 7   30 218 
 BAR2 SZ I         645 27.40         8.4 0.39                            30 218 
 BRR  HZ EP   1    645 13.34                             149     0.0 7   84 293 
 BRR  HE ES   1    645 30.45                             149     0.0 7   84 293 
 BRR  HZ I         645 31.65         8.7 0.17                            84 293 
 RUS  HZ IP     C  645 15.18                             144     0.010  102 184 
 RUS  HE ES   1    645 33.87                             144     0.0 7  102 184 
 RUS  HZ I         645 35.33         3.8 0.48                           102 184 
 GRA  SZ EP   1    645 16.32                             138     0.1 7  121  11 
 GRA  SZ ES   2    645 35.38                             138    -0.3 5  121  11 
 GRA  SZ I         645 37.28         5.0 0.37                           121  11 
 NOR  SZ EP   2    645 27.49                             117    -1.0 4  247 236 
 HEL  HZ EP   2    645 33.73                             114     0.6 4  286 256 
 HEL  HZ I         646  9.99         2.6 0.17                           286 256 
                                                                                
