 2013  331 0915 39.6 L   6.804 -73.128149.8  RSN  9 0.5 1.8LRSN                1
 GAP=139        1.03       4.5     5.5  7.7  0.2717E+01  0.7195E+01 -0.5045E+01E
 Epicentro: LOS SANTOS - SANTANDER                                             3
 ACTION:UPD 13-04-09 14:06 OP:ep   STATUS:               ID:20130331091539 L   I
 2013-03-31-0910-00M.COL___245                                                 6
 STAT SP IPHASW D HRMM SECON CODA AMPLIT PERI AZIMU VELO AIN AR TRES W  DIS CAZ7
 BAR2 SZ EP        915 59.75                             170    0.0010 24.2 194 
 BAR2 SZ ES   1    916 15.16                             170   -0.29 7 24.2 194 
 BAR2 SZ I         916 16.49        22.1 0.38            160           24.2 194 
 BRR  HZ EP        916  1.77                             153    0.4910 72.7 297 
 BRR  HN ES   1    916 18.76                             153    0.58 7 72.7 297 
 BRR  HZ I         916 22.37         9.5 0.60            142           72.7 297 
 PAM  SZ EP   1    916  2.53                             152    0.36 7 75.8  39 
 PAM  SN ES   1    916 20.00                             152    0.24 7 75.8  39 
 PAM  SZ I         916 21.93        13.7 0.58            153           75.8  39 
 RUS  HZ EP        916  4.07                             145    0.2810  101 177 
 RUS  HN ES   1    916 22.05                             145   -0.60 7  101 177 
 RUS  HZ I         916 23.55         3.1 0.44            135            101 177 
 PTB  HZ EP   1    916  6.42                             132   -0.67 7  150 259 
 PTB  HN ES   1    916 27.80                             132   -0.72 7  150 259 
 PTB  HZ I         916 33.62        11.0 0.46            121            150 259 
 OCA  HZ EP   1    916  8.37                             131    0.15 7  160 352 
 OCA  HN ES   1    916 30.04                             131   -0.49 7  160 352 
 ZAR  HN ES        916 38.76                             123    0.63 8  206 292 
 SML  HZ EP        916 15.83                             118   -0.68 8  244 335 
 SML  HN ES   1    916 44.53                             118   -0.75 6  244 335 
 SML  HZ I         916 52.50        10.1 0.26            112            244 335 
 HEL  HZ EP   1    916 20.67                             115    0.42 6  274 256 
 HEL  HZ I         916 58.67         2.5 0.28            108            274 256 
                                                                                
