 2016  131 0829 52.7 L   6.828 -73.099152.2  RSN 29 0.5 2.6LRSN                1
 GAP= 73        1.04       2.2     2.5  4.3 -0.2123E+01  0.1021E+01 -0.2845E+00E
 Epicentro: LOS SANTOS - SANTANDER                                             3
 ACTION:UPD 16-03-09 23:30 OP:cam  STATUS:               ID:20160131082952 L   I
 OLDACT:UP  16-02-23 20:57 OP:AR   STATUS:               ID:20160131082952 L   3
 OLDACT:REG 16-01-31 14:37 OP:ak   STATUS:               ID:20160131083000     3
 2016-01-31-0829-59S.COL___226                                                 6
 STAT SP IPHASW D HRMM SECON CODA AMPLIT PERI AZIMU VELO AIN AR TRES W  DIS CAZ7
 BAR2 EZ IP     D  830 13.57                             169    0.3910 27.6 200 
 BAR2 EZ ES        830 28.97                             169   -0.2010 27.6 200 
 BAR2 EZ I         830 31.26        62.6 0.28            168           27.6 200 
 PAM  EZ EP     C  830 16.36                             154    1.0810 71.7  38 
 PAM  EN ES        830 33.52                             154    0.6210 71.7  38 
 PAM  EZ I         830 35.74        55.7 0.22            157           71.7  38 
 RUS  HZ EP     D  830 17.42                             144    0.1410  103 179 
 RUS  HN ES        830 36.23                             144   -0.2310  103 179 
 RUS  HZ I         830 37.19        26.0 0.40            146            103 179 
 PTB  HZ EP        830 20.17                             132   -0.53 9  153 258 
 PTB  HN ES        830 41.80                             132   -0.74 9  153 258 
 PTB  HZ I         830 47.48        70.0 0.18            132            153 258 
 OCA  HZ EP        830 21.45                             132    0.16 9  158 351 
 OCA  HN ES        830 43.87                             132    0.27 9  158 351 
 OCA  HZ I         830 52.06        91.0 0.20            133            158 351 
 SPBC HZ EP        830 22.44                             129    0.22 9  169 220 
 SPBC HN ES        830 45.14                             129   -0.11 9  169 220 
 SPBC HZ I         830 51.74       102.1 0.36            130            169 220 
 ZAR  HZ EP        830 26.18                             123    0.24 8  208 291 
 ZAR  HN ES        830 51.25                             123   -0.62 8  208 291 
 NOR  HZ EP        830 29.46                             119    0.03 8  241 235 
 NOR  HN ES        830 57.93                             119   -0.17 8  241 235 
 NOR  HZ I         831  4.74        41.6 0.24            120            241 235 
 SML  HZ EP        830 29.78                             119    0.16 8  243 334 
 SML  HN ES        830 58.51                             119    0.08 8  243 334 
 SML  HZ I         831  4.83        68.9 0.07            120            243 334 
 CHI  HZ EP        830 31.52                             118    0.30 8  253 196 
 CHI  HN ES        831  0.45                             118   -0.82 8  253 196 
 CHI  HZ I         831  5.04        19.4 0.42            119            253 196 
 ROSC BZ EP   9    830 33.26                             117    1.52 0  258 212 
 ROSC BN ES        831  4.22                                    0.50 8  258 212 
 ROSC BZ I         831 11.49        49.9 0.40            119            258 212 
 HEL  HZ EP   1    830 33.68                             116   -0.19 6  278 255 
 HEL  HN ES        831  6.28                             116    0.29 7  278 255 
 HEL  HZ I         831 12.31        24.9 0.36            116            278 255 
 URE  HZ EP        830 33.51                             115   -0.98 7  288 291 
 URE  HN ES   4    831  3.70                             115   -3.39 0  288 291 
 URE  HZ I         831 14.41        27.7 0.34            115            288 291 
 SOCV BZ EP        830 35.02                             114   -0.34 7  295  57 
 SOCV BN ES        831  7.51                             114   -1.14 7  295  57 
 GUY2CHZ EP        830 37.68                             113    0.41 7  307 235 
 GUY2CHN ES        831 12.35                             113    0.30 7  307 235 
 GUY2CHZ I         831 20.46        41.3 0.76                           307 235 
 PTGC HZ EP        830 36.43                             113   -0.52 7  310 160 
 PTGC HN ES   4    831  9.83                             113   -1.65 0  310 160 
 PTGC HZ I         831 16.82        13.6 0.44            114            310 160 
 LL6C HZ EP        830 38.11                             112   -0.24 7  322 357 
 LL6C HN ES        831 14.24                             112    0.27 7  322 357 
 LL6C HZ I         831 16.21         8.1 0.49            113            322 357 
 ELA  HZ EP   9    830 42.32                             111    1.83 0  335 230 
 ELA  HE ES        831 19.42                                   -0.19 7  335 230 
 ELA  HZ I         831 25.39        22.0 0.38            112            335 230 
 CBOC HZ EP        830 41.26                             111    0.72 7  339 252 
 CBOC HN ES        831 18.37                             111    0.50 7  339 252 
 CBOC HZ I         831 25.85         7.4 0.50            112            339 252 
 DBB  EZ EP        830 40.97                             110   -0.03 7  344 274 
 DBB  EZ ES        831 17.85                             110   -0.83 7  344 274 
 DBB  EZ I         831 20.14        12.0 0.48            111            344 274 
 SDV  BZ EP        830 42.80                             110    0.50 6  354  50 
 SDV  B1 ES        831 20.29                             110   -0.70 6  354  50 
 MON  HZ EP   9    830 39.99                             110   -2.21 0  356 307 
 MON  HN ES        831 18.56                                   -0.05 6  356 307 
 MON  HZ I         831 21.97        11.5 0.38            111            356 307 
 ANIL HZ EP   4    830 44.56                             109    1.15 0  363 225 
 ANIL HN ES        831 23.52                             109    0.54 6  363 225 
 PRA  HZ EP        830 46.87                             107   -0.17 6  397 210 
 PRA  HN ES        831 30.01                             107    0.57 6  397 210 
 PRA  HZ I         831 37.99        21.2 0.50            108            397 210 
 ELOV BZ EP        830 47.27                             107   -0.04 6  400  87 
 ELOV BN ES   4    831 28.27                             107   -1.64 0  400  87 
 ORTC HZ EP        830 47.43                             107   -0.05 6  401 217 
 ORTC HN ES        831 30.76                             107    0.55 6  401 217 
 ORTC HZ I         831 38.25        15.1 0.68            108            401 217 
 SJC  HZ EP   4    830 47.29                             107   -1.21 0  410 326 
 SJC  HN ES   4    831 27.61                             107   -4.43 0  410 326 
 SJC  HZ I         831 30.55         4.7 0.28            108            410 326 
 PAL  HZ EP        830 48.97                             107    0.20 6  412 239 
 PAL  HN ES        831 31.94                             107   -0.57 6  412 239 
 PAL  HZ I         831 35.15         7.1 0.20            108            412 239 
 CRJC HZ EP   9    830 53.83                             104   -1.15 0  464   3 
 CRJC HN ES        831 41.81                             104   -0.61 5  464   3 
 CRJC HZ I         831 48.04        11.0 0.26            106            464   3 
                                                                                
