 2013  131 0318 19.3 L   6.790 -73.132150.1  RSN  4 0.1 1.3LRSN                1
 GAP=139        0.36       2.8     3.0  4.7  0.1451E+01 -0.5811E+01 -0.1780E+01E
 Epicentro: LOS SANTOS - SANTANDER                                             3
 ACTION:UP  13-02-15 09:18 OP:ep   STATUS:               ID:20130131031819 L   I
 2013-01-31-0310-00M.COL___241                                                 6
 STAT SP IPHASW D HRMM SECON CODA AMPLIT PERI AZIMU VELO AIN AR TRES W  DIS CAZ7
 BRR  HZ EP        318 41.03                             153    0.0110 73.1 299 
 BRR  HZ I         318 48.25         3.5 0.34            148           73.1 299 
 BRR  HN ES        318 58.02                             153    0.0610 73.1 299 
 PAM  SZ EP        318 41.89                             152   -0.0810 77.3  38 
 RUS  HZ EP   1    318 43.63                             145    0.24 7 99.4 177 
 RUS  HE ES   1    319  2.07                             145   -0.11 7 99.4 177 
 RUS  HE I         319  2.80         5.1 0.68            142           99.4 177 
 PTB  HZ EP   2    318 46.54                             133   -0.19 5  149 259 
 PTB  HE ES   1    319  8.07                             133   -0.07 7  149 259 
 PTB  HZ I         319  9.27         1.5 0.26            128            149 259 
                                                                                
