 2016  531 0824 47.0 L   6.792 -73.156144.0  RSN  6 0.2 1.6LRSN                1
 GAP=136        0.57       2.7     2.8  3.9 -0.1869E+01  0.1518E+01  0.1158E+01E
 Epicentro: LOS SANTOS - SANTANDER                                             3
 ACTION:UPD 16-08-18 17:51 OP:cam  STATUS:               ID:20160531082447 L   I
 OLDACT:DUP 16-05-31 17:51 OP:cara STATUS:               ID:20160531081745d    3
 OLDACT:REG 16-05-31 15:18 OP:edw  STATUS:               ID:20160531081744     3
 2016-05-31-0817-44M.COL___310                                                 6
 STAT SP IPHASW D HRMM SECON CODA AMPLIT PERI AZIMU VELO AIN AR TRES W  DIS CAZ7
 BAR2 EZ EP        825  6.18                             171   -0.2110 22.3 187 
 BAR2 EZ ES        825 21.40                             171   -0.1210 22.3 187 
 BAR2 EZ I         825 22.55         7.7 0.26            169           22.3 187 
 BRR  HZ EP        825  7.81                             152   -0.1010 70.6 300 
 BRR  HE ES        825 24.46                             152    0.2210 70.6 300 
 BRR  HZ I         825 29.69         6.4 0.26            150           70.6 300 
 PAM  EZ EP        825  9.53                             150    0.4310 78.8  40 
 PAM  EN ES        825 26.18                             150   -0.1710 78.8  40 
 PAM  EZ I         825 27.62         4.9 0.32            155           78.8  40 
 RUS  HZ EP        825 10.26                             144   -0.2510 99.8 175 
 RUS  HN ES        825 29.05                             144    0.1810 99.8 175 
 RUS  HZ I         825 29.89         3.9 0.32            146           99.8 175 
 PTB  HZ EP        825 13.66                             132   -0.03 9  146 259 
 PTB  HN ES        825 34.36                             132   -0.16 9  146 259 
 PTB  HZ I         825 41.20         6.6 0.30            131            146 259 
 SPBC HZ EP        825 15.31                             129    0.09 9  162 219 
 SPBC HN ES        825 37.39                             129    0.15 9  162 219 
 SPBC HZ I         825 43.38         7.1 0.20            130            162 219 
                                                                                
