 2017 1231 0645  3.5 L   7.239 -73.069154.3  RSN  5 0.2 1.4LRSN                1
 GAP=115        0.53       2.9     3.4  5.1 -0.6120E-01  0.1005E+02  0.1257E+01E
 Epicentro: RIONEGRO - SANTANDER                                               3
 ACTION:UPD 18-01-04 13:26 OP:rebc STATUS:               ID:20171231064503 L   I
 OLDACT:REG 17-12-31 11:12 OP:osc  STATUS:               ID:20171231063559     3
 2017-12-31-0638-00M.COL___409                                                 6
 STAT SP IPHASW D HRMM SECON CODA AMPLIT PERI AZIMU VELO AIN AR TRES W  DIS CAZ7
 PAM  EE ES        645 42.00                             164    0.1510 42.3  75 
 BAR2 EZ EP        645 26.17                             154    0.1410 72.6 190 
 BAR2 EZ ES        645 43.27                             154   -0.3110 72.6 190 
 BAR2 EZ I         645 45.68         5.9 0.50            154           72.6 190 
 OCA  HN ES        645 48.19                             142    0.0010  114 346 
 PTB  HZ EP        645 33.40                             129    0.00 9  172 243 
 PTB  HE ES        645 57.00                             129    0.31 9  172 243 
 PTB  HZ I         645 58.13         1.4 0.12            130            172 243 
 ZAR  HZ EP        645 35.88                             125   -0.21 9  199 278 
 ZAR  HN ES        646  1.38                             125   -0.10 9  199 278 
 ZAR  HZ I         646  7.67         2.8 0.28            125            199 278 
                                                                                
