 2012  531 0335  7.9 L   6.786 -73.055132.0  RSN  4 0.5 1.1LRSN                1
 GAP=192        1.03       8.6    10.9 15.7  0.2198E+02  0.2276E+02 -0.1032E+02E
 Epicentro: LOS SANTOS - SANTANDER                                             3
 ACTION:UP  12-07-05 12:09 OP:pat  STATUS:               ID:20120531033508 L   I
 2012-05-31-0330-00M.COL___201                                                 6
 STAT SP IPHASW D HRMM SECON CODA AMPLIT PERI AZIMU VELO AIN AR TRES W  DIS CAZ7
 BAR2 SZ ES   1    335 39.51                             168    -0.5 7   26 213 
 BAR2 SZ I         335 44.62         4.9 0.25                            26 213 
 RUS  HZ EP   1    335 29.89                             141    -0.3 7   99 182 
 RUS  HN ES   1    335 48.26                             141     0.7 7   99 182 
 RUS  HZ I         335 51.70         2.0 0.30                            99 182 
 PTB  HN ES   1    335 55.63                             127     0.0 7  157 260 
 PTB  HZ I         335 57.80         1.4 0.12                           157 260 
 OCA  HN ES   2    335 57.53                             126     0.5 5  163 350 
                                                                                
