 2015  331 0738 53.0 L   6.831 -73.145139.2  RSN 16 0.5 2.2LRSN                1
 GAP= 70        1.11       2.9     3.1  5.6 -0.7637E+00  0.4950E+01  0.1430E+01E
 Epicentro: LOS SANTOS - SANTANDER                                             3
 ACTION:UPD 15-04-30 16:31 OP:nd   STATUS:               ID:20150331073853 L   I
 OLDACT:UP  15-03-31 17:38 OP:mh   STATUS:               ID:20150331073750     3
 OLDACT:UP  15-03-31 17:37 OP:mh   STATUS:               ID:20150331073750     3
 OLDACT:UP  15-03-31 17:36 OP:mh   STATUS:               ID:20150331073750     3
 OLDACT:UP  15-03-31 17:36 OP:mh   STATUS:               ID:20150331073750     3
 OLDACT:UP  15-03-31 17:36 OP:mh   STATUS:               ID:20150331073750     3
 OLDACT:UP  15-03-31 17:36 OP:mh   STATUS:               ID:20150331073750     3
 OLDACT:UP  15-03-31 17:35 OP:mh   STATUS:               ID:20150331073750     3
 OLDACT:UP  15-03-31 17:35 OP:mh   STATUS:               ID:20150331073750     3
 OLDACT:UP  15-03-31 17:34 OP:mh   STATUS:               ID:20150331073750     3
 OLDACT:UP  15-03-31 17:34 OP:mh   STATUS:               ID:20150331073750     3
 OLDACT:REG 15-03-31 12:36 OP:mh   STATUS:               ID:20150331073750     3
 2015-03-31-0737-50M.COL___280                                                 6
 STAT SP IPHASW D HRMM SECON CODA AMPLIT PERI AZIMU VELO AIN AR TRES W  DIS CAZ7
 BAR2 EZ EP        739 12.14                             169    0.2410 26.7 189 
 BAR2 EZ ES   1    739 26.89                             169    0.24 7 26.7 189 
 BAR2 EZ I         739 27.80        26.5 0.22            167           26.7 189 
 BRR  HZ EP        739 13.98                             152    0.6510 69.6 296 
 BRR  HN ES        739 29.28                             152    0.0810 69.6 296 
 BRR  HZ I         739 33.52        30.6 0.38            150           69.6 296 
 PAM  SZ EP        739 14.92                             150    0.5810 74.7  41 
 PAM  SN ES        739 31.55                             150    0.5610 74.7  41 
 PAM  SZ I         739 32.57        28.5 0.07            155           74.7  41 
 RUS  HZ EP        739 16.11                             141   -0.2410  104 176 
 RUS  HN ES        739 34.58                             141    0.0110  104 176 
 RUS  HZ I         739 36.16        21.4 0.36            143            104 176 
 PTB  HZ EP   1    739 18.77                             130   -0.72 7  148 258 
 PTB  HN ES   1    739 39.50                             130   -0.66 7  148 258 
 PTB  HZ I         739 44.82        23.2 0.28            130            148 258 
 TAM  HZ EP     C  739 20.53                             129    0.30 9  156 106 
 TAM  HN ES        739 40.91                             129   -0.57 9  156 106 
 TAM  HZ I         739 42.44        16.6 0.64            133            156 106 
 OCA  HZ EP        739 20.51                             129    0.05 9  157 353 
 OCA  HN ES        739 41.12                             129   -0.77 9  157 353 
 OCA  HZ I         739 45.60        32.4 0.43            131            157 353 
 SPBC HZ EP   1    739 21.13                             127   -0.11 7  166 218 
 SPBC HN ES        739 42.60                             127   -0.69 9  166 218 
 SPBC HZ I         739 48.20        26.8 0.26            127            166 218 
 ZAR  HZ EP        739 25.05                             121    0.18 9  203 291 
 ZAR  HN ES        739 50.42                             121    0.67 9  203 291 
 NOR  HZ EP        739 28.23                             117   -0.33 8  237 234 
 NOR  HN ES        739 56.15                             117   -0.16 8  237 234 
 NOR  HZ I         739 59.89        14.8 0.20            117            237 234 
 SML  HZ EP        739 28.42                             116   -0.48 8  241 335 
 SML  HN ES        739 55.95                             116   -0.97 8  241 335 
 SML  HZ I         740  0.80        14.8 0.26            118            241 335 
 ROSC BZ EP        739 30.50                             115   -0.58 8  256 211 
 ROSC BN ES   4    740  2.28                             115    1.49 0  256 211 
 ROSC BZ I         740  5.36        12.4 0.30            116            256 211 
 HEL  HZ EP   1    739 33.73                             113    0.76 6  273 255 
 HEL  HN ES        740  4.53                             113    0.38 8  273 255 
 HEL  HZ I         740 10.61         9.5 0.00            114            273 255 
 URE  HZ EP   4    739 34.54                             112    0.94 0  283 291 
 URE  HN ES   4    740  4.53                             112   -0.75 0  283 291 
 GUY2CHZ EP   1    739 36.92                             111    0.40 5  303 234 
 GUY2CHN ES   4    740 11.53                             111    1.05 0  303 234 
 GUY2CHZ I         740 19.41         7.5 0.10                           303 234 
 CBOC HZ EP        739 40.38                             109    0.62 7  335 252 
 CBOC HN ES        740 16.45                             109    0.21 7  335 252 
 CBOC HZ I         740 32.74         2.7 0.62            109            335 252 
 ORTC HZ EP        739 47.26                             105    0.25 6  398 216 
 ORTC HN ES        740 29.35                             105    0.20 6  398 216 
 ORTC HZ I         740 34.71         5.0 0.22            106            398 216 
                                                                                
