 2012  831 0150  1.7 L   6.728 -73.163149.9  RSN  6 0.3 1.6LRSN                1
 GAP=179        0.49       3.5     4.5  5.6  0.1602E+01 -0.6144E+00 -0.1660E+01E
 Epicentro: VILLANUEVA - SANTANDER                                             3
 ACTION:UPD 12-09-10 11:59 OP:ep   STATUS:               ID:20120831015002dL   I
 2012-08-31-0150-00M.COL___218                                                 6
 STAT SP IPHASW D HRMM SECON CODA AMPLIT PERI AZIMU VELO AIN AR TRES W  DIS CAZ7
 BAR2 SZ EP        150 21.50                             174   -0.1610 15.1 188 
 BAR2 SZ ES   1    150 37.03                             174   -0.23 7 15.1 188 
 BAR2 SZ I         150 38.17        10.6 0.34                          15.1 188 
 GIR2 SZ EP   3    150 21.37                             165   -0.69 2 38.9 355 
 BRR  HZ EP        150 23.33                             152   -0.0810 73.7 305 
 BRR  HN ES   1    150 40.61                             152    0.25 7 73.7 305 
 BRR  HZ I         150 46.04        10.8 0.14                          73.7 305 
 RUS  HZ EP   2    150 25.89                             147    0.59 5 92.8 175 
 RUS  HN ES   2    150 44.07                             147    0.35 5 92.8 175 
 RUS  HZ I         150 45.04         3.7 0.30                          92.8 175 
 PTB  HZ EP   2    150 28.62                             134   -0.07 5  144 262 
 PTB  HN ES   1    150 49.67                             134   -0.09 7  144 262 
 OCA  HN ES   1    150 54.13                             129    0.21 7  168 354 
                                                                                
