 2017 1231 0621 23.9 L   7.411 -73.232132.5  RSN  9 0.4 1.6LRSN                1
 GAP=104        1.04       2.9     3.5  6.5  0.9932E-01  0.5845E+01  0.9606E+00E
 Epicentro: EL PLAYON - SANTANDER                                              3
 ACTION:UPD 18-01-04 13:26 OP:rebc STATUS:               ID:20171231062123 L   I
 OLDACT:UP  17-12-31 14:27 OP:osc  STATUS:               ID:20171231061742d    3
 OLDACT:DUP 17-12-31 14:23 OP:osc  STATUS:               ID:20171231061742d    3
 OLDACT:REG 17-12-31 11:11 OP:osc  STATUS:               ID:20171231061741     3
 2017-12-31-0618-00M.COL___409                                                 6
 STAT SP IPHASW D HRMM SECON CODA AMPLIT PERI AZIMU VELO AIN AR TRES W  DIS CAZ7
 PAM  EZ EP        621 43.81                             155    0.1910 59.3  98 
 PAM  EN ES        621 58.94                             155   -0.1010 59.3  98 
 PAM  EZ I         621 59.95         9.2 0.18            158           59.3  98 
 BAR2 EZ EP        621 45.66                             144    0.4310 90.7 177 
 BAR2 EZ ES        622  1.70                             144   -0.2110 90.7 177 
 BAR2 EZ I         622  2.98        16.2 0.20            144           90.7 177 
 OCA  HZ EP        621 45.52                             143    0.3110 92.0 354 
 OCA  HN ES        622  1.62                             143   -0.2510 92.0 354 
 OCA  HZ I         622  2.98        11.9 0.22            146           92.0 354 
 PTB  HZ EP        621 52.06                             125    0.49 9  166 235 
 PTB  HN ES        622 12.40                             125   -0.78 9  166 235 
 PTB  HZ I         622 16.02         2.7 0.32            125            166 235 
 ZAR  HZ EP        621 52.64                             123   -0.29 9  180 273 
 ZAR  HN ES        622 16.38                             123    0.77 9  180 273 
 ZAR  HZ I         622 19.35         4.0 0.28            123            180 273 
 TAM  HZ EP        621 54.39                             121    0.11 9  192 124 
 TAM  HN ES        622 17.90                             121   -0.11 9  192 124 
 SPBC HZ EP        621 56.60                             118   -0.22 8  216 206 
 SPBC HE ES        622 22.97                             118    0.45 8  216 206 
 SPBC HZ I         622 31.06         3.3 0.52            118            216 206 
 DRL03HZ EP        621 57.24                             117    0.00 8  221 353 
 DRL03HN ES        622 23.00                             117   -0.27 8  221 353 
 GUY2CHZ EP        622 10.02                             107   -1.12 7  338 224 
 GUY2CHZ I         622 57.99         1.0 0.38            111            338 224 
                                                                                
