 2016  731 0137 10.4 L   6.801 -73.055143.9  RSN  4 0.3 1.4LRSN                1
 GAP=247        0.81       5.0     7.6  7.1  0.9506E+01 -0.3189E+01  0.1394E+01E
 Epicentro: LOS SANTOS - SANTANDER                                             3
 ACTION:UPD 17-03-29 16:57 OP:lp   STATUS:               ID:20160731013710 L   I
 OLDACT:DUP 16-07-31 14:19 OP:edw  STATUS:               ID:20160731012740d    3
 OLDACT:UP  16-07-31 14:16 OP:edw  STATUS:               ID:20160731012739     3
 OLDACT:REG 16-07-31 12:30 OP:edw  STATUS:               ID:20160731012739     3
 2016-07-31-0128-00M.COL___353                                                 6
 STAT SP IPHASW D HRMM SECON CODA AMPLIT PERI AZIMU VELO AIN AR TRES W  DIS CAZ7
 BAR2 EZ EP        137 29.21                             169   -0.6810 27.1 211 
 BAR2 EZ ES        137 45.32                             169    0.2310 27.1 211 
 BRR  HZ EP        137 32.19                             149    0.3110 80.1 295 
 BRR  HN ES        137 48.56                             149   -0.0710 80.1 295 
 BRR  HZ I         137 49.29         6.2 0.15            149           80.1 295 
 RUS  HZ EP        137 34.22                             143    0.2610  101 182 
 RUS  HN ES        137 52.35                             143    0.0110  101 182 
 RUS  HZ I         137 53.36         2.7 0.30            143            101 182 
 SPBC HZ EP   2    137 39.63                             127    0.24 5  170 222 
 SPBC HN ES        138  1.87                             127   -0.13 9  170 222 
 SPBC HZ I         138  2.89         3.1 0.10            127            170 222 
                                                                                
