 2017  331 0757 14.7 L   6.788 -73.016143.9  RSN  5 0.4 1.2LRSN                1
 GAP=286        0.81       5.8     6.5  8.0  0.7101E+01  0.7355E+01  0.5128E+01E
 Epicentro: CEPITA - SANTANDER                                                 3
 ACTION:UPD 17-05-25 18:47 OP:jn   STATUS:               ID:20170331075715 L   I
 OLDACT:UP  17-05-03 13:04 OP:jn   STATUS:               ID:20170331075715 L   3
 OLDACT:UP  17-05-02 20:31 OP:nlst STATUS:               ID:20170331075715 L   3
 OLDACT:DUP 17-03-31 18:32 OP:ar   STATUS:               ID:20170331074742d    3
 OLDACT:REG 17-03-31 13:15 OP:ar   STATUS:               ID:20170331074741     3
 2017-03-31-0748-00M.COL___343                                                 6
 STAT SP IPHASW D HRMM SECON CODA AMPLIT PERI AZIMU VELO AIN AR TRES W  DIS CAZ7
 BAR2 EZ EP        757 33.76                             168   -0.4710 28.4 220 
 BAR2 EZ ES   1    757 49.80                             168    0.35 7 28.4 220 
 BRR  HZ EP   1    757 36.97                             148    0.50 7 84.6 295 
 BRR  HN ES        757 53.41                             148   -0.0310 84.6 295 
 PTB  HZ EP        757 42.72                             129   -0.09 9  162 260 
 PTB  HE ES   1    758  4.00                             129   -0.73 7  162 260 
 PTB  HZ I         758  5.63         1.9 0.06            129            162 260 
 SPBC HZ EP   2    757 44.27                             127    0.40 4  172 223 
 SPBC HE ES        758  6.90                             127    0.28 9  172 223 
 ZAR  HE ES        758 15.00                             120    0.19 8  218 291 
                                                                                
