 2017  331 0644 20.2 L   6.785 -73.097141.4  RSN  7 0.5 1.4LRSN                1
 GAP=144        1.26       5.4     5.7  8.5 -0.9917E+00  0.1403E+02 -0.2738E+01E
 Epicentro: LOS SANTOS - SANTANDER                                             3
 ACTION:UPD 17-05-25 18:47 OP:jn   STATUS:               ID:20170331064419 L   I
 OLDACT:UP  17-05-02 20:30 OP:nlst STATUS:               ID:20170331064419 L   3
 OLDACT:REG 17-03-31 13:10 OP:ar   STATUS:               ID:20170331063739     3
 2017-03-31-0638-00M.COL___343                                                 6
 STAT SP IPHASW D HRMM SECON CODA AMPLIT PERI AZIMU VELO AIN AR TRES W  DIS CAZ7
 BAR2 EZ EP        644 39.13                             170   -0.1210 23.3 204 
 BAR2 EZ ES        644 54.28                             170    0.1310 23.3 204 
 BAR2 EZ I         644 55.58        10.6 0.20            172           23.3 204 
 PAM  EZ EP        644 42.13                             151    0.3510 75.4  36 
 PAM  HN ES        644 57.96                             151   -0.6910 75.4  36 
 PAM  EZ I         645  1.90         3.0 0.52            153           75.4  36 
 BRR  HZ IP     C  644 41.02                             150   -0.1410 76.7 298 
 BRR  HN ES        644 57.95                             150    0.4110 76.7 298 
 BRR  HZ I         645  4.16         3.8 0.14            149           76.7 298 
 RUS  HZ EP        644 43.96                             143    0.6210 98.7 179 
 RUS  HE ES        645  1.60                             143    0.1810 98.7 179 
 RUS  HZ I         645  2.43         2.5 0.24            149           98.7 179 
 PTB  HZ EP        644 46.19                             130   -1.04 9  153 260 
 PTB  HN ES   1    645  7.66                             130   -0.68 7  153 260 
 PTB  HZ I         645  8.97         2.9 0.12            132            153 260 
 SPBC HE ES        645 10.40                             128   -0.26 9  165 221 
 SPBC HZ I         645 12.38         3.5 0.22            131            165 221 
 ZAR  HZ EP        644 53.19                             121    0.29 8  210 292 
 ZAR  HE ES        645 19.12                             121    0.68 8  210 292 
 ZAR  HZ I         645 23.26         3.0 0.22            123            210 292 
                                                                                
