 2013  331 0135 40.2 L   6.721 -73.194156.7  RSN  4 0.2 1.4LRSN                1
 GAP=226        0.45       4.8     4.6  5.9  0.1500E+02 -0.2351E+01 -0.4567E+01E
 Epicentro: VILLANUEVA - SANTANDER                                             3
 ACTION:UPD 13-04-09 14:06 OP:ep   STATUS:               ID:20130331013540 L   I
 2013-03-31-0130-00M.COL___245                                                 6
 STAT SP IPHASW D HRMM SECON CODA AMPLIT PERI AZIMU VELO AIN AR TRES W  DIS CAZ7
 BRR  HZ EP        136  2.48                             154   -0.0610 71.4 307 
 BRR  HN ES   1    136 19.82                             154   -0.15 7 71.4 307 
 BRR  HZ I         136 22.23         3.5 0.18            149           71.4 307 
 RUS  HZ EP   1    136  4.59                             148    0.10 7 92.5 172 
 RUS  HN ES   1    136 23.59                             148    0.15 7 92.5 172 
 RUS  HZ I         136 24.79         2.0 0.36            146           92.5 172 
 PTB  HZ EP   1    136  7.25                             136   -0.23 7  141 262 
 PTB  HN ES   1    136 28.59                             136   -0.19 7  141 262 
 PTB  HZ I         136 35.75         4.0 0.34            131            141 262 
 ZAR  HN ES        136 39.28                             125    0.29 9  203 295 
 ZAR  HZ I         136 45.38         3.1 0.22            123            203 295 
                                                                                
