 2014 1231 0009 16.3 L   6.754 -73.156153.9  RSN  7 0.4 1.7LRSN                1
 GAP=233        1.04       5.1     5.5  6.6  0.6516E+01  0.8391E+01  0.1067E+01E
 Epicentro: LOS SANTOS - SANTANDER                                             3
 ACTION:UPD 15-02-10 17:08 OP:nd   STATUS:               ID:20141231000917dL   I
 OLDACT:REG 14-12-31 13:37 OP:stll STATUS:               ID:20141231000748     3
 2014-12-31-0007-48M.COL___271                                                 6
 STAT SP IPHASW D HRMM SECON CODA AMPLIT PERI AZIMU VELO AIN AR TRES W  DIS CAZ7
 BAR2 EZ EP        0 9 36.76                             173   -0.0510 18.1 189 
 BAR2 EZ I         0 9 37.03         7.6 0.52            168           18.1 189 
 BAR2 EZ ES        0 9 52.66                             173   -0.1610 18.1 189 
 BRR  HZ EP        0 9 38.82                             153    0.4110 72.8 302 
 BRR  HN ES        0 9 56.29                             153    0.6310 72.8 302 
 BRR  HZ I         010  2.52        10.7 0.28            150           72.8 302 
 RUS  HZ EP        0 9 40.62                             147    0.1110 95.6 175 
 RUS  HZ I         0 9 41.63         2.8 0.42            148           95.6 175 
 RUS  HN ES        0 9 59.00                             147   -0.4010 95.6 175 
 PTB  HZ EP        0 9 43.78                             134    0.03 9  146 261 
 PTB  HN ES        010  4.60                             134   -0.58 9  146 261 
 PTB  HZ I         010 12.12         5.3 0.48            133            146 261 
 SPBC HZ EP        0 9 45.46                             132    0.46 9  159 220 
 SPBC HN ES        010  7.24                             132   -0.15 9  159 220 
 SPBC HZ I         010 15.33         7.0 0.26            132            159 220 
 ZAR  HZ EP        0 9 48.75                             124   -0.62 9  205 294 
 ZAR  HN ES        010 14.87                             124   -0.30 9  205 294 
 ZAR  HZ I         010 20.99         5.7 0.68            125            205 294 
 NOR  HZ EP        0 9 51.84                             121   -0.25 8  231 235 
 NOR  HN ES        010 20.80                             121    0.77 8  231 235 
 NOR  HZ I         010 26.34         4.0 0.30            121            231 235 
                                                                                
