 2011  831 0220 51.1 L   7.572 -73.575111.2  RSN  5 0.3 2.0LRSN                1
 GAP=129        0.65       2.6     5.8  5.4  0.2335E+01  0.7419E+01 -0.2366E+01E
 Epicentro: SABANA DE TORRES - SANTANDER                                       3
 ACTION:UPD 12-07-13 15:54 OP:ep   STATUS:               ID:20110831022051 L   I
 2011-08-31-0219-53S.COL___165                                                 6
 STAT SP IPHASW D HRMM SECON CODA AMPLIT PERI AZIMU VELO AIN AR TRES W  DIS CAZ7
 BRR  HZ EP        221  7.78                             152    0.2210 53.5 196 
 BRR  HE ES        221 20.49                             152    0.1310 53.5 196 
 BRR  HZ I         221 21.90        48.7 0.20                          53.5 196 
 GIR2 SZ EP   1    221  8.63                             146   -0.10 7 68.9 142 
 OCA  SZ EP        221  9.68                             142    0.2110 79.0  21 
 OCA  SZ ES        221 23.71                             142   -0.0610 79.0  21 
 OCA  SZ I         221 26.57        13.1 0.12                          79.0  21 
 BAR2 SZ EP        221 12.72                             130   -0.0710  117 158 
 BAR2 SZ ES   1    221 29.09                             130   -0.57 7  117 158 
 BAR2 SZ I         221 31.09        21.5 0.24                           117 158 
 SJC  HZ EP        221 34.42                             104    0.26 7  312 326 
 SJC  HN ES   1    222  6.97                             104   -0.73 5  312 326 
                                                                                
