 2010  831 0331 33.3 L   6.767 -73.105135.5  RSN 10 0.5 2.0LRSN                1
 GAP=163        1.09       5.1     8.6  8.0 -0.6176E+01  0.8569E+01  0.6102E+00E
 Epicentro: LOS SANTOS - SANTANDER                                             3
 ACTION:UP  10-09-07 10:59 OP:vdl  STATUS:               ID:20100831033133 L   I
 2010-08-31-0329-40S.COL___120                                                 6
 STAT SP IPHASW D HRMM SECON CODA AMPLIT PERI AZIMU VELO SNR AR TRES W  DIS CAZ7
 BAR2 SZ IP        331 51.38                             171    -0.210   21 204 
 BAR2 SZ ES   1    332  5.98                             171     0.1 7   21 204 
 BAR2 SZ I         332  7.38        33.3 0.13                            21 204 
 BRR  HZ IP     C  331 53.30                             149    -0.410   77 299 
 BRR  HZ I         331 53.67        39.7 0.02                            77 299 
 BRR  HE ES   1    332  9.63                             149     0.1 7   77 299 
 RUS  HZ EP        331 55.34                             143    -0.410   97 179 
 RUS  HN ES   1    332 13.69                             143     0.4 7   97 179 
 RUS  HZ I         332 15.94        10.3 0.37                            97 179 
 GRA  SZ IP        331 58.51                             134     0.710  128  15 
 GRA  SZ I         332 20.14        15.7 0.25                           128  15 
 OCA  SZ EP   1    332  0.74                             126    -0.5 7  164 352 
 OCA  SZ I         332 26.85        12.6 0.23                           164 352 
 CHI  HZ EP   2    332  9.41                             115    -0.7 4  246 196 
 CHI  HN ES   2    332 38.34                             115    -0.6 4  246 196 
 CHI  HZ I         332 45.51         4.2 0.37                           246 196 
 ROSC BZ EP   1    332 11.71                             115     1.0 6  252 212 
 ROSC BZ I         332 48.30         7.2 0.25                           252 212 
 HEL  HZ EP   2    332 13.18                             112    -0.2 4  276 257 
 HEL  HN ES   2    332 44.51                             112    -0.1 4  276 257 
 HEL  HZ I         332 50.37         8.4 0.19                           276 257 
 RREF HZ EP   1    332 19.85                             109     0.8 5  323 230 
 RREF HE ES   2    332 55.31                             109     0.5 3  323 230 
 RREF HZ I         332 59.50         2.6 0.31                           323 230 
 PRA  HZ EP   1    332 25.80                             105    -0.5 4  391 210 
 PRA  HN ES   2    333  7.70                             105     0.0 3  391 210 
 PRA  HZ I         333 12.00         4.3 0.68                           391 210 
                                                                                
