 2015  331 0236 22.3 L   7.161 -73.904 87.2  RSN 11 0.4 1.9LRSN                1
 GAP= 53        1.10       2.5     2.6  6.4 -0.3238E+00  0.1461E+01 -0.8940E+00E
 Epicentro: BARRANCABERMEJA - SANTANDER                                        3
 ACTION:UPD 15-04-30 16:30 OP:nd   STATUS:               ID:20150331023622 L   I
 OLDACT:UP  15-03-31 18:04 OP:mh   STATUS:               ID:20150331022746     3
 OLDACT:UP  15-03-31 13:31 OP:mh   STATUS:               ID:20150331022746     3
 OLDACT:REG 15-03-31 12:23 OP:mh   STATUS:               ID:20150331022746     3
 2015-03-31-0227-46M.COL___283                                                 6
 STAT SP IPHASW D HRMM SECON CODA AMPLIT PERI AZIMU VELO AIN AR TRES W  DIS CAZ7
 BRR  HZ IP     D  236 34.72                             165    0.1910 22.0 106 
 BRR  HN ES        236 44.42                             165    0.3410 22.0 106 
 BRR  HZ I         236 44.80       125.5 0.12            169           22.0 106 
 PTB  HZ IP     D  236 39.06                             130   -0.3510 91.9 222 
 PTB  HN ES        236 52.15                             130   -0.6210 91.9 222 
 PTB  HZ I         236 56.64        17.8 0.20            128           91.9 222 
 BAR2 EZ EP        236 41.13                             127    0.4910  102 128 
 BAR2 EZ ES        236 54.68                             127   -0.2810  102 128 
 BAR2 EZ I         236 56.58        13.6 0.48            128            102 128 
 ZAR  HZ EP        236 41.44                             124    0.0910  112 289 
 ZAR  HN ES        236 56.45                             124    0.2310  112 289 
 ZAR  HZ I         236 59.20        22.0 0.26            121            112 289 
 PAM  SZ EP        236 44.56                             119    0.1610  134  81 
 PAM  SN ES        237  1.72                             119    0.0810  134  81 
 PAM  SZ I         237  3.26        16.1 0.22            120            134  81 
 OCA  HZ EP        236 43.75                             118   -0.34 9  136  28 
 OCA  HN ES        237  0.71                             118   -0.38 9  136  28 
 OCA  HZ I         237  1.78        29.7 0.14            118            136  28 
 RUS  HZ EP        236 48.20                             113    0.18 9  167 147 
 RUS  HN ES        237  8.58                             113    0.49 9  167 147 
 RUS  HZ I         237  9.77        13.9 0.22            113            167 147 
 SPBC HZ EP        236 47.79                             113    0.18 9  168 186 
 SPBC HN ES        237  6.43                             113   -0.93 9  168 186 
 SPBC HZ I         237  9.99        16.2 0.34            112            168 186 
 SML  HZ EP        236 48.41                             111   -0.75 9  182 354 
 SML  HN ES        237 10.49                             111    0.38 9  182 354 
 HEL  HZ EP   1    236 52.92                             108    0.16 6  209 239 
 HEL  HE ES        237 17.43                             108    0.91 8  209 239 
 HEL  HZ I         237 22.60         5.9 0.42            107            209 239 
 MON  HZ EP   9    236 58.20                             104   -0.61 0  264 313 
 MON  HE ES   1    237 26.45                                   -0.24 6  264 313 
 MON  HZ I         237 39.72         2.4 0.36            103            264 313 
 GUY2CHZ EP   4    237  2.05                             103    2.13 0  268 217 
 GUY2CHN ES   4    237 30.49                             103    1.22 0  268 217 
                                                                                
