 2013 1231 0705 43.4 L   6.758 -73.164142.3  RSN  5 0.3 1.3LRSN                1
 GAP=232        0.82       4.7     5.6  6.4  0.4492E+01  0.9552E+01  0.2015E+01E
 Epicentro: LOS SANTOS - SANTANDER                                             3
 ACTION:UPD 14-01-13 10:22 OP:ep   STATUS:               ID:20131231070543 L   I
 OLDACT:DUP 13-12-31 12:20 OP:stll STATUS:               ID:20131231065806d    3
 2013-12-31-0658-05M.COL___231                                                 6
 STAT SP IPHASW D HRMM SECON CODA AMPLIT PERI AZIMU VELO AIN AR TRES W  DIS CAZ7
 BAR2 SZ EP        7 6  2.77                             172    0.2310 18.4 186 
 BAR2 SZ ES        7 6 17.46                             172    0.0110 18.4 186 
 BAR2 SZ I         7 6 18.99         5.7 0.36            168           18.4 186 
 BRR  HZ EP        7 6  4.56                             152    0.3410 71.8 303 
 BRR  HZ I         7 6  4.81         4.7 0.28            150           71.8 303 
 BRR  HN ES        7 6 20.42                             152   -0.0310 71.8 303 
 RUS  HN ES        7 6 24.17                             144   -0.3410 96.1 175 
 RUS  HZ I         7 6 26.44         2.0 0.38            144           96.1 175 
 PTB  HZ EP        7 6  9.48                             132   -0.36 9  145 260 
 PTB  HN ES        7 6 30.20                             132   -0.25 9  145 260 
 PTB  HZ I         7 6 36.48         2.3 0.38            130            145 260 
 SPBC HZ EP        7 6 10.95                             129   -0.23 9  158 219 
 SPBC HE ES        7 6 33.45                             129    0.61 9  158 219 
 SPBC HZ I         7 6 36.42         4.1 0.28            128            158 219 
                                                                                
