 2010  731 0031 21.3 L   6.794 -73.087149.1  RSN 16 0.4 3.2LRSN                1
 GAP=130        0.92       3.8     5.3  6.2 -0.1119E+02  0.1233E+00  0.5877E+01E
 Epicentro: LOS SANTOS - SANTANDER                                             3
 ACTION:UPD 10-12-01 15:21 OP:pat  STATUS:               ID:20100731003121 L   I
 2010-07-31-0029-45S.COL___123                                                 6
 STAT SP IPHASW D HRMM SECON CODA AMPLIT PERI AZIMU VELO AIN AR TRES W  DIS CAZ7
 BAR2 SZ IP        031 41.20                             170    -0.110   25 206 
 BAR2 SZ ES   1    031 56.98                             170     0.0 7   25 206 
 BAR2 SZ I         031 58.03       604.0 0.39                            25 206 
 GIR2 SZ IP        031 41.27                             167    -0.110   34 340 
 BRR  HZ IP     C  031 43.08                             151    -0.110   77 297 
 BRR  HZ I         031 43.34       696.9 0.14                            77 297 
 BRR  HN ES   1    032  0.28                             151     0.1 7   77 297 
 RUS  HZ IP     D  031 45.01                             145    -0.310  100 180 
 RUS  HZ I         032  5.13       158.6 0.36                           100 180 
 GUE  SZ EP        031 47.05                             140     0.810  116   9 
 GRA  SZ IP        031 47.00                             138     0.310  125  15 
 GRA  SZ ES   1    032  6.64                             138     0.1 7  125  15 
 GRA  SZ I         032 11.39       154.4 0.46                           125  15 
 OCA  SZ IP        031 49.53                             130    -0.5 9  162 351 
 OCA  SZ ES   2    032 11.52                             130    -0.9 5  162 351 
 OCA  SZ I         032 18.07       115.5 0.46                           162 351 
 CHI  HZ EP   1    031 58.86                             118    -0.4 6  250 197 
 CHI  HN ES   1    032 29.18                             118     0.2 6  250 197 
 CHI  HZ I         032 38.09        73.8 0.61                           250 197 
 ROSC BZ EP        032  0.67                             117     0.8 8  256 212 
 ROSC BZ I         032 39.38        91.4 0.27                           256 212 
 HEL  HZ EP   1    032  2.58                             115     0.2 6  278 256 
 HEL  HN ES   1    032 34.31                             115    -0.1 6  278 256 
 HEL  HZ I         032 39.96        73.3 0.35                           278 256 
 GUY  SZ EP   1    032  5.43                             112    -0.2 5  306 236 
 GUY  SN ES   1    032 40.16                             112     0.0 5  306 236 
 GUY  SZ I         032 52.01       192.9 0.37                           306 236 
 RREF HZ EP   1    032  8.23                             111     0.1 5  326 230 
 RREF HN ES   1    032 44.47                             111    -0.1 5  326 230 
 RREF HZ I         032 53.70        68.8 0.37                           326 230 
 DBB  SZ EP   1    032  9.54                             110    -0.1 5  346 274 
 SDV  BZ IP     D  032 10.64                             109    -0.3 6  356  49 
 SDV  BZ I         032 53.12        19.4 0.57                           356  49 
 ANIL HZ EP   1    032 11.92                             109     0.2 5  361 225 
 ANIL HE ES   1    032 51.52                             109     0.5 5  361 225 
 ANIL HZ I         032 56.98       125.5 0.36                           361 225 
 PRA  HZ EP   1    032 14.52                             107    -0.7 4  395 210 
 PRA  HE ES   1    032 56.51                             107    -0.8 4  395 210 
 PRA  HZ I         033  2.92        78.7 0.76                           395 210 
                                                                                
