 2010  131 0608 19.7 L   6.854 -73.115142.0  RSN 12 0.7 2.7LRSN                1
 GAP=128        1.59       5.2     9.2 11.3 -0.5461E+01  0.4062E+02 -0.3697E+01E
 Epicentro: LOS SANTOS - SANTANDER                                             3
 ACTION:UP  10-08-24 09:46 OP:vdl  STATUS:               ID:20100131060819 L   I
 2010-01-31-0606-20S.COL___094                                                 6
 STAT SP IPHASW D HRMM SECON CODA AMPLIT PERI AZIMU VELO SNR AR TRES W  DIS CAZ7
 BAR2 SZ IP        6 8 39.35                             168     0.310   30 195 
 BAR2 SZ ES   1    6 8 54.23                             168     0.1 7   30 195 
 RUS  BZ EP        6 8 43.23                             141    -0.310  106 178 
 RUS  BZ I         6 8 44.41        38.6 0.11                           106 178 
 RUS  BN ES   1    6 9  1.02                             141    -1.1 7  106 178 
 OCA  SZ IP        6 8 47.94                             130     0.7 9  155 352 
 OCA  SZ ES   1    6 9  9.30                             130     0.6 7  155 352 
 CHI  HZ EP        6 8 57.35                             116    -0.6 8  255 196 
 CHI  HN ES        6 9 27.68                             116    -0.1 8  255 196 
 CHI  HZ I         6 9 35.07        19.9 0.30                           255 196 
 ROSC BZ EP        6 8 59.12                             115     0.7 8  260 211 
 ROSC BZ I         6 9 37.09        36.7 0.32                           260 211 
 HEL  HZ EP        6 9  1.17                             113     0.9 7  277 255 
 HEL  HN ES   2    6 9 31.75                             113    -0.2 4  277 255 
 HEL  HZ I         6 9 40.94        19.6 0.60                           277 255 
 RREF BZ EP        6 9  6.66                             110     0.2 7  328 229 
 RREF BN ES        6 9 43.84                             110     1.0 7  328 229 
 RREF BZ I         6 9 50.99        35.9 0.63                           328 229 
 DBB  SZ EP        6 9  7.44                             109     0.1 7  342 273 
 TOL  SZ EP        6 9  8.98                             108     0.4 6  350 224 
 MON  HZ EP        6 9  6.88                             108    -1.5 6  352 307 
 MON  HN ES        6 9 44.96                             108    -1.5 6  352 307 
 MON  HZ I         610  0.07         7.6 0.76                           352 307 
 SDV  BZ EP        6 9  8.69                             108    -0.2 6  354  51 
 SDV  BZ I         6 9 10.14        53.9 1.08                           354  51 
 PRA  HZ EP        6 9 13.01                             105    -0.9 6  399 210 
 PRA  HN ES        6 9 56.26                             105     0.1 6  399 210 
                                                                                
