 2016 1031 0038 14.2 L   6.855 -73.152138.1  RSN  7 0.4 1.6LRSN                1
 GAP=133        0.97       4.6     4.5  7.9 -0.6553E+01  0.3680E+01  0.9126E+01E
 Epicentro: LOS SANTOS - SANTANDER                                             3
 ACTION:UPD 16-11-09 19:24 OP:rebc STATUS:               ID:20161031003814 L   I
 OLDACT:UP  16-11-01 16:48 OP:nlst STATUS:               ID:20161031003814 L   3
 OLDACT:UP  16-10-31 15:17 OP:dani STATUS:               ID:20161031003800     3
 OLDACT:UP  16-10-31 15:17 OP:dani STATUS:               ID:20161031003800     3
 OLDACT:ARG 16-10-31 12:39 OP:dani STATUS:               ID:20161031003800     3
 2016-10-31-0038-00M.COL___322                                                 6
 STAT SP IPHASW D HRMM SECON CODA AMPLIT PERI AZIMU VELO AIN AR TRES W  DIS CAZ7
 BAR2 EZ EP        038 33.03                             167   -0.0310 29.2 187 
 BRR  HZ EP        038 34.95                             152    0.6110 67.9 294 
 BRR  HN ES        038 49.91                             152   -0.1310 67.9 294 
 BRR  HZ I         038 56.44         8.2 0.14            151           67.9 294 
 PAM  EZ EP        038 35.87                             151    0.5010 73.3  43 
 PAM  EN ES        038 51.54                             151   -0.3310 73.3  43 
 PAM  EZ I         038 55.38         9.5 0.48            157           73.3  43 
 RUS  HZ EP        038 37.71                             140    0.0310  107 176 
 RUS  HE ES        038 55.93                             140   -0.0610  107 176 
 RUS  HZ I         038 56.86         5.2 0.34            146            107 176 
 PTB  HZ EP        038 39.93                             130   -0.69 9  148 256 
 PTB  HN ES        039  1.26                             130    0.04 9  148 256 
 PTB  HZ I         039  8.35         3.3 0.20            132            148 256 
 SPBC HZ EP        038 42.03                             126   -0.53 9  168 217 
 SPBC HN ES        039  5.05                             126    0.39 9  168 217 
 SPBC HZ I         039  9.12         9.9 0.42            130            168 217 
 NOR  HE ES        039 17.74                             116    0.12 8  238 233 
 NOR  HZ I         039 23.31         3.9 0.19            120            238 233 
                                                                                
