 2017  131 0725  7.7 L   6.386 -73.597115.8  RSN  4 0.1 0.7LRSN                1
 GAP=146        0.31       2.8     1.9  4.4  0.2213E+01  0.4588E+01  0.1985E+01E
 Epicentro: SANTA HELENA DEL OPON - SANTANDER                                  3
 ACTION:UPD 17-05-22 16:05 OP:jn   STATUS:               ID:20170131072507 L   I
 OLDACT:UP  17-01-31 15:46 OP:and  STATUS:               ID:20170131071742d    3
 OLDACT:DUP 17-01-31 15:44 OP:and  STATUS:               ID:20170131071742d    3
 OLDACT:UP  17-01-31 15:44 OP:and  STATUS:               ID:20170131071741     3
 OLDACT:REG 17-01-31 14:17 OP:dnl  STATUS:               ID:20170131071741     3
 2017-01-31-0718-00M.COL___331                                                 6
 STAT SP IPHASW D HRMM SECON CODA AMPLIT PERI AZIMU VELO AIN AR TRES W  DIS CAZ7
 BAR2 EZ EP   2    725 24.98                             155    0.16 5 51.2  64 
 BAR2 EZ ES        725 38.18                             155   -0.0110 51.2  64 
 BAR2 EZ I         725 43.26         3.1 0.42            161           51.2  64 
 RUS  HN ES        725 41.91                             144   -0.0110 78.8 134 
 BRR  HZ EP   3    725 26.68                             143    0.32 2 80.7 351 
 BRR  HN ES   2    725 40.80                             143   -0.13 5 80.7 351 
 PTB  HZ EP        725 27.57                             137   -0.0610 96.6 280 
 PTB  HN ES        725 43.25                             137    0.0610 96.6 280 
 PTB  HZ I         725 48.80         0.5 0.16            142           96.6 280 
                                                                                
