 2013  831 0307 27.1 L   6.820 -73.146144.5  RSN 11 0.5 3.1LRSN 3.1WRSN        1
 SPEC AVERAGE  MO 13.7 ST  8.6 OM  2.0 f0 9.12 R0.3150 AL 0.00 WI 18.3 MW  3.1 3
 SPEC SD       MO  0.5 ST  4.8 OM  0.6 f0 5.66 R0.3824 AL      WI      MW  0.3 3
 GAP=135        1.23       3.5     5.2  8.5 -0.1486E+01  0.7394E+01  0.9268E+00E
 Epicentro: LOS SANTOS - SANTANDER                                             3
 SPEC HEL HH Z MO 13.9 ST  1.4 OM  2.0 f0 2.47 R0.6291 AL 0.00 WI 31.5 MW  3.2 3
 SPEC HEL HH Z T 3 833 K 0.000 GD  309 VS 4.20 DE 3.20 Q0300.0 QA 0.60 VS 4.20 3
 SPEC ORTCHH Z MO 13.7 ST  9.2 OM  1.7 f0 5.31 R0.2927 AL 0.00 WI 26.4 MW  3.1 3
 SPEC ORTCHH Z T 3 9 1 K 0.000 GD  423 VS 4.20 DE 3.20 Q0300.0 QA 0.60 VS 4.20 3
 SPEC NOR HH Z MO 13.6 ST  8.1 OM  1.0 f0 10.0 R0.2812 AL 0.00 WI 27.3 MW  3.0 3
 SPEC NOR HH Z T 3 8 1 K 0.000 GD  276 VP 7.60 DE 3.20 Q0300.0 QA 0.60 VS 4.20 3
 SPEC PAM SH Z MO 13.6 ST  3.0 OM  1.2 f0 7.35 R0.3826 AL 0.00 WI 13.8 MW  3.0 3
 SPEC PAM SH Z T 3 748 K 0.000 GD  163 VP 7.60 DE 3.20 Q0300.0 QA 0.60 VS 4.20 3
 SPEC BRR HH Z MO 13.9 ST 14.8 OM  1.5 f0 10.0 R0.2812 AL 0.00 WI 13.7 MW  3.2 3
 SPEC BRR HH Z T 3 746 K 0.000 GD  160 VP 7.60 DE 3.20 Q0300.0 QA 0.60 VS 4.20 3
 ACTION:UPD 14-01-14 09:08 OP:ep   STATUS:               ID:20130831030727 L   I
 OLDACT:UP  13-08-31 13:22 OP:mh   STATUS:               ID:20130831025960d    3
 OLDACT:UP  13-08-31 13:22 OP:mh   STATUS:               ID:20130831025960d    3
 OLDACT:UP  13-08-31 13:01 OP:mh   STATUS:               ID:20130831025960d    3
 OLDACT:DUP 13-08-31 13:01 OP:mh   STATUS:               ID:20130831025960d    3
 2013-08-31-0259-59M.COL___269                                                 6
 STAT SP IPHASW D HRMM SECON CODA AMPLIT PERI AZIMU VELO AIN AR TRES W  DIS CAZ7
 BAR2 SZ EP        3 7 46.76                             169    0.1310 25.4 189 
 BAR2 SZ I         3 8  3.08       132.3 0.18            170           25.4 189 
 BRR  HZ IP     C  3 7 48.59                             153    0.5310 70.1 297 
 BRR  HN ES   1    3 8  5.50                             153    1.11 7 70.1 297 
 BRR  HN I         3 8  8.90       328.2 0.16            154           70.1 297 
 PAM  SZ EP        3 7 49.66                             151    0.5710 75.8  41 
 PAM  SN ES   1    3 8  6.27                             151    0.04 7 75.8  41 
 RUS  HZ EP        3 7 50.86                             143   -0.0310  103 176 
 RUS  HN ES        3 8  9.00                             143   -0.4410  103 176 
 RUS  HN I         3 8 11.01       104.3 0.40            145            103 176 
 PTB  HZ EP        3 7 53.29                             131   -0.71 9  148 258 
 PTB  HN ES        3 8 14.45                             131   -0.53 9  148 258 
 PTB  HN I         3 8 18.11       177.4 0.20            134            148 258 
 OCA  HZ EP   1    3 7 54.86                             130   -0.25 7  158 353 
 OCA  HN ES        3 8 16.26                             130   -0.70 9  158 353 
 OCA  HN I         3 8 21.59       332.8 0.26            132            158 353 
 SPBC HZ EP        3 7 55.81                             128    0.15 9  165 218 
 SPBC HN ES        3 8 17.52                             128   -0.42 9  165 218 
 SPBC HZ I         3 8 20.29        99.2 0.22            131            165 218 
 ZAR  HZ EP        3 8  0.13                             122    0.75 9  203 292 
 ZAR  HN ES        3 8 25.13                             122    0.58 9  203 292 
 ZAR  HZ I         3 8 31.09        90.6 0.30            124            203 292 
 NOR  HZ EP        3 8  2.79                             118   -0.10 8  236 234 
 NOR  HN ES   1    3 8 31.09                             118    0.29 6  236 234 
 NOR  HN I         3 8 36.63       139.5 0.16            120            236 234 
 SML  HZ EP   1    3 8  2.85                             117   -0.60 6  242 335 
 SML  HN ES   1    3 8 30.56                             117   -1.23 6  242 335 
 CHI  HZ EP   1    3 8  5.45                             116    0.49 6  251 195 
 CHI  HN ES        3 8 34.59                             116    0.11 8  251 195 
 CHI  HN I         3 8 38.14        68.1 0.30            119            251 195 
                                                                                
