 2013 1231 0913 46.5 L   6.807 -73.171136.7  RSN 17 0.7 2.3LRSN 2.8WRSN        1
 SPEC AVERAGE  MO 13.2 ST108.3 OM  1.4 f0 15.9 R0.2231 AL 0.00 WI 20.0 MW  2.8 3
 SPEC SD       MO  0.2 ST331.3 OM  0.3 f0 13.2 R0.1343 AL      WI      MW  0.1 3
 GAP= 70        1.50       3.5     3.9  7.2 -0.2875E+01  0.8092E+01  0.5211E+00E
 Epicentro: LOS SANTOS - SANTANDER                                             3
 SPEC BAR2SH Z MO 13.6 ST 24.1 OM  1.8 f0 9.81 R0.1961 AL-0.00 WI 20.0 MW  3.0 3
 SPEC BAR2SH Z T 91418 K 0.050 GD  138 VS 5.20 DE 3.20 Q0750.0 QA 1.50 VS 5.20 3
 SPEC PAM SH Z MO 13.0 ST  2.9 OM  1.1 f0 7.98 R0.2411 AL-0.00 WI 20.0 MW  2.6 3
 SPEC PAM SH Z T 91423 K 0.050 GD  157 VS 5.20 DE 3.20 Q0750.0 QA 1.50 VS 5.20 3
 SPEC RUS HH Z MO 12.9 ST  8.8 OM  1.0 f0 12.1 R0.1590 AL-0.00 WI 20.0 MW  2.5 3
 SPEC RUS HH Z T 91425 K 0.050 GD  170 VS 5.20 DE 3.20 Q0750.0 QA 1.50 VS 5.20 3
 SPEC PTB HH Z MO 13.2 ST588.4 OM  1.2 f0 40.0 R0.0481 AL-0.00 WI 20.0 MW  2.7 3
 SPEC PTB HH Z T 91431 K 0.050 GD  199 VS 5.20 DE 3.20 Q0750.0 QA 1.50 VS 5.20 3
 SPEC OCA HH Z MO 13.2 ST  6.3 OM  1.2 f0 8.68 R0.2217 AL-0.00 WI 20.0 MW  2.7 3
 SPEC OCA HH Z T 91433 K 0.050 GD  209 VS 5.20 DE 3.20 Q0750.0 QA 1.50 VS 5.20 3
 SPEC SPBCHH Z MO 13.3 ST242.3 OM  1.3 f0 27.0 R0.0713 AL-0.00 WI 20.0 MW  2.8 3
 SPEC SPBCHH Z T 91433 K 0.050 GD  211 VS 5.20 DE 3.20 Q0750.0 QA 1.50 VS 5.20 3
 SPEC ZAR HH Z MO 13.1 ST150.4 OM  1.0 f0 27.7 R0.0695 AL-0.00 WI 20.0 MW  2.7 3
 SPEC ZAR HH Z T 91440 K 0.050 GD  243 VS 5.20 DE 3.20 Q0750.0 QA 1.50 VS 5.20 3
 SPEC NOR HH Z MO 13.2 ST 58.7 OM  1.1 f0 18.1 R0.1063 AL-0.00 WI 20.0 MW  2.7 3
 SPEC NOR HH Z T 91446 K 0.050 GD  270 VS 5.20 DE 3.20 Q0750.0 QA 1.50 VS 5.20 3
 SPEC HEL HH Z MO 13.3 ST0.839 OM  1.1 f0 4.23 R0.4548 AL-0.00 WI 20.0 MW  2.8 3
 SPEC HEL HH Z T 91454 K 0.050 GD  302 VS 5.20 DE 3.20 Q0750.0 QA 1.50 VS 5.20 3
 SPECGUY2CHH Z MO 13.5 ST  0.4 OM  1.3 f0 2.67 R 0.721 AL-0.00 WI 20.0 MW  3.0 3
 SPECGUY2CHH Z T 915 1 K 0.050 GD328.8 VS 5.20 DE 3.20 Q0750.0 QA 1.50 VS 5.20 3
 SPEC ORTCHH Z MO 13.6 ST0.591 OM  1.3 f0 2.90 R0.6634 AL-0.00 WI 20.0 MW  3.0 3
 SPEC ORTCHH Z T 91519 K 0.050 GD  417 VS 5.20 DE 3.20 Q0750.0 QA 1.50 VS 5.20 3
 OLDACT:REG 13-12-31 08:53 OP:stll STATUS:               ID:20131231090806     3
 ACTION:UPD 14-01-13 10:22 OP:ep   STATUS:               ID:20131231091346 L   I
 OLDACT:UP  13-12-31 13:28 OP:stll STATUS:               ID:20131231090806     3
 2013-12-31-0908-06M.COL___228                                                 6
 STAT SP IPHASW D HRMM SECON CODA AMPLIT PERI AZIMU VELO AIN AR TRES W  DIS CAZ7
 BAR2 SZ EP        914  5.51                             170    0.4210 23.7 183 
 BAR2 SZ ES        914 20.13                             170    0.5810 23.7 183 
 BAR2 SZ I         914 22.95       116.6 0.24            165           23.7 183 
 PAM  SZ EP        914  8.31                             149    0.4310 78.7  41 
 PAM  SN ES        914 25.35                             149    0.8310 78.7  41 
 PAM  SZ I         914 27.41        26.3 0.54            146           78.7  41 
 RUS  HZ EP        914  9.49                             142    0.0110  102 174 
 RUS  HN ES        914 27.06                             142   -0.3210  102 174 
 RUS  SZ I         914 29.14        27.3 0.24            137            102 174 
 PTB  HZ EP        914 11.92                             131   -0.61 9  145 258 
 PTB  HN ES        914 32.85                             131    0.04 9  145 258 
 PTB  SZ I         914 40.27        22.7 0.28            130            145 258 
 TAM  HZ IP     D  914 13.81                             128    0.02 9  158 105 
 TAM  HN ES        914 34.81                             128   -0.24 9  158 105 
 TAM  SZ I         915  8.14        10.5 4.04            123            158 105 
 OCA  HZ EP        914 14.20                             128    0.14 9  159 354 
 OCA  HN ES        914 35.46                             128   -0.06 9  159 354 
 OCA  SZ I         914 38.66        23.5 0.20            127            159 354 
 SPBC HZ EP        914 14.31                             127    0.07 9  162 218 
 SPBC HE ES        914 35.31                             127   -0.54 9  162 218 
 SPBC SZ I         914 42.75        31.3 0.12            125            162 218 
 ZAR  HZ EP        914 17.98                             121   -0.12 9  201 292 
 ZAR  HN ES        914 42.30                             121   -0.42 9  201 292 
 ZAR  SZ I         914 49.62        23.9 0.30            120            201 292 
 NOR  HZ EP        914 21.59                             117    0.04 8  233 234 
 NOR  HE ES        914 48.33                             117   -0.53 8  233 234 
 NOR  SZ I         914 54.65        17.1 0.48            115            233 234 
 SML  HZ EP        914 22.23                             116   -0.24 8  242 336 
 SML  HN ES        914 49.49                             116   -1.00 8  242 336 
 SML  SZ I         914 53.48        20.8 0.10            115            242 336 
 CHI  HZ EP        914 23.68                             115   -0.07 8  249 194 
 CHI  HN ES        914 51.41                             115   -1.36 8  249 194 
 CHI  SZ I         914 55.04         9.6 1.98            113            249 194 
 HEL  HZ EP        914 26.81                             113    0.80 8  270 255 
 HEL  HE ES        914 56.37                             113   -0.44 8  270 255 
 HEL  SZ I         915  5.33         9.9 0.32            112            270 255 
 GUY2CHZ EP        914 31.12                             111    1.60 7  299 234 
 GUY2CHN ES        915  2.78                             111   -0.28 7  299 234 
 GUY2CSZ I         915 11.66        15.3 0.34                           299 234 
 SOCV BZ EP        914 27.71                             110   -1.70 7  303  57 
 SOCV BZ ES   4    914 58.73                             110   -4.12 0  303  57 
 RREF HZ EP        914 33.86                             109    1.75 7  320 229 
 RREF HN ES        915  8.18                             109    0.52 7  320 229 
 RREF SZ I         915 13.00         9.1 0.26            107            320 229 
 TOL  SZ EP        914 35.11                             108    0.84 7  342 224 
 TOL  SZ I         915 21.53         5.3 0.70            106            342 224 
 ORTC HZ EP        914 40.43                             105    0.40 6  394 216 
 ORTC HE ES        915 21.31                             105   -0.45 6  394 216 
 ORTC SZ I         915 28.15         7.3 0.54            103            394 216 
                                                                                
