 2014  731 0549 39.6 L   6.766 -73.148149.2  RSN  6 0.4 1.6LRSN                1
 GAP=200        0.86       4.1     5.8  8.1  0.4835E+01 -0.5991E+01 -0.1210E+02E
 Epicentro: LOS SANTOS - SANTANDER                                             3
 ACTION:UPD 15-03-16 20:48 OP:nd   STATUS:               ID:20140731054939 L   I
 OLDACT:UP  14-07-31 16:59 OP:mh   STATUS:               ID:20140731054813     3
 OLDACT:REG 14-07-31 13:00 OP:mh   STATUS:               ID:20140731054813     3
 2014-07-31-0548-13M.COL___254                                                 6
 STAT SP IPHASW D HRMM SECON CODA AMPLIT PERI AZIMU VELO AIN AR TRES W  DIS CAZ7
 BAR2 SZ EP        549 59.76                             172    0.2310 19.6 191 
 BAR2 SZ I         550 17.57         3.6 0.60            175           19.6 191 
 BRR  HZ EP     C  550  1.64                             153    0.4810 72.8 301 
 BRR  HN ES   1    550 18.30                             153    0.28 7 72.8 301 
 BRR  HZ I         550 22.16         4.3 0.29            157           72.8 301 
 RUS  HZ EP        550  3.43                             145    0.0510 96.9 176 
 RUS  HN ES        550 21.53                             145   -0.4410 96.9 176 
 PTB  HZ EP        550  6.42                             133   -0.30 9  147 260 
 PTB  HN ES        550 27.70                             133   -0.20 9  147 260 
 PTB  HZ I         550 35.10         9.3 0.05            139            147 260 
 SPBC HZ EP        550  8.51                             130    0.48 9  160 220 
 SPBC HN ES        550 30.22                             130   -0.02 9  160 220 
 SML  HZ EP        550 16.06                             118   -0.67 8  247 336 
 SML  HN ES   1    550 45.66                             118   -0.06 6  247 336 
 SML  HZ I         550 49.59         4.6 0.29            120            247 336 
                                                                                
