 2012  731 0253  1.5 L   6.755 -73.206138.9  RSN  4 0.2 1.3LRSN                1
 GAP=238        0.49       7.3     4.9  6.3  0.2313E+02  0.5701E+01 -0.1660E+01E
 Epicentro: VILLANUEVA - SANTANDER                                             3
 ACTION:UPD 12-08-14 11:46 OP:ep   STATUS:               ID:20120731025301 L   I
 2012-07-31-0250-00M.COL___209                                                 6
 STAT SP IPHASW D HRMM SECON CODA AMPLIT PERI AZIMU VELO AIN AR TRES W  DIS CAZ7
 BAR2 SZ EP   1    253 20.22                             172     0.0 7   18 172 
 BAR2 SZ ES   1    253 34.94                             172     0.1 7   18 172 
 BAR2 SZ I         253 36.30         4.5 0.18            165             18 172 
 RUS  HZ EP   1    253 24.41                             143     0.1 7   96 172 
 RUS  HN ES   2    253 41.53                             143    -0.5 5   96 172 
 RUS  HZ I         253 44.88         4.5 0.41            141             96 172 
 PTB  HZ EP   1    253 27.31                             132     0.1 7  140 260 
 PTB  HN ES   1    253 47.51                             132     0.2 7  140 260 
 PTB  HZ I         253 50.13         2.7 0.21            131            140 260 
 ZAR  HN ES   1    253 57.47                             121    -0.3 6  200 294 
