 2011  731 0634 18.1 L   6.728 -73.650 99.5  RSN  4 0.3 0.9LRSN                1
 GAP=205        0.64       4.6     8.1  6.8  0.1436E+02 -0.6406E+01 -0.1237E+00E
 Epicentro: EL CARMEN DE CHUCURI - SANTANDER                                   3
 ACTION:UPD 12-07-25 14:04 OP:epov STATUS:               ID:20110731063418 L   I
 2011-07-31-0620-00M.COL___141                                                 6
 STAT SP IPHASW D HRMM SECON CODA AMPLIT PERI AZIMU VELO AIN AR TRES W  DIS CAZ7
 BRR  HZ EP   1    634 32.22                             155   -0.41 7 42.5 351 
 BRR  HN ES   1    634 44.10                             155    0.14 7 42.5 351 
 BRR  HZ I         634 45.19         2.8 0.14                          42.5 351 
 BAR2 SZ EP   1    634 34.11                             150    0.49 7 53.8 106 
 BAR2 SZ ES   1    634 45.67                             150   -0.06 7 53.8 106 
 BAR2 SZ I         634 46.15         2.4 0.46                          53.8 106 
 RUS  HZ EP   1    634 38.49                             129   -0.21 7  112 146 
 RUS  HN ES   2    634 54.67                             129   -0.10 5  112 146 
 RUS  HZ I         634 56.55         1.4 0.38                           112 146 
 GRA  SZ EP   1    634 43.47                             118    0.38 7  158  36 
 GRA  SZ ES   2    635  1.94                             118   -0.64 5  158  36 
 GRA  SZ I         635  5.50         2.2 0.46                           158  36 
                                                                                
