 2013 1231 0432 48.5 L   6.813 -73.105142.6  RSN 11 0.6 1.5LRSN                1
 GAP=187        1.28       3.5     5.9  7.2  0.1021E+01  0.8234E+01  0.6179E+00E
 Epicentro: LOS SANTOS - SANTANDER                                             3
 ACTION:UPD 14-01-13 10:22 OP:ep   STATUS:               ID:20131231043248 L   I
 OLDACT:REG 13-12-31 08:45 OP:stll STATUS:               ID:20131231042816     3
 2013-12-31-0428-16M.COL___237                                                 6
 STAT SP IPHASW D HRMM SECON CODA AMPLIT PERI AZIMU VELO AIN AR TRES W  DIS CAZ7
 BAR2 SZ EP        433  7.98                             169    0.2210 25.9 199 
 BAR2 SZ ES        433 22.67                             169   -0.1510 25.9 199 
 BAR2 SZ I         433 25.69         8.9 0.42            169           25.9 199 
 BRR  HZ EP        433  9.90                             151    0.4410 74.6 296 
 BRR  HN ES        433 26.46                             151    0.6210 74.6 296 
 BRR  HZ I         433 31.14         3.6 0.14            151           74.6 296 
 RUS  HZ EP        433 11.98                             143   -0.0110  102 179 
 RUS  HZ I         433 12.74         2.3 0.48            145            102 179 
 RUS  HN ES        433 30.20                             143   -0.1410  102 179 
 PTB  HZ EP        433 14.85                             130   -0.76 9  152 259 
 PTB  HN ES        433 35.92                             130   -0.86 9  152 259 
 PTB  HZ I         433 39.34         4.2 0.16            132            152 259 
 OCA  HN ES        433 38.68                             129    0.40 9  159 351 
 OCA  HZ I         433 42.92         4.4 0.30            132            159 351 
 SPBC HZ EP        433 16.95                             128   -0.15 9  167 220 
 SPBC HN ES        433 39.47                             128    0.03 9  167 220 
 SPBC HZ I         433 44.57         6.2 0.34            130            167 220 
 ZAR  HZ EP        433 21.35                             121    0.27 8  208 291 
 ZAR  HE ES        433 46.23                             121   -0.30 8  208 291 
 ZAR  HZ I         433 52.32         3.9 0.30            123            208 291 
 NOR  HN ES        433 52.40                             117   -0.20 8  239 235 
 SML  HZ EP        433 25.26                             117    0.28 8  244 334 
 SML  HN ES        433 52.60                             117   -0.86 8  244 334 
 CHI  HZ EP        433 26.19                             116   -0.08 8  251 196 
 CHI  HE ES        433 55.63                             116   -0.13 8  251 196 
 CHI  HZ I         434  3.12         1.1 0.34            119            251 196 
 GUY2CHZ EP        433 32.22                             111   -0.22 7  306 235 
 GUY2CHN ES        434  8.61                             111    1.87 7  306 235 
 GUY2CHZ I         434 14.78         2.7 0.76                           306 235 
                                                                                
