 2016  831 0003 19.0 L   6.743 -73.165150.8  RSN  7 0.5 1.9LRSN                1
 GAP=137        1.18       5.0     5.1  7.5 -0.9634E+00  0.9230E+01 -0.1504E+00E
 Epicentro: VILLANUEVA - SANTANDER                                             3
 ACTION:UPD 16-10-29 15:40 OP:rebc STATUS:               ID:20160831000319 L   I
 OLDACT:REG 16-08-31 12:39 OP:drio STATUS:               ID:20160830235954     3
 2016-08-31-0000-15M.COL___350                                                 6
 STAT SP IPHASW D HRMM SECON CODA AMPLIT PERI AZIMU VELO AIN AR TRES W  DIS CAZ7
 BAR2 EZ EP        0 3 39.15                             173    0.0110 16.8 187 
 BAR2 EZ ES        0 3 54.79                             173   -0.0510 16.8 187 
 BAR2 EZ I         0 3 55.86        17.2 0.42                          16.8 187 
 BRR  HZ EP        0 3 41.02                             153    0.2310 72.6 304 
 BRR  HN ES        0 3 58.61                             153    0.8310 72.6 304 
 BRR  HZ I         0 4 10.28        12.6 0.44                          72.6 304 
 PAM  EZ EP        0 3 42.01                             150   -0.1310 83.6  38 
 PAM  EE ES        0 3 59.63                             150   -0.5510 83.6  38 
 PAM  EZ I         0 4  3.78         6.6 0.64                          83.6  38 
 RUS  HZ EP        0 3 43.24                             146    0.4010 94.5 174 
 RUS  HE ES        0 4  1.50                             146    0.0710 94.5 174 
 RUS  HZ I         0 4  3.09         7.6 0.32                          94.5 174 
 PTB  HZ EP        0 3 45.79                             134   -0.32 9  145 261 
 PTB  HE ES        0 4  7.02                             134   -0.23 9  145 261 
 PTB  HZ I         0 4 14.38        11.3 0.38                           145 261 
 SPBC HZ EP        0 3 48.14                             131    0.81 9  157 220 
 SPBC HN ES        0 4  8.61                             131   -0.80 9  157 220 
 SPBC HZ I         0 4 13.00        21.8 0.26                           157 220 
 ZAR  HZ EP        0 3 51.33                             123   -0.52 9  205 294 
 ZAR  HE ES        0 4 17.53                             123    0.08 9  205 294 
 ZAR  HZ I         0 4 24.25        12.2 0.30                           205 294 
 NOR  HN ES   4    0 4 20.59                             120   -1.54 0  229 235 
                                                                                
