 2013  531 0219 10.6 L   6.802 -73.167137.9  RSN 12 0.4 2.2LRSN 2.7WRSN        1
 SPEC AVERAGE  MO 13.1 ST  1.1 OM  1.8 f0 3.75 R0.4415 AL 1.71 WI 12.5 MW  2.7 3
 SPEC SD       MO  0.2 ST0.880 OM  0.4 f00.861 R0.1242 AL      WI      MW  0.2 3
 GAP= 70        1.03       3.1     3.2  5.8 -0.6050E-01  0.4070E+01  0.1798E+00E
 Epicentro: LOS SANTOS - SANTANDER                                             3
 SPEC HEL HH N MO 12.9 ST0.362 OM  1.0 f0 3.45 R0.4504 AL 1.63 WI 16.4 MW  2.5 3
 SPEC HEL HH N T 22019 K 0.000 GD  303 VS 4.20 DE 3.20 Q0300.0 QA 0.60 VS 4.20 3
 SPEC SML HH N MO 13.2 ST  2.5 OM  1.4 f0 4.99 R0.3114 AL 1.94 WI 15.3 MW  2.8 3
 SPEC SML HH N T 22013 K 0.000 GD  279 VS 4.20 DE 3.20 Q0300.0 QA 0.60 VS 4.20 3
 SPEC NOR HH N MO 13.2 ST  2.4 OM  1.4 f0 4.94 R0.3146 AL 1.77 WI 14.3 MW  2.8 3
 SPEC NOR HH N T 22012 K 0.000 GD  270 VS 4.20 DE 3.20 Q0300.0 QA 0.60 VS 4.20 3
 SPEC OCA HH N MO 13.5 ST  2.0 OM  1.8 f0 3.70 R0.4200 AL 1.43 WI 16.9 MW  3.0 3
 SPEC OCA HH N T 21958 K 0.000 GD  211 VS 4.20 DE 3.20 Q0300.0 QA 0.60 VS 4.20 3
 SPEC TAM HH E MO 13.0 ST0.111 OM  1.3 f0 2.09 R0.7435 AL 1.43 WI 10.6 MW  2.6 3
 SPEC TAM HH E T 21957 K 0.000 GD  208 VS 4.20 DE 3.20 Q0300.0 QA 0.60 VS 4.20 3
 SPEC PTB HH N MO 13.1 ST0.741 OM  1.4 f0 3.70 R0.4200 AL 1.24 WI 15.1 MW  2.7 3
 SPEC PTB HH N T 21956 K 0.000 GD  200 VS 4.20 DE 3.20 Q0300.0 QA 0.60 VS 4.20 3
 SPEC RUS HH N MO 13.0 ST0.680 OM  1.4 f0 3.79 R0.4100 AL 2.42 WI  9.5 MW  2.6 3
 SPEC RUS HH N T 21950 K 0.000 GD  170 VS 4.20 DE 3.20 Q0300.0 QA 0.60 VS 4.20 3
 SPEC PAM SH N MO 13.1 ST0.281 OM  1.5 f0 2.68 R0.5799 AL 2.09 WI  6.4 MW  2.7 3
 SPEC PAM SH N T 21948 K 0.000 GD  158 VS 4.20 DE 3.20 Q0300.0 QA 0.60 VS 4.20 3
 SPEC BRR HH N MO 13.1 ST  1.2 OM  1.5 f0 4.43 R0.3508 AL 1.86 WI 13.7 MW  2.7 3
 SPEC BRR HH N T 21946 K 0.000 GD  154 VS 4.20 DE 3.20 Q0300.0 QA 0.60 VS 4.20 3
 SPEC GIR2SH Z MO 12.5 ST0.217 OM  1.0 f0 3.75 R0.4144 AL 1.33 WI  7.1 MW  2.3 3
 SPEC GIR2SH Z T 21943 K 0.000 GD  141 VS 4.20 DE 3.20 Q0300.0 QA 0.60 VS 4.20 3
 ACTION:UPD 13-06-20 09:55 OP:ep   STATUS:               ID:20130531021910 L   I
 2013-05-31-0217-43M.COL___221                                                 6
 STAT SP IPHASW D HRMM SECON CODA AMPLIT PERI AZIMU VELO AIN AR TRES W  DIS CAZ7
 GIR2 SZ IP     C  219 29.43                             167    0.0810 30.7 355 
 GIR2 SZ ES        219 44.12                             167    0.1710 30.7 355 
 GIR2 SZ I         219 46.52        26.7 0.34            166           30.7 355 
 BRR  HZ IP     D  219 31.18                             152    0.3810 69.0 299 
 BRR  HN ES   1    219 46.65                             152    0.11 7 69.0 299 
 BRR  HZ I         219 49.54        24.8 0.32            150           69.0 299 
 PAM  SZ IP     D  219 32.25                             149    0.1610 78.7  41 
 PAM  SN ES        219 49.11                             149    0.2710 78.7  41 
 PAM  SZ I         219 51.00        37.1 0.80            152           78.7  41 
 RUS  HZ EP        219 33.20                             142   -0.4410  101 175 
 RUS  HN ES        219 51.47                             142   -0.1310  101 175 
 RUS  HZ I         219 52.64        21.2 0.24            144            101 175 
 PTB  HZ EP        219 36.06                             131   -0.69 9  145 259 
 PTB  HN ES        219 57.04                             131   -0.09 9  145 259 
 PTB  HZ I         220  0.27        22.9 0.16            131            145 259 
 TAM  HZ IP     C  219 37.48                             128   -0.44 9  157 105 
 TAM  HE ES        219 59.42                             128    0.22 9  157 105 
 OCA  HZ EP        219 38.37                             128    0.08 9  160 354 
 OCA  HN ES        219 59.17                             128   -0.69 9  160 354 
 OCA  HZ I         220  2.84        18.9 0.20            129            160 354 
 ZAR  HZ EP        219 43.45                             121    1.12 9  202 292 
 ZAR  HN ES   2    220  6.87                             121   -0.19 4  202 292 
 ZAR  HZ I         220  9.43        23.5 0.30            121            202 292 
 NOR  HZ EP        219 45.84                             117    0.12 8  233 234 
 NOR  HN ES        220 13.20                             117    0.11 8  233 234 
 NOR  HZ I         220 17.53        16.8 0.22            118            233 234 
 SML  HZ EP        219 47.12                             116    0.43 8  243 336 
 SML  HN ES        220 14.25                             116   -0.57 8  243 336 
 SML  HZ I         220 20.58        17.0 0.10            117            243 336 
 HEL  HZ EP   4    219 51.62                             113    1.42 0  270 256 
 HEL  HN ES   4    220 20.02                             113   -1.05 0  270 256 
 HEL  HZ I         220 29.07         8.4 0.52            114            270 256 
 URE  HZ EP   4    219 48.65                             112   -2.42 0  282 292 
 URE  HN ES   4    220 21.78                             112   -0.83 0  282 292 
 URE  HZ I         220 23.55        11.0 0.12            113            282 292 
                                                                                
