 2011  831 0947 39.0 L   6.818 -73.128146.8  RSN  7 0.2 1.7LRSN                1
 GAP=185        0.40       2.1     4.3  3.9  0.1090E+01 -0.8894E+00  0.4588E+00E
 Epicentro: LOS SANTOS - SANTANDER                                             3
 ACTION:UPD 12-07-13 15:54 OP:ep   STATUS:               ID:20110831094739 L   I
 2011-08-31-0942-21S.COL___164                                                 6
 STAT SP IPHASW D HRMM SECON CODA AMPLIT PERI AZIMU VELO AIN AR TRES W  DIS CAZ7
 BAR2 SZ EP        947 58.77                             170   -0.0310 25.7 194 
 BAR2 SZ ES   1    948 14.02                             170   -0.23 7 25.7 194 
 BAR2 SZ I         948 15.53        19.9 0.35                          25.7 194 
 GIR2 SZ EP        947 58.94                             168    0.1910 29.7 346 
 BRR  HZ EP        948  0.34                             152    0.0410 72.0 296 
 BRR  HZ I         948  0.90        22.1 0.15                          72.0 296 
 BRR  HE ES   1    948 17.14                             152    0.22 7 72.0 296 
 RUS  HZ EP   2    948  2.68                             143   -0.31 5  103 177 
 RUS  HZ I         948 22.67         4.3 0.38                           103 177 
 OCA  SZ EP   1    948  7.36                             130    0.14 7  158 352 
 OCA  SZ ES   1    948 28.99                             130   -0.25 7  158 352 
 OCA  SZ I         948 35.68         4.8 0.29                           158 352 
 ZAR  HZ EP   2    948 11.45                             122   -0.17 4  205 291 
 ZAR  HN ES   2    948 36.77                             122   -0.29 4  205 291 
 ZAR  HZ I         948 43.76         5.0 0.39                           205 291 
 CHI  HZ EP   2    948 16.82                             117   -0.20 4  251 195 
 CHI  HZ I         948 17.38         1.7 0.35                           251 195 
 CHI  HE ES   1    948 46.80                             117    0.12 6  251 195 
                                                                                
