 2011  331 0244 49.7 L   6.729 -73.069144.6  RSN  4 0.3 1.7LRSN                1
 GAP=207        0.77       7.0     9.8  8.7 -0.2194E+02 -0.2212E+02 -0.4750E+01E
 Epicentro: JORDAN - SANTANDER                                                 3
 ACTION:UP  11-06-16 14:36 OP:jfem STATUS:               ID:20110331024449 L   I
 2011-03-31-0242-31S.COL___138                                                 6
 STAT SP IPHASW D HRMM SECON CODA AMPLIT PERI AZIMU VELO SNR AR TRES W  DIS CAZ7
 BAR2 SZ EP        245  8.99                             172    -0.110   20 220 
 BAR2 SZ ES   1    245 24.04                             172    -0.2 7   20 220 
 BAR2 SZ I         245 25.07         8.0 0.32                            20 220 
 BTL  SZ EP        245  9.78                             168     0.510   30 314 
 BRR  HZ EP        245 11.01                             149    -0.310   82 301 
 BRR  HZ I         245 11.28        14.6 0.14                            82 301 
 BRR  HN ES   1    245 28.44                             149     0.2 7   82 301 
 GRA  SZ EP        245 15.26                             135     0.010  131  13 
 GRA  SZ ES   1    245 35.08                             135    -0.1 7  131  13 
 GRA  SZ I         245 36.28         5.7 0.45                           131  13 
                                                                                
