 2017 1031 0825 18.9 L   7.528 -73.519112.0  RSN  6 0.5 1.3LRSN                1
 GAP=194        1.07       7.0     3.7  8.2  0.2064E+01  0.4930E+01 -0.9610E+01E
 Epicentro: SABANA DE TORRES - SANTANDER                                       3
 ACTION:UPD 17-11-07 19:39 OP:rebc STATUS:               ID:20171031082518 L   I
 OLDACT:UP  17-10-31 18:11 OP:dani STATUS:               ID:20171031081739     3
 OLDACT:REG 17-10-31 13:24 OP:dani STATUS:               ID:20171031081739     3
 2017-10-31-0818-00M.COL___441                                                 6
 STAT SP IPHASW D HRMM SECON CODA AMPLIT PERI AZIMU VELO AIN AR TRES W  DIS CAZ7
 BRR  HZ EP        825 35.08                             154   -0.1710 51.2 205 
 BRR  HN ES        825 48.67                             154    0.6510 51.2 205 
 BRR  HZ I         825 51.82         6.4 0.26            143           51.2 205 
 PAM  EZ EP        825 38.48                             138   -0.3610 92.9 103 
 PAM  EN ES        825 54.17                             138   -0.2310 92.9 103 
 PAM  EZ I         825 56.13         6.3 0.24            136           92.9 103 
 BAR2 EZ EP        825 40.14                             132    0.1710  110 160 
 BAR2 EZ ES        825 56.41                             132   -0.0110  110 160 
 BAR2 EZ I         826  4.34         7.7 0.82            127            110 160 
 ZAR  HZ EP        825 44.09                             123    0.76 9  148 269 
 ZAR  HE ES        826  1.92                             123   -0.47 9  148 269 
 ZAR  HZ I         826  4.91         7.7 0.10            124            148 269 
 PTB  HZ EP        825 43.42                             122   -0.20 9  151 223 
 PTB  HN ES        826  2.44                             122   -0.48 9  151 223 
 PTB  HZ I         826  5.86         1.5 0.16            120            151 223 
 RUS  HZ EP        825 48.59                             116    0.46 9  187 165 
 RUS  HN ES   3    826  9.35                             116   -1.60 2  187 165 
 RUS  HZ I         826 21.92         0.9 0.06            114            187 165 
                                                                                
