 2013  131 0756 49.0 L   6.779 -73.177150.6  RSN  5 0.2 1.4LRSN                1
 GAP=134        0.51       3.8     3.8  5.5  0.2322E+01 -0.5551E+01 -0.6559E-01E
 Epicentro: LOS SANTOS - SANTANDER                                             3
 ACTION:UPD 13-02-15 09:18 OP:ep   STATUS:               ID:20130131075649 L   I
 2013-01-31-0750-00M.COL___241                                                 6
 STAT SP IPHASW D HRMM SECON CODA AMPLIT PERI AZIMU VELO AIN AR TRES W  DIS CAZ7
 BAR2 SZ EP   1    757  8.88                             172   -0.24 7 20.6 182 
 BRR  HZ EP        757 10.59                             154    0.0610 69.4 302 
 BRR  HE ES        757 27.52                             154    0.1610 69.4 302 
 BRR  HE I         757 28.11        11.5 0.31            154           69.4 302 
 PAM  SZ EP        757 11.78                             150   -0.1510 81.4  40 
 PAM  SZ I         757 12.07         5.5 0.23            152           81.4  40 
 RUS  HZ EP        757 13.37                             145    0.3310 98.5 174 
 RUS  HE ES   1    757 31.63                             145   -0.19 7 98.5 174 
 RUS  HE I         757 32.72         3.1 0.18            145           98.5 174 
 PTB  HZ EP        757 15.91                             134   -0.07 9  144 259 
 PTB  HN ES   1    757 36.86                             134   -0.20 7  144 259 
 PTB  HZ I         757 39.05         1.6 0.24            134            144 259 
                                                                                
