 2017 1031 0619 55.4 L   6.783 -73.142146.7  RSN  5 0.1 1.1LRSN                1
 GAP=138        0.34       1.9     2.2  3.7  0.2732E+00 -0.2560E+01 -0.4238E+00E
 Epicentro: LOS SANTOS - SANTANDER                                             3
 ACTION:UPD 17-11-07 19:39 OP:rebc STATUS:               ID:20171031061955 L   I
 OLDACT:UP  17-10-31 16:22 OP:dani STATUS:               ID:20171031061740d    3
 OLDACT:DUP 17-10-31 16:20 OP:dani STATUS:               ID:20171031061740d    3
 OLDACT:UP  17-10-31 16:19 OP:dani STATUS:               ID:20171031061739     3
 OLDACT:REG 17-10-31 13:17 OP:dani STATUS:               ID:20171031061739     3
 2017-10-31-0618-00M.COL___441                                                 6
 STAT SP IPHASW D HRMM SECON CODA AMPLIT PERI AZIMU VELO AIN AR TRES W  DIS CAZ7
 BRR  HZ EP        620 16.64                             152   -0.0410 72.5 300 
 BRR  HE ES        620 33.35                             152    0.0510 72.5 300 
 BRR  HZ I         620 45.74         2.5 0.36            152           72.5 300 
 PAM  EZ EP        620 17.66                             151   -0.0810 78.6  38 
 RUS  HZ EP        620 19.15                             145    0.0910 98.6 176 
 RUS  HN ES        620 37.56                             145    0.0210 98.6 176 
 RUS  HZ I         620 38.37         1.3 0.29            153           98.6 176 
 PTB  HE ES        620 43.53                             132    0.04 9  148 260 
 SPBC HZ EP   1    620 23.93                             129    0.12 7  162 220 
 SPBC HN ES   1    620 45.73                             129   -0.27 7  162 220 
 SPBC HZ I         620 52.15         1.8 0.18            136            162 220 
                                                                                
