 2015  831 0350 56.3 L   6.866 -73.291121.6  RSN  6 0.5 1.9LRSN                1
 GAP=160        1.23       4.6     6.3  8.3 -0.4771E+01  0.1043E+02 -0.4386E+01E
 Epicentro: BETULIA - SANTANDER                                                3
 ACTION:UPD 15-09-15 23:06 OP:cam  STATUS:               ID:20150831035056 L   I
 OLDACT:REG 15-08-31 13:50 OP:stll STATUS:               ID:20150831034747     3
 2015-08-31-0347-47M.COL___361                                                 6
 STAT SP IPHASW D HRMM SECON CODA AMPLIT PERI AZIMU VELO AIN AR TRES W  DIS CAZ7
 BAR2 EZ EP     D  351 13.74                             164    0.4110 32.6 158 
 BAR2 EZ ES        351 26.58                             164   -0.0210 32.6 158 
 BAR2 EZ I         351 28.06        53.1 0.32            164           32.6 158 
 BRR  HZ IP     D  351 14.14                             155    0.2510 53.6 300 
 BRR  HN ES        351 27.65                             155    0.0710 53.6 300 
 BRR  HZ I         351 28.59        11.9 0.12            154           53.6 300 
 CPBEREZ EP        351 19.16                             129   -0.9410  134 254 
 CPBEREE ES        351 38.09                             129   -0.5410  134 254 
 OCA  HZ EP     D  351 21.93                             125   -0.11 9  152 359 
 OCA  HN ES        351 41.74                             125   -0.35 9  152 359 
 OCA  HZ I         351 42.88        24.4 0.30            127            152 359 
 SPBC HZ EP        351 22.32                             124   -0.42 9  160 213 
 SPBC HE ES        351 43.79                             124    0.45 9  160 213 
 SPBC HZ I         351 47.54         6.9 0.26            124            160 213 
 ZAR  HZ EP        351 26.36                             119    0.93 9  186 292 
 ZAR  HN ES        351 48.49                             119    0.37 9  186 292 
 ZAR  HZ I         351 51.05         5.8 0.24            120            186 292 
                                                                                
