 2010  831 0638 34.0 L   6.837 -73.020131.4  RSN  4 0.3 1.3LRSN                1
 GAP=178        0.70       8.4    19.1 24.2  0.7950E+02 -0.3420E+03 -0.1188E+03E
 Epicentro: CEPITA - SANTANDER                                                 3
 ACTION:UP  10-09-07 10:59 OP:vdl  STATUS:               ID:20100831063834 L   I
 2010-08-31-0637-30S.COL___120                                                 6
 STAT SP IPHASW D HRMM SECON CODA AMPLIT PERI AZIMU VELO SNR AR TRES W  DIS CAZ7
 BTL  SZ EP        638 52.41                             167     0.410   29 288 
 BRR  HZ EP   2    638 54.09                             146    -0.2 5   82 291 
 BRR  HN ES   2    639  9.89                             146    -0.3 5   82 291 
 BRR  HZ I         639 11.38        17.0 0.51                            82 291 
 RUS  HZ EP   2    638 56.42                             139    -0.2 5  105 184 
 RUS  HN ES   2    639 14.09                             139    -0.3 5  105 184 
 RUS  HZ I         639 15.90         2.4 0.52                           105 184 
 GUE  SZ EP   1    638 56.59                             138    -0.3 7  110   5 
 GUE  SZ I         638 58.64         1.4 0.01                           110   5 
                                                                                
