 2011  331 0800 10.7 L   6.916 -73.481 31.1  RSN  5 0.4 1.3LRSN                1
 GAP=172        0.61       6.5     5.6  8.2  0.3136E+02 -0.3591E+02 -0.4222E+02E
 Epicentro: SAN VICENTE DE CHUCURI - SANTANDER                                 3
 ACTION:UP  11-06-16 14:36 OP:jfem STATUS:               ID:20110331080011 L   I
 2011-03-31-0756-34S.COL___138                                                 6
 STAT SP IPHASW D HRMM SECON CODA AMPLIT PERI AZIMU VELO SNR AR TRES W  DIS CAZ7
 BTL  SZ EP        8 0 16.90                             140    -0.210   24  89 
 BRR  HZ EP        8 0 17.78                             125     0.010   33 310 
 BRR  HZ I         8 0 22.78        12.4 0.12                            33 310 
 BRR  HN ES   1    8 0 23.44                             125     0.1 7   33 310 
 BAR2 SZ ES   1    8 0 27.40                             114     0.2 7   49 138 
 GRA  SZ EP   3    8 0 28.80                              61    -1.4 2  131  35 
 GRA  SZ ES   2    8 0 45.76                              61     0.3 5  131  35 
 GRA  SZ I         8 0 47.14         8.8 0.17                           131  35 
 OCA  SZ ES   3    8 0 49.69                              61     0.5 2  147   7 
 OCA  SZ I         8 0 53.75         4.0 0.51                           147   7 
                                                                                
