 2014  131 0048  6.2 L   6.740 -73.145144.9  RSN  5 0.4 1.3LRSN                1
 GAP=139        1.01       5.7     5.4  8.0 -0.5387E+01  0.9174E+01 -0.4481E+01E
 Epicentro: JORDAN - SANTANDER                                                 3
 ACTION:UPD 14-03-13 09:59 OP:ep   STATUS:               ID:20140131004806 L   I
 OLDACT:REG 14-01-31 07:20 OP:nd   STATUS:               ID:20140131004000     3
 2014-01-31-0040-00M.COL___288                                                 6
 STAT SP IPHASW D HRMM SECON CODA AMPLIT PERI AZIMU VELO AIN AR TRES W  DIS CAZ7
 BAR2 SZ EP   2    048 25.25                             173   -0.40 5 16.8 194 
 BAR2 SZ ES        048 40.62                             173   -0.1710 16.8 194 
 BAR2 SZ I         048 41.97        11.1 0.20            172           16.8 194 
 BRR  HZ EP        048 28.05                             151    0.5610 74.6 303 
 BRR  HN ES        048 44.66                             151    0.5910 74.6 303 
 BRR  HZ I         048 53.91         6.5 0.40            149           74.6 303 
 PAM  SZ EP        048 28.50                             149   -0.1810 82.6  37 
 PAM  SN ES        048 45.86                             149   -0.3310 82.6  37 
 PAM  SZ I         048 46.61         3.1 0.20            153           82.6  37 
 RUS  HZ EP   2    048 29.49                             146    0.06 5 93.9 176 
 RUS  HN ES        048 47.80                             146    0.2710 93.9 176 
 RUS  HZ I         048 49.43         1.8 0.26            151           93.9 176 
 PTB  HZ EP        048 33.00                             132   -0.03 9  147 261 
 PTB  HN ES        048 53.21                             132   -0.72 9  147 261 
 PTB  HZ I         048 56.64         2.3 0.16            133            147 261 
                                                                                
