 2012  531 0433 33.8 L   6.842 -73.143138.0  RSN  7 0.3 1.9LRSN                1
 GAP=184        0.81       3.9     6.1  8.7  0.4123E-01  0.2561E+02 -0.5025E+01E
 Epicentro: LOS SANTOS - SANTANDER                                             3
 ACTION:UP  12-07-05 12:09 OP:pat  STATUS:               ID:20120531043337 L   I
 2012-05-31-0430-00M.COL___201                                                 6
 STAT SP IPHASW D HRMM SECON CODA AMPLIT PERI AZIMU VELO AIN AR TRES W  DIS CAZ7
 BAR2 SZ EP   1    433 52.98                             168     0.4 7   28 189 
 BAR2 SZ ES   1    434  7.24                             168     0.0 7   28 189 
 BAR2 SZ I         434  9.65        21.4 0.19                            28 189 
 RUS  HZ EP   1    433 56.94                             141    -0.2 7  105 176 
 RUS  HN ES   1    434 15.44                             141     0.1 7  105 176 
 RUS  HZ I         434 16.82         6.8 0.20                           105 176 
 PTB  HZ EP   1    433 59.54                             130    -0.7 7  149 257 
 PTB  HZ I         434 22.82         5.8 0.20                           149 257 
 OCA  HZ EP   1    434  1.66                             129     0.6 7  156 353 
 OCA  HN ES   1    434 21.97                             129    -0.4 7  156 353 
 OCA  HZ I         434 26.70        15.0 0.21                           156 353 
 ZAR  HZ EP   1    434  5.58                             121     0.0 6  203 291 
 ZAR  HN ES   1    434 30.78                             121     0.3 6  203 291 
 ZAR  HZ I         434 36.27         8.8 0.27                           203 291 
 ROSC BN ES   1    434 41.86                             115     0.1 6  257 211 
 ROSC BZ I         434 47.64        13.4 0.39                           257 211 
 HEL  HZ EP   1    434 13.89                             113     0.1 6  274 255 
 HEL  HN ES   1    434 45.06                             113     0.1 6  274 255 
 HEL  HZ I         434 51.17         3.4 0.38                           274 255 
                                                                                
