 2011  731 0714 49.3 L   6.743 -73.075136.3  RSN  4 0.4 1.1LRSN                1
 GAP=167        0.84       5.4    10.4  9.9 -0.4048E+01 -0.3165E+02 -0.3401E+01E
 Epicentro: JORDAN - SANTANDER                                                 3
 ACTION:UPD 12-07-25 14:04 OP:epov STATUS:               ID:20110731071449 L   I
 2011-07-31-0711-20S.COL___142                                                 6
 STAT SP IPHASW D HRMM SECON CODA AMPLIT PERI AZIMU VELO AIN AR TRES W  DIS CAZ7
 BAR2 SZ EP   1    715  7.67                             171   -0.01 7 20.4 215 
 BAR2 SZ ES   1    715 21.45                             171   -0.61 7 20.4 215 
 BAR2 SZ I         715 26.97         3.5 0.40                          20.4 215 
 BRR  HZ EP   1    715  9.71                             147   -0.29 7 81.1 300 
 BRR  HE ES   1    715 26.53                             147    0.34 7 81.1 300 
 BRR  HZ I         715 27.66         3.0 0.36                          81.1 300 
 RUS  HZ EP   1    715 12.10                             144    0.51 7 94.0 181 
 RUS  HE ES   2    715 29.29                             144    0.27 5 94.0 181 
 RUS  HZ I         715 31.25         1.3 0.28                          94.0 181 
 GRA  SZ EP   1    715 13.46                             134   -0.56 7  130  13 
 GRA  SZ ES   1    715 33.83                             134    0.50 7  130  13 
 GRA  SZ I         715 34.20         2.1 0.36                           130  13 
                                                                                
