 2014  331 0652 25.5 L   6.829 -73.158141.8  RSN 12 0.5 2.2LRSN                1
 GAP=134        1.09       3.1     4.2  6.0 -0.1262E+01  0.1020E+02  0.1022E+01E
 Epicentro: LOS SANTOS - SANTANDER                                             3
 ACTION:UPD 14-04-09 23:21 OP:nd   STATUS:               ID:20140331065225 L   I
 OLDACT:REG 14-03-31 07:45 OP:y    STATUS:               ID:20140331065045     3
 2014-03-31-0650-45M.COL___246                                                 6
 STAT SP IPHASW D HRMM SECON CODA AMPLIT PERI AZIMU VELO AIN AR TRES W  DIS CAZ7
 BAR2 SZ EP        652 44.88                             169    0.1310 26.3 186 
 BAR2 SZ ES        652 59.02                             169   -0.7210 26.3 186 
 BAR2 SZ I         653  1.13        56.9 0.24            169           26.3 186 
 PAM  SZ EP        652 47.72                             150    0.4910 75.8  42 
 PAM  SN ES        653  4.62                             150    0.4610 75.8  42 
 PAM  SZ I         653  7.05        22.7 0.62            155           75.8  42 
 RUS  HZ EP        652 48.91                             142   -0.2310  104 175 
 RUS  HN ES        653  7.83                             142    0.2810  104 175 
 RUS  HZ I         653  9.35        17.7 0.16            145            104 175 
 PTB  HZ EP        652 51.41                             131   -0.71 9  147 258 
 PTB  HN ES        653 12.65                             131   -0.21 9  147 258 
 PTB  HZ I         653 17.31        20.1 0.16            132            147 258 
 SPBC HZ EP        652 53.81                             128   -0.08 9  165 218 
 SPBC HN ES        653 16.38                             128    0.37 9  165 218 
 SPBC HZ I         653 22.98        18.9 0.40            129            165 218 
 ZAR  HZ EP        652 57.49                             122    0.02 9  202 291 
 ZAR  HN ES        653 22.96                             122    0.58 9  202 291 
 ZAR  HZ I         653 29.96        13.8 0.28            123            202 291 
 SML  HZ EP        653  1.27                             117   -0.29 8  240 335 
 SML  HN ES        653 28.77                             117   -0.90 8  240 335 
 SML  HZ I         653 33.49        14.1 0.10            119            240 335 
 CHI  HZ EP        653  3.02                             116   -0.29 8  251 195 
 CHI  HN ES        653 32.65                             116   -0.13 8  251 195 
 CHI  HZ I         653 36.03         5.2 0.48            118            251 195 
 ROSC BZ EP   4    653  5.11                             116    1.45 0  255 210 
 ROSC BN ES   4    653 32.31                             116   -1.09 0  255 210 
 HEL  HZ EP        653  6.42                             114    0.93 8  272 255 
 HEL  HE ES        653 37.19                             114    0.53 8  272 255 
 GUY2CHZ EP        653  9.69                             111    0.64 7  302 234 
 GUY2CHN ES        653 42.68                             111   -0.31 7  302 234 
 GUY2CHZ I         653 50.85         7.5 0.62                           302 234 
 PRA  HZ EP        653 18.92                             106   -0.25 6  394 209 
 PRA  HN ES        654  0.11                             106   -0.89 6  394 209 
 PRA  HZ I         654  7.76         5.0 0.26            108            394 209 
 ORTC HZ EP        653 19.67                             105    0.14 6  397 216 
 ORTC HN ES        654  1.84                             105    0.19 6  397 216 
                                                                                
