 2010 1031 0740  0.1 L   6.560 -73.489111.7  RSN  6 0.4 1.4LRSN                1
 GAP= 86        0.78       4.2     5.7  7.9  0.2659E+01  0.1755E+02 -0.1822E+01E
 Epicentro: EL CARMEN DE CHUCURI - SANTANDER                                   3
 ACTION:UP  11-02-18 11:13 OP:tino STATUS:               ID:20101031074000 L   I
 2010-10-31-0734-44S.COL___125                                                 6
 STAT SP IPHASW D HRMM SECON CODA AMPLIT PERI AZIMU VELO SNR AR TRES W  DIS CAZ7
 BAR2 SZ EP   1    740 15.91                             162     0.0 7   34  84 
 BAR2 SZ ES   1    740 28.63                             162     0.3 7   34  84 
 BAR2 SZ I         740 29.55        17.3 0.44                            34  84 
 BRR  HZ IP     D  740 16.85                             147    -0.410   65 338 
 BRR  HE ES   1    740 30.69                             147     0.0 7   65 338 
 BRR  HZ I         740 33.25         4.1 0.08                            65 338 
 RUS  HZ EP   1    740 19.33                             140    -0.1 7   86 149 
 RUS  HE ES   1    740 34.70                             140     0.1 7   86 149 
 RUS  HZ I         740 36.05         2.3 0.17                            86 149 
 OCA  SZ EP   1    740 29.38                             116     0.6 7  187   6 
 OCA  SZ ES   2    740 50.87                             116    -0.3 4  187   6 
 OCA  SZ I         741  0.09         4.3 0.25                           187   6 
 NOR  SE ES   2    740 50.85                             116    -0.5 4  189 234 
 HEL  HZ EP   2    740 34.71                             111     0.8 4  229 260 
 HEL  HN ES   2    741  0.69                             111     0.5 4  229 260 
 HEL  HZ I         741  6.43         1.6 0.36                           229 260 
                                                                                
