 2012  831 0050 16.2 L   6.773 -73.124149.3  RSN  5 0.3 2.0LRSN                1
 GAP=205        0.67       6.8     8.2  6.1 -0.6403E+01  0.5909E+01 -0.8359E+01E
 Epicentro: LOS SANTOS - SANTANDER                                             3
 ACTION:UPD 12-09-10 11:59 OP:ep   STATUS:               ID:20120831005016 L   I
 2012-08-31-0050-00M.COL___218                                                 6
 STAT SP IPHASW D HRMM SECON CODA AMPLIT PERI AZIMU VELO AIN AR TRES W  DIS CAZ7
 BAR2 SZ EP        050 36.45                             172    0.2410 21.0 198 
 BAR2 SZ ES   1    050 51.29                             172   -0.53 7 21.0 198 
 BAR2 SZ I         050 52.75        23.2 0.20                          21.0 198 
 GIR2 SZ EP   3    050 36.60                             166    0.21 2 34.7 347 
 GIR2 SZ ES   2    050 52.25                             166    0.12 5 34.7 347 
 BRR  HZ EP        050 38.29                             152    0.3610 74.7 300 
 BRR  HN ES   1    050 55.20                             152    0.32 7 74.7 300 
 BRR  HZ I         050 56.95        11.5 0.10                          74.7 300 
 PTB  HZ EP        050 43.35                             132   -0.27 9  150 260 
 PTB  HE ES   3    051  4.35                             132   -0.65 2  150 260 
 OCA  HZ EP        050 44.82                             130   -0.27 9  164 352 
 OCA  HN ES   3    051  7.07                             130   -0.56 2  164 352 
 OCA  HZ I         051 11.17        15.3 0.52                           164 352 
                                                                                
