 2011  331 0209 42.4 L   6.770 -73.100144.6  RSN  7 0.2 1.8LRSN                1
 GAP=182        0.45       3.3     4.5  4.3 -0.7534E+01 -0.4510E+01  0.4663E+01E
 Epicentro: LOS SANTOS - SANTANDER                                             3
 ACTION:UP  11-06-16 14:36 OP:jfem STATUS:               ID:20110331020942 L   I
 2011-03-31-0208-26S.COL___138                                                 6
 STAT SP IPHASW D HRMM SECON CODA AMPLIT PERI AZIMU VELO SNR AR TRES W  DIS CAZ7
 BAR2 SZ IP        210  1.77                             171    -0.110   22 205 
 BAR2 SZ ES   1    210 16.93                             171    -0.1 7   22 205 
 BAR2 SZ I         210 19.46        17.2 0.29                            22 205 
 BTL  SZ IP        210  1.95                             170     0.110   25 311 
 BRR  HZ IP     D  210  3.64                             150    -0.110   77 299 
 BRR  HZ I         210  5.42        11.4 0.05                            77 299 
 BRR  HN ES   1    210 20.74                             150     0.3 7   77 299 
 GRA  SZ EP        210  7.64                             136     0.010  127  15 
 GRA  SZ ES   2    210 27.18                             136    -0.2 5  127  15 
 GRA  SZ I         210 30.23         6.8 0.38                           127  15 
 NOR  SN ES   1    210 46.00                             118    -0.3 6  237 236 
 CHI  HZ EP        210 20.00                             117     0.2 8  247 197 
 CHI  HZ I         210 53.32         2.0 0.50                           247 197 
 PRA  HZ EP   2    210 36.23                             106     0.4 3  392 210 
 PRA  HN ES   3    211 17.00                             106    -0.5 1  392 210 
 PRA  HZ I         211 20.76         5.8 0.31                           392 210 
                                                                                
