 2013  731 0916 12.8 L   6.791 -73.142150.7  RSN  8 0.4 2.0LRSN                1
 GAP=183        0.81       3.5     5.3  6.5  0.2317E+01  0.2713E+01 -0.3425E+01E
 Epicentro: LOS SANTOS - SANTANDER                                             3
 ACTION:UPD 13-08-12 10:41 OP:ep   STATUS:               ID:20130731091612 L   I
 OLDACT:REG 13-07-31 10:12 OP:carl STATUS:               ID:20130731090959     3
 2013-07-31-0909-59M.COL___265                                                 6
 STAT SP IPHASW D HRMM SECON CODA AMPLIT PERI AZIMU VELO AIN AR TRES W  DIS CAZ7
 BAR2 SZ EP   1    916 32.87                             171   -0.09 7 22.5 191 
 BAR2 SZ ES   1    916 48.27                             171   -0.46 7 22.5 191 
 BAR2 SZ I         916 49.70        12.3 0.48            168           22.5 191 
 BRR  HZ IP     D  916 34.85                             153    0.3710 72.0 299 
 BRR  HN ES   1    916 52.27                             153    0.84 7 72.0 299 
 BRR  HN I         916 55.45        34.2 0.18            148           72.0 299 
 RUS  HZ EP   1    916 36.74                             145   -0.18 7 99.6 176 
 RUS  HN ES   1    916 55.60                             145   -0.18 7 99.6 176 
 RUS  HZ I         916 56.70         4.5 0.38            148           99.6 176 
 PTB  HZ EP   1    916 39.80                             133   -0.35 7  148 259 
 PTB  HN ES        917  1.15                             133   -0.36 9  148 259 
 PTB  HZ I         917  8.28        11.6 0.42            131            148 259 
 OCA  HN ES   1    917  4.13                             130    0.13 7  161 353 
 OCA  HN I         917  6.96        49.8 0.26            132            161 353 
 SPBC HZ EP        916 41.78                             130    0.19 9  163 219 
 SPBC HN ES   1    917  4.44                             130    0.36 7  163 219 
 SPBC HZ I         917 10.98        14.9 0.28            130            163 219 
 ZAR  HZ EP   1    916 45.48                             123   -0.12 6  205 292 
 ZAR  HE ES   1    917 11.10                             123   -0.12 6  205 292 
 ZAR  HZ I         917 16.59         4.7 0.26            123            205 292 
 SML  HZ EP   1    916 50.23                             118    0.46 6  245 335 
 SML  HN ES   1    917 17.81                             118   -0.83 6  245 335 
 SML  HZ I         917 25.10        13.0 0.10            119            245 335 
                                                                                
