 2010 1031 0657  4.3 L   6.795 -73.003144.9  RSN  8 0.3 1.9LRSN                1
 GAP=175        0.69       2.9     6.7  5.5 -0.6590E+01  0.1103E+01  0.1048E+01E
 Epicentro: CEPITA - SANTANDER                                                 3
 ACTION:UP  11-02-18 11:13 OP:tino STATUS:               ID:20101031065704 L   I
 2010-10-31-0653-27S.COL___125                                                 6
 STAT SP IPHASW D HRMM SECON CODA AMPLIT PERI AZIMU VELO SNR AR TRES W  DIS CAZ7
 BAR2 SZ IP        657 24.20                             168     0.210   30 222 
 BAR2 SZ ES   1    657 39.17                             168    -0.1 7   30 222 
 BAR2 SZ I         657 40.88        28.3 0.19                            30 222 
 BRR  HZ IP     C  657 26.00                             148    -0.210   86 294 
 BRR  HZ I         657 26.36        16.1 0.10                            86 294 
 BRR  HN ES   1    657 43.15                             148    -0.2 7   86 294 
 RUS  HZ EP   1    657 28.04                             144     0.1 7  100 185 
 RUS  HN ES   1    657 46.16                             144    -0.2 7  100 185 
 RUS  HZ I         657 48.07         9.1 0.28                           100 185 
 GRA  SZ IP        657 28.95                             137    -0.210  122  10 
 GRA  SZ ES   1    657 48.75                             137     0.2 7  122  10 
 GRA  SZ I         657 53.33         6.9 0.31                           122  10 
 OCA  SZ EP   1    657 32.96                             129     0.1 7  163 348 
 OCA  SZ ES   1    657 55.42                             129     0.3 7  163 348 
 OCA  SZ I         657 58.81         8.8 0.30                           163 348 
 ROSC BZ EP   1    657 43.68                             116     0.4 6  261 214 
 ROSC BN ES   1    658 14.21                             116     0.6 6  261 214 
 ROSC BZ I         658 19.10         5.3 0.27                           261 214 
 HEL  HZ EP   2    657 45.86                             113    -0.3 4  287 257 
 HEL  HZ I         658 23.64         2.8 0.28                           287 257 
 PRA  HZ EP   1    657 57.76                             106    -0.9 4  400 212 
 PRA  HE ES   2    658 41.15                             106     0.1 3  400 212 
                                                                                
