 2016  831 0035 56.1 L   6.730 -73.157146.9  RSN  5 0.4 1.8LRSN                1
 GAP=231        0.97       7.4     6.9  7.1  0.3148E+02  0.6591E+01 -0.4450E+01E
 Epicentro: LOS SANTOS - SANTANDER                                             3
 ACTION:UPD 16-10-29 15:40 OP:rebc STATUS:               ID:20160831003556 L   I
 OLDACT:DUP 16-08-31 13:17 OP:drio STATUS:               ID:20160831002736d    3
 2016-08-31-0028-00M.COL___350                                                 6
 STAT SP IPHASW D HRMM SECON CODA AMPLIT PERI AZIMU VELO AIN AR TRES W  DIS CAZ7
 BAR2 EZ EP        036 15.55                             174   -0.1710 15.5 190 
 BAR2 EZ ES        036 30.44                             174   -0.6010 15.5 190 
 BAR2 EZ I         036 32.49        15.3 0.28                          15.5 190 
 BRR  HZ EP        036 17.49                             152   -0.0410 74.2 304 
 BRR  HE ES        036 34.65                             152    0.4010 74.2 304 
 BRR  HZ I         036 38.51        14.9 0.12                          74.2 304 
 RUS  HZ EP        036 19.65                             146    0.2310 93.0 175 
 RUS  HE ES        036 38.11                             146    0.4910 93.0 175 
 RUS  HZ I         036 38.83         4.7 0.22                          93.0 175 
 PTB  HZ EP        036 22.35                             133   -0.57 9  145 262 
 PTB  HE ES        036 43.61                             133   -0.24 9  145 262 
 PTB  HZ I         036 46.04         9.8 0.30                           145 262 
 ZAR  HZ EP        036 29.06                             122    0.25 8  206 294 
 ZAR  HN ES        036 54.63                             122    0.31 8  206 294 
 ZAR  HZ I         037  0.51         7.7 0.24                           206 294 
                                                                                
