 2016  531 0332  4.8 L   6.762 -73.342130.6  RSN  4 0.4 0.9LRSN                1
 GAP=184        1.08       7.8     7.0  8.8  0.2626E+02  0.1166E+02  0.1064E+02E
 Epicentro: ZAPATOCA - SANTANDER                                               3
 ACTION:UPD 16-08-18 17:50 OP:cam  STATUS:               ID:20160531033204 L   I
 OLDACT:REG 16-05-31 13:22 OP:edw  STATUS:               ID:20160531032745     3
 2016-05-31-0327-45M.COL___316                                                 6
 STAT SP IPHASW D HRMM SECON CODA AMPLIT PERI AZIMU VELO AIN AR TRES W  DIS CAZ7
 BAR2 EZ EP        332 22.98                             168    0.3010 25.8 137 
 BAR2 EZ ES        332 35.82                             168   -0.8010 25.8 137 
 BRR  HZ EP        332 23.42                             155   -0.0610 55.9 313 
 BRR  HE ES        332 38.55                             155    0.5110 55.9 313 
 BRR  HZ I         332 38.65         2.2 0.12            155           55.9 313 
 RUS  HZ EP        332 26.99                             140   -0.1010  100 163 
 RUS  HE ES        332 44.94                             140    0.4810  100 163 
 RUS  HZ I         332 46.37         1.1 0.22            140            100 163 
 PTB  HZ EP        332 28.24                             133   -0.3010  126 259 
 PTB  HN ES        332 46.98                             133   -0.0710  126 259 
 PTB  HZ I         332 50.78         1.3 0.10            132            126 259 
                                                                                
