 2014 1031 0214 44.9 L   6.297 -73.720 98.7  RSN 11 0.5 2.0LRSN                1
 GAP= 72        1.24       3.2     3.5  7.1 -0.3235E+01  0.5855E+01  0.5838E+01E
 Epicentro: SANTA HELENA DEL OPON - SANTANDER                                  3
 ACTION:UPD 14-11-29 23:58 OP:nd   STATUS:               ID:20141031021444 L   I
 OLDACT:REG 14-10-31 13:54 OP:carl STATUS:               ID:20141031020739     3
 2014-10-31-0207-39M.COL___268                                                 6
 STAT SP IPHASW D HRMM SECON CODA AMPLIT PERI AZIMU VELO AIN AR TRES W  DIS CAZ7
 BAR2 SZ EP        215  1.47                             143    0.2010 67.9  61 
 BAR2 SZ ES        215 14.75                             143    0.6910 67.9  61 
 SPBC HZ EP        215  1.81                             138   -0.3110 81.3 209 
 SPBC HN ES        215 15.56                             138   -0.0110 81.3 209 
 SPBC HZ I         215 19.73        22.3 0.32            136           81.3 209 
 RUS  HZ EP     D  215  2.41                             137   -0.4510 83.5 122 
 RUS  HN ES        215 16.92                             137    0.0310 83.5 122 
 RUS  HZ I         215 17.89        10.4 0.26            137           83.5 122 
 PTB  HZ IP     C  215  1.53                             136   -0.8610 85.7 288 
 PTB  HN ES        215 15.16                             136   -0.9010 85.7 288 
 PTB  HZ I         215 15.84        33.4 0.40            135           85.7 288 
 BRR  HZ IP     C  215  2.79                             135    0.0810 89.6   1 
 BRR  HN ES        215 17.55                             135    0.9310 89.6   1 
 BRR  HZ I         215 19.23        32.9 0.12            136           89.6   1 
 PAM  SZ EP        215 10.40                             118   -0.16 9  161  44 
 PAM  SN ES        215 30.19                             118   -0.42 9  161  44 
 PAM  SZ I         215 35.16        15.9 0.24            118            161  44 
 CHI  HZ EP        215 12.61                             114   -0.42 9  184 180 
 CHI  HN ES        215 34.71                             114   -0.29 9  184 180 
 CHI  HZ I         215 43.43         9.9 0.54            113            184 180 
 URE  HZ EP   4    215 19.68                             107   -1.25 0  257 309 
 URE  HN ES   4    215 47.60                             107   -1.46 0  257 309 
 CBOC HZ EP        215 21.95                             107    0.67 8  258 259 
 CBOC HN ES        215 49.95                             107    0.27 8  258 259 
 CBOC HZ I         215 58.93         4.3 0.40            106            258 259 
 TOL  SZ EP        215 21.54                             107   -0.08 8  259 223 
 TOL  SN ES        215 50.98                             107    0.69 8  259 223 
 TOL  SZ I         215 55.86        11.0 0.26            106            259 223 
 PRA  HZ EP        215 28.29                             103    0.57 7  314 204 
 PRA  HN ES        216  1.32                             103    0.18 7  314 204 
 ORTC HZ EP        215 27.90                             103    0.18 7  314 213 
 ORTC HN ES        216  1.70                             103    0.55 7  314 213 
 ORTC HZ I         216  7.81         4.7 0.44            103            314 213 
 PRA  HZ I         216  7.17         5.2 0.24            103            314 204 
                                                                                
