 2013  131 0520 11.0 L   6.569 -73.545110.7  RSN 14 0.4 2.8LRSN                1
 GAP= 74        0.98       2.5     2.5  5.0  0.9199E-01  0.2442E+01  0.2273E+01E
 Epicentro: EL CARMEN DE CHUCURI - SANTANDER                                   3
 ACTION:UPD 13-02-15 09:18 OP:ep   STATUS:               ID:20130131052011 L   I
 2013-01-31-0520-00M.COL___241                                                 6
 STAT SP IPHASW D HRMM SECON CODA AMPLIT PERI AZIMU VELO AIN AR TRES W  DIS CAZ7
 BAR2 SZ IP        520 27.53                             159    0.4710 40.1  86 
 BAR2 SZ ES        520 39.50                             159   -0.0610 40.1  86 
 BRR  HZ IP     C  520 28.32                             148    0.4010 62.3 343 
 BRR  HN ES        520 41.61                             148    0.5210 62.3 343 
 BRR  HN I         520 43.77       286.0 0.15            140           62.3 343 
 RUS  HZ IP     D  520 30.55                             138   -0.1410 90.6 146 
 RUS  HE ES   1    520 46.23                             138    0.22 7 90.6 146 
 RUS  HE I         520 49.19        91.3 0.46            128           90.6 146 
 PTB  HZ IP     D  520 30.36                             134   -0.5410  101 268 
 PTB  HE ES        520 45.47                             134   -0.9310  101 268 
 PTB  HZ I         520 46.61       178.2 0.16            124            101 268 
 PAM  SZ EP        520 33.97                             128    0.0710  126  48 
 PAM  SN ES        520 51.61                             128   -0.1210  126  48 
 PAM  SN I         520 52.60       187.9 0.23            118            126  48 
 ZAR  HZ EP        520 39.20                             117    0.67 9  177 305 
 ZAR  HZ I         521  4.18       120.6 0.39            109            177 305 
 OCA  HZ EP        520 39.38                             116   -0.31 9  186   8 
 OCA  HE ES        521  2.05                             116    0.01 9  186   8 
 OCA  HZ I         521  7.41        83.1 0.31            108            186   8 
 CTAB SZ EP   4    520 42.00                             116    1.83 0  187 203 
 TAM  HZ EP        520 40.29                             115   -0.16 9  195  94 
 TAM  HZ I         521  2.24        44.7 0.12            107            195  94 
 TAM  HN ES        521  2.86                             115   -0.53 9  195  94 
 ROSC BN ES   4    521  8.66                             113    1.48 0  210 204 
 ROSC BZ I         521 15.11        61.5 0.47            106            210 204 
 CHI  HZ EP        520 43.42                             112    0.16 8  215 186 
 CHI  HE ES        521  8.60                             112    0.20 8  215 186 
 CHI  HZ I         521 14.53        22.1 0.48            106            215 186 
 HEL  HZ EP        520 44.63                             111    0.52 8  223 259 
 HEL  HN ES   1    521 10.27                             111    0.36 6  223 259 
 HEL  HN I         521 15.05        45.2 0.42            105            223 259 
 URE  HZ EP        520 47.18                             108   -0.18 8  256 301 
 URE  HN ES   1    521 15.02                             108   -0.67 6  256 301 
 URE  HZ I         521 18.37        63.1 0.14            103            256 301 
 VIL  SZ EP        520 49.21                             107   -0.23 8  272 183 
 VIL  SN ES        521 19.53                             107    0.13 8  272 183 
 VIL  SZ I         521 28.53        39.9 0.50            102            272 183 
 DBB  SZ EP   1    520 52.75                             105    0.25 5  299 280 
                                                                                
