 2011 1031 0433 20.3 L   6.851 -73.073127.7  RSN  4 0.1 1.0LRSN                1
 GAP=249        0.32      10.9     9.2  5.1  0.8556E+02 -0.6488E+01 -0.2127E+02E
 Epicentro: LOS SANTOS - SANTANDER                                             3
 ACTION:UPD 12-07-13 16:07 OP:ep   STATUS:               ID:20111031043320 L   I
 2011-10-31-0431-03S.COL___157                                                 6
 STAT SP IPHASW D HRMM SECON CODA AMPLIT PERI AZIMU VELO AIN AR TRES W  DIS CAZ7
 BAR2 SZ EP   1    433 38.12                             166    0.11 7 31.0 203 
 BAR2 SZ ES   1    433 51.80                             166    0.00 7 31.0 203 
 BAR2 SZ I         433 51.81         2.9 0.66                          31.0 203 
 BRR  HZ EP   1    433 39.78                             147   -0.11 7 76.1 292 
 BRR  HZ I         433 57.45         2.5 0.10                          76.1 292 
 RUS  HZ EP   2    433 42.70                             138   -0.10 5  106 181 
 RUS  HZ I         434  0.68         1.6 0.73                           106 181 
 ZAR  HZ EP   2    433 52.43                             117    0.16 4  210 290 
 ZAR  HN ES   2    434 17.15                             117   -0.03 4  210 290 
 ZAR  HZ I         434 23.60         1.1 0.31                           210 290 
                                                                                
