 2010  131 0500 18.7 L   6.823 -73.126138.2  RSN  9 0.8 2.1LRSN                1
 GAP=185        1.41       5.5    15.2 12.8 -0.1448E+02  0.8727E+02  0.2504E+01E
 Epicentro: LOS SANTOS - SANTANDER                                             3
 ACTION:UP  10-08-24 09:46 OP:vdl  STATUS:               ID:20100131050018 L   I
 2010-01-31-0458-46S.COL___094                                                 6
 STAT SP IPHASW D HRMM SECON CODA AMPLIT PERI AZIMU VELO SNR AR TRES W  DIS CAZ7
 BAR2 SZ EP        5 0 37.34                             169    -0.110   26 194 
 GIR2 SZ EP        5 0 37.51                             167     0.110   29 345 
 GIR2 SZ ES   1    5 0 52.48                             167     0.5 7   29 345 
 RUS  BZ EP        5 0 41.38                             142    -0.510  103 177 
 RUS  BN ES        5 1  0.15                             142     0.210  103 177 
 RUS  BZ I         5 1  1.12        10.5 1.18                           103 177 
 OCA  SZ EP        5 0 45.95                             129    -0.2 9  158 352 
 OCA  SZ ES   1    5 1  7.50                             129    -0.1 7  158 352 
 CHI  HZ EP   1    5 0 55.71                             116    -0.6 6  252 195 
 CHI  HN ES   1    5 1 25.29                             116    -0.3 6  252 195 
 CHI  HZ I         5 1 28.16         5.2 0.55                           252 195 
 HEL  HN ES   2    5 1 28.21                             113    -1.9 4  275 255 
 HEL  HZ I         5 1 36.50         6.0 0.62                           275 255 
 RREF BZ EP   1    5 1  6.85                             109     2.0 5  325 229 
 RREF BN ES   2    5 1 42.23                             109     1.3 3  325 229 
 RREF BZ I         5 1 45.52         7.3 0.79                           325 229 
 TOL  SZ EP   1    5 1  8.17                             108     1.2 5  347 225 
 PRA  HN ES   1    5 1 53.35                             105    -0.8 4  395 210 
 PRA  HZ I         5 1 59.62         7.4 0.06                           395 210 
                                                                                
