 2013  331 0250  9.8 L   6.778 -73.146135.6  RSN  8 0.4 1.8LRSN                1
 GAP=138        0.83       3.9     4.8  7.6 -0.3977E+01  0.1361E+02  0.8190E+00E
 Epicentro: LOS SANTOS - SANTANDER                                             3
 ACTION:UPD 13-04-09 14:06 OP:ep   STATUS:               ID:20130331025009 L   I
 2013-03-31-0250-00M.COL___245                                                 6
 STAT SP IPHASW D HRMM SECON CODA AMPLIT PERI AZIMU VELO AIN AR TRES W  DIS CAZ7
 BAR2 SZ ES   1    250 42.03                             171   -0.40 7 20.9 191 
 BAR2 SZ I         250 45.10        24.4 0.24            172           20.9 191 
 BRR  HZ IP     C  250 30.11                             150    0.2310 72.4 300 
 BRR  HN ES   2    250 46.52                             150    0.94 5 72.4 300 
 BRR  HZ I         250 48.55        15.8 0.22            151           72.4 300 
 PAM  SZ EP   1    250 31.14                             148    0.12 7 79.3  38 
 PAM  SN ES   1    250 47.86                             148    0.25 7 79.3  38 
 PAM  SZ I         250 52.45         9.7 0.36            152           79.3  38 
 RUS  HZ EP   1    250 32.56                             142    0.23 7 98.1 176 
 RUS  HE ES   2    250 50.23                             142    0.29 5 98.1 176 
 RUS  HZ I         250 51.43         4.3 0.18            147           98.1 176 
 PTB  HZ EP   1    250 35.03                             130   -0.83 7  147 260 
 PTB  HN ES   1    250 55.91                             130   -0.32 7  147 260 
 PTB  HZ I         250 58.63        11.5 0.32            132            147 260 
 OCA  HE ES        250 58.65                             127   -0.55 9  163 353 
 OCA  HZ I         251  1.54         8.5 0.34            130            163 353 
 ZAR  HZ EP   1    250 42.01                             120    0.36 6  205 293 
 ZAR  HN ES   1    251  7.08                             120    0.55 6  205 293 
 ZAR  HZ I         251 12.06         6.6 0.24            123            205 293 
 NOR  HZ EP   1    250 44.81                             116    0.06 6  233 235 
 NOR  HN ES   1    251 11.99                             116   -0.06 6  233 235 
 NOR  HZ I         251 16.72         4.6 0.16            120            233 235 
                                                                                
