 2013  131 0405 15.4 L   6.778 -73.125148.0  RSN 10 0.4 2.2LRSN                1
 GAP= 73        0.75       2.7     3.4  4.6  0.1098E-01  0.1786E+01  0.1428E+01E
 Epicentro: LOS SANTOS - SANTANDER                                             3
 ACTION:UPD 13-02-15 09:18 OP:ep   STATUS:               ID:20130131040515 L   I
 2013-01-31-0400-00M.COL___241                                                 6
 STAT SP IPHASW D HRMM SECON CODA AMPLIT PERI AZIMU VELO AIN AR TRES W  DIS CAZ7
 BAR2 SZ EP        4 5 35.24                             171   -0.0210 21.5 197 
 BAR2 SZ IP        4 5 35.24                             171           21.5 197 
 BAR2 SZ ES   1    4 5 51.04                             171    0.29 7 21.5 197 
 BAR2 SZ I         4 5 53.14        36.4 0.27            164           21.5 197 
 BRR  HZ EP     C  4 5 37.09                             152    0.1310 74.3 299 
 BRR  HE ES        4 5 54.24                             152    0.4510 74.3 299 
 BRR  HE I         4 5 59.21        81.3 0.21            143           74.3 299 
 PAM  SZ EP        4 5 38.07                             151    0.1910 77.9  37 
 PAM  SN ES        4 5 55.34                             151   -0.0810 77.9  37 
 PAM  SZ I         4 5 57.71        11.8 0.55            151           77.9  37 
 RUS  HZ EP        4 5 39.32                             145    0.1310 98.0 177 
 RUS  HE ES        4 5 57.53                             145   -0.2110 98.0 177 
 RUS  HE I         4 6  1.21        29.3 0.45            139           98.0 177 
 PTB  HZ EP        4 5 42.23                             132   -0.48 9  150 260 
 PTB  HE ES   1    4 6  3.42                             132   -0.59 7  150 260 
 PTB  HZ I         4 6  5.34        31.7 0.13            124            150 260 
 TAM  HZ EP   1    4 5 42.49                             132   -0.50 7  152 104 
 OCA  HZ EP        4 5 44.04                             130   -0.09 9  163 352 
 OCA  HE ES   1    4 6  6.25                             130   -0.30 7  163 352 
 OCA  HZ I         4 6 11.06        12.0 0.25            125            163 352 
 ZAR  HZ EP   2    4 5 49.19                             122    0.89 4  207 293 
 ZAR  HE ES   1    4 6 13.56                             122   -0.40 6  207 293 
 ZAR  HZ I         4 6 19.01        29.3 0.40            116            207 293 
 CHI  HZ EP        4 5 53.29                             118    0.26 8  247 196 
 CHI  HN ES   1    4 6 22.44                             118    0.06 6  247 196 
 CHI  HZ I         4 6 32.33         7.7 0.28            112            247 196 
 HEL  HZ EP   1    4 5 56.59                             115    0.69 6  274 256 
 HEL  HZ I         4 6 33.85         7.8 0.39            109            274 256 
                                                                                
