 2011 1031 0901 15.0 L   6.792 -73.118152.0  RSN  9 0.4 2.3LRSN                1
 GAP=140        0.59       3.1     5.0  5.0  0.1144E+01  0.8205E+01  0.1827E+00E
 Epicentro: LOS SANTOS - SANTANDER                                             3
 ACTION:UPD 12-07-13 16:07 OP:ep   STATUS:               ID:20111031090115 L   I
 2011-10-31-0858-05S.COL___157                                                 6
 STAT SP IPHASW D HRMM SECON CODA AMPLIT PERI AZIMU VELO AIN AR TRES W  DIS CAZ7
 BAR2 SZ IP        9 1 35.39                             171   -0.0310 23.2 198 
 BAR2 SZ ES   1    9 1 51.23                             171   -0.08 7 23.2 198 
 BAR2 SZ I         9 1 53.27        33.9 0.23                          23.2 198 
 BRR  HZ EP   1    9 1 37.29                             153    0.25 7 74.3 298 
 BRR  HE ES   1    9 1 54.71                             153    0.51 7 74.3 298 
 BRR  HZ I         9 1 57.61        37.1 0.17                          74.3 298 
 PAM  SN ES   2    9 1 55.57                             152   -0.07 5 76.1  37 
 RUS  HZ EP   1    9 1 39.16                             145   -0.18 7 99.5 178 
 RUS  HN ES   1    9 1 58.20                             145   -0.09 7 99.5 178 
 RUS  HZ I         9 1 59.75        13.7 0.22                          99.5 178 
 OCA  SZ EP   1    9 1 44.06                             131    0.10 7  162 352 
 OCA  SZ ES   1    9 2  6.43                             131   -0.08 7  162 352 
 OCA  SZ I         9 2 10.66        11.1 0.37                           162 352 
 ZAR  HZ EP   1    9 1 47.75                             123   -0.47 6  207 292 
 ZAR  HN ES   2    9 2 13.12                             123   -0.98 4  207 292 
 ZAR  HZ I         9 2 20.48        19.4 0.27                           207 292 
 NOR  SZ EP   1    9 1 51.25                             120   -0.10 6  237 235 
 NOR  SE ES   2    9 2 19.72                             120    0.05 4  237 235 
 HEL  HZ EP   2    9 1 56.66                             116    0.78 4  275 256 
 HEL  HZ I         9 2 33.56         6.3 0.23                           275 256 
 PRA  HZ EP   2    9 2  9.84                             108    0.97 3  393 210 
 PRA  HZ I         9 2 57.49        21.5 0.22                           393 210 
                                                                                
