 2014  531 0115 18.1 L   6.813 -73.139143.4  RSN 21 0.5 2.3LRSN                1
 GAP= 71        1.17       2.7     3.0  5.0 -0.1856E+01  0.3589E+01  0.1477E+01E
 Epicentro: LOS SANTOS - SANTANDER                                             3
 ACTION:UPD 15-03-16 17:02 OP:nd   STATUS:               ID:20140531011518 L   I
 OLDACT:REG 14-05-31 13:20 OP:stll STATUS:               ID:20140531010817     3
 2014-05-31-0108-17M.COL___256                                                 6
 STAT SP IPHASW D HRMM SECON CODA AMPLIT PERI AZIMU VELO AIN AR TRES W  DIS CAZ7
 BAR2 SZ IP     D  115 37.69                             170    0.2510 24.9 191 
 BAR2 SZ I         115 38.10        44.5 0.38            169           24.9 191 
 BAR2 SZ ES        115 52.80                             170    0.2410 24.9 191 
 BRR  HZ IP     C  115 39.47                             152    0.5110 71.1 297 
 BRR  HZ I         115 39.73        41.2 0.28            150           71.1 297 
 BRR  HE ES        115 56.12                             152    0.8710 71.1 297 
 PAM  SZ EP     C  115 40.40                             151    0.4610 75.8  40 
 PAM  SZ I         115 40.80        73.5 0.20            153           75.8  40 
 PAM  SN ES        115 57.27                             151    0.2810 75.8  40 
 RUS  HZ EP        115 41.75                             143    0.0610  102 177 
 RUS  HN ES        116  0.25                             143    0.1410  102 177 
 RUS  HZ I         116  2.06        18.7 0.32            144            102 177 
 PTB  HZ EP     D  115 44.31                             131   -0.62 9  149 258 
 PTB  HN ES        116  5.07                             131   -0.81 9  149 258 
 PTB  HZ I         116  8.67        24.0 0.50            130            149 258 
 TAM  HZ IP     C  115 46.10                             130    0.57 9  155 106 
 TAM  HN ES        116  5.99                             130   -0.96 9  155 106 
 OCA  HZ EP        115 45.98                             129   -0.09 9  159 353 
 OCA  HN ES        116  6.98                             129   -0.92 9  159 353 
 OCA  HZ I         116 12.40        12.3 0.26            130            159 353 
 SPBC HZ EP        115 46.80                             128    0.27 9  165 219 
 SPBC HN ES        116  8.39                             128   -0.35 9  165 219 
 SPBC HZ I         116 11.30        25.6 0.22            128            165 219 
 ZAR  HZ EP        115 50.71                             122    0.34 9  204 292 
 ZAR  HE ES        116 15.78                             122    0.22 9  204 292 
 ZAR  HZ I         116 21.51        26.5 0.32            121            204 292 
 NOR  HZ EP        115 53.85                             118    0.04 8  236 234 
 NOR  HE ES        116 21.02                             118   -0.67 8  236 234 
 NOR  HZ I         116 23.84        12.0 0.22            117            236 234 
 SML  HZ EP        115 54.10                             117   -0.35 8  243 335 
 SML  HE ES        116 22.14                             117   -0.69 8  243 335 
 SML  HZ I         116 30.14        18.9 0.10            117            243 335 
 ROSC BN ES        116 25.84                             116   -0.16 8  254 211 
 ROSC BZ I         116 32.55        12.5 0.70            116            254 211 
 HEL  HZ EP        115 58.62                             114    0.34 8  273 256 
 HEL  HE ES        116 29.69                             114    0.05 8  273 256 
 HEL  HZ I         116 35.85         7.8 0.34            114            273 256 
 SOCV BZ EP        116  0.26                             112   -0.59 7  300  57 
 SOCV BN ES   4    116 30.77                             112   -3.45 0  300  57 
 GUY2CHZ EP        116  2.16                             112    0.43 7  303 235 
 GUY2CHN ES        116 36.04                             112    0.26 7  303 235 
 GUY2CHZ I         116 43.51         6.3 0.26                           303 235 
 RREF HZ EP        116  4.41                             110    0.13 7  323 229 
 RREF HN ES        116 40.33                             110    0.01 7  323 229 
 RREF HZ I         116 50.00         5.8 0.28            110            323 229 
 DBB  SZ EP        116  6.43                             109    0.91 7  340 274 
 DBB  SZ I         116  6.87        23.8 0.18            109            340 274 
 TOL  SZ EP        116  7.19                             109    0.79 7  345 225 
 TOL  SE ES        116 43.91                             109   -0.20 7  345 225 
 TOL  SZ I         116 52.16        13.6 0.30            109            345 225 
 ANIL HZ EP        116  7.27                             108   -0.69 6  359 224 
 PRA  HZ EP        116 11.81                             106    0.12 6  394 210 
 PRA  HN ES        116 52.92                             106   -0.60 6  394 210 
 PRA  HZ I         117  0.30         5.8 0.32            106            394 210 
 ORTC HZ EP        116 12.64                             106    0.55 6  397 216 
 ORTC HE ES        116 53.32                             106   -0.91 6  397 216 
 ORTC HZ I         117  0.14         4.4 0.52            106            397 216 
                                                                                
