 2015 1031 0728 38.0 L   6.805 -73.110148.0  RSN 14 0.4 1.9LRSN                1
 GAP=141        0.73       2.3     3.9  4.3 -0.1776E+01  0.3922E+01 -0.7553E+00E
 Epicentro: LOS SANTOS - SANTANDER                                             3
 ACTION:UPD 15-12-22 20:44 OP:cam  STATUS:               ID:20151031072838 L   I
 OLDACT:REG 15-10-31 13:30 OP:ar   STATUS:               ID:20151031072748     3
 2015-10-31-0727-48M.COL___319                                                 6
 STAT SP IPHASW D HRMM SECON CODA AMPLIT PERI AZIMU VELO AIN AR TRES W  DIS CAZ7
 BAR2 EZ EP     C  728 57.75                             170   -0.1710 24.8 199 
 BAR2 EZ ES        729 13.29                             170   -0.1810 24.8 199 
 BAR2 EZ I         729 15.37        10.0 0.34            165           24.8 199 
 BRR  HZ EP     C  728 59.60                             152    0.0310 74.4 297 
 BRR  HN ES        729 16.97                             152    0.5810 74.4 297 
 BRR  HZ I         729 21.75        11.7 0.10            144           74.4 297 
 PAM  EZ EP        729  0.61                             152    0.3310 74.5  37 
 PAM  EN ES        729 17.81                             152    0.1510 74.5  37 
 PAM  EZ I         729 19.66         6.3 0.20            155           74.5  37 
 RUS  HZ EP        729  1.83                             144   -0.1610  101 178 
 RUS  HN ES        729 20.57                             144   -0.1410  101 178 
 RUS  HZ I         729 21.26         8.0 0.26            146            101 178 
 OCA  HZ EP        729  6.77                             130    0.30 9  160 352 
 OCA  HN ES        729 28.05                             130   -0.64 9  160 352 
 OCA  HZ I         729 34.56        14.9 0.22            128            160 352 
 SPBC HZ EP        729  6.74                             129   -0.20 9  166 220 
 SPBC HN ES        729 29.78                             129    0.26 9  166 220 
 SPBC HZ I         729 33.30        17.2 0.12            127            166 220 
 ZAR  HZ EP   2    729 10.81                             122   -0.13 4  207 292 
 ZAR  HN ES   2    729 36.05                             122   -0.58 4  207 292 
 ZAR  HZ I         729 41.72        17.8 0.36            119            207 292 
 NOR  HZ EP   2    729 14.16                             119   -0.07 4  238 235 
 NOR  HE ES   2    729 41.90                             119   -0.59 4  238 235 
 SML  HZ EP        729 14.74                             118   -0.13 8  245 334 
 SML  HE ES   2    729 43.53                             118   -0.11 4  245 334 
 SML  HZ I         729 51.54        11.9 0.10            116            245 334 
 CHI  HZ EP   2    729 15.84                             117   -0.15 4  250 196 
 CHI  HN ES   2    729 45.12                             117   -0.50 4  250 196 
 CHI  HZ I         729 54.94         2.8 0.32            118            250 196 
 HEL  HZ EP   4    729 20.14                             115    1.38 0  276 256 
 HEL  HN ES   2    729 50.79                             115    0.24 4  276 256 
 HEL  HZ I         729 57.52         4.0 0.36            113            276 256 
 URE  HZ EP   4    729 18.64                             114   -0.92 0  287 292 
 URE  HN ES   4    729 49.27                             114   -2.71 0  287 292 
 URE  HZ I         730  1.65         8.4 0.18            112            287 292 
 GUY2CHZ EP   2    729 23.69                             113    1.59 4  305 235 
 GUY2CHE ES   4    729 58.84                             113    2.33 0  305 235 
 GUY2CHZ I         730  6.33         5.6 0.54                           305 235 
 MON  HZ EP   9    729 24.99                             109   -2.41 0  356 308 
 MON  HN ES   2    730  3.87                                    0.34 3  356 308 
 MON  HZ I         730 18.87         3.2 0.40            108            356 308 
                                                                                
