 2010 1231 0229 10.6 L   6.821 -73.214137.2  RSN  7 0.3 1.8LRSN                1
 GAP=151        0.81       3.3     6.0 11.5 -0.5366E+01  0.2651E+02  0.1038E+01E
 Epicentro: ZAPATOCA - SANTANDER                                               3
 ACTION:UP  11-01-14 15:28 OP:pat  STATUS:               ID:20101231022910 L   I
 2010-12-31-0227-03S.COL___136                                                 6
 STAT SP IPHASW D HRMM SECON CODA AMPLIT PERI AZIMU VELO SNR AR TRES W  DIS CAZ7
 BTL  SZ EP   1    229 29.53                             175     0.510   12 331 
 BAR2 SZ EP   1    229 28.99                             169    -0.210   26 173 
 BAR2 SZ I         229 45.72        10.7 0.36                            26 173 
 RUS  HZ EP   1    229 33.36                             141    -0.410  104 172 
 RUS  HE ES   1    229 51.74                             141    -0.110  104 172 
 RUS  HZ I         229 53.04         6.3 0.28                           104 172 
 GRA  SZ EP   1    229 35.07                             135     0.0 9  126  21 
 GRA  SZ ES   1    229 53.93                             135    -0.3 9  126  21 
 GRA  SZ I         229 57.48        13.3 0.32                           126  21 
 OCA  SZ EP   1    229 38.20                             128     0.2 9  157 356 
 OCA  SZ ES   1    229 59.52                             128     0.2 9  157 356 
 OCA  SZ I         230  5.39        19.5 0.26                           157 356 
 CHI  HZ EP   1    229 47.60                             115    -0.3 8  249 193 
 CHI  HN ES   1    230 17.70                             115     0.7 8  249 193 
 CHI  HZ I         230 22.05         2.5 0.26                           249 193 
 HEL  HN ES        230 19.85                             114    -0.210  265 255 
 HEL  HZ I         230 28.61         4.0 0.25                           265 255 
                                                                                
