 2013 1031 0602 57.1 L   5.744 -73.906107.2  RSN 16 0.5 2.2LRSN                1
 GAP= 51        1.07       3.0     2.8  5.7 -0.2278E+01  0.1825E+01 -0.9156E-01E
 Epicentro: ALBANIA - SANTANDER                                                3
 ACTION:UPD 13-11-25 09:24 OP:ep   STATUS:               ID:20131031060257 L   I
 OLDACT:REG 13-10-31 05:59 OP:jn   STATUS:               ID:20131031060000     3
 2013-10-31-0600-00M.COL___273                                                 6
 STAT SP IPHASW D HRMM SECON CODA AMPLIT PERI AZIMU VELO AIN AR TRES W  DIS CAZ7
 SPBC HZ EP        6 3 11.91                             168    0.1110 21.0 241 
 SPBC HN ES        6 3 23.60                             168    0.3110 21.0 241 
 SPBC HZ I         6 3 24.56       266.7 0.24            168           21.0 241 
 RUS  HZ EP        6 3 16.63                             136    0.0610 92.6  80 
 RUS  HN ES        6 3 31.77                             136   -0.0210 92.6  80 
 RUS  HZ I         6 3 33.50         5.8 0.20            136           92.6  80 
 PTB  HZ EP        6 3 16.24                             131   -0.9510  107 325 
 PTB  HZ I         6 3 34.04        19.2 0.10            129            107 325 
 NOR  HZ EP        6 3 17.22                             131   -0.1610  109 259 
 NOR  HN ES        6 3 33.18                             131   -0.0510  109 259 
 NOR  HZ I         6 3 35.23        68.8 0.42            130            109 259 
 ROSC BZ EP   1    6 3 18.97                             131    1.00 7  110 205 
 BAR2 SZ EP        6 3 19.35                             127    0.3210  123  40 
 BAR2 SZ ES        6 3 36.06                             127   -0.1110  123  40 
 BAR2 SZ I         6 3 38.07       129.7 0.36            126            123  40 
 BRR  HZ EP        6 3 21.61                             121   -0.04 9  152   8 
 BRR  HN ES        6 3 41.05                             121    0.22 9  152   8 
 BRR  HZ I         6 3 44.27        20.9 0.72            119            152   8 
 GUY2CHZ EP        6 3 24.61                             117    0.28 9  172 251 
 GUY2CHZ I         6 3 53.48        12.1 0.62                           172 251 
 VIL  SZ EP        6 3 25.12                             116    0.10 9  182 173 
 VIL  SN ES   1    6 3 45.49                             116   -1.35 7  182 173 
 VIL  SZ I         6 3 51.61        27.4 0.28            116            182 173 
 HEL  HZ EP        6 3 25.71                             115   -0.10 9  186 285 
 HEL  HN ES   1    6 3 47.62                             115   -0.62 7  186 285 
 HEL  HZ I         6 3 49.77        13.4 0.54            114            186 285 
 TOL  SZ EP        6 3 27.83                             113    0.26 9  202 231 
 ZAR  HN ES   1    6 3 53.35                             111   -0.84 6  220 331 
 ZAR  HZ I         6 3 58.94        17.4 0.10            109            220 331 
 PAM  SZ EP        6 3 30.48                             111    0.60 8  221  37 
 PAM  SN ES   1    6 3 55.22                             111   -0.27 6  221  37 
 PAM  SZ I         6 4  0.37        11.0 0.26            110            221  37 
 CBOC HZ EP        6 3 31.20                             109    0.29 8  234 273 
 CBOC HN ES   1    6 3 58.11                             109    0.79 6  234 273 
 PTGC HZ EP        6 3 33.33                             107   -0.47 8  260 131 
 PTGC HN ES   4    6 4  0.90                             107   -1.57 0  260 131 
 OCA  HN ES   1    6 4  7.75                             105    0.13 6  283  13 
                                                                                
