 2015  131 0540 14.4 L   6.791 -73.156145.4  RSN  9 0.4 1.4LRSN                1
 GAP=136        1.07       3.7     4.5  6.7 -0.1023E+01  0.4970E+01  0.4001E+01E
 Epicentro: LOS SANTOS - SANTANDER                                             3
 ACTION:UPD 15-03-02 15:44 OP:nd   STATUS:               ID:20150131054014 L   I
 OLDACT:UP  15-01-31 15:05 OP:cam  STATUS:               ID:20150131053812     3
 OLDACT:REG 15-01-31 13:10 OP:cam  STATUS:               ID:20150131053812     3
 2015-01-31-0538-12M.COL___271                                                 6
 STAT SP IPHASW D HRMM SECON CODA AMPLIT PERI AZIMU VELO AIN AR TRES W  DIS CAZ7
 BAR2 EZ EP        540 33.89                             171   -0.1010 22.1 188 
 BAR2 EZ ES        540 48.49                             171   -0.7610 22.1 188 
 BAR2 EZ I         540 50.21         8.0 0.18            169           22.1 188 
 BRR  HZ EP        540 35.73                             153    0.2210 70.7 300 
 BRR  HN ES        540 52.84                             153    0.8910 70.7 300 
 BRR  HZ I         540 56.69         3.3 0.14            151           70.7 300 
 PAM  SZ EP        540 36.86                             150    0.1610 78.9  40 
 PAM  SN ES        540 54.20                             150    0.1410 78.9  40 
 PAM  SN I         540 54.52         9.4 0.46            156           78.9  40 
 RUS  HZ EP        540 37.92                             144   -0.1610 99.6 175 
 RUS  HN ES        540 56.63                             144    0.1110 99.6 175 
 RUS  HZ I         540 57.62         2.4 0.36            146           99.6 175 
 PTB  HZ EP        540 40.84                             132   -0.41 9  146 259 
 PTB  HN ES        541  1.56                             132   -0.60 9  146 259 
 PTB  HZ I         541  8.78         2.9 0.46            132            146 259 
 OCA  HN ES        541  4.65                             129   -0.27 9  161 354 
 SPBC HZ EP        540 42.78                             129    0.02 9  162 219 
 SPBC HN ES        541  5.39                             129    0.54 9  162 219 
 SPBC HZ I         541 10.55         5.0 0.50            130            162 219 
 ZAR  HN ES        541 11.99                             122   -0.02 9  203 293 
 CHI  HZ EP        540 52.23                             117    0.26 8  247 195 
                                                                                
