 2015  831 0158 18.4 L   6.773 -73.121137.3  RSN  5 0.2 1.4LRSN                1
 GAP=141        0.56       2.6     3.6  4.1 -0.2879E+01  0.1011E+01  0.1559E+01E
 Epicentro: LOS SANTOS - SANTANDER                                             3
 ACTION:UPD 15-09-15 23:06 OP:cam  STATUS:               ID:20150831015818 L   I
 OLDACT:REG 15-08-31 13:45 OP:stll STATUS:               ID:20150831014748     3
 2015-08-31-0147-48M.COL___361                                                 6
 STAT SP IPHASW D HRMM SECON CODA AMPLIT PERI AZIMU VELO AIN AR TRES W  DIS CAZ7
 BAR2 EZ EP        158 36.97                             171   -0.0410 21.2 199 
 BAR2 EZ ES        158 51.84                             171    0.3410 21.2 199 
 BAR2 EZ I         158 53.32         7.0 0.22            169           21.2 199 
 BRR  HZ EP        158 39.06                             150    0.1510 75.0 300 
 BRR  HN ES        158 54.85                             150   -0.0310 75.0 300 
 BRR  HZ I         159  0.12         3.6 0.60            147           75.0 300 
 PAM  EZ EP        158 39.99                             149    0.1910 78.0  37 
 PAM  EN ES        158 56.10                             149   -0.3710 78.0  37 
 PAM  EZ I         158 58.88         5.3 0.50            153           78.0  37 
 RUS  HZ EP        158 41.12                             143   -0.0210 97.5 178 
 RUS  HZ I         158 41.87         3.4 0.10            146           97.5 178 
 RUS  HN ES        158 58.86                             143    0.0110 97.5 178 
 SPBC HZ EP        158 46.26                             127    0.00 9  163 220 
 SPBC HE ES        159  7.68                             127   -0.27 9  163 220 
 SPBC HZ I         159 13.94         4.2 0.26            128            163 220 
                                                                                
