 2016 1231 0034  6.6 L   6.780 -73.388123.8  RSN  5 0.2 1.7LRSN                1
 GAP=177        0.57       3.9     3.5  4.5  0.6808E+01  0.3563E+01  0.2872E+01E
 Epicentro: SAN VICENTE DE CHUCURI - SANTANDER                                 3
 ACTION:UPD 17-01-11 20:20 OP:rebc STATUS:               ID:20161231003406 L   I
 OLDACT:REG 16-12-31 12:12 OP:dnl  STATUS:               ID:20161231002745     3
 2016-12-31-0028-00M.COL___362                                                 6
 STAT SP IPHASW D HRMM SECON CODA AMPLIT PERI AZIMU VELO AIN AR TRES W  DIS CAZ7
 BAR2 EZ EP        034 23.71                             165   -0.0610 30.7 132 
 BAR2 EZ ES        034 37.07                             165   -0.1110 30.7 132 
 BRR  HZ EP        034 24.09                             156   -0.1410 50.9 315 
 BRR  HN ES        034 38.15                             156    0.1510 50.9 315 
 BRR  HZ I         034 39.10        18.9 0.12            151           50.9 315 
 RUS  HZ EP        034 28.74                             138    0.2510  104 161 
 RUS  HN ES        034 45.58                             138    0.0010  104 161 
 PTB  HZ EP        034 28.99                             133   -0.3410  121 257 
 PTB  HN ES        034 47.15                             133    0.0710  121 257 
 PTB  HZ I         034 51.49         4.6 0.58            129            121 257 
 ZAR  HZ EP   2    034 35.95                             120    0.78 4  181 296 
 ZAR  HE ES   4    034 58.58                             120    1.11 0  181 296 
 ZAR  HZ I         035  3.21         5.5 0.26            118            181 296 
                                                                                
