 2014  131 0445 59.7 L   6.761 -73.185141.2  RSN 12 0.4 1.7LRSN                1
 GAP=133        0.98       3.4     3.8  5.7 -0.1240E+01  0.7668E+01 -0.1672E+01E
 Epicentro: VILLANUEVA - SANTANDER                                             3
 ACTION:UPD 14-03-13 09:59 OP:ep   STATUS:               ID:20140131044559 L   I
 OLDACT:REG 14-01-31 07:27 OP:nd   STATUS:               ID:20140131044000     3
 2014-01-31-0440-00M.COL___288                                                 6
 STAT SP IPHASW D HRMM SECON CODA AMPLIT PERI AZIMU VELO AIN AR TRES W  DIS CAZ7
 BAR2 SZ EP        446 18.64                             172   -0.0310 18.7 179 
 BAR2 SZ ES        446 33.77                             172    0.2910 18.7 179 
 BAR2 SZ I         446 34.73        18.5 0.26            168           18.7 179 
 BRR  HZ EP        446 20.65                             152    0.4010 69.7 303 
 BRR  HN ES   2    446 36.58                             152    0.29 5 69.7 303 
 BRR  HZ I         446 38.66         8.4 0.18            150           69.7 303 
 PAM  SZ EP        446 21.74                             148   -0.0510 83.5  40 
 PAM  SN ES        446 38.82                             148   -0.2210 83.5  40 
 PAM  SZ I         446 41.24         7.4 0.38            138           83.5  40 
 RUS  HZ EP        446 22.30                             144   -0.4010 96.7 173 
 RUS  HN ES        446 40.90                             144    0.2510 96.7 173 
 RUS  HZ I         446 42.40         5.6 0.34            137           96.7 173 
 PTB  HZ EP        446 25.35                             132   -0.47 9  143 260 
 PTB  HN ES        446 45.39                             132   -0.81 9  143 260 
 PTB  HZ I         446 47.39         7.1 0.12            128            143 260 
 SPBC HZ EP        446 27.11                             129   -0.14 9  157 219 
 SPBC HN ES        446 49.04                             129    0.28 9  157 219 
 SPBC HZ I         446 51.73         6.8 0.22            124            157 219 
 TAM  HZ EP   4    446 26.87                             129   -0.42 0  158 103 
 TAM  HZ I         446 51.56         5.4 0.34            119            158 103 
 OCA  HZ EP   4    446 30.10                             128    2.09 0  164 355 
 OCA  HN ES   4    446 49.00                             128   -1.10 0  164 355 
 OCA  HZ I         446 51.37         4.8 0.48            120            164 355 
 ZAR  HZ EP        446 32.34                             122    0.75 9  202 294 
 ZAR  HN ES        446 56.40                             122   -0.08 9  202 294 
 ZAR  HZ I         447  3.37         6.8 0.34            116            202 294 
 CHI  HZ EP        446 36.47                             117   -0.08 8  243 194 
 CHI  HN ES   2    447  4.89                             117   -0.42 4  243 194 
 CHI  HZ I         447  9.76         1.4 0.40            111            243 194 
 SML  HZ EP        446 35.81                             116   -0.48 8  246 337 
 SML  HN ES   2    447  5.58                             116    0.73 4  246 337 
 SML  HZ I         447 12.01         4.9 0.10            110            246 337 
 HEL  HZ EP        446 39.96                             114    0.88 8  267 256 
 HEL  HN ES        447  9.83                             114    0.02 8  267 256 
 HEL  HZ I         447 17.58         2.6 0.22            109            267 256 
                                                                                
