 2013  131 0819  1.5 L   6.756 -73.157155.3  RSN  5 0.2 1.4LRSN                1
 GAP=137        0.55       4.1     4.1  5.9  0.2997E+01 -0.6710E+01 -0.5743E+00E
 Epicentro: LOS SANTOS - SANTANDER                                             3
 ACTION:UPD 13-02-15 09:18 OP:ep   STATUS:               ID:20130131081901 L   I
 2013-01-31-0814-49M.COL___182                                                 6
 STAT SP IPHASW D HRMM SECON CODA AMPLIT PERI AZIMU VELO AIN AR TRES W  DIS CAZ7
 BAR2 SZ EP        819 21.93                             173   -0.2510 18.4 189 
 BAR2 SZ I         819 38.98         4.6 0.25            177           18.4 189 
 BRR  HZ IP     D  819 23.92                             154    0.1710 72.6 302 
 BRR  HE ES        819 41.27                             154    0.1610 72.6 302 
 BRR  HE I         819 54.01        10.0 0.34            155           72.6 302 
 PAM  SZ EP        819 24.83                             151   -0.1610 81.9  38 
 PAM  SZ I         819 25.17         3.3 0.23            149           81.9  38 
 RUS  HZ EP        819 26.18                             147    0.3110 95.9 175 
 RUS  HE ES   1    819 44.78                             147   -0.10 7 95.9 175 
 RUS  HE I         819 45.62         3.9 0.43            158           95.9 175 
 PTB  HZ EP        819 29.02                             134   -0.05 9  146 261 
 PTB  HE ES   1    819 50.29                             134   -0.29 7  146 261 
 PTB  HZ I         819 52.13         1.9 0.13            142            146 261 
                                                                                
