 2014  131 0230 41.5 L   6.775 -73.146149.3  RSN  7 0.5 1.4LRSN                1
 GAP=200        1.28       4.5     8.2  8.4  0.7920E+01 -0.2390E+01 -0.2662E+01E
 Epicentro: LOS SANTOS - SANTANDER                                             3
 ACTION:UPD 14-03-13 09:59 OP:ep   STATUS:               ID:20140131023041 L   I
 OLDACT:REG 14-01-31 07:23 OP:nd   STATUS:               ID:20140131023000     3
 2014-01-31-0230-00M.COL___288                                                 6
 STAT SP IPHASW D HRMM SECON CODA AMPLIT PERI AZIMU VELO AIN AR TRES W  DIS CAZ7
 BAR2 SZ EP        231  1.34                             172   -0.1410 20.6 191 
 BAR2 SZ ES   1    231 16.23                             172   -0.85 7 20.6 191 
 BAR2 SZ I         231 18.11         6.3 0.22            173           20.6 191 
 BRR  HZ EP        231  3.48                             153    0.4010 72.5 300 
 BRR  HN ES        231 21.06                             153    1.1310 72.5 300 
 BRR  HZ I         231 31.42         7.1 0.60            140           72.5 300 
 RUS  HZ EP        231  5.26                             145   -0.1210 97.8 176 
 RUS  HN ES        231 23.94                             145   -0.0910 97.8 176 
 RUS  HZ I         231 27.39         1.5 0.54            135           97.8 176 
 PTB  HZ EP        231  8.13                             133   -0.55 9  147 260 
 PTB  HN ES        231 29.26                             133   -0.64 9  147 260 
 PTB  HZ I         231 35.36         3.5 0.38            121            147 260 
 SPBC HZ EP        231 10.18                             130    0.14 9  161 220 
 SPBC HN ES        231 32.04                             130   -0.28 9  161 220 
 SPBC HZ I         231 39.41         4.1 0.22            119            161 220 
 CHI  HZ EP        231 19.39                             118    0.31 8  246 195 
 CHI  HN ES        231 49.23                             118    0.82 8  246 195 
 CHI  HZ I         231 54.69         1.0 0.32            108            246 195 
 SML  HZ EP        231 18.33                             118   -0.24 8  246 336 
 SML  HN ES        231 47.35                             118   -0.15 8  246 336 
 SML  HZ I         231 51.11         3.7 0.10            106            246 336 
                                                                                
