 2017  131 0256 40.9 L   6.759 -73.053143.8  RSN  5 0.3 1.4LRSN                1
 GAP=151        0.75       4.0     6.4  6.9 -0.2530E+01 -0.9606E+01  0.2684E+01E
 Epicentro: LOS SANTOS - SANTANDER                                             3
 ACTION:UPD 17-05-22 16:05 OP:jn   STATUS:               ID:20170131025640 L   I
 OLDACT:REG 17-01-31 14:09 OP:dnl  STATUS:               ID:20170131024744     3
 2017-01-31-0248-00M.COL___343                                                 6
 STAT SP IPHASW D HRMM SECON CODA AMPLIT PERI AZIMU VELO AIN AR TRES W  DIS CAZ7
 BAR2 EZ EP   2    256 60.00                             170   -0.27 5 23.4 218 
 BAR2 EZ ES        257 15.56                             170    0.1610 23.4 218 
 BAR2 EZ I         257 17.67         5.7 0.46            158           23.4 218 
 PAM  EZ EP        257  3.30                             151    0.5510 75.1  31 
 PAM  EN ES        257 19.45                             151   -0.3510 75.1  31 
 PAM  EZ I         257 22.68         2.8 0.50            139           75.1  31 
 BRR  HZ EP   2    257  2.29                             148   -0.20 5 82.4 298 
 BRR  HN ES        257 19.33                             148   -0.0210 82.4 298 
 BRR  HZ I         257 20.18         8.4 0.26            128           82.4 298 
 RUS  HZ EP        257  3.77                             145   -0.3310 95.9 182 
 RUS  HN ES        257 22.31                             145    0.1010 95.9 182 
 RUS  HZ I         257 23.83         3.4 0.32            132           95.9 182 
 ZAR  HZ EP   4    257 16.63                             120    2.27 0  215 292 
 ZAR  HZ I         257 36.83         3.9 0.32            107            215 292 
                                                                                
