 2011 1231 0937 52.2 L   5.922 -73.794115.1  RSN  5 0.2 1.7LRSN                1
 GAP=136        0.52       4.8     3.7  9.5  0.7367E+00 -0.2146E+01  0.2517E+02E
 Epicentro: JESUS MARIA - SANTANDER                                            3
 ACTION:UPD 12-07-13 16:19 OP:ep   STATUS:               ID:20111231093752 L   I
 2011-12-31-0930-00M.COL___185                                                 6
 STAT SP IPHASW D HRMM SECON CODA AMPLIT PERI AZIMU VELO AIN AR TRES W  DIS CAZ7
 RUS  HZ EP   1    938 11.05                             144   -0.32 8 78.7  92 
 BAR2 SZ ES   1    938 28.69                             136   -0.02 7  100  42 
 BAR2 SZ I         938 30.39        11.3 0.42                           100  42 
 PTB  HN ES   1    938 28.29                             136    0.14 8  100 313 
 BAR2 SZ EP        938 12.85                             136    0.1310  100  42 
 PTB  HZ EP   1    938 12.00                             136   -0.40 8  100 313 
 BRR  HZ EP   1    938 15.40                             127    0.18 7  131   4 
 BRR  HZ I         938 36.62         6.4 0.12                           131   4 
 CHI  HZ EP   1    938 17.14                             125    0.22 7  143 177 
                                                                                
