 2017  731 0940 36.3 L   6.676 -73.213138.7  RSN  4 0.4 1.0LRSN                1
 GAP=224        0.94       8.7     6.8  8.1  0.3686E+02  0.8733E+01 -0.1623E+02E
 Epicentro: VILLANUEVA - SANTANDER                                             3
 ACTION:UPD 17-08-30 15:38 OP:rebc STATUS:               ID:20170731094036 L   I
 OLDACT:REG 17-07-31 13:30 OP:osc  STATUS:               ID:20170731093743     3
 2017-07-31-0938-00M.COL___377                                                 6
 STAT SP IPHASW D HRMM SECON CODA AMPLIT PERI AZIMU VELO AIN AR TRES W  DIS CAZ7
 BAR2 EZ EP        940 54.55                             176   -0.3710 9.88 160 
 BAR2 EZ ES        941  9.77                             176    0.3710 9.88 160 
 RUS  HZ EP        940 59.01                             146    0.5210 87.8 171 
 RUS  HN ES        941 15.22                             146   -0.5510 87.8 171 
 RUS  HZ I         941 18.51         1.8 0.28            156           87.8 171 
 PTB  HZ EP        941  1.94                             132    0.06 9  138 264 
 PTB  HN ES        941 22.05                             132    0.25 9  138 264 
 ZAR  HZ EP        941  8.24                             121    0.02 9  203 297 
 ZAR  HN ES        941 32.72                             121   -0.36 9  203 297 
 ZAR  HZ I         941 51.91         1.0 0.44            121            203 297 
                                                                                
