 2014 1031 0525 38.1 L   6.776 -73.163144.1  RSN  6 0.4 1.5LRSN                1
 GAP=135        1.01       4.7     5.0  6.9 -0.5774E+01  0.4650E+01  0.3410E+01E
 Epicentro: LOS SANTOS - SANTANDER                                             3
 ACTION:UPD 14-11-29 23:58 OP:nd   STATUS:               ID:20141031052538 L   I
 OLDACT:REG 14-10-31 14:14 OP:carl STATUS:               ID:20141031051741     3
 2014-10-31-0517-41M.COL___265                                                 6
 STAT SP IPHASW D HRMM SECON CODA AMPLIT PERI AZIMU VELO AIN AR TRES W  DIS CAZ7
 BAR2 SZ EP        525 57.42                             172   -0.0110 20.4 186 
 BAR2 SZ ES        526 12.27                             172   -0.2810 20.4 186 
 BAR2 SZ I         526 13.88         6.0 0.20            170           20.4 186 
 BRR  HZ EP        525 59.32                             152    0.3110 70.9 301 
 BRR  HN ES        526 16.12                             152    0.7710 70.9 301 
 BRR  HZ I         526 20.24         5.9 0.26            152           70.9 301 
 PAM  SZ IP     D  526  0.37                             149    0.0710 80.7  39 
 PAM  SN ES        526 17.24                             149   -0.4110 80.7  39 
 PAM  SZ I         526 19.50         7.0 0.52            154           80.7  39 
 RUS  HZ EP        526  1.77                             144    0.3110 98.0 175 
 RUS  HN ES        526 19.72                             144   -0.0010 98.0 175 
 RUS  HZ I         526 21.37         3.6 0.30            146           98.0 175 
 PTB  HZ EP        526  4.04                             132   -0.63 9  145 260 
 PTB  HN ES        526 24.91                             132   -0.52 9  145 260 
 PTB  HZ I         526 27.54         3.1 0.36            133            145 260 
 SPBC HZ EP        526  6.25                             129    0.14 9  160 219 
 SPBC HN ES        526 28.16                             129    0.16 9  160 219 
 SPBC HZ I         526 35.31         6.1 0.28            131            160 219 
                                                                                
