 2011 1031 0315 13.5 L   6.754 -73.109141.9  RSN  5 0.3 1.0LRSN                1
 GAP=143        0.49       9.1     7.6  7.6  0.4310E+02 -0.1356E+02 -0.3908E+01E
 Epicentro: LOS SANTOS - SANTANDER                                             3
 ACTION:UPD 12-07-13 16:07 OP:ep   STATUS:               ID:20111031031513 L   I
 2011-10-31-0313-48S.COL___157                                                 6
 STAT SP IPHASW D HRMM SECON CODA AMPLIT PERI AZIMU VELO AIN AR TRES W  DIS CAZ7
 BAR2 SZ EP   1    315 32.48                             172   -0.11 7 19.7 204 
 BAR2 SZ I         315 32.64         2.9 0.12                          19.7 204 
 BAR2 SZ ES   2    315 47.07                             172   -0.41 5 19.7 204 
 BRR  HZ EP   1    315 34.41                             150   -0.17 7 77.2 300 
 BRR  HZ I         315 34.74         4.7 0.12                          77.2 300 
 BRR  HN ES   1    315 51.32                             150    0.29 7 77.2 300 
 PAM  SZ EP   2    315 35.50                             150    0.11 5 78.9  35 
 RUS  HZ EP   2    315 36.95                             144    0.46 5 95.3 178 
 RUS  HZ I         315 37.11         0.4 0.11                          95.3 178 
 ZAR  HN ES   2    316 11.62                             121   -0.24 4  210 293 
 ZAR  HZ I         316 19.53         1.2 0.30                           210 293 
                                                                                
