 2014  831 0722 31.0 L   6.780 -73.154147.8  RSN  7 0.4 1.3LRSN                1
 GAP=195        0.90       4.8     6.5 10.3 -0.1175E+01  0.1142E+02  0.1347E+01E
 Epicentro: LOS SANTOS - SANTANDER                                             3
 ACTION:UPD 14-09-15 21:54 OP:nd   STATUS:               ID:20140831072231 L   I
 OLDACT:REG 14-08-31 13:15 OP:fm   STATUS:               ID:20140831071806     3
 2014-08-31-0718-06M.COL___263                                                 6
 STAT SP IPHASW D HRMM SECON CODA AMPLIT PERI AZIMU VELO AIN AR TRES W  DIS CAZ7
 BAR2 SZ EP   1    722 50.59                             172   -0.22 8 21.0 189 
 BAR2 SZ ES   1    723  6.37                             172    0.10 8 21.0 189 
 BAR2 SZ I         723  7.24         2.8 0.20            171           21.0 189 
 PTB  HZ EP   1    722 57.43                             133   -0.57 7  146 260 
 PTB  HN ES        723 18.43                             133   -0.6410  146 260 
 PTB  HZ I         723 21.97         2.5 0.14            135            146 260 
 SPBC HZ EP        722 59.65                             130    0.2310  161 219 
 SPBC HN ES        723 21.96                             130    0.3610  161 219 
 SPBC HZ I         723 28.72         3.8 0.36            132            161 219 
 OCA  HN ES   1    723 22.06                             130    0.05 7  162 354 
 OCA  HZ I         723 26.54         3.1 0.26            133            162 354 
 ZAR  HN ES        723 29.50                             123    0.52 9  204 293 
 ZAR  HZ I         723 32.80         2.3 0.26            125            204 293 
 MON  HN ES   4    723 55.11                             109   -3.38 0  354 309 
 MON  HZ I         723 56.52         0.6 0.40            111            354 309 
 SJC  HZ EP   4    723 24.25                             106   -2.53 0  411 327 
 SJC  HN ES   4    724  5.24                             106   -5.06 0  411 327 
 SJC  HZ I         724 10.21         0.3 0.58            108            411 327 
                                                                                
