 2013  531 0148 45.5 L   6.802 -73.157145.4  RSN  7 0.4 1.6LRSN                1
 GAP=183        1.00       3.9     5.6  6.1  0.1781E+00  0.1032E+02 -0.2120E+01E
 Epicentro: LOS SANTOS - SANTANDER                                             3
 ACTION:UPD 13-06-20 09:55 OP:ep   STATUS:               ID:20130531014845 L   I
 2013-05-31-0147-50M.COL___221                                                 6
 STAT SP IPHASW D HRMM SECON CODA AMPLIT PERI AZIMU VELO AIN AR TRES W  DIS CAZ7
 BAR2 SZ EP        149  5.14                             171    0.0710 23.4 187 
 BAR2 SZ ES        149 19.69                             171   -0.6610 23.4 187 
 BAR2 SZ I         149 24.16         5.0 0.50            168           23.4 187 
 GIR2 SZ EP        149  5.38                             167    0.2810 30.9 352 
 GIR2 SZ ES        149 21.15                             167    0.7510 30.9 352 
 GIR2 SZ I         149 23.66         4.4 0.64            161           30.9 352 
 BRR  HZ EP     D  149  7.10                             153    0.5810 70.0 299 
 BRR  HN ES   1    149 22.88                             153   -0.06 7 70.0 299 
 BRR  HZ I         149 40.21         6.6 0.24            148           70.0 299 
 RUS  HZ EP     C  149  9.09                             144   -0.1310  101 175 
 RUS  HN ES        149 27.47                             144   -0.2610  101 175 
 RUS  HZ I         149 28.96         2.1 0.42            152            101 175 
 PTB  HZ IP     C  149 12.07                             132   -0.24 9  147 259 
 PTB  HN ES        149 33.10                             132   -0.14 9  147 259 
 PTB  HZ I         149 40.58         6.5 0.40            133            147 259 
 NOR  HZ EP        149 21.28                             119    0.19 8  234 234 
 NOR  HN ES        149 49.13                             119    0.26 8  234 234 
 NOR  HZ I         149 52.85         4.7 0.18            123            234 234 
 SML  HZ EP        149 21.63                             117   -0.38 8  243 336 
 SML  HN ES        149 50.01                             117   -0.49 8  243 336 
 SML  HZ I         149 57.33         7.7 0.26            121            243 336 
                                                                                
