 2016  831 1604 29.7 L   6.814 -73.112152.0  RSN 26 0.5 2.8LRSN                1
 GAP= 60        1.18       3.2     3.2  5.1 -0.8241E+00  0.1352E+01 -0.2060E+00E
 Epicentro: LOS SANTOS - SANTANDER                                             3
 ACTION:UPD 16-10-29 15:41 OP:rebc STATUS:               ID:20160831160429 L   I
 OLDACT:UP  16-08-31 23:09 OP:dani STATUS:               ID:20160831155737     3
 OLDACT:UP  16-08-31 23:08 OP:dani STATUS:               ID:20160831155737     3
 OLDACT:UP  16-08-31 23:03 OP:dani STATUS:               ID:20160831155737     3
 OLDACT:UP  16-08-31 23:02 OP:dani STATUS:               ID:20160831155737     3
 OLDACT:REG 16-08-31 20:24 OP:edw  STATUS:               ID:20160831155737     3
 2016-08-31-1558-00M.COL___352                                                 6
 STAT SP IPHASW D HRMM SECON CODA AMPLIT PERI AZIMU VELO AIN AR TRES W  DIS CAZ7
 BAR2 EZ IP     C 16 4 50.09                             170   -0.0510 25.8 198 
 BAR2 EZ ES       16 5  5.55                             170   -0.5210 25.8 198 
 BAR2 EZ I        16 5  9.21        75.3 0.32                          25.8 198 
 BRR  HZ EP     D 16 4 52.01                             153    0.3310 73.8 296 
 BRR  HE ES       16 5  9.58                             153    0.7710 73.8 296 
 BRR  HZ I        16 5 13.77        82.1 0.14                          73.8 296 
 RUS  HZ EP     C 16 4 53.87                             145   -0.3110  102 178 
 RUS  HE ES       16 5 12.82                             145   -0.4410  102 178 
 RUS  HZ I        16 5 13.94        35.6 0.32                           102 178 
 TAM  HZ EP     C 16 4 58.21                             132    0.61 9  152 106 
 TAM  HN ES       16 5 19.93                             132    0.57 9  152 106 
 TAM  HZ I        16 5 20.52        37.2 0.34                           152 106 
 PTB  HZ EP       16 4 56.77                             133   -0.77 9  152 259 
 PTB  HN ES       16 5 18.40                             133   -0.85 9  152 259 
 PTB  HZ I        16 5 25.56        85.2 0.38                           152 259 
 OCA  HZ EP       16 4 58.59                             131    0.18 9  159 352 
 OCA  HE ES       16 5 21.30                             131    0.51 9  159 352 
 OCA  HZ I        16 5 26.19       206.8 0.37                           159 352 
 SPBC HZ EP     C 16 4 59.01                             130   -0.02 9  167 220 
 SPBC HE ES       16 5 21.70                             130   -0.19 9  167 220 
 SPBC HZ I        16 5 28.22       140.1 0.26                           167 220 
 ZAR  HZ EP       16 5  2.58                             123   -0.28 8  207 291 
 ZAR  HE ES       16 5 28.26                             123   -0.45 8  207 291 
 ZAR  HZ I        16 5 34.56        74.3 0.22                           207 291 
 NOR  HZ EP       16 5  5.98                             119   -0.25 8  239 235 
 NOR  HN ES       16 5 34.44                             119   -0.27 8  239 235 
 NOR  HZ I        16 5 37.79        46.7 0.18                           239 235 
 CHI  HZ EP       16 5  7.96                             118   -0.07 8  251 196 
 CHI  HE ES       16 5 38.25                             118    0.33 8  251 196 
 CHI  HZ I        16 5 45.21        19.6 0.30                           251 196 
 ROSC BZ EP   4   16 5 10.02                             118    1.49 0  256 212 
 ROSC BN ES   4   16 5 42.79                             118    3.98 0  256 212 
 ROSC BZ I        16 5 47.96        58.6 0.40                           256 212 
 HEL  HZ EP       16 5 11.41                             116    0.73 7  276 256 
 HEL  HN ES       16 5 43.68                             116    1.04 7  276 256 
 HEL  HZ I        16 5 49.78        30.4 0.26                           276 256 
 URE  HZ EP   9   16 5  9.96                             114   -1.44 0  287 291 
 URE  HN ES       16 5 42.08                             114   -0.40 7  287 291 
 URE  HZ I        16 5 48.59        37.1 0.16                           287 291 
 SOCV BZ EP       16 5 12.59                             113   -0.01 7  297  57 
 SOCV BN ES   4   16 5 44.54                             113   -1.52 0  297  57 
 GUY2CHZ EP       16 5 14.94                             113    0.89 7  305 235 
 GUY2CHE ES   4   16 5 51.17                             113    2.53 0  305 235 
 GUY2CHZ I        16 5 55.03        37.4 0.30                           305 235 
 PTGC HZ EP     C 16 5 12.89                             113   -0.98 7  309 159 
 PTGC HN ES   4   16 5 46.31                             113   -2.00 0  309 159 
 PTGC HZ I        16 5 49.64        21.2 0.20                           309 159 
 LL6C HZ EP       16 5 14.82                             111   -0.70 7  323 357 
 ELA  HZ EP   4   16 5 19.31                             111    2.04 0  333 230 
 ELA  HN ES       16 5 54.72                             111    0.36 7  333 230 
 ELA  HZ I        16 6 10.06        21.6 0.62                           333 230 
 CBOC HZ EP       16 5 17.71                             111    0.36 7  338 252 
 CBOC HN ES   4   16 5 56.28                             111    1.78 0  338 252 
 CBOC HZ I        16 6  5.59        11.6 0.60                           338 252 
 DBB  EZ EP       16 5 17.56                             110   -0.29 7  343 274 
 ANIL HZ EP   4   16 5 18.46                             109   -1.73 0  361 225 
 ANIL HE ES       16 6  0.35                             109    0.79 6  361 225 
 ANIL HZ I        16 6 10.24        67.0 0.22                           361 225 
 SJC  HZ EP   4   16 5 23.91                             107   -1.65 0  410 326 
 SJC  HN ES   4   16 6  5.60                             107   -3.53 0  410 326 
 SJC  HZ I        16 6 10.76        13.4 0.26                           410 326 
 PAL  HZ EP       16 5 25.47                             107   -0.08 6  410 239 
 PAL  HZ I        16 6 20.83         8.2 0.49                           410 239 
 CRJC HZ EP   4   16 5 30.30                             104   -1.87 0  466   3 
 CRJC HE ES   4   16 6 17.91                             104   -2.99 0  466   3 
 CRJC HZ I        16 6 23.43        13.5 0.48                           466   3 
 SMAR HZ EP       16 5 35.20                             103   -0.47 4  496 346 
 CAP2 HZ EP       16 5 36.72                             103   -0.64 4  510 294 
 CAP2 HZ I        16 6 30.47         4.8 0.58                           510 294 
                                                                                
