 2013  831 1015 55.5 L   6.801 -73.149150.0  RSN 10 0.4 1.9LRSN                1
 GAP=183        0.95       3.7     5.6  8.0  0.2619E+01 -0.4179E+01 -0.4678E+01E
 Epicentro: LOS SANTOS - SANTANDER                                             3
 ACTION:UPD 14-01-14 09:08 OP:ep   STATUS:               ID:20130831101555 L   I
 OLDACT:REG 13-08-31 15:20 OP:nd   STATUS:               ID:20130831101000     3
 2013-08-31-1010-00M.COL___268                                                 6
 STAT SP IPHASW D HRMM SECON CODA AMPLIT PERI AZIMU VELO AIN AR TRES W  DIS CAZ7
 BAR2 SZ EP       1016 15.99                             171    0.3910 23.4 189 
 BAR2 SZ ES   2   1016 30.54                             171   -0.77 5 23.4 189 
 BAR2 SZ I        1016 33.06         8.0 0.30            166           23.4 189 
 BRR  HZ EP   1   1016 17.48                             154    0.44 7 70.8 299 
 BRR  HN ES       1016 34.62                             154    0.7410 70.8 299 
 BRR  HN I        1016 35.48        15.7 0.26            141           70.8 299 
 RUS  HZ EP   1   1016 19.76                             145    0.12 7  101 176 
 RUS  HN ES   1   1016 37.82                             145   -0.68 7  101 176 
 RUS  HZ I        1016 39.21         4.2 0.38            135            101 176 
 PTB  HZ EP   1   1016 22.45                             133   -0.29 7  147 259 
 PTB  HN ES       1016 43.67                             133   -0.35 9  147 259 
 PTB  HN I        1016 49.00        11.0 0.24            120            147 259 
 OCA  HZ EP   1   1016 24.36                             131    0.27 7  160 353 
 OCA  HN ES       1016 46.21                             131   -0.20 9  160 353 
 OCA  HN I        1016 49.92        31.5 0.26            119            160 353 
 SPBC HZ EP   1   1016 24.47                             130    0.20 7  163 219 
 SPBC HN ES   2   1016 46.73                             130   -0.01 5  163 219 
 SPBC HN I        1016 52.72        21.5 0.46            118            163 219 
 ZAR  HN ES       1016 53.75                             124    0.12 9  204 292 
 ZAR  HN I        1017  1.47         7.5 0.16            112            204 292 
 SML  HZ EP   1   1016 31.60                             119   -0.70 6  243 335 
 SML  HN ES       1017  0.54                             119   -0.49 8  243 335 
 GUY2CHZ EP   4   1016 41.78                             113    2.54 0  301 235 
 GUY2CHN ES   4   1017 16.96                             113    3.58 0  301 235 
 GUY2CHZ I        1017 22.28         3.5 0.72                           301 235 
 SJC  HZ EP   4   1016 49.72                             107   -1.41 0  409 327 
 SJC  HN I        1017 37.95         1.7 0.34             98            409 327 
                                                                                
