 2010  831 1918 53.7 L   6.789 -73.063144.9  RSN 11 0.3 2.3LRSN                1
 GAP=168        0.60       2.4     4.5  4.4 -0.3890E+01  0.1828E+01  0.1090E+01E
 Epicentro: LOS SANTOS - SANTANDER                                             3
 ACTION:UP  10-09-07 10:59 OP:vdl  STATUS:               ID:20100831191853 L   I
 2010-08-31-1914-48S.COL___120                                                 6
 STAT SP IPHASW D HRMM SECON CODA AMPLIT PERI AZIMU VELO SNR AR TRES W  DIS CAZ7
 BAR2 SZ IP       1919 13.26                             169    -0.110   26 211 
 BAR2 SZ I        1919 13.59        64.9 0.08                            26 211 
 BAR2 SZ ES   1   1919 28.40                             169    -0.2 7   26 211 
 BRR  HZ IP     C 1919 15.19                             149    -0.110   80 296 
 BRR  HZ I        1919 15.62        83.5 0.16                            80 296 
 BRR  HN ES   1   1919 32.28                             149     0.1 7   80 296 
 RUS  HZ EP       1919 17.16                             144    -0.110   99 181 
 RUS  HN ES   1   1919 35.87                             144     0.2 7   99 181 
 RUS  HZ I        1919 38.54        14.6 0.25                            99 181 
 GUE  SZ EP       1919 18.22                             139    -0.110  116   8 
 GUE  SZ I        1919 33.10         9.2 0.14                           116   8 
 GRA  SZ IP       1919 19.17                             137     0.410  124  13 
 GRA  SZ ES   1   1919 38.12                             137    -0.2 7  124  13 
 GRA  SZ I        1919 39.73        21.6 0.26                           124  13 
 OCA  SZ EP   2   1919 22.24                             129     0.0 5  163 350 
 OCA  SZ ES   2   1919 44.75                             129     0.3 5  163 350 
 OCA  SZ I        1919 48.36        34.1 0.18                           163 350 
 CHI  HZ EP   1   1919 31.45                             117    -0.1 6  250 197 
 CHI  HE ES   2   1920  1.45                             117     0.4 4  250 197 
 CHI  HZ I        1920 10.33         9.0 0.31                           250 197 
 ROSC BZ EP   2   1919 32.30                             116     0.1 4  257 213 
 ROSC BZ I        1920  7.37        11.7 0.40                           257 213 
 HEL  HZ EP   2   1919 34.53                             114    -0.3 4  281 256 
 HEL  HE ES   2   1920  6.11                                    -0.8 4  281 256 
 HEL  HZ I        1920 13.78        12.7 0.24                           281 256 
 GUY  SZ EP   1   1919 38.28                             111     0.2 5  308 236 
 GUY  SN ES   2   1920 13.79                             111     1.1 4  308 236 
 GUY  SZ I        1920 20.44        33.0 0.43                           308 236 
 PRA  HZ EP   1   1919 47.54                             106    -0.1 4  396 211 
 PRA  HN ES   1   1920 29.59                             106    -0.1 4  396 211 
 PRA  HZ I        1920 32.80         6.6 0.44                           396 211 
                                                                                
