 2010  131 1217 51.4 L   6.812 -72.969145.8  RSN  5 0.5 1.8LRSN                1
 GAP=316        0.69      10.7    16.0 10.1 -0.7593E+02  0.3540E+02  0.2189E+02E
 Epicentro: CEPITA - SANTANDER                                                 3
 ACTION:UP  10-08-24 09:46 OP:vdl  STATUS:               ID:20100131121751 L   I
 2010-01-31-1213-59S.COL___094                                                 6
 STAT SP IPHASW D HRMM SECON CODA AMPLIT PERI AZIMU VELO SNR AR TRES W  DIS CAZ7
 BAR2 SZ EP   1   1218 11.23                             166    -0.1 7   34 224 
 BAR2 SZ ES   2   1218 26.36                             166    -0.5 5   34 224 
 RUS  BZ EP   2   1218 15.76                             143     0.5 5  102 187 
 RUS  BE ES   2   1218 34.33                             143     0.4 5  102 187 
 RUS  BZ I        1218 35.47         5.3 0.28                           102 187 
 CHI  HZ EP   1   1218 29.84                             116     0.0 6  256 199 
 CHI  HE ES   2   1218 59.48                             116    -0.4 4  256 199 
 CHI  HZ I        1219 10.11         2.9 0.62                           256 199 
 RREF BN ES   2   1219 17.79                             110     1.0 3  338 231 
 RREF BZ I        1219 23.57         3.5 0.79                           338 231 
 PRA  HZ EP   2   1218 45.67                             106    -0.5 3  403 212 
 PRA  HE ES   2   1219 28.02                             106    -1.0 3  403 212 
 PRA  HZ I        1219 32.02         4.4 0.31                           403 212 
                                                                                
