 2014  531 1518 17.7 L   6.752 -73.135139.2  RSN 12 0.4 2.2LRSN                1
 GAP= 95        1.01       3.9     3.2  5.6 -0.8588E+00  0.4381E+01  0.3114E+01E
 Epicentro: LOS SANTOS - SANTANDER                                             3
 ACTION:UPD 15-03-16 17:02 OP:nd   STATUS:               ID:20140531151817 L   I
 OLDACT:UP  14-06-01 00:25 OP:cam  STATUS:               ID:20140531151642     3
 OLDACT:UP  14-06-01 00:24 OP:cam  STATUS:               ID:20140531151642     3
 OLDACT:REG 14-06-01 00:16 OP:cam  STATUS:               ID:20140531151642     3
 2014-05-31-1516-42M.COL___259                                                 6
 STAT SP IPHASW D HRMM SECON CODA AMPLIT PERI AZIMU VELO AIN AR TRES W  DIS CAZ7
 BAR2 SZ EP       1518 36.28                             172   -0.1210 18.4 196 
 BAR2 SZ ES       1518 50.67                             172   -0.3510 18.4 196 
 BAR2 SZ I        1518 52.20        46.3 0.16            171           18.4 196 
 BRR  HZ EP       1518 38.22                             150   -0.0910 74.8 302 
 BRR  HN ES       1518 55.04                             150    0.6110 74.8 302 
 BRR  HZ I        1519  0.31        22.5 0.36            148           74.8 302 
 PAM  SZ EP     D 1518 39.34                             149   -0.0510 80.9  37 
 PAM  SE ES       1518 56.41                             149    0.0610 80.9  37 
 PAM  SZ I        1518 58.25        38.8 0.48            151           80.9  37 
 RUS  HZ EP       1518 40.29                             144   -0.0810 95.2 177 
 RUS  HN ES       1518 58.58                             144    0.4910 95.2 177 
 RUS  HZ I        1518 59.68        27.5 0.36            147           95.2 177 
 PTB  HZ EP   4   1518 42.67                             130   -1.44 0  148 261 
 PTB  HN ES   4   1519  3.03                             130   -1.72 0  148 261 
 PTB  HZ I        1519  7.44        19.6 0.24            130            148 261 
 TAM  HZ IP     C 1518 44.64                             130    0.05 9  153 103 
 TAM  HZ I        1518 44.81        47.1 0.36            134            153 103 
 TAM  HE ES       1519  5.22                             130   -0.38 9  153 103 
 SPBC HZ EP       1518 45.31                             128   -0.02 9  160 221 
 SPBC HN ES       1519  7.22                             128    0.30 9  160 221 
 SPBC HZ I        1519  9.61        21.7 0.28            129            160 221 
 ZAR  HZ EP   1   1518 49.84                             120   -0.17 6  207 293 
 ZAR  HN ES       1519 14.80                             120   -0.44 8  207 293 
 ZAR  HZ I        1519 21.23        13.6 0.40            121            207 293 
 NOR  HZ EP       1518 52.80                             117    0.02 8  233 236 
 NOR  HE ES       1519 19.05                             117   -1.13 8  233 236 
 NOR  HZ I        1519 28.11         7.8 0.14            118            233 236 
 SML  HZ EP   4   1518 52.77                             116   -1.73 0  249 336 
 SML  HE ES   4   1519 20.95                             116   -2.29 0  249 336 
 SML  HZ I        1519 25.28        17.4 0.26            117            249 336 
 HEL  HZ EP       1518 58.14                             113    0.61 8  272 257 
 GUY2CHZ EP       1519  1.44                             111    0.71 7  299 236 
 TOL  SZ EP   4   1519  6.22                             108    0.91 0  341 225 
 SJC  HZ EP   4   1519 10.90                             104   -2.71 0  414 327 
                                                                                
