 2017  131 1016 39.8 L   6.723 -73.212154.4  RSN  4 0.2 1.1LRSN                1
 GAP=220        0.57       4.7     4.5  5.6  0.1062E+02 -0.3257E+01 -0.2072E+01E
 Epicentro: VILLANUEVA - SANTANDER                                             3
 ACTION:UPD 17-05-22 16:05 OP:jn   STATUS:               ID:20170131101639 L   I
 OLDACT:REG 17-01-31 21:00 OP:ar   STATUS:               ID:20170131100742     3
 2017-01-31-1008-00M.COL___343                                                 6
 STAT SP IPHASW D HRMM SECON CODA AMPLIT PERI AZIMU VELO AIN AR TRES W  DIS CAZ7
 BAR2 EZ EP       1016 59.94                             174   -0.4210 14.9 167 
 BAR2 EZ ES   9   1017 14.94                             174   -1.44 0 14.9 167 
 BAR2 EZ I        1017 16.37         4.0 0.26            172           14.9 167 
 BRR  HZ EP       1017  1.97                             154    0.1410 69.7 308 
 BRR  HE ES       1017 19.10                             154    0.1010 69.7 308 
 RUS  HZ EP       1017  4.15                             148    0.2310 93.0 171 
 RUS  HE ES       1017 22.74                             148    0.0210 93.0 171 
 RUS  HZ I        1017 23.33         1.3 0.22            147           93.0 171 
 PTB  HZ EP       1017  6.77                             136    0.01 9  139 262 
 PTB  HN ES       1017 27.67                             136   -0.10 9  139 262 
 PTB  HZ I        1017 30.03         1.8 0.18            134            139 262 
                                                                                
