 2013  831 1902 29.7 L   6.820 -73.136146.1  RSN 15 0.3 2.3LRSN                1
 GAP=137        0.80       2.5     3.5  4.1 -0.1496E+01  0.3840E+01  0.8695E+00E
 Epicentro: LOS SANTOS - SANTANDER                                             3
 ACTION:UPD 14-01-14 09:08 OP:ep   STATUS:               ID:20130831190229 L   I
 OLDACT:REG 13-08-31 15:56 OP:nd   STATUS:               ID:20130831190000     3
 2013-08-31-1900-00M.COL___268                                                 6
 STAT SP IPHASW D HRMM SECON CODA AMPLIT PERI AZIMU VELO AIN AR TRES W  DIS CAZ7
 BAR2 SZ EP       19 2 49.40                             170    0.0310 25.7 191 
 BAR2 SZ ES       19 3  4.75                             170    0.0010 25.7 191 
 BAR2 SZ I        19 3  6.12        43.0 0.34            169           25.7 191 
 BRR  HZ EP       19 2 51.18                             153    0.3510 71.1 297 
 BRR  HN ES       19 3  7.44                             153    0.0910 71.1 297 
 BRR  HZ I        19 3  9.61        34.7 0.10            150           71.1 297 
 PAM  SZ IP     D 19 2 52.44                             152    0.6810 75.0  40 
 PAM  SN ES       19 3  9.04                             152    0.0310 75.0  40 
 PAM  SZ I        19 3 11.56        35.2 0.52            153           75.0  40 
 RUS  HZ EP       19 2 53.28                             143   -0.3110  103 177 
 RUS  HN ES       19 3 12.05                             143   -0.2110  103 177 
 RUS  HZ I        19 3 13.19        17.3 0.26            144            103 177 
 PTB  HZ EP       19 2 56.24                             132   -0.54 9  149 258 
 PTB  HN ES   2   19 3 17.76                             132   -0.18 5  149 258 
 PTB  HZ I        19 3 19.25        23.6 0.18            130            149 258 
 OCA  HZ EP       19 2 57.53                             130   -0.27 9  158 353 
 OCA  HN ES   4   19 3 19.34                             130   -0.41 0  158 353 
 OCA  HZ I        19 3 22.81        20.4 0.36            130            158 353 
 SPBC HZ EP       19 2 58.44                             129    0.04 9  166 219 
 SPBC HN ES       19 3 20.90                             129    0.08 9  166 219 
 SPBC HZ I        19 3 24.71        32.4 0.46            128            166 219 
 ZAR  HZ EP   2   19 3  2.23                             122    0.10 4  204 291 
 ZAR  HN ES       19 3 27.18                             122   -0.29 9  204 291 
 ZAR  HZ I        19 3 32.73        21.4 0.50            121            204 291 
 NOR  HZ EP       19 3  5.58                             118   -0.05 8  237 234 
 NOR  HN ES       19 3 34.13                             118    0.44 8  237 234 
 NOR  HZ I        19 3 35.99        13.7 0.16            118            237 234 
 SML  HZ EP       19 3  5.69                             118   -0.44 8  242 335 
 SML  HE ES   4   19 3 34.31                             118   -0.27 0  242 335 
 SML  HZ I        19 3 38.48        30.5 0.10            117            242 335 
 CHI  HZ EP       19 3  7.54                             117   -0.09 8  251 195 
 CHI  HN ES       19 3 36.73                             117   -0.52 8  251 195 
 CHI  HZ I        19 3 42.29        13.8 0.34            117            251 195 
 GUY2CHZ EP       19 3 14.38                             112    0.87 7  303 235 
 GUY2CHN ES   4   19 3 51.31                             112    3.58 0  303 235 
 GUY2CHZ I        19 3 55.72        10.8 0.36                           303 235 
 RREF HZ EP   4   19 3 16.82                             111    0.76 0  324 229 
 RREF HN ES   4   19 3 55.33                             111    3.07 0  324 229 
 RREF HZ I        19 4  1.47        13.5 0.40            111            324 229 
 COD  HZ EP   4   19 3 17.13                             109   -0.67 0  346 354 
 COD  HN ES   4   19 3 55.43                             109    0.07 0  346 354 
 COD  HZ I        19 4  1.24         3.8 0.48            109            346 354 
 PRA  HZ EP       19 3 23.56                             106    0.10 6  394 210 
 PRA  HN ES       19 4  5.65                             106    0.21 6  394 210 
 PRA  HZ I        19 4 11.57        14.1 0.76            107            394 210 
                                                                                
