 2014  131 1212 15.3 L   6.829 -73.197144.4  RSN  4 0.2 1.3LRSN                1
 GAP=276        0.53       4.0     3.8  4.3  0.4723E+01  0.3818E+01  0.3064E+01E
 Epicentro: ZAPATOCA - SANTANDER                                               3
 ACTION:UPD 14-03-13 10:00 OP:ep   STATUS:               ID:20140131121215 L   I
 OLDACT:REG 14-01-31 15:51 OP:stll STATUS:               ID:20140131120815     3
 2014-01-31-1208-15M.COL___217                                                 6
 STAT SP IPHASW D HRMM SECON CODA AMPLIT PERI AZIMU VELO AIN AR TRES W  DIS CAZ7
 BAR2 SZ EP       1212 34.82                             169   -0.0210 26.3 176 
 BAR2 SZ I        1212 35.10         6.0 0.32            167           26.3 176 
 BAR2 SZ ES       1212 49.96                             169   -0.1110 26.3 176 
 RUS  HZ EP       1212 39.33                             142    0.1310  104 173 
 RUS  HE ES       1212 57.93                             142    0.0910  104 173 
 PTB  HZ EP       1212 41.41                             133   -0.31 9  143 257 
 PTB  HN ES       1213  2.56                             133    0.23 9  143 257 
 PTB  HZ I        1213  8.40         2.2 0.26            129            143 257 
 CHI  HZ EP       1212 53.37                             117    0.25 8  250 194 
 CHI  HZ I        1212 55.80         1.0 0.46            116            250 194 
 CHI  HN ES       1213 22.31                             117   -0.30 8  250 194 
                                                                                
