 2012  131 1107 29.0 L   6.782 -73.155144.9  RSN 15 0.4 3.2LRSN                1
 GAP=114        0.93       2.9     3.6  4.6 -0.5837E-01  0.4482E+01  0.4145E+01E
 Epicentro: LOS SANTOS - SANTANDER                                             3
 ACTION:UP  12-02-03 08:22 OP:REBC STATUS:               ID:20120131110729 L   I
 2012-01-31-1100-00M.COL___187                                                 6
 STAT SP IPHASW D HRMM SECON CODA AMPLIT PERI AZIMU VELO SNR AR TRES W  DIS CAZ7
 BAR2 SZ IP       11 7 48.58                             171     0.110   21 188 
 BAR2 SZ ES       11 8  3.97                             171     0.310   21 188 
 BAR2 SZ I        11 8  5.26       317.9 0.17                            21 188 
 GIR2 SZ IP       11 7 48.54                             166    -0.110   33 353 
 GIR2 SZ ES       11 8  4.11                             166     0.210   33 353 
 BRR  HZ IP     C 11 7 50.35                             152     0.310   71 300 
 BRR  HE ES       11 8  6.80                             152     0.310   71 300 
 BRR  HZ I        11 8 10.66       439.4 0.17                            71 300 
 PAM  SZ EP       11 7 51.31                             150     0.010   80  39 
 PAM  SN ES       11 8  7.77                             150    -0.910   80  39 
 RUS  HZ EP       11 7 52.59                             144     0.010   99 175 
 RUS  HN ES   1   11 8 10.72                             144    -0.2 7   99 175 
 RUS  HZ I        11 8 13.68       158.5 0.25                            99 175 
 PTB  HZ EP       11 7 55.21                             132    -0.6 9  146 260 
 PTB  HN ES   1   11 8 16.34                             132    -0.3 7  146 260 
 OCA  SZ EP       11 7 58.14                             129     0.7 9  162 354 
 OCA  SZ ES   1   11 8 20.21                             129     0.6 7  162 354 
 OCA  SZ I        11 8 24.35       298.0 0.23                           162 354 
 YOP  SZ EP   1   11 7 58.86                             126     0.0 7  178 153 
 YOP  SE ES   1   11 8 22.05                             126    -0.1 7  178 153 
 YOP  SZ I        11 8 24.26       189.9 0.31                           178 153 
 ZAR  HZ EP       11 8  0.86                             122    -0.5 9  204 293 
 ZAR  HE ES   1   11 8 26.38                             122    -0.3 6  204 293 
 ZAR  HZ I        11 8 32.24       284.1 0.34                           204 293 
 NOR  SZ EP       11 8  4.64                             118     0.2 8  233 235 
 NOR  SN ES   1   11 8 32.14                             118     0.0 6  233 235 
 CHI  HZ EP       11 8  6.74                             117     0.3 8  246 195 
 CHI  HZ I        11 8  8.87        61.6 0.20                           246 195 
 CHI  HE ES   1   11 8 36.02                             117     0.4 6  246 195 
 HEL  HZ EP   1   11 8  8.66                             115    -0.4 6  271 256 
 HEL  HE ES   1   11 8 40.19                             115     0.0 6  271 256 
 HEL  HZ I        11 8 46.98       147.0 0.35                           271 256 
 VIL  SZ EP   1   11 8 12.02                             112    -0.1 5  301 191 
 VIL  SN ES   2   11 8 45.75                             112     0.0 4  301 191 
 VIL  SZ I        11 8 53.52        53.5 0.46                           301 191 
 RREF HZ EP   1   11 8 14.88                             111     0.0 5  320 230 
 RREF HE ES   1   11 8 51.16                             111     0.5 5  320 230 
 RREF HZ I        11 8 59.31       108.5 0.54                           320 230 
 PRA  HZ EP       11 8 22.10                             106    -0.1 6  390 210 
                                                                                
