 2014 1231 1203 51.8 L   6.803 -73.159144.5  RSN  8 0.4 1.8LRSN                1
 GAP=135        0.96       2.9     4.2  6.0 -0.3566E+00  0.8098E+01 -0.1492E+01E
 Epicentro: LOS SANTOS - SANTANDER                                             3
 ACTION:UPD 15-02-10 17:08 OP:nd   STATUS:               ID:20141231120351 L   I
 OLDACT:UP  14-12-31 21:46 OP:cam  STATUS:               ID:20141231115817     3
 OLDACT:REG 14-12-31 19:55 OP:cam  STATUS:               ID:20141231115817     3
 2014-12-31-1158-17M.COL___268                                                 6
 STAT SP IPHASW D HRMM SECON CODA AMPLIT PERI AZIMU VELO AIN AR TRES W  DIS CAZ7
 BAR2 EZ EP       12 4 11.37                             170    0.0810 23.4 186 
 BAR2 EZ ES       12 4 25.80                             170   -0.6810 23.4 186 
 BAR2 EZ I        12 4 28.94         9.9 0.30            168           23.4 186 
 PAM  SZ EP       12 4 14.28                             150    0.3410 78.1  41 
 PAM  SN ES       12 4 31.56                             150    0.3710 78.1  41 
 PAM  SZ I        12 4 33.46         9.6 0.32            155           78.1  41 
 RUS  HZ EP       12 4 15.26                             143   -0.2110  101 175 
 RUS  HN ES       12 4 34.24                             143    0.3210  101 175 
 RUS  HZ I        12 4 35.16         5.0 0.36            144            101 175 
 PTB  HZ EP       12 4 18.24                             132   -0.31 9  146 259 
 PTB  HN ES       12 4 39.59                             132    0.19 9  146 259 
 PTB  HZ I        12 4 41.52         9.8 0.16            132            146 259 
 SPBC HZ EP       12 4 20.26                             129    0.11 9  162 218 
 SPBC HN ES       12 4 41.82                             129   -0.43 9  162 218 
 SPBC HZ I        12 4 46.92        12.4 0.18            129            162 218 
 ZAR  HZ EP       12 4 24.20                             122    0.18 9  203 292 
 ZAR  HN ES       12 4 49.85                             122    0.71 9  203 292 
 ZAR  HZ I        12 4 55.36        13.6 0.36            123            203 292 
 SML  HZ EP       12 4 27.67                             117   -0.60 8  243 336 
 SML  HN ES       12 4 56.21                             117   -0.49 8  243 336 
 CHI  HZ EP       12 4 29.66                             117    0.23 8  249 195 
 CHI  HN ES       12 4 58.84                             117    0.07 8  249 195 
 CHI  HZ I        12 5  8.63         2.8 0.38            118            249 195 
                                                                                
