 2011 1031 1337 45.3 L   6.772 -73.051137.4  RSN  4 0.2 1.4LRSN                1
 GAP=150        0.45       3.9     6.0  8.3 -0.5032E+01 -0.2613E+02  0.1229E+02E
 Epicentro: LOS SANTOS - SANTANDER                                             3
 ACTION:UPD 12-07-13 16:07 OP:ep   STATUS:               ID:20111031133745 L   I
 2011-10-31-1331-44S.COL___176                                                 6
 STAT SP IPHASW D HRMM SECON CODA AMPLIT PERI AZIMU VELO AIN AR TRES W  DIS CAZ7
 BAR2 SZ EP       1338  3.68                             169   -0.2910 24.6 216 
 BAR2 SZ I        1338 21.20         6.2 0.20                          24.6 216 
 PAM  SZ EP       1338  6.51                             150    0.0910 73.8  32 
 PAM  SN ES   2   1338 22.87                             150   -0.02 5 73.8  32 
 BRR  HN ES   1   1338 22.64                             147    0.08 7 81.9 297 
 RUS  HZ EP       1338  8.16                             143    0.1510 97.3 182 
 RUS  HN ES   2   1338 25.75                             143    0.04 5 97.3 182 
 RUS  HZ I        1338 27.66         3.6 0.40                          97.3 182 
                                                                                
