 2013  731 1748 11.4 L   6.557 -73.577115.7  RSN  5 0.4 1.8LRSN                1
 GAP=124        1.02       5.4     5.3  8.7 -0.8962E+01  0.3241E+01  0.4944E+01E
 Epicentro: EL CARMEN DE CHUCURI - SANTANDER                                   3
 ACTION:UPD 13-08-12 10:41 OP:ep   STATUS:               ID:20130731174811 L   I
 OLDACT:DUP 13-07-31 19:32 OP:cam  STATUS:               ID:20130731173960d    3
 OLDACT:UP  13-07-31 19:28 OP:cam  STATUS:               ID:20130731173959     3
 OLDACT:UP  13-07-31 19:28 OP:cam  STATUS:               ID:20130731173959     3
 OLDACT:REG 13-07-31 15:28 OP:cam  STATUS:               ID:20130731173959     3
 2013-07-31-1739-59M.COL___267                                                 6
 STAT SP IPHASW D HRMM SECON CODA AMPLIT PERI AZIMU VELO AIN AR TRES W  DIS CAZ7
 BAR2 SZ EP       1748 28.14                             158    0.0210 43.9  85 
 BAR2 SZ ES       1748 40.68                             158   -0.5110 43.9  85 
 BAR2 SZ I        1748 41.77        37.8 0.34            161           43.9  85 
 BRR  HZ EP       1748 28.86                             149    0.0710 62.7 346 
 BRR  HN ES       1748 43.05                             149    0.6610 62.7 346 
 GIR2 SZ EP       1748 29.57                             146   -0.0110 71.7  36 
 PTB  HZ EP       1748 30.97                             137   -0.3710 97.2 269 
 PTB  HN ES       1748 46.48                             137   -0.4610 97.2 269 
 PTB  HZ I        1748 49.36         8.6 0.14            137           97.2 269 
 SPBC HZ EP   1   1748 33.22                             132    0.31 7  114 209 
 SPBC HN ES       1748 50.16                             132    0.4410  114 209 
 SPBC HZ I        1748 50.98        10.9 0.12            133            114 209 
                                                                                
