 2017 1031 1745 37.2 L   6.859 -73.330116.5  RSN 16 0.7 2.1LRSN                1
 GAP= 94        1.41       3.4     4.0  6.6  0.1186E+00  0.5165E+01  0.3084E+01E
 Epicentro: BETULIA - SANTANDER                                                3
 ACTION:UPD 17-11-07 19:40 OP:rebc STATUS:               ID:20171031174537 L   I
 OLDACT:UP  17-11-01 00:46 OP:dhb  STATUS:               ID:20171031173243     3
 OLDACT:UP  17-11-01 00:46 OP:dhb  STATUS:               ID:20171031173243     3
 OLDACT:REG 17-10-31 21:24 OP:mg   STATUS:               ID:20171031173243     3
 2017-10-31-1738-00M.COL___456                                                 6
 STAT SP IPHASW D HRMM SECON CODA AMPLIT PERI AZIMU VELO AIN AR TRES W  DIS CAZ7
 BAR2 EZ IP     C 1745 53.86                             163    0.2310 33.7 151 
 BAR2 EZ ES       1746  6.67                             163    0.2210 33.7 151 
 BAR2 EZ I        1746  7.57        58.9 0.48            160           33.7 151 
 BRR  HZ IP     C 1745 54.25                             155    0.2410 50.4 303 
 BRR  HE ES       1746  7.27                             155    0.1410 50.4 303 
 BRR  HZ I        1746  9.22        36.8 0.48            150           50.4 303 
 PAM  EZ EP       1745 56.88                             141   -0.2610 87.5  53 
 PAM  EN ES       1746 13.01                             141    0.3110 87.5  53 
 PAM  EZ I        1746 15.52        22.5 0.28            137           87.5  53 
 RUS  HZ EP       1745 58.96                             134   -0.0710  110 166 
 RUS  HN ES       1746 16.10                             134    0.0410  110 166 
 RUS  HZ I        1746 17.52        22.4 0.26            128            110 166 
 PTB  HZ EP       1745 59.19                             128   -0.9610  130 254 
 PTB  HE ES       1746 17.13                             128   -0.9310  130 254 
 PTB  HZ I        1746 22.82        13.8 0.20            122            130 254 
 SPBC HZ EP       1746  2.85                             123   -0.11 9  157 212 
 SPBC HE ES       1746 22.57                             123   -0.49 9  157 212 
 SPBC HZ I        1746 26.24        22.1 0.10            117            157 212 
 ZAR  HZ EP       1746  5.86                             118    0.27 9  183 293 
 ZAR  HE ES       1746 29.04                             118    1.30 9  183 293 
 ZAR  HZ I        1746 32.39        24.3 0.32            113            183 293 
 YPLC HZ EP       1746  6.74                             117   -0.04 9  193 147 
 YPLC HN ES       1746 29.05                             117   -0.80 9  193 147 
 YPLC HZ I        1746 32.64        26.3 0.20            112            193 147 
 NOR  HZ EP       1746  9.81                             113   -0.23 8  223 230 
 NOR  HE ES       1746 34.81                             113   -0.86 8  223 230 
 NOR  HZ I        1746 41.43         7.5 0.14            108            223 230 
 TABC EZ EP       1746 11.08                             113    0.12 8  226 205 
 TABC EZ I        1746 48.00         6.6 0.32            108            226 205 
 CHI  HZ EP       1746 13.76                             110    0.09 8  251 190 
 CHI  HE ES       1746 43.75                             110    1.63 8  251 190 
 CHI  HZ I        1746 46.98         4.6 0.36            105            251 190 
 GUY2CHZ EP   2   1746 19.77                             107    1.59 4  289 231 
 GUY2CHN ES   3   1746 52.61                             107    2.46 2  289 231 
 GUY2CHZ I        1746 56.82         4.4 0.28                           289 231 
 LL6C HZ EP       1746 21.35                             105    0.33 7  318   1 
 LL6C HE ES       1746 55.18                             105   -0.02 7  318   1 
 LL6C HZ I        1747  2.95         7.2 0.40            101            318   1 
 DBB  EZ EP   4   1746 23.25                             105    2.05 0  319 273 
 DBB  EN ES   2   1746 54.10                             105   -1.42 3  319 273 
 DBB  EZ I        1746 58.61         3.2 0.48            100            319 273 
 PRA  HZ EP       1746 29.79                             101    0.38 6  388 206 
 PRA  HE ES       1747 10.71                             101    0.57 6  388 206 
 PRA  HZ I        1747 17.70         5.4 0.24             96            388 206 
 SJC  HZ EP   2   1746 27.93                             101   -2.06 3  393 329 
 SJC  HE ES   4   1747  8.07                             101   -3.09 0  393 329 
 SJC  HZ I        1747 12.14         3.3 0.52             96            393 329 
                                                                                
