 2017 1031 1819 57.0 L   6.776 -73.155137.9  RSN 10 0.4 1.9LRSN                1
 GAP=112        0.99       3.5     3.4  5.5  0.1840E+01  0.4313E+01  0.4559E+01E
 Epicentro: LOS SANTOS - SANTANDER                                             3
 ACTION:UPD 17-11-07 19:40 OP:rebc STATUS:               ID:20171031181957 L   I
 OLDACT:REG 17-10-31 21:30 OP:mg   STATUS:               ID:20171031181738     3
 2017-10-31-1818-00M.COL___450                                                 6
 STAT SP IPHASW D HRMM SECON CODA AMPLIT PERI AZIMU VELO AIN AR TRES W  DIS CAZ7
 BAR2 EZ IP     C 1820 15.52                             171   -0.1510 20.5 189 
 BAR2 EZ ES       1820 30.30                             171    0.1010 20.5 189 
 BAR2 EZ I        1820 35.73         6.4 0.36            170           20.5 189 
 BRR  HZ EP       1820 17.69                             151    0.3110 71.7 301 
 BRR  HN ES       1820 33.50                             151    0.2710 71.7 301 
 BRR  HZ I        1820 37.15        22.1 0.28            152           71.7 301 
 PAM  EZ IP     D 1820 18.57                             149   -0.0310 80.1  39 
 PAM  EE ES       1820 35.26                             149   -0.1510 80.1  39 
 PAM  EZ I        1820 37.46        19.0 0.42            153           80.1  39 
 RUS  HZ EP       1820 19.48                             143   -0.3610 98.0 175 
 RUS  HN ES       1820 37.65                             143    0.0310 98.0 175 
 RUS  HZ I        1820 39.17        16.4 0.28            145           98.0 175 
 PTB  HZ EP       1820 22.36                             130   -0.89 9  146 260 
 PTB  HN ES       1820 43.27                             130   -0.41 9  146 260 
 PTB  HZ I        1820 45.78         6.5 0.28            132            146 260 
 YPLC HZ EP       1820 26.02                             125   -0.08 9  175 151 
 YPLC HE ES       1820 49.11                             125    0.36 9  175 151 
 YPLC HZ I        1820 52.13        10.1 0.30            128            175 151 
 ZAR  HZ EP       1820 28.92                             121   -0.08 9  204 293 
 ZAR  HN ES       1820 54.43                             121    0.50 9  204 293 
 ZAR  HZ I        1821  1.80        10.5 0.32            123            204 293 
 NOR  HZ EP       1820 32.68                             117    0.60 8  232 235 
 NOR  HN ES       1820 59.20                             117   -0.20 8  232 235 
 NOR  HZ I        1821  1.38         3.8 0.20            119            232 235 
 GUY2CHZ EP   9   1820 42.67                             111    2.63 0  299 235 
 GUY2CHE ES       1821 17.18                             110    0.98 7  299 235 
 GUY2CHZ I        1821 20.88         3.0 0.24                           299 235 
 PRA  HZ EP       1820 50.82                             105    0.84 6  389 210 
 PRA  HE ES       1821 31.35                             105    0.09 6  389 210 
 PRA  HZ I        1821 40.06         3.1 0.44            107            389 210 
                                                                                
