 2016  331 1211 11.5 L   6.813 -73.210141.6  RSN  7 0.4 1.4LRSN                1
 GAP=128        0.72       3.7     3.5  5.4 -0.3604E+01  0.5330E+01  0.2921E+01E
 Epicentro: ZAPATOCA - SANTANDER                                               3
 ACTION:UPD 16-05-13 21:29 OP:cam  STATUS:               ID:20160331121111 L   I
 OLDACT:REG 16-03-31 20:36 OP:ak   STATUS:               ID:20160331120745     3
 2016-03-31-1207-45M.COL___295                                                 6
 STAT SP IPHASW D HRMM SECON CODA AMPLIT PERI AZIMU VELO AIN AR TRES W  DIS CAZ7
 BAR2 EZ EP       1211 30.71                             170    0.0210 24.6 173 
 BAR2 EZ ES       1211 45.81                             170    0.1810 24.6 173 
 BAR2 EZ I        1211 47.41         7.3 0.40            170           24.6 173 
 PAM  EZ EP       1211 33.93                             149    0.3910 81.1  44 
 PAM  EN ES       1211 50.42                             149   -0.2810 81.1  44 
 PAM  EZ I        1211 53.51         3.8 0.54            151           81.1  44 
 RUS  HZ EP       1211 34.97                             142   -0.0710  103 172 
 RUS  HE ES       1211 53.41                             142    0.0410  103 172 
 RUS  HZ I        1211 54.44         2.9 0.26            144            103 172 
 PTB  HZ EP   1   1211 36.68                             132   -0.88 7  141 258 
 PTB  HE ES       1211 57.84                             132   -0.01 9  141 258 
 PTB  HZ I        1212  0.81         4.7 0.14            134            141 258 
 ZAR  HE ES   2   1212  7.63                             122    0.14 4  197 293 
 CHI  HZ EP       1211 49.23                             116    0.26 8  248 193 
 CHI  HN ES   2   1212 17.17                             116   -0.99 4  248 193 
 CHI  HZ I        1212 20.67         1.6 0.40            118            248 193 
 GUY2CHZ EP   2   1211 54.47                             112    0.07 4  296 234 
 GUY2CHN ES       1212 28.08                             112    0.26 7  296 234 
 GUY2CHZ I        1212 39.41         1.4 0.34                           296 234 
                                                                                
