 2013 1031 1257 41.4 L   6.826 -73.144139.5  RSN  7 0.4 1.8LRSN                1
 GAP=201        1.13       4.5     5.9  7.1  0.6623E+01  0.7763E+01 -0.5581E+01E
 Epicentro: LOS SANTOS - SANTANDER                                             3
 ACTION:UPD 13-11-25 09:24 OP:ep   STATUS:               ID:20131031125741 L   I
 OLDACT:REG 13-10-31 17:33 OP:carl STATUS:               ID:20131031125635     3
 2013-10-31-1256-35M.COL___216                                                 6
 STAT SP IPHASW D HRMM SECON CODA AMPLIT PERI AZIMU VELO AIN AR TRES W  DIS CAZ7
 BAR2 SZ EP       1258  0.75                             169    0.4010 26.2 189 
 BAR2 SZ ES       1258 14.18                             169   -0.9410 26.2 189 
 BAR2 SZ I        1258 16.81        28.1 0.30            168           26.2 189 
 BRR  HZ EP       1258  2.45                             152    0.6410 70.0 296 
 BRR  HN ES       1258 18.32                             152    0.5910 70.0 296 
 BRR  HZ I        1258 24.48        10.7 0.48            149           70.0 296 
 RUS  HZ EP       1258  4.68                             142   -0.0810  103 176 
 RUS  HN ES       1258 23.32                             142    0.3410  103 176 
 RUS  HZ I        1258 24.21         5.0 0.30            146            103 176 
 PTB  HZ EP       1258  7.44                             130   -0.50 9  148 258 
 PTB  HN ES       1258 28.44                             130   -0.19 9  148 258 
 PTB  HZ I        1258 33.38         8.1 0.32            131            148 258 
 ZAR  HZ EP       1258 13.57                             121    0.22 9  203 291 
 ZAR  HN ES       1258 38.40                             121    0.13 9  203 291 
 ZAR  HZ I        1258 44.15         6.9 0.52            122            203 291 
 NOR  HZ EP       1258 16.83                             117   -0.15 8  236 234 
 NOR  HN ES       1258 44.65                             117   -0.07 8  236 234 
 NOR  HZ I        1258 49.54         4.2 0.20            119            236 234 
 SML  HZ EP       1258 17.16                             116   -0.25 8  241 335 
 SML  HN ES       1258 45.03                             116   -0.46 8  241 335 
 SML  HZ I        1258 48.93         8.7 0.10            119            241 335 
                                                                                
