 2013  131 1950 45.8 L   6.774 -73.128145.1  RSN  6 0.4 2.0LRSN                1
 GAP=140        0.91       4.8     5.4  6.6 -0.3084E+01  0.5107E+01  0.3716E+01E
 Epicentro: LOS SANTOS - SANTANDER                                             3
 ACTION:UPD 13-02-15 09:18 OP:ep   STATUS:               ID:20130131195045 L   I
 2013-01-31-1948-41M.COL___186                                                 6
 STAT SP IPHASW D HRMM SECON CODA AMPLIT PERI AZIMU VELO AIN AR TRES W  DIS CAZ7
 BAR2 SZ ES       1951 20.80                             171    0.2410 21.0 197 
 BAR2 SZ I        1951 22.00        29.3 0.18            157           21.0 197 
 BRR  HZ EP       1951  7.19                             151    0.0910 74.3 300 
 BRR  HN ES       1951 24.18                             151    0.5010 74.3 300 
 PAM  SZ EP       1951  8.29                             150    0.2410 78.4  37 
 PAM  SZ I        1951  8.52         9.6 0.22            148           78.4  37 
 PAM  SN ES       1951 24.77                             150   -0.6010 78.4  37 
 RUS  HZ EP       1951  9.33                             145    0.0110 97.6 177 
 RUS  HN ES       1951 27.56                             145   -0.0710 97.6 177 
 PTB  HN ES   1   1951 33.22                             131   -0.76 7  149 260 
 NOR  HZ EP       1951 21.45                             118   -0.08 8  235 235 
 NOR  HN I        1951 52.71         9.2 0.20            107            235 235 
                                                                                
