 2014  331 1311 48.6 L   6.821 -73.186144.4  RSN  8 0.2 1.9LRSN                1
 GAP=146        0.49       2.3     2.5  3.3 -0.2427E+01  0.2256E+01  0.7835E+00E
 Epicentro: ZAPATOCA - SANTANDER                                               3
 ACTION:UPD 14-04-09 23:22 OP:nd   STATUS:               ID:20140331131148 L   I
 OLDACT:UP  14-03-31 22:58 OP:cam  STATUS:               ID:20140331130817     3
 OLDACT:REG 14-03-31 16:13 OP:cam  STATUS:               ID:20140331130817     3
 2014-03-31-1308-17M.COL___249                                                 6
 STAT SP IPHASW D HRMM SECON CODA AMPLIT PERI AZIMU VELO AIN AR TRES W  DIS CAZ7
 BAR2 SZ EP       1312  7.95                             170   -0.1210 25.3 179 
 BAR2 SZ ES       1312 23.00                             170   -0.2910 25.3 179 
 BAR2 SZ I        1312 25.85        22.0 0.38            168           25.3 179 
 PAM  SZ EP       1312 10.80                             150    0.0910 78.6  43 
 PAM  SN ES       1312 28.12                             150    0.1410 78.6  43 
 PAM  SZ I        1312 30.03        12.7 0.18            155           78.6  43 
 RUS  HZ EP       1312 12.34                             143   -0.0410  103 174 
 RUS  HN ES       1312 31.07                             143    0.1110  103 174 
 RUS  HZ I        1312 33.29         8.8 0.38            144            103 174 
 PTB  HZ EP       1312 14.87                             132   -0.19 9  144 258 
 PTB  HN ES       1312 35.77                             132    0.04 9  144 258 
 PTB  HZ I        1312 38.19        10.1 0.14            134            144 258 
 SPBC HZ EP   1   1312 16.96                             129    0.09 7  162 217 
 SPBC HN ES       1312 39.37                             129    0.43 9  162 217 
 SPBC HZ I        1312 44.18        18.4 0.26            130            162 217 
 NOR  HZ EP       1312 24.17                             118    0.20 8  232 233 
 NOR  HE ES       1312 51.40                             118   -0.18 8  232 233 
 NOR  HZ I        1312 55.38         6.9 0.44            120            232 233 
 CHI  HZ EP       1312 26.19                             117   -0.12 8  250 194 
 CHI  HN ES       1312 55.59                             117   -0.16 8  250 194 
 CHI  HZ I        1312 59.35         3.3 0.34            119            250 194 
 GUY2CHZ EP   4   1312 33.35                             112    1.50 0  299 234 
 GUY2CHE ES   4   1313  7.19                             112    1.58 0  299 234 
 GUY2CHZ I        1313 14.60         6.3 0.80                           299 234 
                                                                                
