 2014  731 1634 11.5 L   6.777 -73.177147.0  RSN  5 0.3 1.5LRSN                1
 GAP=232        0.81       6.4     6.3  6.0  0.2594E+02  0.6868E+01 -0.1695E+01E
 Epicentro: LOS SANTOS - SANTANDER                                             3
 ACTION:UPD 15-03-16 20:48 OP:nd   STATUS:               ID:20140731163411 L   I
 OLDACT:REG 14-07-31 21:24 OP:carl STATUS:               ID:20140731162817     3
 2014-07-31-1628-17M.COL___254                                                 6
 STAT SP IPHASW D HRMM SECON CODA AMPLIT PERI AZIMU VELO AIN AR TRES W  DIS CAZ7
 BAR2 SZ ES       1634 46.53                             172   -0.1210 20.5 182 
 BRR  HZ EP       1634 32.48                             153   -0.2510 69.5 302 
 BRR  HN ES       1634 49.18                             153   -0.0810 69.5 302 
 RUS  HZ EP       1634 35.48                             145    0.2210 98.4 174 
 RUS  HN ES       1634 54.02                             145    0.2610 98.4 174 
 RUS  HZ I        1634 54.70         2.5 0.24            144           98.4 174 
 PTB  HZ EP       1634 37.87                             133   -0.40 9  144 260 
 PTB  HN ES       1634 58.81                             133   -0.30 9  144 260 
 PTB  HZ I        1635  2.49         6.7 0.10            130            144 260 
 ZAR  HZ EP       1634 43.91                             123    0.07 9  202 293 
 ZAR  HN ES       1635  9.76                             123    0.72 9  202 293 
 ZAR  HZ I        1635 15.19         4.7 0.30            122            202 293 
                                                                                
