 2013 1031 1050 25.2 L   6.812 -73.152144.6  RSN 10 0.5 2.1LRSN                1
 GAP=135        1.34       3.8     5.3  7.5 -0.3568E+01  0.1046E+02 -0.3106E+01E
 Epicentro: LOS SANTOS - SANTANDER                                             3
 ACTION:UPD 13-11-25 09:24 OP:ep   STATUS:               ID:20131031105025 L   I
 OLDACT:REG 13-10-31 16:14 OP:carl STATUS:               ID:20131031104837     3
 2013-10-31-1048-37M.COL___209                                                 6
 STAT SP IPHASW D HRMM SECON CODA AMPLIT PERI AZIMU VELO AIN AR TRES W  DIS CAZ7
 BAR2 SZ EP       1050 44.87                             170    0.1710 24.5 188 
 BAR2 SZ ES       1050 59.74                             170   -0.1810 24.5 188 
 BAR2 SZ I        1051  0.86        83.5 0.22            168           24.5 188 
 BRR  HZ EP       1050 46.76                             153    0.6210 70.0 298 
 BRR  HN ES       1051  3.46                             153    0.9810 70.0 298 
 BRR  HZ I        1051  4.76        25.0 0.12            148           70.0 298 
 PAM  SZ EP       1050 47.80                             151    0.5510 76.8  41 
 PAM  SN ES       1051  4.61                             151    0.1610 76.8  41 
 PAM  SZ I        1051  6.76        18.0 0.42            154           76.8  41 
 RUS  HZ EP       1050 48.89                             143   -0.0310  102 176 
 RUS  HN ES       1051  6.66                             143   -0.7810  102 176 
 RUS  HZ I        1051  8.09        10.3 0.22            146            102 176 
 PTB  HZ EP       1050 51.59                             132   -0.43 9  147 258 
 PTB  HN ES       1051 12.08                             132   -0.87 9  147 258 
 PTB  HZ I        1051 19.66        12.3 0.28            130            147 258 
 OCA  HZ EP       1050 53.21                             130   -0.07 9  159 353 
 OCA  HN ES       1051 14.80                             130   -0.39 9  159 353 
 OCA  HZ I        1051 18.76        14.6 0.20            130            159 353 
 SPBC HZ EP       1050 54.10                             129    0.45 9  164 219 
 SPBC HN ES       1051 15.60                             129   -0.25 9  164 219 
 SPBC HZ I        1051 23.31        10.7 0.18            129            164 219 
 ZAR  HZ EP   1   1050 57.57                             122    0.13 6  203 292 
 ZAR  HN ES       1051 23.13                             122    0.54 9  203 292 
 ZAR  HZ I        1051 31.45        13.4 0.28            121            203 292 
 NOR  HZ EP       1051  1.05                             118    0.18 8  235 234 
 NOR  HN ES       1051 29.16                             118    0.46 8  235 234 
 NOR  HZ I        1051 36.58         8.6 0.14            118            235 234 
 SML  HZ EP       1051  1.17                             117   -0.42 8  242 335 
 SML  HN ES       1051 28.82                             117   -1.16 8  242 335 
 SML  HZ I        1051 39.98        29.6 0.10            118            242 335 
 GUY2CHZ EP   4   1051 10.39                             112    1.63 0  301 234 
 GUY2CHN ES   4   1051 41.01                             112   -1.74 0  301 234 
 RREF HZ EP   4   1051 13.61                             111    2.29 0  322 229 
 RREF HN ES   4   1051 49.38                             111    2.08 0  322 229 
                                                                                
