 2017  531 1901  2.2 L   7.466 -73.206129.6  RSN  6 0.3 2.3LRSN                1
 GAP=265        0.82       9.1     6.5  7.0 -0.1134E+02 -0.1537E+02  0.1184E+02E
 Epicentro: EL PLAYON - SANTANDER                                              3
 ACTION:UPD 17-06-16 13:40 OP:jn   STATUS:               ID:20170531190102 L   I
 OLDACT:UP  17-06-01 00:55 OP:dani STATUS:               ID:20170531185745d    3
 OLDACT:DUP 17-06-01 00:51 OP:dani STATUS:               ID:20170531185745d    3
 OLDACT:UP  17-06-01 00:50 OP:dani STATUS:               ID:20170531185744     3
 OLDACT:UP  17-06-01 00:50 OP:dani STATUS:               ID:20170531185744     3
 OLDACT:UP  17-06-01 00:50 OP:dani STATUS:               ID:20170531185744     3
 OLDACT:REG 17-05-31 20:39 OP:dani STATUS:               ID:20170531185744     3
 2017-05-31-1858-00M.COL___353                                                 6
 STAT SP IPHASW D HRMM SECON CODA AMPLIT PERI AZIMU VELO AIN AR TRES W  DIS CAZ7
 BRR  HZ EP       19 1 21.88                             150    0.3910 68.5 235 
 BRR  HN ES       19 1 36.28                             150   -0.2410 68.5 235 
 BRR  HZ I        19 1 38.01        78.4 0.12            143           68.5 235 
 PTB  HZ EP       19 1 30.47                             123    0.14 9  172 234 
 PTB  HN ES       19 1 52.14                             123   -0.11 9  172 234 
 PTB  HZ I        19 1 53.69        25.7 0.22            119            172 234 
 RUS  HZ EP       19 1 30.98                             124   -0.23 9  175 176 
 ZAR  HZ EP   9   19 1 31.86                             121    0.48 0  182 271 
 ZAR  HN ES       19 1 55.37                             114    0.76 9  182 271 
 ZAR  HZ I        19 1 59.96        23.3 0.21            117            182 271 
 NOR  HZ EP       19 1 42.37                             111    0.26 7  279 221 
 NOR  HE ES       19 2 12.94                             111   -0.28 7  279 221 
 NOR  HZ I        19 2 21.26         9.7 0.26            108            279 221 
 DBB  EZ EP       19 1 48.75                             106    0.13 7  335 262 
 DBB  EN ES   3   19 2 23.18                             106   -1.63 2  335 262 
 DBB  EZ I        19 2 26.89         8.2 0.17            104            335 262 
                                                                                
