 2013  531 1150  2.6 L   6.824 -73.178140.6  RSN  9 0.3 2.4LRSN                1
 GAP= 69        0.74       3.3     3.2  4.4 -0.3443E+01  0.2091E+01 -0.6320E+00E
 Epicentro: LOS SANTOS - SANTANDER                                             3
 ACTION:UPD 13-06-20 09:55 OP:ep   STATUS:               ID:20130531115002 L   I
 OLDACT:UP  13-05-31 22:30 OP:Juan STATUS:               ID:20130531115002 L   3
 2013-05-31-1148-51M.COL___214                                                 6
 STAT SP IPHASW D HRMM SECON CODA AMPLIT PERI AZIMU VELO AIN AR TRES W  DIS CAZ7
 BAR2 SZ EP       1150 21.63                             169    0.0010 25.7 181 
 BAR2 SZ I        1150 21.96        20.6 0.34            170           25.7 181 
 BAR2 SZ ES       1150 36.32                             169   -0.1810 25.7 181 
 GIR2 SZ EP       1150 21.58                             168    0.0410 28.2 356 
 GIR2 SZ ES       1150 36.01                             168   -0.3310 28.2 356 
 BRR  HZ EP       1150 23.44                             153    0.5310 66.8 298 
 BRR  HN ES   4   1150 40.11                             153    1.33 0 66.8 298 
 BRR  HE I        1150 40.84       139.2 0.32            152           66.8 298 
 PAM  SZ IP     D 1150 24.60                             150    0.3510 77.7  43 
 PAM  SE ES       1150 41.47                             150    0.3010 77.7  43 
 PAM  SN I        1150 42.67        54.8 0.38            152           77.7  43 
 RUS  HZ EP       1150 25.84                             142   -0.2010  104 174 
 RUS  HN ES       1150 44.40                             142    0.0610  104 174 
 RUS  HE I        1150 46.49        21.2 0.54            145            104 174 
 PTB  HZ EP       1150 28.54                             131   -0.31 9  145 258 
 PTB  HN ES       1150 49.39                             131    0.04 9  145 258 
 PTB  HE I        1150 54.98        18.2 0.34            132            145 258 
 OCA  HZ EP       1150 29.72                             129   -0.47 9  157 354 
 OCA  HN ES   4   1150 50.53                             129   -1.20 0  157 354 
 OCA  HE I        1150 54.73        66.7 0.20            130            157 354 
 TAM  HZ IP     C 1150 30.13                             128   -0.10 9  159 106 
 ZAR  HZ EP   4   1150 36.08                             122    1.85 0  200 292 
 NOR  HE ES       1151  5.62                             117    0.22 8  233 233 
                                                                                
