 2012  131 1619 28.6 L   6.775 -73.150145.7  RSN  9 0.3 2.4LRSN                1
 GAP=137        0.72       2.8     3.9  5.7  0.5274E+00  0.4904E+01  0.1496E+01E
 Epicentro: LOS SANTOS - SANTANDER                                             3
 ACTION:UP  12-02-03 08:22 OP:REBC STATUS:               ID:20120131161928 L   I
 2012-01-31-1614-37S.COL___159                                                 6
 STAT SP IPHASW D HRMM SECON CODA AMPLIT PERI AZIMU VELO SNR AR TRES W  DIS CAZ7
 BAR2 SZ EP       1619 48.24                             172     0.010   21 190 
 BAR2 SZ ES   1   1620  3.09                             172    -0.4 7   21 190 
 BAR2 SZ I        1620  5.03        72.6 0.24                            21 190 
 GIR2 SZ EP       1619 48.34                             166     0.010   34 352 
 BRR  HZ EP       1619 50.12                             152     0.310   72 301 
 BRR  HZ I        1619 50.39        52.0 0.16                            72 301 
 BRR  HE ES   1   1620  7.10                             152     0.7 7   72 301 
 PAM  SZ EP   1   1619 51.09                             150     0.1 7   80  39 
 PAM  SN ES   1   1620  8.33                             150    -0.1 7   80  39 
 RUS  HZ EP       1619 52.05                             145    -0.110   98 176 
 RUS  HN ES   1   1620 10.36                             145    -0.2 7   98 176 
 OCA  SZ EP   1   1619 57.19                             129     0.0 7  163 353 
 OCA  SZ ES   1   1620 19.46                             129     0.0 7  163 353 
 OCA  SZ I        1620 23.95        20.7 0.17                           163 353 
 ZAR  HZ EP   1   1620  0.92                             122    -0.2 6  205 293 
 ZAR  HN ES       1620 25.92                             122    -0.6 9  205 293 
 ZAR  HZ I        1620 33.24        19.9 0.36                           205 293 
 NOR  SE ES   1   1620 32.09                             119     0.3 6  233 235 
 CHI  HZ EP   1   1620  6.13                             117     0.1 6  246 195 
 CHI  HE ES   1   1620 35.30                             117     0.1 6  246 195 
 CHI  HZ I        1620 39.16        11.2 0.57                           246 195 
                                                                                
