 2013  831 1405  8.4 L   6.081 -73.959 91.4  RSN  6 0.5 1.5LRSN                1
 GAP= 93        1.25       4.4     3.9  9.2 -0.4463E+01  0.3553E+01 -0.1675E+01E
 Epicentro: EL PEON - SANTANDER                                                3
 ACTION:UPD 14-01-14 09:08 OP:ep   STATUS:               ID:20130831140508 L   I
 OLDACT:REG 13-08-31 15:35 OP:nd   STATUS:               ID:20130831135959     3
 2013-08-31-1359-59M.COL___269                                                 6
 STAT SP IPHASW D HRMM SECON CODA AMPLIT PERI AZIMU VELO AIN AR TRES W  DIS CAZ7
 SPBC HZ EP       14 5 22.27                             150   -0.3110 49.0 195 
 SPBC HN ES       14 5 33.97                             150    0.3510 49.0 195 
 SPBC HZ I        14 5 35.13        19.8 0.20            170           49.0 195 
 PTB  HZ EP     D 14 5 23.69                             138   -0.6910 74.8 313 
 PTB  HN ES       14 5 36.16                             138   -0.6610 74.8 313 
 PTB  HZ I        14 5 37.79         7.8 0.07            132           74.8 313 
 RUS  HZ EP       14 5 26.89                             129   -0.3210 99.2 102 
 RUS  HN ES       14 5 41.58                             129   -0.2710 99.2 102 
 RUS  HZ I        14 5 44.00         3.9 0.26            134           99.2 102 
 BAR2 SZ EP       14 5 27.16                             128   -0.0610  103  57 
 BAR2 SZ ES       14 5 42.24                             128    0.3510  103  57 
 BAR2 SZ I        14 5 43.79        15.3 0.48            126            103  57 
 BRR  HZ EP       14 5 28.25                             124   -0.0510  117  14 
 BRR  HN ES       14 5 44.69                             124    0.9010  117  14 
 BRR  HZ I        14 6 18.46        10.5 0.28            120            117  14 
 GUY2CHZ EP       14 5 36.50                             112    0.42 9  182 239 
 GUY2CHN ES       14 5 58.24                             112    0.60 9  182 239 
 GUY2CHZ I        14 6  3.60         2.9 0.30                           182 239 
                                                                                
