 2014  131 1545 40.4 L   6.743 -73.155143.0  RSN  5 0.4 1.8LRSN                1
 GAP=138        0.94       4.9     4.8  6.9 -0.2121E+01  0.4169E+01  0.1130E+01E
 Epicentro: JORDAN - SANTANDER                                                 3
 ACTION:UPD 14-03-13 10:00 OP:ep   STATUS:               ID:20140131154540 L   I
 OLDACT:REG 14-01-31 15:54 OP:stll STATUS:               ID:20140131153814     3
 2014-01-31-1538-14M.COL___239                                                 6
 STAT SP IPHASW D HRMM SECON CODA AMPLIT PERI AZIMU VELO AIN AR TRES W  DIS CAZ7
 BAR2 SZ EP       1545 59.71                             173    0.1610 17.0 190 
 BAR2 SZ ES       1546 14.55                             173    0.0410 17.0 190 
 BAR2 SZ I        1546 16.19        56.9 0.46            171           17.0 190 
 BRR  HZ EP       1546  1.68                             151    0.3310 73.5 303 
 BRR  HN ES       1546 18.31                             151    0.5910 73.5 303 
 PAM  SZ EP       1546  2.63                             148    0.0010 83.0  37 
 PAM  SZ I        1546  2.78         8.4 0.24            151           83.0  37 
 PAM  SN ES       1546 19.46                             148   -0.5410 83.0  37 
 RUS  HZ EP       1546  3.66                             145    0.2610 94.4 175 
 RUS  HN ES       1546 21.28                             145   -0.0910 94.4 175 
 RUS  HZ I        1546 23.05         3.3 0.24            145           94.4 175 
 PTB  HZ EP       1546  6.56                             132   -0.35 9  146 261 
 PTB  HN ES       1546 27.09                             132   -0.53 9  146 261 
 PTB  HZ I        1546 30.65         6.0 0.18            132            146 261 
                                                                                
