 2017  831 1042 12.4 L   6.849 -73.060149.3  RSN  7 0.6 1.6LRSN                1
 GAP=105        1.23       6.4     5.6  8.6  0.2827E+01  0.9519E+01  0.2515E+00E
 Epicentro: LOS SANTOS - SANTANDER                                             3
 ACTION:UPD 17-09-04 20:26 OP:rebc STATUS:               ID:20170831104212 L   I
 OLDACT:UP  17-08-31 21:19 OP:dani STATUS:               ID:20170831103531     3
 OLDACT:UP  17-08-31 21:19 OP:dani STATUS:               ID:20170831103531     3
 OLDACT:REG 17-08-31 19:49 OP:dani STATUS:               ID:20170831103531     3
 2017-08-31-1038-00M.COL___392                                                 6
 STAT SP IPHASW D HRMM SECON CODA AMPLIT PERI AZIMU VELO AIN AR TRES W  DIS CAZ7
 BAR2 EZ EP       1042 33.09                             168    0.4210 31.5 205 
 BAR2 EZ ES       1042 48.32                             168   -0.1410 31.5 205 
 PAM  HZ EP   3   1042 35.93                             155    1.47 2 67.2  36 
 PAM  EE ES       1042 51.41                             155   -0.2310 67.2  36 
 PAM  HZ I        1042 54.41         3.9 0.21            156           67.2  36 
 BRR  HZ EP       1042 34.03                             151   -0.2910 77.5 292 
 BRR  HN ES       1042 51.64                             151    0.2510 77.5 292 
 BRR  HZ I        1042 58.83        17.6 0.39            151           77.5 292 
 RUS  HN ES       1042 56.51                             143    0.5110  106 181 
 TAM  HZ EP       1042 39.06                             133   -0.64 9  148 108 
 ZAR  HZ EP       1042 46.79                             122    0.97 8  211 290 
 ZAR  HE ES       1043 11.56                             122   -0.30 8  211 290 
 ZAR  HZ I        1043 14.58         1.9 0.08            124            211 290 
 NOR  HE ES       1043 17.62                             118   -0.85 8  246 235 
                                                                                
