 2017  831 1024 28.1 L   6.745 -73.174155.7  RSN  5 0.4 1.3LRSN                1
 GAP=135        1.12       9.5     8.5  9.8  0.4492E+02 -0.8672E+01 -0.4069E+02E
 Epicentro: LOS SANTOS - SANTANDER                                             3
 ACTION:UPD 17-09-04 20:26 OP:rebc STATUS:               ID:20170831102428 L   I
 OLDACT:DUP 17-08-31 21:02 OP:dani STATUS:               ID:20170831101726d    3
 OLDACT:UP  17-08-31 21:02 OP:dani STATUS:               ID:20170831101725     3
 OLDACT:REG 17-08-31 19:48 OP:dani STATUS:               ID:20170831101725     3
 2017-08-31-1018-00M.COL___392                                                 6
 STAT SP IPHASW D HRMM SECON CODA AMPLIT PERI AZIMU VELO AIN AR TRES W  DIS CAZ7
 BAR2 EZ EP       1024 48.87                             173    0.0510 16.9 183 
 BAR2 EZ ES       1025  4.17                             173   -0.8110 16.9 183 
 BAR2 EZ I        1025  5.24         4.7 0.23            170           16.9 183 
 BRR  HZ EP       1024 50.68                             154    0.3310 71.7 304 
 BRR  HN ES       1025  8.09                             154    0.3710 71.7 304 
 BRR  HZ I        1025 10.96         3.7 0.31            148           71.7 304 
 PAM  EZ EP       1024 51.91                             150    0.1410 84.1  39 
 RUS  HN ES       1025 11.78                             147    0.3410 94.8 174 
 ZAR  HZ EP       1025  0.44                             124   -0.72 9  204 294 
 ZAR  HE ES       1025 27.08                             124    0.13 9  204 294 
 ZAR  HZ I        1025 35.97         1.3 0.27            122            204 294 
                                                                                
