 2016  531 1312 52.0 L   6.647 -73.642104.6  RSN  4 0.3 1.7LRSN                1
 GAP=119        0.74       4.5     3.5  6.8  0.6205E+01  0.5297E+01  0.1054E+02E
 Epicentro: EL CARMEN - SANTANDER                                              3
 ACTION:UPD 16-08-18 17:51 OP:cam  STATUS:               ID:20160531131252 L   I
 OLDACT:REG 16-05-31 20:29 OP:ar   STATUS:               ID:20160531130744     3
 2016-05-31-1307-44M.COL___313                                                 6
 STAT SP IPHASW D HRMM SECON CODA AMPLIT PERI AZIMU VELO AIN AR TRES W  DIS CAZ7
 BAR2 EZ EP       1313  8.37                             152    0.4210 51.2  97 
 BAR2 EZ ES       1313 19.98                             152   -0.3910 51.2  97 
 BAR2 EZ I        1313 21.42        27.4 0.18            155           51.2  97 
 BRR  HZ EP       1313  7.24                             152   -0.3810 51.4 351 
 BRR  HN ES       1313 20.09                             152    0.3210 51.4 351 
 BRR  HZ I        1313 27.56        11.3 0.28            151           51.4 351 
 PTB  HZ IP     D 1313 10.44                             136   -0.0710 90.8 262 
 PTB  HN ES       1313 24.92                             136   -0.0110 90.8 262 
 RUS  HZ EP       1313 12.30                             132   -0.0110  104 143 
 RUS  HN ES       1313 28.24                             132    0.1110  104 143 
 RUS  HZ I        1313 29.53        11.1 0.44            139            104 143 
                                                                                
