 2010  331 1957 14.0 L   6.784 -73.063141.4  RSN  4 0.2 2.1LRSN                1
 GAP=191        0.48       4.1    11.9  7.4  0.2919E+02 -0.4262E+02 -0.1254E+02E
 Epicentro: LOS SANTOS - SANTANDER                                             3
 ACTION:UP  10-08-24 09:57 OP:vdl  STATUS:               ID:20100331195714 L   I
 2010-03-31-1954-11S.COL___098                                                 6
 STAT SP IPHASW D HRMM SECON CODA AMPLIT PERI AZIMU VELO SNR AR TRES W  DIS CAZ7
 BAR2 SZ EP   1   1957 33.04                             169    -0.1 7   25 212 
 BAR2 SZ ES   2   1957 47.65                             169    -0.4 5   25 212 
 BRR  HZ EP   1   1957 35.10                             148    -0.1 7   80 297 
 BRR  HZ I        1957 35.48        23.7 0.09                            80 297 
 BRR  HE ES   2   1957 51.97                             148     0.2 5   80 297 
 RUS  HZ EP       1957 37.32                             143     0.210   99 181 
 RUS  HN ES   2   1957 55.29                             143     0.1 5   99 181 
 OCA  SZ EP   1   1957 42.04                             128    -0.2 7  163 350 
 OCA  SZ ES   2   1958  4.78                             128     0.5 5  163 350 
 OCA  SZ I        1958  8.40        16.6 0.25                           163 350 
                                                                                
