 2017  131 1107 33.8 L   6.793 -73.153146.0  RSN  9 0.4 1.8LRSN                1
 GAP=100        0.93       3.7     3.6  5.4  0.1281E+01  0.1933E+01  0.3081E+01E
 Epicentro: LOS SANTOS - SANTANDER                                             3
 ACTION:UPD 17-05-22 16:05 OP:jn   STATUS:               ID:20170131110733 L   I
 OLDACT:REG 17-01-31 21:04 OP:ar   STATUS:               ID:20170131105741     3
 2017-01-31-1058-00M.COL___340                                                 6
 STAT SP IPHASW D HRMM SECON CODA AMPLIT PERI AZIMU VELO AIN AR TRES W  DIS CAZ7
 BAR2 EZ IP     C 11 7 53.33                             171   -0.1410 22.4 188 
 BAR2 EZ ES       11 8  8.36                             171   -0.4310 22.4 188 
 BAR2 EZ I        11 8 10.84        21.2 0.27            170           22.4 188 
 BRR  HZ EP       11 7 55.10                             153    0.1210 70.9 299 
 BRR  HN ES       11 8 12.22                             153    0.7410 70.9 299 
 BRR  HZ I        11 8 21.48        11.8 0.44            149           70.9 299 
 PAM  EZ EP       11 7 56.17                             150    0.0410 78.5  40 
 PAM  EN ES       11 8 13.28                             150   -0.2510 78.5  40 
 PAM  EZ I        11 8 15.21        19.9 0.48            154           78.5  40 
 RUS  HZ EP       11 7 57.66                             144    0.1110 99.9 176 
 RUS  HN ES       11 8 16.22                             144    0.1710 99.9 176 
 RUS  HZ I        11 8 17.50        11.3 0.42            148           99.9 176 
 PTB  HZ EP       11 8  0.64                             132   -0.09 9  147 259 
 PTB  HN ES       11 8 21.03                             132   -0.68 9  147 259 
 PTB  HZ I        11 8 26.42         7.3 0.14            132            147 259 
 TAM  HZ IP     C 11 8  1.67                             130    0.09 9  156 105 
 ZAR  HZ EP   4   11 8  7.92                             122    1.68 0  204 292 
 ZAR  HN ES       11 8 31.96                             122    0.44 9  204 292 
 ZAR  HZ I        11 8 39.31         5.0 0.12            123            204 292 
 CHI  HZ EP       11 8 11.74                             117    0.31 8  248 195 
 CHI  HN ES       11 8 40.88                             117    0.11 8  248 195 
 CHI  HZ I        11 8 44.74         2.3 0.34            120            248 195 
 URE  HZ EP       11 8 14.21                             114   -0.65 7  283 292 
 URE  HE ES   4   11 8 44.91                             114   -1.95 0  283 292 
 URE  HZ I        11 8 54.43         3.5 0.30            114            283 292 
                                                                                
