 2011  831 1045 25.0 L   6.779 -73.129149.1  RSN 20 0.4 3.3LRSN                1
 GAP= 67        0.80       3.0     4.2  4.3  0.6740E+00  0.5083E+01  0.3057E+01E
 Epicentro: LOS SANTOS - SANTANDER                                             3
 ACTION:UPD 12-07-13 15:54 OP:ep   STATUS:               ID:20110831104525 L   I
 2011-08-31-1043-51S.COL___164                                                 6
 STAT SP IPHASW D HRMM SECON CODA AMPLIT PERI AZIMU VELO AIN AR TRES W  DIS CAZ7
 SAN  SZ EP       1045 45.27                             177    0.5310 6.33 105 
 SAN  SZ ES   1   1046  0.38                             177    0.22 7 6.33 105 
 BAR2 SZ IP       1045 44.79                             172   -0.1910 21.5 196 
 BAR2 SZ ES   1   1045 59.91                             172   -0.66 7 21.5 196 
 BAR2 SZ I        1046  1.57       630.1 0.21                          21.5 196 
 GIR2 SZ EP       1045 44.96                             166   -0.1610 33.9 348 
 GIR2 SZ ES   1   1046  1.20                             166    0.37 7 33.9 348 
 BRR  HZ IP     C 1045 46.66                             152    0.0210 73.9 299 
 BRR  HN ES   1   1046  4.00                             152    0.46 7 73.9 299 
 BRR  HZ I        1046  5.81       323.9 0.13                          73.9 299 
 PAM  SZ EP       1045 47.79                             151    0.2010 78.0  37 
 RUS  HZ EP   1   1045 48.65                             145   -0.24 7 98.2 177 
 RUS  HN ES   1   1046  6.99                             145   -0.55 7 98.2 177 
 RUS  HZ I        1046  8.76       153.2 0.28                          98.2 177 
 OCA  SZ EP   1   1045 53.80                             130    0.02 7  163 353 
 OCA  SZ ES   1   1046 16.23                             130   -0.02 7  163 353 
 OCA  SZ I        1046 20.20       172.4 0.38                           163 353 
 YOP  SZ EP   1   1045 55.07                             127    0.08 7  176 154 
 YOP  SE ES   2   1046 18.45                             127    0.06 4  176 154 
 ZAR  HZ EP   1   1045 57.12                             123   -0.79 6  207 293 
 ZAR  HN ES   1   1046 23.07                             123   -0.52 6  207 293 
 ZAR  HZ I        1046 29.09       178.4 0.44                           207 293 
 NOR  SZ EP   1   1046  0.72                             119   -0.21 6  235 235 
 NOR  SE ES   1   1046 28.75                             119   -0.21 6  235 235 
 CHI  HZ EP   1   1046  2.85                             118    0.17 6  247 196 
 CHI  HZ I        1046 40.46        91.6 0.44                           247 196 
 ROSC BZ EP   1   1046  4.13                             117    0.95 6  252 212 
 ROSC BZ I        1046 39.77       211.9 0.35                           252 212 
 HEL  HZ EP   1   1046  5.95                             115    0.45 6  273 256 
 HEL  HZ I        1046 44.34       104.7 0.28                           273 256 
 VIL  SZ EP   1   1046  7.94                             113   -0.40 5  302 192 
 VIL  SZ I        1046 52.39        52.3 0.51                           302 192 
 RREF HZ EP   1   1046 11.98                             111    0.72 5  322 230 
 DBB  SZ EP   1   1046 12.80                             110   -0.03 5  342 275 
 TOL  SZ EP   1   1046 13.77                             110    0.43 5  343 225 
 COD  HZ EP   1   1046 13.39                             109   -0.38 5  351 354 
 COD  HZ I        1046 59.48        82.9 0.48                           351 354 
 PRA  HZ EP   1   1046 17.94                             107   -0.55 4  391 210 
 PRA  HN ES   1   1047  1.01                             107    0.78 4  391 210 
 SJA  SZ EP   1   1046 18.37                             107   -1.07 4  398 193 
 SJA  SZ I        1047  7.97       133.0 0.41                           398 193 
                                                                                
