 2016  831 1819 25.4 L   6.910 -73.222126.8  RSN  4 0.3 1.3LRSN                1
 GAP=242        0.68       6.6     4.8  6.7  0.2151E+02  0.3946E+01 -0.7170E+01E
 Epicentro: BETULIA - SANTANDER                                                3
 ACTION:UPD 16-10-29 15:41 OP:rebc STATUS:               ID:20160831181925 L   I
 OLDACT:DUP 16-09-01 00:11 OP:dani STATUS:               ID:20160831180737d    3
 OLDACT:UP  16-09-01 00:07 OP:dani STATUS:               ID:20160831180735     3
 OLDACT:UP  16-09-01 00:03 OP:dani STATUS:               ID:20160831180735     3
 OLDACT:REG 16-08-31 20:33 OP:edw  STATUS:               ID:20160831180735     3
 2016-08-31-1808-00M.COL___352                                                 6
 STAT SP IPHASW D HRMM SECON CODA AMPLIT PERI AZIMU VELO AIN AR TRES W  DIS CAZ7
 BAR2 EZ EP       1819 43.46                             164    0.3710 35.4 173 
 BAR2 EZ ES       1819 56.68                             164   -0.2210 35.4 173 
 RUS  HZ EP       1819 48.43                             136    0.0410  114 172 
 RUS  HE ES       1820  6.32                             136   -0.0110  114 172 
 RUS  HZ I        1820 14.41         2.0 0.22                           114 172 
 PTB  HZ EP       1819 49.92                             128   -0.45 9  142 253 
 PTB  HE ES       1820 10.10                             128    0.24 9  142 253 
 PTB  HZ I        1820 10.20         3.1 0.18                           142 253 
 ZAR  HE ES       1820 18.76                             120    0.01 9  192 290 
 ZAR  HZ I        1820 21.82         3.4 0.29                           192 290 
                                                                                
