 2015  131 1233 25.4 L   6.798 -73.137147.1  RSN  6 0.2 1.6LRSN                1
 GAP=140        0.54       3.6     3.3  5.2 -0.6790E+01  0.5600E+01 -0.1190E+01E
 Epicentro: LOS SANTOS - SANTANDER                                             3
 ACTION:UPD 15-03-02 15:44 OP:nd   STATUS:               ID:20150131123325 L   I
 OLDACT:REG 15-01-31 21:31 OP:spq  STATUS:               ID:20150131122750     3
 2015-01-31-1227-50M.COL___268                                                 6
 STAT SP IPHASW D HRMM SECON CODA AMPLIT PERI AZIMU VELO AIN AR TRES W  DIS CAZ7
 BAR2 EZ EP   1   1233 45.20                             171    0.02 7 23.3 193 
 BAR2 EZ ES   1   1234  0.58                             171   -0.03 7 23.3 193 
 BAR2 EZ I        1234  2.12         9.6 0.32            169           23.3 193 
 PAM  SZ EP       1233 48.00                             151    0.2810 76.9  39 
 PAM  SN ES       1234  5.03                             151   -0.1010 76.9  39 
 PAM  SZ I        1234  7.30         7.6 0.56            154           76.9  39 
 RUS  HZ EP   1   1233 49.32                             144    0.07 7  100 177 
 RUS  HN ES   1   1234  7.63                             144   -0.23 7  100 177 
 RUS  HZ I        1234  9.10         2.8 0.30            145            100 177 
 PTB  HZ EP       1233 52.18                             132   -0.37 9  149 259 
 PTB  HN ES       1234 13.86                             132    0.13 9  149 259 
 PTB  HZ I        1234 15.68         7.2 0.30            133            149 259 
 SPBC HE ES   1   1234 16.79                             129    0.41 7  164 219 
 SPBC HZ I        1234 20.74         4.7 0.19            130            164 219 
 NOR  HE ES       1234 29.16                             119   -0.10 8  235 235 
 NOR  HZ I        1234 33.84         3.0 0.18            120            235 235 
                                                                                
