 2014  131 1805 40.9 L   6.755 -73.186136.2  RSN  7 0.5 1.8LRSN                1
 GAP=133        1.15       5.4     5.0  7.3 -0.8131E+01  0.1090E+02  0.7046E+01E
 Epicentro: VILLANUEVA - SANTANDER                                             3
 ACTION:UPD 14-03-13 10:00 OP:ep   STATUS:               ID:20140131180540 L   I
 OLDACT:DUP 14-01-31 20:18 OP:stll STATUS:               ID:20140131175815d    3
 2014-01-31-1758-13M.COL___243                                                 6
 STAT SP IPHASW D HRMM SECON CODA AMPLIT PERI AZIMU VELO AIN AR TRES W  DIS CAZ7
 BAR2 SZ EP       18 5 59.64                             172    0.3610 18.0 179 
 BAR2 SZ ES       18 6 13.22                             172   -0.4010 18.0 179 
 BAR2 SZ I        18 6 15.98        26.9 0.20            171           18.0 179 
 BRR  HZ EP       18 6  1.36                             151    0.4110 69.9 304 
 BRR  HN ES       18 6 17.09                             151    0.5110 69.9 304 
 PAM  SZ EP       18 6  2.60                             147    0.0510 84.1  40 
 PAM  SN ES       18 6 19.26                             147   -0.1610 84.1  40 
 PAM  SZ I        18 6 20.05         8.3 0.20            151           84.1  40 
 RUS  HZ EP       18 6  3.64                             143    0.2510 96.1 173 
 RUS  HZ I        18 6  4.26         6.7 0.32            145           96.1 173 
 RUS  HN ES       18 6 20.87                             143   -0.0610 96.1 173 
 PTB  HZ EP       18 6  5.37                             131   -1.24 9  142 260 
 PTB  HN ES       18 6 26.32                             131   -0.34 9  142 260 
 PTB  HZ I        18 6 33.29         8.0 0.16            131            142 260 
 NOR  HZ EP       18 6 15.60                             117    0.21 8  228 235 
 NOR  HE ES       18 6 42.52                             117    0.24 8  228 235 
 NOR  HZ I        18 6 48.67         6.0 0.18            118            228 235 
 GUY2CHZ EP       18 6 23.06                             111   -0.28 7  295 235 
 GUY2CHN ES       18 6 56.99                             111    0.55 7  295 235 
 GUY2CHZ I        18 7 10.07         3.0 0.56                           295 235 
                                                                                
