 2015  831 1012 26.1 L   6.800 -73.151144.7  RSN 13 0.4 2.0LRSN                1
 GAP=182        0.98       2.5     4.1  5.3 -0.5620E+00  0.6513E+01  0.3281E+00E
 Epicentro: LOS SANTOS - SANTANDER                                             3
 ACTION:UPD 15-09-15 23:06 OP:cam  STATUS:               ID:20150831101226 L   I
 OLDACT:REG 15-08-31 21:06 OP:ak   STATUS:               ID:20150831100748     3
 2015-08-31-1007-48M.COL___355                                                 6
 STAT SP IPHASW D HRMM SECON CODA AMPLIT PERI AZIMU VELO AIN AR TRES W  DIS CAZ7
 BAR2 EZ EP       1012 45.82                             170    0.2410 23.3 189 
 BAR2 EZ ES       1013  0.92                             170    0.1310 23.3 189 
 BAR2 EZ I        1013  1.91        14.1 0.16            168           23.3 189 
 BRR  HZ EP       1012 47.75                             152    0.6610 70.7 299 
 BRR  HN ES       1013  3.96                             152    0.4910 70.7 299 
 BRR  HZ I        1013  5.88        15.4 0.16            149           70.7 299 
 RUS  HZ EP       1012 49.87                             144    0.1410  101 176 
 RUS  HN ES       1013  7.32                             144   -0.8610  101 176 
 RUS  HZ I        1013  9.44         7.1 0.34            144            101 176 
 OCA  HZ EP       1012 54.47                             129    0.17 9  160 353 
 OCA  HN ES       1013 15.80                             129   -0.51 9  160 353 
 OCA  HZ I        1013 19.31        21.1 0.26            130            160 353 
 SPBC HZ EP       1012 54.81                             129    0.34 9  163 219 
 SPBC HN ES       1013 16.66                             129    0.05 9  163 219 
 SPBC HZ I        1013 20.40        12.0 0.18            128            163 219 
 ZAR  HZ EP   2   1012 58.90                             122    0.50 4  204 292 
 ZAR  HN ES       1013 24.08                             122    0.47 9  204 292 
 ZAR  HZ I        1013 30.61        18.6 0.34            121            204 292 
 NOR  HZ EP   1   1013  2.17                             118    0.47 6  234 234 
 NOR  HN ES       1013 29.51                             118    0.02 8  234 234 
 NOR  HZ I        1013 37.68         8.2 0.14            118            234 234 
 SML  HZ EP       1013  2.10                             117   -0.52 8  243 335 
 SML  HN ES       1013 30.49                             117   -0.63 8  243 335 
 SML  HZ I        1013 36.04         7.5 0.07            118            243 335 
 CHI  HZ EP       1013  3.45                             117   -0.26 8  249 195 
 CHI  HN ES       1013 33.15                             117    0.09 8  249 195 
 CHI  HZ I        1013 39.08         4.2 0.40            117            249 195 
 HEL  HZ EP   1   1013  6.54                             115    0.36 6  272 256 
 HEL  HN ES       1013 36.72                             115   -0.74 8  272 256 
 HEL  HZ I        1013 45.53         5.3 0.36            114            272 256 
 GUY2CHZ EP       1013  9.97                             112    0.38 7  301 235 
 GUY2CHN ES       1013 42.98                             112   -0.55 7  301 235 
 GUY2CHZ I        1013 52.49         6.4 0.30                           301 235 
 DBB  SZ EP   2   1013 13.78                             109    0.33 3  339 274 
 DBB  SZ ES       1013 50.22                             109   -0.18 7  339 274 
 TOL  SZ EP   1   1013 13.64                             109   -0.61 5  343 225 
 TOL  SE ES       1013 51.75                             109   -0.08 7  343 225 
 TOL  SZ I        1013 58.75         2.6 0.35            109            343 225 
                                                                                
