 2016 1231 1050 54.5 L   6.796 -73.146139.7  RSN 13 0.4 2.2LRSN                1
 GAP=100        1.06       3.6     3.1  5.4  0.7887E-01  0.3840E+01  0.3381E+01E
 Epicentro: LOS SANTOS - SANTANDER                                             3
 ACTION:UPD 17-01-11 20:21 OP:rebc STATUS:               ID:20161231105054 L   I
 OLDACT:REG 16-12-31 20:09 OP:lv   STATUS:               ID:20161231104741     3
 2016-12-31-1048-00M.COL___362                                                 6
 STAT SP IPHASW D HRMM SECON CODA AMPLIT PERI AZIMU VELO AIN AR TRES W  DIS CAZ7
 BAR2 EZ EP       1051 13.31                             170   -0.1210 22.9 190 
 BAR2 EZ ES       1051 28.10                             170   -0.0710 22.9 190 
 BAR2 EZ I        1051 29.29        62.3 0.22            168           22.9 190 
 BRR  HZ IP     C 1051 15.19                             151    0.1410 71.4 299 
 BRR  HN ES       1051 31.65                             151    0.6010 71.4 299 
 BRR  HZ I        1051 33.80        44.1 0.14            152           71.4 299 
 PAM  EZ EP       1051 16.29                             150    0.1510 77.7  39 
 PAM  EN ES       1051 33.25                             150    0.2710 77.7  39 
 PAM  EZ I        1051 35.61        42.3 0.48            152           77.7  39 
 RUS  HZ EP       1051 17.57                             143   -0.0910  100 176 
 RUS  HE ES       1051 34.92                             143   -0.7910  100 176 
 RUS  HZ I        1051 36.69        12.0 0.18            141            100 176 
 PTB  HZ EP   4   1051 19.92                             131   -1.09 0  148 259 
 PTB  HN ES       1051 40.78                             131   -0.88 9  148 259 
 PTB  HZ I        1051 43.22        30.6 0.17            130            148 259 
 TAM  HZ IP     D 1051 21.63                             129   -0.10 9  155 105 
 TAM  HN ES       1051 43.04                             129    0.10 9  155 105 
 TAM  HZ I        1051 49.41         5.1 0.22            129            155 105 
 ZAR  HZ EP       1051 26.44                             121   -0.17 9  204 292 
 ZAR  HN ES       1051 51.75                             121    0.12 9  204 292 
 ZAR  HZ I        1051 58.11        28.6 0.30            121            204 292 
 CHI  HZ EP       1051 31.60                             116   -0.26 8  248 195 
 CHI  HN ES       1052  1.83                             116    0.86 8  248 195 
 CHI  HZ I        1052  7.71         4.5 0.44            116            248 195 
 ROSC BZ EP   9   1051 34.62                             115    2.33 0  252 211 
 ROSC BN ES       1052  4.45                                    0.38 8  252 211 
 ROSC BZ I        1052 10.74        11.7 0.35            115            252 211 
 URE  HZ EP       1051 34.64                             112   -0.70 7  284 292 
 URE  HE ES   4   1052  5.29                             112   -1.87 0  284 292 
 URE  HZ I        1052  7.17        10.6 0.18            113            284 292 
 GUY2CHZ EP       1051 38.58                             111    0.74 7  301 235 
 GUY2CHN ES       1052 12.08                             111    0.46 7  301 235 
 GUY2CHZ I        1052 19.91        10.8 0.46                           301 235 
 ORTC HZ EP   4   1051 49.78                             105    1.57 0  395 216 
 ORTC HE ES       1052 30.30                             105    0.22 6  395 216 
 ORTC HZ I        1052 36.63         3.5 0.50            105            395 216 
 PAL  HZ EP       1051 49.58                             105    0.11 6  405 239 
 PAL  HE ES   4   1052 30.82                             105   -1.50 0  405 239 
 PAL  HZ I        1052 36.26         3.0 0.36            105            405 239 
                                                                                
