 2013  831 1742 56.9 L   6.712 -73.171146.3  RSN  5 0.4 1.6LRSN                1
 GAP=228        0.90       6.8     6.4  6.6  0.2670E+02  0.6393E+01 -0.3203E+01E
 Epicentro: VILLANUEVA - SANTANDER                                             3
 ACTION:UPD 14-01-14 09:08 OP:ep   STATUS:               ID:20130831174256 L   I
 OLDACT:REG 13-08-31 15:50 OP:nd   STATUS:               ID:20130831173959     3
 2013-08-31-1739-59M.COL___269                                                 6
 STAT SP IPHASW D HRMM SECON CODA AMPLIT PERI AZIMU VELO AIN AR TRES W  DIS CAZ7
 BAR2 SZ EP       1743 15.80                             175   -0.6110 13.3 185 
 BAR2 SZ ES       1743 31.61                             175   -0.0310 13.3 185 
 BAR2 SZ I        1743 32.80         8.6 0.46            169           13.3 185 
 BRR  HZ EP       1743 18.30                             152    0.0510 74.0 306 
 BRR  HN ES       1743 34.90                             152   -0.0110 74.0 306 
 BRR  HZ I        1743 38.85         9.1 0.48            149           74.0 306 
 RUS  HZ EP       1743 20.23                             147    0.2110 91.1 174 
 RUS  HN ES       1743 38.48                             147    0.4110 91.1 174 
 RUS  HZ I        1743 40.21         3.4 0.32            147           91.1 174 
 PTB  HZ EP       1743 23.32                             133   -0.18 9  143 262 
 PTB  HN ES       1743 43.76                             133   -0.50 9  143 262 
 PTB  HZ I        1743 49.92         3.5 0.30            132            143 262 
 ZAR  HZ EP       1743 29.71                             122    0.22 8  205 295 
 ZAR  HN ES       1743 55.52                             122    0.59 8  205 295 
 ZAR  HZ I        1744  0.78         6.3 0.30            123            205 295 
                                                                                
