 2010  831 1047 12.8 L   6.791 -73.070139.8  RSN  9 0.4 2.0LRSN                1
 GAP=167        0.87       3.4     7.1  6.2 -0.6117E+01 -0.4385E+01  0.5973E+00E
 Epicentro: LOS SANTOS - SANTANDER                                             3
 ACTION:UP  10-09-07 10:59 OP:vdl  STATUS:               ID:20100831104712 L   I
 2010-08-31-1044-36S.COL___120                                                 6
 STAT SP IPHASW D HRMM SECON CODA AMPLIT PERI AZIMU VELO SNR AR TRES W  DIS CAZ7
 BAR2 SZ IP       1047 31.78                             169     0.010   25 210 
 BAR2 SZ ES   1   1047 46.01                             169    -0.5 7   25 210 
 BAR2 SZ I        1047 47.77        27.9 0.33                            25 210 
 BRR  HZ IP     D 1047 33.69                             149    -0.110   79 296 
 BRR  HZ I        1047 34.11        36.2 0.13                            79 296 
 BRR  HE ES       1047 50.30                             149     0.110   79 296 
 RUS  HZ EP   1   1047 36.24                             143     0.4 7   99 181 
 RUS  HE ES   1   1047 54.16                             143     0.3 7   99 181 
 RUS  HZ I        1047 56.19         7.6 0.34                            99 181 
 GUE  SZ EP       1047 36.83                             138    -0.110  116   8 
 GUE  SZ I        1047 37.74        15.6 0.11                           116   8 
 GRA  SZ IP       1047 37.79                             136     0.410  124  14 
 GRA  SZ I        1047 39.08        20.0 0.22                           124  14 
 GRA  SZ ES   1   1047 56.83                             136     0.2 7  124  14 
 OCA  SZ EP       1047 40.24                             128    -0.6 9  162 350 
 OCA  SZ ES   1   1048  2.83                             128     0.1 7  162 350 
 OCA  SZ I        1048  6.41        20.4 0.14                           162 350 
 CHI  HZ EP   2   1047 49.65                             116    -0.7 4  250 197 
 CHI  HN ES   2   1048 19.07                             116    -0.5 4  250 197 
 CHI  HZ I        1048 25.93         2.5 0.40                           250 197 
 HEL  HZ EP   1   1047 54.21                             113     0.6 6  280 256 
 HEL  HZ I        1048 32.57         5.0 0.28                           280 256 
 PRA  HZ EP   1   1048  6.54                             105     0.0 4  395 211 
 PRA  HE ES   1   1048 48.30                             105    -0.1 4  395 211 
 PRA  HZ I        1048 52.39         3.0 0.31                           395 211 
                                                                                
