 2012 1031 1049 50.8 L   6.813 -73.093142.6  RSN  9 0.5 2.2LRSN                1
 GAP=143        0.90       3.7     5.4  7.3 -0.4121E+00  0.1276E+02  0.2599E+01E
 Epicentro: LOS SANTOS - SANTANDER                                             3
 ACTION:UPD 12-11-22 17:06 OP:ep   STATUS:               ID:20121031104950 L   I
 2012-10-31-1050-00M.COL___231                                                 6
 STAT SP IPHASW D HRMM SECON CODA AMPLIT PERI AZIMU VELO AIN AR TRES W  DIS CAZ7
 BAR2 SZ EP       1050 10.17                             169    0.1010 26.4 202 
 BAR2 SZ ES   1   1050 24.91                             169   -0.23 7 26.4 202 
 BAR2 SZ I        1050 26.80        21.0 0.30                          26.4 202 
 PAM  SZ EP   1   1050 13.00                             152    0.65 7 72.6  37 
 PAM  SN ES   1   1050 29.67                             152    0.48 7 72.6  37 
 PAM  SN I        1050 30.85        54.7 0.50                          72.6  37 
 BRR  HZ EP       1050 11.98                             150    0.1510 75.7 295 
 BRR  HN ES   1   1050 28.64                             150    0.38 7 75.7 295 
 BRR  HN I        1050 32.59        56.5 0.16                          75.7 295 
 RUS  HZ EP   1   1050 14.18                             143   -0.10 7  102 179 
 RUS  HN ES   1   1050 32.22                             143   -0.42 7  102 179 
 RUS  HN I        1050 34.51        18.1 0.58                           102 179 
 OCA  HZ EP   1   1050 18.08                             129   -0.67 7  160 351 
 OCA  HN ES   1   1050 39.48                             129   -1.12 7  160 351 
 ZAR  HZ EP   1   1050 24.10                             121    0.60 6  209 291 
 ZAR  HN ES   1   1050 48.85                             121   -0.19 6  209 291 
 ZAR  HN I        1050 55.31        25.5 0.32                           209 291 
 CHI  HN ES   1   1050 58.10                             116   -0.03 6  252 196 
 CHI  HN I        1051  2.33         9.5 0.20                           252 196 
 HEL  HE ES   1   1051  3.61                             114    0.37 6  278 256 
 HEL  HE I        1051  8.89         7.9 0.54                           278 256 
 PRA  HZ EP   1   1050 44.85                             106    0.19 4  396 210 
 PRA  HN ES   1   1051 25.94                             106   -0.76 4  396 210 
 PRA  HN I        1051 30.69         3.4 0.36                           396 210 
                                                                                
