 2013  831 1457 35.3 L   6.733 -73.200147.1  RSN  4 0.2 1.7LRSN                1
 GAP=226        0.48       3.8     3.5  3.8  0.6530E+01  0.1549E+01  0.5675E+00E
 Epicentro: VILLANUEVA - SANTANDER                                             3
 ACTION:UPD 14-01-14 09:08 OP:ep   STATUS:               ID:20130831145735 L   I
 OLDACT:REG 13-08-31 15:38 OP:nd   STATUS:               ID:20130831144959     3
 2013-08-31-1449-59M.COL___269                                                 6
 STAT SP IPHASW D HRMM SECON CODA AMPLIT PERI AZIMU VELO AIN AR TRES W  DIS CAZ7
 BAR2 SZ EP       1457 54.88                             174   -0.0810 15.7 173 
 BAR2 SZ ES       1458 10.02                             174   -0.2810 15.7 173 
 BAR2 SZ I        1458 12.34         9.6 0.48            173           15.7 173 
 BRR  HZ EP       1457 56.53                             153   -0.0010 70.1 306 
 BRR  HN ES       1458 13.35                             153    0.2610 70.1 306 
 BRR  HZ I        1458 16.49        16.9 0.36            154           70.1 306 
 RUS  HZ EP       1457 58.83                             146    0.1210 93.8 172 
 RUS  HN ES       1458 17.11                             146    0.1410 93.8 172 
 RUS  HZ I        1458 19.47         4.5 0.28            148           93.8 172 
 PTB  HZ EP       1458  1.64                             134   -0.10 9  141 261 
 PTB  HN ES       1458 22.29                             134   -0.07 9  141 261 
 PTB  HZ I        1458 25.04         8.2 0.44            135            141 261 
                                                                                
