 2016  731 1913  1.4 L   6.806 -73.114147.6  RSN 14 0.5 2.4LRSN                1
 GAP=140        1.15       4.6     4.6  6.4 -0.3779E+01  0.1270E+02  0.3476E+00E
 Epicentro: LOS SANTOS - SANTANDER                                             3
 ACTION:UPD 17-03-29 16:57 OP:lp   STATUS:               ID:20160731191301 L   I
 OLDACT:UP  16-08-01 01:16 OP:ar   STATUS:               ID:20160731190736     3
 OLDACT:REG 16-07-31 21:42 OP:ar   STATUS:               ID:20160731190736     3
 2016-07-31-1908-00M.COL___353                                                 6
 STAT SP IPHASW D HRMM SECON CODA AMPLIT PERI AZIMU VELO AIN AR TRES W  DIS CAZ7
 BAR2 EZ EP       1913 21.07                             170   -0.2110 24.8 198 
 BAR2 EZ ES       1913 36.43                             170   -0.3610 24.8 198 
 BAR2 EZ I        1913 38.05        50.0 0.32            169           24.8 198 
 BRR  HZ IP     C 1913 23.02                             152    0.1210 74.0 297 
 BRR  HN ES       1913 40.44                             152    0.7610 74.0 297 
 BRR  HZ I        1913 43.24        36.0 0.70            149           74.0 297 
 PAM  EZ EP       1913 24.00                             152    0.3510 74.7  38 
 PAM  EE ES       1913 40.96                             152   -0.0510 74.7  38 
 PAM  EZ I        1913 45.48        16.7 0.38            155           74.7  38 
 RUS  HZ EP       1913 25.22                             144   -0.1410  101 178 
 RUS  HN ES       1913 43.82                             144   -0.2410  101 178 
 RUS  HZ I        1913 44.92        26.8 0.26            148            101 178 
 SPBC HZ EP       1913 30.05                             129   -0.24 9  166 220 
 SPBC HN ES       1913 53.55                             129    0.72 9  166 220 
 SPBC HZ I        1913 57.05        41.9 0.22            130            166 220 
 ZAR  HZ EP       1913 33.79                             122   -0.48 8  207 292 
 ZAR  HN ES       1913 59.26                             122   -0.66 8  207 292 
 ZAR  HZ I        1914  6.23        46.1 0.29            122            207 292 
 NOR  HZ EP       1913 37.02                             119   -0.56 8  238 235 
 NOR  HE ES       1914  5.54                             119   -0.26 8  238 235 
 NOR  HZ I        1914  9.42        27.6 0.20            120            238 235 
 HEL  HZ EP       1913 42.74                             115    0.64 7  276 256 
 HEL  HN ES       1914 13.68                             115   -0.16 7  276 256 
 URE  HZ EP   4   1913 46.10                             114    3.21 0  287 292 
 URE  HN ES   4   1914 11.73                             114   -3.53 0  287 292 
 URE  HZ I        1914 26.12        26.4 0.18            114            287 292 
 GUY2CHZ EP   4   1913 46.80                             112    1.35 0  304 235 
 GUY2CHE ES   4   1914 22.25                             112    2.43 0  304 235 
 GUY2CHZ I        1914 26.89        12.8 0.50                           304 235 
 ELA  HZ EP   9   1913 52.02                             110    3.34 0  332 230 
 ELA  HN ES       1914 29.22                             109    0.32 7  332 230 
 ELA  HZ I        1914 33.55        10.9 0.44            112            332 230 
 CBOC HZ EP       1913 50.28                             110    1.49 7  337 252 
 CBOC HN ES       1914 25.80                             110    0.04 7  337 252 
 CBOC HZ I        1914 30.53         5.2 0.24            111            337 252 
 DBB  HZ EP       1913 48.87                             110   -0.47 7  343 274 
 DBB  HZ ES   4   1914 25.23                             110   -1.51 0  343 274 
 DBB  HZ I        1914 29.44        11.9 0.78            110            343 274 
 SJC  HZ EP   4   1913 55.25                             106   -1.93 0  411 326 
 SJC  HN ES   4   1914 39.14                             106   -1.55 0  411 326 
 SJC  HZ I        1914 42.50         3.5 0.20            107            411 326 
                                                                                
