 2012 1231 1638 33.9 L   6.724 -73.186145.0  RSN  4 0.4 1.8LRSN                1
 GAP=227        0.92       7.4     7.2  8.3  0.2109E+02  0.1358E+02 -0.3769E+01E
 Epicentro: VILLANUEVA - SANTANDER                                             3
 ACTION:UPD 13-01-04 14:31 OP:ep   STATUS:               ID:20121231163833 L   I
 2012-12-31-1630-00M.COL___239                                                 6
 STAT SP IPHASW D HRMM SECON CODA AMPLIT PERI AZIMU VELO AIN AR TRES W  DIS CAZ7
 BAR2 SZ EP       1638 53.13                             174   -0.1510 14.5 178 
 BAR2 SZ ES       1639  7.83                             174   -0.5710 14.5 178 
 BAR2 SZ I        1639  8.96        19.5 0.26                          14.5 178 
 BRR  HZ EP       1638 55.01                             152    0.0210 71.9 306 
 BRR  HN ES       1639 11.96                             152    0.5110 71.9 306 
 BRR  HN I        1639 14.39        12.7 0.16                          71.9 306 
 RUS  HN ES       1639 15.45                             146    0.4210 92.6 173 
 RUS  HN I        1639 16.34         6.3 0.22                          92.6 173 
 PTB  HZ EP       1639  0.27                             133    0.01 9  142 262 
 PTB  HN ES       1639 20.57                             133   -0.27 9  142 262 
 PTB  HN I        1639 24.73        14.2 0.32                           142 262 
                                                                                
