 2016  131 1350 38.7 L   6.814 -73.160138.1  RSN 11 0.3 2.4LRSN                1
 GAP=134        0.82       2.1     3.2  4.8 -0.1120E+01  0.6277E+01 -0.5743E-01E
 Epicentro: LOS SANTOS - SANTANDER                                             3
 ACTION:UPD 16-03-09 23:30 OP:cam  STATUS:               ID:20160131135038 L   I
 OLDACT:REG 16-01-31 21:21 OP:cara STATUS:               ID:20160131134759     3
 2016-01-31-1347-59S.COL___229                                                 6
 STAT SP IPHASW D HRMM SECON CODA AMPLIT PERI AZIMU VELO AIN AR TRES W  DIS CAZ7
 BAR2 EZ IP     D 1350 57.40                             169   -0.0610 24.6 186 
 BAR2 EZ ES       1351 11.90                             169   -0.1710 24.6 186 
 BAR2 EZ I        1351 13.12        66.4 0.16            169           24.6 186 
 PAM  EZ EP       1351  0.19                             149    0.0710 77.3  41 
 PAM  EE ES       1351 17.16                             149    0.3610 77.3  41 
 PAM  EZ I        1351 19.17        43.1 0.44            154           77.3  41 
 RUS  HZ EP       1351  1.75                             142   -0.1010  102 175 
 RUS  HN ES       1351 20.23                             142    0.3510  102 175 
 RUS  HZ I        1351 21.60        42.6 0.40            145            102 175 
 PTB  HZ EP       1351  4.51                             130   -0.45 9  147 258 
 PTB  HN ES       1351 24.99                             130   -0.43 9  147 258 
 PTB  HZ I        1351 30.51        30.3 0.29            131            147 258 
 OCA  HN ES       1351 27.21                             128   -0.57 9  159 354 
 OCA  HZ I        1351 31.51        35.4 0.36            131            159 354 
 SPBC HZ EP       1351  6.56                             127   -0.10 9  163 218 
 SPBC HN ES       1351 28.01                             127   -0.44 9  163 218 
 SPBC HZ I        1351 34.64        46.1 0.30            129            163 218 
 ZAR  HZ EP       1351 10.60                             121    0.13 9  202 292 
 ZAR  HN ES       1351 35.86                             121    0.63 9  202 292 
 ZAR  HZ I        1351 40.58        20.2 0.36            122            202 292 
 NOR  HZ EP       1351 13.99                             117    0.01 8  234 234 
 NOR  HN ES       1351 41.48                             117    0.01 8  234 234 
 NOR  HZ I        1351 47.22        17.1 0.18            119            234 234 
 SML  HZ EP       1351 14.36                             116   -0.35 8  242 335 
 SML  HN ES       1351 43.32                             116    0.55 8  242 335 
 SML  HZ I        1351 46.04        29.8 0.24            118            242 335 
 CHI  HZ EP       1351 16.12                             115   -0.00 8  250 195 
 CHI  HE ES       1351 45.56                             115    0.27 8  250 195 
 CHI  HZ I        1351 48.42         8.1 0.22            118            250 195 
 GUY2CHZ EP       1351 22.24                             111    0.30 7  301 234 
 GUY2CHN ES       1351 56.11                             111    0.46 7  301 234 
 GUY2CHZ I        1352  3.68         9.5 0.40                           301 234 
                                                                                
