 2013  331 1147 54.5 L   7.614 -73.688 40.1  RSN  5 0.3 1.8LRSN                1
 GAP=126        0.70       2.7     2.5  7.6 -0.3376E+00  0.6127E+01 -0.2695E+01E
 Epicentro: SABANA DE TORRES - SANTANDER                                       3
 ACTION:UPD 13-04-09 14:06 OP:ep   STATUS:               ID:20130331114754 L   I
 2013-03-31-1140-00M.COL___245                                                 6
 STAT SP IPHASW D HRMM SECON CODA AMPLIT PERI AZIMU VELO AIN AR TRES W  DIS CAZ7
 BRR  HZ EP       1148  8.84                             146   -0.3510 56.2 183 
 BRR  HN ES       1148 20.37                             146   -0.2510 56.2 183 
 BRR  HN I        1148 20.62        54.6 0.16            148           56.2 183 
 OCA  HZ EP       1148 11.11                             135   -0.1710 80.1  30 
 OCA  HN ES       1148 24.29                             135   -0.0610 80.1  30 
 OCA  HN I        1148 25.54        38.7 0.18            136           80.1  30 
 PAM  SN ES       1148 31.12                             125    0.3910  113 106 
 BAR2 SZ ES       1148 32.45                             121   -0.0610  126 154 
 ZAR  HZ EP       1148 16.32                             120    0.3510  130 264 
 ZAR  HN ES       1148 32.91                             120    0.2110  130 264 
 ZAR  HN I        1148 34.47        10.2 0.14            121            130 264 
                                                                                
