 2010  831 1622  2.7 L   6.736 -74.107 50.5  RSN  4 0.2 1.4LRSN                1
 GAP=158        0.57       7.3     3.4 20.6  0.1268E+02  0.4432E+02  0.1298E+03E
 Epicentro: PUERTO PARRA - SANTANDER                                           3
 ACTION:UP  10-09-07 10:59 OP:vdl  STATUS:               ID:20100831162202 L   I
 2010-08-31-1617-36S.COL___120                                                 6
 STAT SP IPHASW D HRMM SECON CODA AMPLIT PERI AZIMU VELO SNR AR TRES W  DIS CAZ7
 BRR  HZ EP   1   1622 13.71                             123    -0.2 7   60  47 
 BRR  HE ES   1   1622 22.88                             123     0.2 7   60  47 
 BRR  HZ I        1622 23.72        21.4 0.11                            60  47 
 BAR2 SZ EP   1   1622 19.16                             107     0.0 7  103  99 
 BAR2 SZ ES   1   1622 31.67                             107    -0.3 7  103  99 
 BAR2 SZ I        1622 32.75         9.6 0.25                           103  99 
 RUS  HZ EP   2   1622 24.78                             100     0.1 5  147 129 
 RUS  HE ES   1   1622 42.13                             100     0.2 7  147 129 
 RUS  HZ I        1622 43.36         4.5 0.46                           147 129 
 HEL  HZ EP   1   1622 27.46                              98     0.3 7  168 249 
 HEL  HZ I        1622 28.12         4.0 0.35                           168 249 
 HEL  HE ES   2   1622 45.89                              98    -0.4 5  168 249 
                                                                                
