 2016  131 1308 44.5 L   6.813 -73.116142.0  RSN 12 0.4 2.3LRSN                1
 GAP=140        0.86       2.2     3.2  4.8 -0.1441E+01  0.5344E+01 -0.9156E+00E
 Epicentro: LOS SANTOS - SANTANDER                                             3
 ACTION:UPD 16-03-09 23:30 OP:cam  STATUS:               ID:20160131130844 L   I
 OLDACT:REG 16-01-31 21:17 OP:cara STATUS:               ID:20160131125759     3
 2016-01-31-1257-59S.COL___226                                                 6
 STAT SP IPHASW D HRMM SECON CODA AMPLIT PERI AZIMU VELO AIN AR TRES W  DIS CAZ7
 BAR2 EZ IP     C 13 9  3.67                             169   -0.0510 25.5 197 
 BAR2 EZ ES       13 9 18.27                             169   -0.4410 25.5 197 
 BAR2 EZ I        13 9 19.86        48.2 0.20            169           25.5 197 
 PAM  EZ IP     C 13 9  6.54                             151    0.4210 74.1  38 
 PAM  EN ES       13 9 23.45                             151    0.4710 74.1  38 
 PAM  EZ I        13 9 25.84        52.9 0.54            153           74.1  38 
 RUS  HZ EP       13 9  8.07                             143    0.1010  102 178 
 RUS  HN ES       13 9 26.05                             143   -0.2410  102 178 
 RUS  HZ I        13 9 26.91        10.9 0.22            147            102 178 
 PTB  HZ EP       13 9 11.72                             130    0.24 9  151 259 
 PTB  HN ES       13 9 32.24                             130   -0.29 9  151 259 
 PTB  HZ I        13 9 33.68        29.8 0.14            130            151 259 
 OCA  HZ EP       13 9 12.03                             129   -0.39 9  159 352 
 OCA  HE ES       13 9 34.12                             129   -0.07 9  159 352 
 OCA  HZ I        13 9 38.83        55.3 0.16            130            159 352 
 SPBC HZ EP       13 9 12.60                             128   -0.42 9  166 220 
 SPBC HN ES       13 9 35.64                             128    0.37 9  166 220 
 SPBC HZ I        13 9 39.03        13.1 0.32            129            166 220 
 ZAR  HZ EP       13 9 16.97                             121    0.01 8  207 291 
 ZAR  HN ES       13 9 42.75                             121    0.47 8  207 291 
 ZAR  HZ I        13 9 50.49        25.0 0.48            121            207 291 
 NOR  HZ EP       13 9 20.35                             117   -0.04 8  238 235 
 NOR  HN ES       13 9 48.74                             117    0.35 8  238 235 
 NOR  HZ I        13 9 53.44         8.1 0.18            119            238 235 
 SML  HZ EP       13 9 20.23                             117   -0.69 8  244 334 
 SML  HN ES       13 9 49.33                             117    0.00 8  244 334 
 SML  HZ I        13 9 55.78        23.4 0.10            117            244 334 
 CHI  HZ EP       13 9 22.12                             116   -0.12 8  251 196 
 CHI  HN ES       13 9 51.76                             116    0.08 8  251 196 
 HEL  HZ EP       13 9 25.68                             114    0.76 7  276 256 
 HEL  HN ES       13 9 55.93                             114   -0.52 7  276 256 
 HEL  HZ I        1310  2.67         8.5 0.36            115            276 256 
 GUY2CHZ EP   9   13 9 29.29                             111    0.95 0  305 235 
 GUY2CHE ES       1310  3.70                                    0.22 7  305 235 
 GUY2CHZ I        1310 11.29         6.2 0.74                           305 235 
                                                                                
