 2013 1031 1636 59.2 L   6.823 -73.140151.5  RSN 12 0.4 2.6LRSN 2.9WRSN        1
 SPEC AVERAGE  MO 13.5 ST 23.5 OM  1.9 f0 6.58 R0.3221 AL 0.00 WI 20.0 MW  2.9 3
 SPEC SD       MO  0.2 ST 52.5 OM  0.4 f0 4.53 R0.1565 AL      WI      MW  0.2 3
 GAP=136        1.00       2.6     4.0  5.0 -0.2443E+01  0.4911E+01 -0.1663E+01E
 Epicentro: LOS SANTOS - SANTANDER                                             3
 SPEC BAR2SH Z MO 13.9 ST  1.6 OM  2.3 f0 2.63 R0.5909 AL-0.00 WI 20.0 MW  3.2 3
 SPEC BAR2SH Z T163733 K 0.000 GD  153 VS 4.20 DE 3.20 Q0300.0 QA 0.60 VS 4.20 3
 SPEC BRR HH Z MO 13.6 ST  4.3 OM  2.0 f0 4.46 R0.3484 AL-0.00 WI 20.0 MW  3.0 3
 SPEC BRR HH Z T163737 K 0.000 GD  167 VS 4.20 DE 3.20 Q0300.0 QA 0.60 VS 4.20 3
 SPEC PAM SH Z MO 13.5 ST0.611 OM  1.9 f0 2.50 R0.6216 AL-0.00 WI 20.0 MW  3.0 3
 SPEC PAM SH Z T163738 K 0.000 GD  169 VS 4.20 DE 3.20 Q0300.0 QA 0.60 VS 4.20 3
 SPEC RUS HH Z MO 13.2 ST0.875 OM  1.5 f0 3.73 R0.4166 AL-0.00 WI 20.0 MW  2.7 3
 SPEC RUS HH Z T163740 K 0.000 GD  183 VS 4.20 DE 3.20 Q0300.0 QA 0.60 VS 4.20 3
 SPEC PTB HH Z MO 13.3 ST 35.5 OM  1.6 f0 11.3 R0.1375 AL-0.00 WI 20.0 MW  2.8 3
 SPEC PTB HH Z T163746 K 0.000 GD  212 VS 4.20 DE 3.20 Q0300.0 QA 0.60 VS 4.20 3
 SPEC OCA HH Z MO 13.5 ST  3.9 OM  1.8 f0 4.59 R0.3386 AL-0.00 WI 20.0 MW  3.0 3
 SPEC OCA HH Z T163747 K 0.000 GD  218 VS 4.20 DE 3.20 Q0300.0 QA 0.60 VS 4.20 3
 SPEC SPBCHH Z MO 13.5 ST 17.3 OM  1.8 f0 7.49 R0.2075 AL-0.00 WI 20.0 MW  3.0 3
 SPEC SPBCHH Z T163749 K 0.000 GD  224 VS 4.20 DE 3.20 Q0300.0 QA 0.60 VS 4.20 3
 SPEC ZAR HH Z MO 13.5 ST 10.3 OM  1.7 f0 6.53 R0.2380 AL-0.00 WI 20.0 MW  2.9 3
 SPEC ZAR HH Z T163756 K 0.000 GD  254 VS 4.20 DE 3.20 Q0300.0 QA 0.60 VS 4.20 3
 SPEC NOR HH Z MO 13.5 ST  4.6 OM  1.7 f0 4.83 R0.3217 AL-0.00 WI 20.0 MW  3.0 3
 SPEC NOR HH Z T1638 1 K 0.000 GD  281 VS 4.20 DE 3.20 Q0300.0 QA 0.60 VS 4.20 3
 SPEC SML HH Z MO 13.4 ST194.9 OM  1.5 f0 19.5 R0.0797 AL-0.00 WI 20.0 MW  2.8 3
 SPEC SML HH Z T1638 3 K 0.000 GD  285 VS 4.20 DE 3.20 Q0300.0 QA 0.60 VS 4.20 3
 SPEC COD HH Z MO 13.0 ST  3.5 OM  1.0 f0 6.81 R0.2282 AL-0.00 WI 20.0 MW  2.6 3
 SPEC COD HH Z T163823 K 0.000 GD  377 VS 4.20 DE 3.20 Q0300.0 QA 0.60 VS 4.20 3
 SPEC ORTCHH Z MO 13.6 ST  4.9 OM  1.6 f0 4.62 R0.3364 AL-0.00 WI 20.0 MW  3.0 3
 SPEC ORTCHH Z T163835 K 0.000 GD  425 VS 4.20 DE 3.20 Q0300.0 QA 0.60 VS 4.20 3
 OLDACT:REG 13-10-31 16:23 OP:carl STATUS:               ID:20131031162840     3
 ACTION:UPD 13-11-25 09:24 OP:ep   STATUS:               ID:20131031163659 L   I
 OLDACT:UP  13-10-31 18:51 OP:carl STATUS:               ID:20131031162840     3
 2013-10-31-1628-40M.COL___219                                                 6
 STAT SP IPHASW D HRMM SECON CODA AMPLIT PERI AZIMU VELO AIN AR TRES W  DIS CAZ7
 BAR2 SZ IP     C 1637 19.68                             170    0.1010 26.0 190 
 BAR2 SZ ES       1637 35.15                             170   -0.3210 26.0 190 
 BAR2 SZ I        1637 36.49        79.3 0.32            170           26.0 190 
 BRR  HZ IP     D 1637 21.57                             154    0.6310 70.6 296 
 BRR  HN ES       1637 38.76                             154    0.8610 70.6 296 
 BRR  SZ I        1637 42.15        39.6 0.24            151           70.6 296 
 BRR  HZ I        1637 42.53        43.1 0.12                          70.6 296 
 PAM  SZ IP     C 1637 22.43                             152    0.5410 75.0  40 
 PAM  SN ES       1637 39.52                             152   -0.0710 75.0  40 
 PAM  SZ I        1637 41.00        39.7 0.20            155           75.0  40 
 RUS  HZ IP     D 1637 23.56                             144   -0.1410  103 177 
 RUS  HE ES       1637 42.44                             144   -0.3710  103 177 
 RUS  SZ I        1637 43.28        25.2 0.48            147            103 177 
 RUS  HZ I        1637 43.45        26.4 0.44                           103 177 
 PTB  HZ EP       1637 26.28                             133   -0.47 9  149 258 
 PTB  HN ES       1637 47.58                             133   -0.65 9  149 258 
 PTB  SZ I        1637 53.10        65.7 0.44            133            149 258 
 PTB  HZ I        1637 53.37        54.6 0.18                           149 258 
 OCA  HZ EP       1637 28.08                             131    0.34 9  158 353 
 OCA  HN ES       1637 49.45                             131   -0.54 9  158 353 
 OCA  SZ I        1637 54.30        56.5 0.48            132            158 353 
 SPBC HZ EP       1637 28.60                             130    0.23 9  166 219 
 SPBC HN ES       1637 50.94                             130   -0.18 9  166 219 
 SPBC SZ I        1637 53.53        64.0 0.32            131            166 219 
 SPBC HZ I        1637 53.56        68.8 0.32                           166 219 
 ZAR  HZ EP       1637 32.30                             124    0.31 9  204 291 
 ZAR  HE ES       1637 57.80                             124    0.23 9  204 291 
 ZAR  SZ I        1638  3.06        44.8 0.46            124            204 291 
 NOR  HZ EP       1637 35.56                             119    0.07 8  237 234 
 NOR  HE ES       1638  3.43                             119   -0.36 8  237 234 
 NOR  HZ I        1638  6.90        35.0 0.24            120            237 234 
 NOR  SZ I        1638  8.81        31.7 0.22                           237 234 
 SML  HZ EP       1637 35.69                             119   -0.25 8  242 335 
 SML  HE ES       1638  4.60                             119    0.01 8  242 335 
 SML  HZ I        1638  7.34        71.4 0.10            120            242 335 
 SML  SZ I        1638  7.38        67.9 0.10                           242 335 
 COD  HZ EP       1637 47.08                             110   -0.45 6  346 354 
 COD  HN ES       1638 24.87                             110   -0.35 6  346 354 
 ORTC HZ EP       1637 53.42                             107   -0.19 6  398 216 
 ORTC HN ES       1638 36.62                             107    0.57 6  398 216 
 ORTC HZ I        1638 40.63         9.0 0.42            108            398 216 
                                                                                
