 2010  831 1540 53.4 L   6.959 -73.257139.5  RSN  6 0.4 1.9LRSN                1
 GAP=143        0.82       5.1     9.4  8.6  0.1081E+02 -0.3365E+02 -0.1096E+02E
 Epicentro: BETULIA - SANTANDER                                                3
 ACTION:UP  10-09-07 10:59 OP:vdl  STATUS:               ID:20100831154053 L   I
 2010-08-31-1537-27S.COL___120                                                 6
 STAT SP IPHASW D HRMM SECON CODA AMPLIT PERI AZIMU VELO SNR AR TRES W  DIS CAZ7
 BAR2 SZ EP   1   1541 12.93                             163     0.1 7   41 169 
 BAR2 SZ ES   1   1541 28.07                             163     0.1 7   41 169 
 BAR2 SZ I        1541 29.13        19.4 0.40                            41 169 
 BRR  HZ IP       1541 12.83                             159    -0.110   53 288 
 BRR  HZ I        1541 12.94        50.4 0.17                            53 288 
 BRR  HE ES       1541 28.26                             159     0.110   53 288 
 GUE  SZ EP   1   1541 15.98                             142    -0.5 7  103  21 
 GUE  SZ I        1541 18.53         3.9 0.09                           103  21 
 GRA  SZ EP   2   1541 18.00                             139     0.9 5  114  26 
 GRA  SZ ES   2   1541 35.67                             139     0.0 5  114  26 
 GRA  SZ I        1541 37.60        11.9 0.40                           114  26 
 RUS  HZ EP   1   1541 18.51                             138     0.5 7  120 171 
 RUS  HE ES   1   1541 36.81                             138    -0.5 7  120 171 
 OCA  SZ EP   2   1541 19.29                             132    -0.2 5  142 357 
 OCA  SZ I        1541 40.76        13.8 0.13                           142 357 
                                                                                
