 2011 1231 1618 37.7 L   6.782 -73.163151.7  RSN  7 0.5 2.1LRSN                1
 GAP=135        0.79       5.5     6.1  8.4  0.4288E+01  0.1154E+02  0.6887E+01E
 Epicentro: LOS SANTOS - SANTANDER                                             3
 ACTION:UPD 12-07-13 16:19 OP:ep   STATUS:               ID:20111231161837 L   I
 2011-12-31-1617-00S.MAN___179                                                 6
 STAT SP IPHASW D HRMM SECON CODA AMPLIT PERI AZIMU VELO AIN AR TRES W  DIS CAZ7
 BAR2 SZ EP       1618 58.10                             172    0.0610 21.0 186 
 BAR2 SZ ES   2   1619 13.55                             172   -0.33 5 21.0 186 
 BAR2 SZ I        1619 14.95        23.1 0.19                          21.0 186 
 BRR  HZ EP       1619  0.02                             154    0.5210 70.5 301 
 BRR  HZ I        1619  0.40        49.5 0.10                          70.5 301 
 BRR  HN ES   2   1619 17.39                             154    0.92 5 70.5 301 
 PAM  SZ EP   1   1619  0.87                             151    0.12 7 80.2  40 
 PAM  SZ I        1619  1.20        11.7 0.15                          80.2  40 
 PAM  SN ES   2   1619 18.00                             151   -0.71 5 80.2  40 
 RUS  HZ EP   1   1619  1.95                             146    0.00 7 98.7 175 
 RUS  HN ES   2   1619 20.45                             146   -0.38 5 98.7 175 
 RUS  HZ I        1619 22.03        12.4 0.40                          98.7 175 
 PTB  HZ EP   1   1619  4.66                             134   -0.34 7  145 259 
 PTB  HN ES   2   1619 25.94                             134   -0.32 5  145 259 
 ZAR  HZ EP   1   1619  9.53                             124   -0.95 6  203 293 
 ZAR  HE ES   2   1619 35.96                             124   -0.05 4  203 293 
 CHI  HZ EP   1   1619 15.79                             119    0.28 6  246 195 
 CHI  HN ES   2   1619 45.03                             119    0.06 4  246 195 
                                                                                
