 2013  131 1624 41.8 L   6.764 -73.118140.5  RSN  4 0.3 1.4LRSN                1
 GAP=142        0.71       3.9     3.9  8.2 -0.2540E+01 -0.4116E+01  0.7614E+01E
 Epicentro: LOS SANTOS - SANTANDER                                             3
 ACTION:UPD 13-02-15 09:18 OP:ep   STATUS:               ID:20130131162441 L   I
 2013-01-31-1618-48M.COL___199                                                 6
 STAT SP IPHASW D HRMM SECON CODA AMPLIT PERI AZIMU VELO AIN AR TRES W  DIS CAZ7
 BRR  HN ES       1625 19.36                             150    0.4010 75.8 300 
 PAM  SZ EP       1625  3.75                             149    0.1710 78.7  36 
 PAM  SZ I        1625  3.92         4.2 0.26            150           78.7  36 
 PAM  SN ES       1625 20.21                             149   -0.3210 78.7  36 
 RUS  HZ EP       1625  4.77                             144   -0.0110 96.5 178 
 RUS  HN ES       1625 22.74                             144    0.0710 96.5 178 
 RUS  HN I        1625 23.61         2.1 0.36            143           96.5 178 
 PTB  HN ES       1625 29.10                             130   -0.36 9  150 261 
 PTB  HN I        1625 31.02         6.5 0.26            130            150 261 
                                                                                
