 2013 1031 1402 31.7 L   6.812 -73.153144.5  RSN 10 0.5 2.0LRSN                1
 GAP=135        1.21       3.9     4.9  6.7 -0.1971E+01  0.1027E+02 -0.1404E+01E
 Epicentro: LOS SANTOS - SANTANDER                                             3
 ACTION:UPD 13-11-25 09:24 OP:ep   STATUS:               ID:20131031140231 L   I
 OLDACT:REG 13-10-31 16:20 OP:carl STATUS:               ID:20131031135840     3
 2013-10-31-1358-40M.COL___213                                                 6
 STAT SP IPHASW D HRMM SECON CODA AMPLIT PERI AZIMU VELO AIN AR TRES W  DIS CAZ7
 BAR2 SZ EP       14 2 51.32                             170    0.0810 24.5 188 
 BAR2 SZ ES       14 3  6.24                             170   -0.2110 24.5 188 
 BAR2 SZ I        14 3  7.70        35.8 0.28            169           24.5 188 
 BRR  HZ EP       14 2 53.17                             153    0.4910 69.9 298 
 BRR  HN ES       14 3 10.14                             153    1.1310 69.9 298 
 BRR  HZ I        14 3 13.22        20.5 0.32            150           69.9 298 
 PAM  SZ EP       14 2 54.12                             151    0.3310 76.9  41 
 PAM  SE ES       14 3 10.78                             151   -0.2110 76.9  41 
 PAM  SZ I        14 3 13.13        16.9 0.52            155           76.9  41 
 RUS  HZ EP       14 2 55.39                             143   -0.0710  102 176 
 RUS  HN ES       14 3 13.84                             143   -0.1310  102 176 
 RUS  HZ I        14 3 15.90        10.1 0.84            146            102 176 
 PTB  HZ EP       14 2 57.95                             132   -0.61 9  147 258 
 PTB  HN ES       14 3 18.92                             132   -0.56 9  147 258 
 PTB  HZ I        14 3 24.79        13.5 0.20            131            147 258 
 SPBC HZ EP       14 3  0.34                             129    0.15 9  164 218 
 SPBC HN ES       14 3 21.68                             129   -0.71 9  164 218 
 SPBC HZ I        14 3 29.61         9.4 0.30            130            164 218 
 ZAR  HZ EP       14 3  4.16                             122    0.18 9  203 292 
 ZAR  HN ES       14 3 29.14                             122    0.02 9  203 292 
 ZAR  HZ I        14 3 34.50        10.1 0.36            123            203 292 
 NOR  HZ EP       14 3  7.68                             118    0.27 8  235 234 
 NOR  HN ES       14 3 35.54                             118    0.31 8  235 234 
 NOR  HZ I        14 3 43.32         5.8 0.16            119            235 234 
 SML  HZ EP       14 3  7.55                             117   -0.58 8  242 335 
 SML  HE ES       14 3 35.76                             117   -0.75 8  242 335 
 SML  HZ I        14 3 44.38        15.6 0.10            119            242 335 
 GUY2CHZ EP       14 3 16.06                             112    0.76 7  301 234 
 GUY2CHE ES   4   14 3 51.81                             112    2.52 0  301 234 
 GUY2CHZ I        14 3 59.65         4.5 0.58                           301 234 
                                                                                
