 2017  531 1339  4.7 L   6.798 -73.146146.0  RSN  7 0.4 1.7LRSN                1
 GAP=237        0.98       5.0     6.2  8.6  0.1324E+02  0.8430E+01  0.8974E+01E
 Epicentro: LOS SANTOS - SANTANDER                                             3
 ACTION:UPD 17-06-16 13:40 OP:jn   STATUS:               ID:20170531133905 L   I
 OLDACT:UP  17-06-06 20:30 OP:nlst STATUS:               ID:20170531133905 L   3
 OLDACT:UP  17-06-01 00:18 OP:dani STATUS:               ID:20170531133742     3
 OLDACT:UP  17-06-01 00:17 OP:dani STATUS:               ID:20170531133742     3
 OLDACT:REG 17-05-31 20:02 OP:dani STATUS:               ID:20170531133742     3
 2017-05-31-1338-00M.COL___359                                                 6
 STAT SP IPHASW D HRMM SECON CODA AMPLIT PERI AZIMU VELO AIN AR TRES W  DIS CAZ7
 BRR  HZ EP   1   1339 26.19                             153    0.29 7 71.3 299 
 BRR  HN ES       1339 42.92                             153    0.5010 71.3 299 
 BRR  HZ I        1339 46.23        11.0 0.32            151           71.3 299 
 RUS  HZ EP       1339 27.95                             144   -0.5410  100 176 
 RUS  HN ES       1339 46.94                             144   -0.0810  100 176 
 RUS  HZ I        1339 48.42         2.8 0.14            148            100 176 
 PTB  HZ EP       1339 31.40                             132   -0.31 9  148 259 
 PTB  HN ES       1339 52.50                             132   -0.25 9  148 259 
 PTB  HZ I        1339 58.42         8.6 0.59            133            148 259 
 SPBC HN ES   1   1339 55.26                             129   -0.20 7  163 219 
 ZAR  HZ EP   4   1339 39.99                             122    2.80 0  204 292 
 ZAR  HN ES       1340  2.14                             122   -0.37 9  204 292 
 ZAR  HZ I        1340  8.56         5.7 0.14            124            204 292 
 NOR  HZ EP       1339 41.32                             119    0.87 8  235 234 
 NOR  HE ES       1340  8.29                             119   -0.03 8  235 234 
 CHI  HE ES       1340 12.23                             117    0.42 8  248 195 
                                                                                
