 2016 1031 1926 23.1 L   6.844 -73.221140.0  RSN 10 0.5 1.8LRSN                1
 GAP=125        1.06       3.8     5.3  7.0 -0.4159E+01  0.1386E+02 -0.2912E+01E
 Epicentro: ZAPATOCA - SANTANDER                                               3
 ACTION:UPD 16-11-09 19:24 OP:rebc STATUS:               ID:20161031192623 L   I
 OLDACT:REG 16-10-31 23:29 OP:lv   STATUS:               ID:20161031191745     3
 2016-10-31-1918-00M.COL___331                                                 6
 STAT SP IPHASW D HRMM SECON CODA AMPLIT PERI AZIMU VELO AIN AR TRES W  DIS CAZ7
 BAR2 EZ EP   2   1926 41.18                             168   -0.94 5 28.2 171 
 BAR2 EZ ES       1926 57.49                             168    0.5210 28.2 171 
 BAR2 EZ I        1926 59.25        14.7 0.36            169           28.2 171 
 BRR  HZ EP       1926 43.79                             155    0.7310 61.5 298 
 BRR  HN ES   4   1927  0.43                             155    1.78 0 61.5 298 
 PAM  EZ EP       1926 44.89                             149    0.0910 79.5  46 
 PAM  EN ES       1927  1.63                             149   -0.1210 79.5  46 
 PAM  EZ I        1927  4.07         8.9 0.38            152           79.5  46 
 RUS  HZ EP       1926 46.32                             141   -0.3710  106 172 
 RUS  HN ES       1927  4.59                             141   -0.5210  106 172 
 RUS  HZ I        1927  5.83         5.7 0.27            144            106 172 
 PTB  HZ EP       1926 48.99                             132    0.07 9  141 256 
 PTB  HN ES       1927  9.10                             132    0.02 9  141 256 
 PTB  HZ I        1927 12.70        13.4 0.13            133            141 256 
 SPBC HZ EP       1926 50.99                             128   -0.03 9  162 216 
 SPBC HN ES       1927 12.13                             128   -0.68 9  162 216 
 SPBC HZ I        1927 15.99         7.3 0.11            130            162 216 
 CHI  HZ EP       1927  1.25                             116    0.50 8  251 193 
 CHI  HN ES       1927 30.69                             116    0.55 8  251 193 
 GUY2CHZ EP   4   1927  7.54                             111    1.56 0  297 233 
 GUY2CHN ES   4   1927 38.08                             111   -1.36 0  297 233 
 GUY2CHZ I        1927 47.40         2.4 0.31                           297 233 
 PRA  HZ EP   4   1927 14.61                             105   -1.82 0  392 208 
 PRA  HN ES   4   1927 52.25                             105   -5.79 0  392 208 
 PRA  HZ I        1927 59.38         2.5 0.24            107            392 208 
 SJC  HZ EP       1927 16.87                             105   -0.56 6  401 328 
 SJC  HN ES       1927 59.67                             105   -0.16 6  401 328 
                                                                                
