 2014  331 1845 56.2 L   6.518 -73.525112.1  RSN  8 0.5 2.1LRSN                1
 GAP= 72        1.10       3.2     4.2  8.3 -0.3519E+01  0.1616E+02 -0.7089E+01E
 Epicentro: EL CARMEN DE CHUCURI - SANTANDER                                   3
 ACTION:UPD 14-04-09 23:22 OP:nd   STATUS:               ID:20140331184556 L   I
 OLDACT:UP  14-04-01 00:42 OP:cam  STATUS:               ID:20140331183815     3
 OLDACT:REG 14-03-31 21:35 OP:cam  STATUS:               ID:20140331183815     3
 2014-03-31-1838-15M.COL___249                                                 6
 STAT SP IPHASW D HRMM SECON CODA AMPLIT PERI AZIMU VELO AIN AR TRES W  DIS CAZ7
 BAR2 SZ EP     D 1846 12.45                             160    0.1610 38.8  78 
 BAR2 SZ ES       1846 24.96                             160    0.0910 38.8  78 
 BAR2 SZ I        1846 26.08       229.7 0.44            162           38.8  78 
 RUS  HZ EP       1846 15.91                             140    0.4310 84.8 145 
 RUS  HN ES       1846 30.94                             140    0.3910 84.8 145 
 PTB  HZ EP   4   1846 15.26                             134   -1.07 0  103 271 
 PTB  HN ES   4   1846 30.11                             134   -1.96 0  103 271 
 PTB  HZ I    4   1846 31.10        21.0 0.42            135            103 271 
 SPBC HZ EP       1846 17.67                             131    0.3110  113 212 
 SPBC HN ES       1846 32.99                             131   -0.9110  113 212 
 SPBC HZ I        1846 35.59        17.1 0.10            133            113 212 
 PAM  SZ EP       1846 19.03                             127   -0.3210  129  45 
 PAM  SN ES       1846 36.91                             127   -0.5210  129  45 
 PAM  SZ I        1846 40.95        11.9 0.38            129            129  45 
 NOR  HZ EP   1   1846 24.23                             117   -0.11 7  182 235 
 NOR  HE ES       1846 46.22                             117   -0.09 9  182 235 
 NOR  HZ I        1846 49.27        10.3 0.18            118            182 235 
 ZAR  HZ EP   1   1846 23.61                             117   -0.67 7  182 306 
 ZAR  HE ES       1846 46.85                             117    0.64 9  182 306 
 ZAR  HZ I        1846 48.66        19.7 0.38            118            182 306 
 CHI  HZ EP   1   1846 28.56                             113    0.70 6  210 186 
 CHI  HN ES   1   1846 52.33                             113   -0.25 6  210 186 
 GUY2CHZ EP   4   1846 34.21                             109    1.86 0  249 235 
 GUY2CHN ES   4   1847  3.20                             109    2.62 0  249 235 
 GUY2CHZ I    4   1847  6.79         4.0 0.22                           249 235 
 SML  HZ EP   1   1846 32.24                             108   -0.73 6  260 347 
 SML  HN ES       1847  2.08                             108    0.40 8  260 347 
 SML  HZ I        1847  6.12        19.4 0.10            109            260 347 
                                                                                
