 2014 1231 1446 59.3 L   7.239 -73.826 27.0  RSN 11 0.5 2.3LRSN                1
 GAP= 67        1.23       2.9     2.7  3.7 -0.6041E-01  0.1556E+01 -0.1908E+01E
 Epicentro: PUERTO WILCHES - SANTANDER                                         3
 ACTION:UPD 15-02-10 17:08 OP:nd   STATUS:               ID:20141231144659 L   I
 OLDACT:UP  14-12-31 22:38 OP:cam  STATUS:               ID:20141231143819     3
 OLDACT:UP  14-12-31 22:37 OP:cam  STATUS:               ID:20141231143819     3
 OLDACT:REG 14-12-31 20:02 OP:cam  STATUS:               ID:20141231143819     3
 2014-12-31-1438-19M.COL___268                                                 6
 STAT SP IPHASW D HRMM SECON CODA AMPLIT PERI AZIMU VELO AIN AR TRES W  DIS CAZ7
 BRR  HZ IP     C 1447  4.29                             141   -0.2710 19.2 139 
 BRR  HN ES       1447  8.94                             141    0.2510 19.2 139 
 BRR  HZ I        1447 10.04       364.1 0.12            147           19.2 139 
 BAR2 EZ EP       1447 14.95                              61   -0.5410  101 135 
 BAR2 EZ ES       1447 27.89                              61   -0.2410  101 135 
 BAR2 EZ I        1447 29.64        25.3 0.44             91            101 135 
 PTB  HZ EP       1447 14.92                              61   -0.7110  104 222 
 PTB  HN ES       1447 28.15                              61   -0.2310  104 222 
 PTB  HZ I        1447 28.58        96.5 0.32             61            104 222 
 ZAR  HZ EP     C 1447 17.70                              61    0.4210  117 284 
 ZAR  HN ES       1447 31.64                              61    0.3210  117 284 
 ZAR  HZ I        1447 33.28       112.6 0.40             61            117 284 
 OCA  HZ EP       1447 18.49                              61    0.2110  124  27 
 OCA  HN ES       1447 33.43                              61    0.3410  124  27 
 OCA  HZ I        1447 35.11        54.1 0.30             61            124  27 
 PAM  SZ EP       1447 18.98                              61    0.1810  125  85 
 PAM  SN ES       1447 33.71                              61   -0.3110  125  85 
 PAM  SZ I        1447 35.18        52.7 0.14             61            125  85 
 RUS  HZ EP       1447 25.46                              61    1.02 9  170 151 
 RUS  HE ES       1447 44.60                              61    0.53 9  170 151 
 RUS  HZ I        1447 46.97        18.4 0.18             61            170 151 
 SML  HZ EP       1447 23.48                              61   -0.98 9  175 351 
 SML  HN ES   4   1447 40.77                              61   -3.32 0  175 351 
 SML  HZ I        1447 50.19        58.1 0.10             61            175 351 
 SPBC HZ EP       1447 24.80                              61   -0.10 9  178 189 
 URE  HZ EP   4   1447 28.71                              61    1.50 0  197 287 
 URE  HN ES   4   1447 51.20                              61    2.20 0  197 287 
 URE  HZ I        1447 56.50        15.6 0.26             61            197 287 
 NOR  HZ EP       1447 30.27                              61    0.33 8  218 212 
 NOR  HN ES   4   1447 52.50                              61   -1.36 0  218 212 
                                                                                
