 2012  731 1947 57.1 L   7.443 -73.387118.1  RSN  4 0.1 1.9LRSN                1
 GAP=187        0.31       3.3     1.8  3.5  0.5485E+00  0.1468E+01 -0.4456E+01E
 Epicentro: SABANA DE TORRES - SANTANDER                                       3
 ACTION:UPD 12-08-14 11:46 OP:ep   STATUS:               ID:20120731194757 L   I
 2012-07-31-1940-00M.COL___212                                                 6
 STAT SP IPHASW D HRMM SECON CODA AMPLIT PERI AZIMU VELO AIN AR TRES W  DIS CAZ7
 BRR  HZ EP       1948 13.98                             155    -0.110   52 224 
 BRR  HE ES   1   1948 27.44                             155     0.0 7   52 224 
 BRR  HZ I        1948 28.52        32.9 0.14            157             52 224 
 PAM  SZ EP       1948 16.37                             145     0.010   77  99 
 PAM  SN ES   1   1948 31.44                             145     0.0 7   77  99 
 PAM  SZ I        1948 32.86         5.9 0.22            148             77  99 
 BAR2 SZ EP       1948 17.58                             138     0.010   97 166 
 BAR2 SZ ES   1   1948 33.52                             138     0.0 7   97 166 
 BAR2 SZ I        1948 34.49        37.5 0.18            142             97 166 
 ZAR  HZ EP       1948 23.44                             122     0.0 9  162 272 
 ZAR  HN ES   2   1948 44.07                             122     0.1 5  162 272 
 ZAR  HZ I        1948 46.13         6.5 0.10            124            162 272 
