 2014  831 1725 44.2 L   6.719 -73.218140.9  RSN  5 0.3 1.6LRSN                1
 GAP=124        0.89       5.5     5.1  6.8  0.6482E+01 -0.1768E+01 -0.5281E+01E
 Epicentro: VILLANUEVA - SANTANDER                                             3
 ACTION:UPD 14-09-15 21:54 OP:nd   STATUS:               ID:20140831172544 L   I
 OLDACT:DUP 14-09-01 01:11 OP:stll STATUS:               ID:20140831171816d    3
 2014-08-31-1718-15M.COL___269                                                 6
 STAT SP IPHASW D HRMM SECON CODA AMPLIT PERI AZIMU VELO AIN AR TRES W  DIS CAZ7
 BAR2 SZ EP       1726  3.09                             174   -0.0110 14.6 164 
 BAR2 SZ ES       1726 17.95                             174    0.1110 14.6 164 
 BAR2 SZ I        1726 18.90         8.4 0.20            172           14.6 164 
 BRR  HZ EP       1726  5.07                             152    0.3410 69.4 308 
 BRR  HZ I        1726  5.35        12.1 0.24            151           69.4 308 
 BRR  HN ES       1726 20.96                             152    0.2310 69.4 308 
 PAM  SZ EP       1726  6.12                             146   -0.5610 89.4  40 
 PAM  SZ I        1726  6.36        17.6 0.28            149           89.4  40 
 RUS  HZ EP       1726  7.44                             145    0.5310 92.7 171 
 RUS  HN ES       1726 24.35                             145   -0.2710 92.7 171 
 RUS  HZ I        1726 25.94         4.5 0.46            145           92.7 171 
 PTB  HZ EP       1726  9.88                             133   -0.04 9  138 262 
 PTB  HN ES       1726 29.61                             133   -0.37 9  138 262 
 PTB  HZ I        1726 34.49         4.3 0.18            131            138 262 
                                                                                
