 2014  331 1719 24.7 L   6.811 -73.156138.9  RSN  9 0.4 1.9LRSN                1
 GAP=135        0.80       3.0     3.4  6.3 -0.9456E+00  0.7871E+01  0.4445E+01E
 Epicentro: LOS SANTOS - SANTANDER                                             3
 ACTION:UPD 14-04-09 23:22 OP:nd   STATUS:               ID:20140331171924 L   I
 OLDACT:UP  14-04-01 00:19 OP:cam  STATUS:               ID:20140331171814     3
 OLDACT:REG 14-03-31 21:31 OP:cam  STATUS:               ID:20140331171814     3
 2014-03-31-1718-14M.COL___249                                                 6
 STAT SP IPHASW D HRMM SECON CODA AMPLIT PERI AZIMU VELO AIN AR TRES W  DIS CAZ7
 PAM  SZ EP       1719 46.32                             149    0.1610 77.2  41 
 PAM  SE ES       1720  3.18                             149    0.2710 77.2  41 
 PAM  SZ I        1720  5.50        10.1 0.26            157           77.2  41 
 RUS  HZ EP       1719 47.80                             142   -0.0610  102 175 
 RUS  HN ES       1720  5.73                             142   -0.2110  102 175 
 RUS  HZ I        1720  8.11         7.5 0.34            144            102 175 
 PTB  HZ EP       1719 50.29                             130   -0.72 9  147 258 
 PTB  HN ES       1720 11.08                             130   -0.46 9  147 258 
 PTB  HZ I        1720 16.50        11.3 0.38            133            147 258 
 SPBC HZ EP       1719 52.64                             127   -0.04 9  163 218 
 SPBC HN ES   2   1720 14.27                             127   -0.25 5  163 218 
 SPBC HZ I        1720 20.11         9.9 0.18            130            163 218 
 ZAR  HZ EP   1   1719 56.17                             121   -0.35 6  203 292 
 ZAR  HN ES       1720 21.84                             121    0.48 9  203 292 
 ZAR  HZ I        1720 25.97         7.2 0.26            124            203 292 
 NOR  HZ EP       1720  0.22                             117    0.23 8  234 234 
 NOR  HN ES       1720 27.55                             117    0.02 8  234 234 
 NOR  HZ I        1720 33.81         6.7 0.28            120            234 234 
 CHI  HZ EP   1   1720  2.01                             115   -0.09 6  249 195 
 CHI  HE ES       1720 31.57                             115    0.29 8  249 195 
 CHI  HZ I        1720 39.36         3.2 0.46            119            249 195 
 GUY2CHZ EP   1   1720  8.30                             111    0.36 5  301 234 
 GUY2CHE ES   1   1720 42.59                             111    0.90 5  301 234 
 GUY2CHE I        1720 47.73         5.7 0.38                           301 234 
 PRA  HZ EP   1   1720 17.47                             105   -0.55 4  392 209 
 PRA  HN ES       1721  0.12                             105    0.49 6  392 209 
 PRA  HZ I        1721  5.10         4.2 0.28            108            392 209 
                                                                                
