 2015  131 1327 41.4 L   6.809 -73.138144.2  RSN  8 0.3 1.6LRSN                1
 GAP=137        0.70       3.2     3.2  5.7 -0.1387E+01  0.5146E+01  0.6069E+00E
 Epicentro: LOS SANTOS - SANTANDER                                             3
 ACTION:UPD 15-03-02 15:44 OP:nd   STATUS:               ID:20150131132741 L   I
 OLDACT:REG 15-01-31 21:35 OP:spq  STATUS:               ID:20150131131746     3
 2015-01-31-1317-46M.COL___268                                                 6
 STAT SP IPHASW D HRMM SECON CODA AMPLIT PERI AZIMU VELO AIN AR TRES W  DIS CAZ7
 BAR2 EZ EP       1328  0.68                             170   -0.2110 24.5 192 
 BAR2 EZ ES   1   1328 15.96                             170   -0.12 7 24.5 192 
 BAR2 EZ I        1328 18.46         8.5 0.24            167           24.5 192 
 PAM  SZ EP       1328  3.65                             151    0.2610 76.0  40 
 PAM  SE ES   1   1328 20.58                             151    0.05 7 76.0  40 
 PAM  SZ I        1328 22.33         6.4 0.44            156           76.0  40 
 RUS  HZ EP   1   1328  5.19                             143    0.10 7  102 177 
 RUS  HN ES   1   1328 23.73                             143    0.17 7  102 177 
 RUS  HZ I        1328 24.78         4.3 0.28            144            102 177 
 PTB  HZ EP       1328  7.94                             131   -0.42 9  149 259 
 PTB  HN ES       1328 29.26                             131   -0.11 9  149 259 
 PTB  HZ I        1328 31.07         4.2 0.14            131            149 259 
 SPBC HE ES   1   1328 32.12                             128   -0.05 7  165 219 
 SPBC HZ I        1328 36.66        11.9 0.18            129            165 219 
 ZAR  HZ EP   1   1328 14.32                             122    0.51 6  204 292 
 ZAR  HE ES       1328 38.92                             122   -0.15 9  204 292 
 ZAR  HZ I        1328 43.87         4.5 0.30            123            204 292 
 NOR  HZ EP   1   1328 16.92                             118   -0.28 6  236 234 
 NOR  HE ES       1328 45.89                             118    0.78 8  236 234 
 NOR  HZ I        1328 54.46         3.0 0.54            119            236 234 
 CHI  HZ EP   1   1328 19.19                             117    0.02 6  250 195 
 CHI  HN ES   1   1328 48.08                             117   -0.53 6  250 195 
 CHI  HZ I        1328 53.37         3.0 0.40            118            250 195 
                                                                                
