 2017  131 1131  1.6 L   7.209 -74.113  4.0  RSN  5 0.3 1.4LRSN                1
 GAP=173        0.80       2.9     1.7  4.7  0.1682E+01 -0.5839E-01  0.3735E+01E
 Epicentro: PUERTO WILCHES - SANTANDER                                         3
 ACTION:UPD 17-05-22 16:05 OP:jn   STATUS:               ID:20170131113101 L   I
 OLDACT:UP  17-01-31 22:46 OP:ar   STATUS:               ID:20170131112746     3
 OLDACT:REG 17-01-31 21:06 OP:ar   STATUS:               ID:20170131112746     3
 2017-01-31-1128-00M.COL___340                                                 6
 STAT SP IPHASW D HRMM SECON CODA AMPLIT PERI AZIMU VELO AIN AR TRES W  DIS CAZ7
 BRR  HZ IP     D 1131  8.74                              47   -0.3410 45.7 104 
 BRR  HN ES       1131 14.89                              47   -0.0510 45.7 104 
 BRR  HZ I        1131 21.76        12.5 0.38             47           45.7 104 
 PTB  HZ EP       1131 14.69                              47   -0.1010 83.2 207 
 PTB  HN ES       1131 24.96                              47   -0.1310 83.2 207 
 PTB  HZ I        1131 25.19        10.0 0.16             47           83.2 207 
 ZAR  HZ EP       1131 15.70                              47    0.1810 88.1 291 
 ZAR  HN ES       1131 26.26                              47   -0.1310 88.1 291 
 ZAR  HZ I        1131 26.79        10.1 0.12             47           88.1 291 
 BAR2 EZ EP       1131 21.61                              47    0.5010  123 123 
 BAR2 EZ ES       1131 35.93                              47   -0.4110  123 123 
 RUS  HZ EP   2   1131 31.16                              37    0.64 4  185 142 
 RUS  HN ES       1131 53.57                              37    0.47 9  185 142 
 RUS  HZ I        1131 55.06         8.0 0.30             37            185 142 
                                                                                
