 2017 1031 1255 45.5 L   7.111 -73.408112.2  RSN 27 0.6 2.6LRSN                1
 GAP= 76        1.02       2.3     2.2  4.2  0.1181E+00  0.2046E+01 -0.1075E+00E
 Epicentro: LEBRIJA - SANTANDER                                                3
 ACTION:UPD 17-11-07 19:40 OP:rebc STATUS:               ID:20171031125545 L   I
 OLDACT:UP  17-10-31 23:56 OP:mg   STATUS:               ID:20171031124740     3
 OLDACT:UP  17-10-31 23:54 OP:mg   STATUS:               ID:20171031124740     3
 OLDACT:REG 17-10-31 20:20 OP:mg   STATUS:               ID:20171031124740     3
 2017-10-31-1248-00M.COL___444                                                 6
 STAT SP IPHASW D HRMM SECON CODA AMPLIT PERI AZIMU VELO AIN AR TRES W  DIS CAZ7
 BRR  HZ IP     D 1256  1.05                             162   -0.0610 33.5 269 
 BRR  HN ES       1256 13.61                             162    0.3510 33.5 269 
 BRR  HZ I        1256 14.36       125.8 0.16            157           33.5 269 
 BAR2 EZ IP     D 1256  3.07                             149    0.1310 62.6 156 
 BAR2 EZ ES       1256 16.83                             149    0.3210 62.6 156 
 BAR2 EZ I        1256 18.41       297.5 0.14            144           62.6 156 
 PAM  EZ EP       1256  4.60                             141   -0.0610 82.2  72 
 PAM  EN ES       1256 19.76                             141    0.1710 82.2  72 
 PAM  EZ I        1256 24.18        47.7 0.33            139           82.2  72 
 PTB  HZ EP       1256  7.98                             126   -0.4310  132 241 
 PTB  HN ES       1256 25.19                             126   -1.0710  132 241 
 PTB  HZ I        1256 30.82        37.6 0.17            121            132 241 
 RUS  HZ EP       1256  9.23                             125   -0.56 9  139 165 
 RUS  HN ES       1256 27.97                             125   -0.74 9  139 165 
 RUS  HZ I        1256 31.65        70.4 0.26            120            139 165 
 ZAR  HZ EP       1256 12.13                             120    0.29 9  166 285 
 ZAR  HN ES       1256 32.63                             120    0.28 9  166 285 
 ZAR  HZ I        1256 35.07        76.0 0.20            116            166 285 
 SPBC HZ EP       1256 12.95                             118   -0.25 9  177 205 
 SPBC HE ES       1256 34.30                             118   -0.48 9  177 205 
 SPBC HZ I        1256 40.67        81.9 0.18            114            177 205 
 TAM  HZ EP       1256 15.12                             115    0.18 9  194 113 
 TAM  HN ES       1256 38.34                             115    0.46 9  194 113 
 TAM  HZ I        1256 39.32        38.3 0.32            112            194 113 
 YPLC HZ EP       1256 18.16                             112    0.12 8  221 149 
 YPLC HN ES       1256 43.74                             112    0.34 8  221 149 
 YPLC HZ I        1256 47.31        42.6 0.28            109            221 149 
 NOR  HZ EP       1256 19.71                             110    0.07 8  235 223 
 NOR  HN ES       1256 45.68                             110   -0.56 8  235 223 
 NOR  HZ I        1256 50.19        28.5 0.32            108            235 223 
 URE  HZ EP       1256 20.77                             109    0.08 8  245 287 
 URE  HN ES   3   1256 46.48                             109   -1.63 2  245 287 
 URE  HZ I        1256 56.81        85.6 0.15            107            245 287 
 TABC EZ EP   4   1256 24.23                             109    2.59 0  248 201 
 TABC EZ ES   4   1256 54.57                             109    4.76 0  248 201 
 TABC EZ I        1256 59.13        25.4 0.34            107            248 201 
 ROSC BZ EP   4   1256 26.96                             107    2.82 0  271 202 
 ROSC BN ES   4   1256 59.04                             107    4.79 0  271 202 
 ROSC BZ I        1257  3.21        22.0 0.24            105            271 202 
 CHI  HZ EP       1256 25.20                             107    0.33 7  277 187 
 CHI  HN ES   3   1256 57.15                             107    1.59 2  277 187 
 CHI  HZ I        1257  2.98        15.0 0.41            105            277 187 
 LL6C HZ EP       1256 25.37                             105   -0.61 7  291   3 
 LL6C HN ES       1256 58.15                             105    0.62 7  291   3 
 LL6C HZ I        1257  7.37         9.6 0.19            105            291   3 
 GUY2CHZ EP   3   1256 29.33                             105    1.57 2  301 226 
 GUY2CHN ES   3   1257  2.78                             105    2.08 2  301 226 
 GUY2CHZ I        1257  9.39        24.4 0.38                           301 226 
 DBB  EZ EP   3   1256 30.18                             104    1.85 2  310 268 
 DBB  EN ES       1257  2.77                             104    1.06 7  310 268 
 DBB  EZ I        1257  4.64         8.7 0.17            103            310 268 
 VIL  EN ES   4   1257 10.65                             103    3.87 0  333 185 
 ELA  HZ EP       1256 31.58                             103   -0.01 7  333 222 
 ELA  HN ES       1257  7.77                             103    0.25 7  333 222 
 ELA  HZ I        1257 20.57        21.1 0.51            102            333 222 
 VIL  EZ EP       1256 31.10                             103   -0.08 7  333 185 
 VIL  EZ I        1257 14.43        33.4 0.36            102            333 185 
 PTGC HZ EP   3   1256 31.54                             102   -1.68 2  352 156 
 PTGC HN ES   3   1257  8.89                             102   -1.52 2  352 156 
 PTGC HZ I        1257 12.89        13.4 0.41            101            352 156 
 APAC HZ EP       1256 34.17                             101   -0.13 6  361 284 
 APAC HN ES       1257 13.11                             101    0.77 6  361 284 
 APAC HZ I        1257 19.30        10.2 0.38            101            361 284 
 SJC  HZ EP   4   1256 33.48                             101   -1.36 0  365 328 
 SJC  HN ES   4   1257 10.51                             101   -2.78 0  365 328 
 SJC  HZ I        1257 21.63        11.9 0.34            101            365 328 
 PAL  HZ EP       1256 39.63                             100    0.42 6  401 233 
 PAL  HN ES       1257 21.95                             100    0.86 6  401 233 
 PAL  HZ I        1257 26.44         4.1 0.35            100            401 233 
 ORTC HZ EP       1256 40.51                              99    0.43 6  408 210 
 ORTC HN ES   4   1257 25.63                              99    3.00 0  408 210 
 ORTC HZ I        1257 32.86        11.8 0.25            100            408 210 
 PRA  HZ EP       1256 40.37                              99    0.13 6  410 204 
 PRA  HN ES   2   1257 24.59                              99    1.67 3  410 204 
 PRA  HZ I        1257 30.97        16.2 0.31            100            410 204 
 CRJC HZ EP       1256 42.46                              98   -1.02 5  436   8 
 CRJC HN ES       1257 27.75                              98   -0.93 5  436   8 
 CRJC HZ I        1257 32.88        23.1 0.39             99            436   8 
 URI  HZ EP   4   1256 53.47                              95   -1.37 0  531  17 
 URI  HE ES   4   1257 46.54                              95   -2.36 0  531  17 
 MACC HZ EP   1   1256 56.65                              95   -0.69 3  551 185 
 MACC HE ES   3   1257 51.68                              95   -1.67 1  551 185 
                                                                                
