 2012  131 1726 48.1 L   6.772 -73.137143.9  RSN 13 0.4 2.8LRSN                1
 GAP=139        0.89       3.2     4.4  5.2 -0.2067E+01  0.8045E+01  0.2290E+01E
 Epicentro: LOS SANTOS - SANTANDER                                             3
 ACTION:UP  12-02-03 08:22 OP:REBC STATUS:               ID:20120131172648 L   I
 2012-01-31-1720-00M.COL___185                                                 6
 STAT SP IPHASW D HRMM SECON CODA AMPLIT PERI AZIMU VELO SNR AR TRES W  DIS CAZ7
 BAR2 SZ IP     D 1727  7.52                             172     0.110   21 194 
 BAR2 SZ I        1727  7.73       120.2 0.16                            21 194 
 BAR2 SZ ES       1727 22.81                             172     0.310   21 194 
 GIR2 SZ IP       1727  7.78                             166     0.210   34 350 
 GIR2 SZ ES   1   1727 22.12                             166    -0.7 7   34 350 
 BRR  HZ IP     C 1727  9.55                             151     0.410   74 300 
 BRR  HZ I        1727 10.03       236.8 0.18                            74 300 
 BRR  HE ES   1   1727 25.69                             151     0.1 7   74 300 
 PAM  SZ EP       1727 10.56                             150     0.410   79  38 
 PAM  SN ES   1   1727 26.88                             150    -0.6 7   79  38 
 RUS  HZ EP       1727 11.36                             144     0.010   97 176 
 RUS  HN ES   1   1727 29.58                             144     0.0 7   97 176 
 RUS  HZ I        1727 30.74        55.2 0.33                            97 176 
 PTB  HZ EP       1727 14.24                             131    -0.7 9  148 260 
 OCA  SZ EP       1727 16.76                             128     0.2 9  163 353 
 OCA  SZ ES   1   1727 38.53                             128    -0.2 7  163 353 
 OCA  SZ I        1727 43.60        51.7 0.47                           163 353 
 ZAR  HZ EP   1   1727 20.27                             122    -0.3 6  206 293 
 ZAR  HE ES   1   1727 45.58                             122    -0.4 6  206 293 
 ZAR  HZ I        1727 54.00        89.7 0.38                           206 293 
 NOR  SZ EP   1   1727 23.36                             118    -0.2 6  234 235 
 NOR  SN ES   1   1727 51.26                             118     0.0 6  234 235 
 CHI  HZ EP   1   1727 24.75                             117    -0.6 6  246 196 
 CHI  HE ES   1   1727 54.20                             117    -0.2 6  246 196 
 HEL  HZ EP   1   1727 28.40                             114     0.2 6  272 256 
 HEL  HN ES   1   1728  0.44                             114     0.9 6  272 256 
 HEL  HZ I        1728  6.48        29.9 0.30                           272 256 
 TOL  SZ EP   1   1727 36.29                             109     0.2 5  342 225 
 PRA  HZ EP   1   1727 40.86                             106    -0.4 4  390 210 
 PRA  HN ES   1   1728 22.99                             106     0.2 4  390 210 
                                                                                
