 2013  131 1615 15.7 L   6.774 -73.131139.3  RSN  5 0.3 1.6LRSN                1
 GAP=140        0.88       4.6     4.5  7.8 -0.2033E+01  0.3106E+01  0.5484E+01E
 Epicentro: LOS SANTOS - SANTANDER                                             3
 ACTION:UPD 13-02-15 09:18 OP:ep   STATUS:               ID:20130131161515 L   I
 2013-01-31-1608-50M.COL___201                                                 6
 STAT SP IPHASW D HRMM SECON CODA AMPLIT PERI AZIMU VELO AIN AR TRES W  DIS CAZ7
 BAR2 SZ EP       1615 34.69                             171    0.1610 20.9 196 
 BRR  HZ EP       1615 36.73                             150    0.3810 74.0 300 
 BRR  HN ES       1615 52.89                             150    0.4610 74.0 300 
 PAM  SZ EP       1615 37.41                             149    0.0710 78.6  37 
 PAM  SN ES       1615 53.72                             149   -0.4710 78.6  37 
 PAM  SN I        1615 56.55         6.1 0.38            152           78.6  37 
 RUS  HZ EP       1615 38.79                             143    0.1610 97.6 177 
 RUS  HN ES       1615 56.49                             143   -0.0110 97.6 177 
 RUS  HN I        1615 57.99         5.8 0.36            146           97.6 177 
 PTB  HZ EP       1615 41.80                             130   -0.47 9  149 260 
 PTB  HN ES       1616  2.60                             130   -0.38 9  149 260 
 PTB  HN I        1616  7.82         7.1 0.30            132            149 260 
                                                                                
