 2011 1231 1619 37.5 L   6.942 -72.793131.0  RSN  3 0.1 1.6LRSN                1
 GAP=275        0.37       9.4    16.0 10.4  0.1313E+03 -0.1311E+03 -0.7121E+02E
 Epicentro: GUACA - SANTANDER                                                  3
 ACTION:UPD 12-07-13 16:19 OP:ep   STATUS:               ID:20111231161937 L   I
 2011-12-31-1617-00S.MAN___179                                                 6
 STAT SP IPHASW D HRMM SECON CODA AMPLIT PERI AZIMU VELO AIN AR TRES W  DIS CAZ7
 BAR2 SZ EP   1   1619 56.76                             155    0.10 7 57.9 228 
 BAR2 SZ ES   2   1620 11.49                             155   -0.11 5 57.9 228 
 BAR2 SZ I        1620 14.19         8.3 0.20                          57.9 228 
 BRR  HZ EP   1   1619 59.16                             139   -0.18 7  103 280 
 BRR  HN ES   2   1620 16.61                             139    0.22 5  103 280 
 BRR  HZ I        1620 19.72         9.7 0.07                           103 280 
 RUS  HZ EP   1   1620  1.54                             135    0.09 7  120 196 
 RUS  HN ES   2   1620 20.00                             135   -0.13 5  120 196 
 RUS  HZ I        1620 21.44         5.2 0.48                           120 196 
                                                                                
