 2012  731 1702 34.9 L   6.768 -73.167145.9  RSN  5 0.3 1.8LRSN                1
 GAP=135        0.84       6.4     7.4  7.9  0.1038E+02 -0.6369E+00 -0.6937E+01E
 Epicentro: LOS SANTOS - SANTANDER                                             3
 ACTION:UPD 12-08-14 11:46 OP:ep   STATUS:               ID:20120731170234 L   I
 2012-07-31-1700-00M.COL___212                                                 6
 STAT SP IPHASW D HRMM SECON CODA AMPLIT PERI AZIMU VELO AIN AR TRES W  DIS CAZ7
 BAR2 SZ EP       17 2 54.57                             172     0.110   20 185 
 BAR2 SZ ES   1   17 3  9.15                             172    -0.6 7   20 185 
 BAR2 SZ I        17 3 10.85        16.2 0.44            167             20 185 
 BRR  HZ EP       17 2 56.13                             153     0.110   71 302 
 BRR  HN ES   1   17 3 13.04                             153     0.5 7   71 302 
 BRR  HZ I        17 3 17.01        13.4 0.38            148             71 302 
 PAM  SZ EP       17 2 57.24                             149    -0.110   82  39 
 PAM  SZ I        17 2 57.47        18.8 0.20            156             82  39 
 RUS  HZ EP       17 2 58.66                             145     0.210   97 175 
 RUS  HN ES   1   17 3 16.88                             145     0.1 7   97 175 
 RUS  HZ I        17 3 18.45         6.4 0.24            146             97 175 
 PTB  HZ EP       17 3  1.29                             133    -0.3 9  145 260 
 PTB  HN ES   3   17 3 21.73                             133    -0.7 2  145 260 
 PTB  HZ I        17 3 29.42         3.8 0.34            130            145 260 
