 2016  731 1009  1.7 L   6.804 -73.116145.9  RSN  6 0.3 1.3LRSN                1
 GAP=140        0.87       3.7     4.4  5.8  0.8763E-01  0.6929E+01  0.5372E+00E
 Epicentro: LOS SANTOS - SANTANDER                                             3
 ACTION:UPD 17-03-29 16:57 OP:lp   STATUS:               ID:20160731100901 L   I
 OLDACT:REG 16-07-31 20:28 OP:ar   STATUS:               ID:20160731100732     3
 2016-07-31-1008-00M.COL___341                                                 6
 STAT SP IPHASW D HRMM SECON CODA AMPLIT PERI AZIMU VELO AIN AR TRES W  DIS CAZ7
 BAR2 EZ EP       10 9 20.73                             170   -0.6110 24.6 197 
 BAR2 EZ ES       10 9 37.15                             170    0.4710 24.6 197 
 BAR2 EZ I        10 9 37.52         4.5 0.25            165           24.6 197 
 BRR  HZ EP       10 9 22.69                             152   -0.2910 73.9 297 
 BRR  HE ES       10 9 39.81                             152    0.2010 73.9 297 
 BRR  HZ I        10 9 51.77         6.3 0.24            148           73.9 297 
 PAM  EZ EP       10 9 24.00                             152    0.2510 74.9  38 
 PAM  EN ES       10 9 40.86                             152   -0.1210 74.9  38 
 PAM  EZ I        10 9 41.56         3.1 0.34            159           74.9  38 
 RUS  HZ EP       10 9 25.68                             144    0.2210  101 178 
 RUS  HE ES       10 9 43.66                             144   -0.3510  101 178 
 RUS  HZ I        10 9 47.12         1.3 0.58            147            101 178 
 SPBC HZ EP       10 9 30.64                             129    0.23 9  166 220 
 SPBC HN ES       10 9 52.84                             129    0.01 9  166 220 
 SPBC HZ I        1010  1.83         3.2 0.42            130            166 220 
 ZAR  HZ EP       10 9 34.82                             122    0.40 8  207 292 
 ZAR  HE ES       10 9 59.60                             122   -0.36 8  207 292 
 ZAR  HZ I        1010  6.55         2.8 0.20            123            207 292 
                                                                                
