 2017  131 1404 52.5 L   6.752 -73.174153.2  RSN  4 0.2 1.3LRSN                1
 GAP=230        0.47       4.4     3.7  4.5  0.6904E+01 -0.3712E+00 -0.4326E+01E
 Epicentro: LOS SANTOS - SANTANDER                                             3
 ACTION:UPD 17-05-22 16:05 OP:jn   STATUS:               ID:20170131140452 L   I
 OLDACT:REG 17-01-31 21:13 OP:ar   STATUS:               ID:20170131135749     3
 2017-01-31-1358-00M.COL___349                                                 6
 STAT SP IPHASW D HRMM SECON CODA AMPLIT PERI AZIMU VELO AIN AR TRES W  DIS CAZ7
 BAR2 EZ EP       14 5 12.63                             173   -0.3310 17.7 183 
 BAR2 EZ ES       14 5 28.87                             173   -0.0210 17.7 183 
 BAR2 EZ I        14 5 28.89         5.4 0.48            165           17.7 183 
 BRR  HZ EP       14 5 14.71                             154    0.2210 71.3 303 
 BRR  HN ES   2   14 5 31.77                             154    0.15 5 71.3 303 
 RUS  HZ EP       14 5 16.73                             147    0.0510 95.5 174 
 RUS  HE ES       14 5 35.61                             147    0.1010 95.5 174 
 RUS  HZ I        14 5 36.15         2.1 0.20            144           95.5 174 
 PTB  HZ EP   2   14 5 19.90                             134    0.14 5  144 261 
 PTB  HN ES       14 5 40.90                             134   -0.10 9  144 261 
 PTB  HZ I        14 5 47.92         3.2 0.30            129            144 261 
                                                                                
