 2011 1031 1620 59.0 L   6.801 -73.141145.6  RSN 12 0.4 2.5LRSN                1
 GAP=137        0.68       3.0     4.5  4.9 -0.1209E+01  0.8304E+01  0.1366E+00E
 Epicentro: LOS SANTOS - SANTANDER                                             3
 ACTION:UPD 12-07-13 16:07 OP:ep   STATUS:               ID:20111031162058 L   I
 2011-10-31-1619-24S.COL___176                                                 6
 STAT SP IPHASW D HRMM SECON CODA AMPLIT PERI AZIMU VELO AIN AR TRES W  DIS CAZ7
 BTL  SZ EP       1621 18.85                             172    0.3410 19.1 313 
 BAR2 SZ IP       1621 18.56                             170   -0.0310 23.5 191 
 BAR2 SZ ES   1   1621 33.90                             170    0.01 7 23.5 191 
 BAR2 SZ I        1621 35.06        74.0 0.36                          23.5 191 
 BRR  HZ IP     D 1621 20.41                             152    0.2810 71.6 298 
 BRR  HZ I        1621 22.01        98.5 0.30                          71.6 298 
 BRR  HN ES   1   1621 37.13                             152    0.50 7 71.6 298 
 PAM  SZ EP       1621 21.34                             151    0.1910 77.0  39 
 PAM  SN ES   1   1621 38.29                             151   -0.16 7 77.0  39 
 RUS  HZ EP       1621 22.54                             144   -0.1810  101 176 
 RUS  HN ES   1   1621 40.79                             144   -0.45 7  101 176 
 RUS  HZ I        1621 42.88        29.6 0.28                           101 176 
 OCA  SZ EP       1621 27.16                             130   -0.11 9  160 353 
 OCA  SZ ES   1   1621 48.60                             130   -0.74 7  160 353 
 OCA  SZ I        1621 52.15        48.2 0.30                           160 353 
 ZAR  HZ EP       1621 31.33                             122   -0.12 9  204 292 
 ZAR  HE ES   3   1621 56.31                             122   -0.47 2  204 292 
 ZAR  HZ I        1622  3.10        52.4 0.32                           204 292 
 NOR  SZ EP       1621 34.83                             118    0.09 8  235 235 
 HEL  HZ EP   2   1621 40.19                             115    0.96 4  273 256 
 HEL  HN ES   2   1622  9.75                             115   -0.88 4  273 256 
 HEL  HZ I        1622 16.84        20.6 0.32                           273 256 
 RREF HZ EP   3   1621 45.83                             111    0.67 2  322 229 
 RREF HN ES   3   1622 20.83                             111   -0.35 2  322 229 
 RREF HZ I        1622 32.61        12.2 0.30                           322 229 
 PRA  HZ EP   1   1621 52.30                             106   -0.23 4  392 210 
 SJC  HZ EP   3   1621 52.54                             106   -2.01 1  409 327 
 SJC  HZ I        1622 37.45         6.3 0.74                           409 327 
                                                                                
