 2014  531 1458 24.3 L   6.750 -73.134144.0  RSN  5 0.5 1.8LRSN                1
 GAP=235        1.13       6.3     8.2  8.2  0.2438E+02  0.1492E+02  0.7195E+00E
 Epicentro: LOS SANTOS - SANTANDER                                             3
 ACTION:UPD 15-03-16 17:02 OP:nd   STATUS:               ID:20140531145824 L   I
 OLDACT:UP  14-06-01 00:21 OP:cam  STATUS:               ID:20140531145649     3
 OLDACT:REG 14-06-01 00:15 OP:cam  STATUS:               ID:20140531145649     3
 2014-05-31-1456-49M.COL___259                                                 6
 STAT SP IPHASW D HRMM SECON CODA AMPLIT PERI AZIMU VELO AIN AR TRES W  DIS CAZ7
 BAR2 SZ EP       1458 43.32                             172   -0.2610 18.3 197 
 BAR2 SZ ES       1458 58.68                             172    0.0310 18.3 197 
 BAR2 SZ I        1458 59.61        14.5 0.20            166           18.3 197 
 BRR  HZ EP       1458 44.71                             151   -0.7210 75.1 302 
 BRR  HN ES       1459  2.48                             151    0.5210 75.1 302 
 RUS  HZ EP       1458 47.64                             145    0.2110 95.0 177 
 RUS  HE ES       1459  5.53                             145    0.0210 95.0 177 
 RUS  HZ I        1459  7.03         6.7 0.34            142           95.0 177 
 SPBC HZ EP       1458 52.21                             129   -0.08 9  160 221 
 SPBC HN ES       1459 14.13                             129   -0.03 9  160 221 
 SPBC HZ I        1459 20.04         8.0 0.32            127            160 221 
 ZAR  HZ EP       1458 57.88                             122    0.96 8  207 293 
 ZAR  HN ES       1459 21.86                             122   -0.55 8  207 293 
 ZAR  HZ I        1459 23.69         5.2 0.10            121            207 293 
                                                                                
