 2011  531 1157 15.3 L   6.662 -73.011142.9  RSN  4 0.3 1.8LRSN                1
 GAP=236        0.79       7.7    10.5  9.2 -0.3981E+02 -0.2642E+02  0.1550E+01E
 Epicentro: ARATOCA - SANTANDER                                                3
 ACTION:UP  11-06-29 08:57 OP:tino STATUS:               ID:20110531115715 L   I
 2011-05-31-1155-24S.COL___113                                                 6
 STAT SP IPHASW D HRMM SECON CODA AMPLIT PERI AZIMU VELO SNR AR TRES W  DIS CAZ7
 BAR2 SZ EP   1   1157 33.90                             171    -0.6 7   20 248 
 BAR2 SZ ES   1   1157 49.82                             171     0.3 7   20 248 
 BRR  HZ EP   1   1157 37.61                             145     0.2 7   92 302 
 BRR  HZ I        1157 38.10        15.5 0.12                            92 302 
 BRR  HN ES   1   1157 54.66                             145    -0.1 7   92 302 
 BRI  SZ EP   1   1157 40.18                             138     0.4 7  119  11 
 BRI  SZ ES   1   1157 58.97                             138     0.1 7  119  11 
 BRI  SZ I        1158  4.26         6.4 0.44                           119  11 
 GRA  SZ EP   1   1157 41.36                             134     0.1 7  137  10 
 GRA  SZ I        1157 43.09         8.2 0.26                           137  10 
 GRA  SZ ES   1   1158  1.09                             134    -0.4 7  137  10 
                                                                                
