 2013  131 1303 20.4 L   6.871 -73.287135.3  RSN  5 0.4 1.5LRSN                1
 GAP=157        0.94       6.0     5.3  8.2 -0.4473E+01  0.1480E+02  0.7815E+01E
 Epicentro: BETULIA - SANTANDER                                                3
 ACTION:UPD 13-02-15 09:18 OP:ep   STATUS:               ID:20130131130320 L   I
 2013-01-31-1258-50M.COL___195                                                 6
 STAT SP IPHASW D HRMM SECON CODA AMPLIT PERI AZIMU VELO AIN AR TRES W  DIS CAZ7
 BAR2 SZ EP   1   13 3 39.05                             166    0.00 7 32.9 159 
 BAR2 SZ ES       13 3 54.13                             166    0.5510 32.9 159 
 BAR2 SZ I        13 3 55.59         9.3 0.26            167           32.9 159 
 PAM  SE EP   3   13 3 42.11                             147    0.20 2 83.1  51 
 PAM  SN ES       13 3 58.35                             147   -0.3210 83.1  51 
 PAM  SN I        13 4  0.99         8.3 0.38            147           83.1  51 
 RUS  HZ EP       13 3 43.74                             139   -0.2010  110 168 
 RUS  HZ I        13 3 44.42         2.7 0.12            141            110 168 
 RUS  HN ES       13 4  2.15                             139   -0.1310  110 168 
 PTB  HZ EP       13 3 45.99                             132    0.6610  134 254 
 PTB  HN ES       13 4  4.25                             132   -0.5010  134 254 
 CHI  HZ EP   1   13 3 57.82                             114   -0.20 6  253 191 
                                                                                
