 2016 1031 1710 28.2 L   6.343 -73.713 95.1  RSN  5 0.3 1.3LRSN                1
 GAP=121        0.70       3.6     2.4  5.7 -0.1066E+01  0.2431E+01 -0.3285E+00E
 Epicentro: SANTA HELENA DEL OPON - SANTANDER                                  3
 ACTION:UPD 16-11-09 19:24 OP:rebc STATUS:               ID:20161031171028 L   I
 OLDACT:REG 16-10-31 21:30 OP:cog  STATUS:               ID:20161031170745     3
 2016-10-31-1708-00M.COL___334                                                 6
 STAT SP IPHASW D HRMM SECON CODA AMPLIT PERI AZIMU VELO AIN AR TRES W  DIS CAZ7
 BAR2 EZ EP       1710 44.27                             143    0.2710 64.8  65 
 BAR2 EZ ES       1710 56.60                             143    0.2610 64.8  65 
 BAR2 EZ I        1710 58.47        15.2 0.16            144           64.8  65 
 PTB  HZ EP       1710 45.17                             135   -0.1610 85.1 285 
 PTB  HN ES       1710 58.60                             135   -0.1110 85.1 285 
 PTB  HZ I        1711  0.82         5.8 0.09            137           85.1 285 
 RUS  HZ EP       1710 45.55                             135   -0.4710 85.6 126 
 RUS  HE ES       1710 59.96                             135    0.0110 85.6 126 
 RUS  HZ I        1711  1.68         2.6 0.20            138           85.6 126 
 PAM  EZ EP       1710 53.39                             117    0.18 9  157  45 
 PAM  EN ES       1711 12.47                             117   -0.26 9  157  45 
 PAM  EZ I        1711 16.97         3.3 0.20            118            157  45 
 GUY2CHZ EP       1711  0.81                             109    0.37 8  221 236 
 GUY2CHN ES   4   1711 27.31                             109    1.70 0  221 236 
 GUY2CHZ I        1711 31.27         1.8 0.19                           221 236 
                                                                                
