 2011  331 1513 18.6 L   6.854 -73.107146.8  RSN 13 0.4 2.8LRSN                1
 GAP=115        0.89       4.4     6.4  7.5 -0.6076E+01  0.8460E+01  0.7251E+01E
 Epicentro: LOS SANTOS - SANTANDER                                             3
 ACTION:UP  11-06-16 14:36 OP:jfem STATUS:               ID:20110331151318 L   I
 2011-03-31-1511-28S.COL___138                                                 6
 STAT SP IPHASW D HRMM SECON CODA AMPLIT PERI AZIMU VELO SNR AR TRES W  DIS CAZ7
 BTL  SZ IP       1513 38.90                             172     0.610   19 292 
 GIR2 SZ IP       1513 38.20                             169    -0.110   27 339 
 GIR2 SZ ES   2   1513 53.75                             169     0.1 5   27 339 
 BAR2 SZ IP       1513 38.44                             168    -0.110   30 196 
 BAR2 SZ ES   2   1513 53.87                             168    -0.2 5   30 196 
 BAR2 SZ I        1513 57.01       158.6 0.73                            30 196 
 PAM  SZ EP       1513 41.08                             153     0.510   70  40 
 PAM  SE ES   2   1513 57.85                             153     0.2 5   70  40 
 BRR  HZ IP     C 1513 39.99                             152     0.010   73 293 
 BRR  HZ I        1513 40.23       299.8 0.13                            73 293 
 BRR  HN ES   2   1513 56.57                             152     0.0 5   73 293 
 GRA  SZ IP       1513 42.78                             139    -0.610  119  16 
 GRA  SZ ES   2   1514  1.82                             139    -0.9 5  119  16 
 GRA  SZ I        1514  3.25       188.8 0.28                           119  16 
 OCA  SZ EP       1513 46.40                             131    -0.1 9  155 351 
 YOP  SZ EP   1   1513 49.63                             126     0.5 7  182 155 
 YOP  SN ES   2   1514 11.70                             126    -1.2 4  182 155 
 YOP  SZ I        1514 21.48        30.9 0.28                           182 155 
 NOR  SZ EP   1   1513 54.88                             118    -0.3 6  242 234 
 CHI  HZ EP   1   1513 57.30                             117     0.2 6  256 196 
 CHI  HN ES   2   1514 27.21                             117     0.1 4  256 196 
 CHI  HZ I        1514 35.79        27.5 0.50                           256 196 
 HEL  HZ EP   2   1514  0.18                             114     0.7 4  278 255 
 HEL  HN ES   2   1514 31.04                             114    -0.4 4  278 255 
 HEL  HZ I        1514 36.49        31.6 0.20                           278 255 
 DBB  SZ EP   2   1514  6.48                             109    -0.1 3  343 273 
 PRA  HZ EP   1   1514 12.57                             106    -0.5 4  399 210 
 PRA  HN ES   2   1514 55.16                             106    -0.3 3  399 210 
                                                                                
