 2012 1231 1249 25.2 L   6.717 -73.167148.6  RSN  5 0.5 2.0LRSN                1
 GAP=229        1.24       9.9     9.1 11.1  0.4756E+02  0.2460E+02 -0.9926E+01E
 Epicentro: VILLANUEVA - SANTANDER                                             3
 ACTION:UPD 13-01-04 14:31 OP:ep   STATUS:               ID:20121231124925 L   I
 2012-12-31-1248-06M.COL___190                                                 6
 STAT SP IPHASW D HRMM SECON CODA AMPLIT PERI AZIMU VELO AIN AR TRES W  DIS CAZ7
 BAR2 SZ EP       1249 44.91                             174   -0.1010 13.9 187 
 BAR2 SZ ES       1249 59.59                             174   -0.8810 13.9 187 
 BAR2 SZ I        1250  1.46        10.7 0.22                          13.9 187 
 BRR  HZ EP       1249 46.88                             152    0.0710 74.1 306 
 BRR  HZ I        1249 47.14        13.7 0.26                          74.1 306 
 BRR  HN ES       1250  4.48                             152    0.8010 74.1 306 
 RUS  HN ES       1250  7.38                             147    0.5110 91.6 174 
 PTB  HZ EP       1249 52.02                             133   -0.03 9  144 262 
 PTB  HN ES       1250 12.80                             133   -0.21 9  144 262 
 PTB  HN I        1250 18.61        26.2 0.38                           144 262 
 ZAR  HN ES       1250 23.30                             123   -0.25 8  206 295 
                                                                                
