 2017  731 1349 50.6 L   6.830 -73.140150.4  RSN 19 0.6 2.3LRSN                1
 GAP= 65        1.14       3.1     3.3  5.6 -0.1609E+01  0.4747E+01 -0.1464E+01E
 Epicentro: LOS SANTOS - SANTANDER                                             3
 ACTION:UPD 17-08-30 15:38 OP:rebc STATUS:               ID:20170731134950 L   I
 OLDACT:UP  17-07-31 23:52 OP:dani STATUS:               ID:20170731134738     3
 OLDACT:UP  17-07-31 23:52 OP:dani STATUS:               ID:20170731134738     3
 OLDACT:REG 17-07-31 20:56 OP:dani STATUS:               ID:20170731134738     3
 2017-07-31-1348-00M.COL___380                                                 6
 STAT SP IPHASW D HRMM SECON CODA AMPLIT PERI AZIMU VELO AIN AR TRES W  DIS CAZ7
 BAR2 EZ IP     C 1350 10.94                             170    0.0710 26.7 190 
 BAR2 EZ ES       1350 26.80                             170    0.1310 26.7 190 
 BAR2 EZ I        1350 28.71        61.6 0.22            168           26.7 190 
 BRR  HZ EP     C 1350 12.86                             154    0.6510 70.2 296 
 BRR  HE ES   3   1350 30.32                             154    1.27 2 70.2 296 
 BRR  HZ I        1350 31.28        40.7 0.30            150           70.2 296 
 PAM  EZ EP       1350 13.82                             152    0.6710 74.4  41 
 PAM  EN ES       1350 30.79                             152    0.0610 74.4  41 
 PAM  EZ I        1350 32.20        15.1 0.14            156           74.4  41 
 RUS  HZ EP       1350 14.82                             144   -0.2310  104 177 
 RUS  HN ES       1350 33.77                             144   -0.3510  104 177 
 RUS  HZ I        1350 34.61        13.9 0.32            146            104 177 
 PTB  HZ EP       1350 17.45                             133   -0.62 9  149 258 
 PTB  HN ES       1350 39.01                             133   -0.48 9  149 258 
 PTB  HZ I        1350 44.63        26.1 0.54            131            149 258 
 TAM  HZ EP     C 1350 19.09                             131    0.40 9  155 106 
 SPBC HZ EP       1350 19.85                             130    0.10 9  166 218 
 SPBC HN ES       1350 42.03                             130   -0.45 9  166 218 
 SPBC HZ I        1350 45.21        48.0 0.12            130            166 218 
 YPLC HZ EP       1350 21.04                             127    0.04 9  179 152 
 ZAR  HZ EP       1350 23.35                             123    0.06 9  203 291 
 ZAR  HE ES       1350 49.13                             123    0.35 9  203 291 
 ZAR  HZ I        1350 55.49        47.7 0.54            123            203 291 
 NOR  HZ EP       1350 26.90                             119    0.03 8  237 234 
 NOR  HE ES       1350 55.28                             119    0.12 8  237 234 
 NOR  HZ I        1350 59.04        17.0 0.18            119            237 234 
 CHI  HZ EP       1350 29.29                             118    0.35 8  252 195 
 CHI  HN ES       1350 58.32                             118   -0.51 8  252 195 
 CHI  HZ I        1351  3.88         8.5 0.51            119            252 195 
 HEL  HZ EP   3   1350 32.22                             116    1.00 2  274 255 
 HEL  HN ES       1351  3.77                             116    0.88 8  274 255 
 HEL  HZ I        1351 11.58        11.0 0.34            116            274 255 
 URE  HZ EP       1350 31.03                             114   -0.80 7  283 291 
 URE  HE ES   3   1351  2.86                             114   -1.13 2  283 291 
 URE  HZ I        1351 12.94        16.6 0.18            115            283 291 
 GUY2CHZ EP   3   1350 36.15                             113    1.44 2  304 234 
 GUY2CHN ES       1351  8.52                             113   -0.59 7  304 234 
 GUY2CHZ I        1351 21.00        12.4 0.58                           304 234 
 LL6C HZ EP       1350 36.29                             111    0.16 7  322 357 
 LL6C HN ES       1351 10.39                             111   -1.25 7  322 357 
 CBOC HZ EP   3   1350 38.87                             111    0.97 2  335 252 
 CBOC HN ES       1351 13.89                             111   -0.90 7  335 252 
 CBOC HZ I        1351 27.61         3.6 0.34            111            335 252 
 DBB  EZ EP       1350 38.38                             110    0.06 7  340 274 
 DBB  EE ES       1351 17.09                             110    1.56 7  340 274 
 DBB  EZ I        1351 18.45         7.3 0.14            111            340 274 
 PRA  HZ EP       1350 44.79                             107    0.12 6  395 209 
 PRA  HE ES       1351 27.12                             107    0.29 6  395 209 
 PRA  HZ I        1351 32.28        10.4 0.63            108            395 209 
 SJC  HZ EP       1350 45.13                             107   -0.91 6  407 327 
 SJC  HN ES   4   1351 26.13                             107   -3.14 0  407 327 
 SJC  HZ I        1351 31.55         4.0 0.34            107            407 327 
                                                                                
