 2012  731 1806 30.1 L   6.769 -73.161144.4  RSN  5 0.3 1.7LRSN                1
 GAP=136        0.83       5.7     5.7  8.0 -0.7030E+01  0.1231E+02 -0.5421E+01E
 Epicentro: LOS SANTOS - SANTANDER                                             3
 ACTION:UPD 12-08-14 11:46 OP:ep   STATUS:               ID:20120731180630 L   I
 2012-07-31-1800-00M.COL___212                                                 6
 STAT SP IPHASW D HRMM SECON CODA AMPLIT PERI AZIMU VELO AIN AR TRES W  DIS CAZ7
 BAR2 SZ EP       18 6 49.73                             172     0.210   20 187 
 BAR2 SZ ES   1   18 7  4.70                             172     0.0 7   20 187 
 BAR2 SZ I        18 7  8.40        12.1 0.50            169             20 187 
 BRR  HZ EP       18 6 51.69                             152     0.510   72 302 
 BRR  HN ES   3   18 7  8.43                             152     0.9 2   72 302 
 PAM  SZ EP       18 6 52.42                             149     0.010   81  39 
 PAM  SZ I        18 6 52.70         9.5 0.44            156             81  39 
 PAM  SN ES   1   18 7  9.35                             149    -0.5 7   81  39 
 RUS  HZ EP       18 6 53.42                             144    -0.110   97 175 
 RUS  HN ES   1   18 7 11.84                             144     0.1 7   97 175 
 RUS  HZ I        18 7 14.80         5.2 0.50            146             97 175 
 PTB  HZ EP       18 6 56.45                             132    -0.3 9  145 260 
 PTB  HN ES   1   18 7 17.27                             132    -0.3 7  145 260 
 PTB  HZ I        18 7 23.40         6.4 0.48            133            145 260 
