 2015  531 1611 42.1 L   6.799 -73.107154.1  RSN  8 0.3 1.9LRSN                1
 GAP=187        0.68       2.4     4.3  4.9 -0.1606E+00  0.1220E+01 -0.1020E+01E
 Epicentro: LOS SANTOS - SANTANDER                                             3
 ACTION:UPD 15-09-10 22:08 OP:cam  STATUS:               ID:20150531161142 L   I
 OLDACT:REG 15-05-31 20:28 OP:spq  STATUS:               ID:20150531160749     3
 2015-05-31-1607-49M.COL___306                                                 6
 STAT SP IPHASW D HRMM SECON CODA AMPLIT PERI AZIMU VELO AIN AR TRES W  DIS CAZ7
 BAR2 EZ EP       1612  2.64                             171   -0.1010 24.4 200 
 BAR2 EZ ES   1   1612 18.62                             171   -0.23 7 24.4 200 
 BAR2 EZ I        1612 19.66         9.7 0.09            168           24.4 200 
 BRR  HZ EP       1612  4.57                             153    0.2110 75.0 297 
 BRR  HN ES       1612 22.10                             153    0.3810 75.0 297 
 BRR  HZ I        1612 24.39         6.8 0.20            150           75.0 297 
 RUS  HZ EP   1   1612  6.28                             146   -0.37 7  100 179 
 RUS  HN ES   1   1612 25.52                             146   -0.28 7  100 179 
 RUS  HZ I        1612 27.81         8.6 0.44            147            100 179 
 OCA  HZ EP   1   1612 11.18                             131    0.06 7  161 352 
 OCA  HN ES       1612 33.99                             131    0.23 9  161 352 
 OCA  HZ I        1612 37.54        15.5 0.30            132            161 352 
 SPBC HZ EP       1612 11.72                             130    0.23 9  166 220 
 SPBC HE ES       1612 34.58                             130    0.16 9  166 220 
 SPBC HZ I        1612 39.38         9.9 0.18            130            166 220 
 ZAR  HE ES       1612 41.09                             124   -0.47 8  208 292 
 ZAR  HZ I        1612 47.47         8.5 0.34            123            208 292 
 NOR  HZ EP   1   1612 18.62                             120   -0.06 6  238 235 
 NOR  HN ES   1   1612 47.28                             120    0.06 6  238 235 
 NOR  HZ I        1612 50.95         6.3 0.18            120            238 235 
 SML  HZ EP       1612 19.56                             119    0.16 8  246 334 
 SML  HN ES   1   1612 47.67                             119   -0.83 6  246 334 
 SML  HZ I        1612 52.38         6.4 0.22            119            246 334 
                                                                                
