 2013  731 1121  4.7 L   6.844 -73.167133.2  RSN  7 0.2 1.9LRSN                1
 GAP=181        0.46       2.5     4.0  3.4  0.5213E+01  0.7263E+00 -0.2649E+01E
 Epicentro: LOS SANTOS - SANTANDER                                             3
 ACTION:UPD 13-08-12 10:41 OP:ep   STATUS:               ID:20130731112104 L   I
 OLDACT:UP  13-07-31 16:12 OP:cam  STATUS:               ID:20130731111959     3
 OLDACT:UP  13-07-31 16:10 OP:cam  STATUS:               ID:20130731111959     3
 OLDACT:UP  13-07-31 16:09 OP:cam  STATUS:               ID:20130731111959     3
 OLDACT:REG 13-07-31 14:51 OP:cam  STATUS:               ID:20130731111959     3
 2013-07-31-1119-59M.COL___265                                                 6
 STAT SP IPHASW D HRMM SECON CODA AMPLIT PERI AZIMU VELO AIN AR TRES W  DIS CAZ7
 GIR2 SZ EP       1121 22.86                             168    0.1110 26.1 354 
 GIR2 SZ ES       1121 37.12                             168    0.3010 26.1 354 
 GIR2 SZ I        1121 37.41        17.1 0.20            163           26.1 354 
 BAR2 SZ EP       1121 22.99                             168    0.0510 27.9 184 
 BAR2 SZ I        1121 23.28        15.1 0.08            172           27.9 184 
 BAR2 SZ ES       1121 37.05                             168   -0.1110 27.9 184 
 BRR  HZ EP       1121 24.27                             152    0.0210 66.9 296 
 BRR  HE ES       1121 39.50                             152   -0.0010 66.9 296 
 RUS  HN ES       1121 45.30                             140   -0.2210  106 175 
 OCA  HN ES   2   1121 51.97                             128   -0.56 5  155 354 
 ZAR  HE ES   1   1122  0.28                             120   -0.03 6  200 291 
 SML  HZ EP       1121 40.16                             115    0.10 8  238 335 
 SML  HN ES   1   1122  7.42                             115   -0.22 6  238 335 
 SML  HZ I        1122 15.68         7.3 0.10            113            238 335 
                                                                                
