 2016  531 1625 30.5 L   6.795 -73.161144.0  RSN 12 0.4 2.3LRSN                1
 GAP=101        0.99       3.7     3.1  5.3 -0.1141E+01  0.3692E+01  0.6070E+01E
 Epicentro: LOS SANTOS - SANTANDER                                             3
 ACTION:UPD 16-08-18 17:51 OP:cam  STATUS:               ID:20160531162530 L   I
 OLDACT:REG 16-05-31 21:01 OP:ar   STATUS:               ID:20160531161744     3
 2016-05-31-1617-44M.COL___317                                                 6
 STAT SP IPHASW D HRMM SECON CODA AMPLIT PERI AZIMU VELO AIN AR TRES W  DIS CAZ7
 BAR2 EZ EP       1625 49.85                             171   -0.0510 22.6 186 
 BAR2 EZ ES       1626  4.73                             171   -0.3010 22.6 186 
 BAR2 EZ I        1626  5.74        40.5 0.34            171           22.6 186 
 BRR  HZ EP       1625 51.44                             153    0.0610 69.9 300 
 BRR  HN ES       1626  8.63                             153    0.9610 69.9 300 
 BRR  HZ I        1626 12.27        27.7 0.14            151           69.9 300 
 PAM  EZ EP       1625 52.89                             150    0.2810 78.9  40 
 PAM  EN ES       1626  9.81                             150   -0.0610 78.9  40 
 PAM  EZ I        1626 12.37        19.9 0.38            151           78.9  40 
 RUS  HZ EP       1625 53.91                             144   -0.1310  100 175 
 RUS  HN ES       1626 12.65                             144    0.2410  100 175 
 RUS  HZ I        1626 13.36        21.9 0.28            145            100 175 
 PTB  HZ EP       1625 56.23                             132   -0.92 9  146 259 
 PTB  HN ES       1626 17.53                             132   -0.42 9  146 259 
 PTB  HZ I        1626 19.19        15.3 0.14            132            146 259 
 TAM  HZ EP       1625 58.14                             130   -0.03 9  157 105 
 TAM  HN ES       1626 19.36                             130   -0.41 9  157 105 
 TAM  HZ I        1626 20.24        18.3 0.36            132            157 105 
 NOR  HZ EP       1626  5.85                             118   -0.08 8  233 234 
 NOR  HN ES       1626 33.76                             118    0.18 8  233 234 
 NOR  HZ I        1626 35.32        10.9 0.24            119            233 234 
 CHI  HZ EP       1626  8.30                             117    0.31 8  248 195 
 CHI  HN ES       1626 37.55                             117    0.32 8  248 195 
 CHI  HZ I        1626 39.49        11.9 0.32            118            248 195 
 URE  HZ EP   4   1626 13.70                             113    2.38 0  282 292 
 URE  HE ES   4   1626 40.03                             113   -3.13 0  282 292 
 URE  HZ I        1626 51.67        14.2 0.28            113            282 292 
 DBB  SZ EP       1626 17.70                             109   -0.00 7  338 274 
 DBB  SZ ES       1626 54.01                             109   -0.52 7  338 274 
 DBB  SZ I        1626 55.29        23.4 0.68            109            338 274 
 PRA  HZ EP       1626 24.22                             106    0.42 6  391 209 
 PRA  HN ES       1627  5.12                             106   -0.26 6  391 209 
 PRA  HZ I        1627 11.61         7.9 0.48            107            391 209 
 ORTC HZ EP       1626 25.14                             106    0.96 6  394 216 
 ORTC HN ES       1627  5.84                             106   -0.22 6  394 216 
 ORTC HZ I        1627 10.32         4.0 0.36            107            394 216 
                                                                                
