 2017 1031 1234 21.4 L   6.762 -73.140147.2  RSN  5 0.3 1.3LRSN                1
 GAP=139        0.84       5.2     4.5  6.8 -0.3720E+01  0.1754E+01  0.6249E+01E
 Epicentro: LOS SANTOS - SANTANDER                                             3
 ACTION:UPD 17-11-07 19:40 OP:rebc STATUS:               ID:20171031123421 L   I
 OLDACT:UP  17-10-31 23:37 OP:mg   STATUS:               ID:20171031122738     3
 OLDACT:REG 17-10-31 20:18 OP:mg   STATUS:               ID:20171031122738     3
 2017-10-31-1228-00M.COL___444                                                 6
 STAT SP IPHASW D HRMM SECON CODA AMPLIT PERI AZIMU VELO AIN AR TRES W  DIS CAZ7
 BAR2 EZ EP       1234 41.38                             172    0.2410 19.3 194 
 BAR2 EZ ES   1   1234 56.85                             172    0.32 7 19.3 194 
 BAR2 EZ I        1234 58.04         3.4 0.34            170           19.3 194 
 BRR  HZ EP       1234 43.18                             152    0.3210 73.8 301 
 BRR  HN ES       1235  0.01                             152    0.4210 73.8 301 
 BRR  HZ I        1235  1.96         8.2 0.41            154           73.8 301 
 PAM  EZ EP       1234 43.89                             150   -0.0610 80.3  37 
 PAM  EN ES       1235  1.04                             150   -0.5010 80.3  37 
 PAM  EZ I        1235  1.65         5.1 0.38            155           80.3  37 
 RUS  HZ EP       1234 45.10                             145    0.1010 96.3 176 
 RUS  HN ES   1   1235  3.26                             145   -0.14 7 96.3 176 
 RUS  HZ I        1235  7.11         2.1 0.24            145           96.3 176 
 PTB  HZ EP       1234 48.32                             132   -0.15 9  148 260 
 PTB  HN ES       1235  9.03                             132   -0.56 9  148 260 
 PTB  HZ I        1235 11.82         1.8 0.12            134            148 260 
                                                                                
