 2016 1231 1423 34.4 L   6.773 -73.011142.1  RSN  5 0.5 1.5LRSN                1
 GAP=249        1.14       6.2     9.3  8.2  0.1485E+02  0.1993E+02  0.1762E+02E
 Epicentro: CEPITA - SANTANDER                                                 3
 ACTION:UPD 17-01-11 20:21 OP:rebc STATUS:               ID:20161231142334 L   I
 OLDACT:DUP 16-12-31 22:52 OP:lv   STATUS:               ID:20161231141745d    3
 2016-12-31-1418-00M.COL___363                                                 6
 STAT SP IPHASW D HRMM SECON CODA AMPLIT PERI AZIMU VELO AIN AR TRES W  DIS CAZ7
 BAR2 EZ EP       1423 53.81                             168    0.1110 27.5 224 
 BAR2 EZ ES       1424  8.89                             168    0.1510 27.5 224 
 BAR2 EZ I        1424  9.98         7.4 0.22            166           27.5 224 
 BRR  HZ EP       1423 55.69                             147   -0.3910 85.9 296 
 BRR  HN ES       1424 12.75                             147   -0.2310 85.9 296 
 BRR  HZ I        1424 16.04         5.4 0.37            147           85.9 296 
 RUS  HZ EP       1423 58.33                             144    0.7410 97.7 185 
 RUS  HE ES       1424 15.73                             144    0.0610 97.7 185 
 RUS  HZ I        1424 17.71         3.9 0.36            144           97.7 185 
 CHI  HZ EP       1424 11.57                             116   -0.50 8  250 199 
 CHI  HN ES       1424 40.49                             116   -0.95 8  250 199 
 CHI  HZ I        1424 44.88         2.9 0.32            117            250 199 
 GUY2CHZ EP       1424 19.22                             111    0.16 7  312 237 
 GUY2CHN ES       1424 54.68                             111    0.79 7  312 237 
                                                                                
