 2016  131 1323 10.4 L   6.171 -73.709109.0  RSN  5 0.2 1.4LRSN                1
 GAP=115        0.53       1.9     2.2  4.3 -0.4186E+00  0.7761E+00  0.1145E+01E
 Epicentro: LANDAZURI - SANTANDER                                              3
 ACTION:UPD 16-03-09 23:30 OP:cam  STATUS:               ID:20160131132310 L   I
 OLDACT:UP  16-02-01 00:13 OP:cara STATUS:               ID:20160131131760d    3
 OLDACT:DUP 16-02-01 00:07 OP:cara STATUS:               ID:20160131131760d    3
 2016-01-31-1317-59S.COL___229                                                 6
 STAT SP IPHASW D HRMM SECON CODA AMPLIT PERI AZIMU VELO AIN AR TRES W  DIS CAZ7
 BAR2 EZ EP       1323 28.51                             143    0.1710 74.6  51 
 BAR2 EZ ES       1323 42.12                             143   -0.1810 74.6  51 
 BAR2 EZ I        1323 43.39        17.1 0.16            146           74.6  51 
 RUS  HZ EP       1323 28.64                             143   -0.1410 75.8 114 
 RUS  HE ES       1323 43.13                             143    0.0310 75.8 114 
 RUS  HZ I        1323 43.73         3.5 0.34            145           75.8 114 
 PTB  HZ EP       1323 29.01                             137   -0.4010 92.2 296 
 PTB  HE ES       1323 44.46                             137    0.2410 92.2 296 
 PTB  HZ I        1323 47.15         4.5 0.22            137           92.2 296 
 CHI  HZ EP       1323 37.75                             118    0.14 9  170 181 
 CHI  HE ES       1323 58.82                             118    0.02 9  170 181 
 CHI  HZ I        1324  1.90         2.4 0.80            120            170 181 
 PAM  EZ EP       1323 37.79                             118    0.06 9  171  41 
 PAM  EE ES       1323 59.14                             118    0.12 9  171  41 
 PAM  EZ I        1324  0.82         4.7 0.26            120            171  41 
                                                                                
