 2014  131 1742 51.5 L   6.744 -73.138140.8  RSN 12 0.6 2.1LRSN                1
 GAP=121        1.33       4.9     5.2  6.6 -0.1090E+02  0.3458E+01  0.8190E+01E
 Epicentro: JORDAN - SANTANDER                                                 3
 ACTION:UPD 14-03-13 10:00 OP:ep   STATUS:               ID:20140131174251 L   I
 OLDACT:REG 14-01-31 16:28 OP:stll STATUS:               ID:20140131173817     3
 2014-01-31-1738-17M.COL___243                                                 6
 STAT SP IPHASW D HRMM SECON CODA AMPLIT PERI AZIMU VELO AIN AR TRES W  DIS CAZ7
 BAR2 SZ IP     C 1743 10.76                             172    0.3610 17.5 196 
 BAR2 SZ ES       1743 25.04                             172   -0.1310 17.5 196 
 BAR2 SZ I        1743 27.29        39.3 0.28            170           17.5 196 
 BRR  HZ EP       1743 12.76                             150    0.4410 75.1 302 
 BRR  HN ES       1743 29.22                             150    0.6410 75.1 302 
 BRR  HZ I        1743 31.26        11.8 0.30            149           75.1 302 
 PAM  SZ EP       1743 13.51                             148    0.0710 81.7  36 
 PAM  SZ I        1743 13.85        15.9 0.24            152           81.7  36 
 PAM  SN ES       1743 30.35                             148   -0.2110 81.7  36 
 RUS  HZ EP       1743 14.69                             144    0.3910 94.4 176 
 RUS  HN ES       1743 32.24                             144    0.1510 94.4 176 
 RUS  HZ I        1743 34.59         9.0 0.34            145           94.4 176 
 PTB  HZ EP       1743 17.40                             131   -0.63 9  148 261 
 PTB  HE ES       1743 37.82                             131   -0.92 9  148 261 
 PTB  HZ I        1743 46.04        18.3 0.42            130            148 261 
 SPBC HZ EP       1743 19.57                             129    0.37 9  159 221 
 SPBC HN ES       1743 40.12                             129   -0.71 9  159 221 
 NOR  HZ EP       1743 26.86                             118    0.24 8  232 236 
 NOR  HN ES       1743 54.04                             118    0.01 8  232 236 
 NOR  HZ I        1744  0.21        13.2 0.34            118            232 236 
 CHI  HZ EP       1743 28.87                             117    0.59 8  243 196 
 CHI  HZ I        1743 31.41         5.8 0.50            117            243 196 
 CHI  HN ES       1743 56.99                             117   -0.00 8  243 196 
 GUY2CHZ EP       1743 35.21                             112    0.67 7  298 236 
 GUY2CHN ES       1744  8.24                             112    0.10 7  298 236 
 GUY2CHZ I        1744 17.16        11.5 0.40                           298 236 
 SOCV BZ EP       1743 32.85                             111   -1.75 7  304  56 
 RREF BZ EP       1743 37.97                             110    0.94 7  318 230 
 RREF BN ES       1744 12.11                             110   -0.45 7  318 230 
 RREF BZ I        1744 19.86         7.5 0.24            110            318 230 
 PRA  HZ EP       1743 44.09                             106   -0.16 6  387 210 
 PRA  HN ES       1744 24.56                             106   -0.86 6  387 210 
 PRA  HZ I        1744 33.24         7.6 0.28            106            387 210 
                                                                                
