 2015 1231 1447 32.0 L   6.818 -73.181137.2  RSN 13 0.5 2.2LRSN                1
 GAP=131        0.72       3.3     3.2  4.9 -0.2439E+01  0.6102E+01  0.3917E+01E
 Epicentro: ZAPATOCA - SANTANDER                                               3
 ACTION:UPD 16-02-04 15:09 OP:cam  STATUS:               ID:20151231144732 L   I
 OLDACT:REG 15-12-31 20:43 OP:dnl  STATUS:               ID:20151231143747     3
 2015-12-31-1437-47M.COL___317                                                 6
 STAT SP IPHASW D HRMM SECON CODA AMPLIT PERI AZIMU VELO AIN AR TRES W  DIS CAZ7
 BAR2 EZ IP     D 1447 50.55                             169   -0.1310 25.0 180 
 BAR2 EZ ES       1448  5.31                             169    0.1010 25.0 180 
 BAR2 EZ I        1448  8.46        27.1 0.16            168           25.0 180 
 BRR  HZ EP   2   1447 52.62                             152    0.61 5 66.8 299 
 BRR  HE ES       1448  7.41                             152   -0.1810 66.8 299 
 BRR  HZ I        1448 12.98        20.2 0.23            149           66.8 299 
 PAM  EZ EP   2   1447 53.61                             149    0.19 5 78.4  43 
 PAM  EN ES       1448 10.37                             149    0.2810 78.4  43 
 PAM  EZ I        1448 11.36        23.4 0.43            153           78.4  43 
 RUS  HZ EP   2   1447 54.64                             141   -0.50 5  103 174 
 RUS  HN ES   2   1448 12.46                             141   -0.69 5  103 174 
 RUS  HZ I        1448 14.03         9.9 0.16            142            103 174 
 PTB  HZ EP   2   1447 57.74                             131   -0.26 5  144 258 
 PTB  HN ES       1448 18.05                             131   -0.20 9  144 258 
 PTB  HZ I        1448 20.32        15.6 0.25            129            144 258 
 SPBC HZ EP   2   1447 59.76                             127   -0.06 5  162 217 
 SPBC HN ES   2   1448 21.98                             127    0.50 5  162 217 
 SPBC HZ I        1448 28.59        24.8 0.31            127            162 217 
 ZAR  HZ EP   2   1448  3.65                             121    0.17 4  200 292 
 ZAR  HE ES   1   1448 28.43                             121    0.43 6  200 292 
 ZAR  HZ I        1448 35.26        28.8 0.20            120            200 292 
 NOR  HZ EP       1448  6.60                             117   -0.47 8  233 233 
 NOR  HE ES       1448 34.46                             117    0.07 8  233 233 
 NOR  HZ I        1448 40.89        18.2 0.14            117            233 233 
 SML  HZ EP   2   1448  7.99                             116    0.17 4  240 336 
 SML  HE ES   2   1448 34.15                             116   -1.57 4  240 336 
 SML  HZ I        1448 42.22        15.4 0.06            116            240 336 
 CHI  HE ES   3   1448 38.00                             115   -0.51 2  250 194 
 CHI  HZ I        1448 44.16         5.9 0.26            116            250 194 
 HEL  HZ EP   2   1448 12.68                             113    1.22 4  269 255 
 HEL  HE ES       1448 42.06                             113   -0.15 8  269 255 
 HEL  HZ I        1448 50.60         9.1 0.28            113            269 255 
 GUY2CHZ EP   2   1448 15.97                             111    0.93 4  299 234 
 GUY2CHN ES       1448 49.15                             111    0.58 7  299 234 
 GUY2CHZ I        1448 57.52        15.4 0.40                           299 234 
 PRA  HZ EP   2   1448 25.08                             105   -0.18 3  392 209 
 PRA  HE ES   1   1449  6.63                             105   -0.14 4  392 209 
 PRA  HZ I        1449 13.19         5.7 0.37            105            392 209 
                                                                                
