 2017  731 1142 58.1 L   6.712 -73.182145.2  RSN  4 0.2 1.1LRSN                1
 GAP=238        0.66       6.7     5.0  6.3  0.2184E+02  0.4932E+01 -0.5219E+01E
 Epicentro: VILLANUEVA - SANTANDER                                             3
 ACTION:UPD 17-08-30 15:38 OP:rebc STATUS:               ID:20170731114258 L   I
 OLDACT:DUP 17-07-31 23:17 OP:dani STATUS:               ID:20170731113747d    3
 OLDACT:REG 17-07-31 20:31 OP:dani STATUS:               ID:20170731113746     3
 2017-07-31-1138-00M.COL___380                                                 6
 STAT SP IPHASW D HRMM SECON CODA AMPLIT PERI AZIMU VELO AIN AR TRES W  DIS CAZ7
 BAR2 EZ EP       1143 17.33                             175   -0.1310 13.2 180 
 BAR2 EZ ES       1143 32.59                             175   -0.0110 13.2 180 
 BAR2 EZ I        1143 35.30         4.5 0.31            169           13.2 180 
 RUS  HZ EP       1143 21.54                             146    0.4310 91.3 173 
 RUS  HN ES       1143 38.95                             146   -0.1310 91.3 173 
 RUS  HZ I        1143 42.22         1.2 0.28            146           91.3 173 
 PTB  HZ EP       1143 24.07                             133   -0.41 9  142 262 
 PTB  HE ES       1143 45.19                             133    0.10 9  142 262 
 PTB  HZ I        1143 50.16         1.5 0.23            133            142 262 
 ZAR  HN ES       1143 55.93                             122    0.15 9  204 295 
                                                                                
