 2011 1031 1112 17.7 L   6.771 -73.091143.4  RSN  6 0.2 1.6LRSN                1
 GAP=145        0.42       4.2     4.4  4.6 -0.9399E+00  0.1445E+01  0.2569E+01E
 Epicentro: LOS SANTOS - SANTANDER                                             3
 ACTION:UPD 12-07-13 16:07 OP:ep   STATUS:               ID:20111031111217 L   I
 2011-10-31-1110-26S.COL___176                                                 6
 STAT SP IPHASW D HRMM SECON CODA AMPLIT PERI AZIMU VELO AIN AR TRES W  DIS CAZ7
 BAR2 SZ EP       1112 37.03                             171    0.0410 22.2 207 
 BAR2 SZ ES   1   1112 51.71                             171   -0.35 7 22.2 207 
 BAR2 SZ I        1112 53.53         8.8 0.20                          22.2 207 
 BTL  SZ EP   3   1112 37.18                             169    0.13 2 25.4 310 
 PAM  SZ EP   2   1112 39.78                             150    0.22 5 76.3  35 
 PAM  SN ES   1   1112 56.73                             150    0.08 7 76.3  35 
 BRR  HZ EP       1112 38.82                             150   -0.1410 78.0 298 
 BRR  HZ I        1112 39.24        13.1 0.12                          78.0 298 
 BRR  HN ES   1   1112 55.80                             150    0.23 7 78.0 298 
 RUS  HZ EP   2   1112 41.20                             144    0.26 5 97.2 179 
 RUS  HN ES   3   1112 59.32                             144    0.23 2 97.2 179 
 RUS  HZ I        1113  0.56         3.4 0.22                          97.2 179 
 OCA  SZ EP   3   1112 45.62                             128   -0.55 2  164 351 
 OCA  SZ I        1113  8.86         5.7 0.37                           164 351 
                                                                                
