 2015  531 1150 52.1 L   6.800 -73.116146.3  RSN 11 0.3 1.8LRSN                1
 GAP=140        0.69       2.4     3.4  4.6 -0.1145E+01  0.2746E+01 -0.9555E+00E
 Epicentro: LOS SANTOS - SANTANDER                                             3
 ACTION:UPD 15-09-10 22:08 OP:cam  STATUS:               ID:20150531115052 L   I
 OLDACT:REG 15-05-31 20:14 OP:spq  STATUS:               ID:20150531114749     3
 2015-05-31-1147-49M.COL___303                                                 6
 STAT SP IPHASW D HRMM SECON CODA AMPLIT PERI AZIMU VELO AIN AR TRES W  DIS CAZ7
 BAR2 EZ EP       1151 11.97                             170    0.1210 24.1 198 
 BAR2 EZ ES   1   1151 26.90                             170   -0.33 7 24.1 198 
 BAR2 EZ I        1151 28.37        18.0 0.16            170           24.1 198 
 BRR  HZ EP   1   1151 13.88                             152    0.37 7 74.1 297 
 BRR  HN ES       1151 30.80                             152    0.6210 74.1 297 
 BRR  HZ I        1151 31.62         8.8 0.14            150           74.1 297 
 PAM  SZ EP       1151 14.52                             152    0.2310 75.4  38 
 PAM  SE ES   1   1151 31.39                             152   -0.19 7 75.4  38 
 PAM  SZ I        1151 32.18         7.4 0.16            154           75.4  38 
 RUS  HZ EP   1   1151 15.92                             144   -0.01 7  100 178 
 RUS  HE ES   1   1151 34.18                             144   -0.31 7  100 178 
 RUS  HZ I        1151 35.44         4.2 0.22            146            100 178 
 OCA  HZ EP       1151 20.50                             130   -0.03 9  161 352 
 OCA  HE ES   1   1151 42.26                             130   -0.42 7  161 352 
 OCA  HZ I        1151 45.55        18.0 0.15            130            161 352 
 SPBC HZ EP       1151 20.82                             129   -0.05 9  165 220 
 SPBC HN ES       1151 43.29                             129    0.00 9  165 220 
 SPBC HZ I        1151 45.25         8.4 0.09            129            165 220 
 ZAR  HZ EP   1   1151 24.83                             122   -0.10 6  207 292 
 ZAR  HN ES       1151 50.48                             122   -0.03 8  207 292 
 ZAR  HZ I        1151 54.52         7.0 0.26            122            207 292 
 NOR  HZ EP   1   1151 28.59                             118    0.41 6  237 235 
 NOR  HE ES   1   1151 55.61                             118   -0.69 6  237 235 
 NOR  HZ I        1151 59.94         4.7 0.34            119            237 235 
 SML  HZ EP   1   1151 28.63                             117   -0.31 6  245 335 
 SML  HE ES   1   1151 57.21                             117   -0.44 6  245 335 
 SML  HZ I        1151 59.41         7.4 0.10            118            245 335 
 GUY2CHE ES   4   1152 11.50                             112    1.16 0  304 235 
 GUY2CHZ I        1152 18.63         3.5 0.34                           304 235 
 MON  HZ EP   4   1151 39.53                             109   -1.92 0  356 308 
 MON  HN ES   4   1152 18.39                             109   -1.53 0  356 308 
 MON  HZ I        1152 22.99         0.9 0.23            109            356 308 
                                                                                
