 2012  131 1032 29.6 L   6.821 -73.147131.7  RSN  8 0.4 1.6LRSN                1
 GAP=135        0.95       6.1     5.0  8.0 -0.2255E+01  0.7550E+01 -0.7011E+01E
 Epicentro: LOS SANTOS - SANTANDER                                             3
 ACTION:UP  12-02-03 08:22 OP:REBC STATUS:               ID:20120131103229 L   I
 2012-01-31-1030-00M.COL___187                                                 6
 STAT SP IPHASW D HRMM SECON CODA AMPLIT PERI AZIMU VELO SNR AR TRES W  DIS CAZ7
 BAR2 SZ EP   1   1032 47.62                             168     0.1 7   26 189 
 BAR2 SZ ES   1   1033  0.67                             168    -0.9 7   26 189 
 BAR2 SZ I        1033  4.64         6.0 0.44                            26 189 
 GIR2 SZ EP   2   1032 47.40                             167    -0.1 5   29 350 
 BRR  HZ EP       1032 49.40                             150     0.310   70 297 
 BRR  HZ I        1033  3.93        21.6 0.40                            70 297 
 BRR  HE ES   1   1033  5.28                             150     0.9 7   70 297 
 PAM  SZ EP       1032 50.30                             149     0.110   76  41 
 PAM  SE ES   1   1033  6.12                             149    -0.2 7   76  41 
 RUS  HZ EP   1   1032 52.49                             140     0.4 7  103 176 
 RUS  HE ES   2   1033 10.20                             140     0.5 5  103 176 
 PTB  HZ EP   1   1032 55.04                             128    -0.4 7  148 258 
 PTB  HN ES   1   1033 15.58                             128    -0.1 7  148 258 
 OCA  SZ EP   1   1032 56.39                             127    -0.2 7  158 353 
 OCA  SZ I        1033 22.38         4.4 0.26                           158 353 
 ZAR  HZ EP   1   1033  0.67                             119    -0.4 6  203 292 
 ZAR  HE ES   1   1033 25.33                             119    -0.2 6  203 292 
 ZAR  HZ I        1033 32.22         4.0 0.27                           203 292 
                                                                                
