 2017 1231 1939 30.9 L   6.806 -73.170145.4  RSN 19 0.4 2.4LRSN                1
 GAP= 64        0.96       2.4     2.9  5.1 -0.3990E+00  0.3139E+01  0.4350E+00E
 Epicentro: LOS SANTOS - SANTANDER                                             3
 ACTION:UPD 18-01-04 13:26 OP:rebc STATUS:               ID:20171231193930 L   I
 OLDACT:UP  17-12-31 23:36 OP:dnl  STATUS:               ID:20171231193740     3
 OLDACT:REG 17-12-31 21:23 OP:mg   STATUS:               ID:20171231193740     3
 2017-12-31-1938-00M.COL___475                                                 6
 STAT SP IPHASW D HRMM SECON CODA AMPLIT PERI AZIMU VELO AIN AR TRES W  DIS CAZ7
 BAR2 EZ EP       1939 50.39                             170   -0.0910 23.6 183 
 BAR2 EZ ES       1940  5.49                             170   -0.2710 23.6 183 
 BAR2 EZ I        1940  8.07        75.7 0.22            164           23.6 183 
 PAM  EZ IP     C 1939 53.14                             150    0.0010 78.7  41 
 PAM  EE ES       1940 10.41                             150   -0.0910 78.7  41 
 PAM  EZ I        1940 12.47        43.4 0.52            152           78.7  41 
 PTB  HZ EP       1939 57.06                             132   -0.54 9  145 258 
 PTB  HN ES       1940 17.96                             132   -0.46 9  145 258 
 PTB  HZ I        1940 20.63        11.9 0.30            125            145 258 
 TAM  HZ EP       1939 58.67                             130   -0.13 9  158 105 
 TAM  HN ES       1940 20.30                             130   -0.26 9  158 105 
 TAM  HZ I        1940 21.82        13.0 0.54            127            158 105 
 OCA  HZ EP       1939 58.81                             130   -0.27 9  159 354 
 OCA  HN ES       1940 22.00                             130    0.93 9  159 354 
 OCA  HZ I        1940 24.26        49.1 0.44            126            159 354 
 SPBC HZ EP       1939 59.39                             129    0.14 9  162 218 
 SPBC HE ES       1940 21.59                             129    0.23 9  162 218 
 SPBC HZ I        1940 28.30        33.0 0.20            122            162 218 
 YPLC HZ EP   2   1940  0.86                             126    0.02 4  179 151 
 YPLC HE ES       1940 24.84                             126    0.64 9  179 151 
 YPLC HZ I        1940 25.64        37.9 0.30            121            179 151 
 ZAR  HZ EP   2   1940  3.05                             123    0.02 4  201 292 
 ZAR  HN ES       1940 28.18                             123    0.09 9  201 292 
 ZAR  HZ I        1940 33.58        18.2 0.28            117            201 292 
 ROSC BZ EP   4   1940 10.53                             117    1.63 0  252 210 
 ROSC BN ES   4   1940 42.10                             117    3.56 0  252 210 
 ROSC BZ I        1940 45.13        23.8 0.45            111            252 210 
 URE  HZ EP   2   1940 10.80                             114   -0.83 4  281 292 
 URE  HN ES   4   1940 40.70                             114   -2.71 0  281 292 
 URE  HZ I        1940 50.92        13.4 0.18            109            281 292 
 DRL03HZ EP       1940 12.27                             113   -0.11 7  288 353 
 DRL03HN ES       1940 45.19                             113    0.46 7  288 353 
 GUY2CHZ EP       1940 15.30                             112    1.03 7  299 234 
 GUY2CHE ES   4   1940 50.07                             112    1.96 0  299 234 
 GUY2CHZ I        1940 56.32        13.2 0.36                           299 234 
 VIL  EZ EP   2   1940 14.12                             112   -0.18 4  303 191 
 VIL  EN ES       1940 47.91                             112   -0.25 7  303 191 
 VIL  EZ I        1940 57.18        13.3 0.36            108            303 191 
 PTGC HZ EP   4   1940 13.65                             111   -1.26 0  310 158 
 PTGC HN ES   4   1940 45.89                             111   -3.35 0  310 158 
 PTGC HZ I        1940 51.73        14.0 0.26            107            310 158 
 DRL02HZ EP       1940 15.58                             110   -0.91 7  324 358 
 DRL02HE ES   4   1940 49.89                             110   -2.17 0  324 358 
 ELA  HZ EP   4   1940 19.38                             110    1.84 0  327 229 
 ELA  HZ I        1941  9.61        10.1 0.46            106            327 229 
 PRA  HZ EP       1940 24.12                             106   -0.19 6  391 209 
 PRA  HE ES       1941  6.01                             106    0.04 6  391 209 
 PRA  HZ I        1941 12.56        17.0 0.40            103            391 209 
 ORTC HZ EP       1940 25.37                             106    0.70 6  394 216 
 ORTC HN ES   4   1941  8.03                             106    1.42 0  394 216 
 ORTC HZ I        1941 14.18         8.4 0.44            103            394 216 
 SJC  HZ EP   4   1940 24.78                             106   -1.42 0  407 327 
 SJC  HN ES   4   1941  4.87                             106   -4.48 0  407 327 
 SJC  HZ I        1941  9.85         3.5 0.50            103            407 327 
                                                                                
