 2010  731 1802 21.3 L   6.731 -73.159154.9  RSN  4 0.2 1.7LRSN                1
 GAP=158        0.60       5.0    10.8 10.9  0.6267E-01 -0.3502E+02 -0.3978E+01E
 Epicentro: VILLANUEVA - SANTANDER                                             3
 ACTION:UPD 10-12-01 15:21 OP:pat  STATUS:               ID:20100731180221 L   I
 2010-07-31-1759-01S.COL___123                                                 6
 STAT SP IPHASW D HRMM SECON CODA AMPLIT PERI AZIMU VELO AIN AR TRES W  DIS CAZ7
 BAR2 SZ EP   1   18 2 41.35                             174    -0.5 7   16 190 
 BAR2 SZ I        18 2 41.97         9.3 0.47                            16 190 
 BRR  HZ EP   1   18 2 43.58                             153     0.0 7   74 304 
 BRR  HN ES   2   18 3  1.05                             153     0.1 5   74 304 
 BRR  HZ I        18 3  3.20        17.6 0.12                            74 304 
 RUS  HZ EP   1   18 2 45.67                             148     0.3 7   93 175 
 RUS  HE ES   2   18 3  4.33                             148     0.1 5   93 175 
 RUS  HZ I        18 3  5.23         3.5 0.35                            93 175 
 GRA  SZ EP   1   18 2 48.10                             137     0.1 7  134  17 
 GRA  SZ ES   2   18 3  8.81                             137     0.0 5  134  17 
 GRA  SZ I        18 3 10.30         5.8 0.28                           134  17 
                                                                                
