 2017  331 1744 58.9 L   6.758 -73.323125.2  RSN  6 0.3 2.1LRSN                1
 GAP= 95        0.73       5.5     3.5  5.4  0.3149E+00  0.7332E+01  0.1257E+01E
 Epicentro: ZAPATOCA - SANTANDER                                               3
 ACTION:UPD 17-05-25 18:47 OP:jn   STATUS:               ID:20170331174458 L   I
 OLDACT:UP  17-03-31 23:32 OP:dnl  STATUS:               ID:20170331173748     3
 OLDACT:REG 17-03-31 21:27 OP:dnl  STATUS:               ID:20170331173748     3
 2017-03-31-1738-00M.COL___350                                                 6
 STAT SP IPHASW D HRMM SECON CODA AMPLIT PERI AZIMU VELO AIN AR TRES W  DIS CAZ7
 BAR2 EZ EP       1745 16.53                             169    0.4210 24.0 140 
 BAR2 EZ ES       1745 29.61                             169    0.1010 24.0 140 
 BAR2 EZ I        1745 30.76        81.4 0.50            165           24.0 140 
 BRR  HZ EP       1745 16.92                             154   -0.1910 57.8 312 
 BRR  HN ES       1745 31.17                             154   -0.1110 57.8 312 
 BRR  HZ I        1745 31.87        25.7 0.12            155           57.8 312 
 PAM  EZ EP       1745 20.20                             141   -0.0210 94.2  47 
 PAM  EN ES       1745 36.70                             141   -0.1210 94.2  47 
 PAM  EZ I        1745 38.25        21.8 0.24            145           94.2  47 
 PTB  HZ EP       1745 21.82                             131   -0.5810  128 259 
 PTB  HN ES   4   1745 39.22                             131   -1.49 0  128 259 
 PTB  HZ I        1745 43.56        15.1 0.42            130            128 259 
 ZAR  HZ EP       1745 28.77                             120    0.35 9  188 296 
 ZAR  HN ES       1745 51.66                             120    0.25 9  188 296 
 ZAR  HZ I        1745 53.39        14.8 0.24            120            188 296 
 NOR  HZ EP   2   1745 31.56                             116    0.05 4  216 232 
 NOR  HE ES   4   1745 58.80                             116    1.88 0  216 232 
 NOR  HZ I        1746  3.39         4.4 0.32            115            216 232 
                                                                                
