 2016  831 1156 19.2 L   6.885 -73.083150.7  RSN  5 0.3 1.6LRSN                1
 GAP=251        0.77       5.3     6.0  5.9  0.6691E+01  0.1085E+02  0.7224E+01E
 Epicentro: PIEDECUESTA - SANTANDER                                            3
 ACTION:UPD 16-10-29 15:40 OP:rebc STATUS:               ID:20160831115619 L   I
 OLDACT:UP  16-08-31 22:03 OP:edw  STATUS:               ID:20160831114734     3
 OLDACT:REG 16-08-31 19:46 OP:edw  STATUS:               ID:20160831114734     3
 2016-08-31-1148-00M.COL___352                                                 6
 STAT SP IPHASW D HRMM SECON CODA AMPLIT PERI AZIMU VELO AIN AR TRES W  DIS CAZ7
 BAR2 EZ EP       1156 40.06                             167    0.4110 34.2 199 
 BAR2 EZ ES       1156 55.56                             167   -0.0710 34.2 199 
 BAR2 EZ I        1156 56.30         8.0 0.23                          34.2 199 
 BRR  HZ EP       1156 40.78                             153   -0.2110 73.7 290 
 BRR  HN ES       1156 58.03                             153    0.0110 73.7 290 
 RUS  HZ EP       1156 44.36                             142    0.2910  110 180 
 RUS  HN ES       1157  3.20                             142   -0.3010  110 180 
 RUS  HZ I        1157  3.95         4.5 0.28                           110 180 
 NOR  HZ EP   2   1156 56.26                             118   -0.12 4  246 234 
 NOR  HE ES   2   1157 25.10                             118   -0.30 4  246 234 
 NOR  HZ I        1157 29.14         3.8 0.16                           246 234 
 GUY2CHZ EP       1157  3.55                             112   -0.71 7  312 234 
 GUY2CHN ES       1157 39.98                             112    0.55 7  312 234 
 GUY2CHZ I        1157 46.37         1.9 0.31                           312 234 
                                                                                
