 2015  131 1035 57.8 L   6.369 -73.602108.9  RSN  7 0.4 1.3LRSN                1
 GAP= 73        0.79       3.0     3.3  6.0 -0.4191E+00  0.1420E+01 -0.2823E+01E
 Epicentro: SANTA HELENA DEL OPON - SANTANDER                                  3
 ACTION:UPD 15-03-02 15:44 OP:nd   STATUS:               ID:20150131103557 L   I
 OLDACT:DUP 15-01-31 23:16 OP:spq  STATUS:               ID:20150131102746d    3
 OLDACT:UP  15-01-31 23:06 OP:spq  STATUS:               ID:20150131102745d    3
 OLDACT:DUP 15-01-31 23:05 OP:spq  STATUS:               ID:20150131102745d    3
 2015-01-31-1027-44M.COL___274                                                 6
 STAT SP IPHASW D HRMM SECON CODA AMPLIT PERI AZIMU VELO AIN AR TRES W  DIS CAZ7
 BAR2 EZ EP     D 1036 14.08                             152   -0.1710 52.6  62 
 BAR2 EZ ES   1   1036 27.56                             152    0.47 7 52.6  62 
 BAR2 EZ I        1036 28.47         4.6 0.26            153           52.6  62 
 RUS  HZ EP   1   1036 16.07                             142   -0.22 7 77.9 132 
 RUS  HN ES   1   1036 30.25                             142   -0.47 7 77.9 132 
 RUS  HZ I        1036 33.46         3.3 0.32            141           77.9 132 
 SPBC HZ EP   1   1036 16.93                             136   -0.16 7 94.8 213 
 SPBC HE ES       1036 32.39                             136    0.2510 94.8 213 
 SPBC HZ I        1036 35.45         5.7 0.21            135           94.8 213 
 PTB  HZ EP       1036 16.63                             135   -0.4910 96.4 281 
 PTB  HN ES       1036 32.05                             135   -0.1410 96.4 281 
 PTB  HZ I        1036 33.02         4.4 0.14            136           96.4 281 
 NOR  HN ES   1   1036 44.65                             118    0.15 7  166 238 
 NOR  HZ I        1036 46.75         2.3 0.56            118            166 238 
 CHI  HZ EP       1036 27.65                             115    0.24 9  193 184 
 CHI  HN ES   1   1036 51.01                             115    0.50 7  193 184 
 CHI  HZ I        1036 56.30         1.2 0.42            114            193 184 
 SML  HZ EP       1036 36.20                             106    0.02 8  274 349 
 SML  HE ES   1   1037  7.02                             106    0.91 6  274 349 
 SML  HZ I        1037  8.94         2.2 0.24            106            274 349 
                                                                                
