 2017  831 1255 46.8 L   6.797 -73.123142.0  RSN  4 0.3 1.4LRSN                1
 GAP=240        0.65       7.3     8.1  6.5  0.4758E+02 -0.8160E+00 -0.9400E+01E
 Epicentro: LOS SANTOS - SANTANDER                                             3
 ACTION:UPD 17-09-04 20:26 OP:rebc STATUS:               ID:20170831125546 L   I
 OLDACT:UP  17-08-31 22:24 OP:dani STATUS:               ID:20170831124730     3
 OLDACT:UP  17-08-31 22:06 OP:dani STATUS:               ID:20170831124730     3
 OLDACT:REG 17-08-31 19:57 OP:dani STATUS:               ID:20170831124730     3
 2017-08-31-1248-00M.COL___404                                                 6
 STAT SP IPHASW D HRMM SECON CODA AMPLIT PERI AZIMU VELO AIN AR TRES W  DIS CAZ7
 BAR2 EZ EP       1256  6.05                             170    0.0310 23.6 196 
 BAR2 EZ ES       1256 20.65                             170   -0.3310 23.6 196 
 BAR2 EZ I        1256 22.43         5.9 0.26            174           23.6 196 
 BRR  HZ EP       1256  7.79                             151    0.0710 73.6 298 
 BRR  HN ES   2   1256 24.94                             151    0.93 5 73.6 298 
 BRR  HZ I        1256 27.88         6.2 0.21            152           73.6 298 
 RUS  HZ EP       1256 10.18                             143   -0.0010  100 177 
 RUS  HN ES       1256 28.52                             143    0.1310  100 177 
 RUS  HZ I        1256 29.16         4.5 0.26            148            100 177 
 ZAR  HN ES       1256 44.44                             121   -0.17 8  207 292 
                                                                                
