 2017  731 1516 15.9 L   6.739 -73.214147.7  RSN  4 0.3 1.1LRSN                1
 GAP=222        0.73       6.9     5.6  8.3  0.1813E+02 -0.3630E+01 -0.1843E+02E
 Epicentro: VILLANUEVA - SANTANDER                                             3
 ACTION:UPD 17-08-30 15:38 OP:rebc STATUS:               ID:20170731151615 L   I
 OLDACT:UP  17-08-01 00:18 OP:dani STATUS:               ID:20170731150738     3
 OLDACT:UP  17-08-01 00:18 OP:dani STATUS:               ID:20170731150738     3
 OLDACT:UP  17-08-01 00:18 OP:dani STATUS:               ID:20170731150738     3
 OLDACT:UP  17-08-01 00:17 OP:dani STATUS:               ID:20170731150738     3
 OLDACT:REG 17-07-31 21:08 OP:dani STATUS:               ID:20170731150738     3
 2017-07-31-1508-00M.COL___386                                                 6
 STAT SP IPHASW D HRMM SECON CODA AMPLIT PERI AZIMU VELO AIN AR TRES W  DIS CAZ7
 BAR2 EZ EP       1516 35.39                             173   -0.2510 16.6 168 
 BAR2 EZ ES   2   1516 50.48                             173   -0.56 5 16.6 168 
 BRR  HZ EP       1516 37.23                             154    0.1310 68.5 306 
 BRR  HE ES   2   1516 54.23                             154    0.59 5 68.5 306 
 RUS  HZ EP       1516 39.86                             146    0.4310 94.7 171 
 RUS  HN ES       1516 57.72                             146   -0.0610 94.7 171 
 RUS  HZ I        1516 58.57         2.3 0.25            144           94.7 171 
 PTB  HZ EP       1516 41.88                             134   -0.38 9  139 261 
 PTB  HN ES       1517  2.92                             134    0.10 9  139 261 
 PTB  HZ I        1517  9.10         1.4 0.28            131            139 261 
                                                                                
