 2013 1031 1459 38.8 L   6.792 -73.175136.2  RSN  7 0.3 1.9LRSN                1
 GAP=133        0.84       3.6     3.4  5.3 -0.4368E+00  0.6098E+01  0.1126E+01E
 Epicentro: LOS SANTOS - SANTANDER                                             3
 ACTION:UPD 13-11-25 09:24 OP:ep   STATUS:               ID:20131031145938 L   I
 OLDACT:REG 13-10-31 16:21 OP:carl STATUS:               ID:20131031145840     3
 2013-10-31-1458-40M.COL___219                                                 6
 STAT SP IPHASW D HRMM SECON CODA AMPLIT PERI AZIMU VELO AIN AR TRES W  DIS CAZ7
 BAR2 SZ EP       1459 57.43                             170    0.2010 22.1 182 
 BAR2 SZ ES       15 0 11.04                             170   -0.5910 22.1 182 
 BAR2 SZ I        15 0 14.32        29.6 0.24            170           22.1 182 
 BRR  HZ EP       1459 59.05                             152    0.2910 68.8 301 
 BRR  HN ES       15 0 14.90                             152    0.5610 68.8 301 
 PAM  SZ EP       15 0  0.01                             148   -0.1610 80.2  41 
 PAM  SN ES       15 0 16.87                             148    0.0210 80.2  41 
 PAM  SZ I        15 0 19.31        18.2 0.58            152           80.2  41 
 RUS  HZ EP       15 0  1.64                             142    0.0910 99.9 174 
 RUS  HN ES       15 0 19.48                             142    0.1610 99.9 174 
 RUS  HZ I        15 0 23.16         4.4 0.18            144           99.9 174 
 PTB  HZ EP       15 0  4.11                             130   -0.56 9  144 259 
 PTB  HN ES       15 0 24.60                             130   -0.26 9  144 259 
 PTB  HZ I        15 0 27.46        16.3 0.22            132            144 259 
 ZAR  HZ EP       15 0 10.47                             120    0.13 9  201 293 
 ZAR  HN ES       15 0 34.71                             120   -0.24 9  201 293 
 ZAR  HZ I        15 0 41.64        13.3 0.30            122            201 293 
 NOR  HZ EP       15 0 13.58                             117   -0.04 8  231 234 
 NOR  HE ES       15 0 41.17                             117    0.37 8  231 234 
 NOR  HZ I        15 0 44.80         7.3 0.38            118            231 234 
                                                                                
