 2012  131 1240 46.5 L   6.775 -73.108152.9  RSN  6 0.2 1.4LRSN                1
 GAP=143        0.48       4.6    10.7  6.1 -0.6102E+00  0.3963E+01 -0.1021E+02E
 Epicentro: LOS SANTOS - SANTANDER                                             3
 ACTION:UP  12-02-03 08:22 OP:REBC STATUS:               ID:20120131124046 L   I
 2012-01-31-1240-00M.COL___187                                                 6
 STAT SP IPHASW D HRMM SECON CODA AMPLIT PERI AZIMU VELO SNR AR TRES W  DIS CAZ7
 BAR2 SZ EP   1   1241  6.89                             171    -0.1 7   22 202 
 BAR2 SZ I        1241  9.04         6.6 0.42                            22 202 
 BAR2 SZ ES   1   1241 23.28                             171     0.4 7   22 202 
 GIR2 SZ EP   1   1241  7.03                             166    -0.1 7   35 344 
 GIR2 SZ ES   3   1241 23.11                                    -0.1 2   35 344 
 BRR  HZ EP   1   1241  8.64                                    -0.1 7   76 299 
 PAM  SZ EP   1   1241  9.58                             153     0.1 7   77  36 
 RUS  HZ EP   2   1241 10.49                             147    -0.3 5   98 178 
 RUS  HN ES   1   1241 29.47                             147    -0.2 7   98 178 
 RUS  HZ I        1241 30.53         2.4 0.25                            98 178 
 CHI  HZ EP   2   1241 24.97                             119     0.5 4  247 196 
 CHI  HZ I        1241 57.58         2.0 0.60                           247 196 
                                                                                
