 2013  831 1226 56.4 L   6.778 -73.142153.1  RSN 10 0.5 2.0LRSN                1
 GAP=183        1.23       3.7     5.6  7.1 -0.7505E+00  0.5908E+01  0.1573E+01E
 Epicentro: LOS SANTOS - SANTANDER                                             3
 ACTION:UPD 14-01-14 09:08 OP:ep   STATUS:               ID:20130831122656 L   I
 OLDACT:REG 13-08-31 15:29 OP:nd   STATUS:               ID:20130831122000     3
 2013-08-31-1220-00M.COL___268                                                 6
 STAT SP IPHASW D HRMM SECON CODA AMPLIT PERI AZIMU VELO AIN AR TRES W  DIS CAZ7
 BAR2 SZ EP       1227 16.59                             172   -0.2210 21.0 192 
 BAR2 SZ ES       1227 32.52                             172   -0.2610 21.0 192 
 BAR2 SZ I        1227 33.64        14.3 0.20            172           21.0 192 
 BRR  HZ EP       1227 18.51                             153    0.1310 72.8 300 
 BRR  HN ES       1227 35.58                             153    0.0210 72.8 300 
 BRR  HZ I        1227 42.94        10.9 0.54            152           72.8 300 
 RUS  HZ EP       1227 20.42                             146   -0.2310 98.1 176 
 RUS  HN ES       1227 39.58                             146   -0.0310 98.1 176 
 RUS  HZ I        1227 42.10         8.4 0.30            149           98.1 176 
 PTB  HZ EP       1227 23.07                             134   -0.85 9  148 260 
 PTB  HN ES       1227 44.84                             134   -0.59 9  148 260 
 PTB  HZ I        1227 46.73        16.5 0.14            135            148 260 
 SPBC HZ EP       1227 25.52                             131    0.25 9  162 220 
 SPBC HN ES       1227 48.38                             131    0.56 9  162 220 
 SPBC HZ I        1227 53.43        14.4 0.12            133            162 220 
 OCA  HZ EP       1227 25.60                             131    0.13 9  163 353 
 OCA  HN ES       1227 48.87                             131    0.70 9  163 353 
 OCA  HZ I        1227 52.34        10.3 0.28            133            163 353 
 ZAR  HZ EP       1227 29.15                             124   -0.27 8  205 293 
 ZAR  HN ES       1227 55.08                             124   -0.13 8  205 293 
 ZAR  HZ I        1228  1.49        12.6 0.46            125            205 293 
 NOR  HZ EP       1227 32.13                             120   -0.27 8  234 235 
 NOR  HN ES       1228  2.04                             120    1.52 8  234 235 
 NOR  HZ I        1228  4.31        11.6 0.16            122            234 235 
 CHI  HZ EP       1227 34.83                             119    0.61 8  246 195 
 CHI  HN ES       1228  3.49                             119   -0.27 8  246 195 
 CHI  HZ I        1228  6.41         2.8 0.50            122            246 195 
 GUY2CHZ EP   4   1227 41.35                             114    1.16 0  300 235 
 GUY2CHN ES       1228 13.87                             114   -0.51 7  300 235 
 GUY2CHZ I        1228 22.45         5.1 0.54                           300 235 
                                                                                
