 2017 1031 1145 26.5 L   6.797 -73.147143.4  RSN 20 0.4 2.3LRSN                1
 GAP= 65        0.78       2.2     2.1  3.9  0.1996E+00  0.2023E+01  0.1845E+01E
 Epicentro: LOS SANTOS - SANTANDER                                             3
 ACTION:UPD 17-11-07 19:40 OP:rebc STATUS:               ID:20171031114526 L   I
 OLDACT:UP  17-10-31 22:52 OP:mg   STATUS:               ID:20171031113742d    3
 OLDACT:UP  17-10-31 22:51 OP:mg   STATUS:               ID:20171031113742d    3
 OLDACT:UP  17-10-31 22:45 OP:mg   STATUS:               ID:20171031113742d    3
 OLDACT:DUP 17-10-31 22:39 OP:mg   STATUS:               ID:20171031113742d    3
 OLDACT:UP  17-10-31 22:37 OP:mg   STATUS:               ID:20171031113741     3
 OLDACT:REG 17-10-31 20:12 OP:mg   STATUS:               ID:20171031113741     3
 2017-10-31-1138-00M.COL___438                                                 6
 STAT SP IPHASW D HRMM SECON CODA AMPLIT PERI AZIMU VELO AIN AR TRES W  DIS CAZ7
 BAR2 EZ IP     C 1145 45.78                             170   -0.0710 23.0 190 
 BAR2 EZ ES   1   1146  0.48                             170   -0.46 7 23.0 190 
 BAR2 EZ I        1146  2.25        77.6 0.18            169           23.0 190 
 BRR  HZ EP       1145 47.45                             152    0.0510 71.2 299 
 BRR  HN ES       1146  4.54                             152    0.8410 71.2 299 
 BRR  HZ I        1146  5.69        38.2 0.14            149           71.2 299 
 PAM  EZ EP       1145 48.68                             150    0.1810 77.7  40 
 PAM  EN ES       1146  5.64                             150   -0.0110 77.7  40 
 PAM  EZ I        1146  7.99        23.2 0.29            147           77.7  40 
 RUS  HZ IP     C 1145 49.74                             143   -0.2710  100 176 
 RUS  HN ES       1146  7.99                             143   -0.3510  100 176 
 RUS  HZ I        1146  9.80        30.5 0.30            139            100 176 
 PTB  HZ EP       1145 52.59                             131   -0.67 9  148 259 
 PTB  HN ES       1146 13.61                             131   -0.52 9  148 259 
 PTB  HZ I        1146 15.98        16.8 0.16            128            148 259 
 TAM  HZ EP   1   1145 54.20                             130    0.19 7  155 105 
 TAM  HZ I        1146 14.77        18.7 0.27            126            155 105 
 TAM  HN ES       1146 15.39                             130   -0.07 9  155 105 
 SPBC HZ EP       1145 54.77                             129   -0.02 9  163 219 
 SPBC HN ES       1146 17.12                             129    0.26 9  163 219 
 SPBC HZ I        1146 21.88        36.2 0.16            124            163 219 
 YPLC HZ IP     C 1145 56.19                             126    0.08 9  177 151 
 YPLC HN ES       1146 19.29                             126    0.08 9  177 151 
 YPLC HZ I        1146 21.08        23.1 0.28            122            177 151 
 ZAR  HZ EP       1145 58.61                             122   -0.18 9  204 292 
 ZAR  HN ES       1146 24.09                             122    0.11 9  204 292 
 ZAR  HZ I        1146 30.47        22.7 0.19            118            204 292 
 TABC EZ EP   4   1146  3.89                             119    1.81 0  230 211 
 TABC EZ ES   4   1146 32.94                             119    3.12 0  230 211 
 TABC EZ I        1146 37.41        31.5 0.66            115            230 211 
 NOR  HZ EP       1146  2.12                             118    0.05 8  234 234 
 NOR  HN ES       1146 29.66                             118   -0.14 8  234 234 
 NOR  HZ I        1146 34.88        23.5 0.22            114            234 234 
 CHI  HZ EP       1146  4.14                             117    0.10 8  248 195 
 CHI  HN ES       1146 33.72                             117    0.41 8  248 195 
 CHI  HZ I        1146 40.43        13.7 0.52            113            248 195 
 ROSC BZ EP   4   1146  5.70                             116    1.24 0  252 211 
 ROSC BN ES   4   1146 37.21                             116    3.15 0  252 211 
 ROSC BZ I        1146 40.65        17.6 0.62            113            252 211 
 URE  HZ EP   1   1146  6.65                             113   -0.81 6  284 292 
 URE  HN ES   4   1146 36.76                             113   -2.64 0  284 292 
 URE  HZ I        1146 48.63        12.7 0.18            110            284 292 
 GUY2CHZ EP   3   1146 11.39                             112    1.42 2  301 235 
 GUY2CHN ES   3   1146 45.45                             112    1.58 2  301 235 
 GUY2CHZ I        1146 52.39        12.2 0.56                           301 235 
 LL6C HZ EP   4   1146  7.13                             110   -5.01 0  325 358 
 LL6C HE ES   1   1146 47.92                             110    0.18 5  325 358 
 LL6C HZ I        1146 54.44         3.7 0.41            107            325 358 
 ELA  HN ES   4   1146 52.56                             110    2.90 0  329 229 
 ANIL HN ES   4   1146 57.57                             108    2.64 0  357 225 
 PRA  HZ EP       1146 20.03                             106    0.12 6  392 210 
 PRA  HN ES       1147  1.78                             106    0.23 6  392 210 
 PRA  HZ I        1147  6.96        12.8 0.31            103            392 210 
 ORTC HZ EP       1146 20.92                             106    0.62 6  395 216 
 ORTC HN ES   3   1147  3.63                             106    1.36 1  395 216 
 ORTC HZ I        1147 10.95         8.6 0.70            103            395 216 
 PAL  HZ EP       1146 21.65                             105    0.10 6  405 239 
 PAL  HE ES       1147  4.71                             105    0.22 6  405 239 
 PAL  HZ I        1147 15.41         4.5 0.40            103            405 239 
 SJC  HZ EP   4   1146 20.06                             105   -1.95 0  409 327 
 SJC  HN ES   4   1147  1.57                             105   -3.73 0  409 327 
 SJC  HZ I        1147  5.96         3.8 0.32            102            409 327 
                                                                                
