 2012 1231 1825 42.7 L   6.806 -73.185144.0  RSN  5 0.5 2.1LRSN                1
 GAP=234        1.21       7.3     9.1  8.9  0.3123E+02  0.1815E+02  0.2165E+02E
 Epicentro: ZAPATOCA - SANTANDER                                               3
 ACTION:UPD 13-01-04 14:31 OP:ep   STATUS:               ID:20121231182542 L   I
 2012-12-31-1820-00M.COL___239                                                 6
 STAT SP IPHASW D HRMM SECON CODA AMPLIT PERI AZIMU VELO AIN AR TRES W  DIS CAZ7
 BAR2 SZ ES       1826 16.91                             170   -0.3410 23.6 179 
 BAR2 SZ I        1826 17.82        40.1 0.26                          23.6 179 
 BRR  HZ IP     D 1826  3.65                             154    0.2410 67.1 300 
 BRR  HZ I        1826  3.80        19.4 0.16                          67.1 300 
 BRR  HN ES       1826 20.36                             154    0.7810 67.1 300 
 RUS  HZ EP       1826  6.26                             143   -0.0710  102 174 
 RUS  HN ES       1826 24.47                             143   -0.3110  102 174 
 PTB  HZ EP       1826  8.73                             132   -0.40 9  144 258 
 PTB  HN ES       1826 29.20                             132   -0.56 9  144 258 
 CHI  HZ EP       1826 20.17                             117   -0.06 8  248 194 
 CHI  HN ES       1826 50.46                             117    0.95 8  248 194 
                                                                                
