 2017  831 1336  7.5 L   6.759 -73.181144.6  RSN  7 0.5 1.7LRSN                1
 GAP=110        1.05       5.3     5.9  8.4  0.9912E+01 -0.8627E+01 -0.7044E+01E
 Epicentro: LOS SANTOS - SANTANDER                                             3
 ACTION:UPD 17-09-04 20:26 OP:rebc STATUS:               ID:20170831133607 L   I
 OLDACT:UP  17-08-31 22:39 OP:dani STATUS:               ID:20170831132733     3
 OLDACT:UP  17-08-31 22:39 OP:dani STATUS:               ID:20170831132733     3
 OLDACT:UP  17-08-31 22:39 OP:dani STATUS:               ID:20170831132733     3
 OLDACT:UP  17-08-31 22:36 OP:dani STATUS:               ID:20170831132733     3
 OLDACT:UP  17-08-31 22:35 OP:dani STATUS:               ID:20170831132733     3
 OLDACT:UP  17-08-31 22:34 OP:dani STATUS:               ID:20170831132733     3
 OLDACT:UP  17-08-31 22:34 OP:dani STATUS:               ID:20170831132733     3
 OLDACT:UP  17-08-31 22:34 OP:dani STATUS:               ID:20170831132733     3
 OLDACT:REG 17-08-31 20:01 OP:dani STATUS:               ID:20170831132733     3
 2017-08-31-1328-00M.COL___404                                                 6
 STAT SP IPHASW D HRMM SECON CODA AMPLIT PERI AZIMU VELO AIN AR TRES W  DIS CAZ7
 BAR2 EZ EP       1336 26.38                             172   -0.4910 18.5 180 
 BAR2 EZ ES       1336 41.44                             172   -0.5610 18.5 180 
 BAR2 EZ I        1336 42.41        12.2 0.26            156           18.5 180 
 BRR  HZ EP       1336 28.04                             153   -0.3910 70.1 303 
 BRR  HE ES   1   1336 45.34                             153    0.56 7 70.1 303 
 BRR  HZ I        1336 45.80        10.5 0.44            139           70.1 303 
 PAM  EZ EP       1336 30.58                             149    0.6510 83.4  40 
 PAM  EZ I        1337  3.17        13.7 0.19            122           83.4  40 
 RUS  HZ EP       1336 30.92                             145    0.1110 96.4 174 
 RUS  HN ES       1336 49.37                             145    0.3610 96.4 174 
 RUS  HZ I        1336 50.81         2.8 0.20            139           96.4 174 
 SPBC HN ES       1336 57.22                             130    0.19 9  157 219 
 YPLC HZ EP       1336 36.66                             127   -0.32 9  175 149 
 YPLC HE ES   3   1337  1.55                             127    1.55 2  175 149 
 YPLC HZ I        1337  3.68         6.2 0.27            115            175 149 
 ZAR  HZ EP   4   1336 37.42                             122   -2.22 0  202 294 
 ZAR  HE ES       1337  4.76                             122    0.02 9  202 294 
 ZAR  HZ I        1337 10.45         4.1 0.35            113            202 294 
                                                                                
