 2010  531 1436 50.6 L   6.826 -73.126143.5  RSN 14 0.5 3.3LRSN                1
 GAP=143        1.04       3.8     6.3  5.9 -0.1383E+02  0.7138E+01  0.4913E+01E
 Epicentro: LOS SANTOS - SANTANDER                                             3
 ACTION:UP  10-08-24 10:07 OP:vdl  STATUS:               ID:20100531143650 L   I
 2010-05-31-1433-58S.COL___109                                                 6
 STAT SP IPHASW D HRMM SECON CODA AMPLIT PERI AZIMU VELO SNR AR TRES W  DIS CAZ7
 BAR2 SZ IP       1437  9.82                             169    -0.210   27 194 
 BAR2 SZ ES   1   1437 24.90                             169    -0.3 7   27 194 
 GIR2 SZ EP       1437  9.88                             168     0.010   29 345 
 GIR2 SZ ES       1437 24.82                             168    -0.210   29 345 
 GUE  SZ EP       1437 14.70                             140    -0.110  113  11 
 GUE  SZ ES   2   1437 32.93                             140    -0.8 5  113  11 
 GRA  SZ IP       1437 15.64                             138     0.310  122  17 
 GRA  SZ ES       1437 34.89                             138     0.210  122  17 
 OCA  SZ EP       1437 18.26                             130    -0.2 9  158 352 
 OCA  SZ ES       1437 41.03                             130     0.8 9  158 352 
 CHI  HZ EP       1437 28.04                             116    -0.5 8  252 195 
 CHI  HN ES       1437 58.52                             116     0.4 8  252 195 
 CHI  HZ I        1438  2.90       118.1 0.37                           252 195 
 ROSC BZ EP       1437 29.59                             116     0.6 8  256 211 
 ROSC BZ I        1438  5.37       155.2 0.55                           256 211 
 HEL  HZ EP       1437 31.03                             114     0.0 8  275 255 
 HEL  HN ES   1   1438  1.70                             114    -0.8 6  275 255 
 HEL  HZ I        1438  8.86       131.4 0.25                           275 255 
 CVER SZ EP   1   1437 31.22                             114     0.0 6  276 202 
 RREF BZ EP   1   1437 36.84                             110    -0.2 5  325 229 
 RREF BN ES       1438 12.91                             110    -0.3 7  325 229 
 RREF BZ I        1438 22.05       160.2 0.03                           325 229 
 DBB  SZ EP       1437 37.38                             109    -0.8 7  341 274 
 TOL  SZ EP       1437 40.02                             109     0.9 6  347 225 
 TOL  SZ ES   2   1438 16.50                             109    -0.5 3  347 225 
 SDV  BZ EP       1437 39.34                             108    -0.8 6  357  50 
 SDV  BZ I        1438 20.56        30.6 0.84                           357  50 
 ANIL BZ EP       1437 40.86                             108     0.2 6  361 224 
 ANIL BN ES       1438 20.52                             108     0.7 6  361 224 
                                                                                
