 2011 1231 1658  5.8 L   6.591 -73.256142.4  RSN  5 0.4 1.3LRSN                1
 GAP=131        0.70       9.5     8.6  9.9  0.5436E+02  0.2811E+02  0.3608E+02E
 Epicentro: CABRERA - SANTANDER                                                3
 ACTION:UPD 12-07-13 16:19 OP:ep   STATUS:               ID:20111231165805 L   I
 2011-12-31-1656-00S.MAN___179                                                 6
 STAT SP IPHASW D HRMM SECON CODA AMPLIT PERI AZIMU VELO AIN AR TRES W  DIS CAZ7
 BAR2 SZ EP   1   1658 24.20                             177   -0.64 7 8.12  89 
 BAR2 SZ ES   2   1658 39.48                             177   -0.18 5 8.12  89 
 BAR2 SZ I        1658 41.11         7.9 0.33                          8.12  89 
 BRR  HN ES   1   1658 43.73                             150    0.39 7 76.1 319 
 RUS  HZ EP   1   1658 28.29                             149    0.47 7 79.6 166 
 RUS  HN ES   2   1658 44.88                             149   -0.10 5 79.6 166 
 RUS  HZ I        1658 48.27         2.4 0.29                          79.6 166 
 PTB  HZ EP   1   1658 31.35                             134    0.16 7  133 268 
 PTB  HN ES   2   1658 50.62                             134   -0.35 5  133 268 
 ZAR  HE ES   2   1659  2.70                             122   -0.32 4  203 299 
                                                                                
