 2013  531 1716  5.2 L   6.768 -73.141148.9  RSN  9 0.4 2.2LRSN                1
 GAP= 72        1.03       4.1     4.3  6.8 -0.3357E+01 -0.4529E+00  0.2647E+01E
 Epicentro: LOS SANTOS - SANTANDER                                             3
 ACTION:UPD 13-06-20 09:55 OP:ep   STATUS:               ID:20130531171604 L   I
 OLDACT:UP  13-05-31 22:30 OP:Juan STATUS:               ID:20130531171604 L   3
 2013-05-31-1708-50M.COL___217                                                 6
 STAT SP IPHASW D HRMM SECON CODA AMPLIT PERI AZIMU VELO AIN AR TRES W  DIS CAZ7
 BAR2 SZ EP       1716 25.01                             172   -0.1310 19.9 193 
 BAR2 SZ ES       1716 40.45                             172   -0.2510 19.9 193 
 BAR2 SZ I        1716 42.66        13.1 0.16            171           19.9 193 
 GIR2 SZ EP       1716 25.33                             166   -0.0110 34.9 351 
 BRR  HZ EP       1716 27.04                             152    0.2310 73.4 301 
 BRR  HN ES       1716 44.36                             152    0.7010 73.4 301 
 BRR  HE I        1716 47.82        32.1 0.20            150           73.4 301 
 PAM  SZ EP       1716 27.45                             151   -0.4410 79.9  38 
 PAM  SN ES       1716 45.07                             151   -0.5310 79.9  38 
 PAM  SE I        1716 46.89        13.4 0.54            153           79.9  38 
 RUS  HZ EP       1716 29.54                             145    0.5310 97.0 176 
 RUS  HN ES       1716 47.86                             145    0.2810 97.0 176 
 RUS  HE I        1716 48.77        13.0 0.22            147           97.0 176 
 PTB  HZ EP       1716 32.10                             133   -0.31 9  148 260 
 PTB  HN ES       1716 53.05                             133   -0.58 9  148 260 
 PTB  HE I        1716 58.50        22.7 0.20            132            148 260 
 TAM  HZ EP       1716 33.12                             131    0.12 9  154 104 
 OCA  HZ EP   4   1716 32.00                             130   -2.09 0  164 353 
 OCA  HN ES       1716 57.07                             130    0.45 9  164 353 
 OCA  HN I        1717  0.49        65.4 0.24            130            164 353 
 NOR  HE ES       1717  8.70                             119   -0.11 8  233 235 
 NOR  HE I        1717 16.20        18.6 0.16            120            233 235 
                                                                                
