 2014  131 1034 17.2 L   6.835 -73.175148.8  RSN  4 0.1 1.0LRSN                1
 GAP=277        0.43       3.3     3.2  3.5  0.3064E+01  0.2333E+01  0.1808E+01E
 Epicentro: ZAPATOCA - SANTANDER                                               3
 ACTION:UPD 14-03-13 10:00 OP:ep   STATUS:               ID:20140131103417 L   I
 OLDACT:DUP 14-01-31 17:45 OP:stll STATUS:               ID:20140131102808d    3
 2014-01-31-1028-07M.COL___217                                                 6
 STAT SP IPHASW D HRMM SECON CODA AMPLIT PERI AZIMU VELO AIN AR TRES W  DIS CAZ7
 BAR2 SZ EP       1034 37.21                             169   -0.0710 26.9 182 
 BAR2 SZ ES       1034 53.14                             169    0.2110 26.9 182 
 RUS  HZ EP       1034 41.41                             143   -0.1510  105 174 
 RUS  HN ES       1035  0.42                             143   -0.1310  105 174 
 RUS  HZ I        1035  1.80         1.4 0.46            142            105 174 
 PTB  HZ EP       1034 44.37                             133    0.16 9  145 257 
 PTB  HN ES       1035  5.11                             133   -0.16 9  145 257 
 PTB  HZ I        1035  7.19         1.9 0.40            132            145 257 
 CHI  HZ EP       1034 55.48                             117    0.09 8  252 194 
 CHI  HZ I        1034 57.79         0.6 0.48            117            252 194 
 CHI  HN ES       1035 25.30                             117    0.12 8  252 194 
                                                                                
