 2013  331 1515 28.9 L   6.699 -73.206146.2  RSN  5 0.4 1.8LRSN                1
 GAP=219        0.98       7.6     7.0  9.6  0.3222E+02  0.3381E+01 -0.8285E+01E
 Epicentro: VILLANUEVA - SANTANDER                                             3
 ACTION:UPD 13-04-09 14:06 OP:ep   STATUS:               ID:20130331151528 L   I
 2013-03-31-1510-00M.COL___245                                                 6
 STAT SP IPHASW D HRMM SECON CODA AMPLIT PERI AZIMU VELO AIN AR TRES W  DIS CAZ7
 BAR2 SZ EP       1515 48.03                             175   -0.4110 12.1 168 
 BAR2 SZ ES   1   1516  3.67                             175    0.01 7 12.1 168 
 BRR  HZ EP       1515 49.86                             152   -0.3010 71.9 309 
 BRR  HE ES       1516  6.78                             152    0.0610 71.9 309 
 BRR  HE I        1516  7.11        14.3 0.36            148           71.9 309 
 RUS  HZ EP   1   1515 52.58                             147    0.58 7 90.2 171 
 RUS  HN ES       1516 10.26                             147    0.2610 90.2 171 
 RUS  HN I        1516 11.53         6.4 0.22            143           90.2 171 
 PTB  HZ EP   2   1515 54.97                             134   -0.22 5  139 263 
 PTB  HN ES       1516 15.16                             134   -0.51 9  139 263 
 PTB  HN I        1516 20.82         6.1 0.30            128            139 263 
 ZAR  HN ES       1516 27.22                             123    0.77 9  203 296 
 ZAR  HN I        1516 33.08         8.3 0.50            120            203 296 
                                                                                
