 2011  731 1642  6.1 L   6.763 -73.122145.5  RSN 11 0.2 2.2LRSN                1
 GAP=141        0.45       1.9     2.9  3.2 -0.2329E+01  0.2571E+01  0.6361E+00E
 Epicentro: LOS SANTOS - SANTANDER                                             3
 ACTION:UPD 12-07-25 14:04 OP:epov STATUS:               ID:20110731164206 L   I
 2011-07-31-1639-17S.COL___142                                                 6
 STAT SP IPHASW D HRMM SECON CODA AMPLIT PERI AZIMU VELO AIN AR TRES W  DIS CAZ7
 BAR2 SZ IP       1642 25.71                             172    0.0610 20.0 199 
 BAR2 SZ ES   1   1642 41.04                             172    0.15 7 20.0 199 
 BAR2 SZ I        1642 41.99        71.1 0.16                          20.0 199 
 BRR  HZ EP       1642 27.53                             151    0.0510 75.5 300 
 BRR  HN ES   1   1642 44.21                             151    0.06 7 75.5 300 
 BRR  HZ I        1642 46.57        31.8 0.18                          75.5 300 
 PAM  SZ EP       1642 28.65                             150    0.2510 79.0  36 
 PAM  SN ES   1   1642 45.43                             150   -0.35 7 79.0  36 
 RUS  HZ EP       1642 29.66                             145    0.1210 96.3 177 
 RUS  HN ES   1   1642 47.62                             145   -0.19 7 96.3 177 
 RUS  HZ I        1642 49.77        10.4 0.28                          96.3 177 
 BRI  SZ EP   1   1642 30.36                             140    0.15 7  111  19 
 BRI  SZ ES   1   1642 48.98                             140   -0.02 7  111  19 
 BRI  SZ I        1642 50.66        28.8 0.23                           111  19 
 OCA  SZ EP   1   1642 34.27                             129   -0.55 7  165 352 
 OCA  SZ I        1643  0.49        17.9 0.11                           165 352 
 NOR  SZ EP   1   1642 41.62                             118   -0.18 6  234 236 
 NOR  SN ES       1643  9.57                             118   -0.07 8  234 236 
 CHI  HZ EP   1   1642 43.08                             117   -0.36 6  245 196 
 CHI  HE ES   1   1643 12.65                             117    0.09 6  245 196 
 CHI  HZ I        1643 19.28         7.2 0.32                           245 196 
 HEL  HZ EP   1   1642 46.61                             114    0.13 6  274 257 
 DBB  SZ EP   1   1642 54.11                             109    0.20 5  342 275 
 PRA  HZ EP   1   1642 59.69                             107    0.33 4  390 210 
 PRA  HN ES   1   1643 40.59                             107   -0.30 4  390 210 
                                                                                
