 2016  831 1057 45.1 L   6.775 -73.162148.3  RSN  6 0.2 1.2LRSN                1
 GAP=234        0.47       2.6     2.8  3.2  0.2950E+01  0.1486E+01 -0.2640E+00E
 Epicentro: LOS SANTOS - SANTANDER                                             3
 ACTION:UPD 16-10-29 15:40 OP:rebc STATUS:               ID:20160831105745 L   I
 OLDACT:UP  16-08-31 21:39 OP:edw  STATUS:               ID:20160831104736     3
 OLDACT:UP  16-08-31 21:38 OP:edw  STATUS:               ID:20160831104736     3
 OLDACT:REG 16-08-31 19:36 OP:edw  STATUS:               ID:20160831104736     3
 2016-08-31-1048-00M.COL___352                                                 6
 STAT SP IPHASW D HRMM SECON CODA AMPLIT PERI AZIMU VELO AIN AR TRES W  DIS CAZ7
 BAR2 EZ EP       1058  4.78                             172   -0.2310 20.3 186 
 BAR2 EZ ES       1058 20.51                             172   -0.0110 20.3 186 
 BAR2 EZ I        1058 20.90         3.7 0.12                          20.3 186 
 BRR  HZ EP       1058  6.62                             153    0.0710 71.0 301 
 BRR  HE ES       1058 23.42                             153    0.1710 71.0 301 
 RUS  HZ EP       1058  9.19                             145    0.2410 98.0 175 
 RUS  HN ES       1058 27.38                             145   -0.1510 98.0 175 
 RUS  HZ I        1058 28.14         1.9 0.22                          98.0 175 
 PTB  HZ EP       1058 12.17                             133    0.07 9  145 260 
 PTB  HE ES       1058 33.07                             133   -0.07 9  145 260 
 PTB  HZ I        1058 34.96         2.4 0.16                           145 260 
 SPBC HZ EP       1058 13.73                             130    0.21 9  160 219 
 SPBC HN ES       1058 35.62                             130   -0.04 9  160 219 
 SPBC HZ I        1058 37.89         2.7 0.13                           160 219 
 ZAR  HZ EP       1058 17.33                             123   -0.35 9  203 293 
 ZAR  HN ES       1058 43.10                             123    0.03 9  203 293 
 ZAR  HZ I        1058 48.17         1.7 0.13                           203 293 
                                                                                
