 2010 1031 1508 35.2 L   6.827 -73.077147.8  RSN  5 0.4 1.6LRSN                1
 GAP=166        0.86       6.4    12.7 12.0 -0.7250E+01 -0.3455E+02 -0.1469E+02E
 Epicentro: LOS SANTOS - SANTANDER                                             3
 ACTION:UP  11-02-18 11:13 OP:tino STATUS:               ID:20101031150835 L   I
 2010-10-31-1503-42S.COL___125                                                 6
 STAT SP IPHASW D HRMM SECON CODA AMPLIT PERI AZIMU VELO SNR AR TRES W  DIS CAZ7
 BAR2 SZ EP   1   15 8 54.29                             168    -0.9 7   29 204 
 BAR2 SZ ES   2   15 9 10.73                             168    -0.1 5   29 204 
 BAR2 SZ I        15 9 11.24         7.6 0.16                            29 204 
 BRR  HZ IP     D 15 8 56.96                             151     0.110   77 294 
 BRR  HE ES   2   15 9 13.97                             151     0.2 5   77 294 
 BRR  HZ I        15 9 17.27        10.4 0.29                            77 294 
 RUS  HZ EP   1   15 8 59.86                             143     0.5 7  103 180 
 RUS  HE ES   2   15 9 18.33                             143     0.1 5  103 180 
 RUS  HZ I        15 9 19.79         3.1 0.43                           103 180 
 GUE  SZ EP   1   15 8 59.84                             141     0.1 7  112   9 
 GRA  SZ EP   1   15 9  0.25                             139     0.0 7  121  14 
 GRA  SZ ES   2   15 9 19.91                             139     0.2 5  121  14 
 GRA  SZ I        15 9 20.95         8.1 0.28                           121  14 
                                                                                
