 2011  331 1513 18.7 L   6.867 -73.127145.6  RSN 14 0.4 2.8LRSN                1
 GAP=113        0.84       3.4     5.9  6.2 -0.1556E+01  0.3553E+01  0.6618E+01E
 Epicentro: LOS SANTOS - SANTANDER                                             3
 ACTION:UP  11-06-16 14:36 OP:jfem STATUS:               ID:20110331151319dL   I
 2011-03-31-1513-27S.COL___138                                                 6
 STAT SP IPHASW D HRMM SECON CODA AMPLIT PERI AZIMU VELO SNR AR TRES W  DIS CAZ7
 BTL  SZ IP       1513 38.33                             173     0.110   17 290 
 GIR2 SZ IP       1513 38.19                             170     0.010   25 343 
 GIR2 SZ ES   1   1513 53.74                             170     0.3 7   25 343 
 BAR2 SZ IP       1513 38.39                             167    -0.110   31 192 
 BAR2 SZ ES   2   1513 53.04                             167    -0.9 5   31 192 
 BAR2 SZ I        1513 57.02       162.8 0.74                            31 192 
 BRR  HZ IP     C 1513 39.97                             153     0.210   70 292 
 BRR  HZ I        1513 40.23       301.2 0.13                            70 292 
 BRR  HN ES   1   1513 56.57                             153     0.4 7   70 292 
 PAM  SZ EP   1   1513 41.08                             154     0.6 7   70  42 
 GRA  SZ IP       1513 42.77                             139    -0.510  118  18 
 GRA  SZ ES   1   1514  1.80                             139    -0.7 7  118  18 
 GRA  SZ I        1514  3.24       190.4 0.31                           118  18 
 OCA  SZ EP   1   1513 46.42                             131     0.1 7  153 352 
 OCA  SZ ES   2   1514  8.08                             131     0.2 5  153 352 
 YOP  SZ EP   1   1513 49.62                             125     0.3 7  185 155 
 YOP  SN ES   1   1514 13.78                             125     0.6 7  185 155 
 YOP  SZ I        1514 16.22        32.3 0.44                           185 155 
 NOR  SZ EP   1   1513 54.94                             118    -0.1 6  241 233 
 CHI  HZ EP   1   1513 57.12                             116    -0.1 6  256 195 
 CHI  HN ES   1   1514 26.94                             116    -0.3 6  256 195 
 CHI  HZ I        1514 35.76        27.8 0.41                           256 195 
 HEL  HZ EP   2   1513 59.85                             114     0.5 4  276 254 
 HEL  HZ I        1514 36.48        31.3 0.27                           276 254 
 VIL  SN ES   2   1514 36.79                             112    -0.7 3  311 192 
 VIL  SZ I        1514 43.17        29.0 0.57                           311 192 
 DBB  SZ EP   1   1514  6.40                             109     0.0 5  341 273 
 PRA  HZ EP   1   1514 12.55                             106    -0.5 4  399 209 
 PRA  HN ES   2   1514 55.21                             106    -0.3 3  399 209 
                                                                                
