 2011  131 1507 17.9 L   7.470 -73.402120.8  RSN  6 0.4 2.1LRSN                1
 GAP=132        0.72       4.2     8.8 11.8  0.1241E+02  0.7284E+02  0.7060E+01E
 Epicentro: SABANA DE TORRES - SANTANDER                                       3
 ACTION:UP  11-02-08 08:44 OP:pat  STATUS:               ID:20110131150717 L   I
 2011-01-31-1503-15S.COL___138                                                 6
 STAT SP IPHASW D HRMM SECON CODA AMPLIT PERI AZIMU VELO SNR AR TRES W  DIS CAZ7
 BTL  SZ EP       15 7 36.43                             151     0.210   63 166 
 GRA  SZ EP   2   15 7 37.61                             143     0.4 5   80  55 
 GRA  SZ ES   2   15 7 51.63                             143    -0.7 5   80  55 
 GRA  SZ I        15 7 56.80        31.0 0.59                            80  55 
 OCA  SZ EP   1   15 7 37.83                             142     0.2 7   86   6 
 OCA  SZ ES   2   15 7 53.22                             142     0.2 5   86   6 
 OCA  SZ I        15 7 56.23        19.6 0.52                            86   6 
 BAR2 SZ EP       15 7 39.02                             137     0.210  100 166 
 BAR2 SZ ES   1   15 7 54.97                             137    -0.3 7  100 166 
 BAR2 SZ I        15 7 56.26        36.7 0.42                           100 166 
 RUS  HZ EP   2   15 7 46.01                             120    -0.6 4  178 169 
 MON  HZ EP       15 7 57.85                             108    -0.5 7  287 300 
 MON  HE ES   2   15 8 30.03                             108     0.2 4  287 300 
                                                                                
