 2014  531 1445  2.1 L   6.794 -73.105146.0  RSN 14 0.5 2.5LRSN                1
 GAP=123        1.19       3.6     4.6  6.0  0.4446E+00  0.6346E+01  0.5799E+01E
 Epicentro: LOS SANTOS - SANTANDER                                             3
 ACTION:UPD 15-03-16 17:02 OP:nd   STATUS:               ID:20140531144502 L   I
 OLDACT:REG 14-05-31 22:51 OP:cam  STATUS:               ID:20140531144000     3
 2014-05-31-1440-00M.COL___276                                                 6
 STAT SP IPHASW D HRMM SECON CODA AMPLIT PERI AZIMU VELO AIN AR TRES W  DIS CAZ7
 BAR2 SZ EP     D 1445 21.87                             170    0.0710 23.9 201 
 BAR2 SZ ES       1445 36.60                             170   -0.5410 23.9 201 
 BAR2 SZ I        1445 38.23       111.2 0.18            167           23.9 201 
 PAM  SZ IP     C 1445 24.80                             151    0.5610 75.1  37 
 PAM  SN ES       1445 41.93                             151    0.4510 75.1  37 
 PAM  SZ I        1445 44.17        32.5 0.58            156           75.1  37 
 BRR  HZ EP     C 1445 23.71                             151    0.1510 75.5 297 
 BRR  HN ES       1445 40.69                             151    0.4310 75.5 297 
 BRR  HZ I        1445 48.05        25.1 0.34            148           75.5 297 
 RUS  HZ EP       1445 26.13                             144    0.2910 99.7 179 
 RUS  HE ES       1445 44.24                             144   -0.0910 99.7 179 
 RUS  HZ I        1445 45.97        24.2 0.24            146           99.7 179 
 SPBC HZ EP       1445 30.81                             129   -0.07 9  166 220 
 SPBC HN ES   1   1445 53.36                             129    0.07 7  166 220 
 SPBC HZ I        1445 58.64        44.4 0.16            129            166 220 
 ZAR  HZ EP       1445 34.48                             122   -0.58 8  209 292 
 ZAR  HN ES       1446  0.02                             122   -0.71 8  209 292 
 ZAR  HZ I        1446  9.05        25.9 0.34            122            209 292 
 NOR  HE ES       1446  5.75                             118   -0.64 8  238 235 
 NOR  HZ I        1446 12.34        25.9 0.24            119            238 235 
 SML  HZ EP       1445 38.25                             117   -0.80 8  246 334 
 SML  HE ES   4   1446  6.71                             117   -1.13 0  246 334 
 SML  HZ I        1446 12.66        26.3 0.24            118            246 334 
 CHI  HZ EP       1445 40.25                             117    0.34 8  249 196 
 CHI  HN ES       1446  9.52                             117    0.15 8  249 196 
 CHI  HZ I        1446 16.38        15.0 0.46            119            249 196 
 HEL  HZ EP   4   1445 44.20                             114    1.37 0  276 256 
 HEL  HN ES   4   1446 16.33                             114    1.76 0  276 256 
 HEL  HZ I        1446 21.48        12.3 0.52            115            276 256 
 URE  HE ES   4   1446 13.14                             113   -3.01 0  288 292 
 GUY2CHZ EP       1445 47.29                             112    1.16 7  305 235 
 GUY2CHN ES       1446 20.86                             112    0.41 7  305 235 
 GUY2CHZ I        1446 28.28        21.0 0.32                           305 235 
 PTGC HZ EP       1445 44.90                             112   -0.85 7  306 159 
 PTGC HE ES       1446 18.82                             112   -0.94 7  306 159 
 TOL  SZ EP   1   1445 51.69                             109    0.98 5  346 225 
 PRA  HZ EP       1445 55.81                             106   -0.05 6  394 210 
 PRA  HN ES       1446 38.14                             106    0.38 6  394 210 
 PRA  HZ I        1446 44.36        14.5 0.42            108            394 210 
                                                                                
