 2010  731 1642 44.3 L   6.798 -73.005149.3  RSN  6 0.3 2.0LRSN                1
 GAP=180        0.70       6.1    12.0  9.1  0.1173E+02 -0.1976E+02 -0.7168E+01E
 Epicentro: CEPITA - SANTANDER                                                 3
 ACTION:UPD 10-12-01 15:21 OP:pat  STATUS:               ID:20100731164244 L   I
 2010-07-31-1639-01S.COL___123                                                 6
 STAT SP IPHASW D HRMM SECON CODA AMPLIT PERI AZIMU VELO AIN AR TRES W  DIS CAZ7
 BAR2 SZ EP   1   1643  4.74                             168     0.2 7   30 221 
 BAR2 SZ ES   2   1643 19.78                             168    -0.5 5   30 221 
 BAR2 SZ I        1643 21.47        23.0 0.41                            30 221 
 GIR2 SZ EP   1   1643  4.86                             165     0.3 7   37 326 
 BRR  HZ IP     C 1643  6.65                             149     0.010   85 294 
 BRR  HZ I        1643  6.94        44.0 0.11                            85 294 
 BRR  HE ES   2   1643 24.24                             149     0.1 5   85 294 
 RUS  HZ EP   1   1643  8.71                             144     0.3 7  100 185 
 RUS  HN ES   2   1643 26.86                             144    -0.3 5  100 185 
 RUS  HZ I        1643 28.63         8.9 0.41                           100 185 
 GUE  SZ EP   1   1643  8.80                             141    -0.4 7  114   4 
 GUE  SZ I        1643 32.99         6.4 0.16                           114   4 
 PRA  HZ EP   1   1643 38.26                             107    -0.6 4  400 212 
 PRA  HZ I        1644 24.50         3.8 0.50                           400 212 
                                                                                
