 2013  331 1957 54.6 L   6.788 -73.145154.2  RSN  6 0.4 2.2LRSN                1
 GAP=137        1.00       5.8     5.8  7.9  0.1702E+01  0.1032E+02  0.5940E+01E
 Epicentro: LOS SANTOS - SANTANDER                                             3
 ACTION:UPD 13-04-09 14:06 OP:ep   STATUS:               ID:20130331195754 L   I
 2013-03-31-1950-00M.COL___245                                                 6
 STAT SP IPHASW D HRMM SECON CODA AMPLIT PERI AZIMU VELO AIN AR TRES W  DIS CAZ7
 BAR2 SZ EP       1958 15.18                             171   -0.0510 22.0 191 
 BAR2 SZ ES       1958 31.14                             171   -0.1810 22.0 191 
 BAR2 SZ I        1958 32.97        28.4 0.36            171           22.0 191 
 BRR  HZ IP     D 1958 17.14                             154    0.4210 71.9 299 
 BRR  HE ES       1958 34.61                             154    0.6510 71.9 299 
 BRR  HE I        1958 35.37        39.4 0.24            153           71.9 299 
 PAM  SE ES       1958 35.41                             152   -0.4610 78.4  39 
 PAM  SE I        1958 37.23        23.5 0.40            155           78.4  39 
 RUS  HZ EP       1958 19.09                             146   -0.0210 99.2 176 
 RUS  HE ES       1958 38.53                             146    0.3110 99.2 176 
 RUS  HE I        1958 39.12        10.2 0.18            147           99.2 176 
 PTB  HZ EP   1   1958 21.93                             134   -0.33 7  148 259 
 PTB  HN ES       1958 43.19                             134   -0.65 9  148 259 
 PTB  HN I        1958 48.81        67.0 0.36            134            148 259 
 ZAR  HZ EP   2   1958 28.01                             124    0.33 4  205 292 
                                                                                
