 2016  831 1204  1.9 L   6.784 -73.049146.6  RSN 19 0.4 2.4LRSN                1
 GAP=105        1.05       2.6     3.0  4.6 -0.2183E+01  0.4164E+00  0.2434E+01E
 Epicentro: LOS SANTOS - SANTANDER                                             3
 ACTION:UPD 16-10-29 15:40 OP:rebc STATUS:               ID:20160831120401 L   I
 OLDACT:UP  16-08-31 22:35 OP:edw  STATUS:               ID:20160831115736     3
 OLDACT:REG 16-08-31 19:47 OP:edw  STATUS:               ID:20160831115736     3
 2016-08-31-1158-00M.COL___352                                                 6
 STAT SP IPHASW D HRMM SECON CODA AMPLIT PERI AZIMU VELO AIN AR TRES W  DIS CAZ7
 BAR2 EZ IP     D 12 4 21.61                             170   -0.0510 25.8 215 
 BAR2 EZ ES       12 4 37.17                             170    0.0810 25.8 215 
 BAR2 EZ I        12 4 39.44        81.4 0.28                          25.8 215 
 PAM  EZ EP       12 4 24.63                             152    0.7310 72.5  32 
 PAM  EN ES       12 4 41.75                             152    0.6710 72.5  32 
 PAM  EZ I        12 4 43.81        26.3 0.54                          72.5  32 
 BRR  HZ IP     C 12 4 23.45                             149   -0.2710 81.5 296 
 BRR  HE ES       12 4 40.37                             149   -0.4010 81.5 296 
 BRR  HZ I        12 4 44.43        46.6 0.34                          81.5 296 
 RUS  HZ EP       12 4 25.59                             144    0.0210 98.7 182 
 RUS  HN ES       12 4 44.35                             144    0.3010 98.7 182 
 RUS  HZ I        12 4 45.50        18.5 0.38                          98.7 182 
 PTB  HZ EP   9   12 4 28.59                             130   -1.26 0  158 260 
 PTB  HN ES       12 4 49.55                             130   -0.86 9  158 260 
 PTB  HZ I        12 4 56.51        19.6 0.11                           158 260 
 OCA  HZ EP       12 4 29.57                             129   -1.00 9  164 350 
 OCA  HN ES       12 4 52.68                             129   -0.26 9  164 350 
 OCA  HZ I        12 4 55.91        42.8 0.48                           164 350 
 SPBC HZ EP       12 4 30.57                             128   -0.40 9  169 222 
 SPBC HN ES       12 4 53.23                             128   -0.44 9  169 222 
 SPBC HZ I        12 4 57.54        37.2 0.21                           169 222 
 ZAR  HZ EP       12 4 36.16                             121    0.69 8  215 292 
 ZAR  HN ES       12 5  1.72                             121    0.05 8  215 292 
 ZAR  HZ I        12 5  8.55        27.1 0.24                           215 292 
 NOR  HZ EP       12 4 37.87                             118   -0.62 8  242 236 
 NOR  HN ES       12 5  6.49                             118   -0.56 8  242 236 
 NOR  HZ I        12 5 12.53        16.7 0.11                           242 236 
 CHI  HZ EP       12 4 39.96                             117    0.20 8  250 198 
 CHI  HN ES       12 5  8.86                             117   -0.46 8  250 198 
 CHI  HZ I        12 5 12.72        14.3 0.42                           250 198 
 ROSC BZ EP       12 4 40.81                             116    0.31 8  257 213 
 ROSC BN ES       12 5 11.21                             116    0.59 8  257 213 
 ROSC BZ I        12 5 16.29        36.5 0.45                           257 213 
 HEL  HZ EP       12 4 43.42                             114    0.18 7  282 257 
 HEL  HN ES       12 5 15.63                             114    0.13 7  282 257 
 HEL  HZ I        12 5 21.89        10.3 0.36                           282 257 
 SOCV BZ EP     C 12 4 44.42                             113    0.35 7  293  55 
 SOCV BN ES       12 5 16.82                             113   -0.17 7  293  55 
 PTGC HZ EP       12 4 44.84                             112   -0.32 7  303 160 
 PTGC HN ES       12 5 18.35                             112   -0.57 7  303 160 
 GUY2CHZ EP       12 4 46.65                             112    0.25 7  309 236 
 GUY2CHN ES       12 5 21.34                             112    0.20 7  309 236 
 GUY2CHZ I        12 5 29.03        11.5 0.32                           309 236 
 LL6C HZ EP   4   12 4 46.39                             110   -1.49 0  327 356 
 LL6C HN ES   4   12 5 21.40                             110   -2.37 0  327 356 
 ELA  HZ EP       12 4 49.72                             110    0.15 7  336 231 
 ELA  HN ES       12 5 27.09                             110    0.32 7  336 231 
 ELA  HZ I        12 5 38.23         9.9 0.52                           336 231 
 ANIL HZ EP   4   12 4 51.18                             108   -1.27 0  364 226 
 ANIL HN ES       12 5 32.54                             108    0.65 6  364 226 
 SJC  HZ EP   9 C 12 4 55.80                             105   -2.53 0  417 326 
 SJC  HN ES       12 5 39.77                             106   -0.06 5  417 326 
 SJC  HZ I        12 5 45.62         5.7 0.42                           417 326 
 CRJC HZ EP   9   12 5  1.98                             103   -2.56 0  469   2 
 CRJC HN ES       12 5 50.58                             104   -0.28 5  469   2 
 CRJC HZ I        12 5 52.46         6.2 0.18                           469   2 
                                                                                
