 2016  131 1058 55.6 L   6.798 -73.135147.2  RSN 12 0.3 1.8LRSN                1
 GAP=138        0.70       1.9     2.9  4.0 -0.8790E+00  0.3201E+01  0.4751E+00E
 Epicentro: LOS SANTOS - SANTANDER                                             3
 ACTION:UPD 16-03-09 23:30 OP:cam  STATUS:               ID:20160131105855 L   I
 OLDACT:REG 16-01-31 20:48 OP:cara STATUS:               ID:20160131105759     3
 2016-01-31-1057-59S.COL___220                                                 6
 STAT SP IPHASW D HRMM SECON CODA AMPLIT PERI AZIMU VELO AIN AR TRES W  DIS CAZ7
 BAR2 EZ EP       1059 15.30                             171   -0.1310 23.3 193 
 BAR2 EZ ES       1059 30.61                             171   -0.2710 23.3 193 
 BAR2 EZ I        1059 33.30         8.6 0.20            169           23.3 193 
 PAM  EZ IP     C 1059 18.10                             151    0.1410 76.8  39 
 PAM  EN ES       1059 35.49                             151    0.1010 76.8  39 
 PAM  EZ I        1059 37.52         6.7 0.48            155           76.8  39 
 RUS  HZ EP       1059 19.21                             144   -0.2810  100 177 
 RUS  HN ES       1059 38.15                             144    0.0410  100 177 
 RUS  HZ I        1059 39.10         3.6 0.34            147            100 177 
 PTB  HZ EP       1059 22.48                             132   -0.33 9  149 259 
 PTB  HN ES       1059 43.64                             132   -0.38 9  149 259 
 PTB  HZ I        1059 50.69         7.3 0.44            131            149 259 
 OCA  HE ES       1059 46.88                             130    0.59 9  161 353 
 OCA  HZ I        1059 51.28        13.8 0.26            131            161 353 
 SPBC HZ IP     C 1059 24.30                             129    0.02 9  164 219 
 SPBC HN ES       1059 46.85                             129    0.21 9  164 219 
 SPBC HZ I        1059 52.62        11.1 0.24            130            164 219 
 ZAR  HE ES       1059 53.91                             123    0.14 8  205 292 
 ZAR  HZ I        11 0  0.90         5.5 0.30            123            205 292 
 NOR  HZ EP       1059 31.50                             119   -0.02 8  236 235 
 NOR  HN ES       1059 59.97                             119    0.44 8  236 235 
 NOR  HZ I        11 0  2.95         5.3 0.20            119            236 235 
 SML  HZ EP       1059 31.98                             118   -0.43 8  244 335 
 SML  HN ES       11 0  1.04                             118   -0.07 8  244 335 
 SML  HZ I        11 0  7.87         7.6 0.36            119            244 335 
 CHI  HZ EP       1059 33.37                             118   -0.04 8  249 195 
 CHI  HN ES       11 0  3.17                             118    0.29 8  249 195 
 CHI  HZ I        11 0 10.39         1.9 0.38            119            249 195 
 GUY2CHZ EP   9   1059 40.87                             113    1.48 0  302 235 
 GUY2CHN ES       11 0 15.69                                    0.68 7  302 235 
 GUY2CHZ I        11 0 22.47         2.8 0.34                           302 235 
 PRA  HZ EP       1059 49.56                             107    0.33 6  392 210 
 PRA  HN ES       11 0 31.06                             107    0.01 6  392 210 
 PRA  HZ I        11 0 36.91         2.4 0.32            108            392 210 
                                                                                
