 2016  831 1352  1.2 L   6.831 -73.106147.5  RSN 17 0.5 2.2LRSN                1
 GAP=122        1.06       3.0     3.5  4.8 -0.3486E+01  0.1727E+01  0.6743E+00E
 Epicentro: LOS SANTOS - SANTANDER                                             3
 ACTION:UPD 16-10-29 15:40 OP:rebc STATUS:               ID:20160831135201 L   I
 OLDACT:UP  16-08-31 23:41 OP:edw  STATUS:               ID:20160831134742     3
 OLDACT:UP  16-08-31 23:37 OP:edw  STATUS:               ID:20160831134742     3
 OLDACT:REG 16-08-31 20:13 OP:edw  STATUS:               ID:20160831134742     3
 2016-08-31-1348-00M.COL___355                                                 6
 STAT SP IPHASW D HRMM SECON CODA AMPLIT PERI AZIMU VELO AIN AR TRES W  DIS CAZ7
 BAR2 EZ EP     C 1352 21.08                             169   -0.0710 27.7 198 
 BAR2 EZ ES       1352 36.35                             169   -0.3510 27.7 198 
 BAR2 EZ I        1352 37.03        32.7 0.26                          27.7 198 
 PAM  EZ EP       1352 24.00                             153    0.6910 72.0  39 
 PAM  EN ES       1352 41.16                             153    0.6210 72.0  39 
 PAM  EZ I        1352 42.89        14.3 0.22                          72.0  39 
 BRR  HZ IP     C 1352 22.83                             152    0.1410 73.6 295 
 BRR  HN ES       1352 40.06                             152    0.6210 73.6 295 
 BRR  HZ I        1352 45.81        25.0 0.13                          73.6 295 
 RUS  HZ EP       1352 25.53                             143    0.1610  104 179 
 RUS  HN ES       1352 43.88                             143   -0.3310  104 179 
 RUS  HZ I        1352 45.71        16.7 0.16                           104 179 
 PTB  HZ EP   9   1352 28.01                             131   -0.77 0  153 258 
 PTB  HN ES       1352 48.92                             132   -0.59 9  153 258 
 PTB  HZ I        1352 51.30        30.7 0.14                           153 258 
 OCA  HZ EP       1352 29.66                             130    0.26 9  157 351 
 OCA  HN ES       1352 50.94                             130   -0.45 9  157 351 
 OCA  HZ I        1352 54.00        60.8 0.20                           157 351 
 SPBC HZ EP       1352 30.36                             128   -0.01 9  169 219 
 SPBC HN ES       1352 52.89                             128   -0.21 9  169 219 
 SPBC HZ I        1352 54.81        23.3 0.10                           169 219 
 ZAR  HZ EP       1352 33.99                             122   -0.08 8  207 291 
 ZAR  HN ES       1352 59.12                             122   -0.57 8  207 291 
 ZAR  HZ I        1353  4.53        16.3 0.08                           207 291 
 NOR  HZ EP       1352 37.51                             118   -0.14 8  240 234 
 NOR  HN ES       1353  5.76                             118   -0.30 8  240 234 
 NOR  HZ I        1353  7.22         9.4 0.20                           240 234 
 CHI  HZ EP       1352 39.75                             117    0.25 8  253 196 
 CHI  HN ES       1353  8.88                             117   -0.48 8  253 196 
 CHI  HZ I        1353 16.08         7.4 0.42                           253 196 
 URE  HZ EP       1352 41.80                             114   -0.89 7  287 291 
 URE  HE ES   4   1353 13.30                             114   -1.74 0  287 291 
 URE  HZ I        1353 25.15        13.6 0.26                           287 291 
 SOCV BZ IP       1352 43.93                             113    0.21 7  296  57 
 SOCV BN ES       1353 15.90                             113   -0.97 7  296  57 
 GUY2CHZ EP   2   1352 45.95                             112    0.42 4  307 235 
 GUY2CHN ES   2   1353 20.27                             112    0.17 4  307 235 
 GUY2CHZ I        1353 29.29         8.3 0.64                           307 235 
 ELA  HZ EP       1352 48.95                             110    0.17 7  335 230 
 ELA  HN ES       1353 26.85                             110    0.98 7  335 230 
 ELA  HZ I        1353 35.34         4.5 0.42                           335 230 
 CBOC HZ EP       1352 48.86                             110    0.05 7  339 252 
 CBOC HN ES   4   1353 19.67                             110   -6.25 0  339 252 
 CBOC HZ I        1353 27.00         2.9 0.13                           339 252 
 ANIL HZ EP   4   1352 49.23                             108   -2.50 0  363 225 
 ANIL HN ES   4   1353 33.37                             108    2.25 0  363 225 
 ANIL HZ I        1353 35.61        16.2 0.34                           363 225 
 SJC  HZ EP   4   1352 55.39                             106   -1.40 0  409 326 
 SJC  HN ES   4   1353 36.08                             106   -4.05 0  409 326 
 SJC  HZ I        1353 40.61         5.8 0.48                           409 326 
                                                                                
