 2017 1031 1332 17.2 L   6.782 -73.147146.1  RSN 21 0.5 2.5LRSN                1
 GAP=112        0.98       3.0     3.1  5.1  0.1165E+01  0.4672E+01  0.4045E+01E
 Epicentro: LOS SANTOS - SANTANDER                                             3
 ACTION:UPD 17-11-07 19:40 OP:rebc STATUS:               ID:20171031133217 L   I
 OLDACT:UP  17-11-01 00:27 OP:mg   STATUS:               ID:20171031132740     3
 OLDACT:UP  17-11-01 00:26 OP:mg   STATUS:               ID:20171031132740     3
 OLDACT:REG 17-10-31 20:26 OP:mg   STATUS:               ID:20171031132740     3
 2017-10-31-1328-00M.COL___441                                                 6
 STAT SP IPHASW D HRMM SECON CODA AMPLIT PERI AZIMU VELO AIN AR TRES W  DIS CAZ7
 BAR2 EZ IP     C 1332 36.66                             171   -0.1310 21.3 190 
 BAR2 EZ ES   1   1332 51.69                             171   -0.41 7 21.3 190 
 BAR2 EZ I        1332 52.80        90.3 0.12            169           21.3 190 
 BRR  HZ IP     C 1332 38.61                             152    0.2210 72.0 300 
 BRR  HN ES       1332 55.64                             152    0.6910 72.0 300 
 BRR  HZ I        1332 57.10        90.3 0.14            148           72.0 300 
 PAM  EZ IP     C 1332 39.52                             150    0.0110 79.1  39 
 PAM  EN ES       1332 56.67                             150   -0.2710 79.1  39 
 PAM  EZ I        1332 57.32        55.9 0.30            152           79.1  39 
 RUS  HZ IP     C 1332 40.45                             144   -0.3510 98.6 176 
 RUS  HN ES       1332 59.11                             144   -0.1210 98.6 176 
 RUS  HZ I        1333  0.68        39.7 0.27            143           98.6 176 
 PTB  HZ EP       1332 43.23                             132   -0.87 9  147 260 
 PTB  HN ES       1333  4.51                             132   -0.60 9  147 260 
 PTB  HZ I        1333  8.13        35.0 0.18            128            147 260 
 SPBC HZ EP       1332 45.64                             129    0.12 9  161 219 
 SPBC HN ES       1333  7.61                             129   -0.03 9  161 219 
 SPBC HZ I        1333 10.22        69.2 0.28            127            161 219 
 YPLC HZ IP     C 1332 46.95                             127    0.14 9  175 151 
 YPLC HE ES       1333 10.83                             127    0.89 9  175 151 
 YPLC HZ I        1333 11.66        29.5 0.28            126            175 151 
 ZAR  HZ EP       1332 49.21                             122   -0.48 9  205 293 
 ZAR  HN ES       1333 15.66                             122    0.60 9  205 293 
 ZAR  HZ I        1333 21.18        50.4 0.26            120            205 293 
 NOR  HZ EP       1332 52.85                             119    0.09 8  233 235 
 NOR  HN ES       1333 20.91                             119    0.38 8  233 235 
 NOR  HZ I        1333 27.02        31.8 0.18            116            233 235 
 CHI  HZ EP       1332 55.01                             117    0.36 8  247 195 
 CHI  HN ES       1333 23.30                             117   -0.60 8  247 195 
 CHI  HZ I        1333 31.98         8.9 0.22            116            247 195 
 ROSC BZ EP   4   1332 56.81                             117    1.72 0  251 211 
 ROSC BN ES   4   1333 27.60                             117    2.92 0  251 211 
 ROSC BZ I        1333 32.37        29.5 0.30            115            251 211 
 URE  HZ EP   3   1332 56.88                             113   -1.43 2  284 292 
 URE  HN ES   3   1333 28.72                             113   -1.69 2  284 292 
 URE  HZ I        1333 41.45        43.4 0.39            111            284 292 
 GUY2CHZ EP   3   1333  1.98                             112    1.35 2  300 235 
 GUY2CHN ES   3   1333 35.74                             112    1.20 2  300 235 
 GUY2CHZ I        1333 43.30        31.9 0.42                           300 235 
 PTGC HZ EP   3   1332 59.36                             112   -1.46 2  307 158 
 PTGC HN ES   3   1333 33.30                             112   -1.58 2  307 158 
 PTGC HZ I        1333 35.61        16.2 0.31            111            307 158 
 LL6C HZ EP   4   1333  1.48                             110   -1.62 0  327 358 
 LL6C HN ES   4   1333 42.05                             110    3.11 0  327 358 
 LL6C HZ I        1333 50.46         7.3 0.47            109            327 358 
 ELA  HZ EP   4   1333  6.35                             110    2.50 0  328 230 
 ELA  HN ES       1333 40.57                             110    0.30 7  328 230 
 ELA  HZ I        1333 48.06        15.5 0.49            109            328 230 
 DBB  EZ EP       1333  5.21                             109    0.57 7  339 275 
 DBB  EN ES       1333 41.65                             109   -0.03 7  339 275 
 DBB  EZ I        1333 48.89        11.2 0.26            108            339 275 
 PRA  HZ EP       1333 10.25                             107   -0.22 6  390 210 
 PRA  HN ES       1333 51.52                             107   -0.53 6  390 210 
 PRA  HZ I        1333 59.80        13.5 0.39            105            390 210 
 ORTC HZ EP       1333 11.64                             106    0.76 6  394 216 
 ORTC HN ES   4   1333 55.10                             106    2.31 0  394 216 
 ORTC HZ I        1334  1.34         9.6 0.36            105            394 216 
 PAL  HZ EP       1333 12.48                             106    0.30 6  404 239 
 PAL  HN ES   3   1333 53.63                             106   -1.48 1  404 239 
 PAL  HZ I        1334  1.17         5.9 0.50            104            404 239 
 SJC  HZ EP   4   1333 10.95                             106   -1.97 0  411 327 
 SJC  HE ES   4   1333 53.60                             106   -2.81 0  411 327 
 SJC  HZ I        1333 57.44         2.9 0.26            104            411 327 
                                                                                
