 2016  331 1523 31.6 L   6.797 -73.115152.7  RSN 15 0.5 2.4LRSN                1
 GAP=122        1.08       4.4     3.7  5.8 -0.4455E+01  0.7407E+01 -0.4723E+01E
 Epicentro: LOS SANTOS - SANTANDER                                             3
 ACTION:UPD 16-05-13 21:29 OP:cam  STATUS:               ID:20160331152331 L   I
 OLDACT:REG 16-03-31 21:02 OP:ak   STATUS:               ID:20160331151744     3
 2016-03-31-1517-44M.COL___317                                                 6
 STAT SP IPHASW D HRMM SECON CODA AMPLIT PERI AZIMU VELO AIN AR TRES W  DIS CAZ7
 BAR2 EZ EP       1523 52.25                             171    0.2110 23.8 198 
 BAR2 EZ ES       1524  8.03                             171    0.0310 23.8 198 
 BAR2 EZ I        1524  9.70        30.6 0.16            168           23.8 198 
 PAM  EZ EP       1523 54.96                             152    0.5410 75.5  37 
 PAM  EN ES       1524 12.39                             152    0.1510 75.5  37 
 PAM  EZ I        1524 13.49        25.8 0.16            156           75.5  37 
 RUS  HZ EP       1523 56.42                             145    0.4510  100 178 
 RUS  HN ES       1524 14.36                             145   -0.6410  100 178 
 RUS  HZ I        1524 16.45        17.7 0.20            147            100 178 
 PTB  HZ EP       1523 58.83                             133   -0.57 9  151 259 
 PTB  HE ES       1524 21.27                             133    0.16 9  151 259 
 PTB  HZ I        1524 27.58        31.7 0.28            131            151 259 
 SPBC HZ EP       1524  1.22                             130    0.44 9  165 220 
 SPBC HN ES       1524 23.42                             130   -0.15 9  165 220 
 SPBC HZ I        1524 26.41        49.3 0.28            130            165 220 
 ZAR  HZ EP       1524  5.11                             123    0.30 8  207 292 
 ZAR  HN ES       1524 30.63                             123   -0.10 8  207 292 
 ZAR  HZ I        1524 38.67        16.9 0.26            123            207 292 
 NOR  HZ EP       1524  7.10                             120   -0.88 8  237 235 
 NOR  HE ES       1524 35.87                             120   -0.52 8  237 235 
 NOR  HZ I        1524 39.53        18.7 0.18            120            237 235 
 HEL  HZ EP       1524 13.08                             116    0.58 7  275 256 
 HEL  HN ES       1524 44.68                             116    0.26 7  275 256 
 HEL  HZ I        1524 50.56        15.2 0.32            116            275 256 
 URE  HZ EP       1524 13.07                             115   -0.28 7  287 292 
 URE  HE ES   4   1524 43.88                             115   -2.05 0  287 292 
 URE  HZ I        1524 53.11        14.2 0.12            115            287 292 
 SOCV BZ EP       1524 13.76                             114   -0.88 7  299  56 
 SOCV BN ES   4   1524 43.83                             114   -4.41 0  299  56 
 GUY2CHZ EP   2   1524 16.69                             113    0.89 4  304 235 
 GUY2CHN ES       1524 51.15                             113    0.86 7  304 235 
 GUY2CHZ I        1524 58.50        11.7 0.66                           304 235 
 CBOC HZ EP   2   1524 19.65                             111    0.51 3  337 252 
 CBOC HE ES   4   1524 54.88                             111   -1.36 0  337 252 
 CBOC HZ I        1525  6.91         4.0 0.64            111            337 252 
 DBB  SZ EP       1524 19.79                             110    0.06 7  343 274 
 DBB  SZ ES       1524 56.41                             110   -0.88 7  343 274 
 DBB  SZ I        1525  0.20        23.9 0.66            111            343 274 
 MON  HZ EP   9   1524 19.47                             110   -1.71 0  357 308 
 MON  HE ES       1524 57.93                                   -0.24 6  357 308 
 MON  HZ I        1525  0.83         7.4 0.18            110            357 308 
 ANIL HZ EP   9   1524 23.84                             109    1.94 0  360 225 
 ANIL HN ES       1525  3.59                                    0.49 6  360 225 
 ANIL HZ I        1525 15.44        22.5 0.36            110            360 225 
                                                                                
