 2013  831 1029  2.3 L   7.423 -73.196132.4  RSN 15 0.5 2.5LRSN                1
 GAP=108        0.99       2.9     3.0  5.2  0.9934E+00  0.3719E+01  0.1417E+01E
 Epicentro: EL PLAYON - SANTANDER                                              3
 ACTION:UPD 14-01-14 09:08 OP:ep   STATUS:               ID:20130831102902 L   I
 OLDACT:REG 13-08-31 19:24 OP:nd   STATUS:               ID:20130831102750     3
 2013-08-31-1027-50M.COL___214                                                 6
 STAT SP IPHASW D HRMM SECON CODA AMPLIT PERI AZIMU VELO AIN AR TRES W  DIS CAZ7
 PAM  SZ IP     C 1029 22.13                             156    0.2810 55.5  99 
 PAM  SN ES       1029 36.94                             156   -0.1710 55.5  99 
 PAM  SZ I        1029 40.56        47.5 0.38            159           55.5  99 
 BRR  HZ IP     D 1029 21.95                             151    0.2110 66.8 239 
 BRR  HN ES       1029 37.18                             151    0.2610 66.8 239 
 BRR  HZ I        1029 39.11        93.1 0.18            150           66.8 239 
 OCA  HZ EP       1029 23.81                             143    0.2310 91.3 351 
 OCA  HN ES       1029 39.87                             143   -0.3110 91.3 351 
 OCA  HZ I        1029 42.29        72.0 0.20            145           91.3 351 
 BAR2 SZ EP       1029 23.78                             143    0.0510 91.8 179 
 BAR2 SZ ES       1029 40.17                             143   -0.2910 91.8 179 
 BAR2 SZ I        1029 41.41       113.1 0.14            143           91.8 179 
 RUS  HZ EP       1029 30.77                             125   -0.20 9  170 176 
 RUS  HN ES       1029 52.88                             125   -0.46 9  170 176 
 RUS  HZ I        1030  0.21         7.2 0.26            125            170 176 
 PTB  HZ EP       1029 30.20                             124   -0.19 9  170 235 
 PTB  HN ES       1029 51.86                             124   -0.45 9  170 235 
 PTB  HZ I        1029 57.51        26.1 0.18            124            170 235 
 SML  HZ EP       1029 30.66                             122   -0.75 9  180 328 
 SML  HN ES   2   1029 53.77                             122   -0.35 4  180 328 
 SML  HZ I        1029 54.16       115.3 0.10            124            180 328 
 ZAR  HZ EP       1029 31.88                             122    0.12 9  184 273 
 ZAR  HE ES       1029 55.50                             122    0.75 9  184 273 
 ZAR  HZ I        1029 58.59        64.7 0.26            122            184 273 
 TAM  HZ EP       1029 32.64                             121    0.21 9  190 125 
 TAM  HN ES       1029 55.83                             121   -0.12 9  190 125 
 TAM  HZ I        1029 57.60        24.6 0.23            123            190 125 
 SPBC HZ EP       1029 36.18                             117    0.63 8  218 206 
 SPBC HN ES       1030  2.03                             117    0.53 8  218 206 
 SPBC HZ I        1030  6.87        18.1 0.20            118            218 206 
 URE  HZ EP   4   1029 38.85                             113   -1.24 0  260 278 
 URE  HN ES   4   1030  7.19                             113   -2.39 0  260 278 
 URE  HZ I        1030 10.71        25.8 0.12            113            260 278 
 NOR  HZ EP   1   1029 42.32                             111    0.35 6  277 222 
 NOR  HN ES   2   1030 11.71                             111   -1.21 4  277 222 
 NOR  HZ I        1030 19.07        13.8 0.18            112            277 222 
 COD  HZ EP   4   1029 41.92                             111   -0.27 0  279 354 
 COD  HN ES   4   1030 12.25                             111   -1.06 0  279 354 
 COD  HZ I        1030 18.79         6.1 0.50            113            279 354 
 HEL  HZ EP       1029 44.66                             110    0.58 7  292 242 
 HEL  HN ES   4   1030 14.53                             110   -2.15 0  292 242 
 HEL  HZ I        1030 23.85         9.9 0.24            111            292 242 
 DBB  SZ IP     D 1029 48.57                             107   -0.26 7  336 263 
 DBB  SZ ES   2   1030 23.02                             107   -2.12 3  336 263 
 DBB  SZ I        1030 28.64        17.6 0.50            108            336 263 
                                                                                
