 2014 1231 1039 41.7 L   6.813 -73.156143.9  RSN  7 0.3 1.6LRSN                1
 GAP=182        0.81       3.1     4.3  5.4  0.3051E+01  0.1062E+01 -0.5187E+01E
 Epicentro: LOS SANTOS - SANTANDER                                             3
 ACTION:UPD 15-02-10 17:08 OP:nd   STATUS:               ID:20141231103941 L   I
 OLDACT:UP  14-12-31 21:27 OP:cam  STATUS:               ID:20141231103816     3
 OLDACT:REG 14-12-31 19:52 OP:cam  STATUS:               ID:20141231103816     3
 2014-12-31-1038-16M.COL___268                                                 6
 STAT SP IPHASW D HRMM SECON CODA AMPLIT PERI AZIMU VELO AIN AR TRES W  DIS CAZ7
 BAR2 EZ EP       1040  1.50                             170    0.4010 24.6 187 
 BAR2 EZ ES       1040 15.91                             170   -0.3510 24.6 187 
 BAR2 EZ I        1040 17.41        15.4 0.24            170           24.6 187 
 BRR  HZ EP       1040  3.05                             153    0.5310 69.5 298 
 BRR  HE ES       1040 19.10                             153    0.3110 69.5 298 
 BRR  HZ I        1040 23.96         7.8 0.24            150           69.5 298 
 RUS  HZ EP       1040  5.31                             143   -0.0410  102 175 
 RUS  HN ES       1040 23.74                             143   -0.0810  102 175 
 RUS  HZ I        1040 25.04         3.2 0.28            148            102 175 
 PTB  HZ EP       1040  8.01                             132   -0.40 9  147 258 
 PTB  HN ES       1040 29.17                             132   -0.11 9  147 258 
 PTB  HZ I        1040 34.66         4.3 0.30            132            147 258 
 OCA  HZ EP       1040  9.20                             129   -0.49 9  159 353 
 OCA  HN ES       1040 31.67                             129    0.13 9  159 353 
 OCA  HZ I        1040 36.01         4.3 0.32            131            159 353 
 ZAR  HZ EP       1040 14.15                             122    0.32 9  202 292 
 ZAR  HN ES       1040 38.83                             122   -0.09 9  202 292 
 ZAR  HZ I        1040 46.60         4.1 0.26            123            202 292 
 SML  HZ EP       1040 18.12                             117    0.12 8  242 335 
 SML  HN ES       1040 45.92                             117   -0.41 8  242 335 
 SML  HZ I        1040 51.38         6.0 0.22            119            242 335 
                                                                                
