 2013  831 1721 51.9 L   6.385 -73.640108.0  RSN  5 0.5 1.7LRSN                1
 GAP=149        1.17       6.5     5.4  9.7  0.1852E+02  0.2020E+02  0.7585E+01E
 Epicentro: SANTA HELENA DEL OPON - SANTANDER                                  3
 ACTION:UPD 14-01-14 09:08 OP:ep   STATUS:               ID:20130831172151 L   I
 OLDACT:REG 13-08-31 15:44 OP:nd   STATUS:               ID:20130831171959     3
 2013-08-31-1719-59M.COL___269                                                 6
 STAT SP IPHASW D HRMM SECON CODA AMPLIT PERI AZIMU VELO AIN AR TRES W  DIS CAZ7
 BAR2 SZ EP       1722  8.21                             151   -0.1910 55.5  66 
 BAR2 SZ ES       1722 21.16                             151   -0.1410 55.5  66 
 BAR2 SZ I        1722 22.63        25.6 0.22            154           55.5  66 
 BRR  HZ EP       1722  9.21                             140   -0.5610 80.2 354 
 BRR  HN ES       1722 23.80                             140    0.0810 80.2 354 
 BRR  HZ I        1722 25.28        16.8 0.42            142           80.2 354 
 RUS  HZ EP       1722 10.57                             140   -0.0410 82.2 131 
 RUS  HN ES       1722 25.83                             140    0.6010 82.2 131 
 RUS  HZ I        1722 27.75         4.8 0.26            144           82.2 131 
 PTB  HZ EP       1722 10.72                             136   -0.0210 91.9 281 
 PTB  HE ES       1722 24.89                             136   -0.5610 91.9 281 
 PTB  HZ I        1722 27.27         8.5 0.12            137           91.9 281 
 ZAR  HZ EP       1722 19.74                             116    0.02 9  182 312 
 ZAR  HN ES       1722 42.49                             116    1.05 9  182 312 
 ZAR  HZ I        1722 46.98         5.6 0.27            117            182 312 
                                                                                
