 2017 1231 1523 12.6 L   6.801 -73.184140.0  RSN  7 0.4 1.8LRSN                1
 GAP=138        0.93       4.2     4.5  7.9 -0.8343E+01  0.1065E+02 -0.7444E+00E
 Epicentro: ZAPATOCA - SANTANDER                                               3
 ACTION:UPD 18-01-04 13:26 OP:rebc STATUS:               ID:20171231152312 L   I
 OLDACT:UP  17-12-31 23:31 OP:mg   STATUS:               ID:20171231150923     3
 OLDACT:REG 17-12-31 20:48 OP:mg   STATUS:               ID:20171231150923     3
 2017-12-31-1518-00M.COL___453                                                 6
 STAT SP IPHASW D HRMM SECON CODA AMPLIT PERI AZIMU VELO AIN AR TRES W  DIS CAZ7
 BAR2 EZ EP       1523 31.53                             170    0.0510 23.1 180 
 BAR2 EZ ES   2   1523 46.33                             170    0.08 5 23.1 180 
 BAR2 EZ I        1523 47.79        12.3 0.19            172           23.1 180 
 PAM  EZ EP       1523 34.51                             149    0.1910 80.1  42 
 PAM  EN ES       1523 51.65                             149    0.3510 80.1  42 
 PAM  EZ I        1523 52.94         8.2 0.34            152           80.1  42 
 PTB  HZ EP       1523 38.12                             131   -0.55 9  144 258 
 PTB  HN ES       1523 58.71                             131   -0.34 9  144 258 
 PTB  HZ I        1524  1.29         5.9 0.18            133            144 258 
 OCA  HZ EP       1523 39.96                             128   -0.41 9  160 355 
 OCA  HN ES   1   1524  1.52                             128   -0.54 7  160 355 
 OCA  HZ I        1524  3.70        11.3 0.16            131            160 355 
 SPBC HZ EP       1523 39.95                             128   -0.41 9  161 218 
 SPBC HN ES       1524  2.12                             128    0.06 9  161 218 
 SPBC HZ I        1524  4.93        11.9 0.09            131            161 218 
 ZAR  HZ EP       1523 44.57                             122    0.36 9  200 293 
 ZAR  HN ES       1524  9.46                             122    0.55 9  200 293 
 ZAR  HZ I        1524 15.81         9.2 0.34            123            200 293 
 GUY2CHZ EP   2   1523 56.97                             111    1.46 4  298 234 
 GUY2CHE ES       1524 29.43                             111    0.41 7  298 234 
 GUY2CHZ I        1524 38.25         2.6 0.58                           298 234 
                                                                                
