 2014  731 1435 32.4 L   6.833 -73.143146.8  RSN 16 0.5 2.4LRSN                1
 GAP=135        1.12       2.9     4.2  5.4 -0.2701E+01  0.7989E+01  0.2378E+01E
 Epicentro: LOS SANTOS - SANTANDER                                             3
 ACTION:UPD 15-03-16 20:48 OP:nd   STATUS:               ID:20140731143532 L   I
 OLDACT:REG 14-07-31 21:21 OP:carl STATUS:               ID:20140731142818     3
 2014-07-31-1428-18M.COL___257                                                 6
 STAT SP IPHASW D HRMM SECON CODA AMPLIT PERI AZIMU VELO AIN AR TRES W  DIS CAZ7
 BAR2 SZ EP       1435 52.07                             169   -0.1310 26.9 189 
 BAR2 SZ ES       1436  7.46                             169   -0.2110 26.9 189 
 BAR2 SZ I        1436  8.93        32.3 0.44            168           26.9 189 
 BRR  HZ EP       1435 54.08                             153    0.5310 69.8 296 
 BRR  HN ES       1436 10.75                             153    0.6710 69.8 296 
 BRR  HZ I        1436 14.59        16.5 0.18            150           69.8 296 
 PAM  SZ EP       1435 54.85                             152    0.3310 74.4  41 
 PAM  SN ES       1436 12.28                             152    0.4710 74.4  41 
 PAM  SZ I        1436 14.28        53.1 0.56            157           74.4  41 
 RUS  HZ EP       1435 56.11                             143   -0.3710  104 176 
 RUS  HN ES       1436 15.14                             143   -0.1510  104 176 
 RUS  HZ I        1436 17.35        26.1 0.46            146            104 176 
 PTB  HZ EP       1435 58.91                             132   -0.60 9  149 257 
 PTB  HN ES       1436 20.17                             132   -0.52 9  149 257 
 PTB  HZ I        1436 27.59        29.6 0.46            132            149 257 
 OCA  HN ES       1436 22.28                             130   -0.04 9  157 353 
 OCA  HZ I        1436 27.79        27.4 0.22            133            157 353 
 SPBC HZ EP       1436  1.06                             129   -0.17 9  166 218 
 SPBC HN ES       1436 23.02                             129   -0.72 9  166 218 
 SPBC HZ I        1436 28.13        44.9 0.20            130            166 218 
 ZAR  HZ EP       1436  4.79                             123    0.02 9  203 291 
 ZAR  HN ES       1436 30.38                             123    0.33 9  203 291 
 ZAR  HZ I        1436 37.02        20.8 0.26            123            203 291 
 NOR  HZ EP       1436  8.22                             118   -0.19 8  237 234 
 NOR  HN ES       1436 36.30                             118   -0.22 8  237 234 
 NOR  HZ I        1436 40.40        20.4 0.16            120            237 234 
 SML  HZ EP       1436  8.38                             118   -0.33 8  241 335 
 SML  HN ES       1436 35.88                             118   -1.18 8  241 335 
 SML  HZ I        1436 40.16        22.2 0.28            120            241 335 
 GUY2CHZ EP       1436 16.94                             112    0.65 7  304 234 
 GUY2CHN ES       1436 50.87                             112    0.33 7  304 234 
 GUY2CHZ I        1436 58.75        15.4 0.74                           304 234 
 RREF HZ EP       1436 18.61                             111   -0.24 7  324 229 
 RREF HN ES       1436 55.68                             111    0.58 7  324 229 
 RREF HZ I        1437  3.02        15.9 0.24            112            324 229 
 CBOC HZ EP       1436 20.47                             110    0.98 7  335 252 
 CBOC HN ES       1436 56.27                             110    0.03 7  335 252 
 CBOC HZ I        1437  2.58         5.3 0.40            111            335 252 
 TOL  SZ EP       1436 22.03                             109    1.04 6  346 224 
 TOL  SN ES       1436 59.16                             109    0.25 6  346 224 
 TOL  SZ I        1437  4.85        21.5 0.22            111            346 224 
 PRA  HZ EP       1436 25.70                             106   -0.61 6  395 209 
 PRA  HN ES       1437  8.26                             106   -0.12 6  395 209 
 PRA  HZ I        1437 13.35         9.9 0.22            108            395 209 
 ORTC HZ EP       1436 26.37                             106   -0.32 6  399 216 
 ORTC HN ES       1437  9.90                             106    0.85 6  399 216 
 ORTC HZ I        1437 15.95         6.7 0.36            108            399 216 
                                                                                
