 2014  331 1221 48.8 L   6.788 -73.138143.0  RSN  5 0.3 1.6LRSN                1
 GAP=139        0.83       5.0     4.7  7.5 -0.1089E+02  0.7576E+01  0.4572E+00E
 Epicentro: LOS SANTOS - SANTANDER                                             3
 ACTION:UPD 14-04-09 23:22 OP:nd   STATUS:               ID:20140331122148 L   I
 OLDACT:UP  14-03-31 22:44 OP:cam  STATUS:               ID:20140331121811     3
 OLDACT:REG 14-03-31 16:08 OP:cam  STATUS:               ID:20140331121811     3
 2014-03-31-1218-11M.COL___246                                                 6
 STAT SP IPHASW D HRMM SECON CODA AMPLIT PERI AZIMU VELO AIN AR TRES W  DIS CAZ7
 BAR2 SZ EP       1222  7.99                             171   -0.1010 22.2 193 
 BAR2 SZ ES       1222 23.68                             171    0.5510 22.2 193 
 PAM  SZ EP       1222 10.84                             150    0.0710 77.9  38 
 PAM  SE ES       1222 27.74                             150   -0.1510 77.9  38 
 PAM  SZ I        1222 29.02         5.0 0.16            151           77.9  38 
 RUS  HZ EP       1222 12.37                             144    0.1710 99.2 176 
 RUS  HE ES       1222 30.01                             144   -0.4310 99.2 176 
 PTB  HN ES       1222 36.13                             131   -0.38 9  148 259 
 NOR  HZ EP   4   1222 23.05                             118   -1.33 0  235 235 
 NOR  HN ES       1222 52.46                             118    0.34 8  235 235 
 NOR  HZ I        1222 57.62         4.0 0.48            117            235 235 
                                                                                
