 2015  831 1753 42.6 L   6.832 -73.128149.8  RSN 15 0.5 2.4LRSN                1
 GAP=153        1.06       2.8     4.4  5.4 -0.3937E+01  0.6947E+01  0.3237E+01E
 Epicentro: LOS SANTOS - SANTANDER                                             3
 ACTION:UPD 15-09-15 23:06 OP:cam  STATUS:               ID:20150831175342 L   I
 OLDACT:REG 15-08-31 22:07 OP:ak   STATUS:               ID:20150831174750     3
 2015-08-31-1747-50M.COL___361                                                 6
 STAT SP IPHASW D HRMM SECON CODA AMPLIT PERI AZIMU VELO AIN AR TRES W  DIS CAZ7
 BAR2 EZ IP     C 1754  2.56                             169   -0.2310 27.2 193 
 BAR2 EZ ES       1754 18.04                             169   -0.5010 27.2 193 
 BAR2 EZ I        1754 20.66        34.6 0.36            168           27.2 193 
 BRR  HZ EP       1754  4.53                             153    0.3410 71.4 295 
 BRR  HN ES       1754 21.78                             153    0.7510 71.4 295 
 BRR  HZ I        1754 26.32        22.7 0.10            152           71.4 295 
 PAM  EZ EP       1754  5.35                             153    0.3410 73.4  40 
 PAM  EN ES       1754 22.75                             153    0.2510 73.4  40 
 PAM  EZ I        1754 24.76        23.6 0.22            158           73.4  40 
 OCA  HZ EP       1754 10.78                             131   -0.14 9  157 352 
 OCA  HN ES       1754 33.00                             131   -0.02 9  157 352 
 OCA  HZ I        1754 38.55        52.4 0.22            134            157 352 
 SPBC HZ EP       1754 11.48                             129   -0.30 9  167 219 
 SPBC HN ES       1754 34.15                             129   -0.39 9  167 219 
 SPBC HZ I        1754 40.71        53.6 0.32            131            167 219 
 ZAR  HZ EP       1754 15.47                             123    0.11 9  205 291 
 ZAR  HN ES       1754 40.66                             123   -0.26 9  205 291 
 ZAR  HZ I        1754 47.04        25.4 0.17            124            205 291 
 NOR  HZ EP       1754 18.49                             119   -0.46 8  238 234 
 NOR  HN ES       1754 46.66                             119   -0.64 8  238 234 
 NOR  HZ I        1754 50.27        22.9 0.18            121            238 234 
 SML  HZ EP   1   1754 18.69                             119   -0.51 6  241 335 
 SML  HE ES       1754 47.05                             119   -0.70 8  241 335 
 SML  HZ I        1754 52.32        41.0 0.10            121            241 335 
 CHI  HZ EP       1754 20.52                             117   -0.42 8  253 195 
 CHI  HN ES       1754 50.62                             117   -0.23 8  253 195 
 CHI  HZ I        1754 55.84         9.2 0.38            120            253 195 
 ROSC BZ EP   1   1754 21.76                             117    0.39 6  257 211 
 ROSC BN ES       1754 52.00                             117    0.38 8  257 211 
 ROSC BZ I        1754 58.40        22.3 0.45            119            257 211 
 GUY2CHZ EP       1754 27.77                             113    0.97 7  305 234 
 GUY2CHN ES       1755  2.20                             113    0.92 7  305 234 
 GUY2CHZ I        1755  9.80        12.2 0.28                           305 234 
 ELA  HZ EP       1754 30.84                             111    0.79 7  333 229 
 ELA  HN ES       1755  7.81                             111    0.75 7  333 229 
 ELA  HZ I        1755 16.75         7.6 0.28            113            333 229 
 CBOC HZ EP       1754 30.00                             110   -0.02 7  337 252 
 CBOC HN ES       1755  6.41                             110   -0.60 7  337 252 
 TOL  SZ EP       1754 32.00                             110    0.54 6  347 224 
 TOL  SN ES       1755  9.62                             110    0.05 6  347 224 
 TOL  SZ I        1755 16.49        10.8 0.38            112            347 224 
 PRA  HZ EP       1754 36.15                             107   -0.57 6  396 210 
 PRA  HN ES       1755 18.36                             107   -0.59 6  396 210 
 PRA  HZ I        1755 22.81        12.1 0.24            109            396 210 
                                                                                
