 2012  131 1054 57.9 L   6.767 -73.128146.8  RSN 11 0.3 2.2LRSN                1
 GAP=140        0.69       3.0     3.9  4.8 -0.2110E+01  0.5324E+01  0.1490E+01E
 Epicentro: LOS SANTOS - SANTANDER                                             3
 ACTION:UP  12-02-03 08:22 OP:REBC STATUS:               ID:20120131105457 L   I
 2012-01-31-1050-00M.COL___187                                                 6
 STAT SP IPHASW D HRMM SECON CODA AMPLIT PERI AZIMU VELO SNR AR TRES W  DIS CAZ7
 BAR2 SZ EP       1055 17.61                             172     0.010   20 197 
 BAR2 SZ ES   1   1055 32.86                             172    -0.1 7   20 197 
 BAR2 SZ I        1055 34.14        83.5 0.15                            20 197 
 GIR2 SZ EP       1055 17.64                             166    -0.110   35 348 
 BRR  HZ IP     C 1055 19.44                             151     0.110   75 300 
 BRR  HN ES   1   1055 36.74                             151     0.7 7   75 300 
 PAM  SZ EP       1055 20.44                             150     0.110   79  37 
 PAM  SN ES   1   1055 37.82                             150     0.0 7   79  37 
 RUS  HZ EP       1055 21.48                             145     0.010   97 177 
 RUS  HN ES       1055 39.57                             145    -0.310   97 177 
 RUS  HZ I        1055 41.52        25.4 0.34                            97 177 
 PTB  HZ EP   1   1055 24.44                             132    -0.6 7  149 260 
 PTB  HE ES   1   1055 45.83                             132    -0.4 7  149 260 
 ZAR  HZ EP   1   1055 30.38                             122    -0.3 6  207 293 
 ZAR  HZ I        1056  2.56        17.5 0.31                           207 293 
 NOR  SZ EP   1   1055 34.04                             119     0.4 6  234 235 
 NOR  SN ES   1   1056  1.46                             119     0.0 6  234 235 
 CHI  HZ EP   1   1055 35.41                             118     0.1 6  246 196 
 CHI  HZ I        1055 36.09         7.5 0.05                           246 196 
 CHI  HN ES   1   1056  5.00                             118     0.5 6  246 196 
 HEL  HZ EP   1   1055 38.43                             115     0.2 6  273 257 
 HEL  HZ I        1056 16.16         6.7 0.23                           273 257 
 PRA  HZ EP   1   1055 50.83                             107    -0.3 4  390 210 
 PRA  HE ES   1   1056 33.22                             107     0.5 4  390 210 
                                                                                
