 2010  131 1058 17.7 L   6.794 -72.982152.3  RSN  6 0.3 1.4LRSN                1
 GAP=183        0.43       4.5    19.9  6.9 -0.4456E+02  0.1843E+02  0.1152E+02E
 Epicentro: CEPITA - SANTANDER                                                 3
 ACTION:UP  10-08-24 09:46 OP:vdl  STATUS:               ID:20100131105817 L   I
 2010-01-31-1039-51S.COL___086                                                 6
 STAT SP IPHASW D HRMM SECON CODA AMPLIT PERI AZIMU VELO SNR AR TRES W  DIS CAZ7
 BAR2 SZ EP   2   1058 38.05                             168    -0.3 5   32 225 
 GIR2 SZ EP   2   1058 38.63                             165     0.2 5   39 323 
 GIR2 SZ ES   2   1058 54.39                             165    -0.1 5   39 323 
 RUS  HZ EP   2   1058 42.36                             145     0.2 5  100 186 
 RUS  HE ES   2   1059  0.95                             145    -0.2 5  100 186 
 RUS  HZ I        1059  1.84         2.6 0.57                           100 186 
 GUE  SZ ES   2   1059  2.73                             141     0.2 5  115   3 
 CHI  HZ EP   1   1058 56.08                             118    -0.2 6  253 199 
 CHI  HZ I        1058 56.63         2.2 0.47                           253 199 
 CHI  HN ES   2   1059 26.97                             118     0.6 4  253 199 
 PRA  HZ EP   2   1059 12.32                             107    -0.2 3  401 212 
                                                                                
