 2015  531 1758 49.0 L   6.830 -73.129147.5  RSN 20 0.4 2.2LRSN                1
 GAP=137        0.90       2.6     3.9  5.0 -0.1635E+01  0.5914E+01  0.1875E+01E
 Epicentro: LOS SANTOS - SANTANDER                                             3
 ACTION:UPD 15-09-10 22:08 OP:cam  STATUS:               ID:20150531175849 L   I
 OLDACT:REG 15-05-31 20:35 OP:spq  STATUS:               ID:20150531175747     3
 2015-05-31-1757-47M.COL___301                                                 6
 STAT SP IPHASW D HRMM SECON CODA AMPLIT PERI AZIMU VELO AIN AR TRES W  DIS CAZ7
 BAR2 EZ EP       1759  8.72                             169   -0.1710 26.9 193 
 BAR2 EZ ES   1   1759 23.99                             169   -0.43 7 26.9 193 
 BAR2 EZ I        1759 24.93        33.1 0.22            167           26.9 193 
 BRR  HZ EP       1759 10.68                             153    0.3610 71.3 296 
 BRR  HN ES       1759 27.69                             153    0.7210 71.3 296 
 BRR  HZ I        1759 30.70        21.2 0.30            150           71.3 296 
 PAM  SZ EP       1759 11.73                             152    0.5710 73.7  40 
 PAM  SN ES   1   1759 28.90                             152    0.43 7 73.7  40 
 PAM  SZ I        1759 30.87        27.8 0.50            156           73.7  40 
 RUS  HZ EP   1   1759 12.81                             143   -0.32 7  104 177 
 RUS  HN ES       1759 31.75                             143   -0.2110  104 177 
 RUS  HZ I        1759 32.48        16.2 0.24            145            104 177 
 OCA  HZ EP       1759 16.88                             131   -0.26 9  157 352 
 OCA  HN ES       1759 38.67                             131   -0.44 9  157 352 
 OCA  HZ I        1759 47.21        34.9 0.22            132            157 352 
 SPBC HZ EP       1759 17.58                             129   -0.38 9  167 219 
 SPBC HE ES   1   1759 39.94                             129   -0.62 7  167 219 
 SPBC HZ I        1759 44.21        30.1 0.18            129            167 219 
 ZAR  HN ES       1759 46.70                             123   -0.32 9  205 291 
 ZAR  HZ I        1759 51.84        16.9 0.38            122            205 291 
 NOR  HZ EP       1759 24.87                             118   -0.30 8  238 234 
 NOR  HN ES       1759 53.34                             118   -0.06 8  238 234 
 NOR  HZ I        18 0  0.65        11.8 0.16            119            238 234 
 SML  HZ EP   1   1759 25.15                             118   -0.32 6  242 335 
 SML  HN ES   1   1759 53.50                             118   -0.42 6  242 335 
 SML  HZ I        1759 57.22        20.2 0.08            119            242 335 
 CHI  HZ EP       1759 27.37                             117    0.20 8  252 195 
 CHI  HN ES   1   1759 56.50                             117   -0.45 6  252 195 
 CHI  HZ I        18 0  0.07        12.2 0.60            118            252 195 
 ROSC BE ES   4   1759 58.97                             117    1.25 0  257 211 
 ROSC BZ I        18 0  3.06        24.7 0.40            117            257 211 
 HEL  HZ EP   1   1759 30.19                             115    0.62 6  275 255 
 HEL  HN ES   1   18 0  1.01                             115   -0.21 6  275 255 
 HEL  HZ I        18 0  6.79         8.8 0.26            115            275 255 
 GUY2CHZ EP   1   1759 32.83                             112   -0.22 5  305 234 
 GUY2CHN ES   4   18 0  8.56                             112    1.14 0  305 234 
 GUY2CHZ I        18 0 14.94         7.8 0.34                           305 234 
 PTGC HZ EP   4   1759 32.00                             112   -1.18 0  311 159 
 PTGC HN ES   4   18 0  5.78                             112   -1.88 0  311 159 
 PTGC HZ I        18 0  9.05        14.8 0.39            114            311 159 
 RREF HZ EP   1   1759 35.46                             111   -0.14 5  325 229 
 RREF HE ES   4   18 0 14.92                             111    2.96 0  325 229 
 RREF HZ I        18 0 20.74         3.7 0.40            111            325 229 
 CBOC HZ EP       1759 36.51                             110    0.23 7  336 252 
 CBOC HN ES   4   18 0 12.09                             110   -1.08 0  336 252 
 CBOC HZ I        18 0 16.91         2.5 0.12            110            336 252 
 TOL  SZ EP       1759 38.35                             109    0.63 6  347 224 
 TOL  SE ES       18 0 16.62                             109    0.88 6  347 224 
 TOL  SZ I        18 0 22.56         6.1 0.34            110            347 224 
 MON  HZ EP   4   1759 35.58                             109   -2.40 0  353 308 
 MON  HN ES   4   18 0 14.47                             109   -1.73 0  353 308 
 MON  HZ I        18 0 16.50         3.2 0.35            110            353 308 
 ORTC HN ES   1   18 0 26.33                             106    0.50 4  399 216 
 ORTC HZ I        18 0 30.30         6.0 0.27            107            399 216 
 SJC  HZ EP   4   1759 42.43                             106   -1.96 0  407 326 
 SJC  HE ES   4   18 0 24.40                             106   -3.22 0  407 326 
 SJC  HZ I        18 0 28.71         2.4 0.22            107            407 326 
                                                                                
