 2013  831 1352  0.0 L   6.760 -73.149147.9  RSN  7 0.5 1.9LRSN                1
 GAP=200        1.12       5.2     6.3  7.4  0.9976E+01  0.3090E+01 -0.7152E+01E
 Epicentro: LOS SANTOS - SANTANDER                                             3
 ACTION:UPD 14-01-14 09:08 OP:ep   STATUS:               ID:20130831135200 L   I
 OLDACT:REG 13-08-31 15:34 OP:nd   STATUS:               ID:20130831134959     3
 2013-08-31-1349-59M.COL___269                                                 6
 STAT SP IPHASW D HRMM SECON CODA AMPLIT PERI AZIMU VELO AIN AR TRES W  DIS CAZ7
 BAR2 SZ EP       1352 19.97                             173    0.1410 18.9 191 
 BAR2 SZ ES       1352 35.37                             173    0.0910 18.9 191 
 BAR2 SZ I        1352 37.64        14.6 0.32            171           18.9 191 
 BRR  HZ IP     C 1352 21.78                             152    0.2710 73.1 302 
 BRR  HN ES       1352 38.78                             152    0.5110 73.1 302 
 BRR  HZ I        1352 53.66        11.8 0.30            150           73.1 302 
 RUS  HZ EP       1352 24.29                             146    0.6110 96.2 176 
 RUS  HN ES       1352 41.24                             146   -0.8910 96.2 176 
 RUS  HZ I        1352 43.76         4.7 0.24            154           96.2 176 
 PTB  HZ EP       1352 26.53                             133   -0.53 9  147 260 
 PTB  HN ES       1352 47.73                             133   -0.42 9  147 260 
 PTB  HZ I        1352 55.34        12.3 0.46            135            147 260 
 SPBC HZ EP       1352 28.70                             130    0.35 9  160 220 
 SPBC HN ES       1352 50.71                             130    0.27 9  160 220 
 SPBC HZ I        1352 54.90         9.1 0.42            135            160 220 
 ZAR  HZ EP   2   1352 32.82                             123    0.07 4  205 293 
 ZAR  HN ES       1352 58.32                             123    0.04 8  205 293 
 ZAR  HZ I        1353  5.02         9.0 0.32            126            205 293 
 SML  HZ EP       1352 36.54                             117   -0.65 8  248 336 
 SML  HN ES   2   1353  5.72                             117   -0.45 4  248 336 
 SML  HZ I        1353  9.10        16.9 0.10            121            248 336 
                                                                                
