 2017 1031 1635  8.0 L   6.781 -73.130140.0  RSN 11 0.5 1.9LRSN                1
 GAP=114        1.31       4.3     4.5  7.0  0.2393E+01  0.7273E+01  0.7165E+01E
 Epicentro: LOS SANTOS - SANTANDER                                             3
 ACTION:UPD 17-11-07 19:40 OP:rebc STATUS:               ID:20171031163508 L   I
 OLDACT:UP  17-10-31 23:44 OP:dhb  STATUS:               ID:20171031162739     3
 OLDACT:REG 17-10-31 21:08 OP:mg   STATUS:               ID:20171031162739     3
 2017-10-31-1628-00M.COL___441                                                 6
 STAT SP IPHASW D HRMM SECON CODA AMPLIT PERI AZIMU VELO AIN AR TRES W  DIS CAZ7
 BAR2 EZ IP     C 1635 27.01                             171    0.0810 21.7 196 
 BAR2 EZ ES       1635 40.87                             171   -0.8010 21.7 196 
 BAR2 EZ I        1635 44.39        23.5 0.16            168           21.7 196 
 BRR  HZ IP     C 1635 28.82                             151    0.1210 73.7 299 
 BRR  HN ES       1635 45.75                             151    0.9210 73.7 299 
 BRR  HZ I        1635 48.03        19.4 0.42            151           73.7 299 
 PAM  EZ IP     C 1635 29.91                             150    0.2510 77.9  38 
 PAM  EE ES       1635 46.47                             150   -0.0710 77.9  38 
 PAM  EZ I        1635 49.55        13.8 0.60            155           77.9  38 
 RUS  HZ IP     C 1635 31.03                             143   -0.0210 98.4 177 
 RUS  HE ES       1635 49.69                             143    0.6810 98.4 177 
 RUS  HZ I        1635 50.71        10.5 0.16            144           98.4 177 
 PTB  HZ EP       1635 33.59                             130   -1.06 9  149 260 
 PTB  HN ES       1635 55.11                             130   -0.31 9  149 260 
 PTB  HZ I        1635 58.07        10.3 0.14            131            149 260 
 SPBC HZ EP       1635 35.95                             128   -0.09 9  163 220 
 SPBC HE ES       1635 58.45                             128    0.56 9  163 220 
 SPBC HZ I        1636  4.94        16.0 0.36            129            163 220 
 YPLC HZ EP       1635 37.47                             126    0.33 9  174 152 
 YPLC HN ES       1635 58.97                             126   -0.88 9  174 152 
 YPLC HZ I        1636  4.06         7.7 0.24            128            174 152 
 ZAR  HZ EP       1635 40.24                             121   -0.11 8  206 292 
 ZAR  HN ES       1636  5.24                             121   -0.33 8  206 292 
 ZAR  HZ I        1636 10.88        16.6 0.48            123            206 292 
 NOR  HZ EP       1635 43.55                             117    0.10 8  235 235 
 NOR  HN ES       1636 10.58                             117   -0.51 8  235 235 
 NOR  HZ I        1636 18.51         5.6 0.28            119            235 235 
 CHI  HZ EP       1635 45.28                             116    0.04 8  247 196 
 CHI  HE ES       1636 14.53                             116    0.26 8  247 196 
 CHI  HZ I        1636 20.10         3.2 0.38            118            247 196 
 GUY2CHZ EP       1635 52.36                             111    0.96 7  301 235 
 GUY2CHE ES   4   1636 29.42                             111    4.18 0  301 235 
 GUY2CHZ I        1636 35.98         4.1 0.52                           301 235 
                                                                                
