 2010 1031 1032 43.4 L   6.817 -73.043142.6  RSN  4 0.2 1.5LRSN                1
 GAP=170        0.51       5.2    10.2  9.0  0.1875E+02 -0.4654E+02 -0.1977E+02E
 Epicentro: LOS SANTOS - SANTANDER                                             3
 ACTION:UP  11-02-18 11:13 OP:tino STATUS:               ID:20101031103243 L   I
 2010-10-31-1028-49S.COL___125                                                 6
 STAT SP IPHASW D HRMM SECON CODA AMPLIT PERI AZIMU VELO SNR AR TRES W  DIS CAZ7
 BAR2 SZ EP   1   1033  2.90                             168     0.1 7   29 212 
 BAR2 SZ ES   2   1033 17.64                             168    -0.3 5   29 212 
 BAR2 SZ I        1033 19.27        10.1 0.76                            29 212 
 BRR  HZ EP   1   1033  4.45                             149    -0.3 7   81 293 
 BRR  HZ I        1033  4.73        11.0 0.12                            81 293 
 BRR  HN ES   2   1033 21.86                             149     0.4 5   81 293 
 RUS  HZ EP   1   1033  7.09                             143     0.1 7  102 182 
 RUS  HN ES   2   1033 25.32                             143     0.0 5  102 182 
 RUS  HZ I        1033 26.23         2.1 0.34                           102 182 
 GRA  SZ EP   1   1033  8.07                             137     0.1 7  121  13 
                                                                                
