 2014 1231 1156 32.7 L   6.812 -73.167143.7  RSN  9 0.3 2.0LRSN                1
 GAP=133        0.80       2.4     3.5  5.0 -0.2048E+00  0.5675E+01 -0.1088E+01E
 Epicentro: LOS SANTOS - SANTANDER                                             3
 ACTION:UPD 15-02-10 17:08 OP:nd   STATUS:               ID:20141231115632 L   I
 OLDACT:UP  14-12-31 21:40 OP:cam  STATUS:               ID:20141231114815     3
 OLDACT:UP  14-12-31 21:40 OP:cam  STATUS:               ID:20141231114815     3
 OLDACT:REG 14-12-31 19:55 OP:cam  STATUS:               ID:20141231114815     3
 2014-12-31-1148-15M.COL___268                                                 6
 STAT SP IPHASW D HRMM SECON CODA AMPLIT PERI AZIMU VELO AIN AR TRES W  DIS CAZ7
 BAR2 EZ EP       1156 52.16                             170    0.0210 24.3 184 
 BAR2 EZ ES       1157  7.54                             170    0.2710 24.3 184 
 BAR2 EZ I        1157  9.98        25.5 0.24            167           24.3 184 
 BRR  HZ EP       1156 54.06                             153    0.5510 68.5 299 
 PAM  SZ EP       1156 55.09                             150    0.3210 77.9  41 
 PAM  SE ES       1157 11.61                             150   -0.3310 77.9  41 
 PAM  SZ I        1157 14.44        15.9 0.54            158           77.9  41 
 RUS  HZ EP       1156 55.94                             143   -0.4610  102 175 
 RUS  HN ES       1157 14.83                             143   -0.0110  102 175 
 RUS  HZ I        1157 16.15         6.9 0.28            145            102 175 
 PTB  HZ EP       1156 59.21                             132   -0.14 9  146 258 
 PTB  HN ES       1157 20.01                             132   -0.10 9  146 258 
 PTB  HZ I        1157 27.54        14.5 0.40            131            146 258 
 SPBC HZ EP       1157  1.35                             129    0.31 9  163 218 
 SPBC HN ES       1157 23.30                             129    0.19 9  163 218 
 SPBC HZ I        1157 30.56        15.1 0.14            129            163 218 
 ZAR  HZ EP       1157  5.21                             122    0.43 9  201 292 
 ZAR  HE ES       1157 29.46                             122   -0.30 9  201 292 
 ZAR  HZ I        1157 40.19         8.0 0.66            123            201 292 
 SML  HZ EP       1157  8.77                             117   -0.25 8  242 336 
 SML  HN ES       1157 37.02                             117   -0.29 8  242 336 
 SML  HZ I        1157 41.18        18.1 0.28            120            242 336 
 CHI  HZ EP       1157 10.44                             117    0.04 8  249 195 
 CHI  HN ES       1157 39.21                             117   -0.56 8  249 195 
 CHI  HZ I        1157 49.46         2.2 0.26            119            249 195 
 HEL  HZ EP   4   1157 14.06                             114    1.43 0  270 255 
 MON  HZ EP   4   1157 19.26                             108   -2.10 0  351 308 
                                                                                
