 2013  531 1318  7.7 L   6.729 -73.174141.7  RSN  4 0.2 1.9LRSN                1
 GAP=187        0.47       5.1     3.3  3.7 -0.2549E+01  0.2173E+01  0.4169E+01E
 Epicentro: VILLANUEVA - SANTANDER                                             3
 ACTION:UPD 13-06-20 09:55 OP:ep   STATUS:               ID:20130531131807 L   I
 2013-05-31-1308-50M.COL___215                                                 6
 STAT SP IPHASW D HRMM SECON CODA AMPLIT PERI AZIMU VELO AIN AR TRES W  DIS CAZ7
 BAR2 SZ EP       1318 27.00                             174    0.2810 15.1 184 
 BAR2 SZ ES       1318 41.46                             174   -0.0810 15.1 184 
 BAR2 SZ I        1318 42.50        13.7 0.34            176           15.1 184 
 GIR2 SZ EP       1318 26.87                             164   -0.2710 38.8 357 
 GIR2 SZ ES       1318 42.28                             164   -0.0110 38.8 357 
 BRR  HZ EP       1318 28.62                             151    0.1010 72.7 305 
 BRR  HN ES       1318 44.85                             151    0.1010 72.7 305 
 BRR  HN I        1318 50.28        22.3 0.18            148           72.7 305 
 PTB  HZ EP       1318 33.88                             132   -0.08 9  143 262 
 PTB  HN ES       1318 54.38                             132   -0.05 9  143 262 
                                                                                
