 2012 1031 1608 17.1 L   6.782 -73.122137.9  RSN  9 0.5 2.2LRSN                1
 GAP=140        0.89       4.7     5.8  7.2  0.3343E+01  0.1092E+02  0.4340E+01E
 Epicentro: LOS SANTOS - SANTANDER                                             3
 ACTION:UPD 12-11-22 17:06 OP:ep   STATUS:               ID:20121031160817 L   I
 2012-10-31-1600-00M.COL___231                                                 6
 STAT SP IPHASW D HRMM SECON CODA AMPLIT PERI AZIMU VELO AIN AR TRES W  DIS CAZ7
 BAR2 SZ EP       16 8 35.52                             170   -0.1810 22.0 197 
 BAR2 SZ ES   1   16 8 49.84                             170   -0.41 7 22.0 197 
 BAR2 SZ I        16 8 52.59        37.5 0.22                          22.0 197 
 GIR2 SZ EP   1   16 8 35.55                             166   -0.30 7 33.7 347 
 BRR  HZ EP       16 8 37.43                             150   -0.1110 74.4 299 
 BRR  HN ES   1   16 8 54.12                             150    0.60 7 74.4 299 
 BRR  HN I        16 8 54.50        55.6 0.30                          74.4 299 
 PAM  SZ EP       16 8 38.44                             149    0.0210 77.3  37 
 PAM  SN ES   1   16 8 55.24                             149    0.14 7 77.3  37 
 PAM  SN I        16 8 56.26        44.0 0.48                          77.3  37 
 RUS  HZ EP   1   16 8 39.64                             143   -0.24 7 98.5 177 
 RUS  HN ES   1   16 8 58.28                             143    0.60 7 98.5 177 
 RUS  HN I        16 8 59.67        16.9 0.28                          98.5 177 
 ZAR  HZ EP   1   16 8 50.44                             120    1.12 6  207 292 
 ZAR  HN ES   1   16 9 13.57                             120   -0.92 6  207 292 
 ZAR  HN I        16 9 19.09        21.8 0.74                           207 292 
 CHI  HZ EP   1   16 8 53.93                             116   -0.26 6  247 196 
 CHI  HN ES   2   16 9 23.03                             116   -0.13 4  247 196 
 CHI  HN I        16 9 29.29         7.0 0.30                           247 196 
 HEL  HZ EP   2   16 8 57.85                             113    0.75 4  274 256 
 PRA  HZ EP   2   16 9 10.08                             105   -0.18 3  392 210 
                                                                                
