 2014 1231 1418 16.0 L   6.821 -73.149150.6  RSN  5 0.3 1.8LRSN                1
 GAP=244        0.72       5.7     5.1  6.2  0.1544E+02  0.7116E+01 -0.6126E+00E
 Epicentro: LOS SANTOS - SANTANDER                                             3
 ACTION:UPD 15-02-10 17:08 OP:nd   STATUS:               ID:20141231141816 L   I
 OLDACT:REG 15-01-01 00:15 OP:cam  STATUS:               ID:20141231141744     3
 2014-12-31-1417-44M.COL___268                                                 6
 STAT SP IPHASW D HRMM SECON CODA AMPLIT PERI AZIMU VELO AIN AR TRES W  DIS CAZ7
 BAR2 EZ ES       1418 52.02                             170    0.0110 25.5 188 
 BAR2 EZ I        1418 53.26        19.2 0.20            167           25.5 188 
 RUS  HZ EP       1418 40.05                             144   -0.3010  103 176 
 RUS  HN ES       1418 59.54                             144    0.1610  103 176 
 RUS  HZ I        1419  1.06         7.0 0.28            143            103 176 
 PTB  HZ EP       1418 43.07                             133   -0.26 9  148 258 
 PTB  HN ES       1419  4.74                             133    0.06 9  148 258 
 PTB  HZ I        1419  7.08         5.0 0.18            133            148 258 
 SPBC HZ EP       1418 45.57                             130    0.60 9  165 218 
 SPBC HN ES       1419  7.32                             130   -0.29 9  165 218 
 SPBC HZ I        1419 10.57        13.5 0.22            129            165 218 
 ZAR  HN ES       1419 14.11                             124    0.06 9  203 292 
                                                                                
