 2016  731 1900 18.7 L   6.818 -73.134139.0  RSN 20 0.5 2.6LRSN                1
 GAP=103        1.09       3.5     3.0  5.0 -0.1951E+01  0.3938E+01  0.2211E+01E
 Epicentro: LOS SANTOS - SANTANDER                                             3
 ACTION:UPD 17-03-29 16:57 OP:lp   STATUS:               ID:20160731190018 L   I
 OLDACT:UP  16-08-01 01:09 OP:ar   STATUS:               ID:20160731185741     3
 OLDACT:REG 16-07-31 21:42 OP:ar   STATUS:               ID:20160731185741     3
 2016-07-31-1858-00M.COL___353                                                 6
 STAT SP IPHASW D HRMM SECON CODA AMPLIT PERI AZIMU VELO AIN AR TRES W  DIS CAZ7
 BAR2 EZ EP       19 0 37.45                             169   -0.0710 25.5 192 
 BAR2 EZ ES       19 0 52.11                             169   -0.1310 25.5 192 
 BAR2 EZ I        19 0 53.70        93.3 0.20            167           25.5 192 
 BRR  HZ IP     C 19 0 39.16                             151    0.0710 71.4 297 
 BRR  HN ES       19 0 55.66                             151    0.6310 71.4 297 
 BRR  HZ I        19 0 59.91        72.1 0.26            148           71.4 297 
 PAM  EZ EP       19 0 40.24                             150    0.2310 75.0  40 
 PAM  EN ES       19 0 56.85                             150    0.1810 75.0  40 
 PAM  EZ I        19 0 59.15        93.4 0.50            148           75.0  40 
 RUS  HZ EP       19 0 41.51                             142   -0.3810  103 177 
 RUS  HE ES       19 0 59.82                             142   -0.1910  103 177 
 RUS  HZ I        19 1  1.52        26.7 0.22            137            103 177 
 TAM  HZ EP       19 0 45.79                             129    0.06 9  154 106 
 TAM  HZ I        19 1  6.59        14.4 0.24            125            154 106 
 TAM  HN ES       19 1  7.00                             129    0.14 9  154 106 
 SPBC HZ EP       19 0 46.53                             127   -0.34 9  166 219 
 SPBC HN ES       19 1  8.67                             127   -0.21 9  166 219 
 SPBC HZ I        19 1 17.15        56.8 0.24            123            166 219 
 ZAR  HZ EP       19 0 50.24                             121   -0.47 9  205 291 
 ZAR  HN ES       19 1 15.38                             121   -0.34 9  205 291 
 ZAR  HZ I        19 1 22.31        51.4 0.28            117            205 291 
 NOR  HZ EP       19 0 54.18                             117   -0.06 8  237 234 
 NOR  HN ES       19 1 21.29                             117   -0.71 8  237 234 
 NOR  HZ I        19 1 26.31        22.5 0.22            113            237 234 
 ROSC BZ EP   9   19 0 58.25                             115    1.58 0  255 211 
 ROSC BN ES       19 1 28.34                             115    0.43 8  255 211 
 ROSC BZ I        19 1 32.98        34.2 0.40            111            255 211 
 HEL  HZ EP       19 0 59.44                             113    0.71 8  274 255 
 HEL  HN ES       19 1 29.40                             113   -0.58 8  274 255 
 HEL  HZ I        19 1 35.68        17.0 0.42            110            274 255 
 URE  HZ EP   4   19 0 57.51                             112   -1.94 0  284 291 
 URE  HN ES   4   19 1 28.43                             112   -2.85 0  284 291 
 URE  HZ I        19 1 38.46        26.8 0.26            109            284 291 
 SOCV BZ EP       19 1  0.27                             111   -0.88 7  299  57 
 SOCV BN ES   4   19 1 31.81                             111   -2.48 0  299  57 
 GUY2CHZ EP       19 1  3.18                             111    0.97 7  303 235 
 GUY2CHN ES   4   19 1 39.15                             111    2.97 0  303 235 
 GUY2CHZ I        19 1 45.35        15.5 0.34                           303 235 
 VIL  EZ EP   4   19 1  7.30                             111    5.28 0  306 192 
 VIL  EN ES       19 1 36.06                             111    0.21 7  306 192 
 VIL  EZ I        19 1 46.30        38.3 0.40            107            306 192 
 ELA  HZ EP       19 1  7.14                             109    1.65 7  331 229 
 ELA  HN ES       19 1 42.46                             109    0.44 7  331 229 
 CBOC HZ EP   4   19 1  3.73                             109   -1.78 0  335 252 
 CBOC HZ I        19 1 33.40        23.8 0.30            105            335 252 
 DBB  EZ EP       19 1  6.03                             108    0.03 7  341 274 
 DBB  EZ ES   4   19 1 40.42                             108   -2.50 0  341 274 
 DBB  EZ I        19 1 45.34         7.6 0.38            105            341 274 
 PRA  HZ EP       19 1 11.89                             105   -0.33 6  394 210 
 PRA  HE ES       19 1 54.20                             105    0.19 6  394 210 
 PRA  HZ I        19 2  0.14        16.4 0.24            102            394 210 
 SJC  HZ EP   4   19 1 11.71                             105   -2.17 0  408 327 
 SJC  HN ES   4   19 1 53.40                             105   -3.57 0  408 327 
 SJC  HZ I        19 1 56.88        15.1 0.44            102            408 327 
 PAL  HZ EP       19 1 13.04                             105   -0.81 6  408 239 
 PAL  HN ES       19 1 57.36                             105    0.46 6  408 239 
 PAL  HZ I        19 2  5.39         4.6 0.20            102            408 239 
                                                                                
