 2012  531 1443 34.6 L   6.805 -73.160147.2  RSN  5 0.4 1.8LRSN                1
 GAP=134        1.00       7.2     5.9  9.5 -0.4852E+01  0.1952E+02 -0.2086E+02E
 Epicentro: LOS SANTOS - SANTANDER                                             3
 ACTION:UP  12-07-05 12:09 OP:pat  STATUS:               ID:20120531144333 L   I
 2012-05-31-1440-00M.COL___200                                                 6
 STAT SP IPHASW D HRMM SECON CODA AMPLIT PERI AZIMU VELO AIN AR TRES W  DIS CAZ7
 BAR2 SZ EP       1443 54.82                             170     0.510   24 186 
 BAR2 SZ I        1443 55.42        14.3 0.22                            24 186 
 BAR2 SZ ES       1444  9.88                             170     0.110   24 186 
 PAM  SZ EP       1443 57.37                             151     0.410   78  41 
 PAM  SN ES   1   1444 13.76                             151    -0.7 7   78  41 
 RUS  HZ EP   2   1443 57.65                             143    -0.8 5  101 175 
 RUS  HE ES   1   1444 16.97                             143    -0.2 7  101 175 
 RUS  HZ I        1444 19.51         9.0 0.31                           101 175 
 PTB  HZ EP   1   1444  1.53                             132     0.0 7  146 258 
 PTB  HN ES   1   1444 22.49                             132     0.0 7  146 258 
 PTB  HZ I        1444 28.35         5.0 0.18                           146 258 
 ZAR  HZ EP   1   1444  6.33                             123    -0.6 6  202 292 
 ZAR  HN ES   1   1444 32.21                             123     0.0 6  202 292 
 ZAR  HZ I        1444 39.33         8.4 0.47                           202 292 
                                                                                
