 2013  531 1107 19.6 L   6.766 -73.163145.2  RSN  6 0.3 1.9LRSN                1
 GAP=180        0.68       4.0     3.8  4.8  0.1162E+01  0.3853E+01  0.1806E+01E
 Epicentro: LOS SANTOS - SANTANDER                                             3
 ACTION:UPD 13-06-20 09:55 OP:ep   STATUS:               ID:20130531110719 L   I
 2013-05-31-1058-49M.COL___215                                                 6
 STAT SP IPHASW D HRMM SECON CODA AMPLIT PERI AZIMU VELO AIN AR TRES W  DIS CAZ7
 BAR2 SZ EP       11 7 39.09                             172    0.0210 19.3 186 
 BAR2 SZ ES       11 7 54.20                             172   -0.0710 19.3 186 
 GIR2 SZ EP       11 7 38.96                             166   -0.3310 34.8 354 
 BRR  HZ EP       11 7 40.90                             152    0.2110 71.5 302 
 BRR  HE ES       11 7 57.45                             152    0.3010 71.5 302 
 BRR  HN I        11 8  0.82        13.9 0.16            151           71.5 302 
 RUS  HZ EP       11 7 42.97                             145   -0.0510 96.9 175 
 RUS  HN ES       11 8  1.39                             145    0.0910 96.9 175 
 RUS  HE I        11 8  2.71         7.0 0.48            147           96.9 175 
 PTB  HZ EP       11 7 45.96                             132   -0.32 9  145 260 
 PTB  HN ES       11 8  6.86                             132   -0.24 9  145 260 
 PTB  HE I        11 8 12.68        16.9 0.28            133            145 260 
 NOR  HZ EP       11 7 55.50                             119    0.62 8  231 235 
 NOR  HN ES       11 8 22.28                             119   -0.13 8  231 235 
                                                                                
