 2017  731 1145  3.2 L   6.780 -73.376117.4  RSN  4 0.5 1.4LRSN                1
 GAP=198        1.38      11.3     8.4 12.4  0.6011E+02  0.2047E+02 -0.2661E+02E
 Epicentro: SAN VICENTE DE CHUCURI - SANTANDER                                 3
 ACTION:UPD 17-08-30 15:38 OP:rebc STATUS:               ID:20170731114503 L   I
 OLDACT:REG 17-07-31 20:31 OP:dani STATUS:               ID:20170731113746     3
 2017-07-31-1138-00M.COL___380                                                 6
 STAT SP IPHASW D HRMM SECON CODA AMPLIT PERI AZIMU VELO AIN AR TRES W  DIS CAZ7
 BAR2 EZ EP       1145 19.37                             165   -0.2310 29.9 134 
 BAR2 EZ ES       1145 32.06                             165   -0.3510 29.9 134 
 BAR2 EZ I        1145 33.79        20.3 0.26            165           29.9 134 
 RUS  HZ EP       1145 24.41                             136   -0.0910  103 162 
 RUS  HN ES       1145 41.98                             136    0.8510  103 162 
 RUS  HZ I        1145 44.45         1.5 0.14            137            103 162 
 PTB  HZ EP     C 1145 24.71                             130   -0.8410  122 257 
 PTB  HN ES       1145 42.67                             130   -0.3210  122 257 
 PTB  HZ I        1145 47.10         3.1 0.18            130            122 257 
 ZAR  HZ EP       1145 31.96                             118    0.44 9  182 296 
 ZAR  HN ES       1145 54.35                             118    0.73 9  182 296 
 ZAR  HZ I        1145 56.80         3.6 0.40            120            182 296 
                                                                                
