 2010  731 1449 15.0 L   6.801 -73.026141.6  RSN  5 0.4 1.8LRSN                1
 GAP=178        0.77       6.0    15.9 12.7  0.3558E+02 -0.1022E+03 -0.3522E+02E
 Epicentro: CEPITA - SANTANDER                                                 3
 ACTION:UPD 10-12-01 15:21 OP:pat  STATUS:               ID:20100731144915 L   I
 2010-07-31-1445-35S.COL___122                                                 6
 STAT SP IPHASW D HRMM SECON CODA AMPLIT PERI AZIMU VELO AIN AR TRES W  DIS CAZ7
 BAR2 SZ EP   1   1449 34.50                             167     0.2 7   29 217 
 BAR2 SZ ES   2   1449 48.70                             167    -0.6 5   29 217 
 BAR2 SZ I        1449 50.74        10.3 0.35                            29 217 
 BRR  HZ EP   1   1449 36.31                             147    -0.2 7   83 294 
 BRR  HE ES   2   1449 53.14                             147     0.0 5   83 294 
 BRR  HZ I        1449 54.30        20.2 0.09                            83 294 
 RUS  HZ EP   1   1449 38.54                             142     0.2 7  101 184 
 RUS  HZ I        1449 39.73         5.5 0.17                           101 184 
 RUS  HN ES   2   1449 57.02                             142     0.4 5  101 184 
 GUE  SZ EP   1   1449 38.68                             139    -0.5 7  114   6 
 OCA  SZ EP   1   1449 43.34                             128     0.1 7  162 349 
 OCA  SZ ES   2   1450  6.07                             128     0.9 5  162 349 
 OCA  SZ I        1450  8.05        17.9 0.53                           162 349 
                                                                                
