 2015  831 1119 36.8 L   6.798 -73.108150.8  RSN  8 0.4 1.8LRSN                1
 GAP=204        0.81       3.1     5.0  5.6  0.2313E+01  0.4596E+01 -0.1682E+01E
 Epicentro: LOS SANTOS - SANTANDER                                             3
 ACTION:UPD 15-09-15 23:06 OP:cam  STATUS:               ID:20150831111936 L   I
 OLDACT:REG 15-08-31 21:19 OP:ak   STATUS:               ID:20150831111750     3
 2015-08-31-1117-50M.COL___355                                                 6
 STAT SP IPHASW D HRMM SECON CODA AMPLIT PERI AZIMU VELO AIN AR TRES W  DIS CAZ7
 BAR2 EZ EP       1119 57.16                             171    0.0810 24.2 200 
 BAR2 EZ ES   1   1120 12.31                             171   -0.57 7 24.2 200 
 BAR2 EZ I        1120 14.58        11.4 0.28            167           24.2 200 
 BRR  HZ EP       1119 59.12                             152    0.3810 75.0 297 
 BRR  HE ES       1120 16.28                             152    0.4510 75.0 297 
 BRR  HZ I        1120 19.55         8.3 0.52            149           75.0 297 
 RUS  HZ EP   1   1120  1.13                             145    0.08 7  100 178 
 RUS  HE ES       1120 19.96                             145    0.0310  100 178 
 RUS  HZ I        1120 21.20         4.5 0.26            146            100 178 
 SPBC HZ EP   1   1120  6.19                             130    0.24 7  166 220 
 SPBC HE ES       1120 28.19                             130   -0.47 9  166 220 
 SPBC HZ I        1120 34.48         8.6 0.24            129            166 220 
 ZAR  HZ EP   1   1120  9.25                             123   -0.76 6  208 292 
 ZAR  HE ES       1120 35.67                             123   -0.23 8  208 292 
 ZAR  HZ I        1120 43.58         5.9 0.42            122            208 292 
 NOR  HN ES       1120 41.62                             119    0.04 8  238 235 
 NOR  HZ I        1120 42.80         5.3 0.18            119            238 235 
 SML  HZ EP       1120 13.56                             118   -0.40 8  246 334 
 SML  HE ES   1   1120 43.22                             118    0.30 6  246 334 
 SML  HZ I        1120 45.97         6.8 0.08            119            246 334 
 PRA  HZ EP       1120 30.87                             107    0.13 6  394 210 
 PRA  HE ES   1   1121 13.62                             107    0.82 4  394 210 
 PRA  HZ I        1121 19.72         1.9 0.24            108            394 210 
                                                                                
