 2014 1231 1325 38.2 L   6.851 -73.372121.3  RSN  5 0.3 1.8LRSN                1
 GAP=163        0.78       3.8     4.0  6.9  0.6115E+01  0.2918E+01 -0.1156E+02E
 Epicentro: SAN VICENTE DE CHUCURI - SANTANDER                                 3
 ACTION:UPD 15-02-10 17:08 OP:nd   STATUS:               ID:20141231132538 L   I
 OLDACT:UP  14-12-31 22:27 OP:cam  STATUS:               ID:20141231131819     3
 OLDACT:REG 14-12-31 19:58 OP:cam  STATUS:               ID:20141231131819     3
 2014-12-31-1318-19M.COL___268                                                 6
 STAT SP IPHASW D HRMM SECON CODA AMPLIT PERI AZIMU VELO AIN AR TRES W  DIS CAZ7
 BAR2 EZ EP       1325 55.66                             163    0.4210 35.4 144 
 BAR2 EZ ES       1326  8.74                             163    0.1910 35.4 144 
 BAR2 EZ I        1326 10.23        28.6 0.22            169           35.4 144 
 RUS  HZ EP       1326  0.62                             135    0.1610  111 163 
 RUS  HE ES       1326 17.26                             135   -0.5810  111 163 
 RUS  HZ I        1326 19.99         3.7 0.32            141            111 163 
 PTB  HZ EP       1326  0.92                             131   -0.1510  125 254 
 PTB  HN ES       1326 19.04                             131    0.1110  125 254 
 PTB  HZ I        1326 24.25        10.5 0.20            133            125 254 
 ZAR  HZ EP       1326  6.83                             120    0.38 9  179 293 
 ZAR  HN ES       1326 28.30                             120   -0.20 9  179 293 
 ZAR  HZ I        1326 34.47         8.6 0.30            122            179 293 
 SML  HZ EP       1326 11.59                             113   -0.32 8  229 340 
 SML  HE ES       1326 38.06                             113   -0.16 8  229 340 
 SML  HZ I        1326 44.34         9.1 0.24            116            229 340 
                                                                                
