 2016  531 1023  5.7 L   7.447 -73.153141.9  RSN  9 0.4 1.9LRSN                1
 GAP=115        0.94       3.3     4.9  6.2 -0.2015E+01  0.9974E+01 -0.2272E+01E
 Epicentro: EL PLAYON - SANTANDER                                              3
 ACTION:UPD 16-08-18 17:51 OP:cam  STATUS:               ID:20160531102305 L   I
 OLDACT:DUP 16-05-31 21:15 OP:ak   STATUS:               ID:20160531101746d    3
 OLDACT:REG 16-05-31 20:11 OP:ar   STATUS:               ID:20160531101745     3
 2016-05-31-1017-45M.COL___310                                                 6
 STAT SP IPHASW D HRMM SECON CODA AMPLIT PERI AZIMU VELO AIN AR TRES W  DIS CAZ7
 PAM  EZ EP       1023 26.36                             159    0.2510 51.5 103 
 PAM  EN ES       1023 42.02                             159   -0.0410 51.5 103 
 PAM  EZ I        1023 43.22        10.8 0.28            167           51.5 103 
 BRR  HZ EP       1023 26.57                             151    0.1210 72.2 239 
 BRR  HN ES       1023 42.85                             151    0.1810 72.2 239 
 BRR  HZ I        1023 46.86        11.1 0.56            149           72.2 239 
 OCA  HZ EP       1023 28.10                             146    0.3310 89.5 348 
 OCA  HN ES       1023 45.11                             146    0.1010 89.5 348 
 OCA  HZ I        1023 47.67        17.0 0.48            146           89.5 348 
 BAR2 EZ EP       1023 28.07                             145   -0.1710 94.6 182 
 BAR2 EZ ES       1023 45.11                             145   -0.7410 94.6 182 
 BAR2 EZ I        1023 46.88         8.3 0.24            147           94.6 182 
 RUS  HZ EP   2   1023 35.00                             127   -0.26 4  172 177 
 PTB  HZ EP       1023 34.68                             126   -0.28 9  175 235 
 PTB  HN ES       1023 57.50                             126   -0.32 9  175 235 
 PTB  HZ I        1024  0.47         8.3 0.38            126            175 235 
 SPBC HZ EP   2   1023 40.59                             119    0.64 4  223 207 
 SPBC HN ES       1024  7.68                             119    0.98 8  223 207 
 SPBC HZ I        1024  9.99        14.1 0.10            121            223 207 
 URE  HZ EP   9   1023 46.73                             114    2.32 0  265 277 
 URE  HE ES   2   1024 17.58                                    0.63 4  265 277 
 URE  HZ I        1024 23.93         8.9 0.24            115            265 277 
 SJC  HZ EP       1023 53.65                             108   -0.62 6  351 321 
 SJC  HE ES       1024 32.16                             108   -0.03 6  351 321 
                                                                                
