 2012  131 1707 46.6 L   6.804 -73.116145.0  RSN  5 0.1 1.6LRSN                1
 GAP=140        0.43       2.9     4.2  4.3 -0.4478E+00 -0.8714E+00 -0.6061E+00E
 Epicentro: LOS SANTOS - SANTANDER                                             3
 ACTION:UP  12-02-03 08:22 OP:REBC STATUS:               ID:20120131170746 L   I
 2012-01-31-1700-00M.COL___188                                                 6
 STAT SP IPHASW D HRMM SECON CODA AMPLIT PERI AZIMU VELO SNR AR TRES W  DIS CAZ7
 BAR2 SZ EP       17 8  6.19                             170     0.010   25 197 
 BAR2 SZ ES   1   17 8 21.61                             170     0.2 7   25 197 
 BAR2 SZ I        17 8 22.55         9.8 0.57                            25 197 
 GIR2 SZ EP   2   17 8  6.02                             167    -0.2 5   32 344 
 BRR  HZ EP       17 8  7.72                             152    -0.110   74 297 
 BRR  HZ I        17 8 13.05        19.9 0.36                            74 297 
 BRR  HN ES   1   17 8 24.40                             152     0.0 7   74 297 
 PAM  SZ EP       17 8  8.83                             151     0.210   75  38 
 PAM  SN ES   1   17 8 25.54                             151    -0.2 7   75  38 
 RUS  HZ EP   1   17 8 10.22                             144    -0.1 7  101 178 
 RUS  HN ES   1   17 8 28.69                             144    -0.1 7  101 178 
 RUS  HZ I        17 8 31.05         2.4 0.29                           101 178 
                                                                                
