 2013  731 1203 39.1 L   6.838 -73.112147.5  RSN 18 0.6 3.1LRSN 3.4WRSN        1
 SPEC AVERAGE  MO 14.2 ST109.8 OM  2.8 f0 7.37 R1.7599 AL 0.00 WI 46.5 MW  3.4 3
 SPEC SD       MO  0.5 ST120.0 OM  0.5 f0 3.72 R4.3560 AL      WI      MW  0.3 3
 GAP=115        1.29       3.7     4.4  6.4 -0.3676E+00  0.6619E+01  0.6476E+00E
 Epicentro: LOS SANTOS - SANTANDER                                             3
 SPEC SPBCHH E MO 15.0 ST0.002 OM  3.3 f00.110 R 14.13 AL 0.00 WI 51.1 MW  4.0 3
 SPEC SPBCHH E T12 429 K 0.000 GD  224 VS 4.20 DE 3.20 Q0300.0 QA 0.60 VS 4.20 3
 SPEC SJC HH N MO 14.1 ST 67.9 OM  2.1 f0 7.53 R0.2064 AL 0.00 WI 69.3 MW  3.4 3
 SPEC SJC HH N T12 512 K 0.000 GD  433 VS 4.20 DE 3.20 Q0300.0 QA 0.60 VS 4.20 3
 SPEC SML HH N MO 14.0 ST130.7 OM  2.2 f0 10.0 R0.1554 AL 0.00 WI 36.4 MW  3.3 3
 SPEC SML HH N T12 443 K 0.000 GD  283 VS 4.20 DE 3.20 Q0300.0 QA 0.60 VS 4.20 3
 SPEC PTB HH Z MO 13.7 ST 61.7 OM  2.0 f0 10.0 R0.1554 AL 0.00 WI 31.7 MW  3.1 3
 SPEC PTB HH Z T12 423 K 0.000 GD  211 VS 4.20 DE 3.20 Q0300.0 QA 0.60 VS 4.20 3
 SPEC RUS HH N MO 13.9 ST  9.8 OM  2.2 f0 4.89 R0.3178 AL 0.00 WI 52.3 MW  3.2 3
 SPEC RUS HH N T12 420 K 0.000 GD  181 VS 4.20 DE 3.20 Q0300.0 QA 0.60 VS 4.20 3
 SPECGUY2CHH E MO 14.4 ST  2.3 OM 2.49 f0 1.96 R0.7909 AL 0.00 WI 36.4 MW  3.6 3
 SPECGUY2CHH E T12 457 K 0.000 GD  342 VS 4.20 DE 3.20 Q0300.0 QA 0.60 VS 4.20 3
 SPEC HEL HH N MO 14.1 ST  7.8 OM  2.2 f0 3.78 R0.4111 AL 0.00 WI 65.2 MW  3.3 3
 SPEC HEL HH N T12 448 K 0.000 GD  313 VS 4.20 DE 3.20 Q0300.0 QA 0.60 VS 4.20 3
 SPEC NOR HH N MO 14.1 ST163.6 OM  2.3 f0 10.0 R0.1554 AL 0.00 WI 27.0 MW  3.4 3
 SPEC NOR HH N T12 443 K 0.000 GD  281 VS 4.20 DE 3.20 Q0300.0 QA 0.60 VS 4.20 3
 SPEC OCA HH N MO 14.5 ST395.6 OM  2.8 f0 10.0 R0.1554 AL 0.00 WI 45.2 MW  3.6 3
 SPEC OCA HH N T12 428 K 0.000 GD  215 VS 4.20 DE 3.20 Q0300.0 QA 0.60 VS 4.20 3
 SPEC BRR HH N MO 14.1 ST151.3 OM  2.5 f0 10.0 R0.1554 AL 0.00 WI 40.5 MW  3.4 3
 SPEC BRR HH N T12 415 K 0.000 GD  164 VS 4.20 DE 3.20 Q0300.0 QA 0.60 VS 4.20 3
 ACTION:UPD 13-08-12 10:41 OP:ep   STATUS:               ID:20130731120338 L   I
 OLDACT:UP  13-08-01 00:34 OP:Mher STATUS:               ID:20130731120338 L   3
 OLDACT:UP  13-07-31 16:34 OP:cam  STATUS:               ID:20130731115959     3
 OLDACT:REG 13-07-31 14:53 OP:cam  STATUS:               ID:20130731115959     3
 2013-07-31-1159-59M.COL___268                                                 6
 STAT SP IPHASW D HRMM SECON CODA AMPLIT PERI AZIMU VELO AIN AR TRES W  DIS CAZ7
 GIR2 SZ EP     C 12 3 59.04                             169    0.1210 28.1 341 
 GIR2 SZ ES   1   12 4 14.28                             169   -0.08 7 28.1 341 
 BAR2 SZ IP     D 12 3 59.08                             169    0.0110 28.2 196 
 BAR2 SZ I        12 3 59.46       154.2 0.09            162           28.2 196 
 BAR2 SZ ES   1   12 4 14.22                             169   -0.41 7 28.2 196 
 BRR  HZ IP     C 12 4  0.83                             152    0.2910 72.6 294 
 BRR  HZ I        12 4  1.09       321.0 0.32            149           72.6 294 
 BRR  HN ES       12 4 17.71                             152    0.4710 72.6 294 
 RUS  HZ EP       12 4  3.18                             143   -0.1510  105 178 
 RUS  HN ES       12 4 21.70                             143   -0.5210  105 178 
 RUS  HZ I        12 4 23.12       110.8 0.30            131            105 178 
 PTB  HZ EP       12 4  5.72                             131   -0.92 9  152 258 
 PTB  HN ES       12 4 27.91                             131   -0.18 9  152 258 
 PTB  HZ I        12 4 29.11       168.2 0.14            123            152 258 
 TAM  HZ EP   1   12 4  7.50                             131    0.78 7  153 107 
 TAM  HZ I        12 4 28.14        72.9 0.39            119            153 107 
 TAM  HN ES   1   12 4 29.01                             131    0.77 7  153 107 
 OCA  HZ EP   1   12 4  7.06                             131   -0.17 7  157 352 
 OCA  HN ES   1   12 4 29.46                             131    0.31 7  157 352 
 OCA  HZ I        12 4 32.96       133.7 0.18            122            157 352 
 SPBC HZ EP       12 4  8.15                             128   -0.13 9  169 219 
 SPBC HE ES       12 4 30.59                             128   -0.43 9  169 219 
 SPBC HZ I        12 4 35.94       110.0 0.20            118            169 219 
 ZAR  HZ EP       12 4 11.81                             122   -0.07 8  206 291 
 ZAR  HE ES   1   12 4 38.44                             122    1.02 6  206 291 
 ZAR  HZ I        12 4 43.19       223.1 0.40            114            206 291 
 NOR  HZ EP       12 4 15.05                             118   -0.48 8  240 234 
 NOR  HN ES       12 4 43.74                             118   -0.19 8  240 234 
 NOR  HZ I        12 4 49.07        87.8 0.20            109            240 234 
 NOR  HZ E        12 4 59.08                                            240 234 
 SML  HZ EP       12 4 15.23                             118   -0.38 8  242 334 
 SML  HN ES       12 4 43.92                             118   -0.15 8  242 334 
 SML  HZ I        12 4 45.61       232.5 0.26            110            242 334 
 HEL  HZ EP       12 4 21.04                             115    1.11 7  277 255 
 HEL  HN ES   1   12 4 51.94                             115    0.18 6  277 255 
 HEL  HZ I        12 4 58.78        45.3 0.36            106            277 255 
 URE  HZ EP       12 4 19.10                             114   -1.39 7  286 291 
 GUY2CHZ EP       12 4 24.36                             112    0.94 7  307 235 
 GUY2CHE ES   1   12 5  0.39                             112    2.42 5  307 235 
 DBB  SZ EP   4   12 4 25.86                             109   -1.20 0  343 274 
 DBB  SZ ES   1   12 5  4.07                             109   -0.38 5  343 274 
 DBB  SZ I        12 5  9.19        47.3 0.40            102            343 274 
 PRA  HZ EP       12 4 33.27                             106   -0.07 6  397 210 
 PRA  HN ES       12 5 15.65                             106    0.02 6  397 210 
 PRA  HZ I        12 5 21.52        34.1 0.24             99            397 210 
 ORTC HZ EP   1   12 4 34.19                             106    0.44 4  401 216 
 ORTC HZ I        12 5 23.23        17.6 0.62             99            401 216 
 SJC  HZ EP   4   12 4 32.77                             106   -1.80 0  408 326 
 SJC  HN ES   4   12 5 14.39                             106   -3.43 0  408 326 
 SJC  HZ I        12 5 18.42        25.7 0.46             99            408 326 
                                                                                
