 2017 1031 1610 28.3 L   6.782 -73.156146.3  RSN  6 0.3 1.4LRSN                1
 GAP=136        0.91       4.6     4.3  6.1 -0.4973E+01  0.5916E+01  0.3647E+01E
 Epicentro: LOS SANTOS - SANTANDER                                             3
 ACTION:UPD 17-11-07 19:40 OP:rebc STATUS:               ID:20171031161028 L   I
 OLDACT:UP  17-11-01 01:24 OP:mg   STATUS:               ID:20171031160741d    3
 OLDACT:UP  17-11-01 01:23 OP:mg   STATUS:               ID:20171031160741d    3
 OLDACT:DUP 17-11-01 01:17 OP:mg   STATUS:               ID:20171031160741d    3
 2017-10-31-1608-00M.COL___447                                                 6
 STAT SP IPHASW D HRMM SECON CODA AMPLIT PERI AZIMU VELO AIN AR TRES W  DIS CAZ7
 BAR2 EZ EP       1610 47.89                             171   -0.0810 21.1 188 
 BAR2 EZ ES       1611  3.34                             171    0.0510 21.1 188 
 BAR2 EZ I        1611  5.23         5.0 0.25            171           21.1 188 
 BRR  HZ EP       1610 49.84                             153    0.3210 71.2 300 
 BRR  HN ES       1611  6.72                             153    0.6610 71.2 300 
 BRR  HZ I        1611 13.86        10.6 0.32            151           71.2 300 
 PAM  EZ IP     D 1610 50.84                             150    0.1210 79.7  39 
 PAM  EN ES       1611  7.60                             150   -0.6010 79.7  39 
 PAM  EZ I        1611  9.66         6.5 0.38            154           79.7  39 
 RUS  HZ EP       1610 52.24                             144    0.2610 98.6 175 
 RUS  HN ES       1611 10.46                             144    0.0310 98.6 175 
 RUS  HZ I        1611 12.28         4.3 0.30            149           98.6 175 
 PTB  HZ EP       1610 54.98                             132   -0.21 9  146 260 
 PTB  HN ES       1611 15.56                             132   -0.59 9  146 260 
 PTB  HZ I        1611 21.19         1.6 0.10            133            146 260 
 NOR  HZ EP       1611  3.78                             119   -0.07 8  233 235 
 NOR  HN ES       1611 31.56                             119   -0.01 8  233 235 
 NOR  HZ I        1611 35.01         2.2 0.18            121            233 235 
                                                                                
