 2017 1031 1510  0.5 L   6.405 -73.549112.5  RSN  8 0.4 1.5LRSN                1
 GAP= 75        0.83       3.5     2.9  6.8 -0.2538E+01  0.2161E+01  0.3295E+01E
 Epicentro: SANTA HELENA DEL OPON - SANTANDER                                  3
 ACTION:UPD 17-11-07 19:40 OP:rebc STATUS:               ID:20171031151000 L   I
 OLDACT:UP  17-11-01 01:03 OP:mg   STATUS:               ID:20171031150742     3
 OLDACT:REG 17-10-31 20:44 OP:mg   STATUS:               ID:20171031150742     3
 2017-10-31-1508-00M.COL___435                                                 6
 STAT SP IPHASW D HRMM SECON CODA AMPLIT PERI AZIMU VELO AIN AR TRES W  DIS CAZ7
 BAR2 EZ IP     D 1510 17.57                             157    0.6310 45.6  63 
 BAR2 EZ ES   2   1510 30.57                             157    0.78 5 45.6  63 
 BAR2 EZ I        1510 31.56        10.4 0.19            158           45.6  63 
 RUS  HZ IP     D 1510 19.22                             144    0.0210 76.6 138 
 RUS  HN ES       1510 33.58                             144   -0.2510 76.6 138 
 RUS  HZ I        1510 35.99         7.7 0.30            144           76.6 138 
 BRR  HZ EP   3   1510 19.62                             142    0.89 2 79.7 347 
 BRR  HN ES       1510 33.30                             142    0.3110 79.7 347 
 BRR  HZ I        1510 36.02        12.0 0.26            144           79.7 347 
 PTB  HZ IP     C 1510 20.42                             135   -0.1010  101 278 
 PTB  HN ES       1510 35.93                             135   -0.2410  101 278 
 PTB  HZ I        1510 37.78         6.1 0.11            136            101 278 
 PAM  EZ EP       1510 24.56                             125   -0.18 9  140  42 
 PAM  EE ES       1510 43.15                             125   -0.54 9  140  42 
 PAM  EZ I        1510 45.94         4.7 0.16            127            140  42 
 NOR  HZ EP       1510 27.79                             119    0.13 9  173 238 
 NOR  HN ES       1510 48.73                             119   -0.15 9  173 238 
 NOR  HZ I        1510 51.14         3.2 0.28            119            173 238 
 GUY2CHZ EP   4   1510 38.84                             110    3.24 0  240 237 
 GUY2CHN ES   4   1511  7.49                             110    4.47 0  240 237 
 GUY2CHZ I        1511 10.37         2.3 0.29                           240 237 
 PRA  HZ EP   3   1510 47.14                             103    1.23 2  332 207 
 PRA  HN ES   4   1511 23.64                             103    2.27 0  332 207 
 PRA  HZ I        1511 28.99         1.5 0.22            104            332 207 
                                                                                
