 2017  731 1043 34.5 L   6.864 -73.138148.4  RSN 22 0.8 2.6LRSN                1
 GAP= 65        1.78       4.8     4.7  7.8  0.1479E+01  0.8831E+01  0.5041E+01E
 Epicentro: LOS SANTOS - SANTANDER                                             3
 ACTION:UPD 17-08-30 15:38 OP:rebc STATUS:               ID:20170731104334 L   I
 OLDACT:UP  17-07-31 22:43 OP:dani STATUS:               ID:20170731103743     3
 OLDACT:UP  17-07-31 22:42 OP:dani STATUS:               ID:20170731103743     3
 OLDACT:REG 17-07-31 20:11 OP:dani STATUS:               ID:20170731103743     3
 2017-07-31-1038-00M.COL___383                                                 6
 STAT SP IPHASW D HRMM SECON CODA AMPLIT PERI AZIMU VELO AIN AR TRES W  DIS CAZ7
 BAR2 EZ IP     D 1043 54.57                             168   -0.0110 30.5 189 
 BAR2 EZ ES       1044  9.40                             168   -0.8710 30.5 189 
 BAR2 EZ I        1044 12.39        90.6 0.34            170           30.5 189 
 BRR  HZ IP     D 1043 56.39                             154    0.6110 68.9 293 
 BRR  HN ES       1044 13.21                             154    0.8110 68.9 293 
 BRR  HZ I        1044 17.06        61.0 0.64            147           68.9 293 
 PAM  EZ EP     C 1043 57.27                             153    0.6310 71.5  43 
 PAM  EN ES       1044 14.54                             153    0.6210 71.5  43 
 PAM  EZ I        1044 16.15        56.8 0.20            140           71.5  43 
 RUS  HZ EP     D 1043 58.47                             142   -0.5310  108 177 
 RUS  HN ES       1044 17.55                             142   -0.5810  108 177 
 RUS  HZ I        1044 18.32        38.6 0.22            137            108 177 
 PTB  HZ EP     D 1044  1.09                             132   -0.78 9  150 256 
 PTB  HN ES       1044 22.80                             132   -0.44 9  150 256 
 PTB  HZ I        1044 25.05        44.4 0.11            126            150 256 
 TAM  HZ EP     C 1044  2.68                             131    0.21 9  156 108 
 TAM  HZ I        1044 23.33        28.0 0.32            121            156 108 
 SPBC HZ EP       1044  3.45                             129   -0.30 9  169 218 
 SPBC HN ES       1044 25.89                             129   -0.70 9  169 218 
 SPBC HZ I        1044 32.16        71.7 0.30            122            169 218 
 YPLC HZ EP     D 1044  4.80                             126   -0.23 9  183 153 
 YPLC HE ES       1044 29.00                             126    0.13 9  183 153 
 YPLC HZ I        1044 29.78        75.2 0.24            118            183 153 
 ZAR  HZ EP       1044  6.97                             123    0.06 9  202 290 
 ZAR  HN ES       1044 33.01                             123    0.80 9  202 290 
 ZAR  HZ I        1044 38.56        88.7 0.30            115            202 290 
 TABC EZ EP       1044 12.26                             119    1.18 8  236 210 
 TABC EZ I        1044 45.15        32.8 0.36            112            236 210 
 NOR  HZ EP       1044 10.49                             118   -0.39 8  240 233 
 NOR  HE ES       1044 39.00                             118   -0.27 8  240 233 
 NOR  HZ I        1044 44.36        35.8 0.26            112            240 233 
 CHI  HZ EP       1044 12.71                             117   -0.38 8  256 195 
 CHI  HN ES       1044 42.12                             117   -1.08 8  256 195 
 CHI  HZ I        1044 51.75        12.0 0.66            110            256 195 
 ROSC BZ EP       1044 14.58                             117    1.13 8  259 210 
 ROSC BN ES       1044 46.55                             117    2.70 8  259 210 
 ROSC BZ I        1044 50.84        36.1 0.45            110            259 210 
 HEL  HZ EP   3   1044 16.81                             115    1.70 2  275 254 
 HEL  HE ES       1044 46.31                             115   -0.50 8  275 254 
 HEL  HZ I        1044 53.93        36.0 0.54            108            275 254 
 URE  HZ EP       1044 14.49                             114   -0.98 7  282 291 
 URE  HN ES       1044 45.61                             114   -1.84 7  282 291 
 URE  HZ I        1044 56.30        40.5 0.16            107            282 291 
 GUY2CHZ EP       1044 18.81                             112    0.06 7  306 234 
 GUY2CHN ES       1044 54.57                             112    1.29 7  306 234 
 GUY2CHZ I        1045  0.40        22.2 0.38                           306 234 
 PTGC HZ EP   3 D 1044 17.48                             112   -1.68 2  315 159 
 PTGC HN ES   4   1044 50.56                             112   -3.46 0  315 159 
 PTGC HZ I        1044 54.41        25.0 0.22            105            315 159 
 LL6C HZ EP       1044 19.08                             111   -0.41 7  318 357 
 LL6C HZ I        1045  3.79         5.5 0.24            103            318 357 
 CBOC HZ EP   3   1044 23.02                             110    1.17 2  337 251 
 CBOC HN ES       1044 59.65                             110    0.85 7  337 251 
 CBOC HZ I        1045  0.14         7.2 0.40            104            337 251 
 DBB  EZ EP       1044 22.32                             110    0.22 7  340 273 
 DBB  EN ES       1044 59.16                             110   -0.09 7  340 273 
 DBB  EZ I        1045  2.61        15.5 0.20            103            340 273 
 PRA  HZ EP       1044 28.11                             107   -0.74 6  399 209 
 PRA  HN ES       1045 10.52                             107   -0.75 6  399 209 
 PRA  HZ I        1045 15.47        12.8 0.30            101            399 209 
 PAL  HZ EP     D 1044 30.43                             106    0.19 6  410 238 
                                                                                
