 2014  731 1321 18.4 L   6.818 -73.175141.5  RSN 10 0.5 1.8LRSN                1
 GAP=132        1.29       3.7     5.0  7.1 -0.6638E+00  0.8858E+01  0.2156E+00E
 Epicentro: ZAPATOCA - SANTANDER                                               3
 ACTION:UPD 15-03-16 20:48 OP:nd   STATUS:               ID:20140731132118 L   I
 OLDACT:UP  14-07-31 21:46 OP:carl STATUS:               ID:20140731131818     3
 OLDACT:REG 14-07-31 21:18 OP:carl STATUS:               ID:20140731131818     3
 2014-07-31-1318-18M.COL___257                                                 6
 STAT SP IPHASW D HRMM SECON CODA AMPLIT PERI AZIMU VELO AIN AR TRES W  DIS CAZ7
 BAR2 SZ EP       1321 36.99                             170   -0.5210 25.0 182 
 BAR2 SZ ES       1321 52.17                             170   -0.2710 25.0 182 
 BAR2 SZ I        1321 54.08        13.7 0.24            169           25.0 182 
 BRR  HZ EP       1321 39.56                             153    0.7310 67.3 298 
 BRR  HN ES       1321 56.00                             153    1.2110 67.3 298 
 BRR  HZ I        1321 56.92        16.6 0.10            152           67.3 298 
 PAM  SZ EP       1321 40.56                             150    0.4010 78.0  42 
 PAM  SN ES       1321 56.68                             150   -0.4810 78.0  42 
 PAM  SZ I        1321 59.71         8.8 0.28            153           78.0  42 
 RUS  HZ EP       1321 42.26                             142    0.4010  103 174 
 RUS  HN ES       1321 59.97                             142   -0.2210  103 174 
 RUS  HZ I        1322  1.96         6.3 0.44            143            103 174 
 PTB  HZ EP       1321 44.58                             132   -0.14 9  145 258 
 PTB  HN ES       1322  5.40                             132    0.12 9  145 258 
 PTB  HZ I        1322  6.93         7.4 0.18            131            145 258 
 SPBC HZ EP       1321 46.74                             128    0.25 9  163 218 
 SPBC HE ES       1322  7.72                             128   -0.71 9  163 218 
 SPBC HZ I        1322 11.47         7.5 0.20            128            163 218 
 ZAR  HZ EP       1321 50.32                             122    0.19 9  200 292 
 ZAR  HN ES       1322 14.53                             122   -0.39 9  200 292 
 ZAR  HZ I        1322 21.04        10.0 0.28            122            200 292 
 NOR  HE ES       1322 20.77                             118   -0.47 8  233 234 
 NOR  HZ I        1322 28.43         4.5 0.14            118            233 234 
 SML  HZ EP       1321 53.78                             117   -0.62 8  241 336 
 SML  HN ES       1322 21.99                             117   -0.52 8  241 336 
 SML  HZ I        1322 24.14        12.2 0.26            118            241 336 
 CHI  HZ EP       1321 56.11                             116    0.17 8  250 194 
 CHI  HN ES       1322 25.62                             116    0.36 8  250 194 
 CHI  HZ I        1322 30.20         3.0 0.34            117            250 194 
                                                                                
