 2017 1031 1312 21.9 L   7.379 -73.395111.0  RSN 12 0.5 2.0LRSN                1
 GAP= 85        0.97       2.9     3.2  5.9 -0.1985E+01  0.5000E+01 -0.3805E+01E
 Epicentro: SABANA DE TORRES - SANTANDER                                       3
 ACTION:UPD 17-11-07 19:40 OP:rebc STATUS:               ID:20171031131221 L   I
 OLDACT:UP  17-11-01 00:16 OP:mg   STATUS:               ID:20171031130737d    3
 OLDACT:UP  17-11-01 00:15 OP:mg   STATUS:               ID:20171031130737d    3
 OLDACT:UP  17-11-01 00:14 OP:mg   STATUS:               ID:20171031130737d    3
 OLDACT:DUP 17-11-01 00:05 OP:mg   STATUS:               ID:20171031130737d    3
 2017-10-31-1308-00M.COL___441                                                 6
 STAT SP IPHASW D HRMM SECON CODA AMPLIT PERI AZIMU VELO AIN AR TRES W  DIS CAZ7
 BRR  HZ EP       1312 37.61                             156   -0.2810 46.2 229 
 BRR  HN ES       1312 50.01                             156   -0.3510 46.2 229 
 BRR  HZ I        1312 51.12        11.1 0.12            155           46.2 229 
 PAM  EZ EP       1312 40.94                             143    0.4410 76.9  93 
 PAM  EN ES       1312 55.57                             143    0.5410 76.9  93 
 PAM  EZ I        1312 56.21        28.7 0.20            141           76.9  93 
 BAR2 EZ IP     C 1312 41.32                             138    0.1410 90.1 165 
 BAR2 EZ ES   1   1312 55.99                             138   -0.24 7 90.1 165 
 BAR2 EZ I        1312 57.47        19.6 0.19            137           90.1 165 
 PTB  HZ EP       1312 46.63                             122    0.17 9  150 232 
 PTB  HN ES       1313  5.28                             122   -0.35 9  150 232 
 PTB  HZ I        1313  7.15         9.9 0.18            120            150 232 
 ZAR  HZ EP     D 1312 47.51                             120   -0.24 9  162 275 
 ZAR  HN ES       1313  8.45                             120    0.53 9  162 275 
 ZAR  HZ I        1313 10.71        14.0 0.14            117            162 275 
 RUS  HZ EP       1312 48.75                             119   -0.25 9  168 168 
 RUS  HN ES       1313  9.61                             119   -0.55 9  168 168 
 RUS  HZ I        1313 13.63         6.6 0.29            117            168 168 
 URE  HZ EP   3   1312 54.72                             109   -1.65 2  240 280 
 URE  HN ES   4   1313 20.21                             109   -3.05 0  240 280 
 NOR  HZ EP       1312 58.23                             108   -0.40 8  259 219 
 NOR  HN ES       1313 28.14                             108    0.85 8  259 219 
 NOR  HZ I        1313 31.39         7.7 0.24            106            259 219 
 LL6C HZ EP   3   1312 57.82                             107   -1.01 2  261   3 
 LL6C HN ES       1313 27.02                             107   -0.62 8  261   3 
 LL6C HZ I        1313 39.13        10.9 0.78            105            261   3 
 GUY2CHZ EP   4   1313  8.61                             103    1.90 0  323 223 
 GUY2CHN ES       1313 42.08                             103    0.40 7  323 223 
 GUY2CHZ I        1313 49.26         3.3 0.23                           323 223 
 SJC  HZ EP   4   1313  6.82                             102   -1.50 0  341 325 
 SJC  HE ES   4   1313 41.07                             102   -3.47 0  341 325 
 CRJC HZ EP       1313 16.56                              99    0.31 6  407   8 
 CRJC HE ES       1313 59.09                              99    0.43 6  407   8 
 CRJC HZ I        1314  3.06         6.1 0.40             96            407   8 
 PRA  HZ EP   4   1313 21.66                              98    1.72 0  438 202 
 PRA  HN ES   4   1314  8.15                              98    2.93 0  438 202 
 PRA  HZ I        1314 13.40         3.3 0.29             95            438 202 
                                                                                
