 2016 1031 1159 38.3 L   6.840 -73.212143.8  RSN  5 0.3 1.1LRSN                1
 GAP=127        0.69       3.9     3.5  5.3 -0.1747E+01  0.1366E+01  0.2461E+01E
 Epicentro: ZAPATOCA - SANTANDER                                               3
 ACTION:UPD 16-11-09 19:24 OP:rebc STATUS:               ID:20161031115938 L   I
 OLDACT:REG 16-10-31 20:26 OP:cog  STATUS:               ID:20161031115745     3
 2016-10-31-1158-00M.COL___325                                                 6
 STAT SP IPHASW D HRMM SECON CODA AMPLIT PERI AZIMU VELO AIN AR TRES W  DIS CAZ7
 BAR2 EZ EP       1159 57.88                             169    0.1310 27.6 173 
 BAR2 EZ ES       12 0 12.83                             169   -0.1210 27.6 173 
 BAR2 EZ I        12 0 13.91         4.8 0.14            168           27.6 173 
 BRR  HN ES       12 0 14.33                             155   -0.3710 62.7 298 
 PAM  EZ EP       12 0  0.54                             150    0.1710 79.1  46 
 PAM  EN ES       12 0 17.77                             150    0.1510 79.1  46 
 RUS  HZ EP       12 0  1.78                             142   -0.4210  106 172 
 RUS  HN ES       12 0 21.05                             142    0.1810  106 172 
 RUS  HZ I        12 0 21.20         1.4 0.28            142            106 172 
 PTB  HZ EP       12 0  4.43                             133   -0.08 9  142 257 
 PTB  HN ES       12 0 25.36                             133    0.38 9  142 257 
                                                                                
