 2015 1231 1728 33.4 L   6.844 -73.203137.8  RSN  6 0.4 1.8LRSN                1
 GAP=197        0.65       5.0     5.2  8.7  0.1081E+02  0.1749E+01 -0.2307E+02E
 Epicentro: ZAPATOCA - SANTANDER                                               3
 ACTION:UPD 16-02-04 15:09 OP:cam  STATUS:               ID:20151231172833 L   I
 OLDACT:REG 15-12-31 20:49 OP:dnl  STATUS:               ID:20151231171750     3
 2015-12-31-1717-50M.COL___316                                                 6
 STAT SP IPHASW D HRMM SECON CODA AMPLIT PERI AZIMU VELO AIN AR TRES W  DIS CAZ7
 BAR2 EZ EP   2   1728 52.28                             168    0.09 5 27.9 175 
 BAR2 EZ ES   2   1729  6.59                             168   -0.25 5 27.9 175 
 BAR2 EZ I        1729  8.24        14.8 0.33            165           27.9 175 
 RUS  HZ EP   2   1728 56.63                             140   -0.17 5  106 173 
 RUS  HN ES       1729 15.13                             140    0.0810  106 173 
 RUS  HZ I        1729 15.81         6.9 0.33            142            106 173 
 PTB  HZ EP   2   1728 58.49                             131   -0.77 5  143 256 
 PTB  HN ES       1729 19.51                             131    0.08 9  143 256 
 PTB  HZ I        1729 26.96         7.3 0.26            128            143 256 
 ZAR  HZ EP       1729  5.11                             121    0.56 9  196 292 
 ZAR  HE ES   2   1729 28.36                             121   -0.47 4  196 292 
 ZAR  HZ I        1729 36.44         7.0 0.11            120            196 292 
 SML  HZ EP   2   1729  8.57                             116   -0.26 4  237 336 
 SML  HE ES   2   1729 35.99                             116   -0.47 4  237 336 
 SML  HZ I        1729 41.31         6.7 0.09            117            237 336 
 CHI  HN ES   2   1729 39.60                             115   -0.76 4  252 193 
 CHI  HZ I        1729 44.94         5.3 0.38            116            252 193 
                                                                                
