 2010  731 1619 41.5 L   6.829 -73.065162.5  RSN  4 0.2 1.4LRSN                1
 GAP=173        0.55       6.3    12.9  9.7  0.3243E+02 -0.6230E+02 -0.2587E+02E
 Epicentro: LOS SANTOS - SANTANDER                                             3
 ACTION:UPD 10-12-01 15:21 OP:pat  STATUS:               ID:20100731161941 L   I
 2010-07-31-1614-12S.COL___123                                                 6
 STAT SP IPHASW D HRMM SECON CODA AMPLIT PERI AZIMU VELO AIN AR TRES W  DIS CAZ7
 BAR2 SZ EP   1   1620  3.21                             169    -0.1 7   29 206 
 BAR2 SZ I        1620  4.43         7.0 0.31                            29 206 
 BAR2 SZ ES   2   1620 20.71                             169     0.5 5   29 206 
 BRR  HZ EP   1   1620  5.10                             153     0.3 7   78 293 
 BRR  HZ I        1620  5.42        10.9 0.16                            78 293 
 BRR  HE ES   2   1620 22.69                             153    -0.3 5   78 293 
 RUS  HZ EP   1   1620  7.15                             146     0.0 7  104 181 
 RUS  HZ I        1620  9.66         2.5 0.44                           104 181 
 RUS  HE ES   2   1620 26.83                             146    -0.3 5  104 181 
 GUE  SZ EP   1   1620  7.32                             144    -0.1 7  112   8 
 GUE  SZ I        1620 29.42         1.2 0.07                           112   8 
                                                                                
