 2013  831 1920 12.2 L   6.716 -73.178141.0  RSN  5 0.3 1.5LRSN                1
 GAP=227        0.84       6.3     6.1  6.6  0.2088E+02  0.6222E+01  0.4033E+00E
 Epicentro: VILLANUEVA - SANTANDER                                             3
 ACTION:UPD 14-01-14 09:08 OP:ep   STATUS:               ID:20130831192012 L   I
 OLDACT:REG 13-08-31 15:57 OP:nd   STATUS:               ID:20130831191959     3
 2013-08-31-1919-59M.COL___269                                                 6
 STAT SP IPHASW D HRMM SECON CODA AMPLIT PERI AZIMU VELO AIN AR TRES W  DIS CAZ7
 BAR2 SZ EP       1920 31.02                             174   -0.0610 13.7 182 
 BAR2 SZ ES       1920 45.22                             174   -0.6010 13.7 182 
 BAR2 SZ I        1920 47.08         6.7 0.12            173           13.7 182 
 BRR  HZ EP       1920 32.97                             151    0.0410 73.2 306 
 BRR  HN ES       1920 49.58                             151    0.4610 73.2 306 
 BRR  HZ I        1920 53.77        14.0 0.30            149           73.2 306 
 RUS  HZ EP       1920 34.96                             145    0.1410 91.6 173 
 RUS  HN ES       1920 52.88                             145    0.3910 91.6 173 
 RUS  HZ I        1920 54.69         1.8 0.30            149           91.6 173 
 PTB  HZ EP       1920 37.88                             132   -0.42 9  143 262 
 PTB  HN ES       1920 58.55                             132   -0.13 9  143 262 
 PTB  HZ I        1921  1.52         6.2 0.13            132            143 262 
 ZAR  HZ EP   2   1920 44.64                             121    0.27 4  205 295 
 ZAR  HN ES   2   1921  9.86                             121    0.38 4  205 295 
 ZAR  HZ I        1921 15.67         3.5 0.12            122            205 295 
                                                                                
