 2010  331 1521 36.4 L   6.762 -73.051147.5  RSN  6 0.3 2.2LRSN                1
 GAP=192        0.47       3.4     6.9  5.7 -0.4140E+01  0.3517E+01  0.5382E+01E
 Epicentro: LOS SANTOS - SANTANDER                                             3
 ACTION:UP  10-08-24 09:57 OP:vdl  STATUS:               ID:20100331152136 L   I
 2010-03-31-1517-23S.COL___098                                                 6
 STAT SP IPHASW D HRMM SECON CODA AMPLIT PERI AZIMU VELO SNR AR TRES W  DIS CAZ7
 BAR2 SZ IP       1521 56.28                             170     0.010   24 218 
 BAR2 SZ ES   2   1522 11.99                             170     0.2 5   24 218 
 BRR  HZ EP   1   1521 58.51                             149     0.1 7   82 298 
 BRR  HZ I        1521 59.77        28.9 0.19                            82 298 
 BRR  HE ES   2   1522 15.18                             149    -0.4 5   82 298 
 RUS  HZ EP   1   1522  0.00                             145    -0.1 7   96 182 
 RUS  HZ I        1522  1.14        16.7 0.08                            96 182 
 OCA  SZ EP   1   1522  5.57                             129     0.1 7  166 350 
 OCA  SZ ES   2   1522 28.10                             129     0.1 5  166 350 
 TOL  SZ EP   1   1522 25.51                             109     0.2 5  348 226 
 TOL  SZ ES   2   1523  3.68                             109     0.3 3  348 226 
 PRA  HZ EP   1   1522 29.50                             107    -0.7 4  394 211 
 PRA  HE ES   2   1523 12.74                             107     0.6 3  394 211 
 PRA  HZ I        1523 17.24         6.8 0.32                           394 211 
                                                                                
