 2014  331 1046 28.3 L   7.311 -73.984 10.8  RSN  7 0.4 1.6LRSN                1
 GAP= 75        0.99       2.6     3.1  6.2 -0.1270E+01  0.3233E+01 -0.7595E+01E
 Epicentro: PUERTO WILCHES - SANTANDER                                         3
 ACTION:UPD 14-04-09 23:22 OP:nd   STATUS:               ID:20140331104628 L   I
 OLDACT:UP  14-03-31 21:56 OP:cam  STATUS:               ID:20140331103814     3
 OLDACT:REG 14-03-31 15:59 OP:cam  STATUS:               ID:20140331103814     3
 2014-03-31-1038-14M.COL___237                                                 6
 STAT SP IPHASW D HRMM SECON CODA AMPLIT PERI AZIMU VELO AIN AR TRES W  DIS CAZ7
 PTB  HZ EP       1046 43.97                              94   -0.1210100.0 211 
 PTB  HN ES       1046 56.12                              94   -0.2910100.0 211 
 PTB  HZ I        1046 56.37        14.6 0.20             47          100.0 211 
 BAR2 SZ EP       1046 47.70                              93    0.5010  119 132 
 BAR2 SZ ES       1047  1.61                              93   -0.3410  119 132 
 BAR2 SZ I        1047  2.97        15.5 0.14             47            119 132 
 OCA  HN ES   1   1047  3.19                              93   -0.51 7  126  36 
 PAM  SZ EP       1046 51.20                              93    0.28 9  142  89 
 PAM  SN ES   4   1047  6.92                              93   -1.64 0  142  89 
 PAM  SZ I        1047  9.55        11.0 0.16             47            142  89 
 SML  HZ EP       1046 53.56                              56   -0.03 9  165 357 
 SML  HN ES       1047 13.22                              56   -0.11 9  165 357 
 SML  HZ I        1047 19.79         7.2 0.10             47            165 357 
 URE  HZ EP   2   1046 55.56                              56    0.36 4  178 286 
 URE  HN ES   4   1047 15.14                              56   -1.04 0  178 286 
 URE  HZ I        1047 18.86         3.9 0.12             47            178 286 
 RUS  HZ EP       1046 57.62                              56    0.84 9  186 148 
 RUS  HN ES   1   1047 18.25                              56   -0.75 7  186 148 
                                                                                
