 2016 1231 1116 43.2 L   6.693 -73.256141.4  RSN  6 0.4 1.4LRSN                1
 GAP=191        1.02       5.1     6.2  6.8  0.1735E+02  0.1261E+02  0.8140E+01E
 Epicentro: GALAN - SANTANDER                                                  3
 ACTION:UPD 17-01-11 20:21 OP:rebc STATUS:               ID:20161231111643 L   I
 OLDACT:REG 16-12-31 20:13 OP:lv   STATUS:               ID:20161231110742     3
 2016-12-31-1108-00M.COL___362                                                 6
 STAT SP IPHASW D HRMM SECON CODA AMPLIT PERI AZIMU VELO AIN AR TRES W  DIS CAZ7
 BAR2 EZ EP       1117  1.62                             174   -0.5010 13.8 144 
 BAR2 EZ ES       1117 16.85                             174   -0.0510 13.8 144 
 BAR2 EZ I        1117 18.36         7.2 0.35            168           13.8 144 
 BRR  HZ EP       1117  3.42                             153   -0.2610 68.1 312 
 BRR  HN ES       1117 19.64                             153   -0.0310 68.1 312 
 RUS  HZ EP       1117  6.10                             146    0.3210 90.5 168 
 RUS  HN ES       1117 23.88                             146    0.4710 90.5 168 
 RUS  HZ I        1117 26.16         3.8 0.26            143           90.5 168 
 PTB  HZ EP       1117  7.94                             134   -0.6010  134 263 
 PTB  HN ES       1117 28.13                             134   -0.1910  134 263 
 PTB  HZ I        1117 32.30         4.2 0.17            131            134 263 
 ZAR  HZ EP       1117 15.60                             122    0.90 9  198 297 
 ZAR  HN ES       1117 39.63                             122    0.35 9  198 297 
 ZAR  HZ I        1117 44.38         3.4 0.36            122            198 297 
 CHI  HZ EP       1117 18.88                             118   -0.18 8  234 193 
 CHI  HN ES       1117 46.97                             118   -0.08 8  234 193 
 CHI  HZ I        1117 55.85         1.2 0.19            117            234 193 
                                                                                
