 2017  131 1125 18.5 L   6.766 -73.137142.3  RSN  5 0.4 1.3LRSN                1
 GAP=236        0.98       8.2     7.0  8.7  0.3402E+02  0.6281E+01 -0.1288E+02E
 Epicentro: LOS SANTOS - SANTANDER                                             3
 ACTION:UPD 17-05-22 16:05 OP:jn   STATUS:               ID:20170131112518 L   I
 OLDACT:UP  17-01-31 22:42 OP:ar   STATUS:               ID:20170131111748     3
 OLDACT:REG 17-01-31 21:05 OP:ar   STATUS:               ID:20170131111748     3
 2017-01-31-1118-00M.COL___340                                                 6
 STAT SP IPHASW D HRMM SECON CODA AMPLIT PERI AZIMU VELO AIN AR TRES W  DIS CAZ7
 BAR2 EZ EP       1125 37.58                             172   -0.0810 19.9 194 
 BAR2 EZ ES       1125 52.11                             172   -0.4810 19.9 194 
 BAR2 EZ I        1125 53.34         4.3 0.26            174           19.9 194 
 BRR  HZ EP       1125 39.52                             151    0.0810 73.8 301 
 BRR  HE ES   2   1125 56.65                             151    0.89 5 73.8 301 
 BRR  HZ I        1126  0.45        10.9 0.34            151           73.8 301 
 RUS  HZ EP       1125 42.09                             144    0.4510 96.8 176 
 RUS  HN ES       1125 59.90                             144    0.2110 96.8 176 
 RUS  HZ I        1126  0.85         1.7 0.22            149           96.8 176 
 PTB  HZ EP       1125 44.50                             131   -0.71 9  148 260 
 PTB  HN ES       1126  6.02                             131   -0.03 9  148 260 
 PTB  HZ I        1126  7.61         3.0 0.10            134            148 260 
 ZAR  HE ES       1126 16.62                             121    0.34 8  206 293 
                                                                                
