 2012  731 1126 55.9 L   6.727 -73.138145.0  RSN  7 0.4 1.9LRSN                1
 GAP= 92        0.86       5.5     5.6  7.1  0.1269E+01 -0.4819E+01  0.2335E+01E
 Epicentro: JORDAN - SANTANDER                                                 3
 ACTION:UPD 12-08-14 11:46 OP:ep   STATUS:               ID:20120731112655 L   I
 2012-07-31-1120-00M.COL___209                                                 6
 STAT SP IPHASW D HRMM SECON CODA AMPLIT PERI AZIMU VELO AIN AR TRES W  DIS CAZ7
 BAR2 SZ IP       1127 15.27                             173     0.010   16 198 
 BAR2 SZ I        1127 15.43        17.7 0.20            155             16 198 
 BAR2 SZ ES   1   1127 30.48                             173     0.1 7   16 198 
 BRR  HZ EP       1127 17.38                             151     0.110   76 304 
 BRR  HZ I        1127 19.35        26.0 0.10            125             76 304 
 BRR  HN ES   1   1127 34.40                             151     0.5 7   76 304 
 PAM  SZ EP       1127 18.46                             149     0.110   83  36 
 PAM  SZ I        1127 18.60        13.3 0.18            135             83  36 
 PAM  SN ES   1   1127 35.31                             149    -0.6 7   83  36 
 RUS  HZ EP       1127 19.04                             146     0.110   92 176 
 RUS  HN ES   1   1127 36.96                             146     0.0 7   92 176 
 RUS  HZ I        1127 38.77        11.2 0.28            128             92 176 
 PTB  HZ EP   1   1127 21.94                             132    -0.8 7  147 262 
 PTB  HN ES   3   1127 43.25                             132    -0.4 2  147 262 
 PTB  HZ I        1127 45.15         6.3 0.22            110            147 262 
 TAM  HZ IP     D 1127 23.55                             131     0.3 9  152 102 
 TAM  HZ I        1127 23.68        14.5 0.20            119            152 102 
 TAM  HN ES   3   1127 43.77                             131    -0.8 2  152 102 
 ZAR  HZ EP   3   1127 28.43                             122    -0.3 2  208 294 
 ZAR  HZ I        1128  1.73        10.1 0.46            104            208 294 
