 2017  131 1227 12.6 L   6.780 -73.155144.9  RSN 15 0.4 2.7LRSN                1
 GAP= 99        1.04       3.6     3.0  5.2  0.6846E+00  0.5104E+01  0.3368E+01E
 Epicentro: LOS SANTOS - SANTANDER                                             3
 ACTION:UPD 17-05-22 16:05 OP:jn   STATUS:               ID:20170131122712 L   I
 OLDACT:UP  17-01-31 23:16 OP:ar   STATUS:               ID:20170131121746     3
 OLDACT:UP  17-01-31 23:14 OP:ar   STATUS:               ID:20170131121746     3
 OLDACT:UP  17-01-31 23:13 OP:ar   STATUS:               ID:20170131121746     3
 OLDACT:REG 17-01-31 21:07 OP:ar   STATUS:               ID:20170131121746     3
 2017-01-31-1218-00M.COL___343                                                 6
 STAT SP IPHASW D HRMM SECON CODA AMPLIT PERI AZIMU VELO AIN AR TRES W  DIS CAZ7
 BAR2 EZ IP     C 1227 31.90                             171   -0.1510 21.0 188 
 BAR2 EZ ES       1227 47.03                             171   -0.2210 21.0 188 
 BAR2 EZ I        1227 48.04       222.3 0.24            167           21.0 188 
 BRR  HZ IP     C 1227 33.81                             152    0.1710 71.4 300 
 BRR  HN ES       1227 50.86                             152    0.7910 71.4 300 
 BRR  HZ I        1227 51.77       147.3 0.12            150           71.4 300 
 PAM  EZ IP     C 1227 34.78                             150   -0.0510 79.7  39 
 PAM  EN ES       1227 51.86                             150   -0.3410 79.7  39 
 PAM  EZ I        1227 53.68        73.3 0.59            153           79.7  39 
 RUS  HZ EP       1227 35.87                             144   -0.2210 98.5 175 
 RUS  HN ES       1227 54.60                             144    0.1710 98.5 175 
 RUS  HZ I        1227 55.39        58.9 0.22            141           98.5 175 
 PTB  HZ EP       1227 38.59                             132   -0.75 9  146 260 
 PTB  HN ES       1227 59.66                             132   -0.56 9  146 260 
 PTB  HZ I        1228  0.89        72.6 0.16            129            146 260 
 TAM  HZ EP       1227 40.15                             130   -0.07 9  156 104 
 TAM  HE ES       1228  2.04                             130    0.26 9  156 104 
 TAM  HZ I        1228  2.24        22.1 0.36            130            156 104 
 ZAR  HZ EP       1227 45.58                             122    0.63 9  204 293 
 ZAR  HN ES       1228 10.47                             122    0.26 9  204 293 
 ZAR  HZ I        1228 16.00        72.0 0.32            120            204 293 
 CHI  HZ EP       1227 50.06                             117    0.10 8  246 195 
 CHI  HN ES       1228 19.31                             117    0.18 8  246 195 
 CHI  HZ I        1228 27.26        17.2 0.36            115            246 195 
 ROSC BZ EP   4   1227 52.15                             117    1.77 0  250 211 
 ROSC BN ES   4   1228 22.69                             117    2.82 0  250 211 
 ROSC BZ I        1228 27.30        60.8 0.30            115            250 211 
 URE  HZ EP       1227 52.84                             113   -0.75 7  284 292 
 URE  HE ES   4   1228 23.82                             113   -1.76 0  284 292 
 URE  HZ I        1228 36.57        51.0 0.36            112            284 292 
 PTGC HZ EP   9   1227 54.94                             111   -1.26 0  307 158 
 PTGC HE ES       1228 28.22                             112   -0.75 7  307 158 
 PTGC HZ I        1228 38.27        27.3 0.44            110            307 158 
 CBOC HZ EP   4   1228  0.58                             110    1.32 0  332 252 
 CBOC HE ES       1228 35.29                             110   -0.39 7  332 252 
 CBOC HZ I        1228 43.99         9.7 0.48            108            332 252 
 DBB  EZ EP       1228  0.44                             109    0.52 7  339 275 
 DBB  EN ES   4   1228 34.17                             109   -2.68 0  339 275 
 DBB  EZ I        1228 42.90        25.4 0.24            108            339 275 
 ORTC HZ EP       1228  6.43                             106    0.25 6  393 216 
 ORTC HE ES       1228 49.08                             106    1.08 6  393 216 
 ORTC HZ I        1228 57.80        13.9 0.34            105            393 216 
 PAL  HZ EP       1228  7.70                             106    0.23 6  404 239 
 PAL  HE ES       1228 49.77                             106   -0.52 6  404 239 
 PAL  HZ I        1228 54.86        10.0 0.28            104            404 239 
                                                                                
