 2016  731 1718 13.9 L   6.799 -73.093143.6  RSN  4 0.3 1.5LRSN                1
 GAP=143        0.86       4.9     7.3  7.6  0.3942E+01  0.5380E+01  0.6935E+01E
 Epicentro: LOS SANTOS - SANTANDER                                             3
 ACTION:UPD 17-03-29 16:57 OP:lp   STATUS:               ID:20160731171813 L   I
 OLDACT:REG 16-07-31 21:27 OP:ar   STATUS:               ID:20160731170741     3
 2016-07-31-1708-00M.COL___353                                                 6
 STAT SP IPHASW D HRMM SECON CODA AMPLIT PERI AZIMU VELO AIN AR TRES W  DIS CAZ7
 BAR2 EZ EP       1718 33.13                             170   -0.1310 24.9 203 
 BAR2 EZ ES       1718 47.78                             170   -0.6210 24.9 203 
 BAR2 EZ I        1718 49.05         6.5 0.16            171           24.9 203 
 PAM  EZ ES       1718 52.81                             152    0.1810 73.9  36 
 PAM  EZ I        1718 54.92         9.9 0.52            151           73.9  36 
 BRR  HZ EP       1718 34.92                             150   -0.1610 76.4 297 
 BRR  HN ES       1718 51.95                             150    0.3210 76.4 297 
 BRR  HZ I        1718 52.46         6.9 0.16            153           76.4 297 
 RUS  HZ EP       1718 37.39                             143    0.0110  100 179 
 RUS  HN ES       1718 56.11                             143    0.3910  100 179 
 RUS  HZ I        1718 57.13         2.3 0.24            145            100 179 
                                                                                
