 2011  731 1426 39.0 L   6.774 -73.107141.2  RSN  8 0.4 1.9LRSN                1
 GAP=143        0.78       3.2     6.5  6.0 -0.7937E+01  0.7047E+01  0.2680E+01E
 Epicentro: LOS SANTOS - SANTANDER                                             3
 ACTION:UPD 12-07-25 14:04 OP:epov STATUS:               ID:20110731142638 L   I
 2011-07-31-1424-08S.COL___142                                                 6
 STAT SP IPHASW D HRMM SECON CODA AMPLIT PERI AZIMU VELO AIN AR TRES W  DIS CAZ7
 BAR2 SZ EP   1   1426 58.00                             171   -0.02 7 21.8 202 
 BAR2 SZ ES   1   1427 13.04                             171    0.16 7 21.8 202 
 BAR2 SZ I        1427 14.97        15.9 0.42                          21.8 202 
 BRR  HZ EP   1   1426 59.77                             150   -0.16 7 76.3 299 
 BRR  HN ES   1   1427 16.03                             150   -0.25 7 76.3 299 
 PAM  SZ EP   1   1427  0.83                             150    0.15 7 77.1  36 
 PAM  SN ES       1427 17.77                             150    0.1510 77.1  36 
 RUS  HZ EP   1   1427  2.32                             144    0.26 7 97.5 178 
 RUS  HN ES   1   1427 20.42                             144    0.36 7 97.5 178 
 RUS  HZ I        1427 21.74        10.9 0.29                          97.5 178 
 GRA  SZ EP       1427  3.94                             136    0.0010  127  15 
 GRA  SZ ES   1   1427 22.66                             136   -0.76 7  127  15 
 GRA  SZ I        1427 26.45        10.7 0.24                           127  15 
 OCA  SZ ES   2   1427 29.93                             128    0.61 5  164 352 
 OCA  SZ I        1427 33.57        10.7 0.23                           164 352 
 CHI  HZ EP   1   1427 15.84                             116   -0.41 6  247 196 
 CHI  HN ES       1427 44.80                             116   -0.52 8  247 196 
 CHI  HZ I        1427 51.31         4.2 0.24                           247 196 
 HEL  HZ EP   1   1427 20.32                             113    0.98 6  275 257 
                                                                                
