 2011  531 1557 56.9 L   6.788 -73.133149.2  RSN  9 0.3 1.8LRSN                1
 GAP=139        0.70       4.1     5.6  7.7 -0.8572E+01  0.1257E+02 -0.5071E+01E
 Epicentro: LOS SANTOS - SANTANDER                                             3
 ACTION:UP  11-06-29 08:57 OP:tino STATUS:               ID:20110531155756 L   I
 2011-05-31-1557-54S.COL___115                                                 6
 STAT SP IPHASW D HRMM SECON CODA AMPLIT PERI AZIMU VELO SNR AR TRES W  DIS CAZ7
 BTL  SZ EP   1   1558 16.99                             172     0.1 7   21 314 
 BAR2 SZ EP   1   1558 16.87                             171     0.0 7   22 194 
 BAR2 SZ I        1558 17.26        15.8 0.10                            22 194 
 BRR  HZ EP   1   1558 18.57                             152     0.1 7   73 299 
 BRR  HZ I        1558 19.12        18.0 0.11                            73 299 
 BRR  HN ES   2   1558 35.90                             152     0.5 5   73 299 
 PAM  SZ EP   1   1558 19.59                             151     0.1 7   78  38 
 PAM  SZ I        1558 20.04         4.0 0.16                            78  38 
 PAM  SN ES   1   1558 36.89                             151    -0.2 7   78  38 
 RUS  HZ EP   1   1558 20.87                             145     0.0 7   99 177 
 RUS  HN ES   1   1558 39.42                             145    -0.2 7   99 177 
 RUS  HZ I        1558 40.49         7.6 0.20                            99 177 
 BRI  SZ EP   1   1558 21.75                             142     0.6 7  109  20 
 GRA  SZ EP   1   1558 22.69                             137     0.2 7  127  17 
 GRA  SZ ES   1   1558 42.27                             137    -0.2 7  127  17 
 GRA  SZ I        1558 43.62         8.0 0.31                           127  17 
 OCA  SZ EP   1   1558 24.96                             130    -0.6 7  162 353 
 HEL  HN ES   1   1559  8.83                             115    -0.2 6  273 256 
 HEL  HZ I        1559 15.49         4.6 0.44                           273 256 
                                                                                
