 2012  531 1605  8.7 L   6.765 -73.131137.1  RSN  5 0.2 1.8LRSN                1
 GAP=140        0.50       2.8     3.7  4.5  0.5848E+00  0.4722E+01 -0.1819E+01E
 Epicentro: LOS SANTOS - SANTANDER                                             3
 ACTION:UP  12-07-05 12:09 OP:pat  STATUS:               ID:20120531160507 L   I
 2012-05-31-1600-00M.COL___200                                                 6
 STAT SP IPHASW D HRMM SECON CODA AMPLIT PERI AZIMU VELO AIN AR TRES W  DIS CAZ7
 BAR2 SZ EP       16 5 26.92                             171    -0.310   20 197 
 BAR2 SZ ES       16 5 41.68                             171     0.110   20 197 
 BAR2 SZ I        16 5 43.58        27.1 0.18                            20 197 
 PAM  SZ EP       16 5 30.15                             149     0.110   79  37 
 PAM  SE ES   1   16 5 46.81                             149     0.0 7   79  37 
 RUS  HZ EP       16 5 31.19                             143    -0.110   97 177 
 RUS  HE ES   1   16 5 49.11                             143     0.2 7   97 177 
 RUS  HZ I        16 5 50.64         5.3 0.28                            97 177 
 OCA  HN ES   2   16 5 58.60                             127     0.0 5  164 353 
 ZAR  HZ EP   1   16 5 41.29                             120     0.4 6  207 293 
 ZAR  HN ES   1   16 6  5.83                             120    -0.2 6  207 293 
 ZAR  HZ I        16 6 12.16         7.4 0.34                           207 293 
                                                                                
