 2016 1231 1358 25.5 L   6.745 -73.502105.9  RSN  8 0.5 2.0LRSN                1
 GAP=130        1.13       4.4     4.4  6.6  0.6799E+01  0.7973E+01  0.7884E+01E
 Epicentro: EL CARMEN - SANTANDER                                              3
 ACTION:UPD 17-01-11 20:21 OP:rebc STATUS:               ID:20161231135825 L   I
 OLDACT:REG 16-12-31 20:21 OP:lv   STATUS:               ID:20161231134746     3
 2016-12-31-1348-00M.COL___363                                                 6
 STAT SP IPHASW D HRMM SECON CODA AMPLIT PERI AZIMU VELO AIN AR TRES W  DIS CAZ7
 BAR2 EZ IP     D 1358 40.81                             158   -0.1110 39.1 116 
 BAR2 EZ ES       1358 52.92                             158   -0.0410 39.1 116 
 BAR2 EZ I        1358 53.87        63.6 0.12            159           39.1 116 
 BRR  HZ EP       1358 40.90                             155   -0.0210 46.3 330 
 BRR  HE ES       1358 53.58                             155    0.6210 46.3 330 
 BRR  HZ I        1358 54.35        75.2 0.12            155           46.3 330 
 RUS  HZ EP       1358 45.57                             132   -0.4010  105 154 
 RUS  HE ES       1359  1.78                             132   -0.1710  105 154 
 RUS  HZ I        1359  2.79        12.6 0.17            131            105 154 
 PTB  HZ IP   9 C 1358 44.59                             131   -1.00 0  108 258 
 PTB  HE ES       1358 59.83                                   -0.4510  108 258 
 PTB  HZ I        1359  0.91        19.2 0.13            129            108 258 
 ZAR  HZ EP       1358 52.47                             117    0.45 9  171 299 
 ZAR  HE ES       1359 11.79                             117   -0.94 9  171 299 
 ZAR  HZ I        1359 16.70        19.3 0.15            116            171 299 
 TAM  HZ EP       1358 54.32                             114   -0.08 9  192 100 
 TAM  HE ES   4   1359 14.47                             114   -2.49 0  192 100 
 CHI  HE ES       1359 26.66                             109    0.13 8  235 186 
 CHI  HZ I        1359 34.19         2.7 0.28            108            235 186 
 GUY2CHZ EP       1359  4.44                             106    1.00 8  266 231 
 GUY2CHN ES       1359 32.88                             106   -0.18 8  266 231 
 GUY2CHZ I        1359 40.87         4.8 0.36                           266 231 
                                                                                
