 2017 1031 1141 20.6 L   6.745 -73.222151.7  RSN  4 0.2 1.5LRSN                1
 GAP=219        0.63       5.4     4.7  5.3  0.1122E+02  0.2474E+01 -0.1954E+01E
 Epicentro: ZAPATOCA - SANTANDER                                               3
 ACTION:UPD 17-11-07 19:40 OP:rebc STATUS:               ID:20171031114120 L   I
 OLDACT:UP  17-10-31 22:37 OP:mg   STATUS:               ID:20171031113741     3
 OLDACT:REG 17-10-31 20:12 OP:mg   STATUS:               ID:20171031113741     3
 2017-10-31-1138-00M.COL___438                                                 6
 STAT SP IPHASW D HRMM SECON CODA AMPLIT PERI AZIMU VELO AIN AR TRES W  DIS CAZ7
 BAR2 EZ EP       1141 40.57                             173   -0.3010 17.5 166 
 BAR2 EZ ES       1141 56.38                             173   -0.2810 17.5 166 
 BAR2 EZ I        1141 56.85         8.8 0.22            177           17.5 166 
 BRR  HZ EP       1141 42.46                             155    0.2410 67.4 306 
 BRR  HN ES   1   1141 59.41                             155    0.35 7 67.4 306 
 BRR  HZ I        1142  4.81         9.9 0.28            153           67.4 306 
 RUS  HZ EP       1141 44.77                             146    0.1510 95.5 171 
 RUS  HN ES       1142  3.55                             146    0.2210 95.5 171 
 RUS  HZ I        1142  4.40         6.8 0.26            151           95.5 171 
 PTB  HZ EP       1141 47.12                             135   -0.15 9  138 261 
 PTB  HN ES       1142  7.96                             135   -0.09 9  138 261 
 PTB  HZ I        1142 10.32         2.1 0.20            137            138 261 
                                                                                
