 2010  531 1135 10.4 L   6.903 -72.933139.7  RSN  5 0.8 2.1LRSN                1
 GAP=211        1.49      13.0    25.4 17.6 -0.2569E+03  0.1740E+03 -0.5680E+02E
 Epicentro: GUACA - SANTANDER                                                  3
 ACTION:UP  10-08-24 10:07 OP:vdl  STATUS:               ID:20100531113510 L   I
 2010-05-31-1130-09S.COL___109                                                 6
 STAT SP IPHASW D HRMM SECON CODA AMPLIT PERI AZIMU VELO SNR AR TRES W  DIS CAZ7
 BAR2 SZ ES   1   1135 44.34                             161    -0.8 8   44 219 
 GUE  SZ EP       1135 33.45                             142     0.010  103   0 
 GUE  SZ ES   2   1135 52.42                             142     1.0 5  103   0 
 GRA  SZ ES   1   1135 53.00                             140     1.0 7  110   7 
 OCA  SZ EP   1   1135 36.69                             129    -0.9 7  154 344 
 OCA  SZ ES   1   1135 58.18                             129    -0.7 7  154 344 
 RREF BN ES       1136 38.04                             108     0.8 6  347 231 
 RREF BZ I        1136 42.40         4.8 0.83                           347 231 
                                                                                
