 2016 1031 1542 45.4 L   6.828 -73.166145.5  RSN  8 0.3 1.9LRSN                1
 GAP=133        0.85       3.6     4.6  5.9 -0.5293E+01  0.5177E+01  0.6815E+01E
 Epicentro: LOS SANTOS - SANTANDER                                             3
 ACTION:UPD 16-11-09 19:24 OP:rebc STATUS:               ID:20161031154245 L   I
 OLDACT:REG 16-10-31 21:15 OP:cog  STATUS:               ID:20161031153742     3
 2016-10-31-1538-00M.COL___325                                                 6
 STAT SP IPHASW D HRMM SECON CODA AMPLIT PERI AZIMU VELO AIN AR TRES W  DIS CAZ7
 BRR  HZ EP       1543  6.77                             154    0.4410 67.8 297 
 BRR  HN ES       1543 22.37                             154   -0.2910 67.8 297 
 PAM  EZ EP       1543  7.94                             151    0.4010 76.5  42 
 PAM  EE ES       1543 24.95                             151    0.1410 76.5  42 
 PAM  EZ I        1543 27.16        10.5 0.46            147           76.5  42 
 RUS  HZ EP       1543  8.97                             143   -0.4010  104 175 
 RUS  HN ES       1543 27.80                             143   -0.2610  104 175 
 RUS  HZ I        1543 28.75        11.1 0.26            142            104 175 
 PTB  HZ EP       1543 11.60                             132   -0.61 9  146 257 
 PTB  HZ I        1543 34.53         7.5 0.14            125            146 257 
 SPBC HZ EP       1543 14.14                             129    0.16 9  164 218 
 SPBC HE ES       1543 36.63                             129    0.36 9  164 218 
 NOR  HZ EP       1543 20.63                             118   -0.49 8  235 234 
 NOR  HE ES       1543 49.33                             118    0.35 8  235 234 
 NOR  HZ I        1543 53.66         6.8 0.30            114            235 234 
 CHI  HZ EP       1543 23.21                             117   -0.14 8  251 194 
 CHI  HN ES       1543 53.01                             117    0.06 8  251 194 
 CHI  HZ I        1543 55.75         5.4 0.34            114            251 194 
 GUY2CHZ EP   4   1543 30.37                             112    1.37 0  301 234 
 GUY2CHN ES   4   1544  4.99                             112    1.99 0  301 234 
 PRA  HZ EP       1543 39.34                             106    0.24 6  394 209 
 PRA  HN ES       1544 21.35                             106    0.36 6  394 209 
 PRA  HZ I        1544 27.20         2.8 0.26            103            394 209 
                                                                                
