 2016  331 1443 16.1 L   6.880 -73.139148.4  RSN  5 0.4 1.4LRSN                1
 GAP=281        0.91       7.8     5.6  7.5 -0.2077E+01  0.1254E+02 -0.5675E+01E
 Epicentro: LOS SANTOS - SANTANDER                                             3
 ACTION:UPD 16-05-13 21:29 OP:cam  STATUS:               ID:20160331144316 L   I
 OLDACT:REG 16-03-31 21:00 OP:ak   STATUS:               ID:20160331143745     3
 2016-03-31-1437-45M.COL___322                                                 6
 STAT SP IPHASW D HRMM SECON CODA AMPLIT PERI AZIMU VELO AIN AR TRES W  DIS CAZ7
 BAR2 EZ EP       1443 36.69                             167    0.4410 32.2 189 
 BAR2 EZ ES       1443 51.91                             167   -0.0610 32.2 189 
 BAR2 EZ I        1443 53.06         4.7 0.24            168           32.2 189 
 RUS  HZ EP       1443 40.89                             142    0.1410  109 177 
 RUS  HE ES       1443 59.78                             142   -0.2010  109 177 
 RUS  HZ I        1444  1.25         2.5 0.26            143            109 177 
 PTB  HZ EP       1443 42.64                             132   -0.88 9  150 256 
 PTB  HE ES       1444  5.23                             132    0.32 9  150 256 
 PTB  HZ I        1444  6.42         3.8 0.19            133            150 256 
 SPBC HZ IP       1443 45.65                             128    0.15 9  171 217 
 SPBC HZ EP   1   1443 45.65                             128    0.15 7  171 217 
 SPBC HE ES       1444  8.19                             128   -0.24 9  171 217 
 GUY2CHE ES       1444 35.42                             112    0.33 7  307 234 
                                                                                
