 2017 1231 1011 36.0 L   6.770 -73.117146.0  RSN 10 0.7 1.6LRSN                1
 GAP=123        0.95       4.4     5.0  6.9 -0.9170E+01  0.8998E+01 -0.1873E+01E
 Epicentro: LOS SANTOS - SANTANDER                                             3
 ACTION:UPD 18-01-04 13:26 OP:rebc STATUS:               ID:20171231101136 L   I
 OLDACT:UP  17-12-31 21:50 OP:mg   STATUS:               ID:20171231100615     3
 OLDACT:REG 17-12-31 20:03 OP:mg   STATUS:               ID:20171231100615     3
 2017-12-31-1008-00M.COL___460                                                 6
 STAT SP IPHASW D HRMM SECON CODA AMPLIT PERI AZIMU VELO AIN AR TRES W  DIS CAZ7
 BAR2 EZ EP       1011 55.82                             171    0.2110 20.9 200 
 BAR2 EZ ES   1   1012 10.87                             171   -0.03 7 20.9 200 
 BAR2 EZ I        1012 11.68         9.0 0.18            170           20.9 200 
 PAM  EZ EP       1011 58.77                             151    0.4910 78.1  36 
 PAM  EN ES       1012 15.11                             151   -0.5510 78.1  36 
 PAM  EZ I        1012 18.73         5.8 0.46            151           78.1  36 
 PTB  HZ EP       1012  2.92                             132   -0.29 9  150 260 
 PTB  HN ES       1012 24.09                             132   -0.34 9  150 260 
 PTB  HZ I        1012 25.96         2.0 0.16            132            150 260 
 SPBC HZ EP       1012  4.92                             129    0.46 9  163 221 
 SPBC HN ES   1   1012 26.82                             129    0.16 7  163 221 
 SPBC HZ I        1012 29.39         4.9 0.22            129            163 221 
 OCA  HZ EP   2   1012  4.41                             129   -0.27 5  164 352 
 OCA  HN ES   2   1012 27.58                             129    0.54 5  164 352 
 OCA  HZ I        1012 30.47        13.0 0.16            130            164 352 
 ZAR  HZ EP   1   1012  8.44                             122   -0.45 6  208 293 
 ZAR  HN ES   2   1012 34.89                             122    0.35 4  208 293 
 ZAR  HZ I        1012 40.87         3.1 0.10            122            208 293 
 DRL03HZ EP       1012 18.26                             113    0.23 7  293 352 
 DRL03HN ES   2   1012 52.00                             113    1.18 4  293 352 
 GUY2CHZ EP   2   1012 21.12                             112    1.43 4  302 236 
 GUY2CHN ES   1   1012 53.87                             112    0.10 5  302 236 
 GUY2CHZ I        1013  2.20         1.1 0.36                           302 236 
 PTGC HZ EP   2   1012 17.97                             112   -1.41 4  304 159 
 PTGC HE ES   2   1012 52.46                             112   -0.76 4  304 159 
 PTGC HZ I        1013  5.69         2.5 0.39            111            304 159 
 SJC  HZ EP   2   1012 30.52                             105   -1.58 3  414 327 
 SJC  HE ES   3   1013 11.93                             105   -3.92 1  414 327 
 SJC  HZ I        1013 15.48         0.7 0.24            106            414 327 
                                                                                
