 2016 1031 1015 52.8 L   6.355 -73.626114.3  RSN  4 0.3 0.9LRSN                1
 GAP=139        0.78       4.6     3.3  7.2  0.9477E-01  0.4760E+01  0.1781E+00E
 Epicentro: SANTA HELENA DEL OPON - SANTANDER                                  3
 *RUS                                                                          3
 ACTION:UPD 16-11-09 19:24 OP:rebc STATUS:               ID:20161031101552 L   I
 OLDACT:UP  16-11-01 16:48 OP:nlst STATUS:               ID:20161031101552 L   3
 OLDACT:DUP 16-10-31 22:18 OP:cog  STATUS:               ID:20161031100744d    3
 2016-10-31-1008-00M.COL___328                                                 6
 STAT SP IPHASW D HRMM SECON CODA AMPLIT PERI AZIMU VELO AIN AR TRES W  DIS CAZ7
 BAR2 EZ EP       1016 10.37                             152    0.4110 55.6  62 
 BAR2 EZ ES       1016 23.39                             152    0.0010 55.6  62 
 RUS  HZ EP       1016 11.34                             143   -0.5010 78.9 130 
 RUS  HN ES       1016 26.71                             143   -0.0210 78.9 130 
 RUS  HZ I        1016 40.15         0.6 0.36            143           78.9 130 
 SPBC HZ EP       1016 12.70                             138    0.4010 92.1 212 
 SPBC HN ES       1016 27.56                             138    0.0210 92.1 212 
 SPBC HZ I        1016 30.88         3.8 0.06            142           92.1 212 
 PTB  HZ EP       1016 12.10                             138   -0.2610 94.1 283 
 PTB  HN ES       1016 27.60                             138   -0.0510 94.1 283 
 PTB  HZ I        1016 29.40         3.2 0.40            149           94.1 283 
                                                                                
