 2011  331 1121 16.6 L   6.814 -73.126141.4  RSN 12 0.4 3.1LRSN                1
 GAP=137        0.72       3.4     4.8  6.7 -0.3781E+01  0.6301E+01  0.5214E+01E
 Epicentro: LOS SANTOS - SANTANDER                                             3
 ACTION:UP  11-06-16 14:36 OP:jfem STATUS:               ID:20110331112116 L   I
 2011-03-31-1119-43S.COL___138                                                 6
 STAT SP IPHASW D HRMM SECON CODA AMPLIT PERI AZIMU VELO SNR AR TRES W  DIS CAZ7
 BTL  SZ IP       1121 36.04                             172     0.410   19 306 
 BTL  SZ ES   2   1121 50.72                             172     0.3 5   19 306 
 BAR2 SZ IP       1121 36.02                             169     0.310   25 195 
 BAR2 SZ ES   2   1121 50.05                             169    -0.6 5   25 195 
 BAR2 SZ I        1121 52.45       245.2 0.21                            25 195 
 GRA  SZ IP       1121 40.70                             137    -0.610  124  17 
 GRA  SZ ES   2   1122  0.22                             137    -0.3 5  124  17 
 GRA  SZ I        1122  3.11       142.9 0.29                           124  17 
 OCA  SZ EP   1   1121 44.48                             129     0.0 7  159 352 
 OCA  SZ ES   2   1122  6.31                             129     0.1 5  159 352 
 OCA  SZ I        1122 11.86       219.8 0.28                           159 352 
 YOP  SZ IP       1121 46.81                             125     0.4 9  179 154 
 YOP  SN ES   2   1122  9.03                             125    -0.6 4  179 154 
 YOP  SZ I        1122 13.12        69.2 0.49                           179 154 
 NOR  SZ EP   2   1121 52.05                             117    -0.3 4  237 235 
 NOR  SN ES   2   1122 20.09                             117    -0.2 4  237 235 
 CHI  HZ EP   1   1121 54.30                             116     0.0 6  251 196 
 CHI  HE ES   2   1122 23.57                             116    -0.1 4  251 196 
 CHI  HZ I        1122 29.79        76.7 0.53                           251 196 
 HEL  HZ EP   1   1121 56.81                             114    -0.1 6  275 256 
 HEL  HN ES   2   1122 28.76                             114     0.5 4  275 256 
 HEL  HZ I        1122 36.29        83.6 0.27                           275 256 
 GUY  SN ES   2   1122 34.49                             111     0.1 4  304 235 
 GUY  SZ I        1122 41.78       122.9 0.30                           304 235 
 RREF HZ EP   2   1122  2.93                             110     0.1 3  324 229 
 RREF HN ES   2   1122 38.47                             110    -0.5 3  324 229 
 RREF HZ I        1122 50.14        86.7 0.51                           324 229 
 DBB  SZ EP   2   1122  3.87                             109    -0.3 3  342 274 
 PRA  HZ EP   1   1122  9.59                             106    -0.7 4  394 210 
 PRA  HN ES   2   1122 51.84                             106    -0.3 3  394 210 
                                                                                
