 2016 1031 1812 59.9 L   6.808 -73.177140.3  RSN 12 0.3 2.0LRSN                1
 GAP=132        0.81       3.1     3.3  4.4 -0.2954E+01  0.2140E+01  0.4392E+01E
 Epicentro: LOS SANTOS - SANTANDER                                             3
 ACTION:UPD 16-11-09 19:24 OP:rebc STATUS:               ID:20161031181259 L   I
 OLDACT:REG 16-10-31 21:38 OP:cog  STATUS:               ID:20161031175939     3
 2016-10-31-1808-00M.COL___322                                                 6
 STAT SP IPHASW D HRMM SECON CODA AMPLIT PERI AZIMU VELO AIN AR TRES W  DIS CAZ7
 BAR2 EZ EP       1813 18.75                             170   -0.1810 23.8 181 
 BAR2 EZ ES       1813 33.73                             170   -0.0110 23.8 181 
 BAR2 EZ I        1813 42.49        11.5 0.19            170           23.8 181 
 BRR  HZ EP       1813 20.74                             153    0.4310 67.8 299 
 BRR  HN ES       1813 36.62                             153    0.4310 67.8 299 
 BRR  HZ I        1813 40.23        23.9 0.14            152           67.8 299 
 PAM  EZ EP       1813 21.58                             149   -0.1010 79.0  42 
 PAM  EN ES       1813 38.59                             149   -0.0510 79.0  42 
 PAM  EZ I        1813 40.70        21.7 0.56            154           79.0  42 
 RUS  HZ EP       1813 22.85                             142   -0.3910  102 174 
 RUS  HE ES       1813 41.39                             142   -0.0310  102 174 
 RUS  HZ I        1813 42.42        16.1 0.35            145            102 174 
 PTB  HZ EP       1813 25.48                             131   -0.69 9  145 258 
 PTB  HN ES       1813 46.40                             131   -0.23 9  145 258 
 PTB  HZ I        1813 48.37        12.7 0.26            133            145 258 
 SPBC HZ EP       1813 27.77                             128   -0.11 9  162 218 
 SPBC HE ES       1813 49.75                             128    0.07 9  162 218 
 SPBC HZ I        1813 52.34        18.4 0.20            130            162 218 
 NOR  HZ EP       1813 35.40                             118    0.29 8  232 234 
 NOR  HN ES       1814  1.92                             118   -0.62 8  232 234 
 NOR  HZ I        1814  6.93         8.3 0.34            120            232 234 
 CHI  HZ EP       1813 37.48                             116    0.15 8  249 194 
 CHI  HN ES       1814  7.08                             116    0.58 8  249 194 
 CHI  HZ I        1814  9.36         4.3 0.33            119            249 194 
 HEL  HZ EP   9   1813 41.58                             114    2.05 0  269 255 
 HEL  HN ES       1814 12.12                                   -0.34 8  269 255 
 HEL  HZ I        1814 17.87         7.5 0.50            116            269 255 
 GUY2CHZ EP       1813 43.60                             111    0.57 7  299 234 
 GUY2CHE ES       1814 16.92                             111    0.27 7  299 234 
 GUY2CHZ I        1814 23.83         5.6 0.26                           299 234 
 PRA  HZ EP       1813 53.38                             106    0.22 6  391 209 
 PRA  HN ES       1814 34.64                             106   -0.04 6  391 209 
 PRA  HZ I        1814 41.94         3.0 0.32            108            391 209 
 SJC  HZ EP   9   1813 53.47                             105   -1.55 0  407 327 
 SJC  HE ES       1814 36.67                                    0.24 6  407 327 
 SJC  HZ I        1814 42.76         0.9 0.13            107            407 327 
                                                                                
