 2014  331 1021 59.4 L   6.833 -73.178150.4  RSN  4 0.4 1.1LRSN                1
 GAP=146        0.92       4.8     6.7  9.1 -0.1004E+02  0.2140E+02  0.5812E+01E
 Epicentro: ZAPATOCA - SANTANDER                                               3
 ACTION:UPD 14-04-09 23:22 OP:nd   STATUS:               ID:20140331102159 L   I
 OLDACT:UP  14-03-31 21:47 OP:cam  STATUS:               ID:20140331101815d    3
 OLDACT:DUP 14-03-31 21:44 OP:cam  STATUS:               ID:20140331101815d    3
 2014-03-31-1018-14M.COL___237                                                 6
 STAT SP IPHASW D HRMM SECON CODA AMPLIT PERI AZIMU VELO AIN AR TRES W  DIS CAZ7
 PAM  SZ EP       1022 22.42                             152    0.3010 77.0  43 
 PAM  SN ES       1022 39.77                             152   -0.0510 77.0  43 
 PAM  SZ I        1022 41.66         1.9 0.20            158           77.0  43 
 RUS  HZ EP   1   1022 23.90                             144   -0.02 7  105 174 
 RUS  HN ES       1022 42.72                             144   -0.3010  105 174 
 PTB  HZ EP       1022 26.60                             133    0.07 9  145 257 
 PTB  HN ES   1   1022 47.57                             133   -0.10 7  145 257 
 PTB  HZ I        1022 55.13         1.8 0.34            133            145 257 
 CHI  HZ EP       1022 36.92                             118   -0.75 8  251 194 
 CHI  HN ES       1023  8.30                             118    0.81 8  251 194 
 CHI  HZ I        1023 12.28         1.0 0.62            121            251 194 
                                                                                
