 2011  831 1737 44.0 L   6.783 -73.053149.6  RSN 10 0.3 2.5LRSN                1
 GAP=189        0.53       2.6     4.8  4.2 -0.8798E+00  0.5620E+01 -0.1977E+00E
 Epicentro: LOS SANTOS - SANTANDER                                             3
 ACTION:UPD 12-07-13 15:54 OP:ep   STATUS:               ID:20110831173744 L   I
 2011-08-31-1735-03S.COL___165                                                 6
 STAT SP IPHASW D HRMM SECON CODA AMPLIT PERI AZIMU VELO AIN AR TRES W  DIS CAZ7
 BAR2 SZ EP       1738  4.24                             170    0.0610 25.5 214 
 BAR2 SZ ES   1   1738 19.48                             170   -0.41 7 25.5 214 
 BAR2 SZ I        1738 22.07        70.0 0.44                          25.5 214 
 BRR  HZ EP       1738  6.17                             150   -0.0210 81.1 296 
 BRR  HZ I        1738  6.57        67.8 0.12                          81.1 296 
 BRR  HE ES   1   1738 23.56                             150    0.10 7 81.1 296 
 RUS  HZ EP   1   1738  8.13                             145    0.10 7 98.5 182 
 RUS  HE ES   1   1738 26.85                             145    0.11 7 98.5 182 
 RUS  HZ I        1738 28.02        30.5 0.58                          98.5 182 
 OCA  SZ EP   1   1738 12.84                             130   -0.13 7  164 350 
 OCA  SZ ES   1   1738 36.04                             130    0.50 7  164 350 
 OCA  SZ I        1738 41.07        46.1 0.34                           164 350 
 ZAR  HZ EP   1   1738 17.12                             122   -0.67 6  214 292 
 ZAR  HZ I        1738 49.59        32.5 0.42                           214 292 
 NOR  SZ EP   1   1738 21.00                             118    0.22 6  242 236 
 NOR  SN ES   1   1738 49.27                             118   -0.17 6  242 236 
 ROSC BZ EP   2   1738 23.04                             117    0.25 4  257 213 
 ROSC BZ I        1739  0.61        42.0 0.47                           257 213 
 HEL  HZ EP   1   1738 25.81                             115    0.31 6  282 257 
 HEL  HZ I        1739  2.45        11.6 0.37                           282 257 
 COD  HZ EP   2   1738 32.13                             109   -0.79 3  351 353 
 PRA  HZ EP   1   1738 38.24                             107    0.13 4  396 211 
 PRA  HN ES   2   1739 20.37                             107    0.09 3  396 211 
                                                                                
