 2013  531 1523 12.9 L   6.798 -73.144146.7  RSN  7 0.5 2.3LRSN                1
 GAP=183        1.36       5.6     7.5  8.8 -0.2558E+01  0.1652E+02  0.7620E+01E
 Epicentro: LOS SANTOS - SANTANDER                                             3
 ACTION:UPD 13-06-20 09:55 OP:ep   STATUS:               ID:20130531152312 L   I
 2013-05-31-1518-50M.COL___217                                                 6
 STAT SP IPHASW D HRMM SECON CODA AMPLIT PERI AZIMU VELO AIN AR TRES W  DIS CAZ7
 BAR2 SZ EP       1523 32.82                             171    0.1410 23.1 191 
 BAR2 SZ ES       1523 47.96                             171   -0.1110 23.1 191 
 BAR2 SZ I        1523 48.94        23.9 0.24            170           23.1 191 
 GIR2 SZ EP       1523 33.00                             167    0.2710 31.5 350 
 GIR2 SZ ES       1523 47.83                             167   -0.3310 31.5 350 
 BRR  HZ IP     C 1523 34.60                             153    0.4010 71.5 299 
 BRR  HE ES       1523 52.01                             153    1.2310 71.5 299 
 BRR  HN I        1523 57.42        21.8 0.14            149           71.5 299 
 RUS  HZ EP       1523 36.73                             144   -0.0310  100 176 
 RUS  HN ES       1523 55.11                             144   -0.2310  100 176 
 RUS  HE I        1523 56.43        19.9 0.46            148            100 176 
 PTB  HZ EP       1523 39.48                             132   -0.51 9  148 259 
 PTB  HN ES       1524  0.18                             132   -0.91 9  148 259 
 PTB  HE I        1524  6.39        29.6 0.40            131            148 259 
 OCA  HE ES       1524  2.88                             130   -0.62 9  161 353 
 OCA  HN I        1524  8.17        65.0 0.22            130            161 353 
 NOR  HZ EP       1523 49.13                             119    0.41 8  235 235 
 NOR  HN ES       1524 16.87                             119    0.24 8  235 235 
 NOR  HE I        1524 20.79        11.9 0.34            120            235 235 
                                                                                
