 2016  831 1003 25.3 L   6.739 -73.131153.4  RSN  5 0.2 1.2LRSN                1
 GAP=234        0.57       3.5     4.1  4.5  0.1963E+01  0.4092E+01  0.3470E+00E
 Epicentro: LOS SANTOS - SANTANDER                                             3
 ACTION:UPD 16-10-29 15:40 OP:rebc STATUS:               ID:20160831100325 L   I
 OLDACT:REG 16-08-31 19:28 OP:edw  STATUS:               ID:20160831095736     3
 2016-08-31-0958-00M.COL___349                                                 6
 STAT SP IPHASW D HRMM SECON CODA AMPLIT PERI AZIMU VELO AIN AR TRES W  DIS CAZ7
 BAR2 EZ EP       10 3 45.62                             173   -0.1710 17.2 199 
 BAR2 EZ ES       10 4  1.87                             173    0.1410 17.2 199 
 BAR2 EZ I        10 4  1.88         3.5 0.28                          17.2 199 
 BRR  HZ EP       10 3 47.62                             152    0.0410 76.0 302 
 BRR  HN ES       10 4  4.93                             152   -0.0010 76.0 302 
 RUS  HN ES       10 4  8.07                             147   -0.0810 93.8 177 
 PTB  HZ EP       10 3 53.36                             134    0.38 9  148 261 
 PTB  HE ES       10 4 14.23                             134   -0.30 9  148 261 
 PTB  HZ I        10 4 14.64         1.2 0.15                           148 261 
 SPBC HZ EP       10 3 53.82                             131   -0.24 9  159 221 
 SPBC HN ES       10 4 16.69                             131    0.24 9  159 221 
 SPBC HZ I        10 4 19.21         3.1 0.26                           159 221 
                                                                                
