 2010  731 1328 20.0 L   6.785 -73.059146.1  RSN  7 0.2 1.9LRSN                1
 GAP=169        0.46       2.6     6.5  5.1 -0.4264E+01 -0.2407E+01 -0.2114E+00E
 Epicentro: LOS SANTOS - SANTANDER                                             3
 ACTION:UPD 10-12-01 15:21 OP:pat  STATUS:               ID:20100731132820 L   I
 2010-07-31-1325-34S.COL___123                                                 6
 STAT SP IPHASW D HRMM SECON CODA AMPLIT PERI AZIMU VELO AIN AR TRES W  DIS CAZ7
 BAR2 SZ IP     D 1328 39.62                             170    -0.110   25 213 
 BAR2 SZ ES   2   1328 54.85                             170    -0.2 5   25 213 
 BAR2 SZ I        1328 56.20        14.8 0.06                            25 213 
 BRR  HZ EP   1   1328 41.47                             150    -0.3 7   81 296 
 BRR  HN ES   2   1328 58.77                             150     0.1 5   81 296 
 BRR  HZ I        1329  2.47        16.5 0.42                            81 296 
 RUS  HZ EP   1   1328 43.55                             144    -0.1 7   99 182 
 RUS  HN ES   2   1329  2.57                             144     0.5 5   99 182 
 RUS  HZ I        1329  3.76         5.6 0.44                            99 182 
 GUE  SZ EP   1   1328 44.55                             139    -0.2 7  117   7 
 GRA  SZ EP   1   1328 45.27                             137     0.1 7  125  13 
 GRA  SZ ES   2   1329  5.08                             137     0.2 5  125  13 
 GRA  SZ I        1329  5.85        12.5 0.22                           125  13 
 OCA  SZ EP   1   1328 48.79                             129     0.2 7  163 350 
 OCA  SZ ES   2   1329 11.20                             129     0.3 5  163 350 
 OCA  SZ I        1329 14.93        14.2 0.20                           163 350 
 PRA  HZ EP   1   1329 14.22                             106     0.3 4  395 211 
 PRA  HN ES   2   1329 56.21                             106     0.2 3  395 211 
 PRA  HZ I        1330  1.30         3.5 0.69                           395 211 
                                                                                
