 2017 1231 1509 39.6 L   6.495 -73.465 14.0  RSN  8 0.4 2.4LRSN                1
 GAP=145        0.84       3.5     2.7  5.5 -0.6302E+01  0.8676E+01 -0.1104E+02E
 Epicentro: SIMACOTA - SANTANDER                                               3
 ACTION:UPD 18-01-04 13:26 OP:rebc STATUS:               ID:20171231150939 L   I
 OLDACT:UP  17-12-31 23:25 OP:mg   STATUS:               ID:20171231150520     3
 OLDACT:REG 17-12-31 20:47 OP:mg   STATUS:               ID:20171231150520     3
 2017-12-31-1508-00M.COL___462                                                 6
 STAT SP IPHASW D HRMM SECON CODA AMPLIT PERI AZIMU VELO AIN AR TRES W  DIS CAZ7
 BAR2 EZ IP     C 15 9 46.18                             110    0.4910 33.1  71 
 BAR2 EZ ES   2   15 9 51.25                             110    0.78 5 33.1  71 
 BAR2 EZ I        15 9 52.05       718.0 0.18             47           33.1  71 
 PTB  HZ IP     D 15 9 56.93                              95    0.0610  110 273 
 PTB  HN ES       1510 10.63                              95    0.2610  110 273 
 PTB  HZ I        1510 11.27        84.3 0.16             47            110 273 
 SPBC HZ EP       15 9 57.58                              95   -0.1410  115 216 
 SPBC HN ES   1   1510 11.24                              95   -0.65 7  115 216 
 SPBC HZ I        1510 15.81       147.8 0.24             47            115 216 
 PAM  EZ IP     D 15 9 59.67                              95   -0.1610  126  42 
 PAM  EN ES       1510 15.05                              95   -0.5910  126  42 
 PAM  EZ I        1510 16.28        72.5 0.20             47            126  42 
 ZAR  HZ EP       1510  7.94                              56    0.30 9  189 306 
 ZAR  HN ES       1510 29.19                              56   -0.35 9  189 306 
 ZAR  HZ I        1510 31.05        20.8 0.26             37            189 306 
 OCA  HZ EP   1   1510  8.50                              56    0.15 6  194   5 
 OCA  HN ES   2   1510 31.10                              56    0.30 4  194   5 
 OCA  HZ I        1510 40.54        65.2 0.26             37            194   5 
 GUY2CHZ EP   2   1510 16.79                              56    0.63 4  253 236 
 GUY2CHN ES   3   1510 45.39                              56    0.69 2  253 236 
 GUY2CHZ I        1510 48.17         9.1 0.52                           253 236 
 ORTC HN ES   4   1511  5.90                              55    1.31 0  347 215 
 ORTC HZ I        1511 19.23         5.4 0.25             36            347 215 
                                                                                
