 2016 1031 1546 50.5 L   6.623 -72.839  4.0  RSN  9 0.5 2.1LRSN                1
 GAP=187        0.83       2.0     3.4  5.1 -0.2729E+01  0.7330E+01 -0.1616E+01E
 Epicentro: MOLAGAVITA - SANTANDER                                             3
 ACTION:UPD 16-11-09 19:24 OP:rebc STATUS:               ID:20161031154650 L   I
 OLDACT:DUP 16-11-01 00:53 OP:cog  STATUS:               ID:20161031153743d    3
 2016-10-31-1538-00M.COL___325                                                 6
 STAT SP IPHASW D HRMM SECON CODA AMPLIT PERI AZIMU VELO AIN AR TRES W  DIS CAZ7
 BAR2 EZ IP   2 D 1546 56.32                              47   -0.74 5 38.1 265 
 BAR2 EZ ES   2   1547  1.20                              47   -1.01 5 38.1 265 
 PAM  EZ EP       1547  3.70                              47   -0.0910 80.8  11 
 PAM  EE ES       1547 14.23                              47    0.0410 80.8  11 
 PAM  EZ I        1547 14.98        28.9 0.18             47           80.8  11 
 RUS  HZ EP       1547  4.26                              47   -0.1910 85.1 198 
 RUS  HN ES   2   1547 14.33                              47   -1.04 5 85.1 198 
 RUS  HZ I        1547 15.73        32.1 0.18             47           85.1 198 
 BRR  HZ EP   2   1547  8.21                              47    0.45 5  110 299 
 BRR  HE ES       1547 21.09                              47   -0.1710  110 299 
 BRR  HZ I        1547 23.75        35.5 0.12             47            110 299 
 SPBC HZ EP       1547 18.03                              47    0.59 9  174 232 
 SPBC HN ES       1547 38.89                              47    0.39 9  174 232 
 SPBC HZ I        1547 45.81        38.1 0.20             47            174 232 
 PTB  HZ EP   3   1547 18.80                              37    0.69 2  179 267 
 PTB  HE ES   3   1547 40.08                              37    0.40 2  179 267 
 PTB  HZ I        1547 41.69        60.6 0.20             37            179 267 
 CHI  HZ EP       1547 26.18                              37   -0.22 8  242 204 
 CHI  HN ES       1547 54.46                              37    0.02 8  242 204 
 NOR  HZ EP   3   1547 29.24                              37    1.80 2  253 243 
 NOR  HN ES       1547 56.65                              37    0.35 8  253 243 
 NOR  HZ I        1548  1.01        11.0 0.28             37            253 243 
 GUY2CHZ EP   4   1547 38.90                              36    2.71 0  320 241 
 GUY2CHE ES   4   1548 14.86                              36    3.00 0  320 241 
 GUY2CHZ I        1548 20.02         6.0 0.30                           320 241 
                                                                                
