 2016 1231 1934 40.7 L   6.801 -73.200132.5  RSN  7 0.3 1.3LRSN                1
 GAP=232        0.83       6.2     6.1  5.5  0.2133E+02  0.6936E+01  0.3266E+01E
 Epicentro: ZAPATOCA - SANTANDER                                               3
 ACTION:UPD 17-01-11 20:21 OP:rebc STATUS:               ID:20161231193440 L   I
 OLDACT:UP  16-12-31 23:51 OP:edw  STATUS:               ID:20161231192747     3
 OLDACT:UP  16-12-31 23:51 OP:edw  STATUS:               ID:20161231192747     3
 OLDACT:REG 16-12-31 20:59 OP:lv   STATUS:               ID:20161231192747     3
 2016-12-31-1928-00M.COL___376                                                 6
 STAT SP IPHASW D HRMM SECON CODA AMPLIT PERI AZIMU VELO AIN AR TRES W  DIS CAZ7
 BAR2 EZ EP       1934 58.97                             170    0.2710 23.2 175 
 BAR2 EZ ES       1935 12.80                             170    0.0410 23.2 175 
 BAR2 EZ I        1935 14.85         3.8 0.15            174           23.2 175 
 BRR  HZ EP       1934 59.61                             152   -0.4710 65.9 301 
 BRR  HN ES       1935 15.24                             152    0.0210 65.9 301 
 BRR  HZ I        1935 22.97         4.7 0.18            149           65.9 301 
 RUS  HZ EP   2   1935  2.71                             141   -0.48 5  101 173 
 RUS  HN ES   2   1935 20.26                             141   -0.50 5  101 173 
 RUS  HZ I        1935 21.20         1.6 0.52            147            101 173 
 PTB  HZ EP   9   1935  4.70                             130   -1.33 0  142 258 
 PTB  HE ES       1935 23.71                                   -0.77 9  142 258 
 PTB  HZ I        1935 27.89         2.5 0.16            131            142 258 
 ZAR  HZ EP       1935 11.89                             120    0.21 9  198 293 
 ZAR  HN ES       1935 35.97                             120    0.09 9  198 293 
 ZAR  HZ I        1935 42.61         4.8 0.28            121            198 293 
 CHI  HN ES   2   1935 46.46                             114    0.21 4  247 194 
 GUY2CHZ EP       1935 23.40                             110    0.26 7  296 234 
 GUY2CHN ES   4   1935 56.39                             110    0.12 0  296 234 
 GUY2CHZ I        1936  4.17         0.9 0.34                           296 234 
                                                                                
