 2011  531 1359  8.1 L   6.779 -73.067146.0  RSN 12 0.4 2.5LRSN                1
 GAP=148        0.97       4.1     7.9  6.8 -0.1327E+02  0.1588E+02  0.3493E+01E
 Epicentro: LOS SANTOS - SANTANDER                                             3
 ACTION:UP  11-06-29 08:57 OP:tino STATUS:               ID:20110531135908 L   I
 2011-05-31-1357-34S.COL___113                                                 6
 STAT SP IPHASW D HRMM SECON CODA AMPLIT PERI AZIMU VELO SNR AR TRES W  DIS CAZ7
 BAR2 SZ IP       1359 27.69                             170    -0.110   24 212 
 BAR2 SZ I        1359 28.06       112.3 0.10                            24 212 
 BAR2 SZ ES   1   1359 42.63                             170    -0.5 7   24 212 
 PAM  SZ EP   1   1359 30.36                             152     0.2 7   74  33 
 PAM  SN ES   1   1359 47.93                             152     0.6 7   74  33 
 PAM  SZ I        1359 50.32        22.1 0.32                            74  33 
 BRR  HZ EP   1   1359 29.54                             150    -0.2 7   80 297 
 BRR  HN ES   1   1359 47.06                             150     0.4 7   80 297 
 BRR  HZ I        1359 49.47        89.1 0.11                            80 297 
 RUS  HZ EP   1   1359 31.51                             145    -0.2 7   98 181 
 RUS  HN ES   1   1359 50.05                             145     0.0 7   98 181 
 RUS  HZ I        1359 51.77        24.8 0.35                            98 181 
 BRI  SZ EP   1   1359 32.10                             142     0.1 7  108  16 
 BRI  SZ ES   1   1359 50.24                             142    -0.3 7  108  16 
 BRI  SZ I        1359 53.93        39.8 0.20                           108  16 
 GRA  SZ EP   1   1359 33.48                             137     0.1 7  126  13 
 GRA  SZ ES   1   1359 53.50                             137     0.5 7  126  13 
 GRA  SZ I        1359 54.36        61.5 0.52                           126  13 
 OCA  SZ EP   1   1359 35.79                             129    -1.0 7  164 350 
 OCA  SZ ES   1   1359 58.87                             129    -0.2 7  164 350 
 OCA  SZ I        14 0  3.04        40.6 0.18                           164 350 
 NOR  SZ EP   1   1359 43.92                             118    -0.5 6  241 236 
 NOR  SZ I        14 0 19.20         4.7 0.19                           241 236 
 ROSC BZ EP   1   1359 47.04                             116     0.5 6  255 213 
 HEL  HZ EP   1   1359 49.96                             114     0.8 6  280 257 
 HEL  HZ I        14 0 26.85        11.4 0.29                           280 257 
 TOL  SZ EP   1   1359 57.65                             109     0.8 5  348 226 
 PRA  HZ EP   1   14 0  1.70                             106    -0.2 4  394 211 
 PRA  HZ I        14 0  3.43        54.2 0.22                           394 211 
 PRA  HN ES   1   14 0 43.87                             106     0.0 4  394 211 
                                                                                
