 2017  331 1945 21.0 L   6.802 -73.031137.1  RSN  4 0.3 1.2LRSN                1
 GAP=152        0.76       4.2     6.2  7.5 -0.2959E+01 -0.8206E+01 -0.2072E+00E
 Epicentro: CEPITA - SANTANDER                                                 3
 ACTION:UPD 17-05-25 18:47 OP:jn   STATUS:               ID:20170331194521 L   I
 OLDACT:REG 17-03-31 21:32 OP:dnl  STATUS:               ID:20170331193743     3
 2017-03-31-1938-00M.COL___350                                                 6
 STAT SP IPHASW D HRMM SECON CODA AMPLIT PERI AZIMU VELO AIN AR TRES W  DIS CAZ7
 BAR2 EZ EP       1945 39.32                             168   -0.3810 28.6 216 
 BAR2 EZ ES       1945 54.69                             168    0.4010 28.6 216 
 BAR2 EZ I        1945 55.85         6.6 0.16            171           28.6 216 
 PAM  EZ EP       1945 42.19                             152    0.3610 69.8  32 
 PAM  EE ES       1945 57.86                             152   -0.2210 69.8  32 
 PAM  EZ I        1946  1.35         3.6 0.58            152           69.8  32 
 BRR  HZ EP   2   1945 42.49                             147    0.58 5 82.5 294 
 BRR  HE ES       1945 58.05                             147   -0.1910 82.5 294 
 RUS  HZ EP   2   1945 43.69                             142   -0.21 5  101 183 
 RUS  HN ES       1946  1.71                             142   -0.0710  101 183 
 RUS  HZ I        1946  2.88         1.3 0.20            145            101 183 
                                                                                
