 2015  831 1810 56.0 L   6.793 -73.176135.7  RSN 11 0.5 2.0LRSN                1
 GAP=133        1.24       3.1     5.1  6.8 -0.1879E+01  0.1335E+02  0.1718E+01E
 Epicentro: LOS SANTOS - SANTANDER                                             3
 ACTION:UPD 15-09-15 23:06 OP:cam  STATUS:               ID:20150831181056 L   I
 OLDACT:REG 15-08-31 22:08 OP:ak   STATUS:               ID:20150831180750     3
 2015-08-31-1807-50M.COL___352                                                 6
 STAT SP IPHASW D HRMM SECON CODA AMPLIT PERI AZIMU VELO AIN AR TRES W  DIS CAZ7
 BAR2 EZ EP       1811 14.28                             170   -0.0710 22.2 182 
 BAR2 EZ ES       1811 28.88                             170    0.1910 22.2 182 
 BAR2 EZ I        1811 30.01        17.5 0.32            170           22.2 182 
 BRR  HZ EP       1811 16.24                             152    0.3710 68.7 300 
 BRR  HN ES       1811 32.19                             152    0.7910 68.7 300 
 BRR  HZ I        1811 37.23        17.7 0.12            149           68.7 300 
 PAM  EZ EP       1811 17.29                             148    0.0110 80.1  41 
 PAM  EN ES       1811 34.28                             148    0.3710 80.1  41 
 PAM  EZ I        1811 37.14        12.1 0.48            153           80.1  41 
 RUS  HZ EP       1811 18.60                             142   -0.0910  100 174 
 RUS  HN ES       1811 35.67                             142   -0.7510  100 174 
 RUS  HZ I        1811 37.23        12.6 0.44            146            100 174 
 OCA  HZ EP       1811 24.19                             127    0.65 9  161 354 
 OCA  HN ES       1811 44.10                             127   -0.95 9  161 354 
 OCA  HZ I        1811 49.73        26.7 0.22            129            161 354 
 ZAR  HZ EP       1811 28.25                             120    0.78 9  201 293 
 ZAR  HN ES       1811 51.76                             120   -0.29 9  201 293 
 ZAR  HZ I        1811 59.68        10.1 0.39            121            201 293 
 NOR  HZ EP       1811 31.19                             117    0.41 8  232 234 
 NOR  HN ES       1811 57.31                             117   -0.63 8  232 234 
 NOR  HZ I        1812  5.67         5.6 0.18            118            232 234 
 SML  HZ EP   1   1811 31.23                             115   -0.73 6  243 336 
 SML  HN ES       1811 59.09                             115   -0.95 8  243 336 
 SML  HZ I        1812  2.51        14.7 0.28            117            243 336 
 CHI  HZ EP       1811 32.70                             115   -0.24 8  247 194 
 CHI  HN ES       1812  1.67                             115   -0.12 8  247 194 
 GUY2CHZ EP   1   1811 38.91                             111    0.15 5  298 235 
 GUY2CHN ES       1812 11.97                             111   -0.17 7  298 235 
 GUY2CHZ I        1812 19.35         4.1 0.56                           298 235 
 TOL  SZ EP   1   1811 44.03                             108    0.54 5  341 224 
 TOL  SN ES       1812 21.03                             108    0.46 7  341 224 
 TOL  SZ I        1812 26.92         2.7 0.30            110            341 224 
                                                                                
