 2015  331 1649 44.7 L   6.806 -73.137145.5  RSN  4 0.4 1.4LRSN                1
 GAP=153        0.97      11.0     6.2  8.6 -0.3784E+02 -0.1224E+01  0.2360E+02E
 Epicentro: LOS SANTOS - SANTANDER                                             3
 ACTION:UPD 15-04-30 16:31 OP:nd   STATUS:               ID:20150331164944 L   I
 OLDACT:REG 15-03-31 22:20 OP:fm   STATUS:               ID:20150331164749     3
 2015-03-31-1647-49M.COL___276                                                 6
 STAT SP IPHASW D HRMM SECON CODA AMPLIT PERI AZIMU VELO AIN AR TRES W  DIS CAZ7
 BAR2 EZ EP       1650  4.73                             170    0.4510 24.1 192 
 BAR2 EZ ES   1   1650 19.57                             170   -0.01 7 24.1 192 
 BAR2 EZ I        1650 21.16         6.2 0.20            174           24.1 192 
 BRR  HZ EP       1650  6.18                             152    0.3610 71.7 298 
 BRR  HN ES       1650 22.77                             152    0.4610 71.7 298 
 BRR  HZ I        1650 26.88         7.6 0.42            151           71.7 298 
 PAM  SZ EP       1650  6.70                             151   -0.0910 76.3  39 
 PAM  SN ES       1650 23.59                             151   -0.4610 76.3  39 
 PAM  SZ I        1650 26.29         2.4 0.22            152           76.3  39 
 PTB  HZ EP       1650 11.33                             132   -0.38 9  149 259 
 PTB  HN ES       1650 32.35                             132   -0.45 9  149 259 
 PTB  HZ I        1650 33.93         3.0 0.28            134            149 259 
                                                                                
