 2017  331 1305 34.2 L   6.609 -73.382131.4  RSN  4 0.3 1.7LRSN                1
 GAP=128        0.67       4.7     4.5  6.3  0.1073E+02  0.5703E+01  0.5119E+01E
 Epicentro: GALAN - SANTANDER                                                  3
 ACTION:UPD 17-05-25 18:47 OP:jn   STATUS:               ID:20170331130534 L   I
 OLDACT:REG 17-03-31 21:15 OP:dnl  STATUS:               ID:20170331124601     3
 2017-03-31-1258-00M.COL___353                                                 6
 STAT SP IPHASW D HRMM SECON CODA AMPLIT PERI AZIMU VELO AIN AR TRES W  DIS CAZ7
 BAR2 EZ EP   2   13 5 51.97                             170   -0.10 5 22.1  95 
 BAR2 EZ ES       13 6  5.53                             170   -0.4810 22.1  95 
 BAR2 EZ I        13 6  6.66        14.6 0.30            170           22.1  95 
 BRR  HZ EP       13 5 53.49                             151   -0.0110 66.1 326 
 BRR  HE ES       13 6  8.91                             151    0.3510 66.1 326 
 BRR  HZ I        13 6  9.97        10.7 0.16            151           66.1 326 
 RUS  HZ EP       13 5 55.56                             145    0.0910 85.8 157 
 RUS  HN ES       13 6 12.31                             145    0.2510 85.8 157 
 PTB  HZ EP   2   13 5 57.05                             135   -0.37 5  119 266 
 PTB  HN ES       13 6 15.44                             135   -0.0910  119 266 
                                                                                
