 2017  831 1311 59.5 L   6.827 -73.112148.7  RSN 12 0.5 2.1LRSN                1
 GAP=114        1.09       3.3     4.5  5.7  0.3013E+01  0.2270E+01 -0.1128E+01E
 Epicentro: LOS SANTOS - SANTANDER                                             3
 ACTION:UPD 17-09-04 20:26 OP:rebc STATUS:               ID:20170831131159 L   I
 OLDACT:UP  17-08-31 22:30 OP:dani STATUS:               ID:20170831130732     3
 OLDACT:REG 17-08-31 19:59 OP:dani STATUS:               ID:20170831130732     3
 2017-08-31-1308-00M.COL___404                                                 6
 STAT SP IPHASW D HRMM SECON CODA AMPLIT PERI AZIMU VELO AIN AR TRES W  DIS CAZ7
 BAR2 EZ EP     D 1312 19.51                             169   -0.0210 27.1 197 
 BAR2 EZ ES       1312 34.69                             169   -0.4910 27.1 197 
 BAR2 EZ I        1312 36.16        42.2 0.16            166           27.1 197 
 PAM  EZ EP       1312 22.46                             153    0.7310 72.7  39 
 BRR  HZ EP     C 1312 21.31                             152    0.2610 73.2 295 
 BRR  HN ES       1312 38.46                             152    0.5910 73.2 295 
 BRR  HZ I        1312 42.39        23.9 0.36            150           73.2 295 
 RUS  HZ EP       1312 23.91                             144    0.2010  103 178 
 RUS  HN ES       1312 42.52                             144   -0.0910  103 178 
 RUS  HZ I        1312 43.13         8.8 0.28            143            103 178 
 SPBC HZ EP       1312 28.77                             129    0.14 9  168 219 
 SPBC HN ES       1312 51.43                             129    0.05 9  168 219 
 YPLC HZ EP     D 1312 29.92                             127    0.36 9  178 153 
 YPLC HN ES       1312 52.34                             127   -0.69 9  178 153 
 YPLC HZ I        1312 57.66         9.0 0.34            129            178 153 
 ZAR  HZ EP       1312 32.91                             123    0.56 8  206 291 
 ZAR  HN ES       1312 57.55                             123   -0.45 8  206 291 
 ZAR  HZ I        1313  4.49        12.0 0.40            122            206 291 
 NOR  HZ EP       1312 35.61                             119   -0.27 8  239 234 
 NOR  HN ES       1313  4.22                             119   -0.06 8  239 234 
 NOR  HZ I        1313 13.06         7.1 0.44            118            239 234 
 CHI  HZ EP       1312 38.05                             117    0.30 8  253 196 
 CHI  HN ES       1313  7.11                             117   -0.50 8  253 196 
 CHI  HZ I        1313 10.49         9.8 0.60            118            253 196 
 LL6C HZ EP       1312 44.15                             111   -0.83 7  322 357 
 PRA  HZ EP       1312 54.01                             107    0.40 6  396 210 
 PRA  HN ES       1313 36.03                             107    0.19 6  396 210 
 PRA  HZ I        1313 41.78         8.4 0.30            107            396 210 
 SJC  HZ EP       1312 53.70                             106   -1.38 6  409 326 
 SJC  HE ES       1313 37.85                             106   -0.60 6  409 326 
                                                                                
