 2012 1031 1141 30.6 L   6.793 -73.106141.1  RSN  6 0.3 2.0LRSN                1
 GAP=187        0.55       4.1     7.1  5.9  0.1593E+02  0.1958E+01 -0.1199E+01E
 Epicentro: LOS SANTOS - SANTANDER                                             3
 ACTION:UPD 12-11-22 17:06 OP:ep   STATUS:               ID:20121031114130 L   I
 2012-10-31-1140-00M.COL___231                                                 6
 STAT SP IPHASW D HRMM SECON CODA AMPLIT PERI AZIMU VELO AIN AR TRES W  DIS CAZ7
 BAR2 SZ EP       1141 49.67                             170    0.0110 23.8 201 
 BAR2 SZ ES   1   1142  4.34                             170   -0.21 7 23.8 201 
 BAR2 SZ I        1142  5.55        20.3 0.26                          23.8 201 
 BRR  HZ EP       1141 51.53                             150    0.0510 75.4 297 
 BRR  HE ES   1   1142  8.24                             150    0.46 7 75.4 297 
 BRR  HE I        1142  8.87        42.3 0.32                          75.4 297 
 RUS  HZ EP   1   1141 53.79                             143   -0.02 7 99.6 179 
 RUS  HN ES   1   1142 11.90                             143   -0.03 7 99.6 179 
 RUS  HN I        1142 13.73         6.5 0.26                          99.6 179 
 OCA  HN ES   2   1142 20.17                             128   -0.40 5  162 352 
 ZAR  HZ EP   2   1142  3.62                             121    0.44 4  208 292 
 ZAR  HN ES   2   1142 27.67                             121   -0.94 4  208 292 
 ZAR  HN I        1142 34.93        12.2 0.36                           208 292 
 CHI  HN ES   2   1142 37.35                             116    0.03 4  249 196 
 CHI  HN I        1142 40.10         7.1 0.36                           249 196 
                                                                                
