 2013  131 1158 14.6 L   6.798 -73.052148.3  RSN  5 0.4 1.5LRSN                1
 GAP=247        0.72       9.2    15.7  6.9  0.1061E+03  0.1408E+02  0.1573E+02E
 Epicentro: LOS SANTOS - SANTANDER                                             3
 ACTION:UPD 13-02-15 09:18 OP:ep   STATUS:               ID:20130131115814 L   I
 2013-01-31-1148-50M.COL___185                                                 6
 STAT SP IPHASW D HRMM SECON CODA AMPLIT PERI AZIMU VELO AIN AR TRES W  DIS CAZ7
 BAR2 SZ EP   1   1158 34.84                             169    0.2310 27.0 212 
 BAR2 SZ I        1158 34.84         6.8 0.42            167           27.0 212 
 BAR2 SZ ES   1   1158 50.55                             169    0.3310 27.0 212 
 BRR  HZ EP   1   1158 36.74                             150    0.1710 80.6 295 
 BRR  HN ES   1   1158 53.45                             150   -0.2610 80.6 295 
 RUS  HZ EP   1   1158 37.83                             144   -0.7510  100 182 
 RUS  HN ES   1   1158 57.19                             144   -0.0810  100 182 
 RUS  HN I        1158 59.11         4.2 0.32            143            100 182 
 PTB  HZ EP   2   1158 42.57                             130   -0.14 6  158 260 
 CHI  HZ EP       1158 53.12                             117    0.3810  251 197 
                                                                                
