 2014 1031 1124 40.3 L   6.791 -73.126147.7  RSN 10 0.5 2.7LRSN                1
 GAP=139        1.16       3.9     5.6  6.4 -0.7884E+01  0.5709E+01  0.2616E+01E
 Epicentro: LOS SANTOS - SANTANDER                                             3
 ACTION:UPD 14-11-29 23:58 OP:nd   STATUS:               ID:20141031112440 L   I
 OLDACT:REG 14-10-31 20:33 OP:spq  STATUS:               ID:20141031111747     3
 2014-10-31-1117-47M.COL___263                                                 6
 STAT SP IPHASW D HRMM SECON CODA AMPLIT PERI AZIMU VELO AIN AR TRES W  DIS CAZ7
 BAR2 SZ EP     C 1125  0.40                             171    0.2510 22.9 196 
 BAR2 SZ ES       1125 14.81                             171   -0.8210 22.9 196 
 BRR  HZ EP       1125  1.94                             152    0.1510 73.6 298 
 BRR  HN ES       1125 19.52                             152    0.9710 73.6 298 
 PAM  SZ EP       1125  3.10                             151    0.4210 76.8  38 
 PAM  SN ES       1125 20.24                             151    0.1010 76.8  38 
 RUS  HZ EP       1125  3.88                             145   -0.2810 99.5 177 
 RUS  HE ES       1125 22.95                             145    0.1810 99.5 177 
 PTB  HZ EP       1125  7.23                             132   -0.37 9  150 259 
 PTB  HN ES       1125 28.53                             132   -0.36 9  150 259 
 OCA  HZ EP       1125  8.87                             130   -0.01 9  161 352 
 OCA  HN ES       1125 30.48                             130   -0.68 9  161 352 
 SPBC HZ EP       1125  9.17                             129    0.16 9  164 220 
 SPBC HN ES       1125 31.65                             129    0.26 9  164 220 
 SPBC HZ I        1125 38.41        32.8 0.44            127            164 220 
 RREF HZ EP   9   1125 24.29                             111   -2.35 0  323 230 
 RREF HN ES       1126  0.83                                    0.40 7  323 230 
 TOL  SZ EP       1125 29.56                             110    0.83 7  344 225 
 TOL  SN ES       1126  6.06                             110   -0.45 7  344 225 
 TOL  SZ I        1126 14.79        47.9 0.87            109            344 225 
 PRA  HZ EP       1125 33.02                             107   -0.90 6  392 210 
 PRA  HN ES   1   1126 16.00                             107    0.26 4  392 210 
 PRA  HZ I        1126 21.72        10.6 0.58            106            392 210 
                                                                                
