 2016  331 1156 46.4 L   6.799 -73.161142.0  RSN  8 0.5 1.6LRSN                1
 GAP=135        1.11       4.3     4.7  7.4 -0.2687E+01  0.1213E+02  0.4276E+01E
 Epicentro: LOS SANTOS - SANTANDER                                             3
 ACTION:UPD 16-05-13 21:29 OP:cam  STATUS:               ID:20160331115646 L   I
 OLDACT:REG 16-03-31 20:32 OP:ak   STATUS:               ID:20160331114745     3
 2016-03-31-1147-45M.COL___295                                                 6
 STAT SP IPHASW D HRMM SECON CODA AMPLIT PERI AZIMU VELO AIN AR TRES W  DIS CAZ7
 BAR2 EZ EP   1   1157  5.56                             170   -0.02 7 23.0 186 
 BAR2 EZ ES       1157 20.15                             170   -0.3910 23.0 186 
 BAR2 EZ I        1157 22.05         7.6 0.36            169           23.0 186 
 PAM  EZ EP       1157  8.51                             150    0.2110 78.5  40 
 PAM  EN ES       1157 25.60                             150    0.2310 78.5  40 
 PAM  EZ I        1157 27.68        10.6 0.50            155           78.5  40 
 RUS  HZ EP       1157  9.57                             143   -0.2310  101 175 
 RUS  HE ES       1157 28.31                             143    0.2710  101 175 
 RUS  HZ I        1157 30.16         2.4 0.28            146            101 175 
 PTB  HZ EP       1157 12.05                             132   -0.87 9  146 259 
 PTB  HN ES       1157 33.07                             132   -0.53 9  146 259 
 PTB  HZ I        1157 38.34         4.7 0.26            132            146 259 
 SPBC HZ EP   2   1157 14.11                             128   -0.41 5  162 219 
 SPBC HE ES       1157 37.20                             128    0.76 9  162 219 
 SPBC HZ I        1157 44.07         4.9 0.23            130            162 219 
 ZAR  HZ EP   2   1157 18.99                             122    0.53 4  203 292 
 ZAR  HN ES       1157 43.92                             122    0.47 9  203 292 
 ZAR  HZ I        1157 50.26         6.7 0.36            123            203 292 
 CHI  HZ EP       1157 23.23                             116   -0.62 8  248 195 
 CHI  HN ES       1157 53.12                             116    0.07 8  248 195 
 CHI  HZ I        1157 56.56         2.5 0.50            119            248 195 
 GUY2CHZ EP       1157 30.59                             112    0.90 7  300 235 
 GUY2CHE ES       1158  3.53                             112    0.09 7  300 235 
 GUY2CHZ I        1158  9.65         1.8 0.30                           300 235 
                                                                                
