 2016  831 1616 12.0 L   6.811 -73.117151.1  RSN 31 0.5 3.6LRSN                1
 GAP= 68        0.98       2.4     3.2  4.3 -0.8544E+00  0.2937E+01  0.1706E+01E
 Epicentro: LOS SANTOS - SANTANDER                                             3
 ACTION:UPD 16-10-29 15:41 OP:rebc STATUS:               ID:20160831161612 L   I
 OLDACT:UP  16-08-31 23:39 OP:dani STATUS:               ID:20160831160633     3
 OLDACT:UP  16-08-31 23:39 OP:dani STATUS:               ID:20160831160633     3
 OLDACT:UP  16-08-31 23:38 OP:dani STATUS:               ID:20160831160633     3
 OLDACT:UP  16-08-31 23:38 OP:dani STATUS:               ID:20160831160633     3
 OLDACT:REG 16-08-31 20:25 OP:edw  STATUS:               ID:20160831160633     3
 2016-08-31-1608-00M.COL___352                                                 6
 STAT SP IPHASW D HRMM SECON CODA AMPLIT PERI AZIMU VELO AIN AR TRES W  DIS CAZ7
 BAR2 EZ IP     D 1616 32.38                             170    0.0610 25.3 197 
 BAR2 HE ES       1616 47.78                             170   -0.3810 25.3 197 
 BAR2 EZ I        1616 48.57      1152.6 0.22                          25.3 197 
 BRR  HZ IP     D 1616 34.19                             153    0.3210 73.5 296 
 BRR  HN ES       1616 51.44                             153    0.5310 73.5 296 
 BRR  HZ I        1616 54.50       837.8 0.28                          73.5 296 
 PAM  EZ EP     D 1616 35.21                             152    0.5810 74.4  38 
 PAM  EN ES       1616 52.28                             152    0.0210 74.4  38 
 PAM  EZ I        1616 54.64      1651.1 0.52                          74.4  38 
 RUS  HZ IP     D 1616 36.31                             144   -0.0610  102 178 
 RUS  HE ES       1616 55.08                             144   -0.2810  102 178 
 RUS  HZ I        1616 56.97       325.4 0.26                           102 178 
 PTB  HZ EP       1616 38.80                             132   -0.93 9  151 259 
 PTB  HN ES   4   1616 59.29                             132   -2.05 0  151 259 
 PTB  HZ I        1617  1.19       349.9 0.18                           151 259 
 TAM  HZ IP     D 1616 40.84                             132    0.97 9  152 106 
 OCA  HZ EP     C 1616 40.44                             131   -0.23 9  159 352 
 OCA  HN ES       1617  2.44                             131   -0.57 9  159 352 
 OCA  HZ I        1617 11.92       760.3 0.40                           159 352 
 SPBC HZ EP       1616 41.29                             130    0.08 9  166 220 
 SPBC HN ES       1617  3.63                             130   -0.35 9  166 220 
 SPBC HZ I        1617  5.99       744.0 0.34                           166 220 
 ZAR  HZ EP       1616 45.00                             123   -0.07 8  207 291 
 ZAR  HN ES       1617 10.89                             123    0.04 8  207 291 
 ZAR  HZ I        1617 16.51       509.7 0.26                           207 291 
 NOR  HZ EP       1616 48.20                             119   -0.22 8  238 235 
 NOR  HN ES       1617 16.96                             119    0.16 8  238 235 
 NOR  HZ I        1617 18.92       269.2 0.18                           238 235 
 CHI  HZ EP     C 1616 50.62                             118    0.38 8  251 196 
 CHI  HN ES       1617 19.54                             118   -0.51 8  251 196 
 CHI  HZ I        1617 23.46       285.0 0.40                           251 196 
 URE  HZ EP   4   1616 52.04                             114   -1.59 0  286 291 
 URE  HZ I        1617 37.50       303.2 0.32                           286 291 
 GUY2CHZ EP       1616 56.53                             113    0.28 7  305 235 
 GUY2CHE ES   4   1617 32.75                             113    2.00 0  305 235 
 GUY2CHZ I        1617 38.58       169.1 0.24                           305 235 
 VIL  EZ EP       1616 55.67                             113   -0.22 7  305 192 
 VIL  EE ES       1617 30.57                             113    0.45 7  305 192 
 VIL  EZ I        1617 35.89       351.8 0.38                           305 192 
 LL1C HE ES   4   1617 32.07                             113    2.17 0  306 351 
 PTGC HZ IP     D 1616 55.66                             112   -0.46 7  309 159 
 PTGC HE ES   4   1617 29.03                             112   -1.49 0  309 159 
 PTGC HZ I        1617 31.67       408.0 0.44                           309 159 
 ELA  HZ EP   4   1617  1.18                             111    1.71 0  332 230 
 ELA  HN ES       1617 37.30                             111    0.82 7  332 230 
 ELA  HZ I        1617 45.15       145.3 0.64                           332 230 
 CBOC HZ EP       1617  0.04                             110    0.49 7  337 252 
 CBOC HN ES       1617 36.16                             110   -0.46 7  337 252 
 CBOC HZ I        1617 47.51        45.6 0.40                           337 252 
 DBB  EZ EP       1616 59.73                             110   -0.34 7  343 274 
 DBB  HN ES   4   1617 35.62                             110   -1.93 0  343 274 
 DBB  EZ I        1617 40.08        97.7 0.64                           343 274 
 ARGC HZ EP   4   1617  2.88                             109    1.01 0  359 340 
 ARGC HE ES       1617 40.90                             109    0.15 6  359 340 
 ARGC HZ I        1617 49.49        63.9 0.22                           359 340 
 ANIL HZ EP   9   1617  3.67                             109    1.28 0  360 225 
 ANIL HN ES       1617 42.63                             109   -0.33 6  360 225 
 ANIL HZ I        1617 50.20       433.1 0.32                           360 225 
 PAL  HZ EP       1617  8.20                             106    0.44 6  409 239 
 PAL  HN ES       1617 51.97                             106    0.74 6  409 239 
 PAL  HZ I        1617 56.41        57.6 0.30                           409 239 
 SJC  HZ EP   4   1617  6.61                             106   -1.23 0  410 326 
 SJC  HN ES   4   1617 47.82                             106   -3.56 0  410 326 
 SJC  HZ I        1617 52.11        87.8 0.70                           410 326 
 LCBC HE ES   4   1617 55.33                             106    1.18 0  424 302 
 CRJC HZ EP   4   1617 12.68                             104   -1.82 0  466   3 
 CRJC HN ES   4   1618  0.49                             104   -2.74 0  466   3 
 CRJC HZ I        1618  3.61       107.3 0.16                           466   3 
 GUA  EZ EP       1617 15.06                             104   -0.36 5  475 173 
 GUA  EE ES   4   1618  3.66                             104   -1.22 0  475 173 
 GUA  EZ I        1618  8.59       109.1 0.32                           475 173 
 YOT  HZ EP       1617 14.90                             104   -0.70 5  475 229 
 SMAR HZ EP       1617 17.25                             103   -0.73 4  497 346 
 SMAR HN ES   4   1618  5.72                             103   -3.70 0  497 346 
 SMAR HZ I        1618 10.87        50.6 0.24                           497 346 
 CAP2 HZ EP   4   1617 18.34                             103   -1.27 0  510 294 
 CAP2 HZ I        1618 12.21        41.1 0.38                           510 294 
 MACC HZ EP   4   1617 19.44                             102   -1.63 0  522 189 
 MACC HZ I        1618 20.24        38.4 0.68                           522 189 
 GARC HZ EP       1617 26.91                             101   -0.79 3  575 207 
 GARC HZ I        1618 28.66        51.7 0.21                           575 207 
 FLO2 HZ EP       1617 34.88                              99   -0.67 2  643 206 
 FLO2 HZ I        1618 43.60         8.9 0.34                           643 206 
 BBAC HZ EP   4   1617 43.71                              98    1.02 0  700 221 
 BBAC HZ I        1618 57.91         7.5 0.36                           700 221 
                                                                                
