 2011  731 1839 31.6 L   6.786 -73.125145.7  RSN  5 0.2 1.5LRSN                1
 GAP=140        0.42       2.9     4.1  4.8 -0.1830E+01  0.1965E+01  0.5469E+01E
 Epicentro: LOS SANTOS - SANTANDER                                             3
 ACTION:UPD 12-07-25 14:04 OP:epov STATUS:               ID:20110731183931 L   I
 2011-07-31-1836-57S.COL___142                                                 6
 STAT SP IPHASW D HRMM SECON CODA AMPLIT PERI AZIMU VELO AIN AR TRES W  DIS CAZ7
 BAR2 SZ EP   1   1839 50.92                             171   -0.28 7 22.3 197 
 BAR2 SZ I        1840  7.83        11.5 0.21                          22.3 197 
 BRR  HZ EP   1   1839 53.03                             152    0.13 7 74.0 299 
 BRR  HE ES   1   1840  9.50                             152   -0.02 7 74.0 299 
 BRR  HZ I        1840 12.08        10.3 0.23                          74.0 299 
 PAM  SZ EP   1   1839 54.08                             151    0.28 7 77.2  37 
 PAM  SN ES       1840 11.03                             151   -0.0810 77.2  37 
 PAM  SZ I        1840 14.00         2.1 0.60                          77.2  37 
 RUS  HZ EP   1   1839 55.08                             144   -0.14 7 98.9 177 
 RUS  HN ES   1   1840 13.83                             144    0.18 7 98.9 177 
 RUS  HZ I        1840 15.11         4.3 0.24                          98.9 177 
 CHI  HZ EP   1   1840  9.19                             117   -0.01 6  248 196 
                                                                                
