 2011  731 1008 13.3 L   6.596 -73.192131.9  RSN  9 0.3 1.8LRSN                1
 GAP= 79        0.64       2.9     4.4  4.7 -0.9804E+00  0.3469E+01  0.3820E+00E
 Epicentro: BARICHARA - SANTANDER                                              3
 ACTION:UPD 12-07-25 14:04 OP:epov STATUS:               ID:20110731100813 L   I
 2011-07-31-1004-27S.COL___141                                                 6
 STAT SP IPHASW D HRMM SECON CODA AMPLIT PERI AZIMU VELO AIN AR TRES W  DIS CAZ7
 BAR2 SZ EP       10 8 30.95                             179   -0.0410 1.20 113 
 BAR2 SZ ES   1   10 8 44.58                             179   -0.22 7 1.20 113 
 BAR2 SZ I        10 8 46.19        14.2 0.16                          1.20 113 
 RUS  HZ EP       10 8 34.10                             148   -0.0310 78.8 171 
 RUS  HN ES   1   10 8 50.49                             148    0.09 7 78.8 171 
 RUS  HZ I        10 8 52.08         6.4 0.31                          78.8 171 
 BRR  HZ EP       10 8 33.12                             147   -0.4310 80.5 315 
 BRR  HZ I        10 8 33.37        36.0 0.11                          80.5 315 
 BRR  HE ES       10 8 49.64                             147    0.2810 80.5 315 
 PAM  SZ EP   1   10 8 35.97                             141    0.43 7 98.6  34 
 PAM  SE ES       10 8 52.85                             141   -0.0510 98.6  34 
 BRI  SZ EP   1   10 8 38.23                             132    0.38 7  131  19 
 BRI  SZ I        10 9  3.32         3.4 0.29                           131  19 
 OCA  SZ EP   1   10 8 42.37                             122   -0.39 7  182 356 
 OCA  SZ ES   1   10 9  5.68                             122   -0.07 7  182 356 
 OCA  SZ I        10 9  8.74        12.9 0.08                           182 356 
 HEL  HZ EP   1   10 8 51.84                             113    0.11 6  262 260 
 HEL  HZ I        10 9 24.56         4.5 0.41                           262 260 
 RREF HZ EP   2   10 8 57.80                             109    1.05 4  303 232 
 RREF HZ I        10 9 30.27         2.4 0.32                           303 232 
 PRA  HZ EP   2   10 9  3.05                             105   -0.70 3  370 211 
                                                                                
