 2011  331 1319 22.5 L   7.401 -73.206130.0  RSN  5 0.1 1.8LRSN                1
 GAP=160        0.38       4.5     6.2  5.9 -0.1188E+02 -0.3026E+01  0.4848E+01E
 Epicentro: EL PLAYON - SANTANDER                                              3
 ACTION:UP  11-06-16 14:36 OP:jfem STATUS:               ID:20110331131922 L   I
 2011-03-31-1314-57S.COL___138                                                 6
 STAT SP IPHASW D HRMM SECON CODA AMPLIT PERI AZIMU VELO SNR AR TRES W  DIS CAZ7
 GIR2 SZ EP   3   1319 40.23                             164    -0.2 2   36 178 
 GIR2 SZ ES   3   1319 54.38                             164    -0.1 2   36 178 
 BTL  SZ IP     C 1319 41.55                             156     0.210   54 187 
 BRR  HZ EP   1   1319 41.45                             152    -0.1 7   65 240 
 BRR  HZ I        1319 50.79        12.6 0.32                            65 240 
 BRR  HE ES   2   1319 56.54                             152     0.1 5   65 240 
 GRA  SZ EP   2   1319 42.25                             150     0.2 5   70  40 
 GRA  SZ ES   2   1319 57.26                             150    -0.1 5   70  40 
 GRA  SZ I        1319 59.63        20.1 0.38                            70  40 
 BAR2 SZ IP       1319 43.41                             143    -0.110   90 178 
 BAR2 SZ ES   2   1320  0.04                             143     0.1 5   90 178 
 BAR2 SZ I        1320  1.01         8.2 0.53                            90 178 
                                                                                
