 2014  531 1038  0.0 L   6.818 -73.148146.6  RSN 11 0.5 2.2LRSN                1
 GAP=201        1.06       3.6     5.4  6.9  0.2256E+01  0.7545E+01 -0.2616E+01E
 Epicentro: LOS SANTOS - SANTANDER                                             3
 ACTION:UPD 15-03-16 17:02 OP:nd   STATUS:               ID:20140531103800 L   I
 OLDACT:UP  14-05-31 23:17 OP:cam  STATUS:               ID:20140531103001d    3
 OLDACT:DUP 14-05-31 23:13 OP:cam  STATUS:               ID:20140531103001d    3
 OLDACT:REG 14-05-31 22:40 OP:cam  STATUS:               ID:20140531103000     3
 2014-05-31-1030-00M.COL___276                                                 6
 STAT SP IPHASW D HRMM SECON CODA AMPLIT PERI AZIMU VELO AIN AR TRES W  DIS CAZ7
 BAR2 SZ IP     C 1038 19.65                             170   -0.1310 25.2 189 
 BAR2 SZ ES       1038 35.03                             170   -0.1710 25.2 189 
 BAR2 SZ I        1038 37.35        28.4 0.26            168           25.2 189 
 RUS  HZ EP       1038 23.82                             143   -0.1710  103 176 
 RUS  HN ES   1   1038 43.10                             143    0.41 7  103 176 
 RUS  HZ I        1038 43.67         9.4 0.38            146            103 176 
 PTB  HZ EP       1038 26.25                             132   -0.81 9  148 258 
 PTB  HN ES       1038 47.50                             132   -0.65 9  148 258 
 PTB  HZ I        1038 53.47        20.8 0.16            131            148 258 
 SPBC HZ EP       1038 28.62                             129   -0.08 9  165 218 
 SPBC HN ES       1038 51.19                             129    0.11 9  165 218 
 SPBC HZ I        1038 55.71        22.8 0.42            129            165 218 
 ZAR  HZ EP       1038 32.37                             123   -0.04 9  203 292 
 ZAR  HN ES       1038 58.35                             123    0.67 9  203 292 
 ZAR  HZ I        1039  3.94        19.0 0.30            122            203 292 
 NOR  HZ EP       1038 35.79                             118   -0.10 8  236 234 
 NOR  HE ES       1039  3.40                             118   -0.47 8  236 234 
 NOR  HZ I        1039  7.42        11.0 0.24            119            236 234 
 SML  HZ EP       1038 36.39                             118   -0.09 8  242 335 
 SML  HN ES       1039  5.65                             118    0.73 8  242 335 
 SML  HZ I        1039 11.92        25.8 0.10            119            242 335 
 CHI  HZ EP   2   1038 37.81                             117   -0.15 4  250 195 
 CHI  HN ES       1039  8.71                             117    1.16 8  250 195 
 CHI  HZ I        1039 10.85         6.4 0.50            119            250 195 
 HEL  HZ EP   4   1038 41.87                             115    1.58 0  272 255 
 HEL  HE ES   2   1039 12.75                             115    1.04 4  272 255 
 HEL  HZ I        1039 18.33         7.0 0.34            115            272 255 
 GUY2CHZ EP       1038 43.89                             112    0.13 7  302 234 
 GUY2CHE ES   4   1039 20.28                             112    2.39 0  302 234 
 GUY2CHZ I        1039 26.52        12.4 0.74                           302 234 
 PRA  HZ EP   2   1038 54.31                             106    0.56 3  394 209 
 PRA  HE ES   1   1039 35.89                             106    0.23 4  394 209 
 PRA  HZ I        1039 41.48         6.4 0.36            108            394 209 
                                                                                
