 2012 1231 1418 31.6 L   6.285 -73.653105.9  RSN  4 0.1 1.5LRSN                1
 GAP=163        0.32       1.9     1.5  3.1  0.1160E+01  0.1385E+01  0.1001E+01E
 Epicentro: SANTA HELENA DEL OPON - SANTANDER                                  3
 ACTION:UPD 13-01-04 14:31 OP:ep   STATUS:               ID:20121231141831 L   I
 2012-12-31-1410-00M.COL___239                                                 6
 STAT SP IPHASW D HRMM SECON CODA AMPLIT PERI AZIMU VELO AIN AR TRES W  DIS CAZ7
 BAR2 SZ EP       1418 48.46                             147    0.0910 62.2  57 
 BAR2 SZ I        1418 48.59        21.8 0.32                          62.2  57 
 BAR2 SZ ES       1419  1.29                             147   -0.1310 62.2  57 
 RUS  HZ EP       1418 49.68                             142   -0.0610 76.6 124 
 RUS  HZ I        1418 50.21         3.4 0.26                          76.6 124 
 RUS  HN ES       1419  3.95                             142    0.0810 76.6 124 
 BRR  HZ EP       1418 50.21                             136   -0.0210 91.2 356 
 BRR  HN ES       1419  4.82                             136    0.0810 91.2 356 
 BRR  HN I        1419  5.59        10.0 0.14                          91.2 356 
 PTB  HZ EP       1418 50.40                             135   -0.0310 93.2 288 
 PTB  HN ES       1419  5.08                             135   -0.0110 93.2 288 
 PTB  HN I        1419  7.75         8.1 0.18                          93.2 288 
                                                                                
