 2015 1231 1943 33.0 L   6.800 -73.185136.9  RSN  5 0.4 1.6LRSN                1
 GAP=197        0.88       5.2     6.6  9.4  0.1034E+02  0.5985E+01 -0.2255E+02E
 Epicentro: ZAPATOCA - SANTANDER                                               3
 ACTION:UPD 16-02-04 15:09 OP:cam  STATUS:               ID:20151231194333 L   I
 OLDACT:REG 15-12-31 20:54 OP:dnl  STATUS:               ID:20151231193748     3
 2015-12-31-1937-48M.COL___328                                                 6
 STAT SP IPHASW D HRMM SECON CODA AMPLIT PERI AZIMU VELO AIN AR TRES W  DIS CAZ7
 BAR2 EZ EP       1943 51.26                             170   -0.3010 23.0 179 
 BAR2 EZ ES       1944  6.36                             170    0.3210 23.0 179 
 BAR2 EZ I        1944  7.65                             176           23.0 179 
 BRR  HZ EP       1943 53.71                             152    0.7410 67.4 300 
 BRR  HN ES   2   1944  8.29                             152   -0.27 5 67.4 300 
 BRR  HZ I        1944 16.49         7.6 0.19            151           67.4 300 
 RUS  HZ EP   2   1943 56.29                             142    0.37 5  101 174 
 RUS  HE ES       1944 13.41                             142   -0.3910  101 174 
 RUS  HZ I        1944 15.16         4.2 0.23            152            101 174 
 PTB  HZ EP   2   1943 58.83                             131   -0.03 5  143 258 
 PTB  HE ES       1944 18.92                             131   -0.12 9  143 258 
 PTB  HZ I        1944 21.81         5.5 0.14            135            143 258 
 SML  HZ EP   2   1944  8.68                             116   -0.26 4  242 336 
 SML  HE ES       1944 36.59                             116   -0.39 8  242 336 
 SML  HZ I        1944 43.60         6.1 0.08            119            242 336 
                                                                                
