 2012  131 1012 34.2 L   6.708 -73.193150.0  RSN  7 0.3 1.8LRSN                1
 GAP=172        0.64       5.3     5.2  5.8  0.1442E+02  0.5609E+00 -0.1446E-01E
 Epicentro: VILLANUEVA - SANTANDER                                             3
 ACTION:UP  12-02-03 08:22 OP:REBC STATUS:               ID:20120131101234 L   I
 2012-01-31-1010-00M.COL___187                                                 6
 STAT SP IPHASW D HRMM SECON CODA AMPLIT PERI AZIMU VELO SNR AR TRES W  DIS CAZ7
 BAR2 SZ EP       1012 54.13                             175    -0.110   13 175 
 BAR2 SZ I        1012 54.52        19.7 0.07                            13 175 
 BAR2 SZ ES   2   1013  9.66                             175    -0.1 5   13 175 
 GIR2 SZ EP   1   1012 54.20                             164    -0.5 7   41 360 
 BRR  HZ EP       1012 56.03                             153     0.110   72 308 
 BRR  HE ES       1013 13.15                             153     0.410   72 308 
 BRR  HZ I        1013 16.85        21.0 0.24                            72 308 
 RUS  HZ EP   1   1012 57.63                             148    -0.1 7   91 172 
 RUS  HN ES   1   1013 16.14                             148     0.1 7   91 172 
 RUS  HZ I        1013 17.80         4.9 0.30                            91 172 
 PTB  HZ EP   1   1013  1.13                             135     0.2 7  141 262 
 PTB  HE ES   1   1013 21.46                             135    -0.3 7  141 262 
 ZAR  HZ EP   1   1013  6.67                             124    -0.2 6  203 295 
 ZAR  HE ES   1   1013 32.10                             124    -0.2 6  203 295 
 ZAR  HZ I        1013 42.94         8.2 0.40                           203 295 
 CHI  HZ EP   2   1013 11.47                             119     0.5 4  237 195 
 CHI  HZ I        1013 44.03         3.1 0.52                           237 195 
                                                                                
