 2010  831 1254  3.4 L   6.852 -73.530102.0  RSN  5 0.3 1.8LRSN                1
 GAP= 97        0.61       3.3     5.1  6.2  0.2353E+01  0.5289E+00  0.8224E+00E
 Epicentro: SAN VICENTE DE CHUCURI - SANTANDER                                 3
 ACTION:UP  10-09-07 10:59 OP:vdl  STATUS:               ID:20100831125403 L   I
 2010-08-31-1250-55S.COL___120                                                 6
 STAT SP IPHASW D HRMM SECON CODA AMPLIT PERI AZIMU VELO SNR AR TRES W  DIS CAZ7
 BRR  HZ IP     C 1254 17.49                             160    -0.310   35 324 
 BRR  HE ES   1   1254 29.29                             160     0.2 7   35 324 
 BRR  HZ I        1254 32.30        12.9 0.14                            35 324 
 BAR2 SZ EP   1   1254 18.80                             153     0.0 7   48 127 
 BAR2 SZ ES   1   1254 30.92                             153     0.1 7   48 127 
 BAR2 SZ I        1254 33.48        30.5 0.41                            48 127 
 RUS  HZ EP   1   1254 24.44                             128    -0.2 7  117 155 
 RUS  HE ES   1   1254 41.44                             128     0.1 7  117 155 
 RUS  HZ I        1254 42.92         7.8 0.40                           117 155 
 GRA  SZ EP   2   1254 26.72                             122     0.2 5  139  35 
 GRA  SZ ES   1   1254 44.62                             122     0.1 7  139  35 
 GRA  SZ I        1254 46.41        13.4 0.35                           139  35 
 HEL  HZ EP   2   1254 37.90                             108     0.7 4  233 252 
 HEL  HZ I        1255  8.40         5.5 0.37                           233 252 
                                                                                
