 2016  531 1021 26.4 L   6.802 -73.174149.1  RSN 12 0.5 2.1LRSN                1
 GAP=133        0.99       2.9     4.3  5.5 -0.1252E+01  0.5330E+01  0.2552E+01E
 Epicentro: LOS SANTOS - SANTANDER                                             3
 ACTION:UPD 16-08-18 17:51 OP:cam  STATUS:               ID:20160531102126 L   I
 OLDACT:UP  16-05-31 21:20 OP:ak   STATUS:               ID:20160531101745     3
 OLDACT:UP  16-05-31 21:15 OP:ak   STATUS:               ID:20160531101745     3
 OLDACT:REG 16-05-31 20:11 OP:ar   STATUS:               ID:20160531101745     3
 2016-05-31-1017-45M.COL___310                                                 6
 STAT SP IPHASW D HRMM SECON CODA AMPLIT PERI AZIMU VELO AIN AR TRES W  DIS CAZ7
 BAR2 EZ EP       1021 46.44                             171    0.0310 23.2 182 
 BAR2 EZ ES       1022  1.75                             171   -0.2810 23.2 182 
 BAR2 EZ I        1022  3.04        36.2 0.32            171           23.2 182 
 BRR  HZ IP     C 1021 48.16                             154    0.4210 68.4 300 
 BRR  HN ES       1022  4.93                             154    0.5310 68.4 300 
 BRR  HZ I        1022  8.98        17.8 0.34            149           68.4 300 
 PAM  EZ EP       1021 49.25                             151    0.1810 79.3  41 
 PAM  EN ES       1022  6.55                             151   -0.2110 79.3  41 
 PAM  EZ E        1022  7.70                                           79.3  41 
 PAM  EZ I        1022  8.79        17.4 0.60            152           79.3  41 
 RUS  HZ EP       1021 50.24                             144   -0.2610  101 174 
 RUS  HN ES       1022  9.17                             144   -0.1310  101 174 
 RUS  HZ I        1022  9.95         9.3 0.28            146            101 174 
 PTB  HZ EP       1021 52.75                             133   -0.61 9  145 259 
 PTB  HN ES       1022 14.15                             133   -0.24 9  145 259 
 PTB  HZ I        1022 19.68        11.8 0.18            131            145 259 
 OCA  HZ EP   2   1021 54.56                             130   -0.35 5  160 354 
 OCA  HE ES       1022 17.54                             130    0.38 9  160 354 
 OCA  HZ I        1022 21.89        19.8 0.16            129            160 354 
 SPBC HZ EP       1021 55.61                             130    0.64 9  161 218 
 SPBC HN ES       1022 17.25                             130   -0.02 9  161 218 
 SPBC HZ I        1022 20.64        13.8 0.18            129            161 218 
 CHI  HZ EP       1022  4.42                             118    0.22 8  248 194 
 CHI  HN ES       1022 33.20                             118   -0.50 8  248 194 
 CHI  HZ I        1022 37.35         4.8 0.54            118            248 194 
 URE  HZ EP   4   1022  9.97                             114    2.68 0  281 292 
 URE  HN ES       1022 38.84                             114   -0.35 7  281 292 
 URE  HZ I        1022 50.35         6.5 0.30            113            281 292 
 PRA  HZ EP       1022 20.41                             107    0.55 6  391 209 
 PRA  HN ES       1023  2.43                             107    0.86 6  391 209 
 PRA  HZ I        1023  7.58         6.4 0.30            107            391 209 
 SJC  HZ EP       1022 20.55                             106   -1.29 6  407 327 
 SJC  HN ES   4   1023  3.03                             106   -2.07 0  407 327 
 SJC  HZ I        1023  8.59         1.7 0.39            106            407 327 
 CRJC HZ EP   9   1022 26.90                             104   -2.09 0  468   4 
 CRJC HN ES       1023 15.27                                   -0.46 5  468   4 
 CRJC HZ I        1023 26.52         3.1 0.18            104            468   4 
                                                                                
