 2016  331 1506 56.1 L   6.799 -73.143146.1  RSN 14 0.4 2.3LRSN                1
 GAP=137        0.81       3.1     3.1  4.8 -0.2102E+01  0.6887E+01  0.8539E+00E
 Epicentro: LOS SANTOS - SANTANDER                                             3
 ACTION:UPD 16-05-13 21:29 OP:cam  STATUS:               ID:20160331150656 L   I
 OLDACT:DUP 16-03-31 23:15 OP:ak   STATUS:               ID:20160331145744d    3
 2016-03-31-1457-43M.COL___317                                                 6
 STAT SP IPHASW D HRMM SECON CODA AMPLIT PERI AZIMU VELO AIN AR TRES W  DIS CAZ7
 BAR2 EZ IP     D 15 7 15.87                             171    0.0610 23.3 191 
 BAR2 EZ ES       15 7 31.22                             171    0.0610 23.3 191 
 BAR2 EZ I        15 7 32.39        52.2 0.16            169           23.3 191 
 PAM  EZ EP       15 7 18.63                             151    0.2510 77.2  39 
 PAM  EN ES       15 7 36.14                             151    0.4110 77.2  39 
 PAM  EZ I        15 7 38.15        37.2 0.52            156           77.2  39 
 RUS  HZ EP       15 7 19.77                             144   -0.1510  101 176 
 RUS  HN ES       15 7 37.88                             144   -0.5910  101 176 
 RUS  HZ I        15 7 41.33        16.9 0.48            146            101 176 
 PTB  HZ EP       15 7 22.63                             132   -0.53 9  148 259 
 PTB  HN ES       15 7 44.17                             132   -0.07 9  148 259 
 PTB  HZ I        15 7 49.21        16.0 0.34            132            148 259 
 SPBC HZ EP       15 7 24.73                             129    0.05 9  163 219 
 SPBC HN ES       15 7 46.91                             129   -0.03 9  163 219 
 SPBC HZ I        15 7 49.51        55.1 0.32            130            163 219 
 ZAR  HZ EP       15 7 28.11                             122   -0.53 9  204 292 
 ZAR  HN ES       15 7 53.97                             122   -0.02 9  204 292 
 ZAR  HZ I        15 8  0.86        12.9 0.06            123            204 292 
 NOR  HZ EP       15 7 31.72                             118   -0.19 8  235 235 
 NOR  HN ES       15 8  0.01                             118    0.19 8  235 235 
 NOR  HZ I        15 8  7.41        15.9 0.16            120            235 235 
 HEL  HZ EP   2   15 7 36.18                             115   -0.22 4  272 256 
 HEL  HN ES       15 8  8.67                             115    0.86 8  272 256 
 HEL  HZ I        15 8 13.90         8.4 0.34            116            272 256 
 URE  HE ES   4   15 8  6.81                             114   -2.53 0  284 292 
 GUY2CHZ EP       15 7 40.45                             112    0.66 7  301 235 
 GUY2CHN ES       15 8 13.81                             112   -0.03 7  301 235 
 GUY2CHZ I        15 8 23.73        10.9 0.40                           301 235 
 SOCV BZ EP   4   15 7 37.10                             112   -2.07 0  301  57 
 SOCV BN ES   4   15 8  9.28                             112   -3.46 0  301  57 
 ELA  HZ EP   2   15 7 43.33                             110    0.30 3  329 230 
 ELA  HN ES       15 8 20.04                             110    0.44 7  329 230 
 ELA  HZ I        15 8 27.46        10.4 0.48            112            329 230 
 DBB  SZ EP   2   15 7 43.66                             109   -0.01 3  340 274 
 DBB  SZ ES       15 8 19.98                             109   -0.76 7  340 274 
 DBB  SZ I        15 8 23.66        18.0 0.56            111            340 274 
 ANIL HZ EP       15 7 46.19                             108    0.21 6  358 225 
 ANIL HE ES       15 8 24.90                             108    0.05 6  358 225 
 ANIL HZ I        15 8 29.56        22.1 0.30            110            358 225 
 ORTC HZ EP   2   15 7 49.48                             106   -0.61 3  396 216 
 ORTC HE ES       15 8 32.60                             106    0.43 6  396 216 
 ORTC HZ I        15 8 39.78         5.2 0.22            108            396 216 
 SJC  HZ EP   4   15 7 50.04                             106   -1.70 0  409 327 
 SJC  HN ES   4   15 8 30.34                             106   -4.77 0  409 327 
 SJC  HZ I        15 8 35.65         3.9 0.56            107            409 327 
                                                                                
