 2014 1231 1808 48.9 L   6.809 -73.192139.7  RSN  5 0.5 1.8LRSN                1
 GAP=197        1.22       6.6     7.4 11.0  0.1980E+02  0.3086E+01 -0.3192E+02E
 Epicentro: ZAPATOCA - SANTANDER                                               3
 ACTION:UPD 15-02-10 17:08 OP:nd   STATUS:               ID:20141231180848 L   I
 OLDACT:REG 14-12-31 20:09 OP:cam  STATUS:               ID:20141231180818     3
 2014-12-31-1808-18M.COL___280                                                 6
 STAT SP IPHASW D HRMM SECON CODA AMPLIT PERI AZIMU VELO AIN AR TRES W  DIS CAZ7
 BAR2 EZ EP       18 9  8.09                             170    0.2610 24.0 178 
 BAR2 EZ ES       18 9 21.93                             170   -0.6510 24.0 178 
 BAR2 EZ I        18 9 24.73        10.5 0.19            172           24.0 178 
 RUS  HZ EP       18 9 12.23                             142    0.0510  102 173 
 RUS  HE ES       18 9 31.04                             142    0.7110  102 173 
 RUS  HZ I        18 9 32.70         4.7 0.22            146            102 173 
 PTB  HZ EP       18 9 14.23                             131   -0.72 9  143 258 
 PTB  HN ES       18 9 35.02                             131   -0.24 9  143 258 
 PTB  HZ I        18 9 37.86         7.1 0.58            133            143 258 
 ZAR  HN ES       18 9 45.71                             122    0.68 9  199 292 
 ZAR  HN I        18 9 52.01         9.9 0.24            123            199 292 
 SML  HZ EP       18 9 24.63                             116   -0.25 8  241 336 
 SML  HN ES       18 9 53.14                             116    0.22 8  241 336 
 SML  HZ I        18 9 56.36         8.5 0.10            118            241 336 
                                                                                
