 2014  131 1057 34.4 L   6.767 -73.154145.2  RSN  5 0.4 1.2LRSN                1
 GAP=138        0.92       5.3     5.4  8.6 -0.7397E+01  0.1043E+02  0.6528E+01E
 Epicentro: LOS SANTOS - SANTANDER                                             3
 ACTION:UPD 14-03-13 10:00 OP:ep   STATUS:               ID:20140131105734 L   I
 OLDACT:DUP 14-01-31 17:54 OP:stll STATUS:               ID:20140131104818d    3
 2014-01-31-1048-17M.COL___217                                                 6
 STAT SP IPHASW D HRMM SECON CODA AMPLIT PERI AZIMU VELO AIN AR TRES W  DIS CAZ7
 BAR2 SZ EP       1057 54.24                             172    0.3410 19.6 189 
 BAR2 SZ I        1058 11.84         7.4 0.50            173           19.6 189 
 PAM  SZ EP       1057 56.96                             150    0.2010 80.7  38 
 PAM  SN ES       1058 13.99                             150   -0.2110 80.7  38 
 RUS  HZ EP       1057 57.14                             145   -0.7110 97.1 175 
 RUS  HN ES       1058 16.44                             145    0.3110 97.1 175 
 RUS  HZ I        1058 17.96         1.3 0.42            144           97.1 175 
 PTB  HZ EP       1058  1.52                             132    0.34 9  146 260 
 PTB  HN ES       1058 21.83                             132   -0.24 9  146 260 
 PTB  HZ I        1058 24.41         2.8 0.16            132            146 260 
 CHI  HZ EP       1058 11.64                             117   -0.03 8  245 195 
 CHI  HZ I        1058 14.33         1.2 0.40            117            245 195 
                                                                                
