 2013  531 1037 39.3 L   6.257 -73.590112.1  RSN  9 0.4 1.9LRSN                1
 GAP=116        1.12       3.8     3.5  7.3 -0.4789E+00  0.7272E+01  0.1079E+01E
 Epicentro: LA PAZ - SANTANDER                                                 3
 ACTION:UPD 13-06-20 09:55 OP:ep   STATUS:               ID:20130531103739 L   I
 2013-05-31-1028-51M.COL___214                                                 6
 STAT SP IPHASW D HRMM SECON CODA AMPLIT PERI AZIMU VELO AIN AR TRES W  DIS CAZ7
 BAR2 SZ EP       1037 57.13                             151    0.6710 58.3  51 
 BAR2 SZ ES       1038  9.86                             151    0.0310 58.3  51 
 BAR2 SZ I        1038 11.20        36.8 0.18            153           58.3  51 
 RUS  HZ EP       1037 57.58                             146    0.0710 69.1 126 
 RUS  HN ES       1038 11.15                             146   -0.5410 69.1 126 
 RUS  HE I        1038 13.82         5.6 0.40            148           69.1 126 
 BRR  HZ EP       1037 58.77                             137   -0.0110 94.9 352 
 BRR  HE ES       1038 13.91                             137   -0.0610 94.9 352 
 BRR  HN I        1038 14.94        29.3 0.16            139           94.9 352 
 GIR2 SZ ES       1038 15.57                             135    0.3610  101  26 
 PTB  HZ IP     C 1037 58.27                             135   -1.0410  101 288 
 PTB  HN ES       1038 15.14                             135    0.2410  101 288 
 PTB  HE I        1038 16.05        16.6 0.30            137            101 288 
 NOR  HZ EP       1038  5.35                             120    0.13 9  161 242 
 NOR  HE ES       1038 25.63                             120    0.21 9  161 242 
 ZAR  HZ EP       1038  8.89                             115   -0.01 9  196 314 
 ZAR  HN ES       1038 32.26                             115    0.29 9  196 314 
 TAM  HZ EP       1038  9.76                             114    0.35 9  200  84 
 OCA  HN ES       1038 36.67                             112   -0.70 8  221   8 
                                                                                
