 2014  731 1848 50.9 L   6.795 -73.128153.4  RSN 11 0.5 2.1LRSN                1
 GAP=139        1.27       3.9     5.5  6.6 -0.5637E+01  0.1013E+02  0.2342E+01E
 Epicentro: LOS SANTOS - SANTANDER                                             3
 ACTION:UPD 15-03-16 20:48 OP:nd   STATUS:               ID:20140731184850 L   I
 OLDACT:REG 14-07-31 21:29 OP:carl STATUS:               ID:20140731183818     3
 2014-07-31-1838-18M.COL___260                                                 6
 STAT SP IPHASW D HRMM SECON CODA AMPLIT PERI AZIMU VELO AIN AR TRES W  DIS CAZ7
 BAR2 SZ EP       1849 11.46                             171    0.0410 23.2 195 
 BAR2 SZ ES       1849 27.11                             171   -0.3410 23.2 195 
 BAR2 SZ I        1849 29.44        16.2 0.26            171           23.2 195 
 BRR  HZ EP       1849 13.55                             153    0.5910 73.1 298 
 BRR  HN ES       1849 31.60                             153    1.4110 73.1 298 
 BRR  HZ I        1849 35.21        25.4 0.30            152           73.1 298 
 PAM  SZ EP       1849 14.28                             152    0.4210 76.6  38 
 PAM  SN ES       1849 31.50                             152   -0.2910 76.6  38 
 PAM  SZ I        1849 33.71        12.7 0.54            155           76.6  38 
 RUS  HZ EP       1849 15.25                             146   -0.0910 99.9 177 
 RUS  HN ES       1849 34.18                             146   -0.2410 99.9 177 
 RUS  HZ I        1849 35.54         6.0 0.20            147           99.9 177 
 PTB  HZ EP       1849 18.09                             133   -0.54 9  150 259 
 PTB  HN ES       1849 39.60                             133   -0.68 9  150 259 
 PTB  HZ I        1849 41.60        17.4 0.14            133            150 259 
 SPBC HZ EP       1849 20.05                             131    0.01 9  164 220 
 SPBC HN ES       1849 42.82                             131    0.03 9  164 220 
 SPBC HZ I        1849 46.50        17.1 0.26            131            164 220 
 NOR  HZ EP       1849 27.15                             120   -0.04 8  236 235 
 NOR  HE ES       1849 55.30                             120   -0.22 8  236 235 
 NOR  HZ I        1849 59.15        11.9 0.16            121            236 235 
 SML  HZ EP       1849 27.46                             119   -0.61 8  245 335 
 SML  HN ES       1849 56.27                             119   -0.82 8  245 335 
 SML  HZ I        1850  3.97        17.3 0.24            120            245 335 
 CHI  HZ EP       1849 29.46                             119    0.46 8  249 196 
 CHI  HN ES       1849 58.30                             119   -0.45 8  249 196 
 CHI  HZ I        1850  6.58         4.5 0.50            120            249 196 
 GUY2CHZ EP       1849 35.61                             114    0.63 7  302 235 
 GUY2CHN ES       1850  9.72                             114    0.33 7  302 235 
 GUY2CHZ I        1850 16.37         6.5 0.36                           302 235 
 TOL  SZ EP       1849 40.02                             111    0.46 7  344 225 
 TOL  SN ES       1850 17.33                             111   -0.20 7  344 225 
 TOL  SZ I        1850 22.54         9.8 0.30            112            344 225 
                                                                                
