 2011  731 1640  4.3 L   6.782 -73.087146.8  RSN  9 0.3 2.1LRSN                1
 GAP=145        0.57       2.5     4.8  5.3 -0.2773E+01  0.6894E+01  0.1489E+01E
 Epicentro: LOS SANTOS - SANTANDER                                             3
 ACTION:UPD 12-07-25 14:04 OP:epov STATUS:               ID:20110731164004 L   I
 2011-07-31-1639-17S.COL___142                                                 6
 STAT SP IPHASW D HRMM SECON CODA AMPLIT PERI AZIMU VELO AIN AR TRES W  DIS CAZ7
 BAR2 SZ EP   1   1640 23.89                             170   -0.21 7 23.5 207 
 BAR2 SZ I        1640 40.36        35.1 0.35                          23.5 207 
 PAM  SZ EP   1   1640 26.74                             152    0.21 7 75.0  35 
 PAM  SN ES   1   1640 44.07                             152    0.23 7 75.0  35 
 PAM  SZ I        1640 46.22         9.1 0.40                          75.0  35 
 BRR  HZ EP       1640 25.95                             150   -0.0410 77.8 298 
 BRR  HN ES   1   1640 43.12                             150    0.25 7 77.8 298 
 BRR  HZ I        1640 46.18        32.5 0.17                          77.8 298 
 RUS  HZ EP   1   1640 27.93                             145   -0.11 7 98.4 180 
 RUS  HN ES   1   1640 46.21                             145   -0.32 7 98.4 180 
 RUS  HZ I        1640 47.95        11.3 0.22                          98.4 180 
 BRI  SZ EP   1   1640 28.63                             142    0.32 7  108  17 
 BRI  SZ ES   1   1640 46.58                             142   -0.43 7  108  17 
 BRI  SZ I        1640 52.07        14.1 0.49                           108  17 
 OCA  SZ EP   1   1640 33.02                             129    0.02 7  163 351 
 OCA  SZ ES   1   1640 55.29                             129   -0.06 7  163 351 
 OCA  SZ I        1641  0.55        32.4 0.20                           163 351 
 NOR  SZ EP   2   1640 39.87                             118   -0.71 4  239 236 
 CHI  HZ I        1640 44.71         4.6 0.27                           249 197 
 CHI  HN ES   1   1641 12.15                             117    0.62 6  249 197 
 HEL  HZ EP   1   1640 45.21                             114   -0.04 6  278 257 
 HEL  HZ I        1641 22.78        14.0 0.28                           278 257 
                                                                                
