 2010  131 1204 23.0 L   6.840 -73.022150.6  RSN  9 0.7 2.2LRSN                1
 GAP=196        0.95       6.4    11.7  9.0 -0.9032E+01  0.4060E+02  0.4118E+01E
 Epicentro: CEPITA - SANTANDER                                                 3
 ACTION:UP  10-08-24 09:46 OP:vdl  STATUS:               ID:20100131120423 L   I
 2010-01-31-1202-26S.COL___094                                                 6
 STAT SP IPHASW D HRMM SECON CODA AMPLIT PERI AZIMU VELO SNR AR TRES W  DIS CAZ7
 GIR2 SZ EP       12 4 43.56                             167     0.310   33 324 
 BAR2 SZ IP       12 4 43.49                             168     0.110   33 213 
 BAR2 SZ ES   2   12 4 58.89                             168    -0.5 5   33 213 
 GIR2 SZ ES   1   12 4 59.31                             167     0.2 7   33 324 
 RUS  BZ EP   2   12 4 47.30                             144    -0.2 5  105 184 
 RUS  BE ES   1   12 5  6.32                             144    -0.4 7  105 184 
 RUS  BZ I        12 5  6.94        17.7 0.21                           105 184 
 OCA  SZ EP   2   12 4 52.01                             131     0.5 5  158 348 
 CHI  HZ EP   1   12 5  1.52                             117    -0.3 6  257 198 
 CHI  HZ I        12 5  2.58         6.3 0.48                           257 198 
 CHI  HN ES   2   12 5 32.28                             117     0.2 4  257 198 
 HEL  HZ EP   2   12 5  5.26                             114     0.2 4  286 256 
 HEL  HE ES   2   12 5 37.13                             114    -0.7 4  286 256 
 HEL  HZ I        12 5 42.42        11.2 0.50                           286 256 
 RREF BZ EP   2   12 5 11.57                             111     0.7 3  335 230 
 RREF BN ES   2   12 5 49.35                             111     1.2 3  335 230 
 RREF BZ I        12 5 55.19         5.8 0.48                           335 230 
 MON  HZ EP   2   12 5 10.56                             109    -2.5 3  361 307 
 MON  HZ I        12 5 18.10         3.7 0.29                           361 307 
 PRA  HZ EP   2   12 5 17.35                             107    -0.6 3  403 211 
 PRA  HZ I        12 6  3.53         8.7 0.66                           403 211 
                                                                                
