 2010 1231 1341 44.4 L   6.791 -73.150142.9  RSN  6 0.4 1.9LRSN                1
 GAP=158        0.71       4.8     7.2  8.7 -0.1720E+02  0.2609E+02 -0.6593E+01E
 Epicentro: LOS SANTOS - SANTANDER                                             3
 ACTION:UP  11-01-14 15:28 OP:pat  STATUS:               ID:20101231134144 L   I
 2010-12-31-1340-07S.COL___132                                                 6
 STAT SP IPHASW D HRMM SECON CODA AMPLIT PERI AZIMU VELO SNR AR TRES W  DIS CAZ7
 BAR2 SZ EP   1   1342  3.61                             171     0.0 8   22 189 
 BAR2 SZ ES   2   1342 18.56                             171    -0.1 5   22 189 
 BAR2 SZ I        1342 20.18        21.0 0.25                            22 189 
 RUS  HZ EP   1   1342  7.41                             144    -0.4 8  100 176 
 RUS  HN ES   2   1342 26.05                             144     0.0 5  100 176 
 RUS  HZ I        1342 27.57         9.5 0.28                           100 176 
 GRA  SZ IP     D 1342  9.46                             136     0.010  127  18 
 GRA  SZ ES   2   1342 29.40                             136     0.4 5  127  18 
 NOR  SZ EP   1   1342 19.71                             118    -0.1 6  234 235 
 NOR  SN ES   2   1342 47.94                             118     0.4 4  234 235 
 CHI  HZ EP   1   1342 21.42                             117    -0.4 6  248 195 
 CHI  HE ES   2   1342 52.11                             117     1.1 4  248 195 
 CHI  HZ I        1342 54.79         5.3 0.43                           248 195 
 HEL  HZ EP   1   1342 24.95                             114     0.6 6  271 256 
 HEL  HE ES   2   1342 54.83                             114    -0.7 4  271 256 
 HEL  HZ I        1343  4.35         7.6 0.35                           271 256 
                                                                                
