 2014  331 1441 19.7 L   6.803 -73.195140.0  RSN  7 0.2 1.8LRSN                1
 GAP=130        0.59       2.7     2.9  6.5 -0.9183E+00  0.6283E+01  0.1654E+01E
 Epicentro: ZAPATOCA - SANTANDER                                               3
 ACTION:UPD 14-04-09 23:22 OP:nd   STATUS:               ID:20140331144119 L   I
 OLDACT:UP  14-03-31 23:28 OP:cam  STATUS:               ID:20140331143813     3
 OLDACT:REG 14-03-31 21:19 OP:cam  STATUS:               ID:20140331143813     3
 2014-03-31-1438-13M.COL___249                                                 6
 STAT SP IPHASW D HRMM SECON CODA AMPLIT PERI AZIMU VELO AIN AR TRES W  DIS CAZ7
 BAR2 SZ EP       1441 38.93                             170    0.2710 23.4 177 
 PAM  SZ EP       1441 41.56                             149    0.0310 80.7  43 
 PAM  SN ES       1441 58.51                             149   -0.0410 80.7  43 
 PAM  SZ I        1442  0.39        15.3 0.46            154           80.7  43 
 RUS  HZ EP   1   1441 43.02                             142    0.05 7  101 173 
 RUS  HE ES       1442  0.96                             142   -0.1510  101 173 
 RUS  HZ I        1442  2.59         6.2 0.28            144            101 173 
 PTB  HZ EP       1441 45.27                             132   -0.47 9  142 258 
 PTB  HN ES       1442  6.02                             132   -0.01 9  142 258 
 PTB  HZ I        1442 11.45         9.0 0.46            133            142 258 
 ZAR  HE ES   1   1442 16.21                             122    0.36 6  199 293 
 CHI  HZ EP   4   1441 56.13                             116   -0.86 0  248 194 
 CHI  HN ES       1442 26.29                             116    0.23 8  248 194 
 CHI  HZ I        1442 31.98         4.6 0.62            118            248 194 
 GUY2CHZ EP   4   1442  4.69                             111    2.11 0  297 234 
 GUY2CHN ES   4   1442 39.78                             111    3.76 0  297 234 
 GUY2CHZ I        1442 44.85         4.8 0.78                           297 234 
                                                                                
