 2017  331 1442 21.7 L   6.744 -73.149142.0  RSN  5 0.4 1.7LRSN                1
 GAP=155        1.05       8.9     5.0  8.8 -0.9375E+01  0.9573E+01 -0.7283E+01E
 Epicentro: LOS SANTOS - SANTANDER                                             3
 ACTION:UPD 17-05-25 18:47 OP:jn   STATUS:               ID:20170331144221 L   I
 OLDACT:REG 17-03-31 21:22 OP:dnl  STATUS:               ID:20170331143744     3
 2017-03-31-1438-00M.COL___353                                                 6
 STAT SP IPHASW D HRMM SECON CODA AMPLIT PERI AZIMU VELO AIN AR TRES W  DIS CAZ7
 BAR2 EZ EP       1442 40.99                             173    0.2210 17.2 192 
 BAR2 EZ ES       1442 55.72                             173    0.0810 17.2 192 
 BAR2 EZ I        1442 56.90        13.6 0.26            174           17.2 192 
 BRR  HZ EP       1442 42.75                             151    0.1410 74.0 303 
 BRR  HE ES       1442 59.72                             151    0.8010 74.0 303 
 BRR  HZ I        1443  1.11        15.6 0.54            149           74.0 303 
 PAM  EZ EP       1442 43.89                             149    0.0510 82.5  37 
 PAM  EN ES       1443  0.51                             149   -0.5910 82.5  37 
 PAM  EZ I        1443  2.85         9.7 0.32            150           82.5  37 
 PTB  HZ EP   2   1442 48.13                             131   -0.10 5  146 261 
 PTB  HN ES       1443  8.25                             131   -0.67 9  146 261 
 PTB  HZ I        1443 12.05         3.8 0.12            132            146 261 
 ZAR  HZ EP   2   1442 54.57                             121    0.45 4  206 294 
 ZAR  HE ES       1443 19.17                             121   -0.23 8  206 294 
 ZAR  HZ I        1443 22.98         4.5 0.30            122            206 294 
                                                                                
