 2010  731 1226 57.7 L   6.859 -73.284121.4  RSN  7 0.3 1.9LRSN                1
 GAP=135        0.53       3.0     7.3  5.8  0.5417E+00 -0.7951E+01 -0.3732E+01E
 Epicentro: ZAPATOCA - SANTANDER                                               3
 ACTION:UPD 10-12-01 15:21 OP:pat  STATUS:               ID:20100731122657 L   I
 2010-07-31-1224-23S.COL___123                                                 6
 STAT SP IPHASW D HRMM SECON CODA AMPLIT PERI AZIMU VELO AIN AR TRES W  DIS CAZ7
 GIR2 SZ EP   1   1227 14.36                             167     0.1 7   26  22 
 GIR2 SZ ES   2   1227 27.45                             167     0.2 5   26  22 
 BAR2 SZ EP   1   1227 14.76                             165     0.2 7   32 160 
 BAR2 SZ ES   2   1227 27.89                             165     0.1 5   32 160 
 BAR2 SZ I        1227 29.25        44.9 0.33                            32 160 
 BRR  HZ EP   1   1227 15.31                             154     0.1 7   55 300 
 BRR  HN ES   2   1227 29.04                             154     0.1 5   55 300 
 BRR  HZ I        1227 30.22        22.7 0.41                            55 300 
 RUS  HZ EP   1   1227 19.90                             135     0.1 7  109 168 
 RUS  HE ES   2   1227 36.51                             135    -0.6 5  109 168 
 GUE  SZ EP   1   1227 19.71                             134    -0.3 7  114  20 
 GUE  SZ I        1227 20.17        12.3 0.20                           114  20 
 GRA  SZ EP   1   1227 21.08                             131     0.3 7  125  25 
 GRA  SZ I        1227 21.82         7.1 0.25                           125  25 
 GRA  SZ ES   2   1227 38.99                             131     0.2 5  125  25 
 OCA  SZ EP   1   1227 23.46                             125     0.0 7  153 359 
 OCA  SZ ES   2   1227 42.86                             125    -0.7 5  153 359 
 OCA  SZ I        1227 46.22        15.8 0.39                           153 359 
                                                                                
