 2017 1031 1643 11.7 L   6.806 -73.157135.6  RSN  4 0.2 1.1LRSN                1
 GAP=142        0.60       3.5     3.4  5.0 -0.3773E+01  0.5094E+01 -0.1601E+01E
 Epicentro: LOS SANTOS - SANTANDER                                             3
 ACTION:UPD 17-11-07 19:40 OP:rebc STATUS:               ID:20171031164311 L   I
 OLDACT:REG 17-10-31 21:09 OP:mg   STATUS:               ID:20171031163743     3
 2017-10-31-1638-00M.COL___441                                                 6
 STAT SP IPHASW D HRMM SECON CODA AMPLIT PERI AZIMU VELO AIN AR TRES W  DIS CAZ7
 BAR2 EZ EP       1643 30.25                             170    0.1710 23.8 187 
 BAR2 EZ ES       1643 44.46                             170    0.0210 23.8 187 
 BAR2 EZ I        1643 47.28         2.7 0.42            171           23.8 187 
 PAM  EZ EP       1643 33.15                             149    0.3310 77.7  41 
 PAM  EE ES       1643 49.09                             149   -0.2410 77.7  41 
 PAM  EZ I        1643 52.43         2.7 0.32            152           77.7  41 
 RUS  HZ EP       1643 34.38                             141   -0.1010  101 175 
 RUS  HN ES       1643 52.27                             141   -0.0110  101 175 
 RUS  HZ I        1643 54.06         3.3 0.36            146            101 175 
 PTB  HZ EP       1643 37.34                             130   -0.37 9  147 258 
 PTB  HN ES       1643 58.20                             130    0.17 9  147 258 
 PTB  HZ I        1644  1.56         1.2 0.14            132            147 258 
                                                                                
