 2017  731 1915  3.9 L   6.762 -73.166146.4  RSN  6 0.4 1.8LRSN                1
 GAP=136        0.96       5.1     4.9  7.0 -0.2256E+01  0.4243E+01  0.1014E+01E
 Epicentro: LOS SANTOS - SANTANDER                                             3
 ACTION:UPD 17-08-30 15:38 OP:rebc STATUS:               ID:20170731191503 L   I
 OLDACT:UP  17-08-01 01:17 OP:dani STATUS:               ID:20170731190738     3
 OLDACT:REG 17-07-31 21:38 OP:dani STATUS:               ID:20170731190738     3
 2017-07-31-1908-00M.COL___398                                                 6
 STAT SP IPHASW D HRMM SECON CODA AMPLIT PERI AZIMU VELO AIN AR TRES W  DIS CAZ7
 BAR2 EZ EP       1915 23.44                             172   -0.1010 18.8 185 
 BAR2 EZ ES       1915 38.17                             172   -0.6810 18.8 185 
 BAR2 EZ I        1915 41.24        15.0 0.32            174           18.8 185 
 BRR  HZ EP       1915 25.20                             152    0.0510 71.4 302 
 BRR  HN ES       1915 42.39                             152    0.6910 71.4 302 
 BRR  HZ I        1915 44.27        25.4 0.39            154           71.4 302 
 PAM  EZ EP       1915 26.41                             149   -0.0810 82.1  39 
 PAM  EN ES       1915 44.03                             149   -0.0610 82.1  39 
 PAM  EZ I        1915 46.84         6.2 0.18            151           82.1  39 
 RUS  HZ EP       1915 27.70                             145    0.2510 96.6 175 
 RUS  HN ES       1915 46.10                             145    0.3010 96.6 175 
 RUS  HZ I        1915 47.30         7.2 0.38            148           96.6 175 
 PTB  HZ EP       1915 30.75                             133    0.08 9  145 260 
 PTB  HN ES       1915 51.08                             133   -0.45 9  145 260 
 SJC  HZ EP   3   1915 57.68                             106   -2.09 1  412 328 
                                                                                
