 2012  531 1208  1.8 L   6.837 -73.166145.0  RSN  5 0.2 1.9LRSN                1
 GAP=141        0.56       4.7     3.2  5.7 -0.5947E+01  0.6446E+01 -0.1357E+01E
 Epicentro: LOS SANTOS - SANTANDER                                             3
 ACTION:UP  12-07-05 12:09 OP:pat  STATUS:               ID:20120531120800 L   I
 2012-05-31-1200-00M.COL___200                                                 6
 STAT SP IPHASW D HRMM SECON CODA AMPLIT PERI AZIMU VELO AIN AR TRES W  DIS CAZ7
 BAR2 SZ EP       12 8 21.37                             169    -0.110   27 184 
 BAR2 SZ ES   1   12 8 36.76                             169     0.0 7   27 184 
 BAR2 SZ I        12 8 39.85        13.8 0.29                            27 184 
 PAM  SZ EP       12 8 24.12                             151     0.210   76  43 
 PAM  SN ES       12 8 41.06                             151     0.010   76  43 
 PTB  HZ EP       12 8 28.35                             132    -0.3 9  146 257 
 PTB  HN ES       12 8 49.62                             132     0.1 9  146 257 
 PTB  HZ I        12 8 51.62         6.5 0.24                           146 257 
 OCA  HN ES   2   12 8 50.83                             130    -0.6 5  156 354 
 ZAR  HZ EP   2   12 8 34.26                             123     0.4 4  200 291 
 ZAR  HN ES   1   12 8 59.04                             123     0.2 6  200 291 
 ZAR  HZ I        12 9  5.51        11.2 0.29                           200 291 
                                                                                
