 2017  731 1626  8.6 L   6.787 -73.149138.9  RSN  6 0.4 1.7LRSN                1
 GAP=137        0.83       4.1     4.8  6.5  0.5602E+00  0.1721E+02 -0.9071E+00E
 Epicentro: LOS SANTOS - SANTANDER                                             3
 ACTION:UPD 17-08-30 15:38 OP:rebc STATUS:               ID:20170731162608 L   I
 OLDACT:UP  17-08-01 00:37 OP:dani STATUS:               ID:20170731161743d    3
 OLDACT:UP  17-08-01 00:36 OP:dani STATUS:               ID:20170731161743d    3
 OLDACT:DUP 17-08-01 00:33 OP:dani STATUS:               ID:20170731161743d    3
 OLDACT:UP  17-08-01 00:30 OP:dani STATUS:               ID:20170731161742     3
 OLDACT:REG 17-07-31 21:17 OP:dani STATUS:               ID:20170731161742     3
 2017-07-31-1618-00M.COL___398                                                 6
 STAT SP IPHASW D HRMM SECON CODA AMPLIT PERI AZIMU VELO AIN AR TRES W  DIS CAZ7
 BAR2 EZ E        1621 41.65                                           21.9 190 
 BAR2 EZ EP       1626 27.44                             171    0.0610 21.9 190 
 BAR2 EZ ES       1626 41.91                             171   -0.1110 21.9 190 
 PAM  EZ EP       1626 30.10                             149   -0.0810 78.7  39 
 PAM  EN ES       1626 47.20                             149    0.2010 78.7  39 
 PAM  EZ I        1626 49.40         8.1 0.32            148           78.7  39 
 RUS  HZ EP       1626 31.29                             143   -0.3010 99.2 176 
 RUS  HN ES       1626 49.69                             143    0.1810 99.2 176 
 RUS  HZ I        1626 51.68         5.0 0.18            139           99.2 176 
 PTB  HZ EP       1626 34.31                             130   -0.65 9  147 259 
 PTB  HZ I        1627  1.14         4.6 0.16            123            147 259 
 ZAR  HZ EP       1626 41.03                             121    0.40 9  204 293 
 ZAR  HE ES       1627  5.48                             121   -0.12 9  204 293 
 ZAR  HZ I        1627 11.96         9.1 0.37            114            204 293 
 GUY2CHZ EP       1626 52.46                             111    0.68 7  300 235 
 GUY2CHE ES   3   1627 27.15                             111    1.70 2  300 235 
 GUY2CHZ I        1627 31.92         4.4 0.24                           300 235 
                                                                                
