 2015  531 1954 18.8 L   6.821 -73.113150.9  RSN 25 0.5 2.7LRSN                1
 GAP=140        0.96       2.6     4.0  4.7 -0.7727E+00  0.5708E+01  0.1923E+01E
 Epicentro: LOS SANTOS - SANTANDER                                             3
 ACTION:UPD 15-09-10 22:08 OP:cam  STATUS:               ID:20150531195418 L   I
 OLDACT:UP  15-06-01 04:45 OP:mh   STATUS:               ID:20150531194748     3
 OLDACT:UP  15-06-01 04:45 OP:mh   STATUS:               ID:20150531194748     3
 OLDACT:UP  15-06-01 04:44 OP:mh   STATUS:               ID:20150531194748     3
 OLDACT:UP  15-06-01 04:44 OP:mh   STATUS:               ID:20150531194748     3
 OLDACT:UP  15-06-01 04:41 OP:mh   STATUS:               ID:20150531194748     3
 OLDACT:UP  15-06-01 04:41 OP:mh   STATUS:               ID:20150531194748     3
 OLDACT:UP  15-06-01 04:37 OP:mh   STATUS:               ID:20150531194748     3
 OLDACT:UP  15-06-01 04:29 OP:mh   STATUS:               ID:20150531194748     3
 OLDACT:UP  15-06-01 04:28 OP:mh   STATUS:               ID:20150531194748     3
 OLDACT:UP  15-06-01 04:28 OP:mh   STATUS:               ID:20150531194748     3
 OLDACT:UP  15-06-01 04:27 OP:mh   STATUS:               ID:20150531194748     3
 OLDACT:UP  15-06-01 04:27 OP:mh   STATUS:               ID:20150531194748     3
 OLDACT:REG 15-05-31 20:44 OP:spq  STATUS:               ID:20150531194748     3
 2015-05-31-1947-48M.COL___300                                                 6
 STAT SP IPHASW D HRMM SECON CODA AMPLIT PERI AZIMU VELO AIN AR TRES W  DIS CAZ7
 BAR2 EZ EP       1954 38.96                             170   -0.1310 26.4 197 
 BAR2 EZ ES       1954 54.28                             170   -0.6510 26.4 197 
 BAR2 EZ I        1954 56.65        94.0 0.46            167           26.4 197 
 PAM  SZ EP       1954 41.77                             153    0.4610 73.3  38 
 PAM  SN ES   1   1954 59.13                             153    0.25 7 73.3  38 
 PAM  SZ I        1955  1.16        70.3 0.48            156           73.3  38 
 BRR  HZ EP   1   1954 40.89                             153    0.29 7 73.4 296 
 BRR  HN ES       1954 58.24                             153    0.6210 73.4 296 
 BRR  HZ I        1954 59.42        43.5 0.32            149           73.4 296 
 RUS  HZ EP       1954 42.95                             144   -0.2310  103 178 
 RUS  HN ES       1955  1.96                             144   -0.2610  103 178 
 RUS  HZ I        1955  4.10        45.5 0.32            144            103 178 
 OCA  HZ EP   1   1954 47.23                             131   -0.09 7  158 352 
 OCA  HN ES       1955  9.71                             131    0.12 9  158 352 
 OCA  HZ I        1955 14.43       112.4 0.44            131            158 352 
 SPBC HZ EP   1   1954 47.90                             129   -0.15 7  167 219 
 SPBC HN ES       1955 10.64                             129   -0.25 9  167 219 
 SPBC HZ I        1955 15.49       116.9 0.14            128            167 219 
 ZAR  HZ EP   1   1954 51.40                             123   -0.42 6  207 291 
 ZAR  HN ES       1955 17.81                             123    0.22 8  207 291 
 ZAR  HZ I        1955 23.53        56.4 0.48            122            207 291 
 NOR  HZ EP       1954 54.80                             119   -0.46 8  239 235 
 NOR  HN ES       1955 23.15                             119   -0.57 8  239 235 
 NOR  HZ I        1955 26.48        65.5 0.18            118            239 235 
 SML  HZ EP   1   1954 55.62                             118   -0.02 6  243 334 
 SML  HN ES   1   1955 23.85                             118   -0.54 6  243 334 
 SML  HZ I        1955 26.46        63.3 0.10            118            243 334 
 CHI  HZ EP       1954 57.00                             118   -0.11 8  252 196 
 CHI  HE ES       1955 28.03                             118    1.03 8  252 196 
 CHI  HZ I        1955 34.11        16.2 0.40            118            252 196 
 ROSC BZ EP       1954 58.30                             117    0.70 8  257 211 
 ROSC BN ES   4   1955 31.77                             117    3.90 0  257 211 
 ROSC BZ I        1955 36.36        57.6 0.45            117            257 211 
 HEL  HZ EP   1   1955  0.18                             115    0.48 6  276 256 
 HEL  HN ES       1955 31.84                             115    0.21 7  276 256 
 HEL  HZ I        1955 36.59        26.4 0.72            115            276 256 
 URE  HZ EP       1954 59.44                             114   -0.94 7  286 291 
 URE  HN ES   4   1955 29.67                             114   -3.16 0  286 291 
 URE  HZ I        1955 44.21        23.4 0.75            114            286 291 
 GUY2CHZ EP   1   1955  2.57                             113   -0.54 5  305 235 
 GUY2CHN ES   4   1955 39.63                             113    1.95 0  305 235 
 GUY2CHZ I        1955 45.56        42.2 0.76                           305 235 
 VIL  SZ EP   1   1955  2.35                             113   -0.42 5  306 192 
 VIL  SN ES   4   1955 38.50                             113    1.42 0  306 192 
 VIL  SZ I        1955 46.37        26.4 0.47            113            306 192 
 PTGC HZ EP   4   1955  1.85                             112   -1.11 0  310 159 
 PTGC HN ES   4   1955 33.39                             112   -4.03 0  310 159 
 PTGC HZ I        1955 37.31        25.4 0.28            113            310 159 
 RREF HZ EP       1955  5.74                             111    0.11 7  326 229 
 RREF HN ES   4   1955 44.62                             111    2.45 0  326 229 
 RREF HZ I        1955 49.70        12.7 0.26            111            326 229 
 CBOC HZ EP   1   1955  6.88                             110    0.50 5  338 252 
 CBOC HN ES   4   1955 42.12                             110   -1.39 0  338 252 
 CBOC HZ I        1955 46.96        12.3 0.20            110            338 252 
 TOL  SZ EP   1   1955  8.56                             110    0.84 5  348 225 
 TOL  SN ES   4   1955 47.29                             110    1.39 0  348 225 
 TOL  SZ I        1955 50.32        19.7 0.62            110            348 225 
 MON  HZ EP   4   1955  5.43                             109   -2.72 0  355 308 
 MON  HN ES   4   1955 44.26                             109   -2.40 0  355 308 
 MON  HZ I        1955 59.52        11.1 0.44            109            355 308 
 SDV  BZ EP   4   1955  8.36                             109   -0.17 0  356  50 
 SDV  BN ES   4   1955 45.23                             109   -2.10 0  356  50 
 SDV  BZ I        1955 49.21         5.9 0.35            111            356  50 
 ANIL HZ EP   1   1955  9.00                             109   -0.26 5  362 225 
 ANIL HN ES   4   1955 49.89                             109    1.25 0  362 225 
 ORTC HZ EP       1955 13.36                             107    0.02 6  399 216 
 ORTC HN ES       1955 56.42                             107    0.52 6  399 216 
 ORTC HZ I        1956  1.74        17.5 0.46            107            399 216 
 SJC  HZ EP   4   1955 13.27                             106   -1.25 0  409 326 
 SJC  HN ES   4   1955 53.91                             106   -4.09 0  409 326 
 SJC  HZ I        1955 59.33         7.5 0.42            106            409 326 
 CRJC HZ EP   4   1955 18.25                             104   -2.88 0  465   3 
 CRJC HE ES   4   1956  6.43                             104   -3.33 0  465   3 
 CRJC HZ I        1956  9.31        10.1 0.72            105            465   3 
                                                                                
