 2013  531 1215 58.1 L   6.799 -73.020143.3  RSN  4 0.2 1.4LRSN                1
 GAP=216        0.53       6.1    10.2  6.9  0.4822E+02 -0.3929E+02 -0.2615E+02E
 Epicentro: CEPITA - SANTANDER                                                 3
 ACTION:UPD 13-06-20 09:55 OP:ep   STATUS:               ID:20130531121558 L   I
 2013-05-31-1208-45M.COL___216                                                 6
 STAT SP IPHASW D HRMM SECON CODA AMPLIT PERI AZIMU VELO AIN AR TRES W  DIS CAZ7
 BAR2 SZ EP       1216 17.62                             168    0.0210 29.1 218 
 BAR2 SZ ES       1216 32.57                             168   -0.2110 29.1 218 
 BAR2 SZ I        1216 33.56         5.1 0.14            170           29.1 218 
 GIR2 SZ EP       1216 17.86                             165    0.1910 36.4 328 
 BRR  HZ EP       1216 19.52                             148   -0.2610 83.7 294 
 BRR  HN ES       1216 36.83                             148    0.1610 83.7 294 
 RUS  HN ES       1216 40.07                             143    0.1010  100 184 
                                                                                
