 2014  731 1343 31.2 L   6.825 -73.109144.0  RSN  8 0.5 1.8LRSN                1
 GAP=204        1.18       4.5     5.9  7.7  0.3619E+01  0.1046E+02 -0.3543E+01E
 Epicentro: LOS SANTOS - SANTANDER                                             3
 ACTION:UPD 15-03-16 20:48 OP:nd   STATUS:               ID:20140731134331 L   I
 OLDACT:UP  14-07-31 21:57 OP:carl STATUS:               ID:20140731133818     3
 OLDACT:REG 14-07-31 21:19 OP:carl STATUS:               ID:20140731133818     3
 2014-07-31-1338-18M.COL___257                                                 6
 STAT SP IPHASW D HRMM SECON CODA AMPLIT PERI AZIMU VELO AIN AR TRES W  DIS CAZ7
 BAR2 SZ EP       1343 51.07                             169    0.3810 27.0 197 
 BAR2 SZ ES       1344  6.15                             169    0.2510 27.0 197 
 BAR2 SZ I        1344  7.18        11.6 0.26            170           27.0 197 
 BRR  HZ EP       1343 53.00                             152    0.7110 73.6 295 
 BRR  HN ES       1344  9.12                             152    0.3810 73.6 295 
 BRR  HZ I        1344 13.25        11.3 0.42            151           73.6 295 
 RUS  HZ EP       1343 54.89                             143   -0.0710  103 178 
 RUS  HN ES       1344 12.89                             143   -0.6110  103 178 
 RUS  HZ I        1344 14.89         3.8 0.30            145            103 178 
 PTB  HZ EP       1343 57.95                             131   -0.48 9  152 258 
 PTB  HN ES       1344 18.94                             131   -0.74 9  152 258 
 PTB  HZ I        1344 21.19         7.4 0.14            132            152 258 
 ZAR  HN ES       1344 29.64                             122    0.39 8  207 291 
 NOR  HN ES       1344 35.84                             118    0.29 8  240 234 
 NOR  HZ I        1344 38.77         7.0 0.18            119            240 234 
 SML  HZ EP       1344  7.29                             117   -0.35 8  243 334 
 SML  HN ES       1344 35.30                             117   -0.76 8  243 334 
 SML  HZ I        1344 39.22        11.5 0.26            119            243 334 
 GUY2CHZ EP       1344 15.85                             112    0.57 7  306 235 
 GUY2CHN ES       1344 49.60                             112   -0.06 7  306 235 
 GUY2CHZ I        1344 56.20         3.5 0.48                           306 235 
                                                                                
