 2014 1231 1942 14.6 L   6.799 -73.143148.3  RSN 11 0.3 2.2LRSN                1
 GAP=137        0.73       1.9     3.0  4.3 -0.9793E+00  0.4125E+01 -0.6645E+00E
 Epicentro: LOS SANTOS - SANTANDER                                             3
 ACTION:UPD 15-02-10 17:08 OP:nd   STATUS:               ID:20141231194214 L   I
 OLDACT:UP  15-01-01 00:13 OP:cam  STATUS:               ID:20141231193749d    3
 OLDACT:DUP 14-12-31 23:52 OP:cam  STATUS:               ID:20141231193749d    3
 2014-12-31-1937-48M.COL___271                                                 6
 STAT SP IPHASW D HRMM SECON CODA AMPLIT PERI AZIMU VELO AIN AR TRES W  DIS CAZ7
 BAR2 EZ EP       1942 34.81                             171    0.2410 23.3 191 
 BAR2 EZ ES       1942 50.16                             171    0.0410 23.3 191 
 BAR2 EZ I        1942 52.45        36.5 0.28            168           23.3 191 
 PAM  SZ EP       1942 37.49                             151    0.3810 77.3  39 
 PAM  SN ES       1942 54.92                             151    0.2710 77.3  39 
 PAM  SZ I        1942 56.92        25.8 0.46            157           77.3  39 
 RUS  HZ EP       1942 38.72                             144    0.1010  100 176 
 RUS  HE ES       1942 56.96                             144   -0.3810  100 176 
 RUS  HZ I        1942 58.81        11.6 0.38            147            100 176 
 PTB  HZ EP       1942 41.86                             132    0.03 9  148 259 
 PTB  HN ES       1943  2.82                             132   -0.22 9  148 259 
 PTB  HZ I        1943 10.35        20.5 0.28            132            148 259 
 OCA  HZ EP       1942 42.88                             130   -0.27 9  160 353 
 OCA  HN ES       1943  5.14                             130   -0.26 9  160 353 
 OCA  HZ I        1943 13.29        16.6 0.18            132            160 353 
 SPBC HZ EP       1942 43.20                             130   -0.13 9  163 219 
 SPBC HN ES       1943  5.54                             130   -0.18 9  163 219 
 SPBC HZ I        1943 12.64        33.6 0.46            130            163 219 
 ZAR  HZ EP       1942 47.87                             123    0.60 9  204 292 
 ZAR  HN ES       1943 13.15                             123    0.42 9  204 292 
 ZAR  HZ I        1943 23.39        16.9 0.48            123            204 292 
 NOR  HZ EP       1942 50.75                             119    0.23 8  235 235 
 NOR  HN ES       1943 18.68                             119    0.16 8  235 235 
 NOR  HZ I        1943 22.30        13.5 0.36            120            235 235 
 SML  HZ EP       1942 50.93                             118   -0.49 8  244 335 
 SML  HN ES       1943 19.65                             118   -0.47 8  244 335 
 SML  HZ I        1943 23.20        33.1 0.26            120            244 335 
 CHI  HZ EP       1942 52.26                             118   -0.21 8  249 195 
 CHI  HN ES       1943 21.92                             118   -0.06 8  249 195 
 CHI  HZ I        1943 30.82         5.4 0.66            120            249 195 
 RREF HZ EP   4   1943  2.67                             111    1.77 0  322 229 
 RREF HN ES   4   1943 40.16                             111    3.17 0  322 229 
 RREF HZ I        1943 46.63         8.1 0.22            113            322 229 
                                                                                
