 2013  531 1008 12.0 L   6.781 -73.157146.4  RSN 12 0.5 2.5LRSN                1
 GAP= 71        1.23       3.8     3.8  5.9  0.7893E+00  0.5448E+01  0.1443E-01E
 Epicentro: LOS SANTOS - SANTANDER                                             3
 ACTION:UPD 13-06-20 09:55 OP:ep   STATUS:               ID:20130531100812 L   I
 2013-05-31-0958-51M.COL___214                                                 6
 STAT SP IPHASW D HRMM SECON CODA AMPLIT PERI AZIMU VELO AIN AR TRES W  DIS CAZ7
 BAR2 SZ EP       10 8 31.47                             171   -0.1710 21.1 187 
 BAR2 SZ ES       10 8 46.69                             171   -0.2910 21.1 187 
 BAR2 SZ I        10 8 48.40        25.8 0.40            172           21.1 187 
 GIR2 SZ EP       10 8 32.03                             167    0.2610 33.1 353 
 GIR2 SZ ES       10 8 46.95                             167   -0.2710 33.1 353 
 BRR  HZ IP       10 8 33.47                             153    0.2910 71.1 300 
 BRR  HN ES       10 8 50.85                             153    1.1210 71.1 300 
 BRR  HE I        10 8 51.86        63.6 0.30            151           71.1 300 
 PAM  SE ES       10 8 52.40                             150    0.5010 79.8  39 
 RUS  HZ EP       10 8 35.75                             145    0.1010 98.6 175 
 RUS  HN ES       10 8 53.71                             145   -0.4010 98.6 175 
 RUS  HE I        10 8 56.02        29.3 0.44            146           98.6 175 
 PTB  HZ EP       10 8 38.12                             132   -0.72 9  146 260 
 PTB  HN ES       10 8 59.54                             132   -0.26 9  146 260 
 PTB  HE I        10 9  5.38        30.1 0.24            133            146 260 
 TAM  HZ IP     D 10 8 39.75                             131   -0.02 9  156 104 
 TAM  HZ I        10 8 39.81        19.1 0.34            133            156 104 
 TAM  HN ES       10 9  1.30                             131   -0.15 9  156 104 
 OCA  HZ EP       10 8 41.05                             129    0.54 9  162 354 
 OCA  HN ES       10 9  2.36                             129   -0.41 9  162 354 
 OCA  HN I        10 9  5.73        74.5 0.24            130            162 354 
 ZAR  HZ EP       10 8 44.57                             123    0.15 9  204 293 
 ZAR  HN ES       10 9  9.55                             123   -0.17 9  204 293 
 ZAR  HE I        10 9 14.49        54.9 0.16            123            204 293 
 NOR  HZ EP       10 8 47.79                             119    0.29 8  232 235 
 NOR  HE ES       10 9 15.07                             119   -0.14 8  232 235 
 SML  HZ EP       10 8 48.12                             117   -0.66 8  245 336 
 SML  HN ES       10 9 16.62                             117   -0.87 8  245 336 
 SML  HE I        10 9 21.33        43.9 0.10            118            245 336 
 HEL  HZ EP       10 8 53.11                             115    1.09 8  270 256 
                                                                                
