 2010 1231 1816 49.7 L   6.799 -73.143146.6  RSN  5 0.1 1.5LRSN                1
 GAP=159        0.34       2.7     5.2  4.5 -0.7866E+01  0.8121E+01 -0.1103E+01E
 Epicentro: LOS SANTOS - SANTANDER                                             3
 ACTION:UP  11-01-14 15:28 OP:pat  STATUS:               ID:20101231181649 L   I
 2010-12-31-1800-00M.COL___137                                                 6
 STAT SP IPHASW D HRMM SECON CODA AMPLIT PERI AZIMU VELO SNR AR TRES W  DIS CAZ7
 BAR2 SZ EP   1   1817  9.39                             171     0.0 7   23 191 
 BAR2 SZ ES   2   1817 24.89                             171     0.1 5   23 191 
 BAR2 SZ I        1817 26.99        20.5 0.28                            23 191 
 RUS  HZ EP   1   1817 13.38                             144    -0.1 7  100 176 
 RUS  HE ES   2   1817 32.10                             144     0.0 5  100 176 
 RUS  HZ I        1817 33.61         5.3 0.47                           100 176 
 GRA  SZ EP   1   1817 14.91                             137    -0.1 7  126  17 
 GRA  SZ ES   2   1817 34.70                             137     0.0 5  126  17 
 GRA  SZ I        1817 41.13         4.0 0.37                           126  17 
 NOR  SZ EP   1   1817 25.71                             119     0.2 6  235 235 
 NOR  SN ES   2   1817 53.16                             119    -0.2 4  235 235 
 NOR  SZ I        1817 58.67         1.2 0.48                           235 235 
 CHI  HZ EP   1   1817 27.53                             117     0.1 6  249 195 
 CHI  HN ES   2   1817 56.57                             117    -0.3 4  249 195 
 CHI  HZ I        1818  7.03         2.3 0.60                           249 195 
                                                                                
