 2013  131 1436 48.2 L   6.720 -73.233150.6  RSN  4 0.5 1.9LRSN                1
 GAP=209        1.06       6.6    14.5 10.4  0.4748E+02  0.1286E+02  0.1695E+02E
 Epicentro: VILLANUEVA - SANTANDER                                             3
 ACTION:UPD 13-02-15 09:18 OP:ep   STATUS:               ID:20130131143648 L   I
 2013-01-31-1428-50M.COL___195                                                 6
 STAT SP IPHASW D HRMM SECON CODA AMPLIT PERI AZIMU VELO AIN AR TRES W  DIS CAZ7
 BAR2 SZ EP   1   1437  7.63                             174   -0.61 7 15.2 158 
 BAR2 SZ ES   1   1437 23.09                             174   -0.81 7 15.2 158 
 BAR2 SZ I        1437 24.03        21.0 0.46            174           15.2 158 
 BRR  HZ EP       1437  9.64                             154   -0.0310 68.1 309 
 BRR  HE ES       1437 26.72                             154    0.2810 68.1 309 
 BRR  HZ I        1437 30.24         9.4 0.46            153           68.1 309 
 RUS  HN EP       1437 12.25                             147    0.3810 92.9 170 
 RUS  HE ES       1437 30.81                             147    0.4510 92.9 170 
 RUS  HN I        1437 32.14        13.9 0.35            149           92.9 170 
 CHI  HN ES       1437 53.22                             119   -0.44 8  238 193 
                                                                                
