 2014  831 1121 16.5 L   6.805 -73.147146.0  RSN  7 0.5 1.7LRSN                1
 GAP=112        1.37       5.1     7.2  9.4 -0.2620E+01 -0.9771E+01 -0.2699E+01E
 Epicentro: LOS SANTOS - SANTANDER                                             3
 ACTION:UPD 14-09-15 21:54 OP:nd   STATUS:               ID:20140831112116 L   I
 OLDACT:DUP 14-09-01 00:20 OP:stll STATUS:               ID:20140831111820d    3
 2014-08-31-1118-18M.COL___269                                                 6
 STAT SP IPHASW D HRMM SECON CODA AMPLIT PERI AZIMU VELO AIN AR TRES W  DIS CAZ7
 BAR2 SZ EP       1121 36.19                             170   -0.0110 23.8 189 
 BAR2 SZ ES       1121 51.14                             170   -0.4010 23.8 189 
 BAR2 SZ I        1121 52.31        12.3 0.14            170           23.8 189 
 BRR  HZ EP       1121 38.67                             153    0.9910 70.8 298 
 BRR  HN ES       1121 54.99                             153    0.8110 70.8 298 
 BRR  HZ I        1121 56.03         7.7 0.52            149           70.8 298 
 PTB  HZ EP       1121 43.11                             132   -0.40 9  148 259 
 PTB  HN ES       1122  3.93                             132   -0.63 9  148 259 
 PTB  HZ I        1122  6.68         5.1 0.16            130            148 259 
 TAM  HZ EP       1121 44.35                             131    0.10 9  155 105 
 OCA  HN ES       1122  5.96                             130   -0.90 9  160 353 
 SPBC HZ EP       1121 45.07                             129   -0.01 9  163 219 
 SPBC HN ES       1122  7.42                             129    0.08 9  163 219 
 SPBC HZ I        1122 12.08         5.2 0.14            128            163 219 
 SML  HZ EP       1121 52.81                             118   -0.30 8  243 335 
 SML  HN ES       1122 22.10                             118    0.46 8  243 335 
 SML  HZ I        1122 29.72         3.8 0.10            117            243 335 
                                                                                
