 2016 1231 1301 10.7 L   6.801 -73.146141.3  RSN 12 0.5 2.2LRSN                1
 GAP=136        1.16       3.9     4.4  6.5 -0.6646E+00  0.1056E+02  0.7645E+01E
 Epicentro: LOS SANTOS - SANTANDER                                             3
 ACTION:UPD 17-01-11 20:21 OP:rebc STATUS:               ID:20161231130110 L   I
 OLDACT:UP  16-12-31 22:19 OP:lv   STATUS:               ID:20161231125746     3
 OLDACT:REG 16-12-31 20:18 OP:lv   STATUS:               ID:20161231125746     3
 2016-12-31-1258-00M.COL___363                                                 6
 STAT SP IPHASW D HRMM SECON CODA AMPLIT PERI AZIMU VELO AIN AR TRES W  DIS CAZ7
 BAR2 EZ IP     C 13 1 29.70                             170   -0.0910 23.4 190 
 BAR2 EZ ES       13 1 44.80                             170    0.1210 23.4 190 
 BAR2 EZ I        13 1 47.43        50.1 0.36            167           23.4 190 
 BRR  HZ IP     C 13 1 31.61                             152    0.2610 71.1 298 
 BRR  HN ES       13 1 48.28                             152    0.8110 71.1 298 
 BRR  HZ I        13 1 51.91        26.7 0.32            151           71.1 298 
 PAM  EZ EP       13 1 32.66                             150    0.2310 77.3  40 
 PAM  EE ES       13 1 48.87                             150   -0.5110 77.3  40 
 PAM  EZ I        13 1 51.72        28.3 0.28            156           77.3  40 
 RUS  HZ EP       13 1 33.73                             143   -0.2810  101 176 
 RUS  HE ES       13 1 52.20                             143   -0.0010  101 176 
 RUS  HZ I        13 1 53.44        22.3 0.32            143            101 176 
 PTB  HZ EP       13 1 36.49                             131   -0.81 9  148 259 
 PTB  HN ES       13 1 57.16                             131   -0.89 9  148 259 
 PTB  HZ I        13 1 58.47        17.3 0.14            130            148 259 
 ZAR  HZ EP       13 1 42.96                             121    0.12 9  204 292 
 ZAR  HE ES       13 2  8.16                             121    0.25 9  204 292 
 ZAR  HZ I        13 2 13.84        27.6 0.31            122            204 292 
 CHI  HZ EP       13 1 48.16                             116    0.00 8  249 195 
 CHI  HN ES       13 2 17.12                             116   -0.26 8  249 195 
 CHI  HZ I        13 2 25.39         6.1 0.48            117            249 195 
 ROSC BZ EP       13 1 49.48                             116    0.90 8  253 211 
 ROSC BN ES       13 2 18.92                             116    0.79 8  253 211 
 ROSC BZ I        13 2 27.59        19.4 0.30            116            253 211 
 GUY2CHZ EP       13 1 54.15                             111    0.05 7  301 235 
 GUY2CHE ES       13 2 27.07                             111   -0.89 7  301 235 
 GUY2CHZ I        13 2 37.31         8.1 0.27                           301 235 
 CBOC HZ EP   4   13 1 58.47                             109    1.05 0  334 252 
 CBOC HE ES       13 2 34.07                             109    0.20 7  334 252 
 CBOC HZ I        13 2 46.39         4.0 0.33            110            334 252 
 ORTC HZ EP   4   13 1 58.29                             106   -6.18 0  396 216 
 ORTC HE ES       13 2 47.03                             106    0.61 6  396 216 
 ORTC HZ I        13 2 54.43         5.7 0.36            106            396 216 
 PAL  HZ EP       13 2  5.46                             105   -0.25 6  406 239 
 PAL  HN ES       13 2 48.61                             105   -0.01 6  406 239 
 PAL  HZ I        13 2 52.95         3.4 0.32            106            406 239 
 SJC  HZ EP   4   13 2  4.24                             105   -1.85 0  409 327 
 SJC  HN ES   4   13 2 45.38                             105   -3.93 0  409 327 
                                                                                
