 2010  831 1847 47.4 L   6.772 -73.064143.8  RSN 11 0.3 2.2LRSN                1
 GAP=168        0.68       3.0     5.4  5.2 -0.4154E+01  0.1109E+01 -0.4501E+00E
 Epicentro: LOS SANTOS - SANTANDER                                             3
 ACTION:UP  10-09-07 10:59 OP:vdl  STATUS:               ID:20100831184747 L   I
 2010-08-31-1843-50S.COL___120                                                 6
 STAT SP IPHASW D HRMM SECON CODA AMPLIT PERI AZIMU VELO SNR AR TRES W  DIS CAZ7
 BAR2 SZ EP   1   1848  6.70                             170    -0.1 7   24 214 
 BAR2 SZ ES   1   1848 22.06                             170     0.1 7   24 214 
 BAR2 SZ I        1848 23.70        45.4 0.22                            24 214 
 BRR  HZ IP     C 1848  8.82                             149    -0.110   81 297 
 BRR  HZ I        1848  9.07        72.8 0.10                            81 297 
 BRR  HE ES   1   1848 25.91                             149     0.2 7   81 297 
 RUS  HZ EP       1848 10.58                             145    -0.210   97 181 
 RUS  HE ES   1   1848 28.88                             145    -0.1 7   97 181 
 RUS  HZ I        1848 30.80        25.3 0.55                            97 181 
 GUE  SZ EP       1848 12.21                             138     0.110  118   7 
 GUE  SZ I        1848 13.22        13.4 0.04                           118   7 
 GRA  SZ EP       1848 12.98                             136     0.410  126  13 
 GRA  SZ ES   2   1848 32.22                             136     0.1 5  126  13 
 GRA  SZ I        1848 36.05        14.6 0.23                           126  13 
 OCA  SZ EP   2   1848 15.76                             128    -0.2 5  165 350 
 OCA  SZ ES   2   1848 37.36                             128    -0.9 5  165 350 
 OCA  SZ I        1848 45.48        17.4 0.42                           165 350 
 CHI  HZ EP   2   1848 24.38                             117    -0.6 4  248 197 
 CHI  HE ES   2   1848 54.25                             117     0.0 4  248 197 
 CHI  HZ I        1848 57.40         4.8 0.59                           248 197 
 HEL  HZ EP   2   1848 28.23                             114    -0.2 4  280 257 
 HEL  HE ES   2   1848 59.96                             114    -0.5 4  280 257 
 HEL  HZ I        1849  7.05         9.5 0.25                           280 257 
 GUY  SZ EP   2   1848 32.34                             112     0.7 4  307 236 
 GUY  SZ I        1849 12.46        24.4 0.54                           307 236 
 RREF HZ EP   2   1848 34.29                             110     0.2 3  327 231 
 RREF HN ES   2   1849 11.08                             110     0.7 3  327 231 
 RREF HZ I        1849 14.31         8.4 0.27                           327 231 
 PRA  HZ EP   1   1848 40.68                             106    -0.4 4  394 211 
 PRA  HZ I        1849 26.96         5.4 0.16                           394 211 
                                                                                
