 2014  131 1029 27.6 L   6.719 -73.220140.2  RSN  4 0.4 1.3LRSN                1
 GAP=262        0.90       9.3     6.6  7.3  0.2849E+02  0.1282E+02  0.1114E+02E
 Epicentro: VILLANUEVA - SANTANDER                                             3
 ACTION:UPD 14-03-13 10:00 OP:ep   STATUS:               ID:20140131102927 L   I
 OLDACT:REG 14-01-31 15:40 OP:stll STATUS:               ID:20140131102807     3
 2014-01-31-1028-07M.COL___217                                                 6
 STAT SP IPHASW D HRMM SECON CODA AMPLIT PERI AZIMU VELO AIN AR TRES W  DIS CAZ7
 BAR2 SZ EP       1029 46.17                             174   -0.2610 14.6 163 
 BAR2 SZ I        1029 46.36         7.5 0.30            170           14.6 163 
 BAR2 SZ ES       1030  1.57                             174    0.4610 14.6 163 
 RUS  HZ EP       1029 50.30                             145    0.0510 92.6 171 
 RUS  HN ES       1030  7.47                             145   -0.4410 92.6 171 
 RUS  HZ I        1030  9.56         3.4 0.34            144           92.6 171 
 PTB  HZ EP       1029 53.01                             133   -0.25 9  138 262 
 PTB  HN ES       1030 13.28                             133    0.01 9  138 262 
 PTB  HZ I        1030 17.95         1.8 0.10            131            138 262 
 CHI  HZ EP       1030  4.47                             117    0.63 8  238 194 
                                                                                
