 2014  831 1034 13.4 L   6.805 -73.142140.2  RSN 14 0.5 1.9LRSN                1
 GAP= 71        1.23       3.1     4.2  6.0 -0.4704E+00  0.5975E+01  0.2713E+01E
 Epicentro: LOS SANTOS - SANTANDER                                             3
 ACTION:UPD 14-09-15 21:54 OP:nd   STATUS:               ID:20140831103413 L   I
 OLDACT:DUP 14-08-31 23:01 OP:stll STATUS:               ID:20140831102816d    3
 2014-08-31-1028-15M.COL___269                                                 6
 STAT SP IPHASW D HRMM SECON CODA AMPLIT PERI AZIMU VELO AIN AR TRES W  DIS CAZ7
 BAR2 SZ EP       1034 32.65                             170    0.2410 24.0 191 
 BAR2 SZ ES       1034 47.63                             170    0.4210 24.0 191 
 BAR2 SZ I        1034 49.53        13.2 0.26            169           24.0 191 
 BRR  HZ EP       1034 34.94                             151    0.9510 71.3 298 
 BRR  HN ES       1034 50.70                             151    0.6810 71.3 298 
 BRR  HZ I        1034 54.32         7.2 0.18            151           71.3 298 
 PAM  SN ES       1034 51.54                             150   -0.3110 76.7  40 
 PAM  SZ I        1034 55.02        14.7 0.20            154           76.7  40 
 RUS  HZ EP       1034 36.52                             142   -0.1610  101 176 
 RUS  HN ES       1034 54.38                             142   -0.4410  101 176 
 RUS  HZ I        1035  0.06         4.8 0.30            145            101 176 
 PTB  HZ EP       1034 39.73                             131   -0.27 9  148 259 
 PTB  HN ES       1035  0.68                             131   -0.04 9  148 259 
 PTB  HZ I        1035  6.79        11.0 0.42            132            148 259 
 TAM  HZ EP       1034 41.01                             129    0.36 9  155 105 
 TAM  HZ I        1034 41.97        12.1 0.58            134            155 105 
 OCA  HN ES       1035  2.24                             128   -0.73 9  160 353 
 OCA  HZ I        1035 11.39         7.7 0.22            131            160 353 
 SPBC HZ EP       1034 41.63                             128    0.05 9  164 219 
 SPBC HN ES       1035  3.20                             128   -0.33 9  164 219 
 SPBC HZ I        1035  8.92        13.1 0.16            129            164 219 
 ZAR  HZ EP       1034 45.90                             121    0.36 9  204 292 
 ZAR  HE ES       1035 10.58                             121    0.00 9  204 292 
 ZAR  HZ I        1035 17.15         9.0 0.28            123            204 292 
 NOR  HZ EP       1034 48.80                             117   -0.12 8  235 234 
 NOR  HN ES       1035 15.84                             117   -0.75 8  235 234 
 NOR  HZ I        1035 23.94         6.4 0.32            119            235 234 
 SML  HZ EP       1034 49.34                             116   -0.37 8  243 335 
 SML  HN ES       1035 17.26                             116   -0.75 8  243 335 
 CHI  HZ EP       1034 50.94                             116    0.04 8  249 195 
 CHI  HN ES       1035 19.73                             116   -0.40 8  249 195 
 CHI  HZ I        1035 24.20         3.6 0.38            118            249 195 
 HEL  HZ EP       1034 54.90                             114    1.47 8  273 256 
 HEL  HN ES       1035 24.48                             114   -0.14 8  273 256 
 HEL  HZ I        1035 31.46         3.9 0.34            115            273 256 
 PRA  HZ EP       1035  6.24                             105   -0.61 6  393 210 
 PRA  HN ES       1035 48.78                             105    0.27 6  393 210 
 PRA  HZ I        1035 54.18         4.3 0.64            107            393 210 
                                                                                
