 2015  831 1755 42.5 L   6.830 -73.157147.9  RSN 15 0.5 2.5LRSN                1
 GAP=144        1.12       3.0     4.7  5.8 -0.3759E+01  0.8517E+01  0.4104E+01E
 Epicentro: LOS SANTOS - SANTANDER                                             3
 ACTION:UPD 15-09-15 23:06 OP:cam  STATUS:               ID:20150831175542 L   I
 OLDACT:UP  15-09-01 02:47 OP:ak   STATUS:               ID:20150831174750     3
 OLDACT:REG 15-08-31 22:07 OP:ak   STATUS:               ID:20150831174750     3
 2015-08-31-1747-50M.COL___361                                                 6
 STAT SP IPHASW D HRMM SECON CODA AMPLIT PERI AZIMU VELO AIN AR TRES W  DIS CAZ7
 BAR2 EZ EP       1756  2.26                             169   -0.1910 26.4 186 
 BAR2 EZ ES       1756 17.65                             169   -0.3710 26.4 186 
 BAR2 EZ I        1756 20.95        32.1 0.24            168           26.4 186 
 BRR  HZ IP     C 1756  4.21                             154    0.4810 68.6 297 
 BRR  HN ES       1756 21.29                             154    0.9910 68.6 297 
 BRR  HZ I        1756 24.77        51.8 0.30            152           68.6 297 
 PAM  EZ EP       1756  5.17                             152    0.3310 75.7  42 
 PAM  EN ES       1756 22.31                             152    0.0410 75.7  42 
 PAM  EZ I        1756 24.64        58.8 0.50            157           75.7  42 
 OCA  HN ES       1756 32.45                             131   -0.17 9  157 353 
 OCA  HZ I        1756 36.19        48.3 0.18            133            157 353 
 SPBC HZ EP       1756 11.27                             129   -0.06 9  165 218 
 SPBC HN ES       1756 33.39                             129   -0.43 9  165 218 
 SPBC HZ I        1756 36.09        56.6 0.10            130            165 218 
 ZAR  HZ EP       1756 14.07                             123   -0.77 9  202 291 
 ZAR  HN ES       1756 39.29                             123   -0.78 9  202 291 
 ZAR  HZ I        1756 46.34        25.5 0.27            124            202 291 
 NOR  HZ EP       1756 18.49                             119    0.04 8  236 234 
 NOR  HE ES       1756 45.97                             119   -0.52 8  236 234 
 NOR  HZ I        1756 52.10        17.6 0.18            120            236 234 
 SML  HZ EP       1756 18.88                             118    0.02 8  240 335 
 SML  HN ES       1756 47.02                             118   -0.21 8  240 335 
 SML  HZ I        1756 55.21        37.9 0.10            120            240 335 
 CHI  HZ EP       1756 20.05                             117   -0.57 8  251 195 
 CHI  HN ES       1756 49.66                             117   -0.70 8  251 195 
 CHI  HZ I        1756 59.72        10.8 0.44            119            251 195 
 ROSC BZ EP       1756 21.90                             117    0.93 8  255 210 
 ROSC BN ES       1756 50.72                             117   -0.26 8  255 210 
 ROSC BZ I        1756 56.83        28.1 0.30            118            255 210 
 GUY2CHZ EP   1   1756 26.50                             113    0.20 5  302 234 
 GUY2CHN ES       1757  0.88                             113    0.40 7  302 234 
 GUY2CHZ I        1757  9.96        11.1 0.60                           302 234 
 ELA  HZ EP       1756 29.42                             111   -0.15 7  330 229 
 ELA  HN ES       1757  6.85                             111    0.55 7  330 229 
 ELA  HZ I        1757 15.85         8.9 0.40            112            330 229 
 CBOC HZ EP       1756 29.55                             110    0.07 7  333 251 
 CBOC HN ES       1757  6.32                             110    0.19 7  333 251 
 CBOC HZ I        1757 12.01         4.0 0.13            111            333 251 
 TOL  SZ EP       1756 31.63                             110    0.62 7  345 224 
 TOL  SN ES       1757  9.73                             110    0.88 7  345 224 
 TOL  SZ I        1757 16.40        14.6 0.80            111            345 224 
 PRA  HZ EP       1756 35.81                             107   -0.54 6  394 209 
 PRA  HN ES       1757 19.04                             107    0.68 6  394 209 
 PRA  HZ I        1757 22.98        10.7 0.42            108            394 209 
                                                                                
