 2014  131 1344 52.4 L   6.765 -73.156140.1  RSN  5 0.5 1.8LRSN                1
 GAP=137        1.24       6.4     6.5 10.1 -0.3625E+01 -0.7217E+00  0.2396E+01E
 Epicentro: LOS SANTOS - SANTANDER                                             3
 ACTION:UPD 14-03-13 10:00 OP:ep   STATUS:               ID:20140131134452 L   I
 OLDACT:REG 14-01-31 15:52 OP:stll STATUS:               ID:20140131133818     3
 2014-01-31-1338-18M.COL___236                                                 6
 STAT SP IPHASW D HRMM SECON CODA AMPLIT PERI AZIMU VELO AIN AR TRES W  DIS CAZ7
 BAR2 SZ EP       1345 11.19                             172   -0.1210 19.3 189 
 BAR2 SZ ES       1345 26.04                             172    0.0110 19.3 189 
 BAR2 SZ I        1345 26.97        15.0 0.16            172           19.3 189 
 BRR  HZ EP       1345 13.29                             151    0.2510 72.1 302 
 BRR  HN ES       1345 29.97                             151    0.8710 72.1 302 
 BRR  HZ I        1345 34.23         9.8 0.44            151           72.1 302 
 PAM  SZ EP       1345 14.18                             149   -0.1110 81.1  38 
 PAM  SN ES       1345 30.82                             149   -0.5110 81.1  38 
 PAM  SZ I        1345 32.91        13.7 0.48            151           81.1  38 
 RUS  HZ EP       1345 15.76                             144    0.3910 96.8 175 
 RUS  HE ES       1345 33.25                             144    0.0010 96.8 175 
 RUS  HZ I        1345 35.43         7.5 0.38            147           96.8 175 
 PTB  HN ES       1345 38.43                             131   -0.90 9  146 260 
 PTB  HZ I        1345 41.97         7.9 0.14            132            146 260 
                                                                                
