 2011  831 1216 12.4 L   6.773 -73.137148.0  RSN 12 0.3 3.0LRSN                1
 GAP=184        0.66       2.9     4.5  4.5  0.1140E+01  0.6867E+01  0.3352E+01E
 Epicentro: LOS SANTOS - SANTANDER                                             3
 ACTION:UPD 12-07-13 15:54 OP:ep   STATUS:               ID:20110831121612 L   I
 2011-08-31-1213-45S.COL___164                                                 6
 STAT SP IPHASW D HRMM SECON CODA AMPLIT PERI AZIMU VELO AIN AR TRES W  DIS CAZ7
 BAR2 SZ IP       1216 32.14                             172   -0.1210 20.6 194 
 BAR2 SZ ES   1   1216 47.30                             172   -0.44 7 20.6 194 
 BAR2 SZ I        1216 48.65       163.2 0.44                          20.6 194 
 GIR2 SZ EP   1   1216 32.30                             166   -0.13 7 34.4 349 
 GIR2 SZ ES   1   1216 48.37                             166    0.32 7 34.4 349 
 BRR  HZ IP     D 1216 34.06                             152    0.1310 73.5 300 
 BRR  HZ I        1216 34.27       276.3 0.14                          73.5 300 
 BRR  HE ES   1   1216 51.46                             152    0.74 7 73.5 300 
 RUS  HZ EP       1216 36.01                             145   -0.1610 97.5 177 
 RUS  HN ES   1   1216 54.73                             145    0.03 7 97.5 177 
 RUS  HZ I        1216 55.92        81.0 0.28                          97.5 177 
 OCA  SZ EP   1   1216 41.16                             130   -0.02 7  163 353 
 OCA  SZ ES   1   1217  3.73                             130    0.11 7  163 353 
 OCA  SZ I        1217  7.47       132.7 0.29                           163 353 
 ZAR  HZ EP   1   1216 44.55                             123   -0.66 6  206 293 
 ZAR  HE ES   1   1217 10.07                             123   -0.73 6  206 293 
 ZAR  HZ I        1217 16.40       132.2 0.35                           206 293 
 NOR  SZ EP   1   1216 48.05                             119   -0.12 6  234 235 
 NOR  SN ES   1   1217 16.04                             119   -0.03 6  234 235 
 CHI  HZ EP   1   1216 50.04                             118    0.09 6  246 196 
 CHI  HZ I        1217 25.26        38.0 0.33                           246 196 
 HEL  HZ EP   1   1216 53.18                             115    0.42 6  272 256 
 HEL  HZ I        1217 31.68        47.3 0.32                           272 256 
 RREF HZ EP   1   1216 58.85                             111    0.33 5  321 230 
 RREF HZ I        1217 41.31        48.0 0.30                           321 230 
 TOL  SZ EP   1   1217  1.16                             110    0.57 5  342 225 
 PRA  HZ EP   1   1217  5.79                             107    0.03 4  390 210 
 PRA  HN ES   1   1217 47.52                             107    0.14 4  390 210 
                                                                                
