 2011 1231 1432 28.7 L   6.721 -73.199148.0  RSN  6 0.3 1.9LRSN                1
 GAP=225        0.49       5.8     5.8  6.1  0.1987E+02  0.7441E+01  0.9960E+01E
 Epicentro: VILLANUEVA - SANTANDER                                             3
 ACTION:UPD 12-07-13 16:19 OP:ep   STATUS:               ID:20111231143228 L   I
 2011-12-31-1430-00M.COL___186                                                 6
 STAT SP IPHASW D HRMM SECON CODA AMPLIT PERI AZIMU VELO AIN AR TRES W  DIS CAZ7
 BAR2 SZ EP   1   1432 48.31                             174   -0.14 7 14.3 172 
 BAR2 SZ ES   2   1433  3.48                             174   -0.38 5 14.3 172 
 BAR2 SZ I        1433  5.09        16.8 0.20                          14.3 172 
 BRR  HZ EP   1   1432 50.17                             153    0.10 7 71.0 307 
 BRR  HN ES   2   1433  7.41                             153    0.66 5 71.0 307 
 BRR  HZ I        1433 10.11        24.0 0.14                          71.0 307 
 RUS  HZ EP   1   1432 52.03                             147   -0.08 7 92.5 172 
 RUS  HN ES   2   1433 10.52                             147    0.15 5 92.5 172 
 RUS  HZ I        1433 12.11         4.9 0.21                          92.5 172 
 PTB  HZ EP   1   1432 54.93                             134   -0.27 7  140 262 
 PTB  HN ES   2   1433 15.69                             134   -0.18 5  140 262 
 ZAR  HN ES   2   1433 26.30                             123   -0.06 4  202 295 
 ZAR  HZ I        1433 33.28         8.3 0.22                           202 295 
 CHI  HZ EP   1   1433  5.84                             119    0.39 6  239 194 
                                                                                
