 2014  331 1650 59.8 L   6.818 -73.175142.7  RSN 10 0.4 2.1LRSN                1
 GAP=132        0.73       2.4     3.5  4.5 -0.2343E+01  0.5976E+01  0.3033E-02E
 Epicentro: LOS SANTOS - SANTANDER                                             3
 ACTION:UPD 14-04-09 23:22 OP:nd   STATUS:               ID:20140331165059 L   I
 OLDACT:UP  14-03-31 23:50 OP:cam  STATUS:               ID:20140331164812     3
 OLDACT:REG 14-03-31 21:29 OP:cam  STATUS:               ID:20140331164812     3
 2014-03-31-1648-12M.COL___249                                                 6
 STAT SP IPHASW D HRMM SECON CODA AMPLIT PERI AZIMU VELO AIN AR TRES W  DIS CAZ7
 BAR2 SZ EP       1651 19.07                             170   -0.0310 25.0 182 
 BAR2 SZ ES       1651 34.40                             170    0.2510 25.0 182 
 BAR2 SZ I        1651 35.30        61.4 0.32            169           25.0 182 
 PAM  SZ EP       1651 21.97                             150    0.2410 78.0  42 
 PAM  SN ES       1651 39.02                             150    0.1810 78.0  42 
 PAM  SZ I        1651 40.97        15.1 0.54            154           78.0  42 
 RUS  HZ EP   1   1651 23.03                             142   -0.39 7  103 174 
 RUS  HN ES       1651 41.49                             142   -0.3510  103 174 
 RUS  HZ I        1651 42.82         9.2 0.22            145            103 174 
 PTB  HZ EP       1651 26.64                             132    0.38 9  145 258 
 PTB  HN ES       1651 46.65                             132   -0.26 9  145 258 
 PTB  HZ I        1651 52.10         9.2 0.24            130            145 258 
 SPBC HZ EP       1651 28.03                             128    0.01 9  163 218 
 SPBC HN ES       1651 50.03                             128   -0.00 9  163 218 
 SPBC HZ I        1651 54.03        17.1 0.42            128            163 218 
 NOR  HZ EP   1   1651 35.51                             118    0.32 6  233 234 
 NOR  HN ES       1652  2.74                             118   -0.06 8  233 234 
 NOR  HZ I        1652 12.15         6.0 0.44            118            233 234 
 SML  HZ EP   1   1651 35.21                             117   -0.70 6  241 336 
 SML  HE ES       1652  3.79                             117   -0.29 8  241 336 
 SML  HZ I        1652 10.25        16.3 0.10            118            241 336 
 CHI  HZ EP       1651 37.27                             116   -0.18 8  250 194 
 CHI  HN ES       1652  6.77                             116   -0.05 8  250 194 
 CHI  HZ I        1652 10.10         6.4 0.60            118            250 194 
 GUY2CHZ EP   1   1651 44.37                             112    1.27 5  300 234 
 GUY2CHN I        1652 28.08         7.6 0.48                           300 234 
 PRA  HZ EP   1   1651 52.95                             106   -0.28 4  392 209 
 PRA  HN ES       1652 34.95                             106    0.04 6  392 209 
 PRA  HZ I        1652 40.91         8.4 0.80            107            392 209 
                                                                                
