 2010  331 1323 17.6 L   6.851 -73.014138.0  RSN  4 0.4 2.1LRSN                1
 GAP=281        0.77       9.6    12.6 10.7 -0.6836E+01  0.2743E+02  0.4451E+02E
 Epicentro: CEPITA - SANTANDER                                                 3
 ACTION:UP  10-08-24 09:57 OP:vdl  STATUS:               ID:20100331132317 L   I
 2010-03-31-1320-29S.COL___098                                                 6
 STAT SP IPHASW D HRMM SECON CODA AMPLIT PERI AZIMU VELO SNR AR TRES W  DIS CAZ7
 BAR2 SZ IP       1323 36.55                             165     0.010   34 213 
 BAR2 SZ ES   2   1323 51.62                             165     0.2 5   34 213 
 BRR  HZ IP       1323 38.29                             147    -0.310   82 290 
 BRR  HZ I        1323 38.51        30.5 0.03                            82 290 
 BRR  HE ES   2   1323 55.36                             147     0.4 5   82 290 
 RREF BZ EP   1   1324  6.17                             108     1.1 5  337 230 
 RREF BE ES   2   1324 41.70                             108    -0.5 3  337 230 
 RREF BZ I        1324 50.28         5.2 0.22                           337 230 
 PRA  HZ EP   1   1324 12.30                             105     0.0 4  404 211 
 PRA  HN ES   2   1324 54.52                             105    -0.4 3  404 211 
 PRA  HZ I        1325  0.12         3.4 0.25                           404 211 
                                                                                
