 2011  531 1715 43.4 L   6.778 -73.031143.6  RSN  6 0.4 1.5LRSN                1
 GAP=153        0.97       5.7    11.7 14.2 -0.6422E+01 -0.6309E+02 -0.3139E+01E
 Epicentro: CEPITA - SANTANDER                                                 3
 ACTION:UP  11-06-29 08:57 OP:tino STATUS:               ID:20110531171543 L   I
 2011-05-31-1710-37S.COL___115                                                 6
 STAT SP IPHASW D HRMM SECON CODA AMPLIT PERI AZIMU VELO SNR AR TRES W  DIS CAZ7
 BAR2 SZ EP   1   1716  2.21                             169    -0.6 7   26 219 
 BTL  SZ EP   1   1716  3.52                             167     0.6 7   30 301 
 PAM  SZ EP   1   1716  5.41                             152     0.3 7   72  30 
 PAM  SZ I        1716  5.74         6.0 0.13                            72  30 
 BRR  HZ EP   1   1716  4.48                             148    -0.6 7   84 296 
 BRR  HZ I        1716  4.85         9.5 0.18                            84 296 
 BRR  HN ES   1   1716 22.27                             148     0.3 7   84 296 
 RUS  HZ EP   1   1716  6.99                             144     0.2 7   98 183 
 RUS  HN ES   1   1716 24.84                             144    -0.1 7   98 183 
 RUS  HZ I        1716 26.64         4.0 0.36                            98 183 
 GRA  SZ EP   1   1716  8.46                             137     0.1 7  125  12 
 GRA  SZ ES   1   1716 27.57                             137    -0.3 7  125  12 
 GRA  SZ I        1716 29.79         5.4 0.25                           125  12 
                                                                                
