 2012  531 1952 35.3 L   6.739 -73.195144.0  RSN  5 0.2 1.8LRSN                1
 GAP=238        0.50       4.6     3.8  4.7  0.8862E+01  0.4760E+01 -0.2477E+01E
 Epicentro: VILLANUEVA - SANTANDER                                             3
 ACTION:UP  12-07-05 12:09 OP:pat  STATUS:               ID:20120531195234 L   I
 2012-05-31-1950-00M.COL___200                                                 6
 STAT SP IPHASW D HRMM SECON CODA AMPLIT PERI AZIMU VELO AIN AR TRES W  DIS CAZ7
 BAR2 SZ EP       1952 54.71                             173     0.110   16 175 
 BAR2 SZ ES       1953  9.56                             173    -0.110   16 175 
 BAR2 SZ I        1953 10.95        24.6 0.18                            16 175 
 RUS  HZ EP       1952 58.53                             145     0.110   94 172 
 RUS  HN ES       1953 16.63                             145     0.110   94 172 
 RUS  HZ I        1953 18.85         6.4 0.49                            94 172 
 PTB  HZ EP       1953  1.30                             133    -0.3 9  141 261 
 PTB  HE ES   1   1953 21.92                             133    -0.1 7  141 261 
 PTB  HZ I        1953 24.07         4.2 0.32                           141 261 
 ZAR  HZ EP   2   1953  7.47                             122     0.0 4  202 295 
 ZAR  HN ES   1   1953 32.85                             122     0.4 6  202 295 
 ZAR  HZ I        1953 41.46         7.0 0.26                           202 295 
 NOR  SN ES   2   1953 37.30                             119     0.1 4  226 235 
                                                                                
