 2015  831 1439 30.8 L   6.827 -73.187147.6  RSN 16 0.4 2.4LRSN                1
 GAP=130        0.95       2.2     3.6  4.9 -0.6261E+00  0.6525E+01  0.2092E+01E
 Epicentro: ZAPATOCA - SANTANDER                                               3
 ACTION:UPD 15-09-15 23:06 OP:cam  STATUS:               ID:20150831143930 L   I
 OLDACT:UP  15-09-01 02:28 OP:ak   STATUS:               ID:20150831143750     3
 OLDACT:REG 15-08-31 21:47 OP:ak   STATUS:               ID:20150831143750     3
 2015-08-31-1437-50M.COL___364                                                 6
 STAT SP IPHASW D HRMM SECON CODA AMPLIT PERI AZIMU VELO AIN AR TRES W  DIS CAZ7
 BAR2 EZ IP     D 1439 50.60                             170   -0.0710 25.9 179 
 BAR2 EZ ES   1   1440  5.93                             170   -0.26 7 25.9 179 
 BAR2 EZ I        1440  7.22        88.4 0.22            170           25.9 179 
 BRR  HZ EP       1439 52.52                             155    0.7010 65.7 298 
 BRR  HN ES       1440  8.45                             155    0.2110 65.7 298 
 BRR  HZ I        1440 10.61        31.6 0.16            152           65.7 298 
 PAM  EZ EP       1439 53.53                             151    0.3010 78.2  44 
 PAM  EN ES       1440 10.80                             151    0.0610 78.2  44 
 PAM  EZ I        1440 16.63        18.4 0.24            154           78.2  44 
 RUS  HZ EP       1439 54.58                             143   -0.3610  104 174 
 RUS  HN ES       1440 13.08                             143   -0.7110  104 174 
 RUS  HZ I        1440 14.45        20.0 0.32            146            104 174 
 OCA  HN ES       1440 21.37                             131    0.53 9  157 355 
 OCA  HZ I        1440 27.55        44.0 0.34            131            157 355 
 SPBC HZ EP       1439 59.53                             130    0.17 9  163 217 
 SPBC HN ES       1440 21.71                             130    0.06 9  163 217 
 SPBC HZ I        1440 24.80        38.1 0.18            130            163 217 
 ZAR  HZ EP       1440  2.57                             124   -0.21 9  199 292 
 ZAR  HN ES       1440 27.67                             124   -0.08 9  199 292 
 ZAR  HZ I        1440 34.65        18.6 0.28            123            199 292 
 NOR  HZ EP       1440  6.70                             119    0.31 8  233 233 
 NOR  HN ES       1440 34.50                             119    0.33 8  233 233 
 NOR  HZ I        1440 38.64        22.0 0.18            120            233 233 
 SML  HZ EP       1440  6.68                             118   -0.32 8  239 336 
 SML  HN ES       1440 34.85                             118   -0.41 8  239 336 
 SML  HZ I        1440 42.74        15.8 0.08            119            239 336 
 CHI  HZ EP       1440  8.51                             117   -0.24 8  250 194 
 CHI  HN ES       1440 38.24                             117   -0.13 8  250 194 
 CHI  HZ I        1440 43.76         9.5 0.58            119            250 194 
 ROSC BZ EP       1440  8.92                             117   -0.09 8  253 210 
 ROSC BN ES       1440 39.42                             117    0.58 8  253 210 
 ROSC BZ I        1440 45.31        26.2 0.35            118            253 210 
 URE  HZ EP       1440 10.49                             114   -0.84 7  278 292 
 URE  HN ES       1440 42.29                             114   -0.67 7  278 292 
 URE  HZ I        1440 53.11        12.9 0.20            115            278 292 
 GUY2CHZ EP   1   1440 14.94                             113    0.71 5  299 234 
 GUY2CHN ES       1440 47.99                             113   -0.14 7  299 234 
 GUY2CHZ I        1440 59.70        11.2 0.38                           299 234 
 TOL  SZ EP       1440 19.84                             110    0.87 7  342 224 
 TOL  SN ES       1440 56.12                             110   -0.45 7  342 224 
 TOL  SZ I        1441  2.64        10.2 0.36            111            342 224 
 PRA  HZ EP       1440 23.86                             107   -0.53 6  392 209 
 PRA  HN ES       1441  6.45                             107    0.24 6  392 209 
 PRA  HZ I        1441 12.24        13.7 0.30            108            392 209 
 ORTC HZ EP       1440 24.58                             107   -0.13 6  395 215 
 ORTC HN ES       1441  7.46                             107    0.67 6  395 215 
 ORTC HZ I        1441 15.10         8.3 0.40            108            395 215 
                                                                                
