 2013  331 1411  5.4 L   6.733 -73.168153.7  RSN  5 0.3 2.1LRSN                1
 GAP=230        0.76       6.0     5.6  5.7  0.1946E+02  0.3642E+01 -0.2079E+01E
 Epicentro: VILLANUEVA - SANTANDER                                             3
 ACTION:UPD 13-04-09 14:06 OP:ep   STATUS:               ID:20130331141105 L   I
 2013-03-31-1410-00M.COL___245                                                 6
 STAT SP IPHASW D HRMM SECON CODA AMPLIT PERI AZIMU VELO AIN AR TRES W  DIS CAZ7
 BAR2 SZ EP       1411 25.57                             174   -0.2710 15.6 186 
 BAR2 SZ ES       1411 41.47                             174   -0.3310 15.6 186 
 BAR2 SZ I        1411 42.25        23.6 0.42            177           15.6 186 
 BRR  HZ EP       1411 27.45                             153   -0.0410 73.0 305 
 BRR  HN ES       1411 45.05                             153    0.3210 73.0 305 
 BRR  HN I        1411 48.95        36.7 0.20            153           73.0 305 
 RUS  HZ EP       1411 29.92                             147    0.4910 93.4 174 
 RUS  HN ES       1411 48.31                             147    0.1210 93.4 174 
 RUS  HN I        1411 48.72        13.4 0.32            151           93.4 174 
 PTB  HZ EP       1411 32.22                             134   -0.46 9  144 262 
 PTB  HN ES       1411 53.91                             134   -0.06 9  144 262 
 PTB  HN I        1411 54.04        14.3 0.24            137            144 262 
 ZAR  HZ EP   1   1411 38.64                             124    0.22 6  205 294 
 ZAR  HN ES   1   1412  4.41                             124    0.22 6  205 294 
                                                                                
