 2017  131 1615 42.1 L   6.831 -73.197148.1  RSN  4 0.2 1.4LRSN                1
 GAP=147        0.53       3.6     3.3  5.1 -0.4696E+01  0.6498E+01 -0.4514E+01E
 Epicentro: ZAPATOCA - SANTANDER                                               3
 ACTION:UPD 17-05-22 16:05 OP:jn   STATUS:               ID:20170131161542 L   I
 OLDACT:REG 17-01-31 21:21 OP:ar   STATUS:               ID:20170131160750     3
 2017-01-31-1608-00M.COL___343                                                 6
 STAT SP IPHASW D HRMM SECON CODA AMPLIT PERI AZIMU VELO AIN AR TRES W  DIS CAZ7
 BAR2 EZ EP   2   1616  2.08                             169   -0.05 5 26.5 176 
 BAR2 EZ ES       1616 17.56                             169   -0.1610 26.5 176 
 BAR2 EZ I        1616 18.15         6.4 0.20            169           26.5 176 
 PAM  EZ EP       1616  4.95                             151    0.2610 78.6  44 
 PAM  HE ES       1616 22.20                             151   -0.0710 78.6  44 
 RUS  HZ EP   2   1616  6.38                             143   -0.04 5  105 173 
 RUS  HN ES       1616 25.44                             143    0.0910  105 173 
 RUS  HZ I        1616 26.15         2.9 0.48            145            105 173 
 PTB  HZ EP       1616  8.53                             134   -0.34 9  143 257 
 PTB  HN ES       1616 29.96                             134    0.24 9  143 257 
 PTB  HZ I        1616 36.99         2.7 0.26            132            143 257 
                                                                                
