 2017  731 1156 58.1 L   6.718 -73.185148.7  RSN  4 0.2 1.2LRSN                1
 GAP=226        0.59       4.7     4.4  4.7  0.1014E+02  0.2307E+01  0.6682E+00E
 Epicentro: VILLANUEVA - SANTANDER                                             3
 ACTION:UPD 17-08-30 15:38 OP:rebc STATUS:               ID:20170731115658 L   I
 OLDACT:DUP 17-07-31 23:27 OP:dani STATUS:               ID:20170731114741d    3
 2017-07-31-1148-00M.COL___380                                                 6
 STAT SP IPHASW D HRMM SECON CODA AMPLIT PERI AZIMU VELO AIN AR TRES W  DIS CAZ7
 BAR2 EZ EP       1157 17.74                             174   -0.1610 13.9 179 
 BAR2 EZ ES       1157 33.68                             174    0.3110 13.9 179 
 BAR2 EZ I        1157 35.36         4.8 0.68            170           13.9 179 
 BRR  HZ EP       1157 19.47                             153   -0.1310 72.4 307 
 BRR  HN ES       1157 36.31                             153   -0.0910 72.4 307 
 BRR  HZ I        1157 38.72         6.5 0.32            152           72.4 307 
 RUS  HZ EP       1157 21.82                             147    0.3110 91.9 173 
 RUS  HN ES       1157 39.49                             147   -0.3110 91.9 173 
 RUS  HZ I        1157 42.65         1.0 0.23            146           91.9 173 
 PTB  HZ EP       1157 24.79                             134    0.03 9  142 262 
 PTB  HN ES       1157 45.65                             134    0.07 9  142 262 
 PTB  HZ I        1157 50.56         1.3 0.22            133            142 262 
                                                                                
