 2013  131 1710 58.3 L   6.775 -73.155141.0  RSN 13 0.6 2.8LRSN 3.2WRSN        1
 SPEC AVERAGE  MO 13.9 ST  7.0 OM  2.0 f0 3.47 R0.4522 AL 2.09 WI 23.9 MW  3.2 3
 SPEC SD       MO  0.2 ST  7.0 OM  0.6 f00.848 R0.1230 AL      WI      MW  0.1 3
 GAP= 98        1.50       6.0     4.1  8.3  0.1551E+01  0.9319E+01  0.1548E+02E
 Epicentro: LOS SANTOS - SANTANDER                                             3
 SPEC ZAR HH N MO 14.1 ST 22.4 OM  2.3 f0 5.09 R0.2888 AL 2.74 WI 23.3 MW  3.3 3
 SPEC ZAR HH N T171155 K 0.000 GD  247 VS 4.20 DE 3.20 Q0300.0 QA 0.60 VS 4.20 3
 SPEC TAM HH N MO 13.7 ST0.551 OM  2.0 f0 1.97 R0.7462 AL 1.84 WI 11.3 MW  3.1 3
 SPEC TAM HH N T171146 K 0.000 GD  209 VS 4.20 DE 3.20 Q0300.0 QA 0.60 VS 4.20 3
 SPEC PTB HH N MO 13.9 ST  3.9 OM  2.2 f0 3.27 R0.4495 AL 1.41 WI 31.3 MW  3.2 3
 SPEC PTB HH N T171144 K 0.000 GD  202 VS 4.20 DE 3.20 Q0300.0 QA 0.60 VS 4.20 3
 SPEC DBB SH Z MO 13.9 ST  4.0 OM  1.2 f0 3.22 R0.4565 AL 1.93 WI 33.5 MW  3.2 3
 SPEC DBB SH Z T171144 K 0.000 GD  367 VP 7.60 DE 3.20 Q0300.0 QA 0.60 VS 4.20 3
 SPEC HEL HH Z MO 13.8 ST  1.9 OM  1.1 f0 2.92 R0.5034 AL 1.75 WI 29.7 MW  3.1 3
 SPEC HEL HH Z T171138 K 0.000 GD  304 VP 7.60 DE 3.20 Q0300.0 QA 0.60 VS 4.20 3
 SPEC CHI HH Z MO 13.7 ST  2.6 OM  1.1 f0 3.30 R0.4455 AL 1.74 WI 26.1 MW  3.1 3
 SPEC CHI HH Z T171135 K 0.000 GD  283 VP 7.60 DE 3.20 Q0300.0 QA 0.60 VS 4.20 3
 SPEC PAM SH Z MO 13.7 ST  2.0 OM  1.3 f0 3.11 R0.4727 AL 1.72 WI 17.1 MW  3.1 3
 SPEC PAM SH Z T171120 K 0.000 GD  162 VP 7.60 DE 3.20 Q0300.0 QA 0.60 VS 4.20 3
 SPEC BRR HH N MO 14.2 ST 13.7 OM  2.6 f0 3.98 R0.3693 AL 3.31 WI 28.9 MW  3.4 3
 SPEC BRR HH N T171135 K 0.000 GD  158 VS 4.20 DE 3.20 Q0300.0 QA 0.60 VS 4.20 3
 SPEC BAR2SH Z MO 14.0 ST 12.0 OM  1.7 f0 4.35 R0.3379 AL 2.34 WI 13.8 MW  3.3 3
 SPEC BAR2SH Z T171117 K 0.000 GD  142 VP 7.60 DE 3.20 Q0300.0 QA 0.60 VS 4.20 3
 ACTION:UPD 13-02-15 09:18 OP:ep   STATUS:               ID:20130131171058 L   I
 2013-01-31-1708-57M.COL___100                                                 6
 STAT SP IPHASW D HRMM SECON CODA AMPLIT PERI AZIMU VELO AIN AR TRES W  DIS CAZ7
 BAR2 SZ IP       1711 17.32                             171   -0.0110 20.4 188 
 BAR2 SZ I        1711 17.41       146.1 0.42            175           20.4 188 
 BAR2 SZ ES       1711 31.39                             171   -0.7610 20.4 188 
 BRR  HZ IP     C 1711 19.26                             151    0.2610 71.7 301 
 BRR  HZ I        1711 19.56        65.0 0.12            140           71.7 301 
 BRR  HN ES       1711 36.26                             151    1.1510 71.7 301 
 PAM  SZ EP       1711 20.17                             149   -0.0510 80.2  39 
 PAM  SN ES       1711 37.27                             149   -0.0110 80.2  39 
 PTB  HZ EP       1711 23.97                             131   -0.80 9  146 260 
 PTB  HN ES       1711 44.92                             131   -0.47 9  146 260 
 PTB  HN I        1711 48.15       108.7 0.24            122            146 260 
 TAM  HZ EP       1711 25.59                             129   -0.08 9  155 104 
 TAM  HN ES       1711 46.89                             129   -0.09 9  155 104 
 TAM  HN I        1711 47.80        77.6 0.42            122            155 104 
 ZAR  HZ EP       1711 31.53                             121    1.05 9  204 293 
 ZAR  HN ES       1711 55.81                             121    0.25 9  204 293 
 ZAR  HN I        1712  0.75        74.7 0.34            112            204 293 
 NOR  HZ EP       1711 33.25                             118   -0.27 8  232 235 
 NOR  HN ES       1712  0.87                             118   -0.10 8  232 235 
 NOR  HE I        1712  3.77        76.2 0.48            110            232 235 
 CHI  HZ EP       1711 35.43                             116   -0.02 8  246 195 
 CHI  HN ES       1712  5.07                             116    0.68 8  246 195 
 CHI  HE I        1712  9.01        35.0 0.50            110            246 195 
 HEL  HZ EP       1711 38.99                             114    0.87 8  270 256 
 HEL  HN ES       1712  9.60                             114    0.45 8  270 256 
 HEL  HN I        1712 16.58        30.3 0.40            106            270 256 
 URE  HE ES       1712  9.23                             113   -1.82 7  284 293 
 URE  HE I        1712 21.85        70.7 0.24            105            284 293 
 VIL  SZ EP   1   1711 41.05                             111   -0.15 5  300 191 
 DBB  SZ EP       1711 45.17                             109   -0.36 7  339 275 
 DBB  SZ ES   4   1712 20.72                             109   -1.62 0  339 275 
 DBB  SZ I        1712 25.15        18.4 0.26            101            339 275 
 SJC  HN EP   4   1711 51.99                             105   -1.96 0  411 327 
 SJC  HN I        1712 35.83        10.9 0.18             98            411 327 
                                                                                
