 2013  731 1129 24.3 L   6.802 -73.125144.0  RSN 12 0.5 2.1LRSN                1
 GAP=139        1.08       3.9     4.3  5.6 -0.1332E+01  0.8651E+01  0.1789E+01E
 Epicentro: LOS SANTOS - SANTANDER                                             3
 ACTION:UPD 13-08-12 10:41 OP:ep   STATUS:               ID:20130731112924 L   I
 OLDACT:UP  13-07-31 19:56 OP:cam  STATUS:               ID:20130731112847     3
 OLDACT:REG 13-07-31 19:47 OP:cam  STATUS:               ID:20130731112847     3
 2013-07-31-1128-47M.COL___245                                                 6
 STAT SP IPHASW D HRMM SECON CODA AMPLIT PERI AZIMU VELO AIN AR TRES W  DIS CAZ7
 BAR2 SZ EP       1129 43.55                             170   -0.1510 24.0 195 
 BAR2 SZ ES       1129 58.60                             170   -0.2610 24.0 195 
 BAR2 SZ I        1129 59.96        22.4 0.23            174           24.0 195 
 GIR2 SZ EP       1129 43.64                             167   -0.1010 31.6 346 
 GIR2 SZ ES       1129 58.86                             167   -0.0610 31.6 346 
 GIR2 SZ I        1129 59.37        21.1 0.16            159           31.6 346 
 BRR  HZ EP       1129 45.43                             152    0.0910 73.2 298 
 BRR  HN ES       1130  2.37                             152    0.6010 73.2 298 
 BRR  HZ I        1130  3.96        26.7 0.14            144           73.2 298 
 PAM  SZ EP       1129 46.52                             151    0.3210 75.8  38 
 PAM  SZ I        1129 46.62        47.9 0.24            142           75.8  38 
 PAM  SN ES       1130  3.51                             151    0.2010 75.8  38 
 RUS  HZ EP       1129 48.01                             143    0.1610  101 177 
 RUS  HN ES       1130  6.22                             143   -0.0210  101 177 
 RUS  HZ I        1130  6.80         5.3 0.24            142            101 177 
 PTB  HZ EP       1129 50.38                             131   -0.92 9  150 259 
 PTB  HN ES   1   1130 11.35                             131   -1.04 7  150 259 
 PTB  HZ I        1130 13.50        21.9 0.14            125            150 259 
 OCA  HZ EP   1   1129 51.86                             129   -0.59 7  160 352 
 OCA  HZ I        1130 20.73        19.8 0.46            121            160 352 
 ZAR  HZ EP   2   1129 57.04                             122    0.22 4  206 292 
 ZAR  HE ES       1130 22.82                             122    0.62 8  206 292 
 ZAR  HZ I        1130 27.38        15.3 0.30            115            206 292 
 NOR  HZ EP   1   1130  0.57                             118    0.46 6  237 235 
 NOR  HN ES   1   1130 27.36                             118   -0.71 6  237 235 
 NOR  HZ I        1130 32.42         6.9 0.32            113            237 235 
 SML  HZ EP   1   1130  0.21                             117   -0.67 6  245 335 
 SML  HE ES   1   1130 28.70                             117   -0.74 6  245 335 
 SML  HZ I        1130 35.94        23.3 0.10            110            245 335 
 HEL  HZ EP       1130  5.51                             114    0.86 8  274 256 
 HEL  HN ES       1130 36.52                             114    0.38 8  274 256 
 HEL  HZ I        1130 42.62         7.6 0.46            109            274 256 
 PRA  HZ EP       1130 18.43                             106    0.55 6  393 210 
 PRA  HE ES   1   1130 59.76                             106    0.06 4  393 210 
 PRA  HZ I        1131  5.36         5.6 0.24            102            393 210 
                                                                                
