 2013  531 1255 28.0 L   6.791 -73.139146.5  RSN 12 0.5 2.5LRSN                1
 GAP= 72        1.23       4.0     4.1  6.1  0.1370E+01  0.2694E+01 -0.4492E+01E
 Epicentro: LOS SANTOS - SANTANDER                                             3
 ACTION:UPD 13-06-20 09:55 OP:ep   STATUS:               ID:20130531125527 L   I
 OLDACT:UP  13-05-31 22:30 OP:Juan STATUS:               ID:20130531125527 L   3
 2013-05-31-1248-42M.COL___215                                                 6
 STAT SP IPHASW D HRMM SECON CODA AMPLIT PERI AZIMU VELO AIN AR TRES W  DIS CAZ7
 BAR2 SZ IP     D 1255 47.72                             171    0.0310 22.5 192 
 BAR2 SZ I        1255 47.85        59.6 0.40            170           22.5 192 
 BAR2 SZ ES       1256  2.50                             171   -0.5510 22.5 192 
 GIR2 SZ IP       1255 47.80                             167    0.0310 32.4 349 
 GIR2 SZ ES       1256  3.34                             167    0.1310 32.4 349 
 BRR  HZ IP     C 1255 49.62                             152    0.3410 72.3 299 
 BRR  HZ I        1255 49.87        48.6 0.24            152           72.3 299 
 BRR  HE ES       1256  6.36                             152    0.4810 72.3 299 
 PAM  SZ IP     D 1255 50.73                             151    0.4410 77.7  39 
 PAM  SN ES       1256  7.57                             151   -0.1210 77.7  39 
 PAM  SE I        1256 10.42        53.4 0.44            153           77.7  39 
 RUS  HZ EP       1255 51.66                             144   -0.0710 99.5 176 
 RUS  HN ES       1256  9.87                             144   -0.3810 99.5 176 
 RUS  HE I        1256 11.42        39.7 0.54            145           99.5 176 
 PTB  HZ EP       1255 54.36                             132   -0.70 9  148 259 
 PTB  HN ES   4   1256 14.97                             132   -1.21 0  148 259 
 PTB  HE I        1256 21.17        55.3 0.32            132            148 259 
 CAPV BZ EP       1255 55.49                             132    0.02 9  150  37 
 CAPV BZ ES       1256 17.37                             132    0.47 9  150  37 
 TAM  HE ES       1256 17.71                             131    0.52 9  154 105 
 OCA  HZ EP       1255 56.94                             130    0.49 9  161 353 
 OCA  HN ES       1256 17.50                             130   -1.16 9  161 353 
 ZAR  HZ EP       1256  0.73                             122    0.14 9  205 292 
 ZAR  HN ES       1256 26.91                             122    0.89 9  205 292 
 SML  HZ EP       1256  4.69                             117   -0.09 8  245 335 
 SML  HE ES       1256 32.97                             117   -0.52 8  245 335 
 SOCV BZ EP       1256 10.30                             112   -0.76 7  301  57 
 SOCV BZ ES   4   1256 42.34                             112   -2.31 0  301  57 
                                                                                
