 2017 1031 1916 59.2 L   6.774 -73.155134.0  RSN  8 0.5 1.7LRSN                1
 GAP=137        1.10       4.8     4.5  7.3 -0.1164E+01  0.1006E+02  0.4864E+01E
 Epicentro: LOS SANTOS - SANTANDER                                             3
 ACTION:UPD 17-11-07 19:40 OP:rebc STATUS:               ID:20171031191659 L   I
 OLDACT:UP  17-11-01 01:17 OP:dhb  STATUS:               ID:20171031190739     3
 OLDACT:REG 17-10-31 21:33 OP:mg   STATUS:               ID:20171031190739     3
 2017-10-31-1908-00M.COL___456                                                 6
 STAT SP IPHASW D HRMM SECON CODA AMPLIT PERI AZIMU VELO AIN AR TRES W  DIS CAZ7
 BAR2 EZ EP       1917 17.51                             171    0.1810 20.4 189 
 BAR2 HN ES       1917 30.97                             171   -0.5210 20.4 189 
 BAR2 EZ I        1917 33.22        10.1 0.38            171           20.4 189 
 BRR  HZ EP       1917 19.22                             150    0.1310 71.7 301 
 BRR  HN ES       1917 35.12                             150    0.4910 71.7 301 
 BRR  HZ I        1917 47.64        27.5 0.44            150           71.7 301 
 PAM  EZ IP     C 1917 20.18                             148   -0.1510 80.2  39 
 PAM  EE ES       1917 37.05                             148    0.2210 80.2  39 
 PAM  EZ I        1917 39.04        11.0 0.52            154           80.2  39 
 RUS  HZ EP       1917 21.16                             142   -0.4210 97.8 175 
 RUS  HN ES       1917 39.55                             142    0.5010 97.8 175 
 RUS  HZ I        1917 41.35         8.2 0.34            148           97.8 175 
 PTB  HZ EP       1917 24.28                             130   -0.78 9  146 260 
 PTB  HN ES       1917 45.07                             130   -0.19 9  146 260 
 PTB  HZ I        1917 47.91         4.0 0.44            132            146 260 
 ZAR  HE ES       1917 55.64                             120   -0.00 9  204 293 
 NOR  HZ EP       1917 33.87                             116   -0.11 8  232 235 
 NOR  HE ES       1918  1.45                             116    0.32 8  232 235 
 NOR  HZ I        1918  8.54         3.2 0.20            120            232 235 
 GUY2CHZ EP   2   1917 44.18                             110    2.20 4  299 235 
 GUY2CHE ES   4   1918 19.75                             110    4.37 0  299 235 
 GUY2CHZ I        1918 24.06         1.7 0.64                           299 235 
                                                                                
