 2015  331 1029 38.6 L   6.769 -73.129144.1  RSN  5 0.4 1.3LRSN                1
 GAP=140        1.09       5.2     7.2  8.0 -0.1212E+02  0.3673E+01  0.5722E+01E
 Epicentro: LOS SANTOS - SANTANDER                                             3
 ACTION:UPD 15-04-30 16:31 OP:nd   STATUS:               ID:20150331102938 L   I
 OLDACT:REG 15-03-31 21:17 OP:fm   STATUS:               ID:20150331102743     3
 2015-03-31-1027-43M.COL___283                                                 6
 STAT SP IPHASW D HRMM SECON CODA AMPLIT PERI AZIMU VELO AIN AR TRES W  DIS CAZ7
 BAR2 EZ EP       1029 58.05                             171    0.1110 20.4 197 
 BAR2 EZ ES       1030 13.05                             171   -0.0010 20.4 197 
 BAR2 EZ I        1030 15.84         4.0 0.22            171           20.4 197 
 BRR  HZ EP       1030  0.07                             151    0.3510 74.5 300 
 BRR  HE ES       1030 16.47                             151    0.2410 74.5 300 
 BRR  HZ I        1030 21.23         2.9 0.16            151           74.5 300 
 PAM  SZ EP       1030  1.02                             150    0.3310 78.9  37 
 PAM  SE ES       1030 17.22                             150   -0.7410 78.9  37 
 PAM  SZ I        1030 20.23         4.2 0.54            154           78.9  37 
 RUS  HZ EP       1030  2.17                             144    0.2710 97.0 177 
 RUS  HN ES       1030 20.47                             144    0.3710 97.0 177 
 RUS  HZ I        1030 22.72         2.2 0.28            148           97.0 177 
 SPBC HZ EP       1030  6.02                             129   -0.78 9  162 220 
 SPBC HN ES       1030 28.48                             129   -0.34 9  162 220 
 SPBC HZ I        1030 31.86         4.5 0.16            131            162 220 
                                                                                
