 2016  831 1214 15.1 L   6.756 -73.152147.2  RSN  5 0.2 1.3LRSN                1
 GAP=233        0.51       4.0     3.8  4.0  0.8200E+01  0.1655E+01 -0.3840E+00E
 Epicentro: LOS SANTOS - SANTANDER                                             3
 ACTION:UPD 16-10-29 15:40 OP:rebc STATUS:               ID:20160831121415 L   I
 OLDACT:UP  16-08-31 22:56 OP:edw  STATUS:               ID:20160831120739d    3
 OLDACT:DUP 16-08-31 22:53 OP:edw  STATUS:               ID:20160831120739d    3
 2016-08-31-1208-00M.COL___355                                                 6
 STAT SP IPHASW D HRMM SECON CODA AMPLIT PERI AZIMU VELO AIN AR TRES W  DIS CAZ7
 BAR2 EZ EP       1214 34.55                             173   -0.2410 18.4 190 
 BAR2 EZ ES       1214 50.09                             173   -0.0810 18.4 190 
 BAR2 EZ I        1214 50.70         6.5 0.41                          18.4 190 
 BRR  HZ EP       1214 36.51                             152    0.0310 73.0 302 
 BRR  HN ES       1214 53.39                             152    0.2110 73.0 302 
 RUS  HZ EP       1214 38.92                             145    0.2910 95.8 175 
 RUS  HN ES       1214 56.83                             145   -0.1710 95.8 175 
 RUS  HZ I        1215  0.92         2.1 0.37                          95.8 175 
 PTB  HZ EP       1214 42.20                             132    0.18 9  146 261 
 PTB  HE ES       1215  2.97                             132   -0.07 9  146 261 
 PTB  HZ I        1215  5.13         2.5 0.14                           146 261 
 ZAR  HZ EP   2   1214 47.37                             122   -0.37 4  205 293 
 ZAR  HE ES   2   1215 12.89                             122   -0.33 4  205 293 
                                                                                
