 2016 1231 1922 22.5 L   6.823 -73.113150.1  RSN  8 0.4 1.6LRSN                1
 GAP=243        1.05       5.2     6.1  6.6  0.1044E+02  0.5107E+01  0.7958E+01E
 Epicentro: LOS SANTOS - SANTANDER                                             3
 ACTION:UPD 17-01-11 20:21 OP:rebc STATUS:               ID:20161231192222 L   I
 OLDACT:UP  17-01-01 00:09 OP:edw  STATUS:               ID:20161231191746     3
 OLDACT:UP  17-01-01 00:08 OP:edw  STATUS:               ID:20161231191746     3
 OLDACT:UP  17-01-01 00:07 OP:edw  STATUS:               ID:20161231191746     3
 OLDACT:REG 16-12-31 20:58 OP:lv   STATUS:               ID:20161231191746     3
 2016-12-31-1918-00M.COL___376                                                 6
 STAT SP IPHASW D HRMM SECON CODA AMPLIT PERI AZIMU VELO AIN AR TRES W  DIS CAZ7
 BAR2 EZ EP       1922 42.78                             169    0.0310 26.6 197 
 BAR2 EZ ES       1922 58.41                             169   -0.1110 26.6 197 
 BAR2 EZ I        1922 59.23         8.5 0.36            166           26.6 197 
 BRR  HZ EP       1922 44.30                             153    0.0410 73.2 295 
 BRR  HN ES       1923  2.01                             153    0.7910 73.2 295 
 RUS  HZ EP       1922 46.66                             144   -0.2210  103 178 
 RUS  HN ES       1923  5.38                             144   -0.4910  103 178 
 RUS  HZ I        1923  6.41         6.6 0.28            142            103 178 
 PTB  HZ EP   9   1922 49.29                             132   -0.93 0  152 258 
 PTB  HN ES       1923 10.16                             133   -0.72 9  152 258 
 PTB  HZ I        1923 12.11         4.1 0.18            129            152 258 
 ZAR  HZ EP   4   1922 51.65                             123   -3.86 0  206 291 
 ZAR  HN ES       1923 20.65                             123   -0.58 8  206 291 
 ZAR  HZ I        1923 29.25         4.6 0.28            121            206 291 
 NOR  HZ EP       1922 59.00                             119    0.01 8  239 234 
 NOR  HE ES       1923 27.17                             119   -0.25 8  239 234 
 NOR  HZ I        1923 30.31         4.3 0.20            117            239 234 
 CHI  HZ EP       1923  0.99                             118    0.15 8  252 196 
 CHI  HN ES       1923 31.25                             118    0.53 8  252 196 
 CHI  HZ I        1923 38.80         1.5 0.09            116            252 196 
 GUY2CHZ EP   2   1923  7.74                             113    0.90 4  306 235 
 GUY2CHN ES   4   1923 43.01                             113    1.61 0  306 235 
 GUY2CHZ I        1923 49.46         2.3 0.23                           306 235 
 SJC  HZ EP   4   1923 16.65                             106   -1.57 0  409 326 
 SJC  HN ES   4   1923 57.93                             106   -3.73 0  409 326 
                                                                                
