 2016  331 1012 43.5 L   6.815 -73.173144.1  RSN  4 0.3 1.2LRSN                1
 GAP=144        0.66       4.1     4.1  6.0 -0.5544E+01  0.3496E+01 -0.1093E+01E
 Epicentro: LOS SANTOS - SANTANDER                                             3
 ACTION:UPD 16-05-13 21:29 OP:cam  STATUS:               ID:20160331101243 L   I
 OLDACT:REG 16-04-01 01:14 OP:ak   STATUS:               ID:20160331100644     3
 2016-03-31-1006-44M.COL___288                                                 6
 STAT SP IPHASW D HRMM SECON CODA AMPLIT PERI AZIMU VELO AIN AR TRES W  DIS CAZ7
 BAR2 EZ EP       1013  2.80                             170   -0.1210 24.6 182 
 BAR2 EZ ES       1013 18.47                             170    0.3810 24.6 182 
 BAR2 EZ I        1013 19.55                             171           24.6 182 
 PAM  EZ EP       1013  5.73                             150    0.1810 78.1  42 
 PAM  EE ES       1013 22.55                             150   -0.2210 78.1  42 
 PAM  EZ I        1013 24.98         5.1 0.46            152           78.1  42 
 RUS  HZ EP       1013  7.13                             143   -0.0610  102 174 
 RUS  HE ES       1013 25.56                             143   -0.1310  102 174 
 RUS  HZ I        1013 26.63         2.1 0.36            146            102 174 
 PTB  HZ EP   2   1013 10.87                             132    0.81 5  145 258 
 PTB  HN ES       1013 30.56                             132   -0.24 9  145 258 
 PTB  HZ I        1013 34.17         1.4 0.16            133            145 258 
                                                                                
