 2016 1231 1008  4.1 L   6.829 -73.119151.7  RSN  7 0.4 1.2LRSN                1
 GAP=243        1.01       5.4     6.2  7.1  0.1518E+02  0.3453E+01 -0.2014E+01E
 Epicentro: LOS SANTOS - SANTANDER                                             3
 ACTION:UPD 17-01-11 20:21 OP:rebc STATUS:               ID:20161231100804 L   I
 OLDACT:DUP 16-12-31 21:08 OP:lv   STATUS:               ID:20161231095745d    3
 2016-12-31-0958-00M.COL___362                                                 6
 STAT SP IPHASW D HRMM SECON CODA AMPLIT PERI AZIMU VELO AIN AR TRES W  DIS CAZ7
 BAR2 EZ EP       10 8 24.42                             169   -0.0810 27.1 195 
 BAR2 EZ ES       10 8 39.98                             169   -0.4510 27.1 195 
 BAR2 EZ I        10 8 42.26         2.7 0.13            167           27.1 195 
 BRR  HZ EP       10 8 26.38                             153    0.4410 72.4 295 
 BRR  HE ES       10 8 43.47                             153    0.4910 72.4 295 
 RUS  HZ EP       10 8 28.35                             144   -0.2910  104 178 
 RUS  HN ES       10 8 48.00                             144    0.2110  104 178 
 RUS  HZ I        10 8 48.16         0.7 0.16            145            104 178 
 PTB  HZ EP       10 8 31.50                             133   -0.35 9  151 258 
 PTB  HN ES       10 8 52.86                             133   -0.65 9  151 258 
 PTB  HZ I        10 8 58.34         2.4 0.25            131            151 258 
 ZAR  HZ EP       10 8 36.95                             123   -0.13 8  206 291 
 ZAR  HN ES       10 9  3.12                             123    0.31 8  206 291 
 ZAR  HZ I        10 9  9.35         1.9 0.32            123            206 291 
 CHI  HN ES       10 9 13.19                             118    0.66 8  253 196 
 GUY2CHZ EP   9   10 8 51.02                             113    2.57 0  305 235 
 GUY2CHE ES       10 9 25.99                                    0.37 7  305 235 
 GUY2CHZ I        10 9 31.13         1.5 0.38                           305 235 
                                                                                
