 2012 1031 1602 53.3 L   6.166 -73.647111.5  RSN  5 0.3 1.9LRSN                1
 GAP=135        0.57       4.0     7.1 10.1  0.1361E+02  0.4783E+02  0.1268E+02E
 Epicentro: LA PAZ - SANTANDER                                                 3
 ACTION:UPD 12-11-22 17:06 OP:ep   STATUS:               ID:20121031160253 L   I
 2012-10-31-1600-00M.COL___231                                                 6
 STAT SP IPHASW D HRMM SECON CODA AMPLIT PERI AZIMU VELO AIN AR TRES W  DIS CAZ7
 RUS  HZ EP       16 3 11.45                             146   -0.0210 69.4 116 
 RUS  HN ES   2   16 3 24.91                             146   -0.72 5 69.4 116 
 BAR2 SZ EP       16 3 11.38                             145    0.2510 69.7  48 
 BAR2 SZ ES   1   16 3 25.04                             145    0.01 7 69.7  48 
 BAR2 SZ I        16 3 26.47        24.5 0.14                          69.7  48 
 BRR  HZ EP       16 3 13.47                             133   -0.0710  104 356 
 BRR  HE ES   2   16 3 29.66                             133    0.35 5  104 356 
 BRR  HE I        16 3 30.43        11.8 0.24                           104 356 
 CHI  HN ES   2   16 3 42.31                             119    0.41 4  170 183 
 CHI  HN I        16 3 44.00         9.4 0.38                           170 183 
 ZAR  HZ EP   2   16 3 22.45                             114   -0.73 4  198 318 
 ZAR  HN ES   2   16 3 46.40                             114   -0.07 4  198 318 
 ZAR  HN I        16 3 52.39         8.4 0.32                           198 318 
                                                                                
