 2017 1031 1620 52.1 L   6.782 -73.149137.7  RSN 12 0.5 1.9LRSN                1
 GAP=112        1.29       4.0     4.2  6.8  0.1184E+01  0.7234E+01  0.7698E+01E
 Epicentro: LOS SANTOS - SANTANDER                                             3
 ACTION:UPD 17-11-07 19:40 OP:rebc STATUS:               ID:20171031162052 L   I
 OLDACT:REG 17-10-31 21:06 OP:mg   STATUS:               ID:20171031161741     3
 2017-10-31-1618-00M.COL___441                                                 6
 STAT SP IPHASW D HRMM SECON CODA AMPLIT PERI AZIMU VELO AIN AR TRES W  DIS CAZ7
 BAR2 EZ EP       1621 10.58                             171   -0.1710 21.3 190 
 BAR2 EZ ES       1621 25.19                             171   -0.0810 21.3 190 
 BAR2 EZ I        1621 27.76        26.3 0.30            169           21.3 190 
 BRR  HZ EP       1621 12.60                             151    0.1510 71.8 300 
 BRR  HN ES       1621 28.72                             151    0.4210 71.8 300 
 BRR  HZ I        1621 30.98        17.1 0.18            151           71.8 300 
 PAM  EZ IP     D 1621 13.48                             149   -0.1310 79.2  39 
 PAM  EE ES       1621 30.19                             149   -0.1710 79.2  39 
 PAM  EZ I        1621 32.77        11.3 0.62            153           79.2  39 
 RUS  HZ EP       1621 14.56                             143   -0.3910 98.6 176 
 RUS  HE ES       1621 33.19                             143    0.4410 98.6 176 
 RUS  HZ I        1621 34.65        16.3 0.38            143           98.6 176 
 PTB  HZ EP       1621 17.25                             130   -1.13 9  147 260 
 PTB  HE ES       1621 38.81                             130   -0.05 9  147 260 
 PTB  HZ I        1621 41.38         7.6 0.10            131            147 260 
 SPBC HN ES       1621 40.77                             128   -0.70 9  161 219 
 SPBC HZ I        1621 44.03        24.9 0.20            128            161 219 
 YPLC HZ EP       1621 21.04                             125   -0.16 9  175 151 
 YPLC HN ES       1621 44.48                             125    0.62 9  175 151 
 YPLC HZ I        1621 47.42        16.0 0.26            127            175 151 
 ZAR  HZ EP       1621 24.97                             121    0.86 9  204 293 
 ZAR  HN ES       1621 49.29                             121    0.24 9  204 293 
 ZAR  HZ I        1621 56.43         6.7 0.24            122            204 293 
 NOR  HZ EP       1621 26.57                             117   -0.68 8  233 235 
 NOR  HN ES       1621 53.88                             117   -0.75 8  233 235 
 NOR  HZ I        1622  1.70         3.1 0.26            118            233 235 
 CHI  HZ EP       1621 29.07                             116   -0.10 8  247 195 
 CHI  HE ES       1621 58.31                             116    0.25 8  247 195 
 CHI  HZ I        1622  7.58         3.1 0.62            117            247 195 
 GUY2CHZ EP       1621 36.20                             111    0.99 7  300 235 
 GUY2CHE ES       1622 10.07                             111    1.26 7  300 235 
 GUY2CHZ I        1622 17.30         2.9 0.38                           300 235 
 PRA  HZ EP       1621 45.25                             105    0.09 6  390 210 
 PRA  HE ES       1622 26.58                             105    0.06 6  390 210 
 PRA  HZ I        1622 30.55         1.9 0.50            106            390 210 
                                                                                
