 2015 1231 1102 40.1 L   6.787 -73.180138.8  RSN  4 0.2 1.7LRSN                1
 GAP=204        0.38       8.6     5.1  8.0  0.5303E+01  0.6484E+01 -0.4271E+02E
 Epicentro: LOS SANTOS - SANTANDER                                             3
 ACTION:UPD 16-02-04 15:09 OP:cam  STATUS:               ID:20151231110240 L   I
 OLDACT:REG 15-12-31 20:32 OP:dnl  STATUS:               ID:20151231105748     3
 2015-12-31-1057-48M.COL___320                                                 6
 STAT SP IPHASW D HRMM SECON CODA AMPLIT PERI AZIMU VELO AIN AR TRES W  DIS CAZ7
 BAR2 EZ EP   2   11 2 59.28                             171    0.39 5 21.5 181 
 BAR2 EZ ES   2   11 3 13.33                             171   -0.20 5 21.5 181 
 BAR2 EZ I        11 3 22.05         5.2 0.10            144           21.5 181 
 PTB  HZ EP   2   11 3  5.85                             131   -0.33 5  144 259 
 PTB  HN ES   2   11 3 26.55                             131    0.06 5  144 259 
 PTB  HZ I        11 3 30.58         5.5 0.14            128            144 259 
 ZAR  HZ EP   2   11 3 11.89                             121    0.06 4  201 293 
 ZAR  HE ES   2   11 3 36.68                             121    0.13 4  201 293 
 ZAR  HZ I        11 3 42.13         6.0 0.25            111            201 293 
 SML  HZ EP   2   11 3 16.20                             116   -0.16 4  243 336 
 SML  HZ I        11 3 47.57         9.2 0.09            104            243 336 
                                                                                
