 2013  831 1832  1.7 L   6.804 -73.089149.8  RSN  7 0.4 1.9LRSN                1
 GAP=144        0.99       4.4     6.0  6.5 -0.5591E+01  0.1118E+02 -0.1978E+01E
 Epicentro: LOS SANTOS - SANTANDER                                             3
 ACTION:UPD 14-01-14 09:08 OP:ep   STATUS:               ID:20130831183201 L   I
 OLDACT:UP  13-08-31 19:01 OP:nd   STATUS:               ID:20130831182959     3
 OLDACT:REG 13-08-31 15:54 OP:nd   STATUS:               ID:20130831182959     3
 2013-08-31-1829-59M.COL___269                                                 6
 STAT SP IPHASW D HRMM SECON CODA AMPLIT PERI AZIMU VELO AIN AR TRES W  DIS CAZ7
 BAR2 SZ EP       1832 22.03                             170    0.1310 25.6 204 
 BAR2 SZ ES       1832 37.27                             170   -0.3610 25.6 204 
 BAR2 SZ I        1832 38.53        11.4 0.24            165           25.6 204 
 PAM  SZ EP       1832 24.67                             153    0.5210 73.2  36 
 PAM  SN ES       1832 41.25                             153   -0.3710 73.2  36 
 PAM  SZ I        1832 42.46        10.6 0.18            153           73.2  36 
 BRR  HZ EP       1832 23.87                             151    0.2410 76.6 296 
 BRR  HZ I        1832 40.54        17.8 0.48            144           76.6 296 
 BRR  HN ES       1832 41.40                             151    0.7010 76.6 296 
 RUS  HZ EP       1832 26.03                             145    0.1210  101 180 
 RUS  HN ES       1832 44.56                             145   -0.2010  101 180 
 RUS  HZ I        1832 45.94         4.4 0.42            142            101 180 
 ZAR  HZ EP   4   1832 37.12                             122    2.09 0  210 291 
 ZAR  HN ES   4   1832 59.34                             122   -1.66 0  210 291 
 ZAR  HZ I        1833  5.60        10.0 0.34            118            210 291 
 NOR  HZ EP       1832 38.23                             119   -0.05 8  240 235 
 NOR  HN ES       1833  6.50                             119   -0.29 8  240 235 
 NOR  HZ I        1833 16.34         4.7 0.42            115            240 235 
 SML  HZ EP       1832 38.13                             118   -0.71 8  246 334 
 SML  HN ES   2   1833  7.01                             118   -0.76 4  246 334 
 SML  HZ I        1833  8.52        13.5 0.40            115            246 334 
                                                                                
