 2010 1231 1054 31.3 L   6.783 -73.139145.3  RSN  9 0.5 2.0LRSN                1
 GAP=160        0.79       4.1     7.7  8.5 -0.1349E+02  0.2276E+02  0.1777E+00E
 Epicentro: LOS SANTOS - SANTANDER                                             3
 ACTION:UP  11-01-14 15:28 OP:pat  STATUS:               ID:20101231105431 L   I
 2010-12-31-1040-00M.COL___137                                                 6
 STAT SP IPHASW D HRMM SECON CODA AMPLIT PERI AZIMU VELO SNR AR TRES W  DIS CAZ7
 BTL  SZ EP   1   1054 50.82                             171     0.0 8   21 316 
 BAR2 SZ EP   1   1054 50.72                             171    -0.1 8   22 193 
 BAR2 SZ ES   2   1055  6.45                             171     0.4 5   22 193 
 BAR2 SZ I        1055  7.57        19.5 0.44                            22 193 
 RUS  HZ EP   1   1054 54.80                             144    -0.1 8   99 176 
 RUS  HE ES   2   1055 13.09                             144    -0.1 5   99 176 
 RUS  HZ I        1055 14.36        11.0 0.32                            99 176 
 GRA  SZ IP     C 1054 56.50                             137    -0.110  127  17 
 GRA  SZ ES   2   1055 16.11                             137    -0.3 5  127  17 
 GRA  SZ I        1055 18.30        11.9 0.36                           127  17 
 OCA  SZ EP   1   1054 59.50                             129    -0.3 7  162 353 
 OCA  SZ ES   2   1055 22.83                             129     0.9 5  162 353 
 OCA  SZ I        1055 26.60        15.9 0.30                           162 353 
 NOR  SZ EP   1   1055  6.60                             118    -0.4 6  234 235 
 NOR  SE ES   2   1055 34.57                             118    -0.2 4  234 235 
 NOR  SZ I        1055 42.72         1.8 0.54                           234 235 
 CHI  HZ EP       1055  8.82                             117     0.0 8  247 195 
 CHI  HN ES   2   1055 38.47                             117     0.4 4  247 195 
 CHI  HZ I        1055 47.79         7.0 0.31                           247 195 
 HEL  HZ EP   1   1055 12.57                             115     1.1 6  272 256 
 HEL  HE ES   2   1055 41.77                             115    -1.1 4  272 256 
 HEL  HZ I        1055 49.03         6.6 0.32                           272 256 
 PRA  HZ EP   1   1055 24.49                             107    -0.2 5  391 210 
 PRA  HN ES   2   1056  7.07                             107     0.8 3  391 210 
 PRA  HZ I        1056 12.87        18.2 0.23                           391 210 
                                                                                
