 2017  731 1430 16.6 L   6.742 -73.199148.8  RSN  4 0.4 1.2LRSN                1
 GAP=227        1.12       8.9     8.4  9.0  0.3621E+02  0.7782E+01  0.2633E+01E
 Epicentro: VILLANUEVA - SANTANDER                                             3
 ACTION:UPD 17-08-30 15:38 OP:rebc STATUS:               ID:20170731143016 L   I
 OLDACT:REG 17-07-31 21:04 OP:dani STATUS:               ID:20170731142737     3
 2017-07-31-1428-00M.COL___389                                                 6
 STAT SP IPHASW D HRMM SECON CODA AMPLIT PERI AZIMU VELO AIN AR TRES W  DIS CAZ7
 BAR2 EZ EP       1430 36.00                             173   -0.4410 16.6 174 
 BAR2 EZ ES       1430 51.33                             173   -0.6210 16.6 174 
 BAR2 EZ I        1430 53.99         5.6 0.46            173           16.6 174 
 BRR  HZ EP       1430 37.91                             154   -0.0310 69.6 306 
 BRR  HN ES       1430 55.32                             154    0.6910 69.6 306 
 RUS  HZ EP       1430 40.68                             146    0.4810 94.8 172 
 RUS  HN ES       1430 58.93                             146    0.2810 94.8 172 
 RUS  HZ I        1430 59.99         2.3 0.32            147           94.8 172 
 PTB  HZ EP       1430 42.97                             134   -0.18 9  141 261 
 PTB  HN ES       1431  3.67                             134   -0.23 9  141 261 
 PTB  HZ I        1431  4.66         1.3 0.16            136            141 261 
                                                                                
