 2017 1031 1007 12.0 L   6.791 -73.133152.1  RSN 31 0.5 2.6LRSN                1
 GAP= 55        0.80       2.3     2.2  3.7  0.1877E+00  0.1075E+01  0.7992E+00E
 Epicentro: LOS SANTOS - SANTANDER                                             3
 ACTION:UPD 17-11-07 19:40 OP:rebc STATUS:               ID:20171031100712 L   I
 OLDACT:UP  17-10-31 22:04 OP:mg   STATUS:               ID:20171031095743d    3
 OLDACT:UP  17-10-31 22:03 OP:mg   STATUS:               ID:20171031095743d    3
 OLDACT:UP  17-10-31 22:02 OP:mg   STATUS:               ID:20171031095743d    3
 OLDACT:UP  17-10-31 22:00 OP:mg   STATUS:               ID:20171031095743d    3
 OLDACT:DUP 17-10-31 21:43 OP:mg   STATUS:               ID:20171031095743d    3
 2017-10-31-0958-00M.COL___438                                                 6
 STAT SP IPHASW D HRMM SECON CODA AMPLIT PERI AZIMU VELO AIN AR TRES W  DIS CAZ7
 BAR2 EZ IP     D 10 7 32.37                             171   -0.0010 22.6 194 
 BAR2 EZ ES   1   10 7 48.00                             171   -0.26 7 22.6 194 
 BAR2 EZ I        10 7 50.35       103.6 0.40            169           22.6 194 
 BRR  HZ IP     D 10 7 34.20                             153    0.2810 72.9 299 
 BRR  HN ES       10 7 51.77                             153    0.7510 72.9 299 
 BRR  HZ I        10 7 54.37        53.9 0.18            150           72.9 299 
 PAM  EZ IP     D 10 7 35.12                             152    0.2410 77.3  38 
 PAM  EN ES       10 7 52.47                             152   -0.2610 77.3  38 
 PAM  EZ I        10 7 54.70        54.6 0.48            152           77.3  38 
 RUS  HZ IP     C 10 7 36.21                             145   -0.0910 99.5 177 
 RUS  HN ES       10 7 54.88                             145   -0.3710 99.5 177 
 RUS  HZ I        10 7 56.21        40.8 0.28            143           99.5 177 
 PTB  HZ EP       10 7 39.20                             133   -0.39 9  149 259 
 PTB  HN ES       10 8  0.37                             133   -0.74 9  149 259 
 PTB  HZ I        10 8  6.46        30.7 0.25            130            149 259 
 TAM  HZ IP     D 10 7 40.49                             132    0.45 9  154 105 
 TAM  HZ I        10 8  1.39        27.1 0.36            131            154 105 
 TAM  HN ES       10 8  1.97                             132    0.06 9  154 105 
 SPBC HZ EP       10 7 41.17                             130    0.18 9  163 220 
 SPBC HN ES       10 8  3.29                             130   -0.32 9  163 220 
 SPBC HZ I        10 8  9.02        72.8 0.13            127            163 220 
 YPLC HZ IP     C 10 7 42.50                             128    0.39 9  175 152 
 YPLC HN ES   2   10 8  6.45                             128    0.86 4  175 152 
 YPLC HZ I        10 8  7.41        45.4 0.24            126            175 152 
 ZAR  HZ EP       10 7 44.97                             123   -0.06 8  206 292 
 ZAR  HN ES       10 8 10.93                             123    0.14 8  206 292 
 ZAR  HZ I        10 8 21.34        39.3 0.24            121            206 292 
 TABC EZ EP   4   10 7 49.54                             121    1.43 0  230 211 
 TABC EZ ES   4   10 8 20.72                             121    4.44 0  230 211 
 TABC EZ I        10 8 24.50        31.7 0.48            118            230 211 
 NOR  HZ EP       10 7 48.08                             120   -0.08 8  235 235 
 NOR  HN ES   1   10 8 17.08                             120    0.72 6  235 235 
 NOR  HZ I        10 8 20.04        44.2 0.20            117            235 235 
 CHI  HZ EP       10 7 50.35                             118    0.36 8  248 196 
 CHI  HN ES       10 8 19.56                             118   -0.06 8  248 196 
 CHI  HZ I        10 8 27.94        16.0 0.42            116            248 196 
 ROSC BZ EP   4   10 7 52.11                             118    1.66 0  253 211 
 ROSC BN ES   4   10 8 23.95                             118    3.51 0  253 211 
 ROSC BZ I        10 8 30.00        52.4 0.40            116            253 211 
 URE  HZ EP   1   10 7 53.09                             115   -0.47 6  285 292 
 URE  HN ES   3   10 8 24.50                             115   -1.48 2  285 292 
 URE  HZ I        10 8 32.14        22.4 0.22            112            285 292 
 GUY2CHZ EP   4   10 7 57.54                             113    1.58 0  302 235 
 GUY2CHN ES   4   10 8 32.65                             113    2.39 0  302 235 
 GUY2CHZ I        10 8 37.28        27.7 0.34                           302 235 
 PTGC HZ IP     C 10 7 55.17                             113   -0.81 7  307 159 
 PTGC HN ES   3   10 8 28.49                             113   -1.80 2  307 159 
 PTGC HZ I        10 8 32.43        15.4 0.24            111            307 159 
 LL6C HZ EP   1   10 7 57.43                             111   -0.66 5  326 357 
 LL6C HN ES   4   10 8 31.21                             111   -2.84 0  326 357 
 LL6C HZ I        10 8 45.05         8.2 0.30            110            326 357 
 ELA  HZ EP   4   10 8  2.40                             111    3.24 0  330 230 
 ELA  HE ES   3   10 8 37.56                             111    1.61 2  330 230 
 ELA  HZ I        10 8 43.64        16.9 0.40            109            330 230 
 DBB  EZ EP   1   10 7 59.63                             110   -0.27 5  341 274 
 DBB  EN ES   3   10 8 35.84                             110   -1.42 2  341 274 
 DBB  EZ I        10 8 42.83         9.0 0.16            108            341 274 
 ANIL HZ EP   4   10 8  3.83                             109    1.75 0  358 225 
 ANIL HN ES   4   10 8 42.92                             109    1.78 0  358 225 
 ANIL HZ I        10 8 46.40        57.6 0.26            108            358 225 
 SDV  BZ EP   1   10 8  1.67                             109   -0.57 5  360  50 
 SDV  B1 ES   4   10 8 39.48                             109   -1.95 0  360  50 
 SDV  BZ I        10 8 41.05         6.5 0.40            108            360  50 
 ARGC HZ EP   1   10 8  2.38                             109    0.32 5  361 340 
 ARGC HN ES   1   10 8 41.59                             109    0.48 5  361 340 
 ARGC HZ I        10 8 46.21        11.0 0.31            108            361 340 
 PRA  HZ EP       10 8  5.60                             108   -0.12 6  392 210 
 PRA  HE ES       10 8 47.89                             108    0.27 6  392 210 
 PRA  HZ I        10 8 52.71        16.5 0.24            106            392 210 
 ORTC HZ EP   3   10 8  7.28                             107    1.14 1  395 216 
 ORTC HN ES   3   10 8 49.55                             107    1.18 1  395 216 
 ORTC HZ I        10 8 55.23        12.7 0.50            106            395 216 
 APAC HZ EP   4   10 8  5.12                             107   -1.47 0  400 288 
 APAC HE ES   1   10 8 49.47                             107    0.29 4  400 288 
 APAC HZ I        10 8 54.34         8.0 0.33            105            400 288 
 PAL  HZ EP   2   10 8  7.89                             107    0.44 3  406 239 
 PAL  HE ES   3   10 8 51.16                             107    0.46 1  406 239 
 PAL  HZ I        10 9  3.12         7.3 0.68            105            406 239 
 SJC  HZ EP   3   10 8  6.55                             107   -1.41 1  411 327 
 SJC  HN ES   4   10 8 47.69                             107   -3.92 0  411 327 
 SJC  HZ I        10 8 52.41         9.3 0.36            105            411 327 
 CRJC HZ EP   4   10 8 12.75                             104   -2.04 0  469   3 
 CRJC HE ES   4   10 8 59.94                             104   -3.82 0  469   3 
 CRJC HZ I        10 9  6.14         9.8 0.20            103            469   3 
 YOT  HZ EP   1   10 8 15.02                             104   -0.24 4  472 229 
 YOT  HN ES   3   10 9  6.01                             104    1.40 1  472 229 
 SMAR HZ EP   4   10 8 16.99                             103   -1.20 0  498 346 
 SMAR HN ES   4   10 9  5.59                             103   -4.23 0  498 346 
 SMAR HZ I        10 9  8.68         8.9 0.11            102            498 346 
 MACC HZ EP   3   10 8 18.76                             102   -2.01 1  520 189 
 MACC HE ES   4   10 9 10.85                             102   -3.57 0  520 189 
 MACC HZ I        10 9 15.85         2.9 0.14            101            520 189 
 URI  HZ EP   4   10 8 22.54                             101   -2.69 0  557  13 
 URI  HN ES   4   10 9 17.33                             101   -5.02 0  557  13 
                                                                                
