 2016  531 1005 44.8 L   6.787 -73.058151.6  RSN 16 0.4 2.0LRSN                1
 GAP=127        0.86       2.6     3.2  4.4 -0.1355E+01  0.1542E+01  0.3850E+01E
 Epicentro: LOS SANTOS - SANTANDER                                             3
 ACTION:UPD 16-08-18 17:51 OP:cam  STATUS:               ID:20160531100544 L   I
 OLDACT:REG 16-05-31 20:10 OP:ar   STATUS:               ID:20160531095744     3
 2016-05-31-0957-44M.COL___310                                                 6
 STAT SP IPHASW D HRMM SECON CODA AMPLIT PERI AZIMU VELO AIN AR TRES W  DIS CAZ7
 BAR2 EZ IP     C 10 6  5.41                             170    0.1910 25.6 212 
 BAR2 EZ ES       10 6 20.59                             170   -0.5210 25.6 212 
 BAR2 EZ I        10 6 23.17        21.1 0.36            166           25.6 212 
 PAM  EZ EP       10 6  6.94                             153   -0.4810 72.8  33 
 PAM  EN ES       10 6 25.56                             153    0.5310 72.8  33 
 PAM  EZ I        10 6 26.08         9.1 0.24            157           72.8  33 
 BRR  HZ EP       10 6  7.33                             151    0.1810 80.4 296 
 BRR  HN ES       10 6 24.54                             151   -0.0110 80.4 296 
 BRR  HZ I        10 6 26.76        11.1 0.36            147           80.4 296 
 RUS  HZ EP       10 6  9.23                             145    0.1710 99.0 182 
 RUS  HN ES       10 6 28.35                             145    0.4010 99.0 182 
 RUS  HZ I        10 6 31.35         6.0 0.18            145           99.0 182 
 PTB  HZ EP   9   10 6 11.55                             131   -1.57 0  157 260 
 PTB  HN ES       10 6 33.30                                   -0.31 9  157 260 
 PTB  HZ I        10 6 37.93        12.8 0.14            129            157 260 
 OCA  HZ EP   2   10 6 14.65                             130    0.78 5  163 350 
 OCA  HN ES       10 6 36.19                             130   -0.32 9  163 350 
 OCA  HZ I        10 6 41.15        15.4 0.30            131            163 350 
 SPBC HZ EP       10 6 14.25                             129   -0.03 9  168 222 
 SPBC HN ES       10 6 37.06                             129   -0.18 9  168 222 
 SPBC HZ I        10 6 40.96        14.4 0.19            128            168 222 
 NOR  HZ EP   2   10 6 21.53                             119   -0.14 4  242 236 
 NOR  HN ES       10 6 50.17                             119   -0.23 8  242 236 
 NOR  HZ I        10 6 55.03         9.4 0.26            118            242 236 
 CHI  HZ EP       10 6 22.51                             118   -0.50 8  250 197 
 CHI  HN ES       10 6 53.07                             118    0.28 8  250 197 
 CHI  HZ I        10 6 58.47         4.3 0.44            118            250 197 
 HEL  HZ EP   2   10 6 26.31                             115   -0.04 4  281 257 
 HEL  HN ES       10 6 59.06                             115    0.33 7  281 257 
 HEL  HZ I        10 7  4.16         5.8 0.30            114            281 257 
 URE  HZ EP   4   10 6 25.86                             114   -1.39 0  293 291 
 URE  HN ES   4   10 6 56.82                             114   -3.51 0  293 291 
 URE  HZ I        10 7  2.90         5.3 0.12            113            293 291 
 PTGC HZ EP       10 6 28.52                             113    0.09 7  304 160 
 PTGC HN ES       10 7  2.06                             113   -0.38 7  304 160 
 ELA  HZ EP   4   10 6 31.06                             111   -1.62 0  336 231 
 ELA  HN ES   4   10 7 14.20                             111    4.20 0  336 231 
 ELA  HZ I        10 7 18.23         5.3 0.42            111            336 231 
 CBOC HZ EP       10 6 33.54                             110    0.54 7  342 253 
 CBOC HE ES       10 7 10.07                             110   -0.50 7  342 253 
 CBOC HZ I        10 7 23.20         2.0 0.52            110            342 253 
 ANIL HN ES   4   10 7 16.62                             109    1.52 0  363 226 
 PRA  HZ EP   2   10 6 39.96                             107    0.97 3  396 211 
 PRA  HN ES       10 7 21.12                             107   -0.11 6  396 211 
 PRA  HZ I        10 7 27.89         5.4 0.26            107            396 211 
 ORTC HZ EP       10 6 38.59                             107   -0.92 6  400 217 
 ORTC HN ES       10 7 23.11                             107    0.96 6  400 217 
 ORTC HZ I        10 7 28.49         3.5 0.46            107            400 217 
                                                                                
