 2017  531 1833 24.5 L   7.470 -73.132132.0  RSN  5 0.4 1.9LRSN                1
 GAP=267        0.56       6.5     6.4  5.3  0.3312E+02 -0.1000E+02 -0.9570E+01E
 Epicentro: EL PLAYON - SANTANDER                                              3
 ACTION:UPD 17-06-16 13:40 OP:jn   STATUS:               ID:20170531183324 L   I
 OLDACT:UP  17-06-01 01:02 OP:and  STATUS:               ID:20170531182735     3
 OLDACT:UP  17-06-01 01:01 OP:and  STATUS:               ID:20170531182735     3
 OLDACT:UP  17-06-01 01:00 OP:and  STATUS:               ID:20170531182735     3
 OLDACT:UP  17-06-01 01:00 OP:and  STATUS:               ID:20170531182735     3
 OLDACT:REG 17-05-31 20:29 OP:dani STATUS:               ID:20170531182735     3
 2017-05-31-1828-00M.COL___347                                                 6
 STAT SP IPHASW D HRMM SECON CODA AMPLIT PERI AZIMU VELO AIN AR TRES W  DIS CAZ7
 BRR  HZ EP       1833 44.69                             149    0.2310 75.6 238 
 BRR  HN ES       1833 59.93                             149   -0.1010 75.6 238 
 BRR  HZ I        1834  0.64        37.7 0.10            138           75.6 238 
 RUS  HZ EP       1833 53.80                             124    0.14 9  175 178 
 RUS  HN ES       1834 16.36                             124   -0.03 9  175 178 
 RUS  HZ I        1834 22.82         4.1 0.36            119            175 178 
 PTB  HZ EP       1833 53.11                             123   -0.37 9  179 235 
 PTB  HN ES   3   1834 14.85                             123   -1.22 2  179 235 
 PTB  HZ I        1834 18.89         9.6 0.52            117            179 235 
 ZAR  HZ EP       1833 54.71                             121    0.04 9  191 271 
 ZAR  HN ES       1834 18.28                             121    0.08 9  191 271 
 ZAR  HZ I        1834 22.67        12.4 0.09            117            191 271 
 NOR  HZ IP     D 1834  5.11                             111   -0.05 7  285 222 
 NOR  HN ES   3   1834 38.68                             111    1.82 2  285 222 
 NOR  HZ I        1834 41.06         4.0 0.38            107            285 222 
                                                                                
