 2016 1031 1151 55.0 L   6.819 -73.211147.0  RSN  6 0.3 1.2LRSN                1
 GAP=128        0.81       3.6     4.1  5.5 -0.1519E+01  0.2599E+01  0.5305E+01E
 Epicentro: ZAPATOCA - SANTANDER                                               3
 ACTION:UPD 16-11-09 19:24 OP:rebc STATUS:               ID:20161031115155 L   I
 OLDACT:DUP 16-10-31 22:55 OP:cog  STATUS:               ID:20161031114747d    3
 2016-10-31-1148-00M.COL___325                                                 6
 STAT SP IPHASW D HRMM SECON CODA AMPLIT PERI AZIMU VELO AIN AR TRES W  DIS CAZ7
 BAR2 EZ ES       1152 30.08                             170   -0.2210 25.3 173 
 BRR  HZ EP       1152 15.72                             155   -0.1910 63.8 300 
 BRR  HN ES       1152 32.84                             155    0.6410 63.8 300 
 PAM  EZ EP       1152 17.75                             150    0.1810 80.7  44 
 PAM  EE ES       1152 35.05                             150   -0.1010 80.7  44 
 PAM  EZ I        1152 35.49         2.7 0.20            152           80.7  44 
 RUS  HZ EP     C 1152 18.85                             143   -0.2510  103 172 
 RUS  HN ES       1152 37.82                             143   -0.0610  103 172 
 RUS  HZ I        1152 39.03         2.5 0.44            144            103 172 
 PTB  HZ EP       1152 21.46                             134   -0.04 9  141 257 
 PTB  HN ES       1152 41.70                             134   -0.45 9  141 257 
 PTB  HZ I        1152 44.54         2.6 0.26            134            141 257 
 CHI  HZ EP       1152 32.98                             117    0.16 8  249 193 
 CHI  HN ES       1153  2.82                             117    0.52 8  249 193 
                                                                                
