 2017 1231 1419  3.2 L   6.800 -73.176141.4  RSN 10 0.4 1.8LRSN                1
 GAP= 63        0.75       2.8     2.6  5.3 -0.6892E+00  0.1119E+01  0.2992E+01E
 Epicentro: LOS SANTOS - SANTANDER                                             3
 ACTION:UPD 18-01-04 13:26 OP:rebc STATUS:               ID:20171231141903 L   I
 OLDACT:UP  17-12-31 23:02 OP:mg   STATUS:               ID:20171231140948     3
 OLDACT:UP  17-12-31 23:02 OP:mg   STATUS:               ID:20171231140948     3
 OLDACT:REG 17-12-31 20:40 OP:mg   STATUS:               ID:20171231140948     3
 2017-12-31-1418-00M.COL___462                                                 6
 STAT SP IPHASW D HRMM SECON CODA AMPLIT PERI AZIMU VELO AIN AR TRES W  DIS CAZ7
 BAR2 EZ EP       1419 22.34                             170    0.0210 23.0 182 
 BAR2 EZ ES   1   1419 36.95                             170   -0.27 7 23.0 182 
 BAR2 EZ I        1419 38.21        15.1 0.17            170           23.0 182 
 PAM  EZ EP       1419 25.21                             149    0.1010 79.6  41 
 PAM  EN ES       1419 42.11                             149   -0.0710 79.6  41 
 PAM  EZ I        1419 44.14        11.6 0.54            153           79.6  41 
 PTB  HZ EP       1419 28.92                             132   -0.62 9  144 259 
 PTB  HN ES       1419 49.79                             132   -0.27 9  144 259 
 PTB  HZ I        1419 52.21         6.1 0.14            132            144 259 
 TAM  HZ EP       1419 30.65                             129   -0.22 9  158 105 
 OCA  HZ EP       1419 31.21                             129    0.04 9  160 354 
 OCA  HN ES       1419 53.15                             129    0.19 9  160 354 
 OCA  HZ I        1419 55.98        20.1 0.22            131            160 354 
 SPBC HZ EP       1419 31.68                             128    0.49 9  161 218 
 SPBC HN ES   1   1419 53.64                             128    0.64 7  161 218 
 SPBC HZ I        1419 59.40        11.9 0.22            129            161 218 
 YPLC HZ EP       1419 32.91                             125    0.04 9  178 150 
 YPLC HE ES   2   1419 56.11                             125    0.12 4  178 150 
 YPLC HZ I        1419 59.75         4.9 0.22            128            178 150 
 ZAR  HZ EP   2   1419 35.40                             122    0.33 4  201 292 
 ZAR  HN ES       1420  0.33                             122    0.43 9  201 292 
 ZAR  HZ I        1420  7.99         6.0 0.31            123            201 292 
 URE  HZ EP   2   1419 43.95                             113    0.21 4  281 292 
 URE  HE ES   2   1420 14.03                             113   -1.30 4  281 292 
 URE  HZ I        1420 17.65         4.7 0.13            114            281 292 
 GUY2CHZ EP   2   1419 45.72                             112   -0.60 4  298 234 
 GUY2CHE ES   1   1420 19.80                             112   -0.14 5  298 234 
 GUY2CHZ I        1420 28.97         2.4 0.37                           298 234 
                                                                                
