 2011  331 1847 14.8 L   6.791 -73.101145.7  RSN 11 0.4 2.9LRSN                1
 GAP=160        1.00       5.6     8.0  7.6 -0.2551E+02  0.8840E+01  0.7039E+01E
 Epicentro: LOS SANTOS - SANTANDER                                             3
 ACTION:UP  11-06-16 14:37 OP:jfem STATUS:               ID:20110331184714 L   I
 2011-03-31-1845-35S.COL___138                                                 6
 STAT SP IPHASW D HRMM SECON CODA AMPLIT PERI AZIMU VELO SNR AR TRES W  DIS CAZ7
 BTL  SZ EP       1847 34.75                             171     0.310   23 307 
 BAR2 SZ EP       1847 34.57                             170     0.110   24 203 
 BAR2 SZ ES   1   1847 49.61                             170    -0.1 7   24 203 
 BAR2 SZ I        1847 52.34       205.8 0.22                            24 203 
 GIR2 SZ EP       1847 34.69                             167     0.210   33 342 
 PAM  SZ EP   1   1847 37.39                             152     0.5 7   75  36 
 PAM  SN ES   1   1847 53.86                             152    -0.2 7   75  36 
 PAM  SZ I        1847 56.81        55.7 0.22                            75  36 
 BRR  HZ IP       1847 36.51                             151     0.310   76 297 
 BRR  HN ES   1   1847 53.40                             151     0.5 7   76 297 
 BRR  HZ I        1847 55.65       261.0 0.15                            76 297 
 GRA  SZ IP       1847 39.40                             137    -0.610  125  15 
 GRA  SZ ES   1   1847 59.14                             137    -0.5 7  125  15 
 GRA  SZ I        1848  0.73       117.1 0.33                           125  15 
 OCA  SZ EP   1   1847 43.06                             129    -0.2 7  162 351 
 OCA  SZ I        1848  9.87        90.3 0.47                           162 351 
 NOR  SZ EP   1   1847 50.37                             118    -0.5 6  238 235 
 NOR  SE ES   1   1848 18.07                             118    -1.0 6  238 235 
 CHI  HZ EP   1   1847 52.52                             117     0.0 6  249 196 
 CHI  HN ES   1   1848 21.86                             117    -0.1 6  249 196 
 CHI  HZ I        1848 31.49        55.5 0.51                           249 196 
 HEL  HZ EP   1   1847 55.70                             114     0.2 6  277 256 
 HEL  HZ I        1848 33.32        45.2 0.26                           277 256 
 TOL  SZ EP   1   1848  3.89                             109     0.5 5  346 225 
                                                                                
