 2016  131 1126  2.2 L   6.823 -73.156147.2  RSN  6 0.3 1.4LRSN                1
 GAP=145        0.68       2.5     3.8  4.7 -0.2995E+01  0.5210E+01 -0.3607E+00E
 Epicentro: LOS SANTOS - SANTANDER                                             3
 ACTION:UPD 16-03-09 23:30 OP:cam  STATUS:               ID:20160131112602 L   I
 OLDACT:DUP 16-01-31 23:25 OP:cara STATUS:               ID:20160131111760d    3
 2016-01-31-1117-59S.COL___220                                                 6
 STAT SP IPHASW D HRMM SECON CODA AMPLIT PERI AZIMU VELO AIN AR TRES W  DIS CAZ7
 BAR2 EZ IP       1126 21.80                             170   -0.2110 25.7 187 
 BAR2 EZ ES       1126 37.31                             170   -0.1810 25.7 187 
 BAR2 EZ I        1126 37.97         4.6 0.20            170           25.7 187 
 PAM  EZ IP     D 1126 24.78                             151    0.3310 76.2  41 
 PAM  EN ES       1126 41.92                             151    0.0810 76.2  41 
 PAM  EZ I        1126 44.19         3.3 0.28            154           76.2  41 
 PTB  HZ EP       1126 28.78                             132   -0.41 9  147 258 
 PTB  HE ES       1126 50.64                             132    0.37 9  147 258 
 PTB  HZ I        1126 55.63         2.5 0.36            132            147 258 
 SPBC HZ IP       1126 31.07                             129    0.18 9  164 218 
 SPBC HN ES       1126 53.46                             129    0.16 9  164 218 
 SPBC HZ I        1126 55.83         4.2 0.28            130            164 218 
 SML  HZ EP       1126 38.84                             118    0.28 8  241 335 
 SML  HE ES       1127  6.53                             118   -0.43 8  241 335 
 SML  HZ I        1127 11.17         3.4 0.10            119            241 335 
 CHI  HZ EP       1126 40.16                             117   -0.01 8  251 195 
 CHI  HN ES       1127  9.54                             117   -0.28 8  251 195 
 CHI  HZ I        1127 12.77         1.8 0.60            119            251 195 
                                                                                
