 2014  831 1102 40.3 L   6.828 -73.117137.6  RSN  9 0.5 1.9LRSN                1
 GAP= 89        1.22       4.1     4.5  6.9 -0.2639E+01  0.3168E+01 -0.1992E+01E
 Epicentro: LOS SANTOS - SANTANDER                                             3
 ACTION:UPD 14-09-15 21:54 OP:nd   STATUS:               ID:20140831110240 L   I
 OLDACT:DUP 14-08-31 23:48 OP:stll STATUS:               ID:20140831105818d    3
 2014-08-31-1058-17M.COL___269                                                 6
 STAT SP IPHASW D HRMM SECON CODA AMPLIT PERI AZIMU VELO AIN AR TRES W  DIS CAZ7
 BAR2 SZ EP       11 2 59.42                             168    0.3510 27.1 196 
 BAR2 SZ ES       11 3 13.30                             168   -0.3810 27.1 196 
 BAR2 SZ I        11 3 16.45        12.0 0.24            170           27.1 196 
 BRR  HZ EP       11 3  1.28                             150    0.5910 72.6 295 
 BRR  HN ES       11 3 17.56                             150    0.9910 72.6 295 
 BRR  HZ I        11 3 22.35        11.8 0.12            150           72.6 295 
 PAM  SZ EP       11 3  1.74                             151    0.3310 73.0  39 
 PAM  SE ES       11 3 17.27                             151   -0.5910 73.0  39 
 PAM  SZ I        11 3 21.19        25.4 0.60            153           73.0  39 
 PTB  HZ EP       11 3  6.68                             129   -0.32 9  152 258 
 PTB  HE ES       11 3 27.57                             129   -0.23 9  152 258 
 PTB  HZ I        11 3 30.41        10.8 0.14            131            152 258 
 TAM  HZ EP       11 3  7.63                             129    0.47 9  153 106 
 OCA  HZ EP       11 3  7.17                             128   -0.59 9  158 352 
 OCA  HN ES       11 3 29.20                             128    0.04 9  158 352 
 OCA  HZ I        11 3 34.75        10.9 0.24            130            158 352 
 SPBC HZ EP       11 3  8.54                             126   -0.11 9  168 219 
 SPBC HN ES       11 3 30.14                             126   -0.60 9  168 219 
 SPBC HZ I        11 3 35.91         9.7 0.26            130            168 219 
 ZAR  HZ EP       11 3 12.88                             120    0.43 8  206 291 
 ZAR  HN ES       11 3 37.65                             120    0.15 8  206 291 
 ZAR  HZ I        11 3 43.55         6.5 0.28            122            206 291 
 SML  HZ EP       11 3 15.92                             116   -0.43 8  242 334 
 SML  HN ES       11 3 43.95                             116   -0.50 8  242 334 
 SML  HZ I        11 3 50.38         9.2 0.10            118            242 334 
                                                                                
