 2014  831 1802 40.9 L   6.819 -73.161133.5  RSN  6 0.6 1.8LRSN                1
 GAP=200        1.48       5.8     9.4 12.4  0.1344E+02 -0.1603E+02 -0.1802E+02E
 Epicentro: LOS SANTOS - SANTANDER                                             3
 ACTION:UPD 14-09-15 21:54 OP:nd   STATUS:               ID:20140831180240 L   I
 OLDACT:DUP 14-09-01 01:21 OP:stll STATUS:               ID:20140831175817d    3
 2014-08-31-1758-16M.COL___268                                                 6
 STAT SP IPHASW D HRMM SECON CODA AMPLIT PERI AZIMU VELO AIN AR TRES W  DIS CAZ7
 BAR2 SZ EP       18 2 59.52                             169    0.4210 25.2 185 
 BAR2 SZ I        18 3 15.73        11.2 0.20            170           25.2 185 
 BRR  HZ EP       18 3  1.38                             151    0.8010 68.7 298 
 BRR  HN ES       18 3 16.50                             151    0.5710 68.7 298 
 RUS  HZ EP       18 3  3.99                             141    0.3510  103 175 
 RUS  HN ES       18 3 20.23                             141   -1.1410  103 175 
 RUS  HZ I        18 3 23.13         6.4 0.40            142            103 175 
 PTB  HZ EP       18 3  6.33                             129   -0.44 9  147 258 
 PTB  HN ES       18 3 26.61                             129   -0.35 9  147 258 
 PTB  HZ I        18 3 28.99         7.5 0.50            134            147 258 
 SPBC HZ EP       18 3  8.77                             126    0.23 9  164 218 
 SPBC HN ES       18 3 30.39                             126    0.28 9  164 218 
 SPBC HZ I        18 3 32.80        10.5 0.36            130            164 218 
 SML  HZ EP       18 3 16.03                             115   -0.54 8  241 335 
 SML  HN ES       18 3 43.77                             115   -0.62 8  241 335 
 SML  HZ I        18 3 50.25         8.0 0.30            116            241 335 
                                                                                
