 2015  831 1009 24.7 L   7.531 -73.183156.6  RSN  4 0.2 1.7LRSN                1
 GAP=191        0.62       2.9     4.5  6.2  0.3806E+01  0.3310E+01 -0.3250E+00E
 Epicentro: EL PLAYON - SANTANDER                                              3
 ACTION:UPD 15-09-15 23:06 OP:cam  STATUS:               ID:20150831100924 L   I
 OLDACT:DUP 15-09-01 01:23 OP:ak   STATUS:               ID:20150831100749d    3
 OLDACT:REG 15-08-31 21:06 OP:ak   STATUS:               ID:20150831100748     3
 2015-08-31-1007-48M.COL___355                                                 6
 STAT SP IPHASW D HRMM SECON CODA AMPLIT PERI AZIMU VELO AIN AR TRES W  DIS CAZ7
 OCA  HZ EP       10 9 47.50                             152   -0.2410 79.7 349 
 OCA  HN ES       1010  5.52                             152   -0.1710 79.7 349 
 OCA  HZ I        1010  7.55        12.4 0.48            152           79.7 349 
 BAR2 EZ EP       10 9 49.26                             145   -0.1510  104 180 
 BAR2 EZ ES       1010  8.88                             145    0.2210  104 180 
 BAR2 EZ I        1010 10.74         4.0 0.14            148            104 180 
 SML  HZ EP       10 9 55.15                             130    0.48 9  171 325 
 SML  HN ES       1010 18.14                             130    0.10 9  171 325 
 SML  HZ I        1010 23.11         4.7 0.13            131            171 325 
 ZAR  HZ EP   2   10 9 55.58                             127   -0.42 4  185 269 
 ZAR  HN ES       1010 20.34                             127   -0.06 9  185 269 
                                                                                
