 2015  131 1209 24.0 L   6.815 -73.149145.6  RSN 13 0.4 1.8LRSN                1
 GAP=135        0.93       3.3     4.1  6.1 -0.2088E+01  0.3157E+01  0.3968E+01E
 Epicentro: LOS SANTOS - SANTANDER                                             3
 ACTION:UPD 15-03-02 15:44 OP:nd   STATUS:               ID:20150131120924 L   I
 OLDACT:UP  15-01-31 23:55 OP:spq  STATUS:               ID:20150131120750     3
 OLDACT:REG 15-01-31 21:29 OP:spq  STATUS:               ID:20150131120750     3
 2015-01-31-1207-50M.COL___268                                                 6
 STAT SP IPHASW D HRMM SECON CODA AMPLIT PERI AZIMU VELO AIN AR TRES W  DIS CAZ7
 BAR2 EZ EP     C 12 9 43.51                             170   -0.1810 24.9 189 
 BAR2 EZ ES   1   12 9 58.58                             170   -0.42 7 24.9 189 
 BAR2 EZ I        12 9 59.95         9.8 0.16            168           24.9 189 
 BRR  HZ EP       12 9 45.38                             153    0.2710 70.1 297 
 BRR  HN ES       1210  2.38                             153    0.8310 70.1 297 
 BRR  HZ I        1210  3.07        16.5 0.14            150           70.1 297 
 PAM  SZ EP       12 9 46.41                             151    0.2310 76.3  41 
 PAM  SN ES   1   1210  3.35                             151   -0.09 7 76.3  41 
 PAM  SZ I        1210  5.43        12.1 0.52            154           76.3  41 
 RUS  HZ EP       12 9 47.62                             143   -0.2810  102 176 
 RUS  HN ES   1   1210  6.66                             143    0.16 7  102 176 
 RUS  HZ I        1210  7.94         7.5 0.30            144            102 176 
 PTB  HZ EP       12 9 50.53                             132   -0.47 9  148 258 
 PTB  HN ES       1210 11.28                             132   -0.74 9  148 258 
 PTB  HZ I        1210 13.71         7.2 0.46            131            148 258 
 OCA  HN ES   1   1210 13.40                             130   -0.73 7  159 353 
 OCA  HZ I        1210 17.23        13.3 0.48            130            159 353 
 SPBC HZ EP       12 9 52.86                             129    0.23 9  164 219 
 SPBC HN ES       1210 14.95                             129    0.02 9  164 219 
 SPBC HZ I        1210 17.99         9.4 0.10            128            164 219 
 ZAR  HZ EP   1   12 9 57.13                             122    0.75 6  203 292 
 ZAR  HE ES   1   1210 21.64                             122    0.03 6  203 292 
 ZAR  HZ I        1210 27.63         8.6 0.42            122            203 292 
 NOR  HZ EP       12 9 59.95                             118    0.11 8  235 234 
 NOR  HE ES       1210 27.87                             118    0.11 8  235 234 
 NOR  HZ I        1210 33.59         4.8 0.18            118            235 234 
 SML  HE ES   2   1210 28.56                             118   -0.34 4  242 335 
 CHI  HZ EP   1   1210  1.95                             117    0.05 6  250 195 
 CHI  HN ES   1   1210 31.65                             117    0.23 6  250 195 
 CHI  HZ I        1210 34.62         3.4 0.70            117            250 195 
 HEL  HZ EP   4   1210  6.48                             115    2.22 0  272 255 
 GUY2CHZ EP   4   1210  8.95                             112    1.23 0  302 234 
 GUY2CHN ES   4   1210 43.57                             112    1.78 0  302 234 
 GUY2CHZ I        1210 46.71         2.3 0.28                           302 234 
 RREF HN ES   4   1210 50.39                             111    4.06 0  323 229 
 RREF HZ I        1210 55.29         2.6 0.30            111            323 229 
                                                                                
