 2011  731 1916 33.0 L   7.354 -73.181129.1  RSN  6 0.2 2.3LRSN                1
 GAP=106        0.41       2.1     3.2  3.8 -0.4960E+00 -0.2379E+01  0.1199E+00E
 Epicentro: RIONEGRO - SANTANDER                                               3
 ACTION:UPD 12-07-25 14:04 OP:epov STATUS:               ID:20110731191633 L   I
 2011-07-31-1900-00M.COL___141                                                 6
 STAT SP IPHASW D HRMM SECON CODA AMPLIT PERI AZIMU VELO AIN AR TRES W  DIS CAZ7
 PAM  SZ EP   1   1916 51.96                             157   -0.13 7 53.2  92 
 PAM  SE ES   1   1917  7.01                             157    0.04 7 53.2  92 
 BRI  SZ EP   1   1916 51.74                             154   -0.15 7 58.3  47 
 BRI  SZ I        1917 10.23        58.1 0.44                          58.3  47 
 BRR  HZ EP   1   1916 51.74                             152   -0.25 7 64.7 245 
 BRR  HN ES       1917  6.82                             152    0.0310 64.7 245 
 BRR  HZ I        1917  7.95        74.8 0.14                          64.7 245 
 BAR2 SZ EP   1   1916 53.64                             145    0.05 7 84.3 180 
 BAR2 SZ ES   1   1917  9.55                             145   -0.09 7 84.3 180 
 BAR2 SZ I        1917 11.08        49.6 0.35                          84.3 180 
 OCA  SZ EP   1   1916 54.92                             140    0.36 7 99.0 351 
 OCA  SZ ES   1   1917 11.35                             140   -0.03 7 99.0 351 
 OCA  SZ I        1917 13.82        43.1 0.25                          99.0 351 
 RUS  HZ EP   1   1917  0.66                             125   -0.03 7  162 176 
 RUS  HN ES   2   1917 22.75                             125    0.46 5  162 176 
 RUS  HZ I        1917 25.69         6.1 0.23                           162 176 
                                                                                
