 2013  731 1456  7.9 L   6.794 -73.142146.9  RSN  6 0.3 1.9LRSN                1
 GAP=237        0.73       6.7     6.4  5.9  0.3084E+02  0.1216E+02  0.9765E+01E
 Epicentro: LOS SANTOS - SANTANDER                                             3
 ACTION:UPD 13-08-12 10:41 OP:ep   STATUS:               ID:20130731145607 L   I
 OLDACT:UP  13-07-31 19:11 OP:cam  STATUS:               ID:20130731144959     3
 OLDACT:UP  13-07-31 19:10 OP:cam  STATUS:               ID:20130731144959     3
 OLDACT:REG 13-07-31 15:08 OP:cam  STATUS:               ID:20130731144959     3
 2013-07-31-1449-59M.COL___268                                                 6
 STAT SP IPHASW D HRMM SECON CODA AMPLIT PERI AZIMU VELO AIN AR TRES W  DIS CAZ7
 BAR2 SZ EP       1456 27.52                             171   -0.1610 22.7 191 
 BAR2 SZ ES       1456 42.71                             171   -0.3810 22.7 191 
 BAR2 SZ I        1456 43.99        14.4 0.26            165           22.7 191 
 BRR  HN ES       1456 46.30                             152    0.4410 71.9 299 
 BRR  HN I        1456 46.79        49.6 0.28            151           71.9 299 
 RUS  HZ EP       1456 32.01                             144    0.2810 99.8 176 
 RUS  HN ES       1456 50.42                             144    0.1210 99.8 176 
 RUS  HZ I        1456 51.52         6.2 0.28            142           99.8 176 
 RUS  HN I        1456 53.38        10.6 0.54                          99.8 176 
 PTB  HZ EP       1456 34.62                             132   -0.39 9  148 259 
 PTB  HE ES   1   1456 56.03                             132   -0.11 7  148 259 
 PTB  HE I        1457  0.51         8.3 0.22            130            148 259 
 ZAR  HN ES       1457  5.88                             122   -0.05 9  205 292 
 NOR  HZ EP   1   1456 44.06                             119    0.35 6  235 235 
                                                                                
