 2011 1231 1101  5.9 L   6.778 -73.135145.5  RSN 17 0.4 3.1LRSN                1
 GAP=139        0.67       3.0     4.1  4.8 -0.1385E+01  0.7351E+01  0.3666E+01E
 Epicentro: LOS SANTOS - SANTANDER                                             3
 ACTION:UPD 12-07-13 16:19 OP:ep   STATUS:               ID:20111231110105 L   I
 2011-12-31-1100-00M.COL___185                                                 6
 STAT SP IPHASW D HRMM SECON CODA AMPLIT PERI AZIMU VELO AIN AR TRES W  DIS CAZ7
 BAR2 SZ EP       11 1 25.63                             171    0.2210 21.2 194 
 BAR2 SZ ES   1   11 1 40.41                             171   -0.25 7 21.2 194 
 BAR2 SZ I        11 1 42.42       234.6 0.29                          21.2 194 
 BRR  HZ EP       11 1 27.52                             152    0.4210 73.4 300 
 BRR  HE ES   2   11 1 44.53                             152    0.86 5 73.4 300 
 BRR  HZ I        11 1 46.78       218.2 0.16                          73.4 300 
 PAM  SZ EP   1   11 1 28.38                             150    0.27 7 78.5  38 
 PAM  SN ES   1   11 1 45.24                             150   -0.23 7 78.5  38 
 PAM  SZ I        11 1 47.74       115.3 0.22                          78.5  38 
 RUS  HZ EP   1   11 1 29.44                             144    0.04 7 98.1 177 
 RUS  HN ES   2   11 1 47.23                             144   -0.54 5 98.1 177 
 RUS  HZ I        11 1 49.56        90.4 0.29                          98.1 177 
 PTB  HZ EP   1   11 1 32.18                             132   -0.68 7  148 260 
 PTB  HN ES   2   11 1 53.37                             132   -0.56 5  148 260 
 ZAR  HZ EP   1   11 1 37.90                             122   -0.59 6  206 293 
 ZAR  HN ES   2   11 2  3.65                             122   -0.29 4  206 293 
 ZAR  HZ I        11 2 10.08       182.8 0.39                           206 293 
 NOR  SZ EP   1   11 1 41.46                             118   -0.06 6  234 235 
 NOR  SN ES   2   11 2  9.50                             118    0.16 4  234 235 
 CHI  HZ EP   1   11 1 43.65                             117    0.33 6  247 196 
 CHI  HN ES   1   11 2 12.29                             117   -0.25 6  247 196 
 HEL  HZ EP   1   11 1 46.78                             115    0.67 6  273 256 
 HEL  HN ES   2   11 2 17.81                             115    0.29 4  273 256 
 HEL  HZ I        11 2 24.54        53.1 0.37                           273 256 
 VIL  SZ EP   1   11 1 48.92                             112   -0.10 5  301 192 
 VIL  SN ES   2   11 2 22.63                             112   -0.05 4  301 192 
 VIL  SZ I        11 2 30.73        36.0 0.57                           301 192 
 RREF HZ EP   1   11 1 51.88                             111   -0.03 5  321 230 
 RREF HZ I        11 2 37.24        87.9 0.38                           321 230 
 TOL  SZ EP   1   11 1 54.87                             109    0.88 5  343 225 
 TOL  SZ ES   2   11 2 30.85                             109   -0.70 3  343 225 
 COD  HZ EP   1   11 1 53.63                             109   -0.88 5  351 354 
 COD  HZ I        11 2 38.04        65.5 0.61                           351 354 
 PRA  HZ EP   1   11 1 58.85                             106   -0.34 4  390 210 
 PRA  HN ES   2   11 2 41.20                             106    0.42 3  390 210 
 PRA  HZ I        11 2 46.60       145.4 0.20                           390 210 
 SJA  SZ ES   1   11 2 42.38                             106   -0.13 4  398 193 
 PAL  HZ EP   1   11 2  0.84                             106   -0.14 4  405 239 
 HORQ SZ EP   1   11 2 16.17                             101   -0.02 3  531 227 
 HORQ SE ES   2   11 3 11.52                             101    0.47 2  531 227 
                                                                                
