 2017  831 1027  9.1 L   6.809 -73.116148.7  RSN 10 0.5 2.0LRSN                1
 GAP=140        0.88       3.6     4.2  5.4 -0.3475E+00  0.8240E+01  0.4375E+01E
 Epicentro: LOS SANTOS - SANTANDER                                             3
 ACTION:UPD 17-09-04 20:26 OP:rebc STATUS:               ID:20170831102709 L   I
 OLDACT:UP  17-08-31 21:02 OP:dani STATUS:               ID:20170831101725     3
 OLDACT:REG 17-08-31 19:48 OP:dani STATUS:               ID:20170831101725     3
 2017-08-31-1018-00M.COL___392                                                 6
 STAT SP IPHASW D HRMM SECON CODA AMPLIT PERI AZIMU VELO AIN AR TRES W  DIS CAZ7
 BAR2 EZ EP       1027 28.85                             170   -0.2810 25.1 197 
 BAR2 EZ ES       1027 44.40                             170   -0.3510 25.1 197 
 BAR2 EZ I        1027 46.77        27.6 0.36            169           25.1 197 
 BRR  HZ EP       1027 30.87                             152    0.1510 73.6 297 
 BRR  HN ES       1027 48.17                             152    0.6010 73.6 297 
 BRR  HZ I        1027 51.98        14.4 0.74            151           73.6 297 
 PAM  EZ EP     D 1027 31.62                             152    0.1510 74.5  38 
 PAM  EN ES       1027 49.07                             152    0.1510 74.5  38 
 PAM  EZ I        1027 51.34        12.5 0.62            156           74.5  38 
 RUS  HZ EP       1027 33.30                             144    0.0910  101 178 
 RUS  HE ES       1027 51.85                             144   -0.1710  101 178 
 RUS  HZ I        1027 53.16        17.8 0.29            147            101 178 
 SPBC HZ EP       1027 37.73                             129   -0.38 9  166 220 
 SPBC HN ES   3   1027 59.93                             129   -0.80 2  166 220 
 SPBC HZ I        1028  3.87        19.0 0.14            130            166 220 
 ZAR  HZ EP       1027 41.55                             123   -0.47 8  207 292 
 ZAR  HE ES       1028  7.49                             123   -0.21 8  207 292 
 ZAR  HZ I        1028 13.31         5.8 0.12            123            207 292 
 NOR  HZ EP       1027 45.43                             119    0.07 8  238 235 
 NOR  HN ES       1028 13.42                             119   -0.22 8  238 235 
 NOR  HZ I        1028 16.56         7.7 0.14            120            238 235 
 GUY2CHZ EP   3   1027 54.90                             113    1.67 2  304 235 
 GUY2CHN ES   4   1028 30.29                             113    2.65 0  304 235 
 GUY2CHZ I        1028 33.17         4.5 0.28                           304 235 
 PRA  HZ EP       1028  3.46                             107    0.43 6  395 210 
 PRA  HE ES       1028 46.39                             107    1.30 6  395 210 
 PRA  HZ I        1028 50.05         2.8 0.28            108            395 210 
 SJC  HZ EP   3   1028  3.13                             106   -1.75 1  410 326 
 SJC  HN ES   4   1028 45.52                             106   -2.86 0  410 326 
 SJC  HZ I        1028 49.81         1.4 0.51            108            410 326 
                                                                                
