 2016 1231 1735 57.0 L   6.803 -73.165145.0  RSN 14 0.4 2.4LRSN                1
 GAP= 70        0.96       3.3     3.3  4.8 -0.6015E+00  0.3608E+01  0.4675E+01E
 Epicentro: LOS SANTOS - SANTANDER                                             3
 ACTION:UPD 17-01-11 20:21 OP:rebc STATUS:               ID:20161231173557 L   I
 OLDACT:REG 16-12-31 20:35 OP:lv   STATUS:               ID:20161231172749     3
 2016-12-31-1728-00M.COL___375                                                 6
 STAT SP IPHASW D HRMM SECON CODA AMPLIT PERI AZIMU VELO AIN AR TRES W  DIS CAZ7
 BAR2 EZ EP       1736 16.39                             170   -0.1510 23.4 185 
 BAR2 EZ ES       1736 31.57                             170   -0.2110 23.4 185 
 BAR2 EZ I        1736 34.30        80.5 0.38            168           23.4 185 
 BRR  HZ IP     C 1736 18.23                             153    0.2810 69.2 299 
 BRR  HN ES       1736 35.12                             153    0.8310 69.2 299 
 BRR  HZ I        1736 39.99        21.6 0.09            153           69.2 299 
 PAM  EZ EP       1736 19.17                             150   -0.0310 78.5  41 
 PAM  EN ES       1736 36.56                             150    0.0510 78.5  41 
 PAM  EZ I        1736 38.82        41.9 0.58            157           78.5  41 
 RUS  HZ EP       1736 20.53                             143   -0.1810  101 175 
 RUS  HE ES       1736 39.21                             143    0.0010  101 175 
 RUS  HZ I        1736 42.22        26.4 0.30            144            101 175 
 PTB  HZ EP       1736 23.02                             132   -0.70 9  146 259 
 PTB  HN ES       1736 44.02                             132   -0.54 9  146 259 
 PTB  HZ I        1736 46.77        34.4 0.11            133            146 259 
 TAM  HZ IP     C 1736 24.54                             130   -0.27 9  157 105 
 TAM  HE ES   4   1736 44.90                             130   -1.61 0  157 105 
 TAM  HZ I        1736 45.40        18.1 0.36            135            157 105 
 ZAR  HZ EP       1736 29.07                             122   -0.11 9  202 292 
 ZAR  HE ES       1736 54.06                             122   -0.22 9  202 292 
 ZAR  HZ I        1737  1.60        31.6 0.16            124            202 292 
 NOR  HZ EP       1736 32.25                             118   -0.27 8  233 234 
 NOR  HE ES       1736 59.98                             118   -0.25 8  233 234 
 NOR  HZ I        1737  4.18        24.1 0.28            120            233 234 
 CHI  HZ EP       1736 34.72                             117    0.09 8  248 195 
 CHI  HN ES       1737  3.99                             117    0.01 8  248 195 
 CHI  HZ I        1737 13.54         9.6 0.32            119            248 195 
 ROSC BZ EP       1736 35.93                             117    0.94 8  252 211 
 ROSC BE ES   4   1737  6.65                             117    2.03 0  252 211 
 ROSC BZ I        1737 12.30        26.9 0.40            118            252 211 
 GUY2CHZ EP       1736 41.39                             112    0.99 7  300 234 
 GUY2CHN ES       1737 14.24                             112   -0.01 7  300 234 
 GUY2CHZ I        1737 25.15        15.0 0.50                           300 234 
 LL1C HZ EP   9   1736 41.95                             112    1.47 0  306 352 
 LL1C HE ES       1737 16.04                                    0.17 7  306 352 
 DBB  EZ EP       1736 44.11                             109   -0.09 7  337 274 
 DBB  EN ES   4   1737 19.22                             109   -1.79 0  337 274 
 DBB  EZ I        1737 24.39         7.6 0.22            111            337 274 
 ORTC HZ EP       1736 50.80                             106    0.02 6  394 216 
 ORTC HE ES       1737 33.30                             106    0.57 6  394 216 
 ORTC HZ I        1737 40.07         7.7 0.46            108            394 216 
 CRJC HZ EP   4   1736 57.36                             103   -2.09 0  467   4 
 CRJC HE ES   4   1737 43.72                             103   -4.44 0  467   4 
                                                                                
