 2011  131 1606 34.6 L   6.800 -73.114145.3  RSN 13 0.4 2.6LRSN                1
 GAP=105        0.67       3.0     4.9  6.6 -0.5168E+01  0.8993E+01 -0.1205E+01E
 Epicentro: LOS SANTOS - SANTANDER                                             3
 ACTION:UP  11-02-08 08:44 OP:pat  STATUS:               ID:20110131160634 L   I
 2011-01-31-1600-00M.COL___139                                                 6
 STAT SP IPHASW D HRMM SECON CODA AMPLIT PERI AZIMU VELO SNR AR TRES W  DIS CAZ7
 BTL  SZ EP       16 6 54.58                             171     0.510   21 308 
 BAR2 SZ EP       16 6 54.35                             170     0.210   24 198 
 BAR2 SZ I        16 7 10.27       161.9 0.29                            24 198 
 RUS  HZ EP   1   16 6 58.12                             144    -0.2 7  100 178 
 RUS  HN ES   1   16 7 16.44                             144    -0.3 7  100 178 
 RUS  HZ I        16 7 17.94        43.3 0.27                           100 178 
 GRA  SZ EP   1   16 6 59.31                             137    -0.4 7  125  16 
 GRA  SZ ES   1   16 7 19.27                             137     0.0 7  125  16 
 GRA  SZ I        16 7 20.92        80.4 0.46                           125  16 
 OCA  SZ EP   2   16 7  2.93                             129     0.0 5  161 352 
 OCA  SZ ES   2   16 7 24.89                             129    -0.1 5  161 352 
 OCA  SZ I        16 7 27.95        76.1 0.25                           161 352 
 YOP  SZ EP   2   16 7  4.16                             127    -0.3 4  177 154 
 YOP  SN ES   2   16 7 28.10                             127     0.3 4  177 154 
 YOP  SZ I        16 7 33.20        20.2 0.36                           177 154 
 NOR  SZ EP   2   16 7 10.41                             118    -0.2 4  238 235 
 NOR  SN ES   2   16 7 37.91                             118    -0.8 4  238 235 
 CHI  HZ EP   1   16 7 12.72                             117     0.4 6  250 196 
 CHI  HE ES   2   16 7 41.50                             117    -0.3 4  250 196 
 CHI  HZ I        16 7 48.69        16.2 0.39                           250 196 
 HEL  HZ EP   2   16 7 16.10                             114     0.9 4  275 256 
 HEL  HZ I        16 7 52.75        18.8 0.27                           275 256 
 GUY  SZ EP   2   16 7 18.39                             112    -0.1 4  304 235 
 GUY  SN ES   2   16 7 52.97                             112     0.2 4  304 235 
 GUY  SZ I        16 7 59.85        35.8 0.42                           304 235 
 RREF HZ EP   2   16 7 21.19                             111     0.2 3  324 230 
 RREF HE ES   2   16 7 57.31                             111     0.1 3  324 230 
 RREF HZ I        16 8  3.45        18.1 0.21                           324 230 
 DBB  SZ EP   1   16 7 22.02                             109    -0.4 5  343 274 
 SDV  BZ EP       16 7 24.05                             108    -0.3 6  358  50 
 SDV  BZ I        16 7 24.81         9.6 0.11                           358  50 
                                                                                
