 2015  731 1158 11.6 L   6.851 -73.095145.7  RSN 16 0.6 2.6LRSN                1
 GAP= 72        1.22       3.6     3.1  5.7 -0.2739E+01  0.2533E+01  0.1825E+01E
 Epicentro: LOS SANTOS - SANTANDER                                             3
 ACTION:UPD 15-09-08 21:51 OP:cam  STATUS:               ID:20150731115811 L   I
 OLDACT:REG 15-07-31 20:21 OP:stll STATUS:               ID:20150731114749     3
 2015-07-31-1147-49M.COL___349                                                 6
 STAT SP IPHASW D HRMM SECON CODA AMPLIT PERI AZIMU VELO AIN AR TRES W  DIS CAZ7
 BAR2 EZ IP     D 1158 31.77                             168    0.4410 30.2 199 
 BAR2 EZ ES       1158 46.83                             168    0.0810 30.2 199 
 BAR2 EZ I        1158 49.35        51.5 0.28            167           30.2 199 
 BRR  HZ IP     D 1158 33.62                             152    0.7810 73.9 293 
 BRR  HN ES       1158 49.69                             152    0.2410 73.9 293 
 BRR  HZ I        1158 53.23        32.6 0.22            145           73.9 293 
 RUS  HZ EP       1158 35.63                             142   -0.0510  106 179 
 RUS  HZ I        1158 36.55        23.7 0.42            143            106 179 
 RUS  HN ES       1158 54.26                             142   -0.2510  106 179 
 TAM  HZ EP       1158 39.87                             131    1.01 9  151 108 
 TAM  HZ I        1158 40.04        24.1 0.20            132            151 108 
 TAM  HN ES       1159  0.33                             131    0.16 9  151 108 
 CPBEREZ EP       1158 38.64                             131   -0.49 9  154 257 
 CPBEREN ES       1159  0.01                             131   -0.62 9  154 257 
 OCA  HZ EP       1158 39.42                             130    0.01 9  156 351 
 OCA  HN ES       1159  1.29                             130    0.15 9  156 351 
 OCA  HZ I        1159 10.23        52.9 0.22            126            156 351 
 ZAR  HZ EP       1158 44.14                             122   -0.19 8  207 290 
 ZAR  HE ES       1159  9.94                             122    0.05 8  207 290 
 ZAR  HZ I        1159 16.18        43.2 0.62            118            207 290 
 NOR  HZ EP       1158 47.83                             118   -0.29 8  243 234 
 NOR  HN ES       1159 15.99                             118   -0.65 8  243 234 
 NOR  HZ I        1159 22.78        25.3 0.26            115            243 234 
 HEL  HZ EP       1158 53.07                             114    0.55 7  279 255 
 HEL  HN ES       1159 24.45                             114   -0.03 7  279 255 
 HEL  HZ I        1159 30.46        18.8 0.34            111            279 255 
 SOCV BZ EP       1158 53.16                             113   -0.56 7  294  57 
 SOCV BN ES       1159 24.78                             113   -1.82 7  294  57 
 GUY2CHZ EP       1158 56.37                             112    0.33 7  309 235 
 GUY2CHN ES       1159 30.42                             112   -0.32 7  309 235 
 GUY2CHZ I        1159 38.59        30.3 0.74                           309 235 
 ELA  HZ EP       1159  0.51                             110    1.20 7  337 229 
 ELA  HE ES       1159 36.31                             110   -0.24 7  337 229 
 ELA  HZ I        1159 43.53        13.7 0.40            108            337 229 
 DBB  SZ EP       1158 59.38                             109   -0.25 7  345 273 
 DBB  SZ I        1159 38.15        40.4 0.46            107            345 273 
 TOL  SZ EP       1159  0.73                             109    0.01 6  351 225 
 TOL  SN ES       1159 39.05                             109   -0.02 6  351 225 
 TOL  SZ I        1159 48.87        14.3 0.68            107            351 225 
 ANIL HZ EP       1159  3.06                             108    0.79 6  365 225 
 ANIL HN ES       1159 41.17                             108   -0.66 6  365 225 
 ORTC HZ EP       1159  6.07                             106   -0.32 6  403 216 
 ORTC HN ES       1159 48.99                             106   -0.17 6  403 216 
 ORTC HZ I        1159 56.37        12.5 0.62            104            403 216 
                                                                                
