 2017 1031 1951  6.2 L   6.827 -73.130136.7  RSN  4 0.3 1.2LRSN                1
 GAP=142        0.76       4.5     4.5  6.4 -0.6464E+01  0.8587E+01 -0.2301E+01E
 Epicentro: LOS SANTOS - SANTANDER                                             3
 ACTION:UPD 17-11-07 19:40 OP:rebc STATUS:               ID:20171031195106 L   I
 OLDACT:REG 17-10-31 21:38 OP:mg   STATUS:               ID:20171031194739     3
 2017-10-31-1948-00M.COL___456                                                 6
 STAT SP IPHASW D HRMM SECON CODA AMPLIT PERI AZIMU VELO AIN AR TRES W  DIS CAZ7
 BAR2 EZ EP       1951 24.95                             168    0.1010 26.6 193 
 BAR2 EZ ES       1951 39.69                             168    0.3210 26.6 193 
 BAR2 EZ I        1951 41.26         7.1 0.42            169           26.6 193 
 PAM  EZ IP     C 1951 27.75                             150    0.4710 73.9  40 
 PAM  EN ES       1951 43.26                             150   -0.4410 73.9  40 
 PAM  EZ I        1951 45.34         3.4 0.40            153           73.9  40 
 RUS  HZ EP       1951 29.02                             141   -0.3110  103 177 
 RUS  HN ES       1951 47.31                             141   -0.0310  103 177 
 RUS  HZ I        1951 49.30         2.8 0.22            143            103 177 
 PTB  HZ EP       1951 32.65                             129   -0.05 9  150 258 
 PTB  HN ES       1951 53.25                             129   -0.09 9  150 258 
 PTB  HZ I        1951 56.99         1.5 0.46            131            150 258 
                                                                                
