 2015 1031 1953 33.2 L   6.816 -73.152148.0  RSN 19 0.4 2.9LRSN 3.3WRSN        1
 SPEC AVERAGE  MO 14.0 ST  1.2 OM  2.2 f0 2.14 R1.1999 AL 0.00 WI 40.0 MW  3.3 3
 SPEC SD       MO  0.2 ST  5.7 OM  0.3 f0 1.80 R0.5545 AL      WI      MW  0.2 3
 GAP=125        0.87       2.2     3.6  4.3 -0.1110E+01  0.4124E+01  0.8890E+00E
 Epicentro: LOS SANTOS - SANTANDER                                             3
 SPEC BAR2EH Z MO 13.7 ST  1.1 OM  1.8 f0 3.31 R0.5813 AL-0.00 WI 40.0 MW  3.1 3
 SPEC BAR2EH Z T1954 6 K 0.000 GD  150 VS 5.20 DE 3.50 Q0750.0 QA 1.50 VS 3.50 3
 SPEC PAM EH Z MO 14.2 ST0.178 OM  2.3 f0 1.19 R1.6168 AL-0.00 WI 40.0 MW  3.4 3
 SPEC PAM EH Z T195411 K 0.000 GD  166 VS 5.20 DE 3.50 Q0750.0 QA 1.50 VS 3.50 3
 SPEC RUS HH Z MO 14.0 ST0.267 OM  2.0 f0 1.67 R1.1521 AL-0.00 WI 40.0 MW  3.3 3
 SPEC RUS HH Z T195414 K 0.000 GD  179 VS 5.20 DE 3.50 Q0750.0 QA 1.50 VS 3.50 3
 SPEC OCA HH Z MO 14.1 ST  1.5 OM  2.1 f0 2.56 R0.7516 AL-0.00 WI 40.0 MW  3.4 3
 SPEC OCA HH Z T195421 K 0.000 GD  216 VS 5.20 DE 3.50 Q0750.0 QA 1.50 VS 3.50 3
 SPEC SPBCHH Z MO 13.8 ST  8.3 OM  1.7 f0 6.17 R0.3118 AL-0.00 WI 40.0 MW  3.1 3
 SPEC SPBCHH Z T195422 K 0.000 GD  220 VS 5.20 DE 3.50 Q0750.0 QA 1.50 VS 3.50 3
 SPEC CHI HH Z MO 14.2 ST0.120 OM  2.0 f0 1.09 R1.7651 AL-0.00 WI 40.0 MW  3.4 3
 SPEC CHI HH Z T195439 K 0.000 GD  290 VS 5.20 DE 3.50 Q0750.0 QA 1.50 VS 3.50 3
 SPEC HEL HH Z MO 13.9 ST0.097 OM  1.7 f0 1.25 R1.5392 AL-0.00 WI 40.0 MW  3.2 3
 SPEC HEL HH Z T195443 K 0.000 GD  309 VS 5.20 DE 3.50 Q0750.0 QA 1.50 VS 3.50 3
 SPECGUY2CHH Z MO 14.2 ST0.066 OM  2.0 f00.852 R2.2582 AL-0.00 WI 40.0 MW  3.4 3
 SPECGUY2CHH Z T195452 K 0.000 GD  336 VS 5.20 DE 3.50 Q0750.0 QA 1.50 Q1 0.00 3
 SPEC MON HH Z MO 13.8 ST0.152 OM  1.5 f0 1.58 R1.2177 AL-0.00 WI 40.0 MW  3.1 3
 SPEC MON HH Z T195456 K 0.000 GD  381 VS 5.20 DE 3.50 Q0750.0 QA 1.50 VS 3.50 3
 SPEC ANILHH Z MO 14.5 ST0.275 OM  2.2 f0 1.12 R1.7179 AL-0.00 WI 40.0 MW  3.6 3
 SPEC ANILHH Z T1955 2 K 0.000 GD  387 VS 5.20 DE 3.50 Q0750.0 QA 1.50 VS 3.50 3
 SPEC ORTCHH Z MO 14.0 ST0.197 OM  1.7 f0 1.43 R1.3455 AL-0.00 WI 40.0 MW  3.3 3
 SPEC ORTCHH Z T1955 9 K 0.000 GD  422 VS 5.20 DE 3.50 Q0750.0 QA 1.50 VS 3.50 3
 OLDACT:UP  15-11-01 00:10 OP:mh   STATUS:               ID:20151031194751d    3
 OLDACT:DUP 15-11-01 00:06 OP:mh   STATUS:               ID:20151031194751d    3
 OLDACT:REG 15-10-31 20:59 OP:mh   STATUS:               ID:20151031194750     3
 ACTION:UPD 15-12-22 20:44 OP:cam  STATUS:               ID:20151031195333 L   I
 OLDACT:UP  15-11-01 00:31 OP:mh   STATUS:               ID:20151031194751d    3
 OLDACT:UP  15-11-01 00:31 OP:mh   STATUS:               ID:20151031194751d    3
 2015-10-31-1947-50M.COL___316                                                 6
 STAT SP IPHASW D HRMM SECON CODA AMPLIT PERI AZIMU VELO AIN AR TRES W  DIS CAZ7
 BAR2 EZ IP     D 1953 53.26                             170    0.1610 25.0 188 
 BAR2 EZ ES       1954  8.30                             170   -0.3510 25.0 188 
 BAR2 EZ I        1954  8.79       138.1 0.24            167           25.0 188 
 BRR  HZ EP       1953 55.06                             153    0.5910 69.7 298 
 BRR  HN ES       1954 11.93                             153    0.8410 69.7 298 
 BRR  HZ I        1954 12.54        75.3 0.12            144           69.7 298 
 PAM  EZ EP       1953 56.08                             151    0.5110 76.5  41 
 PAM  EN ES       1954 12.84                             151   -0.2010 76.5  41 
 PAM  EZ I        1954 15.25       189.0 0.50            151           76.5  41 
 RUS  HZ EP   1   1953 57.28                             144    0.01 7  102 176 
 RUS  HN ES       1954 16.07                             144    0.0010  102 176 
 RUS  HZ I        1954 16.49        84.0 0.26            142            102 176 
 OCA  HZ EP       1954  1.24                             130   -0.24 9  158 353 
 OCA  HN ES       1954 23.03                             130   -0.53 9  158 353 
 OCA  HZ I        1954 26.18       112.0 0.46            125            158 353 
 SPBC HZ EP       1954  1.69                             129   -0.23 9  164 218 
 SPBC HN ES       1954 24.01                             129   -0.34 9  164 218 
 SPBC HZ I        1954 26.48       121.1 0.28            124            164 218 
 ZAR  HZ EP   1   1954  5.69                             123    0.07 6  203 292 
 ZAR  HN ES   1   1954 30.39                             123   -0.54 6  203 292 
 ZAR  HZ I        1954 37.18        45.8 0.56            117            203 292 
 NOR  HZ EP   1   1954  9.31                             119    0.24 6  235 234 
 NOR  HN ES   1   1954 36.95                             119   -0.13 6  235 234 
 NOR  HZ I        1954 42.52        49.5 0.16            114            235 234 
 SML  HZ EP   1   1954  9.57                             118   -0.14 6  242 335 
 SML  HN ES       1954 37.97                             118   -0.24 8  242 335 
 SML  HZ I        1954 41.37        93.1 0.28            113            242 335 
 CHI  HZ EP       1954 11.30                             117    0.15 8  250 195 
 CHI  HN ES       1954 40.57                             117   -0.22 8  250 195 
 CHI  HZ I        1954 44.09        41.9 0.52            114            250 195 
 ROSC BZ EP       1954 12.22                             117    0.69 8  254 211 
 ROSC BN ES   4   1954 43.07                             117    1.61 0  254 211 
 ROSC BZ I        1954 46.95        68.6 0.45            113            254 211 
 HEL  HZ EP   1   1954 13.11                             115   -0.35 6  272 255 
 HEL  HN ES       1954 44.76                             115   -0.13 8  272 255 
 HEL  HZ I        1954 51.05        32.0 0.28            110            272 255 
 URE  HZ EP   4   1954 13.67                             114   -0.52 0  282 292 
 URE  HN ES   4   1954 45.19                             114   -1.00 0  282 292 
 URE  HZ I        1954 56.06        35.5 0.16            109            282 292 
 GUY2CHZ EP   1   1954 17.20                             113    0.27 5  302 234 
 GUY2CHN ES   4   1954 54.44                             113    3.38 0  302 234 
 GUY2CHZ I        1954 59.04        29.5 0.28                           302 234 
 VIL  SZ EP   1   1954 16.84                             112   -0.03 5  305 191 
 VIL  SN ES   1   1954 50.00                             112   -0.95 5  305 191 
 DBB  SZ EP   1   1954 20.72                             110    0.09 5  339 274 
 DBB  SZ I        1954 58.85        79.5 0.32            106            339 274 
 MON  HZ EP   4   1954 20.17                             109   -1.89 0  352 308 
 MON  HN ES   4   1954 58.43                             109   -1.76 0  352 308 
 MON  HZ I        1955 12.67        11.0 0.48            105            352 308 
 ANIL HZ EP   4   1954 24.24                             109    1.10 0  358 224 
 ANIL HE ES   4   1955  4.22                             109    2.09 0  358 224 
 SDV  BZ EP   1   1954 22.60                             109   -0.63 5  360  50 
 SDV  BN ES   4   1954 59.82                             109   -2.45 0  360  50 
 SDV  BZ I        1955  3.58        12.9 0.38            106            360  50 
 ORTC HZ EP   1   1954 27.54                             107    0.26 4  396 216 
 ORTC HN ES   4   1955 11.03                             107    1.54 0  396 216 
 ORTC HZ I        1955 14.20        22.7 0.30            104            396 216 
                                                                                
