 2011 1031 1223  1.6 L   6.748 -73.126141.5  RSN  6 0.2 1.6LRSN                1
 GAP=141        0.36       5.2     5.9  5.0  0.2285E+02 -0.4704E+01  0.1282E+01E
 Epicentro: LOS SANTOS - SANTANDER                                             3
 ACTION:UPD 12-07-13 16:07 OP:ep   STATUS:               ID:20111031122301 L   I
 2011-10-31-1220-52S.COL___176                                                 6
 STAT SP IPHASW D HRMM SECON CODA AMPLIT PERI AZIMU VELO AIN AR TRES W  DIS CAZ7
 BAR2 SZ EP       1223 20.53                             172   -0.0410 18.3 200 
 BAR2 SZ I        1223 21.05         9.2 0.40                          18.3 200 
 BAR2 SZ ES   2   1223 35.04                             172   -0.37 5 18.3 200 
 BTL  SZ EP       1223 20.70                             170    0.0110 24.6 320 
 BRR  HZ EP       1223 22.50                             150   -0.0210 76.0 302 
 BRR  HZ I        1223 23.52        11.6 0.12                          76.0 302 
 BRR  HN ES   1   1223 39.11                             150    0.23 7 76.0 302 
 PAM  SZ EP   3   1223 23.43                             149   -0.08 2 80.6  36 
 RUS  HZ EP       1223 24.53                             145    0.0710 94.7 177 
 RUS  HE ES   3   1223 42.40                             145    0.08 2 94.7 177 
 RUS  HZ I        1223 44.68         3.0 0.38                          94.7 177 
 ZAR  HN ES   2   1223 59.30                             121   -0.31 4  208 293 
 ZAR  HZ I        1224  7.95         4.1 0.24                           208 293 
                                                                                
