 2017 1031 1748 28.3 L   6.870 -73.352118.7  RSN  5 0.3 1.0LRSN                1
 GAP=122        0.73       3.5     2.8  6.1  0.1278E+00  0.6783E+01 -0.3793E+01E
 Epicentro: SAN VICENTE DE CHUCURI - SANTANDER                                 3
 ACTION:UPD 17-11-07 19:40 OP:rebc STATUS:               ID:20171031174828 L   I
 OLDACT:DUP 17-11-01 00:49 OP:dhb  STATUS:               ID:20171031173245d    3
 OLDACT:UP  17-11-01 00:46 OP:dhb  STATUS:               ID:20171031173243     3
 OLDACT:UP  17-11-01 00:46 OP:dhb  STATUS:               ID:20171031173243     3
 OLDACT:REG 17-10-31 21:24 OP:mg   STATUS:               ID:20171031173243     3
 2017-10-31-1738-00M.COL___456                                                 6
 STAT SP IPHASW D HRMM SECON CODA AMPLIT PERI AZIMU VELO AIN AR TRES W  DIS CAZ7
 BAR2 EZ EP       1748 45.47                             162    0.3910 36.0 148 
 BAR2 EZ ES       1748 58.14                             162   -0.0210 36.0 148 
 PAM  EZ EP       1748 48.26                             141   -0.3010 88.9  54 
 PAM  EN ES       1749  4.30                             141   -0.0610 88.9  54 
 PAM  EZ I        1749  7.76         3.9 0.28            148           88.9  54 
 RUS  HZ EP       1748 50.54                             134    0.0610  112 165 
 RUS  HN ES       1749  7.94                             134    0.1610  112 165 
 RUS  HZ I        1749 11.77         1.0 0.32            140            112 165 
 PTB  HZ EP       1748 50.82                             129   -0.4110  127 253 
 PTB  HE ES       1749  8.76                             129   -0.3510  127 253 
 PTB  HZ I        1749 15.51         1.1 0.42            133            127 253 
 ZAR  HZ EP       1748 56.72                             119    0.19 9  180 293 
 ZAR  HN ES       1749 18.96                             119    0.41 9  180 293 
 ZAR  HZ I        1749 23.25         1.7 0.14            123            180 293 
                                                                                
