 2010  731 1950  5.4 L   7.064 -73.194137.6  RSN  4 0.2 1.5LRSN                1
 GAP=149        0.49       4.6     7.9  7.5 -0.1181E+02 -0.1832E+02  0.6985E+01E
 Epicentro: GIRON - SANTANDER                                                  3
 ACTION:UPD 10-12-01 15:21 OP:pat  STATUS:               ID:20100731195005 L   I
 2010-07-31-1948-29S.COL___123                                                 6
 STAT SP IPHASW D HRMM SECON CODA AMPLIT PERI AZIMU VELO AIN AR TRES W  DIS CAZ7
 BAR2 SZ EP   1   1950 25.07                             158     0.0 7   52 179 
 BAR2 SZ ES   2   1950 40.46                             158     0.1 5   52 179 
 BAR2 SZ I        1950 41.70        11.9 0.44                            52 179 
 BRR  HZ EP   1   1950 24.73                             156    -0.2 7   57 275 
 BRR  HZ I        1950 24.90         9.8 0.11                            57 275 
 BRR  HN ES   2   1950 40.38                             156     0.2 5   57 275 
 GRA  SZ EP   1   1950 28.18                             142     0.3 7  100  25 
 GRA  SZ ES   2   1950 45.08                             142    -0.4 5  100  25 
 GRA  SZ I        1950 46.10         5.6 0.33                           100  25 
 RUS  HZ EP   1   1950 30.77                             134     0.0 7  130 175 
 RUS  HZ I        1950 31.64         2.1 0.32                           130 175 
                                                                                
