 2010  531 1514 44.8 L   6.751 -72.881137.0  RSN  6 0.3 2.0LRSN                1
 GAP=225        0.60       6.9    11.7  4.9 -0.7064E+02  0.1188E+02 -0.3678E+01E
 Epicentro: SAN ANDRES - SANTANDER                                             3
 ACTION:UP  10-08-24 10:07 OP:vdl  STATUS:               ID:20100531151444 L   I
 2010-05-31-1512-41S.COL___109                                                 6
 STAT SP IPHASW D HRMM SECON CODA AMPLIT PERI AZIMU VELO SNR AR TRES W  DIS CAZ7
 BAR2 SZ EP       1515  3.73                             163     0.010   38 242 
 BAR2 SZ ES       1515 18.58                             163     0.110   38 242 
 GIR2 SZ EP       1515  3.82                             158    -0.210   50 316 
 GUE  SZ EP       1515  9.16                             136     0.310  119 358 
 GUE  SZ ES   1   1515 27.50                             136    -0.2 7  119 358 
 GRA  SZ EP   1   1515  9.49                             135     0.3 7  126   4 
 RREF BZ EP       1515 32.27                             108    -0.5 7  341 233 
 RREF BN ES       1516 10.58                             108     0.3 7  341 233 
 RREF BZ I        1516 13.36         3.9 0.69                           341 233 
 TOL  SZ EP   1   1515 34.73                             107     0.0 5  361 229 
                                                                                
