 2013  131 1405 30.1 L   6.809 -73.306122.5  RSN  4 0.2 1.8LRSN                1
 GAP=204        0.55       5.9     7.2  4.8  0.3648E+02  0.8259E+01  0.5431E+01E
 Epicentro: ZAPATOCA - SANTANDER                                               3
 ACTION:UPD 13-02-15 09:18 OP:ep   STATUS:               ID:20130131140530 L   I
 2013-01-31-1358-50M.COL___201                                                 6
 STAT SP IPHASW D HRMM SECON CODA AMPLIT PERI AZIMU VELO AIN AR TRES W  DIS CAZ7
 BAR2 SZ IP       14 5 47.23                             167    0.1510 27.6 150 
 BAR2 SZ ES       14 6  0.47                             167    0.1710 27.6 150 
 BAR2 SZ I        14 6  0.98        27.6 0.19            166           27.6 150 
 BRR  HZ EP       14 5 47.67                             154   -0.2210 55.6 306 
 BRR  HN ES       14 6  1.61                             154   -0.1310 55.6 306 
 BRR  HZ I        14 6  2.17        17.0 0.16            152           55.6 306 
 RUS  HZ EP       14 5 52.17                             137    0.1910  104 166 
 RUS  HN ES       14 6  8.78                             137   -0.2410  104 166 
 ZAR  HZ EP   2   14 5 58.97                             119   -0.40 4  187 294 
 ZAR  HN ES   1   14 6 22.52                             119    0.34 7  187 294 
 ZAR  HZ I        14 6 24.76         5.6 0.24            118            187 294 
                                                                                
