 2016 1031 1333 11.1 L   6.804 -73.172150.9  RSN 10 0.5 2.3LRSN                1
 GAP=133        1.13       4.8     5.3  6.8 -0.5494E+01  0.6458E+01  0.1083E+02E
 Epicentro: LOS SANTOS - SANTANDER                                             3
 ACTION:UPD 16-11-09 19:24 OP:rebc STATUS:               ID:20161031133311 L   I
 OLDACT:REG 16-10-31 20:51 OP:cog  STATUS:               ID:20161031132743     3
 2016-10-31-1328-00M.COL___325                                                 6
 STAT SP IPHASW D HRMM SECON CODA AMPLIT PERI AZIMU VELO AIN AR TRES W  DIS CAZ7
 BAR2 EZ EP       1333 31.46                             171    0.1010 23.5 183 
 BAR2 EZ ES       1333 46.76                             171   -0.3910 23.5 183 
 BAR2 EZ I        1333 47.72        52.0 0.22            171           23.5 183 
 BRR  HZ EP       1333 33.23                             154    0.5610 68.5 299 
 BRR  HN ES       1333 49.96                             154    0.4810 68.5 299 
 BRR  HZ I        1333 55.29        34.8 0.18            152           68.5 299 
 PAM  EZ EP       1333 34.22                             151    0.2610 78.9  41 
 PAM  EN ES       1333 51.29                             151   -0.4910 78.9  41 
 PAM  EZ I        1333 53.66        27.7 0.42            154           78.9  41 
 RUS  HZ EP       1333 35.43                             145    0.0110  101 174 
 RUS  HN ES       1333 54.34                             145   -0.0410  101 174 
 RUS  HZ I        1333 55.24        27.4 0.28            147            101 174 
 PTB  HZ EP       1333 38.00                             134   -0.26 9  145 258 
 PTB  HN ES       1333 59.06                             134   -0.37 9  145 258 
 PTB  HZ I        1334  0.41        17.9 0.17            133            145 258 
 NOR  HZ EP       1333 46.64                             120   -0.28 8  233 234 
 NOR  HN ES       1334 14.97                             120    0.11 8  233 234 
 CHI  HZ EP       1333 49.63                             118    0.56 8  248 194 
 CHI  HN ES       1334 19.51                             118    0.84 8  248 194 
 CHI  HZ I        1334 22.26        11.1 0.36            119            248 194 
 HEL  HZ EP   3   1333 52.19                             116    0.89 2  269 256 
 HEL  HN ES   3   1334 23.25                             116    0.61 2  269 256 
 HEL  HZ I        1334 31.62        11.1 0.28            116            269 256 
 GUY2CHZ EP   4   1333 56.52                             113    1.79 0  299 234 
 GUY2CHN ES   4   1334 34.52                             113    5.77 0  299 234 
 GUY2CHZ I        1334 37.78         9.4 0.24                           299 234 
 PRA  HZ EP       1334  2.91                             107   -1.79 6  391 209 
 PRA  HE ES       1334 46.06                             107   -0.43 6  391 209 
                                                                                
