 2013  831 1427 54.9 L   6.813 -73.181136.6  RSN  4 0.3 1.7LRSN                1
 GAP=198        0.62       3.5     4.5  6.2  0.2758E+01  0.5719E+01 -0.1134E+02E
 Epicentro: LOS SANTOS - SANTANDER                                             3
 ACTION:UPD 14-01-14 09:08 OP:ep   STATUS:               ID:20130831142754 L   I
 OLDACT:REG 13-08-31 15:37 OP:nd   STATUS:               ID:20130831141959     3
 2013-08-31-1419-59M.COL___269                                                 6
 STAT SP IPHASW D HRMM SECON CODA AMPLIT PERI AZIMU VELO AIN AR TRES W  DIS CAZ7
 BAR2 SZ EP       1428 13.45                             169   -0.0210 24.4 180 
 BAR2 SZ ES       1428 28.20                             169    0.2610 24.4 180 
 BAR2 SZ I        1428 29.82        11.7 0.12            172           24.4 180 
 RUS  HZ EP   2   1428 17.43                             141   -0.48 5  102 174 
 RUS  HN ES       1428 35.64                             141   -0.2110  102 174 
 RUS  HZ I        1428 38.25         4.5 0.32            145            102 174 
 PTB  HZ EP       1428 21.13                             131    0.31 9  144 258 
 PTB  HN ES       1428 40.89                             131   -0.14 9  144 258 
 PTB  HZ I        1428 43.63         7.1 0.10            133            144 258 
 SML  HZ EP       1428 30.97                             116    0.24 8  241 336 
 SML  HN ES       1428 58.32                             116   -0.34 8  241 336 
 SML  HZ I        1429  3.91         9.0 0.10            117            241 336 
                                                                                
