 2012  131 1605  5.7 L   6.732 -73.128144.9  RSN  7 0.3 1.7LRSN                1
 GAP=142        0.66       4.3     3.9  6.1  0.1145E+01  0.3946E+01 -0.1033E+01E
 Epicentro: JORDAN - SANTANDER                                                 3
 ACTION:UP  12-02-03 08:22 OP:REBC STATUS:               ID:20120131160505 L   I
 2012-01-31-1600-00M.COL___188                                                 6
 STAT SP IPHASW D HRMM SECON CODA AMPLIT PERI AZIMU VELO SNR AR TRES W  DIS CAZ7
 BAR2 SZ EP       16 5 25.13                             173     0.110   17 201 
 BAR2 SZ I        16 5 25.61        10.2 0.51                            17 201 
 BAR2 SZ ES   1   16 5 40.03                             173    -0.2 7   17 201 
 GIR2 SZ EP   1   16 5 25.52                             164     0.1 7   39 349 
 BRR  HZ EP       16 5 27.29                             150     0.310   77 303 
 BRR  HZ I        16 5 27.65        17.2 0.17                            77 303 
 BRR  HN ES   1   16 5 44.16                             150     0.5 7   77 303 
 PAM  SZ EP   1   16 5 27.81                             149    -0.3 7   82  35 
 PAM  SN ES   1   16 5 45.37                             149    -0.2 7   82  35 
 RUS  HZ EP   1   16 5 29.22                             146     0.4 7   93 177 
 RUS  HN ES   1   16 5 46.65                             146    -0.2 7   93 177 
 RUS  HZ I        16 5 48.93         4.1 0.32                            93 177 
 PTB  HZ EP   1   16 5 32.13                             132    -0.5 7  148 262 
 PTB  HE ES   1   16 5 53.54                             132    -0.1 7  148 262 
 ZAR  HN ES   1   16 6  3.96                             121    -0.2 6  209 294 
                                                                                
