 2011  831 1154 18.1 L   6.857 -72.975141.5  RSN  4 0.2 1.7LRSN                1
 GAP=231        0.48       5.0     9.5  5.4  0.2906E+02 -0.1579E+02 -0.3432E+01E
 Epicentro: CEPITA - SANTANDER                                                 3
 ACTION:UPD 12-07-13 15:54 OP:ep   STATUS:               ID:20110831115418 L   I
 2011-08-31-1152-26S.COL___165                                                 6
 STAT SP IPHASW D HRMM SECON CODA AMPLIT PERI AZIMU VELO AIN AR TRES W  DIS CAZ7
 GIR2 SZ EP   1   1154 37.71                             166    0.37 7 34.4 316 
 GIR2 SZ ES   1   1154 52.21                             166   -0.15 7 34.4 316 
 BAR2 SZ EP   1   1154 37.53                             165   -0.04 7 37.2 218 
 BAR2 SZ ES   1   1154 52.68                             165   -0.09 7 37.2 218 
 BAR2 SZ I        1154 54.16        13.1 0.38                          37.2 218 
 BRR  HZ EP   1   1154 39.32                             147   -0.38 7 86.0 289 
 BRR  HN ES   1   1154 56.77                             147    0.22 7 86.0 289 
 BRR  HZ I        1154 58.60        12.6 0.39                          86.0 289 
 RUS  HZ EP   1   1154 41.95                             141    0.03 7  107 186 
 RUS  HE ES   1   1155  0.56                             141    0.04 7  107 186 
 RUS  HZ I        1155  1.28         5.3 0.28                           107 186 
                                                                                
