 2013  731 1110 47.4 L   6.828 -73.159141.7  RSN 17 0.5 2.6LRSN                1
 GAP= 69        1.13       3.1     3.5  5.5 -0.9796E+00  0.6316E+01 -0.4903E+00E
 Epicentro: LOS SANTOS - SANTANDER                                             3
 ACTION:UPD 13-08-12 10:41 OP:ep   STATUS:               ID:20130731111047 L   I
 OLDACT:UP  13-07-31 16:05 OP:cam  STATUS:               ID:20130731110959     3
 OLDACT:UP  13-07-31 16:05 OP:cam  STATUS:               ID:20130731110959     3
 OLDACT:REG 13-07-31 14:50 OP:cam  STATUS:               ID:20130731110959     3
 2013-07-31-1109-59M.COL___265                                                 6
 STAT SP IPHASW D HRMM SECON CODA AMPLIT PERI AZIMU VELO AIN AR TRES W  DIS CAZ7
 BAR2 SZ EP     D 1111  6.68                             169    0.0410 26.2 186 
 BAR2 SZ ES       1111 21.36                             169   -0.2610 26.2 186 
 BAR2 SZ I        1111 22.81       129.2 0.18            168           26.2 186 
 GIR2 SZ EP       1111  6.77                             168    0.2310 28.0 352 
 GIR2 SZ ES       1111 21.77                             168    0.3310 28.0 352 
 GIR2 SZ I        1111 22.32        63.6 0.18            162           28.0 352 
 BRR  HZ EP       1111  8.56                             153    0.5710 68.5 297 
 BRR  HZ I        1111 25.75        59.8 0.12            144           68.5 297 
 PAM  SZ EP       1111  9.52                             151    0.3810 76.0  42 
 PAM  SZ I        1111  9.88       150.9 0.24            148           76.0  42 
 PAM  SN ES       1111 26.37                             151    0.3110 76.0  42 
 RUS  HZ EP       1111 10.66                             142   -0.3710  104 175 
 RUS  HN ES       1111 29.13                             142   -0.3010  104 175 
 RUS  HZ I        1111 30.07        23.5 0.18            140            104 175 
 PTB  HZ EP       1111 13.29                             131   -0.72 9  147 258 
 PTB  HN ES       1111 34.29                             131   -0.43 9  147 258 
 PTB  HZ I        1111 36.54        56.5 0.18            124            147 258 
 TAM  HZ EP     D 1111 15.06                             129    0.05 9  157 106 
 TAM  HZ I        1111 35.50        26.0 0.46            128            157 106 
 TAM  HE ES       1111 36.08                             129   -0.43 9  157 106 
 OCA  HZ EP       1111 15.04                             129   -0.09 9  157 354 
 OCA  HN ES       1111 36.80                             129    0.08 9  157 354 
 OCA  HZ I        1111 40.24        34.9 0.54            123            157 354 
 SPBC HZ EP       1111 15.64                             128   -0.14 9  165 218 
 SPBC HE ES   1   1111 38.18                             128    0.30 7  165 218 
 SPBC HZ I        1111 46.22        39.6 0.20            123            165 218 
 ZAR  HZ EP   4   1111 20.64                             122    1.28 0  202 291 
 ZAR  HE ES   4   1111 45.94                             122    1.68 0  202 291 
 ZAR  HZ I        1111 51.41        44.8 0.36            116            202 291 
 NOR  HZ EP       1111 23.14                             117    0.13 8  235 234 
 NOR  HN ES   1   1111 50.87                             117    0.12 6  235 234 
 NOR  HZ I        1111 56.06        25.7 0.18            113            235 234 
 SML  HZ EP       1111 23.02                             117   -0.45 8  240 335 
 SML  HN ES       1111 51.22                             117   -0.34 8  240 335 
 SML  HZ I        1112  0.20        48.8 0.10            112            240 335 
 HEL  HZ EP       1111 29.24                             114    1.86 8  271 255 
 HEL  HN ES   1   1111 58.79                             114    0.26 6  271 255 
 HEL  HZ I        1112  5.55        20.1 0.28            109            271 255 
 URE  HN ES   1   1111 59.11                             113   -0.58 6  281 291 
 GUY2CHZ EP   4   1111 32.63                             111    1.69 0  302 234 
 GUY2CHN ES   4   1112  8.92                             111    4.06 0  302 234 
 GUY2CHZ I        1112 11.90        21.5 0.24                           302 234 
 PRA  HZ EP   1   1111 40.76                             106   -0.30 4  394 209 
 PRA  HN ES   1   1112 23.56                             106    0.68 4  394 209 
 PRA  HZ I        1112 31.23        13.8 0.44            102            394 209 
 SJC  HZ EP       1111 41.58                             105   -0.89 6  406 327 
 SJC  HZ I        1112 26.72        10.7 0.48            101            406 327 
                                                                                
