 2016 1231 1633 42.5 L   6.732 -73.191149.7  RSN  6 0.4 1.6LRSN                1
 GAP=227        1.08       6.2     6.1  7.3  0.1420E+02  0.1515E+02  0.5526E+01E
 Epicentro: VILLANUEVA - SANTANDER                                             3
 ACTION:UPD 17-01-11 20:21 OP:rebc STATUS:               ID:20161231163342 L   I
 OLDACT:REG 16-12-31 20:32 OP:lv   STATUS:               ID:20161231162745     3
 2016-12-31-1628-00M.COL___369                                                 6
 STAT SP IPHASW D HRMM SECON CODA AMPLIT PERI AZIMU VELO AIN AR TRES W  DIS CAZ7
 BAR2 EZ EP       1634  2.28                             174   -0.2110 15.5 177 
 BAR2 EZ ES       1634 17.31                             174   -0.7510 15.5 177 
 BAR2 EZ I        1634 18.93         9.6 0.24            174           15.5 177 
 BRR  HZ EP       1634  4.21                             153    0.1310 71.0 306 
 BRR  HE ES       1634 21.67                             153    0.7810 71.0 306 
 RUS  HZ EP       1634  6.18                             147    0.0110 93.6 173 
 RUS  HN ES       1634 25.12                             147    0.5010 93.6 173 
 RUS  HZ I        1634 26.71         2.6 0.20            148           93.6 173 
 PTB  HZ EP       1634  9.15                             134   -0.11 9  142 261 
 PTB  HN ES       1634 29.57                             134   -0.54 9  142 261 
 PTB  HZ I        1634 31.48         5.6 0.20            134            142 261 
 ZAR  HZ EP       1634 15.25                             123    0.19 9  202 295 
 ZAR  HN ES       1634 40.28                             123   -0.16 9  202 295 
 ZAR  HZ I        1634 46.79         5.3 0.25            124            202 295 
 GUY2CHZ EP       1634 25.11                             114   -0.26 7  293 235 
 GUY2CHE ES       1634 59.21                             114    0.42 7  293 235 
 GUY2CHZ I        1635  8.98         2.9 0.47                           293 235 
                                                                                
