 2015  331 1639 13.9 L   6.802 -73.144145.9  RSN  9 0.5 1.8LRSN                1
 GAP=137        1.21       4.5     5.0  7.6 -0.2420E+01  0.1473E+02  0.7626E+00E
 Epicentro: LOS SANTOS - SANTANDER                                             3
 ACTION:UPD 15-04-30 16:31 OP:nd   STATUS:               ID:20150331163913 L   I
 OLDACT:REG 15-03-31 22:19 OP:fm   STATUS:               ID:20150331163747     3
 2015-03-31-1637-47M.COL___274                                                 6
 STAT SP IPHASW D HRMM SECON CODA AMPLIT PERI AZIMU VELO AIN AR TRES W  DIS CAZ7
 BAR2 EZ EP       1639 33.81                             170    0.2610 23.6 190 
 BAR2 EZ ES       1639 48.95                             170    0.0710 23.6 190 
 BAR2 EZ I        1639 50.66         8.2 0.28            171           23.6 190 
 BRR  HZ EP       1639 35.78                             153    0.7110 71.3 298 
 BRR  HN ES       1639 51.62                             153    0.0410 71.3 298 
 BRR  HZ I        1639 58.12        14.1 0.28            150           71.3 298 
 PAM  SZ EP       1639 36.54                             151    0.4310 77.1  40 
 PAM  SN ES       1639 53.18                             151   -0.2610 77.1  40 
 PAM  SZ I        1639 56.00         9.5 0.52            154           77.1  40 
 RUS  HZ EP   1   1639 36.79                             144   -0.89 7  101 176 
 RUS  HN ES       1639 56.38                             144    0.1510  101 176 
 RUS  HZ I        1639 59.33         5.4 0.40            149            101 176 
 PTB  HZ EP       1639 40.75                             132   -0.15 9  148 259 
 PTB  HE ES       1640  0.96                             132   -1.00 9  148 259 
 PTB  HZ I        1640  7.82         9.4 0.34            133            148 259 
 ZAR  HZ EP   1   1639 45.86                             122   -0.50 6  204 292 
 ZAR  HN ES       1640 12.37                             122    0.68 9  204 292 
 ZAR  HZ I        1640 18.33         9.3 0.52            124            204 292 
 NOR  HZ EP       1639 48.94                             118   -0.73 8  235 234 
 NOR  HE ES       1640 18.04                             118    0.47 8  235 234 
 NOR  HZ I        1640 21.53         4.4 0.18            121            235 234 
 SML  HE ES       1640 18.60                             117   -0.48 8  244 335 
 SML  HZ I        1640 26.87        15.0 0.10            119            244 335 
 GUY2CHZ EP   1   1639 57.93                             112    0.38 5  301 235 
 GUY2CHE ES       1640 31.96                             112    0.36 7  301 235 
 GUY2CHZ I        1640 41.02         3.6 0.64                           301 235 
                                                                                
