 2017 1231 1435 51.1 L   6.795 -73.177144.8  RSN 10 0.5 1.8LRSN                1
 GAP=109        0.93       3.2     3.7  6.4 -0.6271E+00  0.5645E+01  0.1615E+01E
 Epicentro: LOS SANTOS - SANTANDER                                             3
 ACTION:UPD 18-01-04 13:26 OP:rebc STATUS:               ID:20171231143551 L   I
 OLDACT:UP  17-12-31 23:12 OP:mg   STATUS:               ID:20171231142546     3
 OLDACT:REG 17-12-31 20:41 OP:mg   STATUS:               ID:20171231142546     3
 2017-12-31-1428-00M.COL___462                                                 6
 STAT SP IPHASW D HRMM SECON CODA AMPLIT PERI AZIMU VELO AIN AR TRES W  DIS CAZ7
 BAR2 EZ EP       1436 10.39                             171   -0.1810 22.4 181 
 BAR2 EZ ES   2   1436 26.13                             171    0.36 5 22.4 181 
 BAR2 EZ I        1436 28.30        17.9 0.30            169           22.4 181 
 PAM  EZ EP       1436 13.47                             150    0.1210 80.1  41 
 PAM  EN ES       1436 30.63                             150   -0.0910 80.1  41 
 PAM  EZ I        1436 33.59         8.5 0.26            156           80.1  41 
 PTB  HZ EP       1436 17.15                             132   -0.49 9  144 259 
 PTB  HN ES       1436 37.90                             132   -0.46 9  144 259 
 PTB  HZ I        1436 43.34         4.3 0.22            134            144 259 
 SPBC HZ EP   2   1436 19.30                             129    0.05 5  161 218 
 SPBC HN ES   2   1436 41.86                             129    0.63 5  161 218 
 SPBC HZ I        1436 47.89        11.9 0.06            131            161 218 
 YPLC HZ EP       1436 20.93                             126    0.01 9  178 150 
 YPLC HN ES   1   1436 44.09                             126   -0.10 7  178 150 
 YPLC HZ I        1436 45.90        10.2 0.28            131            178 150 
 ZAR  HZ EP       1436 23.15                             123    0.01 9  201 293 
 ZAR  HN ES       1436 48.92                             123    0.76 9  201 293 
 ZAR  HZ I        1436 55.65         4.8 0.26            125            201 293 
 DRL03HZ EP       1436 32.44                             113   -0.21 7  289 354 
 DRL03HN ES       1437  5.49                             113    0.41 7  289 354 
 GUY2CHZ EP       1436 34.64                             112    0.36 7  298 234 
 GUY2CHN ES   2   1437  6.18                             112   -1.80 4  298 234 
 GUY2CHZ I        1437 17.38         3.0 0.31                           298 234 
 PRA  HZ EP       1436 44.90                             106    0.59 6  390 209 
 PRA  HN ES       1437 26.55                             106    0.73 6  390 209 
 PRA  HZ I        1437 30.79         3.3 0.32            109            390 209 
 SJC  HZ EP       1436 45.49                             106   -0.95 6  408 327 
 SJC  HE ES   4   1437 26.19                             106   -3.43 0  408 327 
 SJC  HZ I        1437 31.34         0.5 0.21            108            408 327 
                                                                                
