 2012 1231 1733 16.5 L   6.712 -73.185145.5  RSN  4 0.2 1.8LRSN                1
 GAP=226        0.61       4.8     4.5  4.9  0.1061E+02  0.2749E+01  0.9153E+00E
 Epicentro: VILLANUEVA - SANTANDER                                             3
 ACTION:UPD 13-01-04 14:31 OP:ep   STATUS:               ID:20121231173316 L   I
 2012-12-31-1730-00M.COL___239                                                 6
 STAT SP IPHASW D HRMM SECON CODA AMPLIT PERI AZIMU VELO AIN AR TRES W  DIS CAZ7
 BAR2 SZ EP       1733 35.81                             175   -0.0910 13.2 179 
 BAR2 SZ I        1733 36.12        18.2 0.30                          13.2 179 
 BAR2 SZ ES       1733 50.73                             175   -0.3310 13.2 179 
 BRR  HZ EP       1733 37.62                             152   -0.0610 72.8 307 
 BRR  HN ES       1733 54.56                             152    0.3410 72.8 307 
 BRR  HN I        1733 55.64        16.1 0.16                          72.8 307 
 RUS  HZ EP       1733 39.83                             146    0.2910 91.3 173 
 RUS  HN ES       1733 57.62                             146    0.0810 91.3 173 
 RUS  HN I        1734  0.04         6.0 0.34                          91.3 173 
 PTB  HZ EP       1733 42.66                             133   -0.22 9  142 262 
 PTB  HN ES       1734  3.46                             133   -0.03 9  142 262 
 PTB  HN I        1734  8.88        11.9 0.36                           142 262 
                                                                                
