 2011 1031 1335 15.8 L   6.826 -73.238144.0  RSN  4 0.3 1.4LRSN                1
 GAP=130        0.62       5.2     8.9  8.7  0.1465E+02 -0.2354E+02 -0.1484E+02E
 Epicentro: ZAPATOCA - SANTANDER                                               3
 ACTION:UPD 12-07-13 16:07 OP:ep   STATUS:               ID:20111031133515 L   I
 2011-10-31-1331-44S.COL___176                                                 6
 STAT SP IPHASW D HRMM SECON CODA AMPLIT PERI AZIMU VELO AIN AR TRES W  DIS CAZ7
 BAR2 SZ ES   2   1335 50.05                             169   -0.43 5 26.5 167 
 BAR2 SZ I        1335 51.75         6.7 0.20                          26.5 167 
 BRR  HZ EP       1335 35.90                             156   -0.3010 60.9 301 
 BRR  HE ES   2   1335 52.82                             156    0.70 5 60.9 301 
 PAM  SZ EP       1335 38.26                             149    0.1410 82.3  46 
 RUS  HZ EP       1335 39.75                             142    0.0910  105 171 
 RUS  HE ES   1   1335 58.29                             142    0.01 7  105 171 
 RUS  HZ I        1335 59.59         4.3 0.44                           105 171 
                                                                                
