 2011 1031 1205  1.6 L   6.764 -73.180148.5  RSN  6 0.4 1.7LRSN                1
 GAP=134        0.78       8.6     8.1  9.8  0.2849E+02 -0.3056E+02 -0.5313E+02E
 Epicentro: VILLANUEVA - SANTANDER                                             3
 ACTION:UPD 12-07-13 16:07 OP:ep   STATUS:               ID:20111031120501 L   I
 2011-10-31-1203-03S.COL___176                                                 6
 STAT SP IPHASW D HRMM SECON CODA AMPLIT PERI AZIMU VELO AIN AR TRES W  DIS CAZ7
 BAR2 SZ EP       12 5 21.54                             172    0.1110 19.0 181 
 BAR2 SZ ES   1   12 5 36.21                             172   -0.72 7 19.0 181 
 BAR2 SZ I        12 5 37.87         9.7 0.16                          19.0 181 
 BRR  HZ EP       12 5 23.28                             153    0.3510 70.0 303 
 BRR  HN ES   1   12 5 40.10                             153    0.50 7 70.0 303 
 BRR  HZ I        12 5 44.45        13.3 0.26                          70.0 303 
 PAM  SZ EP       12 5 24.44                             149    0.0510 82.9  40 
 RUS  HN ES   2   12 5 43.62                             145   -0.23 5 96.9 174 
 RUS  HZ I        12 5 45.03         3.5 0.22                          96.9 174 
 OCA  SZ EP       12 5 30.20                             129   -0.21 9  164 355 
 OCA  SZ I        12 5 56.34         7.3 0.50                           164 355 
 ZAR  HZ EP   3   12 5 33.37                             123   -0.61 2  202 294 
 ZAR  HE ES   2   12 5 58.59                             123   -0.68 4  202 294 
 ZAR  HZ I        12 6  5.96         5.6 0.20                           202 294 
                                                                                
