 2014  731 1744 28.1 L   6.865 -73.208142.1  RSN  4 0.4 1.4LRSN                1
 GAP=126        1.03       4.5     5.7 11.4 -0.2323E+01  0.2307E+02 -0.6262E+01E
 Epicentro: ZAPATOCA - SANTANDER                                               3
 ACTION:UPD 15-03-16 20:48 OP:nd   STATUS:               ID:20140731174428 L   I
 OLDACT:DUP 14-08-01 00:01 OP:carl STATUS:               ID:20140731173816d    3
 2014-07-31-1738-15M.COL___260                                                 6
 STAT SP IPHASW D HRMM SECON CODA AMPLIT PERI AZIMU VELO AIN AR TRES W  DIS CAZ7
 PAM  SZ EP       1744 50.05                             150    0.1510 76.9  47 
 PAM  SN ES       1745  7.24                             150    0.3310 76.9  47 
 PAM  SZ I        1745  8.96         6.1 0.40            157           76.9  47 
 RUS  HZ EP       1744 52.22                             141    0.1310  108 173 
 RUS  HN ES       1745 10.14                             141   -0.6510  108 173 
 RUS  HZ I        1745 12.43         2.5 0.38            145            108 173 
 PTB  HZ EP       1744 54.49                             132    0.18 9  143 255 
 PTB  HN ES       1745 15.14                             132    0.39 9  143 255 
 PTB  HZ I        1745 21.93         3.5 0.16            134            143 255 
 SML  HN ES       1745 30.41                             118   -0.72 8  234 336 
                                                                                
