 2017  331 1131 27.8 L   6.764 -73.150143.3  RSN  6 0.4 1.6LRSN                1
 GAP=138        0.96       4.7     4.9  7.8 -0.6475E+01  0.1051E+01  0.5463E+01E
 Epicentro: LOS SANTOS - SANTANDER                                             3
 ACTION:UPD 17-05-25 18:47 OP:jn   STATUS:               ID:20170331113127 L   I
 OLDACT:DUP 17-03-31 22:08 OP:dnl  STATUS:               ID:20170331112744d    3
 OLDACT:REG 17-03-31 21:10 OP:dnl  STATUS:               ID:20170331112743     3
 2017-03-31-1128-00M.COL___344                                                 6
 STAT SP IPHASW D HRMM SECON CODA AMPLIT PERI AZIMU VELO AIN AR TRES W  DIS CAZ7
 BAR2 EZ EP   2   1131 46.85                             172   -0.18 5 19.3 191 
 BAR2 EZ ES       1132  2.25                             172    0.1910 19.3 191 
 BAR2 EZ I        1132  3.58         9.7 0.24            174           19.3 191 
 BRR  HZ EP   2   1131 48.97                             151    0.22 5 72.7 301 
 BRR  HE ES       1132  5.78                             151    0.6710 72.7 301 
 BRR  HZ I        1132  6.35         8.7 0.50            148           72.7 301 
 PAM  EZ EP       1131 50.05                             149    0.1110 80.8  38 
 PAM  EZ I        1131 58.73         5.2 0.16            144           80.8  38 
 PAM  EN ES       1132  6.60                             149   -0.6310 80.8  38 
 RUS  HZ EP       1131 51.38                             144    0.3810 96.6 176 
 RUS  HE ES       1132  9.01                             144   -0.1110 96.6 176 
 RUS  HZ I        1132 11.17         3.7 0.26            143           96.6 176 
 PTB  HZ EP   2   1131 53.50                             132   -0.93 5  147 260 
 PTB  HE ES       1132 14.79                             132   -0.43 9  147 260 
 PTB  HZ I        1132 19.45         4.3 0.44            129            147 260 
 SPBC HZ EP   2   1131 56.28                             129    0.52 5  160 220 
 SPBC HE ES       1132 17.39                             129   -0.20 9  160 220 
 SPBC HZ I        1132 18.01         7.0 0.16            127            160 220 
                                                                                
