 2012  731 1916 27.7 L   6.764 -73.153144.0  RSN  5 0.4 1.7LRSN                1
 GAP=137        1.06       8.6     8.0 13.0 -0.2820E+01 -0.3858E+01  0.2624E+02E
 Epicentro: LOS SANTOS - SANTANDER                                             3
 ACTION:UPD 12-08-14 11:46 OP:ep   STATUS:               ID:20120731191627 L   I
 2012-07-31-1910-00M.COL___212                                                 6
 STAT SP IPHASW D HRMM SECON CODA AMPLIT PERI AZIMU VELO AIN AR TRES W  DIS CAZ7
 BAR2 SZ EP       1916 47.16                             172     0.110   19 190 
 BAR2 SZ I        1917  4.28         7.5 0.22            171             19 190 
 BRR  HZ EP       1916 48.85                             152     0.110   73 302 
 BRR  HN ES   1   1917  5.75                             152     0.6 7   73 302 
 BRR  HZ I        1917  9.63        18.7 0.12            154             73 302 
 PAM  SZ EP       1916 50.01                             150     0.110   81  38 
 PAM  SN ES   2   1917  6.08                             150    -1.2 5   81  38 
 PAM  SZ I        1917  8.86         7.3 0.50            151             81  38 
 RUS  HZ EP       1916 51.03                             145     0.110   97 175 
 RUS  HN ES   2   1917  9.29                             145     0.2 5   97 175 
 RUS  HZ I        1917 11.23         6.2 0.28            144             97 175 
 PTB  HZ EP       1916 53.86                             132    -0.5 9  146 260 
 PTB  HN ES   2   1917 14.71                             132    -0.5 5  146 260 
 PTB  HZ I        1917 17.61         5.8 0.10            134            146 260 
