 2016  131 1539 10.9 L   6.791 -73.146162.5  RSN  5 0.2 1.6LRSN                1
 GAP=137        0.61       2.9     3.7  5.5 -0.3206E+00  0.2616E+01 -0.3224E+01E
 Epicentro: LOS SANTOS - SANTANDER                                             3
 ACTION:UPD 16-03-09 23:30 OP:cam  STATUS:               ID:20160131153910 L   I
 OLDACT:REG 16-01-31 21:52 OP:cara STATUS:               ID:20160131153759     3
 2016-01-31-1537-59S.COL___229                                                 6
 STAT SP IPHASW D HRMM SECON CODA AMPLIT PERI AZIMU VELO AIN AR TRES W  DIS CAZ7
 BAR2 EZ EP       1539 32.45                             172   -0.0510 22.4 190 
 BAR2 EZ ES       1539 49.41                             172    0.0410 22.4 190 
 BAR2 EZ I        1539 49.68        11.4 0.18            173           22.4 190 
 PAM  EZ EP       1539 35.34                             153    0.4110 78.2  39 
 PAM  EN ES       1539 53.48                             153   -0.2210 78.2  39 
 PAM  EZ I        1539 55.61         4.3 0.58            153           78.2  39 
 RUS  HZ IP       1539 35.89                             147   -0.3410 99.6 176 
 RUS  HE ES       1539 56.18                             147    0.1610 99.6 176 
 RUS  HZ I        1539 57.09         3.8 0.28            149           99.6 176 
 PTB  HZ EP   4   1539 40.30                             136    1.07 0  148 259 
 PTB  HN ES       1540  1.36                             136    0.01 9  148 259 
 PTB  HZ I        1540  2.76         3.0 0.20            136            148 259 
 SML  HN ES       1540 17.96                             121   -0.03 8  245 335 
 SML  HZ I        1540 22.09         3.7 0.10            121            245 335 
                                                                                
