 2017 1031 1607 21.5 L   6.787 -73.152145.0  RSN 10 0.4 1.6LRSN                1
 GAP=112        0.82       3.0     3.0  5.3  0.1421E+01  0.2387E+01  0.5493E+01E
 Epicentro: LOS SANTOS - SANTANDER                                             3
 ACTION:UPD 17-11-07 19:40 OP:rebc STATUS:               ID:20171031160721 L   I
 OLDACT:UP  17-11-01 01:14 OP:mg   STATUS:               ID:20171031155744     3
 OLDACT:UP  17-11-01 01:13 OP:mg   STATUS:               ID:20171031155744     3
 OLDACT:REG 17-10-31 21:01 OP:mg   STATUS:               ID:20171031155744     3
 2017-10-31-1558-00M.COL___447                                                 6
 STAT SP IPHASW D HRMM SECON CODA AMPLIT PERI AZIMU VELO AIN AR TRES W  DIS CAZ7
 BAR2 EZ EP       16 7 40.90                             171   -0.1110 21.7 189 
 BAR2 EZ ES   1   16 7 56.47                             171    0.24 7 21.7 189 
 BAR2 EZ I        16 7 58.71        14.3 0.28            169           21.7 189 
 BRR  HZ EP       16 7 42.89                             152    0.3110 71.3 300 
 BRR  HN ES       16 7 59.47                             152    0.4510 71.3 300 
 BRR  HZ I        16 8  0.30        10.4 0.11            152           71.3 300 
 PAM  EZ EP       16 7 43.65                             150   -0.0910 79.0  39 
 PAM  EN ES       16 8  1.05                             150   -0.0210 79.0  39 
 PAM  EZ I        16 8  3.94         5.8 0.28            153           79.0  39 
 RUS  HZ EP       16 7 45.08                             144    0.0010 99.1 176 
 RUS  HN ES       16 8  3.21                             144   -0.2610 99.1 176 
 RUS  HZ I        16 8  4.78         4.8 0.36            144           99.1 176 
 PTB  HZ EP       16 7 47.74                             132   -0.58 9  147 259 
 PTB  HN ES       16 8  8.52                             132   -0.72 9  147 259 
 PTB  HZ I        16 8 11.30         2.7 0.08            131            147 259 
 YPLC HZ EP       16 7 51.45                             127    0.30 9  176 151 
 YPLC HN ES       16 8 14.11                             127   -0.16 9  176 151 
 YPLC HZ I        16 8 19.41         6.8 0.42            127            176 151 
 ZAR  HZ EP   4   16 7 56.07                             122    2.18 0  204 293 
 ZAR  HN ES       16 8 19.21                             122    0.05 9  204 293 
 ZAR  HZ I        16 8 28.63         3.9 0.19            122            204 293 
 NOR  HZ EP   4   16 7 53.33                             118   -3.71 0  233 235 
 NOR  HN ES       16 8 25.09                             118    0.34 8  233 235 
 NOR  HZ I        16 8 30.34         2.8 0.15            118            233 235 
 CHI  HZ EP       16 7 58.88                             117   -0.11 8  247 195 
 CHI  HN ES       16 8 28.46                             117    0.24 8  247 195 
 CHI  HZ I        16 8 33.93         2.0 0.33            117            247 195 
 PRA  HZ EP       16 8 15.27                             106    0.46 6  390 210 
 PRA  HN ES   2   16 8 57.60                             106    1.22 3  390 210 
 PRA  HZ I        16 9  3.25         2.0 0.36            107            390 210 
                                                                                
