 2011  531 1435 19.4 L   6.776 -73.030144.0  RSN  7 0.4 1.4LRSN                1
 GAP=153        0.79       4.3     6.5  7.3 -0.1292E+02  0.4140E+01  0.3188E+01E
 Epicentro: CEPITA - SANTANDER                                                 3
 ACTION:UP  11-06-29 08:57 OP:tino STATUS:               ID:20110531143519 L   I
 2011-05-31-1434-03S.COL___113                                                 6
 STAT SP IPHASW D HRMM SECON CODA AMPLIT PERI AZIMU VELO SNR AR TRES W  DIS CAZ7
 BAR2 SZ EP   1   1435 38.45                             169    -0.4 7   26 220 
 BAR2 SZ ES   1   1435 53.74                             169    -0.3 7   26 220 
 BAR2 SZ I        1435 55.15        16.1 0.18                            26 220 
 PAM  SZ EP   1   1435 41.56                             152     0.5 7   72  30 
 PAM  SN ES   1   1435 58.45                             152     0.4 7   72  30 
 PAM  SZ I        1436  0.80         2.1 0.46                            72  30 
 BRR  HZ EP   1   1435 40.49                             148    -0.6 7   84 296 
 BRR  HN ES   1   1435 58.06                             148     0.0 7   84 296 
 RUS  HZ EP   1   1435 42.44                             144    -0.3 7   98 183 
 RUS  HN ES   1   1436  1.11                             144     0.1 7   98 183 
 RUS  HZ I        1436  2.63         4.1 0.29                            98 183 
 GRA  SZ EP   1   1435 44.37                             137     0.0 7  125  12 
 GRA  SZ ES   1   1436  3.93                             137     0.0 7  125  12 
 NOR  SN ES   1   1436 25.15                             117     0.6 6  244 237 
 PRA  HN ES   1   1436 55.80                             106     0.4 4  396 211 
                                                                                
