 2017  531 1026  9.0 L   7.463 -73.171133.1  RSN  4 0.4 1.9LRSN                1
 GAP=311        0.88       7.8     8.8  8.9 -0.4929E+01  0.5066E-01 -0.5213E+01E
 Epicentro: EL PLAYON - SANTANDER                                              3
 OLDACT:REG 17-05-31 19:52 OP:dani STATUS:               ID:20170531101738     3
 ACTION:UPD 17-06-16 13:40 OP:jn   STATUS:               ID:20170531102609 L   I
 OLDACT:UP  17-05-31 22:20 OP:dani STATUS:               ID:20170531101739d    3
 OLDACT:DUP 17-05-31 22:10 OP:dani STATUS:               ID:20170531101739d    3
 OLDACT:UP  17-05-31 22:06 OP:dani STATUS:               ID:20170531101738     3
 OLDACT:UP  17-05-31 21:48 OP:dani STATUS:               ID:20170531101738     3
 2017-05-31-1018-00M.COL___347                                                 6
 STAT SP IPHASW D HRMM SECON CODA AMPLIT PERI AZIMU VELO AIN AR TRES W  DIS CAZ7
 BRR  HZ EP       1026 29.06                             150    0.2210 71.5 237 
 BRR  HE ES       1026 44.34                             150    0.0410 71.5 237 
 BRR  HZ I        1026 46.23        24.4 0.15            142           71.5 237 
 PTB  HZ EP       1026 37.71                             124    0.04 9  175 234 
 PTB  HN ES       1026 59.33                             124   -0.67 9  175 234 
 PTB  HZ I        1027  4.55         6.6 0.34            120            175 234 
 ZAR  HZ EP       1026 38.42                             122   -0.39 9  186 271 
 ZAR  HN ES       1027  2.39                             122    0.35 9  186 271 
 ZAR  HZ I        1027  5.91         9.1 0.18            119            186 271 
 NOR  HZ EP   4   1026 52.09                             111    2.76 0  282 222 
 NOR  HN ES       1027 21.26                             111    0.49 7  282 222 
 NOR  HZ I        1027 27.56         2.7 0.40            109            282 222 
                                                                                
