 2013  331 1444 53.7 L   6.916 -73.178158.0  RSN  5 0.2 1.9LRSN                1
 GAP=245        0.49       4.3     4.3  5.0  0.1085E+02  0.1161E+01 -0.5929E+01E
 Epicentro: BETULIA - SANTANDER                                                3
 ACTION:UPD 13-04-09 14:06 OP:ep   STATUS:               ID:20130331144453 L   I
 2013-03-31-1440-00M.COL___245                                                 6
 STAT SP IPHASW D HRMM SECON CODA AMPLIT PERI AZIMU VELO AIN AR TRES W  DIS CAZ7
 BAR2 SZ ES   2   1445 31.41                             167   -0.38 5 35.8 181 
 BRR  HZ EP       1445 15.71                             157   -0.0610 62.7 290 
 BRR  HE ES       1445 33.20                             157    0.2210 62.7 290 
 BRR  HE I        1445 35.35        31.6 0.18            153           62.7 290 
 RUS  HN ES       1445 39.83                             143    0.0210  114 175 
 RUS  HN I        1445 41.54         2.7 0.52            143            114 175 
 PTB  HZ EP   2   1445 22.31                             135    0.64 5  147 254 
 PTB  HN ES       1445 43.42                             135   -0.06 9  147 254 
 PTB  HN I        1445 48.12        10.0 0.40            132            147 254 
 ZAR  HZ EP       1445 26.04                             126   -0.17 9  196 289 
 ZAR  HN ES       1445 51.50                             126   -0.06 9  196 289 
 ZAR  HN I        1445 57.68        13.7 0.38            125            196 289 
                                                                                
