 2016 1231 1716 57.5 L   6.767 -73.192132.0  RSN  8 0.4 1.6LRSN                1
 GAP=132        1.05       4.3     4.0  7.0 -0.1877E+01  0.1047E+02  0.1054E+01E
 Epicentro: LOS SANTOS - SANTANDER                                             3
 ACTION:UPD 17-01-11 20:21 OP:rebc STATUS:               ID:20161231171657 L   I
 OLDACT:DUP 16-12-31 23:41 OP:lv   STATUS:               ID:20161231170751d    3
 2016-12-31-1708-00M.COL___375                                                 6
 STAT SP IPHASW D HRMM SECON CODA AMPLIT PERI AZIMU VELO AIN AR TRES W  DIS CAZ7
 BAR2 EZ EP       1717 15.55                             171    0.1210 19.3 177 
 BAR2 EZ ES       1717 29.71                             171    0.3210 19.3 177 
 BRR  HZ EP       1717 17.46                             151    0.4010 68.7 303 
 BRR  HE ES       1717 31.87                             151   -0.4210 68.7 303 
 BRR  HZ I        1717 39.29         7.3 0.12            149           68.7 303 
 PAM  EZ EP       1717 18.57                             146   -0.1410 83.5  41 
 PAM  EN ES       1717 35.27                             146    0.0410 83.5  41 
 PAM  EZ I        1717 37.00         6.3 0.19            150           83.5  41 
 RUS  HZ EP       1717 19.02                             142   -0.7010 97.4 173 
 RUS  HE ES       1717 37.36                             142    0.3410 97.4 173 
 RUS  HZ I        1717 39.21         4.9 0.28            148           97.4 173 
 PTB  HZ EP       1717 22.63                             130   -0.24 9  142 260 
 PTB  HN ES       1717 41.84                             130   -0.79 9  142 260 
 PTB  HZ I        1717 45.61         6.8 0.18            132            142 260 
 ZAR  HZ EP       1717 28.95                             120    0.18 9  201 294 
 ZAR  HE ES       1717 53.73                             120    0.60 9  201 294 
 ZAR  HZ I        1718  2.38         5.0 0.30            122            201 294 
 NOR  HN ES       1717 58.81                             116    0.27 8  228 234 
 GUY2CHZ EP   4   1717 41.32                             110    1.50 0  295 235 
 GUY2CHE ES       1718 13.15                             110    0.36 7  295 235 
 GUY2CHZ I        1718 22.93         1.9 0.54                           295 235 
                                                                                
