 2013  731 1741  1.7 L   6.801 -73.152150.5  RSN  8 0.4 2.0LRSN                1
 GAP=148        0.93       6.0     5.5  5.8 -0.1531E+02  0.6855E+01 -0.3093E+01E
 Epicentro: LOS SANTOS - SANTANDER                                             3
 ACTION:UPD 13-08-12 10:41 OP:ep   STATUS:               ID:20130731174101 L   I
 OLDACT:UP  13-07-31 19:28 OP:cam  STATUS:               ID:20130731173959     3
 OLDACT:UP  13-07-31 19:28 OP:cam  STATUS:               ID:20130731173959     3
 OLDACT:REG 13-07-31 15:28 OP:cam  STATUS:               ID:20130731173959     3
 2013-07-31-1739-59M.COL___267                                                 6
 STAT SP IPHASW D HRMM SECON CODA AMPLIT PERI AZIMU VELO AIN AR TRES W  DIS CAZ7
 BAR2 SZ EP       1741 21.94                             171    0.0510 23.3 188 
 BAR2 SZ ES       1741 37.16                             171   -0.4810 23.3 188 
 BAR2 SZ I        1741 38.27        17.5 0.18            167           23.3 188 
 GIR2 SZ EP   1   1741 21.97                             168    0.05 7 31.0 352 
 GIR2 SZ ES   1   1741 37.41                             168   -0.28 7 31.0 352 
 BRR  HZ EP       1741 23.68                             153    0.3610 70.5 299 
 BRR  HN ES       1741 40.77                             153    0.5910 70.5 299 
 BRR  HZ I        1741 44.07        22.8 0.38            138           70.5 299 
 PAM  SZ EP       1741 24.78                             151    0.3510 77.7  40 
 PAM  SZ I        1741 25.03        26.0 0.20            145           77.7  40 
 PAM  SN ES       1741 42.06                             151   -0.1110 77.7  40 
 PTB  HZ EP       1741 28.73                             133   -0.26 9  147 259 
 PTB  HN ES       1741 50.09                             133   -0.19 9  147 259 
 PTB  HZ I        1741 56.56        14.6 0.38            122            147 259 
 SPBC HZ EP   1   1741 31.17                             130    0.64 7  163 219 
 SPBC HN ES   1   1741 52.81                             130   -0.20 7  163 219 
 SPBC HZ I        1741 58.85        13.0 0.38            123            163 219 
 SML  HZ EP   1   1741 38.28                             118   -0.26 6  243 335 
 GUY2CHZ EP   4   1741 47.78                             113    2.31 0  301 235 
 SJC  HZ EP       1741 56.22                             106   -1.14 6  409 327 
 SJC  HZ I        1742 41.56         2.1 0.68            101            409 327 
                                                                                
