 2017 1031 1710 23.6 L   6.819 -73.155139.3  RSN 12 0.6 1.7LRSN                1
 GAP=110        1.20       3.9     4.1  6.4  0.1932E+01  0.5689E+01  0.6683E+01E
 Epicentro: LOS SANTOS - SANTANDER                                             3
 ACTION:UPD 17-11-07 19:40 OP:rebc STATUS:               ID:20171031171024dL   I
 OLDACT:UP  17-10-31 23:54 OP:dhb  STATUS:               ID:20171031170747     3
 OLDACT:REG 17-10-31 21:12 OP:mg   STATUS:               ID:20171031170747     3
 2017-10-31-1708-00M.COL___450                                                 6
 STAT SP IPHASW D HRMM SECON CODA AMPLIT PERI AZIMU VELO AIN AR TRES W  DIS CAZ7
 BAR2 EZ IP     C 1710 42.44                             169   -0.0510 25.3 187 
 BAR2 EZ ES       1710 57.53                             169    0.3010 25.3 187 
 BAR2 EZ I        1711  0.23        14.7 0.30            165           25.3 187 
 BRR  HZ EP       1710 44.39                             152    0.4510 69.3 297 
 BRR  HN ES       1711  0.33                             152    0.5310 69.3 297 
 BRR  HZ I        1711  1.84         9.6 0.12            155           69.3 297 
 PAM  EZ IP     C 1710 45.46                             150    0.3910 76.5  41 
 PAM  EE ES       1711  0.93                             150   -0.8910 76.5  41 
 PAM  EZ I        1711  5.63         5.0 0.52            158           76.5  41 
 RUS  HZ EP       1710 46.43                             142   -0.4510  103 176 
 RUS  HN ES       1711  5.27                             142    0.2310  103 176 
 RUS  HZ I        1711 16.93         8.6 0.50            142            103 176 
 PTB  HZ EP       1710 49.18                             131   -0.81 9  147 258 
 PTB  HN ES       1711  9.94                             131   -0.63 9  147 258 
 PTB  HZ I        1711 11.23         3.8 0.18            133            147 258 
 SPBC HZ EP       1710 51.38                             127   -0.32 9  164 218 
 SPBC HE ES       1711 13.65                             127    0.03 9  164 218 
 SPBC HZ I        1711 19.66         9.1 0.20            129            164 218 
 YPLC HZ IP     C 1710 52.93                             125   -0.23 9  179 151 
 YPLC HE ES       1711 16.94                             125    0.71 9  179 151 
 YPLC HZ I        1711 17.86         6.4 0.26            127            179 151 
 ZAR  HZ EP       1710 55.77                             121    0.33 9  202 292 
 ZAR  HN ES       1711 20.47                             121    0.19 9  202 292 
 ZAR  HZ I        1711 25.63         5.0 0.24            125            202 292 
 NOR  HZ EP       1710 59.60                             117    0.60 8  235 234 
 NOR  HE ES       1711 26.45                             117   -0.16 8  235 234 
 NOR  HZ I        1711 33.22         3.2 0.24            120            235 234 
 CHI  HZ EP       1711  1.17                             116    0.03 8  250 195 
 CHI  HE ES       1711 30.15                             116   -0.27 8  250 195 
 CHI  HZ I        1711 42.39         2.3 0.36            118            250 195 
 GUY2CHZ EP   2   1711  9.29                             111    2.34 4  302 234 
 GUY2CHN ES   4   1711 45.13                             111    4.36 0  302 234 
 GUY2CHZ I        1711 52.72         2.6 0.44                           302 234 
 PRA  HZ EP       1711 16.60                             105   -0.45 6  393 209 
 PRA  HE ES   2   1711 58.13                             105   -0.62 3  393 209 
 PRA  HZ I        1712  4.74         2.5 0.48            108            393 209 
                                                                                
