 2014  131 1208  0.8 L   6.845 -73.178142.8  RSN  5 0.3 1.7LRSN                1
 GAP=147        0.84       4.1     4.8  6.2 -0.5679E+01  0.6914E+01  0.4146E+01E
 Epicentro: ZAPATOCA - SANTANDER                                               3
 ACTION:UPD 14-03-13 10:00 OP:ep   STATUS:               ID:20140131120800 L   I
 OLDACT:REG 14-01-31 15:51 OP:stll STATUS:               ID:20140131115818     3
 2014-01-31-1158-18M.COL___217                                                 6
 STAT SP IPHASW D HRMM SECON CODA AMPLIT PERI AZIMU VELO AIN AR TRES W  DIS CAZ7
 BAR2 SZ EP       12 8 20.38                             168    0.2010 27.9 181 
 BAR2 SZ ES       12 8 35.28                             168   -0.0110 27.9 181 
 BAR2 SZ I        12 8 36.92        25.7 0.16            168           27.9 181 
 PAM  SZ EP       12 8 23.29                             151    0.6610 76.1  44 
 PAM  SZ I        12 8 23.49        11.3 0.22            153           76.1  44 
 PAM  SN ES       12 8 39.18                             151   -0.4610 76.1  44 
 RUS  HZ EP       12 8 24.48                             142   -0.1810  106 174 
 RUS  HN ES       12 8 43.38                             142    0.1210  106 174 
 RUS  HZ I        12 8 44.82         8.5 0.40            142            106 174 
 PTB  HZ EP       12 8 26.98                             132   -0.33 9  145 257 
 PTB  HN ES       12 8 48.13                             132    0.15 9  145 257 
 PTB  HZ I        12 8 49.97         6.7 0.14            132            145 257 
 CHI  HZ EP       12 8 38.39                             116   -0.38 8  253 194 
 CHI  HN ES       12 9  8.46                             116    0.09 8  253 194 
 CHI  HZ I        12 9 10.06         1.9 0.38            117            253 194 
                                                                                
