 2013  331 1351 31.0 L   6.767 -73.092142.0  RSN  6 0.3 2.1LRSN                1
 GAP=241        0.71       4.9     4.5  5.0  0.1167E+02  0.4606E+01 -0.1559E+01E
 Epicentro: LOS SANTOS - SANTANDER                                             3
 ACTION:UPD 13-04-09 14:06 OP:ep   STATUS:               ID:20130331135131 L   I
 2013-03-31-1350-00M.COL___245                                                 6
 STAT SP IPHASW D HRMM SECON CODA AMPLIT PERI AZIMU VELO AIN AR TRES W  DIS CAZ7
 BAR2 SZ EP       1351 50.24                             171    0.1310 21.7 207 
 BAR2 SZ I        1352  1.91        43.3 0.66            175           21.7 207 
 BAR2 SZ ES       1352  4.81                             171   -0.2310 21.7 207 
 BRR  HZ EP       1351 52.14                             150    0.0210 78.2 299 
 BRR  HN ES       1352  8.84                             150    0.2110 78.2 299 
 BRR  HN I        1352  9.00        23.0 0.20            150           78.2 299 
 RUS  HZ EP       1351 54.21                             144    0.1510 96.7 179 
 RUS  HN ES       1352 12.13                             144    0.0510 96.7 179 
 RUS  HN I        1352 13.95         7.5 0.38            144           96.7 179 
 PTB  HZ EP       1351 57.36                             130   -0.75 9  153 261 
 PTB  HN ES       1352 19.56                             130    0.28 9  153 261 
 PTB  HN I        1352 20.29        19.0 0.36            131            153 261 
 ZAR  HZ EP       1352  3.97                             121    0.08 8  211 292 
 ZAR  HN ES       1352 29.48                             121   -0.08 8  211 292 
 ZAR  HN I        1352 34.77        11.1 0.40            119            211 292 
 HEL  HZ EP   2   1352 12.28                             114    0.75 4  277 257 
 HEL  HE ES   1   1352 43.06                             114   -0.11 6  277 257 
                                                                                
