 2010 1231 2124 36.6 L   6.800 -73.150140.5  RSN  9 0.3 2.1LRSN                1
 GAP=136        0.55       2.9     6.2  6.7 -0.6418E+01  0.8922E+01 -0.7176E+00E
 Epicentro: LOS SANTOS - SANTANDER                                             3
 ACTION:UP  11-01-14 15:28 OP:pat  STATUS:               ID:20101231212436 L   I
 2010-12-31-2120-32S.COL___135                                                 6
 STAT SP IPHASW D HRMM SECON CODA AMPLIT PERI AZIMU VELO SNR AR TRES W  DIS CAZ7
 BTL  SZ EP   1   2124 55.75                             172     0.3 8   18 315 
 BAR2 SZ EP   1   2124 55.91                             170     0.3 8   23 189 
 BAR2 SZ ES   2   2125 10.46                             170     0.1 5   23 189 
 BAR2 SZ I        2125 11.89        41.6 0.31                            23 189 
 GIR2 SZ EP   1   2124 55.68                             167     0.1 8   31 351 
 RUS  HZ EP   2   2124 59.48                             143    -0.3 5  101 176 
 RUS  HN ES   2   2125 17.52                             143    -0.4 5  101 176 
 RUS  HZ I        2125 19.00        14.1 0.39                           101 176 
 GRA  SZ IP       2125  1.53                             136     0.210  126  18 
 GRA  SZ I        2125  2.83        23.7 0.35                           126  18 
 GRA  SZ ES   1   2125 20.23                             136    -0.5 7  126  18 
 OCA  SZ EP   2   2125  4.39                             128    -0.1 5  160 353 
 OCA  SZ I        2125 33.20        21.8 0.27                           160 353 
 YOP  SZ EP   2   2125  6.04                             125    -0.2 5  179 153 
 YOP  SE ES   2   2125 29.53                             125     0.1 5  179 153 
 YOP  SZ I        2125 31.98         8.5 0.46                           179 153 
 NOR  SZ EP   2   2125 11.53                             117    -0.4 4  234 235 
 NOR  SE ES   2   2125 39.48                             117    -0.1 4  234 235 
 CHI  HZ EP   2   2125 13.63                             116    -0.3 4  248 195 
 CHI  HE ES   2   2125 43.32                             116     0.2 4  248 195 
 CHI  HZ I        2125 49.02         4.0 0.34                           248 195 
                                                                                
