 2010  731 2233 46.9 L   6.780 -73.128147.6  RSN 14 0.5 2.7LRSN                1
 GAP=127        1.20       4.3     8.8  7.6 -0.1575E+02  0.5618E+01  0.4488E+01E
 Epicentro: LOS SANTOS - SANTANDER                                             3
 ACTION:UPD 10-12-01 15:21 OP:pat  STATUS:               ID:20100731223346 L   I
 2010-07-31-2230-03S.COL___123                                                 6
 STAT SP IPHASW D HRMM SECON CODA AMPLIT PERI AZIMU VELO AIN AR TRES W  DIS CAZ7
 BAR2 SZ IP       2234  6.52                             171    -0.110   22 196 
 BAR2 SZ ES   1   2234 21.66                             171    -0.5 7   22 196 
 BAR2 SZ I        2234 23.05       160.9 0.27                            22 196 
 GIR2 SZ ES   2   2234 21.64                             166    -0.7 5   34 348 
 BRR  HZ IP     C 2234  8.37                             152     0.010   74 299 
 BRR  HN ES   1   2234 25.69                             152     0.6 7   74 299 
 BRR  HZ I        2234 27.13        72.3 0.09                            74 299 
 RUS  HZ IP     D 2234 10.40                             145    -0.210   98 177 
 RUS  HN ES   1   2234 29.44                             145     0.3 7   98 177 
 RUS  HZ I        2234 30.88        67.3 0.44                            98 177 
 GUE  SZ EP   2   2234 11.52                             139    -0.3 5  118  11 
 GRA  SZ IP       2234 13.34                             137     1.010  127  16 
 GRA  SZ ES   1   2234 33.07                             137     0.8 7  127  16 
 GRA  SZ I        2234 34.17        49.7 0.41                           127  16 
 OCA  SZ EP       2234 15.14                             130    -0.4 9  163 353 
 OCA  SZ ES   1   2234 36.98                             130    -0.9 7  163 353 
 OCA  SZ I        2234 41.64        63.4 0.30                           163 353 
 CHI  HZ IP     D 2234 24.59                             118     0.1 8  247 196 
 CHI  HN ES   1   2234 53.79                             118     0.0 6  247 196 
 CHI  HZ I        2235  1.98        24.6 0.42                           247 196 
 ROSC BE ES   2   2234 54.60                             117    -0.1 4  252 212 
 ROSC BZ I        2234 58.71        25.8 0.28                           252 212 
 HEL  HZ EP   2   2234 27.20                             115    -0.1 4  273 256 
 HEL  HZ I        2235  4.45        26.3 0.33                           273 256 
 GUY  SZ EP   2   2234 31.15                             113     0.6 4  302 235 
 GUY  SZ I        2235 13.93        95.3 0.34                           302 235 
 RREF HZ EP       2234 33.41                             111     0.3 7  322 230 
 RREF HN ES   1   2235  8.62                             111    -0.5 5  322 230 
 RREF HZ I        2235 18.42        28.7 0.49                           322 230 
 SDV  BZ EP   1   2234 35.83                             108    -1.1 5  360  50 
 SDV  BZ I        2235 15.25         9.9 0.31                           360  50 
 PRA  HZ EP   1   2234 40.00                             107    -0.3 4  391 210 
 PRA  HE ES   1   2235 22.14                             107     0.1 4  391 210 
 PRA  HZ I        2235 28.21        32.2 0.36                           391 210 
                                                                                
