 2014  531 2056  0.2 L   6.790 -73.141140.7  RSN 17 0.5 2.2LRSN                1
 GAP=138        0.96       2.5     3.8  4.8 -0.1628E+01  0.6923E+01  0.2450E+01E
 Epicentro: LOS SANTOS - SANTANDER                                             3
 ACTION:UPD 15-03-16 17:02 OP:nd   STATUS:               ID:20140531205600 L   I
 OLDACT:REG 14-06-01 06:13 OP:spq  STATUS:               ID:20140531204820     3
 2014-05-31-2048-20M.COL___259                                                 6
 STAT SP IPHASW D HRMM SECON CODA AMPLIT PERI AZIMU VELO AIN AR TRES W  DIS CAZ7
 BAR2 SZ EP       2056 19.20                             171    0.0310 22.4 192 
 BAR2 SZ ES       2056 33.75                             171   -0.2510 22.4 192 
 BAR2 SZ I        2056 35.60        39.1 0.12            168           22.4 192 
 BRR  HZ EP       2056 21.15                             151    0.3210 72.1 299 
 BRR  HE ES       2056 37.64                             151    0.7010 72.1 299 
 BRR  HZ I        2056 40.21        16.0 0.10            149           72.1 299 
 PAM  SZ EP       2056 21.99                             150    0.1110 77.9  39 
 PAM  SN ES       2056 38.86                             150    0.0510 77.9  39 
 PAM  SZ I        2056 41.72        22.5 0.64            154           77.9  39 
 RUS  HZ EP       2056 23.07                             143   -0.2710 99.5 176 
 RUS  HE ES       2056 41.43                             143    0.0110 99.5 176 
 RUS  HZ I        2056 43.53        17.7 0.24            144           99.5 176 
 OCA  HN ES   1   2056 50.22                             128    0.16 7  161 353 
 OCA  HZ I        2056 54.08        16.4 0.42            130            161 353 
 SPBC HZ EP       2056 28.16                             128   -0.07 9  163 219 
 SPBC HN ES       2056 50.16                             128    0.03 9  163 219 
 SPBC HZ I        2056 52.97        31.5 0.22            128            163 219 
 ZAR  HZ EP       2056 31.84                             121   -0.53 9  205 292 
 ZAR  HN ES       2056 56.85                             121   -0.65 9  205 292 
 ZAR  HZ I        2057  1.40        10.1 0.14            121            205 292 
 NOR  HZ EP       2056 35.77                             117    0.19 8  234 235 
 NOR  HN ES       2057  3.28                             117    0.07 8  234 235 
 NOR  HZ I        2057  9.73        12.8 0.14            118            234 235 
 SML  HZ EP   1   2056 35.94                             116   -0.70 6  245 335 
 SML  HE ES   1   2057  4.17                             116   -0.92 6  245 335 
 SML  HZ I        2057  9.40        21.5 0.10            118            245 335 
 CHI  HZ EP   1   2056 37.39                             116   -0.10 6  248 195 
 CHI  HE ES       2057  5.67                             116   -0.93 8  248 195 
 CHI  HZ I        2057 12.14         6.6 0.20            117            248 195 
 ROSC BZ EP       2056 38.75                             116    0.81 8  252 211 
 ROSC BN ES   1   2057  6.70                             116   -0.71 6  252 211 
 ROSC BZ I        2057 14.92        13.2 0.50            116            252 211 
 HEL  HZ EP   1   2056 40.30                             114    0.15 6  272 256 
 HEL  HE ES   1   2057 11.28                             114   -0.06 6  272 256 
 HEL  HZ I        2057 18.34         7.8 0.24            114            272 256 
 GUY2CHZ EP       2056 44.37                             111    0.85 7  301 235 
 GUY2CHE ES   1   2057 17.46                             111    0.12 5  301 235 
 GUY2CHZ I        2057 25.98         6.4 0.28                           301 235 
 RREF HZ EP   1   2056 46.66                             110    0.60 5  321 230 
 RREF HN ES       2057 22.07                             110    0.22 7  321 230 
 RREF HZ I        2057 30.19         6.9 0.25            111            321 230 
 TOL  SZ EP       2056 49.00                             108    0.83 7  343 225 
 TOL  SE ES       2057 25.68                             108    0.06 7  343 225 
 TOL  SZ I        2057 33.67        13.1 0.46            109            343 225 
 PRA  HZ EP       2056 52.62                             106   -0.81 6  391 210 
 PRA  HN ES   1   2057 34.59                             106   -0.40 4  391 210 
 PRA  HZ I        2057 41.56         4.3 0.26            107            391 210 
 ORTC HZ EP       2056 54.13                             105    0.28 6  395 216 
 ORTC HN ES   1   2057 35.73                             105    0.01 4  395 216 
 ORTC HZ I        2057 42.60         5.6 0.68            106            395 216 
                                                                                
