 2017 1031 2240 31.7 L   5.988 -73.691128.6  RSN  4 0.2 1.2LRSN                1
 GAP=151        0.64       6.2     3.9  6.4 -0.1574E+02  0.1006E+02 -0.9424E+01E
 Epicentro: VELEZ - SANTANDER                                                  3
 ACTION:UPD 17-11-07 19:40 OP:rebc STATUS:               ID:20171031224031 L   I
 OLDACT:UP  17-11-01 09:00 OP:edw  STATUS:               ID:20171031223746d    3
 OLDACT:DUP 17-11-01 08:54 OP:edw  STATUS:               ID:20171031223746d    3
 2017-10-31-2238-00M.COL___444                                                 6
 STAT SP IPHASW D HRMM SECON CODA AMPLIT PERI AZIMU VELO AIN AR TRES W  DIS CAZ7
 RUS  HZ EP       2240 51.89                             151    0.3110 68.1  99 
 RUS  HN ES       2241  6.81                             151   -0.2410 68.1  99 
 RUS  HZ I        2241  7.74         1.5 0.20            153           68.1  99 
 BAR2 EZ ES       2241  8.87                             144    0.2010 87.3  40 
 BAR2 EZ I        2241 10.42         9.5 0.46            144           87.3  40 
 NOR  HZ EP       2240 56.65                             130    0.10 9  139 250 
 NOR  HE ES       2241 15.79                             130   -0.11 9  139 250 
 NOR  HZ I        2241 16.55         2.6 0.44            131            139 250 
 PAM  EZ EP       2241  1.42                             121   -0.34 9  185  36 
                                                                                
