 2017 1031 2301  0.4 L   6.704 -73.244145.0  RSN  4 0.3 1.1LRSN                1
 GAP=200        0.81       6.3     5.8  6.6  0.1762E+02  0.5554E+01  0.2862E+01E
 Epicentro: BARICHARA - SANTANDER                                              3
 ACTION:UPD 17-11-07 19:40 OP:rebc STATUS:               ID:20171031230100 L   I
 OLDACT:REG 17-11-01 06:16 OP:edw  STATUS:               ID:20171031225739     3
 2017-10-31-2258-00M.COL___444                                                 6
 STAT SP IPHASW D HRMM SECON CODA AMPLIT PERI AZIMU VELO AIN AR TRES W  DIS CAZ7
 BAR2 EZ EP       23 1 19.26                             174   -0.5310 14.1 151 
 BAR2 EZ ES       23 1 34.70                             174   -0.2110 14.1 151 
 BAR2 EZ I        23 1 35.40         4.8 0.22            172           14.1 151 
 BRR  HZ EP       23 1 21.30                             153   -0.0110 68.3 311 
 BRR  HN ES       23 1 38.02                             153    0.4110 68.3 311 
 RUS  HZ EP       23 1 23.68                             146    0.2410 91.4 169 
 RUS  HN ES       23 1 41.60                             146    0.1910 91.4 169 
 RUS  HZ I        23 1 42.89         1.8 0.34            145           91.4 169 
 PTB  HZ EP       23 1 26.41                             134    0.21 9  135 262 
 PTB  HN ES       23 1 46.00                             134   -0.32 9  135 262 
 PTB  HZ I        23 1 48.12         1.0 0.18            134            135 262 
                                                                                
