 2017  731 2227 49.2 L   6.800 -73.137148.3  RSN  5 0.4 1.2LRSN                1
 GAP=138        0.63       4.3     6.2  5.5  0.9930E+01 -0.9548E+01 -0.5460E+01E
 Epicentro: LOS SANTOS - SANTANDER                                             3
 ACTION:UPD 17-08-30 15:38 OP:rebc STATUS:               ID:20170731222749 L   I
 OLDACT:UP  17-08-01 04:32 OP:and  STATUS:               ID:20170731221750     3
 OLDACT:REG 17-08-01 03:22 OP:and  STATUS:               ID:20170731221750     3
 2017-07-31-2218-00M.COL___398                                                 6
 STAT SP IPHASW D HRMM SECON CODA AMPLIT PERI AZIMU VELO AIN AR TRES W  DIS CAZ7
 BAR2 EZ EP       2228  8.82                             170   -0.2810 23.5 192 
 BAR2 EZ ES       2228 24.52                             170   -0.1410 23.5 192 
 BAR2 EZ I        2228 25.12         3.7 0.44            170           23.5 192 
 BRR  HZ EP       2228 10.69                             153    0.0610 72.0 298 
 BRR  HN ES       2228 27.61                             153    0.2310 72.0 298 
 PAM  EZ IP     D 2228 11.68                             151    0.0710 76.8  39 
 PAM  EN ES   3   2228 27.97                             151   -1.15 2 76.8  39 
 PAM  EZ I        2228 30.46         4.1 0.28            153           76.8  39 
 RUS  HZ EP       2228 13.35                             144    0.1910  101 177 
 RUS  HN ES       2228 31.97                             144    0.0910  101 177 
 RUS  HZ I        2228 33.40         2.3 0.32            145            101 177 
 PTB  HZ EP   2   2228 16.22                             132   -0.20 5  149 259 
 PTB  HN ES   3   2228 35.71                             132   -1.97 2  149 259 
 PTB  HZ I        2228 39.35         1.3 0.16            133            149 259 
                                                                                
