 2010 1031 2156  1.0 L   6.801 -72.998141.6  RSN  4 0.3 1.6LRSN                1
 GAP=175        0.72       6.6    12.5 10.4  0.4192E+02 -0.7451E+02 -0.3458E+02E
 Epicentro: CEPITA - SANTANDER                                                 3
 ACTION:UP  11-02-18 11:13 OP:tino STATUS:               ID:20101031215601 L   I
 2010-10-31-2154-12S.COL___125                                                 6
 STAT SP IPHASW D HRMM SECON CODA AMPLIT PERI AZIMU VELO SNR AR TRES W  DIS CAZ7
 BAR2 SZ EP   1   2156 20.25                             167     0.0 7   31 222 
 BAR2 SZ ES   1   2156 34.93                             167    -0.4 7   31 222 
 BAR2 SZ I        2156 37.03        11.4 0.30                            31 222 
 BRR  HZ EP   1   2156 22.19                             147    -0.4 7   86 293 
 BRR  HZ I        2156 25.60        11.3 0.29                            86 293 
 BRR  HN ES   1   2156 39.77                             147     0.3 7   86 293 
 RUS  HZ EP   1   2156 24.32                             143     0.0 7  101 185 
 RUS  HN ES   1   2156 42.84                             143     0.3 7  101 185 
 RUS  HZ I        2156 44.61         5.3 0.49                           101 185 
 GRA  SZ EP   1   2156 25.71                             137     0.2 7  122  10 
 GRA  SZ I        2156 47.62         3.0 0.23                           122  10 
                                                                                
