 2015  531 2241  4.0 L   6.822 -73.133151.3  RSN  7 0.4 1.9LRSN                1
 GAP=137        0.99       4.2     5.3  7.3  0.4334E+01  0.7697E+01 -0.1278E+01E
 Epicentro: LOS SANTOS - SANTANDER                                             3
 ACTION:UPD 15-09-10 22:08 OP:cam  STATUS:               ID:20150531224104 L   I
 OLDACT:REG 15-06-01 04:55 OP:mh   STATUS:               ID:20150531223750     3
 2015-05-31-2237-50M.COL___303                                                 6
 STAT SP IPHASW D HRMM SECON CODA AMPLIT PERI AZIMU VELO AIN AR TRES W  DIS CAZ7
 BAR2 EZ EP   1   2241 24.32                             170    0.01 7 26.0 192 
 BAR2 EZ I        2241 40.83        14.9 0.26            139           26.0 192 
 BRR  HZ EP       2241 25.11                             153   -0.6010 71.3 296 
 BRR  HN ES       2241 43.28                             153    0.6010 71.3 296 
 BRR  HZ I        2241 47.73        10.0 0.26            156           71.3 296 
 PAM  SZ EP       2241 27.21                             153    0.6010 74.6  40 
 PAM  SN ES       2241 44.09                             153   -0.1910 74.6  40 
 PAM  SZ I        2241 46.09        17.3 0.50            124           74.6  40 
 RUS  HZ EP       2241 28.69                             144    0.2610  103 177 
 RUS  HN ES   1   2241 46.78                             144   -0.73 7  103 177 
 RUS  HZ I        2241 49.00         4.8 0.32            126            103 177 
 OCA  HZ EP       2241 32.53                             131    0.03 9  158 353 
 OCA  HN ES       2241 54.74                             131   -0.02 9  158 353 
 OCA  HZ I        2241 59.06        20.8 0.28            120            158 353 
 ZAR  HZ EP       2241 37.03                             124    0.22 9  204 291 
 ZAR  HN ES       2242  2.43                             124    0.00 9  204 291 
 ZAR  HZ I        2242  9.60         8.4 0.42            132            204 291 
 SML  HZ EP       2241 40.63                             119   -0.10 8  242 335 
 SML  HN ES       2242  8.82                             119   -0.58 8  242 335 
 SML  HZ I        2242 12.28        10.8 0.10            114            242 335 
                                                                                
