 2013  331 2305 36.2 L   6.804 -73.131146.6  RSN 16 0.5 3.3LRSN 3.5WRSN        1
 SPEC AVERAGE  MO 14.3 ST 21.5 OM  2.8 f0 3.55 R0.4761 AL 2.29 WI 31.5 MW  3.5 3
 SPEC SD       MO  0.2 ST 23.6 OM  0.5 f0 1.34 R0.1743 AL      WI      MW  0.1 3
 GAP= 72        1.08       3.0     3.1  5.1 -0.5901E-01  0.3766E+01  0.1103E+00E
 Epicentro: LOS SANTOS - SANTANDER                                             3
 SPEC URE HH N MO 14.1 ST  6.0 OM  2.2 f0 3.25 R0.4523 AL 1.81 WI 31.9 MW  3.3 3
 SPEC URE HH N T23 643 K 0.000 GD  320 VS 4.20 DE 3.20 Q0300.0 QA 0.60 VS 4.20 3
 SPEC ZAR HH N MO 14.4 ST  6.2 OM  2.6 f0 2.62 R0.5611 AL 0.95 WI 27.6 MW  3.5 3
 SPEC ZAR HH N T23 632 K 0.000 GD  252 VS 4.20 DE 3.20 Q0300.0 QA 0.60 VS 4.20 3
 SPEC PTB HH E MO 14.3 ST  2.5 OM  2.6 f0 2.06 R0.7136 AL 1.71 WI 38.5 MW  3.5 3
 SPEC PTB HH E T23 621 K 0.000 GD  209 VS 4.20 DE 3.20 Q0300.0 QA 0.60 VS 4.20 3
 SPEC RUS HH N MO 14.0 ST  2.8 OM  2.4 f0 2.62 R0.5611 AL 2.53 WI 30.2 MW  3.3 3
 SPEC RUS HH N T23 616 K 0.000 GD  178 VS 4.20 DE 3.20 Q0300.0 QA 0.60 VS 4.20 3
 SPEC HEL HH N MO 14.1 ST  9.6 OM  2.2 f0 3.84 R0.3828 AL 2.84 WI 34.9 MW  3.3 3
 SPEC HEL HH N T23 644 K 0.000 GD  310 VS 4.20 DE 3.20 Q0300.0 QA 0.60 VS 4.20 3
 SPEC NOR HH N MO 14.5 ST 62.4 OM  2.7 f0 5.07 R0.2899 AL 3.12 WI 38.5 MW  3.6 3
 SPEC NOR HH N T23 636 K 0.000 GD  277 VS 4.20 DE 3.20 Q0300.0 QA 0.60 VS 4.20 3
 SPEC OCA HH N MO 14.5 ST 18.7 OM  2.8 f0 3.41 R0.4311 AL 1.69 WI 40.6 MW  3.6 3
 SPEC OCA HH N T23 623 K 0.000 GD  217 VS 4.20 DE 3.20 Q0300.0 QA 0.60 VS 4.20 3
 SPEC CTABSH Z MO 14.6 ST  3.4 OM  2.0 f0 1.83 R0.8033 AL 1.54 WI 24.8 MW  3.7 3
 SPEC CTABSH Z T23 610 K 0.000 GD  273 VP 7.60 DE 3.20 Q0300.0 QA 0.60 VS 4.20 3
 SPEC CTAUSH Z MO 14.3 ST 66.0 OM  1.7 f0 6.36 R0.2311 AL 3.69 WI 21.8 MW  3.5 3
 SPEC CTAUSH Z T23 614 K 0.000 GD  251 VP 7.60 DE 3.20 Q0300.0 QA 0.60 VS 4.20 3
 SPEC BRR HH N MO 14.5 ST 37.8 OM  2.9 f0 4.39 R0.3349 AL 3.01 WI 26.2 MW  3.6 3
 SPEC BRR HH N T23 613 K 0.000 GD  163 VS 4.20 DE 3.20 Q0300.0 QA 0.60 VS 4.20 3
 ACTION:UPD 13-04-09 14:06 OP:ep   STATUS:               ID:20130331230537dL   I
 2013-03-31-2300-00M.COL___245                                                 6
 STAT SP IPHASW D HRMM SECON CODA AMPLIT PERI AZIMU VELO AIN AR TRES W  DIS CAZ7
 BAR2 SZ EP       23 5 56.09                             170    0.1210 24.1 194 
 BAR2 SZ ES       23 6 10.98                             170   -0.3910 24.1 194 
 BAR2 SZ I        23 6 13.94       264.8 0.32            170           24.1 194 
 BRR  HZ EP       23 5 57.96                             152    0.4310 72.4 298 
 BRR  HN ES       23 6 14.88                             152    0.7310 72.4 298 
 BRR  HN I        23 6 16.33       545.7 0.22            151           72.4 298 
 PAM  SZ EP       23 5 58.94                             151    0.4910 76.1  39 
 PAM  SN ES       23 6 15.83                             151    0.0410 76.1  39 
 PAM  SN I        23 6 16.59       110.5 0.40            154           76.1  39 
 RUS  HZ EP       23 5 59.92                             144   -0.1610  101 177 
 RUS  HN ES       23 6 18.47                             144   -0.2210  101 177 
 RUS  HN I        23 6 19.17       223.7 0.30            145            101 177 
 PTB  HZ EP       23 6  2.56                             132   -0.84 9  149 259 
 PTB  HN ES       23 6 24.20                             132   -0.41 9  149 259 
 PTB  HN I        23 6 29.66       508.8 0.32            131            149 259 
 TAM  HZ IP     C 23 6  4.24                             131    0.41 9  154 105 
 TAM  HE ES       23 6 25.00                             131   -0.37 9  154 105 
 TAM  HE I        23 6 26.92       161.5 0.34            134            154 105 
 OCA  HZ EP       23 6  4.43                             130   -0.15 9  160 353 
 OCA  HN ES       23 6 26.55                             130   -0.14 9  160 353 
 OCA  HN I        23 6 29.82       475.0 0.20            130            160 353 
 CTAU SZ EP   4   23 6 16.87                             123    7.51 0  204 210 
 ZAR  HZ EP       23 6  8.63                             122   -0.22 8  205 292 
 ZAR  HN ES       23 6 34.69                             122    0.38 8  205 292 
 ZAR  HN I        23 6 40.27       359.9 0.54            122            205 292 
 CTAB SZ EP       23 6 13.34                             119    1.20 8  231 211 
 NOR  HZ EP       23 6 11.81                             118   -0.35 8  236 235 
 NOR  HN ES       23 6 40.21                             118    0.02 8  236 235 
 NOR  HN I        23 6 45.05       229.6 0.18            119            236 235 
 SML  HZ EP       23 6 12.47                             118   -0.45 8  244 335 
 SML  HN ES       23 6 41.55                             118    0.00 8  244 335 
 SML  HN I        23 6 47.72       248.3 0.10            118            244 335 
 HEL  HZ EP       23 6 17.35                             115    0.70 8  274 256 
 HEL  HN ES       23 6 47.98                             115   -0.21 8  274 256 
 HEL  HN I        23 6 54.63        65.4 0.38            115            274 256 
 URE  HZ EP   4   23 6 15.52                             114   -1.96 0  285 292 
 URE  HN ES   4   23 6 47.00                             114   -2.66 0  285 292 
 VIL  SZ EP   1   23 6 20.09                             112    0.33 5  304 192 
 VIL  SE ES   1   23 6 53.52                             112   -0.20 5  304 192 
 VIL  SE I        23 6 59.86       181.0 0.44            113            304 192 
 DBB  SZ EP       23 6 23.50                             109   -0.41 7  341 274 
 COD  HZ EP       23 6 23.87                             109   -0.73 6  348 354 
 COD  HN ES   4   23 7  0.49                             109   -1.84 0  348 354 
 COD  HN I        23 7  5.11        29.4 0.36            110            348 354 
 SJA  SZ EP   4   23 6 32.52                             106    1.63 0  401 193 
 SJC  HZ EP   4   23 6 29.72                             106   -2.15 0  410 327 
 SJC  HN ES   4   23 7 12.05                             106   -3.22 0  410 327 
 SJC  HN I        23 7 18.58        43.3 0.14            106            410 327 
                                                                                
