 2010  731 2303 36.0 L   6.813 -73.038147.0  RSN 11 0.3 2.3LRSN                1
 GAP=177        0.66       2.9     5.5  5.1 -0.1721E+01  0.4967E+01  0.7181E+00E
 Epicentro: CEPITA - SANTANDER                                                 3
 ACTION:UPD 10-12-01 15:21 OP:pat  STATUS:               ID:20100731230336 L   I
 2010-07-31-2300-38S.COL___122                                                 6
 STAT SP IPHASW D HRMM SECON CODA AMPLIT PERI AZIMU VELO AIN AR TRES W  DIS CAZ7
 BAR2 SZ IP       23 3 55.84                             168    -0.110   29 213 
 BAR2 SZ ES   1   23 4 11.79                             168     0.3 7   29 213 
 BAR2 SZ I        23 4 12.58        27.8 0.20                            29 213 
 GIR2 SZ EP   2   23 3 54.98                             166    -0.9 5   34 330 
 BRR  HZ IP     C 23 3 57.80                             149    -0.110   81 294 
 BRR  HZ I        23 3 59.34        55.9 0.11                            81 294 
 BRR  HE ES   1   23 4 14.79                             149    -0.2 7   81 294 
 RUS  HZ IP     D 23 3 59.74                             144    -0.210  102 183 
 RUS  HZ I        23 4  0.94        10.7 0.14                           102 183 
 RUS  HE ES   1   23 4 18.75                             144     0.1 7  102 183 
 GUE  SZ EP   2   23 4  1.17                             140     0.6 5  113   6 
 OCA  SZ EP       23 4  4.70                             130     0.2 9  161 349 
 OCA  SZ ES   1   23 4 26.65                             130     0.0 7  161 349 
 OCA  SZ I        23 4 31.09        23.6 0.24                           161 349 
 CHI  HZ EP   2   23 4 14.15                             117    -0.2 4  253 198 
 CHI  HN ES   2   23 4 44.47                             117     0.3 4  253 198 
 CHI  HZ I        23 4 52.04         5.7 0.48                           253 198 
 HEL  HZ EP   2   23 4 17.26                             114    -0.4 4  284 256 
 HEL  HN ES   2   23 4 49.72                             114    -0.3 4  284 256 
 HEL  HZ I        23 4 55.05        13.2 0.28                           284 256 
 GUY  SZ EP   2   23 4 20.88                             112     0.0 3  312 236 
 GUY  SN ES   2   23 4 55.85                             112    -0.1 3  312 236 
 GUY  SZ I        23 5  2.36        39.8 0.23                           312 236 
 RREF HZ IP     C 23 4 24.03                             110     0.7 7  332 231 
 RREF HE ES   2   23 5  0.70                             110     0.4 3  332 231 
 PRA  HZ EP   2   23 4 29.91                             106    -0.5 3  399 211 
 PRA  HE ES   2   23 5 12.88                             106     0.0 3  399 211 
 PRA  HZ I        23 5 17.76         6.5 0.30                           399 211 
                                                                                
