 2011  131 2031 16.7 L   6.839 -73.150137.8  RSN  7 0.3 1.9LRSN                1
 GAP=186        0.58       4.8     6.4  6.3 -0.9677E+01  0.1436E+02  0.1537E+01E
 Epicentro: LOS SANTOS - SANTANDER                                             3
 ACTION:UP  11-02-08 08:44 OP:pat  STATUS:               ID:20110131203116 L   I
 2011-01-31-2026-16S.COL___138                                                 6
 STAT SP IPHASW D HRMM SECON CODA AMPLIT PERI AZIMU VELO SNR AR TRES W  DIS CAZ7
 BTL  SZ ES   2   2031 49.24                             173    -0.4 5   16 304 
 GIR2 SZ EP       2031 35.08                             168    -0.210   27 350 
 BAR2 SZ EP   1   2031 35.92                             168     0.5 7   28 188 
 BAR2 SZ I        2031 36.55        19.4 0.11                            28 188 
 BAR2 SZ ES   1   2031 50.42                             168     0.3 7   28 188 
 RUS  HZ EP   1   2031 40.03                             141     0.1 7  105 176 
 RUS  HN ES   1   2031 57.88                             141    -0.3 7  105 176 
 RUS  HZ I        2031 59.28        14.0 0.27                           105 176 
 NOR  SZ EP   2   2031 51.98                             116    -0.2 4  237 234 
 NOR  SN ES   1   2032 20.00                             116     0.1 6  237 234 
 CHI  HZ EP   2   2031 54.48                             115     0.1 4  253 195 
 CHI  HN ES   2   2032 23.63                             115    -0.2 4  253 195 
 CHI  HZ I        2032 26.21         2.8 0.22                           253 195 
 RREF HE ES   2   2032 38.63                             109    -0.1 3  324 229 
 RREF HZ I        2032 45.14         3.9 0.21                           324 229 
                                                                                
