 2010  531 2328 41.8 L   6.698 -72.832138.0  RSN  5 0.2 1.9LRSN                1
 GAP=233        0.40       7.0    12.1  5.8 -0.7033E+02 -0.1720E+02  0.1232E+02E
 Epicentro: MOLAGAVITA - SANTANDER                                             3
 ACTION:UP  10-08-24 10:07 OP:vdl  STATUS:               ID:20100531232841 L   I
 2010-05-31-2326-25S.COL___109                                                 6
 STAT SP IPHASW D HRMM SECON CODA AMPLIT PERI AZIMU VELO SNR AR TRES W  DIS CAZ7
 BAR2 SZ EP   1   2329  1.22                             163     0.2 7   41 253 
 BAR2 SZ ES   2   2329 15.94                             163    -0.1 5   41 253 
 GIR2 SZ EP   2   2329  1.24                             156    -0.4 5   58 317 
 GIR2 SZ ES   2   2329 17.00                             156    -0.1 5   58 317 
 GUE  SZ EP   2   2329  6.48                             135    -0.1 5  126 355 
 GRA  SZ EP   2   2329  6.69                             134    -0.2 5  131   1 
 GRA  SZ ES   2   2329 26.79                             134     0.4 5  131   1 
 RREF BZ EP   2   2329 30.31                             108     0.3 3  342 235 
 RREF BE ES   2   2330  7.55                             108     0.0 3  342 235 
 RREF BZ I        2330 11.24         3.1 0.30                           342 235 
                                                                                
