 2014  131 2241 46.5 L   6.827 -73.197132.0  RSN  4 0.2 1.3LRSN                1
 GAP=129        0.42       2.4     2.4  5.8 -0.1276E+01  0.3721E+01 -0.3662E+01E
 Epicentro: ZAPATOCA - SANTANDER                                               3
 ACTION:UPD 14-03-13 10:00 OP:ep   STATUS:               ID:20140131224146 L   I
 OLDACT:UP  14-01-31 22:56 OP:cam  STATUS:               ID:20140131224000     3
 OLDACT:REG 14-01-31 22:18 OP:cam  STATUS:               ID:20140131224000     3
 2014-01-31-2240-00M.COL___288                                                 6
 STAT SP IPHASW D HRMM SECON CODA AMPLIT PERI AZIMU VELO AIN AR TRES W  DIS CAZ7
 PAM  SZ EP       2242  7.54                             148    0.2210 78.9  44 
 PAM  SN ES   1   2242 23.46                             148   -0.14 7 78.9  44 
 RUS  HZ EP   1   2242  9.00                             140   -0.15 7  104 173 
 RUS  HN ES       2242 26.83                             140   -0.0310  104 173 
 RUS  HZ I        2242 28.94         2.8 0.32            144            104 173 
 PTB  HZ EP   1   2242 11.68                             130   -0.19 7  143 257 
 PTB  HN ES       2242 31.82                             130    0.12 9  143 257 
 PTB  HZ I        2242 39.29         3.2 0.46            130            143 257 
 SML  HN ES   2   2242 49.13                             115   -0.22 4  239 336 
                                                                                
