 2014 1231 2120 42.5 L   6.720 -73.165151.7  RSN  4 0.2 1.1LRSN                1
 GAP=137        0.45       3.5     3.6  5.3  0.2094E+01 -0.6221E+01 -0.2220E+01E
 Epicentro: VILLANUEVA - SANTANDER                                             3
 ACTION:UPD 15-02-10 17:08 OP:nd   STATUS:               ID:20141231212042 L   I
 OLDACT:REG 15-01-01 06:36 OP:spq  STATUS:               ID:20141231211747     3
 2014-12-31-2117-47M.COL___280                                                 6
 STAT SP IPHASW D HRMM SECON CODA AMPLIT PERI AZIMU VELO AIN AR TRES W  DIS CAZ7
 BRR  HZ EP       2121  4.59                             152    0.1110 74.1 305 
 BRR  HN ES       2121 21.71                             152    0.1110 74.1 305 
 BRR  HZ I        2121 25.58         2.8 0.30            154           74.1 305 
 PAM  SZ EP       2121  5.66                             149   -0.2110 85.7  37 
 RUS  HZ EP   1   2121  6.41                             147    0.13 7 91.9 174 
 RUS  HN ES   1   2121 24.76                             147   -0.04 7 91.9 174 
 RUS  HZ I        2121 26.15         1.2 0.64            151           91.9 174 
 PTB  HZ EP   1   2121  9.85                             134    0.18 7  144 262 
 PTB  HN ES   1   2121 30.53                             134   -0.31 7  144 262 
 PTB  HZ I        2121 32.76         2.7 0.14            137            144 262 
                                                                                
