 2016  531 2355 27.8 L   6.824 -73.153142.6  RSN 22 0.4 2.7LRSN                1
 GAP= 70        0.93       2.8     2.6  4.4 -0.1188E+01  0.3035E+01  0.3356E+01E
 Epicentro: FRONTERA CON VENEZUELA                                             3
 ACTION:UPD 16-08-18 17:51 OP:cam  STATUS:               ID:20160531235527 L   I
 OLDACT:REG 16-06-01 03:34 OP:mh   STATUS:               ID:20160531234747     3
 2016-05-31-2347-47M.COL___313                                                 6
 STAT SP IPHASW D HRMM SECON CODA AMPLIT PERI AZIMU VELO AIN AR TRES W  DIS CAZ7
 BAR2 EZ EP       2355 47.02                             169   -0.0410 25.8 187 
 BAR2 EZ ES       2356  1.35                             169   -0.7710 25.8 187 
 BAR2 EZ I        2356  4.76        74.6 0.20            168           25.8 187 
 BRR  HZ EP       2355 48.76                             153    0.3010 69.3 297 
 BRR  HN ES       2356  5.24                             153    0.6410 69.3 297 
 BRR  HZ I        2356  9.72        63.1 0.24            150           69.3 297 
 PAM  EZ EP       2355 49.80                             151    0.2510 75.9  41 
 PAM  EN ES       2356  6.77                             151    0.2310 75.9  41 
 PAM  EZ I        2356  8.84        69.7 0.56            155           75.9  41 
 RUS  HZ EP     C 2355 51.08                             142   -0.3210  103 176 
 RUS  HN ES       2356  9.99                             142    0.1510  103 176 
 RUS  HZ I        2356 11.48        58.6 0.30            144            103 176 
 PTB  HZ EP       2355 53.54                             131   -0.91 9  148 258 
 PTB  HE ES       2356 15.49                             131    0.22 9  148 258 
 PTB  HZ I        2356 18.34        66.1 0.16            131            148 258 
 TAM  HZ EP     D 2355 55.37                             129    0.05 9  157 106 
 TAM  HN ES       2356 16.89                             129    0.07 9  157 106 
 TAM  HZ I        2356 17.55        30.6 0.36            134            157 106 
 OCA  HZ EP   2   2355 54.94                             129   -0.63 5  158 353 
 OCA  HN ES       2356 17.04                             129   -0.22 9  158 353 
 OCA  HZ I        2356 22.38       136.6 0.20            131            158 353 
 SPBC HZ EP       2355 55.95                             128   -0.22 9  165 218 
 SPBC HN ES       2356 18.28                             128   -0.05 9  165 218 
 SPBC HZ I        2356 22.78        87.6 0.10            128            165 218 
 NOR  HZ EP       2356  3.48                             118    0.08 8  236 234 
 NOR  HE ES       2356 31.20                             118   -0.01 8  236 234 
 NOR  HZ I        2356 36.21        46.0 0.30            118            236 234 
 ROSC BZ EP   4   2356  7.05                             116    1.14 0  255 211 
 ROSC BE ES   4   2356 39.16                             116    3.49 0  255 211 
 ROSC BZ I        2356 42.08        40.6 0.35            117            255 211 
 HEL  HZ EP       2356  8.57                             114    0.77 8  272 255 
 HEL  HN ES       2356 38.50                             114   -0.53 8  272 255 
 HEL  HZ I        2356 47.59        26.1 0.64            115            272 255 
 URE  HZ EP   4   2356  7.22                             113   -1.26 0  282 291 
 URE  HN ES   4   2356 38.13                             113   -2.12 0  282 291 
 URE  HZ I        2356 47.12        27.6 0.34            114            282 291 
 VIL  SZ EP       2356 11.08                             111   -0.23 7  306 191 
 VIL  SE ES       2356 45.64                             111    0.36 7  306 191 
 PTGC HZ EP   4   2356 10.37                             111   -1.42 0  311 159 
 PTGC HN ES   4   2356 43.81                             111   -2.32 0  311 159 
 PTGC HZ I        2356 46.39        13.1 0.26            112            311 159 
 CBOC HZ EP   2   2356 15.26                             109    0.71 3  334 252 
 CBOC HE ES       2356 50.84                             109   -0.21 7  334 252 
 CBOC HZ I        2357  3.06         8.6 0.42            110            334 252 
 DBB  SZ EP       2356 14.69                             109   -0.30 7  339 274 
 DBB  SZ ES   3   2356 50.74                             109   -1.10 2  339 274 
 DBB  SZ I        2356 53.83        41.6 0.48            110            339 274 
 ANIL HZ EP       2356 18.50                             108    0.90 6  359 224 
 ANIL HN ES   4   2356 57.78                             108    1.31 0  359 224 
 ANIL HZ I        2357  4.61        36.6 0.36            109            359 224 
 PRA  HZ EP       2356 20.77                             106   -0.63 6  394 209 
 PRA  HN ES       2357  3.78                             106    0.55 6  394 209 
 PRA  HZ I        2357 10.11        25.0 0.28            107            394 209 
 ORTC HZ EP       2356 21.82                             106    0.05 6  397 216 
 ORTC HE ES   4   2357  5.12                             106    1.22 0  397 216 
 ORTC HZ I        2357 11.76         6.7 0.18            107            397 216 
 PAL  HZ EP       2356 22.97                             105    0.07 6  406 239 
 PAL  HN ES       2357  6.34                             105    0.44 6  406 239 
 PAL  HZ I        2357 11.40         9.1 0.36            106            406 239 
 SJC  HZ EP   4   2356 20.92                             105   -1.98 0  407 327 
 SJC  HE ES   4   2357  2.26                             105   -3.66 0  407 327 
 SJC  HZ I        2357  5.62         9.5 0.34            106            407 327 
 CRJC HZ EP   4   2356 27.12                             103   -2.74 0  465   4 
 CRJC HE ES   4   2357 12.67                             103   -5.63 0  465   4 
 CRJC HZ I        2357 20.11         6.4 0.32            104            465   4 
                                                                                
