 2011  731 2207 21.7 L   6.759 -73.118141.3  RSN  8 0.3 2.1LRSN                1
 GAP=142        0.53       2.3     3.9  4.2 -0.3413E+01  0.3157E+01  0.4673E+00E
 Epicentro: LOS SANTOS - SANTANDER                                             3
 ACTION:UPD 12-07-25 14:04 OP:epov STATUS:               ID:20110731220721 L   I
 2011-07-31-2205-47S.COL___142                                                 6
 STAT SP IPHASW D HRMM SECON CODA AMPLIT PERI AZIMU VELO AIN AR TRES W  DIS CAZ7
 BAR2 SZ IP       22 7 40.64                             172   -0.0510 19.8 201 
 BAR2 SZ ES   1   22 7 55.28                             172   -0.25 7 19.8 201 
 BAR2 SZ I        22 7 57.04        37.0 0.18                          19.8 201 
 BRR  HZ IP     C 22 7 42.48                             150   -0.1510 76.1 300 
 BRR  HZ I        22 7 43.02        45.6 0.10                          76.1 300 
 BRR  HE ES   1   22 7 59.49                             150    0.52 7 76.1 300 
 PAM  SZ EP   1   22 7 43.55                             150    0.03 7 79.1  36 
 PAM  SN ES   1   22 8  0.61                             150    0.06 7 79.1  36 
 RUS  HZ EP   1   22 7 45.00                             144    0.36 7 95.9 178 
 RUS  HN ES   1   22 8  2.43                             144   -0.13 7 95.9 178 
 RUS  HZ I        22 8  3.93         9.6 0.25                          95.9 178 
 BRI  SZ EP   1   22 7 45.33                             140   -0.06 7  112  18 
 BRI  SZ I        22 7 47.66         9.9 0.28                           112  18 
 BRI  SZ ES   1   22 8  3.95                             140    0.06 7  112  18 
 OCA  SZ EP   1   22 7 49.64                             128   -0.47 7  165 352 
 OCA  SZ ES   1   22 8 12.41                             128    0.12 7  165 352 
 OCA  SZ I        22 8 17.26        17.1 0.16                           165 352 
 NOR  SN ES   1   22 8 24.49                             118   -0.31 6  235 236 
 PRA  HZ EP   1   22 8 15.27                             106    0.51 4  390 210 
 PRA  HN ES   1   22 8 56.45                             106    0.28 4  390 210 
                                                                                
