 2010 1231 2112 58.7 L   6.778 -73.133141.1  RSN  4 0.2 1.6LRSN                1
 GAP=160        0.50       4.6    17.2  8.2 -0.2971E+02  0.3645E+02 -0.2251E+02E
 Epicentro: LOS SANTOS - SANTANDER                                             3
 ACTION:UP  11-01-14 15:28 OP:pat  STATUS:               ID:20101231211258 L   I
 2010-12-31-2100-00M.COL___137                                                 6
 STAT SP IPHASW D HRMM SECON CODA AMPLIT PERI AZIMU VELO SNR AR TRES W  DIS CAZ7
 BAR2 SZ EP   2   2113 17.37                             171    -0.3 5   21 195 
 BAR2 SZ ES   2   2113 32.86                             171     0.3 5   21 195 
 BAR2 SZ I        2113 33.87         8.7 0.32                            21 195 
 RUS  HZ EP   2   2113 21.75                             143     0.0 5   98 177 
 RUS  HN ES   2   2113 39.71                             143    -0.1 5   98 177 
 RUS  HZ I        2113 41.60         5.5 0.42                            98 177 
 GRA  SZ IP       2113 23.85                             135     0.210  128  17 
 GRA  SZ ES   2   2113 42.78                             135    -0.4 5  128  17 
 GRA  SZ I        2113 44.07         8.0 0.08                           128  17 
 OCA  SZ EP       2113 26.84                             128     0.0 9  163 353 
 OCA  SZ I        2113 50.05         6.1 0.22                           163 353 
                                                                                
