 2010 1031 2345 46.1 L   6.797 -73.076147.3  RSN 18 0.5 2.9LRSN                1
 GAP=106        0.86       3.0     5.1  6.4 -0.4561E+01  0.3837E+01  0.5719E+01E
 Epicentro: LOS SANTOS - SANTANDER                                             3
 ACTION:UP  11-02-18 11:13 OP:tino STATUS:               ID:20101031234546 L   I
 2010-10-31-2344-12S.COL___125                                                 6
 STAT SP IPHASW D HRMM SECON CODA AMPLIT PERI AZIMU VELO SNR AR TRES W  DIS CAZ7
 BRR  HZ IP     C 2346  7.62                             150    -0.210   78 296 
 BRR  HN ES   1   2346 24.88                             150     0.1 7   78 296 
 BRR  HZ I        2346 28.55       157.8 0.33                            78 296 
 RUS  HZ IP     C 2346  9.71                             144    -0.310  100 180 
 RUS  HN ES   1   2346 28.42                             144    -0.2 7  100 180 
 RUS  HZ I        2346 30.20       135.1 0.37                           100 180 
 GUE  SZ EP   1   2346 10.86                             140     0.0 7  116   8 
 GRA  SZ EP   1   2346 11.62                             138     0.2 7  124  14 
 GRA  SZ ES   1   2346 31.45                             138     0.4 7  124  14 
 GRA  SZ I        2346 37.47        47.2 1.04                           124  14 
 OCA  SZ EP   1   2346 14.39                             130    -0.3 7  162 350 
 OCA  SZ ES   1   2346 36.98                             130     0.0 7  162 350 
 OCA  SZ I        2346 42.84        88.6 0.29                           162 350 
 YOP  SZ EP   1   2346 16.40                             127     0.5 7  175 156 
 NOR  SZ EP   2   2346 21.83                             118    -0.8 4  241 236 
 ROSC BZ EP   1   2346 25.58                             117     0.8 6  256 213 
 ROSC BN ES   1   2346 55.58                             117     0.7 6  256 213 
 ROSC BZ I        2347  1.51        51.4 0.44                           256 213 
 CVER SZ EP   1   2346 27.22                             115     0.4 6  275 204 
 CVER SZ I        2347  6.10        61.4 0.74                           275 204 
 HEL  HZ EP   1   2346 27.30                             114     0.1 6  279 256 
 HEL  HN ES   2   2346 58.52                             114    -0.8 4  279 256 
 HEL  HZ I        2347  4.82        45.9 0.16                           279 256 
 VIL  SZ EP   1   2346 29.33                             112    -0.2 5  303 191 
 VIL  SN ES   1   2347  2.76                             112    -0.6 5  303 191 
 VIL  SZ I        2347  7.34        30.0 0.32                           303 191 
 GUY  SZ EP   1   2346 30.87                             112     0.4 5  307 236 
 GUY  SZ I        2347 13.28        69.2 0.21                           307 236 
 RREF HZ EP   1   2346 32.96                             111     0.0 5  327 230 
 RREF HN ES   2   2347  9.99                             111     0.5 3  327 230 
 RREF HZ I        2347 17.89        60.3 0.11                           327 230 
 DBB  SZ EP       2346 34.23                             109    -0.3 6  347 274 
 TOL  SZ EP   1   2346 35.77                             109     0.7 5  349 226 
 SDV  BZ EP   1   2346 35.34                             109    -0.2 5  355  49 
 SDV  BZ I        2347 17.46        11.5 0.62                           355  49 
 ANIL HZ EP   1   2346 37.15                             108     0.6 5  362 225 
 ANIL HN ES   1   2347 16.52                             108     0.6 5  362 225 
 ANIL HZ I        2347 23.40        75.6 0.35                           362 225 
 PRA  HZ EP   1   2346 39.17                             107    -0.9 4  396 211 
 PRA  HN ES   1   2347 21.27                             107    -0.9 4  396 211 
                                                                                
