 2015  331 2220 35.2 L   5.763 -73.919101.0  RSN 10 0.6 1.9LRSN                1
 GAP=153        1.59       5.8     4.2  9.3 -0.8651E+01  0.7128E+01 -0.1378E+02E
 Epicentro: ALBANIA - SANTANDER                                                3
 ACTION:UPD 15-04-30 16:31 OP:nd   STATUS:               ID:20150331222035 L   I
 OLDACT:REG 15-04-01 02:55 OP:stll STATUS:               ID:20150331221749     3
 2015-03-31-2217-49M.COL___277                                                 6
 STAT SP IPHASW D HRMM SECON CODA AMPLIT PERI AZIMU VELO AIN AR TRES W  DIS CAZ7
 SPBC HZ EP       2220 49.45                             167    0.2610 20.9 234 
 SPBC HN ES       2221  0.59                             167    0.4810 20.9 234 
 SPBC HZ I        2221  2.14        98.2 0.32            168           20.9 234 
 RUS  HZ EP       2220 54.36                             134    0.1010 93.7  81 
 RUS  HN ES       2221  7.91                             134   -1.2210 93.7  81 
 PTB  HZ EP       2220 53.85                             130   -0.7410  104 325 
 PTB  HE ES       2221  9.20                             130   -0.5210  104 325 
 PTB  HZ I        2221 11.66         8.4 0.36            125            104 325 
 NOR  HZ EP       2220 54.89                             129   -0.0410  108 258 
 NOR  HN ES       2221 10.13                             129   -0.2010  108 258 
 NOR  HZ I        2221 12.75        25.6 0.14            125            108 258 
 BAR2 EZ EP       2220 56.93                             125    0.2810  123  42 
 BAR2 EZ ES       2221 13.77                             125    0.3810  123  42 
 BAR2 EZ I        2221 15.32        15.3 0.18            119            123  42 
 BRR  HZ IP     C 2220 59.33                             119    0.12 9  150   9 
 BRR  HZ I        2220 59.46        20.7 0.38            114            150   9 
 BRR  HN ES       2221 19.36                             119    1.42 9  150   9 
 GUY2CHZ EP       2221  2.21                             115    0.15 9  171 250 
 GUY2CHN ES       2221 24.07                             115    1.06 9  171 250 
 GUY2CHZ I        2221 31.04         6.2 0.44                           171 250 
 HEL  HZ EP       2221  3.56                             113    0.15 9  184 285 
 HEL  HN ES       2221 24.33                             113   -1.09 9  184 285 
 HEL  HZ I        2221 29.51         5.1 0.38            110            184 285 
 ZAR  HZ EP       2221  6.64                             109   -0.09 8  218 332 
 ZAR  HN ES       2221 31.21                             109   -0.13 8  218 332 
 ZAR  HZ I        2221 35.76         7.5 0.26            106            218 332 
 PAM  SZ EP       2221  7.40                             109   -0.27 8  220  38 
 PAM  SZ I        2221 35.79         3.5 0.28            106            220  38 
                                                                                
