 2013  331 2050 49.8 L   6.777 -73.149142.4  RSN  8 0.4 2.0LRSN                1
 GAP=137        0.92       4.2     3.6  7.3 -0.1250E+01  0.8079E+01  0.2367E+01E
 Epicentro: LOS SANTOS - SANTANDER                                             3
 ACTION:UPD 13-04-09 14:06 OP:ep   STATUS:               ID:20130331205049 L   I
 2013-03-31-2050-00M.COL___245                                                 6
 STAT SP IPHASW D HRMM SECON CODA AMPLIT PERI AZIMU VELO AIN AR TRES W  DIS CAZ7
 BAR2 SZ EP       2051  8.99                             171    0.0310 20.8 190 
 BAR2 SZ I        2051 25.46        13.8 0.26            169           20.8 190 
 BRR  HZ EP       2051 10.83                             152    0.2110 72.1 300 
 BRR  HN ES       2051 27.29                             152    0.4110 72.1 300 
 BRR  HN I        2051 28.50        40.4 0.16            150           72.1 300 
 PAM  SZ EP       2051 11.79                             149    0.0110 79.6  39 
 PAM  SN ES       2051 28.53                             149   -0.4010 79.6  39 
 PAM  SN I        2051 29.81         9.0 0.52            150           79.6  39 
 RUS  HZ EP       2051 12.99                             144   -0.0310 98.1 176 
 RUS  HN ES       2051 31.30                             144    0.1510 98.1 176 
 RUS  HN I        2051 33.40         6.8 0.38            141           98.1 176 
 PTB  HZ EP       2051 15.83                             131   -0.57 9  147 260 
 PTB  HN ES       2051 36.78                             131   -0.38 9  147 260 
 PTB  HN I        2051 41.97        26.0 0.28            129            147 260 
 ZAR  HZ EP       2051 22.73                             121    0.65 9  205 293 
 ZAR  HN ES       2051 47.29                             121    0.03 9  205 293 
 ZAR  HN I        2051 54.40        13.9 0.32            120            205 293 
 NOR  HE ES       2051 53.17                             118    0.47 8  233 235 
 NOR  HE I        2051 57.00         7.4 0.20            116            233 235 
 HEL  HE ES       2052  0.25                             114   -0.62 8  271 256 
 HEL  HE I        2052  7.91         4.4 0.30            113            271 256 
                                                                                
