 2017  131 2323 37.3 L   6.557 -73.596 12.5  RSN  7 0.4 1.2LRSN                1
 GAP= 90        0.99       2.2     2.1  5.5  0.6674E+00  0.5773E+01  0.2101E+01E
 Epicentro: EL CARMEN - SANTANDER                                              3
 ACTION:UPD 17-05-22 16:05 OP:jn   STATUS:               ID:20170131232337 L   I
 OLDACT:REG 17-02-01 03:18 OP:dani STATUS:               ID:20170131231317     3
 2017-01-31-2318-00M.COL___325                                                 6
 STAT SP IPHASW D HRMM SECON CODA AMPLIT PERI AZIMU VELO AIN AR TRES W  DIS CAZ7
 BAR2 EZ EP       2323 45.51                             102    0.2310 45.9  85 
 BAR2 EZ ES       2323 51.37                             102   -0.1010 45.9  85 
 BAR2 EZ I        2323 53.46        15.7 0.30            104           45.9  85 
 BRR  HZ EP       2323 47.35                              98   -0.1110 62.2 348 
 BRR  HN ES       2323 55.72                              98    0.3710 62.2 348 
 BRR  HZ I        2323 57.03         9.2 0.12            100           62.2 348 
 RUS  HZ EP     D 2323 52.73                              96    0.1510 92.8 142 
 RUS  HN ES       2324  4.09                              96   -0.3710 92.8 142 
 RUS  HZ I        2324  5.22         4.8 0.32             97           92.8 142 
 PTB  HZ EP       2323 52.37                              95   -0.0610 95.1 269 
 PTB  HN ES       2324  3.96                              95   -0.2410 95.1 269 
 PTB  HZ I        2324  5.92        15.3 0.14             97           95.1 269 
 PAM  EZ EP       2323 59.09                              94    0.6610  132  49 
 PAM  EN ES       2324 14.37                              94   -0.5010  132  49 
 PAM  EZ I        2324 19.21         2.6 0.28             95            132  49 
 ZAR  HE ES       2324 23.46                              56   -0.59 9  174 307 
 NOR  HN ES       2324 25.84                              56    0.57 9  179 232 
                                                                                
