 2016  331 2140 12.4 L   6.772 -73.127139.0  RSN  5 0.5 1.7LRSN                1
 GAP=140        1.13       5.8     5.3  8.8 -0.8183E+00  0.1821E+02 -0.8200E+01E
 Epicentro: LOS SANTOS - SANTANDER                                             3
 ACTION:UPD 16-05-13 21:29 OP:cam  STATUS:               ID:20160331214012 L   I
 OLDACT:REG 16-04-01 03:58 OP:ar   STATUS:               ID:20160331212742     3
 2016-03-31-2127-42M.COL___314                                                 6
 STAT SP IPHASW D HRMM SECON CODA AMPLIT PERI AZIMU VELO AIN AR TRES W  DIS CAZ7
 BAR2 EZ EP       2140 30.83                             171   -0.3710 20.8 197 
 BAR2 EZ ES       2140 45.71                             171   -0.1410 20.8 197 
 PAM  EZ EP       2140 33.99                             149   -0.0210 78.5  37 
 PAM  EN ES       2140 50.92                             149    0.0810 78.5  37 
 PAM  EZ I        2140 53.31        10.5 0.48            150           78.5  37 
 RUS  HZ EP       2140 35.45                             143    0.1610 97.4 177 
 RUS  HN ES       2140 53.41                             143    0.2810 97.4 177 
 RUS  HZ I        2140 54.25         6.4 0.40            146           97.4 177 
 PTB  HZ EP       2140 38.05                             130   -0.94 9  149 260 
 PTB  HN ES       2140 59.93                             130    0.22 9  149 260 
 PTB  HZ I        2141  0.57         9.1 0.16            131            149 260 
 ZAR  HZ EP       2140 45.75                             120    0.99 8  207 293 
 ZAR  HN ES       2141  9.87                             120   -0.11 8  207 293 
 ZAR  HZ I        2141 14.07         6.1 0.32            121            207 293 
                                                                                
