 2016  331 2015 54.6 L   7.311 -73.269124.0  RSN  7 0.4 1.9LRSN                1
 GAP=145        0.89       4.7     3.7  7.7  0.2479E+01  0.1119E+02 -0.2510E+00E
 Epicentro: RIONEGRO - SANTANDER                                               3
 ACTION:UPD 16-05-13 21:29 OP:cam  STATUS:               ID:20160331201554 L   I
 OLDACT:REG 16-04-01 03:40 OP:ar   STATUS:               ID:20160331200744     3
 2016-03-31-2007-44M.COL___314                                                 6
 STAT SP IPHASW D HRMM SECON CODA AMPLIT PERI AZIMU VELO AIN AR TRES W  DIS CAZ7
 PAM  EZ EP       2016 13.41                             152   -0.2010 63.0  87 
 PAM  EN ES       2016 28.42                             152   -0.0510 63.0  87 
 PAM  EZ I        2016 30.12        15.4 0.56            156           63.0  87 
 BAR2 EZ EP       2016 14.44                             145    0.0910 80.1 173 
 BAR2 EZ ES       2016 29.85                             145    0.0710 80.1 173 
 PTB  HZ EP       2016 19.90                             125   -0.82 9  156 237 
 PTB  HN ES       2016 40.79                             125   -0.33 9  156 237 
 PTB  HZ I        2016 42.71         7.8 0.18            126            156 237 
 RUS  HZ EP       2016 21.96                             125    0.44 9  158 173 
 RUS  HE ES       2016 42.65                             125    0.10 9  158 173 
 ZAR  HZ EP       2016 23.04                             121    0.28 9  177 277 
 ZAR  HN ES       2016 45.24                             121    0.49 9  177 277 
 ZAR  HZ I        2016 48.47        16.2 0.30            122            177 277 
 URE  HN ES   4   2016 57.40                             111   -2.58 0  255 281 
 URE  HZ I        2017  5.69        13.7 0.20            113            255 281 
 MON  HZ EP   9   2016 34.68                             107   -3.00 0  310 302 
 MON  HN ES       2017  8.01                                   -0.30 7  310 302 
 MON  HZ I        2017  9.99         1.7 0.18            108            310 302 
                                                                                
