 2016  731 2113 21.0 L   6.806 -73.166143.8  RSN 17 0.4 2.7LRSN                1
 GAP=134        1.11       3.5     4.0  5.4 -0.3227E+01  0.6665E+01  0.2253E+01E
 Epicentro: LOS SANTOS - SANTANDER                                             3
 ACTION:UPD 17-03-29 16:57 OP:lp   STATUS:               ID:20160731211321 L   I
 OLDACT:REG 16-08-01 02:38 OP:lv   STATUS:               ID:20160731210759     3
 2016-07-31-2107-59S.COL___340                                                 6
 STAT SP IPHASW D HRMM SECON CODA AMPLIT PERI AZIMU VELO AIN AR TRES W  DIS CAZ7
 BAR2 EZ EP       2113 40.51                             170    0.0910 23.7 184 
 BAR2 EZ ES       2113 55.26                             170   -0.2910 23.7 184 
 BAR2 EZ I        2113 56.66       114.0 0.22            172           23.7 184 
 BRR  HZ IP     D 2113 42.25                             153    0.4210 69.0 299 
 BRR  HN ES       2113 58.98                             153    0.9210 69.0 299 
 BRR  HZ I        2114  3.39        62.8 0.14            147           69.0 299 
 PAM  EZ EP       2113 43.22                             150    0.1410 78.3  41 
 PAM  EN ES       2114  0.17                             150   -0.1110 78.3  41 
 PAM  EZ I        2114  2.57       130.7 0.50            143           78.3  41 
 RUS  HZ EP       2113 44.38                             143   -0.2510  101 175 
 RUS  HE ES       2114  3.04                             143   -0.0210  101 175 
 RUS  HZ I        2114  4.29        75.2 0.28            140            101 175 
 PTB  HZ EP       2113 47.25                             132   -0.39 9  146 258 
 PTB  HN ES       2114  8.09                             132   -0.32 9  146 258 
 PTB  HZ I        2114 11.19        38.2 0.14            127            146 258 
 SPBC HZ EP       2113 49.33                             129    0.05 9  162 218 
 SPBC HN ES       2114 10.77                             129   -0.56 9  162 218 
 SPBC HZ I        2114 14.16        80.4 0.23            124            162 218 
 ZAR  HZ EP       2113 52.87                             122   -0.23 9  202 292 
 ZAR  HN ES       2114 18.24                             122    0.12 9  202 292 
 ZAR  HZ I        2114 20.81        26.0 0.23            116            202 292 
 NOR  HZ EP       2113 56.35                             118   -0.13 8  233 234 
 NOR  HE ES       2114 24.37                             118    0.23 8  233 234 
 NOR  HZ I        2114 30.05        50.0 0.16            113            233 234 
 ROSC BZ EP   4   2114  0.69                             116    1.72 0  252 211 
 ROSC BN ES       2114 28.80                             116    0.23 8  252 211 
 ROSC BZ I        2114 34.53        36.7 0.36            112            252 211 
 HEL  HZ EP       2114  1.64                             115    0.73 8  270 256 
 HEL  HE ES       2114 31.22                             115   -0.81 8  270 256 
 HEL  HZ I        2114 39.23        24.8 0.36            110            270 256 
 GUY2CHZ EP       2114  4.99                             112    0.62 7  300 234 
 GUY2CHE ES       2114 37.98                             112   -0.22 7  300 234 
 GUY2CHZ I        2114 46.57        27.6 0.30                           300 234 
 PTGC HZ IP   4 C 2114  3.61                             111   -1.34 0  310 158 
 PTGC HE ES   4   2114 36.95                             111   -2.26 0  310 158 
 PTGC HZ I        2114 42.22        37.5 0.46            107            310 158 
 LL6C HZ EP       2114  5.70                             110   -0.85 7  324 358 
 LL6C HZ I        2114 47.96        12.6 0.46            105            324 358 
 ELA  HZ EP   4   2114  8.65                             110    1.01 0  328 229 
 ELA  HN ES   4   2114 46.49                             110    2.48 0  328 229 
 ELA  HZ I        2114 59.88        18.5 0.50            106            328 229 
 ANIL HZ EP       2114 10.77                             108    0.15 6  356 224 
 ANIL HE ES       2114 49.70                             108    0.39 6  356 224 
 ANIL HZ I        2114 54.85        58.7 0.32            104            356 224 
 PRA  HZ EP       2114 14.48                             106    0.07 6  392 209 
 PRA  HN ES       2114 56.06                             106    0.00 6  392 209 
 PRA  HZ I        2115  0.40        15.6 0.24            102            392 209 
 SJC  HZ EP   9   2114 14.55                             105   -1.76 0  407 327 
 SJC  HE ES       2114 55.70                                   -1.98 6  407 327 
 SJC  HZ I        2115  0.44         7.8 0.64            101            407 327 
                                                                                
