 2010  831 2031  5.4 L   6.774 -73.053148.2  RSN 10 0.4 2.5LRSN                1
 GAP=169        0.82       3.9     6.8  6.5 -0.7976E+01  0.1052E+02 -0.7451E+00E
 Epicentro: LOS SANTOS - SANTANDER                                             3
 ACTION:UP  10-09-07 10:59 OP:vdl  STATUS:               ID:20100831203105 L   I
 2010-08-31-2027-44S.COL___120                                                 6
 STAT SP IPHASW D HRMM SECON CODA AMPLIT PERI AZIMU VELO SNR AR TRES W  DIS CAZ7
 BAR2 SZ EP       2031 25.43                             169     0.110   25 215 
 BAR2 SZ I        2031 25.78        71.0 0.64                            25 215 
 BAR2 SZ ES   1   2031 40.88                             169     0.0 7   25 215 
 BRR  HZ EP       2031 27.47                             149     0.110   82 297 
 BRR  HZ I        2031 27.61        78.7 0.11                            82 297 
 BRR  HN ES   2   2031 44.48                             149    -0.1 5   82 297 
 RUS  HZ EP       2031 29.23                             145     0.110   98 182 
 RUS  HZ I        2031 30.15        16.7 0.28                            98 182 
 RUS  HN ES   2   2031 47.37                             145    -0.3 5   98 182 
 GUE  SZ EP       2031 30.43                             140     0.010  118   7 
 GRA  SZ EP       2031 31.16                             138     0.310  126  13 
 GRA  SZ ES   2   2031 50.24                             138    -0.5 5  126  13 
 GRA  SZ I        2031 51.98        39.6 0.33                           126  13 
 OCA  SZ EP       2031 33.93                             129    -0.3 9  165 350 
 OCA  SZ ES   2   2031 56.49                             129    -0.3 5  165 350 
 OCA  SZ I        2032  0.68        44.5 0.43                           165 350 
 CHI  HZ EP   1   2031 43.68                             117     0.5 6  249 198 
 CHI  HZ I        2032 16.71         9.8 0.17                           249 198 
 HEL  HZ EP       2031 47.19                             114     0.5 7  281 257 
 HEL  HN ES   2   2032 19.71                             114     0.7 4  281 257 
 HEL  HZ I        2032 24.68        23.4 0.37                           281 257 
 DBB  SZ EP   1   2031 53.32                             109    -0.8 5  350 275 
 PRA  HZ EP       2031 58.44                                    -0.8 6  395 211 
 PRA  HE ES   2   2032 40.58                                    -0.8 3  395 211 
 PRA  HZ I        2032 44.56        10.5 0.67                           395 211 
                                                                                
