 2014 1231 2041 40.4 L   6.781 -73.134145.2  RSN 12 0.4 2.1LRSN                1
 GAP=139        0.92       2.9     3.9  6.1 -0.2180E+01  0.5230E+01 -0.2764E+01E
 Epicentro: LOS SANTOS - SANTANDER                                             3
 ACTION:UPD 15-02-10 17:08 OP:nd   STATUS:               ID:20141231204140 L   I
 OLDACT:REG 15-01-01 06:34 OP:spq  STATUS:               ID:20141231203749     3
 2014-12-31-2037-49M.COL___280                                                 6
 STAT SP IPHASW D HRMM SECON CODA AMPLIT PERI AZIMU VELO AIN AR TRES W  DIS CAZ7
 BAR2 EZ ES   1   2042 14.68                             171   -0.45 7 21.6 194 
 BAR2 EZ I        2042 15.67        31.4 0.30            169           21.6 194 
 BRR  HZ EP       2042  2.10                             152    0.5210 73.4 299 
 BRR  HN ES       2042 18.74                             152    0.6110 73.4 299 
 BRR  HZ I        2042 19.74        21.0 0.21            149           73.4 299 
 PAM  SZ EP       2042  3.04                             151    0.4710 78.2  38 
 PAM  SE ES   1   2042 19.87                             151   -0.02 7 78.2  38 
 PAM  SZ I        2042 22.35        19.3 0.52            154           78.2  38 
 RUS  HZ EP       2042  3.85                             144   -0.0610 98.4 177 
 RUS  HE ES       2042 22.18                             144   -0.0910 98.4 177 
 RUS  HZ I        2042 23.07         7.2 0.28            145           98.4 177 
 PTB  HZ EP       2042  6.91                             132   -0.46 9  149 260 
 PTB  HE ES   1   2042 27.61                             132   -0.83 7  149 260 
 PTB  HZ I        2042 29.97        13.9 0.20            131            149 260 
 SPBC HZ EP   1   2042  8.63                             129   -0.12 7  162 220 
 SPBC HE ES       2042 30.82                             129   -0.07 9  162 220 
 SPBC HZ I        2042 38.98        10.9 0.24            129            162 220 
 OCA  HZ EP       2042  8.62                             129   -0.22 9  163 353 
 OCA  HN ES       2042 30.48                             129   -0.58 9  163 353 
 OCA  HZ I        2042 33.79        22.2 0.44            130            163 353 
 ZAR  HZ EP   1   2042 13.14                             122    0.16 6  206 293 
 ZAR  HN ES       2042 38.93                             122    0.50 8  206 293 
 ZAR  HZ I        2042 45.15        13.9 0.32            122            206 293 
 NOR  HN ES       2042 44.15                             118    0.27 8  235 235 
 NOR  HZ I        2042 47.43         6.3 0.26            118            235 235 
 SML  HZ EP   1   2042 17.02                             117   -0.21 6  246 335 
 SML  HE ES   1   2042 45.80                             117   -0.18 6  246 335 
 SML  HZ I        2042 48.59        20.6 0.10            118            246 335 
 HEL  HE ES   1   2042 51.79                             115   -0.26 6  273 256 
 HEL  HZ I        2042 59.70         6.0 0.26            115            273 256 
 MON  HZ EP   4   2042 28.10                             108   -1.52 0  356 309 
 MON  HN ES   4   2043  6.94                             108   -1.09 0  356 309 
 MON  HZ I        2043  8.98         2.5 0.20            109            356 309 
                                                                                
