 2015 1231 2202 42.5 L   6.699 -73.200151.3  RSN  5 0.3 1.4LRSN                1
 GAP=222        0.75       7.5     8.4  5.8  0.5057E+02  0.1622E+02  0.6709E+01E
 Epicentro: VILLANUEVA - SANTANDER                                             3
 ACTION:UPD 16-02-04 15:09 OP:cam  STATUS:               ID:20151231220242 L   I
 OLDACT:REG 16-01-01 02:21 OP:cara STATUS:               ID:20151231215748     3
 2015-12-31-2157-48M.COL___328                                                 6
 STAT SP IPHASW D HRMM SECON CODA AMPLIT PERI AZIMU VELO AIN AR TRES W  DIS CAZ7
 BAR2 EZ IP       22 3  2.20                             175   -0.4110 11.9 171 
 BAR2 EZ ES       22 3 18.57                             175    0.2610 11.9 171 
 BAR2 EZ I        22 3 19.80         7.2 0.10            178           11.9 171 
 BRR  HZ EP       22 3  4.12                             153   -0.1810 72.4 309 
 BRR  HZ ES       22 3 21.34                             153    0.0210 72.4 309 
 BRR  HZ I        22 3 23.98         3.8 0.36            152           72.4 309 
 RUS  HZ EP       22 3  6.23                             148    0.1610 90.1 172 
 RUS  HE ES       22 3 24.42                             148   -0.0510 90.1 172 
 RUS  HZ I        22 3 24.69         2.5 0.48            153           90.1 172 
 PTB  HZ EP       22 3  9.10                             135   -0.13 9  140 263 
 PTB  HE ES   4   22 3 27.15                             135   -2.95 0  140 263 
 PTB  HZ I        22 3 27.83         2.4 0.16            137            140 263 
 ZAR  HZ EP       22 3 15.87                             124    0.67 9  203 296 
 ZAR  HN ES       22 3 40.49                             124   -0.23 9  203 296 
 ZAR  HZ I        22 3 46.55         3.1 0.40            124            203 296 
                                                                                
