 2015 1231 2134 45.5 L   6.867 -73.351117.3  RSN  7 0.3 1.5LRSN                1
 GAP=147        0.74       2.6     3.4  5.2  0.2590E+01  0.3840E+01 -0.1856E+01E
 Epicentro: SAN VICENTE DE CHUCURI - SANTANDER                                 3
 ACTION:UPD 16-02-04 15:09 OP:cam  STATUS:               ID:20151231213445 L   I
 OLDACT:REG 16-01-01 02:19 OP:cara STATUS:               ID:20151231212747     3
 2015-12-31-2127-47M.COL___328                                                 6
 STAT SP IPHASW D HRMM SECON CODA AMPLIT PERI AZIMU VELO AIN AR TRES W  DIS CAZ7
 BAR2 EZ IP     D 2135  2.06                             162   -0.0110 35.7 148 
 BAR2 EZ ES       2135 14.85                             162   -0.1710 35.7 148 
 BAR2 EZ I        2135 16.30        17.4 0.32            165           35.7 148 
 BRR  HZ IP       2135  2.51                             156    0.2710 47.9 304 
 BRR  HE ES       2135 15.69                             156    0.3610 47.9 304 
 BRR  HZ I        2135 17.16         6.8 0.14            154           47.9 304 
 RUS  HZ EP       2135  7.70                             134    0.2010  112 165 
 RUS  HN ES       2135 24.67                             134   -0.0110  112 165 
 RUS  HZ I        2135 25.58         2.6 0.28            136            112 165 
 PTB  HZ EP       2135  7.96                             129   -0.3210  127 254 
 PTB  HE ES       2135 25.61                             129   -0.4710  127 254 
 PTB  HZ I        2135 29.05         4.1 0.30            129            127 254 
 OCA  HE ES       2135 30.43                             124   -0.23 9  152   1 
 ZAR  HZ EP       2135 13.92                             119    0.29 9  180 293 
 ZAR  HN ES       2135 35.97                             119    0.36 9  180 293 
 ZAR  HZ I        2135 40.43         4.3 0.38            119            180 293 
 SML  HN ES       2135 44.66                             112   -0.32 8  228 340 
 SML  HZ I        2135 51.15         4.4 0.10            113            228 340 
                                                                                
