 2010 1231 2027 58.3 L   6.814 -73.191141.4  RSN 11 0.3 2.3LRSN                1
 GAP=132        0.42       2.1     3.3  4.3 -0.2059E+01  0.6683E+01 -0.7174E+00E
 Epicentro: ZAPATOCA - SANTANDER                                               3
 ACTION:UP  11-01-14 15:28 OP:pat  STATUS:               ID:20101231202758 L   I
 2010-12-31-2020-00M.COL___137                                                 6
 STAT SP IPHASW D HRMM SECON CODA AMPLIT PERI AZIMU VELO SNR AR TRES W  DIS CAZ7
 BAR2 SZ EP   2   2028 17.16                             170    -0.2 5   25 178 
 BAR2 SZ ES   2   2028 32.42                             170     0.1 5   25 178 
 BAR2 SZ I        2028 35.88        63.6 0.20                            25 178 
 GIR2 SZ EP   2   2028 17.54                             168     0.2 5   29 359 
 RUS  HZ EP   1   2028 21.31                             142    -0.4 8  103 173 
 RUS  HE ES   1   2028 40.06                             142     0.0 8  103 173 
 RUS  HZ I        2028 41.19        24.2 0.38                           103 173 
 GRA  SZ EP       2028 23.12                             136     0.010  126  20 
 GRA  SZ ES   2   2028 42.68                             136     0.2 5  126  20 
 GRA  SZ I        2028 44.02        36.7 0.53                           126  20 
 YOP  SZ EP   2   2028 28.50                             125     0.1 5  183 152 
 YOP  SE ES   2   2028 52.08                             125     0.2 5  183 152 
 YOP  SZ I        2028 54.17        10.9 0.43                           183 152 
 NOR  SZ EP   1   2028 33.31                             118    -0.1 6  232 234 
 NOR  SN ES   2   2029  1.26                             118     0.4 4  232 234 
 CHI  HZ EP       2028 35.63                             116    -0.1 8  249 194 
 CHI  HE ES   2   2029  4.79                             116    -0.2 4  249 194 
 CHI  HZ I        2029 14.78         8.4 0.42                           249 194 
 GUY  SZ EP   2   2028 41.95                             112     0.6 4  298 234 
 GUY  SE ES   2   2029 14.72                             112    -0.2 4  298 234 
 GUY  SZ I        2029 23.92        21.3 0.29                           298 234 
 DBB  SZ EP   2   2028 45.00                             109     0.0 3  334 274 
 DBB  SZ ES   2   2029 20.96                             109    -0.4 3  334 274 
 TOL  SZ EP       2028 46.30                             109     0.2 7  341 224 
 PRA  HZ EP   2   2028 51.52                             106     0.0 3  391 209 
 PRA  HE ES   2   2029 33.43                             106     0.4 3  391 209 
                                                                                
