 2016  331 2311 47.5 L   6.766 -73.146139.8  RSN  7 0.3 1.7LRSN                1
 GAP=105        0.70       2.8     2.8  4.5  0.1395E+00  0.2408E+01  0.9651E+00E
 Epicentro: LOS SANTOS - SANTANDER                                             3
 ACTION:UPD 16-05-13 21:29 OP:cam  STATUS:               ID:20160331231147 L   I
 OLDACT:REG 16-04-01 04:36 OP:ar   STATUS:               ID:20160331230743     3
 2016-03-31-2307-43M.COL___314                                                 6
 STAT SP IPHASW D HRMM SECON CODA AMPLIT PERI AZIMU VELO AIN AR TRES W  DIS CAZ7
 BAR2 EZ EP       2312  6.46                             172    0.1110 19.7 192 
 BAR2 EZ ES       2312 21.34                             172    0.2910 19.7 192 
 BAR2 EZ I        2312 22.26         7.4 0.30            170           19.7 192 
 PAM  EZ EP       2312  9.31                             149    0.0410 80.3  38 
 PAM  EE ES       2312 26.10                             149   -0.1510 80.3  38 
 PAM  EZ I        2312 28.47        10.7 0.50            152           80.3  38 
 RUS  HZ EP       2312 10.44                             144    0.0410 96.9 176 
 RUS  HN ES       2312 27.92                             144   -0.3410 96.9 176 
 RUS  HZ I        2312 29.75         6.2 0.24            144           96.9 176 
 PTB  HZ EP       2312 13.31                             131   -0.62 9  147 260 
 PTB  HN ES       2312 34.43                             131   -0.11 9  147 260 
 PTB  HZ I        2312 37.14         7.5 0.28            130            147 260 
 TAM  HZ EP       2312 14.78                             129    0.15 9  154 104 
 ZAR  HZ EP       2312 19.60                             121   -0.12 8  205 293 
 ZAR  HE ES       2312 45.27                             121    0.43 8  205 293 
 ZAR  HZ I        2312 51.35         7.4 0.46            121            205 293 
 CHI  HZ EP       2312 24.76                             116    0.27 8  245 195 
 CHI  HN ES       2312 53.55                             116    0.22 8  245 195 
 CHI  HZ I        2313  1.90         2.9 0.56            116            245 195 
                                                                                
