 2010  131 2057 47.3 L   6.859 -73.276140.1  RSN  5 0.4 1.6LRSN                1
 GAP=167        0.71       4.1    26.0  9.5  0.8852E+01  0.1544E+03  0.7562E+01E
 Epicentro: ZAPATOCA - SANTANDER                                               3
 ACTION:UP  10-08-24 09:46 OP:vdl  STATUS:               ID:20100131205747 L   I
 2010-01-31-2054-38S.COL___094                                                 6
 STAT SP IPHASW D HRMM SECON CODA AMPLIT PERI AZIMU VELO SNR AR TRES W  DIS CAZ7
 GIR2 SZ EP       2058  6.57                             169     0.410   26  21 
 GIR2 SZ ES   2   2058 21.42                             169     0.5 5   26  21 
 BAR2 SZ ES   2   2058 20.89                             167    -0.5 5   31 161 
 RUS  BZ EP       2058 11.07                             140    -0.110  109 169 
 RUS  BE ES   1   2058 29.52                             140    -0.2 7  109 169 
 RUS  BZ I        2058 31.28         4.9 0.42                           109 169 
 OCA  SZ EP   2   2058 13.91                             130    -0.6 5  153 358 
 OCA  SZ ES   2   2058 35.08                             130    -0.6 5  153 358 
 CHI  HZ EP       2058 25.19                             115     0.2 8  252 192 
 CHI  HN ES   2   2058 54.24                             115    -0.2 4  252 192 
 CHI  HZ I        2059  0.64         3.7 0.48                           252 192 
                                                                                
