 2015  131 2356 28.5 L   6.818 -73.158145.1  RSN  9 0.4 1.8LRSN                1
 GAP=134        1.05       3.2     4.4  6.2  0.1176E+00  0.6930E+01 -0.1439E+01E
 Epicentro: LOS SANTOS - SANTANDER                                             3
 ACTION:UPD 15-03-02 15:44 OP:nd   STATUS:               ID:20150131235628 L   I
 OLDACT:DUP 15-02-01 11:10 OP:carl STATUS:               ID:20150131234744d    3
 2015-01-31-2347-43M.COL___265                                                 6
 STAT SP IPHASW D HRMM SECON CODA AMPLIT PERI AZIMU VELO AIN AR TRES W  DIS CAZ7
 BAR2 EZ IP     C 2356 48.14                             170    0.0210 25.1 186 
 BAR2 EZ ES       2357  3.15                             170   -0.2410 25.1 186 
 BAR2 EZ I        2357  3.96        11.0 0.32            170           25.1 186 
 BRR  HZ IP       2356 49.90                             153    0.4110 69.0 298 
 BRR  HN ES       2357  6.63                             153    0.8010 69.0 298 
 BRR  HZ I        2357 10.55        15.3 0.46            152           69.0 298 
 PAM  SZ EP       2356 50.97                             151    0.3310 76.8  41 
 PAM  SN ES       2357  7.68                             151   -0.2010 76.8  41 
 PAM  SZ I        2357 10.32         7.1 0.48            154           76.8  41 
 RUS  HZ EP       2356 52.23                             143   -0.1410  103 175 
 RUS  HN ES       2357 10.86                             143   -0.1010  103 175 
 RUS  HZ I        2357 12.23         8.6 0.26            146            103 175 
 PTB  HZ EP       2356 54.88                             132   -0.48 9  147 258 
 PTB  HN ES       2357 15.67                             132   -0.61 9  147 258 
 PTB  HZ I        2357 18.66         7.6 0.12            133            147 258 
 SPBC HZ EP       2356 57.04                             129   -0.00 9  164 218 
 SPBC HN ES       2357 19.22                             129   -0.06 9  164 218 
 SPBC HZ I        2357 22.88         7.7 0.22            131            164 218 
 ZAR  HZ EP       2357  1.58                             122    0.86 9  202 292 
 ZAR  HN ES       2357 25.88                             122    0.05 9  202 292 
 ZAR  HZ I        2357 33.04        10.0 0.36            124            202 292 
 SML  HZ EP       2357  4.32                             118   -0.54 8  241 335 
 SML  HN ES       2357 32.64                             118   -0.56 8  241 335 
 SML  HZ I        2357 35.11         7.8 0.30            119            241 335 
 CHI  HN ES       2357 36.09                             117    0.23 8  250 195 
                                                                                
