 2016  131 2043 45.6 L   6.242 -72.818  1.1  RSN  8 0.3 1.7LRSN                1
 GAP=204        0.74       2.1     4.6  4.4 -0.4941E+01  0.1264E+02 -0.3077E+01E
 Epicentro: ONZAGA - SANTANDER                                                 3
 ACTION:UPD 16-03-09 23:30 OP:cam  STATUS:               ID:20160131204345 L   I
 OLDACT:UP  16-02-23 20:57 OP:AR   STATUS:               ID:20160131204345 L   3
 OLDACT:UP  16-02-01 08:09 OP:mh   STATUS:               ID:20160131202807     3
 OLDACT:UP  16-02-01 08:09 OP:mh   STATUS:               ID:20160131202807     3
 OLDACT:UP  16-02-01 08:02 OP:mh   STATUS:               ID:20160131202807     3
 OLDACT:UP  16-02-01 08:01 OP:mh   STATUS:               ID:20160131202807     3
 OLDACT:UP  16-02-01 08:00 OP:mh   STATUS:               ID:20160131202807     3
 OLDACT:UP  16-02-01 07:50 OP:mh   STATUS:               ID:20160131202807     3
 OLDACT:UP  16-02-01 05:29 OP:mh   STATUS:               ID:20160131202807     3
 OLDACT:REG 16-02-01 04:50 OP:mh   STATUS:               ID:20160131202807     3
 2016-1-31-2038_203800_840.mseed                                               6
 STAT SP IPHASW D HRMM SECON CODA AMPLIT PERI AZIMU VELO AIN AR TRES W  DIS CAZ7
 RUS  HZ EP       2043 54.72                              47    0.2910 48.5 217 
 RUS  HN ES       2044  1.22                              47   -0.1310 48.5 217 
 RUS  HZ I        2044  3.26        24.0 0.26             47           48.5 217 
 BAR2 EZ EP   1   2043 55.67                              47    0.37 7 55.9 314 
 BAR2 EZ ES       2044  2.75                              47   -0.1410 55.9 314 
 BAR2 EZ I        2044  3.38        24.8 0.20             47           55.9 314 
 PAM  EZ EP       2044  5.01                              47   -0.5710  122   6 
 PAM  EE ES       2044 21.53                              47    0.3310  122   6 
 PAM  EZ I        2044 24.84        11.5 0.35             47            122   6 
 PTB  HZ EP   9   2044 16.96                              37    2.60 0  184 280 
 PTB  HE ES       2044 39.58                              37    0.16 9  184 280 
 PTB  HZ I        2044 40.93        24.2 0.14             37            184 280 
 CHI  HZ EP   9   2044 21.04                              37    3.60 0  205 210 
 CHI  HN ES   1   2044 45.80                              37   -0.10 6  205 210 
 CHI  HZ I        2044 55.28         4.0 0.34             37            205 210 
 NOR  BZ EP   9   2044 25.67                              37    4.40 0  239 252 
 NOR  HN ES       2044 53.33                              37   -0.19 8  239 252 
 NOR  BZ I        2044 54.68         5.3 0.19             37            239 252 
 ZAR  HZ EP   4   2044 31.68                              37    7.29 0  265 302 
 ZAR  HN ES   4   2044 56.77                              37    2.11 0  265 302 
 ZAR  HE ES   4   2044 59.04                              37    4.38 0  265 302 
 HEL  BZ EP   4   2044 33.01                              36    3.75 0  300 269 
 HEL  HN I        2045  7.22         4.7 0.20             36            300 269 
 GUY2CHN ES   4   2045 11.18                              36    6.81 0  304 248 
 GUY2CHZ I        2045 17.49         3.4 0.40                           304 248 
                                                                                
