 2012  831 2056 53.7 L   6.768 -73.088136.9  RSN  5 0.1 1.9LRSN                1
 GAP=146        0.31       2.0     2.4  3.2 -0.1232E+01  0.8702E+00  0.7721E+00E
 Epicentro: LOS SANTOS - SANTANDER                                             3
 ACTION:UPD 12-09-10 11:59 OP:ep   STATUS:               ID:20120831205653 L   I
 2012-08-31-2050-00M.COL___218                                                 6
 STAT SP IPHASW D HRMM SECON CODA AMPLIT PERI AZIMU VELO AIN AR TRES W  DIS CAZ7
 BAR2 SZ EP       2057 12.18                             170   -0.0710 22.1 208 
 BAR2 SZ ES   1   2057 26.65                             170   -0.06 7 22.1 208 
 BAR2 SZ I        2057 28.30        22.7 0.20                          22.1 208 
 PAM  SZ EP   1   2057 15.04                             149    0.12 7 76.3  34 
 PAM  SE ES   1   2057 31.49                             149    0.02 7 76.3  34 
 PAM  SZ I        2057 34.13        17.9 0.40                          76.3  34 
 BRR  HZ EP   1   2057 14.16                             148   -0.20 7 78.5 299 
 BRR  HN ES   1   2057 30.56                             148    0.10 7 78.5 299 
 BRR  HZ I        2057 35.51        20.5 0.16                          78.5 299 
 RUS  HZ EP   1   2057 16.40                             143    0.08 7 96.9 180 
 RUS  HE ES   1   2057 33.96                             143    0.00 7 96.9 180 
 RUS  HZ I        2057 36.03         8.4 0.32                          96.9 180 
 NOR  SN ES   1   2057 57.13                             116    0.08 6  238 236 
                                                                                
