 2013  531 2152 54.8 L   6.741 -73.196141.8  RSN  6 0.3 1.6LRSN                1
 GAP=172        0.81       5.6     5.3  7.1  0.1444E+02 -0.2496E+01 -0.5892E+01E
 Epicentro: VILLANUEVA - SANTANDER                                             3
 ACTION:UPD 13-06-20 09:55 OP:ep   STATUS:               ID:20130531215254 L   I
 2013-05-31-2150-00M.COL___261                                                 6
 STAT SP IPHASW D HRMM SECON CODA AMPLIT PERI AZIMU VELO AIN AR TRES W  DIS CAZ7
 BAR2 SZ EP       2153 13.85                             173   -0.0210 16.5 175 
 BAR2 SZ ES       2153 28.45                             173   -0.2610 16.5 175 
 BAR2 SZ I        2153 30.93         5.8 0.28            173           16.5 175 
 GIR2 SZ EP       2153 13.90                             164   -0.3210 37.3   0 
 GIR2 SZ I        2153 30.14         9.0 0.34            155           37.3   0 
 BRR  HZ EP       2153 15.59                             152    0.1010 69.9 305 
 BRR  HN ES       2153 32.14                             152    0.5510 69.9 305 
 BRR  HZ I        2153 34.49        11.9 0.30            148           69.9 305 
 RUS  HZ EP       2153 18.16                             145    0.3810 94.7 172 
 RUS  HN ES       2153 35.53                             145   -0.1310 94.7 172 
 RUS  HZ I        2153 37.96         4.9 0.22            145           94.7 172 
 PTB  HN ES       2153 41.16                             132   -0.04 9  141 261 
 PTB  HZ I        2153 45.00         4.7 0.12            132            141 261 
 ZAR  HE ES   1   2153 51.07                             122   -0.60 6  202 294 
                                                                                
