 2017  131 2249 11.2 L   6.800 -73.139149.3  RSN 13 0.5 2.1LRSN                1
 GAP= 72        0.98       3.5     2.9  5.1  0.1290E+00  0.3954E+01  0.3579E+01E
 Epicentro: LOS SANTOS - SANTANDER                                             3
 ACTION:UPD 17-05-22 16:05 OP:jn   STATUS:               ID:20170131224911 L   I
 OLDACT:UP  17-02-01 04:11 OP:dani STATUS:               ID:20170131224449     3
 OLDACT:UP  17-02-01 04:11 OP:dani STATUS:               ID:20170131224449     3
 OLDACT:UP  17-02-01 04:10 OP:dani STATUS:               ID:20170131224449     3
 OLDACT:UP  17-02-01 04:10 OP:dani STATUS:               ID:20170131224449     3
 OLDACT:REG 17-02-01 03:16 OP:dani STATUS:               ID:20170131224449     3
 2017-01-31-2248-00M.COL___325                                                 6
 STAT SP IPHASW D HRMM SECON CODA AMPLIT PERI AZIMU VELO AIN AR TRES W  DIS CAZ7
 BAR2 EZ EP       2249 31.17                             171   -0.0810 23.5 192 
 BAR2 EZ ES       2249 46.67                             171   -0.2310 23.5 192 
 BAR2 EZ I        2249 50.06        18.9 0.26            169           23.5 192 
 BRR  HZ EP       2249 32.96                             153    0.2010 71.8 298 
 BRR  HN ES       2249 50.46                             153    0.8810 71.8 298 
 BRR  HZ I        2249 54.31        23.1 0.38            151           71.8 298 
 PAM  EZ EP       2249 33.94                             151    0.1810 76.9  39 
 PAM  EE ES       2249 51.30                             151   -0.0610 76.9  39 
 PAM  EZ I        2249 53.39        30.2 0.48            156           76.9  39 
 RUS  HZ EP       2249 35.06                             145   -0.2410  101 176 
 RUS  HE ES       2249 53.91                             145   -0.1810  101 176 
 RUS  HZ I        2249 54.93        10.5 0.34            146            101 176 
 PTB  HZ EP       2249 37.86                             133   -0.66 9  148 259 
 PTB  HN ES       2249 59.23                             133   -0.59 9  148 259 
 PTB  HZ I        2250  6.46        14.4 0.34            133            148 259 
 TAM  HZ EP       2249 39.24                             131    0.15 9  154 105 
 TAM  HN ES       2250  0.94                             131    0.09 9  154 105 
 TAM  HZ I        2250  2.33        15.3 0.35            136            154 105 
 ZAR  HZ EP       2249 44.17                             123    0.23 9  205 292 
 ZAR  HE ES       2250  9.54                             123    0.06 9  205 292 
 ZAR  HZ I        2250 14.71        16.6 0.40            124            205 292 
 NOR  HZ EP       2249 47.74                             119    0.54 8  235 235 
 NOR  HE ES       2250 14.71                             119   -0.56 8  235 235 
 NOR  HZ I        2250 19.36        14.0 0.22            120            235 235 
 CHI  HZ EP       2249 49.04                             118   -0.08 8  249 195 
 CHI  HN ES       2250 18.62                             118   -0.07 8  249 195 
 CHI  HZ I        2250 24.54         4.9 0.38            119            249 195 
 URE  HZ EP       2249 51.75                             114   -0.76 7  284 292 
 URE  HN ES   3   2250 23.31                             114   -1.43 2  284 292 
 URE  HZ I        2250 33.17         7.2 0.07            115            284 292 
 CBOC HZ EP   3   2249 59.57                             110    1.23 2  334 252 
 CBOC HE ES       2250 35.92                             110    0.81 7  334 252 
 CBOC HZ I        2250 41.94         2.2 0.13            111            334 252 
 ORTC HZ EP       2250  6.02                             107    0.73 6  396 216 
 ORTC HN ES       2250 48.00                             107    0.52 6  396 216 
 ORTC HZ I        2250 52.88         2.7 0.41            108            396 216 
 SJC  HZ EP   3   2250  5.30                             106   -1.62 1  410 327 
 SJC  HN ES   4   2250 46.63                             106   -3.75 0  410 327 
 SJC  HZ I        2250 51.12         4.1 0.48            108            410 327 
                                                                                
