 2013  531 2206 26.4 L   6.678 -73.234149.0  RSN  4 0.3 1.6LRSN                1
 GAP=217        0.66       7.0     7.1  9.0  0.3727E+02 -0.1022E+02 -0.1390E+02E
 Epicentro: BARICHARA - SANTANDER                                              3
 ACTION:UPD 13-06-20 09:55 OP:ep   STATUS:               ID:20130531220626 L   I
 2013-05-31-2200-00M.COL___261                                                 6
 STAT SP IPHASW D HRMM SECON CODA AMPLIT PERI AZIMU VELO AIN AR TRES W  DIS CAZ7
 BRR  HZ EP   1   22 6 47.53                             153   -0.36 7 71.0 312 
 BRR  HE ES   1   22 7  4.95                             153    0.30 7 71.0 312 
 BRR  HZ I        22 7 15.41        15.9 0.52            153           71.0 312 
 RUS  HZ EP       22 6 49.95                             148    0.3010 88.5 169 
 RUS  HN ES       22 7  7.52                             148   -0.2610 88.5 169 
 RUS  HZ I        22 7  9.16         3.6 0.32            163           88.5 169 
 PTB  HE ES   1   22 7 13.25                             135    0.21 7  136 264 
 PTB  HZ I        22 7 16.21         3.6 0.30            145            136 264 
 ZAR  HE ES   1   22 7 23.66                             123   -0.27 6  201 297 
 ZAR  HZ I        22 7 26.43         4.1 0.11            131            201 297 
                                                                                
