 2014  731 2327 28.7 L   6.811 -73.117149.9  RSN 18 0.5 2.4LRSN                1
 GAP=140        0.97       3.0     3.6  5.7 -0.1204E+01  0.5235E+01  0.4196E+01E
 Epicentro: LOS SANTOS - SANTANDER                                             3
 ACTION:UPD 15-03-16 20:48 OP:nd   STATUS:               ID:20140731232728 L   I
 OLDACT:REG 14-08-01 04:50 OP:fm   STATUS:               ID:20140731231817     3
 2014-07-31-2318-17M.COL___260                                                 6
 STAT SP IPHASW D HRMM SECON CODA AMPLIT PERI AZIMU VELO AIN AR TRES W  DIS CAZ7
 BRR  HZ EP   1   2327 50.89                             152    0.49 7 73.4 297 
 BRR  HN ES       2328  8.17                             152    0.8310 73.4 297 
 BRR  HZ I        2328 10.15        18.6 0.46            151           73.4 297 
 PAM  SZ EP       2327 51.44                             152    0.2710 74.4  38 
 PAM  SE ES       2328  8.77                             152    0.0710 74.4  38 
 PAM  SZ I        2328 11.07        27.1 0.20            158           74.4  38 
 RUS  HZ EP       2327 52.82                             144   -0.0910  102 178 
 RUS  HN ES       2328 11.25                             144   -0.5610  102 178 
 RUS  HZ I        2328 12.72        11.5 0.46            144            102 178 
 PTB  HZ EP       2327 55.84                             132   -0.45 9  151 259 
 PTB  HN ES       2328 16.77                             132   -1.05 9  151 259 
 PTB  HZ I        2328 22.84        23.2 0.54            132            151 259 
 SPBC HZ EP       2327 57.84                             129    0.07 9  166 220 
 SPBC HE ES       2328 20.72                             129    0.25 9  166 220 
 SPBC HZ I        2328 24.94        32.0 0.42            129            166 220 
 ZAR  HE ES       2328 27.08                             123   -0.29 8  207 291 
 ZAR  HZ I        2328 33.24        23.2 0.30            124            207 291 
 NOR  HZ EP   1   2328  4.74                             119   -0.26 6  238 235 
 NOR  HN ES       2328 33.15                             119   -0.18 8  238 235 
 NOR  HZ I        2328 40.05        13.3 0.24            119            238 235 
 SML  HZ EP   1   2328  4.48                             118   -1.08 6  244 335 
 SML  HE ES   1   2328 35.10                             118    0.77 6  244 335 
 SML  HZ I        2328 37.47        29.9 0.10            120            244 335 
 CHI  HZ EP       2328  6.81                             118   -0.02 8  251 196 
 CHI  HE ES   1   2328 36.34                             118   -0.24 6  251 196 
 CHI  HZ I        2328 44.92         5.9 0.56            118            251 196 
 ROSC BN ES   4   2328 39.58                             117    2.12 0  255 211 
 ROSC BZ I        2328 46.68        19.3 0.50            118            255 211 
 HEL  HZ EP   1   2328  9.59                             115    0.11 6  275 256 
 HEL  HN ES   1   2328 40.96                             115   -0.34 6  275 256 
 HEL  HZ I        2328 47.57        10.4 0.32            116            275 256 
 GUY2CHZ EP   1   2328 12.93                             113    0.08 5  304 235 
 GUY2CHN ES   1   2328 47.71                             113    0.41 5  304 235 
 GUY2CHZ I        2328 55.79        15.9 0.74                           304 235 
 VIL  SN ES   1   2328 46.70                             113    0.03 5  305 192 
 RREF HZ EP   1   2328 15.67                             111    0.30 5  325 230 
 RREF HN ES       2328 52.36                             111    0.58 7  325 230 
 RREF HZ I        2328 57.55         9.1 0.22            112            325 230 
 DBB  SZ EP   1   2328 16.59                             110   -0.09 5  343 274 
 DBB  SZ ES   1   2328 53.94                             110   -0.18 5  343 274 
 DBB  SZ I        2328 55.42        22.7 0.46            111            343 274 
 TOL  SZ EP   1   2328 17.68                             110    0.22 5  347 225 
 TOL  SE ES       2328 55.77                             110    0.26 6  347 225 
 TOL  SZ I        2329  2.88        20.7 0.36            111            347 225 
 PRA  HZ EP   1   2328 22.55                             107   -0.10 4  395 210 
 PRA  HN ES   1   2329  5.89                             107    1.14 4  395 210 
 PRA  HZ I        2329 13.36         8.8 0.58            108            395 210 
 ORTC HN ES   1   2329  6.22                             107    0.71 4  398 216 
 ORTC HZ I        2329 13.59         6.4 0.22            108            398 216 
                                                                                
