 2014  831 2216 27.1 L   6.770 -73.190155.9  RSN  5 0.5 1.4LRSN                1
 GAP=196        1.11       6.0     7.9 10.2  0.2396E+02 -0.1798E+02 -0.2344E+02E
 Epicentro: LOS SANTOS - SANTANDER                                             3
 ACTION:UPD 14-09-15 21:54 OP:nd   STATUS:               ID:20140831221627 L   I
 OLDACT:UP  14-09-01 02:51 OP:cam  STATUS:               ID:20140831221001d    3
 OLDACT:DUP 14-09-01 02:49 OP:cam  STATUS:               ID:20140831221001d    3
 2014-08-31-2210-00M.COL___282                                                 6
 STAT SP IPHASW D HRMM SECON CODA AMPLIT PERI AZIMU VELO AIN AR TRES W  DIS CAZ7
 BRR  HZ EP       2216 49.54                             155    0.3110 68.7 303 
 BRR  HN ES       2217  7.04                             155    0.5610 68.7 303 
 BRR  HN I        2217  9.31        10.4 0.18            155           68.7 303 
 RUS  HZ EP       2216 51.97                             147    0.3010 97.7 173 
 RUS  HN ES       2217 10.39                             147   -0.4410 97.7 173 
 RUS  HZ I        2217 11.12         2.2 0.30            149           97.7 173 
 PTB  HZ EP       2216 54.62                             135    0.18 9  142 260 
 PTB  HN ES       2217 15.10                             135   -0.67 9  142 260 
 PTB  HZ I        2217 17.80         2.5 0.12            137            142 260 
 ZAR  HE ES       2217 25.88                             125    0.39 9  201 294 
 SML  HZ EP       2217  4.22                             119   -0.21 8  245 337 
 SML  HN ES       2217 32.84                             119   -0.71 8  245 337 
                                                                                
