 2011  131 2330 39.9 L   6.798 -73.124136.9  RSN  6 0.5 1.5LRSN                1
 GAP=161        0.85       6.2    31.5 11.4 -0.4889E+02 -0.2647E+03  0.8387E+01E
 Epicentro: LOS SANTOS - SANTANDER                                             3
 ACTION:UP  11-02-08 08:44 OP:pat  STATUS:               ID:20110131233039 L   I
 2011-01-31-2329-11S.COL___138                                                 6
 STAT SP IPHASW D HRMM SECON CODA AMPLIT PERI AZIMU VELO SNR AR TRES W  DIS CAZ7
 BTL  SZ EP       2330 58.57                             168     0.210   21 310 
 BTL  SZ ES   1   2331 13.43                             168     0.6 7   21 310 
 BAR2 SZ ES   1   2331 12.83                             168    -0.1 7   24 196 
 BAR2 SZ I        2331 14.80        14.1 0.21                            24 196 
 GIR2 SZ EP   3   2330 57.53                             165    -1.0 2   32 346 
 GIR2 SZ ES   2   2331 12.06                             165    -1.0 5   32 346 
 RUS  HZ EP       2331  2.74                             142     0.010  100 177 
 RUS  HN ES   2   2331 20.41                             142    -0.2 5  100 177 
 RUS  HZ I        2331 21.92         2.0 0.27                           100 177 
 GRA  SZ EP       2331  4.24                             135    -0.110  125  16 
 GRA  SZ I        2331  5.62         6.8 0.33                           125  16 
 CHI  HN ES   3   2331 45.00                             115    -1.2 2  249 196 
 CHI  HZ I        2331 53.71         1.9 0.33                           249 196 
                                                                                
