 2014 1231 2228 37.8 L   6.301 -73.729100.2  RSN  4 0.2 0.8LRSN                1
 GAP=166        0.49       3.3     3.0  6.7  0.4445E+01  0.5427E+01  0.8317E+01E
 Epicentro: LANDAZURI - SANTANDER                                              3
 ACTION:UPD 15-02-10 17:08 OP:nd   STATUS:               ID:20141231222837 L   I
 OLDACT:REG 15-01-01 06:48 OP:spq  STATUS:               ID:20141231222750     3
 2014-12-31-2227-50M.COL___280                                                 6
 STAT SP IPHASW D HRMM SECON CODA AMPLIT PERI AZIMU VELO AIN AR TRES W  DIS CAZ7
 BAR2 EZ ES   1   2229  7.47                             143    0.18 7 68.5  62 
 RUS  HZ EP       2228 56.19                             137    0.2210 84.6 122 
 RUS  HN ES   1   2229  9.85                             137   -0.33 7 84.6 122 
 RUS  HZ I        2229 11.74         0.8 0.16            143           84.6 122 
 PTB  HZ EP   1   2228 55.35                             137    0.03 7 84.7 288 
 PTB  HN ES   1   2229  9.07                             137    0.04 7 84.7 288 
 PTB  HZ I        2229 12.10         2.7 0.26            140           84.7 288 
 BRR  HZ EP   1   2228 55.36                             135   -0.32 7 89.1   1 
 BRR  HE ES       2229  9.66                             135   -0.0010 89.1   1 
 BRR  HZ I        2229 11.58         2.3 0.20            141           89.1   1 
                                                                                
