 2011  331 2136 12.2 L   6.778 -73.096141.4  RSN  8 0.5 2.0LRSN                1
 GAP=182        1.10       6.6    11.4 13.9 -0.4556E+02 -0.4996E+02  0.5206E+02E
 Epicentro: LOS SANTOS - SANTANDER                                             3
 ACTION:UP  11-06-16 14:37 OP:jfem STATUS:               ID:20110331213612 L   I
 2011-03-31-2133-04S.COL___138                                                 6
 STAT SP IPHASW D HRMM SECON CODA AMPLIT PERI AZIMU VELO SNR AR TRES W  DIS CAZ7
 BAR2 SZ EP   1   2136 31.32                             170     0.0 7   23 205 
 BAR2 SZ I        2136 47.91        22.3 0.15                            23 205 
 BTL  SZ EP   1   2136 32.03                             170     0.7 7   25 309 
 BRR  HZ EP   1   2136 33.65                             150     0.4 7   77 298 
 BRR  HN ES   1   2136 50.33                             150     0.6 7   77 298 
 BRR  HZ I        2136 54.55        32.5 0.15                            77 298 
 GRA  SZ EP   1   2136 37.48                             136     0.3 7  127  15 
 GRA  SZ ES   1   2136 56.01                             136    -0.6 7  127  15 
 GRA  SZ I        2136 58.10        16.1 0.46                           127  15 
 OCA  SZ EP   1   2136 40.51                             128     0.0 7  163 351 
 OCA  SZ ES   1   2137  1.73                             128    -0.8 7  163 351 
 OCA  SZ I        2137  6.69        14.4 0.07                           163 351 
 NOR  SZ EP   1   2136 47.86                             117    -0.2 6  238 236 
 NOR  SN ES   1   2137 15.57                             117    -0.4 6  238 236 
 CHI  HZ EP   1   2136 49.90                             116     0.3 6  248 197 
 CHI  HE ES   1   2137 17.84                             116    -0.9 6  248 197 
 CHI  HZ I        2137 24.85         5.4 0.32                           248 197 
 PRA  HZ EP   1   2137  5.91                             106     0.2 4  393 210 
                                                                                
