 2014  831 2051 59.6 L   6.756 -73.141152.4  RSN  5 0.4 1.6LRSN                1
 GAP=200        1.09       6.3     9.6 10.4  0.1726E+02  0.2950E+02 -0.1704E+02E
 Epicentro: LOS SANTOS - SANTANDER                                             3
 ACTION:UPD 14-09-15 21:54 OP:nd   STATUS:               ID:20140831205159 L   I
 OLDACT:UP  14-09-01 02:45 OP:cam  STATUS:               ID:20140831205001d    3
 OLDACT:DUP 14-09-01 02:43 OP:cam  STATUS:               ID:20140831205001d    3
 2014-08-31-2050-00M.COL___282                                                 6
 STAT SP IPHASW D HRMM SECON CODA AMPLIT PERI AZIMU VELO AIN AR TRES W  DIS CAZ7
 BAR2 SZ ES       2052 35.39                             173   -0.4810 18.7 194 
 BRR  HZ EP       2052 21.54                             153   -0.1310 74.1 302 
 BRR  HN ES       2052 39.62                             153    0.7610 74.1 302 
 BRR  HZ I        2052 43.15         6.4 0.46            151           74.1 302 
 RUS  HN ES       2052 42.63                             147    0.1310 95.7 176 
 PTB  HZ EP       2052 27.49                             134    0.36 9  147 261 
 PTB  HN ES       2052 48.10                             134   -0.47 9  147 261 
 PTB  HZ I        2052 50.97         4.2 0.12            134            147 261 
 SML  HN ES       2053  6.11                             118   -0.29 8  248 336 
                                                                                
