 2017 1031 2030 56.9 L   6.785 -73.154138.0  RSN  7 0.2 1.5LRSN                1
 GAP=136        0.53       2.4     2.3  3.6 -0.1069E+01  0.3909E+01 -0.1649E+00E
 Epicentro: LOS SANTOS - SANTANDER                                             3
 ACTION:UPD 17-11-07 19:40 OP:rebc STATUS:               ID:20171031203056 L   I
 OLDACT:UP  17-11-01 08:06 OP:edw  STATUS:               ID:20171031202740     3
 OLDACT:UP  17-11-01 08:04 OP:edw  STATUS:               ID:20171031202740     3
 OLDACT:REG 17-11-01 03:39 OP:edw  STATUS:               ID:20171031202740     3
 2017-10-31-2028-00M.COL___456                                                 6
 STAT SP IPHASW D HRMM SECON CODA AMPLIT PERI AZIMU VELO AIN AR TRES W  DIS CAZ7
 BAR2 EZ EP       2031 15.20                             171   -0.3310 21.6 188 
 BAR2 EZ ES       2031 30.09                             171    0.0010 21.6 188 
 BAR2 EZ I        2031 31.50         8.2 0.28            172           21.6 188 
 PAM  EZ EP       2031 18.37                             149   -0.0110 79.2  39 
 PAM  EE ES       2031 35.32                             149    0.1610 79.2  39 
 PAM  EZ I        2031 37.35         7.0 0.56            151           79.2  39 
 RUS  HZ EP       2031 19.77                             143    0.0210 99.0 175 
 RUS  HN ES       2031 37.68                             143    0.0910 99.0 175 
 RUS  HZ I        2031 40.19         3.2 0.18            146           99.0 175 
 PTB  HZ EP       2031 22.66                             130   -0.45 9  147 259 
 PTB  HN ES       2031 43.51                             130   -0.06 9  147 259 
 PTB  HZ I        2031 45.81         3.5 0.44            132            147 259 
 ZAR  HZ EP       2031 29.00                             121    0.20 9  204 293 
 ZAR  HE ES       2031 53.77                             121    0.07 9  204 293 
 ZAR  HZ I        2031 58.93         5.3 0.26            122            204 293 
 NOR  HZ EP       2031 32.34                             117    0.36 8  233 235 
 NOR  HE ES       2031 59.56                             117    0.20 8  233 235 
 NOR  HZ I        2032  1.80         2.0 0.22            119            233 235 
 GUY2CHZ EP       2031 39.94                             111    0.00 7  299 235 
 GUY2CHE ES       2032 13.44                             111   -0.09 7  299 235 
 GUY2CHZ I        2032 23.63         1.9 0.28                           299 235 
                                                                                
