 2012  531 2356 37.0 L   6.791 -73.187135.7  RSN 12 0.3 2.7LRSN                1
 GAP=132        0.64       2.6     3.4  5.1 -0.4622E+00  0.7504E+01  0.2161E+01E
 Epicentro: LOS SANTOS - SANTANDER                                             3
 ACTION:UP  12-07-05 12:09 OP:pat  STATUS:               ID:20120531235644 L   I
 2012-05-31-2350-00M.COL___201                                                 6
 STAT SP IPHASW D HRMM SECON CODA AMPLIT PERI AZIMU VELO AIN AR TRES W  DIS CAZ7
 BAR2 SZ EP       2356 55.44                             170     0.110   22 179 
 BAR2 SZ ES   1   2357  9.94                             170     0.2 7   22 179 
 BAR2 SZ I        2357 11.26       195.6 0.30                            22 179 
 PAM  SZ EP   1   2356 58.31                             148    -0.1 7   81  42 
 PAM  SN ES   1   2357 15.20                             148     0.1 7   81  42 
 RUS  HZ EP   1   2356 59.42                             142    -0.3 7  100 173 
 RUS  HE ES   1   2357 17.52                             142     0.1 7  100 173 
 RUS  HZ I        2357 19.60        76.6 0.48                           100 173 
 PTB  HZ EP   1   2357  2.37                             131    -0.3 7  143 259 
 PTB  HN ES   1   2357 22.19                             131    -0.6 7  143 259 
 PTB  HZ I        2357 26.95        43.8 0.13                           143 259 
 OCA  HN ES   1   2357 25.71                             127    -0.4 7  161 355 
 OCA  HZ I        2357 31.55        99.4 0.26                           161 355 
 ZAR  HZ EP   1   2357  8.66                             121     0.3 6  200 293 
 ZAR  HE ES   1   2357 33.37                             121     0.5 6  200 293 
 ZAR  HZ I        2357 40.23        55.0 0.35                           200 293 
 NOR  SE ES   1   2357 38.67                             117    -0.1 6  230 234 
 CHI  HZ EP   1   2357 13.70                             115    -0.2 6  247 194 
 CHI  HN ES   1   2357 42.50                             115    -0.2 6  247 194 
 CHI  HZ I        2357 46.13        24.2 0.51                           247 194 
 ROSC BZ EP   1   2357 14.64                             115     0.4 6  250 210 
 ROSC BZ I        2357 54.86        29.8 0.53                           250 210 
 HEL  HZ EP   1   2357 16.55                             113     0.4 6  267 256 
 HEL  HZ I        2357 54.88        30.6 0.33                           267 256 
 DBB  SZ EP   1   2357 23.49                             108     0.0 5  335 274 
 PRA  HZ EP   1   2357 29.74                             105    -0.1 4  389 209 
 PRA  HE ES   1   2358 11.32                             105     0.3 4  389 209 
                                                                                
