 2013  731 2344 50.4 L   6.802 -73.170138.0  RSN  9 0.3 2.5LRSN                1
 GAP=179        0.61       3.9     4.2  5.6 -0.2095E+01  0.9510E+01  0.2892E+00E
 Epicentro: LOS SANTOS - SANTANDER                                             3
 ACTION:UPD 13-08-12 10:41 OP:ep   STATUS:               ID:20130731234450 L   I
 OLDACT:UPD 13-08-08 12:08 OP:ep   STATUS:               ID:20130731234450 L   3
 OLDACT:UP  13-07-31 23:39 OP:mh   STATUS:               ID:20130731233959     3
 OLDACT:REG 13-07-31 21:51 OP:mh   STATUS:               ID:20130731233959     3
 2013-07-31-2339-59M.COL___270                                                 6
 STAT SP IPHASW D HRMM SECON CODA AMPLIT PERI AZIMU VELO AIN AR TRES W  DIS CAZ7
 GIR2 SZ EP   1   2345  9.32                             167    0.14 7 30.7 355 
 GIR2 SZ ES   1   2345 23.63                             167   -0.16 7 30.7 355 
 GIR2 SZ I        2345 27.40        18.1 0.12            163           30.7 355 
 BRR  HZ EP   1   2345 11.12                             152    0.51 7 68.7 299 
 BRR  HN ES   4   2345 28.26                             152    1.91 0 68.7 299 
 BRR  HN I        2345 32.47        60.9 0.16            148           68.7 299 
 RUS  HZ EP   1   2345 13.06                             142   -0.41 7  101 175 
 RUS  HN ES   1   2345 31.54                             142    0.10 7  101 175 
 RUS  HN I        2345 33.34        32.3 0.42            149            101 175 
 PTB  HZ EP   1   2345 16.16                             131   -0.39 7  145 259 
 PTB  HN ES   1   2345 37.06                             131    0.15 7  145 259 
 PTB  HN I        2345 42.85        95.0 0.36            131            145 259 
 SPBC HZ EP   1   2345 18.22                             127    0.01 7  162 218 
 SPBC HN ES   1   2345 39.96                             127    0.09 7  162 218 
 SPBC HN I        2345 43.48        74.7 0.44            131            162 218 
 ZAR  HZ EP   1   2345 21.90                             121   -0.22 6  201 292 
 ZAR  HN ES   4   2345 49.74                             121    2.91 0  201 292 
 ZAR  HN I        2345 53.49        41.4 0.16            123            201 292 
 NOR  HZ EP   1   2345 25.16                             117   -0.35 6  233 234 
 NOR  HN ES   1   2345 53.05                             117    0.19 6  233 234 
 NOR  HN I        2345 58.12        43.6 0.20            120            233 234 
 HEL  HZ EP   1   2345 30.26                             113    0.27 6  270 256 
 HEL  HN ES   1   2346  0.30                             113   -0.53 6  270 256 
 HEL  HN I        2346  9.33        10.7 0.20            116            270 256 
 GUY2CHZ EP   1   2345 34.18                             111    0.71 5  299 234 
 GUY2CHN ES   4   2346  8.94                             111    1.91 0  299 234 
                                                                                
