 2015 1231 2203 30.2 L   6.627 -73.255116.0  RSN  5 0.4 1.3LRSN                1
 GAP=160        1.03       6.8     7.1  8.7  0.3119E+02  0.2660E+02  0.1188E+02E
 Epicentro: BARICHARA - SANTANDER                                              3
 ACTION:UPD 16-02-04 15:09 OP:cam  STATUS:               ID:20151231220330 L   I
 OLDACT:DUP 16-01-01 04:07 OP:cara STATUS:               ID:20151231215750d    3
 OLDACT:REG 16-01-01 02:21 OP:cara STATUS:               ID:20151231215748     3
 2015-12-31-2157-48M.COL___328                                                 6
 STAT SP IPHASW D HRMM SECON CODA AMPLIT PERI AZIMU VELO AIN AR TRES W  DIS CAZ7
 BAR2 EZ ES       22 3 58.91                             175    0.6010 8.91 116 
 BAR2 EZ I        22 4  0.64         5.4 0.22            176           8.91 116 
 BRR  HZ EP       22 3 48.20                             145   -0.1410 73.3 316 
 BRR  HN ES       22 4  1.87                             145   -0.6410 73.3 316 
 BRR  HZ I        22 4  3.26         4.0 0.30            147           73.3 316 
 RUS  HZ EP       22 3 49.59                             142   -0.1810 83.4 167 
 RUS  HN ES       22 4  4.99                             142   -0.0710 83.4 167 
 RUS  HZ I        22 4  6.86         2.1 0.34            144           83.4 167 
 PTB  HZ IP       22 3 53.64                             127    0.1810  133 266 
 PTB  HN ES       22 4 11.40                             127   -0.2210  133 266 
 PTB  HZ I        22 4 13.00         3.7 0.58            129            133 266 
 ZAR  HN ES       22 4 24.92                             115    0.64 9  201 298 
 ZAR  HZ I        22 4 26.40         4.5 0.32            117            201 298 
                                                                                
