 2011  531 2157 13.4 L   6.739 -73.277142.7  RSN  4 0.1 1.3LRSN                1
 GAP=144        0.35      10.9    21.5 10.6  0.2131E+03 -0.1523E+03 -0.6947E+02E
 Epicentro: ZAPATOCA - SANTANDER                                               3
 ACTION:UP  11-06-29 08:57 OP:tino STATUS:               ID:20110531215713 L   I
 2011-05-31-2151-29S.COL___115                                                 6
 STAT SP IPHASW D HRMM SECON CODA AMPLIT PERI AZIMU VELO SNR AR TRES W  DIS CAZ7
 BAR2 SZ EP   2   2157 32.68                             172     0.1 5   19 147 
 BAR2 SZ I        2157 49.03         6.6 0.30                            19 147 
 BTL  SZ EP   2   2157 32.45                             172    -0.1 5   20   3 
 BRR  HZ EP   2   2157 33.89                             155     0.2 5   63 310 
 BRR  HN ES   2   2157 49.53                             155    -0.1 5   63 310 
 RUS  HZ EP   2   2157 36.29                             144    -0.2 5   96 167 
 RUS  HE ES   2   2157 54.59                             144     0.1 5   96 167 
 RUS  HZ I        2157 56.55         2.1 0.29                            96 167 
                                                                                
