 2014  131 2318 45.9 L   6.793 -73.123146.5  RSN 12 0.4 2.1LRSN                1
 GAP=140        0.85       2.6     3.6  4.7 -0.8061E+00  0.4962E+01 -0.4849E+00E
 Epicentro: LOS SANTOS - SANTANDER                                             3
 ACTION:UPD 14-03-13 10:00 OP:ep   STATUS:               ID:20140131231845 L   I
 OLDACT:UP  14-02-01 00:03 OP:cam  STATUS:               ID:20140131231748     3
 OLDACT:REG 14-01-31 23:44 OP:cam  STATUS:               ID:20140131231748     3
 2014-01-31-2317-48M.COL___236                                                 6
 STAT SP IPHASW D HRMM SECON CODA AMPLIT PERI AZIMU VELO AIN AR TRES W  DIS CAZ7
 BAR2 SZ EP     D 2319  5.65                             171    0.0210 23.1 196 
 BAR2 SZ ES       2319 20.59                             171   -0.4210 23.1 196 
 BAR2 SZ I        2319 21.52        51.1 0.26            171           23.1 196 
 BRR  HZ EP     C 2319  7.56                             152    0.2710 73.7 298 
 BRR  HN ES       2319 24.63                             152    0.6710 73.7 298 
 BRR  HZ I        2319 25.63        19.8 0.26            150           73.7 298 
 PAM  SZ EP     C 2319  8.47                             151    0.3210 76.4  38 
 PAM  SE ES       2319 25.61                             151    0.1110 76.4  38 
 PAM  SZ I        2319 27.90        17.6 0.46            152           76.4  38 
 RUS  HZ EP       2319  9.68                             144    0.0110 99.7 177 
 RUS  HN ES       2319 28.01                             144   -0.1910 99.7 177 
 PTB  HZ EP       2319 12.75                             132   -0.40 9  150 259 
 PTB  HN ES   1   2319 33.43                             132   -0.96 7  150 259 
 PTB  HZ I        2319 36.45        14.3 0.28            131            150 259 
 OCA  HZ EP   2   2319 13.97                             130   -0.41 5  161 352 
 OCA  HN ES   4   2319 37.92                             130    1.33 0  161 352 
 OCA  HZ I        2319 39.02        15.3 0.20            129            161 352 
 SPBC HZ EP       2319 14.66                             129    0.10 9  164 220 
 SPBC HN ES       2319 36.79                             129   -0.12 9  164 220 
 SPBC HZ I        2319 39.19        13.6 0.22            129            164 220 
 ZAR  HZ EP       2319 18.71                             122    0.04 8  207 292 
 ZAR  HE ES       2319 44.55                             122    0.33 8  207 292 
 ZAR  HZ I        2319 49.81        22.6 0.44            122            207 292 
 NOR  HZ EP       2319 22.18                             118    0.32 8  236 235 
 NOR  HN ES       2319 50.19                             118    0.30 8  236 235 
 NOR  HZ I        2319 51.18         9.5 0.14            118            236 235 
 SML  HZ EP       2319 22.23                             117   -0.54 8  245 335 
 SML  HN ES       2319 51.01                             117   -0.50 8  245 335 
 SML  HZ I        2319 58.78        17.8 0.10            117            245 335 
 CHI  HZ EP   1   2319 23.91                             117    0.26 6  249 196 
 CHI  HN ES   2   2319 52.92                             117   -0.15 4  249 196 
 CHI  HZ I        2320  0.77         4.5 0.46            118            249 196 
 GUY2CHZ EP   2   2319 29.99                             112    0.25 4  303 235 
                                                                                
