 2017 1031 2101 46.8 L   6.679 -74.207127.4  RSN  6 0.4 1.5LRSN                1
 GAP=111        1.04       4.8     4.4 10.0 -0.6600E+01 -0.8795E+01  0.1720E+02E
 Epicentro: PUERTO PARRA - SANTANDER                                           3
 ACTION:UPD 17-11-07 19:40 OP:rebc STATUS:               ID:20171031210146 L   I
 OLDACT:UP  17-11-01 08:26 OP:edw  STATUS:               ID:20171031205740d    3
 OLDACT:UP  17-11-01 08:24 OP:edw  STATUS:               ID:20171031205740d    3
 OLDACT:DUP 17-11-01 08:21 OP:edw  STATUS:               ID:20171031205740d    3
 OLDACT:REG 17-11-01 05:26 OP:edw  STATUS:               ID:20171031205739     3
 2017-10-31-2058-00M.COL___447                                                 6
 STAT SP IPHASW D HRMM SECON CODA AMPLIT PERI AZIMU VELO AIN AR TRES W  DIS CAZ7
 BRR  HZ EP       21 2  6.61                             148    0.5010 72.4  49 
 BRR  HN ES       21 2 21.17                             148    0.0210 72.4  49 
 ZAR  HZ EP       21 2  9.81                             135    0.4410  115 321 
 ZAR  HE ES       21 2 26.51                             135   -0.4410  115 321 
 ZAR  HZ I        21 2 28.26         5.6 0.20            137            115 321 
 NOR  HZ EP       21 2 11.31                             128   -0.70 9  143 211 
 NOR  HN ES       21 2 32.06                             128    0.41 9  143 211 
 NOR  HZ I        21 2 35.72         2.4 0.36            129            143 211 
 RUS  HZ EP       21 2 13.17                             127   -0.23 9  152 125 
 RUS  HE ES   4   21 2 32.11                             127   -2.01 0  152 125 
 RUS  HZ I        21 2 33.56         4.9 0.22            129            152 125 
 PAM  EZ EP       21 2 16.66                             122    0.22 9  182  66 
 PAM  EN ES       21 2 39.22                             122   -0.31 9  182  66 
 PAM  EZ I        21 2 41.17         5.7 0.68            124            182  66 
 GUY2CHZ EP   4   21 2 22.64                             118    3.70 0  206 219 
 GUY2CHE ES   4   21 2 49.45                             118    5.48 0  206 219 
 GUY2CHZ I        21 2 53.71         2.1 0.62                           206 219 
                                                                                
