 2016 1231 2325 10.4 L   6.708 -73.254138.3  RSN  4 0.4 1.1LRSN                1
 GAP=217        1.06       8.0     8.2  9.4  0.4363E+02  0.1776E+01 -0.8475E+01E
 Epicentro: GALAN - SANTANDER                                                  3
 ACTION:UPD 17-01-11 20:21 OP:rebc STATUS:               ID:20161231232510 L   I
 OLDACT:UP  17-01-01 04:04 OP:dani STATUS:               ID:20161231231747     3
 OLDACT:REG 17-01-01 02:54 OP:dani STATUS:               ID:20161231231747     3
 2016-12-31-2318-00M.COL___381                                                 6
 STAT SP IPHASW D HRMM SECON CODA AMPLIT PERI AZIMU VELO AIN AR TRES W  DIS CAZ7
 BRR  HZ EP       2325 29.89                             153   -0.6310 67.2 311 
 BRR  HN ES       2325 46.21                             153    0.0010 67.2 311 
 BRR  HZ I        2325 46.79         4.3 0.16            152           67.2 311 
 RUS  HZ EP       2325 33.13                             145    0.3110 92.1 168 
 RUS  HN ES       2325 50.48                             145    0.1910 92.1 168 
 RUS  HZ I        2325 53.95         1.0 0.25            144           92.1 168 
 PTB  HZ EP       2325 35.14                             133   -0.4110  134 262 
 PTB  HN ES       2325 54.82                             133   -0.3310  134 262 
 PTB  HZ I        2325 58.78         2.9 0.12            131            134 262 
 ZAR  HZ EP       2325 42.00                             122    0.33 9  197 296 
 ZAR  HN ES       2326  6.81                             122    0.75 9  197 296 
 ZAR  HZ I        2326 12.18         1.6 0.12            122            197 296 
                                                                                
