 2013  731 2124 40.4 L   6.719 -73.221130.6  RSN  4 0.3 1.5LRSN                1
 GAP=222        0.65       7.3     8.6  8.7  0.4203E+02  0.2104E+02 -0.5911E+00E
 Epicentro: VILLANUEVA - SANTANDER                                             3
 ACTION:UPD 13-08-12 10:41 OP:ep   STATUS:               ID:20130731212440 L   I
 OLDACT:UP  13-07-31 22:47 OP:mh   STATUS:               ID:20130731211959     3
 OLDACT:REG 13-07-31 21:30 OP:mh   STATUS:               ID:20130731211959     3
 2013-07-31-2119-59M.COL___268                                                 6
 STAT SP IPHASW D HRMM SECON CODA AMPLIT PERI AZIMU VELO AIN AR TRES W  DIS CAZ7
 BRR  HN ES   1   2125 14.87                             150   -0.12 7 69.2 308 
 BRR  HN I        2125 17.64        17.7 0.22            148           69.2 308 
 RUS  HN ES   1   2125 19.18                             143    0.12 7 92.7 171 
 RUS  HN I        2125 21.87         3.8 0.32            143           92.7 171 
 PTB  HZ EP   1   2125  4.69                             130   -0.62 7  138 262 
 PTB  HE ES   1   2125 24.85                             130    0.15 7  138 262 
 PTB  HE I        2125 30.43         3.0 0.22            129            138 262 
 ZAR  HZ EP   1   2125 12.04                             119    0.52 6  200 295 
 ZAR  HN ES   1   2125 35.81                             119    0.05 6  200 295 
 ZAR  HN I        2125 40.50         4.6 0.30            121            200 295 
                                                                                
