 2014  531 2236 12.8 L   6.791 -73.119137.7  RSN 17 0.5 2.2LRSN                1
 GAP=140        1.08       2.8     4.1  5.4 -0.2668E+01  0.7118E+01  0.2479E+01E
 Epicentro: LOS SANTOS - SANTANDER                                             3
 ACTION:UPD 15-03-16 17:02 OP:nd   STATUS:               ID:20140531223612 L   I
 OLDACT:REG 14-06-01 06:26 OP:spq  STATUS:               ID:20140531222814     3
 2014-05-31-2228-14M.COL___256                                                 6
 STAT SP IPHASW D HRMM SECON CODA AMPLIT PERI AZIMU VELO AIN AR TRES W  DIS CAZ7
 BAR2 SZ EP       2236 31.54                             170    0.1010 23.1 198 
 BAR2 SZ ES   1   2236 45.12                             170   -0.87 7 23.1 198 
 BAR2 SZ I        2236 47.71        35.6 0.28            167           23.1 198 
 BRR  HZ IP     D 2236 33.46                             150    0.2210 74.2 298 
 BRR  HN ES       2236 49.77                             150    0.5710 74.2 298 
 BRR  HZ I        2236 53.52        34.7 0.38            149           74.2 298 
 PAM  SZ EP       2236 34.55                             150    0.4710 76.3  37 
 PAM  SE ES       2236 50.98                             150    0.2910 76.3  37 
 PAM  SZ I        2236 53.72        22.8 0.44            156           76.3  37 
 RUS  HZ EP       2236 35.74                             142    0.0710 99.5 178 
 RUS  HE ES       2236 53.58                             142    0.0710 99.5 178 
 OCA  HZ EP       2236 40.25                             128   -0.36 9  162 352 
 OCA  HN ES   1   2237  2.00                             128   -0.30 7  162 352 
 OCA  HZ I        2237  6.43        23.2 0.32            131            162 352 
 SPBC HZ EP       2236 40.78                             127   -0.00 9  164 220 
 SPBC HN ES       2237  2.05                             127   -0.57 9  164 220 
 SPBC HZ I        2237  9.86        17.0 0.26            128            164 220 
 ZAR  HZ EP       2236 44.16                             120   -0.88 8  207 292 
 ZAR  HE ES       2237  9.86                             120   -0.33 8  207 292 
 ZAR  HZ I        2237 15.01        14.5 0.28            122            207 292 
 NOR  HN ES       2237 16.75                             117    0.83 8  237 235 
 NOR  HZ I        2237 21.38        10.2 0.22            118            237 235 
 SML  HZ EP       2236 48.46                             116   -0.74 8  246 335 
 SML  HN ES   4   2237 14.77                             116   -2.83 0  246 335 
 SML  HZ I        2237 18.40        18.9 0.09            118            246 335 
 CHI  HZ EP       2236 50.22                             115    0.19 8  248 196 
 CHI  HN ES       2237 18.19                             115   -0.90 8  248 196 
 CHI  HZ I        2237 27.52         5.6 0.22            118            248 196 
 ROSC BZ EP       2236 50.76                             115    0.21 8  253 212 
 ROSC BN ES   1   2237 19.33                             115   -0.68 6  253 212 
 ROSC BZ I        2237 26.98        10.2 0.28            117            253 212 
 HEL  HZ EP       2236 53.26                             113    0.37 8  275 256 
 HEL  HE ES       2237 24.38                             113    0.21 8  275 256 
 HEL  HZ I        2237 30.78        10.4 0.56            114            275 256 
 GUY2CHZ EP       2236 57.12                             111    0.88 7  303 235 
 GUY2CHN ES   1   2237 30.13                             111   -0.00 5  303 235 
 GUY2CHZ I        2237 37.64         6.0 0.22                           303 235 
 RREF HZ EP       2236 58.56                             109   -0.21 7  323 230 
 RREF HE ES   1   2237 34.33                             109   -0.31 5  323 230 
 RREF HZ I        2237 41.70         5.6 0.28            111            323 230 
 TOL  SZ EP       2237  1.76                             108    0.87 7  345 225 
 TOL  SN ES   1   2237 38.52                             108    0.11 5  345 225 
 TOL  SZ I        2237 45.64        16.8 0.28            109            345 225 
 PRA  HZ EP       2237  5.64                             105   -0.47 6  393 210 
 PRA  HN ES       2237 48.01                             105    0.31 6  393 210 
 PRA  HZ I        2237 51.58         5.6 0.30            107            393 210 
 ORTC HZ EP       2237  5.98                             105   -0.57 6  396 217 
 ORTC HN ES       2237 49.12                             105    0.63 6  396 217 
 ORTC HZ I        2237 55.66         5.1 0.28            107            396 217 
                                                                                
