 2013  131 2135 42.2 L   6.794 -73.152151.7  RSN  7 0.4 1.5LRSN                1
 GAP=136        0.72       4.5     4.9  6.9 -0.1316E+01  0.7672E+01  0.1124E+02E
 Epicentro: LOS SANTOS - SANTANDER                                             3
 ACTION:UPD 13-02-15 09:18 OP:ep   STATUS:               ID:20130131213542 L   I
 2013-01-31-2130-00M.COL___241                                                 6
 STAT SP IPHASW D HRMM SECON CODA AMPLIT PERI AZIMU VELO AIN AR TRES W  DIS CAZ7
 BAR2 SZ EP   1   2136  2.31                             171   -0.26 7 22.6 188 
 BAR2 SZ ES   1   2136 18.50                             171    0.08 7 22.6 188 
 BRR  HZ EP   1   2136  4.31                             154    0.30 7 70.8 299 
 BRR  HE ES   1   2136 21.60                             154    0.61 7 70.8 299 
 PAM  SN ES   1   2136 22.90                             152   -0.10 7 78.3  40 
 RUS  HZ EP   1   2136  6.33                             145   -0.21 7  100 176 
 RUS  HN ES   1   2136 25.18                             145   -0.31 7  100 176 
 RUS  HZ I        2136 26.69         3.2 0.26            145            100 176 
 PTB  HZ EP   1   2136  9.30                             133   -0.32 7  147 259 
 PTB  HN ES   1   2136 30.38                             133   -0.59 7  147 259 
 PTB  HZ I        2136 34.56         6.8 0.40            133            147 259 
 NOR  HE ES   1   2136 46.29                             120    0.02 6  234 234 
 CHI  HZ EP   1   2136 20.61                             118    0.42 6  248 195 
 CHI  HN ES   1   2136 50.42                             118    0.64 6  248 195 
 CHI  HZ I        2136 52.16         1.5 0.38            119            248 195 
                                                                                
