 2017  731 2032 41.8 L   7.195 -74.063 69.2  RSN  6 0.4 1.4LRSN                1
 GAP=153        0.65       5.5     2.9  6.0  0.9277E+01 -0.1963E+01 -0.6377E+01E
 Epicentro: PUERTO WILCHES - SANTANDER                                         3
 ACTION:UPD 17-08-30 15:38 OP:rebc STATUS:               ID:20170731203241 L   I
 OLDACT:UP  17-08-01 03:49 OP:and  STATUS:               ID:20170731202746     3
 OLDACT:UP  17-08-01 03:45 OP:and  STATUS:               ID:20170731202746     3
 OLDACT:UP  17-08-01 03:44 OP:and  STATUS:               ID:20170731202746     3
 OLDACT:UP  17-08-01 03:44 OP:and  STATUS:               ID:20170731202746     3
 OLDACT:REG 17-08-01 03:08 OP:and  STATUS:               ID:20170731202746     3
 2017-07-31-2028-00M.COL___398                                                 6
 STAT SP IPHASW D HRMM SECON CODA AMPLIT PERI AZIMU VELO AIN AR TRES W  DIS CAZ7
 BRR  HZ EP       2032 52.70                             147   -0.2310 40.0 104 
 BRR  HZ I        2033  1.17        16.2 0.40            144           40.0 104 
 BRR  HN ES       2033  1.83                             147    0.2410 40.0 104 
 PTB  HZ EP   9   2032 56.00                             124   -0.88 0 84.5 211 
 PTB  HN ES       2033  7.60                             125   -0.1410 84.5 211 
 PTB  HZ I        2033  7.82         4.1 0.10            125           84.5 211 
 ZAR  HZ EP   2   2032 58.66                             120    0.82 5 93.7 291 
 ZAR  HN ES       2033 10.14                             120   -0.1810 93.7 291 
 ZAR  HZ I        2033 14.23        12.0 0.10            118           93.7 291 
 BAR2 EZ ES   2   2033 15.27                             114   -0.32 5  118 124 
 BAR2 EZ I        2033 18.40         5.0 0.27            113            118 124 
 PAM  EZ EP   2 C 2033  5.56                             108    0.59 5  151  84 
 PAM  EN ES   2   2033 22.48                             108   -0.54 5  151  84 
 PAM  EZ I        2033 25.07         9.2 0.18            106            151  84 
 RUS  HZ EP   2   2033  8.17                             105   -0.21 4  180 143 
 RUS  HN ES   2   2033 29.46                             105    0.36 4  180 143 
                                                                                
