 2013 1231 2320 51.8 L   6.736 -73.221146.0  RSN  6 0.3 1.5LRSN                1
 GAP=224        0.70       3.9     5.1  5.9  0.1197E+02  0.2421E+01  0.1204E+01E
 Epicentro: VILLANUEVA - SANTANDER                                             3
 ACTION:UPD 14-01-13 10:22 OP:ep   STATUS:               ID:20131231232051 L   I
 OLDACT:REG 13-12-31 23:12 OP:nd   STATUS:               ID:20131231232000     3
 2013-12-31-2320-00M.COL___285                                                 6
 STAT SP IPHASW D HRMM SECON CODA AMPLIT PERI AZIMU VELO AIN AR TRES W  DIS CAZ7
 BRR  HZ IP     D 2321 12.70                             154   -0.0910 68.0 307 
 BRR  HN ES       2321 29.11                             154   -0.0610 68.0 307 
 BRR  HZ I        2321 33.39         5.6 0.42            142           68.0 307 
 RUS  HZ EP       2321 15.15                             145    0.0010 94.6 171 
 RUS  HN ES       2321 33.43                             145    0.0710 94.6 171 
 RUS  HZ I        2321 34.41         2.0 0.24            142           94.6 171 
 PTB  HZ EP       2321 17.59                             134   -0.35 9  138 261 
 PTB  HN ES       2321 38.06                             134   -0.28 9  138 261 
 PTB  HZ I        2321 46.00         5.2 0.42            124            138 261 
 ZAR  HZ EP       2321 24.21                             123    0.45 9  199 295 
 ZAR  HN ES       2321 49.01                             123    0.32 9  199 295 
 ZAR  HZ I        2321 54.97         4.8 0.28            114            199 295 
 CHI  HZ EP   2   2321 27.60                             118   -0.95 4  240 194 
 CHI  HN ES       2321 57.57                             118    0.36 8  240 194 
 CHI  HZ I        2322  7.89         1.8 0.34            111            240 194 
 SML  HZ EP   4   2321 27.04                             117   -1.73 0  247 338 
 SML  HN ES   4   2321 54.95                             117   -2.67 0  247 338 
 SJC  HZ EP   4   2321 45.06                             106   -2.48 0  411 328 
 SJC  HN ES   4   2322 20.20                             106   -10.8 0  411 328 
 SJC  HZ I        2323  7.62         1.8 0.64             99            411 328 
                                                                                
