 2012  831 2300  6.1 L   6.735 -73.181144.3  RSN  5 0.1 2.1LRSN                1
 GAP=228        0.38       3.5     3.4  3.7  0.7302E+01  0.1683E+01  0.7161E+00E
 Epicentro: VILLANUEVA - SANTANDER                                             3
 ACTION:UPD 12-09-10 11:59 OP:ep   STATUS:               ID:20120831230006 L   I
 2012-08-31-2300-00M.COL___218                                                 6
 STAT SP IPHASW D HRMM SECON CODA AMPLIT PERI AZIMU VELO AIN AR TRES W  DIS CAZ7
 BAR2 SZ EP   1   23 0 25.24                             173   -0.20 7 15.8 180 
 BAR2 SZ ES   1   23 0 40.40                             173   -0.12 7 15.8 180 
 BAR2 SZ I        23 0 42.90        47.1 0.32                          15.8 180 
 BRR  HZ EP       23 0 27.18                             152    0.0510 71.6 305 
 BRR  HN ES       23 0 43.68                             152    0.1510 71.6 305 
 BRR  HZ I        23 0 45.43        22.9 0.12                          71.6 305 
 RUS  HZ EP   1   23 0 29.36                             145    0.11 7 93.8 173 
 RUS  HN ES   1   23 0 47.25                             145   -0.04 7 93.8 173 
 RUS  HZ I        23 0 49.89        14.5 0.32                          93.8 173 
 PTB  HZ EP   1   23 0 32.63                             133    0.12 7  143 261 
 PTB  HN ES   1   23 0 53.10                             133    0.01 7  143 261 
 ZAR  HE ES   1   23 1  3.25                             122   -0.31 6  203 294 
 ZAR  HZ I        23 1  9.27        10.3 0.16                           203 294 
                                                                                
