 2016  831 2004  7.4 L   6.813 -73.144148.6  RSN 12 0.4 2.0LRSN                1
 GAP=119        0.97       3.5     3.7  5.4 -0.3045E+01 -0.3902E-01  0.3293E+01E
 Epicentro: LOS SANTOS - SANTANDER                                             3
 ACTION:UPD 16-10-29 15:41 OP:rebc STATUS:               ID:20160831200407 L   I
 OLDACT:REG 16-09-01 03:10 OP:ak   STATUS:               ID:20160831195734     3
 2016-08-31-1958-00M.COL___359                                                 6
 STAT SP IPHASW D HRMM SECON CODA AMPLIT PERI AZIMU VELO AIN AR TRES W  DIS CAZ7
 BAR2 EZ EP       20 4 27.33                             170   -0.1110 24.8 190 
 BAR2 EZ ES       20 4 42.72                             170   -0.3210 24.8 190 
 BAR2 EZ I        20 4 44.04        40.3 0.16                          24.8 190 
 BRR  HZ EP       20 4 29.14                             153    0.2710 70.7 297 
 BRR  HN ES       20 4 46.30                             153    0.7210 70.7 297 
 BRR  HZ I        20 4 46.96        25.0 0.10                          70.7 297 
 PAM  EZ EP       20 4 30.34                             152    0.4510 76.2  40 
 PAM  EN ES       20 4 47.31                             152   -0.0910 76.2  40 
 PAM  EZ I        20 4 49.53        31.9 0.52                          76.2  40 
 RUS  HZ EP       20 4 31.40                             144   -0.1710  102 176 
 RUS  HN ES       20 4 50.47                             144    0.0810  102 176 
 RUS  HZ I        20 4 51.32         7.7 0.24                           102 176 
 PTB  HZ EP   2   20 4 34.48                             133   -0.20 5  148 258 
 PTB  HN ES       20 4 54.98                             133   -0.95 9  148 258 
 PTB  HZ I        20 4 57.58         5.4 0.12                           148 258 
 SPBC HZ EP       20 4 36.35                             129    0.08 9  164 219 
 SPBC HN ES       20 4 58.58                             129   -0.18 9  164 219 
 SPBC HZ I        20 5  3.25        19.1 0.35                           164 219 
 ZAR  HZ EP   4   20 4 41.63                             123    1.59 0  204 292 
 ZAR  HN ES       20 5  5.13                             123   -0.33 9  204 292 
 ZAR  HZ I        20 5 12.19        15.7 0.40                           204 292 
 NOR  HZ EP       20 4 43.45                             119    0.01 8  236 234 
 NOR  HE ES       20 5 12.38                             119    0.86 8  236 234 
 NOR  HZ I        20 5 19.27         6.6 0.18                           236 234 
 CHI  HZ EP       20 4 45.51                             118    0.06 8  250 195 
 CHI  HN ES       20 5 15.08                             118   -0.02 8  250 195 
 CHI  HZ I        20 5 19.70         6.3 0.36                           250 195 
 SOCV BZ EP       20 4 50.08                             113   -0.44 7  300  57 
 SOCV BN ES   4   20 5 22.17                             113   -1.95 0  300  57 
 GUY2CHZ EP   9   20 4 52.72                             113    1.43 0  302 235 
 GUY2CHE ES       20 5 27.24                                    0.32 7  302 235 
 GUY2CHZ I        20 5 33.85         4.3 0.35                           302 235 
 CRJC HZ EP   9   20 5  7.81                             104   -2.04 0  466   4 
 CRJC HE ES       20 5 56.19                                   -0.30 5  466   4 
                                                                                
