 2017 1031 2354 56.0 L   6.733 -73.187147.3  RSN  5 0.3 1.4LRSN                1
 GAP=134        0.74       4.8     4.4  5.7  0.4726E+01 -0.1822E+01 -0.4294E+01E
 Epicentro: VILLANUEVA - SANTANDER                                             3
 ACTION:UPD 17-11-07 19:40 OP:rebc STATUS:               ID:20171031235456 L   I
 OLDACT:REG 17-11-01 06:22 OP:edw  STATUS:               ID:20171031234745     3
 2017-10-31-2348-00M.COL___417                                                 6
 STAT SP IPHASW D HRMM SECON CODA AMPLIT PERI AZIMU VELO AIN AR TRES W  DIS CAZ7
 BAR2 EZ EP       2355 15.63                             174   -0.0010 15.5 178 
 BAR2 EZ ES       2355 31.09                             174    0.1110 15.5 178 
 BAR2 EZ I        2355 32.18         8.8 0.22            170           15.5 178 
 BRR  HZ EP       2355 17.46                             153    0.1910 71.3 306 
 BRR  HN ES       2355 34.13                             153    0.2310 71.3 306 
 BRR  HZ I        2355 37.32        11.8 0.30            150           71.3 306 
 PAM  EZ EP       2355 18.40                             148   -0.4610 86.0  39 
 RUS  HZ EP       2355 19.76                             146    0.4010 93.6 173 
 RUS  HN ES       2355 37.41                             146   -0.2110 93.6 173 
 RUS  HZ I        2355 39.44         2.5 0.24            146           93.6 173 
 PTB  HZ EP       2355 22.62                             134    0.09 9  142 261 
 PTB  HN ES       2355 42.88                             134   -0.38 9  142 261 
 PTB  HZ I        2355 50.79         1.8 0.74            131            142 261 
                                                                                
