 2014 1231 2326  3.7 L   6.766 -73.154146.1  RSN  5 0.4 1.6LRSN                1
 GAP=234        0.95       6.1     6.5  8.2  0.1996E+02  0.5595E+01  0.8916E+00E
 Epicentro: LOS SANTOS - SANTANDER                                             3
 ACTION:UPD 15-02-10 17:08 OP:nd   STATUS:               ID:20141231232603 L   I
 OLDACT:REG 15-01-01 06:51 OP:spq  STATUS:               ID:20141231231746     3
 2014-12-31-2317-46M.COL___277                                                 6
 STAT SP IPHASW D HRMM SECON CODA AMPLIT PERI AZIMU VELO AIN AR TRES W  DIS CAZ7
 BRR  HZ EP     C 2326 24.75                             152   -0.1810 72.3 302 
 BRR  HN ES       2326 41.73                             152    0.2410 72.3 302 
 BRR  HZ I        2326 42.76         6.5 0.14            148           72.3 302 
 RUS  HZ EP       2326 27.52                             145    0.3210 96.9 175 
 RUS  HE ES       2326 45.48                             145   -0.0610 96.9 175 
 RUS  HZ I        2326 46.19         3.4 0.20            142           96.9 175 
 PTB  HZ EP       2326 29.74                             133   -0.79 9  146 260 
 PTB  HE ES       2326 51.04                             133   -0.43 9  146 260 
 PTB  HZ I        2326 52.55         6.3 0.22            128            146 260 
 ZAR  HZ EP   1   2326 36.76                             122    0.55 6  205 293 
 ZAR  HE ES       2327  1.84                             122    0.26 9  205 293 
 ZAR  HZ I        2327  7.73         8.5 0.32            120            205 293 
 NOR  HZ EP   1   2326 39.43                             119    0.31 6  232 235 
 NOR  HE ES   1   2327  7.34                             119    0.59 6  232 235 
 NOR  HZ I        2327 14.84         3.3 0.28            116            232 235 
                                                                                
