 2015  331 2051 44.3 L   6.791 -73.170136.5  RSN  6 0.5 1.6LRSN                1
 GAP=134        1.38       6.2     6.6  9.5 -0.9793E+01  0.9399E+01  0.7021E+01E
 Epicentro: LOS SANTOS - SANTANDER                                             3
 ACTION:UPD 15-04-30 16:31 OP:nd   STATUS:               ID:20150331205144 L   I
 OLDACT:REG 15-04-01 02:51 OP:stll STATUS:               ID:20150331204749     3
 2015-03-31-2047-49M.COL___277                                                 6
 STAT SP IPHASW D HRMM SECON CODA AMPLIT PERI AZIMU VELO AIN AR TRES W  DIS CAZ7
 BAR2 EZ EP       2052  2.01                             170   -0.8010 22.0 184 
 BAR2 EZ ES       2052 18.19                             170    0.9610 22.0 184 
 BAR2 EZ I        2052 19.43         8.5 0.20            169           22.0 184 
 BRR  HZ EP       2052  5.01                             151    0.6410 69.4 300 
 BRR  HN ES       2052 19.82                             151   -0.1910 69.4 300 
 PAM  SZ EP       2052  6.02                             148    0.3010 79.9  41 
 PAM  SE ES       2052 22.04                             148   -0.3710 79.9  41 
 PAM  SZ I        2052 25.19         5.9 0.66            153           79.9  41 
 RUS  HZ EP       2052  7.33                             142    0.2210 99.8 174 
 RUS  HN ES       2052 24.26                             142   -0.6310 99.8 174 
 RUS  HZ I        2052 26.88         4.8 0.26            144           99.8 174 
 PTB  HZ EP       2052  9.76                             130   -0.53 9  145 259 
 PTB  HN ES       2052 30.26                             130   -0.28 9  145 259 
 PTB  HZ I        2052 37.79         5.5 0.20            131            145 259 
 SPBC HZ EP       2052 12.35                             127    0.47 9  161 218 
 SPBC HE ES       2052 33.59                             127    0.21 9  161 218 
 SPBC HZ I        2052 39.29         7.3 0.22            129            161 218 
                                                                                
