 2010 1031 2151  9.9 L   6.858 -73.330124.5  RSN  7 0.3 2.1LRSN                1
 GAP=124        0.66       2.8     5.6  5.9 -0.1587E+01 -0.2654E+01 -0.4261E+01E
 Epicentro: ZAPATOCA - SANTANDER                                               3
 ACTION:UP  11-02-18 11:13 OP:tino STATUS:               ID:20101031215109 L   I
 2010-10-31-2149-24S.COL___125                                                 6
 STAT SP IPHASW D HRMM SECON CODA AMPLIT PERI AZIMU VELO SNR AR TRES W  DIS CAZ7
 BAR2 SZ EP       2151 27.44                             164     0.210   34 151 
 BAR2 SZ ES   1   2151 40.31                             164    -0.5 7   34 151 
 BAR2 SZ I        2151 41.79        74.3 0.24                            34 151 
 BRR  HZ IP     D 2151 27.79                             156     0.210   50 303 
 BRR  HZ I        2151 28.63        23.4 0.07                            50 303 
 BRR  HE ES   1   2151 41.90                             156     0.5 7   50 303 
 RUS  HZ EP   1   2151 32.44                             136     0.0 7  110 166 
 RUS  HE ES   1   2151 50.05                             136     0.1 7  110 166 
 GUE  SZ EP       2151 32.52                             134    -0.210  116  23 
 GRA  SZ EP   1   2151 33.74                             131     0.2 7  128  27 
 GRA  SZ ES   1   2151 51.81                             131    -0.1 7  128  27 
 GRA  SZ I        2151 54.63        16.4 0.58                           128  27 
 OCA  SZ EP       2151 35.90                             126     0.0 9  153   0 
 OCA  SZ ES   1   2151 55.82                             126    -0.4 7  153   0 
 OCA  SZ I        2151 56.91        20.9 0.26                           153   0 
 NOR  SN ES   2   2152  8.56                             115    -0.5 4  223 230 
                                                                                
