 2013  831 2127 59.3 L   6.799 -73.133141.2  RSN  8 0.5 2.2LRSN 2.7WRSN        1
 SPEC AVERAGE  MO 13.1 ST 15.6 OM  1.8 f0 11.4 R0.2061 AL 0.00 WI 20.0 MW  2.7 3
 SPEC SD       MO  0.2 ST 11.5 OM  0.6 f0 3.84 R0.1159 AL      WI      MW  0.1 3
 GAP= 72        1.31       4.5     4.5  7.9 -0.1821E+01 -0.2034E+01 -0.2895E+01E
 Epicentro: LOS SANTOS - SANTANDER                                             3
 SPEC BAR2SH Z MO 13.1 ST 29.2 OM  1.3 f0 15.2 R0.1266 AL-0.00 WI 20.0 MW  2.7 3
 SPEC BAR2SH Z T212831 K 0.050 GD  143 VS 5.20 DE 3.20 Q0750.0 QA 1.50 VS 5.20 3
 SPEC BRR HH Z MO 13.3 ST 29.2 OM  1.4 f0 13.6 R0.1415 AL-0.00 WI 20.0 MW  2.8 3
 SPEC BRR HH Z T212835 K 0.050 GD  158 VS 5.20 DE 3.20 Q0750.0 QA 1.50 VS 5.20 3
 SPEC PAM SH Z MO 13.3 ST  1.0 OM  1.4 f0 4.43 R0.4343 AL-0.00 WI 20.0 MW  2.8 3
 SPEC PAM SH Z T212836 K 0.050 GD  160 VS 5.20 DE 3.20 Q0750.0 QA 1.50 VS 5.20 3
 SPEC RUS HH Z MO 12.7 ST  8.0 OM  0.8 f0 13.6 R0.1415 AL-0.00 WI 20.0 MW  2.4 3
 SPEC RUS HH Z T212839 K 0.050 GD  173 VS 5.20 DE 3.20 Q0750.0 QA 1.50 VS 5.20 3
 SPEC OCA HH Z MO 13.2 ST 10.8 OM  1.2 f0 10.3 R0.1868 AL-0.00 WI 20.0 MW  2.7 3
 SPEC OCA HH Z T212846 K 0.050 GD  214 VS 5.20 DE 3.20 Q0750.0 QA 1.50 VS 5.20 3
 SPEC ZAR HH Z MO 13.5 ST 65.5 OM  1.4 f0 15.3 R0.1258 AL-0.00 WI 20.0 MW  2.9 3
 SPEC ZAR HH Z T212855 K 0.050 GD  250 VS 5.20 DE 3.20 Q0750.0 QA 1.50 VS 5.20 3
 SPEC NOR HH Z MO 13.0 ST 48.8 OM  0.9 f0 19.7 R0.0977 AL-0.00 WI 20.0 MW  2.6 3
 SPEC NOR HH Z T2129 1 K 0.050 GD  276 VS 5.20 DE 3.20 Q0750.0 QA 1.50 VS 5.20 3
 SPEC SML HH Z MO 13.2 ST662.0 OM  1.1 f0 40.0 R0.0481 AL-0.00 WI 20.0 MW  2.8 3
 SPEC SML HH Z T2129 2 K 0.050 GD  282 VS 5.20 DE 3.20 Q0750.0 QA 1.50 VS 5.20 3
 SPEC CHI HH Z MO 13.1 ST0.147 OM  1.0 f0 2.60 R0.7400 AL-0.00 WI 20.0 MW  2.7 3
 SPEC CHI HH Z T2129 4 K 0.050 GD  287 VS 5.20 DE 3.20 Q0750.0 QA 1.50 VS 5.20 3
 SPECGUY2CHH Z MO 13.2 ST  0.5 OM  1.0 f0 3.72 R 0.517 AL-0.00 WI 20.0 MW  2.7 3
 SPECGUY2CHH Z T212915 K 0.050 GD335.5 VS 5.20 DE 3.20 Q0750.0 QA 1.50 VS 5.20 3
 OLDACT:DUP 13-09-01 01:41 OP:stll STATUS:               ID:20130831211844d    3
 ACTION:UPD 14-01-14 09:08 OP:ep   STATUS:               ID:20130831212759 L   I
 OLDACT:UP  13-09-01 02:18 OP:stll STATUS:               ID:20130831211844d    3
 2013-08-31-2118-43M.COL___214                                                 6
 STAT SP IPHASW D HRMM SECON CODA AMPLIT PERI AZIMU VELO AIN AR TRES W  DIS CAZ7
 BAR2 SZ IP     C 2128 18.62                             170    0.2510 23.5 193 
 BAR2 SZ ES       2128 32.78                             170   -0.4810 23.5 193 
 BAR2 SZ I        2128 35.60        27.9 0.16            171           23.5 193 
 BRR  HZ IP     C 2128 20.49                             151    0.4810 72.4 298 
 BRR  HN ES       2128 37.38                             151    1.2010 72.4 298 
 BRR  SZ I        2128 40.54        35.0 0.22            153           72.4 298 
 PAM  SZ EP       2128 21.39                             150    0.4310 76.6  39 
 PAM  SN ES       2128 37.98                             150    0.1010 76.6  39 
 PAM  SZ I        2128 40.42        36.8 0.54            152           76.6  39 
 RUS  HZ EP       2128 22.31                             143   -0.2710  100 177 
 RUS  HN ES       2128 40.64                             143   -0.1110  100 177 
 RUS  SZ I        2128 42.28        15.2 0.30            145            100 177 
 CAPV BZ IP     D 2128 26.55                             131    0.31 9  149  37 
 CAPV BZ ES       2128 46.91                             131   -0.35 9  149  37 
 PTB  HZ EP       2128 25.50                             131   -0.50 9  149 259 
 PTB  HN ES       2128 46.42                             131   -0.43 9  149 259 
 PTB  SZ I        2128 48.02        20.0 0.32            133            149 259 
 TAM  HZ IP     D 2128 26.90                             130    0.43 9  154 105 
 TAM  HZ I        2128 27.03        33.1 0.20            133            154 105 
 TAM  HN ES       2128 47.45                             130   -0.24 9  154 105 
 OCA  HZ EP       2128 27.06                             129   -0.20 9  161 353 
 OCA  HN ES       2128 48.19                             129   -0.90 9  161 353 
                                                                                
