 2017  331 2222 16.2 L   6.768 -73.178150.3  RSN  8 0.2 1.6LRSN                1
 GAP=134        0.65       3.0     3.0  6.1  0.4571E+00 -0.1652E+01 -0.2106E+01E
 Epicentro: LOS SANTOS - SANTANDER                                             3
 ACTION:UPD 17-05-25 18:47 OP:jn   STATUS:               ID:20170331222216 L   I
 OLDACT:REG 17-04-01 04:52 OP:cog  STATUS:               ID:20170331221740     3
 2017-03-31-2218-00M.COL___368                                                 6
 STAT SP IPHASW D HRMM SECON CODA AMPLIT PERI AZIMU VELO AIN AR TRES W  DIS CAZ7
 BAR2 EZ EP       2222 36.39                             172    0.0910 19.4 181 
 BAR2 EZ I        2222 52.71        13.2 0.24            170           19.4 181 
 BRR  HZ EP       2222 38.06                             154    0.2910 69.9 302 
 BRR  HN ES       2222 54.82                             154    0.2310 69.9 302 
 PAM  EZ EP       2222 38.72                             150   -0.4810 82.4  40 
 RUS  HZ EP       2222 40.37                             146    0.2010 97.3 174 
 RUS  HN ES       2222 58.76                             146   -0.1110 97.3 174 
 PTB  HZ EP       2222 43.45                             134    0.28 9  144 260 
 PTB  HN ES       2223  4.10                             134   -0.11 9  144 260 
 PTB  HZ I        2223  8.89         4.1 0.24            133            144 260 
 SPBC HN ES       2223  6.70                             131   -0.02 9  158 219 
 ZAR  HN ES       2223 13.88                             124   -0.26 9  202 293 
 NOR  HZ EP   4   2222 55.65                             120    3.98 0  230 235 
 NOR  HN ES       2223 19.11                             120   -0.22 8  230 235 
 NOR  HZ I        2223 25.73         2.7 0.18            118            230 235 
                                                                                
