 2011  731 2016 23.3 L   6.789 -73.100148.9  RSN  5 0.3 1.7LRSN                1
 GAP=143        0.65       3.6     7.0  6.3  0.1647E+01 -0.2114E+01 -0.3451E+01E
 Epicentro: LOS SANTOS - SANTANDER                                             3
 ACTION:UPD 12-07-25 14:04 OP:epov STATUS:               ID:20110731201623 L   I
 2011-07-31-2014-32S.COL___142                                                 6
 STAT SP IPHASW D HRMM SECON CODA AMPLIT PERI AZIMU VELO AIN AR TRES W  DIS CAZ7
 BAR2 SZ EP   1   2016 43.16                             171   -0.16 7 23.5 203 
 BAR2 SZ ES   1   2016 58.47                             171   -0.46 7 23.5 203 
 BAR2 SZ I        2016 59.89        12.6 0.22                          23.5 203 
 PAM  SZ EP   1   2016 46.03                             152    0.29 7 75.3  36 
 PAM  SN ES   1   2017  3.54                             152    0.31 7 75.3  36 
 BRR  HZ EP   1   2016 45.11                             151    0.03 7 76.2 298 
 BRR  HE ES   1   2017  2.57                             151    0.50 7 76.2 298 
 BRR  HZ I        2017  5.40        11.0 0.24                          76.2 298 
 RUS  HZ EP   1   2016 47.27                             145    0.01 7 99.1 179 
 RUS  HN ES   1   2017  5.93                             145   -0.02 7 99.1 179 
 RUS  HZ I        2017  7.51         6.1 0.48                          99.1 179 
 OCA  SZ EP   1   2016 52.05                             130    0.01 7  162 351 
 OCA  SZ ES   1   2017 13.86                             130   -0.60 7  162 351 
 OCA  SZ I        2017 17.73         7.0 0.42                           162 351 
                                                                                
