 2017  131 2311 47.2 L   6.769 -73.121144.7  RSN  5 0.4 1.2LRSN                1
 GAP=141        0.78       4.1     4.2  7.0  0.3001E+01  0.7878E+01  0.3970E+01E
 Epicentro: LOS SANTOS - SANTANDER                                             3
 ACTION:UPD 17-05-22 16:05 OP:jn   STATUS:               ID:20170131231147 L   I
 OLDACT:UP  17-02-01 04:18 OP:dani STATUS:               ID:20170131230745     3
 OLDACT:REG 17-02-01 03:18 OP:dani STATUS:               ID:20170131230745     3
 2017-01-31-2308-00M.COL___325                                                 6
 STAT SP IPHASW D HRMM SECON CODA AMPLIT PERI AZIMU VELO AIN AR TRES W  DIS CAZ7
 BRR  HZ EP       2312  8.23                             151   -0.2410 75.2 300 
 BRR  HN ES       2312 25.07                             151    0.0110 75.2 300 
 BRR  HZ I        2312 26.05         9.1 0.34            152           75.2 300 
 PAM  EZ EP       2312  9.35                             151   -0.0210 78.4  36 
 PAM  EE ES       2312 26.56                             151   -0.1010 78.4  36 
 PAM  EZ I        2312 28.85         3.3 0.66            152           78.4  36 
 RUS  HZ EP       2312 10.96                             145    0.3710 97.0 177 
 RUS  HN ES       2312 28.87                             145    0.0310 97.0 177 
 RUS  HZ I        2312 29.72         1.2 0.28            146           97.0 177 
 PTB  HZ EP       2312 13.84                             131   -0.43 9  150 260 
 PTB  HN ES   3   2312 33.76                             131   -1.62 2  150 260 
 PTB  HZ I        2312 37.51         1.5 0.23            133            150 260 
 ZAR  HN ES       2312 46.10                             122    0.57 8  208 293 
                                                                                
