 2017  531 2237 44.6 L   6.920 -73.136134.0  RSN  5 0.2 1.7LRSN                1
 GAP=249        0.50       3.5     3.4  5.0  0.3729E+01  0.1760E+01  0.4837E+01E
 Epicentro: PIEDECUESTA - SANTANDER                                            3
 ACTION:UPD 17-06-16 13:40 OP:jn   STATUS:               ID:20170531223744 L   I
 OLDACT:UP  17-06-01 06:56 OP:dnl  STATUS:               ID:20170531222738d    3
 OLDACT:DUP 17-06-01 06:53 OP:dnl  STATUS:               ID:20170531222738d    3
 2017-05-31-2228-00M.COL___346                                                 6
 STAT SP IPHASW D HRMM SECON CODA AMPLIT PERI AZIMU VELO AIN AR TRES W  DIS CAZ7
 BRR  HZ IP   4 C 2238  5.91                             152    1.70 0 66.9 288 
 BRR  HN ES       2238 19.34                             152   -0.1910 66.9 288 
 BRR  HZ I        2238 26.86        11.0 0.42            152           66.9 288 
 RUS  HZ EP       2238  8.29                             137    0.0610  114 177 
 RUS  HN ES       2238 26.80                             137    0.1110  114 177 
 RUS  HZ I        2238 28.33         5.4 0.22            143            114 177 
 PTB  HZ EP       2238 11.05                             128    0.05 9  152 254 
 PTB  HN ES       2238 31.95                             128    0.33 9  152 254 
 PTB  HZ I        2238 33.05         3.5 0.16            132            152 254 
 SPBC HZ EP   2   2238 13.37                             124    0.06 4  174 217 
 SPBC HE ES       2238 35.38                             124   -0.34 9  174 217 
 SPBC HZ I        2238 37.74        10.5 0.30            128            174 217 
 NOR  HZ EP   2   2238 20.29                             115   -0.33 4  243 232 
 NOR  HE ES       2238 48.74                             115    0.01 8  243 232 
 NOR  HZ I        2238 53.78         3.6 0.22            119            243 232 
                                                                                
