 2010  531 2101 49.6 L   6.819 -73.039142.2  RSN  6 0.4 2.0LRSN                1
 GAP=200        0.67       4.7    12.1 10.4 -0.2215E+02  0.3018E+02  0.1971E+01E
 Epicentro: CEPITA - SANTANDER                                                 3
 ACTION:UP  10-08-24 10:07 OP:vdl  STATUS:               ID:20100531210149 L   I
 2010-05-31-2059-00S.COL___109                                                 6
 STAT SP IPHASW D HRMM SECON CODA AMPLIT PERI AZIMU VELO SNR AR TRES W  DIS CAZ7
 BAR2 SZ EP   1   21 2  8.92                             167    -0.1 8   30 212 
 BAR2 SZ ES   2   21 2 23.72                             167    -0.4 5   30 212 
 GIR2 SZ EP   2   21 2  9.02                             166     0.1 5   33 329 
 GUE  SZ EP   1   21 2 13.88                             140     0.2 8  113   6 
 GRA  SZ ES   2   21 2 34.17                             137     0.9 5  121  12 
 OCA  SZ EP   2   21 2 16.94                             129    -0.7 5  160 349 
 OCA  SZ ES       21 2 39.36                             129    -0.110  160 349 
 OCA  SZ I        21 2 40.79        12.8 0.52                           160 349 
 RREF BZ EP   2   21 2 36.88                             109     0.1 4  332 230 
 RREF BE ES   2   21 3 14.27                             109     0.6 4  332 230 
 RREF BZ I        21 3 21.21         3.7 0.20                           332 230 
                                                                                
