 2011  331 2040 32.1 L   6.770 -73.094148.9  RSN  6 0.2 1.8LRSN                1
 GAP=172        0.44       5.8     4.8  4.5 -0.8867E+01 -0.6467E+00 -0.4060E+01E
 Epicentro: LOS SANTOS - SANTANDER                                             3
 ACTION:UP  11-06-16 14:37 OP:jfem STATUS:               ID:20110331204031 L   I
 2011-03-31-2037-44S.COL___138                                                 6
 STAT SP IPHASW D HRMM SECON CODA AMPLIT PERI AZIMU VELO SNR AR TRES W  DIS CAZ7
 BAR2 SZ EP   1   2040 51.87                             171    -0.2 7   22 207 
 BAR2 SZ ES   1   2041  7.86                             171     0.2 7   22 207 
 BAR2 SZ I        2041  8.22        17.1 0.41                            22 207 
 BTL  SZ ES   3   2041  6.85                             170    -0.9 2   25 310 
 GIR2 SZ EP   3   2040 51.88                             166    -0.4 2   36 342 
 GIR2 SZ ES   3   2041  8.12                             166     0.1 2   36 342 
 PAM  SZ EP   1   2040 54.76                             152     0.2 7   77  35 
 PAM  SN ES   1   2041 12.08                             152    -0.1 7   77  35 
 PAM  SZ I        2041 14.66         2.4 0.52                            77  35 
 BRR  HZ EP       2040 53.84                             151    -0.110   78 299 
 BRR  HZ I        2040 54.12        35.7 0.11                            78 299 
 BRR  HE ES   1   2041 11.18                             151     0.2 7   78 299 
 GRA  SZ EP   1   2040 57.78                             137     0.0 7  127  15 
                                                                                
