 2016 1231 2316  9.4 L   6.770 -73.171147.8  RSN  4 0.1 1.1LRSN                1
 GAP=232        0.38       4.2     4.8  3.7  0.1709E+02 -0.1038E+01 -0.1625E+01E
 Epicentro: LOS SANTOS - SANTANDER                                             3
 ACTION:UPD 17-01-11 20:21 OP:rebc STATUS:               ID:20161231231609 L   I
 OLDACT:REG 17-01-01 02:53 OP:dani STATUS:               ID:20161231230744     3
 2016-12-31-2308-00M.COL___381                                                 6
 STAT SP IPHASW D HRMM SECON CODA AMPLIT PERI AZIMU VELO AIN AR TRES W  DIS CAZ7
 BAR2 EZ EP       2316 28.98                             172   -0.1910 19.7 184 
 BAR2 EZ ES   1   2316 44.67                             172    0.05 7 19.7 184 
 BRR  HZ EP       2316 30.71                             153    0.0210 70.5 302 
 BRR  HN ES       2316 47.38                             153    0.0610 70.5 302 
 BRR  HZ I        2316 49.80         2.4 0.26            148           70.5 302 
 RUS  HZ EP       2316 33.26                             145    0.1710 97.5 174 
 RUS  HN ES       2316 51.55                             145   -0.0610 97.5 174 
 RUS  HZ I        2316 52.72         2.1 0.20            142           97.5 174 
 ZAR  HN ES       2317  7.07                             123   -0.04 9  203 293 
 ZAR  HZ I        2317 12.67                             121            203 293 
                                                                                
