 2010  531 2141  4.5 L   6.786 -73.014141.5  RSN  8 0.5 2.5LRSN                1
 GAP=188        0.77       5.3     9.7  8.3 -0.3034E+02  0.1235E+02 -0.2838E+00E
 Epicentro: CEPITA - SANTANDER                                                 3
 ACTION:UP  10-08-24 10:07 OP:vdl  STATUS:               ID:20100531214104 L   I
 2010-05-31-2138-44S.COL___109                                                 6
 STAT SP IPHASW D HRMM SECON CODA AMPLIT PERI AZIMU VELO SNR AR TRES W  DIS CAZ7
 BAR2 SZ IP       2141 23.83                             168     0.110   28 221 
 BAR2 SZ ES   2   2141 38.16                             168    -0.6 5   28 221 
 GIR2 SZ EP       2141 23.81                             165    -0.110   38 329 
 GIR2 SZ ES   2   2141 38.80                             165    -0.2 5   38 329 
 GUE  SZ EP   1   2141 28.60                             139    -0.2 7  116   5 
 GRA  SZ EP       2141 29.53                             137     0.310  124  11 
 GRA  SZ ES   2   2141 48.75                             137     0.3 5  124  11 
 OCA  SZ EP   1   2141 32.04                             128    -0.8 7  164 348 
 OCA  SZ ES   2   2141 55.96                             128     1.0 5  164 348 
 OCA  SZ I        2141 58.30        36.4 0.08                           164 348 
 CHI  HZ EP   2   2141 42.54                             116     0.3 4  251 198 
 CHI  HE ES   2   2142 12.53                             116     0.8 4  251 198 
 CHI  HZ I        2142 19.55        15.0 0.46                           251 198 
 HEL  HZ EP   2   2141 45.29                             113    -0.8 4  286 257 
 HEL  HN ES   2   2142 18.91                             113     0.5 4  286 257 
 HEL  HZ I        2142 23.07        17.6 0.31                           286 257 
 TOL  SZ EP   2   2141 53.60                             108    -0.1 3  353 227 
 TOL  SZ ES   2   2142 31.95                             108    -0.1 3  353 227 
                                                                                
