 2016 1231 2108 47.7 L   6.738 -73.123152.7  RSN  8 0.5 1.7LRSN                1
 GAP=142        1.10       5.3     4.8  7.9 -0.1757E+01  0.8888E+01  0.1463E+01E
 Epicentro: JORDAN - SANTANDER                                                 3
 ACTION:UPD 17-01-11 20:21 OP:rebc STATUS:               ID:20161231210847 L   I
 OLDACT:UP  17-01-01 03:12 OP:dani STATUS:               ID:20161231210746     3
 OLDACT:UP  17-01-01 03:11 OP:dani STATUS:               ID:20161231210746     3
 OLDACT:UP  17-01-01 03:10 OP:dani STATUS:               ID:20161231210746     3
 OLDACT:UP  17-01-01 03:08 OP:dani STATUS:               ID:20161231210746     3
 OLDACT:REG 17-01-01 02:45 OP:dani STATUS:               ID:20161231210746     3
 2016-12-31-2108-00M.COL___384                                                 6
 STAT SP IPHASW D HRMM SECON CODA AMPLIT PERI AZIMU VELO AIN AR TRES W  DIS CAZ7
 BAR2 EZ EP       21 9  8.21                             173    0.1510 17.4 202 
 BAR2 EZ ES       21 9 23.95                             173    0.0110 17.4 202 
 BAR2 EZ I        21 9 24.23        11.0 0.26            174           17.4 202 
 BRR  HZ EP       21 9 10.17                             152    0.2610 76.8 302 
 BRR  HN ES       21 9 27.29                             152    0.0610 76.8 302 
 BRR  HZ I        21 9 28.16        10.7 0.12            150           76.8 302 
 PAM  EZ EP       21 9 11.35                             151    0.4710 81.3  35 
 PAM  EN ES       21 9 28.55                             151   -0.4110 81.3  35 
 PAM  EZ I        21 9 30.52         7.0 0.21            151           81.3  35 
 RUS  HZ EP       21 9 10.78                             147   -0.8810 93.6 177 
 RUS  HN ES       21 9 30.97                             147    0.6210 93.6 177 
 RUS  HZ I        21 9 31.95         3.4 0.28            149           93.6 177 
 PTB  HZ EP       21 9 15.23                             133   -0.12 9  149 262 
 PTB  HN ES       21 9 36.21                             133   -0.70 9  149 262 
 PTB  HZ I        21 9 38.39         8.1 0.14            133            149 262 
 ZAR  HZ EP   3   21 9 22.48                             123    1.38 2  209 294 
 ZAR  HN ES       21 9 47.50                             123    0.34 8  209 294 
 ZAR  HZ I        21 9 53.33         6.8 0.37            123            209 294 
 NOR  HN ES       21 9 51.87                             120    0.20 8  233 236 
 SJC  HZ EP   3   21 9 43.06                             106   -1.26 1  416 327 
                                                                                
