 2011  531 2119 46.3 L   6.791 -73.108141.6  RSN  9 0.3 1.9LRSN                1
 GAP=142        0.56       3.0     5.1  5.9 -0.2704E+01 -0.4982E+01 -0.3224E+01E
 Epicentro: LOS SANTOS - SANTANDER                                             3
 ACTION:UP  11-06-29 08:57 OP:tino STATUS:               ID:20110531211946 L   I
 2011-05-31-2116-54S.COL___114                                                 6
 STAT SP IPHASW D HRMM SECON CODA AMPLIT PERI AZIMU VELO SNR AR TRES W  DIS CAZ7
 BTL  SZ EP       2120  5.65                             170     0.310   23 309 
 BAR2 SZ EP   2   2120  5.07                             170    -0.3 5   23 201 
 BAR2 SZ ES   2   2120 19.55                             170    -0.8 5   23 201 
 BAR2 SZ I        2120 22.08        24.2 0.25                            23 201 
 BRR  HZ EP       2120  7.30                             150     0.110   75 298 
 BRR  HE ES   1   2120 23.85                             150     0.3 7   75 298 
 BRR  HZ I        2120 25.76        23.6 0.11                            75 298 
 PAM  SZ EP   2   2120  7.96                             151     0.0 5   76  37 
 RUS  HZ EP   1   2120  9.60                             143     0.1 7   99 178 
 RUS  HN ES   1   2120 27.70                             143     0.0 7   99 178 
 RUS  HZ I        2120 30.71         5.4 0.23                            99 178 
 BRI  SZ EP   1   2120  9.74                             141     0.0 7  108  19 
 GRA  SZ EP       2120 11.06                             136    -0.110  126  15 
 GRA  SZ I        2120 12.39        16.2 0.23                           126  15 
 GRA  SZ ES   2   2120 30.19                             136    -0.3 5  126  15 
 OCA  SZ EP   2   2120 14.08                             128    -0.3 5  162 352 
 OCA  SZ ES   2   2120 36.11                             128    -0.2 5  162 352 
 OCA  SZ I        2120 41.02        10.4 0.38                           162 352 
 NOR  SZ EP   2   2120 21.52                             117    -0.5 4  238 235 
 NOR  SN ES   2   2120 49.71                             117    -0.3 4  238 235 
                                                                                
