 2012  531 2302 51.5 L   6.832 -73.155146.0  RSN  8 0.3 1.9LRSN                1
 GAP=134        0.68       3.6     4.5  7.2 -0.8977E+00  0.1678E+02  0.1498E+01E
 Epicentro: LOS SANTOS - SANTANDER                                             3
 ACTION:UP  12-07-05 12:09 OP:pat  STATUS:               ID:20120531230250 L   I
 2012-05-31-2300-00M.COL___201                                                 6
 STAT SP IPHASW D HRMM SECON CODA AMPLIT PERI AZIMU VELO AIN AR TRES W  DIS CAZ7
 BAR2 SZ EP   1   23 3 11.51                             169     0.3 8   27 187 
 BAR2 SZ ES   1   23 3 26.56                             169     0.0 8   27 187 
 BAR2 SZ I        23 3 27.49        22.2 0.30                            27 187 
 PAM  SE ES   1   23 3 31.15                             151     0.3 8   75  42 
 RUS  HZ EP   1   23 3 15.15                             143    -0.4 8  104 176 
 RUS  HN ES   1   23 3 34.21                             143     0.0 8  104 176 
 RUS  HZ I        23 3 35.69         7.8 0.48                           104 176 
 PTB  HZ EP       23 3 18.26                             132    -0.210  148 257 
 PTB  HN ES   1   23 3 39.25                             132    -0.2 7  148 257 
 PTB  HZ I        23 3 43.45         9.1 0.11                           148 257 
 OCA  HN ES   1   23 3 40.85                             130    -0.4 7  157 353 
 ZAR  HN ES   1   23 3 49.10                             123     0.3 7  202 291 
 ZAR  HZ I        23 3 56.02        12.0 0.25                           202 291 
 NOR  SE ES   1   23 3 55.39                             118     0.1 6  236 234 
 HEL  HZ EP   1   23 3 32.25                             115     0.6 6  272 255 
 HEL  HZ I        23 4  9.38         5.6 0.35                           272 255 
                                                                                
