 2012 1231 2056 20.0 L   6.779 -73.184133.6  RSN  5 0.4 1.6LRSN                1
 GAP=232        0.73       8.4     7.3  8.7  0.3734E+02  0.8344E+01 -0.2085E+02E
 Epicentro: LOS SANTOS - SANTANDER                                             3
 ACTION:UPD 13-01-04 14:31 OP:ep   STATUS:               ID:20121231205620 L   I
 2012-12-31-2050-00M.COL___242                                                 6
 STAT SP IPHASW D HRMM SECON CODA AMPLIT PERI AZIMU VELO AIN AR TRES W  DIS CAZ7
 BAR2 SZ ES   1   2056 52.00                             171   -0.23 7 20.7 180 
 BRR  HZ EP   1   2056 39.86                             151    0.18 7 68.7 302 
 BRR  HN ES   4   2056 56.90                             151    1.86 0 68.7 302 
 BRR  HZ I        2057  1.00         7.8 0.13                          68.7 302 
 RUS  HZ EP   1   2056 42.25                             142   -0.16 7 98.7 174 
 RUS  HN ES   1   2057  0.24                             142    0.33 7 98.7 174 
 RUS  HZ I        2057  2.30         4.8 0.26                          98.7 174 
 PTB  HZ EP   1   2056 44.83                             130   -0.73 7  143 259 
 PTB  HN ES   1   2057  5.68                             130    0.17 7  143 259 
 PTB  HZ I        2057  8.28         8.1 0.12                           143 259 
 ZAR  HZ EP   1   2056 51.98                             120    0.63 6  201 293 
 ZAR  HN ES   1   2057 15.68                             120   -0.13 6  201 293 
 ZAR  HZ I        2057 22.58         5.6 0.10                           201 293 
                                                                                
