 2012 1231 2356 57.2 L   6.727 -73.200155.3  RSN  4 0.3 1.2LRSN                1
 GAP=225        0.50       4.7     5.6  6.6  0.1264E+02 -0.5566E+00  0.1707E+01E
 Epicentro: VILLANUEVA - SANTANDER                                             3
 ACTION:UPD 13-01-04 14:31 OP:ep   STATUS:               ID:20121231235657 L   I
 2012-12-31-2350-00M.COL___242                                                 6
 STAT SP IPHASW D HRMM SECON CODA AMPLIT PERI AZIMU VELO AIN AR TRES W  DIS CAZ7
 BRR  HZ EP   1   2357 19.48                             154    0.10 7 70.4 307 
 BRR  HN ES   1   2357 36.91                             154    0.25 7 70.4 307 
 BRR  HZ I        2357 43.19         3.2 0.50                          70.4 307 
 RUS  HZ EP   1   2357 21.46                             148    0.02 7 93.2 172 
 RUS  HN ES   1   2357 40.03                             148   -0.30 7 93.2 172 
 RUS  HZ I        2357 41.12         1.9 0.36                          93.2 172 
 PTB  HZ EP   1   2357 24.27                             136   -0.09 7  140 262 
 PTB  HN ES   1   2357 45.31                             136   -0.21 7  140 262 
 PTB  HZ I        2357 47.90         2.1 0.18                           140 262 
 CHI  HN ES   2   2358  4.23                             120    0.68 4  239 194 
                                                                                
