 2010 1031 2244 39.1 L   6.878 -73.097140.0  RSN  7 0.3 2.2LRSN                1
 GAP=163        0.80       3.8     8.3  8.1 -0.2492E+01 -0.8671E+01 -0.2872E+01E
 Epicentro: LOS SANTOS - SANTANDER                                             3
 ACTION:UP  11-02-18 11:13 OP:tino STATUS:               ID:20101031224439 L   I
 2010-10-31-2242-13S.COL___125                                                 6
 STAT SP IPHASW D HRMM SECON CODA AMPLIT PERI AZIMU VELO SNR AR TRES W  DIS CAZ7
 BAR2 SZ EP       2244 58.19                             166    -0.110   33 197 
 BAR2 SZ ES   2   2245 12.76                             166    -0.5 5   33 197 
 BAR2 SZ I        2245 15.82        27.4 0.22                            33 197 
 BRR  HZ IP     C 2244 59.57                             152    -0.210   73 290 
 BRR  HZ I        2245  1.39        50.9 0.15                            73 290 
 BRR  HN ES   1   2245 16.17                             152     0.4 7   73 290 
 GUE  SZ EP   1   2245  2.63                             141     0.1 7  107  10 
 RUS  HZ EP   1   2245  2.62                             141    -0.3 7  109 179 
 RUS  HN ES   1   2245 21.89                             141     0.3 7  109 179 
 RUS  HZ I        2245 22.80         8.5 0.59                           109 179 
 GRA  SZ EP   1   2245  3.26                             138     0.2 7  116  16 
 GRA  SZ ES   1   2245 22.21                             138     0.5 7  116  16 
 GRA  SZ I        2245 23.41        35.5 0.20                           116  16 
 OCA  SZ EP   1   2245  5.96                             130    -0.3 7  152 351 
 OCA  SZ ES   1   2245 26.97                             130    -0.4 7  152 351 
 OCA  SZ I        2245 31.17        18.0 0.47                           152 351 
 HEL  HZ EP   2   2245 20.57                             113     0.7 4  280 254 
 HEL  HZ I        2245 57.73        10.3 0.80                           280 254 
                                                                                
