 2016  131 2256 50.4 L   6.799 -73.143147.3  RSN  4 0.2 1.4LRSN                1
 GAP=137        0.46       2.7     2.8  5.1 -0.1014E+01  0.6785E+01 -0.1967E+01E
 Epicentro: LOS SANTOS - SANTANDER                                             3
 ACTION:UPD 16-03-09 23:30 OP:cam  STATUS:               ID:20160131225650 L   I
 OLDACT:UP  16-02-01 07:47 OP:mh   STATUS:               ID:20160131224018     3
 OLDACT:UP  16-02-01 07:47 OP:mh   STATUS:               ID:20160131224018     3
 OLDACT:REG 16-02-01 04:55 OP:mh   STATUS:               ID:20160131224018     3
 2016-1-31-2248_224800_840.mseed                                               6
 STAT SP IPHASW D HRMM SECON CODA AMPLIT PERI AZIMU VELO AIN AR TRES W  DIS CAZ7
 PAM  EZ EP       2257 12.73                             151    0.0110 77.3  39 
 PAM  EN ES       2257 30.14                             151   -0.0310 77.3  39 
 PAM  EZ I        2257 32.48         4.3 0.44            153           77.3  39 
 RUS  HZ EP   1   2257 14.05                             144   -0.20 7  100 176 
 RUS  HN ES       2257 33.00                             144    0.1210  100 176 
 RUS  HZ I        2257 34.08         2.8 0.24            148            100 176 
 PTB  HZ EP       2257 17.63                             132    0.17 9  148 259 
 PTB  HN ES   1   2257 38.23                             132   -0.38 7  148 259 
 PTB  HZ I        2257 40.00         3.5 0.14            134            148 259 
 ZAR  HZ EP   1   2257 22.77                             123   -0.15 6  204 292 
 ZAR  HN ES   1   2257 48.62                             123    0.29 6  204 292 
 ZAR  HZ I        2257 51.74         2.5 0.28            124            204 292 
                                                                                
