 2013  331 2351  6.5 L   6.753 -73.156142.9  RSN  5 0.3 2.2LRSN                1
 GAP=137        0.80       4.5     4.0  7.7 -0.2225E+01  0.7483E+01 -0.2549E+01E
 Epicentro: LOS SANTOS - SANTANDER                                             3
 ACTION:UPD 13-04-09 14:06 OP:ep   STATUS:               ID:20130331235106 L   I
 2013-03-31-2350-00M.COL___245                                                 6
 STAT SP IPHASW D HRMM SECON CODA AMPLIT PERI AZIMU VELO AIN AR TRES W  DIS CAZ7
 BRR  HZ EP       2351 27.46                             151    0.0210 72.8 303 
 BRR  HN ES       2351 44.32                             151    0.5610 72.8 303 
 BRR  HN I        2351 49.72        25.1 0.48            148           72.8 303 
 PAM  SZ EP       2351 28.90                             149    0.1910 82.2  38 
 PAM  SN ES       2351 45.73                             149   -0.3010 82.2  38 
 PAM  SN I        2351 46.75        24.6 0.50            150           82.2  38 
 RUS  HN ES       2351 47.44                             145   -0.1910 95.5 175 
 PTB  HZ EP       2351 33.24                             132    0.19 9  146 261 
 PTB  HN ES       2351 53.54                             132   -0.21 9  146 261 
 PTB  HN I        2351 55.36        18.8 0.70            132            146 261 
 ZAR  HN ES   1   2352  3.47                             121   -0.63 6  205 294 
 ZAR  HN I        2352 11.46        19.5 0.38            122            205 294 
                                                                                
