 2012  131 2250  1.3 L   6.811 -73.142147.0  RSN 16 0.4 2.4LRSN                1
 GAP=103        0.81       4.0     4.6  6.3 -0.6750E+01  0.5408E+01  0.2894E+01E
 Epicentro: LOS SANTOS - SANTANDER                                             3
 ACTION:UP  12-02-03 08:22 OP:REBC STATUS:               ID:20120131225001 L   I
 2012-01-31-2250-00M.COL___188                                                 6
 STAT SP IPHASW D HRMM SECON CODA AMPLIT PERI AZIMU VELO SNR AR TRES W  DIS CAZ7
 BAR2 SZ EP       2250 21.16                             170     0.010   25 190 
 BAR2 SZ I        2250 37.51        73.7 0.22                            25 190 
 GIR2 SZ EP       2250 21.17                             168     0.010   30 349 
 BRR  HZ IP     C 2250 23.03                             153     0.410   71 297 
 BRR  HE ES   2   2250 38.95                             153    -0.3 5   71 297 
 BRR  HZ I        2250 42.42        55.2 0.28                            71 297 
 PAM  SZ EP       2250 23.97                             151     0.410   76  40 
 PAM  SN ES   1   2250 41.07                             151     0.1 7   76  40 
 RUS  HZ EP       2250 25.21                             144    -0.110  102 176 
 RUS  HN ES   1   2250 43.69                             144    -0.3 7  102 176 
 RUS  HZ I        2250 45.25        28.9 0.26                           102 176 
 PTB  HZ EP       2250 27.73                             132    -0.7 9  148 258 
 PTB  HE ES   2   2250 49.33                             132    -0.3 5  148 258 
 PTB  HZ I        2250 52.14        21.6 0.22                           148 258 
 OCA  SZ EP   2   2250 29.91                             130     0.3 5  159 353 
 OCA  SZ I        2250 54.92        39.7 0.20                           159 353 
 YOP  SN ES   3   2250 55.40                             126     0.3 2  180 154 
 ZAR  HZ EP   2   2250 33.97                             123     0.1 4  204 292 
 ZAR  HZ I        2251  4.94        33.0 0.60                           204 292 
 NOR  SZ EP       2250 37.58                             119     0.3 8  236 234 
 NOR  SN ES   1   2251  4.99                             119    -0.3 6  236 234 
 CHI  HZ EP       2250 39.44                             117     0.2 8  250 195 
 CHI  HZ I        2250 41.91        10.6 0.38                           250 195 
 CHI  HE ES   2   2251  8.66                             117    -0.2 4  250 195 
 ROSC BN ES   2   2251 10.28                             117     0.7 4  254 211 
 ROSC BZ I        2251 17.76        21.9 0.40                           254 211 
 HEL  HZ EP   2   2250 41.84                             115     0.1 4  273 256 
 HEL  HE ES   3   2251 13.77                             115     0.6 2  273 256 
 HEL  HZ I        2251 20.94         9.0 0.22                           273 256 
 RREF HZ EP   2   2250 48.47                             111     0.8 3  323 229 
 RREF HZ I        2251 35.23        18.7 0.38                           323 229 
 SDV  BZ EP       2250 50.69                             108    -0.6 6  359  50 
 PRA  HZ EP       2250 54.68                             107    -0.4 6  393 210 
                                                                                
