 2015 1231 2032 38.3 L   6.769 -73.093142.2  RSN 13 0.4 2.1LRSN                1
 GAP=145        0.91       2.3     3.4  4.5 -0.1562E+01  0.3782E+01  0.4455E+00E
 Epicentro: LOS SANTOS - SANTANDER                                             3
 ACTION:UPD 16-02-04 15:09 OP:cam  STATUS:               ID:20151231203238 L   I
 OLDACT:REG 16-01-01 02:16 OP:cara STATUS:               ID:20151231202748     3
 2015-12-31-2027-48M.COL___329                                                 6
 STAT SP IPHASW D HRMM SECON CODA AMPLIT PERI AZIMU VELO AIN AR TRES W  DIS CAZ7
 BAR2 EZ IP     C 2032 57.50                             171   -0.0010 22.0 207 
 BAR2 EZ ES       2033 12.32                             171   -0.1410 22.0 207 
 BAR2 EZ I        2033 13.73        30.1 0.16            169           22.0 207 
 PAM  EZ IP     D 2033  0.61                             150    0.4910 76.6  35 
 PAM  EN ES       2033 17.36                             150    0.2510 76.6  35 
 PAM  EZ I        2033 19.03        19.8 0.18            152           76.6  35 
 BRR  HZ IP     C 2032 59.37                             150   -0.1310 77.9 299 
 BRR  HE ES       2033 16.53                             150    0.5310 77.9 299 
 BRR  HZ I        2033 17.53        20.1 0.12            148           77.9 299 
 RUS  HZ EP       2033  1.46                             144   -0.0110 97.0 179 
 RUS  HE ES       2033 19.37                             144   -0.1510 97.0 179 
 RUS  HZ I        2033 21.16         9.0 0.32            145           97.0 179 
 PTB  HZ EP   9   2033  4.32                             130   -1.17 0  153 261 
 PTB  HN ES       2033 25.24                                   -0.26 9  153 261 
 PTB  HZ I        2033 27.50        17.0 0.16            130            153 261 
 OCA  HZ EP       2033  7.26                             128    0.50 9  164 351 
 OCA  HN ES       2033 28.46                             128   -0.48 9  164 351 
 OCA  HZ I        2033 32.42        27.7 0.22            129            164 351 
 SPBC HZ IP       2033  6.51                             128   -0.16 9  164 221 
 SPBC HN ES       2033 28.30                             128   -0.48 9  164 221 
 SPBC HZ I        2033 30.04        23.7 0.12            128            164 221 
 ZAR  HZ EP   4   2033  9.47                             121   -1.78 0  211 292 
 ZAR  HE ES       2033 37.26                             121    0.34 8  211 292 
 ZAR  HZ I        2033 42.32        15.6 0.36            121            211 292 
 NOR  HZ IP       2033 14.06                             117   -0.11 8  238 236 
 NOR  HN ES       2033 41.67                             117   -0.45 8  238 236 
 NOR  HZ I        2033 48.22        12.3 0.18            117            238 236 
 CHI  HZ EP       2033 15.25                             116   -0.40 8  247 197 
 CHI  HN ES       2033 44.97                             116    0.21 8  247 197 
 CHI  HZ I        2033 51.03         5.9 0.28            117            247 197 
 SML  HZ EP       2033 14.78                             116   -0.59 8  249 334 
 SML  HE ES       2033 43.47                             116   -0.78 8  249 334 
 SML  HZ I        2033 46.19        13.4 0.34            117            249 334 
 HEL  HZ EP       2033 19.30                             114    0.39 7  277 257 
 HEL  HN ES       2033 50.63                             114    0.07 7  277 257 
 HEL  HZ I        2033 56.53         7.3 0.26            114            277 257 
 GUY2CHZ EP       2033 22.39                             111    0.29 7  304 236 
 GUY2CHN ES       2033 56.94                             111    0.69 7  304 236 
 GUY2CHZ I        2034  4.10         7.9 0.38                           304 236 
                                                                                
