 2013 1231 2302 42.4 L   6.779 -73.195128.6  RSN  7 0.5 1.7LRSN                1
 GAP=196        1.00       5.4     7.4 10.3  0.1822E+02  0.1400E+00  0.6044E+00E
 Epicentro: ZAPATOCA - SANTANDER                                               3
 ACTION:UPD 14-01-13 10:22 OP:ep   STATUS:               ID:20131231230242 L   I
 OLDACT:REG 13-12-31 23:12 OP:nd   STATUS:               ID:20131231230000     3
 2013-12-31-2300-00M.COL___285                                                 6
 STAT SP IPHASW D HRMM SECON CODA AMPLIT PERI AZIMU VELO AIN AR TRES W  DIS CAZ7
 BRR  HZ EP       23 3  1.98                             150    0.4610 67.6 302 
 BRR  HN ES   2   23 3 17.17                             150    0.75 5 67.6 302 
 BRR  HZ I        23 3 22.64        11.4 0.12            149           67.6 302 
 RUS  HZ EP       23 3  4.77                             140    0.3810 98.9 173 
 RUS  HN ES       23 3 20.98                             140   -0.5510 98.9 173 
 RUS  HZ I        23 3 24.36         3.2 0.26            144           98.9 173 
 PTB  HZ EP       23 3  6.98                             129   -0.51 9  142 259 
 PTB  HN ES       23 3 26.98                             129   -0.06 9  142 259 
 PTB  HZ I        23 3 30.34         5.8 0.32            130            142 259 
 ZAR  HZ EP   4   23 3 14.09                             118    0.73 0  200 293 
 ZAR  HN ES   4   23 3 37.36                             118   -0.13 0  200 293 
 ZAR  HZ I        23 3 44.55         8.1 0.20            121            200 293 
 SML  HZ EP   4   23 3 16.51                             113   -1.61 0  244 337 
 SML  HN ES   2   23 3 44.91                             113   -1.06 4  244 337 
 SML  HZ I        23 3 49.52         7.2 0.22            117            244 337 
 CHI  HZ EP       23 3 19.11                             113    0.29 8  245 194 
 CHI  HN ES       23 3 47.24                             113    0.02 8  245 194 
 CHI  HZ I        23 3 55.77         2.8 0.36            117            245 194 
 SJC  HZ EP   4   23 3 34.33                             102   -3.01 0  408 328 
 SJC  HN ES   4   23 4 15.39                             102   -4.79 0  408 328 
 SJC  HZ I        23 4 18.83         1.1 0.36            105            408 328 
                                                                                
