 2017  531 2347 11.6 L   6.816 -73.151152.4  RSN 14 0.5 2.4LRSN                1
 GAP=214        1.14       4.7     4.3  6.8  0.8281E+01 -0.2847E+01  0.7895E+00E
 Epicentro: LOS SANTOS - SANTANDER                                             3
 ACTION:UPD 17-06-16 13:40 OP:jn   STATUS:               ID:20170531234711 L   I
 OLDACT:UP  17-06-01 07:17 OP:dnl  STATUS:               ID:20170531233730     3
 OLDACT:UP  17-06-01 07:17 OP:dnl  STATUS:               ID:20170531233730     3
 OLDACT:REG 17-06-01 04:49 OP:dnl  STATUS:               ID:20170531233730     3
 2017-05-31-2338-00M.COL___350                                                 6
 STAT SP IPHASW D HRMM SECON CODA AMPLIT PERI AZIMU VELO AIN AR TRES W  DIS CAZ7
 BRR  HZ IP     C 2347 33.57                             154    0.1610 69.8 298 
 BRR  HE ES       2347 50.82                             154    0.4110 69.8 298 
 BRR  HZ I        2347 51.76        48.0 0.20            152           69.8 298 
 RUS  HZ EP       2347 35.96                             145   -0.1910  102 176 
 RUS  HN ES       2347 55.07                             145   -0.2210  102 176 
 RUS  HZ I        2347 55.59        35.5 0.24            142            102 176 
 PTB  HZ EP       2347 38.33                             134   -0.78 9  147 258 
 PTB  HN ES       2347 59.51                             134   -1.04 9  147 258 
 PTB  HZ I        2348  1.25        31.9 0.42            131            147 258 
 SPBC HZ EP   2   2347 40.92                             130    0.20 5  164 218 
 SPBC HN ES       2348  3.58                             130    0.16 9  164 218 
 SPBC HZ I        2348  9.64        31.0 0.20            128            164 218 
 YPLC HZ IP     D 2347 42.33                             128    0.25 9  179 151 
 YPLC HN ES       2348  6.47                             128    0.63 9  179 151 
 YPLC HZ I        2348  9.12        28.4 0.26            127            179 151 
 ZAR  HZ EP       2347 45.18                             124    0.80 9  203 292 
 ZAR  HE ES       2348  9.63                             124   -0.30 9  203 292 
 ZAR  HZ I        2348 15.14        31.5 0.44            123            203 292 
 NOR  HZ EP       2347 47.90                             120    0.11 8  235 234 
 NOR  HE ES       2348 15.90                             120   -0.11 8  235 234 
 NOR  HZ I        2348 19.31        11.9 0.30            118            235 234 
 CHI  HZ EP       2347 50.10                             118    0.24 8  250 195 
 CHI  HN ES       2348 19.99                             118    0.31 8  250 195 
 CHI  HZ I        2348 22.72        15.6 0.36            117            250 195 
 ROSC BZ EP   9   2347 52.20                             118    1.97 0  254 211 
 ROSC BN ES       2348 21.99                                   -0.33 8  254 211 
 ROSC BZ I        2348 28.23        23.0 0.35            116            254 211 
 HEL  HZ EP   4   2347 53.80                             116    1.64 0  272 255 
 HEL  HN ES       2348 24.55                             116    0.77 8  272 255 
 HEL  HZ I        2348 29.98        11.1 0.52            115            272 255 
 PTGC HZ IP     C 2347 55.16                             113   -0.83 7  311 159 
 PTGC HZ EP       2347 55.16                             113   -0.83 7  311 159 
 PTGC HN ES   4   2348 28.66                             113   -1.94 0  311 159 
 PTGC HZ I        2348 33.41        10.2 0.24            112            311 159 
 CBOC HE EP   4   2348  0.21                             111    1.40 0  334 252 
 CBOC HN ES       2348 35.59                             111   -0.02 7  334 252 
 CBOC HE I        2348 38.63         6.9 0.22            110            334 252 
 DBB  EZ EP   2   2347 59.91                             111    0.63 3  339 274 
 DBB  EN ES   4   2348 34.67                             111   -1.79 0  339 274 
 DBB  EZ I        2348 37.50         7.5 0.22            110            339 274 
 ORTC HZ EP       2348  6.38                             107    0.49 6  396 216 
 ORTC HN ES   4   2348 49.54                             107    1.31 0  396 216 
 ORTC HZ I        2348 55.72         4.3 0.44            107            396 216 
                                                                                
