 2016  131 2238 28.5 L   6.812 -73.129145.5  RSN 10 0.5 1.8LRSN                1
 GAP=138        1.12       3.2     4.6  7.2 -0.8025E+00  0.1251E+02 -0.1965E-01E
 Epicentro: LOS SANTOS - SANTANDER                                             3
 ACTION:UPD 16-03-09 23:30 OP:cam  STATUS:               ID:20160131223828 L   I
 OLDACT:UP  16-02-01 07:44 OP:mh   STATUS:               ID:20160131221617d    3
 OLDACT:UP  16-02-01 07:43 OP:mh   STATUS:               ID:20160131221617d    3
 OLDACT:REG 16-02-01 04:55 OP:mh   STATUS:               ID:20160131221617d    3
 2016-1-31-2228_222800_840.mseed                                               6
 STAT SP IPHASW D HRMM SECON CODA AMPLIT PERI AZIMU VELO AIN AR TRES W  DIS CAZ7
 BAR2 EZ EP       2238 48.14                             170    0.0310 25.0 194 
 BAR2 EZ ES       2239  3.52                             170    0.1010 25.0 194 
 PAM  EZ EP       2238 51.24                             151    0.7110 75.2  39 
 PAM  EN ES       2239  7.84                             151    0.1110 75.2  39 
 PAM  EZ I        2239 10.20         9.7 0.56            154           75.2  39 
 RUS  HZ EP       2238 51.71                             143   -0.5810  102 177 
 RUS  HN ES       2239 10.95                             143    0.0910  102 177 
 RUS  HZ I        2239 12.03         4.2 0.29            144            102 177 
 PTB  HZ EP       2238 54.80                             131   -0.80 9  150 258 
 PTB  HN ES       2239 16.02                             131   -0.74 9  150 258 
 PTB  HZ I        2239 18.34         9.4 0.18            131            150 258 
 OCA  HN ES       2239 18.06                             130   -0.58 9  159 352 
 ZAR  HZ EP   1   2239  1.30                             122    0.28 6  205 292 
 ZAR  HN ES       2239 27.32                             122    0.91 8  205 292 
 ZAR  HZ I        2239 34.68         5.8 0.22            122            205 292 
 NOR  HZ EP   1   2239  4.55                             118    0.12 6  237 234 
 NOR  HN ES   1   2239 32.53                             118    0.06 6  237 234 
 NOR  HZ I        2239 34.13         5.0 0.16            118            237 234 
 SML  HZ EP       2239  5.04                             117    0.01 8  243 335 
 SML  HN ES       2239 33.46                             117   -0.09 8  243 335 
 SML  HZ I        2239 37.60         8.2 0.12            118            243 335 
 CHI  HZ EP       2239  6.54                             117    0.19 8  250 195 
 CHI  HN ES       2239 36.14                             117    0.25 8  250 195 
 CHI  HZ I        2239 42.51         1.9 0.69            118            250 195 
 HEL  HN ES       2239 40.96                             114    0.52 8  274 256 
 HEL  HZ I        2239 47.60         4.5 0.67            114            274 256 
                                                                                
