 2017  831 2059 15.1 L   6.756 -73.141149.2  RSN  6 0.3 1.6LRSN                1
 GAP=139        0.79       3.6     3.9  6.0 -0.1812E+00  0.8142E+01  0.2356E+01E
 Epicentro: LOS SANTOS - SANTANDER                                             3
 ACTION:UPD 17-09-04 20:27 OP:rebc STATUS:               ID:20170831205915 L   I
 OLDACT:REG 17-09-01 02:39 OP:and  STATUS:               ID:20170831205736     3
 2017-08-31-2058-00M.COL___411                                                 6
 STAT SP IPHASW D HRMM SECON CODA AMPLIT PERI AZIMU VELO AIN AR TRES W  DIS CAZ7
 BAR2 EZ ES   2   2059 50.02                             172   -0.60 5 18.7 194 
 BAR2 EZ I        2059 51.84         8.0 0.25            172           18.7 194 
 BRR  HZ EP       2059 36.80                             152    0.0210 74.0 302 
 BRR  HN ES       2059 54.26                             152    0.5710 74.0 302 
 PAM  EZ IP     C 2059 37.78                             151   -0.1010 80.9  37 
 PAM  EN ES       2059 55.21                             151   -0.4510 80.9  37 
 PAM  EZ I        2059 57.19         6.4 0.60            153           80.9  37 
 RUS  HZ EP       2059 39.01                             146    0.1610 95.7 176 
 RUS  HN ES       2059 57.58                             146    0.2110 95.7 176 
 RUS  HZ I        2059 58.77         5.1 0.36            149           95.7 176 
 ZAR  HZ EP       2059 48.04                             123    0.03 8  206 293 
 ZAR  HN ES       21 0 13.59                             123   -0.08 8  206 293 
 ZAR  HZ I        21 0 22.16         4.1 0.26            123            206 293 
 NOR  HZ EP       2059 50.94                             119    0.16 8  232 236 
 NOR  HN ES       21 0 18.09                             119   -0.51 8  232 236 
 NOR  HZ I        21 0 20.59         3.1 0.36            120            232 236 
                                                                                
