 2012 1231 2046 43.1 L   6.809 -73.169140.2  RSN  9 0.3 1.8LRSN                1
 GAP=181        0.58       2.8     3.9  5.7  0.1756E+01  0.7093E+01  0.1744E+01E
 Epicentro: LOS SANTOS - SANTANDER                                             3
 ACTION:UPD 13-01-04 14:31 OP:ep   STATUS:               ID:20121231204643 L   I
 2012-12-31-2040-00M.COL___242                                                 6
 STAT SP IPHASW D HRMM SECON CODA AMPLIT PERI AZIMU VELO AIN AR TRES W  DIS CAZ7
 BAR2 SZ EP   1   2047  2.29                             170    0.17 7 24.0 184 
 BAR2 SZ ES   1   2047 17.11                             170    0.20 7 24.0 184 
 BRR  HZ EP   1   2047  4.11                             152    0.58 7 68.5 299 
 BRR  HN ES   4   2047 21.27                             152    1.83 0 68.5 299 
 BRR  HZ I        2047 24.78        13.6 0.28                          68.5 299 
 RUS  HZ EP   1   2047  6.23                             142   -0.21 7  102 175 
 RUS  HN ES   1   2047 24.35                             142   -0.26 7  102 175 
 RUS  HZ I        2047 26.05        10.4 0.34                           102 175 
 PTB  HZ EP   1   2047  8.93                             131   -0.52 7  145 258 
 PTB  HN ES   1   2047 29.73                             131   -0.23 7  145 258 
 PTB  HZ I        2047 35.92        10.1 0.44                           145 258 
 OCA  HN ES   1   2047 32.33                             129   -0.22 7  159 354 
 ZAR  HN ES   1   2047 39.79                             121    0.05 6  201 292 
 ZAR  HZ I        2047 46.41         7.2 0.12                           201 292 
 NOR  HE ES   1   2047 45.99                             117    0.10 6  233 234 
 CHI  HZ EP   1   2047 20.45                             116   -0.12 6  249 195 
 CHI  HN ES   1   2047 50.08                             116    0.31 6  249 195 
 CHI  HZ I        2047 55.39         5.1 0.28                           249 195 
 HEL  HZ EP   1   2047 23.08                             114    0.25 6  270 255 
 HEL  HZ I        2048  2.27         3.4 0.34                           270 255 
                                                                                
