 2017  531 2329 20.4 L   6.764 -73.466126.2  RSN  5 0.2 1.3LRSN                1
 GAP=192        0.49       3.4     3.2  4.8  0.6812E+01  0.1638E+01  0.2528E+01E
 Epicentro: EL CARMEN - SANTANDER                                              3
 ACTION:UPD 17-06-16 13:40 OP:jn   STATUS:               ID:20170531232920 L   I
 OLDACT:UP  17-06-01 07:11 OP:dnl  STATUS:               ID:20170531232741     3
 OLDACT:UP  17-06-01 07:11 OP:dnl  STATUS:               ID:20170531232741     3
 OLDACT:REG 17-06-01 04:19 OP:dnl  STATUS:               ID:20170531232741     3
 2017-05-31-2328-00M.COL___350                                                 6
 STAT SP IPHASW D HRMM SECON CODA AMPLIT PERI AZIMU VELO AIN AR TRES W  DIS CAZ7
 BRR  HZ EP       2329 37.94                             158   -0.1510 46.6 324 
 BRR  HN ES       2329 52.03                             158    0.1210 46.6 324 
 BRR  HZ I        2329 53.13         6.8 0.46            155           46.6 324 
 RUS  HZ EP       2329 42.51                             138   -0.1110  105 156 
 RUS  HN ES       2330  0.01                             138    0.0210  105 156 
 RUS  HZ I        2330  1.32         1.5 0.60            137            105 156 
 PTB  HZ EP       2329 42.88                             135    0.3310  112 257 
 PTB  HN ES       2329 59.72                             135   -0.1410  112 257 
 PTB  HZ I        2330  6.32         3.8 0.30            130            112 257 
 SPBC HN ES   4   2330  6.89                             129    2.37 0  140 209 
 SPBC HZ I        2330  9.68         4.7 0.10            125            140 209 
 ZAR  HZ EP   4   2329 50.09                             122    1.70 0  174 298 
 ZAR  HE ES       2330 10.16                             122   -0.08 9  174 298 
 ZAR  HZ I        2330 17.27         4.5 0.42            121            174 298 
                                                                                
