 2016  131 2032 20.7 L   6.820 -73.152144.2  RSN 11 0.4 2.3LRSN                1
 GAP=135        1.04       2.7     4.0  6.0 -0.1944E+01  0.8707E+01 -0.1377E+01E
 Epicentro: LOS SANTOS - SANTANDER                                             3
 ACTION:UPD 16-03-09 23:30 OP:cam  STATUS:               ID:20160131203220 L   I
 OLDACT:REG 16-02-01 04:49 OP:mh   STATUS:               ID:20160131201607d    3
 2016-1-31-2028_202800_840.mseed                                               6
 STAT SP IPHASW D HRMM SECON CODA AMPLIT PERI AZIMU VELO AIN AR TRES W  DIS CAZ7
 BAR2 EZ EP       2032 40.20                             170   -0.0210 25.4 188 
 BAR2 EZ ES       2032 55.10                             170   -0.3110 25.4 188 
 BAR2 EZ I        2032 58.14        36.2 0.40            168           25.4 188 
 PAM  EZ EP       2032 43.13                             151    0.4210 76.2  41 
 PAM  EN ES       2033  0.26                             151    0.4110 76.2  41 
 PAM  EZ I        2033  3.28        35.2 0.32            157           76.2  41 
 RUS  HZ EP       2032 44.30                             143   -0.1910  103 176 
 RUS  HN ES       2033  3.12                             143    0.1010  103 176 
 RUS  HZ I        2033  4.02        15.3 0.32            147            103 176 
 PTB  HZ EP       2032 46.81                             132   -0.74 9  147 258 
 PTB  HN ES       2033  8.19                             132   -0.27 9  147 258 
 PTB  HZ I        2033 12.98        19.2 0.42            132            147 258 
 OCA  HZ EP       2032 48.34                             130   -0.37 9  158 353 
 OCA  HN ES       2033 10.54                             130    0.01 9  158 353 
 OCA  HZ I        2033 14.34        40.2 0.40            133            158 353 
 SPBC HZ EP       2032 49.39                             128    0.16 9  164 218 
 SPBC HN ES       2033 11.62                             128    0.16 9  164 218 
 SPBC HZ I        2033 17.84        34.7 0.18            130            164 218 
 ZAR  HZ EP       2032 53.39                             122    0.47 9  203 292 
 ZAR  HN ES       2033 18.94                             122    0.91 9  203 292 
 ZAR  HZ I        2033 28.47        20.6 0.28            123            203 292 
 NOR  HZ EP   1   2032 56.14                             118   -0.31 6  235 234 
 NOR  HE ES       2033 23.84                             118   -0.46 8  235 234 
 NOR  HZ I        2033 31.80        15.4 0.18            120            235 234 
 SML  HZ EP       2032 56.77                             117   -0.26 8  241 335 
 SML  HN ES       2033 24.50                             117   -0.83 8  241 335 
 SML  HZ I        2033 28.51        26.9 0.10            120            241 335 
 CHI  HZ EP       2032 58.66                             117    0.10 8  251 195 
 CHI  HN ES       2033 27.97                             117   -0.08 8  251 195 
 CHI  HZ I        2033 31.51        11.3 0.76            120            251 195 
 HEL  HZ EP       2033  1.85                             114    1.00 8  272 255 
 HEL  HN ES       2033 32.21                             114    0.07 8  272 255 
 HEL  HZ I        2033 39.13                             116            272 255 
 SOCV BZ EP   4   2033  2.16                             112   -1.49 0  301  57 
 SOCV BE ES   4   2033 34.30                             112   -2.82 0  301  57 
                                                                                
