 2012  131 2135 35.7 L   6.491 -73.699105.1  RSN  8 0.5 1.3LRSN                1
 GAP= 98        0.89       6.1     5.2 12.7 -0.7793E+00  0.1422E+02  0.2680E+02E
 Epicentro: SANTA HELENA DEL OPON - SANTANDER                                  3
 ACTION:UP  12-02-03 08:22 OP:REBC STATUS:               ID:20120131213535 L   I
 2012-01-31-2130-00M.COL___188                                                 6
 STAT SP IPHASW D HRMM SECON CODA AMPLIT PERI AZIMU VELO SNR AR TRES W  DIS CAZ7
 BAR2 SZ EP       2135 52.35                             148     0.210   58  79 
 BAR2 SZ ES   3   2136  4.25                             148    -0.6 2   58  79 
 BAR2 SZ I        2136  5.72         7.2 0.16                            58  79 
 BRR  HZ EP       2135 52.46                             144     0.010   68 359 
 BRR  HZ I        2136  3.16        15.6 0.48                            68 359 
 BRR  HE ES   1   2136  5.93                             144     0.5 7   68 359 
 PTB  HZ EP       2135 52.93                             138    -0.710   84 274 
 PTB  HN ES   2   2136  7.16                             138    -0.5 5   84 274 
 PTB  HZ I        2136  8.28         2.7 0.26                            84 274 
 GIR2 SZ EP   3   2135 53.79                             137    -0.2 2   86  41 
 RUS  HZ EP   3   2135 54.95                             135    -0.3 2   95 134 
 RUS  HN ES   2   2136 10.09                             135    -0.4 5   95 134 
 RUS  HZ I        2136 12.54         3.3 0.52                            95 134 
 PAM  SZ EP   3   2135 59.91                             121    -0.1 2  145  50 
 PAM  SN ES   3   2136 18.73                             121    -0.3 2  145  50 
 NOR  SZ EP   1   2136  2.28                             117     0.6 7  165 232 
 NOR  SN ES   2   2136 22.47                             117     0.6 5  165 232 
 ZAR  HE ES   2   2136 22.89                             116     0.4 5  169 311 
                                                                                
