 2012 1231 2247 23.1 L   6.808 -73.151145.6  RSN  8 0.5 2.6LRSN                1
 GAP=182        0.96       4.4     6.8  7.6  0.7253E+01  0.6770E+01 -0.9712E+00E
 Epicentro: LOS SANTOS - SANTANDER                                             3
 ACTION:UPD 13-01-04 14:31 OP:ep   STATUS:               ID:20121231224723 L   I
 2012-12-31-2240-00M.COL___242                                                 6
 STAT SP IPHASW D HRMM SECON CODA AMPLIT PERI AZIMU VELO AIN AR TRES W  DIS CAZ7
 BAR2 SZ EP   1   2247 42.86                             170    0.11 7 24.1 188 
 BAR2 SZ ES   1   2247 57.97                             170   -0.09 7 24.1 188 
 BAR2 SZ I        2248  0.34       128.7 0.36                          24.1 188 
 BRR  HZ IP     C 2247 44.76                             153    0.5610 70.3 298 
 BRR  HE ES   1   2248  1.47                             153    0.83 7 70.3 298 
 BRR  HZ I        2248  5.91       113.1 0.14                          70.3 298 
 RUS  HZ EP   1   2247 47.04                             143    0.11 7  102 176 
 RUS  HN ES   1   2248  4.80                             143   -0.69 7  102 176 
 RUS  HZ I        2248  7.45        25.1 0.26                           102 176 
 PTB  HZ EP   1   2247 49.78                             132   -0.27 7  147 258 
 PTB  HN ES   1   2248 10.38                             132   -0.66 7  147 258 
 OCA  HZ EP   1   2247 51.19                             130   -0.14 7  159 353 
 OCA  HN ES   1   2248 12.68                             130   -0.65 7  159 353 
 OCA  HZ I        2248 15.91        75.8 0.34                           159 353 
 ZAR  HZ EP   1   2247 55.81                             122    0.34 6  203 292 
 ZAR  HE ES   1   2248 20.82                             122    0.12 6  203 292 
 CTAB SZ EP   4   2247 59.83                             119    0.91 0  230 210 
 CHI  HZ EP   1   2248  1.35                             117    0.45 6  249 195 
 CHI  HN ES   1   2248 30.57                             117    0.22 6  249 195 
 CHI  HZ I        2248 38.27        14.7 0.30                           249 195 
 URE  HZ EP   1   2248  3.13                             114   -0.96 6  283 292 
 URE  HZ I        2248 42.98        34.5 0.26                           283 292 
 MON  HZ EP   4   2248 10.60                             109   -1.41 0  353 308 
 MON  HE ES   4   2248 48.69                             109   -1.44 0  353 308 
 SJC  HN ES   4   2248 57.41                             106   -4.38 0  408 327 
                                                                                
