 2012  131 2213 14.4 L   6.771 -73.167148.3  RSN  7 0.3 1.6LRSN                1
 GAP=135        0.48       3.6     4.5  6.6  0.1660E+01  0.3732E+00 -0.5450E+01E
 Epicentro: LOS SANTOS - SANTANDER                                             3
 ACTION:UP  12-02-03 08:22 OP:REBC STATUS:               ID:20120131221314 L   I
 2012-01-31-2210-00M.COL___188                                                 6
 STAT SP IPHASW D HRMM SECON CODA AMPLIT PERI AZIMU VELO SNR AR TRES W  DIS CAZ7
 BAR2 SZ ES   3   2213 49.51                             172    -0.2 2   20 185 
 BAR2 SZ I        2213 50.85        16.8 0.22                            20 185 
 GIR2 SZ EP       2213 34.41                             166     0.010   34 355 
 BRR  HZ EP       2213 36.02                             153     0.310   71 302 
 BRR  HE ES   2   2213 52.56                             153     0.1 5   71 302 
 BRR  HZ I        2214  4.27        13.4 0.52                            71 302 
 PAM  SZ EP       2213 37.06                             150     0.010   81  39 
 PAM  SE ES   3   2213 54.40                             150    -0.4 2   81  39 
 RUS  HZ EP       2213 38.08                             145    -0.110   98 175 
 RUS  HE ES   1   2213 56.70                             145     0.0 7   98 175 
 RUS  HZ I        2213 57.86         3.7 0.42                            98 175 
 PTB  HZ EP   1   2213 41.20                             133    -0.1 7  145 260 
 PTB  HN ES   3   2214  1.91                             133    -0.4 2  145 260 
 PTB  HZ I        2214  4.58         2.0 0.38                           145 260 
 ZAR  HN ES   3   2214 10.80                             123    -1.4 2  203 293 
 ZAR  HZ I        2214 18.09         2.9 0.34                           203 293 
                                                                                
