 2014 1231 2225 10.4 L   6.803 -73.132153.1  RSN  7 0.4 1.4LRSN                1
 GAP=138        0.88       3.7     4.9  6.7  0.3508E+01  0.6827E+01  0.5340E+01E
 Epicentro: LOS SANTOS - SANTANDER                                             3
 ACTION:UPD 15-02-10 17:08 OP:nd   STATUS:               ID:20141231222510 L   I
 OLDACT:REG 15-01-01 06:48 OP:spq  STATUS:               ID:20141231221750     3
 2014-12-31-2217-50M.COL___280                                                 6
 STAT SP IPHASW D HRMM SECON CODA AMPLIT PERI AZIMU VELO AIN AR TRES W  DIS CAZ7
 BRR  HZ EP       2225 32.77                             153    0.3410 72.3 298 
 BRR  HN ES       2225 50.20                             153    0.6110 72.3 298 
 BRR  HZ I        2225 51.75         3.6 0.40            151           72.3 298 
 PAM  SE ES       2225 50.93                             153   -0.3110 76.2  39 
 PAM  SZ I        2225 52.90         4.4 0.56            156           76.2  39 
 RUS  HZ EP       2225 35.13                             145    0.2110  101 177 
 RUS  HN ES   1   2225 53.69                             145   -0.34 7  101 177 
 RUS  HZ I        2225 56.25         2.1 0.42            146            101 177 
 PTB  HZ EP   1   2225 37.61                             133   -0.52 7  149 259 
 PTB  HN ES   1   2225 59.04                             133   -0.70 7  149 259 
 PTB  HZ I        2226  4.74         2.8 0.62            132            149 259 
 ZAR  HE ES       2226  9.32                             124    0.05 8  205 292 
 ZAR  HZ I        2226 15.26         3.5 0.50            124            205 292 
 SML  HZ EP       2225 47.29                             119   -0.21 8  244 335 
 SML  HE ES   1   2226 16.02                             119   -0.40 6  244 335 
 SML  HZ I        2226 22.11         4.1 0.10            120            244 335 
 CHI  HZ EP       2225 49.01                             118    0.39 8  249 195 
 CHI  HN ES   1   2226 18.22                             118   -0.19 6  249 195 
 CHI  HZ I        2226 22.24         1.1 0.36            119            249 195 
                                                                                
