 2014 1231 2327  8.3 L   6.695 -73.094144.0  RSN  4 0.4 1.2LRSN                1
 GAP=236        0.74       5.6     6.5  8.0  0.9080E+01  0.5436E+01  0.9681E+01E
 Epicentro: JORDAN - SANTANDER                                                 3
 ACTION:UPD 15-02-10 17:08 OP:nd   STATUS:               ID:20141231232708 L   I
 OLDACT:DUP 15-01-01 10:45 OP:spq  STATUS:               ID:20141231231747d    3
 2014-12-31-2317-46M.COL___277                                                 6
 STAT SP IPHASW D HRMM SECON CODA AMPLIT PERI AZIMU VELO AIN AR TRES W  DIS CAZ7
 BRR  HZ EP       2327 29.73                             149   -0.1910 82.1 304 
 BRR  HN ES       2327 47.09                             149    0.3110 82.1 304 
 BRR  HZ I        2327 49.57         2.6 0.38            148           82.1 304 
 RUS  HZ EP   1   2327 31.38                             147    0.32 7 88.7 179 
 RUS  HE ES   1   2327 48.52                             147   -0.28 7 88.7 179 
 RUS  HZ I        2327 51.30         1.8 0.32            145           88.7 179 
 PTB  HZ EP   1   2327 35.25                             131   -0.24 7  152 264 
 PTB  HN ES   1   2327 56.07                             131   -0.62 7  152 264 
 PTB  HZ I        2327 57.79         3.1 0.14            130            152 264 
 NOR  HZ EP   1   2327 43.91                             118    0.16 6  233 238 
 NOR  HE ES   1   2328 11.99                             118    0.60 6  233 238 
 NOR  HZ I        2328 19.36         1.6 0.22            118            233 238 
                                                                                
