 2015  831 2223 55.5 L   6.817 -73.086142.0  RSN 12 0.4 2.0LRSN                1
 GAP=189        0.86       2.7     5.0  5.3 -0.3026E+00  0.5708E+01  0.2364E+01E
 Epicentro: LOS SANTOS - SANTANDER                                             3
 ACTION:UPD 15-09-15 23:06 OP:cam  STATUS:               ID:20150831222355 L   I
 OLDACT:UP  15-09-01 11:29 OP:ar   STATUS:               ID:20150831222355 L   3
 OLDACT:REG 15-09-01 08:21 OP:spq  STATUS:               ID:20150831221748     3
 2015-08-31-2217-48M.COL___358                                                 6
 STAT SP IPHASW D HRMM SECON CODA AMPLIT PERI AZIMU VELO AIN AR TRES W  DIS CAZ7
 BAR2 EZ EP       2224 14.68                             169   -0.0610 27.0 203 
 BAR2 EZ ES   1   2224 29.92                             169    0.16 7 27.0 203 
 BAR2 EZ I        2224 30.82        23.1 0.26            163           27.0 203 
 BRR  HZ EP       2224 16.76                             150    0.2510 76.2 295 
 BRR  HN ES       2224 33.41                             150    0.4910 76.2 295 
 BRR  HZ I        2224 33.88        25.1 0.12            142           76.2 295 
 RUS  HZ EP       2224 18.89                             143   -0.0910  102 180 
 RUS  HN ES   1   2224 37.53                             143    0.22 7  102 180 
 RUS  HZ I        2224 39.05        10.6 0.32            137            102 180 
 OCA  HZ EP   1   2224 23.45                             129    0.05 7  159 351 
 OCA  HN ES       2224 44.83                             129   -0.36 9  159 351 
 OCA  HZ I        2224 49.26        19.5 0.26            123            159 351 
 SPBC HZ EP       2224 23.90                             127   -0.33 9  169 220 
 SPBC HE ES       2224 45.94                             127   -0.72 9  169 220 
 SPBC HZ I        2224 52.06        13.5 0.34            120            169 220 
 ZAR  HE ES       2224 53.62                             121   -0.18 8  209 291 
 ZAR  HZ I        2224 58.39         9.6 0.30            115            209 291 
 NOR  HZ EP       2224 31.46                             117   -0.23 8  241 235 
 NOR  HZ I        2225  1.53         7.1 0.24            111            241 235 
 SML  HZ EP   1   2224 31.42                             116   -0.59 6  245 334 
 SML  HE ES   1   2225  0.29                             116   -0.22 6  245 334 
 SML  HZ I        2225  8.38         7.3 0.08            111            245 334 
 HEL  HZ EP       2224 37.09                             113    0.83 7  279 256 
 GUY2CHZ EP       2224 40.16                             111    0.51 7  308 235 
 GUY2CHE ES   1   2225 13.95                             111   -0.15 5  308 235 
 GUY2CHZ I        2225 20.24         5.4 0.30                           308 235 
 TOL  SZ EP       2224 45.08                             108    0.80 6  349 225 
 TOL  SE ES   1   2225 22.27                             108   -0.07 5  349 225 
 TOL  SZ I        2225 28.97         2.9 0.24            104            349 225 
 PRA  HZ EP   1   2224 49.62                             106    0.17 4  397 210 
 PRA  HE ES   1   2225 30.90                             106   -0.64 4  397 210 
 PRA  HZ I        2225 39.55         3.6 0.26            101            397 210 
                                                                                
