 2016  131 2202  9.6 L   5.862 -73.775113.2  RSN  9 0.4 1.5LRSN                1
 GAP= 91        1.01       3.0     3.8  6.2  0.9315E+00  0.1533E+01  0.6941E-01E
 Epicentro: JESUS MARIA - SANTANDER                                            3
 ACTION:UPD 16-03-09 23:30 OP:cam  STATUS:               ID:20160131220209 L   I
 OLDACT:UP  16-02-01 07:27 OP:mh   STATUS:               ID:20160131215215d    3
 OLDACT:UP  16-02-01 07:24 OP:mh   STATUS:               ID:20160131215215d    3
 OLDACT:DUP 16-02-01 07:24 OP:mh   STATUS:               ID:20160131215215d    3
 2016-1-31-2158_215800_840.mseed                                               6
 STAT SP IPHASW D HRMM SECON CODA AMPLIT PERI AZIMU VELO AIN AR TRES W  DIS CAZ7
 SPBC HZ EP       22 2 26.15                             159    0.4710 40.3 235 
 SPBC HN ES       22 2 38.55                             159    0.3110 40.3 235 
 SPBC HZ I        22 2 39.69        14.9 0.18            164           40.3 235 
 RUS  HZ EP       22 2 28.56                             144    0.1610 76.7  87 
 RUS  HN ES   1   22 2 42.94                             144   -0.15 7 76.7  87 
 RUS  HZ I        22 2 44.09         7.3 0.50            138           76.7  87 
 BAR2 EZ EP       22 2 30.56                             134    0.3310  104  39 
 BAR2 EZ I        22 2 48.11        20.5 0.09            129            104  39 
 PTB  HZ EP       22 2 30.27                             133    0.1510  106 315 
 PTB  HN ES       22 2 45.43                             133   -0.7310  106 315 
 PTB  HZ I        22 2 48.39                             132            106 315 
 NOR  HZ EP       22 2 31.90                             128   -0.0610  126 255 
 NOR  BN ES       22 2 49.68                             128    0.2610  126 255 
 NOR  HZ I        22 2 51.94         6.0 0.48            129            126 255 
 CHI  HZ EP       22 2 33.12                             126   -0.37 9  136 178 
 CHI  HN ES       22 2 51.67                             126   -0.48 9  136 178 
 CHI  HZ I        22 2 56.37         2.5 0.06            125            136 178 
 GUY2CHZ EP       22 2 40.00                             116    0.85 9  190 248 
 GUY2CHE ES   4   22 3  5.41                             116    3.19 0  190 248 
 GUY2CHZ I        22 3 12.51         2.4 0.48                           190 248 
 ZAR  HZ EP       22 2 41.35                             113   -0.16 8  216 326 
 ZAR  HN ES       22 3  6.13                             113   -0.29 8  216 326 
 ZAR  HZ I        22 3  7.98         3.3 0.15            111            216 326 
 PRA  HZ EP       22 2 46.93                             108   -0.49 8  268 207 
 PRA  HN ES       22 3 16.80                             108   -0.15 8  268 207 
 PRA  HZ I        22 3 18.96         2.5 0.48            107            268 207 
                                                                                
