 2011  731 2316  6.6 L   6.774 -73.126146.2  RSN  6 0.3 1.5LRSN                1
 GAP=140        0.61       3.3     6.1  5.5 -0.6536E+01 -0.2928E+01 -0.2916E+00E
 Epicentro: LOS SANTOS - SANTANDER                                             3
 ACTION:UPD 12-07-25 14:04 OP:epov STATUS:               ID:20110731231606 L   I
 2011-07-31-2311-09S.COL___142                                                 6
 STAT SP IPHASW D HRMM SECON CODA AMPLIT PERI AZIMU VELO AIN AR TRES W  DIS CAZ7
 BAR2 SZ EP   1   2316 25.97                             171   -0.26 7 21.1 197 
 BAR2 SZ ES   1   2316 41.17                             171   -0.37 7 21.1 197 
 BAR2 SZ I        2316 41.94         6.0 0.28                          21.1 197 
 BRR  HZ EP   1   2316 27.87                             151   -0.10 7 74.5 300 
 BRR  HN ES   1   2316 44.83                             151    0.18 7 74.5 300 
 BRR  HZ I        2316 46.68         9.9 0.35                          74.5 300 
 PAM  SZ EP   1   2316 29.00                             151    0.09 7 78.3  37 
 PAM  SN ES   1   2316 46.05                             151   -0.26 7 78.3  37 
 RUS  HZ EP   1   2316 30.26                             145    0.09 7 97.6 177 
 RUS  HN ES   1   2316 48.88                             145    0.32 7 97.6 177 
 RUS  HZ I        2316 50.16         3.2 0.39                          97.6 177 
 BRI  SZ EP   1   2316 30.72                             141    0.05 7  110  19 
 BRI  SZ ES   1   2316 50.13                             141    0.68 7  110  19 
 BRI  SZ I        2316 51.20         5.0 0.33                           110  19 
 GRA  SZ EP   1   2316 31.93                             137   -0.12 7  128  16 
 GRA  SZ ES   1   2316 51.61                             137   -0.29 7  128  16 
 GRA  SZ I        2316 52.51         3.7 0.31                           128  16 
                                                                                
