 2014  331 2356 33.2 L   6.796 -73.211132.7  RSN  6 0.4 2.2LRSN                1
 GAP=129        0.92       3.6     4.4  9.1 -0.2016E+01  0.1553E+02 -0.4410E+01E
 Epicentro: ZAPATOCA - SANTANDER                                               3
 ACTION:UPD 14-04-09 23:22 OP:nd   STATUS:               ID:20140331235633 L   I
 OLDACT:UP  14-04-01 04:43 OP:mh   STATUS:               ID:20140331234816     3
 OLDACT:REG 14-04-01 03:31 OP:mher STATUS:               ID:20140331234816     3
 2014-03-31-2348-16M.COL___246                                                 6
 STAT SP IPHASW D HRMM SECON CODA AMPLIT PERI AZIMU VELO AIN AR TRES W  DIS CAZ7
 PAM  SZ EP     C 2356 54.67                             147    0.3010 82.5  43 
 PAM  SE ES       2357 11.27                             147    0.3910 82.5  43 
 PAM  SZ I        2357 13.69       377.3 0.12            103           82.5  43 
 RUS  HZ EP       2356 55.69                             141   -0.0210  101 172 
 RUS  HN ES       2357 12.69                             141   -0.5810  101 172 
 RUS  HZ I        2357 15.84         4.8 0.30             71            101 172 
 PTB  HZ EP       2356 58.75                             130    0.29 9  141 258 
 PTB  HN ES       2357 18.62                             130    0.46 9  141 258 
 PTB  HZ I        2357 22.25         7.2 0.10             56            141 258 
 OCA  HN ES       2357 21.27                             126   -0.52 9  160 356 
 ZAR  HZ EP   1   2357  3.99                             120   -0.15 6  198 293 
 ZAR  HN ES   1   2357 27.89                             120   -0.38 6  198 293 
 ZAR  HZ I        2357 32.93        39.7 0.04             56            198 293 
 SML  HZ EP   1   2357  8.53                             115   -0.31 6  241 337 
 SML  HZ I        2357 44.48         8.0 0.07             56            241 337 
                                                                                
