 2014  731 2310 53.7 L   7.536 -73.157139.4  RSN  6 0.4 1.7LRSN                1
 GAP=245        0.78       4.1     8.1  7.7 -0.6700E+01  0.1001E+02 -0.2862E+01E
 Epicentro: EL PLAYON - SANTANDER                                              3
 ACTION:UPD 15-03-16 20:48 OP:nd   STATUS:               ID:20140731231053 L   I
 OLDACT:REG 14-08-01 04:49 OP:fm   STATUS:               ID:20140731230817     3
 2014-07-31-2308-17M.COL___260                                                 6
 STAT SP IPHASW D HRMM SECON CODA AMPLIT PERI AZIMU VELO AIN AR TRES W  DIS CAZ7
 BRR  HZ EP       2311 14.74                             149    0.1710 77.5 232 
 BRR  HN ES   1   2311 31.18                             149    0.36 7 77.5 232 
 BRR  HZ I        2311 32.08         8.1 0.16            149           77.5 232 
 OCA  HN ES   1   2311 31.41                             149   -0.07 7 79.8 347 
 OCA  HZ I        2311 35.84         7.8 0.26            147           79.8 347 
 SML  HZ EP   1   2311 22.63                             126    0.11 7  172 324 
 SML  HN ES   1   2311 44.41                             126   -0.57 7  172 324 
 SML  HZ I        2311 51.67         5.3 0.10            126            172 324 
 PTB  HZ EP   1   2311 22.76                             124   -0.64 7  181 233 
 PTB  HN ES   1   2311 45.84                             124   -0.71 7  181 233 
 PTB  HZ I        2311 50.09        10.3 0.92            127            181 233 
 ZAR  HZ EP   1   2311 24.65                             123    0.56 7  188 269 
 ZAR  HN ES   1   2311 48.20                             123    0.44 7  188 269 
 ZAR  HZ I        2311 52.00         4.5 0.26            124            188 269 
 SJC  HZ EP   1   2311 41.48                             108    0.14 5  343 320 
 SJC  HN ES   1   2312 18.52                             108    0.04 5  343 320 
 SJC  HZ I        2312 21.09         1.0 0.40            110            343 320 
                                                                                
