 2011 1231 2055 58.8 L   6.756 -74.278 59.7  RSN  8 0.5 1.7LRSN                1
 GAP= 96        0.91       3.4     2.8  7.4 -0.2468E+01 -0.3977E+01  0.1875E+01E
 Epicentro: PUERTO PARRA - SANTANDER                                           3
 ACTION:UPD 12-07-13 16:19 OP:ep   STATUS:               ID:20111231205558 L   I
 2011-12-31-2050-00M.COL___187                                                 6
 STAT SP IPHASW D HRMM SECON CODA AMPLIT PERI AZIMU VELO AIN AR TRES W  DIS CAZ7
 PTB  HZ EP   1   2056  8.00                             149   -0.34 7 31.1 219 
 PTB  HN ES   1   2056 15.92                             149    0.13 7 31.1 219 
 BRR  HZ IP     D 2056 12.03                             122   -0.0210 73.6  58 
 BRR  HN ES   1   2056 22.72                             122    0.32 7 73.6  58 
 BRR  HZ I        2056 22.75        39.5 0.08                          73.6  58 
 ZAR  HZ EP   1   2056 14.51                             112   -0.86 7  104 322 
 ZAR  HN ES   1   2056 28.01                             112   -0.30 7  104 322 
 ZAR  HZ I        2056 30.55        24.0 0.05                           104 322 
 BAR2 SZ EP   1   2056 17.55                             108   -0.30 7  122  98 
 BAR2 SZ I        2056 34.77         7.3 0.22                           122  98 
 NOR  SZ EP   1   2056 20.60                             104    0.03 7  147 206 
 NOR  SN ES   1   2056 37.57                             104    0.01 7  147 206 
 HEL  HZ EP   1   2056 21.75                             103    0.24 7  152 246 
 HEL  HN ES   1   2056 40.04                             103    0.81 7  152 246 
 HEL  HZ I        2056 41.87         8.9 0.23                           152 246 
 RUS  HZ EP   1   2056 22.86                             102   -0.15 7  163 126 
 RUS  HN ES   1   2056 41.14                             102   -0.76 7  163 126 
 RUS  HZ I        2056 43.45         4.9 0.11                           163 126 
 PAM  SZ EP       2056 26.27                             100    0.50 9  186  70 
 PAM  SN ES   1   2056 47.46                             100    0.65 7  186  70 
                                                                                
