 2010  731 2133 34.9 L   6.772 -73.088142.8  RSN 12 0.4 2.5LRSN                1
 GAP=165        0.83       4.1     6.0  6.2 -0.4149E+01  0.7167E+01  0.4970E+01E
 Epicentro: LOS SANTOS - SANTANDER                                             3
 ACTION:UPD 10-12-01 15:21 OP:pat  STATUS:               ID:20100731213334 L   I
 2010-07-31-2130-51S.COL___123                                                 6
 STAT SP IPHASW D HRMM SECON CODA AMPLIT PERI AZIMU VELO AIN AR TRES W  DIS CAZ7
 BAR2 SZ IP       2133 53.98                             171    -0.210   23 208 
 BAR2 SZ ES   1   2134  9.14                             171     0.0 7   23 208 
 BAR2 SZ I        2134 10.27        60.7 0.20                            23 208 
 GIR2 SZ EP   2   2133 54.07                             165    -0.3 5   36 341 
 BRR  HZ IP     D 2133 55.77                             150    -0.410   78 298 
 BRR  HN ES   1   2134 12.91                             150     0.2 7   78 298 
 BRR  HZ I        2134 16.02        60.4 0.25                            78 298 
 RUS  HZ IP     C 2133 57.89                             144    -0.210   97 180 
 RUS  HE ES   1   2134 16.48                             144     0.3 7   97 180 
 RUS  HZ I        2134 18.03        22.7 0.27                            97 180 
 GUE  SZ EP   2   2133 59.05                             138    -0.4 5  118   9 
 GUE  SZ I        2134 26.51         8.7 0.14                           118   9 
 GRA  SZ EP   1   2134  0.87                             136     0.9 7  127  14 
 GRA  SZ I        2134 24.94        25.5 0.29                           127  14 
 CHI  HZ IP     C 2134 12.11                             117    -0.2 8  247 197 
 CHI  HZ I        2134 12.91        14.5 0.14                           247 197 
 CHI  HE ES   1   2134 41.74                             117     0.3 6  247 197 
 ROSC BZ EP   2   2134 13.88                             116     1.0 4  253 213 
 ROSC BZ I        2134 49.20        20.6 0.40                           253 213 
 HEL  HZ EP   2   2134 15.45                             114    -0.1 4  278 257 
 HEL  HE ES   2   2134 47.34                             114     0.1 4  278 257 
 HEL  HZ I        2134 54.34        24.5 0.31                           278 257 
 GUY  SZ EP   1   2134 18.81                             111     0.0 5  305 236 
 GUY  SE ES   1   2134 53.02                             111     0.0 5  305 236 
 GUY  SZ I        2135  1.83        80.5 0.35                           305 236 
 RREF HZ EP   1   2134 21.92                             110     0.7 5  325 231 
 RREF HE ES   2   2134 57.32                             110     0.0 3  325 231 
 RREF HZ I        2135  5.32        17.3 0.25                           325 231 
 PRA  HZ EP   1   2134 27.62                             106    -0.7 4  392 211 
 PRA  HN ES   1   2135  9.97                             106    -0.1 4  392 211 
 PRA  HZ I        2135 15.64        17.9 0.61                           392 211 
                                                                                
