 2014  831 2310 36.0 L   6.783 -73.154144.5  RSN  9 0.5 1.9LRSN                1
 GAP=136        1.26       4.3     5.4  7.3  0.3856E+00  0.8885E+01 -0.3636E+01E
 Epicentro: LOS SANTOS - SANTANDER                                             3
 ACTION:UPD 14-09-15 21:55 OP:nd   STATUS:               ID:20140831231036 L   I
 OLDACT:UP  14-09-01 02:54 OP:cam  STATUS:               ID:20140831231000     3
 OLDACT:REG 14-09-01 02:30 OP:cam  STATUS:               ID:20140831231000     3
 2014-08-31-2310-00M.COL___282                                                 6
 STAT SP IPHASW D HRMM SECON CODA AMPLIT PERI AZIMU VELO AIN AR TRES W  DIS CAZ7
 BAR2 SZ ES       2311 10.37                             171   -0.2010 21.3 189 
 BAR2 SZ I        2311 11.72        27.8 0.18            173           21.3 189 
 BRR  HZ EP     C 2310 57.27                             152    0.2810 71.4 300 
 BRR  HN ES       2311 14.28                             152    0.8910 71.4 300 
 BRR  HZ I        2311 17.28        14.4 0.34            151           71.4 300 
 PAM  SZ EP       2310 58.33                             150    0.1610 79.4  39 
 PAM  SN ES       2311 15.43                             150   -0.0710 79.4  39 
 PAM  SZ I        2311 17.29        16.7 0.50            151           79.4  39 
 RUS  HZ EP       2310 59.57                             144    0.1110 98.7 175 
 RUS  HE ES       2311 17.66                             144   -0.1310 98.7 175 
 RUS  HZ I        2311 19.33         4.5 0.24            148           98.7 175 
 PTB  HZ EP       2311  2.30                             132   -0.42 9  147 260 
 PTB  HN ES       2311 23.23                             132   -0.36 9  147 260 
 PTB  HZ I        2311 26.10         8.5 0.14            133            147 260 
 SPBC HN ES       2311 25.49                             129   -0.69 9  161 219 
 ZAR  HZ EP       2311  9.25                             122    0.93 9  204 293 
 ZAR  HE ES       2311 33.76                             122    0.20 9  204 293 
 ZAR  HZ I        2311 39.79         7.0 0.46            123            204 293 
 SML  HZ EP       2311 11.89                             117   -0.78 8  245 336 
 SML  HN ES       2311 40.52                             117   -0.78 8  245 336 
 SML  HZ I        2311 46.11         9.1 0.30            118            245 336 
 CHI  HZ EP       2311 13.95                             117    0.58 8  247 195 
                                                                                
