 2017 1031 2322 38.2 L   6.492 -73.689 99.6  RSN 15 0.6 1.9LRSN                1
 GAP= 51        1.49       3.4     3.2  7.9 -0.5873E+00  0.3147E+01  0.8549E+01E
 Epicentro: SANTA HELENA DEL OPON - SANTANDER                                  3
 ACTION:UPD 17-11-07 19:40 OP:rebc STATUS:               ID:20171031232238 L   I
 OLDACT:UP  17-11-01 09:21 OP:edw  STATUS:               ID:20171031231742     3
 OLDACT:REG 17-11-01 06:18 OP:edw  STATUS:               ID:20171031231742     3
 2017-10-31-2318-00M.COL___444                                                 6
 STAT SP IPHASW D HRMM SECON CODA AMPLIT PERI AZIMU VELO AIN AR TRES W  DIS CAZ7
 BAR2 EZ EP       2322 54.08                             148    0.1410 57.1  79 
 BAR2 EZ ES       2323  7.10                             148    0.8710 57.1  79 
 BAR2 EZ I        2323  7.85        69.3 0.54            150           57.1  79 
 BRR  HZ EP       2322 54.33                             143   -0.0310 68.0 358 
 BRR  HE ES       2323  7.65                             143    0.6710 68.0 358 
 BRR  HZ I        2323  9.10        16.7 0.12            145           68.0 358 
 PTB  HZ EP       2322 54.78                             137   -0.9610 85.0 274 
 PTB  HE ES       2323  8.21                             137   -1.2110 85.0 274 
 PTB  HZ I        2323 11.59        10.3 0.10            137           85.0 274 
 RUS  HZ EP       2322 56.79                             134   -0.4110 94.3 135 
 RUS  HN ES       2323 12.36                             134    0.3410 94.3 135 
 RUS  HZ I        2323 13.48        15.2 0.22            135           94.3 135 
 SPBC HZ EP       2322 57.18                             131   -0.1810  102 205 
 SPBC HN ES       2323 12.00                             131   -0.3210  102 205 
 SPBC HZ I        2323 15.33        25.0 0.14            131            102 205 
 PAM  EZ EP       2323  2.06                             121   -0.02 9  144  49 
 PAM  EN ES       2323 20.45                             121   -0.27 9  144  49 
 PAM  EZ I        2323 22.27        20.4 0.36            122            144  49 
 NOR  HZ EP       2323  3.22                             117   -0.70 9  166 232 
 NOR  HN ES       2323 23.36                             117   -0.62 9  166 232 
 NOR  HZ I        2323 26.43        12.7 0.28            117            166 232 
 ZAR  HZ EP       2323  4.36                             116    0.07 9  170 311 
 ZAR  HE ES       2323 25.46                             116    0.82 9  170 311 
 ZAR  HZ I        2323 28.31        11.3 0.26            117            170 311 
 YPLC HZ EP       2323  6.86                             114    0.37 9  189 130 
 YPLC HN ES       2323 28.62                             114    0.07 9  189 130 
 YPLC HZ I        2323 31.25        11.6 0.38            114            189 130 
 CHI  HZ EP       2323  9.32                             112    0.46 8  206 181 
 CHI  HN ES       2323 32.58                             112   -0.20 8  206 181 
 CHI  HZ I        2323 36.11         2.6 0.36            111            206 181 
 TAM  HZ EP   2   2323  8.64                             111   -0.22 4  210  92 
 TAM  HN ES   2   2323 31.48                             111   -1.29 4  210  92 
 GUY2CHZ EP       2323 12.50                             109    0.49 8  233 233 
 GUY2CHE ES       2323 38.70                             109    0.31 8  233 233 
 GUY2CHZ I        2323 43.76         5.7 0.52                           233 233 
 ELA  HZ EP   2   2323 16.28                             107    0.78 4  262 227 
 ELA  HE ES       2323 45.59                             107    1.00 8  262 227 
 PTGC HE ES       2323 51.77                             104   -1.18 7  307 146 
 PRA  HZ EP       2323 23.95                             103    0.34 7  335 203 
 PRA  HE ES       2324  0.51                             103    1.47 7  335 203 
 PRA  HZ I        2324  8.13         3.6 0.30            101            335 203 
                                                                                
