 2012  831 2002  6.3 L   6.779 -73.151140.0  RSN 14 0.3 3.1LRSN                1
 GAP= 65        0.65       2.4     2.1  3.4  0.5720E+00  0.1620E+01  0.1849E+01E
 Epicentro: LOS SANTOS - SANTANDER                                             3
 ACTION:UPD 12-09-10 11:59 OP:ep   STATUS:               ID:20120831200206 L   I
 2012-08-31-2000-00M.COL___218                                                 6
 STAT SP IPHASW D HRMM SECON CODA AMPLIT PERI AZIMU VELO AIN AR TRES W  DIS CAZ7
 BAR2 SZ IP       20 2 25.27                             171    0.0910 20.9 190 
 BAR2 SZ I        20 2 25.84       478.0 0.14                          20.9 190 
 BAR2 SZ ES       20 2 39.82                             171   -0.0910 20.9 190 
 GIR2 SZ IP       20 2 25.26                             166   -0.0810 33.5 352 
 BRR  HZ IP     C 20 2 27.08                             151    0.2210 71.9 300 
 BRR  HZ I        20 2 27.35       405.3 0.32                          71.9 300 
 BRR  HE ES       20 2 43.49                             151    0.5910 71.9 300 
 PAM  SZ EP       20 2 28.02                             149   -0.0110 79.6  39 
 PAM  SZ I        20 2 28.54       369.9 0.23                          79.6  39 
 PAM  SN ES       20 2 44.81                             149   -0.1710 79.6  39 
 RUS  HZ EP       20 2 29.36                             143    0.0610 98.3 176 
 RUS  HE ES       20 2 47.26                             143    0.0010 98.3 176 
 RUS  HZ I        20 2 49.80       164.5 0.37                          98.3 176 
 PTB  HZ EP   1   20 2 32.06                             131   -0.64 7  147 260 
 PTB  HN ES   1   20 2 52.75                             131   -0.55 7  147 260 
 PTB  HZ I        20 2 58.96        93.8 0.40                           147 260 
 TAM  HZ EP       20 2 33.70                             129    0.19 9  155 104 
 TAM  HZ I        20 2 34.05       149.0 0.25                           155 104 
 TAM  HE ES   1   20 2 54.32                             129   -0.42 7  155 104 
 YOP  SZ EP       20 2 36.16                             125    0.43 9  177 153 
 YOP  SE ES   1   20 2 58.14                             125   -0.56 7  177 153 
 YOP  SZ I        20 3  4.22        91.2 0.17                           177 153 
 ZAR  HZ EP   1   20 2 38.07                             121   -0.33 6  204 293 
 ZAR  HN ES   1   20 3  3.29                             121   -0.17 6  204 293 
 ZAR  HZ I        20 3  8.95       178.6 0.31                           204 293 
 NOR  SZ EP       20 2 41.49                             117    0.00 8  233 235 
 NOR  SN ES   1   20 3  9.04                             117    0.09 6  233 235 
 NOR  SZ I        20 3 13.21        83.7 0.36                           233 235 
 CHI  HZ EP   1   20 2 43.72                             116    0.31 6  246 195 
 CHI  HN ES   1   20 3 12.46                             116    0.10 6  246 195 
 CHI  HZ I        20 3 18.27        46.6 0.24                           246 195 
 HEL  HZ EP       20 2 46.17                             114    0.08 8  271 256 
 HEL  HE ES   1   20 3 17.20                             114    0.07 6  271 256 
 HEL  HZ I        20 3 23.16        51.2 0.18                           271 256 
 DBB  SZ EP       20 2 53.20                             108   -0.29 7  339 275 
 PRA  HZ EP   1   20 2 59.31                             106   -0.03 4  390 210 
                                                                                
