 2015  831 2313 49.8 L   6.805 -73.121145.3  RSN 16 0.4 2.2LRSN                1
 GAP=113        0.87       2.4     3.3  4.9 -0.7899E+00  0.1762E+01  0.1903E+01E
 Epicentro: LOS SANTOS - SANTANDER                                             3
 ACTION:UPD 15-09-15 23:06 OP:cam  STATUS:               ID:20150831231349 L   I
 OLDACT:UP  15-09-04 18:42 OP:cam  STATUS:               ID:20150831231349 L   3
 OLDACT:UP  15-09-01 11:29 OP:ar   STATUS:               ID:20150831231349 L   3
 OLDACT:DUP 15-09-01 10:17 OP:spq  STATUS:               ID:20150831230751d    3
 2015-08-31-2307-50M.COL___364                                                 6
 STAT SP IPHASW D HRMM SECON CODA AMPLIT PERI AZIMU VELO AIN AR TRES W  DIS CAZ7
 BAR2 EZ EP       2314  9.38                             170    0.0010 24.5 196 
 BAR2 EZ ES   1   2314 24.21                             170   -0.45 7 24.5 196 
 BAR2 EZ I        2314 25.00        28.5 0.26            168           24.5 196 
 BRR  HZ EP       2314 10.88                             152   -0.1210 73.3 297 
 BRR  HN ES       2314 27.88                             152    0.3310 73.3 297 
 BRR  HZ I        2314 31.55        23.7 0.14            150           73.3 297 
 RUS  HZ EP   1   2314 13.19                             144   -0.32 7  101 178 
 RUS  HN ES   1   2314 31.87                             144   -0.16 7  101 178 
 RUS  HZ I        2314 33.79        17.3 0.36            144            101 178 
 TAM  HZ EP     D 2314 17.59                             131    0.40 9  153 105 
 OCA  HZ EP   1   2314 17.96                             130   -0.07 7  160 352 
 OCA  HE ES       2314 40.65                             130    0.58 9  160 352 
 OCA  HZ I        2314 45.86        25.3 0.41            131            160 352 
 SPBC HZ EP       2314 18.51                             129    0.07 9  165 220 
 SPBC HE ES       2314 40.85                             129    0.04 9  165 220 
 SPBC HZ I        2314 45.05        17.5 0.40            128            165 220 
 ZAR  HZ EP   1   2314 22.64                             122    0.21 6  206 292 
 ZAR  HN ES       2314 47.32                             122   -0.58 8  206 292 
 ZAR  HZ I        2314 52.41        15.5 0.30            122            206 292 
 NOR  HZ EP       2314 25.20                             118   -0.55 8  237 235 
 NOR  HN ES       2314 53.69                             118   -0.12 8  237 235 
 NOR  HZ I        2314 55.18        11.7 0.18            118            237 235 
 SML  HZ EP       2314 25.55                             117   -0.89 8  244 335 
 SML  HE ES   1   2314 54.87                             117   -0.18 6  244 335 
 SML  HZ I        2314 55.90        18.9 0.09            118            244 335 
 CHI  HZ EP   1   2314 26.85                             117   -0.74 6  250 196 
 CHI  HN ES   1   2314 57.21                             117    0.13 6  250 196 
 CHI  HZ I        2315  4.81         6.2 0.36            118            250 196 
 HEL  HZ EP       2314 31.07                             114    0.80 8  275 256 
 HEL  HN ES       2315  2.41                             114    0.55 8  275 256 
 HEL  HZ I        2315  8.86        10.0 0.26            115            275 256 
 GUY2CHZ EP   1   2314 33.97                             112    0.32 5  304 235 
 GUY2CHE ES   1   2315  8.27                             112    0.40 5  304 235 
 GUY2CHZ I        2315 17.45         9.3 0.52                           304 235 
 DBB  SZ ES   1   2315 14.18                             109   -0.61 5  342 274 
 DBB  SZ I        2315 18.84        20.1 0.36            110            342 274 
 TOL  SZ EP   4   2314 39.45                             109    1.17 0  346 225 
 TOL  SN ES       2315 16.21                             109    0.10 6  346 225 
 TOL  SZ I        2315 24.03         5.7 0.34            110            346 225 
 PRA  HZ EP       2314 43.36                             106   -0.13 6  394 210 
 PRA  HN ES       2315 25.43                             106    0.04 6  394 210 
 PRA  HZ I        2315 29.61         5.6 0.30            107            394 210 
 ORTC HZ EP       2314 44.52                             106    0.60 6  397 216 
 ORTC HN ES   4   2315 28.68                             106    2.53 0  397 216 
 ORTC HZ I        2315 33.70         4.6 0.60            107            397 216 
                                                                                
