 2010  731 2100 25.9 L   6.790 -73.044145.6  RSN  4 0.2 1.7LRSN                1
 GAP=176        0.52       6.1    10.9  6.8  0.4724E+02 -0.3736E+02 -0.2086E+02E
 Epicentro: LOS SANTOS - SANTANDER                                             3
 ACTION:UPD 10-12-01 15:21 OP:pat  STATUS:               ID:20100731210025 L   I
 2010-07-31-2056-03S.COL___123                                                 6
 STAT SP IPHASW D HRMM SECON CODA AMPLIT PERI AZIMU VELO AIN AR TRES W  DIS CAZ7
 BAR2 SZ IP       21 0 45.59                             169     0.010   27 215 
 BAR2 SZ ES   1   21 1  0.87                             169    -0.1 7   27 215 
 BAR2 SZ I        21 1  2.33        13.9 0.23                            27 215 
 BRR  HZ IP     C 21 0 47.44                             149    -0.210   82 295 
 BRR  HZ I        21 0 47.89        12.3 0.13                            82 295 
 BRR  HE ES   1   21 1  4.87                             149     0.2 7   82 295 
 RUS  HZ EP   1   21 0 49.85                             144     0.3 7   99 183 
 RUS  HN ES   1   21 1  7.86                             144    -0.1 7   99 183 
 RUS  HZ I        21 1  9.49         4.8 0.38                            99 183 
 GUE  SZ EP   2   21 0 50.62                             140     0.1 5  116   7 
                                                                                
