 2015  731 2047 43.8 L   6.728 -73.161147.2  RSN  6 0.5 1.8LRSN                1
 GAP=198        1.15       4.6     7.2  9.3  0.7437E+01  0.2171E+02  0.3766E+01E
 Epicentro: VILLANUEVA - SANTANDER                                             3
 ACTION:UPD 15-09-08 21:51 OP:cam  STATUS:               ID:20150731204743 L   I
 OLDACT:UP  15-08-01 03:53 OP:ak   STATUS:               ID:20150731203750     3
 OLDACT:REG 15-08-01 03:01 OP:ak   STATUS:               ID:20150731203750     3
 2015-07-31-2037-50M.COL___345                                                 6
 STAT SP IPHASW D HRMM SECON CODA AMPLIT PERI AZIMU VELO AIN AR TRES W  DIS CAZ7
 BRR  HZ EP       2048  5.63                             152    0.4010 73.9 305 
 BRR  HN ES       2048 22.67                             152    0.7110 73.9 305 
 BRR  HZ I        2048 27.42        12.3 0.20            151           73.9 305 
 RUS  HZ EP       2048  7.26                             146    0.1410 92.8 175 
 RUS  HN ES       2048 24.87                             146   -0.4710 92.8 175 
 RUS  HZ I        2048 27.66         7.1 0.26            150           92.8 175 
 ZAR  HZ EP       2048 16.88                             122    0.41 8  206 294 
 ZAR  HN ES       2048 41.53                             122   -0.45 8  206 294 
 ZAR  HZ I        2048 47.21         6.0 0.21            125            206 294 
 NOR  HZ EP       2048 18.82                             119   -0.14 8  229 236 
 NOR  HE ES       2048 45.76                             119   -0.64 8  229 236 
 NOR  HZ I        2048 53.01         4.1 0.16            122            229 236 
 SML  HN ES       2048 49.56                             117   -0.81 8  250 336 
 GUY2CHZ EP       2048 26.73                             113   -0.05 7  295 236 
 GUY2CHE ES       2049  0.89                             113    0.56 7  295 236 
 GUY2CHZ I        2049 10.41         2.8 0.36                           295 236 
                                                                                
