 2013 12 1 0012 57.8 L   6.864 -73.225133.2  RSN  8 0.5 1.8LRSN                1
 GAP=123        1.12       5.0     5.2  7.8 -0.1304E+02  0.1109E+02 -0.3373E+01E
 Epicentro: ZAPATOCA - SANTANDER                                               3
 ACTION:UPD 14-01-13 10:15 OP:ep   STATUS:               ID:20131201001257 L   I
 OLDACT:UP  13-12-01 08:59 OP:mh   STATUS:               ID:20131201001000     3
 OLDACT:REG 13-12-01 08:15 OP:mh   STATUS:               ID:20131201001000     3
 2013-12-01-0010-00M.COL___282                                                 6
 STAT SP IPHASW D HRMM SECON CODA AMPLIT PERI AZIMU VELO AIN AR TRES W  DIS CAZ7
 BAR2 SZ EP        013 15.71                             166   -0.4310 30.4 171 
 BAR2 SZ ES   1    013 30.72                             166    0.31 7 30.4 171 
 BAR2 SZ I         013 32.35        11.0 0.09            170           30.4 171 
 BRR  HZ EP        013 17.64                             154    0.6310 60.1 297 
 BRR  HN ES        013 31.05                             154   -0.9110 60.1 297 
 BRR  HZ I         013 40.11         8.7 0.12            153           60.1 297 
 PAM  SZ EP        013 18.53                             148   -0.2610 78.3  48 
 PAM  SN ES        013 35.54                             148    0.4010 78.3  48 
 PAM  SZ I         013 37.97        15.5 0.51            153           78.3  48 
 PTB  HZ EP   1    013 22.54                             130   -0.61 7  141 255 
 PTB  HN ES        013 43.38                             130    0.48 9  141 255 
 PTB  HZ I         013 46.07         7.3 0.12            133            141 255 
 OCA  HZ EP        013 24.75                             128    0.31 9  152 356 
 OCA  HN ES        013 45.13                             128   -0.06 9  152 356 
 NOR  HZ EP   1    013 32.01                             116   -0.55 6  232 232 
 NOR  HN ES        014  0.18                             116    0.53 8  232 232 
 NOR  HZ I         014  4.07         5.0 0.22            120            232 232 
 SML  HZ EP   1    013 32.46                             116   -0.22 6  234 337 
 SML  HN ES   1    014  0.17                             116    0.31 6  234 337 
 SML  HZ I         014  3.73        13.9 0.08            119            234 337 
 HEL  HN ES        014  6.80                             113   -0.20 8  265 254 
 GUY2CHZ EP   4    013 40.90                             110    0.34 0  298 233 
 GUY2CHN ES   4    014 17.84                             110    3.95 0  298 233 
 SJC  HZ EP   4    013 50.16                             104   -1.58 0  398 327 
 SJC  HN ES   4    014 31.30                             104   -2.49 0  398 327 
                                                                                
