 2017  930 0429 44.5 L   6.844 -73.137152.8  RSN 25 0.5 2.6LRSN                1
 GAP= 65        1.12       3.1     3.2  4.9  0.6382E+00  0.3964E+01  0.2745E+01E
 Epicentro: LOS SANTOS - SANTANDER                                             3
 ACTION:UPD 17-10-05 19:17 OP:rebc STATUS:               ID:20170930042945dL   I
 OLDACT:UP  17-09-30 16:23 OP:edw  STATUS:               ID:20170930042745     3
 OLDACT:UP  17-09-30 16:22 OP:edw  STATUS:               ID:20170930042745     3
 OLDACT:UP  17-09-30 16:21 OP:edw  STATUS:               ID:20170930042745     3
 OLDACT:REG 17-09-30 12:43 OP:edw  STATUS:               ID:20170930042745     3
 2017-09-30-0428-00M.COL___441                                                 6
 STAT SP IPHASW D HRMM SECON CODA AMPLIT PERI AZIMU VELO AIN AR TRES W  DIS CAZ7
 BAR2 EZ IP     C  430  4.89                             169   -0.1910 28.3 190 
 BAR2 EZ ES        430 20.68                             169   -0.4610 28.3 190 
 BAR2 EZ I         430 22.71       103.4 0.32            168           28.3 190 
 BRR  HZ EP        430  6.74                             154    0.4010 69.9 295 
 BRR  HN ES        430 23.89                             154    0.5110 69.9 295 
 BRR  HZ I         430 24.33        57.0 0.12            152           69.9 295 
 PAM  EZ EP     C  430  7.92                             153    0.7010 73.0  41 
 PAM  EN ES        430 24.98                             153    0.0310 73.0  41 
 PAM  EZ I         430 27.31        55.9 0.26            152           73.0  41 
 RUS  HZ EP     C  430  8.90                             144   -0.3910  105 177 
 RUS  HN ES        430 27.87                             144   -0.7510  105 177 
 RUS  HZ I         430 29.03        23.7 0.28            142            105 177 
 TAM  HZ IP     C  430 13.37                             132    0.59 9  155 107 
 TAM  HZ I         430 34.26        29.5 0.42            131            155 107 
 TAM  HN ES        430 34.99                             132    0.16 9  155 107 
 YPLC HZ IP     C  430 15.37                             128    0.19 9  181 152 
 YPLC HE ES        430 39.14                             128    0.03 9  181 152 
 YPLC HZ I         430 40.28        19.0 0.26            126            181 152 
 ZAR  HZ EP        430 17.51                             124    0.19 9  203 291 
 ZAR  HN ES        430 42.86                             124   -0.07 9  203 291 
 ZAR  HZ I         430 48.12        42.8 0.26            122            203 291 
 TABC EZ EP   4    430 22.59                             120    1.42 0  235 210 
 TABC EZ ES   4    430 52.90                             120    3.13 0  235 210 
 TABC EZ I         430 56.25        44.0 0.40            118            235 210 
 NOR  HZ EP        430 21.00                             119   -0.03 8  238 234 
 NOR  HN ES        430 49.25                             119   -0.28 8  238 234 
 NOR  HZ I         430 58.49        22.6 0.38            117            238 234 
 CHI  HZ EP        430 23.19                             118    0.06 8  254 195 
 CHI  HN ES        430 52.69                             118   -0.57 8  254 195 
 CHI  HZ I         430 55.98        26.1 0.62            116            254 195 
 ROSC BZ EP   4    430 25.18                             118    1.66 0  257 211 
 ROSC BN ES        430 55.22                             118    1.27 8  257 211 
 ROSC BZ I         430 59.43        58.8 0.45            116            257 211 
 HEL  HZ EP   4    430 27.30                             116    1.98 0  274 255 
 HEL  HN ES        430 56.85                             116   -0.31 8  274 255 
 HEL  HZ I         431  3.39        18.0 0.34            114            274 255 
 URE  HZ EP        430 25.42                             115   -0.40 7  283 291 
 URE  HN ES   4    430 55.43                             115   -2.63 0  283 291 
 URE  HZ I         431  4.01        15.7 0.16            113            283 291 
 GUY2CHZ EP        430 29.61                             113    0.76 7  305 234 
 GUY2CHN ES   4    431  7.23                             113    3.79 0  305 234 
 GUY2CHZ I         431 11.37        20.4 0.58                           305 234 
 VIL  EZ EP        430 28.89                             113    0.09 7  308 192 
 VIL  EN ES   4    431  0.82                             113   -2.54 0  308 192 
 VIL  EZ I         431  5.70        36.3 0.40            111            308 192 
 PTGC HZ EP        430 28.05                             113   -1.10 7  313 159 
 PTGC HN ES   4    431  1.86                             113   -2.12 0  313 159 
 PTGC HZ I         431  4.23        14.4 0.36            111            313 159 
 ELA  HZ EP   4    430 34.46                             111    2.36 0  333 229 
 ELA  HE ES   4    431 12.21                             111    2.98 0  333 229 
 ELA  HZ I         431 17.66        18.2 0.62            109            333 229 
 ANIL HZ EP   4    430 33.94                             109   -1.12 0  362 224 
 ANIL HN ES   4    431 16.04                             109    1.54 0  362 224 
 PRA  HZ EP        430 38.55                             107   -0.27 6  397 209 
 PRA  HN ES   1    431 20.56                             107   -0.63 4  397 209 
 PRA  HZ I         431 27.06        22.4 0.72            106            397 209 
 ORTC HZ EP        430 39.40                             107    0.21 6  400 216 
 ORTC HN ES        431 22.57                             107    0.72 6  400 216 
 ORTC HZ I         431 26.35        13.0 0.26            106            400 216 
 VALLCHN ES   2    431 22.73                             107   -0.23 3  405 358 
 SJC  HZ EP        430 38.95                             107   -0.94 6  406 326 
 SJC  HN ES   4    431 19.97                             107   -3.12 0  406 326 
 SJC  HZ I         431 32.35         7.3 0.28            105            406 326 
 PAL  HZ EP        430 40.65                             107    0.36 6  409 239 
 PAL  HN ES   4    431 21.53                             107   -2.28 0  409 239 
 PAL  HZ I         431 28.48         3.9 0.18            105            409 239 
 CRJC HZ EP        430 45.26                             104   -1.36 5  463   3 
 CRJC HE ES   4    431 33.05                             104   -2.02 0  463   3 
 CRJC HZ I         431 34.85         8.0 0.16            103            463   3 
 GUA  EZ EP        430 47.80                             104   -0.61 5  479 173 
 GUA  EE ES   4    431 36.20                             104   -2.06 0  479 173 
 SMAR HZ EP   1    430 50.45                             103    0.43 3  493 346 
 SMAR HN ES   4    431 37.21                             103   -3.93 0  493 346 
 SMAR HZ I         431 42.90        12.4 0.18            102            493 346 
                                                                                
