 2013  530 1858  2.5 L   6.773 -73.179152.3  RSN  6 0.2 2.0LRSN                1
 GAP=152        0.68       3.8     4.1  5.1  0.6884E+00 -0.2212E+01  0.2938E+00E
 Epicentro: LOS SANTOS - SANTANDER                                             3
 ACTION:UPD 13-06-20 09:54 OP:ep   STATUS:               ID:20130530185802 L   I
 2013-05-30-1848-50M.COL___218                                                 6
 STAT SP IPHASW D HRMM SECON CODA AMPLIT PERI AZIMU VELO AIN AR TRES W  DIS CAZ7
 BAR2 SZ EP       1858 23.06                             172    0.1910 20.0 181 
 BAR2 SZ I        1858 39.35        12.2 0.20            168           20.0 181 
 GIR2 SZ EP       1858 22.92                             167   -0.1110 33.8 357 
 GIR2 SZ ES       1858 39.08                             167    0.0510 33.8 357 
 BRR  HZ EP       1858 24.17                             154   -0.1110 69.5 302 
 BRR  HE ES       1858 41.55                             154    0.2910 69.5 302 
 BRR  HN I        1858 42.22        17.9 0.34            154           69.5 302 
 RUS  HN EP       1858 27.19                             146    0.4610 98.0 174 
 RUS  HE ES       1858 45.30                             146   -0.3210 98.0 174 
 BRI  SZ EP       1858 27.04                             142   -0.3010  113  22 
 PTB  HZ EP       1858 29.69                             134    0.03 9  144 260 
 PTB  HN ES       1858 50.60                             134   -0.22 9  144 260 
 PTB  HN I        1858 55.93        23.5 0.36            132            144 260 
                                                                                
