 2012  4 1 0234 46.9 L   6.724 -73.108148.0  RSN  4 0.4 1.2LRSN                1
 GAP=236        0.78       9.0    10.5  9.2  0.5299E+02 -0.2889E+01 -0.1045E+02E
 Epicentro: JORDAN - SANTANDER                                                 3
 ACTION:UPD 12-07-05 11:49 OP:tino STATUS:               ID:20120401023446 L   I
 2012-04-01-0230-00M.COL___196                                                 6
 STAT SP IPHASW D HRMM SECON CODA AMPLIT PERI AZIMU VELO AIN AR TRES W  DIS CAZ7
 BAR2 SZ EP        235  6.92                             173     0.310   17 210 
 BAR2 SZ ES   1    235 21.56                             173    -0.5 7   17 210 
 BAR2 SZ I         235 22.60         3.9 0.26                            17 210 
 BRR  HZ EP   1    235  8.82                             150     0.1 7   79 302 
 BRR  HZ I         235 10.19         3.5 0.09                            79 302 
 BRR  HE ES   1    235 25.91                             150     0.1 7   79 302 
 RUS  HZ EP   2    235  9.56                             147    -0.7 5   92 178 
 RUS  HN ES   1    235 28.83                             147     0.3 7   92 178 
 RUS  HZ I         235 30.60         2.1 0.29                            92 178 
 PTB  HZ EP   2    235 13.83                             132    -0.5 5  151 262 
 PTB  HE ES   2    235 35.70                             132     0.0 5  151 262 
                                                                                
