 2014 12 1 0011 14.3 L   6.739 -73.085146.7  RSN  4 0.2 1.7LRSN                1
 GAP=164        0.51       3.0     4.3  4.6 -0.4456E+01 -0.1518E+01  0.4178E+01E
 Epicentro: JORDAN - SANTANDER                                                 3
 *PTGC-CHI                                                                     3
 ACTION:UPD 15-02-10 16:59 OP:nd   STATUS:               ID:20141201000744 L   I
 OLDACT:DUP 14-12-01 15:47 OP:nlst STATUS:               ID:20141201000744 L   3
 2014-12-01-0007-44M.COL___300                                                 6
 STAT SP IPHASW D HRMM SECON CODA AMPLIT PERI AZIMU VELO AIN AR TRES W  DIS CAZ7
 BAR2 SZ EP        011 33.88                             172   -0.0610 19.5 213 
 BAR2 SZ ES        011 49.14                             172   -0.1410 19.5 213 
 BAR2 SZ I         011 50.03        15.5 0.20            170           19.5 213 
 PAM  SZ EP        011 36.88                             150    0.2110 78.9  33 
 PAM  SN ES        011 54.14                             150   -0.0110 78.9  33 
 PAM  SZ I         011 55.03         4.2 0.18            152           78.9  33 
 BRR  HZ EP        011 35.77                             150   -0.2810 80.3 300 
 BRR  HN ES        011 53.25                             150    0.2010 80.3 300 
 BRR  HZ I         011 57.62        11.6 0.36            146           80.3 300 
 CHI  HN ES        012 20.71                             118    0.13 8  244 197 
                                                                                
