 2013  4 1 0055 30.8 L   6.774 -73.141148.6  RSN  7 0.4 1.4LRSN                1
 GAP=138        0.89       6.0     5.8  7.8  0.8919E+01  0.1632E+02  0.1321E+02E
 Epicentro: LOS SANTOS - SANTANDER                                             3
 ACTION:UPD 13-05-22 14:34 OP:EP   STATUS:               ID:20130401005530 L   I
 2013-04-01-0050-00M.COL___245                                                 6
 STAT SP IPHASW D HRMM SECON CODA AMPLIT PERI AZIMU VELO AIN AR TRES W  DIS CAZ7
 BAR2 SZ EP   1    055 50.66                             172   -0.06 7 20.6 193 
 BAR2 SZ ES   1    056  6.11                             172   -0.14 7 20.6 193 
 BAR2 SZ I         056  7.07         7.8 0.20            172           20.6 193 
 GIR2 SZ ES   1    056  6.36                             166   -0.20 7 34.2 350 
 BRR  HZ EP        055 52.73                             152    0.3710 73.0 300 
 BRR  HN ES   1    056  9.85                             152    0.68 7 73.0 300 
 BRR  HZ I         056 12.92         7.3 0.22            152           73.0 300 
 PAM  SE ES   1    056 10.63                             151   -0.45 7 79.4  38 
 PAM  SZ I         056 12.79         5.0 0.71            154           79.4  38 
 RUS  HZ EP        055 54.93                             145    0.3110 97.6 176 
 RUS  HN ES   1    056 13.33                             145    0.13 7 97.6 176 
 RUS  HZ I         056 14.79         1.6 0.38            148           97.6 176 
 PTB  HZ EP        055 57.40                             133   -0.59 9  148 260 
 PTB  HN ES   1    056 18.62                             133   -0.58 7  148 260 
 PTB  HZ I         056 22.33         4.5 0.22            134            148 260 
 ZAR  HE ES   1    056 29.50                             123    0.34 6  206 293 
 SJC  HZ EP   4    056 24.89                             106   -1.88 0  412 327 
 SJC  HN ES   4    057  4.69                             106   -5.74 0  412 327 
                                                                                
