 2016  5 1 0740 52.1 L   6.840 -73.182137.8  RSN  8 0.4 1.5LRSN                1
 GAP=130        0.79       3.5     3.8  7.7 -0.3114E+01  0.8883E+01  0.3940E+01E
 Epicentro: ZAPATOCA - SANTANDER                                               3
 ACTION:UPD 16-08-18 17:40 OP:cam  STATUS:               ID:20160501074052 L   I
 OLDACT:REG 16-05-01 13:04 OP:dnl  STATUS:               ID:20160501073747     3
 2016-05-01-0737-47M.COL___282                                                 6
 STAT SP IPHASW D HRMM SECON CODA AMPLIT PERI AZIMU VELO AIN AR TRES W  DIS CAZ7
 BAR2 EZ EP   2    741 10.94                             168    0.08 5 27.4 180 
 BAR2 EZ ES   2    741 25.45                             168   -0.04 5 27.4 180 
 BAR2 EZ I         741 27.60         5.8 0.64            169           27.4 180 
 PAM  EZ IP     D  741 13.75                             149    0.3310 76.8  44 
 PAM  EE ES        741 30.39                             149    0.3310 76.8  44 
 PAM  EZ I         741 32.57        11.5 0.52            155           76.8  44 
 RUS  HZ EP   2    741 15.11                             141   -0.32 5  105 174 
 RUS  HE ES   2    741 33.56                             141   -0.07 5  105 174 
 RUS  HZ I         741 35.10         2.3 0.20            145            105 174 
 PTB  HZ EP   2    741 17.67                             131   -0.47 5  145 257 
 PTB  HN ES        741 38.10                             131   -0.36 9  145 257 
 PTB  HZ I         741 42.15         3.3 0.40            132            145 257 
 OCA  HZ EP   2    741 19.11                             129   -0.22 5  155 354 
 OCA  HE ES        741 39.89                             129   -0.69 9  155 354 
 OCA  HZ I         741 44.94        10.5 0.22            132            155 354 
 SPBC HZ EP        741 19.86                             127   -0.23 9  164 217 
 SPBC HE ES   2    741 41.88                             127   -0.05 5  164 217 
 SPBC HZ I         741 48.21         5.4 0.24            130            164 217 
 ZAR  HZ EP   2    741 23.80                             121    0.33 4  199 291 
 ZAR  HE ES        741 48.65                             121    0.71 9  199 291 
 ZAR  HZ I         741 55.36         3.1 0.44            123            199 291 
 GUY2CHZ EP   2    741 35.86                             111    0.59 4  301 234 
 GUY2CHN ES   2    742  9.12                             111    0.18 4  301 234 
 GUY2CHZ I         742 15.32         1.8 0.42                           301 234 
                                                                                
