 2011  7 1 0621 22.7 L   6.787 -73.118143.3  RSN 13 0.3 2.0LRSN                1
 GAP=159        0.53       1.8     2.9  3.1 -0.1836E+01  0.2118E+01  0.1813E+00E
 Epicentro: LOS SANTOS - SANTANDER                                             3
 ACTION:UPD 12-07-25 13:57 OP:epov STATUS:               ID:20110701062122 L   I
 2011-07-01-0617-13S.COL___140                                                 6
 STAT SP IPHASW D HRMM SECON CODA AMPLIT PERI AZIMU VELO AIN AR TRES W  DIS CAZ7
 BTL  SZ EP        621 41.99                             171    0.0010 22.0 311 
 BAR2 SZ EP        621 41.88                             171   -0.1210 22.7 198 
 BAR2 SZ ES        621 57.13                             171    0.0610 22.7 198 
 BAR2 SZ I         621 59.27        23.3 0.14                          22.7 198 
 GIR2 SZ EP        621 42.07                             166   -0.0510 33.3 346 
 BRR  HZ EP        621 43.83                             151    0.0710 74.6 298 
 BRR  HN ES        622  0.49                             151    0.2910 74.6 298 
 BRR  HZ I         622  4.67        25.2 0.25                          74.6 298 
 RUS  HZ EP        621 46.22                             144    0.1510 99.0 178 
 RUS  HE ES        622  4.18                             144   -0.1410 99.0 178 
 RUS  HZ I         622  6.66        17.3 0.38                          99.0 178 
 BRI  SZ EP   1    621 46.39                             141    0.03 7  109  19 
 GRA  SZ EP        621 47.61                             136   -0.1410  126  16 
 GRA  SZ ES        622  7.44                             136    0.1410  126  16 
 GRA  SZ I         622  8.39        11.4 0.27                           126  16 
 OCA  SZ EP   1    621 50.66                             129   -0.31 7  162 352 
 OCA  SZ ES   1    622 12.59                             129   -0.45 7  162 352 
 OCA  SZ I         622 16.57        11.8 0.30                           162 352 
 NOR  SZ EP        621 58.43                             118   -0.02 8  236 235 
 NOR  SE ES   1    622 25.60                             118   -0.74 6  236 235 
 CHI  HZ EP   2    622  0.70                             117    0.52 4  248 196 
 CHI  HE ES   2    622 29.49                             117    0.06 4  248 196 
 CHI  HZ I         622 37.68         4.9 0.54                           248 196 
 HEL  HZ EP        622  3.63                             114    0.57 8  275 256 
 HEL  HN ES   1    622 34.66                             114    0.11 6  275 256 
 HEL  HZ I         622 40.52         5.5 0.42                           275 256 
 RREF HZ EP   2    622  8.50                             110   -0.38 3  323 230 
 RREF HN ES   2    622 44.72                             110   -0.19 3  323 230 
 RREF HZ I         622 54.34         6.5 0.10                           323 230 
 PRA  HZ EP   1    622 15.95                             106   -0.20 4  392 210 
 PRA  HE ES   1    622 57.92                             106    0.07 4  392 210 
                                                                                
