 2013  9 1 0711 19.1 L   6.756 -73.146139.6  RSN  7 0.3 1.5LRSN                1
 GAP=138        0.63       3.3     3.6  5.7  0.3766E+00  0.5493E+01 -0.1198E+01E
 Epicentro: LOS SANTOS - SANTANDER                                             3
 ACTION:UPD 13-10-22 09:19 OP:ep   STATUS:               ID:20130901071119 L   I
 OLDACT:UP  13-09-01 10:34 OP:mh   STATUS:               ID:20130901070959     3
 OLDACT:REG 13-09-01 08:51 OP:mh   STATUS:               ID:20130901070959     3
 2013-09-01-0709-59M.COL___269                                                 6
 STAT SP IPHASW D HRMM SECON CODA AMPLIT PERI AZIMU VELO AIN AR TRES W  DIS CAZ7
 BAR2 SZ EP   1    711 38.12                             172    0.19 7 18.6 192 
 BAR2 SZ ES   1    711 52.46                             172   -0.13 7 18.6 192 
 BAR2 SZ I         711 53.96         5.6 0.16            171           18.6 192 
 BRR  HZ EP   1    711 40.06                             151    0.31 7 73.6 302 
 BRR  HN ES   1    711 56.22                             151    0.38 7 73.6 302 
 BRR  HN I         712  0.69        11.0 0.18            149           73.6 302 
 PAM  SZ EP   1    711 41.00                             148    0.07 7 81.2  37 
 PAM  SN ES   1    711 58.00                             148    0.06 7 81.2  37 
 RUS  HZ EP   1    711 42.09                             144    0.17 7 95.8 176 
 RUS  HN ES   1    711 59.56                             144   -0.15 7 95.8 176 
 RUS  HZ I         712  1.64         2.0 0.26            148           95.8 176 
 PTB  HZ EP   1    711 44.95                             131   -0.56 7  147 261 
 PTB  HN ES   1    712  5.76                             131   -0.34 7  147 261 
 PTB  HZ I         712  7.99         3.5 0.12            131            147 261 
 OCA  HN ES   1    712  8.90                             127   -0.61 7  165 353 
 OCA  HN I         712 11.10        16.2 0.54            129            165 353 
 ZAR  HZ EP   1    711 51.53                             121    0.16 6  206 293 
 ZAR  HN ES   1    712 16.90                             121    0.38 6  206 293 
 ZAR  HZ I         712 22.69         2.9 0.56            122            206 293 
                                                                                
