 2012  3 1 0837 58.3 L   7.002 -73.101147.7  RSN  4 0.2 1.2LRSN                1
 GAP=259        0.49       8.8    13.9  8.6  0.1015E+03 -0.6393E+02 -0.3147E+02E
 ACTION:UP  12-03-31 23:16 OP:EP   STATUS:               ID:20120301083758 L   I
 2012-03-01-0830-00M.COL___191                                                 6
 STAT SP IPHASW D HRMM SECON CODA AMPLIT PERI AZIMU VELO SNR AR TRES W  DIS CAZ7
 BAR2 SZ EP   1    838 18.56                             161    -0.3 7   46 191 
 BRR  HZ EP   1    838 19.82                             153     0.3 7   68 280 
 BRR  HN ES   1    838 35.96                             153    -0.1 7   68 280 
 BRR  HZ I         838 44.66         4.8 0.54                            68 280 
 RUS  HZ EP   1    838 23.92                             138     0.0 7  123 179 
 RUS  HE ES   1    838 44.03                             138     0.1 7  123 179 
 RUS  HZ I         838 45.15         1.2 0.38                           123 179 
 PTB  HZ EP   2    838 26.23                             130    -0.2 5  158 251 
                                                                                
