 2014 12 1 0011 13.8 L   6.771 -73.159150.2  RSN  7 0.4 1.8LRSN                1
 GAP=136        1.11       4.9     4.8  7.5 -0.8744E+00  0.8517E+01 -0.2889E+01E
 Epicentro: LOS SANTOS - SANTANDER                                             3
 ACTION:UPD 15-02-10 16:59 OP:nd   STATUS:               ID:20141201001113 L   I
 OLDACT:REG 14-12-01 12:08 OP:carl STATUS:               ID:20141201000744     3
 2014-12-01-0007-44M.COL___300                                                 6
 STAT SP IPHASW D HRMM SECON CODA AMPLIT PERI AZIMU VELO AIN AR TRES W  DIS CAZ7
 BAR2 SZ EP        011 33.83                             172   -0.0510 20.0 187 
 BAR2 SZ ES        011 49.17                             172   -0.3910 20.0 187 
 BAR2 SZ I         011 50.03        15.5 0.20            173           20.0 187 
 BRR  HZ EP        011 35.75                             153    0.3310 71.5 301 
 BRR  HN ES        011 53.37                             153    1.0610 71.5 301 
 BRR  HZ I         011 57.64        11.6 0.36            151           71.5 301 
 PAM  SZ EP        011 36.70                             150    0.0310 80.8  39 
 PAM  SN ES        011 54.14                             150   -0.3810 80.8  39 
 PAM  SZ I         011 55.09         7.6 0.84            152           80.8  39 
 RUS  HZ EP        011 37.98                             146    0.2210 97.5 175 
 RUS  HN ES        011 56.36                             146   -0.1010 97.5 175 
 RUS  HZ I         011 57.09         6.1 0.46            149           97.5 175 
 PTB  HZ EP        011 40.85                             133   -0.08 9  146 260 
 PTB  HN ES        012  1.46                             133   -0.65 9  146 260 
 PTB  HZ I         012  3.57         6.7 0.28            133            146 260 
 SPBC HN ES        012  4.87                             131    0.31 9  160 219 
 SPBC HZ I         012  6.15        11.0 0.14            132            160 219 
 ZAR  HZ EP        011 46.42                             123   -0.08 9  204 293 
 ZAR  HN ES        012 11.61                             123   -0.41 9  204 293 
 ZAR  HZ I         012 18.85         8.5 0.44            124            204 293 
                                                                                
