 2010  9 1 0208 44.9 L   6.781 -73.088148.3  RSN  9 0.1 1.9LRSN                1
 GAP=165        0.37       1.8     3.8  3.9 -0.1832E+01 -0.1652E+01  0.7095E-01E
 Epicentro: LOS SANTOS - SANTANDER                                             3
 ACTION:UP  11-02-18 10:59 OP:tino STATUS:               ID:20100901020844 L   I
 2010-09-01-0207-05S.COL___120                                                 6
 STAT SP IPHASW D HRMM SECON CODA AMPLIT PERI AZIMU VELO SNR AR TRES W  DIS CAZ7
 BAR2 SZ EP        2 9  4.79                             171     0.010   23 207 
 BAR2 SZ I         2 9 21.42        21.0 0.10                            23 207 
 BRR  HZ IP     D  2 9  6.70                             151     0.010   78 298 
 BRR  HE ES   1    2 9 23.82                             151     0.1 7   78 298 
 BRR  HZ I         2 9 24.99        22.9 0.15                            78 298 
 RUS  HZ EP   1    2 9  8.69                             145     0.0 7   98 180 
 RUS  HE ES   1    2 9 27.41                             145     0.1 7   98 180 
 RUS  HZ I         2 9 28.46         8.5 0.26                            98 180 
 GUE  SZ EP        2 9  9.92                             140     0.010  117   9 
 GRA  SZ EP        2 9 10.62                             137     0.210  126  14 
 GRA  SZ ES   1    2 9 30.00                             137    -0.3 7  126  14 
 OCA  SZ EP   2    2 9 13.68                             130     0.0 5  163 351 
 OCA  SZ ES   2    2 9 35.92                             130    -0.2 5  163 351 
 OCA  SZ I         2 9 36.89         6.9 0.06                           163 351 
 CHI  HN ES   2    2 9 51.86                             118    -0.3 4  248 197 
 CHI  HZ I         210  1.73         4.9 0.48                           248 197 
 HEL  HZ EP   2    2 9 25.80                             115    -0.1 4  278 257 
 HEL  HZ I         210  5.17         4.6 0.20                           278 257 
 PRA  HZ EP   2    2 9 38.63                             107     0.0 3  393 211 
 PRA  HN ES   2    210 20.50                             107    -0.1 3  393 211 
 PRA  HZ I         210 24.72         4.9 0.71                           393 211 
                                                                                
