 2010 10 1 0125 18.1 L   6.780 -73.143137.5  RSN 19 0.6 3.7LRSN                1
 GAP=136        1.42       3.9     6.1  6.4 -0.7596E+01  0.7665E+01  0.6104E+01E
 Epicentro: LOS SANTOS - SANTANDER                                             3
 ACTION:UP  11-02-18 11:06 OP:tino STATUS:               ID:20101001012518 L   I
 2010-10-01-0122-37S.COL___125                                                 6
 STAT SP IPHASW D HRMM SECON CODA AMPLIT PERI AZIMU VELO SNR AR TRES W  DIS CAZ7
 BTL  SZ EP        125 36.82                             171     0.110   21 318 
 BTL  SZ ES   1    125 49.88                             171    -1.3 7   21 318 
 BAR2 SZ IP     C  125 36.68                             171     0.010   21 192 
 BAR2 SZ ES   1    125 51.23                             171     0.0 7   21 192 
 BAR2 SZ I         125 52.37      1229.4 0.13                            21 192 
 GIR2 SZ ES   1    125 51.35                             165    -0.1 7   34 351 
 URB  SZ EP        125 38.31                             157     0.710   55 337 
 URB  SZ ES   2    125 52.85                             157     0.0 5   55 337 
 BRR  HZ IP     C  125 38.59                             150     0.210   73 300 
 BRR  HN ES        125 55.39                             150     1.110   73 300 
 BRR  HZ I         125 59.79       920.8 0.17                            73 300 
 RUS  HZ EP        125 40.60                             143    -0.310   98 176 
 RUS  HN ES        125 58.57                             143    -0.110   98 176 
 RUS  HZ I         126  0.81       612.7 0.47                            98 176 
 GUE  SZ EP        125 41.68                             137    -0.510  119  12 
 GUE  SZ I         125 42.54       316.0 0.16                           119  12 
 GRA  SZ IP        125 43.62                             135     0.810  128  17 
 GRA  SZ I         125 44.71       782.1 0.61                           128  17 
 GRA  SZ ES   1    126  2.50                             135     0.5 7  128  17 
 OCA  SZ EP        125 45.19                             127    -0.8 9  163 353 
 OCA  SZ ES   1    126  6.53                             127    -1.2 7  163 353 
 OCA  SZ I         126 11.22       776.4 0.10                           163 353 
 YOP  SZ EP        125 47.39                             125     0.0 9  177 153 
 NOR  SZ EP        125 53.21                             117     0.0 8  234 235 
 NOR  SN ES        126 19.82                             117    -0.9 8  234 235 
 CHI  HZ EP        125 55.00                             116    -0.1 8  247 195 
 CHI  HN ES        126 23.70                             116    -0.3 8  247 195 
 CHI  HZ I         126 27.80       245.6 0.85                           247 195 
 ROSC BZ IP     C  125 56.49                             115     0.9 8  251 211 
 ROSC BN ES   1    126 24.85                             115     0.0 6  251 211 
 ROSC BZ I         126 33.57       318.9 0.40                           251 211 
 HEL  HZ EP        125 58.29                             113     0.4 8  272 256 
 HEL  HN ES   1    126 28.33                             113    -0.6 6  272 256 
 HEL  HZ I         126 33.77       181.3 0.20                           272 256 
 RREF HZ EP        126  3.48                             109    -0.3 7  321 230 
 RREF HN ES        126 39.54                             109     0.2 7  321 230 
 RREF HZ I         126 45.47       279.4 1.24                           321 230 
 DBB  SZ EP        126  5.03                             108    -0.3 7  340 275 
 TOL  SZ EP        126  5.89                             108     0.0 7  342 225 
 TOL  SZ ES   2    126 42.93                             108    -0.2 3  342 225 
 ANIL HZ EP        126  7.82                             107     0.4 6  356 225 
 ANIL HN ES   2    126 45.87                             107     0.0 3  356 225 
 ANIL HZ I         126 52.70       385.3 1.17                           356 225 
 PRA  HZ EP        126 10.40                             105    -0.7 6  390 210 
 PRA  HN ES        126 53.08                             105     0.6 6  390 210 
 PRA  HZ I         126 55.99       416.8 0.88                           390 210 
                                                                                
