 2010 11 1 0540 40.2 L   6.830 -73.050138.0  RSN  6 0.4 1.4LRSN                1
 GAP=169        1.10       5.8    12.2 12.0 -0.9400E+01 -0.5013E+02 -0.8254E+01E
 Epicentro: LOS SANTOS - SANTANDER                                             3
 ACTION:UP  10-12-17 16:49 OP:REBC STATUS:               ID:20101101054040 L   I
 2010-11-01-0537-35S.COL___125                                                 6
 STAT SP IPHASW D HRMM SECON CODA AMPLIT PERI AZIMU VELO SNR AR TRES W  DIS CAZ7
 BAR2 SZ EP        540 59.07                             167     0.010   30 209 
 BAR2 SZ ES   2    541 13.32                             167    -0.5 5   30 209 
 BRR  HZ EP        541  0.91                             149    -0.110   79 293 
 BRR  HN ES   1    541 17.51                             149     0.2 7   79 293 
 BRR  HZ I         541 21.58         4.9 0.15                            79 293 
 RUS  HZ EP        541  3.54                             141     0.110  104 182 
 RUS  HN ES   2    541 21.78                             141     0.2 5  104 182 
 RUS  HZ I         541 23.33         2.9 0.30                           104 182 
 GUE  SZ EP        541  4.65                             139     0.810  112   7 
 GRA  SZ EP        541  3.65                             137    -0.610  120  13 
 GRA  SZ ES   1    541 23.17                             137     0.1 7  120  13 
 GRA  SZ I         541 24.57         4.5 0.41                           120  13 
 OCA  SZ EP        541  7.58                             128    -0.2 9  159 349 
 OCA  SZ I         541 33.78         3.2 0.33                           159 349 
                                                                                
