 2011 11 1 0143 49.7 L   7.441 -73.094143.9  RSN  7 0.2 2.0LRSN                1
 GAP=120        0.48       2.4     3.0  3.9  0.1314E+01  0.2224E+01  0.6968E+00E
 Epicentro: EL PLAYON - SANTANDER                                              3
 ACTION:UPD 12-07-13 16:07 OP:ep   STATUS:               ID:20111101014349 L   I
 2011-11-01-0140-14S.COL___174                                                 6
 STAT SP IPHASW D HRMM SECON CODA AMPLIT PERI AZIMU VELO AIN AR TRES W  DIS CAZ7
 PAM  SZ EP        144 10.16                             162    0.0810 45.0 104 
 PAM  SN ES   1    144 26.07                             162    0.07 7 45.0 104 
 BTL  SZ EP        144 10.53                             156    0.1210 60.9 198 
 BRR  HZ EP        144 11.04                             150    0.0510 77.6 242 
 BRR  HE ES   1    144 27.87                             150    0.25 7 77.6 242 
 BRR  HZ I         144 29.12        30.7 0.12                          77.6 242 
 OCA  SZ EP        144 12.09                             146   -0.0410 91.6 344 
 OCA  SZ ES   1    144 29.55                             146   -0.09 7 91.6 344 
 OCA  SZ I         144 35.11        13.5 0.47                          91.6 344 
 BAR2 SZ EP        144 12.42                             145   -0.0110 94.4 186 
 BAR2 SZ ES   1    144 29.62                             145   -0.57 7 94.4 186 
 BAR2 SZ I         144 32.26        26.7 0.24                          94.4 186 
 RUS  HZ EP        144 19.43                             127    0.10 9  171 180 
 RUS  HE ES   1    144 42.60                             127    0.13 7  171 180 
 RUS  HZ I         144 43.72         4.0 0.26                           171 180 
 ZAR  HZ EP        144 20.74                             123   -0.30 9  195 272 
 ZAR  HN ES   1    144 45.71                             123    0.20 6  195 272 
 ZAR  HZ I         144 50.53        11.4 0.40                           195 272 
                                                                                
