 2017  1 1 0132 32.8 L   6.749 -73.169150.0  RSN  5 0.3 1.4LRSN                1
 GAP=231        0.60       4.9     4.5  5.8  0.1208E+02  0.2077E+01 -0.5049E+01E
 Epicentro: LOS SANTOS - SANTANDER                                             3
 ACTION:UPD 17-05-22 15:53 OP:jn   STATUS:               ID:20170101013232 L   I
 OLDACT:REG 17-01-01 13:36 OP:dnl  STATUS:               ID:20170101012742     3
 2017-01-01-0128-00M.COL___384                                                 6
 STAT SP IPHASW D HRMM SECON CODA AMPLIT PERI AZIMU VELO AIN AR TRES W  DIS CAZ7
 BAR2 EZ EP        132 52.73                             173   -0.1210 17.4 185 
 BAR2 EZ ES   2    133  8.10                             173   -0.38 5 17.4 185 
 BAR2 EZ I         133 10.53         6.2 0.28            174           17.4 185 
 BRR  HZ EP        132 54.55                             153    0.0910 71.9 303 
 BRR  HN ES        133 11.63                             153    0.2910 71.9 303 
 BRR  HZ I         133 13.47         3.5 0.40            153           71.9 303 
 RUS  HN ES        133 15.10                             146   -0.0610 95.2 174 
 RUS  HZ I         133 16.57         2.7 0.44            149           95.2 174 
 PTB  HZ EP        132 59.87                             134    0.06 9  144 261 
 PTB  HE ES        133 21.05                             134    0.18 9  144 261 
 PTB  HZ I         133 22.58         2.4 0.38            135            144 261 
 ZAR  HZ EP   2    133  5.84                             123    0.32 4  204 294 
 ZAR  HE ES        133 30.50                             123   -0.53 9  204 294 
 ZAR  HZ I         133 35.85         3.0 0.38            125            204 294 
                                                                                
