 2016 10 1 0919 16.0 L   6.480 -73.249165.7  RSN  6 0.4 1.8LRSN                1
 GAP=166        0.99       5.1     6.0  8.0  0.7629E+01 -0.1089E+01 -0.1023E+02E
 Epicentro: SOCORRO - SANTANDER                                                3
 ACTION:UPD 16-11-09 19:15 OP:rebc STATUS:               ID:20161001091916 L   I
 OLDACT:UP  16-10-01 19:41 OP:dani STATUS:               ID:20161001090745     3
 OLDACT:UP  16-10-01 19:39 OP:dani STATUS:               ID:20161001090745     3
 OLDACT:REG 16-10-01 13:28 OP:dani STATUS:               ID:20161001090745     3
 2016-10-01-0908-00M.COL___357                                                 6
 STAT SP IPHASW D HRMM SECON CODA AMPLIT PERI AZIMU VELO AIN AR TRES W  DIS CAZ7
 RUS  HZ EP        919 40.01                             157    0.1410 67.5 164 
 RUS  HE ES        919 58.24                             157   -0.2510 67.5 164 
 RUS  HZ I         920  0.01        10.0 0.23            160           67.5 164 
 BRR  HZ EP        919 40.61                             151    0.4510 86.2 324 
 BRR  HN ES        919 59.67                             151    0.6810 86.2 324 
 BRR  HZ I         920  1.43         8.9 0.14            150           86.2 324 
 SPBC HE ES   4    920  6.20                             140    1.70 0  129 225 
 SPBC HZ I         920  8.55         8.5 0.27            141            129 225 
 PTB  HZ EP        919 43.17                             139   -0.3310  134 273 
 PTB  HE ES        920  4.67                             139   -0.2810  134 273 
 PTB  HZ I         920  7.90         4.2 0.15            139            134 273 
 OCA  HZ EP        919 48.99                             128   -0.12 9  195 358 
 OCA  HE ES        920 14.29                             128   -0.64 9  195 358 
 OCA  HZ I         920 19.14        14.9 0.44            130            195 358 
 ZAR  HZ EP        919 50.76                             126    0.34 8  210 302 
 ZAR  HE ES        920 17.07                             126   -0.19 8  210 302 
 ZAR  HZ I         920 24.33         3.0 0.20            126            210 302 
                                                                                
