 2017  5 1 0934 38.6 L   6.758 -73.115148.0  RSN  6 0.4 1.4LRSN                1
 GAP=142        0.72       3.9     4.3  6.8  0.2892E+01  0.5968E+00 -0.8569E+01E
 Epicentro: LOS SANTOS - SANTANDER                                             3
 ACTION:UPD 17-06-16 13:31 OP:jn   STATUS:               ID:20170501093438 L   I
 OLDACT:UP  17-05-01 15:14 OP:and  STATUS:               ID:20170501092744d    3
 OLDACT:UP  17-05-01 15:14 OP:and  STATUS:               ID:20170501092744d    3
 OLDACT:UP  17-05-01 15:14 OP:and  STATUS:               ID:20170501092744d    3
 OLDACT:UP  17-05-01 15:13 OP:and  STATUS:               ID:20170501092744d    3
 OLDACT:UP  17-05-01 15:13 OP:and  STATUS:               ID:20170501092744d    3
 OLDACT:UP  17-05-01 15:12 OP:and  STATUS:               ID:20170501092744d    3
 OLDACT:UP  17-05-01 15:12 OP:and  STATUS:               ID:20170501092744d    3
 OLDACT:UP  17-05-01 15:12 OP:and  STATUS:               ID:20170501092744d    3
 OLDACT:UP  17-05-01 15:12 OP:and  STATUS:               ID:20170501092744d    3
 OLDACT:UP  17-05-01 15:10 OP:and  STATUS:               ID:20170501092744d    3
 OLDACT:DUP 17-05-01 15:07 OP:and  STATUS:               ID:20170501092744d    3
 OLDACT:UP  17-05-01 15:06 OP:and  STATUS:               ID:20170501092743     3
 OLDACT:UP  17-05-01 15:05 OP:and  STATUS:               ID:20170501092743     3
 OLDACT:UP  17-05-01 15:05 OP:and  STATUS:               ID:20170501092743     3
 OLDACT:UP  17-05-01 15:04 OP:and  STATUS:               ID:20170501092743     3
 OLDACT:REG 17-05-01 13:07 OP:ar   STATUS:               ID:20170501092743     3
 2017-05-01-0928-00M.COL___359                                                 6
 STAT SP IPHASW D HRMM SECON CODA AMPLIT PERI AZIMU VELO AIN AR TRES W  DIS CAZ7
 BRR  HZ EP        935  0.19                             151   -0.1110 76.4 300 
 BRR  HN ES        935 17.21                             151   -0.0110 76.4 300 
 BRR  HZ I         935 18.32         5.9 0.30            150           76.4 300 
 PAM  EZ EP        935  1.20                             151    0.0410 79.0  36 
 RUS  HZ EP   2    935  2.81                             146    0.57 5 95.7 178 
 RUS  HN ES        935 20.68                             146    0.0010 95.7 178 
 RUS  HZ I         935 21.73         3.2 0.24            147           95.7 178 
 PTB  HZ EP        935  5.75                             132   -0.24 9  150 261 
 PTB  HN ES   2    935 26.14                             132   -1.20 5  150 261 
 PTB  HZ I         935 28.39         2.5 0.16            132            150 261 
 SPBC HE ES        935 29.59                             130    0.18 9  162 221 
 ZAR  HZ EP        935 11.55                             122   -0.16 8  209 293 
 ZAR  HE ES        935 38.03                             122    0.51 8  209 293 
 ZAR  HZ I         935 42.74         2.6 0.24            122            209 293 
                                                                                
