 2015  6 1 0803 58.3 L   7.001 -72.820176.9  RSN  4 0.2 1.2LRSN                1
 GAP=270        0.65       9.7    11.3  8.9  0.8737E+02 -0.5043E+02 -0.5172E+02E
 Epicentro: SANTA BARBARA - SANTANDER                                          3
 ACTION:UPD 15-09-10 22:08 OP:cam  STATUS:               ID:20150601075749 L   I
 OLDACT:DUP 15-06-11 08:25 OP:AR   STATUS:               ID:20150601075749 L   3
 2015-06-01-0757-49M.COL___300                                                 6
 STAT SP IPHASW D HRMM SECON CODA AMPLIT PERI AZIMU VELO AIN AR TRES W  DIS CAZ7
 BAR2 EZ EP        8 4 23.19                             161    0.4010 60.4 222 
 BAR2 EZ ES        8 4 41.84                             161   -0.0310 60.4 222 
 BAR2 EZ I         8 4 42.96         2.7 0.54            159           60.4 222 
 BRR  HZ EP        8 4 24.08                             150   -0.3810 99.3 277 
 BRR  HZ I         8 4 24.81         2.3 0.10            149           99.3 277 
 BRR  HN ES        8 4 44.88                             150    0.0410 99.3 277 
 RUS  HN ES        8 4 49.24                             143   -0.0810  126 193 
 RUS  HZ I         8 4 51.11         1.2 0.42            142            126 193 
 ZAR  HN ES   1    8 5  4.94                             125    0.14 6  232 284 
                                                                                
