 2014  2 1 0926 39.7 L   6.809 -73.203136.0  RSN  5 0.3 1.2LRSN                1
 GAP=146        0.80       4.4     4.4  6.0 -0.5387E+01  0.6429E+01  0.1897E+01E
 Epicentro: ZAPATOCA - SANTANDER                                               3
 ACTION:UPD 14-03-10 08:06 OP:ep   STATUS:               ID:20140201092639 L   I
 OLDACT:REG 14-02-01 08:05 OP:stll STATUS:               ID:20140201091635     3
 2014-02-01-0916-35M.COL___237                                                 6
 STAT SP IPHASW D HRMM SECON CODA AMPLIT PERI AZIMU VELO AIN AR TRES W  DIS CAZ7
 BAR2 SZ EP        926 58.49                             169    0.2810 24.1 175 
 BAR2 SZ I         926 58.82         6.5 0.34            170           24.1 175 
 BAR2 SZ ES        927 12.33                             169   -0.2910 24.1 175 
 PAM  SZ EP        927  1.39                             148    0.2410 80.8  43 
 PAM  SN ES        927 17.55                             148   -0.2910 80.8  43 
 PAM  SZ I         927 19.69         2.8 0.24            147           80.8  43 
 RUS  HZ EP        927  2.88                             141    0.2110  102 173 
 RUS  HZ I         927  3.73         1.8 0.12            141            102 173 
 RUS  HN ES        927 20.83                             141    0.2810  102 173 
 PTB  HZ EP        927  5.35                             131   -0.02 9  142 258 
 PTB  HZ I         927  6.18         2.4 0.14            131            142 258 
 PTB  HN ES        927 25.42                             131    0.06 9  142 258 
 CHI  HZ EP        927 16.11                             115   -0.74 8  248 194 
                                                                                
