 2010 11 1 0138 52.0 L   5.992 -73.736114.7  RSN  6 0.2 1.5LRSN                1
 GAP=146        0.50       3.1     2.6  6.0 -0.2769E+01  0.7382E+01 -0.9644E+00E
 Epicentro: BOLIVAR - SANTANDER                                                3
 ACTION:UP  10-12-17 16:49 OP:REBC STATUS:               ID:20101101013852 L   I
 2010-11-01-0136-04S.COL___125                                                 6
 STAT SP IPHASW D HRMM SECON CODA AMPLIT PERI AZIMU VELO SNR AR TRES W  DIS CAZ7
 RUS  HZ EP        139 10.87                             145     0.110   73  99 
 RUS  HN ES   1    139 25.39                             145     0.0 7   73  99 
 RUS  HZ I         139 27.26         4.9 0.17                            73  99 
 BAR2 SZ EP        139 11.89                             139     0.210   90  43 
 BAR2 SZ ES   1    139 26.82                             139    -0.2 7   90  43 
 BRR  HZ EP        139 14.16                             129    -0.110  123   1 
 BRR  HZ I         139 24.96         5.9 0.44                           123   1 
 BRR  HE ES   1    139 31.47                             129    -0.1 7  123   1 
 NOR  SZ EP        139 15.04                             126    -0.310  134 250 
 NOR  SE ES   1    139 33.56                             126     0.0 7  134 250 
 HEL  HN ES   2    139 46.91                             115     0.4 4  200 276 
 GUY  SZ EP   3    139 22.51                             115    -0.3 2  200 245 
 GUY  SN ES   3    139 47.11                             115     0.4 2  200 245 
 HEL  HZ EP   1    139 22.93                             115     0.3 6  200 276 
 HEL  HZ I         139 49.91         3.9 0.45                           200 276 
                                                                                
