 2013  6 1 0622 12.3 L   6.037 -73.679110.4  RSN  6 0.5 1.5LRSN                1
 GAP=104        1.21       6.4     4.7 11.2 -0.7755E+01  0.1912E+02  0.2863E+02E
 Epicentro: VELEZ - SANTANDER                                                  3
 ACTION:UPD 14-01-08 09:51 OP:ep   STATUS:               ID:20130601062212 L   I
 2013-06-01-0620-00M.COL___261                                                 6
 STAT SP IPHASW D HRMM SECON CODA AMPLIT PERI AZIMU VELO AIN AR TRES W  DIS CAZ7
 RUS  HZ EP        622 30.15                             146   -0.0410 67.9 104 
 RUS  HN ES        622 44.03                             146   -0.1410 67.9 104 
 RUS  HZ I         622 45.89         3.4 0.28            148           67.9 104 
 BAR2 SZ EP        622 31.60                             140    0.7110 82.4  42 
 BAR2 SZ ES        622 45.45                             140    0.0410 82.4  42 
 BAR2 SZ I         622 46.52        17.5 0.10            145           82.4  42 
 PTB  HZ EP   1    622 30.99                             134   -1.25 7  102 303 
 PTB  HN ES   1    622 47.47                             134   -0.35 7  102 303 
 PTB  HZ I         622 48.30         4.7 0.32            137            102 303 
 NOR  HZ EP        622 35.71                             124   -0.34 9  142 248 
 NOR  HN ES        622 54.70                             124    0.10 9  142 248 
 NOR  HZ I         622 56.38        10.1 0.16            126            142 248 
 GUY2CHZ EP        622 43.98                             113    0.35 8  207 244 
 GUY2CHN ES        623  9.02                             113    0.92 8  207 244 
 PRA  HZ EP        622 52.47                             105   -0.13 7  290 208 
 PRA  HN ES        623 23.50                             105   -0.56 7  290 208 
 PRA  HZ I         623 28.08         1.4 0.28            107            290 208 
                                                                                
