 2017  5 1 0533 54.1 L   6.812 -73.174148.9  RSN  7 0.4 1.3LRSN                1
 GAP=109        1.01       3.9     3.8  7.0  0.3284E+01  0.2891E+01  0.3931E+01E
 Epicentro: LOS SANTOS - SANTANDER                                             3
 ACTION:UPD 17-06-16 13:31 OP:jn   STATUS:               ID:20170501053354 L   I
 OLDACT:REG 17-05-01 12:56 OP:ar   STATUS:               ID:20170501052144     3
 2017-05-01-0528-00M.COL___368                                                 6
 STAT SP IPHASW D HRMM SECON CODA AMPLIT PERI AZIMU VELO AIN AR TRES W  DIS CAZ7
 BRR  HZ EP        534 15.53                             154    0.1610 67.9 299 
 BRR  HE ES        534 32.38                             154    0.3910 67.9 299 
 BRR  HZ I         534 36.47         4.6 0.26            153           67.9 299 
 PAM  EZ EP        534 16.67                             151    0.0010 78.4  42 
 PAM  EE ES        534 33.89                             151   -0.4210 78.4  42 
 PAM  EZ I         534 36.61         2.5 0.58            156           78.4  42 
 RUS  HZ EP        534 18.13                             144   -0.1010  102 174 
 RUS  HN ES        534 37.14                             144    0.0610  102 174 
 RUS  HZ I         534 37.79         1.9 0.28            147            102 174 
 PTB  HZ EP        534 20.33                             133   -0.71 9  145 258 
 PTB  HN ES        534 41.35                             133   -0.73 9  145 258 
 PTB  HZ I         534 48.73         2.9 0.36            134            145 258 
 SPBC HZ EP        534 22.74                             130    0.03 9  162 218 
 SPBC HE ES        534 45.14                             130    0.08 9  162 218 
 SPBC HZ I         534 50.72         3.3 0.07            132            162 218 
 YPLC HZ EP        534 24.18                             127   -0.16 9  179 151 
 YPLC HE ES        534 48.50                             127    0.54 9  179 151 
 YPLC HZ I         534 49.11         3.3 0.28            131            179 151 
 ZAR  HZ EP        534 26.82                             124    0.45 9  201 292 
 ZAR  HE ES        534 52.17                             124    0.60 9  201 292 
 ZAR  HZ I         534 57.88         2.0 0.25            125            201 292 
                                                                                
