 2013 12 1 0845 11.4 L   6.784 -73.168145.6  RSN 12 0.5 2.1LRSN                1
 GAP=144        1.05       3.4     4.5  6.4 -0.4125E+01  0.2076E+01  0.1188E+01E
 Epicentro: LOS SANTOS - SANTANDER                                             3
 ACTION:UPD 14-01-13 10:15 OP:ep   STATUS:               ID:20131201084511 L   I
 OLDACT:UP  13-12-01 12:56 OP:mh   STATUS:               ID:20131201084000     3
 OLDACT:REG 13-12-01 08:40 OP:mh   STATUS:               ID:20131201084000     3
 2013-12-01-0840-00M.COL___282                                                 6
 STAT SP IPHASW D HRMM SECON CODA AMPLIT PERI AZIMU VELO AIN AR TRES W  DIS CAZ7
 BAR2 SZ EP        845 31.03                             171    0.0410 21.3 184 
 BAR2 SZ ES   1    845 45.96                             171   -0.29 7 21.3 184 
 BRR  HZ EP   1    845 32.74                             153    0.26 7 70.0 301 
 BRR  HN ES        845 49.44                             153    0.5310 70.0 301 
 BRR  HZ I         845 53.99        12.2 0.14            153           70.0 301 
 PAM  SZ EP        845 33.95                             150    0.1610 80.3  40 
 PAM  SN ES   1    845 51.06                             150   -0.18 7 80.3  40 
 PAM  SZ I         845 53.18        17.1 0.44            153           80.3  40 
 PTB  HZ EP        845 37.26                             133   -0.87 9  145 259 
 PTB  HN ES        845 58.37                             133   -0.59 9  145 259 
 PTB  HZ I         846  1.39        29.6 0.04            134            145 259 
 SPBC HZ EP        845 40.07                             130    0.44 9  160 219 
 SPBC HN ES        846  1.26                             130   -0.38 9  160 219 
 OCA  HZ EP        845 40.27                             129    0.41 9  162 354 
 OCA  HN ES   4    846  0.35                             129   -1.69 0  162 354 
 OCA  HZ I         846  7.82         8.9 0.39            132            162 354 
 ZAR  HZ EP   1    845 43.47                             123   -0.23 6  202 293 
 ZAR  HN ES   1    846  8.55                             123   -0.32 6  202 293 
 NOR  HZ EP        845 46.84                             119    0.02 8  232 234 
 NOR  HN ES        846 14.64                             119    0.21 8  232 234 
 NOR  HZ I         846 22.97         8.3 0.22            121            232 234 
 SML  HZ EP        845 47.24                             117   -0.86 8  244 336 
 SML  HN ES        846 17.00                             117    0.29 8  244 336 
 SML  HZ I         846 19.42        94.8 0.04            119            244 336 
 CHI  HZ EP        845 49.08                             117    0.22 8  246 195 
 CHI  HN ES        846 18.14                             117    0.08 8  246 195 
 CHI  HZ I         846 21.99         4.6 0.26            120            246 195 
 HEL  HZ EP   4    845 53.08                             115    1.76 0  269 256 
 HEL  HN ES        846 23.36                             115    0.92 8  269 256 
 GUY2CHZ EP   4    845 56.32                             112    1.63 0  298 235 
 GUY2CHE ES   4    846 30.39                             112    1.96 0  298 235 
 GUY2CHZ I         846 37.36         4.6 0.30                           298 235 
 ORTC HZ EP   4    846  4.73                             106   -0.27 0  393 216 
 ORTC HN ES   4    846 48.56                             106    1.77 0  393 216 
 SJC  HZ EP   4    846  5.51                             106   -1.49 0  409 327 
 SJC  HN ES   4    846 44.07                             106   -6.28 0  409 327 
                                                                                
