 2011 10 1 0744 41.1 L   6.780 -73.126146.2  RSN  4 0.1 1.6LRSN                1
 GAP=140        0.36       2.8     5.4  4.5 -0.4504E+01  0.9783E+01 -0.2911E+01E
 Epicentro: LOS SANTOS - SANTANDER                                             3
 ACTION:UPD 12-07-13 16:01 OP:ep   STATUS:               ID:20111001074441 L   I
 2011-10-01-0740-00M.COL___169                                                 6
 STAT SP IPHASW D HRMM SECON CODA AMPLIT PERI AZIMU VELO AIN AR TRES W  DIS CAZ7
 BAR2 SZ EP   1    745  0.53                             171   -0.19 7 21.7 197 
 BAR2 SZ ES   1    745 15.94                             171   -0.11 7 21.7 197 
 BAR2 SZ I         745 17.35        10.3 0.29                          21.7 197 
 BRR  HZ EP        745  2.53                             151    0.0910 74.1 299 
 PAM  SZ EP   1    745  3.42                             151    0.06 7 77.8  37 
 PAM  SN ES   1    745 20.75                             151    0.01 7 77.8  37 
 RUS  HZ EP   1    745  4.59                             145   -0.11 7 98.3 177 
 RUS  HN ES   1    745 23.31                             145    0.18 7 98.3 177 
 RUS  HZ I         745 24.96         4.7 0.45                          98.3 177 
                                                                                
