 2016  8 1 0212 14.7 L   6.707 -73.112157.0  RSN  4 0.2 1.2LRSN                1
 GAP=268        0.61       5.0     6.4  7.8 -0.1187E+02 -0.2368E+02  0.1609E+02E
 Epicentro: JORDAN - SANTANDER                                                 3
 ACTION:UPD 16-10-29 15:31 OP:rebc STATUS:               ID:20160801021214 L   I
 OLDACT:REG 16-08-01 13:57 OP:edw  STATUS:               ID:20160801020759     3
 2016-08-01-0207-59S.COL___340                                                 6
 STAT SP IPHASW D HRMM SECON CODA AMPLIT PERI AZIMU VELO AIN AR TRES W  DIS CAZ7
 BAR2 HZ EP        212 35.47                             174   -0.1010 14.9 212 
 BRR  HZ EP        212 37.80                             152    0.2410 79.7 304 
 BRR  HN ES        212 55.32                             152   -0.0610 79.7 304 
 PTB  HZ EP        212 42.37                             134   -0.43 9  150 263 
 PTB  HE ES        213  4.86                             134    0.15 9  150 263 
 PTB  HZ I         213  6.13         0.7 0.14                           150 263 
 SPBC HZ EP        212 43.89                             132    0.27 9  158 222 
 SPBC HE ES        213  6.07                             132   -0.09 9  158 222 
 SPBC HZ I         213 11.10         4.7 0.22                           158 222 
                                                                                
