 2017  3 1 0559 55.4 L   6.772 -73.168152.9  RSN  4 0.2 0.8LRSN                1
 GAP=135        0.65       4.3     4.3  6.5  0.4217E+01 -0.6597E+01 -0.4950E+01E
 Epicentro: LOS SANTOS - SANTANDER                                             3
 ACTION:UPD 17-05-25 18:34 OP:jn   STATUS:               ID:20170301055955 L   I
 OLDACT:REG 17-03-01 12:57 OP:and  STATUS:               ID:20170301055739     3
 2017-03-01-0558-00M.COL___378                                                 6
 STAT SP IPHASW D HRMM SECON CODA AMPLIT PERI AZIMU VELO AIN AR TRES W  DIS CAZ7
 BRR  HZ EP        6 0 17.42                             154    0.1610 70.5 302 
 BRR  HN ES        6 0 34.28                             154   -0.0510 70.5 302 
 PAM  EZ EP        6 0 18.53                             151   -0.0510 81.3  40 
 RUS  HZ EP        6 0 19.94                             146    0.3110 97.8 174 
 RUS  HN ES        6 0 38.39                             146   -0.1710 97.8 174 
 RUS  HZ I         6 0 40.62         0.9 0.42            146           97.8 174 
 PTB  HZ EP        6 0 22.21                             134   -0.45 9  145 260 
 PTB  HE ES        6 0 44.16                             134    0.21 9  145 260 
                                                                                
