 2016  3 1 0357 54.4 L   6.807 -73.158140.6  RSN  8 0.4 1.7LRSN                1
 GAP=135        0.99       3.0     4.4  6.5 -0.1503E+01  0.8797E+01 -0.5225E+00E
 Epicentro: LOS SANTOS - SANTANDER                                             3
 ACTION:UPD 16-05-13 21:20 OP:cam  STATUS:               ID:20160301035754 L   I
 OLDACT:DUP 16-03-01 18:21 OP:mh   STATUS:               ID:20160301034751d    3
 2016-03-01-0347-50M.COL___321                                                 6
 STAT SP IPHASW D HRMM SECON CODA AMPLIT PERI AZIMU VELO AIN AR TRES W  DIS CAZ7
 BAR2 EZ EP        358 13.34                             170   -0.1210 23.9 186 
 BAR2 EZ ES        358 28.01                             170   -0.2810 23.9 186 
 BAR2 EZ I         358 29.02         9.5 0.32            171           23.9 186 
 PAM  EZ EP        358 16.35                             150    0.2310 77.7  41 
 PAM  EN ES        358 33.45                             150    0.4110 77.7  41 
 PAM  EZ I         358 35.04        11.6 0.48            151           77.7  41 
 RUS  HE EP        358 17.57                             142   -0.1810  101 175 
 RUS  HN ES        358 36.31                             142    0.3810  101 175 
 RUS  HE I         358 36.33        10.9 0.18            145            101 175 
 PTB  HZ EP   1    358 20.35                             131   -0.52 7  147 258 
 PTB  HN ES        358 41.10                             131   -0.39 9  147 258 
 PTB  HZ I         358 43.99         3.2 0.28            131            147 258 
 OCA  HZ EP        358 21.71                             129   -0.55 9  159 354 
 OCA  HE ES        358 43.50                             129   -0.46 9  159 354 
 OCA  HZ I         358 47.55        15.5 0.44            129            159 354 
 SPBC HZ EP        358 22.65                             128    0.14 9  163 218 
 SPBC HN ES   1    358 44.20                             128   -0.22 7  163 218 
 ZAR  HZ EP        358 26.75                             121    0.37 9  202 292 
 ZAR  HN ES        358 52.22                             121    0.92 9  202 292 
 ZAR  HZ I         358 58.09         4.0 0.28            121            202 292 
 CHI  HZ EP   1    358 32.44                             116    0.55 6  249 195 
 CHI  HN ES        359  0.87                             116   -0.24 8  249 195 
 CHI  HZ I         359  3.99         1.9 0.28            117            249 195 
 URE  HZ EP   4    358 33.71                             113   -1.37 0  282 292 
 URE  HN ES   4    359  4.43                             113   -2.35 0  282 292 
                                                                                
