 2017  8 1 0515 30.9 L   6.818 -73.201147.6  RSN  4 0.4 0.9LRSN                1
 GAP=275        0.99       8.7     6.4  8.5  0.5226E+01  0.1134E+02 -0.9516E+01E
 Epicentro: ZAPATOCA - SANTANDER                                               3
 ACTION:UPD 17-09-04 20:15 OP:rebc STATUS:               ID:20170801051530 L   I
 OLDACT:REG 17-08-01 14:04 OP:osc  STATUS:               ID:20170801050741     3
 2017-08-01-0508-00M.COL___398                                                 6
 STAT SP IPHASW D HRMM SECON CODA AMPLIT PERI AZIMU VELO AIN AR TRES W  DIS CAZ7
 BAR2 EZ EP        515 50.98                             170    0.1510 25.1 175 
 BAR2 EZ ES        516  6.54                             170    0.2010 25.1 175 
 RUS  HZ EP        515 55.07                             143    0.0010  103 173 
 RUS  HE ES        516 13.48                             143   -0.4010  103 173 
 RUS  HZ I         516 14.94         1.8 0.36            146            103 173 
 PTB  HZ EP        515 57.92                             134    0.35 9  142 258 
 PTB  HE ES        516 17.84                             134   -0.50 9  142 258 
 PTB  HZ I         516 23.70         0.9 0.24            133            142 258 
 SPBC HZ EP        515 58.93                             130   -0.46 9  161 217 
 SPBC HE ES        516 22.24                             130    0.67 9  161 217 
                                                                                
