 2014  8 1 0112 37.6 L   7.545 -73.089151.4  RSN 17 0.5 2.6LRSN                1
 GAP=136        1.11       3.1     3.5  5.4  0.5425E+00  0.6012E+01  0.3773E+01E
 Epicentro: EL PLAYON - SANTANDER                                              3
 ACTION:UPD 14-09-15 21:46 OP:nd   STATUS:               ID:20140801011237 L   I
 OLDACT:REG 14-08-01 13:13 OP:y    STATUS:               ID:20140801010813     3
 2014-08-01-0108-13M.COL___260                                                 6
 STAT SP IPHASW D HRMM SECON CODA AMPLIT PERI AZIMU VELO AIN AR TRES W  DIS CAZ7
 PAM  SZ EP        112 59.16                             162    0.1310 48.6 118 
 PAM  SN ES        113 15.83                             162    0.0910 48.6 118 
 PAM  SZ I         113 17.64       115.6 0.18            157           48.6 118 
 OCA  HZ EP        113  0.17                             151    0.0310 80.8 342 
 OCA  HN ES        113 18.07                             151    0.3510 80.8 342 
 OCA  HZ I         113 19.76       172.9 0.48            151           80.8 342 
 BRR  HZ IP     C  113  0.51                             149    0.3910 84.1 235 
 BRR  HN ES        113 18.54                             149    0.8610 84.1 235 
 BRR  HZ I         113 21.87        85.7 0.22            148           84.1 235 
 BAR2 SZ EP        113  2.02                             143    0.0810  106 186 
 BAR2 SZ ES        113 20.77                             143   -0.1410  106 186 
 BAR2 SZ I         113 22.94        75.5 0.16            140            106 186 
 SML  HZ EP        113  7.06                             128   -0.58 9  176 322 
 SML  HE ES        113 30.25                             128   -0.81 9  176 322 
 SML  HZ I         113 33.94       107.2 0.10            128            176 322 
 RUS  HZ EP        113  8.53                             127   -0.41 9  183 180 
 RUS  HN ES        113 32.49                             127   -0.90 9  183 180 
 RUS  HZ I         113 34.89        14.1 0.26            124            183 180 
 PTB  HZ EP        113  8.72                             126   -0.07 9  188 234 
 PTB  HN ES        113 32.90                             126   -0.20 9  188 234 
 PTB  HZ I         113 36.25        53.0 0.16            125            188 234 
 TAM  HZ EP        113  8.53                             126   -0.40 9  189 130 
 TAM  HZ I         113 32.46        23.7 0.50            123            189 130 
 TAM  HN ES        113 33.09                             126   -0.28 9  189 130 
 SPBC HZ EP        113 14.02                             120    0.18 8  236 208 
 SPBC HN ES        113 42.32                             120    0.21 8  236 208 
 SPBC HZ I         113 52.48        31.6 0.22            118            236 208 
 NOR  HZ EP        113 21.48                             114    1.28 7  295 222 
 NOR  HN ES        113 53.31                             114   -0.12 7  295 222 
 NOR  HZ I         114  2.40        23.9 0.24            112            295 222 
 HEL  HZ EP        113 22.43                             113    0.27 7  308 241 
 HEL  HN ES        113 56.16                             113   -0.75 7  308 241 
 HEL  HZ I         113 59.75        20.3 0.34            111            308 241 
 CHI  HZ EP        113 24.87                             111    0.20 7  330 192 
 CHI  HN ES        114  0.91                             111   -0.47 7  330 192 
 CHI  HZ I         114 10.40         5.8 0.30            109            330 192 
 SJC  HZ EP   4    113 25.10                             110   -1.07 0  347 319 
 SJC  HN ES   4    114  1.40                             110   -2.65 0  347 319 
 SJC  HZ I         114  6.43        32.6 0.86            109            347 319 
 DBB  SZ EP        113 26.54                             110    0.07 6  350 261 
 DBB  SZ ES        114  4.16                             110   -0.42 6  350 261 
 GUY2CHZ EP        113 28.55                             109    0.44 6  360 225 
 GUY2CHE ES        114  7.82                             109    0.32 6  360 225 
 CBOC HZ EP        113 29.79                             108    0.53 6  373 240 
 CBOC HN ES        114  8.69                             108   -0.87 6  373 240 
 CBOC HZ I         114 12.54         7.4 0.36            107            373 240 
 RREF HZ EP        113 32.19                             108    0.98 6  385 221 
 RREF HN ES        114 13.52                             108    0.50 6  385 221 
 RREF HZ I         114 23.36        12.4 0.30            107            385 221 
                                                                                
