 2010 12 1 0620 31.6 L   6.811 -73.120142.8  RSN  6 0.1 1.5LRSN                1
 GAP=161        0.42       3.2     7.4  7.5 -0.1305E+01 -0.8997E+01 -0.1139E+02E
 Epicentro: LOS SANTOS - SANTANDER                                             3
 ACTION:UP  11-01-14 15:22 OP:pat  STATUS:               ID:20101201062031 L   I
 2010-12-01-0617-37S.COL___131                                                 6
 STAT SP IPHASW D HRMM SECON CODA AMPLIT PERI AZIMU VELO SNR AR TRES W  DIS CAZ7
 BAR2 SZ EP        620 50.84                             169    -0.110   25 196 
 BAR2 SZ ES   2    621  6.00                             169     0.0 5   25 196 
 BAR2 SZ I         621  7.56        13.7 0.29                            25 196 
 BRR  HZ EP        620 52.69                             151     0.110   73 297 
 BRR  HZ I         620 52.95        16.6 0.20                            73 297 
 RUS  HZ EP        620 55.20                             143     0.010  102 178 
 RUS  HZ I         621 14.63         1.9 0.38                           102 178 
 GUE  SZ EP        620 56.02                             139     0.110  115  11 
 GRA  SZ EP        620 56.52                             137     0.110  124  16 
 GRA  SZ I         621 17.37         3.9 0.06                           124  16 
 OCA  SZ EP        620 59.45                             129    -0.2 9  159 352 
 OCA  SZ I         621 25.03         4.0 0.31                           159 352 
                                                                                
