 2014  3 1 0135 27.3 L   7.011 -73.631110.1  RSN  5 0.6 1.4LRSN                1
 GAP=134        1.51       6.1     7.0 15.6 -0.3785E+01 -0.5694E+00 -0.1423E+02E
 Epicentro: SAN VICENTE DE CHUCURI - SANTANDER                                 3
 ACTION:UPD 14-04-09 23:13 OP:nd   STATUS:               ID:20140301013527 L   I
 OLDACT:REG 14-03-01 09:08 OP:stll STATUS:               ID:20140301013200     3
 2014-03-01-0132-00S.MAN___205                                                 6
 STAT SP IPHASW D HRMM SECON CODA AMPLIT PERI AZIMU VELO AIN AR TRES W  DIS CAZ7
 BAR2 SZ I         135 45.44        13.2 0.20            127           67.8 133 
 BAR2 SZ EP        135 45.45                             146    0.6410 67.8 133 
 BAR2 SZ ES        135 59.21                             146    0.7210 67.8 133 
 PTB  HZ EP        135 47.87                             133    0.4010  105 240 
 PTB  HN ES        136  2.90                             133   -0.3210  105 240 
 PTB  HZ I         136  4.92         5.8 0.28            107            105 240 
 PAM  SZ EP        135 48.25                             132   -0.2210  109  70 
 RUS  HZ EP        135 51.42                             125    0.21 9  138 154 
 RUS  HZ I         135 52.36         2.1 0.30            104            138 154 
 RUS  HN ES        136  8.70                             125   -1.17 9  138 154 
 OCA  HN ES        136  9.09                             124   -0.42 9  140  14 
                                                                                
