 2010  5 1 0426 13.7 L   6.788 -72.942145.8  RSN  7 0.4 2.0LRSN                1
 GAP=215        0.55       4.9     7.8  5.7 -0.3569E+01  0.4057E+01  0.2444E+01E
 Epicentro: CEPITA - SANTANDER                                                 3
 ACTION:UP  10-08-24 10:02 OP:vdl  STATUS:               ID:20100501042613 L   I
 2010-05-01-0423-54S.COL___105                                                 6
 STAT SP IPHASW D HRMM SECON CODA AMPLIT PERI AZIMU VELO SNR AR TRES W  DIS CAZ7
 BAR2 SZ EP   2    426 33.62                             166     0.0 5   34 231 
 BAR2 SZ ES   1    426 49.22                             166     0.1 7   34 231 
 BRR  HZ EP   1    426 36.20                             145     0.0 7   92 293 
 BRR  HN ES   1    426 53.31                             145    -0.4 7   92 293 
 BRR  HZ I         426 56.23        11.9 0.13                            92 293 
 OCA  SZ EP   2    426 42.81                             128     0.3 5  166 345 
 OCA  SZ ES   2    427  5.26                             128     0.2 5  166 345 
 OCA  SZ I         427  9.69        10.7 0.25                           166 345 
 CHI  HZ EP   3    426 51.86                             117    -0.2 2  254 200 
 CHI  HE ES   3    427 22.83                             117     0.9 2  254 200 
 CHI  HZ I         427 26.86         2.8 0.35                           254 200 
 HEL  HZ EP   2    426 56.05                             113    -0.3 4  294 257 
 HEL  HE ES   2    427 30.33                             113     0.8 4  294 257 
 HEL  HZ I         427 33.34         6.2 0.56                           294 257 
 RREF BZ EP   2    427  1.90                             110     0.2 3  338 232 
 RREF BZ I         427 45.69         5.1 0.23                           338 232 
 PRA  HZ EP   2    427  7.62                             106    -0.8 3  402 212 
 PRA  HZ I         427 54.36         3.7 0.43                           402 212 
                                                                                
