 2012  1 1 0423 30.1 L   6.775 -73.123144.6  RSN  4 0.2 1.3LRSN                1
 GAP=141        0.55       3.9     5.9  6.0 -0.3852E+00 -0.2319E+01  0.8274E+00E
 Epicentro: LOS SANTOS - SANTANDER                                             3
 ACTION:UP  12-02-03 08:12 OP:REBC STATUS:               ID:20120101042330 L   I
 2012-01-01-0420-00M.COL___187                                                 6
 STAT SP IPHASW D HRMM SECON CODA AMPLIT PERI AZIMU VELO SNR AR TRES W  DIS CAZ7
 BAR2 SZ EP   1    423 49.32                             171    -0.2 7   21 198 
 BAR2 SZ ES   1    424  4.37                             171    -0.3 7   21 198 
 BAR2 SZ I         424  7.07         5.4 0.32                            21 198 
 BRR  HZ EP   1    423 51.13                             151    -0.2 7   75 299 
 BRR  HE ES   1    424  8.15                             151     0.3 7   75 299 
 BRR  HZ I         424 10.47         5.4 0.14                            75 299 
 PAM  SZ EP   1    423 52.32                             150     0.1 7   78  37 
 PAM  SN ES   1    424  9.55                             150     0.1 7   78  37 
 PAM  SZ I         424 12.02         3.1 0.50                            78  37 
 RUS  HZ EP   1    423 53.65                             144     0.1 7   98 177 
 RUS  HN ES   1    424 11.99                             144     0.2 7   98 177 
 RUS  HZ I         424 13.30         2.6 0.28                            98 177 
                                                                                
