 2013 12 1 0450 16.1 L   6.816 -73.148150.0  RSN 12 0.5 2.0LRSN                1
 GAP=148        1.12       3.9     5.9  7.5 -0.8917E+01  0.3500E+00  0.7734E+01E
 Epicentro: LOS SANTOS - SANTANDER                                             3
 ACTION:UPD 14-01-13 10:15 OP:ep   STATUS:               ID:20131201045016 L   I
 OLDACT:UP  13-12-01 11:57 OP:mh   STATUS:               ID:20131201045000     3
 OLDACT:UP  13-12-01 11:56 OP:mh   STATUS:               ID:20131201045000     3
 OLDACT:REG 13-12-01 08:34 OP:mh   STATUS:               ID:20131201045000     3
 2013-12-01-0450-00M.COL___282                                                 6
 STAT SP IPHASW D HRMM SECON CODA AMPLIT PERI AZIMU VELO AIN AR TRES W  DIS CAZ7
 BAR2 SZ EP        450 36.10                             170   -0.1810 25.1 189 
 BAR2 SZ I         450 53.95        20.0 0.18            170           25.1 189 
 BRR  HZ EP        450 38.01                             154    0.3610 70.1 297 
 BRR  HN ES        450 55.18                             154    0.7210 70.1 297 
 BRR  HZ I         451  0.34        13.4 0.10            155           70.1 297 
 PAM  SZ EP   1    450 38.91                             152    0.21 7 76.2  41 
 PAM  SN ES   1    450 55.93                             152   -0.40 7 76.2  41 
 PAM  SZ I         450 58.29         8.6 0.38            155           76.2  41 
 PTB  HZ EP        450 42.78                             133   -0.65 9  148 258 
 PTB  HN ES        451  4.19                             133   -0.55 9  148 258 
 PTB  HZ I         451 10.00        13.7 0.20            135            148 258 
 OCA  HZ EP   1    450 44.77                             131    0.19 7  158 353 
 OCA  HN ES        451  6.97                             131    0.18 9  158 353 
 OCA  HZ I         451 12.09         8.5 0.18            134            158 353 
 SPBC HZ EP        450 45.06                             130    0.01 9  164 219 
 SPBC HN ES        451  7.28                             130   -0.35 9  164 219 
 ZAR  HZ EP        450 48.89                             123    0.15 9  203 292 
 ZAR  HN ES   1    451 15.14                             123    0.95 6  203 292 
 ZAR  HZ I         451 20.77        13.0 0.30            126            203 292 
 NOR  HZ EP        450 52.16                             119   -0.01 8  236 234 
 NOR  HN ES        451 19.96                             119   -0.35 8  236 234 
 NOR  HZ I         451 23.83         8.4 0.17            122            236 234 
 SML  HZ EP   1    450 52.47                             119   -0.31 6  242 335 
 SML  HN ES        451 20.50                             119   -0.89 8  242 335 
 SML  HZ I         451 25.85        15.7 0.06            121            242 335 
 HEL  HZ EP   4    450 57.77                             116    1.21 0  272 255 
 HEL  HN ES   4    451 33.01                             116    4.90 0  272 255 
 HEL  HZ I         451 36.95         5.0 0.37            118            272 255 
 GUY2CHZ EP        451  1.01                             113    1.00 7  302 234 
 GUY2CHN ES   4    451 37.62                             113    3.37 0  302 234 
 GUY2CHZ I         451 43.19         4.8 0.29                           302 234 
 PRA  HZ EP        451  9.66                             107   -0.28 6  393 209 
 PRA  HN ES        451 52.79                             107    0.85 6  393 209 
 PRA  HZ I         451 57.04         4.2 0.56            109            393 209 
 SJC  HZ EP   4    451  8.65                             106   -2.96 0  408 327 
 SJC  HN ES   4    451 52.35                             106   -2.56 0  408 327 
                                                                                
