 2012 12 1 0829  7.2 L   6.802 -73.188133.9  RSN  7 0.3 2.0LRSN                1
 GAP=131        0.85       3.2     3.8  5.8 -0.2719E+00  0.8782E+01 -0.7559E+00E
 Epicentro: ZAPATOCA - SANTANDER                                               3
 ACTION:UPD 13-01-04 14:24 OP:ep   STATUS:               ID:20121201082908dL   I
 2012-12-01-0826-40M.COL___183                                                 6
 STAT SP IPHASW D HRMM SECON CODA AMPLIT PERI AZIMU VELO AIN AR TRES W  DIS CAZ7
 BAR2 SZ EP        829 25.41                             170    0.0110 23.2 178 
 BAR2 SZ ES        829 39.51                             170   -0.0810 23.2 178 
 BAR2 SZ I         829 41.16        20.5 0.20                          23.2 178 
 GIR2 SZ ES        829 39.44                             166   -0.2310 30.6 359 
 PAM  SZ EP        829 28.41                             147    0.0510 80.3  42 
 PAM  SN ES        829 45.09                             147    0.2310 80.3  42 
 PAM  SN I         829 46.20        24.5 0.48                          80.3  42 
 RUS  HZ EP        829 30.11                             141    0.2610  101 173 
 RUS  HN ES        829 47.63                             141    0.1110  101 173 
 RUS  HN I         829 48.82         4.9 0.18                           101 173 
 PTB  HZ EP        829 32.32                             130   -0.47 9  143 258 
 PTB  HN ES        829 52.50                             130   -0.25 9  143 258 
 PTB  HN I         829 55.73        14.5 0.20                           143 258 
 OCA  HN ES        829 55.60                             127   -0.28 9  160 355 
 OCA  HN I         829 59.16        49.9 0.40                           160 355 
 ZAR  HZ EP        829 38.23                             120   -0.20 9  200 293 
 ZAR  HN ES        830  3.70                             120    0.91 9  200 293 
 ZAR  HN I         830  5.76        11.1 0.42                           200 293 
                                                                                
