 2017  1 1 0759 11.0 L   6.788 -73.137151.3  RSN  9 0.4 1.4LRSN                1
 GAP=155        1.05       5.0     5.7  6.5  0.9437E+01  0.1248E+01  0.7290E+01E
 Epicentro: LOS SANTOS - SANTANDER                                             3
 ACTION:UPD 17-05-22 15:54 OP:jn   STATUS:               ID:20170101075911 L   I
 OLDACT:UP  17-01-01 18:28 OP:dnl  STATUS:               ID:20170101075741     3
 OLDACT:UP  17-01-01 18:27 OP:dnl  STATUS:               ID:20170101075741     3
 OLDACT:REG 17-01-01 13:51 OP:dnl  STATUS:               ID:20170101075741     3
 2017-01-01-0758-00M.COL___372                                                 6
 STAT SP IPHASW D HRMM SECON CODA AMPLIT PERI AZIMU VELO AIN AR TRES W  DIS CAZ7
 BAR2 EZ EP        759 31.19                             172   -0.0810 22.2 193 
 BAR2 EZ ES        759 46.74                             172   -0.3410 22.2 193 
 BAR2 EZ I         759 47.33         9.8 0.26            165           22.2 193 
 BRR  HZ EP     C  759 33.00                             153    0.1710 72.7 299 
 BRR  HN ES        759 50.09                             153    0.2310 72.7 299 
 BRR  HZ I         759 50.74         4.5 0.10            147           72.7 299 
 RUS  HZ EP        759 35.58                             145    0.3910 99.2 177 
 RUS  HN ES        759 54.18                             145    0.1110 99.2 177 
 RUS  HZ I         759 55.40         3.9 0.25            143           99.2 177 
 PTB  HZ EP   9    759 37.98                             133   -0.50 0  148 259 
 PTB  HN ES        759 58.66                             133   -0.76 9  148 259 
 PTB  HZ I         8 0  6.19         4.2 0.20            129            148 259 
 ZAR  HZ EP   4    759 46.00                             123    2.05 0  205 292 
 ZAR  HN ES        8 0  9.21                             123   -0.45 8  205 292 
 ZAR  HZ I         8 0 14.59         2.2 0.17            121            205 292 
 NOR  HZ EP        759 47.13                             119    0.08 8  235 235 
 NOR  HN ES        8 0 15.92                             119    0.74 8  235 235 
 NOR  HZ I         8 0 22.19         1.5 0.15            117            235 235 
 CHI  HZ EP   2    759 49.63                             118    0.74 4  248 195 
 CHI  HN ES        8 0 17.62                             118   -0.84 8  248 195 
 CHI  HZ I         8 0 20.62         1.3 0.17            117            248 195 
 ROSC BN ES   4    8 0 18.01                             118   -1.26 0  252 211 
 PTGC HZ EP        759 54.36                             112   -0.56 7  307 159 
 PTGC HE IS   4    8 0 27.51                             112   -1.67 0  307 159 
 PTGC HE ES   4    8 0 27.51                             112   -1.67 0  307 159 
 LL1C HZ EP   4    759 56.08                             112    1.08 0  308 351 
 LL1C HN ES   4    8 0 32.08                             112    2.74 0  308 351 
 LL6C HZ EP   4    759 36.43                             111   -20.7 0  326 357 
 LL6C HZ ES   4    8 0 12.61                             111   -20.4 0  326 357 
 SJC  HZ EP   4    8 0  5.37                             106   -1.56 0  411 327 
 SJC  HN ES   4    8 0 47.78                             106   -2.79 0  411 327 
 CRJC HZ EP   9    8 0 10.55                             104   -3.25 0  469   3 
 CRJC HN ES        8 0 59.24                             104   -0.30 5  469   3 
                                                                                
