 2013 12 1 0912 36.1 L   6.790 -73.149153.5  RSN  7 0.3 1.4LRSN                1
 GAP=180        0.79       4.3     4.4  6.6 -0.9106E+01 -0.5798E-01  0.1098E+02E
 Epicentro: LOS SANTOS - SANTANDER                                             3
 ACTION:UPD 14-01-13 10:15 OP:ep   STATUS:               ID:20131201091236 L   I
 OLDACT:REG 13-12-01 08:46 OP:mh   STATUS:               ID:20131201091000     3
 2013-12-01-0910-00M.COL___282                                                 6
 STAT SP IPHASW D HRMM SECON CODA AMPLIT PERI AZIMU VELO AIN AR TRES W  DIS CAZ7
 BRR  HZ EP        912 58.22                             153    0.1210 71.4 299 
 BRR  HN ES        913 15.71                             153    0.4510 71.4 299 
 BRR  HZ I         913 28.36         2.4 0.06            151           71.4 299 
 PAM  SZ EP        912 59.52                             152    0.3110 78.5  39 
 PAM  SN ES        913 16.65                             152   -0.5710 78.5  39 
 PAM  SZ I         913 19.15         2.3 0.28            157           78.5  39 
 PTB  HZ EP        913  3.28                             134   -0.38 9  147 259 
 PTB  HN ES        913 24.76                             134   -0.39 9  147 259 
 PTB  HZ I         913 28.78                             135            147 259 
 OCA  HN ES        913 27.99                             131    0.24 9  161 353 
 SPBC HZ EP        913  5.28                             131    0.18 9  162 219 
 SPBC HN ES   1    913 27.77                             131    0.05 7  162 219 
 ZAR  HZ EP   1    913  8.72                             124   -0.35 6  204 292 
 ZAR  HN ES   1    913 34.64                             124   -0.14 6  204 292 
 ZAR  HZ I         913 43.37         3.9 0.05            126            204 292 
 NOR  HZ EP        913 12.38                             120    0.19 8  234 235 
 NOR  HN ES   1    913 40.55                             120    0.21 6  234 235 
 NOR  HZ I         913 44.35         2.9 0.19            124            234 235 
                                                                                
