 2011  8 1 0258  8.4 L   6.651 -73.220148.8  RSN  5 0.3 1.2LRSN                1
 GAP=143        0.59       4.1     8.0  7.6 -0.1915E+01 -0.2071E+02 -0.5449E+00E
 Epicentro: BARICHARA - SANTANDER                                              3
 ACTION:UPD 12-07-25 14:05 OP:epov STATUS:               ID:20110801025808 L   I
 2011-08-01-0253-58S.COL___142                                                 6
 STAT SP IPHASW D HRMM SECON CODA AMPLIT PERI AZIMU VELO AIN AR TRES W  DIS CAZ7
 BAR2 SZ EP   1    258 27.81                             177   -0.38 7 7.73 147 
 BAR2 SZ I         258 28.25         2.7 0.14                          7.73 147 
 BAR2 SZ ES   2    258 43.09                             177   -0.53 5 7.73 147 
 BRR  HZ EP   1    258 29.73                             152   -0.31 7 74.1 313 
 BRR  HE ES   1    258 47.22                             152    0.30 7 74.1 313 
 BRR  HZ I         258 50.40         4.6 0.16                          74.1 313 
 RUS  HZ EP   1    258 31.82                             149    0.40 7 85.2 170 
 RUS  HZ I         258 34.14         1.2 0.38                          85.2 170 
 RUS  HE ES   2    258 49.54                             149    0.17 5 85.2 170 
 BRI  SZ EP   1    258 34.19                             137    0.16 7  127  22 
 GRA  SZ EP   2    258 35.24                             134   -0.23 5  144  19 
 GRA  SZ ES   1    258 56.70                             134    0.11 7  144  19 
 GRA  SZ I         258 59.99         2.4 0.42                           144  19 
                                                                                
