 2016  3 1 0545  0.8 L   6.789 -73.149137.5  RSN 11 0.5 1.8LRSN                1
 GAP=137        1.07       3.4     4.2  6.6 -0.3129E+01  0.1032E+02  0.3000E+00E
 Epicentro: LOS SANTOS - SANTANDER                                             3
 ACTION:UPD 16-05-13 21:20 OP:cam  STATUS:               ID:20160301054500 L   I
 OLDACT:UP  16-03-01 19:10 OP:mh   STATUS:               ID:20160301053749     3
 OLDACT:UP  16-03-01 19:07 OP:mh   STATUS:               ID:20160301053749     3
 OLDACT:REG 16-03-01 13:01 OP:mh   STATUS:               ID:20160301053749     3
 2016-03-01-0537-49M.COL___321                                                 6
 STAT SP IPHASW D HRMM SECON CODA AMPLIT PERI AZIMU VELO AIN AR TRES W  DIS CAZ7
 BAR2 EZ EP        545 19.35                             170   -0.0310 22.0 190 
 BAR2 EZ ES        545 33.63                             170   -0.2710 22.0 190 
 BAR2 EZ I         545 35.61        18.9 0.24            171           22.0 190 
 PAM  EZ EP        545 22.27                             149    0.0810 78.6  39 
 PAM  EN ES        545 38.81                             149   -0.0910 78.6  39 
 PAM  EZ I         545 40.69         6.0 0.42            151           78.6  39 
 RUS  HZ EP   1    545 23.79                             142    0.16 7 99.3 176 
 RUS  HN ES        545 41.75                             142    0.2910 99.3 176 
 PTB  HZ EP   1    545 26.96                             130   -0.07 7  147 259 
 PTB  HN ES        545 46.73                             130   -0.77 9  147 259 
 PTB  HZ I         545 49.35         6.6 0.14            131            147 259 
 OCA  HN EP        545 29.28                             127    0.71 9  161 353 
 OCA  HZ ES   1    545 49.77                             127   -0.49 7  161 353 
 OCA  HN I         545 52.55        37.3 0.50            129            161 353 
 SPBC HZ EP   1    545 28.85                             127    0.31 7  162 219 
 SPBC HN ES   1    545 50.95                             127    0.76 7  162 219 
 ZAR  HN ES        545 58.24                             120    0.62 9  204 293 
 NOR  HZ EP        545 34.99                             117   -0.94 8  234 235 
 NOR  HN ES        546  3.29                             117   -0.05 8  234 235 
 NOR  HZ I         546  5.54         4.3 0.22            118            234 235 
 CHI  HZ EP        545 37.68                             115   -0.20 8  247 195 
 CHI  HN ES        546  7.01                             115    0.18 8  247 195 
 HEL  HZ EP        545 39.88                             113   -0.63 8  271 256 
 HEL  HE ES        546 12.09                             113    0.60 8  271 256 
 HEL  HZ I         546 18.18         2.5 0.14            114            271 256 
 URE  HZ EP   4    545 43.53                             112    2.06 0  284 292 
 URE  HN ES   4    546 11.74                             112   -1.47 0  284 292 
 MON  HZ EP   4    545 46.65                             107   -2.88 0  354 309 
 MON  HN ES   4    546 24.54                             107   -3.01 0  354 309 
 MON  HZ I         546 25.92         1.3 0.24            108            354 309 
 SJC  HZ EP   4    545 53.14                             104   -3.04 0  410 327 
 SJC  HN ES   4    546 35.83                             104   -3.56 0  410 327 
                                                                                
