 2010 12 1 0228 51.9 L   6.792 -73.001139.1  RSN 11 0.4 2.2LRSN                1
 GAP=189        0.96       4.3     8.7  7.0 -0.1797E+02 -0.5709E-01  0.8304E+01E
 Epicentro: CEPITA - SANTANDER                                                 3
 ACTION:UP  11-01-14 15:21 OP:pat  STATUS:               ID:20101201022851 L   I
 2010-12-01-0226-41S.COL___132                                                 6
 STAT SP IPHASW D HRMM SECON CODA AMPLIT PERI AZIMU VELO SNR AR TRES W  DIS CAZ7
 BAR2 SZ EP        229 11.25                             167     0.310   30 222 
 BAR2 SZ ES   1    229 25.71                             167     0.0 7   30 222 
 BAR2 SZ I         229 27.45        36.3 0.44                            30 222 
 BRR  HZ EP        229 12.96                             146    -0.310   86 294 
 BRR  HN ES   1    229 30.14                             146     0.2 7   86 294 
 BRR  HZ I         229 33.68        26.2 0.28                            86 294 
 GUE  SZ EP        229 16.34                             138     0.410  115   4 
 GRA  SZ EP        229 16.04                             136    -0.310  123  10 
 GRA  SZ ES   1    229 35.59                             136     0.2 7  123  10 
 GRA  SZ I         229 36.91        17.5 0.10                           123  10 
 OCA  SZ EP        229 20.15                             127     0.1 9  164 348 
 OCA  SZ ES   1    229 41.05                             127    -1.0 7  164 348 
 OCA  SZ I         229 46.16        16.5 0.34                           164 348 
 NOR  SZ EP   3    229 27.80                             116    -0.9 2  248 237 
 CHI  HZ EP        229 29.45                             115    -0.2 8  252 199 
 CHI  HN ES   1    229 58.64                             115    -0.5 6  252 199 
 CHI  HZ I         230  2.14        10.4 0.54                           252 199 
 HEL  HZ EP        229 34.11                             112     0.6 7  287 257 
 HEL  HZ I         230  9.40         7.5 0.32                           287 257 
 GUY  SZ EP        229 37.21                             110     0.5 7  314 237 
 GUY  SZ I         230 17.93         9.5 0.35                           314 237 
 RREF HZ EP   2    229 39.22                             109     0.1 3  334 231 
 RREF HE ES   3    230 15.42                             109    -0.5 2  334 231 
 RREF HZ I         230 23.56         7.3 0.48                           334 231 
 PRA  HZ EP        229 45.53                             105    -0.6 6  399 212 
 PRA  HE ES   3    230 28.07                             105    -0.3 1  399 212 
                                                                                
