 2014  1 1 0536 27.2 L   6.796 -73.166146.7  RSN 13 0.6 1.8LRSN                1
 GAP=118        1.35       3.6     4.8  6.5 -0.5364E+01  0.6039E+01  0.1185E+00E
 Epicentro: LOS SANTOS - SANTANDER                                             3
 ACTION:UPD 14-03-13 09:50 OP:ep   STATUS:               ID:20140101053627 L   I
 OLDACT:REG 14-01-01 09:27 OP:stll STATUS:               ID:20140101052817     3
 2014-01-01-0528-17M.COL___231                                                 6
 STAT SP IPHASW D HRMM SECON CODA AMPLIT PERI AZIMU VELO AIN AR TRES W  DIS CAZ7
 BAR2 SZ EP        536 47.00                             171    0.0510 22.6 185 
 BAR2 SZ ES        537  1.86                             171   -0.4710 22.6 185 
 BAR2 SZ I         537  3.80        24.7 0.46            169           22.6 185 
 BRR  HZ IP     D  536 48.98                             153    0.6110 69.5 300 
 BRR  HN ES        537  5.82                             153    0.9510 69.5 300 
 BRR  HZ I         537  7.31        12.0 0.14            152           69.5 300 
 PAM  SZ IP     D  536 49.87                             150    0.2410 79.1  41 
 PAM  SZ I         536 50.10        16.5 0.18            154           79.1  41 
 PAM  SN ES        537  7.17                             150    0.0510 79.1  41 
 RUS  HZ EP        536 50.95                             144   -0.0910  100 175 
 RUS  HN ES        537  9.72                             144    0.0910  100 175 
 RUS  HZ I         537 11.11         8.2 0.36            145            100 175 
 PTB  HZ EP        536 53.69                             133   -0.37 9  146 259 
 PTB  HN ES        537 14.32                             133   -0.67 9  146 259 
 PTB  HZ I         537 20.47         7.2 0.18            132            146 259 
 OCA  HZ EP        536 55.53                             130   -0.09 9  160 354 
 OCA  HN ES        537 17.55                             130   -0.21 9  160 354 
 OCA  HZ I         537 21.58         6.1 0.26            131            160 354 
 SPBC HZ EP        536 56.19                             130    0.56 9  161 218 
 SPBC HE ES        537 18.00                             130    0.21 9  161 218 
 SPBC HZ I         537 20.31        12.3 0.46            129            161 218 
 NOR  HZ EP        537  2.94                             119    0.16 8  233 234 
 NOR  HN ES        537 30.71                             119    0.19 8  233 234 
 NOR  HZ I         537 36.47         5.3 0.22            119            233 234 
 SML  HZ EP        537  3.81                             118   -0.03 8  243 336 
 SML  HE ES        537 32.10                             118   -0.30 8  243 336 
 CHI  HZ EP        537  5.02                             117    0.16 8  248 195 
 CHI  HN ES        537 33.35                             117   -0.87 8  248 195 
 CHI  HZ I         537 43.75         2.7 0.46            118            248 195 
 HEL  HZ EP        537  7.97                             115    0.74 8  270 256 
 HEL  HE ES        537 36.88                             115   -1.56 8  270 256 
 HEL  HZ I         537 45.80         3.5 0.50            115            270 256 
 GUY2CHZ EP        537 11.68                             113    1.04 7  299 235 
 GUY2CHN ES        537 44.62                             113    0.11 7  299 235 
 GUY2CHZ I         537 52.42         3.2 0.40                           299 235 
 SOCV BZ EP        537  9.34                             112   -1.20 7  303  57 
                                                                                
