 2017  5 1 0534 58.4 L   6.778 -73.151149.7  RSN  5 0.5 1.5LRSN                1
 GAP=137        1.22       6.3     5.6  9.6  0.3011E+01  0.1201E+02  0.1596E+01E
 Epicentro: LOS SANTOS - SANTANDER                                             3
 ACTION:UPD 17-06-16 13:31 OP:jn   STATUS:               ID:20170501053458 L   I
 OLDACT:DUP 17-05-01 15:29 OP:ar   STATUS:               ID:20170501052145d    3
 OLDACT:REG 17-05-01 12:56 OP:ar   STATUS:               ID:20170501052144     3
 2017-05-01-0528-00M.COL___368                                                 6
 STAT SP IPHASW D HRMM SECON CODA AMPLIT PERI AZIMU VELO AIN AR TRES W  DIS CAZ7
 BRR  HZ EP        535 19.94                             153   -0.0610 71.9 300 
 BRR  HE ES        535 37.51                             153    0.6510 71.9 300 
 BRR  HZ I         535 39.02         7.0 0.16            152           71.9 300 
 PAM  EZ EP        535 20.96                             151   -0.2010 79.6  39 
 PAM  EE ES        535 38.53                             151   -0.3910 79.6  39 
 PAM  EZ I         535 40.58         5.8 0.58            154           79.6  39 
 RUS  HZ EP        535 22.76                             145    0.3910 98.2 176 
 RUS  HN ES        535 41.25                             145    0.1810 98.2 176 
 RUS  HZ I         535 42.98         2.5 0.56            148           98.2 176 
 PTB  HZ EP        535 24.95                             133   -0.64 9  147 260 
 PTB  HN ES        535 46.03                             133   -0.78 9  147 260 
 PTB  HZ I         535 51.44         4.0 0.50            134            147 260 
 ZAR  HZ EP        535 31.85                             123    0.72 9  204 293 
 ZAR  HE ES        535 56.87                             123    0.20 9  204 293 
 ZAR  HZ I         536  1.77         3.7 0.36            124            204 293 
                                                                                
