 2011  5 1 0452 15.3 L   6.789 -73.116152.4  RSN 22 0.6 4.4LRSN                1
 GAP=104        1.20       3.6     5.0  6.7 -0.5966E+01  0.5889E+01  0.4151E+01E
 Epicentro: LOS SANTOS - SANTANDER                                             3
 ACTION:UP  11-06-29 08:49 OP:tino STATUS:               ID:20110501045215 L   I
 2011-05-01-0450-48S.COL___128                                                 6
 STAT SP IPHASW D HRMM SECON CODA AMPLIT PERI AZIMU VELO SNR AR TRES W  DIS CAZ7
 BAR2 SZ IP        452 35.68                             171     0.010   23 199 
 BAR2 SZ ES   1    452 50.65                             171    -1.0 7   23 199 
 BAR2 SZ I         452 52.59      3800.3 0.30                            23 199 
 BRR  HZ IP     C  452 37.54                             152     0.210   75 298 
 BRR  HN ES   1    452 55.03                             152     0.5 7   75 298 
 BRR  HZ I         452 58.29      3029.0 0.21                            75 298 
 PAM  SZ IP        452 38.44                             152     0.310   76  37 
 PAM  SN ES   1    452 55.59                             152    -0.4 7   76  37 
 RUS  HZ IP     D  452 39.47                             145    -0.110   99 178 
 RUS  HN ES   1    452 58.51                             145     0.0 7   99 178 
 RUS  HZ I         452 59.31      1658.0 0.33                            99 178 
 BRI  SZ EP        452 40.21                             142     0.410  108  19 
 GUE  SZ EP   1    452 40.92                             140     0.3 7  117  10 
 GRA  SZ IP        452 41.45                             138     0.310  126  16 
 GRA  SZ ES   1    453  1.08                             138    -0.2 7  126  16 
 GRA  SZ I         453  4.18      3627.6 0.44                           126  16 
 OCA  SZ EP   1    452 43.75                             130    -0.5 7  162 352 
 OCA  SZ ES   1    453  6.84                             130     0.0 7  162 352 
 OCA  SZ I         453 10.77      6193.1 0.23                           162 352 
 YOP  SZ IP        452 46.11                             128     0.6 9  176 154 
 YOP  SN ES   1    453  8.78                             128    -0.4 7  176 154 
 YOP  SZ I         453 10.77      1101.2 0.27                           176 154 
 NOR  SZ EP   1    452 51.24                             119    -0.4 6  237 235 
 NOR  SN ES   1    453 18.88                             119    -1.1 6  237 235 
 ROSC BN ES   1    453 25.86                             118     2.0 6  253 212 
 ROSC BZ I         453 30.27      2406.0 0.46                           253 212 
 HEL  HZ EP   1    452 55.49                             116    -0.7 6  275 256 
 HEL  HN ES   1    453 27.52                             116    -0.5 6  275 256 
 HEL  HZ I         453 34.04      1052.9 0.32                           275 256 
 VIL  SZ EP   1    452 58.56                             113    -0.4 5  303 192 
 VIL  SN ES   1    453 32.11                             113    -0.9 5  303 192 
 VIL  SZ I         453 46.94       615.3 0.39                           303 192 
 GUY  SZ EP   1    452 59.84                             113     0.2 5  305 236 
 GUY  SZ I         453 46.05      2352.8 0.28                           305 236 
 RREF HZ EP   1    453  1.49                             112    -0.4 5  323 230 
 RREF HN ES   1    453 38.86                             112     0.6 5  323 230 
 RREF HZ I         453 47.38      1280.9 0.38                           323 230 
 DBB  SZ IP        453  3.06                             110    -0.3 7  343 274 
 TOL  SZ EP   1    453  3.87                             110    -0.1 5  345 225 
 SDV  BZ I         453 44.54       389.1 0.48                           359  50 
 ANIL HZ EP   1    453  6.09                             109     0.6 5  359 225 
 ANIL HN ES   1    453 44.75                             109     0.1 5  359 225 
 ANIL HZ I         453 51.52      2574.5 0.54                           359 225 
 SDV  BZ EP        453  5.08                             109    -0.3 6  359  50 
 PRA  HZ EP   1    453  8.59                             107    -0.5 4  393 210 
 PRA  HN ES   1    453 52.28                             107     1.2 4  393 210 
 SJA  SZ EP   1    453 10.06                             107     0.1 4  400 193 
 SJA  SZ I         454  6.89      1154.1 0.56                           400 193 
 GUA  SZ EP   1    453 17.12                             104    -1.3 4  472 173 
                                                                                
