 2014  4 1 0713 33.5 L   6.834 -73.172140.3  RSN  9 0.4 1.8LRSN                1
 GAP=132        0.93       2.5     4.1  5.8 -0.1428E+01  0.8417E+01 -0.2064E+01E
 Epicentro: LOS SANTOS - SANTANDER                                             3
 ACTION:UPD 14-05-13 23:05 OP:nd   STATUS:               ID:20140401071333 L   I
 OLDACT:REG 14-04-01 13:39 OP:carl STATUS:               ID:20140401071038     3
 2014-04-01-0710-38M.COL___243                                                 6
 STAT SP IPHASW D HRMM SECON CODA AMPLIT PERI AZIMU VELO AIN AR TRES W  DIS CAZ7
 BAR2 SZ EP        713 52.56                             169   -0.0110 26.8 182 
 BAR2 SZ ES        714  7.59                             169    0.1610 26.8 182 
 BAR2 SZ I         714  8.37        19.5 0.32            169           26.8 182 
 PAM  SZ IP     C  713 55.37                             150    0.2810 76.5  43 
 PAM  SE ES        714 11.92                             150   -0.0110 76.5  43 
 PAM  SZ I         714 14.65         7.9 0.54            153           76.5  43 
 RUS  HE ES        714 14.98                             141   -0.4010  105 175 
 PTB  HZ EP        713 59.19                             131   -0.66 9  146 257 
 PTB  HN ES        714 20.16                             131   -0.23 9  146 257 
 PTB  HZ I         714 23.65         6.3 0.22            130            146 257 
 OCA  HZ EP        714  1.67                             129    0.65 9  156 354 
 OCA  HN ES        714 22.20                             129   -0.27 9  156 354 
 OCA  HZ I         714 27.34         6.2 0.22            130            156 354 
 SPBC HZ EP        714  1.62                             127   -0.09 9  164 217 
 SPBC HN ES        714 23.76                             127    0.05 9  164 217 
 SPBC HZ I         714 29.63         8.9 0.24            129            164 217 
 ZAR  HZ EP        714  5.45                             122    0.27 9  200 291 
 ZAR  HN ES        714 30.44                             122    0.56 9  200 291 
 ZAR  HZ I         714 39.02         6.7 0.12            121            200 291 
 SML  HZ EP        714  8.79                             117   -0.54 8  239 336 
 SML  HE ES        714 37.11                             117   -0.16 8  239 336 
 SML  HZ I         714 46.63         7.0 0.10            117            239 336 
 CHI  HZ EP        714 10.99                             116   -0.25 8  252 194 
 CHI  HE ES        714 41.39                             116    0.73 8  252 194 
 CHI  HZ I         714 45.44         1.5 0.40            118            252 194 
                                                                                
