 2016  6 1 0403 34.2 L   6.800 -73.137142.8  RSN  6 0.2 1.3LRSN                1
 GAP=138        0.54       2.5     2.7  3.7 -0.1639E+01  0.1392E+01  0.1065E+01E
 Epicentro: LOS SANTOS - SANTANDER                                             3
 ACTION:UPD 16-07-21 22:14 OP:rebc STATUS:               ID:20160601040334 L   I
 OLDACT:REG 16-06-01 13:15 OP:edw  STATUS:               ID:20160601035740     3
 2016-06-01-0357-40M.COL___304                                                 6
 STAT SP IPHASW D HRMM SECON CODA AMPLIT PERI AZIMU VELO AIN AR TRES W  DIS CAZ7
 BAR2 EZ EP        4 3 53.29                             170   -0.1810 23.5 192 
 BAR2 EZ ES        4 4  8.57                             170    0.0710 23.5 192 
 BAR2 EZ I         4 4 10.93         6.5 0.32                          23.5 192 
 BRR  HZ EP        4 3 55.07                             152   -0.0010 72.0 298 
 BRR  HN ES        4 4 11.40                             152    0.0510 72.0 298 
 BRR  HZ I         4 4 15.94         8.0 0.30                          72.0 298 
 PAM  EZ EP        4 3 56.21                             150    0.1510 76.8  39 
 PAM  EN ES        4 4 13.15                             150    0.0410 76.8  39 
 PAM  EZ I         4 4 16.27         2.8 0.26                          76.8  39 
 RUS  HZ EP        4 3 57.49                             143   -0.1610  101 177 
 RUS  HN ES        4 4 15.80                             143   -0.1410  101 177 
 RUS  HZ I         4 4 17.05         1.6 0.36                           101 177 
 PTB  HZ EP        4 4  1.18                             131    0.17 9  149 259 
 PTB  HE ES        4 4 21.56                             131   -0.36 9  149 259 
 PTB  HZ I         4 4 27.89         2.5 0.44                           149 259 
 SPBC HZ EP        4 4  2.49                             128   -0.03 9  164 219 
 SPBC HE ES        4 4 25.07                             128    0.45 9  164 219 
 SPBC HZ I         4 4 29.95         4.2 0.26                           164 219 
                                                                                
