 2016  1 1 0516  5.0 L   6.840 -73.187144.0  RSN 13 0.5 2.2LRSN                1
 GAP=129        1.24       3.1     4.4  6.4 -0.2037E+01  0.6405E+01 -0.1851E+00E
 Epicentro: ZAPATOCA - SANTANDER                                               3
 ACTION:UPD 16-03-09 23:21 OP:cam  STATUS:               ID:20160101051605 L   I
 OLDACT:UP  16-02-01 09:14 OP:mHER STATUS:               ID:20160101051605 L   3
 OLDACT:REG 16-01-01 13:48 OP:drio STATUS:               ID:20160101050747     3
 2016-01-01-0507-47M.COL___317                                                 6
 STAT SP IPHASW D HRMM SECON CODA AMPLIT PERI AZIMU VELO AIN AR TRES W  DIS CAZ7
 BAR2 EZ EP        516 24.49                             169   -0.0110 27.4 179 
 BAR2 EZ ES        516 39.34                             169   -0.3810 27.4 179 
 BAR2 EZ I         516 40.36        21.8 0.26            168           27.4 179 
 BRR  HZ EP        516 26.12                             154    0.5010 65.1 297 
 BRR  HE ES        516 43.14                             154    1.4410 65.1 297 
 BRR  HZ I         516 47.32        21.8 0.12            151           65.1 297 
 PAM  EZ EP        516 27.27                             151    0.2610 77.1  44 
 PAM  EN ES        516 44.33                             151    0.1610 77.1  44 
 PAM  EZ I         516 45.97        23.5 0.16            155           77.1  44 
 RUS  HZ EP        516 29.28                             142    0.3510  105 174 
 RUS  HE ES        516 46.89                             142   -0.7110  105 174 
 RUS  HZ I         516 48.61        11.2 0.36            145            105 174 
 PTB  HZ EP        516 31.10                             132   -0.40 9  144 257 
 PTB  HN ES        516 51.89                             132   -0.28 9  144 257 
 PTB  HZ I         516 59.70        16.0 0.28            132            144 257 
 OCA  HZ EP        516 32.47                             130   -0.24 9  155 355 
 OCA  HN ES        516 53.78                             130   -0.54 9  155 355 
 OCA  HZ I         516 59.89        50.4 0.32            132            155 355 
 SPBC HZ EP        516 33.67                             129    0.24 9  164 217 
 SPBC HN ES        516 55.35                             129   -0.25 9  164 217 
 SPBC HZ I         517  1.91        26.2 0.30            129            164 217 
 ZAR  HZ EP        516 37.37                             123    0.65 9  198 291 
 ZAR  HN ES        517  0.76                             123   -0.70 9  198 291 
 ZAR  HZ I         517  5.13        16.6 0.12            123            198 291 
 NOR  HZ EP        516 40.68                             118    0.17 8  234 233 
 NOR  HN ES        517  7.98                             118   -0.23 8  234 233 
 NOR  HZ I         517 14.44        12.8 0.16            119            234 233 
 SML  HZ EP        516 40.73                             118   -0.15 8  238 336 
 SML  HN ES        517  8.25                             118   -0.62 8  238 336 
 SML  HZ I         517 15.42        16.6 0.28            119            238 336 
 CHI  HZ EP        516 42.84                             116   -0.10 8  252 194 
 CHI  HN ES        517 12.64                             116    0.10 8  252 194 
 CHI  HZ I         517 18.98         4.9 0.30            118            252 194 
 HEL  HZ EP   4    516 46.98                             115    2.22 0  269 255 
 HEL  HN ES        517 16.16                             115    0.39 8  269 255 
 HEL  HZ I         517 24.02        11.9 0.36            115            269 255 
 GUY2CHZ EP   9    516 50.04                             112    1.64 0  300 234 
 GUY2CHN ES        517 23.97                             112    0.08 7  300 234 
 GUY2CHZ I         517 33.64        10.2 0.80                           300 234 
                                                                                
