 2016 11 1 0607 10.7 L   6.812 -73.138150.1  RSN  7 0.5 1.5LRSN                1
 GAP=239        1.22       5.9     7.7  7.8  0.7033E+01  0.7387E+01  0.1449E+02E
 Epicentro: LOS SANTOS - SANTANDER                                             3
 ACTION:UPD 17-10-26 21:03 OP:lp   STATUS:               ID:20161101060710 L   I
 OLDACT:UP  16-11-01 17:00 OP:dani STATUS:               ID:20161101055745     3
 OLDACT:UP  16-11-01 16:58 OP:dani STATUS:               ID:20161101055745     3
 OLDACT:REG 16-11-01 12:28 OP:dani STATUS:               ID:20161101055745     3
 2016-11-01-0558-00M.COL___313                                                 6
 STAT SP IPHASW D HRMM SECON CODA AMPLIT PERI AZIMU VELO AIN AR TRES W  DIS CAZ7
 BAR2 EZ EP        6 7 31.02                             170    0.1710 24.8 191 
 BAR2 EZ ES        6 7 46.08                             170   -0.5110 24.8 191 
 BRR  HZ EP        6 7 32.71                             153    0.4110 71.3 297 
 BRR  HN ES        6 7 49.76                             153    0.6010 71.3 297 
 BRR  HZ I         6 7 53.59         8.8 0.48            152           71.3 297 
 RUS  HZ EP        6 7 34.82                             144   -0.1210  102 177 
 RUS  HE ES        6 7 53.52                             144   -0.3510  102 177 
 RUS  HZ I         6 7 55.57         2.0 0.23            145            102 177 
 PTB  HZ EP        6 7 37.73                             133   -0.37 9  149 258 
 PTB  HN ES        6 7 58.76                             133   -0.72 9  149 258 
 SPBC HZ EP        6 7 40.14                             130    0.48 9  165 219 
 SPBC HN ES        6 8  2.47                             130    0.21 9  165 219 
 SPBC HZ I         6 8  9.00         5.2 0.19            130            165 219 
 CHI  HZ EP        6 7 48.90                             118    0.12 8  250 195 
 CHI  HN ES        6 8 19.24                             118    0.74 8  250 195 
 CHI  HZ I         6 8 21.59         1.6 0.28            119            250 195 
 PRA  HZ EP        6 8  3.09                             107   -1.44 6  394 210 
 PRA  HE ES        6 8 46.94                             107    0.40 6  394 210 
 PRA  HZ I         6 8 48.24         1.3 0.24            108            394 210 
                                                                                
