 2012  2 1 0625 33.9 L   6.744 -73.197145.0  RSN  6 0.4 1.2LRSN                1
 GAP=227        0.72       5.4     5.9  7.2  0.1272E+02  0.8251E+01  0.2721E+01E
 ACTION:UP  12-03-07 16:26 OP:epov STATUS:               ID:20120201062533 L   I
 2012-02-01-0620-00M.COL___188                                                 6
 STAT SP IPHASW D HRMM SECON CODA AMPLIT PERI AZIMU VELO SNR AR TRES W  DIS CAZ7
 BRR  HZ EP   1    625 54.93                             153    0.10 7 69.6 305 
 BRR  HZ I         625 56.49        10.2 0.10                          69.6 305 
 BRR  HN ES   1    626 11.79                             153    0.60 7 69.6 305 
 RUS  HZ EP   1    625 57.03                             145   -0.10 7 95.0 172 
 RUS  HN ES   1    626 15.06                             145   -0.23 7 95.0 172 
 RUS  HZ I         626 17.48         3.2 0.23                          95.0 172 
 PTB  HZ EP   1    625 59.87                             133   -0.29 7  141 261 
 PTB  HN ES   1    626 20.06                             133   -0.61 7  141 261 
 PTB  HZ I         626 24.66         0.0 0.14                           141 261 
 ZAR  HZ EP   1    626  5.74                             123   -0.22 6  201 294 
 ZAR  HN ES   1    626 30.71                             123   -0.29 6  201 294 
 ZAR  HZ I         626 37.14         2.4 0.15                           201 294 
 NOR  SZ EP   1    626  9.21                             119    0.55 6  227 235 
 NOR  SN ES   1    626 36.30                             119    0.49 6  227 235 
 NOR  SZ I         626 40.57         0.2 0.23                           227 235 
 HEL  HZ EP   1    626 13.44                             115    0.19 6  265 257 
 HEL  HZ I         626 49.10         1.2 0.27                           265 257 
                                                                                
