 2016  4 1 0653 15.2 L   6.837 -73.194147.3  RSN  4 0.3 1.4LRSN                1
 GAP=172        0.75       4.7     3.9  8.3 -0.6965E+01  0.6271E+01  0.7369E+01E
 Epicentro: ZAPATOCA - SANTANDER                                               3
 ACTION:UPD 16-05-05 14:17 OP:rebc STATUS:               ID:20160401065315 L   I
 OLDACT:UP  16-04-01 17:25 OP:ak   STATUS:               ID:20160401064745d    3
 OLDACT:DUP 16-04-01 17:21 OP:ak   STATUS:               ID:20160401064745d    3
 OLDACT:REG 16-04-01 12:54 OP:ak   STATUS:               ID:20160401064744     3
 2016-04-01-0647-44M.COL___310                                                 6
 STAT SP IPHASW D HRMM SECON CODA AMPLIT PERI AZIMU VELO AIN AR TRES W  DIS CAZ7
 PAM  EZ EP        653 37.44                             151   -0.1310 77.9  45 
 PAM  EN ES        653 55.12                             151    0.0810 77.9  45 
 PAM  EZ I         653 56.90         3.3 0.50            158           77.9  45 
 PTB  HZ EP        653 41.38                             133   -0.48 9  143 257 
 PTB  HN ES        654  2.37                             133   -0.32 9  143 257 
 PTB  HZ I         654 10.18         2.9 0.48            135            143 257 
 SPBC HZ EP        653 44.20                             129    0.43 9  163 217 
 SPBC HN ES        654  6.21                             129    0.12 9  163 217 
 SPBC HZ I         654 10.22         2.3 0.10            133            163 217 
 ZAR  HZ EP   2    653 47.13                             124    0.09 4  198 292 
 ZAR  HN ES        654 12.30                             124    0.39 9  198 292 
 ZAR  HZ I         654 18.23         3.4 0.40            126            198 292 
                                                                                
