 2011  2 1 0342 19.8 L   7.384 -73.325123.9  RSN  5 0.3 1.2LRSN                1
 GAP=187        0.58       4.5    14.2 10.9 -0.1465E+02  0.4018E+02  0.8381E+01E
 Epicentro: EL PLAYON - SANTANDER                                              3
 ACTION:UP  11-03-28 15:05 OP:jfem STATUS:               ID:20110201034219 L   I
 2011-02-01-0340-09S.COL___138                                                 6
 STAT SP IPHASW D HRMM SECON CODA AMPLIT PERI AZIMU VELO SNR AR TRES W  DIS CAZ7
 BTL  SZ EP   1    342 37.95                             156     0.1 7   52 173 
 GRA  SZ EP   1    342 39.71                             145     0.3 7   80  46 
 GRA  SZ ES   2    342 54.40                             145    -0.3 5   80  46 
 GRA  SZ I         342 56.11         5.0 0.45                            80  46 
 BAR2 SZ EP   2    342 40.26                             142     0.1 5   89 170 
 BAR2 SZ ES   2    342 56.18                             142     0.1 5   89 170 
 BAR2 SZ I         342 57.53         3.9 0.23                            89 170 
 OCA  SZ EP   2    342 40.45                             140     0.0 5   95   0 
 OCA  SZ ES   2    342 56.43                             140    -0.2 5   95   0 
 OCA  SZ I         342 58.73         2.8 0.24                            95   0 
 RUS  HZ EP   2    342 46.86                             123    -0.7 5  167 171 
 RUS  HZ I         343 16.36         0.9 0.22                           167 171 
                                                                                
