 2016  5 1 0551 55.5 L   6.503 -73.991 25.0  RSN 11 0.6 2.4LRSN                1
 GAP= 98        1.42       3.6     2.8  6.5 -0.1110E+01 -0.7972E+01  0.4787E+01E
 Epicentro: PUERTO PARRA - SANTANDER                                           3
 ACTION:UPD 16-08-18 17:40 OP:cam  STATUS:               ID:20160501055155 L   I
 OLDACT:REG 16-05-01 13:01 OP:dnl  STATUS:               ID:20160501054748     3
 2016-05-01-0547-48M.COL___274                                                 6
 STAT SP IPHASW D HRMM SECON CODA AMPLIT PERI AZIMU VELO AIN AR TRES W  DIS CAZ7
 PTB  HZ EP        552  4.73                             112    0.0910 51.6 275 
 PTB  HN ES        552 12.14                             112    0.4110 51.6 275 
 BAR2 EZ EP     D  552 10.13                              61   -0.2210 90.0  84 
 BAR2 EZ ES        552 20.96                              61   -0.9410 90.0  84 
 BAR2 EZ I         552 24.19       160.7 0.18             47           90.0  84 
 SPBC HZ EP        552 11.07                              61    0.2510 94.5 185 
 SPBC HN ES        552 22.40                              61   -0.3510 94.5 185 
 SPBC HZ I         552 24.08       137.7 0.10             47           94.5 185 
 RUS  HZ EP     D  552 15.00                              61    0.2810  121 124 
 RUS  HN ES        552 29.58                              61   -0.1110  121 124 
 RUS  HZ I         552 30.74       110.3 0.16             47            121 124 
 NOR  HZ EP        552 16.68                              61   -0.16 9  142 223 
 NOR  HN ES        552 34.02                              61    0.56 9  142 223 
 NOR  HZ I         552 38.87        40.0 0.14             47            142 223 
 ZAR  HZ EP        552 16.76                              61   -0.42 9  145 319 
 ZAR  HE ES        552 33.16                              61   -0.91 9  145 319 
 ZAR  HZ I         552 35.31        98.0 0.36             47            145 319 
 PAM  EZ EP        552 21.47                              61    0.62 9  170  57 
 PAM  EN ES        552 41.66                              61    1.06 9  170  57 
 HEL  HZ EP        552 21.15                              61    0.01 9  174 259 
 HEL  HN ES        552 40.30                              61   -0.81 9  174 259 
 HEL  HZ I         552 41.44        67.3 0.18             47            174 259 
 GUY2CHZ EP   4    552 26.70                              61    1.17 0  208 227 
 GUY2CHN ES   2    552 49.13                              61    0.21 4  208 227 
 GUY2CHZ I         552 51.78        18.2 0.28                           208 227 
 CHI  HZ EP   4    552 29.26                              61    3.62 0  209 172 
 CHI  HN ES   4    552 53.52                              61    4.41 0  209 172 
 URE  HZ EP        552 27.36                              61    0.94 8  219 309 
 URE  HN ES   4    552 52.18                              61    1.67 0  219 309 
 URE  HZ I         552 58.73        31.6 0.14             37            219 309 
 CBOC HZ EP   4    552 30.41                              61    1.89 0  235 253 
 CBOC HN ES   4    552 57.09                              61    2.84 0  235 253 
 CBOC HZ I         553  5.33        11.0 0.44             37            235 253 
                                                                                
