 2011  2 1 0245 34.9 L   6.790 -73.124146.0  RSN  4 0.2 1.2LRSN                1
 GAP=180        0.37       5.2    20.9  5.7 -0.9351E+02  0.3007E+02 -0.6975E+01E
 Epicentro: LOS SANTOS - SANTANDER                                             3
 ACTION:UP  11-03-28 15:05 OP:jfem STATUS:               ID:20110201024534 L   I
 2011-02-01-0242-50S.COL___138                                                 6
 STAT SP IPHASW D HRMM SECON CODA AMPLIT PERI AZIMU VELO SNR AR TRES W  DIS CAZ7
 BAR2 SZ EP   2    245 54.28                             171    -0.3 5   23 197 
 BAR2 SZ ES   2    246 10.11                             171     0.2 5   23 197 
 BAR2 SZ I         246 12.88         4.8 0.25                            23 197 
 RUS  HZ EP   2    245 58.65                             144     0.0 5   99 177 
 RUS  HE ES   2    246 17.05                             144     0.0 5   99 177 
 RUS  HZ I         246 19.11         1.8 0.35                            99 177 
 GRA  SZ EP   1    246  0.29                             137     0.1 7  126  16 
 GRA  SZ ES   2    246 19.78                             137    -0.2 5  126  16 
 GRA  SZ I         246 21.14         2.7 0.40                           126  16 
 CHI  HZ EP   2    246 12.82                             117     0.2 4  248 196 
 CHI  HN ES   2    246 41.76                             117    -0.2 4  248 196 
 CHI  HZ I         246 50.27         1.2 0.32                           248 196 
                                                                                
