 2017  3 1 0240  9.4 L   6.762 -73.138148.5  RSN  5 0.3 1.0LRSN                1
 GAP=139        0.53       5.1     4.4  5.7  0.7717E+00 -0.5150E+01  0.2428E+01E
 Epicentro: LOS SANTOS - SANTANDER                                             3
 ACTION:UPD 17-05-25 18:34 OP:jn   STATUS:               ID:20170301024009 L   I
 OLDACT:UP  17-03-01 14:06 OP:and  STATUS:               ID:20170301023743     3
 OLDACT:REG 17-03-01 12:40 OP:and  STATUS:               ID:20170301023743     3
 2017-03-01-0238-00M.COL___390                                                 6
 STAT SP IPHASW D HRMM SECON CODA AMPLIT PERI AZIMU VELO AIN AR TRES W  DIS CAZ7
 BAR2 EZ EP        240 29.27                             172   -0.0610 19.4 195 
 BAR2 EZ ES   2    240 44.79                             172   -0.05 5 19.4 195 
 BAR2 EZ I         240 46.93         3.2 0.30            167           19.4 195 
 BRR  HZ EP   2    240 30.89                             152   -0.16 5 74.1 301 
 BRR  HN ES        240 48.06                             152    0.1610 74.1 301 
 PAM  EZ EP        240 32.00                             150   -0.1110 80.2  37 
 RUS  HZ EP   2    240 33.44                             146    0.28 5 96.3 176 
 RUS  HN ES   2    240 51.69                             146    0.03 5 96.3 176 
 RUS  HZ I         240 53.18         2.0 0.30            144           96.3 176 
 PTB  HZ EP        240 36.86                             133    0.22 9  148 261 
 PTB  HN ES   2    240 56.94                             133   -0.92 5  148 261 
 PTB  HZ I         241  3.39         0.9 0.28            131            148 261 
                                                                                
