 2011  4 1 0732 17.5 L   6.779 -73.105148.2  RSN  8 0.3 1.6LRSN                1
 GAP=181        0.50       3.3     6.2  4.5 -0.5491E+01  0.1057E+01  0.1699E+01E
 Epicentro: LOS SANTOS - SANTANDER                                             3
 ACTION:UP  11-06-22 15:27 OP:REBC STATUS:               ID:20110401073217 L   I
 2011-04-01-0731-01S.COL___138                                                 6
 STAT SP IPHASW D HRMM SECON CODA AMPLIT PERI AZIMU VELO SNR AR TRES W  DIS CAZ7
 BAR2 SZ EP   1    732 37.36                             171    -0.1 7   22 203 
 BAR2 SZ ES   1    732 53.27                             171     0.3 7   22 203 
 BAR2 SZ I         732 53.84        13.0 0.16                            22 203 
 BTL  SZ EP        732 37.58                             171     0.110   24 311 
 BTL  SZ ES   3    732 52.58                             171    -0.4 2   24 311 
 GIR2 SZ EP   3    732 37.42                             166    -0.2 2   35 344 
 GIR2 SZ ES   2    732 52.54                             166    -0.7 5   35 344 
 BRR  HZ EP   1    732 39.20                             152     0.0 7   76 298 
 BRR  HE ES   1    732 56.55                             152     0.4 7   76 298 
 BRR  HZ I         732 59.53         8.1 0.14                            76 298 
 GRA  SZ EP   3    732 43.15                             138     0.1 2  127  15 
 OCA  SZ EP   1    732 46.31                             130     0.0 7  163 352 
 OCA  SZ ES   1    733  8.59                             130    -0.2 7  163 352 
 OCA  SZ I         733 14.58         2.8 0.14                           163 352 
 NOR  SZ EP   1    732 53.62                             119     0.0 6  237 236 
 NOR  SN ES   2    733 21.28                             119    -0.6 4  237 236 
 CHI  HZ EP   2    732 55.22                             118     0.0 4  248 196 
 CHI  HE ES   3    733 24.61                             118    -0.1 2  248 196 
 CHI  HZ I         733 28.82         3.1 0.50                           248 196 
                                                                                
