 2017  5 1 0524 59.6 L   6.781 -73.124145.1  RSN  7 0.5 1.8LRSN                1
 GAP=140        1.19       4.8     5.0  8.3 -0.3143E+01  0.1030E+02  0.4563E+01E
 Epicentro: LOS SANTOS - SANTANDER                                             3
 ACTION:UPD 17-06-16 13:31 OP:jn   STATUS:               ID:20170501052459 L   I
 OLDACT:UP  17-05-05 21:13 OP:nlst STATUS:               ID:20170501052459 L   3
 OLDACT:UP  17-05-01 15:14 OP:ar   STATUS:               ID:20170501051742     3
 OLDACT:REG 17-05-01 12:55 OP:ar   STATUS:               ID:20170501051742     3
 2017-05-01-0518-00M.COL___368                                                 6
 STAT SP IPHASW D HRMM SECON CODA AMPLIT PERI AZIMU VELO AIN AR TRES W  DIS CAZ7
 BRR  HZ EP     C  525 20.94                             151    0.1210 74.3 299 
 BRR  HN ES        525 37.78                             151    0.3810 74.3 299 
 BRR  HZ I         525 38.60         8.7 0.30            150           74.3 299 
 PAM  EZ EP        525 21.90                             151    0.1810 77.5  37 
 PAM  EE ES        525 38.83                             151   -0.1710 77.5  37 
 PAM  EZ I         525 39.52         7.7 0.32            153           77.5  37 
 RUS  HZ EP        525 23.06                             144   -0.0310 98.4 177 
 RUS  HE ES        525 41.58                             144    0.1410 98.4 177 
 RUS  HZ I         525 42.17         6.0 0.22            145           98.4 177 
 PTB  HZ EP        525 26.08                             131   -0.57 9  150 260 
 PTB  HN ES        525 46.63                             131   -1.16 9  150 260 
 SPBC HZ EP        525 28.12                             129    0.12 9  163 220 
 SPBC HE ES        525 49.94                             129   -0.25 9  163 220 
 SPBC HZ I         525 51.49        10.8 0.12            129            163 220 
 ZAR  HZ EP        525 31.96                             122   -0.31 8  207 292 
 ZAR  HE ES        525 58.42                             122    0.63 8  207 292 
 ZAR  HZ I         526  2.73        11.3 0.28            122            207 292 
 NOR  HZ EP        525 35.54                             118    0.21 8  235 235 
 NOR  HE ES        526  4.17                             118    0.94 8  235 235 
 NOR  HZ I         526  9.67         4.7 0.22            118            235 235 
                                                                                
