 2014  1 1 0156 32.9 L   6.806 -73.142139.5  RSN  5 0.5 1.4LRSN                1
 GAP=183        1.36       6.1     9.4 12.5  0.1437E+02 -0.1096E+02 -0.7829E+01E
 Epicentro: LOS SANTOS - SANTANDER                                             3
 ACTION:UPD 14-03-13 09:50 OP:ep   STATUS:               ID:20140101015632 L   I
 OLDACT:REG 14-01-01 09:12 OP:stll STATUS:               ID:20140101014808     3
 2014-01-01-0148-08M.COL___240                                                 6
 STAT SP IPHASW D HRMM SECON CODA AMPLIT PERI AZIMU VELO AIN AR TRES W  DIS CAZ7
 BAR2 SZ EP        156 52.06                             170    0.3110 24.0 191 
 BAR2 SZ ES        157  7.04                             170    0.5510 24.0 191 
 BAR2 SZ I         157  7.75         8.4 0.12            174           24.0 191 
 BRR  HZ EP        156 53.98                             151    0.6410 71.2 298 
 BRR  HE ES        157  9.53                             151    0.2210 71.2 298 
 BRR  HZ I         157 14.87         4.0 0.12            152           71.2 298 
 RUS  HZ EP        156 56.12                             142    0.0710  101 176 
 RUS  HN ES        157 13.33                             142   -0.8110  101 176 
 RUS  HZ I         157 16.06         3.5 0.40            147            101 176 
 PTB  HE ES        157 19.68                             130   -0.37 9  148 259 
 OCA  HN ES        157 21.51                             128   -0.79 9  160 353 
 OCA  HZ I         157 27.17         3.5 0.34            130            160 353 
                                                                                
