 2011  5 1 0307 58.7 L   6.789 -73.108149.3  RSN 10 0.4 1.8LRSN                1
 GAP=142        0.98       4.7     6.7  7.1 -0.1605E+02  0.1642E+02 -0.6794E+01E
 Epicentro: LOS SANTOS - SANTANDER                                             3
 ACTION:UP  11-06-29 08:49 OP:tino STATUS:               ID:20110501030758 L   I
 2011-05-01-0304-57S.COL___128                                                 6
 STAT SP IPHASW D HRMM SECON CODA AMPLIT PERI AZIMU VELO SNR AR TRES W  DIS CAZ7
 BAR2 SZ EP   1    3 8 18.64                             171    -0.1 7   23 201 
 BAR2 SZ ES   1    3 8 34.56                             171     0.1 7   23 201 
 BAR2 SZ I         3 8 35.35        12.5 0.15                            23 201 
 BRR  HZ EP        3 8 20.57                             152     0.110   75 298 
 BRR  HZ I         3 8 20.84        25.3 0.12                            75 298 
 BRR  HN ES   1    3 8 37.88                             152     0.4 7   75 298 
 PAM  SZ EP   1    3 8 21.49                             152     0.3 7   76  37 
 PAM  SN ES   1    3 8 38.59                             152    -0.2 7   76  37 
 PAM  SZ I         3 8 40.75         5.4 0.19                            76  37 
 RUS  HZ EP   1    3 8 22.53                             145    -0.2 7   99 178 
 RUS  HN ES        3 8 41.49                             145     0.010   99 178 
 RUS  HZ I         3 8 42.99         4.9 0.16                            99 178 
 BRI  SZ EP   1    3 8 23.21                             142     0.3 7  108  19 
 BRI  SZ I         3 8 44.77         6.2 0.22                           108  19 
 GRA  SZ EP        3 8 24.48                             138     0.210  126  16 
 GRA  SZ ES   1    3 8 43.97                             138    -0.3 7  126  16 
 GRA  SZ I         3 8 45.22        11.8 0.47                           126  16 
 OCA  SZ EP   1    3 8 26.55                             130    -0.9 7  162 352 
 OCA  SZ I         3 8 52.85        10.8 0.18                           162 352 
 NOR  SZ EP   1    3 8 34.58                             119    -0.4 6  237 235 
 NOR  SN ES        3 9  2.70                             119    -0.5 8  237 235 
 HEL  HZ EP   1    3 8 40.29                             115     0.8 6  276 256 
 HEL  HZ I         3 9 17.89         5.0 0.19                           276 256 
 RREF HZ EP   1    3 8 46.21                             111     0.9 5  324 230 
 RREF HZ I         3 9 30.65         4.7 0.41                           324 230 
                                                                                
