 2010  7 1 0052 24.8 L   6.775 -73.063139.7  RSN  6 0.4 1.8LRSN                1
 GAP=198        0.96       7.9    10.8  9.1 -0.3305E+02 -0.1377E+02 -0.1447E+02E
 Epicentro: LOS SANTOS - SANTANDER                                             3
 ACTION:UPD 10-12-01 15:14 OP:pat  STATUS:               ID:20100701005224 L   I
 2010-07-01-0051-12S.COL___118                                                 6
 STAT SP IPHASW D HRMM SECON CODA AMPLIT PERI AZIMU VELO AIN AR TRES W  DIS CAZ7
 BAR2 SZ EP        052 43.75                             170     0.010   24 213 
 BAR2 SZ ES   1    052 58.12                             170    -0.4 7   24 213 
 BRR  HZ EP        052 45.72                             148    -0.210   81 297 
 BRR  HZ I         052 46.08        23.5 0.07                            81 297 
 BRR  HN ES   1    053  2.82                             148     0.5 7   81 297 
 BRI  SZ EP        052 48.55                             140     0.510  108  16 
 BRI  SZ ES   1    053  5.98                             140    -0.3 7  108  16 
 BRI  SZ I         053 12.42         8.1 0.57                           108  16 
 GUE  SZ EP        052 49.34                             138     0.310  118   7 
 GRA  SZ ES   2    053  9.12                             136     0.3 5  126  13 
 OCA  SZ EP        052 52.36                             127    -0.7 9  164 350 
 OCA  SZ ES   3    053 14.62                             127    -0.4 2  164 350 
 OCA  SZ I         053 17.20         6.8 0.35                           164 350 
                                                                                
