 2016  9 1 0842 40.6 L   6.781 -73.112147.0  RSN  7 0.3 1.7LRSN                1
 GAP=186        0.74       2.7     3.9  4.8  0.9482E+00  0.1831E+01 -0.1917E+01E
 Epicentro: LOS SANTOS - SANTANDER                                             3
 ACTION:UPD 17-08-17 21:05 OP:lp   STATUS:               ID:20160901084240 L   I
 OLDACT:REG 16-09-01 13:02 OP:drio STATUS:               ID:20160901083730     3
 2016-09-01-0838-00M.COL___346                                                 6
 STAT SP IPHASW D HRMM SECON CODA AMPLIT PERI AZIMU VELO AIN AR TRES W  DIS CAZ7
 BAR2 EZ EP        843  0.35                             171   -0.0310 22.3 200 
 BAR2 EZ ES        843 15.75                             171   -0.0410 22.3 200 
 BAR2 EZ I         843 16.84        16.1 0.28            171           22.3 200 
 BRR  HZ EP        843  2.40                             151    0.2510 75.4 299 
 BRR  HE ES        843 18.92                             151   -0.0110 75.4 299 
 BRR  HZ ES        843 19.33                             151           75.4 299 
 BRR  HZ I         843 19.86         7.5 0.13            150           75.4 299 
 RUS  HZ EP        843  4.56                             145    0.2210 98.3 178 
 RUS  HN ES        843 22.66                             145   -0.1710 98.3 178 
 RUS  HZ I         843 24.35         3.3 0.28            147           98.3 178 
 PTB  HZ EP        843  7.90                             132   -0.09 9  151 260 
 PTB  HE ES        843 28.71                             132   -0.61 9  151 260 
 PTB  HZ I         843 33.12         4.3 0.28            131            151 260 
 OCA  HZ EP        843  8.81                             129   -0.46 9  163 352 
 OCA  HE ES        843 31.89                             129    0.28 9  163 352 
 OCA  HZ I         843 37.00         8.1 0.62            130            163 352 
 SPBC HZ EP        843  9.35                             129    0.06 9  164 220 
 SPBC HN ES        843 32.04                             129    0.40 9  164 220 
 SPBC HZ I         843 36.15         8.3 0.22            130            164 220 
 ZAR  HZ EP        843 13.38                             122   -0.20 8  208 292 
 ZAR  HE ES        843 39.70                             122    0.41 8  208 292 
 ZAR  HZ I         843 43.67         5.6 0.40            122            208 292 
                                                                                
