 2015 12 1 0957 21.8 L   6.817 -73.128148.7  RSN 16 0.5 2.6LRSN                1
 GAP=138        1.02       3.1     3.9  5.0 -0.2003E+01  0.4933E+01  0.1335E+01E
 Epicentro: LOS SANTOS - SANTANDER                                             3
 ACTION:UPD 16-02-04 15:01 OP:cam  STATUS:               ID:20151201095721 L   I
 OLDACT:UP  15-12-29 07:25 OP:CARA STATUS:               ID:20151201095721 L   3
 OLDACT:UP  15-12-01 19:24 OP:mh   STATUS:               ID:20151201094750     3
 OLDACT:UP  15-12-01 19:23 OP:mh   STATUS:               ID:20151201094750     3
 OLDACT:UP  15-12-01 19:22 OP:mh   STATUS:               ID:20151201094750     3
 OLDACT:UP  15-12-01 19:21 OP:mh   STATUS:               ID:20151201094750     3
 OLDACT:REG 15-12-01 12:17 OP:mh   STATUS:               ID:20151201094750     3
 2015-12-01-0947-50M.COL___304                                                 6
 STAT SP IPHASW D HRMM SECON CODA AMPLIT PERI AZIMU VELO AIN AR TRES W  DIS CAZ7
 BAR2 EZ IP     D  957 41.95                             170    0.1110 25.6 194 
 BAR2 EZ ES        957 56.63                             170   -0.8310 25.6 194 
 BAR2 EZ I         957 58.39        91.3 0.22            168           25.6 194 
 BRR  HZ EP        957 43.80                             153    0.4710 72.1 296 
 BRR  HN ES        958  0.80                             153    0.7010 72.1 296 
 BRR  HZ I         958  4.41        97.8 0.46            150           72.1 296 
 PAM  EZ EP        957 44.88                             152    0.7010 74.7  39 
 PAM  EN ES        958  1.84                             152    0.2110 74.7  39 
 PAM  EZ I         958  4.00       106.9 0.52            157           74.7  39 
 RUS  HZ EP        957 45.90                             144   -0.0810  102 177 
 RUS  HN ES   1    958  4.58                             144   -0.24 7  102 177 
 RUS  HZ I         958  5.67        21.1 0.28            146            102 177 
 PTB  HZ EP   1    957 48.78                             132   -0.45 7  150 258 
 PTB  HE ES        958 10.12                             132   -0.49 9  150 258 
 PTB  HZ I         958 16.53        36.7 0.42            132            150 258 
 SPBC HZ EP   1    957 50.84                             129    0.05 7  166 219 
 SPBC HN ES        958 13.29                             129   -0.10 9  166 219 
 SPBC HZ I         958 17.24        38.0 0.48            130            166 219 
 ZAR  HZ EP   1    957 54.52                             123   -0.05 6  205 291 
 ZAR  HN ES        958 19.93                             123   -0.18 9  205 291 
 ZAR  HZ I         958 25.87        45.1 0.30            123            205 291 
 NOR  HZ EP        957 57.26                             119   -0.74 8  237 234 
 NOR  HN ES        958 26.48                             119    0.26 8  237 234 
 NOR  HZ I         958 31.45        17.8 0.22            120            237 234 
 SML  HZ EP        957 57.78                             118   -0.73 8  243 335 
 SML  HN ES        958 26.82                             118   -0.31 8  243 335 
 SML  HZ I         958 29.84        68.1 0.10            120            243 335 
 ROSC BZ EP   4    958  1.93                             117    1.55 0  255 211 
 ROSC BN ES   4    958 30.53                             117    0.07 0  255 211 
 HEL  HZ EP   1    958  2.89                             115    0.45 6  274 256 
 HEL  HN ES        958 34.78                             115    0.66 8  274 256 
 HEL  HZ I         958 42.09        11.7 0.28            116            274 256 
 GUY2CHZ EP        958  6.17                             113    0.31 7  304 235 
 GUY2CHN ES   4    958 43.84                             113    3.62 0  304 235 
 GUY2CHZ I         958 45.65         8.8 0.36                           304 235 
 MON  HZ EP   9    958  9.44                             109   -1.53 0  354 308 
 MON  HN ES        958 47.85                             109    0.07 6  354 308 
 MON  HZ I         958 49.36         7.7 0.14            110            354 308 
 ANIL HZ EP   4    958 13.82                             109    1.78 0  360 225 
 ANIL HN ES   4    958 53.03                             109    1.81 0  360 225 
 PRA  HZ EP        958 15.44                             107   -0.30 6  395 210 
 PRA  HN ES        958 57.81                             107    0.01 6  395 210 
 PRA  HZ I         959  2.54        18.9 0.50            108            395 210 
 ORTC HZ EP        958 16.44                             107    0.29 6  398 216 
 ORTC HN ES        958 59.08                             107    0.56 6  398 216 
 ORTC HZ I         959  2.79        10.3 0.60            108            398 216 
 SJC  HZ EP   1    958 16.30                             106   -1.12 4  409 327 
 SJC  HN ES   4    958 57.93                             106   -2.85 0  409 327 
 SMAR HZ EP        958 27.61                             103    0.01 4  496 346 
 SMAR HN ES   4    959 13.89                             103   -5.03 0  496 346 
                                                                                
