 2013  8 1 0340 44.8 L   6.796 -73.160143.2  RSN  5 0.3 2.0LRSN                1
 GAP=182        0.75       6.7     5.7  8.3  0.1580E+02  0.2153E+02  0.3898E+01E
 Epicentro: LOS SANTOS - SANTANDER                                             3
 ACTION:UPD 14-01-14 08:58 OP:ep   STATUS:               ID:20130801034044 L   I
 OLDACT:DUP 13-08-01 09:41 OP:carl STATUS:               ID:20130801033960d    3
 2013-08-01-0339-59M.COL___268                                                 6
 STAT SP IPHASW D HRMM SECON CODA AMPLIT PERI AZIMU VELO AIN AR TRES W  DIS CAZ7
 BAR2 SZ EP        341  3.86                             171   -0.2010 22.6 186 
 BAR2 SZ ES   1    341 19.57                             171    0.45 7 22.6 186 
 BAR2 SZ I         341 20.30        15.1 0.52            168           22.6 186 
 GIR2 SZ ES   1    341 18.91                             167   -0.33 7 31.5 353 
 GIR2 SZ I         341 20.56         8.0 0.10            166           31.5 353 
 RUS  HN ES   1    341 26.77                             143    0.23 7  100 175 
 RUS  HN I         341 28.02        13.5 0.38            145            100 175 
 PTB  HZ EP        341 11.44                             132    0.08 9  146 259 
 PTB  HN ES        341 31.69                             132   -0.42 9  146 259 
 PTB  HN I         341 37.07        25.1 0.26            131            146 259 
 ZAR  HE ES        341 42.38                             122    0.42 9  203 292 
 ZAR  HE I         341 48.04        24.0 0.22            122            203 292 
                                                                                
