 2017  2 1 0436 31.6 L   6.751 -73.120136.0  RSN  5 0.2 1.2LRSN                1
 GAP=142        0.38       2.1     2.0  3.6 -0.7218E+00  0.7021E+00 -0.4797E+00E
 Epicentro: LOS SANTOS - SANTANDER                                             3
 ACTION:UPD 17-05-24 15:31 OP:jn   STATUS:               ID:20170201042729dL   I
 OLDACT:DUP 17-02-01 18:16 OP:dnl  STATUS:               ID:20170201042729dL   3
 OLDACT:UPD 17-02-01 18:07 OP:nlst STATUS:               ID:20170201042728 L   3
 2017-02-01-0428-00M.COL___325                                                 6
 STAT SP IPHASW D HRMM SECON CODA AMPLIT PERI AZIMU VELO AIN AR TRES W  DIS CAZ7
 BAR2 EZ EP   2    436 50.12                             172    0.17 5 18.9 202 
 BAR2 EZ ES        437  4.30                             172    0.0210 18.9 202 
 BAR2 EZ I         437  6.15         6.6 0.24            173           18.9 202 
 BRR  HZ EP   2    436 52.16                             149    0.16 5 76.4 301 
 BRR  HN ES        437  7.86                             149   -0.0710 76.4 301 
 BRR  HZ I         437 13.33         3.8 0.12            149           76.4 301 
 PAM  EZ EP        436 53.09                             148    0.1610 79.9  35 
 PAM  EN ES        437  9.47                             148   -0.1110 79.9  35 
 PAM  EZ I         437 12.20         3.0 0.24            150           79.9  35 
 RUS  HZ EP   2    436 54.02                             143    0.05 5 95.0 178 
 RUS  HE ES        437 11.38                             143   -0.0610 95.0 178 
 RUS  HZ I         437 13.32         1.9 0.24            148           95.0 178 
 PTB  HZ EP   2    436 57.39                             129   -0.56 5  150 261 
 PTB  HE ES        437 18.61                             129    0.10 9  150 261 
 PTB  HZ I         437 20.95         2.2 0.36            131            150 261 
                                                                                
