 2011  6 1 0721 59.4 L   6.790 -73.084153.1  RSN  5 0.2 1.3LRSN                1
 GAP=166        0.54       3.6     7.6  6.3  0.3127E+01 -0.2108E+02 -0.5490E+01E
 Epicentro: LOS SANTOS - SANTANDER                                             3
 ACTION:UP  11-07-14 19:02 OP:ep   STATUS:               ID:20110601072159 L   I
 2011-06-01-0720-02S.COL___114                                                 6
 STAT SP IPHASW D HRMM SECON CODA AMPLIT PERI AZIMU VELO SNR AR TRES W  DIS CAZ7
 BAR2 SZ EP   1    722 19.61                             170    -0.3 8   24 206 
 BAR2 SZ ES   2    722 35.85                             170    -0.1 5   24 206 
 BAR2 SZ I         722 36.54         4.3 0.17                            24 206 
 BTL  SZ EP   1    722 20.14                             170     0.2 8   25 305 
 BTL  SZ ES   2    722 35.63                             170    -0.3 5   25 305 
 BRR  HZ EP   1    722 21.67                             151    -0.1 8   78 297 
 BRR  HZ I         722 22.28         3.1 0.30                            78 297 
 BRR  HN ES   1    722 39.26                             151     0.1 8   78 297 
 RUS  HZ EP   1    722 24.12                             146     0.3 8   99 180 
 RUS  HE ES   1    722 42.81                             146     0.0 8   99 180 
 RUS  HZ I         722 44.13         2.6 0.24                            99 180 
 GRA  SZ EP        722 25.12                             139    -0.110  125  14 
 GRA  SZ ES   2    722 45.82                             139     0.4 5  125  14 
 GRA  SZ I         722 47.69         2.3 0.27                           125  14 
                                                                                
