 2011 12 1 0014 14.6 L   6.773 -73.116142.0  RSN  6 0.3 1.7LRSN                1
 GAP=142        0.64       4.0     5.4  5.3 -0.2869E+01  0.5389E+01  0.2628E+01E
 Epicentro: LOS SANTOS - SANTANDER                                             3
 ACTION:UPD 12-07-13 16:13 OP:ep   STATUS:               ID:20111201001414 L   I
 2011-12-01-0010-00M.COL___182                                                 6
 STAT SP IPHASW D HRMM SECON CODA AMPLIT PERI AZIMU VELO AIN AR TRES W  DIS CAZ7
 BAR2 SZ EP        014 33.71                             171    0.0010 21.3 200 
 BAR2 SZ ES   1    014 48.03                             171   -0.61 7 21.3 200 
 BAR2 SZ I         014 50.87         8.2 0.24                          21.3 200 
 GIR2 SZ EP        014 33.81                             166   -0.0910 34.9 346 
 GIR2 SZ ES   3    014 48.27                             166   -0.71 2 34.9 346 
 BRR  HZ EP        014 35.60                             150    0.0310 75.5 299 
 BRR  HN ES   1    014 52.45                             150    0.50 7 75.5 299 
 BRR  HZ I         014 54.62        12.2 0.34                          75.5 299 
 PAM  SZ EP        014 36.32                             150   -0.0910 77.7  36 
 PAM  SN ES   1    014 53.60                             150    0.16 7 77.7  36 
 RUS  HZ EP        014 37.91                             144    0.1810 97.4 178 
 RUS  HN ES   1    014 56.13                             144    0.34 7 97.4 178 
 NOR  SZ EP        014 49.88                             118   -0.32 8  236 236 
                                                                                
