 2014  7 1 0634 35.6 L   6.830 -73.309119.1  RSN  9 0.4 1.5LRSN                1
 GAP=152        0.99       2.8     4.4  7.6 -0.1843E+01  0.1229E+02 -0.6190E+01E
 Epicentro: ZAPATOCA - SANTANDER                                               3
 ACTION:UPD 15-03-16 20:40 OP:nd   STATUS:               ID:20140701063435 L   I
 OLDACT:UP  14-07-01 20:33 OP:spq  STATUS:               ID:20140701062821d    3
 OLDACT:DUP 14-07-01 19:33 OP:spq  STATUS:               ID:20140701062821d    3
 2014-07-01-0628-20M.COL___244                                                 6
 STAT SP IPHASW D HRMM SECON CODA AMPLIT PERI AZIMU VELO AIN AR TRES W  DIS CAZ7
 BAR2 SZ EP        634 52.56                             165    0.3010 29.8 152 
 BAR2 SZ ES   1    635  5.55                             165    0.33 7 29.8 152 
 RUS  HN ES        635 14.27                             136   -0.0810  107 166 
 PTB  HZ EP        634 58.14                             129   -0.7910  131 256 
 PTB  HN ES        635 16.86                             129   -0.2410  131 256 
 PTB  HZ I         635 20.42         4.3 0.40            129            131 256 
 SPBC HZ EP        635  1.74                             124    0.31 9  155 213 
 SPBC HN ES        635 21.60                             124    0.05 9  155 213 
 SPBC HZ I         635 25.95         3.9 0.15            125            155 213 
 OCA  HZ EP        635  1.18                             124   -0.39 9  156 360 
 OCA  HN ES        635 21.33                             124   -0.47 9  156 360 
 OCA  HZ I         635 25.96         4.4 0.24            125            156 360 
 ZAR  HZ EP        635  5.21                             118    0.66 9  186 293 
 ZAR  HN ES        635 27.69                             118    0.58 9  186 293 
 ZAR  HZ I         635 30.38         5.3 0.32            119            186 293 
 SML  HZ EP        635  9.94                             112    0.16 8  234 339 
 SML  HN ES        635 36.54                             112    0.13 8  234 339 
 SML  HZ I         635 41.06         6.1 0.10            113            234 339 
 HEL  HZ EP        635 13.15                             110    0.41 8  256 254 
 HEL  HN ES        635 41.17                             110   -0.51 8  256 254 
 HEL  HZ I         635 48.47         1.5 0.40            111            256 254 
 PRA  HN ES        636  7.95                             102   -0.35 6  386 207 
 PRA  HZ I         636 13.13         1.0 0.20            103            386 207 
                                                                                
