 2015  6 1 0815 19.9 L   6.800 -73.080142.2  RSN  8 0.6 1.6LRSN                1
 GAP=190        1.37       4.3     7.3  8.3 -0.2948E+00  0.1742E+02 -0.4021E+01E
 Epicentro: LOS SANTOS - SANTANDER                                             3
 ACTION:UPD 15-09-10 22:08 OP:cam  STATUS:               ID:20150601081519 L   I
 OLDACT:REG 15-06-01 13:36 OP:ak   STATUS:               ID:20150601080749     3
 2015-06-01-0807-49M.COL___300                                                 6
 STAT SP IPHASW D HRMM SECON CODA AMPLIT PERI AZIMU VELO AIN AR TRES W  DIS CAZ7
 BAR2 EZ EP        815 39.54                             169    0.4310 25.6 206 
 BAR2 EZ ES        815 54.08                             169   -0.0510 25.6 206 
 BAR2 EZ I         815 55.92         6.6 0.20            169           25.6 206 
 BRR  HZ EP        815 41.69                             150    0.6810 77.6 296 
 BRR  HN ES        815 58.47                             150    0.9710 77.6 296 
 BRR  HZ I         816  2.62         7.5 0.12            148           77.6 296 
 RUS  HZ EP        815 43.51                             143    0.2710  100 180 
 RUS  HN ES        816  0.55                             143   -0.9310  100 180 
 RUS  HZ I         816  3.81         3.1 0.29            147            100 180 
 OCA  HZ EP        815 48.21                             129    0.22 9  161 351 
 OCA  HN ES        816  9.24                             129   -0.70 9  161 351 
 OCA  HZ I         816 13.14        10.4 0.34            131            161 351 
 ZAR  HZ EP        815 52.91                             121    0.14 8  211 291 
 ZAR  HN ES        816 18.49                             121    0.04 8  211 291 
 ZAR  HZ I         816 23.61         2.8 0.15            122            211 291 
 NOR  HZ EP        815 56.46                             117    0.44 8  241 235 
 NOR  HE ES        816 23.42                             117   -0.81 8  241 235 
 NOR  HZ I         816 27.81         2.6 0.20            119            241 235 
 SML  HZ EP        815 56.27                             116   -0.36 8  247 334 
 SML  HE ES        816 24.43                             116   -0.87 8  247 334 
 SML  HZ I         816 29.18         3.1 0.07            118            247 334 
 GUY2CHZ EP        816  3.86                             111   -0.12 7  307 236 
 GUY2CHN ES        816 38.33                             111   -0.06 7  307 236 
 GUY2CHZ I         816 45.49         1.2 0.34                           307 236 
                                                                                
