 2013 11 1 0922 51.8 L   6.787 -73.200135.1  RSN  8 0.5 1.4LRSN                1
 GAP=130        1.11       4.3     4.9  7.8 -0.1794E+00  0.1020E+02 -0.8095E+01E
 Epicentro: ZAPATOCA - SANTANDER                                               3
 ACTION:UPD 14-01-09 16:24 OP:ep   STATUS:               ID:20131101092251 L   I
 OLDACT:REG 13-11-01 12:51 OP:jn   STATUS:               ID:20131101092000     3
 2013-11-01-0920-00M.COL___273                                                 6
 STAT SP IPHASW D HRMM SECON CODA AMPLIT PERI AZIMU VELO AIN AR TRES W  DIS CAZ7
 BAR2 SZ EP        923 10.14                             171    0.0810 21.6 175 
 BAR2 SZ ES        923 24.10                             171   -0.2410 21.6 175 
 BAR2 SZ I         923 26.23        10.7 0.36            172           21.6 175 
 BRR  HZ EP        923 12.34                             152    0.8510 66.7 302 
 BRR  HN ES   1    923 27.25                             152    0.36 7 66.7 302 
 BRR  HZ I         923 32.75         5.5 0.18            152           66.7 302 
 PAM  SZ EP        923 13.35                             147    0.1810 82.4  42 
 PAM  SN ES        923 29.87                             147   -0.0010 82.4  42 
 PAM  SZ I         923 32.75         5.9 0.46            152           82.4  42 
 RUS  HZ EP        923 14.36                             142   -0.0410 99.7 173 
 RUS  HN ES        923 32.08                             142    0.0110 99.7 173 
 RUS  HZ I         923 35.09         2.5 0.34            147           99.7 173 
 PTB  HZ EP        923 16.65                             131   -0.64 9  142 259 
 PTB  HN ES        923 36.66                             131   -0.55 9  142 259 
 PTB  HZ I         923 43.00         3.2 0.30            133            142 259 
 ZAR  HN ES   1    923 48.42                             121    1.06 6  199 293 
 ZAR  HZ I         923 51.05         3.3 0.42            124            199 293 
 NOR  HE ES   2    923 53.36                             117    0.19 4  229 234 
 SML  HZ EP        923 27.68                             115    0.00 8  243 337 
 SML  HN ES        923 54.95                             115   -0.75 8  243 337 
                                                                                
