 2015 11 1 0227 28.1 L   6.782 -73.136149.0  RSN 11 0.5 1.9LRSN                1
 GAP=139        1.06       3.9     4.4  6.4  0.2870E+00  0.9970E+01  0.5776E+01E
 Epicentro: LOS SANTOS - SANTANDER                                             3
 SPECGUY2CHH Z MO 14.2 ST0.005 OM  2.0 f00.350 R5.4971 AL-0.00 WI 35.0 MW  3.4 3
 SPECGUY2CHH Z T 22844 K 0.000 GD  335 VS 5.20 DE 3.50 Q0750.0 QA 1.50 Q1 0.00 3
 OLDACT:UP  15-11-01 13:26 OP:mh   STATUS:               ID:20151101021736     3
 OLDACT:REG 15-11-01 12:25 OP:mh   STATUS:               ID:20151101021736     3
 ACTION:UPD 15-12-28 16:08 OP:cam  STATUS:               ID:20151101022728 L   I
 OLDACT:UP  15-11-01 14:13 OP:mh   STATUS:               ID:20151101021736     3
 OLDACT:UP  15-11-01 13:27 OP:mh   STATUS:               ID:20151101021736     3
 2015-11-01-0217-36M.COL___292                                                 6
 STAT SP IPHASW D HRMM SECON CODA AMPLIT PERI AZIMU VELO AIN AR TRES W  DIS CAZ7
 BAR2 EZ EP        227 48.25                             171    0.1910 21.6 194 
 BAR2 EZ ES        228  3.06                             171   -0.5910 21.6 194 
 BAR2 EZ I         228  4.31        25.9 0.24            170           21.6 194 
 BRR  HZ EP        227 50.11                             152    0.4310 73.1 299 
 BRR  HN ES        228  7.09                             152    0.5510 73.1 299 
 BRR  HZ I         228  8.50        12.0 0.30            148           73.1 299 
 PAM  EZ EP        227 50.77                             151    0.0810 78.2  38 
 PAM  EN ES        228  8.14                             151   -0.1910 78.2  38 
 PAM  EZ I         228 10.03        10.4 0.76            153           78.2  38 
 RUS  HZ EP        227 51.64                             145   -0.3610 98.5 177 
 RUS  HN ES        228 10.88                             145    0.2210 98.5 177 
 RUS  HZ I         228 11.56        10.6 0.22            146           98.5 177 
 SPBC HZ EP        227 56.09                             130   -0.66 9  162 220 
 SPBC HN ES        228 19.20                             130    0.09 9  162 220 
 SPBC HZ I         228 20.08        17.6 0.26            129            162 220 
 ZAR  HN ES        228 26.47                             123   -0.06 8  206 293 
 ZAR  HZ I         228 32.81        10.7 0.62            121            206 293 
 SML  HN ES   4    228 31.47                             118   -2.56 0  246 335 
 SML  HZ I         228 36.76         8.4 0.10            117            246 335 
 CHI  HZ EP        228  6.20                             118    0.42 8  247 196 
 CHI  HN ES        228 35.68                             118    0.49 8  247 196 
 CHI  HZ I         228 42.08         1.8 0.28            118            247 196 
 HEL  HZ EP        228  9.24                             115    0.72 8  273 256 
 HEL  HE ES        228 39.40                             115   -0.67 8  273 256 
 HEL  HZ I         228 47.06         3.6 0.52            114            273 256 
 URE  HZ EP   4    228 12.10                             114    2.60 0  286 292 
 URE  HN ES   1    228 41.57                             114   -0.25 6  286 292 
 URE  HZ I         228 52.33         6.4 0.18            113            286 292 
 GUY2CHZ EP        228 10.96                             113   -0.85 7  301 235 
 GUY2CHN ES   1    228 46.27                             113    0.35 5  301 235 
 GUY2CHZ I         228 52.11         4.5 0.24                           301 235 
                                                                                
