 2016  2 1 0326 11.3 L   6.815 -73.160140.0  RSN  6 0.2 1.4LRSN                1
 GAP=200        0.32       2.6     4.4  5.9  0.1369E+01 -0.1001E+01 -0.4512E+01E
 Epicentro: LOS SANTOS - SANTANDER                                             3
 ACTION:UPD 16-03-04 21:22 OP:rebc STATUS:               ID:20160201032611 L   I
 OLDACT:REG 16-02-01 13:23 OP:dnl  STATUS:               ID:20160201031641     3
 2016-02-01-0322-00M.COL___415                                                 6
 STAT SP IPHASW D HRMM SECON CODA AMPLIT PERI AZIMU VELO AIN AR TRES W  DIS CAZ7
 RUS  HZ EP   4    326 31.15                             142   -3.43 0  102 175 
 RUS  HN ES   2    326 52.64                             142   -0.13 5  102 175 
 RUS  HZ I         326 54.22         2.3 0.22             47            102 175 
 PTB  HZ EP   2    326 37.41                             131   -0.24 5  147 258 
 PTB  HN ES   2    326 58.18                             131   -0.05 5  147 258 
 PTB  HZ I         327  0.01         2.8 0.12             47            147 258 
 SPBC HZ EP        326 39.44                             128    0.0910  163 218 
 SPBC HN ES   2    327  1.39                             128    0.13 5  163 218 
 SPBC HZ I         327  7.82         4.4 0.25             47            163 218 
 SML  HZ EP   2    326 47.04                             116   -0.29 4  242 335 
 SML  HE ES   2    327 15.74                             116    0.27 4  242 335 
 SML  HZ I         327 18.93         2.9 0.08             37            242 335 
 CHI  HZ EP   2    326 48.87                             116    0.10 4  250 195 
 CHI  HZ I         327 21.53         1.6 0.46             37            250 195 
 GUY2CHZ EP   4    326 56.05                             111    1.48 0  301 234 
 GUY2CHE ES   2    327 28.20                             111   -0.15 4  301 234 
 GUY2CHZ I         327 38.33         1.2 0.26                           301 234 
                                                                                
