 2011 12 1 0138 26.2 L   6.772 -73.090143.2  RSN  5 0.3 1.5LRSN                1
 GAP=145        0.60       3.5     5.8  5.9  0.2495E+00 -0.2365E+01 -0.4039E-01E
 Epicentro: LOS SANTOS - SANTANDER                                             3
 ACTION:UPD 12-07-13 16:13 OP:ep   STATUS:               ID:20111201013826 L   I
 2011-12-01-0135-49S.COL___162                                                 6
 STAT SP IPHASW D HRMM SECON CODA AMPLIT PERI AZIMU VELO AIN AR TRES W  DIS CAZ7
 BAR2 SZ ES   1    139  0.14                             171   -0.44 7 22.3 207 
 PAM  SZ EP        138 48.06                             151   -0.0310 76.1  35 
 PAM  SN ES   1    139  5.35                             151    0.20 7 76.1  35 
 BRR  HZ EP        138 47.22                             150   -0.2810 78.0 298 
 BRR  HE ES   1    139  4.51                             150    0.41 7 78.0 298 
 RUS  HZ EP        138 49.71                             144    0.2310 97.3 180 
 RUS  HN ES   1    139  7.63                             144    0.00 7 97.3 180 
 RUS  HZ I         139  9.38         4.0 0.38                          97.3 180 
 OCA  SZ ES   2    139 16.80                             128   -0.12 5  164 351 
 OCA  SZ I         139 20.67         4.2 0.20                           164 351 
                                                                                
