 2010  3 1 0800 23.9 L   6.820 -73.061144.9  RSN 10 0.6 2.4LRSN                1
 GAP=192        1.05       3.9     7.1  7.0 -0.2179E+01  0.7145E+01  0.7218E+01E
 Epicentro: LOS SANTOS - SANTANDER                                             3
 ACTION:UP  10-08-24 09:51 OP:vdl  STATUS:               ID:20100301080024 L   I
 2010-03-01-0758-51S.COL___093                                                 6
 STAT SP IPHASW D HRMM SECON CODA AMPLIT PERI AZIMU VELO SNR AR TRES W  DIS CAZ7
 BAR2 SZ EP        8 0 43.59                             168     0.110   29 208 
 BAR2 SZ ES   1    8 0 58.71                             168    -0.2 7   29 208 
 BRR  HZ IP        8 0 45.38                             150     0.010   79 294 
 BRR  HN ES        8 1  2.31                             150     0.210   79 294 
 BRR  HZ I         8 1  6.07        54.5 0.09                            79 294 
 RUS  BZ EP        8 0 47.60                             143    -0.110  103 181 
 RUS  BN ES   1    8 1  6.45                             143     0.2 7  103 181 
 RUS  BZ I         8 1  7.39        29.1 0.06                           103 181 
 OCA  SZ EP        8 0 51.87                             130    -0.2 9  159 350 
 OCA  SZ ES   1    8 1 14.14                             130     0.1 7  159 350 
 CHI  HZ EP        8 1  1.75                             117    -0.3 8  253 197 
 CHI  HN ES        8 1 32.09                             117     0.3 8  253 197 
 CHI  HZ I         8 1 34.82        16.4 0.72                           253 197 
 HEL  HZ EP   1    8 1  5.34                             114     0.2 6  282 256 
 HEL  HN ES   1    8 1 35.83                             114    -1.5 6  282 256 
 HEL  HZ I         8 1 41.75         9.7 0.18                           282 256 
 RREF BZ EP   1    8 1 11.75                             110     0.8 5  330 230 
 RREF BN ES   1    8 1 48.86                             110     1.2 5  330 230 
 RREF BZ I         8 1 55.80        17.7 1.06                           330 230 
 TOL  SZ EP   1    8 1 14.20                             109     1.1 5  352 225 
 ANIL BN ES   1    8 1 54.41                             108     0.2 5  365 225 
 PRA  HZ EP        8 1 17.56                             106    -0.6 6  399 211 
 PRA  HN ES   1    8 1 59.31                             106    -1.2 4  399 211 
                                                                                
