 2011  2 1 0458 30.3 L   6.527 -73.558100.6  RSN 10 0.4 2.1LRSN                1
 GAP=129        0.70       3.8     4.5  7.6 -0.5979E+01  0.1292E+02  0.3612E+01E
 Epicentro: EL CARMEN DE CHUCURI - SANTANDER                                   3
 ACTION:UP  11-03-28 15:05 OP:jfem STATUS:               ID:20110201045830 L   I
 2011-02-01-0455-32S.COL___138                                                 6
 STAT SP IPHASW D HRMM SECON CODA AMPLIT PERI AZIMU VELO SNR AR TRES W  DIS CAZ7
 BAR2 SZ IP        458 45.43                             156     0.210   42  80 
 BAR2 SZ ES   1    458 56.80                             156    -0.2 7   42  80 
 BAR2 SZ I         458 59.32       155.2 0.25                            42  80 
 BTL  SZ EP        458 46.11                             150     0.210   54  37 
 GIR2 SZ EP   2    458 48.03                             141     0.9 5   73  33 
 RUS  HZ EP        458 48.48                             136    -0.310   88 143 
 GRA  SZ EP   1    458 56.66                             115    -0.1 7  172  29 
 GRA  SZ ES   2    459 17.17                             115    -0.3 4  172  29 
 GRA  SZ I         459 21.87        22.7 0.45                           172  29 
 NOR  SZ EP   1    458 57.01                             114    -0.6 7  180 234 
 NOR  SN ES   1    459 18.84                             114    -0.1 7  180 234 
 YOP  SZ EP   2    458 57.59                             114    -0.2 4  181 136 
 YOP  SN ES   2    459 19.57                             114     0.4 4  181 136 
 YOP  SZ I         459 21.16        15.1 0.33                           181 136 
 CHI  HZ EP   1    459  1.41                             110    -0.1 6  211 185 
 CHI  HN ES   2    459 26.47                             110     0.6 4  211 185 
 CHI  HZ I         459 31.91         5.1 0.21                           211 185 
 HEL  HZ EP   2    459  3.06                             109     0.4 4  221 260 
 RREF HZ EP   2    459  8.87                             104     0.4 4  268 228 
 RREF HZ I         459 45.51         7.4 0.47                           268 228 
                                                                                
