 2011  9 1 0015  2.6 L   6.832 -73.025143.2  RSN  5 0.2 1.9LRSN                1
 GAP=195        0.46       3.9     8.3  6.8  0.1819E+02 -0.3669E+02 -0.1122E+02E
 Epicentro: CEPITA - SANTANDER                                                 3
 ACTION:UPD 12-07-13 15:54 OP:ep   STATUS:               ID:20110901001502 L   I
 2011-09-01-0011-26S.COL___167                                                 6
 STAT SP IPHASW D HRMM SECON CODA AMPLIT PERI AZIMU VELO AIN AR TRES W  DIS CAZ7
 BAR2 SZ EP   1    015 22.10                             167   -0.01 7 31.7 213 
 BAR2 SZ ES   2    015 37.66                             167    0.32 5 31.7 213 
 BAR2 SZ I         015 38.92        12.8 0.30                          31.7 213 
 GIR2 SZ EP   1    015 22.23                             166    0.22 7 33.0 326 
 BRR  HZ EP        015 24.01                             149   -0.0910 81.8 292 
 BRR  HZ I         015 24.32        24.9 0.18                          81.8 292 
 BRR  HN ES        015 40.88                             149    0.0010 81.8 292 
 RUS  HZ EP   1    015 26.23                             143   -0.12 7  104 184 
 RUS  HN ES   2    015 44.63                             143   -0.25 5  104 184 
 RUS  HZ I         015 46.03         6.5 0.50                           104 184 
 OCA  SZ EP   1    015 30.87                             129    0.30 7  159 348 
 OCA  SZ ES   2    015 51.82                             129   -0.58 5  159 348 
 OCA  SZ I         016  4.74        11.4 0.58                           159 348 
                                                                                
