 2012  6 1 0743 46.7 L   6.727 -73.046135.8  RSN  5 0.4 1.5LRSN                1
 GAP=236        0.77       6.3     7.0  9.9 -0.1185E+02  0.3395E+02 -0.1566E+02E
 Epicentro: ARATOCA - SANTANDER                                                3
 ACTION:UPD 12-08-06 17:46 OP:ep   STATUS:               ID:20120601074345 L   I
 2012-06-01-0740-00M.COL___201                                                 6
 STAT SP IPHASW D HRMM SECON CODA AMPLIT PERI AZIMU VELO AIN AR TRES W  DIS CAZ7
 BAR2 SZ EP   1    744  4.62                             171   -0.46 7 21.2 225 
 BAR2 SZ ES   1    744 19.61                             171    0.19 7 21.2 225 
 BAR2 SZ I         744 23.90        10.6 0.24            170           21.2 225 
 PTB  HZ EP   1    744 13.68                             128   -0.10 7  157 263 
 PTB  HN ES   1    744 35.05                             128    0.14 7  157 263 
 PTB  HZ I         744 37.08         3.2 0.11            132            157 263 
 OCA  HN ES   1    744 37.69                             125    0.26 7  170 350 
 ZAR  HZ EP   1    744 20.45                             118    0.52 6  217 293 
 ZAR  HN ES   1    744 45.01                             118   -0.84 6  217 293 
 HEL  HN ES   1    744 59.65                             112    0.45 6  281 258 
                                                                                
