 2011 12 1 0749 51.6 L   6.803 -73.314124.0  RSN  7 0.3 1.6LRSN                1
 GAP= 99        0.60       3.5     4.6  5.4 -0.9735E+00  0.2639E+01  0.4544E+00E
 Epicentro: ZAPATOCA - SANTANDER                                               3
 ACTION:UPD 12-07-13 16:13 OP:ep   STATUS:               ID:20111201074951 L   I
 2011-12-01-0747-02S.COL___161                                                 6
 STAT SP IPHASW D HRMM SECON CODA AMPLIT PERI AZIMU VELO AIN AR TRES W  DIS CAZ7
 BAR2 SZ EP        750  8.74                             167   -0.0210 27.4 148 
 BAR2 SZ ES   2    750 21.51                             167   -0.61 5 27.4 148 
 BAR2 SZ I         750 25.63        13.0 0.40                          27.4 148 
 BRR  HZ EP        750  9.45                             154   -0.1010 55.4 307 
 BRR  HZ I         750  9.76        13.8 0.16                          55.4 307 
 BRR  HN ES   1    750 23.79                             154    0.27 7 55.4 307 
 PAM  SZ EP        750 12.80                             142    0.3010 90.2  49 
 PAM  SN ES   1    750 28.95                             142    0.18 7 90.2  49 
 RUS  HZ EP        750 13.53                             138   -0.0510  104 166 
 RUS  HN ES   2    750 30.68                             138   -0.01 5  104 166 
 RUS  HZ I         750 32.81         3.8 0.28                           104 166 
 OCA  SZ EP        750 17.76                             125   -0.45 9  159 360 
 OCA  SZ I         750 42.40         8.0 0.17                           159 360 
 NOR  SZ EP   2    750 24.93                             115    0.36 4  220 232 
 HEL  HZ EP   2    750 29.36                             112    0.56 4  254 255 
 HEL  HZ I         751  4.00         2.5 0.30                           254 255 
                                                                                
