 2013  1 1 0932  5.6 L   6.743 -73.101150.8  RSN  4 0.2 1.2LRSN                1
 GAP=238        0.57       4.9     5.5  5.6  0.1152E+02  0.1026E+02 -0.9420E+00E
 Epicentro: JORDAN - SANTANDER                                                 3
 ACTION:UPD 13-02-15 09:11 OP:ep   STATUS:               ID:20130101093205 L   I
 2013-01-01-0930-00M.COL___242                                                 6
 STAT SP IPHASW D HRMM SECON CODA AMPLIT PERI AZIMU VELO AIN AR TRES W  DIS CAZ7
 BAR2 SZ ES        932 41.25                             173   -0.2710 18.9 209 
 BAR2 SZ I         932 43.72         3.0 0.26            169           18.9 209 
 BRR  HZ EP        932 27.98                             151    0.2210 78.7 301 
 BRR  HZ I         932 29.25         2.0 0.76            149           78.7 301 
 BRR  HN ES        932 45.10                             151    0.0910 78.7 301 
 RUS  HN ES        932 48.17                             147    0.1710 94.0 179 
 PTB  HZ EP        932 33.07                             132   -0.30 9  152 262 
 PTB  HN ES        932 55.05                             132    0.06 9  152 262 
 PTB  HN I         932 59.74         3.1 0.28            131            152 262 
                                                                                
