 2017  6 1 0321 38.2 L   6.808 -73.356117.5  RSN 10 0.4 1.7LRSN                1
 GAP=195        1.17       4.5     4.7  7.3  0.6651E+01 -0.1189E+01  0.4406E+01E
 Epicentro: ZAPATOCA - SANTANDER                                               3
 ACTION:UPD 17-09-14 16:48 OP:jn   STATUS:               ID:20170601032138 L   I
 OLDACT:REG 17-06-01 12:38 OP:and  STATUS:               ID:20170601031737     3
 2017-06-01-0318-00M.COL___356                                                 6
 STAT SP IPHASW D HRMM SECON CODA AMPLIT PERI AZIMU VELO AIN AR TRES W  DIS CAZ7
 BRR  HZ IP     D  321 54.76                             154   -0.4110 51.4 310 
 BRR  HN ES        322  8.33                             154   -0.0910 51.4 310 
 BRR  HZ I         322 21.00         8.1 0.10            157           51.4 310 
 RUS  HZ EP        321 59.44                             135   -0.2610  106 163 
 RUS  HE ES        322 16.61                             135    0.1210  106 163 
 RUS  HZ I         322 18.08         6.7 0.26            142            106 163 
 PTB  HZ EP   9    321 59.13                             129   -1.68 0  125 256 
 PTB  HN ES        322 15.51                                   -1.2810  125 256 
 PTB  HZ I         322 20.14         8.5 0.20            135            125 256 
 SPBC HZ EP   9    322  2.80                             123   -0.57 0  150 212 
 SPBC HN ES        322 21.98                                   -0.47 9  150 212 
 SPBC HZ I         322 31.89         8.8 0.19            130            150 212 
 ZAR  HZ EP        322  6.54                             117   -0.05 9  182 295 
 ZAR  HN ES        322 29.27                             117    0.51 9  182 295 
 ZAR  HZ I         322 33.04         9.4 0.22            124            182 295 
 YPLC HZ EP        322  7.74                             116    0.25 9  190 145 
 YPLC HN ES   4    322 31.55                             116    1.20 0  190 145 
 YPLC HZ I         322 32.89        10.1 0.28            124            190 145 
 NOR  HZ EP        322  9.84                             113   -0.58 8  217 231 
 NOR  HN ES        322 35.37                             113   -0.20 8  217 231 
 NOR  HZ I         322 39.57         6.8 0.40            119            217 231 
 CHI  HZ EP        322 13.89                             110   -0.12 8  244 190 
 CHI  HN ES        322 42.31                             110    0.36 8  244 190 
 HEL  HZ EP   2    322 15.32                             110    0.76 4  250 254 
 HEL  HN ES        322 43.52                             110    0.58 8  250 254 
 HEL  HZ I         322 47.37         3.3 0.22            116            250 254 
 CBOC HZ EP   9    322 23.25                             105    1.73 0  312 251 
 CBOC HN ES        322 57.53                                    0.48 7  312 251 
 CBOC HZ I         322 58.47         1.8 0.16            110            312 251 
                                                                                
