 2013  2 1 0219 16.9 L   5.966 -73.751106.9  RSN  5 0.4 1.4LRSN                1
 GAP=130        0.99       3.4     4.9 10.3  0.4126E+01  0.1944E+02  0.1109E+02E
 Epicentro: GUAVATA - SANTANDER                                                3
 ACTION:UPD 13-03-12 09:29 OP:ep   STATUS:               ID:20130201021916 L   I
 2013-02-01-0217-52M.COL___177                                                 6
 STAT SP IPHASW D HRMM SECON CODA AMPLIT PERI AZIMU VELO AIN AR TRES W  DIS CAZ7
 RUS  HZ EP     D  219 34.48                             143   -0.5010 74.4  96 
 RUS  HN ES        219 48.90                             143   -0.1510 74.4  96 
 RUS  HN I         219 50.99         3.2 0.48            153           74.4  96 
 BAR2 SZ ES        219 51.13                             136    0.0010 93.6  42 
 BAR2 SZ I         219 52.88        15.9 0.36            145           93.6  42 
 PTB  HZ EP        219 35.83                             133   -0.6210  101 309 
 PTB  HN ES        219 51.61                             133   -0.0610  101 309 
 PTB  HN I         219 58.06         3.8 0.24            137            101 309 
 BRR  HZ EP        219 39.04                             126    0.1910  126   2 
 BRR  HN ES        219 56.55                             126    0.6110  126   2 
 BRR  HN I         220  0.31        13.8 0.48            133            126   2 
 CHI  HZ EP        219 41.95                             122    0.37 9  148 179 
 CHI  HE ES        220  1.11                             122    0.30 9  148 179 
 CHI  HE I         220  3.12         2.6 0.22            129            148 179 
                                                                                
