 2017  1 1 0700 42.4 L   7.485 -73.125128.5  RSN  5 0.2 1.4LRSN                1
 GAP=273        0.59       4.8     4.7  5.8  0.6150E+01  0.6408E+01 -0.7444E+01E
 Epicentro: EL PLAYON - SANTANDER                                              3
 ACTION:UPD 17-05-22 15:54 OP:jn   STATUS:               ID:20170101070042 L   I
 OLDACT:REG 17-01-01 13:48 OP:dnl  STATUS:               ID:20170101065744     3
 2017-01-01-0658-00M.COL___372                                                 6
 STAT SP IPHASW D HRMM SECON CODA AMPLIT PERI AZIMU VELO AIN AR TRES W  DIS CAZ7
 BRR  HZ EP        7 1  2.37                             147    0.2710 77.1 237 
 BRR  HE ES        7 1 17.61                             147    0.1510 77.1 237 
 BRR  HZ I         7 1 18.26         3.6 0.10            140           77.1 237 
 BAR2 EZ ES        7 1 20.70                             140   -0.1810 99.0 184 
 BAR2 EZ I         7 1 21.73        10.1 0.32            136           99.0 184 
 PTB  HZ EP        7 1 10.99                             122   -0.32 9  180 235 
 PTB  HE ES        7 1 33.65                             122   -0.20 9  180 235 
 PTB  HZ I         7 1 36.81         2.9 0.18            118            180 235 
 ZAR  HZ EP        7 1 12.49                             120    0.06 9  191 270 
 ZAR  HN ES        7 1 35.72                             120   -0.12 9  191 270 
 ZAR  HZ I         7 1 40.44         2.3 0.24            117            191 270 
 NOR  HZ EP   4    7 1 25.31                             110    2.20 0  287 222 
 NOR  HE ES        7 1 55.25                             110    0.39 7  287 222 
 NOR  HZ I         7 2  0.71         1.5 0.28            108            287 222 
                                                                                
