 2017  8 1 0754 45.7 L   6.799 -73.120147.4  RSN 14 0.7 1.9LRSN                1
 GAP=100        1.52       4.7     4.2  7.3  0.2337E+01  0.5026E+01  0.9297E+01E
 Epicentro: LOS SANTOS - SANTANDER                                             3
 ACTION:UPD 17-09-04 20:15 OP:rebc STATUS:               ID:20170801075445 L   I
 OLDACT:DUP 17-08-01 19:06 OP:osc  STATUS:               ID:20170801074744d    3
 2017-08-01-0748-00M.COL___383                                                 6
 STAT SP IPHASW D HRMM SECON CODA AMPLIT PERI AZIMU VELO AIN AR TRES W  DIS CAZ7
 BAR2 EZ IP     C  755  5.39                             170   -0.1610 23.9 197 
 BAR2 EZ ES        755 20.46                             170   -0.5710 23.9 197 
 BAR2 EZ I         755 21.86        28.5 0.20            168           23.9 197 
 BRR  HZ IP     C  755  7.20                             152    0.0110 73.8 298 
 BRR  HE ES        755 24.56                             152    0.6210 73.8 298 
 BRR  HZ I         755 28.30        14.4 0.14            151           73.8 298 
 PAM  EZ EP        755  8.13                             151    0.1210 75.7  38 
 PAM  EE ES        755 25.57                             151    0.1810 75.7  38 
 PAM  EZ I         755 27.56        15.0 0.50            156           75.7  38 
 RUS  HZ EP        755  9.45                             144   -0.1610  100 178 
 RUS  HN ES        755 28.17                             144   -0.0810  100 178 
 RUS  HZ I         755 29.30        15.3 0.30            145            100 178 
 PTB  HZ EP        755 12.20                             132   -0.87 9  151 259 
 PTB  HE ES        755 34.03                             132   -0.38 9  151 259 
 PTB  HZ I         755 40.53         6.1 0.28            132            151 259 
 TAM  HZ EP        755 13.75                             131    0.49 9  152 105 
 TAM  HN ES   2    755 35.29                             131    0.54 5  152 105 
 SPBC HZ EP        755 14.34                             129   -0.16 9  165 220 
 SPBC HE ES        755 36.87                             129   -0.09 9  165 220 
 SPBC HZ I         755 43.43        15.8 0.10            130            165 220 
 YPLC HZ EP        755 15.80                             127    0.32 9  175 152 
 YPLC HN ES        755 39.85                             127    1.14 9  175 152 
 YPLC HZ I         755 40.70        13.8 0.28            130            175 152 
 ZAR  HZ EP        755 18.09                             122   -0.46 8  207 292 
 ZAR  HE ES        755 43.72                             122   -0.44 8  207 292 
 ZAR  HZ I         755 54.51         5.6 0.36            123            207 292 
 NOR  HZ EP        755 21.93                             119    0.15 8  237 235 
 NOR  HE ES        755 49.10                             119   -0.82 8  237 235 
 NOR  HZ I         755 55.05         6.6 0.24            119            237 235 
 CHI  HZ EP        755 23.66                             117    0.09 8  249 196 
 CHI  HE ES        755 53.23                             117    0.13 8  249 196 
 CHI  HZ I         756  2.77         5.1 0.40            119            249 196 
 GUY2CHZ EP        755 30.76                             112    1.10 7  303 235 
 GUY2CHE ES        756  5.76                             112    1.83 7  303 235 
 GUY2CHZ I         756 11.35         4.4 0.34                           303 235 
 PTGC HZ EP        755 28.53                             112   -0.98 7  308 159 
 PTGC HN ES        756  1.81                             112   -1.87 7  308 159 
 CBOC HZ EP        755 33.63                             110    0.62 7  336 252 
 CBOC HN ES        756 10.42                             110    0.53 7  336 252 
 CBOC HZ I         756 13.51         1.2 0.24            111            336 252 
                                                                                
