 2012  6 1 0814 35.7 L   6.807 -73.208115.8  RSN  4 0.4 1.5LRSN                1
 GAP=178        0.79       6.0     6.8 10.9 -0.8592E+01  0.3918E+02 -0.2489E+02E
 Epicentro: ZAPATOCA - SANTANDER                                               3
 ACTION:UP  12-08-06 17:46 OP:ep   STATUS:               ID:20120601081432 L   I
 2012-06-01-0810-00M.COL___201                                                 6
 STAT SP IPHASW D HRMM SECON CODA AMPLIT PERI AZIMU VELO AIN AR TRES W  DIS CAZ7
 BAR2 SZ EP   1    814 52.05                             168    0.25 7 23.9 173 
 BAR2 SZ ES   1    815  4.16                             168   -0.16 7 23.9 173 
 BAR2 SZ I         815  8.21         6.3 0.37            170           23.9 173 
 PTB  HZ EP   1    814 59.05                             125   -0.75 7  141 258 
 PTB  HN ES   1    815 19.01                             125    0.46 7  141 258 
 OCA  HN ES   1    815 22.08                             122    0.02 7  159 356 
 ZAR  HZ EP   1    815  6.23                             116    0.53 6  197 293 
 ZAR  HN ES   1    815 28.74                             116   -0.33 6  197 293 
 ZAR  HZ I         815 36.01         4.3 0.28            120            197 293 
                                                                                
