 2013  1 1 0727 18.5 L   6.778 -73.173142.0  RSN  6 0.5 2.0LRSN                1
 GAP=180        1.31       4.5     8.2  8.5  0.3732E+01  0.1740E+00  0.1679E+01E
 Epicentro: LOS SANTOS - SANTANDER                                             3
 ACTION:UPD 13-02-15 09:11 OP:ep   STATUS:               ID:20130101072718 L   I
 2013-01-01-0720-00M.COL___242                                                 6
 STAT SP IPHASW D HRMM SECON CODA AMPLIT PERI AZIMU VELO AIN AR TRES W  DIS CAZ7
 BAR2 SZ EP        727 37.41                             171   -0.2210 20.6 183 
 BAR2 SZ I         727 37.88        15.6 0.18            171           20.6 183 
 BAR2 SZ ES        727 52.83                             171    0.2910 20.6 183 
 BRR  HZ EP        727 39.33                             152    0.1610 69.8 301 
 BRR  HN ES        727 56.05                             152    0.7710 69.8 301 
 BRR  HN I         727 56.49        30.1 0.20            152           69.8 301 
 RUS  HZ EP        727 41.58                             144   -0.1510 98.4 174 
 RUS  HN ES        727 59.52                             144   -0.3310 98.4 174 
 RUS  HN I         728  1.35        10.9 0.30            144           98.4 174 
 PTB  HZ EP        727 44.56                             132   -0.30 9  144 260 
 PTB  HN ES        728  5.02                             132   -0.39 9  144 260 
 PTB  HN I         728  7.32        18.7 0.24            132            144 260 
 OCA  HZ EP        727 46.83                             128    0.11 9  162 354 
 OCA  HE ES        728  8.09                             128   -0.64 9  162 354 
 OCA  HN I         728  8.52        18.8 0.40            130            162 354 
 CHI  HZ EP        727 57.05                             117    1.39 8  246 195 
 CHI  HN ES        728 24.08                             117   -0.56 8  246 195 
                                                                                
