 2016  7 1 0406 43.9 L   6.767 -73.193144.0  RSN  7 0.4 1.5LRSN                1
 GAP=230        0.87       4.7     5.3  6.4  0.9128E+01  0.9050E+01  0.1651E+01E
 Epicentro: ZAPATOCA - SANTANDER                                               3
 ACTION:UPD 17-03-29 16:45 OP:lp   STATUS:               ID:20160701040643 L   I
 OLDACT:REG 16-07-01 13:50 OP:ak   STATUS:               ID:20160701035745     3
 2016-07-01-0357-45M.COL___338                                                 6
 STAT SP IPHASW D HRMM SECON CODA AMPLIT PERI AZIMU VELO AIN AR TRES W  DIS CAZ7
 BAR2 EZ EP        4 7  2.97                             172   -0.2910 19.3 177 
 BAR2 EZ ES        4 7 18.18                             172   -0.1610 19.3 177 
 BAR2 EZ I         4 7 19.56         6.9 0.14            170           19.3 177 
 BRR  HZ IP     C  4 7  4.79                             153    0.0610 68.6 303 
 BRR  HN ES        4 7 21.45                             153    0.4910 68.6 303 
 BRR  HZ I         4 7 25.95         5.0 0.16            152           68.6 303 
 RUS  HZ EP   2    4 7  7.31                             145    0.05 5 97.4 173 
 RUS  HN ES        4 7 25.71                             145    0.2310 97.4 173 
 RUS  HZ I         4 7 26.86         5.7 0.34            147           97.4 173 
 PTB  HZ EP        4 7  9.40                             133   -0.81 9  142 260 
 PTB  HN ES        4 7 30.51                             133   -0.21 9  142 260 
 PTB  HZ I         4 7 36.41         2.2 0.11            133            142 260 
 SPBC HZ EP        4 7 11.81                             130    0.11 9  157 218 
 SPBC HN ES        4 7 33.57                             130    0.20 9  157 218 
 SPBC HZ I         4 7 37.30         6.6 0.18            131            157 218 
 ZAR  HZ EP   2    4 7 16.90                             123    1.00 4  201 294 
 ZAR  HN ES        4 7 40.88                             123    0.04 9  201 294 
 GUY2CHZ EP   2    4 7 27.32                             113    0.60 4  295 235 
 GUY2CHE ES   4    4 8  2.09                             113    1.98 0  295 235 
 GUY2CHZ I         4 8  9.14         1.7 0.36                           295 235 
                                                                                
