 2016  4 1 0209 24.3 L   6.753 -73.203124.8  RSN  4 0.5 1.1LRSN                1
 GAP=238        1.02       9.4     7.9  9.4  0.5004E+02  0.1210E+02 -0.1905E+02E
 Epicentro: VILLANUEVA - SANTANDER                                             3
 ACTION:UPD 16-05-05 14:17 OP:rebc STATUS:               ID:20160401020924 L   I
 OLDACT:DUP 16-04-01 14:24 OP:ak   STATUS:               ID:20160401015746d    3
 2016-04-01-0157-45M.COL___315                                                 6
 STAT SP IPHASW D HRMM SECON CODA AMPLIT PERI AZIMU VELO AIN AR TRES W  DIS CAZ7
 BAR2 EZ EP   2    2 9 40.35                             171   -0.92 5 17.9 173 
 BAR2 EZ ES        2 9 54.41                             171   -0.1110 17.9 173 
 BAR2 EZ I         2 9 57.08         7.2 0.36            166           17.9 173 
 RUS  HZ EP        2 9 45.36                             140   -0.3010 96.1 172 
 RUS  HE ES        210  2.84                             140    0.4910 96.1 172 
 RUS  HZ I         210  4.53         1.3 0.32            140           96.1 172 
 PTB  HZ EP   2    2 9 48.09                             128   -0.83 5  141 260 
 PTB  HN ES        210  7.87                             128   -0.28 9  141 260 
 PTB  HZ I         210 14.25         1.8 0.29            128            141 260 
 ZAR  HZ EP        2 9 55.77                             118    0.74 9  200 294 
 ZAR  HE ES        210 19.08                             118    0.05 9  200 294 
                                                                                
