 2015 10 1 0555  3.9 L   6.735 -73.105132.0  RSN  5 0.3 1.3LRSN                1
 GAP=267        0.82       5.5     5.8  6.1 -0.6447E+01  0.6828E+01  0.1025E+02E
 Epicentro: JORDAN - SANTANDER                                                 3
 ACTION:UPD 15-12-22 20:36 OP:cam  STATUS:               ID:20151001055503 L   I
 OLDACT:UP  15-10-01 17:20 OP:ak   STATUS:               ID:20151001054744     3
 OLDACT:REG 15-10-01 14:02 OP:spq  STATUS:               ID:20151001054744     3
 2015-10-01-0547-44M.COL___358                                                 6
 STAT SP IPHASW D HRMM SECON CODA AMPLIT PERI AZIMU VELO AIN AR TRES W  DIS CAZ7
 BAR2 EZ EP        555 21.56                             172   -0.1710 18.0 209 
 BAR2 EZ ES        555 35.80                             172    0.1310 18.0 209 
 BAR2 EZ I         555 38.22         5.1 0.14            169           18.0 209 
 BRR  HZ EP        555 23.86                             147   -0.1610 78.7 302 
 BRR  HN ES        555 40.17                             147    0.4310 78.7 302 
 PTB  HZ EP        555 29.90                             128   -0.15 9  151 262 
 PTB  HE ES        555 49.93                             128   -0.56 9  151 262 
 PTB  HZ I         555 52.65         1.8 0.11            130            151 262 
 SPBC HZ EP        555 30.87                             126   -0.22 9  161 222 
 SPBC HN ES        555 52.32                             126   -0.01 9  161 222 
 SPBC HZ I         555 55.63         3.8 0.10            127            161 222 
 GUY2CHZ EP        555 47.47                             110    0.64 7  301 236 
 GUY2CHN ES        556 20.81                             110    0.46 7  301 236 
 GUY2CHZ I         556 27.03         1.1 0.30                           301 236 
                                                                                
