 2013  2 1 0850  1.2 L   6.817 -73.123144.0  RSN 12 0.5 2.8LRSN                1
 GAP= 72        1.25       3.8     3.7  6.4  0.9359E+00  0.4714E+01  0.4767E+01E
 Epicentro: LOS SANTOS - SANTANDER                                             3
 ACTION:UPD 13-03-12 09:29 OP:ep   STATUS:               ID:20130201085001 L   I
 2013-02-01-0848-44M.COL___176                                                 6
 STAT SP IPHASW D HRMM SECON CODA AMPLIT PERI AZIMU VELO AIN AR TRES W  DIS CAZ7
 BAR2 SZ EP        850 20.70                             169    0.0110 25.8 195 
 BAR2 SZ ES        850 35.63                             169   -0.2510 25.8 195 
 BAR2 SZ I         850 37.36       158.8 0.52            164           25.8 195 
 BRR  HZ IP     D  850 22.41                             152    0.1510 72.6 296 
 BRR  HN ES        850 39.53                             152    0.8710 72.6 296 
 BRR  HN I         850 40.02       147.2 0.28            147           72.6 296 
 PAM  SZ EP        850 23.22                             152    0.1510 74.3  39 
 PAM  SN ES        850 40.41                             152    0.3110 74.3  39 
 PAM  SN I         850 40.80        72.0 0.42            150           74.3  39 
 RUS  HZ EP     C  850 24.63                             143   -0.3010  102 178 
 RUS  HN ES        850 43.16                             143   -0.2610  102 178 
 RUS  HN I         850 45.38        36.2 0.56            136            102 178 
 PTB  HZ EP        850 27.31                             131   -1.00 9  151 258 
 PTB  HN ES        850 48.72                             131   -0.71 9  151 258 
 PTB  HN I         850 54.31       115.0 0.60            125            151 258 
 TAM  HZ IP     C  850 28.80                             131    0.22 9  153 106 
 TAM  HN ES        850 50.17                             131    0.25 9  153 106 
 TAM  HN I         850 51.23       100.3 0.50            125            153 106 
 OCA  HZ EP        850 28.58                             130   -0.66 9  159 352 
 OCA  HN ES        850 50.48                             130   -0.62 9  159 352 
 OCA  HN I         850 54.59       134.4 0.24            126            159 352 
 ZAR  HZ EP        850 34.29                             122    0.57 8  206 291 
 ZAR  HN ES        850 59.15                             122    0.08 8  206 291 
 ZAR  HN I         851  3.91       118.6 0.68            117            206 291 
 CHI  HZ EP        850 38.94                             116   -0.16 8  251 196 
 CHI  HN ES        851  8.66                             116    0.02 8  251 196 
 CHI  HN I         851 12.33        34.6 0.38            111            251 196 
 ROSC BZ EP        850 40.40                             116    0.83 8  256 211 
 HEL  HZ EP        850 42.57                             114    0.90 8  275 256 
 HEL  HN ES        851 13.77                             114    0.55 8  275 256 
 HEL  HN I         851 20.51        21.9 0.40            109            275 256 
 VIL  SZ EP        850 44.36                             111   -0.47 7  306 192 
 VIL  SN I         851 29.83        54.5 0.50            107            306 192 
                                                                                
