 2016  9 1 0128  9.7 L   6.536 -73.799 74.7  RSN  6 0.8 1.4LRSN                1
 GAP= 98        1.81       7.2     5.7 17.6  0.1301E+02  0.4261E+02  0.6222E+02E
 Epicentro: CIMITARRA - SANTANDER                                              3
 ACTION:UPD 17-08-17 21:05 OP:lp   STATUS:               ID:20160901012810 L   I
 OLDACT:UP  16-09-05 11:08 OP:and  STATUS:               ID:20160901012810 L   3
 OLDACT:DUP 16-09-01 14:04 OP:drio STATUS:               ID:20160901011737d    3
 OLDACT:DUP 16-09-01 13:56 OP:drio STATUS:               ID:20160901011736d    3
 OLDACT:UP  16-09-01 13:53 OP:drio STATUS:               ID:20160901011735d    3
 OLDACT:DUP 16-09-01 13:27 OP:drio STATUS:               ID:20160901011735d    3
 2016-09-01-0118-00M.COL___359                                                 6
 STAT SP IPHASW D HRMM SECON CODA AMPLIT PERI AZIMU VELO AIN AR TRES W  DIS CAZ7
 BRR  HZ EP        128 22.60                             135   -0.5710 63.9   9 
 BRR  HN ES        128 34.74                             135    1.0510 63.9   9 
 BAR2 HZ EP   3    128 23.97                             133    0.07 2 68.5  85 
 BAR2 HZ ES        128 35.02                             133    0.0210 68.5  85 
 BAR2 HZ I         128 36.36        16.3 0.18            131           68.5  85 
 PTB  HZ EP   3    128 22.37                             131   -1.62 2 72.7 270 
 PTB  HE ES        128 34.07                             131   -1.0810 72.7 270 
 PTB  HZ I         128 34.73         7.1 0.10            131           72.7 270 
 RUS  HZ EP     D  128 27.51                             120   -0.5110  107 132 
 RUS  HE ES        128 42.51                             120    0.1910  107 132 
 RUS  HZ I         128 44.32         7.5 0.96            118            107 132 
 ZAR  HZ EP   4    128 35.01                             109    1.84 0  158 312 
 ZAR  HN ES        128 51.67                             109    0.18 9  158 312 
 ZAR  HZ I         128 53.02         6.5 0.42            108            158 312 
 GUY2CHZ EP        128 41.43                             103   -0.45 8  226 230 
 GUY2CHN ES        129  8.68                             103    1.69 8  226 230 
 GUY2CHZ I         129 13.76         1.7 0.38                           226 230 
                                                                                
