 2013 10 1 0752 21.2 L   6.783 -73.187152.4  RSN  4 0.4 1.1LRSN                1
 GAP=232        1.00       6.3     7.5  9.0  0.1405E+02 -0.4770E+01  0.1850E+01E
 Epicentro: LOS SANTOS - SANTANDER                                             3
 ACTION:UPD 13-11-25 09:18 OP:ep   STATUS:               ID:20131001075221 L   I
 OLDACT:REG 13-10-01 05:52 OP:nd   STATUS:               ID:20131001074959     3
 2013-10-01-0749-59M.COL___272                                                 6
 STAT SP IPHASW D HRMM SECON CODA AMPLIT PERI AZIMU VELO AIN AR TRES W  DIS CAZ7
 BRR  HZ EP        752 42.82                             155   -0.0710 68.2 302 
 BRR  HN ES        753  0.26                             155    0.4310 68.2 302 
 BRR  HZ I         753  0.28         3.9 0.32            152           68.2 302 
 RUS  HZ EP     D  752 45.49                             146    0.0110 99.1 173 
 RUS  HE ES        753  4.06                             146   -0.3910 99.1 173 
 RUS  HZ I         753  5.59         1.0 0.32            143           99.1 173 
 PTB  HZ EP        752 47.96                             134   -0.31 9  143 259 
 PTB  HN ES        753  8.81                             134   -0.59 9  143 259 
 PTB  HZ I         753 13.58         1.5 0.36            132            143 259 
 SPBC HZ EP        752 50.23                             131    0.44 9  159 218 
 SPBC HN ES        753 12.65                             131    0.53 9  159 218 
 SPBC HZ I         753 18.14         1.2 0.18            129            159 218 
                                                                                
