 2011 10 1 0118  9.6 L   6.809 -73.156141.1  RSN 15 0.4 3.0LRSN                1
 GAP=112        0.77       2.5     3.5  4.9 -0.1079E+01  0.4695E+01  0.3121E+01E
 Epicentro: LOS SANTOS - SANTANDER                                             3
 ACTION:UPD 12-07-13 16:01 OP:ep   STATUS:               ID:20111001011809 L   I
 2011-10-01-0116-35S.COL___168                                                 6
 STAT SP IPHASW D HRMM SECON CODA AMPLIT PERI AZIMU VELO AIN AR TRES W  DIS CAZ7
 BAR2 SZ EP        118 28.79                             170    0.0910 24.2 187 
 BAR2 SZ ES   1    118 43.29                             170   -0.30 7 24.2 187 
 BAR2 SZ I         118 44.91       163.2 0.24                          24.2 187 
 BRR  HZ EP        118 30.55                             152    0.3710 69.7 298 
 BRR  HE ES   1    118 46.98                             152    0.77 7 69.7 298 
 BRR  HZ I         118 50.78       230.1 0.06                          69.7 298 
 PAM  SZ EP        118 31.44                             150    0.1110 77.3  41 
 PAM  SN ES   1    118 48.14                             150   -0.13 7 77.3  41 
 RUS  HZ EP        118 32.83                             142   -0.1610  102 175 
 RUS  HN ES   1    118 51.08                             142   -0.15 7  102 175 
 RUS  HZ I         118 53.03        87.3 0.50                           102 175 
 OCA  SZ EP        118 37.19                             129   -0.27 9  159 354 
 OCA  SZ ES   1    118 59.13                             129   -0.04 7  159 354 
 OCA  SZ I         119  3.60       122.6 0.19                           159 354 
 YOP  SZ EP   1    118 39.67                             125    0.20 7  180 153 
 YOP  SZ I         119  6.38        30.1 0.14                           180 153 
 ZAR  HZ EP   1    118 41.11                             121   -0.50 6  203 292 
 ZAR  HN ES   1    119  5.97                             121   -0.60 6  203 292 
 ZAR  HZ I         119 12.35       113.9 0.44                           203 292 
 NOR  SZ EP        118 45.14                             117    0.09 8  234 234 
 NOR  SN ES   1    119 11.86                             117   -0.82 6  234 234 
 CHI  HZ EP   1    118 46.73                             116   -0.41 6  249 195 
 CHI  HN ES   1    119 15.98                             116   -0.42 6  249 195 
 CHI  HZ I         119 24.43        72.4 0.58                           249 195 
 ROSC BE ES   1    119 17.57                             116    0.49 6  253 211 
 ROSC BZ I         119 22.39       104.7 0.27                           253 211 
 HEL  HZ EP   1    118 49.85                             114    0.35 6  271 256 
 HEL  HN ES   1    119 20.31                             114   -0.30 6  271 256 
 HEL  HZ I         119 28.73        53.5 0.17                           271 256 
 VIL  SZ EP   1    118 52.74                             111   -0.18 5  304 191 
 VIL  SN ES   1    119 26.81                             111    0.12 5  304 191 
 VIL  SZ I         119 35.48        46.9 0.42                           304 191 
 RREF HZ EP   1    118 55.54                             110    0.00 5  322 229 
 RREF HN ES   1    119 32.09                             110    0.73 5  322 229 
 RREF HZ I         119 38.84        68.6 0.50                           322 229 
 TOL  SZ EP        118 58.63                             108    0.95 7  343 224 
 PRA  HZ EP   1    119  2.42                             106   -0.60 4  392 209 
 PRA  HN ES   1    119 44.64                             106   -0.03 4  392 209 
                                                                                
