 2016 12 1 0106 35.8 L   6.799 -73.141150.0  RSN  6 0.5 1.6LRSN                1
 GAP=152        0.94       7.5     5.1  7.1 -0.2797E+01  0.1101E+02  0.1396E+02E
 Epicentro: LOS SANTOS - SANTANDER                                             3
 ACTION:UPD 17-01-11 20:11 OP:rebc STATUS:               ID:20161201010635 L   I
 OLDACT:UP  16-12-01 14:16 OP:dani STATUS:               ID:20161201005742     3
 OLDACT:REG 16-12-01 12:44 OP:dani STATUS:               ID:20161201005742     3
 2016-12-01-0058-00M.COL___339                                                 6
 STAT SP IPHASW D HRMM SECON CODA AMPLIT PERI AZIMU VELO AIN AR TRES W  DIS CAZ7
 BAR2 EZ EP        1 6 55.87                             171   -0.0810 23.3 191 
 BAR2 EZ ES        1 7 11.59                             171   -0.0710 23.3 191 
 BAR2 EZ I         1 7 12.09        10.4 0.22            169           23.3 191 
 BRR  HZ EP        1 6 57.65                             153    0.2110 71.7 298 
 BRR  HE ES        1 7 14.87                             153    0.5510 71.7 298 
 BRR  HZ I         1 7 18.09         6.5 0.25            150           71.7 298 
 PAM  EZ EP        1 6 58.91                             152    0.4510 77.1  39 
 PAM  EE ES        1 7 15.66                             152   -0.4710 77.1  39 
 PAM  EZ I         1 7 17.73         5.3 0.32            156           77.1  39 
 PTB  HZ EP        1 7  2.58                             133   -0.59 9  148 259 
 PTB  HE ES   3    1 7 23.20                             133   -1.31 2  148 259 
 PTB  HZ I         1 7 28.75         5.2 0.62            132            148 259 
 ZAR  HN ES        1 7 33.87                             123   -0.28 9  205 292 
 ZAR  HZ I         1 7 38.85         4.8 0.29            123            205 292 
 NOR  HZ EP        1 7 12.05                             119    0.23 8  235 235 
 NOR  HN ES   3    1 7 41.05                             119    1.13 2  235 235 
 NOR  HZ I         1 7 45.20         3.0 0.47            120            235 235 
                                                                                
