 2010 12 1 0859 58.6 L   6.732 -73.196154.9  RSN  5 0.1 1.4LRSN                1
 GAP=159        0.48       3.3     7.9  7.1  0.1003E+02 -0.2828E+02 -0.8169E+01E
 Epicentro: VILLANUEVA - SANTANDER                                             3
 ACTION:UP  11-01-14 15:22 OP:pat  STATUS:               ID:20101201085958 L   I
 2010-12-01-0856-55S.COL___132                                                 6
 STAT SP IPHASW D HRMM SECON CODA AMPLIT PERI AZIMU VELO SNR AR TRES W  DIS CAZ7
 BAR2 SZ EP        9 0 18.97                             174    -0.310   16 175 
 BAR2 SZ I         9 0 33.24         9.9 1.00                            16 175 
 BRR  HZ EP        9 0 20.90                             154     0.210   71 306 
 BRR  HE ES   1    9 0 37.93                             154    -0.1 7   71 306 
 BRR  HZ I         9 0 40.31         5.8 0.12                            71 306 
 RUS  HZ EP        9 0 22.92                             147     0.110   94 172 
 RUS  HN ES   1    9 0 41.81                             147     0.1 7   94 172 
 RUS  HZ I         9 0 42.56         2.1 0.59                            94 172 
 GUE  SZ EP        9 0 24.90                             139     0.010  125  14 
 CHI  HE ES   2    9 1  4.86                             120    -0.2 4  240 194 
                                                                                
