 2017  7 1 0353 42.0 L   6.805 -73.143141.8  RSN 34 0.5 2.9LRSN                1
 GAP= 66        0.80       2.2     2.1  3.5 -0.3324E+00  0.1816E+01  0.1446E+01E
 Epicentro: LOS SANTOS - SANTANDER                                             3
 ACTION:UPD 17-08-30 15:28 OP:rebc STATUS:               ID:20170701035342 L   I
 OLDACT:UP  17-07-01 14:56 OP:and  STATUS:               ID:20170701034745     3
 OLDACT:UP  17-07-01 14:56 OP:and  STATUS:               ID:20170701034745     3
 OLDACT:UP  17-07-01 14:54 OP:and  STATUS:               ID:20170701034745     3
 OLDACT:UP  17-07-01 14:49 OP:and  STATUS:               ID:20170701034745     3
 OLDACT:UP  17-07-01 14:49 OP:and  STATUS:               ID:20170701034745     3
 OLDACT:UP  17-07-01 14:45 OP:and  STATUS:               ID:20170701034745     3
 OLDACT:REG 17-07-01 12:37 OP:and  STATUS:               ID:20170701034745     3
 2017-07-01-0348-00M.COL___377                                                 6
 STAT SP IPHASW D HRMM SECON CODA AMPLIT PERI AZIMU VELO AIN AR TRES W  DIS CAZ7
 BAR2 EZ IP     C  354  1.07                             170   -0.1410 23.9 190 
 BAR2 EZ ES        354 15.74                             170   -0.4210 23.9 190 
 BAR2 EZ I         354 16.95       247.9 0.22            169           23.9 190 
 BRR  HZ IP     C  354  2.97                             152    0.2110 71.1 298 
 BRR  HN ES        354 19.57                             152    0.6510 71.1 298 
 BRR  HZ I         354 23.07       132.6 0.28            150           71.1 298 
 PAM  EZ EP        354  3.92                             150    0.1210 76.8  40 
 PAM  EN ES        354 20.57                             150   -0.2010 76.8  40 
 PAM  EZ I         354 23.02       337.4 0.48            152           76.8  40 
 PTB  HZ EP   9    354  7.71                             131   -1.02 0  148 259 
 PTB  HN ES        354 28.13                             131   -0.39 9  148 259 
 PTB  HZ I         354 35.92        70.1 0.36            130            148 259 
 TAM  HZ IP     C  354  9.46                             129    0.06 9  155 105 
 TAM  HN ES   2    354 30.35                             129   -0.39 5  155 105 
 TAM  HZ I         354 37.44        26.7 0.56            132            155 105 
 SPBC HZ EP        354  9.99                             128   -0.31 9  164 219 
 SPBC HN ES        354 32.32                             128   -0.02 9  164 219 
 SPBC HZ I         354 35.36       144.5 0.18            128            164 219 
 YPLC HZ IP     C  354 11.53                             125   -0.06 9  177 151 
 YPLC HN ES        354 34.97                             125    0.33 9  177 151 
 YPLC HZ I         354 38.01       130.6 0.26            127            177 151 
 ZAR  HZ EP        354 14.18                             121   -0.06 9  204 292 
 ZAR  HE ES   3    354 40.47                             121    1.13 2  204 292 
 ZAR  HZ I         354 47.39       101.6 0.24            121            204 292 
 TABC EZ EP   3    354 19.41                             118    1.78 2  231 211 
 TABC EZ ES        354 46.36                             118    0.98 8  231 211 
 TABC EZ I         354 50.34        86.5 0.48            119            231 211 
 NOR  HZ EP        354 17.57                             117   -0.04 8  235 234 
 NOR  HN ES        354 45.30                             117   -0.04 8  235 234 
 NOR  HZ I         354 52.42        48.4 0.16            117            235 234 
 CHI  HZ EP        354 19.39                             116   -0.21 8  249 195 
 CHI  HN ES        354 48.15                             116   -0.73 8  249 195 
 CHI  HZ I         354 51.80        38.6 0.28            117            249 195 
 ROSC BZ EP   3    354 21.08                             116    1.06 2  253 211 
 ROSC BN ES        354 49.82                             116    0.18 8  253 211 
 ROSC BZ I         354 57.76        79.0 0.60            116            253 211 
 HEL  HZ EP   3    354 23.64                             114    1.54 2  272 256 
 HEL  HN ES        354 53.23                             114   -0.11 8  272 256 
 HEL  HZ I         354 58.17        33.8 0.26            114            272 256 
 URE  HZ EP   9    354 21.51                             113   -1.42 0  284 292 
 URE  HN ES        354 53.33                             112   -0.07 7  284 292 
 URE  HZ I         355  6.07        59.4 0.18            113            284 292 
 GUY2CHZ EP        354 25.65                             111    0.12 7  302 235 
 GUY2CHE ES   4    355  2.28                             111    2.83 0  302 235 
 GUY2CHZ I         355  6.11        40.2 0.28                           302 235 
 VIL  EZ IP     D  354 25.93                             111    0.58 7  304 192 
 VIL  EN ES   3    354 57.95                             111   -1.18 2  304 192 
 VIL  EZ I         355  7.59        56.6 0.34            112            304 192 
 PTGC HZ EP   3    354 24.20                             111   -1.58 2  309 159 
 PTGC HE ES   4    354 56.53                             111   -3.36 0  309 159 
 PTGC HZ I         354 59.93        74.9 0.38            112            309 159 
 LL6C HZ EP   9    354 25.85                             110   -1.67 0  324 358 
 LL6C HN ES        355  0.67                             110   -0.65 7  324 358 
 LL6C HZ I         355 10.30        13.9 0.32            110            324 358 
 CBOC HZ EP        354 29.38                             109    0.53 7  334 252 
 CBOC HN ES        355  4.95                             109   -0.40 7  334 252 
 CBOC HZ I         355 16.59        10.6 0.22            109            334 252 
 DBB  EZ EP        354 29.22                             109   -0.17 7  340 274 
 DBB  EN ES        355  5.24                             109   -1.07 7  340 274 
 DBB  EZ I         355  9.76        18.4 0.20            109            340 274 
 ARGC HZ EP   4    354 32.58                             107    1.08 0  359 340 
 ARGC HN ES   4    355 11.21                             107    1.14 0  359 340 
 ARGC HZ I         355 16.09        14.7 0.42            108            359 340 
 ORTC HZ EP        354 36.14                             106    0.23 6  396 216 
 ORTC HN ES   3    355 19.03                             106    1.12 1  396 216 
 ORTC HZ I         355 24.38        29.9 0.28            106            396 216 
 APAC HZ IP     C  354 35.64                             105   -0.47 6  398 288 
 APAC HN ES        355 18.16                             105   -0.12 6  398 288 
 APAC HZ I         355 22.28        14.9 0.36            106            398 288 
 PAL  HZ EP        354 37.11                             105   -0.03 6  406 239 
 PAL  HN ES        355 20.40                             105    0.29 6  406 239 
 PAL  HZ I         355 29.98        11.0 0.18            105            406 239 
 SJC  HZ EP   4    354 35.67                             105   -1.77 0  409 327 
 SJC  HN ES   4    355 17.13                             105   -3.52 0  409 327 
 SJC  HZ I         355 20.81        37.4 0.54            105            409 327 
 VALLCHZ EP   4    354 34.87                             105   -2.63 0  410 358 
 VALLCHN ES        355 20.66                             105   -0.09 6  410 358 
 CRJC HZ EP   9    354 41.69                             103   -2.68 0  467   4 
 CRJC HN ES   2    355 30.60                             103    0.30 2  467   4 
 CRJC HZ I         355 38.25        19.7 0.22            103            467   4 
 YOT  HZ EP        354 45.06                             102    0.01 5  472 229 
 YOT  HN ES        355 33.85                             102   -0.34 5  472 229 
 YOT  HZ I         355 41.46         3.3 0.48            103            472 229 
 GUA  EN ES   4    355 32.28                             102   -2.10 0  475 173 
 GUA  EZ I         355 37.17        25.2 0.28            103            475 173 
 SMAR HZ EP   4    354 46.03                             102   -1.73 0  497 346 
 SMAR HN ES   4    355 34.92                             102   -4.09 0  497 346 
 MACC HZ EP   4    354 48.20                             101   -2.53 0  521 189 
 MACC HN ES   4    355 40.74                             101   -3.57 0  521 189 
 MACC HZ I         355 47.12         7.6 0.66            101            521 189 
 MARO HZ EP   1    354 53.97                             101    0.92 3  538 216 
 URI  HZ EP   4    354 52.11                             100   -2.78 0  556  13 
 JAMC HZ EP        354 54.45                             100   -0.90 3  558 225 
 JAMC HN ES   4    355 51.17                             100   -1.35 0  558 225 
 GARC HN ES   4    355 53.24                             100   -2.74 0  573 207 
 GARC HZ I         355 56.09        12.4 0.44            100            573 207 
 POP2 HZ EP   4    355  4.11                              99    2.05 0  613 220 
 POP2 HN ES   4    356  1.66                              99   -2.80 0  613 220 
 POP2 HZ I         356  9.61         2.6 0.86             99            613 220 
                                                                                
