 2015  2 1 0654  6.3 L   6.081 -73.704115.9  RSN 20 0.4 2.3LRSN                1
 GAP=109        0.93       2.5     2.5  5.0 -0.2423E+01  0.3092E+01 -0.7876E+00E
 Epicentro: CHIPATA - SANTANDER                                                3
 ACTION:UPD 15-04-30 21:20 OP:nd   STATUS:               ID:20150201065406 L   I
 OLDACT:UP  15-02-01 17:03 OP:spq  STATUS:               ID:20150201064747     3
 OLDACT:REG 15-02-01 12:18 OP:spq  STATUS:               ID:20150201064747     3
 2015-02-01-0647-47M.COL___261                                                 6
 STAT SP IPHASW D HRMM SECON CODA AMPLIT PERI AZIMU VELO AIN AR TRES W  DIS CAZ7
 SPBC HZ IP     D  654 23.57                             150   -0.3510 62.5 221 
 SPBC HN ES        654 37.47                             150   -0.1610 62.5 221 
 SPBC HZ I         654 39.15        71.4 0.18            152           62.5 221 
 RUS  HZ EP        654 24.85                             146   -0.2410 71.8 107 
 RUS  HE ES   1    654 39.16                             146   -0.56 7 71.8 107 
 RUS  HZ I         654 40.53        39.7 0.30            149           71.8 107 
 BAR2 EZ IP     C  654 25.58                             143    0.2210 80.8  46 
 BAR2 EZ ES   1    654 40.57                             143    0.36 7 80.8  46 
 BRR  HZ EP        654 27.77                             132    0.0310  113 360 
 BRR  HE ES        654 45.01                             132    0.5810  113 360 
 BRR  HZ I         654 54.20        24.0 0.24            132            113 360 
 NOR  HZ EP        654 29.94                             126   -0.50 9  141 246 
 NOR  HN ES        654 49.51                             126    0.27 9  141 246 
 NOR  HZ I         654 51.03        88.3 0.18            127            141 246 
 HEL  HZ EP        654 37.52                             115    0.22 9  202 274 
 HEL  HE ES        655  0.75                             115   -0.71 9  202 274 
 HEL  HZ I         655  5.77        20.2 0.26            116            202 274 
 ZAR  HZ EP        654 36.86                             115    0.11 9  202 321 
 ZAR  HN ES        654 59.99                             115   -0.49 9  202 321 
 ZAR  HZ I         655  4.42        29.0 0.18            116            202 321 
 GUY2CHZ EP        654 38.24                             115    0.29 8  207 243 
 GUY2CHN ES        655  3.50                             115    0.90 8  207 243 
 GUY2CHZ I         655  7.26        25.0 0.70                           207 243 
 TAM  HZ EP        654 38.15                             114   -0.17 8  215  79 
 TAM  HN ES   1    655  3.30                             114    0.03 6  215  79 
 TAM  HZ I         655  5.97        13.9 0.20            115            215  79 
 RREF HZ EP        654 39.62                             113   -0.43 8  224 234 
 RREF HN ES   1    655  6.43                             113    0.08 6  224 234 
 RREF HZ I         655 11.36        22.7 0.26            114            224 234 
 OCA  HZ IP   1    654 41.51                             111   -0.01 6  242  10 
 OCA  HN ES   4    655 11.20                             111    2.22 0  242  10 
 OCA  HZ I         655 19.30        22.9 0.34            111            242  10 
 TOL  SZ EP        654 41.78                             111   -0.14 8  244 227 
 TOL  SE ES        655  9.95                             111    0.28 8  244 227 
 TOL  SZ I         655 13.80        19.0 0.62            112            244 227 
 CBOC HZ EP        654 43.56                             109    0.37 8  257 265 
 CBOC HE ES        655 11.24                             109   -0.70 8  257 265 
 CBOC HZ I         655 20.22         6.6 0.40            110            257 265 
 ANIL HE ES        655 13.15                             109    0.75 8  258 227 
 ANIL HZ I         655 16.54         4.9 0.36            111            258 227 
 PTGC HZ EP   4    654 43.48                             108   -1.18 0  271 140 
 PTGC HN ES   4    655 12.88                             108   -1.68 0  271 140 
 PTGC HZ I         655 19.50         5.1 0.50            110            271 140 
 URE  HZ EP   4    654 43.64                             108   -1.33 0  274 313 
 ORTC HZ EP        654 47.20                             106   -0.25 7  295 216 
 ORTC HN ES        655 19.52                             106   -0.01 7  295 216 
 ORTC HZ I         655 24.45        16.0 0.68            107            295 216 
 SML  HZ EP        654 48.56                             106    0.14 7  304 352 
 SML  HN ES   1    655 21.89                             106    0.65 5  304 352 
 PAL  HZ EP   1    654 50.24                             105    0.50 5  314 246 
 MON  HZ EP   4    654 54.50                             102   -1.62 0  369 324 
 MON  HN ES   1    655 34.09                             102   -0.87 5  369 324 
 MON  HZ I         655 36.57         2.3 0.18            103            369 324 
 YOT  HZ EP   4    654 55.80                             102   -1.08 0  374 232 
 MACC HZ EP   4    655  2.61                              99   -1.57 0  435 182 
 MACC HN ES   4    655 45.83                              99   -3.47 0  435 182 
 MACC HZ I         655 48.34         4.3 0.26            100            435 182 
                                                                                
