 2013 11 1 0903  9.2 L   6.825 -73.173143.9  RSN  6 0.5 1.2LRSN                1
 GAP=199        0.94       5.3     6.4 10.5  0.1407E+02  0.6358E+00 -0.8589E+01E
 Epicentro: LOS SANTOS - SANTANDER                                             3
 ACTION:UPD 14-01-09 16:24 OP:ep   STATUS:               ID:20131101090309 L   I
 OLDACT:REG 13-11-01 12:51 OP:jn   STATUS:               ID:20131101090000     3
 2013-11-01-0900-00M.COL___273                                                 6
 STAT SP IPHASW D HRMM SECON CODA AMPLIT PERI AZIMU VELO AIN AR TRES W  DIS CAZ7
 BRR  HZ EP   1    9 3 30.26                             154    0.34 8 67.3 298 
 BRR  HN ES   1    9 3 46.84                             154    0.75 8 67.3 298 
 BRR  HZ I         9 3 53.41         5.4 0.48            156           67.3 298 
 RUS  HZ EP        9 3 33.24                             143    0.2610  104 175 
 RUS  HN ES        9 3 51.08                             143   -0.4610  104 175 
 RUS  HZ I         9 3 52.26         1.5 0.26            150            104 175 
 PTB  HZ EP        9 3 35.69                             132   -0.11 9  145 258 
 PTB  HN ES        9 3 56.39                             132   -0.16 9  145 258 
 PTB  HZ I         9 3 57.97         1.9 0.30            138            145 258 
 ZAR  HE ES   1    9 4  5.28                             122   -0.75 6  200 292 
 NOR  HN ES   1    9 4 13.09                             118    0.64 6  234 233 
 SML  HN ES   1    9 4 13.16                             117   -0.31 6  240 336 
                                                                                
