 2017  1 1 0823 35.6 L   6.817 -73.032146.9  RSN 13 0.4 1.6LRSN                1
 GAP=172        1.15       4.7     6.0  6.4  0.6099E+01  0.2926E+00  0.8425E+01E
 Epicentro: CEPITA - SANTANDER                                                 3
 ACTION:UPD 17-05-22 15:54 OP:jn   STATUS:               ID:20170101082335 L   I
 OLDACT:UP  17-01-01 18:39 OP:dnl  STATUS:               ID:20170101081743     3
 OLDACT:UP  17-01-01 18:38 OP:dnl  STATUS:               ID:20170101081743     3
 OLDACT:REG 17-01-01 13:52 OP:dnl  STATUS:               ID:20170101081743     3
 2017-01-01-0818-00M.COL___372                                                 6
 STAT SP IPHASW D HRMM SECON CODA AMPLIT PERI AZIMU VELO AIN AR TRES W  DIS CAZ7
 BAR2 EZ EP        823 55.94                             168    0.3810 29.9 214 
 BAR2 EZ ES        824 10.96                             168   -0.1310 29.9 214 
 BAR2 EZ I         824 12.02         9.8 0.24            168           29.9 214 
 BRR  HZ EP        823 57.61                             150    0.0710 81.7 293 
 BRR  HE ES        824 14.67                             150    0.0610 81.7 293 
 BRR  HZ I         824 18.87         5.3 0.18            150           81.7 293 
 RUS  HZ EP        823 59.57                             143   -0.0610  102 183 
 RUS  HN ES        824 18.64                             143    0.2910  102 183 
 RUS  HZ I         824 20.10         5.3 0.17            144            102 183 
 PTB  HZ EP   9    824  2.52                             130   -1.35 0  160 259 
 PTB  HN ES        824 23.46                             131   -1.08 9  160 259 
 PTB  HZ I         824 25.55         3.9 0.16            130            160 259 
 ZAR  HZ EP        824  9.09                             121   -0.21 8  215 290 
 ZAR  HN ES   4    824 33.75                             121   -1.81 0  215 290 
 ZAR  HZ I         824 38.95         4.7 0.27            122            215 290 
 NOR  HZ EP        824 12.02                             117   -0.64 8  246 236 
 NOR  HE ES        824 41.30                             117   -0.23 8  246 236 
 NOR  HZ I         824 42.33         1.9 0.15            118            246 236 
 CHI  HZ EP        824 14.30                             117    0.32 8  254 198 
 CHI  HN ES        824 43.27                             117   -0.62 8  254 198 
 CHI  HZ I         824 46.74         2.4 0.38            117            254 198 
 ROSC BZ EP   4    824 10.31                             116   -4.41 0  261 213 
 ROSC BN ES        824 46.14                             116    0.93 8  261 213 
 PTGC HZ EP        824 18.98                             112   -0.28 7  306 161 
 PTGC HN ES        824 52.63                             112   -0.64 7  306 161 
 PTGC HZ I         824 59.72         1.6 0.26            112            306 161 
 LL1C HZ EP   9    824 21.03                             112    1.71 0  307 349 
 LL1C HN ES        824 55.10                                    0.00 7  307 349 
 GUY2CHZ EP   4    824 22.02                             112    1.43 0  313 236 
 GUY2CHE ES   4    824 57.47                             112    1.82 0  313 236 
 GUY2CHZ I         825  2.01         2.3 0.40                           313 236 
 ORTC HZ EP        824 30.42                             106   -0.23 6  404 217 
 ORTC HN ES        825 14.34                             106    0.78 6  404 217 
 ORTC HZ I         825 17.18         1.3 0.20            106            404 217 
 SJC  HZ EP   9    824 29.98                             106   -1.90 0  415 325 
 SJC  HN ES        825 12.48                             107   -1.37 6  415 325 
                                                                                
