 2016  9 1 0705 45.9 L   6.748 -73.180145.9  RSN  5 0.4 1.4LRSN                1
 GAP=229        1.15       6.7     7.2  8.5  0.1040E+02  0.8489E+01  0.5721E+01E
 Epicentro: VILLANUEVA - SANTANDER                                             3
 ACTION:UPD 17-08-17 21:05 OP:lp   STATUS:               ID:20160901070545 L   I
 OLDACT:DUP 16-09-01 18:50 OP:drio STATUS:               ID:20160901065739d    3
 2016-09-01-0658-00M.COL___352                                                 6
 STAT SP IPHASW D HRMM SECON CODA AMPLIT PERI AZIMU VELO AIN AR TRES W  DIS CAZ7
 BAR2 EZ EP        7 6  5.00                             173   -0.4110 17.2 181 
 BAR2 EZ ES        7 6 20.12                             173   -0.5410 17.2 181 
 BAR2 EZ I         7 6 21.16         9.7 0.36            170           17.2 181 
 BRR  HZ EP        7 6  7.06                             153    0.0410 70.9 304 
 BRR  HE ES        7 6 24.32                             153    0.8010 70.9 304 
 RUS  HZ EP        7 6  9.68                             145    0.4210 95.2 174 
 RUS  HE ES        7 6 27.55                             145    0.0510 95.2 174 
 RUS  HZ I         7 6 28.61         2.7 0.20            144           95.2 174 
 PTB  HZ EP        7 6 11.86                             133   -0.56 9  143 261 
 PTB  HE ES        7 6 32.72                             133   -0.41 9  143 261 
 PTB  HZ I         7 6 34.12         2.1 0.52            133            143 261 
 SPBC HZ EP        7 6 14.11                             130    0.38 9  156 219 
 SPBC HN ES        7 6 35.68                             130    0.21 9  156 219 
 SPBC HZ I         7 6 38.23         3.5 0.24            130            156 219 
                                                                                
