 2010 12 1 0406 55.9 L   6.801 -73.074147.4  RSN 12 0.4 2.2LRSN                1
 GAP=167        0.83       3.3     7.0  5.8 -0.8397E+01  0.5869E+00  0.1596E+01E
 Epicentro: LOS SANTOS - SANTANDER                                             3
 ACTION:UP  11-01-14 15:22 OP:pat  STATUS:               ID:20101201040655 L   I
 2010-12-01-0404-28S.COL___132                                                 6
 STAT SP IPHASW D HRMM SECON CODA AMPLIT PERI AZIMU VELO SNR AR TRES W  DIS CAZ7
 BAR2 SZ EP        4 7 15.97                             169     0.210   26 208 
 BAR2 SZ ES   1    4 7 30.57                             169    -0.7 7   26 208 
 BAR2 SZ I         4 7 32.08        36.9 0.13                            26 208 
 BRR  HZ EP        4 7 17.82                             150     0.210   78 296 
 BRR  HE ES   1    4 7 34.81                             150     0.2 7   78 296 
 BRR  HZ I         4 7 35.84        24.0 0.11                            78 296 
 RUS  HZ EP        4 7 19.95                             144     0.210  100 181 
 RUS  HE ES   1    4 7 38.86                             144     0.4 7  100 181 
 GUE  SZ EP        4 7 20.96                             140     0.310  115   8 
 GRA  SZ IP        4 7 20.80                             138    -0.310  124  14 
 GRA  SZ I         4 7 21.90        15.4 0.36                           124  14 
 GRA  SZ ES   1    4 7 40.44                             138    -0.3 7  124  14 
 OCA  SZ EP        4 7 24.36                             130    -0.1 9  161 350 
 OCA  SZ I         4 7 49.68        13.2 0.24                           161 350 
 NOR  SZ EP   1    4 7 32.13                             118    -0.3 6  241 236 
 NOR  SN ES   2    4 8  0.27                             118    -0.7 4  241 236 
 CHI  HZ EP        4 7 34.16                             117     0.2 8  251 197 
 CHI  HE ES   1    4 8  3.47                             117    -0.1 6  251 197 
 CHI  HZ I         4 8  7.12        12.9 0.34                           251 197 
 HEL  HZ EP   3    4 7 37.63                             114     0.6 2  280 256 
 HEL  HZ I         4 8 14.12         6.3 0.41                           280 256 
 GUY  SZ EP   3    4 7 40.06                             112    -0.3 2  308 236 
 GUY  SN ES   3    4 8 14.69                             112    -0.3 2  308 236 
 RREF HZ EP   2    4 7 43.30                             111     0.5 3  328 230 
 RREF HE ES   3    4 8 19.74                             111     0.4 2  328 230 
 RREF HZ I         4 8 28.04         8.0 0.33                           328 230 
 SJA  SZ EP        4 7 49.70                             106    -1.0 6  402 194 
 SJA  SZ I         4 8 35.29        12.4 0.36                           402 194 
                                                                                
