 2014  3 1 0455 54.5 L   6.802 -73.217136.1  RSN  6 0.4 1.5LRSN                1
 GAP=127        0.97       4.1     5.0  7.4 -0.2253E+01  0.1553E+02 -0.1053E+02E
 Epicentro: ZAPATOCA - SANTANDER                                               3
 OLDACT:REG 14-03-01 08:57 OP:stll STATUS:               ID:20140301044816     3
 ACTION:UPD 14-04-09 23:13 OP:nd   STATUS:               ID:20140301045554 L   I
 OLDACT:UP  14-03-01 13:17 OP:stll STATUS:               ID:20140301044816     3
 2014-03-01-0448-16M.COL___224                                                 6
 STAT SP IPHASW D HRMM SECON CODA AMPLIT PERI AZIMU VELO AIN AR TRES W  DIS CAZ7
 BAR2 SZ EP        456 12.92                             170   -0.0110 23.4 171 
 BAR2 SZ ES        456 27.59                             170    0.2610 23.4 171 
 BAR2 SZ I         456 28.37        21.9 0.26            172           23.4 171 
 PAM  SZ EP        456 16.09                             147    0.1110 82.5  44 
 PAM  SN ES        456 33.01                             147    0.2410 82.5  44 
 PAM  SZ I         456 36.36         3.3 1.00            149           82.5  44 
 RUS  HZ EP        456 17.27                             141   -0.0810  102 172 
 RUS  HN ES        456 34.62                             141   -0.5810  102 172 
 RUS  HZ I         456 36.20         3.8 0.24            145            102 172 
 PTB  HZ EP        456 20.18                             131    0.23 9  140 258 
 PTB  HN ES        456 39.78                             131   -0.04 9  140 258 
 PTB  HZ I         456 42.68         3.9 0.20            133            140 258 
 ZAR  HZ EP        456 26.30                             121    0.77 9  197 293 
 SML  HZ EP        456 29.90                             116   -0.30 8  240 337 
 SML  HN ES        456 57.30                             116   -0.77 8  240 337 
                                                                                
