 2013  6 1 0115 45.2 L   6.775 -73.144141.0  RSN 15 0.5 2.1LRSN                1
 GAP=138        0.92       2.9     3.9  6.2 -0.3252E+01  0.7754E+01  0.8566E+00E
 Epicentro: LOS SANTOS - SANTANDER                                             3
 ACTION:UPD 14-01-08 09:51 OP:ep   STATUS:               ID:20130601011545 L   I
 2013-06-01-0110-00M.COL___261                                                 6
 STAT SP IPHASW D HRMM SECON CODA AMPLIT PERI AZIMU VELO AIN AR TRES W  DIS CAZ7
 BAR2 SZ EP        116  4.30                             171    0.0710 20.7 192 
 BAR2 SZ I         116 22.02        28.5 0.30            167           20.7 192 
 GIR2 SZ EP        116  4.35                             166   -0.0610 34.0 351 
 GIR2 SZ I         116 20.82        13.2 0.34            160           34.0 351 
 BRR  HZ IP     C  116  6.18                             151    0.2310 72.7 300 
 BRR  HN ES   2    116 22.91                             151    0.79 5 72.7 300 
 BRR  HZ I         116 27.68        13.4 0.10            145           72.7 300 
 PAM  SZ IP     C  116  7.04                             149   -0.0210 79.4  38 
 PAM  SN ES        116 24.33                             149    0.2410 79.4  38 
 PAM  SZ I         116 26.47        15.6 0.20            136           79.4  38 
 RUS  HZ EP     D  116  8.17                             144   -0.1410 97.8 176 
 RUS  HN ES        116 26.13                             144   -0.1910 97.8 176 
 RUS  HZ I         116 28.14        11.1 0.40            132           97.8 176 
 PTB  HZ EP        116 11.17                             131   -0.61 9  147 260 
 PTB  HN ES        116 32.37                             131   -0.12 9  147 260 
 PTB  HZ I         116 38.19        19.6 0.42            122            147 260 
 OCA  HZ EP        116 13.70                             128    0.26 9  163 353 
 OCA  HN ES        116 35.27                             128   -0.17 9  163 353 
 OCA  HZ I         116 39.52        14.3 0.30            117            163 353 
 NOR  HZ EP        116 20.51                             118   -0.02 8  233 235 
 NOR  HN ES        116 47.37                             118   -0.70 8  233 235 
 NOR  HZ I         116 52.04        11.9 0.22            109            233 235 
 CHI  HZ EP        116 22.77                             116    0.39 8  246 195 
 CHI  HN ES   2    116 50.95                             116   -0.41 4  246 195 
 CHI  HZ I         117  0.50         4.9 0.34            108            246 195 
 SML  HZ EP        116 21.18                             116   -0.69 8  246 336 
 SML  HN ES   2    116 50.59                             116    0.14 4  246 336 
 SML  HZ I         116 52.87        37.2 0.26            108            246 336 
 HEL  HZ EP   1    116 25.72                             114    0.57 6  272 256 
 HEL  HN ES        116 57.09                             114    0.80 8  272 256 
 HEL  HZ I         117  2.48         3.2 0.26            107            272 256 
 URE  HZ EP   4    116 28.91                             112    2.70 0  285 292 
 URE  HN ES   4    116 56.69                             112   -1.48 0  285 292 
 URE  HZ I         117  3.15         8.1 0.14            105            285 292 
 GUY2CHZ EP   4    116 29.31                             111    0.85 0  300 235 
 GUY2CHN ES   4    117  3.58                             111    1.40 0  300 235 
 GUY2CHZ I         117 11.03         7.8 0.28                           300 235 
 COD  HZ EP   4    116 32.60                             108   -1.14 0  351 355 
 COD  HN ES   4    117  9.42                             108   -2.16 0  351 355 
 COD  HZ I         117 20.71         5.1 0.42            102            351 355 
 PRA  HZ EP        116 38.69                             106    0.37 6  390 210 
 PRA  HN ES   2    117 21.99                             106    2.26 3  390 210 
 PRA  HZ I         117 28.62         6.0 0.54            101            390 210 
                                                                                
