 2017  2 1 0054 13.7 L   6.752 -73.145149.0  RSN  5 0.2 1.1LRSN                1
 GAP=139        0.42       3.4     2.5  3.5 -0.3046E+01  0.9948E+00  0.8856E+00E
 Epicentro: LOS SANTOS - SANTANDER                                             3
 ACTION:UPD 17-05-24 15:31 OP:jn   STATUS:               ID:20170201005413 L   I
 OLDACT:REG 17-02-01 14:33 OP:dnl  STATUS:               ID:20170201004747     3
 2017-02-01-0048-00M.COL___322                                                 6
 STAT SP IPHASW D HRMM SECON CODA AMPLIT PERI AZIMU VELO AIN AR TRES W  DIS CAZ7
 BAR2 EZ EP   2    054 33.68                             173    0.01 5 18.2 193 
 BAR2 EZ ES        054 49.01                             173   -0.2010 18.2 193 
 BAR2 EZ I         054 51.44         2.7 0.28            169           18.2 193 
 BRR  HZ EP   2    054 35.10                             152   -0.29 5 73.9 302 
 BRR  HE ES        054 52.48                             152    0.2110 73.9 302 
 PAM  EZ EP        054 36.65                             150    0.1110 81.5  37 
 PAM  EN ES        054 54.26                             150   -0.0710 81.5  37 
 PAM  EZ I         054 55.92         2.1 0.20            155           81.5  37 
 RUS  HZ EP   2    054 37.30                             146   -0.14 5 95.3 176 
 RUS  HN ES   2    054 56.41                             146    0.48 5 95.3 176 
 RUS  HZ I         054 59.82         1.1 0.28            145           95.3 176 
 PTB  HZ EP        054 40.85                             133   -0.04 9  147 261 
 PTB  HN ES        055  2.04                             133   -0.03 9  147 261 
 PTB  HZ I         055  7.46         2.0 0.46            134            147 261 
                                                                                
