 2014  9 1 0327 59.7 L   6.786 -73.153145.7  RSN  8 0.4 2.1LRSN                1
 GAP=149        1.05       4.4     4.8  6.6 -0.4452E+01  0.8575E+01 -0.4058E+01E
 Epicentro: LOS SANTOS - SANTANDER                                             3
 ACTION:UPD 14-10-03 23:01 OP:nd   STATUS:               ID:20140901032759 L   I
 OLDACT:REG 14-09-01 18:44 OP:mh   STATUS:               ID:20140901032547     3
 2014-09-01-0325-47M.COL___263                                                 6
 STAT SP IPHASW D HRMM SECON CODA AMPLIT PERI AZIMU VELO AIN AR TRES W  DIS CAZ7
 BAR2 SZ EP        328 19.10                             171   -0.2310 21.7 188 
 BAR2 SZ ES        328 34.77                             171    0.1510 21.7 188 
 BRR  HZ EP        328 21.03                             153    0.1410 71.2 300 
 BRR  HN ES        328 37.48                             153    0.1010 71.2 300 
 PAM  SZ EP        328 22.22                             150    0.1610 79.1  39 
 PAM  SN ES        328 39.25                             150   -0.2110 79.1  39 
 PTB  HZ EP        328 25.65                             132   -0.95 9  147 259 
 PTB  HN ES        328 46.90                             132   -0.66 9  147 259 
 SPBC HZ EP        328 28.19                             129    0.12 9  161 219 
 SPBC HN ES        328 50.81                             129    0.64 9  161 219 
 OCA  HZ EP   4    328 25.84                             129   -2.34 0  162 354 
 OCA  HN ES   4    328 48.15                             129   -2.22 0  162 354 
 OCA  HZ I         328 53.62        10.9 0.13            128            162 354 
 ZAR  HZ EP        328 32.18                             122    0.02 9  204 293 
 ZAR  HN ES        328 58.00                             122    0.55 9  204 293 
 SML  HZ EP        328 36.99                             117    0.51 8  245 336 
 SML  HN ES        329  5.01                             117   -0.12 8  245 336 
 SML  HZ I         329  8.33        12.7 0.08            117            245 336 
                                                                                
