 2013 10 1 0437 54.1 L   6.759 -73.164140.1  RSN 12 0.4 2.2LRSN                1
 GAP=136        1.07       3.5     4.3  6.3 -0.2782E+01  0.8133E+01 -0.4130E+00E
 Epicentro: LOS SANTOS - SANTANDER                                             3
 ACTION:UPD 13-11-25 09:18 OP:ep   STATUS:               ID:20131001043754 L   I
 OLDACT:REG 13-10-01 05:43 OP:nd   STATUS:               ID:20131001043000     3
 2013-10-01-0430-00M.COL___271                                                 6
 STAT SP IPHASW D HRMM SECON CODA AMPLIT PERI AZIMU VELO AIN AR TRES W  DIS CAZ7
 BAR2 SZ IP     C  438 13.20                             172    0.2010 18.6 186 
 BAR2 SZ ES        438 27.98                             172    0.2710 18.6 186 
 BAR2 SZ I         438 29.08        52.4 0.44            169           18.6 186 
 BRR  HZ IP     D  438 15.15                             151    0.4410 71.7 302 
 BRR  HN ES   2    438 30.80                             151    0.05 5 71.7 302 
 BRR  HZ I         438 35.26        28.8 0.14            148           71.7 302 
 PAM  SZ EP        438 16.26                             148    0.2010 82.2  39 
 PAM  SN ES        438 32.76                             148   -0.4010 82.2  39 
 PAM  SZ I         438 35.21        35.7 0.44            153           82.2  39 
 RUS  HZ IP     D  438 17.14                             144    0.1210 96.2 175 
 RUS  HN ES        438 35.14                             144    0.2710 96.2 175 
 RUS  HZ I         438 36.41        13.7 0.24            146           96.2 175 
 PTB  HZ EP        438 19.74                             131   -0.65 9  145 260 
 PTB  HN ES        438 40.78                             131   -0.08 9  145 260 
 PTB  HZ I         438 46.63        18.7 0.36            130            145 260 
 SPBC HZ EP        438 22.14                             129    0.39 9  158 219 
 SPBC HN ES        438 42.43                             129   -0.85 9  158 219 
 SPBC HZ I         438 46.01        39.9 0.18            129            158 219 
 OCA  HZ EP        438 21.58                             127   -0.84 9  165 354 
 OCA  HN ES   4    438 42.97                             127   -1.52 0  165 354 
 OCA  HZ I         438 48.42        15.8 0.20            129            165 354 
 ZAR  HZ EP        438 26.84                             121    0.64 9  204 294 
 ZAR  HN ES        438 51.40                             121    0.18 9  204 294 
 ZAR  HZ I         438 57.27        21.8 0.54            121            204 294 
 NOR  HZ EP        438 29.62                             118    0.54 8  230 235 
 NOR  HN ES        438 56.30                             118   -0.03 8  230 235 
 NOR  HZ I         439  4.60        12.8 0.18            118            230 235 
 CHI  HZ EP        438 30.58                             116   -0.41 8  244 195 
 CHI  HN ES        438 59.61                             116   -0.13 8  244 195 
 CHI  HZ I         439  7.27         6.3 0.36            118            244 195 
 HEL  HZ EP   4    438 35.47                             114    1.75 0  269 257 
 HEL  HN ES   4    439  4.18                             114   -0.42 0  269 257 
 HEL  HZ I         439 13.82         7.1 0.32            114            269 257 
 GUY2CHZ EP   4    438 38.50                             112    1.50 0  297 235 
 GUY2CHN ES   4    439 12.52                             112    2.08 0  297 235 
 GUY2CHZ I         439 18.43         6.9 0.26                           297 235 
                                                                                
