 2017  1 1 0622 40.6 L   6.459 -73.601100.0  RSN  5 0.4 1.2LRSN                1
 GAP=163        0.78       5.0     3.7  8.8 -0.1749E+01  0.1673E+02  0.1656E+01E
 Epicentro: SANTA HELENA DEL OPON - SANTANDER                                  3
 ACTION:UPD 17-05-22 15:54 OP:jn   STATUS:               ID:20170101062240 L   I
 OLDACT:REG 17-01-01 13:46 OP:dnl  STATUS:               ID:20170101061744     3
 2017-01-01-0618-00M.COL___372                                                 6
 STAT SP IPHASW D HRMM SECON CODA AMPLIT PERI AZIMU VELO AIN AR TRES W  DIS CAZ7
 BAR2 EZ EP        622 55.61                             153   -0.2310 48.6  72 
 BAR2 EZ ES        623  8.04                             153    0.2910 48.6  72 
 BAR2 EZ I         623  9.49        13.9 0.42            157           48.6  72 
 BRR  HZ EP   4    622 59.22                             142    2.10 0 72.7 350 
 BRR  HE ES   4    623 11.85                             142    1.81 0 72.7 350 
 BRR  HZ I         623 19.01         2.3 0.48            141           72.7 350 
 PTB  HZ EP        622 58.44                             133   -0.5710 95.0 275 
 PTB  HN ES        623 13.37                             133   -0.0410 95.0 275 
 PTB  HZ I         623 14.86         3.6 0.18            136           95.0 275 
 NOR  HZ EP   2    623  7.65                             115    0.72 4  172 235 
 NOR  HN ES        623 27.69                             115    0.20 9  172 235 
 NOR  HZ I         623 31.58         1.7 0.14            121            172 235 
 ZAR  HZ EP   2    623  8.03                             114    0.26 4  180 310 
 ZAR  HN ES        623 29.23                             114    0.24 9  180 310 
 ZAR  HZ I         623 33.36         2.1 0.38            117            180 310 
                                                                                
