 2013  8 1 0324 45.1 L   6.818 -73.208136.0  RSN  9 0.4 1.7LRSN                1
 GAP=169        0.93       3.3     5.1  7.6  0.2636E+00  0.1158E+02 -0.4444E+01E
 Epicentro: ZAPATOCA - SANTANDER                                               3
 ACTION:UPD 14-01-14 08:58 OP:ep   STATUS:               ID:20130801032445 L   I
 OLDACT:REG 13-08-01 07:42 OP:carl STATUS:               ID:20130801031959     3
 2013-08-01-0319-59M.COL___268                                                 6
 STAT SP IPHASW D HRMM SECON CODA AMPLIT PERI AZIMU VELO AIN AR TRES W  DIS CAZ7
 BAR2 SZ EP   1    325  3.63                             169    0.01 8 25.1 173 
 BAR2 SZ ES   1    325 18.59                             169    0.54 8 25.1 173 
 BAR2 SZ I         325 20.28         8.0 0.46            171           25.1 173 
 GIR2 SZ EP   1    325  3.62                             167    0.05 8 28.9   3 
 GIR2 SZ ES   1    325 17.51                             167   -0.45 8 28.9   3 
 GIR2 SZ I         325 21.72         7.6 0.50            166           28.9   3 
 BRR  HZ EP   1    325  5.47                             153    0.65 8 64.2 300 
 BRR  HN ES   4    325 22.46                             153    2.27 0 64.2 300 
 BRR  HN I         325 26.19        18.7 0.16            151           64.2 300 
 RUS  HZ EP   1    325  7.87                             141   -0.26 8  103 172 
 RUS  HE ES   1    325 26.27                             141    0.19 8  103 172 
 RUS  HZ I         325 27.15         3.2 0.48            148            103 172 
 PTB  HZ EP   1    325 10.53                             131   -0.19 7  141 257 
 PTB  HN ES        325 29.95                             131   -0.7310  141 257 
 PTB  HN I         325 34.16         7.4 0.16            133            141 257 
 OCA  HE ES        325 33.48                             128   -0.2610  158 356 
 SPBC HZ EP   1    325 12.10                             127   -0.53 7  160 217 
 SPBC HN ES   1    325 34.52                             127    0.44 7  160 217 
 SPBC HZ I         325 35.88         5.9 0.18            131            160 217 
 ZAR  HZ EP   1    325 17.00                             121    0.80 7  197 292 
 ZAR  HN ES        325 40.89                             121    0.45 9  197 292 
 ZAR  HN I         325 49.33        10.3 0.24            124            197 292 
 SML  HZ EP   1    325 20.31                             116   -0.41 6  239 337 
 SML  HN ES        325 48.60                             116    0.13 9  239 337 
 SML  HZ I         325 51.99         6.2 0.10            119            239 337 
                                                                                
