 2015  4 1 0719 34.0 L   6.755 -73.151147.2  RSN  5 0.4 1.5LRSN                1
 GAP=153        0.99       8.7     5.1  7.3 -0.7755E+01  0.1197E+02 -0.3330E+01E
 Epicentro: LOS SANTOS - SANTANDER                                             3
 ACTION:UPD 15-06-03 16:51 OP:cam  STATUS:               ID:20150401071934 L   I
 OLDACT:UP  15-04-01 14:29 OP:mh   STATUS:               ID:20150401071737     3
 OLDACT:REG 15-04-01 13:18 OP:mh   STATUS:               ID:20150401071737     3
 2015-04-01-0717-37M.COL___271                                                 6
 STAT SP IPHASW D HRMM SECON CODA AMPLIT PERI AZIMU VELO AIN AR TRES W  DIS CAZ7
 BAR2 EZ EP   1    719 53.10                             172   -0.61 7 18.3 191 
 BAR2 EZ ES        720  9.56                             172    0.4710 18.3 191 
 BAR2 EZ I         720 10.51         6.8 0.23            172           18.3 191 
 BRR  HZ EP        719 55.57                             152    0.1510 73.2 302 
 BRR  HN ES        720 12.27                             152    0.1510 73.2 302 
 BRR  HZ I         720 16.15         6.4 0.40            149           73.2 302 
 PAM  SZ EP        719 56.97                             150    0.3510 81.6  38 
 PAM  SN ES        720 13.72                             150   -0.5510 81.6  38 
 PAM  SZ I         720 14.26         4.5 0.26            152           81.6  38 
 PTB  HZ EP        720  0.57                             133   -0.39 9  146 261 
 PTB  HN ES   1    720 21.63                             133   -0.35 7  146 261 
 PTB  HZ I         720 25.09         3.7 0.12            132            146 261 
 ZAR  HZ EP        720  7.26                             122    0.57 8  205 293 
 ZAR  HN ES        720 32.00                             122   -0.18 8  205 293 
 ZAR  HZ I         720 37.52         4.7 0.32            123            205 293 
                                                                                
