 2011 12 1 0310  9.3 L   6.798 -73.122139.1  RSN  5 0.1 1.4LRSN                1
 GAP=140        0.33       2.2     3.0  3.5 -0.1143E+01  0.1279E+01  0.1899E+01E
 Epicentro: LOS SANTOS - SANTANDER                                             3
 ACTION:UPD 12-07-13 16:13 OP:ep   STATUS:               ID:20111201031009 L   I
 2011-12-01-0308-03S.COL___160                                                 6
 STAT SP IPHASW D HRMM SECON CODA AMPLIT PERI AZIMU VELO AIN AR TRES W  DIS CAZ7
 BAR2 SZ EP        310 28.33                             170    0.1610 23.7 196 
 BRR  HZ EP        310 29.85                             150   -0.0610 73.6 298 
 BRR  HN ES   1    310 45.99                             150    0.03 7 73.6 298 
 BRR  HZ I         310 51.87        10.3 0.46                          73.6 298 
 PAM  SZ EP        310 30.74                             150   -0.0110 75.9  38 
 PAM  SN ES   1    310 47.39                             150   -0.07 7 75.9  38 
 RUS  HZ EP   3    310 32.81                             142    0.40 2  100 178 
 RUS  HN ES   1    310 50.33                             142   -0.07 7  100 178 
 RUS  HZ I         310 51.31         2.1 0.18                           100 178 
 CTAU SZ EP        310 41.91                             121   -0.07 9  204 210 
                                                                                
