 2015  2 1 0104 21.9 L   6.720 -73.229146.0  RSN  5 0.4 1.4LRSN                1
 GAP=211        0.92       9.4     8.2  9.3  0.5186E+02  0.1442E+02  0.2255E+02E
 Epicentro: VILLANUEVA - SANTANDER                                             3
 ACTION:UPD 15-04-30 21:20 OP:nd   STATUS:               ID:20150201010421 L   I
 OLDACT:DUP 15-02-01 13:51 OP:spq  STATUS:               ID:20150201005745d    3
 2015-02-01-0057-44M.COL___262                                                 6
 STAT SP IPHASW D HRMM SECON CODA AMPLIT PERI AZIMU VELO AIN AR TRES W  DIS CAZ7
 BAR2 EZ EP        1 4 41.03                             174   -0.4310 15.1 160 
 BAR2 EZ ES   1    1 4 56.30                             174   -0.38 7 15.1 160 
 BAR2 EZ I         1 4 56.88         3.5 0.34            171           15.1 160 
 BRR  HN ES        1 4 59.71                             154    0.3610 68.4 309 
 BRR  HZ I         1 5  2.27         6.0 0.32            153           68.4 309 
 RUS  HZ EP        1 4 45.16                             146   -0.0110 92.9 170 
 RUS  HE ES   1    1 5  3.97                             146    0.67 7 92.9 170 
 RUS  HZ I         1 5  5.33         1.7 0.30            146           92.9 170 
 PTB  HZ EP   1    1 4 48.32                             135    0.34 7  137 262 
 PTB  HN ES   1    1 5  7.62                             135   -0.67 7  137 262 
 PTB  HZ I         1 5 11.73         5.5 0.16            133            137 262 
 ZAR  HE ES   1    1 5 19.02                             123    0.20 6  199 295 
 ZAR  HZ I         1 5 21.12         2.8 0.52            124            199 295 
                                                                                
