 2016  6 1 0520 18.0 L   6.750 -73.171156.0  RSN  4 0.3 1.1LRSN                1
 GAP=231        0.85       5.4     6.4  7.6  0.1006E+02 -0.3483E+01  0.4455E+00E
 Epicentro: LOS SANTOS - SANTANDER                                             3
 ACTION:UPD 16-07-21 22:14 OP:rebc STATUS:               ID:20160601052018 L   I
 OLDACT:DUP 16-06-01 18:33 OP:edw  STATUS:               ID:20160601051742d    3
 OLDACT:DUP 16-06-01 17:42 OP:edw  STATUS:               ID:20160601051741d    3
 2016-06-01-0517-40M.COL___304                                                 6
 STAT SP IPHASW D HRMM SECON CODA AMPLIT PERI AZIMU VELO AIN AR TRES W  DIS CAZ7
 BRR  HZ EP        520 40.47                             154    0.1910 71.6 303 
 BRR  HE ES        520 57.90                             154    0.2410 71.6 303 
 BRR  HZ I         520 59.61         3.3 0.46                          71.6 303 
 RUS  HZ EP        520 42.13                             147   -0.2810 95.3 174 
 RUS  HN ES        521  1.29                             147   -0.1710 95.3 174 
 RUS  HZ I         521  2.39         0.8 0.24                          95.3 174 
 PTB  HZ EP        520 45.26                             135   -0.23 9  144 261 
 PTB  HN ES        521  6.40                             135   -0.54 9  144 261 
 PTB  HZ I         521 12.21         2.4 0.40                           144 261 
 SPBC HZ EP        520 47.12                             132    0.37 9  157 219 
 SPBC HN ES        521  9.63                             132    0.45 9  157 219 
 SPBC HZ I         521 12.71         2.1 0.60                           157 219 
                                                                                
