 2017  9 1 0145 26.3 L   6.830 -73.151147.1  RSN 24 0.6 2.9LRSN                1
 GAP= 65        1.12       3.0     3.0  4.9 -0.2012E+00  0.3921E+01  0.2091E+01E
 Epicentro: LOS SANTOS - SANTANDER                                             3
 ACTION:UPD 17-10-05 19:07 OP:rebc STATUS:               ID:20170901014526 L   I
 OLDACT:UP  17-09-01 13:38 OP:dani STATUS:               ID:20170901013738     3
 OLDACT:UP  17-09-01 13:38 OP:dani STATUS:               ID:20170901013738     3
 OLDACT:UP  17-09-01 13:36 OP:dani STATUS:               ID:20170901013738     3
 OLDACT:UP  17-09-01 13:35 OP:dani STATUS:               ID:20170901013738     3
 OLDACT:UP  17-09-01 13:35 OP:dani STATUS:               ID:20170901013738     3
 OLDACT:REG 17-09-01 12:59 OP:dani STATUS:               ID:20170901013738     3
 2017-09-01-0138-00M.COL___411                                                 6
 STAT SP IPHASW D HRMM SECON CODA AMPLIT PERI AZIMU VELO AIN AR TRES W  DIS CAZ7
 BAR2 EZ IP     C  145 46.03                             170   -0.1410 26.6 188 
 BAR2 EZ ES        146  1.07                             170   -0.5910 26.6 188 
 BAR2 EZ I         146  3.17       116.8 0.30            171           26.6 188 
 BRR  HZ IP     C  145 47.80                             153    0.3110 69.1 296 
 BRR  HN ES        146  4.92                             153    0.9110 69.1 296 
 BRR  HZ I         146  9.10       122.3 0.14            145           69.1 296 
 PAM  EZ EP     C  145 48.84                             151    0.3010 75.2  42 
 PAM  EN ES        146  5.98                             151    0.1010 75.2  42 
 PAM  EZ I         146  8.24       220.5 0.48            144           75.2  42 
 RUS  HZ EP        145 50.02                             143   -0.4210  104 176 
 RUS  HN ES        146  8.80                             143   -0.4610  104 176 
 RUS  HZ I         146  9.93       112.3 0.34            139            104 176 
 TAM  HZ IP     C  145 54.43                             130    0.20 9  157 106 
 TAM  HE ES        146 16.42                             130    0.41 9  157 106 
 SPBC HZ EP        145 54.88                             129   -0.25 9  165 218 
 SPBC HN ES        146 16.73                             129   -0.88 9  165 218 
 SPBC HZ I         146 19.49       149.9 0.26            122            165 218 
 YPLC HZ EP     C  145 56.47                             126   -0.05 9  180 152 
 YPLC HN ES        146 20.49                             126    0.41 9  180 152 
 YPLC HZ I         146 21.40       104.3 0.26            121            180 152 
 ZAR  HZ EP        145 58.52                             123   -0.15 9  202 291 
 ZAR  HN ES        146 23.32                             123   -0.58 9  202 291 
 ZAR  HZ I         146 29.71        70.9 0.34            115            202 291 
 TABC EZ EP        146  3.51                             119    1.09 8  233 210 
 TABC EZ I         146 43.77        32.7 0.52            113            233 210 
 NOR  HZ EP        146  2.06                             119   -0.22 8  236 234 
 NOR  HE ES        146 30.60                             119    0.26 8  236 234 
 NOR  HZ I         146 35.67        42.8 0.24            112            236 234 
 CHI  HZ EP        146  4.22                             117   -0.20 8  252 195 
 CHI  HN ES        146 33.41                             117   -0.74 8  252 195 
 CHI  HZ I         146 37.05        36.7 0.38            111            252 195 
 ROSC BZ EP   3    146  6.12                             117    1.33 2  255 211 
 ROSC BN ES        146 34.63                             117   -0.17 8  255 211 
 ROSC BZ I         146 38.15        61.0 0.30            111            255 211 
 HEL  HZ EP        146  7.65                             115    1.02 8  272 255 
 HEL  HE ES        146 38.67                             115    0.60 8  272 255 
 HEL  HZ I         146 43.47        19.7 0.38            109            272 255 
 URE  HZ EP        146  6.56                             114   -0.69 7  282 291 
 URE  HE ES   3    146 37.39                             114   -1.79 2  282 291 
 URE  HZ I         146 49.11        46.3 0.24            107            282 291 
 GUY2CHZ EP   9    146 11.40                             112    1.25 0  303 234 
 GUY2CHE ES        146 46.31                             112    0.72 7  303 234 
 GUY2CHZ I         146 56.26        31.5 0.42                           303 234 
 VIL  EZ EP        146  9.62                             112   -0.53 7  307 191 
 VIL  EN ES   3    146 43.28                             112   -1.06 2  307 191 
 VIL  EZ I         146 46.71        43.4 0.34            107            307 191 
 PTGC HZ EP   3 D  146  9.18                             111   -1.43 2  312 159 
 PTGC HN ES   4    146 42.61                             111   -2.55 0  312 159 
 PTGC HZ I         146 47.48        52.9 0.32            106            312 159 
 LL6C HZ EP        146 11.35                             111   -0.34 7  322 358 
 LL6C HZ I         146 52.95        17.7 0.44            104            322 358 
 ELA  HZ EP   3    146 15.20                             110    1.78 2  331 229 
 ELA  HN ES        146 50.77                             110    0.60 7  331 229 
 ELA  HZ I         146 59.34        18.7 0.37            105            331 229 
 DBB  EZ EP        146 13.88                             110    0.13 7  339 274 
 DBB  EN ES   3    146 49.11                             110   -1.64 2  339 274 
 DBB  EZ I         146 53.39        13.0 0.40            104            339 274 
 ANIL HZ EP        146 17.31                             108    0.91 6  359 224 
 ANIL HN ES   3    146 56.94                             108    1.47 2  359 224 
 ANIL HZ I         147  2.25        75.1 0.27            103            359 224 
 PRA  HZ EP        146 19.56                             107   -0.63 6  395 209 
 PRA  HN ES        147  2.56                             107    0.35 6  395 209 
 PRA  HZ I         147  8.26        26.3 0.54            102            395 209 
 ORTC HZ EP        146 20.39                             106   -0.17 6  398 216 
 ORTC HN ES   3    147  4.17                             106    1.30 1  398 216 
 ORTC HZ I         147  9.91        20.2 0.36            101            398 216 
 SJC  HZ EP   3    146 19.70                             106   -1.86 1  406 327 
 SJC  HN ES   4    147  1.39                             106   -3.25 0  406 327 
 SJC  HZ I         147  7.67        10.7 0.28            100            406 327 
 MACC HZ EP   4    146 33.05                             102   -2.40 0  524 189 
                                                                                
