 2015  8 1 0753 12.4 L   6.742 -73.174155.7  RSN  4 0.2 1.3LRSN                1
 GAP=230        0.56       6.4     7.1  4.4  0.3774E+02  0.3166E+01 -0.1135E+01E
 Epicentro: VILLANUEVA - SANTANDER                                             3
 ACTION:UPD 15-09-15 22:59 OP:cam  STATUS:               ID:20150801075312 L   I
 OLDACT:REG 15-08-01 12:24 OP:drio STATUS:               ID:20150801074748     3
 2015-08-01-0747-48M.COL___352                                                 6
 STAT SP IPHASW D HRMM SECON CODA AMPLIT PERI AZIMU VELO AIN AR TRES W  DIS CAZ7
 BAR2 EZ EP        753 32.76                             174   -0.3810 16.6 183 
 BAR2 EZ ES        753 49.40                             174    0.1010 16.6 183 
 BAR2 EZ I         753 53.80         2.7 0.48            174           16.6 183 
 BRR  HZ EP        753 34.69                             154   -0.0010 71.9 304 
 BRR  HN ES        753 52.18                             154    0.1210 71.9 304 
 BRR  HZ I         753 56.62         5.8 0.48            153           71.9 304 
 RUS  HZ EP        753 37.04                             147    0.2910 94.4 174 
 RUS  HN ES        753 55.61                             147   -0.1210 94.4 174 
 RUS  HZ I         753 56.49         1.9 0.68            152           94.4 174 
 ZAR  HZ EP        753 45.64                             125    0.14 9  204 294 
 ZAR  HN ES        754 11.15                             125   -0.15 9  204 294 
 ZAR  HZ I         754 16.40         3.0 0.28            127            204 294 
                                                                                
