 2013 11 1 0645 20.0 L   6.783 -73.174141.7  RSN  7 0.5 1.4LRSN                1
 GAP=134        1.26       5.4     5.3  9.2 -0.1487E+01  0.9734E+01  0.2067E+00E
 Epicentro: LOS SANTOS - SANTANDER                                             3
 ACTION:UPD 14-01-09 16:24 OP:ep   STATUS:               ID:20131101064520 L   I
 OLDACT:REG 13-11-01 08:39 OP:jn   STATUS:               ID:20131101064000     3
 2013-11-01-0640-00M.COL___273                                                 6
 STAT SP IPHASW D HRMM SECON CODA AMPLIT PERI AZIMU VELO AIN AR TRES W  DIS CAZ7
 BAR2 SZ EP        645 39.34                             171    0.2110 21.1 182 
 BAR2 SZ ES        645 53.37                             171   -0.6510 21.1 182 
 BAR2 SZ I         645 57.06        10.6 0.28            172           21.1 182 
 BRR  HZ EP        645 41.02                             152    0.3810 69.4 301 
 BRR  HN ES        645 57.70                             152    0.9910 69.4 301 
 BRR  HZ I         646  2.21         3.4 0.18            152           69.4 301 
 PAM  SZ EP        645 42.22                             149    0.1910 80.8  40 
 PAM  SN ES        645 58.90                             149   -0.2910 80.8  40 
 PAM  SZ I         646  1.43         3.7 0.46            153           80.8  40 
 RUS  HZ EP        645 43.21                             143   -0.0610 99.0 174 
 RUS  HN ES        646  1.29                             143   -0.1010 99.0 174 
 RUS  HZ I         646  3.14         3.7 0.28            148           99.0 174 
 PTB  HZ EP        645 45.91                             132   -0.44 9  144 259 
 PTB  HE ES        646  6.49                             132   -0.40 9  144 259 
 PTB  HZ I         646  9.60         2.3 0.16            134            144 259 
 SPBC HE ES        646 10.25                             129    0.62 9  160 219 
 SPBC HZ I         646 12.70         4.5 0.30            132            160 219 
 ZAR  HE ES        646 16.29                             122   -0.62 9  202 293 
 ZAR  HZ I         646 21.34         1.9 0.36            124            202 293 
                                                                                
