 2012  5 1 0955 52.2 L   6.790 -73.135152.5  RSN  6 0.3 1.6LRSN                1
 GAP=138        0.78       5.4     4.8  8.1  0.2749E+01  0.7896E+01  0.1815E+01E
 Epicentro: LOS SANTOS - SANTANDER                                             3
 ACTION:UP  12-07-05 12:01 OP:pat  STATUS:               ID:20120501095552 L   I
 2012-05-01-0950-00M.COL___189                                                 6
 STAT SP IPHASW D HRMM SECON CODA AMPLIT PERI AZIMU VELO SNR AR TRES W  DIS CAZ7
 BAR2 SZ EP   1    956 12.57                             171     0.0 7   23 193 
 BAR2 SZ I         956 30.30        11.8 0.28                            23 193 
 BRR  HZ EP   1    956 14.59                             153     0.4 7   73 299 
 BRR  HN ES   1    956 31.88                             153     0.6 7   73 299 
 BRR  HZ I         956 42.09         9.5 0.46                            73 299 
 PAM  SZ EP   1    956 15.07                             152     0.0 7   78  38 
 PAM  SN ES   1    956 32.59                             152    -0.4 7   78  38 
 RUS  HZ EP   1    956 16.58                             145     0.1 7   99 177 
 RUS  HN ES   1    956 35.56                             145     0.1 7   99 177 
 RUS  HZ I         956 37.09         3.8 0.37                            99 177 
 PTB  HZ EP   1    956 19.54                             133    -0.2 7  149 259 
 PTB  HN ES   1    956 40.84                             133    -0.5 7  149 259 
 PTB  HZ I         956 43.41         4.9 0.22                           149 259 
 ZAR  HZ EP   1    956 25.41                             124     0.2 6  206 292 
 ZAR  HN ES   1    956 50.73                             124    -0.3 6  206 292 
 ZAR  HZ I         956 55.98         3.9 0.15                           206 292 
                                                                                
