 2011  9 1 0230 58.4 L   6.794 -73.044137.5  RSN  4 0.1 1.7LRSN                1
 GAP=210        0.38       5.4    10.2  6.5  0.4381E+02 -0.3847E+02 -0.1809E+02E
 Epicentro: LOS SANTOS - SANTANDER                                             3
 ACTION:UPD 12-07-13 15:54 OP:ep   STATUS:               ID:20110901023058 L   I
 2011-09-01-0220-00M.COL___169                                                 6
 STAT SP IPHASW D HRMM SECON CODA AMPLIT PERI AZIMU VELO AIN AR TRES W  DIS CAZ7
 BAR2 SZ ES   2    231 31.65                             168   -0.09 5 27.0 214 
 BAR2 SZ I         231 33.34        15.7 0.36                          27.0 214 
 GIR2 SZ EP   1    231 17.29                             165    0.05 7 35.6 332 
 BRR  HZ EP   1    231 19.11                             148   -0.22 7 81.5 295 
 BRR  HZ I         231 19.45        14.3 0.12                          81.5 295 
 BRR  HN ES   1    231 35.75                             148    0.12 7 81.5 295 
 RUS  HZ EP   1    231 21.47                             142    0.16 7 99.7 182 
 RUS  HN ES   1    231 39.08                             142   -0.07 7 99.7 182 
 RUS  HZ I         231 40.70         4.1 0.46                          99.7 182 
                                                                                
