 2013  4 1 0733 48.3 L   6.755 -73.202145.2  RSN  5 0.4 1.5LRSN                1
 GAP=171        0.90       7.1     7.6  7.7  0.1518E+02  0.1307E+02  0.4787E+01E
 Epicentro: VILLANUEVA - SANTANDER                                             3
 ACTION:UPD 13-05-22 14:35 OP:EP   STATUS:               ID:20130401073349dL   I
 2013-04-01-0730-00M.COL___245                                                 6
 STAT SP IPHASW D HRMM SECON CODA AMPLIT PERI AZIMU VELO AIN AR TRES W  DIS CAZ7
 BAR2 SZ EP   1    734  7.57                             172   -0.16 7 18.1 173 
 BAR2 SZ ES        734 22.27                             172   -0.6410 18.1 173 
 BAR2 SZ I         734 24.07        13.8 0.16            171           18.1 173 
 GIR2 SZ EP   1    734  7.79                             165   -0.21 7 35.8   2 
 GIR2 SZ ES   1    734 23.50                             165    0.11 7 35.8   2 
 BRR  HZ EP     D  734  9.37                             153    0.1710 68.5 305 
 BRR  HN ES   1    734 26.22                             153    0.69 7 68.5 305 
 BRR  HZ I         734 29.51         5.4 0.32            152           68.5 305 
 RUS  HZ EP   1    734 11.99                             145    0.34 7 96.2 172 
 RUS  HN ES   1    734 30.45                             145    0.56 7 96.2 172 
 RUS  HZ I         734 31.61         2.1 0.32            147           96.2 172 
 PTB  HZ EP   1    734 14.16                             133   -0.39 7  141 260 
 PTB  HN ES   1    734 34.87                             133   -0.18 7  141 260 
 PTB  HZ I         734 38.40         4.2 0.16            133            141 260 
                                                                                
