 2012  8 1 0415 52.4 L   6.762 -73.127153.8  RSN  6 0.4 1.5LRSN                1
 GAP=141        0.72       5.4     5.2  7.5  0.3861E+01  0.1111E+02  0.5956E+01E
 Epicentro: LOS SANTOS - SANTANDER                                             3
 ACTION:UPD 12-09-10 11:53 OP:ep   STATUS:               ID:20120801041552 L   I
 2012-08-01-0410-00M.COL___215                                                 6
 STAT SP IPHASW D HRMM SECON CODA AMPLIT PERI AZIMU VELO AIN AR TRES W  DIS CAZ7
 BAR2 SZ EP   1    416 13.11                             172    0.17 7 19.8 198 
 BAR2 SZ I         416 13.25         8.5 0.22                          19.8 198 
 BAR2 SZ ES   1    416 29.26                             172    0.30 7 19.8 198 
 BRR  HZ EP   1    416 15.08                             153    0.44 7 75.0 301 
 BRR  HZ I         416 15.47        15.4 0.11                          75.0 301 
 BRR  HN ES   1    416 32.38                             153    0.39 7 75.0 301 
 PAM  SN ES   1    416 33.12                             152   -0.57 7 79.4  36 
 RUS  HZ EP   1    416 16.87                             147    0.20 7 96.3 177 
 RUS  HZ I         416 17.66         2.1 0.22                          96.3 177 
 RUS  HN ES   1    416 35.40                             147   -0.18 7 96.3 177 
 PTB  HZ EP   1    416 19.75                             133   -0.41 7  149 261 
 PTB  HN ES   1    416 41.34                             133   -0.46 7  149 261 
 PTB  HZ I         416 47.11         3.5 0.20                           149 261 
 ZAR  HN ES   2    416 51.76                             124    0.01 4  208 293 
                                                                                
