 2017  9 1 0837 30.3 L   6.678 -73.391112.2  RSN  4 0.1 0.9LRSN                1
 GAP=149        0.39       3.8     4.4  4.5  0.1382E+02  0.9575E+01  0.4496E+01E
 Epicentro: GALAN - SANTANDER                                                  3
 ACTION:UPD 17-10-05 19:08 OP:rebc STATUS:               ID:20170901083730 L   I
 OLDACT:DUP 17-09-01 16:04 OP:dani STATUS:               ID:20170901082746d    3
 OLDACT:REG 17-09-01 13:08 OP:dani STATUS:               ID:20170901082745     3
 2017-09-01-0828-00M.COL___402                                                 6
 STAT SP IPHASW D HRMM SECON CODA AMPLIT PERI AZIMU VELO AIN AR TRES W  DIS CAZ7
 BAR2 EZ EP        837 46.14                             167    0.1510 25.0 112 
 BAR2 EZ ES        837 58.27                             167    0.0710 25.0 112 
 BAR2 EZ I         837 59.32         3.4 0.31            167           25.0 112 
 BRR  HZ EP        837 47.03                             150   -0.1710 59.2 323 
 BRR  HN ES        838  0.28                             150   -0.0610 59.2 323 
 BRR  HZ I         838  0.73         1.8 0.36            151           59.2 323 
 RUS  HN ES        838  5.90                             138   -0.0610 93.3 159 
 ZAR  HN ES        838 21.07                             116    0.10 9  185 299 
                                                                                
