 2013  7 1 0153 13.6 L   6.791 -73.140150.8  RSN  6 0.4 1.6LRSN                1
 GAP=183        1.12       5.2     7.4  8.9  0.6526E+01  0.5140E+00 -0.3272E+01E
 Epicentro: LOS SANTOS - SANTANDER                                             3
 ACTION:UPD 13-08-12 10:34 OP:ep   STATUS:               ID:20130701015313 L   I
 OLDACT:DUP 13-07-01 10:36 OP:stll STATUS:               ID:20130701014840d    3
 2013-07-01-0148-39M.COL___230                                                 6
 STAT SP IPHASW D HRMM SECON CODA AMPLIT PERI AZIMU VELO AIN AR TRES W  DIS CAZ7
 BAR2 SZ EP        153 33.93                             171    0.1210 22.4 192 
 BAR2 SZ ES        153 49.48                             171   -0.1010 22.4 192 
 BAR2 SZ I         153 51.74         4.9 0.16            169           22.4 192 
 GIR2 SZ EP        153 33.91                             167    0.0210 32.4 350 
 BRR  HZ EP        153 35.68                             153    0.3410 72.2 299 
 BRR  HN ES        153 53.11                             153    0.8010 72.2 299 
 BRR  HN I         153 54.01        11.2 0.20            152           72.2 299 
 RUS  HZ EP        153 38.18                             145    0.4210 99.5 176 
 RUS  HN ES        153 56.12                             145   -0.5010 99.5 176 
 RUS  HN I         153 57.96         3.9 0.18            146           99.5 176 
 PTB  HZ EP        153 40.75                             133   -0.26 9  148 259 
 PTB  HN ES        154  2.00                             133   -0.39 9  148 259 
 PTB  HN I         154  6.76         8.2 0.30            133            148 259 
 OCA  HN ES        154  4.21                             130   -0.66 9  161 353 
                                                                                
