 2013  2 1 0325 42.3 L   6.823 -73.136144.8  RSN  8 0.4 1.9LRSN                1
 GAP=137        0.95       4.0     3.8  7.4  0.1039E+01  0.6272E+01  0.9881E+01E
 Epicentro: LOS SANTOS - SANTANDER                                             3
 ACTION:UPD 13-03-12 09:29 OP:ep   STATUS:               ID:20130201032542 L   I
 2013-02-01-0320-00M.COL___241                                                 6
 STAT SP IPHASW D HRMM SECON CODA AMPLIT PERI AZIMU VELO AIN AR TRES W  DIS CAZ7
 BAR2 SZ EP        326  1.77                             169   -0.1410 26.1 191 
 BRR  HZ EP        326  3.58                             152    0.2210 70.9 296 
 BRR  HN ES        326 19.63                             152   -0.1310 70.9 296 
 BRR  HN I         326 20.68        23.3 0.30            150           70.9 296 
 PAM  SZ EP     D  326  4.68                             151    0.3910 74.7  40 
 PAM  SN ES        326 21.41                             151   -0.0110 74.7  40 
 PAM  SN I         326 22.33        11.5 0.50            155           74.7  40 
 RUS  HZ EP        326  5.85                             143   -0.3210  103 177 
 RUS  HE ES        326 24.61                             143   -0.1610  103 177 
 RUS  HE I         326 26.49         8.5 0.50            143            103 177 
 PTB  HZ EP        326  8.59                             131   -0.77 9  149 258 
 PTB  HN ES        326 30.39                             131   -0.05 9  149 258 
 PTB  HN I         326 34.48        15.0 0.36            130            149 258 
 ZAR  HN ES        326 40.53                             122    0.56 9  204 291 
 ZAR  HN I         326 46.69        10.2 0.32            122            204 291 
 CHI  HZ EP        326 20.24                             117   -0.04 8  251 195 
 CHI  HN ES        326 50.84                             117    0.96 8  251 195 
 CHI  HN I         326 54.27         4.7 0.28            117            251 195 
 HEL  HZ EP   2    326 22.67                             114   -0.01 4  274 255 
 HEL  HN ES        326 53.95                             114   -0.20 8  274 255 
 HEL  HN I         327  0.68         3.8 0.54            114            274 255 
                                                                                
