 2013  1 1 0320 33.3 L   6.773 -73.132154.2  RSN  7 0.5 2.2LRSN 3.0WRSN        1
 SPEC AVERAGE  MO 13.6 ST  2.8 OM  2.4 f0 3.11 R0.5120 AL 2.03 WI 25.5 MW  3.0 3
 SPEC SD       MO  0.4 ST  1.9 OM  0.7 f00.779 R0.1609 AL      WI      MW  0.2 3
 GAP=184        1.17       4.2     6.6  7.7  0.5725E+01  0.9681E+00  0.9066E+00E
 Epicentro: LOS SANTOS - SANTANDER                                             3
 SPEC ZAR HH E MO 13.9 ST  5.1 OM  2.1 f0 3.64 R0.4038 AL 2.01 WI 28.1 MW  3.2 3
 SPEC ZAR HH E T 32131 K 0.000 GD  258 VS 4.20 DE 3.00 Q0230.0 QA 0.60 VS 4.20 3
 SPEC RUS HH N MO 12.9 ST0.078 OM  1.3 f0 1.88 R0.7819 AL 1.54 WI 19.7 MW  2.6 3
 SPEC RUS HH N T 32116 K 0.000 GD  182 VS 4.20 DE 3.00 Q0230.0 QA 0.60 VS 4.20 3
 SPEC OCA HH N MO 13.7 ST  2.0 OM  2.0 f0 3.03 R0.4851 AL 1.55 WI 27.2 MW  3.1 3
 SPEC OCA HH N T 32123 K 0.000 GD  224 VS 4.20 DE 3.00 Q0230.0 QA 0.60 VS 4.20 3
 SPEC BRR HH N MO 13.7 ST  4.1 OM  2.1 f0 3.90 R0.3769 AL 3.02 WI 26.8 MW  3.1 3
 SPEC BRR HH N T 32112 K 0.000 GD  171 VS 4.20 DE 3.00 Q0230.0 QA 0.60 VS 4.20 3
 ACTION:UPD 13-02-15 09:11 OP:ep   STATUS:               ID:20130101032033 L   I
 2013-01-01-0320-00M.COL___242                                                 6
 STAT SP IPHASW D HRMM SECON CODA AMPLIT PERI AZIMU VELO AIN AR TRES W  DIS CAZ7
 BAR2 SZ EP        320 54.31                             172    0.4210 20.7 196 
 BAR2 SZ ES        321  9.80                             172   -0.1510 20.7 196 
 BAR2 SZ I         321 11.17        20.7 0.40            174           20.7 196 
 BRR  HZ EP        320 56.32                             153    0.8110 74.0 300 
 BRR  HZ I         320 56.47        14.4 0.22            154           74.0 300 
 BRR  HN ES        321 13.01                             153    0.1710 74.0 300 
 RUS  HZ EP        320 56.71                             146   -0.9610 97.5 177 
 RUS  HN ES        321 16.59                             146   -0.0910 97.5 177 
 PTB  HZ EP        321  0.69                             134   -0.35 9  149 260 
 PTB  HE ES        321 22.66                             134   -0.03 9  149 260 
 OCA  HZ EP        321  2.80                             131    0.24 9  163 353 
 OCA  HN ES        321 25.17                             131   -0.21 9  163 353 
 OCA  HN I         321 28.46        43.1 0.26            131            163 353 
 ZAR  HE ES        321 32.11                             124   -0.40 8  207 293 
 CHI  HZ EP        321 11.10                             119   -0.10 8  246 196 
 CHI  HN ES        321 41.48                             119    0.70 8  246 196 
                                                                                
