 2010  9 1 0235 19.3 L   6.814 -73.035145.8  RSN 10 0.3 2.6LRSN                1
 GAP=171        0.78       3.8     6.6  6.2 -0.8051E+01 -0.2304E+01  0.3644E+01E
 Epicentro: CEPITA - SANTANDER                                                 3
 ACTION:UP  11-02-18 10:59 OP:tino STATUS:               ID:20100901023519 L   I
 2010-09-01-0232-16S.COL___120                                                 6
 STAT SP IPHASW D HRMM SECON CODA AMPLIT PERI AZIMU VELO SNR AR TRES W  DIS CAZ7
 BAR2 SZ IP        235 39.17                             168     0.010   30 214 
 BAR2 SZ ES   1    235 54.67                             168     0.1 7   30 214 
 BAR2 SZ I         235 55.20        96.1 0.34                            30 214 
 BRR  HZ IP     C  235 40.93                             149    -0.210   82 293 
 BRR  HZ I         235 41.18       175.5 0.14                            82 293 
 BRR  HE ES   1    235 57.91                             149    -0.2 7   82 293 
 RUS  HZ EP        235 43.15                             143    -0.110  102 183 
 RUS  HN ES   2    236  1.88                             143     0.1 5  102 183 
 RUS  HZ I         236  4.27        34.4 0.50                           102 183 
 GUE  SZ EP        235 44.21                             140     0.410  113   6 
 GUE  SZ I         235 54.89        14.6 0.13                           113   6 
 GRA  SZ EP        235 43.95                             138    -0.310  121  12 
 GRA  SZ I         236  8.33        16.0 0.34                           121  12 
 CHI  HZ EP        235 57.45                             117    -0.1 8  254 198 
 CHI  HE ES   1    236 27.15                             117    -0.3 6  254 198 
 CHI  HZ I         236 29.98        24.6 0.28                           254 198 
 ROSC BZ EP   1    235 59.08                             116     0.8 6  261 213 
 ROSC BZ I         236 34.25        24.5 0.37                           261 213 
 HEL  HZ EP   1    236  0.75                             114    -0.2 6  284 256 
 HEL  HZ I         236 38.71        17.1 0.35                           284 256 
 GUY  SN ES   1    236 39.64                             111     0.4 5  312 236 
 GUY  SZ I         236 47.77        45.0 0.48                           312 236 
 PRA  HZ EP   1    236 13.17                             106    -0.6 4  399 211 
 PRA  HZ I         236 59.36        19.4 0.54                           399 211 
                                                                                
