 2012  6 1 0702 58.8 L   6.858 -73.175146.9  RSN  4 0.3 1.5LRSN                1
 GAP=188        0.67       5.2     5.5  8.9 -0.5556E+01  0.1108E+02 -0.1503E+02E
 Epicentro: ZAPATOCA - SANTANDER                                               3
 ACTION:UP  12-08-06 17:46 OP:ep   STATUS:               ID:20120601070257 L   I
 2012-06-01-0700-00M.COL___201                                                 6
 STAT SP IPHASW D HRMM SECON CODA AMPLIT PERI AZIMU VELO AIN AR TRES W  DIS CAZ7
 BAR2 SZ EP   1    7 3 19.22                             168    0.48 7 29.4 182 
 BAR2 SZ I         7 3 19.50         8.0 0.08            175           29.4 182 
 BAR2 SZ ES   1    7 3 33.91                             168   -0.36 7 29.4 182 
 PTB  HZ EP   1    7 3 25.59                             133   -0.14 7  146 256 
 PTB  HN ES   1    7 3 46.98                             133    0.26 7  146 256 
 PTB  HZ I         7 3 50.00         2.3 0.11            135            146 256 
 OCA  HZ EP   1    7 3 26.18                             131   -0.42 7  153 354 
 OCA  HN ES   1    7 3 48.60                             131    0.33 7  153 354 
 OCA  HZ I         7 3 54.54         6.5 0.10            131            153 354 
 ZAR  HN ES   1    7 3 55.54                             123   -0.20 6  199 291 
                                                                                
