 2012  1 1 0834 25.2 L   6.594 -73.305140.0  RSN  5 0.3 1.4LRSN                1
 GAP=129        0.78       9.2     7.3  8.3  0.3444E+02  0.1971E+02  0.1790E+02E
 Epicentro: GALAN - SANTANDER                                                  3
 ACTION:UP  12-02-03 08:12 OP:REBC STATUS:               ID:20120101083425 L   I
 2012-01-01-0830-00M.COL___186                                                 6
 STAT SP IPHASW D HRMM SECON CODA AMPLIT PERI AZIMU VELO SNR AR TRES W  DIS CAZ7
 BAR2 SZ ES   1    834 58.50                             174    -0.1 7   14  91 
 BAR2 SZ I         834 59.45         6.4 0.30                            14  91 
 BRR  HZ EP   1    834 45.18                             151    -0.6 7   72 322 
 BRR  HZ I         834 45.41        13.4 0.12                            72 322 
 BRR  HN ES   1    835  2.36                             151     0.5 7   72 322 
 RUS  HZ EP   1    834 47.27                             148     0.2 7   81 162 
 RUS  HZ I         835  7.80         1.4 0.26                            81 162 
 PTB  HZ EP   1    834 50.18                             135     0.3 7  127 267 
 PTB  HN ES   1    835  8.95                             135    -0.2 7  127 267 
 ZAR  HZ EP   1    834 56.93                             122     0.2 6  198 300 
 ZAR  HN ES   1    835 21.15                             122    -0.1 6  198 300 
                                                                                
