 2017  3 1 0312  5.8 L   6.724 -73.159148.0  RSN  5 0.3 1.1LRSN                1
 GAP=138        0.49       7.0     4.6  4.8  0.1234E+00 -0.5546E+01 -0.1366E+02E
 Epicentro: VILLANUEVA - SANTANDER                                             3
 ACTION:UPD 17-05-25 18:34 OP:jn   STATUS:               ID:20170301031205 L   I
 OLDACT:UP  17-03-01 14:12 OP:and  STATUS:               ID:20170301030741     3
 OLDACT:UP  17-03-01 14:12 OP:and  STATUS:               ID:20170301030741     3
 OLDACT:UP  17-03-01 14:11 OP:and  STATUS:               ID:20170301030741     3
 OLDACT:UP  17-03-01 14:11 OP:and  STATUS:               ID:20170301030741     3
 OLDACT:REG 17-03-01 12:42 OP:and  STATUS:               ID:20170301030741     3
 2017-03-01-0308-00M.COL___390                                                 6
 STAT SP IPHASW D HRMM SECON CODA AMPLIT PERI AZIMU VELO AIN AR TRES W  DIS CAZ7
 BAR2 EZ EP   2    312 25.71                             174    0.19 5 14.8 190 
 BAR2 EZ ES   2    312 40.69                             174   -0.25 5 14.8 190 
 BAR2 EZ I         312 41.47         3.2 0.18            169           14.8 190 
 BRR  HZ EP        312 27.53                             152    0.2010 74.3 305 
 BRR  HN ES        312 44.24                             152    0.0910 74.3 305 
 PAM  EZ IP     D  312 28.53                             149   -0.1410 84.9  37 
 RUS  HZ EP   9    312 30.18                             147    1.01 0 92.4 175 
 RUS  HN ES        312 48.59                             145    0.1610 92.4 175 
 RUS  HZ I         312 49.47         2.0 0.48            142           92.4 175 
 PTB  HZ EP   2    312 32.72                             133    0.06 5  145 262 
 PTB  HN ES   2    312 52.99                             133   -0.65 5  145 262 
 PTB  HZ I         312 55.55         1.1 0.19            131            145 262 
                                                                                
