 2014  1 1 0637 22.0 L   6.691 -73.149149.0  RSN  4 0.2 1.0LRSN                1
 GAP=229        0.47       3.8     3.7  4.2  0.5518E+01  0.3314E+01 -0.1402E+01E
 Epicentro: VILLANUEVA - SANTANDER                                             3
 ACTION:UPD 14-03-13 09:50 OP:ep   STATUS:               ID:20140101063722 L   I
 OLDACT:DUP 14-01-01 13:02 OP:stll STATUS:               ID:20140101062815d    3
 2014-01-01-0628-14M.COL___231                                                 6
 STAT SP IPHASW D HRMM SECON CODA AMPLIT PERI AZIMU VELO AIN AR TRES W  DIS CAZ7
 BAR2 SZ EP        637 41.81                             175   -0.0510 11.5 199 
 BAR2 SZ ES        637 57.10                             175   -0.2410 11.5 199 
 BAR2 SZ I         637 58.75         3.8 0.28            172           11.5 199 
 BRR  HZ EP        637 43.86                             151   -0.0110 77.4 307 
 BRR  HZ I         637 44.19         2.4 0.24            150           77.4 307 
 BRR  HN ES        638  1.14                             151    0.2210 77.4 307 
 RUS  HN ES        638  3.59                             148    0.1710 88.6 175 
 PTB  HZ EP        637 49.07                             133    0.02 9  146 263 
 PTB  HN ES        638 10.02                             133   -0.12 9  146 263 
 PTB  HZ I         638 13.85         0.7 0.14            132            146 263 
                                                                                
