 2010  4 1 0826 20.8 L   6.809 -73.272121.6  RSN  7 0.3 2.5LRSN                1
 GAP=106        0.61       3.9     5.1  4.4 -0.4647E+01  0.8194E+00  0.2475E-01E
 Epicentro: ZAPATOCA - SANTANDER                                               3
 ACTION:UPD 10-08-24 09:57 OP:vdl  STATUS:               ID:20100401082620 L   I
 2010-04-01-0825-12S.COL___098                                                 6
 STAT SP IPHASW D HRMM SECON CODA AMPLIT PERI AZIMU VELO AIN AR TRES W  DIS CAZ7
 BAR2 SZ IP        826 37.72                             168     0.110   26 158 
 BAR2 SZ ES   1    826 50.61                             168    -0.1 7   26 158 
 BRR  HZ IP        826 38.64                             151     0.010   59 304 
 BRR  HZ I         826 38.91        98.5 0.08                            59 304 
 BRR  HN ES   1    826 52.84                             151     0.2 7   59 304 
 OCA  SZ IP        826 47.17                             123     0.0 9  158 358 
 OCA  SZ ES   2    827  7.30                             123    -0.4 5  158 358 
 OCA  SZ I         827 13.54        57.2 0.12                           158 358 
 HEL  HZ EP        826 58.33                             110    -0.1 8  259 255 
 TOL  SZ EP   2    827  8.44                             105     1.2 3  335 223 
 SDV  BZ EP        827 11.56                             103     0.3 6  371  52 
 SDV  BZ I         827 13.47         6.3 0.11                           371  52 
 PRA  HZ EP        827 12.49                             102    -0.5 6  386 208 
 PRA  HN ES   3    827 53.94                             102     0.4 1  386 208 
 PRA  HZ I         827 59.88        12.1 0.23                           386 208 
                                                                                
