 2014 12 1 0729 14.8 L   6.822 -73.148146.2  RSN 22 0.4 3.0LRSN                1
 GAP= 70        0.90       2.1     2.3  3.8 -0.8647E+00  0.1937E+01  0.9817E+00E
 Epicentro: LOS SANTOS - SANTANDER                                             3
 ACTION:UPD 15-02-10 16:59 OP:nd   STATUS:               ID:20141201072914 L   I
 OLDACT:REG 14-12-01 12:22 OP:carl STATUS:               ID:20141201072745     3
 2014-12-01-0727-45M.COL___300                                                 6
 STAT SP IPHASW D HRMM SECON CODA AMPLIT PERI AZIMU VELO AIN AR TRES W  DIS CAZ7
 BAR2 SZ IP     C  729 34.52                             170   -0.0410 25.7 188 
 BAR2 SZ ES        729 49.83                             170   -0.1210 25.7 188 
 BAR2 SZ I         729 50.74       206.0 0.26            169           25.7 188 
 BRR  HZ IP     D  729 36.34                             153    0.3910 69.8 297 
 BRR  HN ES        729 53.21                             153    0.7910 69.8 297 
 BRR  HZ I         729 56.51       141.4 0.32            151           69.8 297 
 PAM  SZ IP     C  729 37.37                             151    0.3810 75.7  41 
 PAM  SN ES        729 54.39                             151    0.1110 75.7  41 
 PAM  SZ I         729 55.28       146.7 0.20            151           75.7  41 
 RUS  HZ EP        729 38.54                             143   -0.2610  103 176 
 RUS  HN ES        729 57.17                             143   -0.3210  103 176 
 RUS  HZ I         729 58.69        89.9 0.44            143            103 176 
 PTB  HZ EP        729 41.21                             132   -0.64 9  148 258 
 PTB  HN ES        730  2.35                             132   -0.58 9  148 258 
 PTB  HZ I         730  9.14       139.8 0.74            131            148 258 
 TAM  HZ IP     D  729 43.00                             130    0.38 9  156 106 
 TAM  HZ I         730  3.98        66.6 0.32            130            156 106 
 TAM  HN ES        730  4.67                             130    0.37 9  156 106 
 OCA  HZ EP        729 42.58                             130   -0.37 9  158 353 
 OCA  HN ES        730  4.44                             130   -0.44 9  158 353 
 OCA  HZ I         730 12.97       127.8 0.22            129            158 353 
 SPBC HZ EP        729 43.43                             129   -0.09 9  165 218 
 SPBC HN ES        730  5.46                             129   -0.44 9  165 218 
 SPBC HZ I         730 12.59       119.4 0.12            128            165 218 
 ZAR  HZ EP        729 47.03                             123   -0.15 9  203 292 
 ZAR  HN ES        730 12.16                             123   -0.26 9  203 292 
 ZAR  HZ I         730 17.84       117.7 0.38            121            203 292 
 NOR  HZ EP        729 50.63                             118   -0.08 8  236 234 
 NOR  HN ES        730 18.94                             118    0.24 8  236 234 
 NOR  HZ I         730 26.52        59.2 0.16            117            236 234 
 CHI  HZ EP        729 52.66                             117   -0.13 8  251 195 
 CHI  HN ES        730 22.20                             117   -0.21 8  251 195 
 CHI  HZ I         730 27.34        73.5 0.30            116            251 195 
 HEL  HZ EP        729 55.09                             115   -0.01 8  272 255 
 HEL  HN ES        730 27.01                             115    0.50 8  272 255 
 HEL  HZ I         730 32.91        55.7 0.38            114            272 255 
 URE  HZ EP   4    729 54.40                             114   -1.39 0  283 291 
 URE  HN ES   4    730 25.03                             114   -2.71 0  283 291 
 GUY2CHZ EP        729 58.69                             112    0.10 7  302 234 
 GUY2CHN ES        730 32.88                             112    0.16 7  302 234 
 GUY2CHZ I         730 40.81        58.2 0.54                           302 234 
 VIL  SZ EP        729 58.25                             112   -0.27 7  306 191 
 VIL  SN ES        730 32.50                             112   -0.11 7  306 191 
 VIL  SZ I         730 35.30       105.2 0.38            111            306 191 
 PTGC HZ EP   4    729 57.72                             111   -1.25 0  311 159 
 PTGC HN ES   4    730 31.05                             111   -2.35 0  311 159 
 PTGC HZ I         730 33.76        41.8 0.40            111            311 159 
 RREF HZ EP   4    730  2.24                             111    1.10 0  323 229 
 RREF HN ES   4    730 40.54                             111    3.27 0  323 229 
 CBOC HZ EP        730  2.18                             110    0.36 7  334 252 
 CBOC HN ES        730 37.95                             110   -0.52 7  334 252 
 CBOC HZ I         730 50.74        16.3 0.44            109            334 252 
 TOL  SZ EP        730  3.27                             109   -0.01 7  345 224 
 TOL  SN ES        730 41.92                             109    0.85 7  345 224 
 TOL  SZ I         730 48.40        93.3 0.64            108            345 224 
 MON  HZ EP   4    730  1.69                             109   -1.96 0  352 308 
 MON  HN ES   4    730 40.28                             109   -1.45 0  352 308 
 ARGC HZ EP        730  4.73                             108    0.50 6  357 340 
 ARGC HE ES        730 43.14                             108    0.38 6  357 340 
 ARGC HZ I         730 50.23        21.0 0.28            108            357 340 
 ANIL HZ EP        730  5.37                             108    0.55 6  359 224 
 ANIL HN ES        730 43.65                             108   -0.17 6  359 224 
 ANIL HZ I         730 54.64        18.9 0.30            108            359 224 
 SDV  BZ EP        730  4.05                             108   -0.68 6  359  50 
 SDV  BN ES   4    730 40.03                             108   -3.62 0  359  50 
 ORTC HZ EP        730  8.84                             106   -0.13 6  397 216 
 ORTC HN ES        730 52.19                             106    0.99 6  397 216 
 ORTC HZ I         730 55.89        31.3 0.30            106            397 216 
 PAL  HZ EP   4    730 10.02                             106   -0.10 0  407 239 
 SJC  HZ EP   4    730  8.30                             106   -1.85 0  407 327 
 SJC  HN ES   4    730 49.26                             106   -4.04 0  407 327 
 PAL  HN ES   4    730 50.04                             106   -3.21 0  407 239 
 GUA  SZ EP   4    730 16.27                             103   -2.01 0  476 173 
 GUA  SN ES   4    731  5.39                             103   -2.38 0  476 173 
 GUA  SZ I         731 10.71        35.6 0.28            102            476 173 
                                                                                
