 2015  6 1 0941 33.5 L   7.440 -73.194129.0  RSN 27 0.5 2.8LRSN                1
 GAP=101        1.05       1.8     4.0  4.9 -0.9935E+00  0.1893E+01  0.2786E+00E
 Epicentro: EL PLAYON - SANTANDER                                              3
 ACTION:UPD 15-09-10 22:08 OP:cam  STATUS:               ID:20150601094133 L   I
 OLDACT:REG 15-06-01 13:41 OP:ak   STATUS:               ID:20150601093746     3
 2015-06-01-0937-46M.COL___294                                                 6
 STAT SP IPHASW D HRMM SECON CODA AMPLIT PERI AZIMU VELO AIN AR TRES W  DIS CAZ7
 BRR  HZ EP        941 52.97                             150    0.2810 68.0 237 
 BRR  HN ES        942  8.41                             150    0.7710 68.0 237 
 BRR  HZ I         942 11.20        85.1 0.14            142           68.0 237 
 OCA  HZ IP     C  941 54.34                             143    0.0010 89.4 351 
 OCA  HN ES        942 10.69                             143    0.1110 89.4 351 
 OCA  HZ I         942 13.41       237.9 0.17            141           89.4 351 
 BAR2 EZ IP     D  941 54.90                             142    0.1210 93.8 179 
 BAR2 EZ ES        942 10.90                             142   -0.4710 93.8 179 
 BAR2 EZ I         942 12.64       173.8 0.11            138           93.8 179 
 RUS  HZ EP        942  2.14                             124   -0.02 9  172 176 
 RUS  HN ES        942 23.61                             124   -0.90 9  172 176 
 RUS  HZ I         942 27.71        38.2 0.30            121            172 176 
 SML  HZ EP        942  1.65                             122   -0.61 9  179 327 
 SML  HN ES        942 23.72                             122   -0.96 9  179 327 
 SML  HZ I         942 25.30        98.3 0.10            119            179 327 
 SPBC HZ EP        942  7.11                             116    0.31 8  220 206 
 SPBC HN ES        942 33.14                             116    0.39 8  220 206 
 SPBC HZ I         942 39.34        71.1 0.33            113            220 206 
 LL2C HZ EP        942  8.98                             115    0.65 8  235 353 
 LL2C HN ES        942 36.47                             115    0.98 8  235 353 
 LL4C HZ EP        942 10.30                             113    0.06 8  253 351 
 LL4C HN ES        942 39.16                             113    0.28 8  253 351 
 LL4C HZ I         942 46.08        83.0 0.25            111            253 351 
 LL3C HZ EP        942 10.45                             113    0.04 8  254 355 
 LL3C HN ES        942 38.61                             113   -0.58 8  254 355 
 LL3C HZ I         942 45.55        62.4 0.75            111            254 355 
 URE  HN ES   4    942 38.74                             112   -1.78 0  260 278 
 URE  HZ I         942 49.78        44.7 0.34            109            260 278 
 NOR  HZ IP     D  942 13.42                             111    0.19 7  278 222 
 NOR  HN ES        942 44.80                             111    0.59 7  278 222 
 NOR  HZ I         942 50.48        47.3 0.06            108            278 222 
 HEL  HZ EP        942 15.68                             109    0.38 7  293 242 
 HEL  HN ES        942 47.13                             109   -0.76 7  293 242 
 HEL  HZ I         942 58.98        18.0 0.42            107            293 242 
 MON  HZ EP   4    942 15.18                             108   -1.64 0  310 299 
 MON  HN ES   4    942 48.26                             108   -2.33 0  310 299 
 ROSC BZ EP   4    942 19.09                             108    1.38 0  313 203 
 ROSC BN ES   4    942 54.50                             108    2.32 0  313 203 
 ROSC BZ I         943  4.41        39.8 0.40            106            313 203 
 CHI  HZ EP        942 17.99                             108   -0.10 7  316 191 
 CHI  HE ES        942 52.59                             108   -0.27 7  316 191 
 CHI  HZ I         943  3.47        20.7 0.21            106            316 191 
 SDV  BZ EP        942 18.55                             107   -0.19 7  324  60 
 SDV  BE ES   4    942 51.92                             107   -2.10 0  324  60 
 SDV  BZ I         942 52.79        33.4 0.50            107            324  60 
 GUY2CHZ EP        942 21.83                             106    0.54 7  343 225 
 GUY2CHN ES        942 58.24                             106   -0.30 7  343 225 
 GUY2CHZ I         943 11.92        27.7 0.52                           343 225 
 SJC  HZ EP        942 20.41                             106   -1.00 6  349 321 
 SJC  HE ES   4    942 54.92                             106   -3.85 0  349 321 
 CBOC HZ EP        942 23.30                             105    0.76 6  357 241 
 CBOC HN ES        943  0.34                             105   -0.44 6  357 241 
 CBOC HZ I         943 19.35         8.9 0.37            103            357 241 
 CRECREZ EP   4    942 30.47                             105    6.68 0  364 221 
 CRECREN ES   4    943 10.02                             105    7.02 0  364 221 
 VIL  SZ EP        942 24.31                             104    0.04 6  372 189 
 VIL  SN ES        943  3.77                             104   -0.09 6  372 189 
 VIL  SZ I         943 20.11        29.0 0.32            103            372 189 
 PTGC HZ EP        942 24.86                             104    0.16 6  377 162 
 PTGC HN ES   4    943  2.62                             104   -2.00 0  377 162 
 LCBC HZ EP        942 25.38                             104   -0.03 6  383 294 
 LCBC HE ES        943  5.65                             104   -0.23 6  383 294 
 LCBC HZ I         943  9.88        13.2 0.28            102            383 294 
 TOL  SZ EP   4    942 29.04                             103    1.96 0  394 217 
 TOL  SN ES   4    943 11.83                             103    2.97 0  394 217 
 TOL  SZ I         943 22.10        23.3 0.59            101            394 217 
 CRJC HZ EP   4 C  942 25.44                             103   -1.77 0  397   5 
 CRJC HN ES   4    943  6.29                             103   -2.80 0  397   5 
 CRJC HZ I         943 11.20        10.8 0.23            102            397   5 
 ANIL HZ EP   4    942 31.31                             103    2.63 0  408 217 
 ANIL HN ES   4    943 14.60                             103    2.90 0  408 217 
 ANIL HZ I         943 25.05        56.8 0.52            101            408 217 
 ORTC HZ EP        942 33.25                             101   -0.38 5  452 210 
 ORTC HE ES        943 21.15                             101    0.63 5  452 210 
 ORTC HZ I         943 31.99        16.0 0.21             99            452 210 
 MACC HZ EP   4    942 48.16                              97   -2.08 0  590 187 
 MACC HN ES   4    943 46.30                              97   -3.78 0  590 187 
 MACC HZ I         943 54.85         4.5 0.25             96            590 187 
 GARC HZ EP        942 55.63                              97   -0.28 2  634 204 
 GARC HN ES        943 59.97                              97   -0.21 2  634 204 
 GARC HZ I         944  4.18         8.6 0.26             95            634 204 
                                                                                
