 2015  2 1 0009 39.1 L   6.795 -73.106151.3  RSN 12 0.4 1.7LRSN                1
 GAP=187        0.93       3.4     5.4  6.6  0.3050E+01  0.3601E+01  0.2889E+01E
 Epicentro: LOS SANTOS - SANTANDER                                             3
 ACTION:UPD 15-04-30 21:20 OP:nd   STATUS:               ID:20150201000939 L   I
 OLDACT:DUP 15-02-01 13:00 OP:spq  STATUS:               ID:20150201000002d    3
 2015-02-01-0000-00M.COL___262                                                 6
 STAT SP IPHASW D HRMM SECON CODA AMPLIT PERI AZIMU VELO AIN AR TRES W  DIS CAZ7
 BAR2 EZ EP        0 9 59.38                             171   -0.0410 24.0 201 
 BAR2 EZ ES   1    010 15.13                             171   -0.13 7 24.0 201 
 BAR2 EZ I         010 15.75        30.2 0.88            168           24.0 201 
 BRR  HZ EP        010  1.27                             152    0.1810 75.4 297 
 BRR  HE ES        010 18.86                             152    0.6210 75.4 297 
 BRR  HZ I         010 24.93        11.6 0.42            150           75.4 297 
 RUS  HZ EP        010  3.19                             145   -0.1710 99.8 179 
 RUS  HE ES   1    010 21.73                             145   -0.54 7 99.8 179 
 RUS  HZ I         010 23.01         3.6 0.28            147           99.8 179 
 PTB  HZ EP   1    010  6.21                             132   -0.71 7  152 259 
 PTB  HE ES   1    010 28.74                             132    0.14 7  152 259 
 PTB  HZ I         010 31.68         6.9 0.36            132            152 259 
 OCA  HN ES   1    010 30.71                             131    0.25 7  161 352 
 OCA  HZ I         010 35.63         4.0 0.16            132            161 352 
 SPBC HZ EP   1    010  8.44                             130    0.18 7  166 220 
 SPBC HE ES        010 30.56                             130   -0.44 9  166 220 
 SPBC HZ I         010 35.49         8.2 0.10            130            166 220 
 ZAR  HZ EP   1    010 13.16                             123    0.80 6  208 292 
 ZAR  HE ES        010 37.69                             123   -0.61 8  208 292 
 ZAR  HZ I         010 45.57         6.8 0.34            123            208 292 
 NOR  HZ EP        010 15.62                             119    0.10 8  238 235 
 NOR  HN ES   1    010 44.29                             119    0.37 6  238 235 
 NOR  HZ I         010 47.80         4.3 0.25            120            238 235 
 SML  HE ES   1    010 44.69                             118   -0.63 6  246 334 
 SML  HZ I         010 47.96         4.1 0.20            120            246 334 
 CHI  HZ EP   1    010 17.40                             118    0.21 6  249 196 
 CHI  HN ES   1    010 47.75                             118    0.85 6  249 196 
 CHI  HZ I         010 56.38         2.0 0.38            120            249 196 
 GUY2CHZ EP   4    010 24.87                             113    1.52 0  305 235 
 GUY2CHN ES   4    011  0.86                             113    3.00 0  305 235 
 GUY2CHZ I         011  5.89         3.5 0.50                           305 235 
 MON  HN ES   4    011  5.38                             109   -2.13 0  358 308 
 MON  HZ I         011  7.51         1.0 0.19            110            358 308 
                                                                                
