 2010  9 1 0430 23.2 L   6.810 -73.052143.0  RSN  7 0.2 1.7LRSN                1
 GAP=169        0.64       4.4     8.9 10.0  0.1092E+02 -0.4886E+02 -0.2117E+02E
 Epicentro: LOS SANTOS - SANTANDER                                             3
 ACTION:UP  11-02-18 10:59 OP:tino STATUS:               ID:20100901043023 L   I
 2010-09-01-0427-34S.COL___120                                                 6
 STAT SP IPHASW D HRMM SECON CODA AMPLIT PERI AZIMU VELO SNR AR TRES W  DIS CAZ7
 BAR2 SZ IP        430 42.74                             168     0.110   28 211 
 BAR2 SZ I         430 43.14        12.7 0.11                            28 211 
 BRR  HZ IP     C  430 44.53                             149    -0.110   80 294 
 BRR  HN ES   1    431  1.25                             149     0.0 7   80 294 
 BRR  HZ I         431  2.30        12.9 0.06                            80 294 
 RUS  HZ EP   1    430 46.72                             143     0.0 7  102 182 
 RUS  HE ES   1    431  5.13                             143     0.0 7  102 182 
 RUS  HZ I         431  6.90         4.8 0.22                           102 182 
 GUE  SZ EP   1    430 47.77                             139     0.3 7  114   7 
 GRA  SZ IP        430 47.50                             137    -0.410  122  13 
 GRA  SZ I         431  8.29         4.7 0.11                           122  13 
 OCA  SZ EP   1    430 51.71                             129     0.4 7  161 349 
 OCA  SZ I         431 17.48         7.0 0.33                           161 349 
 PRA  HZ EP   2    431 17.25                             106    -0.1 3  398 211 
 PRA  HZ I         432  3.12         1.8 0.30                           398 211 
                                                                                
