 2011  2 1 0641 11.5 L   7.390 -73.261127.0  RSN 12 0.4 2.5LRSN                1
 GAP=115        0.83       3.9     8.6  9.4 -0.5335E+01  0.3958E+02  0.7450E+01E
 Epicentro: EL PLAYON - SANTANDER                                              3
 ACTION:UP  11-03-28 15:05 OP:jfem STATUS:               ID:20110201064111 L   I
 2011-02-01-0637-37S.COL___138                                                 6
 STAT SP IPHASW D HRMM SECON CODA AMPLIT PERI AZIMU VELO SNR AR TRES W  DIS CAZ7
 GIR2 SZ EP   1    641 29.88                             164     0.8 7   35 168 
 BTL  SZ EP   1    641 29.87                             156    -0.1 7   52 181 
 GRA  SZ IP        641 31.67                             147     0.510   74  43 
 GRA  SZ ES   1    641 46.50                             147     0.1 7   74  43 
 GRA  SZ I         641 50.07        95.6 0.43                            74  43 
 BAR2 SZ EP   1    641 31.82                             143    -0.4 7   89 174 
 BAR2 SZ ES   1    641 48.33                             143     0.0 7   89 174 
 BAR2 SZ I         641 50.29        75.6 0.33                            89 174 
 OCA  SZ EP   1    641 31.84                             141    -0.7 7   94 356 
 OCA  SZ ES   2    641 48.40                             141    -0.5 5   94 356 
 OCA  SZ I         641 50.64        46.9 0.03                            94 356 
 RUS  HZ EP   1    641 39.02                             124    -0.5 7  167 173 
 RUS  HE ES   2    642  1.13                             124    -0.3 5  167 173 
 YOP  SZ EP   2    641 47.18                             113    -0.1 4  244 158 
 YOP  SE ES   2    642 15.30                             113     0.1 4  244 158 
 YOP  SZ I         642 17.09        25.5 0.68                           244 158 
 NOR  SZ EP   2    641 49.79                             111    -0.3 4  269 222 
 NOR  SN ES   2    642 20.67                             111     0.4 4  269 222 
 HEL  HZ EP   2    641 52.86                             110     0.7 4  284 242 
 HEL  HZ I         642 34.30         9.2 0.50                           284 242 
 CHI  HZ EP   2    641 55.60                             108     0.3 4  310 190 
 CHI  HN ES   2    642 29.07                             108    -0.3 4  310 190 
 DBB  SZ EP   2    641 56.84                             106    -0.2 3  328 263 
 RREF HZ EP   2    642  1.88                             105     0.5 3  359 220 
                                                                                
