 2015 10 1 0039  0.5 L   6.825 -73.152147.8  RSN 32 0.5 2.9LRSN 3.5WRSN        1
 SPEC AVERAGE  MO 14.3 ST0.324 OM  2.1 f0 1.26 R1.6623 AL 0.00 WI 30.0 MW  3.5 3
 SPEC SD       MO  4.5 ST0.430 OM  0.7 f00.614 R0.6409 AL      WI      MW  1.1 3
 GAP= 70        0.95       2.3     2.4  4.2 -0.7460E+00  0.2136E+01  0.1293E+01E
 Epicentro: LOS SANTOS - SANTANDER                                             3
 SPEC PAM EH Z MO 14.1 ST0.145 OM  2.2 f0 1.20 R1.6033 AL-0.00 WI 30.0 MW  3.4 3
 SPEC PAM EH Z T 03938 K 0.000 GD  166 VS 5.20 DE 3.50 Q0750.0 QA 1.50 VS 3.50 3
 SPEC RUS HH Z MO 14.3 ST0.188 OM  2.3 f0 1.18 R1.6305 AL-0.00 WI 30.0 MW  3.5 3
 SPEC RUS HH Z T 03941 K 0.000 GD  180 VS 5.20 DE 3.50 Q0750.0 QA 1.50 VS 3.50 3
 SPEC OCA HH Z MO 14.1 ST  1.6 OM  2.1 f0 2.63 R0.7316 AL-0.00 WI 30.0 MW  3.4 3
 SPEC OCA HH Z T 03948 K 0.000 GD  215 VS 5.20 DE 3.50 Q0750.0 QA 1.50 VS 3.50 3
 SPEC ROSCBH Z MO 14.3 ST0.248 OM  2.1 f0 1.28 R1.5031 AL-0.00 WI 30.0 MW  3.5 3
 SPEC ROSCBH Z T 040 9 K 0.000 GD  294 VS 5.20 DE 3.50 Q0750.0 QA 1.50 VS 3.50 3
 SPEC HEL HH Z MO 14.3 ST0.093 OM  2.1 f00.908 R2.1189 AL-0.00 WI 30.0 MW  3.5 3
 SPEC HEL HH Z T 04010 K 0.000 GD  309 VS 5.20 DE 3.50 Q0750.0 QA 1.50 VS 3.50 3
 SPECGUY2CHH Z MO 14.3 ST0.123 OM  2.1 f00.969 R1.9856 AL-0.00 WI 30.0 MW  3.5 3
 SPECGUY2CHH Z T 04017 K 0.000 GD  336 VS 5.20 DE 3.50 Q0750.0 QA 1.50 Q1 0.00 3
 SPEC ELA HH Z MO 14.3 ST0.105 OM  2.0 f00.969 R1.9856 AL-0.00 WI 30.0 MW  3.5 3
 SPEC ELA HH Z T 04023 K 0.000 GD  361 VS 5.20 DE 3.50 Q0750.0 QA 1.50 VS 3.50 3
 SPEC DBB SH Z MO 14.8 ST0.339 OM  2.5 f00.969 R1.9856 AL-0.00 WI 30.0 MW  3.8 3
 SPEC DBB SH Z T 04023 K 0.000 GD  369 VS 5.20 DE 3.50 Q0750.0 QA 1.50 VS 3.50 3
 SPEC ANILHH Z MO 14.4 ST0.304 OM  2.1 f0 1.25 R1.5392 AL-0.00 WI 30.0 MW  3.5 3
 SPEC ANILHH Z T 04029 K 0.000 GD  388 VS 5.20 DE 3.50 Q0750.0 QA 1.50 VS 3.50 3
 SPEC ORTCHH Z MO 14.1 ST0.166 OM  1.8 f0 1.25 R1.5392 AL-0.00 WI 30.0 MW  3.4 3
 SPEC ORTCHH Z T 04036 K 0.000 GD  423 VS 5.20 DE 3.50 Q0750.0 QA 1.50 VS 3.50 3
 SPEC SJC HH Z MO 14.1 ST0.079 OM  1.8 f00.969 R1.9856 AL-0.00 WI 30.0 MW  3.4 3
 SPEC SJC HH Z T 04034 K 0.000 GD  433 VS 5.20 DE 3.50 Q0750.0 QA 1.50 VS 3.50 3
 OLDACT:UP  15-10-01 15:29 OP:spq  STATUS:               ID:20151001003749     3
 OLDACT:REG 15-10-01 14:31 OP:spq  STATUS:               ID:20151001003749     3
 ACTION:UPD 15-12-22 20:36 OP:cam  STATUS:               ID:20151001003900 L   I
 OLDACT:UP  15-10-01 15:35 OP:spq  STATUS:               ID:20151001003749     3
 2015-10-01-0037-49M.COL___361                                                 6
 STAT SP IPHASW D HRMM SECON CODA AMPLIT PERI AZIMU VELO AIN AR TRES W  DIS CAZ7
 BAR2 EZ EP        039 20.39                             170   -0.0910 26.0 187 
 BAR2 EZ ES   1    039 35.65                             170   -0.38 7 26.0 187 
 BAR2 EZ I         039 36.62       138.1 0.22            173           26.0 187 
 BRR  HZ IP     C  039 22.15                             153    0.3410 69.3 297 
 BRR  HN ES        039 39.34                             153    0.9410 69.3 297 
 BRR  HZ I         039 43.15        76.3 0.22            144           69.3 297 
 PAM  EZ EP        039 23.28                             152    0.3910 75.7  41 
 PAM  EN ES        039 40.27                             152   -0.0410 75.7  41 
 PAM  EZ I         039 42.59       161.4 0.48            141           75.7  41 
 RUS  HZ EP        039 24.40                             143   -0.3110  103 176 
 RUS  HE ES        039 43.38                             143   -0.1710  103 176 
 RUS  HZ I         039 44.16       106.2 0.26            139            103 176 
 PTB  HZ EP     C  039 26.73                             132   -0.94 9  148 258 
 PTB  HN ES        039 48.31                             132   -0.52 9  148 258 
 PTB  HZ I         039 55.12        99.4 0.66            124            148 258 
 TAM  HZ IP     D  039 28.84                             131    0.32 9  157 106 
 TAM  HN ES        039 50.68                             131    0.34 9  157 106 
 OCA  HZ EP        039 28.45                             131   -0.31 9  157 353 
 OCA  HN ES        039 50.35                             131   -0.41 9  157 353 
 OCA  HZ I         039 55.23       133.7 0.48            120            157 353 
 SPBC HZ EP        039 29.08                             129   -0.29 9  165 218 
 SPBC HN ES        039 51.62                             129   -0.23 9  165 218 
 SPBC HZ I         039 57.22       108.1 0.20            122            165 218 
 ZAR  HZ EP   1    039 33.02                             123    0.07 6  202 291 
 ZAR  HE ES        039 58.21                             123   -0.02 9  202 291 
 ZAR  HZ I         040  3.69        70.3 0.46            114            202 291 
 NOR  HZ EP        039 36.54                             119    0.03 8  236 234 
 NOR  HE ES        040  5.01                             119    0.45 8  236 234 
 NOR  HZ I         040  9.10        63.3 0.22            112            236 234 
 SML  HZ EP        039 37.19                             118    0.20 8  241 335 
 SML  HN ES   1    040  5.20                             118   -0.21 6  241 335 
 SML  HZ I         040  8.84        60.2 0.24            109            241 335 
 CHI  HZ EP        039 38.49                             117   -0.14 8  251 195 
 CHI  HN ES        040  7.90                             117   -0.44 8  251 195 
 CHI  HZ I         040 11.21        57.6 0.38            111            251 195 
 ROSC BZ EP   4    039 40.12                             117    1.12 0  255 211 
 ROSC BN ES   4    040 11.11                             117    2.12 0  255 211 
 ROSC BZ I         040 14.78       101.5 0.40            110            255 211 
 HEL  HZ EP        039 41.80                             115    0.93 8  272 255 
 HEL  HE ES        040 12.28                             115   -0.03 8  272 255 
 HEL  HZ I         040 18.56        43.6 0.30            108            272 255 
 URE  HZ EP   4    039 40.30                             114   -1.23 0  282 291 
 URE  HE ES   4    040 11.04                             114   -2.45 0  282 291 
 URE  HZ I         040 22.93        34.1 0.22            107            282 291 
 GUY2CHZ EP        039 44.23                             113   -0.14 7  302 234 
 GUY2CHE ES        040 18.62                             113    0.07 7  302 234 
 GUY2CHZ I         040 24.56        32.6 0.34                           302 234 
 LL2C HZ I         040 30.60        73.8 0.42            105            304 354 
 LL1C HZ EP   4    039 45.60                             112    1.69 0  304 352 
 LL1C HE ES   4    040 19.82                             112    2.08 0  304 352 
 LL2C HZ EP   4    039 45.36                             112    1.46 0  304 354 
 LL2C HE ES   4    040 19.94                             112    2.22 0  304 354 
 VIL  SZ EP        039 44.20                             112   -0.15 7  306 191 
 VIL  SE ES        040 18.40                             112   -0.12 7  306 191 
 PTGC HZ EP   4 D  039 43.60                             112   -1.22 0  312 159 
 PTGC HE ES   4    040 16.89                             112   -2.46 0  312 159 
 PTGC HZ I         040 18.77        52.5 0.32            106            312 159 
 ELA  HZ EP        039 48.39                             111    0.76 7  330 229 
 ELA  HN ES   4    040 25.47                             111    1.12 0  330 229 
 ELA  HZ I         040 32.18        28.2 0.42            104            330 229 
 CBOC HZ EP   1    039 48.32                             110    0.75 5  334 252 
 CBOC HN ES   1    040 23.52                             110   -0.72 5  334 252 
 CBOC HZ I         040 30.22        12.8 0.46            104            334 252 
 DBB  SZ EP        039 47.96                             110   -0.04 7  339 274 
 DBB  SZ ES   1    040 24.60                             110   -0.42 5  339 274 
 ARGC HE ES   4    040 30.25                             109    1.76 0  356 340 
 ARGC HZ I         040 40.78        15.2 0.30            102            356 340 
 SDV  BZ EP        039 50.00                             109   -0.53 6  359  51 
 SDV  BN ES   4    040 27.71                             109   -1.80 0  359  51 
 SDV  BZ I         040 30.64        16.6 0.35            102            359  51 
 ANIL HZ EP        039 51.24                             109    0.64 6  359 224 
 ANIL HN ES        040 30.53                             109    0.88 6  359 224 
 ANIL HZ I         040 40.47        95.2 0.32            103            359 224 
 ORTC HZ EP        039 54.71                             107   -0.04 6  397 216 
 ORTC HN ES   4    040 38.22                             107    1.19 0  397 216 
 ORTC HZ I         040 41.79        24.8 0.32            101            397 216 
 SJC  HZ EP   4 C  039 54.61                             106   -1.25 0  407 327 
 SJC  HN ES   4    040 35.62                             106   -3.38 0  407 327 
 SJC  HZ I         040 43.25        10.1 0.36            100            407 327 
 CRJC HZ EP   4    040  0.47                             104   -2.31 0  465   4 
 CRJC HN ES   4    040 47.80                             104   -3.53 0  465   4 
 CRJC HZ I         040 53.22        18.7 0.70             97            465   4 
 YOT  HZ EP   1    040  2.94                             103   -0.86 4  473 229 
 SMAR HZ EP   1    040  6.02                             103   -0.11 3  494 346 
 SMAR HE ES   4    040 53.76                             103   -3.53 0  494 346 
 MACC HZ EP   4    040  7.50                             102   -2.12 0  523 189 
 MACC HN ES   4    040 59.48                             102   -4.02 0  523 189 
 MACC HZ I         041  2.64         7.5 0.52             97            523 189 
 BBAC HZ EP        040 31.76                              98    0.77 1  699 221 
                                                                                
