 2015  8 1 0009 19.3 L   6.802 -73.119144.5  RSN  8 0.4 1.9LRSN                1
 GAP=140        1.07       4.2     5.4  6.8  0.4275E+01  0.8773E+01 -0.6605E+01E
 Epicentro: LOS SANTOS - SANTANDER                                             3
 ACTION:UPD 15-09-15 22:59 OP:cam  STATUS:               ID:20150801000919 L   I
 OLDACT:UP  15-08-03 04:45 OP:AK   STATUS:               ID:20150801000919 L   3
 OLDACT:REG 15-08-01 12:02 OP:drio STATUS:               ID:20150801000750     3
 2015-08-01-0007-50M.COL___351                                                 6
 STAT SP IPHASW D HRMM SECON CODA AMPLIT PERI AZIMU VELO AIN AR TRES W  DIS CAZ7
 BAR2 EZ EP        0 9 38.56                             170   -0.2710 24.2 197 
 BAR2 EZ ES        0 9 53.48                             170   -0.5610 24.2 197 
 BAR2 EZ I         0 9 54.88        21.7 0.20            170           24.2 197 
 BRR  HZ EP        0 9 40.79                             151    0.3010 73.7 297 
 BRR  HN ES        0 9 57.63                             151    0.6310 73.7 297 
 BRR  HZ I         010  2.70        11.5 0.46            150           73.7 297 
 PAM  EZ EP        0 9 41.84                             151    0.5410 75.4  38 
 PAM  EN ES        0 9 58.60                             151    0.1710 75.4  38 
 PAM  EZ I         010  1.00         4.9 0.52            154           75.4  38 
 RUS  HZ EP        0 9 42.89                             143   -0.0810  101 178 
 RUS  HN ES        010  1.23                             143   -0.1710  101 178 
 RUS  HZ I         010  2.02         7.1 0.24            147            101 178 
 OCA  HZ EP        0 9 47.62                             129    0.06 9  160 352 
 OCA  HN ES        010  8.99                             129   -0.59 9  160 352 
 OCA  HZ I         010 10.72        19.1 0.40            131            160 352 
 ZAR  HZ EP        0 9 52.31                             122    0.34 8  207 292 
 ZAR  HN ES        010 17.71                             122    0.28 8  207 292 
 ZAR  HZ I         010 23.69         7.9 0.40            123            207 292 
 SML  HZ EP        0 9 55.83                             117   -0.18 8  245 335 
 SML  HN ES   4    010 22.77                             117   -1.84 0  245 335 
 SML  HZ I         010 27.18        10.9 0.10            119            245 335 
 MON  HZ EP   4    010  6.82                             108   -1.72 0  356 308 
 MON  HN ES        010 45.81                             108   -1.11 6  356 308 
                                                                                
