 2015  2 1 0058 28.0 L   7.379 -73.179130.0  RSN  6 0.3 1.5LRSN                1
 GAP=262        0.68       6.4     5.4  6.9  0.2136E+02 -0.5826E+01 -0.1149E+02E
 Epicentro: EL PLAYON - SANTANDER                                              3
 ACTION:UPD 15-04-30 21:20 OP:nd   STATUS:               ID:20150201005828 L   I
 OLDACT:REG 15-02-01 11:56 OP:spq  STATUS:               ID:20150201004748     3
 2015-02-01-0047-48M.COL___265                                                 6
 STAT SP IPHASW D HRMM SECON CODA AMPLIT PERI AZIMU VELO AIN AR TRES W  DIS CAZ7
 BRR  HZ EP        058 46.69                             152   -0.4710 66.0 243 
 BRR  HE ES        059  2.26                             152    0.1610 66.0 243 
 BRR  HZ I         059  6.19         6.5 0.39            140           66.0 243 
 BAR2 EZ EP        058 48.99                             145    0.1310 87.0 180 
 BAR2 EZ ES   1    059  5.46                             145    0.32 7 87.0 180 
 BAR2 EZ I         059  6.27        12.1 0.14            135           87.0 180 
 RUS  HZ EP   2    058 56.47                             126    0.45 5  165 176 
 RUS  HN ES   1    059 17.48                             126   -0.40 7  165 176 
 RUS  HZ I         059 21.96         1.2 0.70            120            165 176 
 PTB  HZ EP   1    058 55.48                             124   -0.34 7  169 237 
 PTB  HE ES   1    059 17.43                             124   -0.08 7  169 237 
 PTB  HZ I         059 20.43         2.6 0.17            118            169 237 
 ZAR  HZ EP   1    058 58.12                             122    0.59 7  186 274 
 ZAR  HE ES        059 20.53                             122   -0.04 9  186 274 
 ZAR  HZ I         059 24.58         5.0 0.28            118            186 274 
 SPBC HE ES   2    059 26.63                             118    0.33 4  215 207 
 SPBC HZ I         059 34.57         3.4 0.26            113            215 207 
                                                                                
