 2016 11 1 0701 35.2 L   6.859 -73.320129.4  RSN  5 0.3 1.2LRSN                1
 GAP=110        0.80       4.1     4.8  6.0 -0.1779E-02  0.5084E+01  0.2275E+01E
 Epicentro: BETULIA - SANTANDER                                                3
 ACTION:UPD 17-10-26 21:03 OP:lp   STATUS:               ID:20161101070135 L   I
 OLDACT:UP  16-11-01 18:01 OP:dani STATUS:               ID:20161101065745     3
 OLDACT:REG 16-11-01 12:33 OP:dani STATUS:               ID:20161101065745     3
 2016-11-01-0658-00M.COL___313                                                 6
 STAT SP IPHASW D HRMM SECON CODA AMPLIT PERI AZIMU VELO AIN AR TRES W  DIS CAZ7
 BAR2 EZ EP        7 1 53.68                             165    0.5310 33.2 153 
 BAR2 EZ ES        7 2  6.75                             165   -0.3810 33.2 153 
 BRR  HZ EP        7 1 53.70                             157    0.1810 51.3 302 
 BRR  HN ES        7 2  8.02                             157    0.2310 51.3 302 
 BRR  HZ I         7 2  9.80         5.5 0.18            155           51.3 302 
 PAM  EZ EP        7 1 56.25                             144   -0.1010 86.7  52 
 PAM  EE ES        7 2 12.71                             144   -0.1310 86.7  52 
 PAM  EZ I         7 2 14.15         1.7 0.10            147           86.7  52 
 RUS  HZ EP        7 1 58.13                             137   -0.0210  110 166 
 RUS  HN ES        7 2 16.17                             137    0.1310  110 166 
 PTB  HZ EP        7 1 58.80                             132   -0.4810  131 254 
 PTB  HN ES   4    7 2 15.73                             132   -2.32 0  131 254 
 PTB  HZ I         7 2 20.64         3.6 0.15            132            131 254 
                                                                                
