 2012  1 1 0513  0.6 L   6.744 -73.102142.3  RSN  4 0.3 1.1LRSN                1
 GAP=227        0.65      11.1     4.9  8.3 -0.2618E+02  0.8932E+00  0.3384E+02E
 Epicentro: JORDAN - SANTANDER                                                 3
 ACTION:UP  12-02-03 08:12 OP:REBC STATUS:               ID:20120101051300 L   I
 2012-01-01-0510-00M.COL___186                                                 6
 STAT SP IPHASW D HRMM SECON CODA AMPLIT PERI AZIMU VELO SNR AR TRES W  DIS CAZ7
 BRR  HZ EP   1    513 22.17                             149     0.3 7   78 301 
 BRR  HZ I         513 24.32         2.3 0.14                            78 301 
 BRR  HE ES   1    513 38.78                             149     0.4 7   78 301 
 PAM  SZ EP   1    513 22.85                             149     0.2 7   79  34 
 PAM  SZ I         513 23.33         2.0 0.15                            79  34 
 PAM  SN ES   1    513 39.33                             149    -0.4 7   79  34 
 PTB  HZ EP   1    513 27.52                             130    -0.2 7  151 261 
 PTB  HN ES   1    513 48.57                             130    -0.2 7  151 261 
 ZAR  HZ EP   1    513 33.44                             121    -0.1 6  211 293 
 ZAR  HE ES   1    513 59.12                             121    -0.2 6  211 293 
 ZAR  HZ I         514  4.86         1.7 0.31                           211 293 
                                                                                
