 2015  9 1 0231 51.1 L   6.786 -73.175147.5  RSN  8 0.3 1.9LRSN                1
 GAP=133        0.83       2.9     4.5  6.4  0.2488E+00 -0.3872E+00 -0.3557E+01E
 Epicentro: LOS SANTOS - SANTANDER                                             3
 ACTION:UPD 15-10-28 16:23 OP:cam  STATUS:               ID:20150901023151 L   I
 OLDACT:DUP 15-09-01 15:43 OP:stll STATUS:               ID:20150901022751d    3
 OLDACT:REG 15-09-01 13:46 OP:stll STATUS:               ID:20150901022750     3
 2015-09-01-0227-50M.COL___361                                                 6
 STAT SP IPHASW D HRMM SECON CODA AMPLIT PERI AZIMU VELO AIN AR TRES W  DIS CAZ7
 BAR2 EZ EP        232 10.89                             171   -0.0110 21.4 182 
 BAR2 EZ I         232 11.22        17.2 0.10            173           21.4 182 
 BAR2 EZ ES        232 25.88                             171   -0.4610 21.4 182 
 BRR  HZ EP        232 12.76                             153    0.4410 69.1 301 
 BRR  HZ I         232 13.04        16.9 0.26            150           69.1 301 
 BRR  HN ES        232 29.38                             153    0.5110 69.1 301 
 PAM  EZ EP        232 13.74                             150    0.0510 80.7  41 
 PAM  EZ I         232 13.95        12.8 0.24            149           80.7  41 
 RUS  HZ EP        232 14.90                             144   -0.0310 99.3 174 
 RUS  HN ES        232 33.47                             144   -0.0410 99.3 174 
 RUS  HZ I         232 33.97         5.9 0.50            145           99.3 174 
 CPBEREZ EP        232 17.61                             133   -0.28 9  144 259 
 CPBEREN ES        232 38.42                             133   -0.38 9  144 259 
 SPBC HN ES        232 41.88                             130    0.37 9  160 218 
 SPBC HZ I         232 43.14        14.6 0.14            129            160 218 
 OCA  HN ES        232 42.03                             130    0.11 9  161 354 
 SML  HN ES        232 56.03                             118   -0.45 8  244 336 
 SML  HZ I         233  5.77         6.4 0.26            116            244 336 
                                                                                
