 2015  5 1 0826 21.7 L   6.862 -73.104142.1  RSN  6 0.4 1.7LRSN                1
 GAP= 94        1.11       6.9     6.4  7.2  0.1471E+02 -0.1346E+01 -0.1130E+02E
 Epicentro: LOS SANTOS - SANTANDER                                             3
 ACTION:UPD 15-09-10 22:00 OP:cam  STATUS:               ID:20150501082621 L   I
 OLDACT:UP  15-05-06 20:57 OP:cam  STATUS:               ID:20150501082621 L   3
 OLDACT:UP  15-05-06 15:28 OP:nlst STATUS:               ID:20150501082621 L   3
 OLDACT:DUP 15-05-01 15:13 OP:stll STATUS:               ID:20150501081752d    3
 2015-05-01-0817-50M.COL___273                                                 6
 STAT SP IPHASW D HRMM SECON CODA AMPLIT PERI AZIMU VELO AIN AR TRES W  DIS CAZ7
 BAR2 EZ EP        826 40.70                             167   -0.4010 31.1 196 
 BAR2 EZ ES        826 55.70                             167   -0.5110 31.1 196 
 BAR2 EZ I         826 56.42         9.2 0.74            171           31.1 196 
 PAM  SZ EP        826 43.72                             153    0.6510 69.1  40 
 PAM  SZ I         826 44.00         8.2 0.21            151           69.1  40 
 PAM  SN ES        826 59.59                             153   -0.1210 69.1  40 
 BRR  HN ES        826 59.50                             151    0.7210 72.4 292 
 TAM  HZ EP        826 49.01                             130    0.13 9  153 108 
 ZAR  HZ EP        826 54.04                             121   -0.08 8  206 290 
 SML  HZ EP        826 57.53                             117   -0.15 8  239 334 
 SML  HN ES        827 25.25                             117   -0.48 8  239 334 
 SML  HZ I         827 31.23         3.9 0.50            116            239 334 
                                                                                
