 2010  8 1 0326 34.1 L   6.829 -73.672102.9  RSN  7 0.4 1.6LRSN                1
 GAP=103        0.94       5.5     7.2  9.2  0.1195E+02  0.7187E+00  0.1894E+01E
 Epicentro: EL CARMEN DE CHUCURI - SANTANDER                                   3
 ACTION:UP  10-09-07 10:51 OP:vdl  STATUS:               ID:20100801032634 L   I
 2010-08-01-0325-03S.COL___123                                                 6
 STAT SP IPHASW D HRMM SECON CODA AMPLIT PERI AZIMU VELO SNR AR TRES W  DIS CAZ7
 BRR  HZ EP        326 48.54                             161     0.110   31 352 
 BRR  HE ES   1    326 59.64                             161    -0.1 7   31 352 
 BRR  HZ I         327  1.21        31.6 0.27                            31 352 
 GIR2 SZ EP   1    326 49.67                             147    -0.5 7   60  62 
 BAR2 SZ EP   1    326 50.69                             147     0.3 7   60 116 
 BAR2 SZ I         327  5.40        11.5 0.18                            60 116 
 RUS  HZ EP        326 56.05                             126     0.110  122 148 
 RUS  HN ES   1    327 12.64                             126    -0.4 7  122 148 
 RUS  HZ I         327 15.36         5.4 0.38                           122 148 
 GUE  SZ EP        326 57.72                             122     0.4 9  138  37 
 HEL  HN ES   2    327 31.73                             109     0.6 4  217 251 
 HEL  HZ I         327 34.23         4.6 0.24                           217 251 
 MON  HZ EP   1    327 15.45                             101    -0.8 5  307 315 
 MON  HZ I         327 57.05         1.2 0.40                           307 315 
                                                                                
