 2015  1 1 0925 36.4 L   6.739 -73.143144.2  RSN  4 0.3 0.9LRSN                1
 GAP=233        0.73       5.7     5.5  5.8  0.1572E+02  0.3208E+01  0.5249E+00E
 Epicentro: LOS SANTOS - SANTANDER                                             3
 ACTION:UPD 15-03-02 15:35 OP:nd   STATUS:               ID:20150101092536 L   I
 OLDACT:DUP 15-01-01 19:25 OP:stll STATUS:               ID:20150101091744d    3
 OLDACT:DUP 15-01-01 19:22 OP:stll STATUS:               ID:20150101091743d    3
 2015-01-01-0917-42M.COL___277                                                 6
 STAT SP IPHASW D HRMM SECON CODA AMPLIT PERI AZIMU VELO AIN AR TRES W  DIS CAZ7
 BAR2 EZ EP        925 55.23                             173   -0.5310 16.8 195 
 BAR2 EZ ES        926 10.65                             173   -0.1810 16.8 195 
 BRR  HZ EP        925 57.80                             151    0.1710 74.9 303 
 BRR  HN ES        926 14.44                             151    0.2910 74.9 303 
 BRR  HZ I         926 16.36         1.0 0.16            151           74.9 303 
 RUS  HZ EP        925 59.82                             145    0.2710 93.9 176 
 RUS  HE ES        926 17.75                             145    0.1610 93.9 176 
 RUS  HZ I         926 21.04         1.4 0.52            145           93.9 176 
 PTB  HZ EP        926  3.19                             132   -0.01 9  147 261 
 PTB  HN ES        926 23.87                             132   -0.20 9  147 261 
 PTB  HZ I         926 27.15         1.5 0.16            132            147 261 
                                                                                
