 2017  5 1 0453 36.8 L   6.817 -73.154146.3  RSN  5 0.3 1.4LRSN                1
 GAP=110        0.79       3.6     3.6  6.4  0.2567E+01  0.1160E-01  0.5905E+01E
 Epicentro: LOS SANTOS - SANTANDER                                             3
 ACTION:UPD 17-06-16 13:31 OP:jn   STATUS:               ID:20170501045336 L   I
 OLDACT:REG 17-05-01 12:54 OP:ar   STATUS:               ID:20170501044737     3
 2017-05-01-0448-00M.COL___368                                                 6
 STAT SP IPHASW D HRMM SECON CODA AMPLIT PERI AZIMU VELO AIN AR TRES W  DIS CAZ7
 BRR  HZ EP        453 58.06                             153    0.1510 69.5 297 
 BRR  HZ I         453 59.20         3.6 0.26            154           69.5 297 
 BRR  HE ES        454 14.66                             153    0.2810 69.5 297 
 PAM  EZ EP        453 59.15                             151    0.1310 76.5  41 
 PAM  EN ES        454 16.12                             151   -0.2310 76.5  41 
 PAM  EZ I         454 18.10         3.9 0.58            152           76.5  41 
 RUS  HZ EP        454  0.71                             143   -0.0310  103 176 
 RUS  HE ES        454 18.94                             143   -0.4810  103 176 
 RUS  HZ I         454 20.53         3.7 0.38            144            103 176 
 PTB  HZ EP        454  3.28                             132   -0.49 9  147 258 
 PTB  HN ES        454 25.00                             132    0.20 9  147 258 
 PTB  HZ I         454 26.71         2.6 0.42            133            147 258 
 YPLC HZ EP        454  6.88                             126    0.04 9  179 151 
 YPLC HE ES        454 30.76                             126    0.50 9  179 151 
 YPLC HZ I         454 33.16         4.6 0.30            127            179 151 
                                                                                
