 2011  1 1 0147 17.3 L   6.784 -73.175144.9  RSN  5 0.2 1.6LRSN                1
 GAP=156        0.56       4.7    14.1  6.3 -0.4388E+02  0.3779E+02 -0.1155E+02E
 Epicentro: LOS SANTOS - SANTANDER                                             3
 ACTION:UP  11-02-08 08:37 OP:pat  STATUS:               ID:20110101014717 L   I
 2011-01-01-0144-15S.COL___134                                                 6
 STAT SP IPHASW D HRMM SECON CODA AMPLIT PERI AZIMU VELO SNR AR TRES W  DIS CAZ7
 BAR2 SZ EP   1    147 36.82                             171     0.0 8   21 183 
 BAR2 SZ ES   1    147 51.93                             171    -0.1 8   21 183 
 BAR2 SZ I         147 53.49        17.1 0.18                            21 183 
 RUS  HZ EP   1    147 40.79                             144    -0.1 8   99 174 
 RUS  HN ES   1    147 59.48                             144     0.2 8   99 174 
 RUS  HZ I         148  0.75         4.0 0.25                            99 174 
 GRA  SZ EP        147 42.63                             136    -0.110  128  19 
 GRA  SZ I         148  6.59         5.3 0.28                           128  19 
 NOR  SZ EP   2    147 52.90                             119     0.3 4  231 234 
 CHI  HZ EP   1    147 55.09                             117     0.4 6  246 195 
 CHI  HN ES   1    148 23.33                             117    -0.5 6  246 195 
 CHI  HZ I         148 29.84         2.4 0.28                           246 195 
                                                                                
