 2013  1 1 0307 40.5 L   6.663 -73.215142.8  RSN  5 0.5 1.4LRSN                1
 GAP=203        1.33       9.7     9.1  9.7  0.5363E+02  0.1807E+02 -0.2952E+01E
 Epicentro: BARICHARA - SANTANDER                                              3
 ACTION:UPD 13-02-15 09:11 OP:ep   STATUS:               ID:20130101030740 L   I
 2013-01-01-0300-00M.COL___242                                                 6
 STAT SP IPHASW D HRMM SECON CODA AMPLIT PERI AZIMU VELO AIN AR TRES W  DIS CAZ7
 BAR2 SZ EP        3 7 59.16                             176   -0.4410 8.60 155 
 BAR2 SZ ES        3 8 14.26                             176   -0.2110 8.60 155 
 BAR2 SZ I         3 8 15.17         6.1 0.18            176           8.60 155 
 BRR  HZ EP        3 8  1.20                             151   -0.3110 73.7 312 
 BRR  HZ I         3 8  1.56         2.8 0.14            152           73.7 312 
 BRR  HN ES        3 8 18.28                             151    0.4110 73.7 312 
 RUS  HZ EP        3 8  3.05                             147    0.0310 86.4 170 
 RUS  HN ES        3 8 20.98                             147    0.4410 86.4 170 
 RUS  HN I         3 8 21.79         5.5 0.26            147           86.4 170 
 PTB  HZ EP        3 8  5.74                             133   -0.64 9  138 264 
 PTB  HN ES        3 8 26.45                             133   -0.09 9  138 264 
 ZAR  HZ EP        3 8 14.09                             122    1.36 9  203 297 
 ZAR  HZ I         3 8 14.16         2.3 0.22            122            203 297 
 ZAR  HN ES        3 8 37.48                             122   -0.35 9  203 297 
                                                                                
