 2016 11 1 0229 14.1 L   6.798 -73.160145.9  RSN 15 0.3 2.1LRSN                1
 GAP= 70        0.80       3.2     3.2  4.3 -0.2951E+01  0.7351E+00  0.4006E+01E
 Epicentro: LOS SANTOS - SANTANDER                                             3
 ACTION:UPD 17-10-26 21:03 OP:lp   STATUS:               ID:20161101022914 L   I
 OLDACT:UP  16-11-01 13:44 OP:dani STATUS:               ID:20161101022749     3
 OLDACT:UP  16-11-01 13:43 OP:dani STATUS:               ID:20161101022749     3
 OLDACT:REG 16-11-01 12:15 OP:dani STATUS:               ID:20161101022749     3
 2016-11-01-0228-00M.COL___313                                                 6
 STAT SP IPHASW D HRMM SECON CODA AMPLIT PERI AZIMU VELO AIN AR TRES W  DIS CAZ7
 BAR2 EZ EP        229 33.45                             171   -0.2410 22.9 186 
 BAR2 EZ ES        229 48.79                             171   -0.2210 22.9 186 
 BRR  HZ EP     C  229 35.37                             153    0.2210 69.9 299 
 BRR  HN ES        229 51.97                             153    0.3710 69.9 299 
 BRR  HZ I         229 55.66        16.0 0.24            145           69.9 299 
 PAM  EZ EP        229 36.56                             150    0.2010 78.6  40 
 PAM  EN ES        229 53.73                             150   -0.0210 78.6  40 
 PAM  EZ I         229 55.76        22.5 0.46            150           78.6  40 
 RUS  HZ EP        229 37.51                             144   -0.3010  100 175 
 RUS  HN ES        229 56.39                             144    0.0510  100 175 
 RUS  HZ I         229 57.35        19.8 0.26            133            100 175 
 PTB  HZ EP        229 40.11                             132   -0.78 9  146 259 
 PTB  HN ES        230  1.47                             132   -0.35 9  146 259 
 PTB  HZ I         230  8.35        16.2 0.48            122            146 259 
 TAM  HZ EP        229 41.98                             130    0.10 9  157 105 
 SPBC HZ EP        229 42.49                             129    0.04 9  162 219 
 SPBC HN ES        230  4.86                             129    0.26 9  162 219 
 SPBC HZ I         230 11.48        25.3 0.26            119            162 219 
 NOR  HZ EP        229 49.31                             119   -0.33 8  233 234 
 NOR  HE ES        230 17.64                             119    0.24 8  233 234 
 NOR  HZ I         230 22.24        12.5 0.30            110            233 234 
 CHI  HZ EP        229 51.75                             117    0.06 8  248 195 
 CHI  HN ES        230 21.29                             117    0.24 8  248 195 
 CHI  HZ I         230 24.35         7.7 0.38            109            248 195 
 ROSC BZ EP   3    229 53.33                             117    1.26 2  252 211 
 ROSC BZ I         230 31.95        13.9 0.37            108            252 211 
 HEL  HZ EP   4    229 55.66                             115    1.56 0  270 256 
 HEL  HN ES   4    230 23.44                             115   -1.89 0  270 256 
 HEL  HZ I         230 33.70         8.0 0.26            107            270 256 
 GUY2CHZ EP        229 58.24                             112    0.73 7  300 235 
 GUY2CHN ES   4    230 32.93                             112    1.53 0  300 235 
 GUY2CHZ I         230 38.83         6.8 0.62                           300 235 
 LL6C HZ EP   9    229 38.82                             110   -21.0 0  325 358 
 LL6C HN ES   2    230 15.82                                    1.34 3  325 358 
 LL6C HZ I         230 20.06         2.8 0.44            105            325 358 
 ORTC HZ EP        230  7.94                             106    0.09 6  394 216 
 ORTC HZ I         230 57.46         4.0 0.45            100            394 216 
 CRJC HZ EP   9    230 12.66                             103   -3.94 0  468   4 
 CRJC HE ES        231  1.59                             104    0.15 5  468   4 
 CRJC HZ I         231 16.56         3.4 0.40             98            468   4 
                                                                                
