 2013  6 1 0336 51.0 L   6.767 -73.130145.9  RSN 10 0.4 1.4LRSN                1
 GAP=184        0.91       4.2     5.0  5.9  0.4726E+00  0.8069E+01  0.4135E+01E
 Epicentro: LOS SANTOS - SANTANDER                                             3
 ACTION:UPD 14-01-08 09:51 OP:ep   STATUS:               ID:20130601033651 L   I
 2013-06-01-0330-00M.COL___260                                                 6
 STAT SP IPHASW D HRMM SECON CODA AMPLIT PERI AZIMU VELO AIN AR TRES W  DIS CAZ7
 BAR2 SZ EP        337 10.65                             172    0.0610 20.2 197 
 BAR2 SZ ES        337 26.02                             172    0.1510 20.2 197 
 BAR2 SZ I         337 28.50         4.0 0.26            170           20.2 197 
 GIR2 SZ EP        337 10.77                             166   -0.0310 35.2 348 
 GIR2 SZ ES        337 25.95                             166   -0.2910 35.2 348 
 GIR2 SZ I         337 27.09         4.8 0.22            165           35.2 348 
 BRR  HZ IP     C  337 12.66                             151    0.3110 74.5 300 
 BRR  HN ES        337 29.32                             151    0.3110 74.5 300 
 BRR  HZ I         337 31.62         6.1 0.40            149           74.5 300 
 RUS  HZ EP        337 14.53                             145    0.0310 96.8 177 
 RUS  HN ES        337 32.60                             145   -0.2310 96.8 177 
 RUS  HZ I         337 33.94         1.7 0.30            146           96.8 177 
 PTB  HZ EP        337 17.40                             132   -0.68 9  149 260 
 PTB  HN ES        337 39.06                             132   -0.14 9  149 260 
 PTB  HZ I         337 41.84         4.3 0.32            131            149 260 
 OCA  HN ES   2    337 42.91                             129    0.86 5  164 353 
 OCA  HZ I         337 45.80         3.1 0.48            129            164 353 
 NOR  HZ EP        337 27.31                             119    0.64 8  234 235 
 NOR  HN ES        337 54.52                             119    0.03 8  234 235 
 NOR  HZ I         338  0.21         3.2 0.32            118            234 235 
 SML  HN ES   2    337 55.49                             117   -1.50 4  248 335 
 GUY2CHZ  I              338 17.42         2.2 0.32                     301 2360
 GUY2CHZ EP   4    337 36.76                             112    2.22 0  301 236 
 GUY2CHN ES   4    338  8.87                             112    0.36 0  301 236 
 PRA  HZ EP   4    337 45.54                             107    1.28 0  390 210 
 PRA  HN ES   4    338 21.78                             107   -4.02 0  390 210 
 PRA  HZ I         338 31.00         1.1 0.46            107            390 210 
                                                                                
