 2011  1 1 0344 47.1 L   6.878 -73.337121.7  RSN  9 0.2 2.1LRSN                1
 GAP= 90        0.58       2.1     5.0  5.8 -0.7714E+00  0.1186E+02 -0.1632E+01E
 Epicentro: BETULIA - SANTANDER                                                3
 ACTION:UP  11-02-08 08:37 OP:pat  STATUS:               ID:20110101034447 L   I
 2011-01-01-0340-00M.COL___137                                                 6
 STAT SP IPHASW D HRMM SECON CODA AMPLIT PERI AZIMU VELO SNR AR TRES W  DIS CAZ7
 BTL  SZ IP        345  3.77                             175     0.210    9  59 
 BAR2 SZ IP        345  4.45                             163     0.210   36 152 
 BAR2 SZ ES   1    345 17.47                             163    -0.1 7   36 152 
 BAR2 SZ I         345 18.92       100.8 0.23                            36 152 
 RUS  HZ EP   1    345  9.15                             135    -0.4 7  112 166 
 RUS  HZ I         345 10.00         9.6 0.10                           112 166 
 RUS  HN ES   1    345 26.95                             135    -0.2 7  112 166 
 GRA  SZ EP   1    345 10.73                             131     0.4 7  126  28 
 GRA  SZ ES   1    345 28.56                             131     0.1 7  126  28 
 GRA  SZ I         345 31.80        21.7 0.38                           126  28 
 OCA  SZ EP        345 12.50                             125    -0.2 9  151   1 
 OCA  SZ ES   1    345 32.45                             125    -0.2 7  151   1 
 OCA  SZ I         345 36.66        40.1 0.20                           151   1 
 YOP  SZ EP   2    345 17.26                             118    -0.2 4  197 149 
 YOP  SZ I         345 41.87        10.4 0.23                           197 149 
 NOR  SN ES   2    345 46.58                             114     0.4 4  223 230 
 CHI  HZ EP   1    345 24.11                             111     0.1 6  252 190 
 CHI  HN ES   2    345 52.93                             111     0.1 4  252 190 
 CHI  HZ I         345 56.67         4.2 0.48                           252 190 
 MON  HN ES   1    346  7.95                             105    -0.3 5  331 309 
 MON  HZ I         346  9.33         2.8 0.58                           331 309 
                                                                                
