 2015  5 1 0504 51.3 L   6.780 -73.090138.9  RSN  4 0.2 1.0LRSN                1
 GAP=145        0.69       3.7     5.9  6.4 -0.2951E+01 -0.9732E+01  0.3549E+01E
 Epicentro: LOS SANTOS - SANTANDER                                             3
 ACTION:UPD 15-09-10 22:00 OP:cam  STATUS:               ID:20150501050451 L   I
 OLDACT:DUP 15-05-01 16:31 OP:stll STATUS:               ID:20150501045749d    3
 OLDACT:REG 15-05-01 12:45 OP:drio STATUS:               ID:20150501045748     3
 2015-05-01-0457-48M.COL___274                                                 6
 STAT SP IPHASW D HRMM SECON CODA AMPLIT PERI AZIMU VELO AIN AR TRES W  DIS CAZ7
 BAR2 EZ EP        5 5  9.85                             170   -0.2610 23.2 206 
 BAR2 EZ ES        5 5 24.36                             170   -0.4210 23.2 206 
 BAR2 EZ I         5 5 27.26         2.3 0.28            170           23.2 206 
 PAM  SZ EP        5 5 12.76                             150    0.0810 75.4  35 
 PAM  SZ I         5 5 13.00         3.4 0.26            152           75.4  35 
 PAM  SN ES        5 5 29.45                             150    0.1110 75.4  35 
 BRR  HN ES        5 5 28.54                             149    0.1910 77.7 298 
 RUS  HZ EP        5 5 14.15                             143   -0.0610 98.2 180 
 RUS  HN ES        5 5 32.44                             143    0.3610 98.2 180 
 RUS  HZ I         5 5 33.12         1.4 0.52            144           98.2 180 
                                                                                
