 2010  7 1 0326 23.8 L   6.957 -73.203138.5  RSN  4 0.2 1.7LRSN                1
 GAP=149        0.37       3.8     5.6  5.1 -0.9578E+01  0.1952E+01 -0.4657E+01E
 Epicentro: BETULIA - SANTANDER                                                3
 ACTION:UPD 10-12-01 15:14 OP:pat  STATUS:               ID:20100701032623 L   I
 2010-07-01-0324-57S.COL___118                                                 6
 STAT SP IPHASW D HRMM SECON CODA AMPLIT PERI AZIMU VELO AIN AR TRES W  DIS CAZ7
 BAR2 SZ EP   1    326 43.19                             163     0.1 7   40 177 
 BAR2 SZ ES   1    326 57.95                             163    -0.1 7   40 177 
 BRR  HZ EP   1    326 43.53                             156     0.1 7   59 287 
 BRR  HZ I         326 44.71        11.3 0.34                            59 287 
 BRR  HE ES   2    326 58.77                             156    -0.1 5   59 287 
 BRI  SZ EP   2    326 45.89                             143    -0.1 5   95  28 
 BRI  SZ ES   2    327  3.67                             143     0.4 5   95  28 
 GRA  SZ EP   2    326 47.00                             139    -0.2 5  112  23 
 GRA  SZ ES   2    327  5.32                             139    -0.2 5  112  23 
                                                                                
