 2011  5 1 0721 46.4 L   6.794 -73.080145.7  RSN  9 0.4 2.1LRSN                1
 GAP=145        1.15       4.9     9.1  8.1 -0.1330E+02  0.1289E+02 -0.4722E+00E
 Epicentro: LOS SANTOS - SANTANDER                                             3
 ACTION:UP  11-06-29 08:50 OP:tino STATUS:               ID:20110501072146 L   I
 2011-05-01-0720-38S.COL___128                                                 6
 STAT SP IPHASW D HRMM SECON CODA AMPLIT PERI AZIMU VELO SNR AR TRES W  DIS CAZ7
 BAR2 SZ EP        722  5.92                             170    -0.110   25 207 
 BAR2 SZ ES   1    722 21.17                             170    -0.2 7   25 207 
 BAR2 SZ I         722 22.68        45.0 0.17                            25 207 
 PAM  SZ EP        722  8.86                             152     0.510   74  35 
 PAM  SN ES   1    722 25.85                             152     0.3 7   74  35 
 BRR  HZ EP   1    722  7.79                             150    -0.2 7   78 296 
 BRR  HN ES   1    722 25.13                             150     0.4 7   78 296 
 BRR  HZ I         722 27.72        34.0 0.14                            78 296 
 RUS  HZ EP        722  9.79                             144    -0.310  100 180 
 RUS  HN ES   1    722 28.27                             144    -0.3 7  100 180 
 RUS  HZ I         722 31.46        10.3 0.28                           100 180 
 BRI  SZ EP   1    722 10.43                             142     0.3 7  107  17 
 BRI  SZ ES   1    722 29.30                             142     0.6 7  107  17 
 BRI  SZ I         722 32.16        15.6 0.24                           107  17 
 GRA  SZ EP        722 11.76                             137     0.210  124  14 
 GRA  SZ ES   1    722 30.79                             137    -0.3 7  124  14 
 GRA  SZ I         722 33.01        21.2 0.31                           124  14 
 OCA  SZ EP        722 14.12                             129    -0.8 9  162 351 
 OCA  SZ ES   1    722 36.38                             129    -0.7 7  162 351 
 OCA  SZ I         722 40.89        22.5 0.15                           162 351 
 HEL  HZ EP   1    722 27.98                             114     0.6 6  279 256 
 HEL  HZ I         723  5.76         4.0 0.31                           279 256 
 RREF HZ EP   1    722 34.00                             110     0.9 5  327 230 
 RREF HZ I         723 18.41        12.2 0.17                           327 230 
                                                                                
