 2010  9 1 0347  1.5 L   6.855 -73.078146.1  RSN  4 0.1 1.4LRSN                1
 GAP=165        0.35       3.0     7.0  7.2 -0.3576E+00 -0.2640E+02 -0.3406E+01E
 Epicentro: LOS SANTOS - SANTANDER                                             3
 ACTION:UP  11-02-18 10:59 OP:tino STATUS:               ID:20100901034701 L   I
 2010-09-01-0343-38S.COL___120                                                 6
 STAT SP IPHASW D HRMM SECON CODA AMPLIT PERI AZIMU VELO SNR AR TRES W  DIS CAZ7
 BRR  HZ EP   2    347 23.20                             151     0.3 5   75 292 
 BRR  HN ES   2    347 39.55                             151    -0.1 5   75 292 
 RUS  HZ EP   1    347 25.66                             142    -0.1 8  106 180 
 RUS  HN ES   2    347 44.72                             142     0.1 5  106 180 
 RUS  HZ I         347 45.14         1.7 0.43                           106 180 
 GRA  SZ EP        347 26.13                             139     0.010  118  15 
 GRA  SZ I         347 48.48         3.4 0.24                           118  15 
 PRA  HZ EP   2    347 56.04                             106    -0.1 3  401 210 
 PRA  HZ I         348 40.46         1.5 0.36                           401 210 
                                                                                
