 2014  3 1 0607 16.7 L   6.434 -73.632103.9  RSN 12 0.5 1.8LRSN                1
 GAP= 49        1.29       3.0     2.9  7.3 -0.1342E+01  0.3599E+01 -0.4148E+01E
 Epicentro: SANTA HELENA DEL OPON - SANTANDER                                  3
 OLDACT:DUP 14-03-01 13:37 OP:stll STATUS:               ID:20140301055810d    3
 ACTION:UPD 14-04-09 23:13 OP:nd   STATUS:               ID:20140301060716 L   I
 OLDACT:UP  14-03-01 13:50 OP:stll STATUS:               ID:20140301055810d    3
 2014-03-01-0558-08M.COL___219                                                 6
 STAT SP IPHASW D HRMM SECON CODA AMPLIT PERI AZIMU VELO AIN AR TRES W  DIS CAZ7
 BAR2 SZ EP        6 7 33.30                             151    0.6310 52.7  71 
 BAR2 SZ ES        6 7 45.53                             151    0.4310 52.7  71 
 RUS  HZ EP        6 7 35.55                             138    0.1910 85.3 135 
 RUS  HN ES        6 7 50.11                             138    0.2410 85.3 135 
 RUS  SZ I         6 7 51.12        13.7 0.34            140           85.3 135 
 PTB  HZ EP        6 7 34.66                             135   -0.5910 91.9 277 
 PTB  HN ES        6 7 48.63                             135   -1.0610 91.9 277 
 PTB  SZ I         6 7 51.57        27.6 0.14            134           91.9 277 
 SPBC HZ EP        6 7 36.33                             133    0.3310 99.3 209 
 SPBC HN ES        6 7 50.82                             133   -0.2110 99.3 209 
 SPBC SZ I         6 7 55.24        12.8 0.74            133           99.3 209 
 PAM  SZ EP        6 7 41.33                             121    0.46 9  144  46 
 PAM  SN ES        6 7 59.45                             121   -0.23 9  144  46 
 PAM  SZ I         6 8  1.31         8.5 0.44            122            144  46 
 NOR  HZ EP        6 7 43.39                             117    0.55 9  167 235 
 NOR  HN ES        6 8  3.00                             117   -0.19 9  167 235 
 NOR  SZ I         6 8  8.17         7.7 0.16            117            167 235 
 ZAR  HZ EP        6 7 44.31                             115    0.26 9  179 311 
 ZAR  HN ES        6 8  5.62                             115    0.27 9  179 311 
 ZAR  SZ I         6 8 11.65        14.3 0.26            114            179 311 
 CHI  HZ EP        6 7 46.38                             112   -0.52 9  200 183 
 CHI  HN ES        6 8 10.09                             112   -0.34 9  200 183 
 CHI  SZ I         6 8 13.17         7.3 2.80            113            200 183 
 OCA  HN ES        6 8 10.79                             112    0.42 9  203  10 
 TAM  HZ EP        6 7 46.89                             111    0.03 9  204  90 
 TAM  HN ES        6 8  9.61                             111   -0.74 9  204  90 
 TAM  SZ I         6 8 14.96         6.2 0.62            112            204  90 
 HEL  HZ EP        6 7 48.63                             111    0.45 8  212 263 
 HEL  HN ES        6 8 13.46                             111    0.77 8  212 263 
 HEL  SZ I         6 8 17.13         7.6 0.24            110            212 263 
 SML  HZ EP        6 7 53.01                             105   -1.04 8  266 350 
 SML  HE ES        6 8 22.64                             105   -0.50 8  266 350 
 SML  SZ I         6 8 35.81         5.0 0.84            105            266 350 
                                                                                
