 2016  5 1 0959 49.8 L   6.771 -73.133147.9  RSN  6 0.2 1.6LRSN                1
 GAP=139        0.58       2.7     2.7  4.2 -0.9885E+00  0.4184E+01 -0.1282E+01E
 Epicentro: LOS SANTOS - SANTANDER                                             3
 ACTION:UPD 16-08-18 17:40 OP:cam  STATUS:               ID:20160501095949 L   I
 OLDACT:DUP 16-05-01 22:13 OP:ak   STATUS:               ID:20160501095745d    3
 2016-05-01-0957-44M.COL___285                                                 6
 STAT SP IPHASW D HRMM SECON CODA AMPLIT PERI AZIMU VELO AIN AR TRES W  DIS CAZ7
 BAR2 EZ EP   1   10 0  9.11                             172   -0.56 7 20.5 195 
 BAR2 EZ ES       10 0 25.07                             172   -0.0610 20.5 195 
 BAR2 EZ I        10 0 27.23         6.9 0.22            171           20.5 195 
 PAM  EZ EP       10 0 12.33                             151   -0.0410 79.0  37 
 PAM  EN ES       10 0 30.19                             151    0.2410 79.0  37 
 PAM  EZ I        10 0 32.02         5.8 0.54            155           79.0  37 
 RUS  HZ EP       10 0 13.61                             145    0.0410 97.3 177 
 RUS  HN ES       10 0 31.95                             145   -0.1210 97.3 177 
 RUS  HZ I        10 0 34.00         2.7 0.18            149           97.3 177 
 PTB  HZ EP       10 0 17.00                             132   -0.04 9  149 260 
 PTB  HN ES       10 0 37.96                             132   -0.30 9  149 260 
 PTB  HZ I        10 0 43.70         6.8 0.40            133            149 260 
 SPBC HZ EP       10 0 18.53                             130    0.18 9  162 220 
 SPBC HN ES       10 0 40.97                             130    0.38 9  162 220 
 SPBC HZ I        10 0 44.22         8.3 0.12            132            162 220 
 ZAR  HZ EP       10 0 22.65                             122   -0.02 8  207 293 
 ZAR  HN ES       10 0 48.43                             122    0.15 8  207 293 
 ZAR  HZ I        10 0 53.57         5.2 0.28            124            207 293 
                                                                                
