 2017  8 1 0853 21.6 L   6.791 -73.146146.7  RSN  5 0.3 1.1LRSN                1
 GAP=237        0.78       6.2     5.6  6.3  0.2161E+02  0.3938E+01 -0.7550E+00E
 Epicentro: LOS SANTOS - SANTANDER                                             3
 ACTION:UPD 17-09-04 20:15 OP:rebc STATUS:               ID:20170801085321 L   I
 OLDACT:REG 17-08-01 14:40 OP:osc  STATUS:               ID:20170801084744     3
 2017-08-01-0848-00M.COL___392                                                 6
 STAT SP IPHASW D HRMM SECON CODA AMPLIT PERI AZIMU VELO AIN AR TRES W  DIS CAZ7
 BAR2 EZ EP        853 41.41                             171    0.0610 22.3 190 
 BAR2 EZ ES        853 56.22                             171   -0.5210 22.3 190 
 BAR2 EZ I         853 59.91         3.0 0.46            170           22.3 190 
 BRR  HZ EP        853 42.77                             153   -0.1310 71.6 299 
 BRR  HN ES        853 59.96                             153    0.4610 71.6 299 
 RUS  HZ EP        853 45.72                             144    0.3210 99.6 176 
 RUS  HN ES        854  4.07                             144    0.1310 99.6 176 
 RUS  HZ I         854  4.92         1.9 0.30            146           99.6 176 
 PTB  HZ EP        853 48.28                             132   -0.37 9  148 259 
 PTB  HE ES        854  9.75                             132    0.02 9  148 259 
 PTB  HZ I         854 11.51         1.7 0.14            134            148 259 
 ZAR  HN ES        854 19.52                             123   -0.03 9  204 292 
                                                                                
