 2017  1 1 0245 22.0 L   6.777 -73.116143.5  RSN  7 0.4 1.6LRSN                1
 GAP=239        0.97       5.5     5.5  6.4  0.1131E+02  0.1015E+02  0.2263E+01E
 Epicentro: LOS SANTOS - SANTANDER                                             3
 ACTION:UPD 17-05-22 15:54 OP:jn   STATUS:               ID:20170101024521 L   I
 OLDACT:UP  17-03-22 19:37 OP:nlst STATUS:               ID:20170101024521 L   3
 OLDACT:REG 17-01-01 13:37 OP:dnl  STATUS:               ID:20170101023747     3
 2017-01-01-0238-00M.COL___381                                                 6
 STAT SP IPHASW D HRMM SECON CODA AMPLIT PERI AZIMU VELO AIN AR TRES W  DIS CAZ7
 BAR2 EZ IP     C  245 41.25                             171   -0.0510 21.7 200 
 BAR2 EZ ES        245 55.91                             171   -0.4610 21.7 200 
 BAR2 EZ I         246  1.94         7.2 0.58            171           21.7 200 
 BRR  HZ IP     C  245 43.14                             151    0.0210 75.3 299 
 BRR  HN ES        246  0.32                             151    0.7110 75.3 299 
 BRR  HZ I         246  3.45         7.9 0.22            151           75.3 299 
 RUS  HZ EP        245 45.29                             144   -0.0110 97.8 178 
 RUS  HN ES        246  3.75                             144    0.2510 97.8 178 
 RUS  HZ I         246  5.34         3.5 0.44            148           97.8 178 
 PTB  HZ EP        245 48.35                             131   -0.66 9  151 260 
 PTB  HE ES        246  9.81                             131   -0.29 9  151 260 
 PTB  HZ I         246 14.47         5.1 0.18            134            151 260 
 ZAR  HZ EP        245 55.20                             121    0.51 8  208 292 
 ZAR  HN ES        246 19.78                             121   -0.43 8  208 292 
 ZAR  HZ I         246 25.19         6.8 0.32            124            208 292 
 NOR  HZ EP        245 57.78                             118    0.08 8  236 235 
 NOR  HE ES        246 25.84                             118    0.27 8  236 235 
 NOR  HZ I         246 27.35         3.7 0.28            121            236 235 
 GUY2CHZ EP   2    246  6.20                             112    0.58 4  302 236 
 GUY2CHN ES   4    246 41.03                             112    1.37 0  302 236 
 GUY2CHZ I         246 47.91         3.0 0.40                           302 236 
                                                                                
