 2011  5 1 0032 23.4 L   5.836 -73.765118.1  RSN  4 0.6 1.9LRSN                1
 GAP=171        1.22      11.8    11.0 21.4 -0.3153E+02  0.5984E+02 -0.2294E+02E
 Epicentro: JESUS MARIA - SANTANDER                                            3
 ACTION:UP  11-06-29 08:49 OP:tino STATUS:               ID:20110501003223 L   I
 2011-05-01-0028-50S.COL___128                                                 6
 STAT SP IPHASW D HRMM SECON CODA AMPLIT PERI AZIMU VELO SNR AR TRES W  DIS CAZ7
 RUS  HZ EP   2    032 43.19                             146     0.5 5   76  85 
 RUS  HN ES   2    032 57.79                             146     0.1 5   76  85 
 BAR2 SZ EP   1    032 45.08                             135     0.5 7  106  38 
 BAR2 SZ ES   1    033  0.44                             135    -0.7 7  106  38 
 BAR2 SZ I         033  3.29        17.9 0.46                           106  38 
 NOR  SN ES   2    033  3.88                             130    -0.1 5  126 256 
 BRR  HZ EP   1    032 46.70                             126    -0.8 7  141   2 
 BRR  HE ES   1    033  7.21                             126     0.8 7  141   2 
 BRR  HZ I         033  8.37        13.3 0.14                           141   2 
                                                                                
