 2014  3 1 0032 21.1 L   6.515 -73.704 97.0  RSN 18 0.5 2.3LRSN                1
 GAP= 46        1.20       2.3     2.4  5.5 -0.1280E+01  0.1550E+01  0.8477E+00E
 Epicentro: SANTA HELENA DEL OPON - SANTANDER                                  3
 OLDACT:REG 14-03-01 08:15 OP:stll STATUS:               ID:20140301002817     3
 ACTION:UPD 14-04-09 23:13 OP:nd   STATUS:               ID:20140301003221 L   I
 OLDACT:UP  14-03-01 10:46 OP:stll STATUS:               ID:20140301002817     3
 2014-03-01-0028-17M.COL___231                                                 6
 STAT SP IPHASW D HRMM SECON CODA AMPLIT PERI AZIMU VELO AIN AR TRES W  DIS CAZ7
 BAR2 SZ EP        032 37.26                             147    0.6510 58.3  82 
 BAR2 SZ ES        032 49.31                             147    0.5710 58.3  82 
 BRR  HZ IP     D  032 37.02                             143    0.2410 65.5 359 
 BRR  HN ES        032 49.84                             143    0.7910 65.5 359 
 BRR  SZ I         032 50.77        34.6 0.12            140           65.5 359 
 PTB  HZ EP        032 37.55                             136   -0.6710 83.3 272 
 PTB  HN ES        032 50.52                             136   -1.0910 83.3 272 
 PTB  SZ I         032 51.04        95.1 0.10            132           83.3 272 
 RUS  HZ EP        032 40.05                             132   -0.0510 97.2 135 
 RUS  HN ES        032 54.08                             132   -0.8810 97.2 135 
 SPBC HZ EP        032 40.27                             130    0.1010  104 203 
 SPBC HN ES        032 54.89                             130   -0.1910  104 203 
 SPBC SZ I         032 57.36        42.8 0.18            127            104 203 
 PAM  SZ EP        032 44.81                             120    0.06 9  144  51 
 PAM  SN ES        033  3.16                             120   -0.06 9  144  51 
 PAM  SZ I         033  4.51        32.2 0.14            118            144  51 
 NOR  HZ EP        032 46.14                             116   -0.53 9  166 231 
 NOR  HN ES        033  6.47                             116   -0.17 9  166 231 
 NOR  SZ I         033 10.27        29.4 0.18            114            166 231 
 ZAR  HZ EP        032 47.01                             116    0.31 9  167 310 
 ZAR  HN ES        033  7.17                             116    0.48 9  167 310 
 ZAR  SZ I         033 10.21        25.4 0.48            113            167 310 
 OCA  HZ EP   1    032 49.95                             112   -0.11 6  195  13 
 OCA  HN ES        033 12.87                             112    0.19 9  195  13 
 OCA  SZ I         033 17.80        32.6 0.52            110            195  13 
 HEL  HZ EP        032 51.45                             111    0.01 9  205 260 
 HEL  HN ES        033 14.91                             111   -0.23 9  205 260 
 HEL  SZ I         033 20.36        11.3 0.24            109            205 260 
 CHI  HZ EP        032 52.32                             111    0.43 8  208 181 
 CHI  HN ES        033 15.71                             111   -0.23 8  208 181 
 TAM  HZ IP     D  032 52.08                             110    0.28 8  212  92 
 TAM  HN ES        033 15.71                             110   -0.07 8  212  92 
 TAM  SZ I         033 17.21        13.8 0.22            109            212  92 
 GUY2CHZ EP        032 55.16                             108    0.36 8  233 232 
 GUY2CHN ES        033 22.12                             108    1.01 8  233 232 
 GUY2CSZ I         033 29.69        12.1 0.42                           233 232 
 SML  HZ EP        032 56.30                             106   -0.65 8  256 351 
 SML  HE ES        033 24.27                             106   -0.67 8  256 351 
 SML  SZ I         033 35.95        27.4 0.08            105            256 351 
 ORTC HZ EP        033  6.75                             102    0.30 7  335 211 
 ORTC HN ES        033 42.29                             102    0.44 7  335 211 
 ORTC SZ I         033 50.21        18.2 0.58            101            335 211 
 PRA  HZ EP        033  6.46                             102   -0.14 7  336 203 
 PRA  HN ES        033 42.57                             102    0.44 7  336 203 
 PRA  SZ I         033 50.93        13.7 0.32            101            336 203 
 SOCV BZ EP        033  9.94                             101   -0.76 6  370  58 
 SDV  BZ EP        033 17.80                              99   -0.16 5  428  52 
                                                                                
