 2014  2 1 0443 50.9 L   6.764 -73.161140.5  RSN  6 0.5 1.2LRSN                1
 GAP=136        1.38       6.3     7.4 10.4 -0.9610E+01 -0.5669E+01  0.2543E+02E
 Epicentro: LOS SANTOS - SANTANDER                                             3
 ACTION:UPD 14-03-10 08:06 OP:ep   STATUS:               ID:20140201044350 L   I
 OLDACT:REG 14-02-01 07:56 OP:stll STATUS:               ID:20140201043819     3
 2014-02-01-0438-19M.COL___240                                                 6
 STAT SP IPHASW D HRMM SECON CODA AMPLIT PERI AZIMU VELO AIN AR TRES W  DIS CAZ7
 BAR2 SZ EP        444  9.77                             172   -0.0510 19.1 187 
 BAR2 SZ ES        444 24.41                             172   -0.1710 19.1 187 
 BAR2 SZ I         444 25.85         6.7 0.28            159           19.1 187 
 BRR  HN ES        444 28.56                             151    0.9610 71.7 302 
 PAM  SZ I         444 12.89         3.6 0.22            158           81.6  39 
 PAM  SZ EP        444 13.14                             148    0.3110 81.6  39 
 PAM  SN ES        444 29.08                             148   -0.8510 81.6  39 
 RUS  HZ EP        444 14.06                             144    0.2010 96.7 175 
 RUS  HN ES        444 32.23                             144    0.4610 96.7 175 
 RUS  HZ I         444 33.32         1.4 0.20            136           96.7 175 
 PTB  HN ES        444 36.99                             131   -0.77 9  145 260 
 CHI  HZ EP        444 28.04                             116    0.19 8  244 195 
 CHI  HN ES        444 56.17                             116   -0.49 8  244 195 
 CHI  HZ I         444 59.57         1.0 0.46            112            244 195 
                                                                                
