 2017  1 1 0328 59.9 L   6.745 -73.130150.0  RSN  6 0.3 1.4LRSN                1
 GAP=235        0.65       3.8     3.7  4.6  0.5060E+01  0.4492E+01  0.9324E+00E
 Epicentro: LOS SANTOS - SANTANDER                                             3
 ACTION:UPD 17-05-22 15:54 OP:jn   STATUS:               ID:20170101032859 L   I
 OLDACT:REG 17-01-01 13:38 OP:dnl  STATUS:               ID:20170101032744     3
 2017-01-01-0328-00M.COL___381                                                 6
 STAT SP IPHASW D HRMM SECON CODA AMPLIT PERI AZIMU VELO AIN AR TRES W  DIS CAZ7
 BAR2 EZ EP        329 20.01                             173    0.0510 17.8 199 
 BAR2 EZ ES        329 35.37                             173   -0.2210 17.8 199 
 BAR2 EZ I         329 36.70         5.6 0.48            166           17.8 199 
 BRR  HZ IP     C  329 21.90                             152    0.1210 75.8 302 
 BRR  HE ES        329 39.13                             152    0.2910 75.8 302 
 BRR  HZ I         329 43.49         4.2 0.52            149           75.8 302 
 RUS  HZ EP        329 23.87                             146    0.2110 94.4 177 
 RUS  HE ES        329 42.15                             146   -0.0210 94.4 177 
 RUS  HZ I         329 44.81         2.1 0.26            146           94.4 177 
 PTB  HZ EP        329 26.78                             133   -0.51 9  148 261 
 PTB  HN ES        329 48.30                             133   -0.34 9  148 261 
 PTB  HZ I         329 55.46         4.9 0.38            131            148 261 
 ZAR  HZ EP   1    329 32.98                             123   -0.06 6  208 294 
 ZAR  HN ES        329 58.98                             123    0.10 8  208 294 
 ZAR  HZ I         330  4.45         3.7 0.22            123            208 294 
 NOR  HZ EP   1    329 35.65                             120   -0.02 6  233 236 
 NOR  HE ES        330  3.97                             120    0.41 8  233 236 
 NOR  HZ I         330 11.22         2.5 0.30            119            233 236 
                                                                                
