 2014  6 1 0048 56.4 L   6.720 -73.172143.9  RSN  7 0.3 1.5LRSN                1
 GAP= 92        0.77       4.0     3.1  5.3  0.8267E+00  0.2829E+01 -0.3267E+01E
 Epicentro: VILLANUEVA - SANTANDER                                             3
 ACTION:UPD 14-07-01 22:49 OP:nd   STATUS:               ID:20140601004856 L   I
 OLDACT:REG 14-06-01 15:14 OP:stll STATUS:               ID:20140601004820     3
 2014-06-01-0048-20M.COL___256                                                 6
 STAT SP IPHASW D HRMM SECON CODA AMPLIT PERI AZIMU VELO AIN AR TRES W  DIS CAZ7
 BAR2 SZ EP        049 15.60                             174   -0.0210 14.2 185 
 BAR2 SZ ES        049 31.13                             174    0.5010 14.2 185 
 BAR2 SZ I         049 32.48         4.7 0.24            175           14.2 185 
 BRR  HZ EP        049 17.27                             151   -0.1710 73.4 306 
 BRR  HZ I         049 31.07        12.2 0.10            147           73.4 306 
 PAM  SZ EP        049 18.92                             148   -0.0110 86.1  37 
 PAM  SZ I         049 19.13         7.3 0.24            147           86.1  37 
 PAM  SN ES        049 36.27                             148   -0.2610 86.1  37 
 RUS  HZ EP        049 19.61                             146    0.2810 92.0 174 
 RUS  HN ES        049 37.12                             146   -0.1210 92.0 174 
 RUS  HZ I         049 39.00         3.9 0.32            149           92.0 174 
 PTB  HZ EP        049 22.63                             132   -0.15 9  143 262 
 PTB  HN ES        049 42.82                             132   -0.57 9  143 262 
 PTB  HZ I         049 44.51                             130            143 262 
 TAM  HZ EP        049 23.85                             130   -0.12 9  156 102 
 ZAR  HZ EP        049 29.15                             122    0.38 9  205 295 
 ZAR  HE ES        049 54.40                             122    0.35 9  205 295 
 ZAR  HZ I         050  3.77         2.8 0.34            120            205 295 
                                                                                
