 2012  5 1 0726  2.3 L   6.797 -73.155145.7  RSN  5 0.4 1.3LRSN                1
 GAP=135        0.83       6.0     5.7  8.8 -0.3439E+01  0.4816E+01  0.5240E+01E
 Epicentro: LOS SANTOS - SANTANDER                                             3
 ACTION:UP  12-07-05 12:01 OP:pat  STATUS:               ID:20120501072602 L   I
 2012-05-01-0720-00M.COL___189                                                 6
 STAT SP IPHASW D HRMM SECON CODA AMPLIT PERI AZIMU VELO SNR AR TRES W  DIS CAZ7
 BAR2 SZ EP   1    726 21.82                             171    -0.1 7   23 188 
 BAR2 SZ ES   2    726 36.73                             171    -0.5 5   23 188 
 BRR  HZ EP   1    726 23.65                             153     0.3 7   70 299 
 BRR  HE ES   1    726 40.52                             153     0.7 7   70 299 
 BRR  HZ I         726 45.52         3.8 0.32                            70 299 
 PAM  SZ EP   1    726 24.71                             150     0.2 7   78  40 
 PAM  SN ES   1    726 41.43                             150    -0.5 7   78  40 
 RUS  HZ EP   1    726 26.12                             144     0.1 7  100 175 
 RUS  HN ES   1    726 44.74                             144     0.2 7  100 175 
 RUS  HZ I         726 46.26         3.1 0.51                           100 175 
 PTB  HZ EP   1    726 28.85                             132    -0.3 7  147 259 
 PTB  HN ES   1    726 49.57                             132    -0.5 7  147 259 
 PTB  HZ I         726 52.45         2.4 0.31                           147 259 
                                                                                
