 2011 11 1 0450 39.8 L   6.772 -73.086139.6  RSN  4 0.3 1.3LRSN                1
 GAP=146        0.57       5.2     6.8  6.7  0.6949E+01 -0.1643E+02 -0.4001E+00E
 Epicentro: LOS SANTOS - SANTANDER                                             3
 ACTION:UPD 12-07-13 16:07 OP:ep   STATUS:               ID:20111101045039 L   I
 2011-11-01-0448-08S.COL___175                                                 6
 STAT SP IPHASW D HRMM SECON CODA AMPLIT PERI AZIMU VELO AIN AR TRES W  DIS CAZ7
 BAR2 SZ EP        450 58.62                             171   -0.0710 22.6 208 
 BAR2 SZ I         450 58.80         5.6 0.40                          22.6 208 
 BAR2 SZ ES   1    451 13.23                             171   -0.17 7 22.6 208 
 PAM  SZ EP        451  1.53                             150    0.2410 75.9  34 
 PAM  SN ES   3    451 17.43                             150   -0.60 2 75.9  34 
 BRR  HZ EP        451  0.37                             149   -0.3710 78.5 298 
 BRR  HE ES   1    451 17.34                             149    0.28 7 78.5 298 
 BRR  HZ I         451 20.18         5.8 0.16                          78.5 298 
 RUS  HZ EP        451  2.89                             143    0.1710 97.3 180 
 RUS  HZ I         451  3.83         1.4 0.14                          97.3 180 
 RUS  HN ES   3    451 20.73                             143    0.14 2 97.3 180 
                                                                                
