 2011  7 1 0711 24.7 L   6.760 -73.067145.4  RSN 11 0.3 1.9LRSN                1
 GAP=165        0.60       2.4     3.5  4.2 -0.3580E+01  0.4443E+00  0.2136E+01E
 Epicentro: LOS SANTOS - SANTANDER                                             3
 ACTION:UPD 12-07-25 13:57 OP:epov STATUS:               ID:20110701071124 L   I
 2011-07-01-0700-00M.COL___124                                                 6
 STAT SP IPHASW D HRMM SECON CODA AMPLIT PERI AZIMU VELO AIN AR TRES W  DIS CAZ7
 BAR2 SZ EP        711 44.32                             171    0.0810 22.6 214 
 BAR2 SZ I         711 44.68        16.3 0.10                          22.6 214 
 BAR2 SZ ES   1    711 59.74                             171    0.24 7 22.6 214 
 BTL  SZ EP        711 44.69                             169    0.3310 28.2 308 
 GIR2 SZ EP        711 44.44                             165   -0.0510 37.9 338 
 BRR  HZ EP        711 46.23                             149   -0.1210 80.9 298 
 BRR  HZ I         711 46.63        27.0 0.07                          80.9 298 
 BRR  HE ES        712  3.28                             149    0.0110 80.9 298 
 RUS  HZ EP        711 48.16                             145    0.1110 96.0 181 
 RUS  HE ES   2    712  6.16                             145   -0.14 5 96.0 181 
 RUS  HZ I         712  7.97         5.1 0.13                          96.0 181 
 BRI  SZ EP        711 48.80                             141    0.1710  110  16 
 GRA  SZ EP        711 50.11                             136    0.0710  128  13 
 GRA  SZ ES        712  9.32                             136   -0.5110  128  13 
 GRA  SZ I         712 10.87        12.8 0.22                           128  13 
 OCA  SZ EP   1    711 53.42                             129   -0.06 7  166 350 
 OCA  SZ ES        712 16.01                             129    0.06 9  166 350 
 OCA  SZ I         712 19.99         9.0 0.27                           166 350 
 NOR  SZ EP   1    712  0.42                             118   -0.46 6  239 237 
 NOR  SN ES   1    712 28.37                             118   -0.76 6  239 237 
 HEL  HZ EP        712  5.84                             114    0.15 7  280 257 
 HEL  HN ES   1    712 38.21                             114    0.53 6  280 257 
 HEL  HZ I         712 43.80         2.9 0.39                           280 257 
 PRA  HZ EP   1    712 17.94                             106   -0.31 4  393 211 
 PRA  HN ES   1    713  0.08                             106    0.04 4  393 211 
                                                                                
