 2011 11 1 0849 10.0 L   7.399 -73.188129.6  RSN  7 0.2 1.8LRSN                1
 GAP=106        0.40       2.6     3.2  5.0  0.1866E+01  0.9358E+01  0.2872E+01E
 Epicentro: EL PLAYON - SANTANDER                                              3
 ACTION:UPD 12-07-13 16:07 OP:ep   STATUS:               ID:20111101084910 L   I
 2011-11-01-0845-30S.COL___175                                                 6
 STAT SP IPHASW D HRMM SECON CODA AMPLIT PERI AZIMU VELO AIN AR TRES W  DIS CAZ7
 PAM  SZ EP        849 29.29                             156    0.1310 54.4  97 
 PAM  SN ES   1    849 44.21                             156    0.08 7 54.4  97 
 BRR  HZ IP        849 29.15                             151    0.0610 66.2 241 
 BRR  HZ I         849 29.40        26.8 0.48                          66.2 241 
 BAR2 SZ EP        849 31.00                             143    0.0510 89.2 180 
 BAR2 SZ ES   1    849 47.10                             143   -0.22 7 89.2 180 
 BAR2 SZ I         849 48.60        21.7 0.10                          89.2 180 
 OCA  SZ ES   1    849 47.64                             142   -0.10 7 94.0 351 
 RUS  HZ EP   3    849 37.43                             125   -0.76 2  167 176 
 RUS  HZ I         850  2.94         2.0 0.38                           167 176 
 ZAR  HZ EP        849 39.15                             121   -0.20 9  185 273 
 ZAR  HE ES   2    850  2.67                             121    0.39 4  185 273 
 ZAR  HZ I         850  7.22         5.9 0.18                           185 273 
 NOR  SE ES   3    850 20.44                             111    0.34 2  275 223 
                                                                                
