 2016  5 1 0708 23.0 L   6.800 -73.238140.0  RSN  5 0.3 1.6LRSN                1
 GAP=120        0.57       4.5     5.5  6.0 -0.1196E+02  0.8767E+01 -0.4431E+01E
 Epicentro: ZAPATOCA - SANTANDER                                               3
 ACTION:UPD 16-08-18 17:40 OP:cam  STATUS:               ID:20160501070823 L   I
 OLDACT:REG 16-05-01 13:03 OP:dnl  STATUS:               ID:20160501070748     3
 2016-05-01-0707-48M.COL___282                                                 6
 STAT SP IPHASW D HRMM SECON CODA AMPLIT PERI AZIMU VELO AIN AR TRES W  DIS CAZ7
 BAR2 EZ EP        7 8 42.08                             170    0.1410 23.8 165 
 BAR2 EZ ES        7 8 57.02                             170    0.3010 23.8 165 
 BAR2 EZ I         7 8 58.85        11.3 0.38            169           23.8 165 
 PAM  EZ EP        7 8 45.00                             148   -0.0410 84.3  45 
 PAM  EE ES        7 9  2.04                             148   -0.1910 84.3  45 
 PAM  EZ I         7 9  4.30         5.4 0.44            153           84.3  45 
 RUS  HZ EP   2    7 8 46.22                             142   -0.06 5  102 170 
 RUS  HE ES   2    7 9  4.22                             142   -0.21 5  102 170 
 RUS  HZ I         7 9  5.71         2.2 0.42            146            102 170 
 SPBC HZ EP   3    7 8 51.20                             129    0.74 2  157 216 
 SPBC HN ES   2    7 9 10.99                             129   -0.89 5  157 216 
 SPBC HZ I         7 9 18.01        15.0 0.22            128            157 216 
 ZAR  HZ EP   4    7 8 56.94                             123    2.85 0  195 293 
 ZAR  HE ES   2    7 9 18.39                             123    0.05 4  195 293 
 ZAR  HZ I         7 9 25.35         3.6 0.24            121            195 293 
                                                                                
