 2015 12 1 0338 15.3 L   6.830 -73.144141.0  RSN  8 0.4 1.6LRSN                1
 GAP=245        0.88       5.6     5.1  7.6  0.1009E+02  0.1802E+02  0.8326E+01E
 Epicentro: LOS SANTOS - SANTANDER                                             3
 ACTION:UPD 16-02-04 15:01 OP:cam  STATUS:               ID:20151201033815 L   I
 OLDACT:UP  15-12-01 14:52 OP:mh   STATUS:               ID:20151201032751d    3
 OLDACT:DUP 15-12-01 14:45 OP:mh   STATUS:               ID:20151201032751d    3
 2015-12-01-0327-50M.COL___307                                                 6
 STAT SP IPHASW D HRMM SECON CODA AMPLIT PERI AZIMU VELO AIN AR TRES W  DIS CAZ7
 BAR2 EZ EP   1    338 34.77                             169    0.30 7 26.7 189 
 BAR2 EZ ES        338 49.40                             169    0.0110 26.7 189 
 BAR2 EZ I         338 52.29         7.3 0.20            162           26.7 189 
 RUS  HZ EP   1    338 38.96                             142    0.09 7  104 176 
 RUS  HE ES        338 56.95                             142   -0.2810  104 176 
 RUS  HZ I         338 58.30         4.5 0.28            140            104 176 
 PTB  HN ES        339  2.42                             131   -0.37 9  149 258 
 PTB  HZ I         339  4.25         5.2 0.16            129            149 258 
 SPBC HZ EP        338 43.67                             127   -0.07 9  166 218 
 SPBC HN ES        339  6.46                             127    0.57 9  166 218 
 SPBC HZ I         339 12.67         7.8 0.22            126            166 218 
 ZAR  HN ES        339 12.58                             121    0.24 9  203 291 
 NOR  HZ EP   1    338 50.24                             117   -0.78 6  237 234 
 NOR  HE ES   1    339 17.98                             117   -0.87 6  237 234 
 NOR  HZ I         339 24.26         2.8 0.34            117            237 234 
 HEL  HN ES        339 27.02                             114    0.33 8  273 255 
 HEL  HZ I         339 35.01         2.9 0.31            114            273 255 
 ORTC HN ES        339 52.20                             105    0.58 6  398 216 
                                                                                
