 2012 12 1 0221 51.3 L   6.772 -73.167142.0  RSN  7 0.3 1.8LRSN                1
 GAP=135        0.65       2.6     3.0  4.5 -0.1808E+00  0.4116E+01  0.3119E+01E
 Epicentro: LOS SANTOS - SANTANDER                                             3
 ACTION:UPD 13-01-04 14:24 OP:ep   STATUS:               ID:20121201022151 L   I
 2012-12-01-0220-00M.COL___233                                                 6
 STAT SP IPHASW D HRMM SECON CODA AMPLIT PERI AZIMU VELO AIN AR TRES W  DIS CAZ7
 BAR2 SZ EP        222 10.49                             172    0.1310 20.0 185 
 BAR2 SZ ES        222 25.45                             172    0.1810 20.0 185 
 BAR2 SZ I         222 26.90        32.9 0.16                          20.0 185 
 PAM  SZ EP        222 13.22                             149   -0.0910 81.2  39 
 PAM  SN ES        222 30.54                             149    0.0310 81.2  39 
 PAM  SN I         222 31.11         8.3 0.46                          81.2  39 
 RUS  HZ EP        222 14.42                             144    0.0010 97.7 175 
 RUS  HN ES        222 32.45                             144   -0.0510 97.7 175 
 RUS  HN I         222 34.30         5.5 0.16                          97.7 175 
 PTB  HZ EP        222 17.27                             132   -0.38 9  145 260 
 PTB  HN ES        222 38.34                             132    0.09 9  145 260 
 PTB  HN I         222 43.55         7.5 0.22                           145 260 
 ZAR  HN ES        222 48.36                             122   -0.04 9  203 293 
 ZAR  HN I         222 56.35         6.8 0.30                           203 293 
 CHI  HZ EP        222 28.34                             117   -0.01 8  245 195 
 CHI  HN ES        222 56.72                             117   -0.57 8  245 195 
 CHI  HN I         223  0.15         6.6 0.32                           245 195 
 PRA  HZ EP        222 44.78                             106    0.58 6  388 209 
 PRA  HE ES        223 26.21                             106    0.72 6  388 209 
 PRA  HN I         223 31.34         2.2 0.60                           388 209 
                                                                                
