 2012  7 1 0509 13.3 L   6.822 -73.080140.4  RSN  6 0.3 1.6LRSN                1
 GAP=190        0.70       3.6     5.3  6.2 -0.1460E+01  0.4507E+01 -0.1347E+01E
 Epicentro: LOS SANTOS - SANTANDER                                             3
 ACTION:UPD 12-08-14 11:41 OP:ep   STATUS:               ID:20120701050913 L   I
 2012-07-01-0507-59S.COL___215                                                 6
 STAT SP IPHASW D HRMM SECON CODA AMPLIT PERI AZIMU VELO AIN AR TRES W  DIS CAZ7
 BAR2 SZ EP   1    5 9 32.78                             168     0.3 7   28 204 
 BAR2 SZ ES   1    5 9 47.24                             168    -0.1 7   28 204 
 BAR2 SZ I         5 9 49.02        16.9 0.20            168             28 204 
 BRR  HZ EP   1    5 9 34.59                             150     0.3 7   77 294 
 BRR  HN ES   1    5 9 51.08                             150     0.5 7   77 294 
 RUS  HZ EP   1    5 9 36.91                             142     0.2 7  103 180 
 RUS  HN ES   1    5 9 54.65                             142    -0.3 7  103 180 
 RUS  HZ I         5 9 56.64         4.4 0.39            143            103 180 
 PTB  HZ EP   1    5 9 40.63                             129     0.0 7  155 258 
 PTB  HN ES   1    510  1.74                             129    -0.1 7  155 258 
 OCA  HZ EP   1    5 9 40.94                             129    -0.2 7  159 350 
 OCA  HN ES   1    510  2.19                             129    -0.6 7  159 350 
 NOR  SZ EP   1    5 9 49.65                             116     0.1 6  242 235 
 NOR  SE ES   1    510 17.33                             116    -0.5 6  242 235 
