 2016  5 1 0606 35.2 L   6.111 -73.835 96.0  RSN  4 0.2 1.3LRSN                1
 GAP=174        0.40       5.2     4.6  5.6 -0.2115E+02  0.1304E+02 -0.1354E+02E
 Epicentro: EL PENON - SANTANDER                                               3
 ACTION:UPD 16-08-18 17:40 OP:cam  STATUS:               ID:20160501060635 L   I
 OLDACT:DUP 16-05-01 15:53 OP:dnl  STATUS:               ID:20160501055745d    3
 OLDACT:DUP 16-05-01 15:49 OP:dnl  STATUS:               ID:20160501055744d    3
 2016-05-01-0557-43M.COL___270                                                 6
 STAT SP IPHASW D HRMM SECON CODA AMPLIT PERI AZIMU VELO AIN AR TRES W  DIS CAZ7
 SPBC HZ EP        6 6 50.15                             147   -0.2310 57.1 207 
 SPBC HN ES        6 7  2.29                             147    0.0810 57.1 207 
 SPBC HZ I         6 7  4.53        10.5 0.24            152           57.1 207 
 RUS  HZ EP   3    6 6 53.15                             136   -0.08 2 86.6 106 
 RUS  HE ES   2    6 7  7.41                             136    0.13 5 86.6 106 
 RUS  HZ I         6 7  9.00         3.7 0.30            139           86.6 106 
 BAR2 EZ EP   2    6 6 53.51                             134    0.36 5 89.7  54 
 BAR2 EZ ES        6 7  7.11                             134   -0.0310 89.7  54 
 BAR2 EZ I         6 7 10.39        10.3 0.30            137           89.7  54 
 PAM  EZ EP   4    6 7  3.47                             114    0.07 0  185  43 
 GUY2CHZ EP   2    6 7  4.69                             112    0.06 4  196 240 
 GUY2CHN ES   2    6 7 27.82                             112    0.25 4  196 240 
 GUY2CHZ I         6 7 31.45         1.2 0.76                           196 240 
                                                                                
