 2014  7 1 0805 36.4 L   6.794 -73.159126.6  RSN 12 0.5 1.7LRSN                1
 GAP=135        1.22       3.2     4.8  7.3 -0.4538E+01  0.1651E+02 -0.1787E+01E
 Epicentro: LOS SANTOS - SANTANDER                                             3
 ACTION:UPD 15-03-16 20:40 OP:nd   STATUS:               ID:20140701080536 L   I
 OLDACT:UP  14-07-01 20:53 OP:spq  STATUS:               ID:20140701075807     3
 OLDACT:REG 14-07-01 13:13 OP:spq  STATUS:               ID:20140701075807     3
 2014-07-01-0758-07M.COL___244                                                 6
 STAT SP IPHASW D HRMM SECON CODA AMPLIT PERI AZIMU VELO AIN AR TRES W  DIS CAZ7
 BAR2 SZ EP        8 5 54.27                             169    0.5910 22.5 187 
 BAR2 SZ ES   1    8 6  7.55                             169    0.36 7 22.5 187 
 BAR2 SZ I         8 6 11.24        10.2 0.24            171           22.5 187 
 PAM  SZ EP        8 5 57.24                             146    0.5610 78.8  40 
 PAM  SN ES        8 6 12.72                             146    0.2010 78.8  40 
 PAM  SZ I         8 6 21.25         8.4 0.26            153           78.8  40 
 RUS  HN ES        8 6 14.78                             139   -0.5410  100 175 
 RUS  HZ I         8 6 18.36         4.2 0.44            146            100 175 
 PTB  HZ EP        8 6  1.16                             127   -0.54 9  146 259 
 PTB  HN ES        8 6 21.15                             127   -0.30 9  146 259 
 PTB  HZ I         8 6 26.39         5.7 0.26            132            146 259 
 OCA  HZ EP        8 6  3.51                             125    0.20 9  161 354 
 OCA  HN ES        8 6 23.69                             125   -0.63 9  161 354 
 OCA  HZ I         8 6 27.45         9.8 0.34            130            161 354 
 SPBC HZ EP        8 6  2.79                             124   -0.55 9  162 219 
 SPBC HN ES        8 6 24.23                             124   -0.14 9  162 219 
 SPBC HZ I         8 6 29.52         6.0 0.12            130            162 219 
 ZAR  HZ EP        8 6  7.70                             118    0.17 9  203 292 
 ZAR  HN ES        8 6 32.48                             118    0.66 9  203 292 
 ZAR  HZ I         8 6 38.98         6.9 0.28            122            203 292 
 SML  HZ EP        8 6 11.08                             113   -0.91 8  244 336 
 SML  HN ES        8 6 39.30                             113   -0.48 8  244 336 
 SML  HZ I         8 6 42.35        10.1 0.26            118            244 336 
 HEL  HZ EP        8 6 16.20                             111    0.70 8  271 256 
 HEL  HN ES        8 6 46.71                             111    0.68 8  271 256 
 HEL  HZ I         8 6 53.12         2.2 0.28            115            271 256 
 GUY2CHZ EP        8 6 19.85                             108    0.86 7  300 235 
 GUY2CHN ES        8 6 51.92                             108   -0.31 7  300 235 
 GUY2CHZ I         8 6 59.78         2.2 0.28                           300 235 
 PRA  HZ EP        8 6 28.67                             103   -0.48 6  391 209 
 PRA  HN ES        8 7 10.54                             103    0.23 6  391 209 
 PRA  HZ I         8 7 12.02         1.5 0.30            107            391 209 
 ORTC HZ EP        8 6 30.25                             103    0.71 6  394 216 
 ORTC HN ES        8 7 10.12                             103   -0.89 6  394 216 
 ORTC HZ I         8 7 15.07         1.4 0.18            107            394 216 
                                                                                
