 2011 11 1 0905 47.2 L   6.794 -73.122140.9  RSN  5 0.3 1.7LRSN                1
 GAP=140        0.65       4.7     6.2  6.5 -0.1654E+01 -0.2672E+01  0.2725E+01E
 Epicentro: LOS SANTOS - SANTANDER                                             3
 ACTION:UPD 12-07-13 16:07 OP:ep   STATUS:               ID:20111101090547 L   I
 2011-11-01-0901-11S.COL___175                                                 6
 STAT SP IPHASW D HRMM SECON CODA AMPLIT PERI AZIMU VELO AIN AR TRES W  DIS CAZ7
 BAR2 SZ IP        9 6  6.11                             170   -0.1010 23.3 197 
 BAR2 SZ ES   2    9 6 20.32                             170   -0.74 5 23.3 197 
 BAR2 SZ I         9 6 22.14        11.8 0.32                          23.3 197 
 BRR  HZ EP        9 6  8.15                             151    0.2110 73.8 298 
 BRR  HE ES   1    9 6 24.25                             151    0.10 7 73.8 298 
 BRR  HZ I         9 6 30.20        12.5 0.14                          73.8 298 
 PAM  SZ EP        9 6  8.90                             150    0.1010 76.3  38 
 PAM  SE ES   1    9 6 25.97                             150    0.30 7 76.3  38 
 RUS  HZ EP        9 6 10.51                             143    0.1310 99.8 178 
 RUS  HZ I         9 6 29.64         5.4 0.38                          99.8 178 
 OCA  SZ EP        9 6 14.76                             129   -0.44 9  161 352 
 OCA  SZ I         9 6 41.55         9.4 0.30                           161 352 
                                                                                
