 2016  1 1 0347 58.2 L   6.802 -73.166147.9  RSN  9 0.4 1.9LRSN                1
 GAP=181        1.11       3.3     5.2  6.5 -0.4620E+00  0.5238E+01 -0.3516E+01E
 Epicentro: LOS SANTOS - SANTANDER                                             3
 ACTION:UPD 16-03-09 23:21 OP:cam  STATUS:               ID:20160101034758 L   I
 OLDACT:REG 16-01-01 13:45 OP:drio STATUS:               ID:20160101033746     3
 2016-01-01-0337-46M.COL___317                                                 6
 STAT SP IPHASW D HRMM SECON CODA AMPLIT PERI AZIMU VELO AIN AR TRES W  DIS CAZ7
 BAR2 EZ EP        348 18.07                             171    0.0210 23.2 184 
 BAR2 EZ ES        348 33.31                             171   -0.2510 23.2 184 
 BAR2 EZ I         348 34.57        11.6 0.20            169           23.2 184 
 BRR  HZ IP     C  348 19.82                             154    0.3810 69.1 299 
 BRR  HE ES        348 37.00                             154    0.9810 69.1 299 
 BRR  HZ I         348 40.10        11.5 0.28            150           69.1 299 
 RUS  HZ EP        348 22.15                             144   -0.0110  101 175 
 RUS  HE ES        348 40.59                             144   -0.2810  101 175 
 RUS  HZ I         348 41.66         3.6 0.24            147            101 175 
 PTB  HZ EP        348 24.59                             133   -0.52 9  146 259 
 PTB  HN ES        348 45.39                             133   -0.74 9  146 259 
 PTB  HZ I         348 50.68         6.9 0.40            132            146 259 
 OCA  HZ EP        348 26.47                             130   -0.14 9  160 354 
 OCA  HN ES        348 48.71                             130   -0.07 9  160 354 
 OCA  HZ I         348 52.62        13.9 0.34            131            160 354 
 SPBC HZ EP        348 26.99                             130    0.28 9  162 218 
 SPBC HN ES        348 49.22                             130    0.25 9  162 218 
 SPBC HZ I         348 56.05        14.0 0.32            130            162 218 
 ZAR  HZ EP        348 31.00                             123    0.47 9  202 292 
 ZAR  HE ES        348 56.12                             123    0.35 9  202 292 
 ZAR  HZ I         349  2.17         5.9 0.32            123            202 292 
 NOR  HZ EP        348 34.15                             119    0.31 8  233 234 
 NOR  HN ES        349  1.19                             119   -0.47 8  233 234 
 NOR  HZ I         349  8.31         5.9 0.16            120            233 234 
 SML  HZ EP        348 34.81                             118    0.01 8  243 336 
 SML  HE ES        349  2.57                             118   -0.79 8  243 336 
 SML  HZ I         349  8.73         9.4 0.10            119            243 336 
                                                                                
