 2017  6 1 0044 57.4 L   6.825 -73.089142.9  RSN 11 0.4 2.0LRSN                1
 GAP=219        1.20       5.3     5.4  7.7  0.9397E+01 -0.8278E+01 -0.4528E+01E
 Epicentro: LOS SANTOS - SANTANDER                                             3
 ACTION:UPD 17-09-14 16:48 OP:jn   STATUS:               ID:20170601004457 L   I
 OLDACT:DUP 17-06-01 13:48 OP:osc  STATUS:               ID:20170601003735d    3
 OLDACT:REG 17-06-01 12:30 OP:and  STATUS:               ID:20170601003734     3
 2017-06-01-0038-00M.COL___356                                                 6
 STAT SP IPHASW D HRMM SECON CODA AMPLIT PERI AZIMU VELO AIN AR TRES W  DIS CAZ7
 BRR  HZ EP        045 18.40                             150   -0.1210 75.6 294 
 BRR  HE ES        045 35.32                             150    0.3410 75.6 294 
 BRR  HZ I         045 35.84        22.0 0.12            148           75.6 294 
 RUS  HZ EP        045 20.67                             142   -0.4010  103 180 
 RUS  HN ES        045 39.49                             142   -0.0410  103 180 
 RUS  HZ I         045 41.19        12.7 0.32            138            103 180 
 PTB  HZ EP   9    045 23.46                             130   -1.31 0  154 258 
 PTB  HN ES        045 44.19                                   -0.61 9  154 258 
 PTB  HZ I         045 46.90        10.8 0.42            126            154 258 
 SPBC HZ EP   9    045 25.66                             127   -0.63 0  169 220 
 SPBC HE ES        045 48.16                                   -0.02 9  169 220 
 SPBC HZ I         045 51.40        10.1 0.09            123            169 220 
 YPLC HZ EP        045 27.12                             126    0.16 9  176 154 
 YPLC HN ES   4    045 51.35                             126    1.35 0  176 154 
 YPLC HZ I         045 53.82        10.6 0.26            124            176 154 
 ZAR  HZ EP        045 30.77                             121    0.59 8  209 291 
 ZAR  HE ES        045 55.07                             121   -0.67 8  209 291 
 ZAR  HZ I         046  0.39        12.2 0.30            119            209 291 
 NOR  HZ EP   9    045 30.89                             117   -2.82 0  241 235 
 NOR  HE ES        046  0.67                                    1.47 8  241 235 
 NOR  HZ I         046  6.82         7.1 0.20            114            241 235 
 CHI  HZ EP        045 35.33                             116   -0.11 8  253 196 
 CHI  HE ES        046  5.12                             116    0.03 8  253 196 
 CHI  HZ I         046 11.46         3.7 0.42            113            253 196 
 HEL  HZ EP        045 38.83                             114    0.59 7  279 256 
 HEL  HE ES        046 10.38                             114    0.29 7  279 256 
 HEL  HZ I         046 15.52         3.1 0.31            111            279 256 
 ELA  HZ EP   9    045 46.85                             109    1.94 0  336 230 
 ELA  HN IS        046 23.47                                   -0.42 7  336 230 
 ELA  HZ I         046 30.48         4.2 0.38            107            336 230 
 CBOC HE ES        046 21.43                             109   -0.69 7  340 252 
                                                                                
