 2011 11 1 0639 29.0 L   6.824 -73.135138.1  RSN  7 0.3 1.8LRSN                1
 GAP=137        0.68       3.5     5.3  5.9  0.1881E+01 -0.1196E+00 -0.3546E+01E
 Epicentro: LOS SANTOS - SANTANDER                                             3
 ACTION:UPD 12-07-13 16:07 OP:ep   STATUS:               ID:20111101063928 L   I
 2011-11-01-0636-48S.COL___175                                                 6
 STAT SP IPHASW D HRMM SECON CODA AMPLIT PERI AZIMU VELO AIN AR TRES W  DIS CAZ7
 BTL  SZ EP        639 47.79                             172    0.2110 18.0 306 
 BAR2 SZ EP        639 47.55                             169   -0.2010 26.1 191 
 BAR2 SZ ES   1    640  2.21                             169   -0.18 7 26.1 191 
 BAR2 SZ I         640  5.75        12.6 0.68                          26.1 191 
 BRR  HZ IP        639 49.21                             151   -0.0810 71.0 296 
 BRR  HZ I         639 49.40        19.6 0.12                          71.0 296 
 BRR  HE ES   1    640  5.64                             151    0.51 7 71.0 296 
 PAM  SZ EP        639 50.34                             150    0.1310 74.6  40 
 PAM  SN ES   1    640  6.73                             150   -0.04 7 74.6  40 
 RUS  HZ EP        639 51.91                             142   -0.2610  103 177 
 RUS  HN ES   1    640 10.43                             142    0.16 7  103 177 
 RUS  HZ I         640 12.28         5.6 0.22                           103 177 
 OCA  SZ EP        639 56.79                             128    0.33 9  158 353 
 OCA  SZ ES   2    640 17.03                             128   -0.87 5  158 353 
 OCA  SZ I         640 22.00         8.8 0.27                           158 353 
 ZAR  HE ES   2    640 25.06                             121   -0.82 4  204 291 
 ZAR  HZ I         640 30.92         8.7 0.24                           204 291 
                                                                                
