 2016  9 1 0121 15.1 L   6.796 -73.135151.5  RSN  9 0.3 1.6LRSN                1
 GAP=138        0.83       3.1     3.4  5.0 -0.1004E+01  0.3324E+01  0.3873E+01E
 Epicentro: LOS SANTOS - SANTANDER                                             3
 ACTION:UPD 17-08-17 21:05 OP:lp   STATUS:               ID:20160901012115 L   I
 OLDACT:REG 16-09-01 12:41 OP:drio STATUS:               ID:20160901011734     3
 2016-09-01-0118-00M.COL___359                                                 6
 STAT SP IPHASW D HRMM SECON CODA AMPLIT PERI AZIMU VELO AIN AR TRES W  DIS CAZ7
 BAR2 EZ EP        121 35.39                             171    0.0110 23.2 193 
 BAR2 EZ ES        121 50.74                             171   -0.4910 23.2 193 
 BAR2 EZ I         121 53.20        14.0 0.30            170           23.2 193 
 BRR  HZ EP        121 37.37                             153    0.4710 72.4 298 
 BRR  HN ES        121 54.30                             153    0.3710 72.4 298 
 BRR  HZ I         121 55.08        10.4 0.28            154           72.4 298 
 PAM  EZ EP        121 38.12                             152    0.2510 77.0  39 
 PAM  EN ES        121 55.63                             152   -0.0310 77.0  39 
 PAM  EZ I         121 58.92         5.4 0.34            156           77.0  39 
 RUS  HZ EP        121 39.40                             145    0.0510  100 177 
 RUS  HE ES        121 58.25                             145   -0.0410  100 177 
 RUS  HZ I         121 59.17         3.5 0.68            146            100 177 
 PTB  HZ EP        121 41.81                             133   -0.78 9  149 259 
 PTB  HE ES        122  4.01                             133   -0.06 9  149 259 
 PTB  HZ I         122  9.80         4.9 0.34            134            149 259 
 SPBC HZ EP        121 43.99                             130   -0.05 9  164 219 
 SPBC HN ES        122  6.78                             130    0.13 9  164 219 
 SPBC HZ I         122 12.33         8.6 0.36            131            164 219 
 ZAR  HN ES        122 13.40                             123   -0.31 8  205 292 
 NOR  HZ EP        121 51.38                             120    0.18 8  235 235 
 NOR  HE ES        122 19.75                             120    0.36 8  235 235 
 CHI  HZ EP        121 52.67                             118   -0.40 8  249 195 
 CHI  HN ES        122 23.02                             118    0.30 8  249 195 
 CHI  HZ I         122 26.55         2.1 0.24            120            249 195 
 GUY2CHZ EP   4    122  0.51                             113    1.49 0  302 235 
 GUY2CHN ES   4    122 37.24                             113    3.94 0  302 235 
                                                                                
