 2017  2 1 0746 20.6 L   6.810 -73.136151.1  RSN 12 0.5 1.8LRSN                1
 GAP= 73        1.07       3.8     3.5  6.2 -0.1082E+00  0.3319E+01  0.3656E+01E
 Epicentro: LOS SANTOS - SANTANDER                                             3
 ACTION:UPD 17-05-24 15:31 OP:jn   STATUS:               ID:20170201074620 L   I
 OLDACT:UP  17-02-01 17:37 OP:dnl  STATUS:               ID:20170201073745     3
 OLDACT:REG 17-02-01 15:12 OP:dnl  STATUS:               ID:20170201073745     3
 2017-02-01-0738-00M.COL___313                                                 6
 STAT SP IPHASW D HRMM SECON CODA AMPLIT PERI AZIMU VELO AIN AR TRES W  DIS CAZ7
 BAR2 EZ EP        746 40.79                             171   -0.0710 24.6 192 
 BAR2 EZ ES        746 56.03                             171   -0.6610 24.6 192 
 BAR2 EZ I         746 58.39        24.3 0.24            167           24.6 192 
 BRR  HZ IP     D  746 42.68                             153    0.3710 71.6 297 
 BRR  HE ES        747  0.17                             153    0.8910 71.6 297 
 BRR  HZ I         747  0.38        12.8 0.12            151           71.6 297 
 PAM  EZ IP     D  746 43.60                             152    0.3410 75.9  39 
 PAM  EN ES        747  0.95                             152   -0.0110 75.9  39 
 PAM  EZ I         747  2.43         7.8 0.46            155           75.9  39 
 RUS  HZ EP        746 44.62                             145   -0.2910  102 177 
 RUS  HN ES        747  3.46                             145   -0.4410  102 177 
 RUS  HZ I         747  4.46         7.8 0.26            142            102 177 
 PTB  HZ EP        746 47.77                             133   -0.31 9  149 259 
 PTB  HE ES        747  8.85                             133   -0.69 9  149 259 
 PTB  HZ I         747  9.80         8.4 0.16            130            149 259 
 TAM  HZ EP        746 48.95                             132    0.36 9  154 105 
 TAM  HN ES        747 10.49                             132    0.03 9  154 105 
 TAM  HZ I         747 11.91         4.7 0.64            132            154 105 
 ZAR  HZ EP   2    746 53.53                             123    0.11 4  205 292 
 ZAR  HE ES        747 19.29                             123    0.25 9  205 292 
 ZAR  HZ I         747 26.25         8.5 0.36            122            205 292 
 CHI  HZ EP   2    746 58.82                             118    0.12 4  250 195 
 CHI  HN ES        747 28.96                             118    0.51 8  250 195 
 CHI  HZ I         747 35.03         3.2 0.24            116            250 195 
 ROSC BZ EP   4    747  0.64                             117    1.51 0  254 211 
 ROSC BE ES        747 29.72                             117    0.50 8  254 211 
 ROSC BZ I         747 38.45         7.9 0.35            116            254 211 
 CBOC HZ EP   2    747  8.33                             111    0.48 3  335 252 
 CBOC HE ES   4    747 43.32                             111   -1.42 0  335 252 
 CBOC HZ I         747 52.77         1.2 0.40            109            335 252 
 ORTC HZ EP   2    747 14.82                             107   -0.02 3  397 216 
 ORTC HN ES        747 56.82                             107   -0.36 6  397 216 
 ORTC HZ I         748  4.48         2.9 0.28            106            397 216 
 SJC  HZ EP        747 15.10                             106   -1.16 6  409 327 
 SJC  HE ES   4    747 56.75                             106   -2.96 0  409 327 
 SJC  HZ I         747 59.17         1.4 0.66            106            409 327 
                                                                                
