 2010 11 1 0147  4.2 L   6.798 -73.101152.0  RSN  5 0.2 1.4LRSN                1
 GAP=164        0.65       5.0    11.3 11.1  0.2913E+02 -0.8255E+02 -0.3415E+02E
 Epicentro: LOS SANTOS - SANTANDER                                             3
 ACTION:UP  10-12-17 16:49 OP:REBC STATUS:               ID:20101101014704 L   I
 2010-11-01-0144-36S.COL___125                                                 6
 STAT SP IPHASW D HRMM SECON CODA AMPLIT PERI AZIMU VELO SNR AR TRES W  DIS CAZ7
 BAR2 SZ EP   3    147 24.70                             170     0.1 2   25 202 
 BRR  HZ EP        147 26.22                             152    -0.110   76 297 
 BRR  HZ I         147 26.57        11.0 0.18                            76 297 
 BRR  HN ES   1    147 43.70                             152     0.2 7   76 297 
 RUS  HZ EP        147 28.74                             145     0.210  100 179 
 RUS  HE ES   1    147 47.21                             145    -0.3 7  100 179 
 RUS  HZ I         147 48.23         1.5 0.35                           100 179 
 GRA  SZ EP        147 30.10                             139     0.210  125  15 
 GRA  SZ I         147 51.81         3.2 0.16                           125  15 
 OCA  SZ EP        147 32.77                             131    -0.3 9  161 351 
 OCA  SZ I         148  1.21         2.9 0.57                           161 351 
                                                                                
