 2014  7 1 0018 42.8 L   6.793 -73.158144.7  RSN  5 0.4 1.3LRSN                1
 GAP=182        1.12       5.2     7.9  9.9  0.8063E+01  0.4881E+01 -0.1008E+01E
 Epicentro: LOS SANTOS - SANTANDER                                             3
 ACTION:UPD 15-03-16 20:40 OP:nd   STATUS:               ID:20140701001842 L   I
 OLDACT:DUP 14-07-01 15:42 OP:spq  STATUS:               ID:20140701001820d    3
 OLDACT:REG 14-07-01 12:31 OP:spq  STATUS:               ID:20140701001819     3
 2014-07-01-0018-19M.COL___247                                                 6
 STAT SP IPHASW D HRMM SECON CODA AMPLIT PERI AZIMU VELO AIN AR TRES W  DIS CAZ7
 BAR2 SZ ES   1    019 17.58                             171    0.14 7 22.4 187 
 BAR2 SZ I         019 20.48         4.7 0.34            171           22.4 187 
 BRR  HZ EP        019  4.51                             153    0.7610 70.4 300 
 BRR  HN ES        019 20.59                             153    0.4710 70.4 300 
 BRR  HZ I         019 27.46         3.5 0.40            151           70.4 300 
 RUS  HZ EP        019  6.47                             144    0.1110 99.9 175 
 RUS  HN ES        019 24.39                             144   -0.3810 99.9 175 
 RUS  HZ I         019 26.45         1.7 0.38            149           99.9 175 
 PTB  HZ EP        019  9.29                             132   -0.22 9  146 259 
 PTB  HN ES        019 30.01                             132   -0.36 9  146 259 
 PTB  HZ I         019 36.50         3.2 0.42            134            146 259 
 OCA  HN ES        019 32.48                             129   -0.63 9  161 354 
 OCA  HZ I         019 36.78         2.6 0.14            133            161 354 
                                                                                
