 2017  8 1 0846  2.7 L   6.781 -73.162140.4  RSN  5 0.4 0.8LRSN                1
 GAP=135        0.96       4.9     4.4  7.5 -0.2866E+00  0.1267E+02 -0.6000E+01E
 Epicentro: LOS SANTOS - SANTANDER                                             3
 ACTION:UPD 17-09-04 20:15 OP:rebc STATUS:               ID:20170801084602 L   I
 OLDACT:REG 17-08-01 14:40 OP:osc  STATUS:               ID:20170801083736     3
 2017-08-01-0838-00M.COL___383                                                 6
 STAT SP IPHASW D HRMM SECON CODA AMPLIT PERI AZIMU VELO AIN AR TRES W  DIS CAZ7
 BAR2 EZ EP        846 21.70                             171    0.0810 21.0 186 
 BAR2 EZ ES        846 36.48                             171    0.0910 21.0 186 
 PAM  EZ EP        846 24.69                             149    0.1810 80.2  40 
 PAM  EN ES        846 41.16                             149   -0.3710 80.2  40 
 RUS  HZ EP        846 25.55                             143   -0.2210 98.6 175 
 RUS  HN ES        846 44.24                             143    0.4710 98.6 175 
 RUS  HZ I         846 44.98         1.2 0.28            143           98.6 175 
 PTB  HZ EP        846 28.63                             131   -0.39 9  146 260 
 PTB  HN ES        846 48.94                             131   -0.62 9  146 260 
 PTB  HZ I         846 52.48         0.7 0.11            131            146 260 
 ZAR  HZ EP        846 34.92                             121    0.23 9  203 293 
 ZAR  HE ES        847  0.32                             121    0.66 9  203 293 
                                                                                
