 2014  5 1 0208 58.6 L   6.730 -73.193143.3  RSN  6 0.3 1.9LRSN                1
 GAP=238        0.68       4.8     4.3  7.9  0.9278E+01 -0.3329E+01 -0.1772E+02E
 Epicentro: VILLANUEVA - SANTANDER                                             3
 ACTION:UPD 15-03-16 16:54 OP:nd   STATUS:               ID:20140501020858 L   I
 OLDACT:REG 14-05-01 18:34 OP:y    STATUS:               ID:20140501020739     3
 2014-05-01-0207-39M.COL___242                                                 6
 STAT SP IPHASW D HRMM SECON CODA AMPLIT PERI AZIMU VELO AIN AR TRES W  DIS CAZ7
 RUS  HZ EP        2 9 21.56                             145    0.0110 93.4 173 
 RUS  HN ES        2 9 39.48                             145   -0.0110 93.4 173 
 RUS  HZ I         2 9 41.04        11.0 0.32            153           93.4 173 
 PTB  HZ EP        2 9 24.64                             133   -0.09 9  141 261 
 PTB  HN ES        2 9 44.63                             133   -0.52 9  141 261 
 PTB  HZ I         2 9 51.96         8.5 0.16            137            141 261 
 SPBC HZ EP        2 9 26.02                             130    0.03 9  154 219 
 SPBC HN ES        2 9 47.73                             130    0.35 9  154 219 
 SPBC HZ I         2 9 49.50        11.5 0.22            136            154 219 
 ZAR  HZ EP        2 9 30.52                             122   -0.14 9  202 295 
 ZAR  HN ES        2 9 56.18                             122    0.48 9  202 295 
 ZAR  HZ I         210  1.26        12.1 0.28            126            202 295 
 NOR  HN ES        210  0.19                             119   -0.04 8  226 235 
 GUY2CHZ EP   4    2 9 43.10                             112    2.03 0  293 235 
 GUY2CHZ I         211 21.11         2.0 1.66                           293 235 
                                                                                
