 2013  2 1 0722 20.4 L   6.674 -73.233154.8  RSN  5 0.3 1.4LRSN                1
 GAP=196        0.69       3.9     5.1  7.0  0.6702E+01 -0.3346E+01  0.2820E+01E
 Epicentro: BARICHARA - SANTANDER                                              3
 ACTION:UPD 13-03-12 09:29 OP:ep   STATUS:               ID:20130201072220 L   I
 2013-02-01-0720-00M.COL___241                                                 6
 STAT SP IPHASW D HRMM SECON CODA AMPLIT PERI AZIMU VELO AIN AR TRES W  DIS CAZ7
 BAR2 SZ EP        722 40.87                             176   -0.0810 10.7 148 
 BAR2 SZ I         722 58.53         5.8 0.38            174           10.7 148 
 BRR  HZ EP        722 42.90                             154    0.3510 71.4 312 
 BRR  HN ES        722 59.44                             154   -0.3710 71.4 312 
 BRR  HN I         723  2.33         6.9 0.16            152           71.4 312 
 RUS  HZ EP        722 44.22                             149   -0.0110 88.0 169 
 RUS  HN ES        723  2.99                             149    0.1810 88.0 169 
 RUS  HN I         723  5.00         3.6 0.32            146           88.0 169 
 PTB  HZ EP   1    722 46.82                             136   -0.30 7  136 264 
 PTB  HN ES        723  8.26                             136    0.30 9  136 264 
 PTB  HN I         723 14.12         5.1 0.36            133            136 264 
 CHI  HN ES        723 25.14                             121   -0.30 8  233 194 
 CHI  HN I         723 33.66         1.1 0.46            117            233 194 
                                                                                
