 2012  8 1 0703 50.2 L   6.795 -73.208141.0  RSN  6 0.4 1.4LRSN                1
 GAP=129        0.80       6.0     5.7  9.5  0.1129E+01  0.2189E+02  0.2549E+00E
 Epicentro: ZAPATOCA - SANTANDER                                               3
 ACTION:UPD 12-09-10 11:53 OP:ep   STATUS:               ID:20120801070350 L   I
 2012-08-01-0700-00M.COL___215                                                 6
 STAT SP IPHASW D HRMM SECON CODA AMPLIT PERI AZIMU VELO AIN AR TRES W  DIS CAZ7
 BAR2 SZ EP   1    7 4  9.23                             171    0.02 7 22.6 173 
 BAR2 SZ ES   1    7 4 24.04                             171   -0.02 7 22.6 173 
 BAR2 SZ I         7 4 25.32         7.8 0.35                          22.6 173 
 BRR  HZ EP   1    7 4 11.00                             153    0.52 7 65.5 302 
 BRR  HZ I         7 4 11.18         6.5 0.20                          65.5 302 
 BRR  HE ES   1    7 4 26.99                             153    0.66 7 65.5 302 
 PAM  SN ES   1    7 4 28.88                             148   -0.49 7 82.4  43 
 RUS  HN ES   1    7 4 31.47                             143   -0.16 7  101 172 
 RUS  HZ I         7 4 32.80         4.2 0.30                           101 172 
 PTB  HZ EP   1    7 4 16.21                             132    0.09 7  141 259 
 PTB  HN ES   1    7 4 36.00                             132   -0.36 7  141 259 
 PTB  HZ I         7 4 38.70         2.3 0.25                           141 259 
 ZAR  HN ES   2    7 4 45.33                             122   -0.90 4  198 293 
                                                                                
