 2010  8 1 0247 50.4 L   6.746 -73.077144.0  RSN  9 0.4 1.8LRSN                1
 GAP=167        0.84       4.5     8.5  8.1 -0.1933E+02  0.1699E+02  0.8919E+00E
 Epicentro: JORDAN - SANTANDER                                                 3
 ACTION:UP  10-09-07 10:51 OP:vdl  STATUS:               ID:20100801024750 L   I
 2010-08-01-0243-07S.COL___123                                                 6
 STAT SP IPHASW D HRMM SECON CODA AMPLIT PERI AZIMU VELO SNR AR TRES W  DIS CAZ7
 BAR2 SZ IP        248  9.53                             171    -0.210   21 215 
 BAR2 SZ ES   2    248 24.42                             171    -0.4 5   21 215 
 BAR2 SZ I         248 28.28        11.1 0.61                            21 215 
 BRR  HZ EP   2    248 11.60                             149    -0.3 5   81 300 
 BRR  HE ES   2    248 28.52                             149    -0.2 5   81 300 
 RUS  HZ EP   1    248 13.40                             145    -0.1 7   94 180 
 RUS  HN ES   1    248 31.95                             145     0.4 7   94 180 
 RUS  HZ I         248 32.95         4.2 0.32                            94 180 
 GUE  SZ EP   1    248 14.50                             138    -0.8 7  121   8 
 GRA  SZ EP   1    248 16.25                             136     0.5 7  130  13 
 GRA  SZ ES   1    248 36.31                             136     0.7 7  130  13 
 GRA  SZ I         248 37.54        10.3 0.52                           130  13 
 CHI  HZ EP   2    248 27.27                             117    -0.3 4  245 197 
 CHI  HE ES   2    248 56.58                             117     0.0 4  245 197 
 GUY  SZ EP   2    248 34.55                             112     0.3 4  304 237 
 GUY  SN ES   1    249  8.76                             112     0.3 5  304 237 
 GUY  SZ I         249 20.13         8.0 0.12                           304 237 
 RREF HZ EP   2    248 37.28                             111     0.6 3  324 231 
 RREF HZ I         249 21.28         3.5 0.56                           324 231 
 PRA  HZ EP   1    248 43.35                             106    -0.3 4  391 211 
 PRA  HE ES   1    249 25.62                             106     0.4 4  391 211 
 PRA  HZ I         249 31.55         2.6 0.38                           391 211 
                                                                                
