 2014  2 1 0011 33.7 L   6.775 -73.131144.0  RSN 11 0.5 2.0LRSN                1
 GAP= 98        1.08       4.2     4.1  5.8 -0.5757E+01  0.1632E+01  0.7845E+01E
 Epicentro: LOS SANTOS - SANTANDER                                             3
 ACTION:UPD 14-03-10 08:06 OP:ep   STATUS:               ID:20140201001133 L   I
 OLDACT:REG 14-02-01 07:44 OP:stll STATUS:               ID:20140201000809     3
 2014-02-01-0008-09M.COL___236                                                 6
 STAT SP IPHASW D HRMM SECON CODA AMPLIT PERI AZIMU VELO AIN AR TRES W  DIS CAZ7
 BAR2 SZ EP        011 52.85                             171   -0.2510 21.0 196 
 BAR2 SZ ES        012  7.83                             171   -0.3810 21.0 196 
 BAR2 SZ I         012 11.15        25.2 0.20            170           21.0 196 
 BRR  HZ EP        011 54.91                             151    0.0710 74.0 300 
 BRR  HN ES        012 12.19                             151    0.8810 74.0 300 
 BRR  HZ I         012 15.33         9.4 0.12            153           74.0 300 
 PAM  SZ EP        011 55.85                             150    0.0310 78.5  37 
 PAM  SN ES        012 13.07                             150    0.0210 78.5  37 
 PAM  SZ I         012 15.50        14.3 0.60            154           78.5  37 
 RUS  HZ EP        011 56.88                             144   -0.2110 97.7 177 
 RUS  HN ES        012 15.50                             144    0.1810 97.7 177 
 RUS  HZ I         012 18.49        10.7 0.36            146           97.7 177 
 PTB  HZ EP        012  0.02                             131   -0.63 9  149 260 
 PTB  HN ES        012 21.03                             131   -0.62 9  149 260 
 PTB  HZ I         012 23.14        15.6 0.12            133            149 260 
 TAM  HZ IP     C  012  1.19                             131    0.14 9  153 104 
 TAM  HZ I         012  1.33        17.3 0.20            134            153 104 
 SPBC HZ EP        012  1.96                             129   -0.02 9  162 220 
 SPBC HN ES        012 23.59                             129   -0.44 9  162 220 
 SPBC HZ I         012 29.83        15.0 0.16            131            162 220 
 NOR  HZ EP        012  8.98                             118   -0.34 8  234 235 
 NOR  HN ES        012 37.07                             118   -0.02 8  234 235 
 NOR  HZ I         012 40.73        10.2 0.18            120            234 235 
 CHI  HZ EP        012 11.22                             117    0.14 8  246 196 
 CHI  HZ I         012 13.14         4.4 0.14            119            246 196 
 CHI  HN ES        012 40.91                             117    0.69 8  246 196 
 GUY2CHZ EP        012 17.93                             112    0.71 7  301 235 
 GUY2CHE ES        012 52.26                             112    1.11 7  301 235 
 GUY2CHZ I         012 58.37         5.1 0.28                           301 235 
 PRA  HZ EP        012 26.92                             106   -0.08 6  390 210 
 PRA  HZ I         012 28.78         4.5 0.18            108            390 210 
 PRA  HN ES        013  8.07                             106   -0.48 6  390 210 
                                                                                
