 2016  4 1 0053 38.7 L   6.798 -73.148147.0  RSN  8 0.3 1.7LRSN                1
 GAP=136        0.73       2.8     3.2  4.8 -0.1272E+01  0.5998E+01  0.4609E+00E
 Epicentro: LOS SANTOS - SANTANDER                                             3
 ACTION:UPD 16-05-05 14:17 OP:rebc STATUS:               ID:20160401005338 L   I
 OLDACT:REG 16-04-01 12:24 OP:ak   STATUS:               ID:20160401004739     3
 2016-04-01-0047-39M.COL___316                                                 6
 STAT SP IPHASW D HRMM SECON CODA AMPLIT PERI AZIMU VELO AIN AR TRES W  DIS CAZ7
 BAR2 EZ EP        053 58.36                             171   -0.1010 23.0 189 
 BAR2 EZ ES        054 13.91                             171    0.0310 23.0 189 
 BAR2 EZ I         054 15.13        16.0 0.28            172           23.0 189 
 PAM  EZ EP        054  1.38                             151    0.3210 77.8  40 
 PAM  EN ES        054 18.51                             151    0.0110 77.8  40 
 PAM  EZ I         054 26.13         5.9 0.40            153           77.8  40 
 RUS  HZ EP        054  1.88                             144   -0.6610  100 176 
 RUS  HE ES        054 21.28                             144    0.1310  100 176 
 RUS  HZ I         054 22.64         4.7 0.24            148            100 176 
 PTB  HZ EP        054  5.59                             132   -0.14 9  147 259 
 PTB  HE ES        054 26.74                             132   -0.07 9  147 259 
 PTB  HZ I         054 29.04         4.2 0.06            135            147 259 
 SPBC HZ EP        054  7.68                             129    0.44 9  163 219 
 SPBC HE ES        054 29.43                             129   -0.09 9  163 219 
 SPBC HZ I         054 34.43         8.2 0.20            132            163 219 
 ZAR  HZ EP        054 11.09                             123   -0.11 9  204 292 
 ZAR  HN ES        054 36.48                             123   -0.07 9  204 292 
 ZAR  HZ I         054 41.74         5.2 0.34            125            204 292 
 CHI  HZ EP   2    054 15.51                             117   -0.91 4  248 195 
 CHI  HN ES        054 46.03                             117    0.18 8  248 195 
 CHI  HZ I         054 49.90         3.1 0.72            120            248 195 
 GUY2CHZ EP        054 22.91                             112    0.60 7  301 235 
 GUY2CHE ES        054 56.33                             112   -0.00 7  301 235 
 GUY2CHZ I         055  4.75         2.8 0.36                           301 235 
                                                                                
