 2013  4 1 0126  9.9 L   6.761 -73.184150.4  RSN  6 0.4 1.3LRSN                1
 GAP=175        0.76       6.1     6.3  8.1  0.6153E+01  0.1910E+02  0.1523E+02E
 Epicentro: VILLANUEVA - SANTANDER                                             3
 ACTION:UPD 13-05-22 14:34 OP:EP   STATUS:               ID:20130401012609 L   I
 2013-04-01-0120-00M.COL___245                                                 6
 STAT SP IPHASW D HRMM SECON CODA AMPLIT PERI AZIMU VELO AIN AR TRES W  DIS CAZ7
 BAR2 SZ ES   1    126 45.20                             173   -0.48 7 18.7 180 
 BAR2 SZ I         126 46.04         6.1 0.16            173           18.7 180 
 GIR2 SZ ES   1    126 46.29                             166    0.21 7 35.1 358 
 BRR  HZ EP   1    126 31.36                             154   -0.11 7 69.8 303 
 BRR  HE ES   1    126 48.83                             154    0.53 7 69.8 303 
 BRR  HZ I         126 51.40         3.6 0.31            153           69.8 303 
 RUS  HZ EP   1    126 33.92                             146    0.09 7 96.7 173 
 RUS  HE ES   1    126 52.58                             146    0.07 7 96.7 173 
 RUS  HZ I         126 53.47         2.2 0.18            148           96.7 173 
 PTB  HZ EP   1    126 36.64                             134   -0.17 7  143 260 
 PTB  HN ES   1    126 57.15                             134   -0.65 7  143 260 
 PTB  HZ I         127  0.19         2.0 0.11            134            143 260 
 NOR  HE ES   1    127 13.48                             120    0.62 6  229 235 
                                                                                
