 2017  1 1 0440  7.5 L   6.514 -73.590103.2  RSN  9 0.4 1.6LRSN                1
 GAP= 91        0.87       3.7     3.4  7.1  0.1935E+01  0.1061E+02  0.7205E+01E
 Epicentro: SANTA HELENA DEL OPON - SANTANDER                                  3
 ACTION:UPD 17-05-22 15:54 OP:jn   STATUS:               ID:20170101044007 L   I
 OLDACT:REG 17-01-01 13:41 OP:dnl  STATUS:               ID:20170101043743     3
 2017-01-01-0438-00M.COL___381                                                 6
 STAT SP IPHASW D HRMM SECON CODA AMPLIT PERI AZIMU VELO AIN AR TRES W  DIS CAZ7
 BAR2 EZ IP     D  440 22.95                             154   -0.0410 45.9  79 
 BAR2 EZ ES        440 35.16                             154    0.1010 45.9  79 
 BRR  HZ EP        440 23.85                             144   -0.1110 66.9 348 
 BRR  HE ES   1    440 37.37                             144    0.58 7 66.9 348 
 BRR  HZ I         440 45.11         7.3 0.16            146           66.9 348 
 RUS  HZ EP        440 26.00                             136   -0.3510 88.7 141 
 RUS  HN ES        440 41.02                             136   -0.0210 88.7 141 
 RUS  HZ I         440 42.69         3.5 0.18            146           88.7 141 
 PTB  HZ IP     D  440 25.80                             133   -0.5210 95.9 272 
 PTB  HN ES        440 40.71                             133   -0.2710 95.9 272 
 PTB  HZ I         440 41.95        11.4 0.34            137           95.9 272 
 NOR  HZ EP        440 34.71                             115    0.15 9  176 233 
 NOR  HE ES        440 55.85                             115    0.19 9  176 233 
 NOR  HZ I         440 59.65         5.6 0.20            120            176 233 
 ZAR  HZ EP   1    440 35.37                             115    0.80 7  177 308 
 ZAR  HN ES   4    440 57.79                             115    2.12 0  177 308 
 ZAR  HZ I         440 59.84         8.6 0.40            119            177 308 
 TAM  HZ EP   4    440 38.88                             112    1.79 0  199  92 
 TAM  HE ES   4    440 56.98                             112   -3.18 0  199  92 
 TAM  HZ I         440 57.36         7.1 0.48            119            199  92 
 CHI  HN ES   1    441  3.68                             111    0.68 6  209 184 
 GUY2CHZ EP   4    440 44.45                             107    1.78 0  243 234 
 GUY2CHE ES   4    441 14.15                             107    4.06 0  243 234 
 GUY2CHZ I         441 18.57         3.1 0.24                           243 234 
                                                                                
