 2012  7 1 0415 55.7 L   6.802 -73.116136.7  RSN  6 0.4 1.6LRSN                1
 GAP=186        1.01       5.9     7.7  9.8  0.1487E+02  0.1410E+02 -0.5525E+01E
 Epicentro: LOS SANTOS - SANTANDER                                             3
 ACTION:UPD 12-08-14 11:41 OP:ep   STATUS:               ID:20120701041555 L   I
 2012-07-01-0410-00M.COL___201                                                 6
 STAT SP IPHASW D HRMM SECON CODA AMPLIT PERI AZIMU VELO AIN AR TRES W  DIS CAZ7
 BAR2 SZ EP   1    416 14.25                             169     0.0 7   24 197 
 BAR2 SZ I         416 14.53         9.2 0.20            167             24 197 
 BAR2 SZ ES   1    416 28.85                             169     0.2 7   24 197 
 BRR  HZ EP   1    416 16.20                             150     0.2 7   74 297 
 BRR  HZ I         416 16.62        19.4 0.11            150             74 297 
 BRR  HE ES   1    416 32.65                             150     0.8 7   74 297 
 RUS  HZ EP   1    416 18.61                             142     0.1 7  101 178 
 RUS  HN ES   1    416 36.00                             142    -0.4 7  101 178 
 RUS  HZ I         416 37.89         4.1 0.32            141            101 178 
 PTB  HZ EP   1    416 22.20                             129     0.0 7  151 259 
 PTB  HE ES   1    416 42.18                             129    -0.7 7  151 259 
 PTB  HZ I         416 44.72         5.3 0.16            129            151 259 
 OCA  HN ES   1    416 44.09                             127    -0.8 7  160 352 
 ZAR  HZ EP   1    416 28.38                             120     0.5 6  207 292 
 ZAR  HN ES   1    416 52.82                             120    -0.1 6  207 292 
