 2011  6 1 0213 36.6 L   6.778 -73.132149.0  RSN 15 0.3 2.3LRSN                1
 GAP=139        0.57       2.6     4.1  3.5 -0.3782E+01  0.4320E+01  0.1267E+00E
 Epicentro: LOS SANTOS - SANTANDER                                             3
 ACTION:UP  11-07-14 19:02 OP:ep   STATUS:               ID:20110601021336 L   I
 2011-06-01-0212-13S.COL___115                                                 6
 STAT SP IPHASW D HRMM SECON CODA AMPLIT PERI AZIMU VELO SNR AR TRES W  DIS CAZ7
 BAR2 SZ EP   1    213 56.38                             172    -0.2 7   21 195 
 BAR2 SZ ES   1    214 12.49                             172     0.3 7   21 195 
 BAR2 SZ I         214 13.02        93.4 0.16                            21 195 
 BTL  SZ EP   1    213 56.56                             171     0.0 7   22 316 
 BTL  SZ ES   1    214 12.27                             171     0.1 7   22 316 
 GIR2 SZ EP   1    213 56.52                             166    -0.2 7   34 348 
 GIR2 SZ ES   2    214 12.21                             166    -0.2 5   34 348 
 BRR  HZ EP        213 58.23                             152     0.010   74 300 
 BRR  HN ES   1    214 14.99                             152    -0.1 7   74 300 
 BRR  HZ I         214 17.47        42.4 0.16                            74 300 
 PAM  SZ EP   1    213 59.79                             151     0.6 7   78  38 
 PAM  SE ES   1    214 16.76                             151    -0.1 7   78  38 
 RUS  HZ EP   1    214  0.21                             145    -0.3 7   98 177 
 RUS  HN ES   1    214 19.01                             145    -0.1 7   98 177 
 RUS  HZ I         214 20.08        19.9 0.31                            98 177 
 BRI  SZ EP   1    214  1.11                             142     0.2 7  110  20 
 BRI  SZ I         214 24.59        10.9 0.49                           110  20 
 GRA  SZ EP   1    214  2.20                             137    -0.1 7  128  16 
 GRA  SZ ES   1    214 22.64                             137     0.3 7  128  16 
 GRA  SZ I         214 24.80        13.9 0.34                           128  16 
 OCA  SZ EP   1    214  4.98                             130    -0.4 7  163 353 
 OCA  SZ ES   1    214 27.59                             130    -0.3 7  163 353 
 OCA  SZ I         214 31.05        22.8 0.30                           163 353 
 NOR  SZ EP   1    214 12.25                             119    -0.2 6  235 235 
 NOR  SE ES   2    214 40.59                             119     0.1 4  235 235 
 HEL  HZ EP   1    214 17.63                             115     0.6 6  273 256 
 HEL  HZ I         214 55.74        10.8 0.40                           273 256 
 GUY  SZ EP   2    214 20.58                             113     0.0 4  303 236 
 GUY  SZ I         215  3.55        17.7 0.40                           303 236 
 DBB  SZ EP   1    214 24.81                             110     0.4 5  341 275 
 TOL  SZ EP   2    214 25.10                             110     0.2 3  343 225 
 PRA  HZ EP   1    214 30.06                             107     0.0 4  391 210 
                                                                                
