 2013  4 1 0143  6.5 L   6.335 -73.614112.0  RSN 14 0.4 2.2LRSN                1
 GAP= 76        0.97       3.0     2.9  5.8 -0.2005E+01  0.6243E+01 -0.1462E+01E
 Epicentro: SANTA HELENA DEL OPON - SANTANDER                                  3
 ACTION:UPD 13-05-22 14:34 OP:EP   STATUS:               ID:20130401014306 L   I
 2013-04-01-0140-00M.COL___245                                                 6
 STAT SP IPHASW D HRMM SECON CODA AMPLIT PERI AZIMU VELO AIN AR TRES W  DIS CAZ7
 BAR2 SZ EP        143 23.69                             152    0.2510 55.6  59 
 BAR2 SZ ES        143 36.81                             152    0.1410 55.6  59 
 BAR2 SZ I         143 38.12       217.5 0.44            142           55.6  59 
 RUS  HZ EP     D  143 24.92                             144   -0.2410 76.5 130 
 RUS  HN ES        143 39.46                             144   -0.2810 76.5 130 
 RUS  HZ I         143 40.85        18.5 0.16            135           76.5 130 
 BRR  HZ EP     C  143 25.25                             140    0.0510 86.1 353 
 BRR  HZ I         143 46.49        26.1 0.14            130           86.1 353 
 GIR2 SZ EP        143 26.31                             137    0.2310 94.5  29 
 GIR2 SZ ES   1    143 41.69                             137    0.31 7 94.5  29 
 PTB  HZ EP     C  143 25.36                             136   -0.6610 95.8 284 
 PTB  HN ES   1    143 40.59                             136   -0.68 7 95.8 284 
 PTB  HZ I         143 43.43        41.6 0.14            129           95.8 284 
 PAM  SZ EP        143 31.88                             123    0.08 9  150  42 
 PAM  SN ES   1    143 51.84                             123    0.29 7  150  42 
 PAM  SZ I         143 55.48        10.5 0.16            115            150  42 
 NOR  HZ EP        143 32.14                             120   -0.42 9  163 239 
 NOR  HN ES        143 53.54                             120    0.63 9  163 239 
 NOR  HZ I         143 55.41        22.6 0.16            114            163 239 
 ZAR  HZ EP        143 35.35                             116    0.18 9  188 313 
 ZAR  HN ES   1    143 57.58                             116    0.03 7  188 313 
 ZAR  HZ I         144  2.57        23.9 0.38            110            188 313 
 TAM  HZ EP        143 36.53                             114   -0.25 9  202  87 
 TAM  HZ I         143 58.91        12.2 0.16            108            202  87 
 HEL  HZ EP        143 39.37                             113    1.00 8  212 266 
 HEL  HN ES   1    144  3.32                             113    0.08 6  212 266 
 HEL  HZ I         144  9.47         7.0 0.18            108            212 266 
 OCA  HN ES   1    144  2.89                             113    0.01 6  213   9 
 OCA  HZ I         144  8.73        19.7 0.38            107            213   9 
 URE  HZ EP   1    143 42.58                             108   -1.19 6  264 307 
 URE  HN ES   4    144 10.28                             108   -2.58 0  264 307 
 SML  HZ EP   1    143 44.77                             106   -0.59 6  277 350 
 SML  HE ES   1    144 15.89                             106    0.21 6  277 350 
 PRA  HZ EP        143 50.77                             103    0.06 7  322 206 
 PRA  HE ES   1    144 25.65                             103    0.43 5  322 206 
 PRA  HZ I         144 31.32         6.5 0.30            101            322 206 
 SJC  HZ EP   4    144  2.27                              98   -1.37 0  430 336 
 SJC  HN ES   4    144 44.93                              98   -3.30 0  430 336 
                                                                                
