 2012 11 1 0403  5.7 L   6.794 -73.115146.3  RSN 13 0.5 3.0LRSN 3.2WRSN        1
 SPEC AVERAGE  MO 13.9 ST 15.5 OM  2.4 f0 4.63 R0.3386 AL 2.88 WI 13.0 MW  3.2 3
 SPEC SD       MO  0.2 ST 14.2 OM  0.3 f0 1.15 R0.0877 AL      WI      MW  0.2 3
 GAP= 73        1.02       3.4     3.9  5.8 -0.6752E+00  0.5948E+01  0.5434E+01E
 Epicentro: LOS SANTOS - SANTANDER                                             3
 SPEC ZAR HH N MO 14.0 ST 40.8 OM  2.2 f0 6.66 R0.2207 AL 1.60 WI 17.7 MW  3.3 3
 SPEC ZAR HH N T 4 4 3 K 0.000 GD  253 VS 4.20 DE 3.20 Q0230.0 QA 0.60 VS 4.20 3
 SPEC TAM HH N MO 13.8 ST  2.6 OM  2.1 f0 3.06 R0.4804 AL 2.68 WI  9.2 MW  3.2 3
 SPEC TAM HH N T 4 354 K 0.000 GD  210 VS 4.20 DE 3.20 Q0230.0 QA 0.60 VS 4.20 3
 SPEC ROSCBH Z MO 14.1 ST  4.9 OM  2.2 f0 3.13 R0.4696 AL 3.00 WI 19.3 MW  3.3 3
 SPEC ROSCBH Z T 4 414 K 0.000 GD  293 VS 4.20 DE 3.20 Q0230.0 QA 0.60 VS 4.20 3
 SPEC OCA HH N MO 14.3 ST 40.0 OM  2.6 f0 5.12 R0.2871 AL 2.76 WI  8.9 MW  3.5 3
 SPEC OCA HH N T 4 356 K 0.000 GD  217 VS 4.20 DE 3.20 Q0230.0 QA 0.60 VS 4.20 3
 SPEC RUS HH N MO 13.4 ST  4.8 OM  1.8 f0 4.99 R0.2946 AL 3.38 WI  8.8 MW  2.9 3
 SPEC RUS HH N T 4 347 K 0.000 GD  177 VS 4.20 DE 3.20 Q0230.0 QA 0.60 VS 4.20 3
 SPEC PAM SH N MO 13.6 ST 10.5 OM  2.0 f0 5.70 R0.2579 AL 4.91 WI  7.6 MW  3.0 3
 SPEC PAM SH N T 4 344 K 0.000 GD  164 VS 4.20 DE 3.20 Q0230.0 QA 0.60 VS 4.20 3
 SPEC HEL HH N MO 13.9 ST  7.0 OM  2.0 f0 4.03 R0.3648 AL 2.26 WI 20.2 MW  3.2 3
 SPEC HEL HH N T 4 417 K 0.000 GD  311 VS 4.20 DE 3.20 Q0230.0 QA 0.60 VS 4.20 3
 SPEC CHI HH N MO 14.1 ST  8.3 OM  2.2 f0 3.75 R0.3920 AL 2.59 WI 11.3 MW  3.3 3
 SPEC CHI HH N T 4 413 K 0.000 GD  288 VS 4.20 DE 3.20 Q0230.0 QA 0.60 VS 4.20 3
 SPEC BRR HH E MO 14.0 ST 20.4 OM  2.4 f0 5.24 R0.2805 AL 2.78 WI 14.1 MW  3.3 3
 SPEC BRR HH E T 4 343 K 0.000 GD  164 VS 4.20 DE 3.20 Q0230.0 QA 0.60 VS 4.20 3
 ACTION:UPD 12-12-05 15:30 OP:}ep  STATUS:               ID:20121101040305 L   I
 2012-11-01-0400-00M.COL___234                                                 6
 STAT SP IPHASW D HRMM SECON CODA AMPLIT PERI AZIMU VELO AIN AR TRES W  DIS CAZ7
 BAR2 SZ EP        4 3 25.23                             170   -0.2210 23.6 198 
 BAR2 SZ ES   1    4 3 40.29                             170   -0.53 7 23.6 198 
 BAR2 SZ I         4 3 42.98       249.6 0.36                          23.6 198 
 GIR2 SZ IP     C  4 3 25.28                             167   -0.2410 32.6 345 
 GIR2 SZ ES   1    4 3 41.37                             167    0.42 7 32.6 345 
 BRR  HZ IP        4 3 27.07                             151   -0.0710 74.5 298 
 BRR  HE ES   1    4 3 44.09                             151    0.26 7 74.5 298 
 BRR  HE I         4 3 47.61       184.0 0.20                          74.5 298 
 PAM  SZ IP     D  4 3 27.94                             151    0.0210 75.8  37 
 PAM  SN ES   1    4 3 45.17                             151   -0.05 7 75.8  37 
 PAM  SN I         4 3 45.79        72.0 0.40                          75.8  37 
 RUS  HZ IP     D  4 3 29.08                             144   -0.4110 99.8 178 
 RUS  HN ES   1    4 3 47.90                             144   -0.12 7 99.8 178 
 RUS  HN I         4 3 49.60       115.8 0.28                          99.8 178 
 TAM  HZ EP        4 3 33.39                             131    0.24 9  152 105 
 TAM  HN ES   1    4 3 55.14                             131    0.61 7  152 105 
 TAM  HN I         4 3 55.87       144.1 0.38                           152 105 
 OCA  HZ EP        4 3 33.23                             130   -0.97 9  161 352 
 OCA  HE ES   1    4 3 57.04                             130    0.65 7  161 352 
 ZAR  HZ EP        4 3 38.70                             122    0.13 8  207 292 
 ZAR  HE ES   1    4 4  3.96                             122   -0.22 6  207 292 
 ZAR  HE I         4 4  9.07       166.8 0.30                           207 292 
 CHI  HZ EP        4 3 43.34                             117   -0.17 8  249 196 
 CHI  HE ES   1    4 4 13.69                             117    0.73 6  249 196 
 CHI  HE I         4 4 19.43        85.6 0.52                           249 196 
 ROSC BZ EP        4 3 44.86                             117    0.83 8  254 212 
 ROSC BN ES   1    4 4 13.71                             117   -0.18 6  254 212 
 ROSC BZ I         4 4 23.01        57.0 0.40                           254 212 
 HEL  HZ EP        4 3 47.42                             115    1.09 8  275 256 
 HEL  HE ES   1    4 4 18.20                             115    0.21 6  275 256 
 HEL  HE I         4 4 24.70        49.4 0.38                           275 256 
 RREF HZ EP        4 3 52.48                             111    0.32 7  324 230 
 RREF HN ES   1    4 4 27.74                             111   -0.62 5  324 230 
 PRA  HZ EP        4 3 58.61                             106   -0.81 6  393 210 
 PRA  HN ES   1    4 4 40.93                             106   -0.35 4  393 210 
 PRA  HN I         4 4 46.56        28.6 0.50                           393 210 
                                                                                
