 2010  3 1 0619  9.2 L   6.823 -73.068140.2  RSN 10 0.5 2.7LRSN                1
 GAP=191        1.13       3.7     7.2  6.9 -0.5144E-01  0.1440E+02  0.4605E+01E
 Epicentro: LOS SANTOS - SANTANDER                                             3
 ACTION:UP  10-08-24 09:51 OP:vdl  STATUS:               ID:20100301061909 L   I
 2010-03-01-0615-02S.COL___093                                                 6
 STAT SP IPHASW D HRMM SECON CODA AMPLIT PERI AZIMU VELO SNR AR TRES W  DIS CAZ7
 BAR2 SZ IP        619 28.34                             168     0.110   29 207 
 BAR2 SZ ES   1    619 43.01                             168    -0.1 7   29 207 
 BRR  HZ IP        619 30.22                             149     0.110   78 294 
 BRR  HN ES        619 47.22                             149     0.710   78 294 
 BRR  HZ I         619 48.31       131.0 0.19                            78 294 
 RUS  BZ EP        619 32.31                             142    -0.310  103 181 
 RUS  BN ES        619 50.48                             142    -0.310  103 181 
 RUS  BZ I         619 51.64        43.7 0.30                           103 181 
 OCA  SZ EP        619 36.98                             129     0.0 9  159 350 
 OCA  SZ ES        619 58.18                             129    -0.4 9  159 350 
 CHI  HZ EP        619 47.03                             116    -0.1 8  253 197 
 CHI  HN ES        620 17.46                             116     0.8 8  253 197 
 CHI  HZ I         620 23.58        16.5 0.12                           253 197 
 HEL  HZ EP        619 50.65                             113     0.5 7  281 256 
 HEL  HN ES   1    620 20.90                             113    -1.2 6  281 256 
 HEL  HZ I         620 27.71        32.8 0.26                           281 256 
 RREF BZ EP   1    619 56.71                             109     0.7 5  330 230 
 RREF BN ES        620 32.07                             109    -0.5 7  330 230 
 RREF BZ I         620 39.53        31.5 0.20                           330 230 
 DBB  SZ EP        619 56.78                             108    -0.6 6  348 274 
 TOL  SZ EP        619 58.61                             108     0.5 6  351 225 
 PRA  HZ EP        620  3.01                             105    -0.3 6  398 210 
 PRA  HE ES   1    620 44.97                             105    -0.5 4  398 210 
                                                                                
