 2010 12 1 0705  7.0 L   6.802 -73.114149.3  RSN  6 0.2 1.6LRSN                1
 GAP=162        0.55       2.6     6.3  5.8 -0.4555E+01 -0.9289E+01  0.2741E+01E
 Epicentro: LOS SANTOS - SANTANDER                                             3
 ACTION:UP  11-01-14 15:22 OP:pat  STATUS:               ID:20101201070507 L   I
 2010-12-01-0702-25S.COL___132                                                 6
 STAT SP IPHASW D HRMM SECON CODA AMPLIT PERI AZIMU VELO SNR AR TRES W  DIS CAZ7
 BAR2 SZ EP        7 5 26.88                             170    -0.210   24 198 
 BAR2 SZ I         7 5 27.16         8.6 0.13                            24 198 
 BRR  HZ EP        7 5 28.61                             152     0.010   74 297 
 BRR  HZ I         7 5 28.86        16.3 0.13                            74 297 
 BRR  HN ES   1    7 5 45.71                             152     0.1 7   74 297 
 RUS  HZ EP        7 5 31.20                             144     0.110  101 178 
 RUS  HE ES   1    7 5 49.99                             144     0.1 7  101 178 
 RUS  HZ I         7 5 50.85         3.6 0.36                           101 178 
 GUE  SZ EP        7 5 31.91                             140     0.010  116  10 
 GRA  SZ EP        7 5 32.68                             138     0.310  125  16 
 GRA  SZ ES   1    7 5 51.92                             138    -0.4 7  125  16 
 GRA  SZ I         7 5 53.26         7.6 0.26                           125  16 
 CHI  HZ EP        7 5 44.89                             118    -0.1 8  250 196 
 CHI  HN ES   2    7 6 14.10                             118    -0.5 4  250 196 
 CHI  HZ I         7 6 18.00         2.2 0.69                           250 196 
                                                                                
