 2017  2 1 0220  2.2 L   6.783 -73.161145.9  RSN  9 0.4 1.9LRSN                1
 GAP=135        1.04       4.0     4.3  6.5 -0.6019E-01  0.6836E+01  0.6534E+01E
 Epicentro: LOS SANTOS - SANTANDER                                             3
 ACTION:UPD 17-05-24 15:31 OP:jn   STATUS:               ID:20170201022002 L   I
 OLDACT:REG 17-02-01 14:57 OP:dnl  STATUS:               ID:20170201021745     3
 2017-02-01-0218-00M.COL___325                                                 6
 STAT SP IPHASW D HRMM SECON CODA AMPLIT PERI AZIMU VELO AIN AR TRES W  DIS CAZ7
 BAR2 EZ EP        220 21.62                             171   -0.1410 21.3 186 
 BAR2 EZ ES        220 36.64                             171   -0.4210 21.3 186 
 BAR2 EZ I         220 38.72        18.1 0.28            171           21.3 186 
 BRR  HZ EP        220 23.56                             153    0.2710 70.6 300 
 BRR  HN ES        220 40.71                             153    0.9410 70.6 300 
 BRR  HZ I         220 44.48        18.0 0.34            150           70.6 300 
 PAM  EZ EP        220 24.57                             150    0.0410 79.9  40 
 PAM  EE ES        220 41.79                             150   -0.2010 79.9  40 
 PAM  EZ I         220 43.79        26.8 0.52            153           79.9  40 
 RUS  HZ EP        220 25.66                             144   -0.1410 98.9 175 
 RUS  HE ES        220 44.51                             144    0.2710 98.9 175 
 RUS  HZ I         220 45.49        13.3 0.30            147           98.9 175 
 PTB  HZ EP        220 28.33                             132   -0.62 9  146 259 
 PTB  HN ES        220 49.21                             132   -0.64 9  146 259 
 PTB  HZ I         220 54.39         9.1 0.22            132            146 259 
 ZAR  HZ EP   2    220 34.73                             123    0.21 4  203 293 
 ZAR  HN ES        220 59.50                             123   -0.26 9  203 293 
 ZAR  HZ I         221  6.29         6.5 0.24            123            203 293 
 NOR  HZ EP        220 38.08                             119    0.45 8  232 235 
 NOR  HE ES        221  5.62                             119    0.32 8  232 235 
 NOR  HZ I         221  8.15         6.2 0.16            120            232 235 
 CHI  HZ EP        220 39.93                             117    0.31 8  246 195 
 CHI  HN ES        221  8.72                             117   -0.12 8  246 195 
 CHI  HZ I         221 12.62         4.9 0.36            119            246 195 
 URE  HN ES   4    221 13.80                             114   -1.29 0  283 292 
 URE  HZ I         221 21.14         4.8 0.18            114            283 292 
                                                                                
