 2015  8 1 0153 52.5 L   6.846 -73.076130.5  RSN  5 0.4 1.6LRSN                1
 GAP=248        1.01       6.2     7.4  7.2  0.2532E+02  0.1952E+02  0.6719E+01E
 Epicentro: LOS SANTOS - SANTANDER                                             3
 ACTION:UPD 15-09-15 22:59 OP:cam  STATUS:               ID:20150801015352 L   I
 OLDACT:REG 15-08-01 12:06 OP:drio STATUS:               ID:20150801014749     3
 2015-08-01-0147-49M.COL___361                                                 6
 STAT SP IPHASW D HRMM SECON CODA AMPLIT PERI AZIMU VELO AIN AR TRES W  DIS CAZ7
 BAR2 EZ EP        154 10.56                             166    0.0410 30.4 203 
 BAR2 EZ ES        154 23.78                             166   -0.7610 30.4 203 
 BAR2 EZ I         154 26.44        10.7 0.18            163           30.4 203 
 BRR  HZ EP        154 12.64                             148    0.2810 76.0 292 
 BRR  HN ES        154 28.38                             148    0.5510 76.0 292 
 RUS  HZ EP        154 15.14                             139   -0.0610  105 180 
 RUS  HE ES        154 33.22                             139    0.3410  105 180 
 RUS  HZ I         154 34.93         4.2 0.28            140            105 180 
 ZAR  HZ EP        154 24.04                             118   -0.58 8  209 290 
 ZAR  HE ES        154 49.59                             118   -0.05 8  209 290 
 ZAR  HZ I         154 57.10         5.3 0.20            118            209 290 
 GUY2CHZ EP        154 36.93                             108    0.38 7  310 235 
 GUY2CHN ES        155 10.63                             108   -0.25 7  310 235 
 GUY2CHZ I         155 15.83         2.0 0.28                           310 235 
                                                                                
