 2016  9 1 0906 12.7 L   6.821 -73.114141.4  RSN  7 0.3 1.5LRSN                1
 GAP=186        0.80       3.0     4.3  5.5  0.2608E+01  0.4505E+01 -0.2664E+00E
 Epicentro: LOS SANTOS - SANTANDER                                             3
 ACTION:UPD 17-08-17 21:05 OP:lp   STATUS:               ID:20160901090612 L   I
 OLDACT:DUP 16-09-01 16:18 OP:cara STATUS:               ID:20160901085735d    3
 2016-09-01-0858-00M.COL___346                                                 6
 STAT SP IPHASW D HRMM SECON CODA AMPLIT PERI AZIMU VELO AIN AR TRES W  DIS CAZ7
 BAR2 HZ IP        9 6 31.99                             169    0.1210 26.4 197 
 BAR2 HZ ES        9 6 47.01                             169    0.1810 26.4 197 
 BAR2 HZ I         9 6 52.99         4.8 0.20            170           26.4 197 
 BRR  HZ IP        9 6 33.86                             151    0.3710 73.2 296 
 BRR  HN ES        9 6 50.03                             151    0.3110 73.2 296 
 BRR  HZ I         9 6 53.88        10.0 0.32            152           73.2 296 
 RUS  HZ EP        9 6 36.54                             142    0.3610  103 178 
 RUS  HE ES        9 6 53.92                             142   -0.5810  103 178 
 RUS  HZ I         9 6 55.41         2.2 0.48            147            103 178 
 PTB  HZ EP        9 6 39.33                             130   -0.34 9  152 258 
 PTB  HE ES        9 7  0.53                             130   -0.18 9  152 258 
 PTB  HZ I         9 7  1.58         3.4 0.16            133            152 258 
 OCA  HE ES        9 7  1.72                             129   -0.46 9  158 352 
 OCA  HZ I         9 7  3.19         7.8 0.32            132            158 352 
 SPBC HZ EP        9 6 41.11                             127   -0.14 9  167 219 
 SPBC HE ES        9 7  3.66                             127    0.14 9  167 219 
 SPBC HZ I         9 7  5.75         4.6 0.16            131            167 219 
 ZAR  HZ EP        9 6 45.28                             121    0.17 8  206 291 
 ZAR  HN ES        9 7 10.30                             121   -0.09 8  206 291 
 ZAR  HZ I         9 7 16.97         4.3 0.38            124            206 291 
                                                                                
