 2014 10 1 0658 35.9 L   6.749 -73.175149.6  RSN  7 0.3 1.6LRSN                1
 GAP=179        0.85       3.4     4.9  6.6  0.3410E+01  0.7567E+01  0.2089E+01E
 Epicentro: LOS SANTOS - SANTANDER                                             3
 ACTION:UPD 14-11-29 23:45 OP:nd   STATUS:               ID:20141001065835 L   I
 OLDACT:REG 14-10-01 13:07 OP:stll STATUS:               ID:20141001065818     3
 2014-10-01-0658-18M.COL___286                                                 6
 STAT SP IPHASW D HRMM SECON CODA AMPLIT PERI AZIMU VELO AIN AR TRES W  DIS CAZ7
 BAR2 SZ ES        659 11.41                             173   -0.0910 17.3 183 
 BRR  HN ES        659 14.85                             153    0.5310 71.3 304 
 BRR  HZ I         659 17.31         5.0 0.34            151           71.3 304 
 RUS  HZ EP        658 59.66                             146   -0.0210 95.2 174 
 RUS  HN ES        659 17.93                             146   -0.2810 95.2 174 
 PTB  HZ EP        659  2.54                             134   -0.29 9  144 261 
 PTB  HN ES        659 23.29                             134   -0.53 9  144 261 
 PTB  HZ I         659 25.37         4.7 0.10            132            144 261 
 SPBC HZ EP        659  4.57                             131    0.45 9  157 219 
 SPBC HN ES        659 26.46                             131    0.35 9  157 219 
 SPBC HZ I         659 34.33         4.6 0.14            130            157 219 
 OCA  HN ES        659 27.62                             129   -0.10 9  166 354 
 OCA  HZ I         659 30.30         3.8 0.38            130            166 354 
 ZAR  HN ES        659 33.94                             123   -0.04 9  203 294 
 ZAR  HZ I         659 38.87         4.0 0.40            123            203 294 
                                                                                
