 2017  4 1 0637 36.5 L   6.663 -73.215147.2  RSN  6 0.4 1.0LRSN                1
 GAP=204        1.11       6.1     6.3  8.9  0.1386E+02  0.9902E+01 -0.1448E+01E
 Epicentro: BARICHARA - SANTANDER                                              3
 ACTION:UPD 17-05-30 21:07 OP:jn   STATUS:               ID:20170401063736 L   I
 OLDACT:REG 17-04-01 13:25 OP:lv   STATUS:               ID:20170401062741     3
 2017-04-01-0628-00M.COL___362                                                 6
 STAT SP IPHASW D HRMM SECON CODA AMPLIT PERI AZIMU VELO AIN AR TRES W  DIS CAZ7
 BAR2 EZ EP        637 56.21                             177    0.0910 8.56 155 
 BAR2 EZ ES        638 10.86                             177   -0.5410 8.56 155 
 BRR  HZ EP        637 58.28                             152    0.3110 73.8 312 
 BRR  HE ES        638 14.92                             152    0.2210 73.8 312 
 BRR  HZ I         638 15.55         2.2 0.08            150           73.8 312 
 RUS  HZ EP        637 59.02                             148   -0.4310 86.4 170 
 RUS  HN ES        638 17.88                             148    0.5510 86.4 170 
 RUS  HZ I         638 18.97         1.6 0.32            148           86.4 170 
 PTB  HZ EP        638  2.45                             134   -0.29 9  138 264 
 PTB  HN ES        638 22.50                             134   -0.69 9  138 264 
 PTB  HZ I         638 25.36         1.0 0.13            132            138 264 
 SPBC HN ES        638 25.09                             133    0.36 9  147 220 
 SPBC HZ I         638 28.81         1.7 0.15            130            147 220 
 ZAR  HZ EP   4    638 11.44                             123    2.44 0  203 297 
 ZAR  HE ES        638 34.81                             123    0.48 9  203 297 
 ZAR  HZ I         638 40.99         1.3 0.25            122            203 297 
                                                                                
