 2011  5 1 0030 23.5 L   6.760 -73.110141.9  RSN  8 0.3 1.6LRSN                1
 GAP=143        0.74       4.0     5.8  7.6 -0.9361E+01  0.3655E+01 -0.1021E+01E
 Epicentro: LOS SANTOS - SANTANDER                                             3
 ACTION:UP  11-06-29 08:49 OP:tino STATUS:               ID:20110501003023 L   I
 2011-05-01-0028-50S.COL___128                                                 6
 STAT SP IPHASW D HRMM SECON CODA AMPLIT PERI AZIMU VELO SNR AR TRES W  DIS CAZ7
 BAR2 SZ EP   1    030 42.21                             171    -0.4 7   20 203 
 BRR  HZ EP   1    030 44.58                             150     0.0 7   77 300 
 BRR  HN ES   1    031  1.31                             150     0.3 7   77 300 
 BRR  HZ I         031  4.42        11.0 0.10                            77 300 
 PAM  SZ EP   1    030 45.65                             150     0.3 7   78  35 
 PAM  SN ES   1    031  2.31                             150    -0.1 7   78  35 
 PAM  SZ I         031  5.12         3.0 0.15                            78  35 
 RUS  HZ EP   1    030 47.12                             144     0.6 7   96 178 
 RUS  HN ES   1    031  4.26                             144    -0.3 7   96 178 
 RUS  HZ I         031  5.94         5.1 0.17                            96 178 
 BRI  SZ EP   2    030 47.53                             140     0.3 5  111  18 
 BRI  SZ I         031  7.97         8.4 0.41                           111  18 
 GRA  SZ EP   1    030 48.70                             135     0.0 7  129  15 
 GRA  SZ ES   1    031  8.35                             135     0.0 7  129  15 
 GRA  SZ I         031  9.41         5.2 0.20                           129  15 
 OCA  SZ EP   1    030 51.47                             128    -0.5 7  165 352 
 OCA  SZ I         031 16.92         6.0 0.28                           165 352 
 NOR  SN ES   1    031 26.75                             118    -0.1 6  235 236 
                                                                                
