 2012  9 1 0521 50.7 L   6.792 -73.144146.2  RSN  9 0.4 2.5LRSN                1
 GAP= 71        0.94       4.5     4.9  7.1 -0.2308E-01 -0.3069E+01 -0.1530E+01E
 Epicentro: LOS SANTOS - SANTANDER                                             3
 ACTION:UP  12-10-22 14:16 OP:ep   STATUS:               ID:20120901052150 L   I
 2012-09-01-0520-00M.COL___218                                                 6
 STAT SP IPHASW D HRMM SECON CODA AMPLIT PERI AZIMU VELO AIN AR TRES W  DIS CAZ7
 BAR2 SZ IP        522 10.39                             171   -0.0110 22.5 191 
 BAR2 SZ I         522 10.54        72.3 0.20                          22.5 191 
 BAR2 SZ ES   1    522 25.16                             171   -0.58 7 22.5 191 
 GIR2 SZ EP        522 10.45                             167   -0.0310 32.1 350 
 BRR  HZ I         522 12.26        80.2 0.28                          71.8 299 
 BRR  HZ IP        522 12.27                             152    0.3010 71.8 299 
 BRR  HN ES   1    522 29.74                             152    1.22 7 71.8 299 
 PAM  SZ EP        522 13.36                             151    0.3310 77.9  39 
 PAM  SN ES   1    522 30.46                             151    0.04 7 77.9  39 
 RUS  HZ EP        522 14.30                             144   -0.1710 99.7 176 
 RUS  HN ES   1    522 32.87                             144   -0.11 7 99.7 176 
 RUS  HZ I         522 35.75        20.5 0.40                          99.7 176 
 PTB  HZ EP        522 17.80                             132    0.06 9  148 259 
 PTB  HN ES   1    522 38.29                             132   -0.52 7  148 259 
 TAM  HZ EP        522 18.56                             131    0.15 9  155 105 
 TAM  HZ I         522 18.68        49.4 0.20                           155 105 
 OCA  HZ EP        522 18.92                             130   -0.24 9  161 353 
 OCA  HN ES   1    522 40.39                             130   -0.94 7  161 353 
 OCA  HZ I         522 45.20        64.5 0.24                           161 353 
 ZAR  HZ EP   3    522 22.90                             122   -0.36 2  205 292 
 ZAR  HN ES   3    522 48.61                             122   -0.02 2  205 292 
                                                                                
