 2013  3 1 0735 30.3 L   6.538 -73.539108.4  RSN 10 0.5 2.0LRSN                1
 GAP=112        1.07       4.5     3.8  6.9  0.3116E+00  0.6541E+01  0.5998E+01E
 Epicentro: EL CARMEN DE CHUCURI - SANTANDER                                   3
 ACTION:UPD 13-04-09 13:59 OP:ep   STATUS:               ID:20130301073530 L   I
 2013-03-01-0728-52M.COL___162                                                 6
 STAT SP IPHASW D HRMM SECON CODA AMPLIT PERI AZIMU VELO AIN AR TRES W  DIS CAZ7
 BAR2 SZ EP        735 46.29                             158    0.2610 39.8  81 
 BAR2 SZ ES        735 58.52                             158    0.2010 39.8  81 
 BRR  HZ EP        735 47.18                             146    0.0210 65.8 343 
 BRR  HE ES        736  0.65                             146    0.3310 65.8 343 
 BRR  HN I         736  8.59        29.7 0.16            143           65.8 343 
 PTB  HZ IP        735 49.13                             134   -0.8710  102 270 
 PTB  HE ES   1    736  4.36                             134   -1.03 7  102 270 
 PTB  HZ I         736  5.67        18.8 0.14            132            102 270 
 ZAR  HZ EP   1    735 57.75                             116   -0.17 7  180 306 
 ZAR  HE ES   1    736 20.23                             116    0.74 7  180 306 
 ZAR  HZ I         736 22.80        22.0 0.32            115            180 306 
 OCA  HN ES   1    736 21.17                             115   -0.54 7  190   7 
 OCA  HZ I         736 27.05        10.7 0.34            114            190   7 
 TAM  HZ EP   1    735 59.09                             114   -0.38 6  194  93 
 TAM  HN ES   1    736 22.47                             114    0.23 6  194  93 
 HEL  HZ EP        736  3.77                             111    0.51 8  224 260 
 HEL  HN ES   1    736 29.32                             111    0.33 6  224 260 
 HEL  HZ I         736 34.09         6.6 0.34            111            224 260 
 SML  HZ EP   1    736  6.06                             107   -0.60 6  257 347 
 SML  HN ES   1    736 35.72                             107    0.68 6  257 347 
 SML  HZ I         736 42.01         9.6 0.07            107            257 347 
 URE  HN ES   4    736 33.75                             107   -1.52 0  258 301 
 URE  HZ I         736 37.43         5.8 0.28            107            258 301 
 PRA  HZ EP   1    736 17.69                             101    0.42 5  346 206 
 PRA  HN ES   1    736 54.28                             101    0.36 5  346 206 
 PRA  HZ I         736 59.60         5.9 0.26            102            346 206 
                                                                                
