 2015  3 1 0541 57.5 L   6.825 -73.161148.4  RSN  9 0.4 1.8LRSN                1
 GAP= 69        0.95       3.2     3.6  6.0 -0.1371E+01  0.2441E+01  0.4545E+01E
 Epicentro: LOS SANTOS - SANTANDER                                             3
 ACTION:UPD 15-04-30 16:21 OP:nd   STATUS:               ID:20150301054157 L   I
 OLDACT:REG 15-03-01 15:22 OP:carl STATUS:               ID:20150301053739     3
 2015-03-01-0537-39M.COL___290                                                 6
 STAT SP IPHASW D HRMM SECON CODA AMPLIT PERI AZIMU VELO AIN AR TRES W  DIS CAZ7
 BAR2 EZ IP     C  542 17.48                             170   -0.0110 25.8 185 
 BAR2 EZ ES        542 32.98                             170   -0.1110 25.8 185 
 BAR2 EZ I         542 33.88        12.5 0.48            168           25.8 185 
 BRR  HZ IP     C  542 19.27                             154    0.4910 68.4 297 
 BRR  HN ES        542 36.06                             154    0.6810 68.4 297 
 BRR  HZ I         542 37.02        13.8 0.28            152           68.4 297 
 PAM  SZ EP        542 20.40                             152    0.4710 76.4  42 
 PAM  SN ES        542 37.39                             152   -0.0510 76.4  42 
 PAM  SZ I         542 38.00        12.7 0.20            155           76.4  42 
 RUS  HZ EP        542 21.60                             144   -0.1110  103 175 
 RUS  HN ES        542 40.19                             144   -0.4110  103 175 
 RUS  HZ I         542 42.38         4.6 0.30            144            103 175 
 PTB  HZ EP        542 24.05                             133   -0.53 9  147 258 
 PTB  HN ES        542 45.41                             133   -0.30 9  147 258 
 PTB  HZ I         542 51.21         8.1 0.14            132            147 258 
 TAM  HN ES        542 47.55                             131    0.03 9  157 106 
 OCA  HN ES        542 47.08                             131   -0.69 9  157 354 
 OCA  HZ I         542 50.47         6.7 0.30            132            157 354 
 SPBC HZ EP        542 26.49                             129    0.19 9  164 218 
 SPBC HN ES        542 48.92                             129    0.15 9  164 218 
 SPBC HZ I         542 54.52        11.1 0.12            129            164 218 
 CHI  HZ EP        542 35.47                             117   -0.11 8  251 195 
 CHI  HN ES        543  5.46                             117    0.18 8  251 195 
 CHI  HZ I         543 10.27         2.6 0.22            118            251 195 
                                                                                
