 2016  6 1 0708 48.1 L   5.850 -73.966107.0  RSN  5 0.5 1.3LRSN                1
 GAP=121        1.14       6.1     6.2  9.6 -0.5088E+01 -0.9091E+01 -0.1867E+02E
 Epicentro: LA BELLEZA - SANTANDER                                             3
 ACTION:UPD 16-07-21 22:14 OP:rebc STATUS:               ID:20160601070847 L   I
 OLDACT:REG 16-06-01 13:44 OP:edw  STATUS:               ID:20160601070744     3
 2016-06-01-0707-44M.COL___304                                                 6
 STAT SP IPHASW D HRMM SECON CODA AMPLIT PERI AZIMU VELO AIN AR TRES W  DIS CAZ7
 SPBC HZ EP        7 9  2.99                             166    0.1010 24.8 208 
 SPBC HE ES        7 9 14.73                             166    0.2810 24.8 208 
 SPBC HZ I         7 9 15.84         8.7 0.10                          24.8 208 
 PTB  HZ EPg       7 9  6.42                             135   -0.5810 93.6 325 
 PTB  HZ EP        7 9  7.39                             135    0.3910 93.6 325 
 PTB  HE ES        7 9 21.32                             135   -0.4410 93.6 325 
 PTB  HZ I         7 9 23.54         2.2 0.16                          93.6 325 
 RUS  HZ EP   2    7 9  7.67                             134   -0.36 5 97.9  87 
 RUS  HE ES   4    7 9 21.01                             134   -2.57 0 97.9  87 
 BAR2 EZ EP        7 9  9.88                             128    0.2210  119  47 
 BAR2 EZ ES        7 9 25.85                             128   -0.6410  119  47 
 BAR2 EZ I         7 9 27.42         5.8 0.24                           119  47 
 BRR  HZ EP        7 9 11.59                             123    0.01 9  142  11 
 BRR  HN ES        7 9 30.71                             123    0.81 9  142  11 
                                                                                
