 2015  4 1 0714 32.6 L   6.770 -73.124148.3  RSN  6 0.4 1.5LRSN                1
 GAP=184        1.07       5.1     5.5  8.4 -0.1223E+02  0.9567E+00  0.6984E+01E
 Epicentro: LOS SANTOS - SANTANDER                                             3
 ACTION:UPD 15-06-03 16:51 OP:cam  STATUS:               ID:20150401071432 L   I
 OLDACT:UP  15-04-01 14:26 OP:mh   STATUS:               ID:20150401070749     3
 OLDACT:UP  15-04-01 14:26 OP:mh   STATUS:               ID:20150401070749     3
 OLDACT:REG 15-04-01 13:18 OP:mh   STATUS:               ID:20150401070749     3
 2015-04-01-0707-49M.COL___271                                                 6
 STAT SP IPHASW D HRMM SECON CODA AMPLIT PERI AZIMU VELO AIN AR TRES W  DIS CAZ7
 BRR  HZ EP        714 54.78                             152    0.5910 74.9 300 
 BRR  HN ES        715 11.15                             152    0.0810 74.9 300 
 BRR  HZ I         716 14.47         3.9 0.26            149           74.9 300 
 PAM  SZ EP        714 55.71                             151    0.6010 78.5  37 
 PAM  SN ES        715 12.67                             151   -0.0410 78.5  37 
 PAM  SZ I         715 14.89         5.6 0.62            158           78.5  37 
 PTB  HZ EP        714 59.60                             132   -0.29 9  150 260 
 PTB  HN ES        715 21.30                             132    0.09 9  150 260 
 PTB  HZ I         715 22.70         2.9 0.40            139            150 260 
 SPBC HZ EP        715  1.35                             130    0.20 9  162 220 
 SPBC HN ES        715 22.86                             130   -0.60 9  162 220 
 SPBC HZ I         715 27.18         3.3 0.24            142            162 220 
 OCA  HZ EP        715  0.61                             130   -0.79 9  164 352 
 OCA  HN ES        715 23.48                             130   -0.43 9  164 352 
 OCA  HZ I         715 28.10         8.1 0.32            138            164 352 
 ZAR  HZ EP   1    715  5.62                             122    0.09 6  208 293 
 ZAR  HN ES        715 31.59                             122    0.35 8  208 293 
 ZAR  HZ I         715 39.20         2.4 0.46            131            208 293 
                                                                                
