 2017  1 1 0144 47.0 L   6.772 -73.119144.5  RSN  9 0.4 1.9LRSN                1
 GAP=141        0.94       3.7     4.3  6.1  0.1133E+01  0.1016E+02  0.4141E+01E
 Epicentro: LOS SANTOS - SANTANDER                                             3
 ACTION:UPD 17-05-22 15:53 OP:jn   STATUS:               ID:20170101014447 L   I
 OLDACT:REG 17-01-01 13:36 OP:dnl  STATUS:               ID:20170101013746     3
 2017-01-01-0138-00M.COL___384                                                 6
 STAT SP IPHASW D HRMM SECON CODA AMPLIT PERI AZIMU VELO AIN AR TRES W  DIS CAZ7
 BAR2 EZ IP     C  145  6.41                             171   -0.0410 21.1 199 
 BAR2 EZ ES        145 21.23                             171   -0.3810 21.1 199 
 BAR2 EZ I         145 22.16        21.7 0.24            171           21.1 199 
 BRR  HZ IP     C  145  8.38                             151    0.1210 75.3 299 
 BRR  HE ES        145 25.50                             151    0.6610 75.3 299 
 BRR  HZ I         145 29.44        15.7 0.10            150           75.3 299 
 PAM  EZ EP   2    145  8.96                             150   -0.17 5 78.0  36 
 PAM  EE ES        145 26.22                             150   -0.1610 78.0  36 
 PAM  EZ I         145 27.39        16.2 0.20            153           78.0  36 
 RUS  HZ EP        145 10.94                             144    0.5310 97.4 178 
 RUS  HN ES        145 28.69                             144    0.0310 97.4 178 
 RUS  HZ I         145 29.71         8.7 0.22            146           97.4 178 
 PTB  HZ EP        145 13.25                             131   -0.84 9  150 260 
 PTB  HE ES        145 34.79                             131   -0.43 9  150 260 
 PTB  HZ I         145 36.48         8.1 0.10            132            150 260 
 ZAR  HZ EP        145 19.89                             121    0.11 8  208 293 
 ZAR  HN ES        145 45.41                             121    0.07 8  208 293 
 ZAR  HZ I         145 48.02         7.2 0.10            123            208 293 
 NOR  HZ EP        145 22.86                             118    0.12 8  235 235 
 NOR  HE ES        145 50.90                             118    0.29 8  235 235 
 NOR  HZ I         145 55.10         3.5 0.54            119            235 235 
 CHI  HN ES        145 53.52                             117   -0.05 8  246 196 
 URE  HZ EP   4    145 30.77                             113    2.31 0  288 292 
 URE  HN ES   4    145 59.52                             113   -1.27 0  288 292 
 URE  HZ I         146  0.65         8.7 0.36            114            288 292 
                                                                                
