 2015  1 1 0938 50.5 L   6.155 -73.763100.2  RSN  7 0.5 1.1LRSN                1
 GAP=131        1.40       5.6     4.6 11.6  0.1429E+01  0.2074E+02 -0.2811E+00E
 Epicentro: LANDAZURI - SANTANDER                                              3
 ACTION:UPD 15-03-02 15:35 OP:nd   STATUS:               ID:20150101093850 L   I
 OLDACT:REG 15-01-01 15:28 OP:stll STATUS:               ID:20150101093746     3
 2015-01-01-0937-46M.COL___277                                                 6
 STAT SP IPHASW D HRMM SECON CODA AMPLIT PERI AZIMU VELO AIN AR TRES W  DIS CAZ7
 BAR2 EZ EP        939  7.89                             138   -0.1210 80.4  53 
 BAR2 EZ ES        939 22.14                             138    0.4610 80.4  53 
 BAR2 EZ I         939 22.77         9.3 0.18            121           80.4  53 
 RUS  HZ EP        939  8.04                             138   -0.3510 80.7 111 
 RUS  HN ES        939 22.54                             138    0.1910 80.7 111 
 RUS  HZ I         939 24.46         1.4 0.44            120           80.7 111 
 PTB  HZ EP        939  7.42                             135   -0.8910 87.6 299 
 PTB  HN ES        939 21.35                             135   -0.8610 87.6 299 
 PTB  HZ I         939 24.58         2.4 0.12            116           87.6 299 
 BRR  HZ EP        939  9.78                             129   -0.1110  105   3 
 BRR  HN ES        939 25.17                             129    0.1410  105   3 
 BRR  HZ I         939 28.58         2.9 0.10            112            105   3 
 NOR  HN ES        939 31.75                             121    0.64 9  139 242 
 NOR  HZ I         939 33.90         4.6 0.38            104            139 242 
 ZAR  HZ EP        939 18.76                             112   -0.20 9  191 321 
 ZAR  HN ES        939 42.15                             112    0.97 9  191 321 
 ZAR  HZ I         939 45.79         2.2 0.20             99            191 321 
 HEL  HZ EP        939 20.43                             111    0.51 9  195 271 
 HEL  HZ I         939 47.03         1.1 0.28             99            195 271 
                                                                                
