 2011 12 1 0654 17.2 L   6.776 -73.123148.9  RSN  8 0.3 2.0LRSN                1
 GAP=141        0.56       2.6     4.0  4.8 -0.2974E+01  0.4020E+01  0.1671E+01E
 Epicentro: LOS SANTOS - SANTANDER                                             3
 ACTION:UPD 12-07-13 16:13 OP:ep   STATUS:               ID:20111201065417 L   I
 2011-12-01-0652-34S.COL___161                                                 6
 STAT SP IPHASW D HRMM SECON CODA AMPLIT PERI AZIMU VELO AIN AR TRES W  DIS CAZ7
 BAR2 SZ IP        654 36.94                             171   -0.1910 21.3 198 
 BAR2 SZ I         654 37.27        19.8 0.36                          21.3 198 
 BRR  HZ IP     C  654 38.82                             152   -0.0310 74.7 299 
 BRR  HZ I         654 39.09        34.0 0.28                          74.7 299 
 BRR  HN ES   1    654 56.30                             152    0.54 7 74.7 299 
 PAM  SZ EP        654 39.70                             151   -0.0510 77.9  37 
 PAM  SN ES   1    654 57.09                             151   -0.27 7 77.9  37 
 RUS  HZ EP        654 41.25                             145    0.2210 97.8 177 
 RUS  HN ES   1    654 59.57                             145   -0.07 7 97.8 177 
 OCA  SZ EP        654 45.96                             130   -0.04 9  163 352 
 OCA  SZ I         655 12.35        11.1 0.20                           163 352 
 NOR  SZ EP        654 53.15                             119    0.02 8  235 235 
 NOR  SN ES   1    655 20.55                             119   -0.63 6  235 235 
 CHI  HZ EP        654 55.10                             118    0.27 8  247 196 
 CHI  HZ I         654 57.06         4.7 0.18                           247 196 
 CHI  HN ES   1    655 24.23                             118    0.02 6  247 196 
 HEL  HZ EP   2    654 57.79                             115    0.05 4  274 256 
 HEL  HZ I         655 35.47         3.3 0.28                           274 256 
                                                                                
