 2015  5 1 0617 17.0 L   6.788 -73.135133.9  RSN  4 0.0 1.0LRSN                1
 GAP=138        0.31       2.2     4.0  4.6  0.4797E+01 -0.1145E+02 -0.4147E+01E
 Epicentro: LOS SANTOS - SANTANDER                                             3
 ACTION:UPD 15-09-10 22:00 OP:cam  STATUS:               ID:20150501061717 L   I
 OLDACT:DUP 15-05-01 16:06 OP:stll STATUS:               ID:20150501060750d    3
 2015-05-01-0607-49M.COL___273                                                 6
 STAT SP IPHASW D HRMM SECON CODA AMPLIT PERI AZIMU VELO AIN AR TRES W  DIS CAZ7
 BAR2 EZ EP        617 35.10                             170   -0.0910 22.3 194 
 BAR2 EZ I         617 35.19         3.1 0.42            170           22.3 194 
 BRR  HZ EP        617 36.99                             150    0.0010 72.9 299 
 BRR  HN ES        617 52.59                             150    0.0210 72.9 299 
 PAM  SZ EP        617 38.02                             148    0.0310 77.7  38 
 PAM  SZ I         617 38.18         2.8 0.24            150           77.7  38 
 RUS  HZ EP        617 39.55                             142    0.0410 99.2 177 
 RUS  HN ES        617 57.06                             142    0.0110 99.2 177 
 RUS  HZ I         617 59.46         1.0 0.24            143           99.2 177 
                                                                                
