 2016  6 1 0122 56.8 L   6.819 -73.117148.1  RSN 11 0.5 1.8LRSN                1
 GAP=193        1.12       4.8     6.5  6.1  0.6050E+01  0.2091E+01  0.5056E+01E
 Epicentro: LOS SANTOS - SANTANDER                                             3
 ACTION:UPD 16-07-21 22:14 OP:rebc STATUS:               ID:20160601012256 L   I
 OLDACT:UP  16-06-02 14:13 OP:nlst STATUS:               ID:20160601012256 L   3
 OLDACT:UP  16-06-01 14:39 OP:edw  STATUS:               ID:20160601011744     3
 OLDACT:REG 16-06-01 12:33 OP:edw  STATUS:               ID:20160601011744     3
 2016-06-01-0117-44M.COL___310                                                 6
 STAT SP IPHASW D HRMM SECON CODA AMPLIT PERI AZIMU VELO AIN AR TRES W  DIS CAZ7
 BAR2 EZ EP        123 16.91                             170    0.1110 26.1 196 
 BAR2 EZ ES        123 32.19                             170   -0.1910 26.1 196 
 BAR2 EZ I         123 33.62        13.4 0.22                          26.1 196 
 BRR  HZ EP        123 18.96                             152    0.6310 73.0 296 
 BRR  HN ES        123 35.84                             152    0.7310 73.0 296 
 RUS  HZ EP        123 20.98                             144    0.0310  103 178 
 RUS  HE ES        123 39.26                             144   -0.5110  103 178 
 RUS  HZ I         123 40.68         4.4 0.18                           103 178 
 PTB  HZ EP        123 23.64                             132   -0.67 9  151 258 
 PTB  HN ES        123 44.91                             132   -0.83 9  151 258 
 PTB  HZ I         123 46.74         6.2 0.42                           151 258 
 SPBC HZ EP        123 26.12                             129    0.27 9  167 219 
 SPBC HN ES        123 48.74                             129    0.24 9  167 219 
 SPBC HZ I         123 52.83         9.7 0.28                           167 219 
 NOR  HZ EP        123 32.92                             119   -0.18 8  239 234 
 CHI  HZ EP        123 35.61                             117    0.64 8  252 196 
 CHI  HE ES        124  5.06                             117    0.33 8  252 196 
 CHI  HZ I         124  8.02         3.9 0.58                           252 196 
 URE  HZ EP   2    123 38.51                             114    0.26 4  286 291 
 URE  HN ES   4    124  8.16                             114   -2.40 0  286 291 
 PTGC HZ EP        123 40.21                             112   -0.68 7  310 159 
 PRA  HZ EP        123 50.98                             107    0.15 6  395 210 
 PRA  HE ES        124 33.12                             107    0.17 6  395 210 
 PRA  HZ I         124 37.48         3.2 0.70                           395 210 
 SJC  HZ EP        123 51.80                             106   -0.66 6  409 326 
                                                                                
