 2012  4 1 0116  6.6 L   6.771 -73.181144.9  RSN  5 0.4 1.5LRSN                1
 GAP=133        0.86       5.9     5.1 10.1  0.2105E+01  0.8407E+01  0.5582E+01E
 Epicentro: LOS SANTOS - SANTANDER                                             3
 ACTION:UPD 12-07-05 11:49 OP:tino STATUS:               ID:20120401011606 L   I
 2012-04-01-0110-00M.COL___196                                                 6
 STAT SP IPHASW D HRMM SECON CODA AMPLIT PERI AZIMU VELO AIN AR TRES W  DIS CAZ7
 BRR  HZ EP   1    116 27.89                             153     0.4 7   69 302 
 BRR  HZ I         116 28.34        14.5 0.09                            69 302 
 BRR  HE ES   1    116 44.56                             153     0.7 7   69 302 
 PAM  SZ EP   1    116 29.16                             149     0.2 7   82  40 
 PAM  SN ES   1    116 45.93                             149    -0.5 7   82  40 
 PAM  SZ I         116 47.89         3.6 0.45                            82  40 
 RUS  HZ EP   1    116 30.09                             144     0.1 7   98 174 
 RUS  HN ES   1    116 48.20                             144    -0.1 7   98 174 
 RUS  HZ I         116 49.10         3.6 0.23                            98 174 
 PTB  HZ EP   1    116 32.87                             133    -0.2 7  143 260 
 PTB  HN ES   1    116 53.49                             133    -0.2 7  143 260 
 ZAR  HN ES   1    117  3.31                             122    -0.5 6  202 293 
                                                                                
