 2011  1 1 0824  1.2 L   6.826 -73.261141.7  RSN  6 0.2 1.5LRSN                1
 GAP=138        0.43       3.0    10.4  6.5 -0.1738E+02  0.4172E+02 -0.9998E+01E
 Epicentro: ZAPATOCA - SANTANDER                                               3
 ACTION:UP  11-02-08 08:37 OP:pat  STATUS:               ID:20110101082401 L   I
 2011-01-01-0820-00M.COL___137                                                 6
 STAT SP IPHASW D HRMM SECON CODA AMPLIT PERI AZIMU VELO SNR AR TRES W  DIS CAZ7
 BAR2 SZ EP        824 20.55                             169     0.110   27 162 
 BAR2 SZ ES   2    824 35.60                             169     0.1 5   27 162 
 BAR2 SZ I         824 36.63         8.5 0.20                            27 162 
 RUS  HZ EP   1    824 24.74                             142    -0.2 7  105 169 
 RUS  HN ES   1    824 43.16                             142    -0.2 7  105 169 
 RUS  HZ I         824 45.18         2.4 0.29                           105 169 
 GRA  SZ EP   1    824 26.39                             136     0.1 7  128  23 
 GRA  SZ I         824 50.19         3.7 0.32                           128  23 
 OCA  SZ EP   1    824 28.74                             129    -0.1 7  156 358 
 OCA  SZ I         824 55.19         4.9 0.28                           156 358 
 NOR  SZ EP   2    824 35.59                             118    -0.2 4  226 232 
 CHI  HZ EP   1    824 38.85                             116     0.2 6  248 192 
 CHI  HE ES   1    825  8.06                             116     0.2 6  248 192 
 CHI  HZ I         825 14.32         2.6 0.61                           248 192 
                                                                                
