 2010 11 1 0241 29.5 L   6.810 -73.116142.0  RSN 17 0.5 2.7LRSN                1
 GAP=138        1.10       3.4     5.8  6.8 -0.2037E+01  0.1322E+02  0.4421E+01E
 Epicentro: LOS SANTOS - SANTANDER                                             3
 ACTION:UP  10-12-17 16:49 OP:REBC STATUS:               ID:20101101024129 L   I
 2010-11-01-0239-29S.COL___125                                                 6
 STAT SP IPHASW D HRMM SECON CODA AMPLIT PERI AZIMU VELO SNR AR TRES W  DIS CAZ7
 BAR2 SZ IP        241 48.81                             169     0.010   25 197 
 BAR2 SZ ES   1    242  3.34                             169    -0.4 7   25 197 
 BAR2 SZ I         242  7.07        90.0 0.64                            25 197 
 BRR  HZ EP        241 50.39                             151     0.010   74 297 
 BRR  HE ES   1    242  7.58                             151     0.8 7   74 297 
 BRR  HZ I         242 10.08        56.8 0.11                            74 297 
 RUS  HZ EP        241 52.67                             143    -0.310  102 178 
 RUS  HN ES   1    242 10.87                             143    -0.4 7  102 178 
 RUS  HZ I         242 12.51        69.9 0.25                           102 178 
 GUE  SZ EP        241 53.72                             139    -0.110  115  11 
 GRA  SZ IP        241 54.52                             137     0.210  124  16 
 GRA  SZ ES   1    242 14.32                             137     0.7 7  124  16 
 GRA  SZ I         242 15.56        77.4 0.29                           124  16 
 OCA  SZ EP        241 57.09                             129    -0.4 9  160 352 
 OCA  SZ ES   1    242 18.58                                    -0.7 7  160 352 
 OCA  SZ I         242 23.99        51.6 0.49                           160 352 
 YOP  SZ EP        241 59.27                             125     0.0 9  179 154 
 YOP  SE ES   1    242 22.62                             125     0.1 7  179 154 
 NOR  SZ EP        242  4.89                             117    -0.5 8  238 235 
 ROSC BZ EP        242  8.48                             116     0.7 8  255 212 
 ROSC BZ I         242 10.28        27.0 0.30                           255 212 
 ROSC BN ES   2    242 37.21                             116    -0.3 4  255 212 
 CVER SZ EP   1    242 10.08                             114     0.1 6  274 203 
 HEL  HZ EP        242 10.36                             114     0.4 7  275 256 
 HEL  HN ES   2    242 41.22                             114    -0.3 4  275 256 
 HEL  HZ I         242 46.84        23.4 0.24                           275 256 
 VIL  SE ES   2    242 46.81                             111     0.3 4  303 190 
 GUY  SZ EP        242 13.79                             111     0.4 7  305 235 
 GUY  SZ I         242 54.79        38.2 0.42                           305 235 
 RREF HZ EP        242 16.84                             110     0.9 7  325 230 
 RREF HN ES   2    242 51.70                             110    -0.3 3  325 230 
 RREF HZ I         243  0.81        25.1 0.59                           325 230 
 DBB  SZ EP        242 16.28                             109    -1.0 7  343 274 
 TOL  SZ EP        242 18.37                             108     0.4 6  347 225 
 PRA  HZ EP        242 22.72                             106    -0.5 6  395 210 
 PRA  HZ I         242 24.50        52.0 0.24                           395 210 
 PRA  HE ES   1    243  5.01                             106    -0.1 4  395 210 
                                                                                
