 2014 10 1 0751 38.8 L   6.049 -73.869105.2  RSN  5 0.5 1.1LRSN                1
 GAP=155        1.03       4.7     5.2  9.2 -0.2189E+00 -0.3811E+01 -0.1636E+02E
 Epicentro: EL PENON - SANTANDER                                               3
 ACTION:UPD 14-11-29 23:45 OP:nd   STATUS:               ID:20141001075138 L   I
 OLDACT:REG 14-10-01 13:29 OP:stll STATUS:               ID:20141001074819     3
 2014-10-01-0748-19M.COL___286                                                 6
 STAT SP IPHASW D HRMM SECON CODA AMPLIT PERI AZIMU VELO AIN AR TRES W  DIS CAZ7
 SPBC HZ EP        751 54.66                             153    0.1910 49.3 207 
 SPBC HN ES        752  6.76                             153    0.0810 49.3 207 
 SPBC HZ I         752  7.52         3.3 0.34            160           49.3 207 
 PTB  HZ EP        751 56.48                             138   -0.3410 84.6 310 
 PTB  HN ES        752 10.59                             138   -0.2710 84.6 310 
 PTB  HZ I         752 14.24         1.9 0.34            140           84.6 310 
 BAR2 SZ EP        751 58.25                             134    0.0910 96.8  52 
 BAR2 SZ ES   1    752 12.75                             134   -0.50 7 96.8  52 
 BAR2 SZ I         752 14.36         5.7 0.62            137           96.8  52 
 BRR  HZ EP        752  0.35                             127    0.5310  118   8 
 BRR  HE ES        752 16.30                             127    0.1010  118   8 
 BRR  HZ I         752 21.90         2.4 0.38            130            118   8 
 ZAR  HZ EP   1    752  6.62                             113   -1.16 7  193 326 
 ZAR  HN ES        752 30.96                             113    0.58 9  193 326 
 ZAR  HZ I         752 32.42         1.6 0.28            116            193 326 
                                                                                
