 2012  8 1 0417  8.9 L   6.074 -73.737106.0  RSN  5 0.1 1.1LRSN                1
 GAP=197        0.35       2.9     2.2  4.8  0.3223E+01  0.3490E+01  0.9556E+00E
 Epicentro: BOLIVAR - SANTANDER                                                3
 ACTION:UPD 12-09-10 11:53 OP:ep   STATUS:               ID:20120801041709 L   I
 2012-08-01-0410-00M.COL___215                                                 6
 STAT SP IPHASW D HRMM SECON CODA AMPLIT PERI AZIMU VELO AIN AR TRES W  DIS CAZ7
 RUS  HZ EP   1    417 27.10                             142    0.19 7 75.1 105 
 RUS  HZ I         417 27.26         2.7 0.22                          75.1 105 
 RUS  HN ES   1    417 40.97                             142    0.02 7 75.1 105 
 BAR2 SZ EP   1    417 27.22                             139   -0.02 7 84.0  47 
 BAR2 SZ ES   1    417 41.45                             139   -0.09 7 84.0  47 
 PTB  HZ EP   1    417 27.57                             135   -0.26 7 94.8 303 
 PTB  HN ES   1    417 42.64                             135    0.04 7 94.8 303 
 PTB  HZ I         417 45.82         4.3 0.05                          94.8 303 
 BRR  HZ EP   1    417 29.53                             129   -0.06 7  114   1 
 BRR  HE ES   1    417 45.75                             129    0.02 7  114   1 
 ZAR  HN ES   1    418  2.05                             113    0.22 6  200 322 
                                                                                
