 2015 11 1 0226 50.8 L   6.777 -73.118139.5  RSN  5 0.3 1.3LRSN                1
 GAP=141        0.74       3.6     5.0  6.4 -0.5811E+01 -0.1782E+01  0.3239E+01E
 Epicentro: LOS SANTOS - SANTANDER                                             3
 ACTION:UPD 15-12-28 16:08 OP:cam  STATUS:               ID:20151101022650 L   I
 OLDACT:UP  15-11-01 13:33 OP:mh   STATUS:               ID:20151101021737d    3
 OLDACT:UP  15-11-01 13:33 OP:mh   STATUS:               ID:20151101021737d    3
 OLDACT:DUP 15-11-01 13:27 OP:mh   STATUS:               ID:20151101021737d    3
 OLDACT:UP  15-11-01 13:26 OP:mh   STATUS:               ID:20151101021736     3
 OLDACT:REG 15-11-01 12:25 OP:mh   STATUS:               ID:20151101021736     3
 2015-11-01-0217-36M.COL___292                                                 6
 STAT SP IPHASW D HRMM SECON CODA AMPLIT PERI AZIMU VELO AIN AR TRES W  DIS CAZ7
 BAR2 EZ ES        227 23.79                             171   -0.5110 21.6 199 
 BAR2 EZ I         227 25.62         5.6 0.22            172           21.6 199 
 BRR  HZ EP   1    227 11.47                             150   -0.00 7 75.1 299 
 BRR  HN ES        227 27.85                             150    0.2310 75.1 299 
 BRR  HZ I         227 29.72         4.5 0.28            152           75.1 299 
 PAM  EZ EP        227 12.35                             150    0.0310 77.5  37 
 PAM  EN ES        227 29.20                             150    0.0610 77.5  37 
 PAM  EZ I         227 31.75         5.6 0.34            151           77.5  37 
 RUS  HZ EP        227 13.51                             143   -0.1910 97.9 178 
 RUS  HN ES        227 32.06                             143    0.4710 97.9 178 
 RUS  HZ I         227 33.79         2.6 0.41            145           97.9 178 
 SPBC HN ES        227 40.54                             128   -0.10 9  163 220 
                                                                                
