 2016 10 1 0515 50.8 L   6.807 -73.154146.6  RSN 36 0.5 3.3LRSN                1
 GAP= 68        0.98       2.3     2.6  4.0 -0.8367E+00  0.2291E+01  0.1278E+01E
 Epicentro: LOS SANTOS - SANTANDER                                             3
 *BBAC-CUSE-CONO                                                               3
 ACTION:UPD 16-11-09 19:15 OP:rebc STATUS:               ID:20161001051550 L   I
 OLDACT:UP  16-10-01 17:15 OP:dani STATUS:               ID:20161001050746d    3
 OLDACT:UP  16-10-01 17:15 OP:dani STATUS:               ID:20161001050746d    3
 OLDACT:UP  16-10-01 17:14 OP:dani STATUS:               ID:20161001050746d    3
 OLDACT:DUP 16-10-01 16:58 OP:dani STATUS:               ID:20161001050746d    3
 2016-10-01-0508-00M.COL___363                                                 6
 STAT SP IPHASW D HRMM SECON CODA AMPLIT PERI AZIMU VELO AIN AR TRES W  DIS CAZ7
 BAR2 EZ IP     D  516 10.51                             170   -0.0110 24.0 188 
 BAR2 EZ ES        516 25.73                             170   -0.1910 24.0 188 
 BAR2 EZ I         516 26.76       625.1 0.24            171           24.0 188 
 BRR  HZ EP        516 12.34                             153    0.3910 70.0 298 
 BRR  HN ES        516 29.47                             153    1.0010 70.0 298 
 BRR  HZ I         516 33.58       331.8 0.14            149           70.0 298 
 PAM  EZ EP        516 13.32                             151    0.2410 77.3  40 
 PAM  EN ES        516 30.32                             151   -0.1510 77.3  40 
 PAM  EZ I         516 32.42       443.0 0.62            151           77.3  40 
 RUS  HZ IP     D  516 14.40                             144   -0.2710  101 176 
 RUS  HN ES        516 33.34                             144    0.0310  101 176 
 RUS  HZ I         516 34.30       269.6 0.26            144            101 176 
 PTB  HZ EP        516 16.98                             132   -0.77 9  147 258 
 PTB  HN ES        516 38.20                             132   -0.59 9  147 258 
 PTB  HZ I         516 41.23       204.1 0.16            130            147 258 
 TAM  HZ IP     D  516 18.91                             131    0.29 9  156 105 
 TAM  HE ES        516 40.51                             131    0.18 9  156 105 
 OCA  HZ EP     C  516 18.55                             130   -0.52 9  159 353 
 OCA  HN ES        516 40.54                             130   -0.59 9  159 353 
 OCA  HZ I         516 43.87       426.2 0.20            128            159 353 
 SPBC HZ EP        516 19.24                             129   -0.11 9  163 219 
 SPBC HN ES        516 41.28                             129   -0.35 9  163 219 
 SPBC HZ I         516 46.34       418.0 0.24            128            163 219 
 ZAR  HZ EP        516 22.79                             123   -0.37 9  203 292 
 ZAR  HN ES        516 48.58                             123    0.16 9  203 292 
 ZAR  HZ I         516 55.29       220.7 0.40            121            203 292 
 NOR  HZ EP        516 26.36                             119   -0.17 8  234 234 
 NOR  HE ES        516 54.90                             119    0.49 8  234 234 
 NOR  HZ I         516 57.08       146.9 0.18            117            234 234 
 CHI  HZ EP        516 28.44                             117   -0.14 8  249 195 
 CHI  HN ES        516 57.63                             117   -0.44 8  249 195 
 CHI  HZ I         517  1.50       156.6 0.56            117            249 195 
 ROSC BZ EP   4    516 30.38                             117    1.41 0  253 211 
 ROSC BE ES        516 59.46                             117    0.70 8  253 211 
 ROSC BZ I         517  4.39       263.9 0.45            116            253 211 
 HEL  HZ EP        516 31.23                             115    0.27 8  271 256 
 HEL  HN ES        517  1.79                             115   -0.51 8  271 256 
 HEL  HZ I         517  8.63       115.6 0.26            114            271 256 
 URE  HZ EP   9    516 30.42                             114   -1.34 0  283 292 
 URE  HE ES        517  2.38                             114   -0.01 7  283 292 
 URE  HZ I         517 13.29       128.1 0.22            112            283 292 
 GUY2CHZ EP        516 34.88                             112    0.49 7  301 235 
 GUY2CHE ES   4    517 10.93                             112    2.51 0  301 235 
 GUY2CHZ I         517 16.80       119.6 0.34                           301 235 
 VIL  EZ EP        516 33.87                             112   -0.43 7  304 191 
 VIL  EN ES        517  8.61                             112    0.36 7  304 191 
 VIL  EZ I         517 11.20       224.9 0.40            112            304 191 
 LL1C HZ EP        516 35.02                             112    0.72 7  306 352 
 PTGC HZ EP   4    516 33.48                             112   -1.31 0  310 159 
 PTGC HE ES   4    517  6.97                             112   -2.15 0  310 159 
 PTGC HZ I         517 11.96       149.7 0.32            111            310 159 
 ELA  HZ EP   4    516 38.66                             110    1.02 0  329 229 
 ELA  HE ES        517 13.72                             110   -0.48 7  329 229 
 ELA  HZ I         517 22.86       138.4 0.84            110            329 229 
 CBOC HZ EP        516 38.39                             110    0.74 7  333 252 
 CBOC HE ES   4    517 15.40                             110    1.18 0  333 252 
 CBOC HZ I         517 18.67        34.2 0.18            109            333 252 
 DBB  HZ EP        516 38.44                             110    0.26 7  339 274 
 ANIL HZ EP        516 40.98                             109    0.37 6  357 224 
 ANIL HN ES        517 20.42                             109    0.95 6  357 224 
 ARGC HZ EP        516 40.58                             108    0.24 6  358 340 
 ARGC HN ES   4    517 17.52                             108   -1.48 0  358 340 
 ARGC HZ I         517 29.05        29.5 0.24            107            358 340 
 PAL  HZ EP     D  516 46.06                             106    0.14 6  405 239 
 PAL  HE ES   4    517 30.02                             106    1.08 0  405 239 
 PAL  HZ I         517 32.14        38.6 0.22            105            405 239 
 SJC  HZ EP   4    516 44.15                             106   -2.08 0  408 327 
 SJC  HN ES   4    517 25.85                             106   -3.63 0  408 327 
 SJC  HZ I         517 32.61        42.9 0.60            105            408 327 
 CRJC HZ EP   4    516 50.71                             103   -2.50 0  467   4 
 CRJC HN ES   4    517 38.29                             103   -3.61 0  467   4 
 CRJC HZ I         517 45.67        83.6 0.36            103            467   4 
 YOT  HZ EP        516 52.97                             103   -0.85 5  472 229 
 GUA  EZ EP        516 52.98                             103   -1.08 5  475 173 
 GUA  EN ES   4    517 41.46                             103   -1.96 0  475 173 
 GUA  EZ I         517 47.69        55.3 0.25            103            475 173 
 SMAR HZ EP   4    516 55.18                             102   -1.37 0  496 346 
 SMAR HE ES   4    517 43.80                             102   -4.05 0  496 346 
 SMAR HZ I         517 47.10        37.8 0.18            102            496 346 
 MACC HZ EP   4    516 57.54                             102   -2.04 0  521 189 
 MACC HN ES   4    517 49.99                             102   -3.27 0  521 189 
 MACC HZ I         517 52.18        16.8 0.20            101            521 189 
 MARO HZ EP        517  2.08                             101    0.25 4  537 215 
 URI  HZ EP   4    517  1.22                             101   -2.50 0  556  13 
 URI  HZ I         518  1.32         7.1 0.40            100            556  13 
 GARC HZ EP   4    517  4.62                             100   -1.46 0  573 207 
 CONO HZ EP        517 11.63                              99    0.45 3  612 216 
 POP2 HZ EP        517 10.25                              99   -0.56 3  613 220 
 FLO2 HZ EP   4    517 12.76                              99   -1.19 0  641 206 
 SOTO HZ EP   4    517 15.83                              99    1.00 0  643 217 
 BBAC HZ EP        517 21.36                              98    0.36 1  697 221 
 BBAC HN ES        518 30.63                              98   -0.75 1  697 221 
 BBAC HZ I         518 37.44         3.7 0.30             97            697 221 
 GCUF HZ EP        517 30.68                              97    0.19 0  773 217 
                                                                                
