 2016  2 1 0247 12.9 L   6.831 -73.195135.3  RSN  4 0.2 1.4LRSN                1
 GAP=147        0.37       4.2     4.0  7.2 -0.6434E+01  0.1232E+02  0.1228E+01E
 Epicentro: ZAPATOCA - SANTANDER                                               3
 ACTION:UPD 16-03-04 21:22 OP:rebc STATUS:               ID:20160201024712 L   I
 OLDACT:REG 16-02-01 13:22 OP:dnl  STATUS:               ID:20160201024038     3
 2016-02-01-0246-00M.COL___409                                                 6
 STAT SP IPHASW D HRMM SECON CODA AMPLIT PERI AZIMU VELO AIN AR TRES W  DIS CAZ7
 PAM  EZ EP   2    247 34.10                             148    0.01 5 78.5  44 
 PAM  EE ES   2    247 50.75                             148    0.14 5 78.5  44 
 PAM  EZ I         247 53.45         5.4 0.47            152           78.5  44 
 RUS  HZ EP   2    247 35.63                             140   -0.32 5  104 173 
 RUS  HE ES   2    247 53.99                             140    0.07 5  104 173 
 RUS  HZ I         247 55.07         4.0 0.25            147            104 173 
 PTB  HZ EP   2    247 38.41                             130   -0.21 5  143 257 
 PTB  HE ES   2    247 58.55                             130   -0.12 5  143 257 
 PTB  HZ I         248  1.50         3.2 0.18            134            143 257 
 GUY2CHZ EP   2    247 56.26                             110    0.48 4  299 234 
 GUY2CHN ES   2    248 29.48                             110    0.26 4  299 234 
 GUY2CHZ I         248 42.00         1.3 0.54                           299 234 
                                                                                
