 2015  7 1 0957 17.6 L   6.552 -73.511115.4  RSN 11 0.4 2.0LRSN                1
 GAP= 76        0.88       2.4     3.5  7.3 -0.1445E+01  0.1471E+02 -0.4178E+01E
 Epicentro: EL CARMEN - SANTANDER                                              3
 ACTION:UPD 15-09-08 21:46 OP:cam  STATUS:               ID:20150701095717 L   I
 OLDACT:DUP 15-07-01 18:51 OP:spq  STATUS:               ID:20150701094749d    3
 2015-07-01-0947-48M.COL___313                                                 6
 STAT SP IPHASW D HRMM SECON CODA AMPLIT PERI AZIMU VELO AIN AR TRES W  DIS CAZ7
 BAR2 EZ EP     D  957 34.05                             161    0.0510 36.6  83 
 BAR2 EZ ES   1    957 46.53                             161   -0.28 7 36.6  83 
 BAR2 EZ I         957 48.01        98.0 0.74            164           36.6  83 
 RUS  HZ EP        957 37.49                             141    0.1110 86.9 147 
 RUS  HN ES        957 52.93                             141    0.1110 86.9 147 
 RUS  HZ I         957 54.24        10.0 0.34            144           86.9 147 
 ZAR  HZ EP        957 45.80                             118    0.00 9  182 305 
 ZAR  HE ES        958  8.41                             118    0.61 9  182 305 
 ZAR  HZ I         958 10.55        20.1 0.52            119            182 305 
 NOR  HZ EP   1    957 45.74                             117   -0.58 7  186 234 
 NOR  HE ES        958  8.45                             117   -0.28 9  186 234 
 NOR  HZ I         958 11.18        12.7 0.16            118            186 234 
 OCA  HZ EP   1    957 46.17                             117   -0.48 7  188   6 
 OCA  HN ES        958  8.97                             117   -0.35 9  188   6 
 OCA  HZ I         958 17.45        14.1 0.32            118            188   6 
 HEL  HZ EP        957 51.73                             112    0.47 8  227 260 
 HEL  HN ES        958 17.10                             112   -0.42 8  227 260 
 HEL  HZ I         958 22.26         6.3 0.20            113            227 260 
 GUY2CHZ EP   4    957 55.94                             110    1.64 0  252 235 
 GUY2CHE ES   1    958 23.24                             110    0.29 6  252 235 
 GUY2CHZ I         958 32.33         5.5 0.38                           252 235 
 SML  HZ EP        957 53.86                             109   -0.29 8  256 346 
 SML  HE ES        958 23.56                             109    0.88 8  256 346 
 SML  HZ I         958 27.26        11.6 0.10            110            256 346 
 TOL  SE ES   1    958 31.23                             106   -0.36 5  296 223 
 TOL  SZ I         958 36.47         3.2 0.30            107            296 223 
 MON  HZ EP   4    958  2.80                             103   -1.43 0  342 316 
 MON  HN ES        958 39.91                             103   -0.70 7  342 316 
 MON  HZ I         958 40.74         2.7 0.40            104            342 316 
 PRA  HZ EP   1    958  5.43                             103    0.36 5  349 206 
 PRA  HE ES        958 42.55                             103    0.43 6  349 206 
 PRA  HZ I         958 45.46         2.7 0.22            104            349 206 
                                                                                
