 2010  4 1 0730 33.1 L   6.835 -73.028134.7  RSN  4 0.2 2.0LRSN                1
 GAP=163        0.44       4.6     6.3  7.8  0.4677E+01 -0.2682E+02 -0.1923E+02E
 Epicentro: CEPITA - SANTANDER                                                 3
 ACTION:UPD 10-08-24 09:57 OP:vdl  STATUS:               ID:20100401073032 L   I
 2010-04-01-0727-52S.COL___098                                                 6
 STAT SP IPHASW D HRMM SECON CODA AMPLIT PERI AZIMU VELO AIN AR TRES W  DIS CAZ7
 BAR2 SZ IP        730 51.67                             167     0.010   32 213 
 BAR2 SZ ES   2    731  5.95                             167    -0.2 5   32 213 
 BRR  HZ EP        730 53.85                             147     0.110   81 292 
 BRR  HZ I         731  4.04        18.3 0.12                            81 292 
 BRR  HE ES   3    731 10.17                             147     0.4 2   81 292 
 OCA  SZ EP        731  0.19                             127    -0.2 9  159 348 
 OCA  SZ ES   2    731 21.89                             127     0.2 5  159 348 
 OCA  SZ I         731 23.53        10.0 0.24                           159 348 
 SDV  BZ EP        731 21.45                             107     0.1 6  348  49 
 SDV  BZ I         731 22.27         5.2 0.09                           348  49 
                                                                                
