 2010 12 1 0534 20.3 L   6.801 -73.175148.4  RSN  4 0.2 1.2LRSN                1
 GAP=161        0.59       5.9    12.7 11.5  0.4269E+02 -0.9959E+02 -0.2441E+02E
 Epicentro: LOS SANTOS - SANTANDER                                             3
 ACTION:UP  11-01-14 15:22 OP:pat  STATUS:               ID:20101201053421 L   I
 2010-12-01-0532-48S.COL___132                                                 6
 STAT SP IPHASW D HRMM SECON CODA AMPLIT PERI AZIMU VELO SNR AR TRES W  DIS CAZ7
 BAR2 SZ EP        534 40.08                             171    -0.210   23 182 
 BRR  HZ EP        534 41.84                             153     0.210   68 300 
 BRR  HZ I         534 42.18         5.8 0.13                            68 300 
 BRR  HN ES   1    534 57.97                             153    -0.2 7   68 300 
 RUS  HZ EP        534 44.25                             144    -0.110  101 174 
 RUS  HE ES   2    535  3.55                             144     0.4 5  101 174 
 RUS  HZ I         535  5.03         1.3 0.27                           101 174 
 GUE  SZ EP   1    534 45.43                             140     0.1 7  117  14 
                                                                                
