 2012  4 1 0333 10.9 L   6.780 -73.175155.0  RSN  5 0.2 1.4LRSN                1
 GAP=233        0.43       4.8     4.5  5.8  0.1243E+02 -0.3479E+01 -0.3025E+01E
 Epicentro: LOS SANTOS - SANTANDER                                             3
 ACTION:UPD 12-07-05 11:49 OP:tino STATUS:               ID:20120401033310 L   I
 2012-04-01-0330-00M.COL___196                                                 6
 STAT SP IPHASW D HRMM SECON CODA AMPLIT PERI AZIMU VELO AIN AR TRES W  DIS CAZ7
 BAR2 SZ EP   1    333 31.28                             172    -0.3 7   21 182 
 BAR2 SZ I         333 31.75         5.5 0.34                            21 182 
 BRR  HZ EP   1    333 33.17                             155     0.2 7   70 301 
 BRR  HE ES   1    333 50.12                             155     0.0 7   70 301 
 RUS  HZ EP   1    333 35.45                             146     0.0 7   99 174 
 RUS  HN ES   1    333 54.68                             146     0.1 7   99 174 
 RUS  HZ I         333 55.62         1.5 0.33                            99 174 
 PTB  HZ EP   1    333 38.26                             135     0.0 7  144 259 
 PTB  HE ES   1    333 59.57                             135    -0.1 7  144 259 
 ZAR  HN ES   2    334  9.59                             125     0.2 4  202 293 
 ZAR  HZ I         334 15.21         5.9 0.24                           202 293 
                                                                                
