 2013  3 1 0539 14.3 L   6.731 -73.186147.0  RSN  4 0.4 1.6LRSN                1
 GAP=227        0.89       7.5     6.7  8.2  0.2342E+02  0.1728E+01 -0.7324E+01E
 Epicentro: VILLANUEVA - SANTANDER                                             3
 ACTION:UPD 13-04-09 13:59 OP:ep   STATUS:               ID:20130301053914 L   I
 2013-03-01-0538-50M.COL___196                                                 6
 STAT SP IPHASW D HRMM SECON CODA AMPLIT PERI AZIMU VELO AIN AR TRES W  DIS CAZ7
 BAR2 SZ EP        539 33.62                             174   -0.3710 15.4 178 
 BAR2 SZ ES   1    539 48.90                             174   -0.42 7 15.4 178 
 BAR2 SZ I         539 50.39         6.6 0.48            177           15.4 178 
 BRR  HZ EP        539 35.47                             153   -0.1710 71.4 306 
 BRR  HN ES   1    539 52.97                             153    0.72 7 71.4 306 
 BRR  HN I         539 57.08         9.9 0.18            154           71.4 306 
 RUS  HZ EP        539 37.94                             146    0.2210 93.4 173 
 RUS  HN ES        539 56.13                             146    0.1810 93.4 173 
 RUS  HN I         539 57.95         5.0 0.42            151           93.4 173 
 PTB  HZ EP        539 41.25                             133    0.35 9  142 261 
 PTB  HN ES        540  1.24                             133   -0.38 9  142 261 
                                                                                
