 2014  7 1 0118 21.9 L   6.806 -73.177136.0  RSN 17 0.4 1.9LRSN                1
 GAP=132        0.97       2.3     3.5  5.1 -0.1447E+01  0.5658E+01  0.2557E+01E
 Epicentro: LOS SANTOS - SANTANDER                                             3
 ACTION:UPD 15-03-16 20:40 OP:nd   STATUS:               ID:20140701011821 L   I
 OLDACT:REG 14-07-01 12:34 OP:spq  STATUS:               ID:20140701010819     3
 2014-07-01-0108-19M.COL___247                                                 6
 STAT SP IPHASW D HRMM SECON CODA AMPLIT PERI AZIMU VELO AIN AR TRES W  DIS CAZ7
 BAR2 SZ EP        118 40.30                             170   -0.1010 23.6 181 
 BAR2 SZ ES   1    118 54.25                             170   -0.55 7 23.6 181 
 BAR2 SZ I         118 57.19        12.2 0.18            168           23.6 181 
 BRR  HZ IP     D  118 42.52                             152    0.6810 67.9 299 
 BRR  HN ES        118 57.63                             152    0.2610 67.9 299 
 BRR  HZ I         119  4.55         7.3 0.20            150           67.9 299 
 PAM  SZ EP        118 43.14                             148   -0.0910 79.1  42 
 PAM  SN ES        119  0.18                             148    0.3410 79.1  42 
 PAM  SZ I         119  2.65         9.3 0.20            155           79.1  42 
 RUS  HZ EP        118 44.38                             141   -0.4310  102 174 
 RUS  HN ES        119  2.38                             141   -0.2710  102 174 
 RUS  HZ I         119  4.51         4.5 0.38            145            102 174 
 PTB  HZ EP        118 47.09                             130   -0.73 9  145 258 
 PTB  HN ES        119  7.56                             130   -0.45 9  145 258 
 PTB  HZ I         119 14.39         8.6 0.09            131            145 258 
 OCA  HN ES        119 11.16                             127    0.33 9  159 354 
 OCA  HZ I         119 17.11         7.1 0.31            131            159 354 
 SPBC HZ IP     D  118 49.40                             127   -0.14 9  162 218 
 SPBC HN ES        119 11.61                             127    0.53 9  162 218 
 SPBC HZ I         119 17.37        12.7 0.14            129            162 218 
 ZAR  HN ES        119 17.85                             121   -0.09 9  201 292 
 ZAR  HZ I         119 24.96         7.7 0.16            122            201 292 
 SML  HZ EP        118 56.97                             116   -0.84 8  242 336 
 SML  HN ES        119 25.91                             116    0.12 8  242 336 
 SML  HZ I         119 29.09        13.8 0.10            118            242 336 
 CHI  HZ EP   4    118 56.94                             115   -2.14 0  248 194 
 CHI  HN ES        119 28.44                             115    0.38 8  248 194 
 CHI  HZ I         119 33.85         3.6 0.38            118            248 194 
 ROSC BZ EP   4    119  0.53                             115    1.12 0  252 210 
 ROSC BN ES        119 28.35                             115   -0.29 8  252 210 
 ROSC BZ I         119 34.97         5.9 0.35            117            252 210 
 HEL  HN ES        119 31.57                             113   -0.46 8  269 255 
 HEL  HZ I         119 39.17         4.0 0.36            115            269 255 
 GUY2CHZ EP        119  5.53                             111    0.70 7  299 234 
 GUY2CHN ES        119 38.51                             111    0.22 7  299 234 
 GUY2CHZ I         119 47.37         5.7 0.74                           299 234 
 RREF HZ EP        119  8.14                             109    0.72 7  320 229 
 RREF HN ES        119 42.97                             109    0.07 7  320 229 
 RREF HZ I         119 52.20         3.6 0.48            111            320 229 
 TOL  SZ EP        119  9.60                             108    0.01 7  342 224 
 TOL  SN ES        119 47.19                             108    0.43 7  342 224 
 TOL  SZ I         119 51.60         8.2 0.22            110            342 224 
 PRA  HZ EP        119 14.78                             105   -0.22 6  391 209 
 PRA  HN ES        119 57.00                             105    0.60 6  391 209 
 PRA  HZ I         120  2.30         3.8 0.36            107            391 209 
 ORTC HZ EP        119 15.26                             105   -0.10 6  394 216 
 ORTC HN ES        119 56.94                             105   -0.10 6  394 216 
 ORTC HZ I         120  4.29         2.1 0.22            107            394 216 
                                                                                
