 2015  2 1 0835 35.0 L   6.801 -73.130150.0  RSN 20 0.4 2.3LRSN                1
 GAP= 72        0.95       2.9     3.1  5.0 -0.7005E+00  0.5374E+01  0.1049E+01E
 Epicentro: LOS SANTOS - SANTANDER                                             3
 ACTION:UPD 15-04-30 21:20 OP:nd   STATUS:               ID:20150201083535 L   I
 OLDACT:UP  15-02-01 17:39 OP:spq  STATUS:               ID:20150201082745     3
 OLDACT:REG 15-02-01 12:23 OP:spq  STATUS:               ID:20150201082745     3
 2015-02-01-0827-45M.COL___261                                                 6
 STAT SP IPHASW D HRMM SECON CODA AMPLIT PERI AZIMU VELO AIN AR TRES W  DIS CAZ7
 BAR2 EZ EP        835 54.95                             171   -0.1810 23.8 194 
 BAR2 EZ ES   1    836 10.76                             171   -0.08 7 23.8 194 
 BAR2 EZ I         836 11.76        33.2 0.28            168           23.8 194 
 BRR  HZ EP     C  835 56.82                             153    0.1510 72.7 298 
 BRR  HN ES        836 14.31                             153    0.7210 72.7 298 
 BRR  HZ I         836 19.12        24.5 0.14            150           72.7 298 
 PAM  SZ EP        835 57.84                             152    0.2610 76.2  39 
 PAM  SE ES        836 15.13                             152   -0.0810 76.2  39 
 PAM  SZ I         836 17.12        19.6 0.58            156           76.2  39 
 RUS  HZ EP   1    835 58.48                             145   -0.67 7  101 177 
 RUS  HN ES   1    836 17.77                             145   -0.23 7  101 177 
 RUS  HZ I         836 18.56        23.3 0.26            147            101 177 
 TAM  HZ EP   1    836  3.04                             132    0.19 7  153 105 
 TAM  HN ES        836 24.86                             132    0.28 9  153 105 
 OCA  HZ EP        836  3.13                             131   -0.51 9  160 353 
 OCA  HE ES        836 26.11                             131    0.12 9  160 353 
 OCA  HZ I         836 30.93        21.8 0.30            132            160 353 
 SPBC HZ EP        836  3.73                             130   -0.18 9  164 219 
 SPBC HN ES        836 26.17                             130   -0.31 9  164 219 
 SPBC HZ I         836 30.97        38.5 0.24            130            164 219 
 ZAR  HZ EP        836  7.79                             123   -0.07 8  206 292 
 ZAR  HN ES        836 32.95                             123   -0.56 8  206 292 
 ZAR  HZ I         836 38.71        32.1 0.72            123            206 292 
 NOR  HZ EP        836 11.07                             119   -0.04 8  236 235 
 NOR  HN ES   1    836 39.03                             119   -0.27 6  236 235 
 NOR  HZ I         836 41.27        14.9 0.26            120            236 235 
 SML  HZ EP        836 11.35                             118   -0.57 8  244 335 
 SML  HE ES   1    836 41.23                             118    0.50 6  244 335 
 SML  HZ I         836 47.79        27.2 0.10            119            244 335 
 HEL  HZ EP        836 16.58                             116    0.98 8  274 256 
 HEL  HN ES   1    836 47.90                             116    0.62 6  274 256 
 HEL  HZ I         836 53.22         9.8 0.30            116            274 256 
 URE  HZ EP        836 15.55                             114   -0.88 7  285 292 
 URE  HE ES   4    836 46.59                             114   -2.18 0  285 292 
 URE  HZ I         836 55.87        15.5 0.26            115            285 292 
 GUY2CHZ EP   1    836 19.75                             113    0.80 5  303 235 
 GUY2CHN ES   4    836 57.24                             113    3.99 0  303 235 
 GUY2CHZ I         837  1.92        10.0 0.46                           303 235 
 PTGC HZ EP   4    836 17.75                             113   -1.22 0  308 159 
 PTGC HN ES   4    836 51.29                             113   -1.98 0  308 159 
 PTGC HZ I         836 52.12        10.1 0.30            115            308 159 
 RREF HZ EP   1    836 22.04                             112    0.58 5  323 230 
 RREF HE ES   4    837  2.02                             112    4.30 0  323 230 
 RREF HZ I         837  3.56        10.9 0.26            112            323 230 
 CBOC HZ EP   1    836 22.60                             111    0.34 5  335 252 
 CBOC HN ES        836 59.37                             111    0.23 7  335 252 
 CBOC HZ I         837  5.44         3.5 0.38            111            335 252 
 TOL  SZ EP   4    836 24.94                             110    1.39 0  345 225 
 TOL  SN ES   4    837  2.97                             110    1.53 0  345 225 
 TOL  SZ I         837  8.38         7.4 0.48            111            345 225 
 MON  HZ EP   4    836 22.05                             109   -2.25 0  355 308 
 MON  HN ES   4    837  0.51                             109   -2.26 0  355 308 
 MON  HZ I         837  3.30         4.5 0.40            110            355 308 
 ANIL HE ES   4    837  5.51                             109    1.32 0  359 225 
 ANIL HZ I         837 11.72         3.2 0.30            110            359 225 
 ORTC HZ EP        836 29.17                             107   -0.00 6  397 216 
 ORTC HE ES   4    837 13.33                             107    1.89 0  397 216 
 ORTC HZ I         837 18.82         5.6 0.18            108            397 216 
                                                                                
