 2017  1 1 0743  4.3 L   6.751 -73.134144.9  RSN 11 0.5 2.2LRSN                1
 GAP= 95        1.07       3.7     3.6  5.9  0.1582E+01  0.1668E+01  0.5681E+01E
 Epicentro: LOS SANTOS - SANTANDER                                             3
 ACTION:UPD 17-05-22 15:54 OP:jn   STATUS:               ID:20170101074304 L   I
 OLDACT:REG 17-01-01 13:50 OP:dnl  STATUS:               ID:20170101073743     3
 2017-01-01-0738-00M.COL___372                                                 6
 STAT SP IPHASW D HRMM SECON CODA AMPLIT PERI AZIMU VELO AIN AR TRES W  DIS CAZ7
 BAR2 EZ IP     C  743 23.81                             172    0.1110 18.3 197 
 BAR2 EZ ES        743 38.52                             172   -0.3410 18.3 197 
 BAR2 EZ I         743 39.91        51.3 0.26            172           18.3 197 
 BRR  HZ EP        743 25.74                             151    0.2010 75.1 302 
 BRR  HE ES        743 42.42                             151    0.2810 75.1 302 
 BRR  HZ I         743 48.24        29.9 0.14            149           75.1 302 
 PAM  EZ EP        743 26.81                             150    0.2110 80.9  36 
 PAM  EN ES        743 43.62                             150   -0.4010 80.9  36 
 PAM  EZ I         743 45.63        46.7 0.60            139           80.9  36 
 RUS  HZ EP        743 27.84                             145    0.3010 95.1 177 
 RUS  HN ES        743 46.27                             145    0.5810 95.1 177 
 RUS  HZ I         743 47.98        11.5 0.36            140           95.1 177 
 PTB  HZ EP        743 30.55                             132   -0.64 9  148 261 
 PTB  HE ES        743 51.43                             132   -0.77 9  148 261 
 PTB  HZ I         743 58.86        16.2 0.42            128            148 261 
 TAM  HZ IP     C  743 32.12                             131    0.49 9  152 103 
 TAM  HZ I         744 15.03         9.7 0.14            121            152 103 
 ZAR  HZ EP        743 36.72                             122   -0.28 8  207 293 
 ZAR  HN ES        744  2.97                             122    0.44 8  207 293 
 ZAR  HZ I         744  8.68        17.5 0.42            117            207 293 
 NOR  HZ EP        743 39.64                             119   -0.08 8  233 236 
 NOR  HN ES        744  7.82                             119    0.43 8  233 236 
 NOR  HZ I         744 13.75        10.3 0.24            114            233 236 
 CHI  HZ EP   2    743 42.11                             117    0.73 4  244 196 
 CHI  HN ES        744 10.49                             117    0.15 8  244 196 
 CHI  HZ I         744 17.96         5.0 0.32            112            244 196 
 PTGC HZ EP        743 47.03                             112   -0.42 7  303 159 
 PTGC HE ES        744 20.20                             112   -0.94 7  303 159 
 PTGC HZ I         744 22.62         8.1 0.40            106            303 159 
 SJC  HZ EP   4    743 58.66                             105   -1.76 0  415 327 
 SJC  HN ES   4    744 39.74                             105   -4.48 0  415 327 
 SJC  HZ I         744 44.01         6.3 0.58            101            415 327 
                                                                                
