 2011 10 1 0013 19.3 L   6.762 -73.132142.4  RSN  6 0.3 1.8LRSN                1
 GAP=140        0.65       4.5     4.7  6.8  0.4478E+01  0.8136E+01 -0.8489E+00E
 Epicentro: LOS SANTOS - SANTANDER                                             3
 ACTION:UPD 12-07-13 16:01 OP:ep   STATUS:               ID:20111001001319 L   I
 2011-10-01-0000-00M.COL___169                                                 6
 STAT SP IPHASW D HRMM SECON CODA AMPLIT PERI AZIMU VELO AIN AR TRES W  DIS CAZ7
 BAR2 SZ ES   2    013 53.14                             172   -0.20 5 19.6 197 
 BAR2 SZ I         013 56.04        14.1 0.40                          19.6 197 
 GIR2 SZ EP   2    013 38.78                             165    0.13 5 35.7 349 
 BRR  HZ EP   1    013 40.65                             151    0.41 7 74.6 301 
 BRR  HN ES   1    013 57.12                             151    0.52 7 74.6 301 
 BRR  HZ I         014  2.70        19.2 0.14                          74.6 301 
 PAM  SZ EP   1    013 41.48                             149    0.23 7 79.7  37 
 PAM  SN ES   1    013 58.02                             149   -0.39 7 79.7  37 
 RUS  HZ EP   1    013 42.21                             144   -0.16 7 96.3 177 
 RUS  HN ES   1    014  0.35                             144   -0.04 7 96.3 177 
 RUS  HZ I         014  2.18         6.0 0.25                          96.3 177 
 ZAR  HZ EP   1    013 51.65                             121   -0.15 6  207 293 
 ZAR  HN ES   1    014 16.59                             121   -0.59 6  207 293 
 ZAR  HZ I         014 23.36         6.3 0.16                           207 293 
                                                                                
