 2013  3 1 0320 36.4 L   6.826 -73.152142.9  RSN 15 0.5 2.5LRSN 3.0WRSN        1
 SPEC AVERAGE  MO 13.6 ST  4.5 OM  2.1 f0 3.53 R0.4561 AL 2.15 WI 24.5 MW  3.0 3
 SPEC SD       MO  0.3 ST  5.6 OM  0.4 f0 1.12 R0.1285 AL      WI      MW  0.2 3
 GAP= 70        1.22       3.1     3.4  6.0  0.6480E+00  0.5411E+01  0.1099E+01E
 Epicentro: LOS SANTOS - SANTANDER                                             3
 SPEC ZAR HH N MO 13.9 ST 17.0 OM  2.1 f0 5.41 R0.2717 AL 2.58 WI 23.1 MW  3.2 3
 SPEC ZAR HH N T 32134 K 0.000 GD  247 VS 4.20 DE 3.20 Q0300.0 QA 0.60 VS 4.20 3
 SPEC PRA HH N MO 13.4 ST0.593 OM  1.4 f0 2.54 R0.5787 AL 1.83 WI 25.8 MW  2.9 3
 SPEC PRA HH N T 32211 K 0.000 GD  419 VS 4.20 DE 3.20 Q0300.0 QA 0.60 VS 4.20 3
 SPEC PTB HH N MO 13.6 ST0.787 OM  1.9 f0 2.41 R0.6100 AL 0.81 WI 30.3 MW  3.0 3
 SPEC PTB HH N T 32121 K 0.000 GD  205 VS 4.20 DE 3.20 Q0300.0 QA 0.60 VS 4.20 3
 SPEC RUS HH N MO 13.2 ST0.406 OM  1.6 f0 2.56 R0.5742 AL 1.74 WI 17.3 MW  2.8 3
 SPEC RUS HH N T 32117 K 0.000 GD  176 VS 4.20 DE 3.20 Q0300.0 QA 0.60 VS 4.20 3
 SPEC HEL HH N MO 13.3 ST  2.3 OM  1.4 f0 4.41 R0.3333 AL 2.20 WI 23.9 MW  2.8 3
 SPEC HEL HH N T 32147 K 0.000 GD  307 VS 4.20 DE 3.20 Q0300.0 QA 0.60 VS 4.20 3
 SPEC OCA HH N MO 13.9 ST  4.1 OM  2.2 f0 3.28 R0.4482 AL 1.94 WI 34.3 MW  3.2 3
 SPEC OCA HH N T 32125 K 0.000 GD  212 VS 4.20 DE 3.20 Q0300.0 QA 0.60 VS 4.20 3
 SPEC PAM SH N MO 13.4 ST0.738 OM  1.8 f0 2.76 R0.5326 AL 2.55 WI 10.9 MW  2.9 3
 SPEC PAM SH N T 32114 K 0.000 GD  161 VS 4.20 DE 3.20 Q0300.0 QA 0.60 VS 4.20 3
 SPEC BRR HH N MO 13.8 ST 10.2 OM  2.2 f0 4.90 R0.3000 AL 3.52 WI 30.2 MW  3.1 3
 SPEC BRR HH N T 32114 K 0.000 GD  158 VS 4.20 DE 3.20 Q0300.0 QA 0.60 VS 4.20 3
 ACTION:UPD 13-04-09 13:58 OP:ep   STATUS:               ID:20130301032036 L   I
 2013-03-01-0318-50M.COL___193                                                 6
 STAT SP IPHASW D HRMM SECON CODA AMPLIT PERI AZIMU VELO AIN AR TRES W  DIS CAZ7
 BAR2 SZ EP        320 55.80                             169    0.0410 26.1 188 
 BAR2 SZ ES        321 10.48                             169   -0.3710 26.1 188 
 BAR2 SZ I         321 11.79        83.5 0.12            168           26.1 188 
 BRR  HZ IP     C  320 57.71                             153    0.5610 69.3 297 
 BRR  HN ES        321 14.39                             153    1.0710 69.3 297 
 BRR  HN I         321 20.19        84.0 0.16            145           69.3 297 
 PAM  SZ EP        320 58.60                             151    0.3810 75.6  41 
 PAM  SZ I         320 58.97        51.1 0.22            148           75.6  41 
 PAM  SN ES        321 15.39                             151    0.1610 75.6  41 
 RUS  HZ EP        320 59.92                             142   -0.1910  104 176 
 RUS  HN ES        321 18.18                             142   -0.4010  104 176 
 RUS  HE I         321 19.24        50.4 0.48            139            104 176 
 PTB  HZ EP        321  2.72                             131   -0.43 9  148 258 
 PTB  HN ES        321 23.17                             131   -0.83 9  148 258 
 PTB  HE I         321 28.72        64.0 0.20            125            148 258 
 TAM  HZ IP     D  321  4.14                             130    0.14 9  156 106 
 TAM  HZ I         321  4.27        35.1 0.18            127            156 106 
 TAM  HN ES        321 25.34                             130   -0.17 9  156 106 
 OCA  HZ EP        321  4.12                             129   -0.11 9  157 353 
 OCA  HN ES        321 25.75                             129   -0.17 9  157 353 
 OCA  HN I         321 28.25       103.0 0.30            124            157 353 
 ZAR  HZ EP        321  8.93                             122    0.42 9  202 291 
 ZAR  HE ES        321 34.00                             122    0.47 9  202 291 
 ZAR  HN I         321 38.43        44.3 0.46            116            202 291 
 SML  HZ EP        321 12.25                             117   -0.32 8  241 335 
 SML  HZ I         321 16.43        24.4 0.10            112            241 335 
 SML  HN ES        321 40.03                             117   -0.74 8  241 335 
 SML  HE I         321 45.36        41.1 0.10            112            241 335 
 CHI  HZ EP   1    321 15.06                             116    0.81 6  251 195 
 CHI  HN ES        321 43.46                             116   -0.29 8  251 195 
 CHI  HN I         321 48.41        18.0 0.30            112            251 195 
 HEL  HZ EP        321 17.54                             114    1.04 8  272 255 
 HEL  HE ES   1    321 48.23                             114    0.47 6  272 255 
 HEL  HN I         321 54.57         8.9 0.32            109            272 255 
 URE  HE ES        321 47.98                             113   -0.96 7  282 291 
 RREF HN ES        321 58.61                             110   -0.01 7  323 229 
 RREF HZ I         322  6.55         7.9 0.36            106            323 229 
 PRA  HZ EP        321 30.11                             106    0.01 6  394 209 
 PRA  HN ES        322 12.17                             106    0.20 6  394 209 
 PRA  HE I         322 17.25        11.3 0.30            102            394 209 
 SJC  HN EP   1 D  321 30.20                             105   -1.36 4  406 327 
 SJC  HN I         322 17.12         7.7 0.20            102            406 327 
                                                                                
