 2011 10 1 0541 37.3 L   6.786 -73.124139.8  RSN 11 0.4 2.3LRSN                1
 GAP=140        0.78       2.9     4.5  5.7 -0.1091E+01  0.9529E+01  0.3126E+01E
 Epicentro: LOS SANTOS - SANTANDER                                             3
 ACTION:UPD 12-07-13 16:01 OP:ep   STATUS:               ID:20111001054137 L   I
 2011-10-01-0540-03S.COL___168                                                 6
 STAT SP IPHASW D HRMM SECON CODA AMPLIT PERI AZIMU VELO AIN AR TRES W  DIS CAZ7
 BAR2 SZ EP        541 56.28                             170    0.0810 22.4 197 
 BAR2 SZ ES   1    542 10.76                             170   -0.17 7 22.4 197 
 BAR2 SZ I         542 12.65        71.3 0.24                          22.4 197 
 BRR  HZ EP        541 58.32                             150    0.3410 74.0 299 
 BRR  HE ES   1    542 15.07                             150    0.97 7 74.0 299 
 BRR  HZ I         542 17.58        49.2 0.24                          74.0 299 
 PAM  SZ EP   1    541 59.08                             150    0.21 7 77.1  37 
 PAM  SN ES   1    542 15.64                             150   -0.05 7 77.1  37 
 RUS  HZ EP   1    542  0.31                             143   -0.04 7 98.9 177 
 RUS  HN ES   1    542 17.94                             143   -0.38 7 98.9 177 
 RUS  HZ I         542 20.35        19.5 0.23                          98.9 177 
 OCA  SZ EP   1    542  4.85                             128   -0.48 7  162 352 
 OCA  SZ ES   1    542 26.56                             128   -0.63 7  162 352 
 OCA  SZ I         542 29.98        36.5 0.11                           162 352 
 ZAR  HZ EP   1    542  9.39                             121   -0.27 6  207 292 
 ZAR  HN ES   1    542 34.37                             121   -0.52 6  207 292 
 ZAR  HZ I         542 41.00        15.5 0.16                           207 292 
 NOR  SZ EP   1    542 12.74                             117   -0.07 6  236 235 
 NOR  SN ES   2    542 40.00                             117   -0.50 4  236 235 
 CHI  HZ EP   1    542 14.64                             116    0.06 6  248 196 
 CHI  HN ES   1    542 43.41                             116   -0.25 6  248 196 
 CHI  HZ I         542 51.09        13.0 0.56                           248 196 
 HEL  HZ EP   1    542 18.35                             113    0.92 6  274 256 
 HEL  HN ES   2    542 47.93                             113   -0.81 4  274 256 
 HEL  HZ I         542 55.41         7.9 0.58                           274 256 
 RREF HZ EP   2    542 23.85                             110    0.56 3  323 230 
 RREF HN ES   1    542 59.21                             110    0.06 5  323 230 
 RREF HZ I         543 10.33        11.7 0.33                           323 230 
 PRA  HZ EP   1    542 30.38                             106   -0.23 4  392 210 
 PRA  HN ES   1    543 12.57                             106    0.39 4  392 210 
                                                                                
