 2017  6 1 0403 50.8 L   7.508 -73.062126.0  RSN  6 0.3 1.6LRSN                1
 GAP=271        0.67       4.2     5.0  7.7  0.5915E+01 -0.7478E+01 -0.2822E+01E
 Epicentro: EL PLAYON - SANTANDER                                              3
 ACTION:UPD 17-09-14 16:48 OP:jn   STATUS:               ID:20170601040350 L   I
 OLDACT:REG 17-06-01 12:41 OP:and  STATUS:               ID:20170601035746     3
 2017-06-01-0358-00M.COL___350                                                 6
 STAT SP IPHASW D HRMM SECON CODA AMPLIT PERI AZIMU VELO AIN AR TRES W  DIS CAZ7
 BRR  HZ EP        4 4 10.46                             144   -0.3110 84.4 238 
 BRR  HZ IP     C  4 4 11.09                             144    0.3210 84.4 238 
 BRR  HE ES        4 4 26.53                             144    0.2010 84.4 238 
 BRR  HZ I         4 4 27.65         9.6 0.12            137           84.4 238 
 RUS  HZ EP   4    4 4 22.40                             122    2.40 0  179 181 
 RUS  HN ES        4 4 42.57                             122   -0.18 9  179 181 
 RUS  HZ I         4 4 43.39         1.7 0.38            118            179 181 
 PTB  HZ EP   9    4 4 18.33                             120   -1.99 0  188 235 
 PTB  HN ES        4 4 41.38                                    0.04 9  188 235 
 ZAR  HZ EP   2    4 4 22.14                             119    0.69 4  198 270 
 ZAR  HN ES        4 4 44.95                             119   -0.38 9  198 270 
 ZAR  HZ I         4 4 49.03         7.2 0.30            114            198 270 
 SPBC HE ES        4 4 52.29                             114   -0.12 8  234 209 
 NOR  HZ EP   4    4 4 31.70                             109   -0.49 0  294 223 
 NOR  HE ES        4 5  4.76                             109    0.31 7  294 223 
 NOR  HZ I         4 5 10.64         1.9 0.32            106            294 223 
                                                                                
