 2013  5 1 0416 24.2 L   6.789 -73.196150.0  RSN  6 0.5 1.7LRSN                1
 GAP=172        1.17       5.7     8.1  9.0  0.1417E+02  0.1107E+01 -0.8778E+01E
 Epicentro: ZAPATOCA - SANTANDER                                               3
 ACTION:UPD 13-06-20 09:47 OP:ep   STATUS:               ID:20130501041624 L   I
 2013-05-01-0410-00M.COL___253                                                 6
 STAT SP IPHASW D HRMM SECON CODA AMPLIT PERI AZIMU VELO AIN AR TRES W  DIS CAZ7
 BAR2 SZ ES   2    416 59.30                             172   -0.74 5 21.8 176 
 GIR2 SZ EP        416 44.14                             167   -0.3010 32.0   1 
 GIR2 SZ ES   1    417  0.37                             167    0.18 7 32.0   1 
 BRR  HZ EP     D  416 45.94                             155    0.3210 67.0 302 
 BRR  HZ I         416 46.17        14.0 0.26            153           67.0 302 
 BRR  HE ES        417  3.20                             155    0.9010 67.0 302 
 RUS  HZ EP        416 48.57                             145    0.2110 99.9 173 
 RUS  HN ES        417  6.92                             145   -0.2610 99.9 173 
 RUS  HZ I         417  8.18         4.4 0.30            147           99.9 173 
 PTB  HZ EP        416 50.83                             135   -0.22 9  142 259 
 PTB  HN ES        417 11.70                             135   -0.26 9  142 259 
 PTB  HZ I         417 14.35         5.0 0.20            134            142 259 
 SML  HZ EP   1    417  1.64                             119    0.66 6  243 337 
 SML  HN ES        417 28.68                             119   -0.96 8  243 337 
 SML  HZ I         417 36.36         5.4 0.24            118            243 337 
                                                                                
