 2017  2 1 0728 41.2 L   6.770 -73.360124.7  RSN 10 0.5 1.8LRSN                1
 GAP= 95        1.14       4.4     3.6  6.8  0.2995E-01  0.1854E+01  0.3695E+01E
 Epicentro: ZAPATOCA - SANTANDER                                               3
 ACTION:UPD 17-05-24 15:31 OP:jn   STATUS:               ID:20170201072841 L   I
 OLDACT:UP  17-02-01 17:52 OP:dnl  STATUS:               ID:20170201071743     3
 OLDACT:REG 17-02-01 15:11 OP:dnl  STATUS:               ID:20170201071743     3
 2017-02-01-0718-00M.COL___313                                                 6
 STAT SP IPHASW D HRMM SECON CODA AMPLIT PERI AZIMU VELO AIN AR TRES W  DIS CAZ7
 BAR2 EZ IP     C  728 58.40                             167   -0.0610 27.8 135 
 BAR2 EZ ES        729 11.47                             167   -0.4110 27.8 135 
 BAR2 EZ I         729 12.61        60.5 0.38            170           27.8 135 
 BRR  HZ IP     C  728 59.17                             155    0.0210 53.9 314 
 BRR  HN ES        729 12.85                             155   -0.2710 53.9 314 
 BRR  HZ I         729 16.33        11.3 0.12            151           53.9 314 
 PAM  EZ EP        729  2.40                             140   -0.2510 96.4  49 
 PAM  EE ES        729 20.21                             140    0.8610 96.4  49 
 PAM  EZ I         729 21.03        17.1 0.20            141           96.4  49 
 RUS  HZ EP        729  2.74                             139   -0.3310  102 162 
 RUS  HE ES        729 20.32                             139    0.2210  102 162 
 RUS  HZ I         729 21.58         6.1 0.34            139            102 162 
 PTB  HZ EP        729  3.37                             132   -0.9510  124 258 
 PTB  HE ES        729 22.82                             132    0.4910  124 258 
 PTB  HZ I         729 24.38        13.2 0.46            129            124 258 
 TAM  HZ EP        729  9.50                             121   -0.11 9  177 102 
 TAM  HN ES        729 31.58                             121   -0.16 9  177 102 
 TAM  HZ I         729 32.01         5.4 0.30            122            177 102 
 ZAR  HZ EP        729 10.66                             120    0.42 9  184 296 
 ZAR  HE ES   4    729 34.71                             120    1.86 0  184 296 
 ZAR  HZ I         729 39.08        11.8 0.26            118            184 296 
 CHI  HZ EP   4    729 18.68                             113    1.77 0  240 190 
 CHI  HN ES        729 45.36                             113    0.62 8  240 190 
 CHI  HZ I         729 47.99         2.3 0.30            112            240 190 
 URE  HZ EP   4    729 17.75                             111   -1.28 0  263 294 
 URE  HN ES   4    729 46.84                             111   -1.66 0  263 294 
 URE  HZ I         729 54.77         8.4 0.26            109            263 294 
 CBOC HZ EP   2    729 25.60                             107    0.99 4  310 251 
 CBOC HN ES   2    729 58.51                             107    0.07 4  310 251 
 CBOC HZ I         730  8.24         1.5 0.40            106            310 251 
                                                                                
