 2013  9 1 0137 42.4 L   6.071 -73.873 32.1  RSN  6 0.4 1.5LRSN                1
 GAP=103        0.77       2.6     2.8 11.7 -0.1023E+01  0.9653E+01 -0.3189E+01E
 Epicentro: EL PEON - SANTANDER                                                3
 ACTION:UPD 13-10-22 09:19 OP:ep   STATUS:               ID:20130901013742 L   I
 OLDACT:UP  13-09-01 09:11 OP:mh   STATUS:               ID:20130901012959     3
 OLDACT:UP  13-09-01 09:10 OP:mh   STATUS:               ID:20130901012959     3
 OLDACT:REG 13-09-01 08:31 OP:mh   STATUS:               ID:20130901012959     3
 2013-09-01-0129-59M.COL___269                                                 6
 STAT SP IPHASW D HRMM SECON CODA AMPLIT PERI AZIMU VELO AIN AR TRES W  DIS CAZ7
 SPBC HZ EP   1    137 51.94                              61    0.14 9 51.3 206 
 SPBC HN ES   1    137 59.20                              61    0.06 9 51.3 206 
 SPBC HN I         138  2.49        38.2 0.10            129           51.3 206 
 PTB  HZ EP   1    137 55.02                              61   -0.63 9 82.8 309 
 PTB  HE ES   1    138  5.51                              61   -0.49 9 82.8 309 
 RUS  HZ EP   1    137 56.60                              61   -0.48 9 89.6 103 
 RUS  HN ES   2    138  8.51                              61   -0.03 6 89.6 103 
 BRR  HZ EP   1    138  0.20                              61    0.42 8  116   9 
 BRR  HN ES   1    138 13.69                              61    0.34 8  116   9 
 BRR  HN I         138 15.54         9.6 0.16            104            116   9 
 HEL  HZ EP   1    138  8.78                              61    0.08 7  184 274 
 HEL  HN ES        138 29.57                              61    0.3510  184 274 
 HEL  HN I         138 30.68         3.4 0.22             97            184 274 
 GUY2CHZ EP        138  9.95                              61    0.3510  190 241 
 GUY2CHN ES   1    138 30.38                              61   -0.44 7  190 241 
 GUY2CHZ I         138 32.52         3.3 0.22                           190 241 
                                                                                
