 2016 11 1 0307  8.7 L   5.893 -73.801102.0  RSN  5 0.4 1.2LRSN                1
 GAP=225        1.06       7.2     5.1  9.9  0.1481E+02  0.7904E+01  0.2835E+01E
 Epicentro: JESUS MARIA - SANTANDER                                            3
 ACTION:UPD 17-10-26 21:03 OP:lp   STATUS:               ID:20161101030708 L   I
 OLDACT:UP  16-11-01 14:01 OP:dani STATUS:               ID:20161101025746d    3
 OLDACT:DUP 16-11-01 13:58 OP:dani STATUS:               ID:20161101025746d    3
 OLDACT:UP  16-11-01 13:57 OP:dani STATUS:               ID:20161101025745d    3
 OLDACT:DUP 16-11-01 13:55 OP:dani STATUS:               ID:20161101025745d    3
 OLDACT:UP  16-11-01 13:54 OP:dani STATUS:               ID:20161101025744     3
 OLDACT:UP  16-11-01 13:54 OP:dani STATUS:               ID:20161101025744     3
 OLDACT:REG 16-11-01 12:17 OP:dani STATUS:               ID:20161101025744     3
 2016-11-01-0258-00M.COL___313                                                 6
 STAT SP IPHASW D HRMM SECON CODA AMPLIT PERI AZIMU VELO AIN AR TRES W  DIS CAZ7
 RUS  HZ EP        3 7 26.70                             139    0.0110 79.5  90 
 RUS  HE ES        3 7 40.64                             139   -0.0610 79.5  90 
 PTB  HZ EP        3 7 27.30                             131   -0.6610  102 315 
 PTB  HN ES        3 7 43.57                             131    0.6110  102 315 
 PTB  HZ I         3 7 43.77         2.8 0.12             47            102 315 
 BAR2 EZ EP        3 7 28.42                             131    0.0310  103  41 
 BAR2 EZ ES        3 7 43.72                             131   -0.0110  103  41 
 BRR  HZ EP        3 7 30.96                             122   -0.1810  135   4 
 BRR  HN ES        3 7 48.24                             122   -0.3910  135   4 
 BRR  HZ I         3 7 50.45         5.1 0.23             47            135   4 
 PAM  EZ EP        3 7 39.81                             111    0.79 9  201  37 
 PAM  EZ I         3 8  7.84         1.7 0.20             37            201  37 
                                                                                
