 2013  1 1 0028  7.9 L   6.790 -73.158142.2  RSN  7 0.5 2.1LRSN                1
 GAP=182        1.20       4.5     6.9  8.9  0.9101E+01  0.1684E+02  0.1851E+01E
 Epicentro: LOS SANTOS - SANTANDER                                             3
 ACTION:UPD 13-02-15 09:11 OP:ep   STATUS:               ID:20130101002807 L   I
 2013-01-01-0020-00M.COL___242                                                 6
 STAT SP IPHASW D HRMM SECON CODA AMPLIT PERI AZIMU VELO AIN AR TRES W  DIS CAZ7
 BAR2 SZ EP        028 27.18                             171    0.0610 22.0 187 
 BAR2 SZ ES        028 42.88                             171    0.8110 22.0 187 
 BAR2 SZ I         028 44.88        25.4 0.30            172           22.0 187 
 BRR  HZ IP     C  028 29.04                             152    0.3710 70.5 300 
 BRR  HZ I         028 29.30        33.4 0.24            151           70.5 300 
 RUS  HZ EP        028 31.52                             143    0.2510 99.6 175 
 RUS  HN ES        028 48.72                             143   -0.7410 99.6 175 
 RUS  HN I         028 51.43        14.3 0.16            146           99.6 175 
 PTB  HZ EP        028 33.91                             132   -0.57 9  146 259 
 PTB  HN ES        028 54.90                             132   -0.27 9  146 259 
 OCA  HN ES        028 57.31                             129   -0.70 9  161 354 
 OCA  HN I         029  1.12        56.8 0.38            130            161 354 
 ZAR  HZ EP        028 40.56                             122    0.49 9  203 293 
 ZAR  HN ES        029  5.35                             122    0.23 9  203 293 
 ZAR  HN I         029 11.68        15.6 0.42            123            203 293 
 CHI  HZ EP        028 45.42                             117    0.13 8  247 195 
 CHI  HZ I         028 47.29         3.7 0.14            118            247 195 
 CHI  HN ES        029 14.36                             117   -0.05 8  247 195 
                                                                                
