 2016 11 1 0627 40.9 L   6.856 -73.105150.0  RSN 10 0.5 1.7LRSN                1
 GAP=246        1.14       5.6     6.5  6.9  0.1364E+00  0.8635E+01  0.9704E+01E
 Epicentro: LOS SANTOS - SANTANDER                                             3
 ACTION:UPD 17-10-26 21:03 OP:lp   STATUS:               ID:20161101062740 L   I
 OLDACT:UP  16-11-01 17:30 OP:dani STATUS:               ID:20161101061750d    3
 OLDACT:DUP 16-11-01 17:25 OP:dani STATUS:               ID:20161101061750d    3
 OLDACT:UP  16-11-01 17:14 OP:dani STATUS:               ID:20161101061748     3
 OLDACT:REG 16-11-01 12:30 OP:dani STATUS:               ID:20161101061748     3
 2016-11-01-0618-00M.COL___313                                                 6
 STAT SP IPHASW D HRMM SECON CODA AMPLIT PERI AZIMU VELO AIN AR TRES W  DIS CAZ7
 BAR2 EZ EP        628  1.05                             168   -0.1310 30.3 196 
 BAR2 HN ES        628 16.89                             168   -0.1210 30.3 196 
 BRR  HZ EP        628  2.73                             153    0.1610 72.6 293 
 BRR  HE ES        628 20.30                             153    0.8210 72.6 293 
 BRR  HZ I         628 24.28         7.2 0.25            151           72.6 293 
 RUS  HZ EP        628  5.52                             143    0.0410  107 179 
 RUS  HE ES        628 24.30                             143   -0.3710  107 179 
 RUS  HZ I         628 25.77         4.5 0.19            143            107 179 
 PTB  HZ EP        628  7.87                             132   -0.84 9  153 257 
 PTB  HE ES        628 29.79                             132   -0.62 9  153 257 
 PTB  HZ I         628 31.72         5.1 0.42            131            153 257 
 SPBC HZ EP        628 10.85                             129    0.42 9  171 219 
 SPBC HN ES        628 33.47                             129   -0.00 9  171 219 
 SPBC HZ I         628 37.21         6.7 0.15            128            171 219 
 NOR  HZ EP        628 17.33                             119   -0.30 8  242 234 
 NOR  HN ES        628 46.12                             119   -0.18 8  242 234 
 NOR  HZ I         628 51.12         2.4 0.31            119            242 234 
 CHI  HZ EP   2    628 20.33                             117    0.74 4  256 196 
 CHI  HN ES   2    628 48.99                             117   -0.79 4  256 196 
 CHI  HZ I         628 51.88         2.8 0.35            118            256 196 
 ROSC BN ES        628 51.87                             117    1.25 8  260 211 
 ROSC BZ I         628 56.52         7.1 0.38            117            260 211 
 GUY2CHZ EP        628 25.62                             113    0.12 7  308 234 
 GUY2CHZ I         629  8.26         2.0 0.31                           308 234 
 PRA  HZ EP        628 35.40                             107   -0.03 6  400 210 
 PRA  HN ES        629 18.07                             107    0.09 6  400 210 
 PRA  HZ I         629 22.45         1.8 0.43            108            400 210 
 MACC HZ EP   4    629 26.71                             102   36.20 0  527 189 
                                                                                
