 2014 10 1 0832 52.6 L   6.834 -73.027150.0  RSN 12 0.4 2.4LRSN                1
 GAP=195        0.92       2.8     7.8  9.1  0.3330E+01  0.4278E+02  0.5561E+01E
 Epicentro: CEPITA - SANTANDER                                                 3
 ACTION:UPD 14-11-29 23:45 OP:nd   STATUS:               ID:20141001083252 L   I
 OLDACT:DUP 14-10-01 19:36 OP:carl STATUS:               ID:20141001082818d    3
 2014-10-01-0828-17M.COL___289                                                 6
 STAT SP IPHASW D HRMM SECON CODA AMPLIT PERI AZIMU VELO AIN AR TRES W  DIS CAZ7
 BAR2 SZ ES        833 28.70                             167   -0.1210 31.8 213 
 BAR2 SZ I         833 30.10        20.4 0.28            167           31.8 213 
 BRR  HN ES        833 32.72                             150    0.5610 81.5 292 
 BRR  HZ I         833 37.11       169.7 0.20            146           81.5 292 
 RUS  HN ES        833 36.16                             144    0.0410  104 183 
 OCA  HN ES        833 43.47                             131    0.12 9  159 348 
 OCA  HZ I         833 49.39        14.1 0.30            128            159 348 
 PTB  HN ES   4    833 41.52                             130   -1.94 0  161 258 
 PTB  HZ I         833 47.42        20.5 0.60            127            161 258 
 SPBC HN ES        833 45.72                             128   -0.14 9  175 222 
 SPBC HZ I         833 51.52        31.0 0.36            126            175 222 
 ZAR  HN ES        833 52.22                             122   -0.65 8  215 290 
 ZAR  HZ I         833 57.96        22.6 0.52            119            215 290 
 SML  HN ES        833 58.53                             118   -0.19 8  246 332 
 SML  HZ I         834  7.52        20.5 0.10            116            246 332 
 CHI  HN ES        834  0.87                             117   -0.70 8  256 198 
 CHI  HZ I         834  4.82         7.4 0.34            116            256 198 
 URE  HN ES   4    834  4.99                             114   -3.28 0  295 290 
 GUY2CHE ES        834 13.51                             112    0.31 7  314 236 
 GUY2CHZ I         834 20.63        10.4 0.62                           314 236 
 PRA  HN ES        834 30.73                             107    0.52 6  402 211 
 PRA  HZ I         834 32.63         7.7 0.24            106            402 211 
 ORTC HN ES        834 31.80                             107    0.67 6  406 217 
 ORTC HZ I         834 35.06         4.2 0.32            105            406 217 
                                                                                
