 2012 12 1 0518 49.8 L   6.843 -73.087134.6  RSN  5 0.4 1.8LRSN                1
 GAP=142        1.04       5.1     5.7 10.9  0.7814E+01  0.2972E+02  0.2336E+02E
 Epicentro: LOS SANTOS - SANTANDER                                             3
 ACTION:UPD 13-01-04 14:24 OP:ep   STATUS:               ID:20121201051849 L   I
 2012-12-01-0515-50M.COL___189                                                 6
 STAT SP IPHASW D HRMM SECON CODA AMPLIT PERI AZIMU VELO AIN AR TRES W  DIS CAZ7
 PAM  SN ES        519 26.12                             151   -0.3010 69.7  38 
 RUS  HE EP        519 13.55                             140    0.7310  105 180 
 RUS  HZ ES        519 30.92                             140    0.1410  105 180 
 RUS  HZ I         519 34.44         4.4 0.50                           105 180 
 PTB  HZ EP        519 16.09                             128   -0.49 9  155 258 
 PTB  HN ES        519 37.16                             128   -0.31 9  155 258 
 PTB  HN I         519 43.43         8.4 0.52                           155 258 
 ZAR  HN ES        519 47.70                             119    0.57 8  208 290 
 ZAR  HN I         519 53.41        10.2 0.28                           208 290 
 CHI  HZ EP        519 27.29                             114   -0.32 8  255 196 
 CHI  HN ES        519 56.95                             114   -0.14 8  255 196 
 CHI  HN I         520  0.88         4.6 0.30                           255 196 
                                                                                
