 2016  4 1 0253 45.5 L   6.779 -73.146141.2  RSN  8 0.5 1.5LRSN                1
 GAP=137        1.25       4.7     5.4  8.2 -0.3745E+01  0.1805E+02  0.1275E+01E
 Epicentro: LOS SANTOS - SANTANDER                                             3
 ACTION:UPD 16-05-05 14:17 OP:rebc STATUS:               ID:20160401025345 L   I
 OLDACT:REG 16-04-01 12:34 OP:ak   STATUS:               ID:20160401024741     3
 2016-04-01-0247-41M.COL___312                                                 6
 STAT SP IPHASW D HRMM SECON CODA AMPLIT PERI AZIMU VELO AIN AR TRES W  DIS CAZ7
 BAR2 EZ EP        254  4.24                             171   -0.2910 21.0 191 
 BAR2 EZ ES        254 19.91                             171    0.5310 21.0 191 
 BAR2 EZ I         254 20.74         9.3 0.26            172           21.0 191 
 PAM  EZ EP        254  7.64                             149    0.3010 79.2  38 
 PAM  EN ES        254 24.59                             149    0.2110 79.2  38 
 PAM  EZ I         254 27.63         4.4 0.46            153           79.2  38 
 RUS  HZ EP        254  8.02                             143   -0.6110 98.3 176 
 RUS  HE ES        254 26.30                             143   -0.3810 98.3 176 
 RUS  HZ I         254 28.46         3.5 0.26            148           98.3 176 
 PTB  HZ EP        254 11.29                             131   -0.77 9  147 260 
 PTB  HN ES        254 32.12                             131   -0.65 9  147 260 
 PTB  HZ I         254 38.32         3.7 0.36            132            147 260 
 SPBC HZ EP        254 13.55                             128    0.07 9  161 219 
 SPBC HN ES        254 35.07                             128   -0.23 9  161 219 
 SPBC HZ I         254 38.16         6.8 0.12            131            161 219 
 ZAR  HZ EP        254 17.58                             121   -0.16 9  205 293 
 ZAR  HE ES        254 43.28                             121    0.39 9  205 293 
 ZAR  HZ I         254 48.31         3.2 0.33            123            205 293 
 CHI  HZ EP   2    254 22.48                             116   -0.22 4  246 195 
 CHI  HN ES        254 52.53                             116    0.81 8  246 195 
 GUY2CHZ EP        254 29.69                             111    0.94 7  300 235 
 GUY2CHN ES        255  3.41                             111    0.93 7  300 235 
 GUY2CHZ I         255 10.18         1.3 0.30                           300 235 
                                                                                
