 2010  6 1 0135 46.9 L   6.830 -73.271145.5  RSN  5 0.3 2.1LRSN                1
 GAP=198        0.65       4.7    15.8  6.9 -0.2140E+02  0.1276E+02 -0.9898E+01E
 Epicentro: ZAPATOCA - SANTANDER                                               3
 ACTION:UP  10-08-24 10:07 OP:vdl  STATUS:               ID:20100601013546 L   I
 2010-06-01-0131-57S.COL___109                                                 6
 STAT SP IPHASW D HRMM SECON CODA AMPLIT PERI AZIMU VELO SNR AR TRES W  DIS CAZ7
 BAR2 SZ IP        136  6.36                             168    -0.310   28 160 
 BAR2 SZ ES   1    136 21.95                             168    -0.1 7   28 160 
 GIR2 SZ EP   1    136  6.60                             168     0.1 7   29  17 
 GIR2 SZ ES   2    136 22.53                             168     0.8 5   29  17 
 GUE  SZ EP   1    136 11.61                             139    -0.1 7  117  19 
 GRA  SZ IP        136 12.46                             136     0.210  128  24 
 GRA  SZ ES   1    136 31.93                             136    -0.2 7  128  24 
 OCA  SZ EP   1    136 15.26                             130     0.4 7  156 358 
 OCA  SZ ES   1    136 36.16                             130    -0.4 7  156 358 
 OCA  SZ I         136 46.04        14.8 0.15                           156 358 
                                                                                
