 2010  8 1 0211 52.4 L   6.858 -73.048139.6  RSN  7 0.3 2.0LRSN                1
 GAP=251        0.72       5.5     7.7  6.3  0.1313E+02  0.1844E+02  0.8949E+01E
 Epicentro: LOS SANTOS - SANTANDER                                             3
 ACTION:UP  10-09-07 10:51 OP:vdl  STATUS:               ID:20100801021152 L   I
 2010-08-01-0209-17S.COL___123                                                 6
 STAT SP IPHASW D HRMM SECON CODA AMPLIT PERI AZIMU VELO SNR AR TRES W  DIS CAZ7
 BAR2 SZ EP   1    212 11.66                             166     0.1 7   33 207 
 BAR2 SZ ES   1    212 26.75                             166     0.2 7   33 207 
 BAR2 SZ I         212 28.21        20.1 0.12                            33 207 
 BRR  HZ EP        212 13.07                             149    -0.310   78 291 
 BRR  HE ES   1    212 29.79                             149     0.1 7   78 291 
 BRR  HZ I         212 31.07        21.4 0.08                            78 291 
 RUS  HZ EP   1    212 16.07                             141     0.0 7  107 182 
 RUS  HE ES   1    212 34.36                             141    -0.1 7  107 182 
 RUS  HZ I         212 36.10         8.2 0.31                           107 182 
 CHI  HZ EP   2    212 30.97                             115     0.2 4  258 197 
 CHI  HE ES   2    212 59.90                             115    -0.8 4  258 197 
 CHI  HZ I         213  7.64         2.9 0.40                           258 197 
 HEL  HZ EP   1    212 33.29                             112    -0.4 6  284 255 
 HEL  HZ I         213 10.36         5.0 0.61                           284 255 
 GUY  SZ EP   1    212 37.94                             110     0.7 5  314 235 
 GUY  SN ES   1    213 12.19                             110     0.1 5  314 235 
 GUY  SZ I         213 18.72        10.0 0.74                           314 235 
 RREF HZ EP   1    212 40.23                             109     0.5 5  334 230 
 RREF HZ I         213 22.28         4.3 0.20                           334 230 
                                                                                
