 2011  6 1 0134 46.1 L   6.709 -73.138147.5  RSN  6 0.3 1.9LRSN                1
 GAP=141        0.69       4.1     7.4  6.8  0.1598E+01 -0.3236E+01 -0.7855E+01E
 Epicentro: JORDAN - SANTANDER                                                 3
 ACTION:UP  11-07-14 19:02 OP:ep   STATUS:               ID:20110601013446 L   I
 2011-06-01-0131-10S.COL___115                                                 6
 STAT SP IPHASW D HRMM SECON CODA AMPLIT PERI AZIMU VELO SNR AR TRES W  DIS CAZ7
 BAR2 SZ EP   1    135  6.04                             174     0.2 7   14 201 
 BAR2 SZ ES   1    135 20.69                             174    -0.5 7   14 201 
 BAR2 SZ I         135 22.08        16.3 0.16                            14 201 
 BRR  HZ EP   1    135  7.77                             151     0.0 7   77 305 
 BRR  HZ I         135 14.33        23.0 0.41                            77 305 
 BRR  HE ES   1    135 24.95                             151     0.2 7   77 305 
 PAM  SZ EP   1    135  8.71                             149    -0.3 7   85  35 
 PAM  SE ES   1    135 27.06                             149     0.3 7   85  35 
 RUS  HZ EP   2    135  9.78                             147     0.4 5   91 176 
 RUS  HZ I         135 11.26         5.6 0.17                            91 176 
 RUS  HN ES   1    135 27.46                             147     0.0 7   91 176 
 BRI  SZ EP   2    135 11.44                             139     0.6 5  118  19 
 OCA  SZ EP   1    135 15.03                             128    -0.5 7  170 353 
 OCA  SZ ES   1    135 38.49                             128     0.0 7  170 353 
 OCA  SZ I         135 39.43         9.6 0.20                           170 353 
                                                                                
