 2017  2 1 0639 59.6 L   6.500 -73.625113.5  RSN  4 0.2 1.0LRSN                1
 GAP=135        0.43       3.2     2.3  5.0  0.1397E+01 -0.7945E+00  0.6402E+01E
 Epicentro: SANTA HELENA DEL OPON - SANTANDER                                  3
 ACTION:UPD 17-05-24 15:31 OP:jn   STATUS:               ID:20170201063959 L   I
 OLDACT:UP  17-02-01 17:53 OP:and  STATUS:               ID:20170201063746     3
 OLDACT:REG 17-02-01 15:09 OP:dnl  STATUS:               ID:20170201063746     3
 2017-02-01-0638-00M.COL___313                                                 6
 STAT SP IPHASW D HRMM SECON CODA AMPLIT PERI AZIMU VELO AIN AR TRES W  DIS CAZ7
 BAR2 EZ IP     D  640 16.23                             155   -0.2010 50.0  78 
 BAR2 EZ ES   2    640 29.22                             155   -0.33 5 50.0  78 
 BAR2 EZ I         640 29.96         3.4 0.20            157           50.0  78 
 BRR  HZ EP     C  640 17.10                             147   -0.0510 67.8 352 
 BRR  HE ES        640 31.00                             147    0.1810 67.8 352 
 RUS  HZ EP        640 19.62                             139    0.1410 90.1 138 
 RUS  HN ES   2    640 35.17                             139    0.19 5 90.1 138 
 RUS  HZ I         640 36.49         1.1 0.26            140           90.1 138 
 PTB  HZ EP     C  640 19.04                             138    0.0610 92.0 273 
 PTB  HN ES        640 33.99                             138   -0.0910 92.0 273 
 PTB  HZ I         640 35.40         3.1 0.18            140           92.0 273 
                                                                                
