 2016 12 1 0446  9.5 L   6.833 -73.113150.9  RSN 30 0.7 3.5LRSN                1
 GAP= 68        1.09       3.9     3.5  5.1  0.1173E+01  0.6509E+01  0.5660E+01E
 Epicentro: LOS SANTOS - SANTANDER                                             3
      33.0      48.0    -162.0  3.0  5.0  3.0  0.0  0.1           RSN FPFIT    F
 ACTION:UPD 17-01-11 20:11 OP:rebc STATUS:               ID:20161201044609 L   I
 OLDACT:UP  16-12-01 17:39 OP:dani STATUS:               ID:20161201044609 L   3
 OLDACT:UP  16-12-01 17:30 OP:nlst STATUS:               ID:20161201044609 L   3
 OLDACT:UP  16-12-01 15:14 OP:dani STATUS:               ID:20161201043743d    3
 OLDACT:DUP 16-12-01 15:07 OP:dani STATUS:               ID:20161201043743d    3
 OLDACT:UP  16-12-01 15:07 OP:dani STATUS:               ID:20161201043742     3
 OLDACT:REG 16-12-01 13:09 OP:dani STATUS:               ID:20161201043742     3
 2016-12-01-0438-00M.COL___336                                                 6
 STAT SP IPHASW D HRMM SECON CODA AMPLIT PERI AZIMU VELO AIN AR TRES W  DIS CAZ7
 BAR2 HZ IP     D  446 29.87                             169    0.0610 27.8 196 
 BAR2 HZ ES        446 44.88                             169   -0.8010 27.8 196 
 BAR2 HZ I         446 45.64      1864.8 0.28            162           27.8 196 
 PAM  HZ IP   2 D  446 32.75                             153    0.81 5 72.2  39 
 PAM  EE ES        446 49.28                             153   -0.1910 72.2  39 
 PAM  HZ I         446 52.11      1334.7 0.66            160           72.2  39 
 BRR  HZ IP     D  446 31.79                             153    0.5210 72.8 295 
 BRR  HN ES        446 48.63                             153    0.3610 72.8 295 
 BRR  HZ I         446 51.92       675.4 0.40            152           72.8 295 
 PTB  HZ EP     C  446 36.44                             132   -0.81 9  152 258 
 PTB  HN ES   3    446 57.50                             132   -1.42 2  152 258 
 PTB  HZ I         447  0.26       323.4 0.22            130            152 258 
 TAM  HZ IP   2 D  446 38.20                             132    0.87 5  153 107 
 TAM  HN ES        446 59.49                             132    0.43 9  153 107 
 TAM  HZ I         447  4.97       138.3 0.30            132            153 107 
 ZAR  HZ EP        446 42.74                             123    0.27 8  206 291 
 ZAR  HN ES        447  8.98                             123    0.78 8  206 291 
 ZAR  HZ I         447 14.91       514.5 0.28            123            206 291 
 NOR  HZ EP     C  446 45.68                             119   -0.37 8  240 234 
 NOR  HN ES        447 13.73                             119   -0.85 8  240 234 
 NOR  HZ I         447 14.22       111.0 0.26            117            240 234 
 CHI  HZ EP        446 48.11                             118    0.16 8  253 196 
 CHI  HN ES   3    447 16.73                             118   -1.23 2  253 196 
 CHI  HZ I         447 20.50       148.7 0.36            116            253 196 
 ROSC BZ EP        446 49.18                             117    0.76 8  258 211 
 ROSC BE ES   2    447 19.84                             117    1.03 4  258 211 
 ROSC BZ I         447 25.91       281.5 0.45            115            258 211 
 URE  HZ EP        446 50.31                             114   -0.71 7  286 291 
 URE  HN ES   2    447 21.98                             114   -1.45 4  286 291 
 URE  HZ I         447 24.05       245.0 0.36            114            286 291 
 PTGC HZ EP        446 53.03                             112   -0.77 7  311 160 
 PTGC HE ES   4    447 25.64                             112   -2.74 0  311 160 
 PTGC HZ I         447 28.63       249.1 0.36            111            311 160 
 LL6C HZ EP   9    446 35.40                             112   -19.6 0  321 357 
 LL6C HE ES   2    447  9.31                                   -1.60 3  321 357 
 LL6C HZ I         447 11.06        39.7 0.66            113            321 357 
 ELA  HZ EP   3    446 58.97                             111    1.84 2  334 229 
 ELA  HE ES   4    447 38.86                             111    4.55 0  334 229 
 ELA  HZ I         447 39.38       139.0 0.32            110            334 229 
 CBOC HZ EP        446 57.94                             110    0.81 7  338 252 
 CBOC HN ES        447 34.87                             110    0.56 7  338 252 
 CBOC HZ I         447 43.63        80.4 0.46            110            338 252 
 DBB  HZ EP   3    446 58.81                             110    1.26 2  343 274 
 DBB  HN ES   3    447 33.01                             110   -2.04 2  343 274 
 ANIL HZ EP        447  0.56                             109    0.48 6  363 225 
 ANIL HN ES        447 40.08                             109    0.53 6  363 225 
 ANIL HZ I         447 51.83       299.0 0.30            108            363 225 
 PRA  HZ EP        447  3.12                             107   -0.64 6  397 210 
 PRA  HE ES   4    447 43.87                             107   -2.23 0  397 210 
 PRA  HZ I         447 51.26        89.4 0.22            106            397 210 
 ORTC HZ EP     C  447  3.96                             107   -0.21 6  401 216 
 ORTC HN ES   3    447 48.34                             107    1.50 1  401 216 
 ORTC HZ I         447 51.57        93.0 0.42            106            401 216 
 SJC  HZ EP        447  4.27                             107   -0.81 6  408 326 
 SJC  HE ES   4    447 46.09                             107   -2.37 0  408 326 
 SJC  HZ I         447 50.24       104.7 0.54            107            408 326 
 PAL  HZ EP        447  5.91                             106    0.51 6  411 239 
 PAL  HN ES   3    447 47.43                             106   -1.59 1  411 239 
 PAL  HZ I         447 54.75       109.6 0.30            106            411 239 
 LCBC HZ EP        447  7.33                             106    0.60 5  423 302 
 LCBC HN ES        447 51.59                             106    0.19 5  423 302 
 LCBC HZ I         447 58.61        84.4 0.24            106            423 302 
 CRJC HZ EP     C  447 10.46                             104   -1.20 5  464   3 
 CRJC HN ES   4    447 57.02                             104   -3.14 0  464   3 
 CRJC HZ I         448  3.22        35.2 0.54            105            464   3 
 YOT  HZ EP     D  447 12.77                             104   -0.51 5  477 229 
 YOT  HZ I         448 13.91        15.8 0.68            103            477 229 
 SMAR HZ EP        447 15.01                             103   -0.15 4  494 346 
 MACC HZ EP   3    447 16.91                             102   -1.90 1  525 189 
 MACC HN ES   4    448  8.82                             102   -4.08 0  525 189 
 MACC HZ I         448 34.95        23.3 0.50            102            525 189 
 MARO HZ EP        447 21.32                             102    0.09 4  542 216 
 GARC HZ EP        447 24.34                             101   -1.09 3  578 207 
 GARC HN ES   4    448 19.75                             101   -4.94 0  578 207 
 GARC HZ I         448 27.80        32.7 0.22            100            578 207 
 CONO HZ EP        447 31.13                             100    0.56 3  617 216 
 SOTO HZ EP   3 C  447 35.91                              99    1.70 1  648 217 
 BBAC HZ EP     D  447 41.17                              98    0.77 1  703 221 
 BBAC HZ I         448 54.32         7.5 0.46             98            703 221 
                                                                                
