 2010  8 1 0251 53.2 L   6.766 -73.078143.2  RSN 11 0.4 2.1LRSN                1
 GAP=167        0.94       4.7     8.2  7.0 -0.8815E+01  0.8260E+01  0.5312E+01E
 Epicentro: LOS SANTOS - SANTANDER                                             3
 ACTION:UP  10-09-07 10:51 OP:vdl  STATUS:               ID:20100801025153 L   I
 2010-08-01-0249-29S.COL___123                                                 6
 STAT SP IPHASW D HRMM SECON CODA AMPLIT PERI AZIMU VELO SNR AR TRES W  DIS CAZ7
 BAR2 SZ EP        252 12.37                             171    -0.110   23 211 
 BAR2 SZ ES   1    252 27.69                             171     0.1 7   23 211 
 BAR2 SZ I         252 28.87        43.9 0.24                            23 211 
 BRR  HZ IP     C  252 14.20                             149    -0.410   80 298 
 BRR  HZ I         252 14.44        37.2 0.18                            80 298 
 BRR  HE ES   1    252 31.36                             149     0.1 7   80 298 
 RUS  HZ EP        252 16.24                             144    -0.210   97 180 
 RUS  HN ES   1    252 34.65                             144     0.1 7   97 180 
 RUS  HZ I         252 36.25        10.8 0.44                            97 180 
 GUE  SZ EP   1    252 17.38                             138    -0.5 7  119   8 
 GRA  SZ EP   1    252 19.12                             136     0.8 7  127  14 
 GRA  SZ ES   2    252 38.11                             136     0.2 5  127  14 
 GRA  SZ I         252 40.94         8.0 0.31                           127  14 
 CHI  HZ EP   1    252 30.46                             117    -0.1 6  247 197 
 CHI  HZ I         253  7.94         4.9 0.48                           247 197 
 ROSC BZ EP   1    252 32.07                             116     0.8 6  254 213 
 ROSC BZ I         253  6.75         7.5 0.43                           254 213 
 HEL  HZ EP   2    252 33.63                             114    -0.4 4  278 257 
 HEL  HZ I         253 11.82         5.4 0.17                           278 257 
 GUY  SZ EP   2    252 37.47                             111     0.3 4  305 236 
 GUY  SN ES   2    253 11.60                             111     0.1 4  305 236 
 GUY  SZ I         253 17.95        17.4 0.49                           305 236 
 RREF HZ EP   1    252 40.52                             110     0.9 5  325 231 
 RREF HZ I         253 20.67         4.9 0.34                           325 231 
 PRA  HZ EP   1    252 46.01                             106    -0.7 4  393 211 
 PRA  HN ES   1    253 27.99                             106    -0.4 4  393 211 
 PRA  HZ I         253 34.05         5.9 0.23                           393 211 
                                                                                
