 2016  3 1 0409 42.7 L   6.766 -73.153144.0  RSN  7 0.3 1.7LRSN                1
 GAP=137        0.73       3.5     3.3  5.6  0.4153E+00  0.6847E+01 -0.5895E+01E
 Epicentro: LOS SANTOS - SANTANDER                                             3
 ACTION:UPD 16-05-13 21:20 OP:cam  STATUS:               ID:20160301040942 L   I
 OLDACT:DUP 16-03-01 18:34 OP:mh   STATUS:               ID:20160301040749d    3
 2016-03-01-0407-48M.COL___321                                                 6
 STAT SP IPHASW D HRMM SECON CODA AMPLIT PERI AZIMU VELO AIN AR TRES W  DIS CAZ7
 BAR2 EZ EP     C  410  2.30                             172    0.2410 19.5 190 
 BAR2 EZ ES        410 17.07                             172   -0.0710 19.5 190 
 BAR2 EZ I         410 19.67         6.5 0.24            176           19.5 190 
 PAM  EZ EP        410  4.99                             149    0.0410 80.8  38 
 PAM  EN ES        410 22.03                             149   -0.2610 80.8  38 
 PAM  EZ I         410 24.59         4.1 0.35            141           80.8  38 
 RUS  HZ EP        410  5.92                             144   -0.1110 96.9 175 
 RUS  HN ES        410 24.38                             144    0.1810 96.9 175 
 RUS  HZ I         410 25.68         4.5 0.55            145           96.9 175 
 PTB  HZ EP   1    410  8.86                             132   -0.55 7  146 260 
 PTB  HN ES   1    410 30.09                             132   -0.14 7  146 260 
 PTB  HZ I         410 36.29         5.1 0.38            126            146 260 
 OCA  HZ EP        410 11.48                             128    0.24 9  164 354 
 OCA  HZ I         410 36.20        15.5 0.49            120            164 354 
 ZAR  HZ EP        410 15.09                             122   -0.03 9  205 293 
 ZAR  HN ES        410 41.02                             122    0.62 9  205 293 
 ZAR  HZ I         410 45.93         7.3 0.36            115            205 293 
 URE  HZ EP   4    410 22.27                             113   -1.51 0  285 293 
 URE  HN ES        410 55.25                             113   -0.56 7  285 293 
 URE  HZ I         411 10.05         2.8 0.22            108            285 293 
 VIL  SZ EP   4    410 33.24                             112    7.62 0  300 192 
 VIL  SN ES   4    411  4.16                             112    5.08 0  300 192 
                                                                                
