 2015  8 1 0733 13.9 L   6.777 -73.063145.0  RSN  4 0.3 1.2LRSN                1
 GAP=191        0.82       4.6    12.2  8.1  0.3286E+02 -0.3333E+02 -0.1057E+02E
 Epicentro: LOS SANTOS - SANTANDER                                             3
 ACTION:UPD 15-09-15 22:59 OP:cam  STATUS:               ID:20150801073313 L   I
 OLDACT:DUP 15-08-01 18:15 OP:drio STATUS:               ID:20150801072746d    3
 OLDACT:REG 15-08-01 12:23 OP:drio STATUS:               ID:20150801072743     3
 2015-08-01-0727-43M.COL___352                                                 6
 STAT SP IPHASW D HRMM SECON CODA AMPLIT PERI AZIMU VELO AIN AR TRES W  DIS CAZ7
 BAR2 EZ EP        733 33.06                             170   -0.3510 24.3 213 
 BAR2 EZ ES        733 48.30                             170   -0.3610 24.3 213 
 BAR2 EZ I         733 49.87         4.7 0.42            171           24.3 213 
 BRR  HZ EP        733 35.13                             149   -0.3410 80.5 297 
 BRR  HN ES        733 52.55                             149    0.2210 80.5 297 
 RUS  HZ EP        733 37.63                             144    0.3110 97.8 181 
 RUS  HN ES        733 55.92                             144    0.2910 97.8 181 
 RUS  HZ I         733 56.84         2.5 0.44            145           97.8 181 
 OCA  HN ES        734  5.07                             129    0.28 9  164 350 
                                                                                
