 2017  4 1 0812 24.9 L   7.096 -73.393116.1  RSN  5 0.5 1.0LRSN                1
 GAP=232        1.23       8.7     7.2  8.9  0.4172E+02  0.7175E+01 -0.1404E+01E
 Epicentro: LEBRIJA - SANTANDER                                                3
 ACTION:UPD 17-05-30 21:07 OP:jn   STATUS:               ID:20170401081224 L   I
 OLDACT:REG 17-04-01 13:33 OP:lv   STATUS:               ID:20170401080744     3
 2017-04-01-0808-00M.COL___362                                                 6
 STAT SP IPHASW D HRMM SECON CODA AMPLIT PERI AZIMU VELO AIN AR TRES W  DIS CAZ7
 BRR  HZ EP        812 40.36                             162   -0.6610 35.3 272 
 BRR  HE ES        812 53.23                             162   -0.3510 35.3 272 
 BRR  HZ I         812 56.63         2.6 0.11            159           35.3 272 
 BAR2 EZ EP        812 42.77                             151    0.1710 60.3 157 
 BAR2 EZ ES        812 57.14                             151    0.7510 60.3 157 
 PTB  HZ EP        812 48.03                             127   -0.1310  133 242 
 PTB  HN ES        813  6.36                             127    0.0710  133 242 
 PTB  HZ I         813  9.81         1.9 0.09            127            133 242 
 RUS  HZ EP        812 49.79                             127    0.54 9  137 166 
 RUS  HN ES        813  7.49                             127   -0.74 9  137 166 
 RUS  HZ I         813 10.74         1.3 0.21            128            137 166 
 ZAR  HZ EP        812 51.60                             120   -0.09 9  168 285 
 ZAR  HN ES        813 13.07                             120    0.50 9  168 285 
 ZAR  HZ I         813 15.63         2.3 0.19            122            168 285 
 SJC  HZ EP   4    813 11.92                             102   -2.69 0  367 328 
 SJC  HN ES   4    813 48.06                             102   -5.31 0  367 328 
                                                                                
