 2017  1 1 0151 27.9 L   6.803 -73.139145.1  RSN 13 0.3 2.0LRSN                1
 GAP=120        0.75       3.0     3.0  4.3 -0.5941E-02  0.4073E+01  0.3140E+01E
 Epicentro: LOS SANTOS - SANTANDER                                             3
 ACTION:UPD 17-05-22 15:53 OP:jn   STATUS:               ID:20170101015127 L   I
 OLDACT:UP  17-01-01 14:23 OP:dnl  STATUS:               ID:20170101014748     3
 OLDACT:UP  17-01-01 14:22 OP:dnl  STATUS:               ID:20170101014748     3
 OLDACT:REG 17-01-01 13:36 OP:dnl  STATUS:               ID:20170101014748     3
 2017-01-01-0148-00M.COL___384                                                 6
 STAT SP IPHASW D HRMM SECON CODA AMPLIT PERI AZIMU VELO AIN AR TRES W  DIS CAZ7
 BAR2 EZ EP        151 47.35                             170   -0.0910 23.8 192 
 BAR2 EZ ES        152  2.60                             170   -0.1010 23.8 192 
 BAR2 EZ I         152  4.21        19.3 0.32            169           23.8 192 
 BRR  HZ IP     C  151 49.04                             152    0.0610 71.7 298 
 BRR  HE ES        152  5.97                             152    0.5310 71.7 298 
 BRR  HZ I         152  9.23        20.2 0.18            151           71.7 298 
 PAM  EZ EP     C  151 50.13                             151    0.1510 76.6  39 
 PAM  EN ES        152  7.15                             151   -0.0710 76.6  39 
 PAM  EZ I         152  9.09        34.1 0.48            155           76.6  39 
 RUS  HZ EP        151 51.55                             144   -0.0410  101 176 
 RUS  HN ES        152 10.01                             144   -0.0710  101 176 
 RUS  HZ I         152 12.19         6.9 0.34            145            101 176 
 PTB  HZ EP        151 54.20                             132   -0.67 9  149 259 
 PTB  HE ES   2    152 15.53                             132   -0.39 5  149 259 
 PTB  HZ I         152 17.67        14.1 0.14            131            149 259 
 ZAR  HZ EP        152  0.36                             122    0.02 9  205 292 
 ZAR  HN ES        152 25.26                             122   -0.40 9  205 292 
 ZAR  HZ I         152 30.34        22.9 0.74            123            205 292 
 NOR  HZ EP        152  4.04                             118    0.38 8  236 234 
 NOR  HE ES        152 31.37                             118   -0.20 8  236 234 
 NOR  HZ I         152 37.12         4.5 0.18            119            236 234 
 CHI  HZ EP   2    152  6.09                             117    0.49 4  249 195 
 CHI  HN ES   2    152 35.42                             117    0.39 4  249 195 
 CHI  HZ I         152 38.97         2.4 0.30            118            249 195 
 URE  HZ EP   4    152 11.35                             113    2.37 0  284 292 
 URE  HN ES   4    152 38.20                             113   -2.84 0  284 292 
 URE  HZ I         152 45.67         7.9 0.12            114            284 292 
 GUY2CHZ EP        152 12.28                             112    0.73 7  302 235 
 GUY2CHE ES        152 45.83                             112    0.22 7  302 235 
 GUY2CHZ I         152 53.95         3.4 0.28                           302 235 
 PTGC HZ EP        152 11.39                             111   -0.33 7  309 159 
 PTGC HN ES   4    152 43.54                             111   -2.37 0  309 159 
 PTGC HZ I         152 44.96         7.0 0.36            113            309 159 
 DBB  EN ES   4    152 49.87                             109   -2.62 0  340 274 
 DBB  EZ I         152 57.53         4.9 0.30            110            340 274 
 SJC  HZ EP   4    152 21.10                             106   -2.33 0  409 327 
 SJC  HN ES   4    153  0.56                             106   -6.20 0  409 327 
 SJC  HZ I         153  6.29         4.5 0.50            107            409 327 
                                                                                
