 2015  5 1 0842 52.9 L   6.767 -73.198143.4  RSN  5 0.5 1.3LRSN                1
 GAP=119        0.95       8.0     5.9 10.8  0.2235E+02 -0.5897E+01 -0.4039E+02E
 Epicentro: ZAPATOCA - SANTANDER                                               3
 ACTION:UPD 15-09-10 22:00 OP:cam  STATUS:               ID:20150501084252 L   I
 OLDACT:UP  15-05-06 15:28 OP:nlst STATUS:               ID:20150501084252 L   3
 OLDACT:REG 15-05-01 13:07 OP:drio STATUS:               ID:20150501083738     3
 2015-05-01-0837-38M.COL___273                                                 6
 STAT SP IPHASW D HRMM SECON CODA AMPLIT PERI AZIMU VELO AIN AR TRES W  DIS CAZ7
 BAR2 EZ ES   2    843 27.25                             172    0.08 5 19.4 175 
 BAR2 EZ I         843 27.82         5.9 0.30            174           19.4 175 
 PAM  SZ EP   2    843 15.24                             148   -0.01 5 83.9  41 
 PAM  SN ES   2    843 32.32                             148   -0.37 5 83.9  41 
 PAM  SZ I         843 34.43         2.8 0.68            147           83.9  41 
 RUS  HN ES        843 34.20                             145   -0.1410 97.5 172 
 TAM  HZ EP        843 21.22                             129    0.41 9  160 103 
 ZAR  HZ EP        843 23.99                             123   -0.77 9  200 294 
 ZAR  HN ES        843 50.23                             123    0.60 9  200 294 
                                                                                
