 2011  9 1 0902 56.9 L   6.790 -73.072137.2  RSN  6 0.1 1.7LRSN                1
 GAP=219        0.30       2.9     3.5  4.4 -0.1570E+01  0.1679E+01 -0.3168E+01E
 Epicentro: LOS SANTOS - SANTANDER                                             3
 ACTION:UPD 12-07-13 15:54 OP:ep   STATUS:               ID:20110901090256 L   I
 2011-09-01-0900-00M.COL___169                                                 6
 STAT SP IPHASW D HRMM SECON CODA AMPLIT PERI AZIMU VELO AIN AR TRES W  DIS CAZ7
 BAR2 SZ EP   1    9 3 15.60                             169    0.03 7 25.1 209 
 BAR2 SZ ES   2    9 3 29.94                             169   -0.17 5 25.1 209 
 GIR2 SZ EP   2    9 3 15.70                             165    0.02 5 34.7 337 
 BRR  HZ EP   1    9 3 17.71                             148    0.07 7 79.0 296 
 BRR  HN ES   2    9 3 33.90                             148    0.11 5 79.0 296 
 BRR  HZ I         9 3 38.43        12.5 0.17                          79.0 296 
 OCA  SZ EP   1    9 3 24.64                             127   -0.17 7  163 350 
 OCA  SZ ES   2    9 3 46.75                             127    0.20 5  163 350 
 OCA  SZ I         9 3 49.38         6.4 0.09                           163 350 
 ZAR  HZ EP   2    9 3 29.84                             119    0.16 4  212 292 
 ZAR  HN ES   2    9 3 54.94                             119   -0.28 4  212 292 
 ZAR  HZ I         9 3 59.55         4.3 0.33                           212 292 
 NOR  SN ES   2    9 4  0.91                             116    0.06 4  241 236 
                                                                                
