 2015  8 1 0358  6.1 L   6.839 -73.110137.8  RSN 13 0.4 2.1LRSN                1
 GAP=187        0.97       2.8     4.3  5.4 -0.1440E+01  0.8897E+01  0.6337E-01E
 Epicentro: LOS SANTOS - SANTANDER                                             3
 ACTION:UPD 15-09-15 22:59 OP:cam  STATUS:               ID:20150801035806 L   I
 OLDACT:REG 15-08-01 12:12 OP:drio STATUS:               ID:20150801034747     3
 2015-08-01-0347-47M.COL___352                                                 6
 STAT SP IPHASW D HRMM SECON CODA AMPLIT PERI AZIMU VELO AIN AR TRES W  DIS CAZ7
 BAR2 EZ EP     C  358 25.08                             168    0.2110 28.4 196 
 BAR2 EZ ES        358 38.83                             168   -0.7010 28.4 196 
 BAR2 EZ I         358 43.17        18.5 0.10            166           28.4 196 
 BRR  HZ IP     C  358 26.83                             150    0.3710 72.8 294 
 BRR  HN ES        358 43.07                             150    0.7010 72.8 294 
 BRR  HZ I         358 48.46        22.1 0.14            149           72.8 294 
 RUS  HZ EP        358 29.14                             141   -0.2210  105 178 
 RUS  HE ES        358 47.69                             141    0.1710  105 178 
 RUS  HZ I         358 48.65         8.6 0.18            144            105 178 
 OCA  HZ EP        358 33.64                             128    0.22 9  157 352 
 OCA  HN ES        358 54.88                             128    0.13 9  157 352 
 OCA  HZ I         358 58.13        32.4 0.42            132            157 352 
 ZAR  HN ES        359  2.91                             120   -0.41 8  206 291 
 NOR  HZ EP        358 41.61                             116   -0.36 8  240 234 
 NOR  HE ES        359  9.39                             116   -0.59 8  240 234 
 NOR  HZ I         359 15.11        10.6 0.18            118            240 234 
 SML  HZ EP        358 41.54                             116   -0.48 8  242 334 
 SML  HE ES        359  9.63                             116   -0.43 8  242 334 
 SML  HZ I         359 11.68        19.6 0.30            119            242 334 
 HEL  HZ EP        358 46.98                             113    0.54 7  277 255 
 HEL  HN ES        359 17.75                             113   -0.18 7  277 255 
 HEL  HZ I         359 24.17         8.6 0.56            114            277 255 
 GUY2CHZ EP        358 49.44                             110   -0.53 7  307 235 
 GUY2CHE ES        359 24.78                             110    0.56 7  307 235 
 GUY2CHZ I         359 32.85         5.5 0.62                           307 235 
 CBOC HZ EP        358 53.73                             108    0.47 7  339 252 
 CBOC HN ES        359 30.11                             108    0.05 7  339 252 
 CBOC HZ I         359 40.08         2.2 0.40            110            339 252 
 DBB  SZ ES   4    359 24.84                             108   -5.94 0  343 273 
 TOL  SZ EP        358 55.00                             107    0.31 6  349 225 
 TOL  SE ES        359 32.81                             107    0.19 6  349 225 
 TOL  SZ I         359 39.66         5.6 0.34            110            349 225 
 MON  HZ EP   4    358 52.47                             107   -2.36 0  354 307 
 MON  HN ES   4    359 30.87                             107   -1.99 0  354 307 
 MON  HZ I         359 33.02         3.0 0.18            109            354 307 
 SJC  HZ EP   4    358 59.41                             104   -1.80 0  408 326 
 SJC  HE ES   4    359 40.58                             104   -3.65 0  408 326 
 SJC  HZ I         359 43.77         1.9 0.30            107            408 326 
                                                                                
