 2011  2 1 0705 28.3 L   6.792 -73.136142.3  RSN  7 0.3 1.5LRSN                1
 GAP=184        0.52       3.6     8.2  7.8 -0.7842E+01  0.3017E+02 -0.2973E+01E
 Epicentro: LOS SANTOS - SANTANDER                                             3
 ACTION:UP  11-03-28 15:05 OP:jfem STATUS:               ID:20110201070528 L   I
 2011-02-01-0703-12S.COL___138                                                 6
 STAT SP IPHASW D HRMM SECON CODA AMPLIT PERI AZIMU VELO SNR AR TRES W  DIS CAZ7
 BTL  SZ EP        7 5 47.71                             172     0.310   20 314 
 BAR2 SZ EP   1    7 5 47.39                             171    -0.1 7   23 193 
 BAR2 SZ I         7 5 47.93        12.0 0.08                            23 193 
 BAR2 SZ ES   2    7 6  2.48                             171     0.0 5   23 193 
 RUS  HZ EP   2    7 5 51.57                             143    -0.1 5  100 177 
 RUS  HZ I         7 5 52.20         2.9 0.22                           100 177 
 RUS  HE ES   2    7 6  9.42                             143    -0.4 5  100 177 
 OCA  SZ EP   2    7 5 56.06                             129    -0.4 5  161 353 
 OCA  SZ ES   2    7 6 18.28                             129    -0.1 5  161 353 
 OCA  SZ I         7 6 22.27         3.4 0.15                           161 353 
 NOR  SZ EP   2    7 6  3.35                             118    -0.5 4  235 235 
 NOR  SN ES   2    7 6 31.37                             118    -0.2 4  235 235 
 CHI  HZ EP   2    7 6  5.57                             116    -0.2 4  248 195 
 CHI  HN ES   2    7 6 35.42                             116     0.5 4  248 195 
 CHI  HZ I         7 6 43.39         2.1 0.58                           248 195 
 HEL  HZ EP   2    7 6  8.79                             114     0.4 4  273 256 
 HEL  HZ I         7 6 45.89         2.7 0.35                           273 256 
                                                                                
