 2013  2 1 0305 56.4 L   6.785 -73.143150.0  RSN  4 0.4 1.3LRSN                1
 GAP=237        0.94       6.3     8.2 10.7  0.1956E+02 -0.1457E+02  0.3073E+01E
 Epicentro: LOS SANTOS - SANTANDER                                             3
 ACTION:UPD 13-03-12 09:29 OP:ep   STATUS:               ID:20130201030556 L   I
 2013-02-01-0300-00M.COL___241                                                 6
 STAT SP IPHASW D HRMM SECON CODA AMPLIT PERI AZIMU VELO AIN AR TRES W  DIS CAZ7
 BRR  HZ EP        3 6 17.97                             153   -0.1110 72.3 300 
 BRR  HN ES   2    3 6 34.56                             153   -0.41 5 72.3 300 
 RUS  HZ EP        3 6 20.81                             145    0.3510 98.9 176 
 RUS  HE ES   1    3 6 39.13                             145   -0.08 7 98.9 176 
 RUS  HE I         3 6 39.43         2.8 0.52            140           98.9 176 
 PTB  HZ EP        3 6 23.16                             133   -0.56 9  148 260 
 PTB  HN ES        3 6 45.51                             133    0.49 9  148 260 
 PTB  HZ I         3 6 48.54         1.6 0.18            128            148 260 
 CHI  HZ EP        3 6 34.66                             118    0.49 8  247 195 
 CHI  HE ES        3 7  3.09                             118   -0.54 8  247 195 
 CHI  HE I         3 7 10.10         1.8 0.76            115            247 195 
                                                                                
