 2013  2 1 0752 22.6 L   6.834 -73.152142.7  RSN  5 0.5 1.7LRSN                1
 GAP=194        1.11       5.8    10.1 14.0 -0.2053E+02 -0.6262E+02  0.4802E+02E
 Epicentro: LOS SANTOS - SANTANDER                                             3
 ACTION:UPD 13-03-12 09:29 OP:ep   STATUS:               ID:20130201075222 L   I
 2013-02-01-0750-00M.COL___241                                                 6
 STAT SP IPHASW D HRMM SECON CODA AMPLIT PERI AZIMU VELO AIN AR TRES W  DIS CAZ7
 BAR2 SZ EP        752 42.05                             169    0.1010 26.9 187 
 BRR  HZ EP        752 43.81                             153    0.5210 68.9 296 
 BRR  HN ES        752 59.87                             153    0.4410 68.9 296 
 BRR  HN I         753  4.13         9.0 0.18            156           68.9 296 
 PTB  HZ EP        752 49.42                             131    0.09 9  148 257 
 PTB  HN ES        753  9.85                             131   -0.33 9  148 257 
 PTB  HN I         753 15.20         9.3 0.66            135            148 257 
 OCA  HN ES        753 11.22                             130   -0.72 9  156 353 
 CHI  HZ EP        753  0.85                             116    0.34 8  252 195 
 CHI  HN ES        753 29.36                             116   -0.72 8  252 195 
 CHI  HN I         753 34.98         2.7 0.34            120            252 195 
                                                                                
