 2016  4 1 0610 54.7 L   6.787 -73.116142.2  RSN  7 0.4 1.6LRSN                1
 GAP=141        0.87       3.1     4.0  6.2 -0.2058E+01  0.9195E+01 -0.2081E+01E
 Epicentro: LOS SANTOS - SANTANDER                                             3
 ACTION:UPD 16-05-05 14:17 OP:rebc STATUS:               ID:20160401061054 L   I
 OLDACT:DUP 16-04-01 17:03 OP:ak   STATUS:               ID:20160401060751d    3
 2016-04-01-0607-50M.COL___310                                                 6
 STAT SP IPHASW D HRMM SECON CODA AMPLIT PERI AZIMU VELO AIN AR TRES W  DIS CAZ7
 BAR2 EZ EP        611 13.99                             170    0.0610 22.8 199 
 BAR2 EZ ES        611 28.72                             170   -0.1810 22.8 199 
 BAR2 EZ I         611 30.23         6.5 0.20            170           22.8 199 
 PAM  EZ EP        611 17.15                             150    0.6310 76.4  37 
 PAM  EN ES        611 33.59                             150    0.0810 76.4  37 
 PAM  EZ I         611 35.85         7.8 0.56            153           76.4  37 
 RUS  HZ EP        611 17.92                             143   -0.1110 99.0 178 
 RUS  HE ES        611 36.31                             143    0.1210 99.0 178 
 RUS  HZ I         611 38.21         3.8 0.44            147           99.0 178 
 PTB  HZ EP        611 21.35                             130   -0.35 9  151 260 
 PTB  HE ES        611 42.58                             130   -0.14 9  151 260 
 PTB  HZ I         611 45.06         3.4 0.17            131            151 260 
 OCA  HZ EP   2    611 22.52                             128   -0.43 5  162 352 
 OCA  HN ES        611 44.37                             128   -0.58 9  162 352 
 OCA  HZ I         611 47.52         8.9 0.34            130            162 352 
 SPBC HZ EP        611 23.14                             128    0.07 9  164 220 
 SPBC HN ES        611 45.05                             128   -0.11 9  164 220 
 SPBC HZ I         611 48.26         5.5 0.22            130            164 220 
 ZAR  HZ EP        611 27.14                             121   -0.20 8  208 292 
 ZAR  HE ES        611 53.57                             121    0.81 8  208 292 
 ZAR  HZ I         612  1.34         5.8 0.26            122            208 292 
                                                                                
