 2011  4 1 0242 30.7 L   6.794 -73.122140.5  RSN  5 0.1 1.5LRSN                1
 GAP=159        0.33       3.4     4.4  3.8 -0.7558E+01 -0.5602E+01  0.1692E+01E
 Epicentro: LOS SANTOS - SANTANDER                                             3
 ACTION:UP  11-06-22 15:27 OP:REBC STATUS:               ID:20110401024230 L   I
 2011-04-01-0240-00M.COL___139                                                 6
 STAT SP IPHASW D HRMM SECON CODA AMPLIT PERI AZIMU VELO SNR AR TRES W  DIS CAZ7
 BTL  SZ EP        242 49.70                             171     0.010   21 310 
 BTL  SZ ES   1    243  4.37                             171    -0.1 7   21 310 
 BAR2 SZ EP        242 49.66                             170    -0.110   23 197 
 BAR2 SZ ES   3    243  4.60                             170     0.1 2   23 197 
 BAR2 SZ I         243  6.73         6.8 0.25                            23 197 
 BRR  HZ EP        242 51.48                             151     0.010   74 298 
 BRR  HN ES   2    243  7.72                             151     0.1 5   74 298 
 BRR  HZ I         243 11.87         8.1 0.21                            74 298 
 PAM  SZ EP        242 52.45                             150     0.110   76  38 
 PAM  SZ I         242 52.74         5.5 0.22                            76  38 
 GRA  SZ EP        242 55.36                             136    -0.110  126  16 
 GRA  SZ ES   1    243 14.81                             136     0.0 7  126  16 
 GRA  SZ I         243 16.07         4.0 0.15                           126  16 
                                                                                
