 2017  8 1 0719 21.0 L   6.697 -73.173154.3  RSN  4 0.2 0.8LRSN                1
 GAP=226        0.55       4.4     4.2  4.4  0.8945E+01  0.1763E+01  0.2930E+00E
 Epicentro: VILLANUEVA - SANTANDER                                             3
 ACTION:UPD 17-09-04 20:15 OP:rebc STATUS:               ID:20170801071921 L   I
 OLDACT:UP  17-08-01 20:06 OP:nlst STATUS:               ID:20170801071921 L   3
 OLDACT:REG 17-08-01 14:27 OP:osc  STATUS:               ID:20170801071736     3
 2017-08-01-0718-00M.COL___392                                                 6
 STAT SP IPHASW D HRMM SECON CODA AMPLIT PERI AZIMU VELO AIN AR TRES W  DIS CAZ7
 BAR2 EZ EP        719 41.53                             175    0.0210 11.7 185 
 BAR2 EZ ES        719 57.53                             175    0.0410 11.7 185 
 BAR2 EZ I         719 58.01         1.6 0.17            173           11.7 185 
 BRR  HZ EP        719 43.43                             153    0.1310 74.9 307 
 BRR  HN ES        720  0.57                             153   -0.1110 74.9 307 
 RUS  HZ EP        719 45.11                             149    0.2210 89.5 174 
 RUS  HN ES        720  3.35                             149   -0.1510 89.5 174 
 PTB  HZ EP        719 47.90                             135   -0.39 9  143 263 
 PTB  HN ES        720  9.78                             135    0.23 9  143 263 
 PTB  HZ I         720 12.66         0.5 0.16            133            143 263 
                                                                                
