 2014  7 1 0341 14.3 L   6.805 -73.119141.8  RSN  6 0.4 1.3LRSN                1
 GAP=186        1.11       4.5     7.6  9.3 -0.1542E+01  0.1138E+02  0.1185E+00E
 Epicentro: LOS SANTOS - SANTANDER                                             3
 ACTION:UPD 15-03-16 20:40 OP:nd   STATUS:               ID:20140701034114 L   I
 OLDACT:REG 14-07-01 12:48 OP:spq  STATUS:               ID:20140701033816     3
 2014-07-01-0338-16M.COL___247                                                 6
 STAT SP IPHASW D HRMM SECON CODA AMPLIT PERI AZIMU VELO AIN AR TRES W  DIS CAZ7
 BAR2 SZ EP        341 33.80                             170    0.2910 24.5 197 
 BAR2 SZ ES   1    341 48.20                             170   -0.28 7 24.5 197 
 BAR2 SZ I         341 51.40         3.9 0.37            170           24.5 197 
 BRR  HZ EP        341 35.99                             151    0.7910 73.6 297 
 BRR  HN ES        341 51.98                             151    0.5110 73.6 297 
 BRR  HZ I         341 55.72         3.5 0.34            151           73.6 297 
 RUS  HN ES        341 55.70                             143   -0.2710  101 178 
 RUS  HZ I         341 58.37         1.6 0.20            147            101 178 
 PTB  HZ EP        341 40.85                             130   -0.41 9  151 259 
 PTB  HN ES        342  1.85                             130   -0.42 9  151 259 
 PTB  HZ I         342  8.15         3.7 0.39            133            151 259 
 OCA  HN ES        342  3.56                             129   -0.60 9  160 352 
 OCA  HZ I         342  8.13         3.5 0.18            132            160 352 
 SPBC HZ EP        341 42.61                             128   -0.14 9  165 220 
 SPBC HN ES        342  5.13                             128    0.21 9  165 220 
 SPBC HZ I         342  6.83         4.0 0.18            131            165 220 
                                                                                
