 2016 11 1 0749 21.8 L   6.788 -73.139147.7  RSN  4 0.3 1.0LRSN                1
 GAP=138        0.57       3.4     3.4  6.5 -0.3057E+01  0.1569E+01  0.2084E+01E
 Epicentro: LOS SANTOS - SANTANDER                                             3
 ACTION:UPD 17-10-26 21:03 OP:lp   STATUS:               ID:20161101074921 L   I
 OLDACT:REG 16-11-01 12:37 OP:dani STATUS:               ID:20161101074744     3
 2016-11-01-0748-00M.COL___316                                                 6
 STAT SP IPHASW D HRMM SECON CODA AMPLIT PERI AZIMU VELO AIN AR TRES W  DIS CAZ7
 BRR  HN ES   2    750  0.60                             152    0.68 5 72.5 299 
 BRR  HZ I         750  6.90         4.3 0.42            153           72.5 299 
 PAM  EZ EP        749 44.39                             151    0.1610 78.0  39 
 PAM  EN ES        750  1.54                             151   -0.2110 78.0  39 
 PAM  EZ I         750  3.69         1.4 0.48            154           78.0  39 
 RUS  HZ EP        749 45.80                             144    0.1810 99.2 176 
 RUS  HN ES        750  4.14                             144   -0.0810 99.2 176 
 RUS  HZ I         750  6.13         0.6 0.22            151           99.2 176 
 PTB  HZ EP   2    749 48.56                             132   -0.38 5  148 259 
 PTB  HN ES        750  9.98                             132   -0.15 9  148 259 
 PTB  HZ I         750 11.29         1.3 0.32            136            148 259 
                                                                                
