 2011  3 1 0638 46.2 L   6.730 -73.041145.1  RSN  7 0.4 2.1LRSN                1
 GAP=171        0.82       5.6    18.0 13.6 -0.6844E+02  0.1748E+03 -0.3150E+02E
 Epicentro: ARATOCA - SANTANDER                                                3
 ACTION:UP  11-06-16 14:31 OP:jfem STATUS:               ID:20110301063847 L   I
 2011-03-01-0636-05S.COL___135                                                 6
 STAT SP IPHASW D HRMM SECON CODA AMPLIT PERI AZIMU VELO SNR AR TRES W  DIS CAZ7
 BAR2 SZ EP   1    639  5.37                             171    -0.313   22 226 
 BAR2 SZ I         639 22.76        36.3 0.29                            22 226 
 RUS  HZ EP   1    639  9.33                             146     0.013   93 183 
 RUS  HE ES   1    639 27.26                             146    -0.113   93 183 
 RUS  HZ I         639 28.84        15.8 0.29                            93 183 
 GRA  SZ EP   1    639 12.27                             136     0.512  130  12 
 GRA  SZ ES   1    639 31.45                             136    -0.212  130  12 
 GRA  SZ I         639 32.85        12.5 0.28                           130  12 
 CHI  HE ES   1    639 53.04                             117     0.610  245 198 
 HEL  HZ EP   1    639 27.68                             114     0.310  282 258 
 HEL  HZ I         640  3.86         7.0 0.40                           282 258 
 RREF HZ EP   3    639 32.77                             110     0.0 3  326 232 
 RREF HZ I         640 17.70         4.9 0.31                           326 232 
 PRA  HZ EP        639 38.80                             106    -0.810  391 212 
 PRA  HE ES   2    640 21.00                             106    -0.2 5  391 212 
                                                                                
