 2012  3 1 0540  3.8 L   6.803 -73.134144.0  RSN 10 0.3 2.3LRSN                1
 GAP=138        0.88       3.1     4.6  5.3 -0.7385E+00  0.6416E+01  0.2283E+01E
 ACTION:UP  12-03-31 23:16 OP:EP   STATUS:               ID:20120301054003 L   I
 2012-03-01-0540-00M.COL___191                                                 6
 STAT SP IPHASW D HRMM SECON CODA AMPLIT PERI AZIMU VELO SNR AR TRES W  DIS CAZ7
 BAR2 SZ EP        540 23.33                             170     0.110   24 193 
 BAR2 SZ ES        540 37.97                             170    -0.410   24 193 
 BAR2 SZ I         540 39.47        36.2 0.21                            24 193 
 BRR  HZ IP     D  540 25.11                             152     0.310   72 298 
 BRR  HZ I         540 25.28        82.8 0.17                            72 298 
 BRR  HE ES        540 41.75                             152     0.610   72 298 
 PAM  SZ EP        540 26.07                             151     0.310   76  39 
 PAM  SE ES   1    540 42.79                             151    -0.1 7   76  39 
 RUS  HZ EP        540 27.29                             143    -0.110  101 177 
 RUS  HE ES   1    540 45.52                             143    -0.2 7  101 177 
 RUS  HZ I         540 47.19        16.6 0.20                           101 177 
 PTB  HZ EP        540 30.09                             131    -0.6 9  149 259 
 OCA  SZ EP        540 31.68                             129    -0.2 9  160 353 
 OCA  SZ ES   1    540 53.48                             129    -0.4 7  160 353 
 ZAR  HZ EP   1    540 36.27                             122     0.1 6  205 292 
 ZAR  HE ES   1    541  1.10                             122    -0.4 6  205 292 
 ZAR  HZ I         541  7.29        21.7 0.26                           205 292 
 NOR  SZ EP        540 39.46                             118    -0.1 8  236 235 
 NOR  SE ES   1    541  7.63                             118     0.2 6  236 235 
 CHI  HZ EP        540 41.66                             117     0.2 8  249 195 
 CHI  HZ I         540 43.30         7.6 0.22                           249 195 
 CHI  HN ES        541 10.89                             117     0.1 8  249 195 
 HEL  HZ EP   1    540 44.32                             114     0.3 6  273 256 
 HEL  HZ I         541 22.62        14.2 0.55                           273 256 
                                                                                
