 2017  3 1 0335 29.9 L   6.750 -73.167150.0  RSN  5 0.3 1.4LRSN                1
 GAP=136        0.62       4.7     3.8  5.5  0.1510E+01  0.2037E+00 -0.7740E+01E
 Epicentro: LOS SANTOS - SANTANDER                                             3
 ACTION:UPD 17-05-25 18:34 OP:jn   STATUS:               ID:20170301033529 L   I
 OLDACT:UP  17-03-01 14:21 OP:and  STATUS:               ID:20170301032748     3
 OLDACT:REG 17-03-01 12:44 OP:and  STATUS:               ID:20170301032748     3
 2017-03-01-0328-00M.COL___390                                                 6
 STAT SP IPHASW D HRMM SECON CODA AMPLIT PERI AZIMU VELO AIN AR TRES W  DIS CAZ7
 BAR2 EZ EP        335 49.93                             172   -0.0610 17.5 185 
 BAR2 EZ ES        336  5.24                             172   -0.3810 17.5 185 
 BAR2 EZ I         336  6.57         8.7 0.19            171           17.5 185 
 BRR  HZ EP   2    335 51.77                             153    0.17 5 72.0 303 
 BRR  HN ES   2    336  9.26                             153    0.77 5 72.0 303 
 PAM  EZ EP        335 52.89                             150   -0.0810 83.2  38 
 RUS  HZ EP     D  335 53.97                             145    0.2210 95.2 174 
 RUS  HN ES        336 12.50                             145    0.1910 95.2 174 
 RUS  HZ I         336 13.88         3.9 0.24            146           95.2 174 
 PTB  HZ EP        335 57.03                             133    0.06 9  144 261 
 PTB  HN ES        336 17.84                             133   -0.20 9  144 261 
 PTB  HZ I         336 21.00         1.6 0.27            133            144 261 
                                                                                
