 2015  2 1 0914  1.7 L   6.816 -73.063143.2  RSN  7 0.3 1.5LRSN                1
 GAP=191        0.64       2.5     4.6  6.0  0.1788E+01  0.1316E+01 -0.3370E+01E
 Epicentro: LOS SANTOS - SANTANDER                                             3
 ACTION:UPD 15-04-30 21:20 OP:nd   STATUS:               ID:20150201091401 L   I
 OLDACT:REG 15-02-01 12:27 OP:spq  STATUS:               ID:20150201090749     3
 2015-02-01-0907-49M.COL___255                                                 6
 STAT SP IPHASW D HRMM SECON CODA AMPLIT PERI AZIMU VELO AIN AR TRES W  DIS CAZ7
 BAR2 EZ EP   1    914 21.55                             168    0.38 7 28.0 208 
 BAR2 EZ ES   1    914 36.14                             168   -0.18 7 28.0 208 
 BAR2 EZ I         914 37.15         7.8 0.26            170           28.0 208 
 BRR  HZ EP        914 23.19                             150    0.1410 78.6 294 
 BRR  HN ES        914 39.95                             150    0.2810 78.6 294 
 BRR  HZ I         914 40.95         4.7 0.27            150           78.6 294 
 RUS  HZ EP   1    914 25.65                             143    0.30 7  102 181 
 RUS  HN ES   1    914 43.57                             143   -0.20 7  102 181 
 RUS  HZ I         914 44.51         2.6 0.24            145            102 181 
 OCA  HN ES        914 51.36                             129   -0.35 9  160 350 
 OCA  HZ I         914 55.26         7.9 0.86            129            160 350 
 SPBC HN ES        914 53.09                             127   -0.26 9  170 221 
 SPBC HZ I         914 54.19         3.9 0.20            128            170 221 
 ZAR  HN ES        915  0.60                             121   -0.05 8  212 291 
 ZAR  HZ I         915  2.09         2.9 0.38            121            212 291 
 SML  HZ EP   1    914 37.96                             117   -0.52 6  246 333 
 SML  HE ES   1    915  7.51                             117    0.37 6  246 333 
 SML  HZ I         915  9.48         3.5 0.13            117            246 333 
                                                                                
