 2012  1 1 0911  4.1 L   6.768 -73.149141.1  RSN  8 0.3 1.7LRSN                1
 GAP=138        0.82       3.9     4.7  6.4  0.4847E+00  0.5909E+01 -0.2955E+00E
 Epicentro: LOS SANTOS - SANTANDER                                             3
 ACTION:UP  12-02-03 08:12 OP:REBC STATUS:               ID:20120101091104 L   I
 2012-01-01-0910-00M.COL___186                                                 6
 STAT SP IPHASW D HRMM SECON CODA AMPLIT PERI AZIMU VELO SNR AR TRES W  DIS CAZ7
 BAR2 SZ EP   1    911 23.33                             172     0.3 7   20 191 
 BAR2 SZ ES   1    911 37.68                             172    -0.2 7   20 191 
 BAR2 SZ I         911 39.50        14.0 0.16                            20 191 
 BRR  HZ EP   1    911 25.06                             151     0.3 7   73 301 
 BRR  HE ES   1    911 41.76                             151     0.8 7   73 301 
 BRR  HZ I         911 46.98        15.0 0.15                            73 301 
 PAM  SZ EP   1    911 26.22                             149     0.2 7   80  38 
 PAM  SZ I         911 26.44        15.3 0.15                            80  38 
 PAM  SE ES   1    911 42.75                             149    -0.3 7   80  38 
 RUS  HZ EP   1    911 27.35                             144     0.2 7   97 176 
 RUS  HN ES   1    911 44.90                             144    -0.2 7   97 176 
 RUS  HZ I         911 47.62         3.9 0.26                            97 176 
 PTB  HZ EP   1    911 30.13                             131    -0.4 7  147 260 
 PTB  HN ES   1    911 50.72                             131    -0.5 7  147 260 
 PTB  HZ I         911 56.37         0.0 0.17                           147 260 
 OCA  SZ EP   1    911 32.21                             128    -0.1 7  164 353 
 OCA  SZ ES   1    911 54.01                             128    -0.4 7  164 353 
 ZAR  HZ EP   1    911 36.36                             121     0.0 6  205 293 
 ZAR  HN ES   1    912  1.59                             121     0.1 6  205 293 
 ZAR  HZ I         912  7.97         5.5 0.16                           205 293 
 CHI  HZ EP   1    911 41.13                             116     0.0 6  245 195 
 CHI  HZ I         912 15.46         4.1 0.68                           245 195 
                                                                                
