 2012 10 1 0358 40.2 L   6.742 -73.084143.1  RSN  4 0.2 1.5LRSN                1
 GAP=198        0.48       8.4     9.1  5.1  0.4086E+02 -0.3779E+01  0.1743E+01E
 Epicentro: JORDAN - SANTANDER                                                 3
 ACTION:UPD 12-11-22 17:01 OP:ep   STATUS:               ID:20121001035840 L   I
 2012-10-01-0349-37M.COL___199                                                 6
 STAT SP IPHASW D HRMM SECON CODA AMPLIT PERI AZIMU VELO AIN AR TRES W  DIS CAZ7
 BAR2 SZ EP        358 59.63                             172    0.2310 19.7 213 
 BAR2 SZ ES   1    359 14.16                             172   -0.24 7 19.7 213 
 BAR2 SZ I         359 15.96         9.4 0.38                          19.7 213 
 GIR2 SZ EP        358 59.74                             164   -0.0110 39.2 342 
 GIR2 SZ ES   1    359 15.08                             164    0.04 7 39.2 342 
 BRR  HZ EP        359  1.32                             149   -0.2410 80.3 300 
 BRR  HZ I         359  1.70         4.5 0.48                          80.3 300 
 BRR  HN ES   1    359 18.46                             149    0.20 7 80.3 300 
 RUS  HZ EP   3    359  3.41                             145    0.24 2 93.9 180 
                                                                                
