 2010 12 1 0837  5.9 L   6.801 -73.068144.1  RSN 11 0.4 2.2LRSN                1
 GAP=167        0.73       2.6     5.3  5.0 -0.4445E+01  0.2082E+01  0.1372E+01E
 Epicentro: LOS SANTOS - SANTANDER                                             3
 ACTION:UP  11-01-14 15:22 OP:pat  STATUS:               ID:20101201083705 L   I
 2010-12-01-0833-05S.COL___132                                                 6
 STAT SP IPHASW D HRMM SECON CODA AMPLIT PERI AZIMU VELO SNR AR TRES W  DIS CAZ7
 BAR2 SZ IP        837 25.42                             169     0.010   26 209 
 BAR2 SZ ES   1    837 40.54                             169    -0.1 7   26 209 
 BAR2 SZ I         837 42.14        30.1 0.22                            26 209 
 BRR  HZ IP     C  837 27.33                             150     0.010   79 296 
 BRR  HZ I         837 27.69        68.1 0.10                            79 296 
 BRR  HN ES   1    837 44.24                             150     0.2 7   79 296 
 RUS  HZ EP        837 29.63                             143     0.110  100 181 
 RUS  HE ES   1    837 47.95                             143     0.1 7  100 181 
 RUS  HZ I         837 48.92        11.1 0.25                           100 181 
 GUE  SZ EP        837 30.47                             139     0.110  115   8 
 GRA  SZ EP        837 31.17                             137     0.310  123  14 
 GRA  SZ ES   1    837 50.21                             137     0.0 7  123  14 
 GRA  SZ I         837 53.73        34.2 0.31                           123  14 
 OCA  SZ EP        837 33.89                             129    -0.3 9  161 350 
 OCA  SZ ES   1    837 55.78                             129    -0.5 7  161 350 
 OCA  SZ I         838  1.62        33.5 0.41                           161 350 
 NOR  SZ EP   2    837 41.51                             117    -0.8 4  242 236 
 NOR  SN ES   2    838 10.11                             117    -0.6 4  242 236 
 CHI  HZ EP        837 43.84                             116     0.0 8  251 197 
 CHI  HZ I         837 46.37         6.4 0.30                           251 197 
 CHI  HN ES   1    838 13.04                             116    -0.3 6  251 197 
 ROSC BZ EP   2    837 45.59                             116     1.1 4  257 213 
 HEL  HZ EP   1    837 47.34                             114     0.4 6  280 256 
 HEL  HN ES   2    838 20.02                             114     1.0 4  280 256 
 HEL  HZ I         838 24.73        10.7 0.40                           280 256 
 PRA  HZ EP        837 59.57                             106    -0.3 6  396 211 
 PRA  HN ES   2    838 41.52                             106    -0.5 3  396 211 
                                                                                
