 2015  1 1 0941 26.0 L   6.700 -73.205139.5  RSN  5 0.4 1.2LRSN                1
 GAP=220        1.06       7.6     7.2  7.7  0.3359E+02  0.1083E+02 -0.2171E+01E
 Epicentro: VILLANUEVA - SANTANDER                                             3
 ACTION:UPD 15-03-02 15:35 OP:nd   STATUS:               ID:20150101094126 L   I
 OLDACT:DUP 15-01-01 19:34 OP:stll STATUS:               ID:20150101093747d    3
 OLDACT:REG 15-01-01 15:28 OP:stll STATUS:               ID:20150101093746     3
 2015-01-01-0937-46M.COL___277                                                 6
 STAT SP IPHASW D HRMM SECON CODA AMPLIT PERI AZIMU VELO AIN AR TRES W  DIS CAZ7
 BAR2 EZ EP        941 44.33                             175   -0.3610 12.2 168 
 BAR2 EZ I         941 44.34         4.8 0.22            171           12.2 168 
 BAR2 EZ ES        941 59.16                             175   -0.1110 12.2 168 
 BRR  HZ EP        941 46.09                             151   -0.4210 71.9 309 
 BRR  HZ I         941 46.35         5.1 0.22            149           71.9 309 
 BRR  HN ES        942  2.67                             151    0.1710 71.9 309 
 RUS  HZ EP        941 48.92                             145    0.5310 90.3 171 
 RUS  HN ES        942  6.09                             145    0.2210 90.3 171 
 RUS  HZ I         942  7.65         1.6 0.30            144           90.3 171 
 PTB  HZ EP        941 51.03                             132   -0.67 9  140 263 
 PTB  HN ES        942 11.51                             132   -0.25 9  140 263 
 PTB  HZ I         942 15.01         1.5 0.12            130            140 263 
 ZAR  HZ EP        941 58.46                             121    0.58 9  203 296 
 ZAR  HN ES        942 23.25                             121    0.50 9  203 296 
 ZAR  HZ I         942 28.23         2.4 0.46            120            203 296 
                                                                                
