 2013  4 1 0625 59.2 L   6.737 -73.163142.0  RSN  8 0.4 1.4LRSN                1
 GAP=137        0.83       4.1     5.2  6.8 -0.1447E+01  0.3706E+01 -0.7256E+00E
 Epicentro: VILLANUEVA - SANTANDER                                             3
 ACTION:UPD 13-05-22 14:35 OP:EP   STATUS:               ID:20130401062559 L   I
 2013-04-01-0620-00M.COL___245                                                 6
 STAT SP IPHASW D HRMM SECON CODA AMPLIT PERI AZIMU VELO AIN AR TRES W  DIS CAZ7
 BAR2 SZ EP        626 18.42                             173    0.1310 16.2 188 
 BAR2 SZ ES   1    626 33.23                             173    0.08 7 16.2 188 
 BAR2 SZ I         626 35.27        12.5 0.28            175           16.2 188 
 GIR2 SZ EP   1    626 18.69                             164    0.03 7 37.9 355 
 GIR2 SZ ES   1    626 33.42                             164   -0.40 7 37.9 355 
 BRR  HZ EP        626 20.46                             151    0.3610 73.2 304 
 BRR  HN ES   1    626 37.21                             151    0.84 7 73.2 304 
 BRR  HZ I         626 40.54         5.5 0.14            151           73.2 304 
 PAM  SZ EP        626 21.61                             148    0.1410 84.0  37 
 PAM  SN ES   1    626 38.46                             148   -0.35 7 84.0  37 
 PAM  SZ I         626 42.40         2.6 0.60            151           84.0  37 
 RUS  HZ EP   1    626 22.19                             145    0.06 7 93.8 175 
 RUS  HN ES   1    626 39.95                             145   -0.04 7 93.8 175 
 RUS  HZ I         626 41.73         5.1 0.30            150           93.8 175 
 PTB  HZ EP   1    626 24.98                             132   -0.64 7  145 261 
 PTB  HN ES   1    626 45.68                             132   -0.52 7  145 261 
 PTB  HZ I         626 50.23         3.0 0.12            134            145 261 
 OCA  HN ES   1    626 49.67                             127   -0.59 7  167 354 
 OCA  HZ I         626 53.62         3.4 0.22            130            167 354 
 SML  HN ES   2    627  5.68                             116    0.53 4  249 336 
                                                                                
