 2013  7 1 0717 53.8 L   6.814 -73.162146.5  RSN  6 0.4 1.8LRSN                1
 GAP=181        1.01       4.6     6.5  8.0  0.4968E+01  0.7933E+00 -0.2229E+01E
 Epicentro: LOS SANTOS - SANTANDER                                             3
 ACTION:UPD 13-08-12 10:34 OP:ep   STATUS:               ID:20130701071753 L   I
 OLDACT:REG 13-07-01 09:08 OP:stll STATUS:               ID:20130701070842     3
 2013-07-01-0708-42M.COL___230                                                 6
 STAT SP IPHASW D HRMM SECON CODA AMPLIT PERI AZIMU VELO AIN AR TRES W  DIS CAZ7
 BAR2 SZ EP        718 13.71                             170    0.1310 24.6 185 
 BAR2 SZ I         718 13.96         7.5 0.32            169           24.6 185 
 BAR2 SZ ES        718 28.91                             170   -0.0710 24.6 185 
 GIR2 SZ EP        718 13.70                             168    0.1510 29.5 353 
 BRR  HZ EP        718 15.47                             153    0.5410 68.9 298 
 BRR  HN ES        718 32.01                             153    0.6210 68.9 298 
 BRR  HN I         718 32.96        22.6 0.20            152           68.9 298 
 RUS  HZ EP        718 17.84                             143    0.0610  102 175 
 RUS  HN ES        718 36.11                             143   -0.3410  102 175 
 RUS  HN I         718 39.41         3.4 0.18            145            102 175 
 PTB  HZ EP        718 20.56                             132   -0.17 9  146 258 
 PTB  HN ES        718 41.29                             132   -0.41 9  146 258 
 PTB  HN I         718 46.88         9.3 0.24            132            146 258 
 OCA  HN ES        718 43.35                             130   -0.69 9  159 354 
 OCA  HN I         718 46.77        13.8 0.30            131            159 354 
                                                                                
