 2010  6 1 0640 57.2 L   6.802 -73.105150.7  RSN 12 0.6 2.9LRSN                1
 GAP=151        1.33       7.3    12.3  9.7 -0.6040E+02  0.2050E+02  0.3641E+01E
 Epicentro: LOS SANTOS - SANTANDER                                             3
 ACTION:UP  10-08-24 10:07 OP:vdl  STATUS:               ID:20100601064057 L   I
 2010-06-01-0638-13S.COL___109                                                 6
 STAT SP IPHASW D HRMM SECON CODA AMPLIT PERI AZIMU VELO SNR AR TRES W  DIS CAZ7
 BAR2 SZ IP        641 16.80                             170    -0.710   25 200 
 BAR2 SZ ES   1    641 32.42                             170    -0.9 7   25 200 
 GIR2 SZ IP        641 17.90                             168     0.410   32 342 
 GIR2 SZ ES   2    641 33.59                             168     0.3 5   32 342 
 GUE  SZ EP   1    641 22.58                             141     0.3 7  115  10 
 GRA  SZ IP        641 23.59                             139     0.810  124  16 
 GRA  SZ ES   1    641 43.54                             139     0.8 7  124  16 
 OCA  SZ IP        641 25.21                             131    -0.7 9  161 352 
 OCA  SZ ES   1    641 48.26                             131    -0.1 7  161 352 
 OCA  SZ I         641 53.52       107.1 0.35                           161 352 
 ROSC BZ IP     C  641 36.43                             118     0.5 8  255 212 
 ROSC BN ES   1    642  6.61                             118     0.6 6  255 212 
 ROSC BZ I         642 14.82        50.2 0.37                           255 212 
 CVER SZ EP   2    641 38.91                             116     0.9 4  274 203 
 HEL  HZ EP   1    641 37.58                             116    -0.6 6  276 256 
 HEL  HZ I         642 15.32        28.0 0.32                           276 256 
 RREF BZ EP   1    641 43.70                             112    -0.3 5  325 230 
 RREF BE ES   1    642 20.67                             112     0.2 5  325 230 
 RREF BZ I         642 25.43        47.6 0.29                           325 230 
 DBB  SZ EP   1    641 44.96                             110    -0.4 5  344 274 
 TOL  SZ EP   1    641 46.10                             110     0.0 5  347 225 
 SDV  BZ IP        641 46.19                             110    -0.8 6  357  50 
 SDV  BZ I         641 47.12        16.6 0.31                           357  50 
                                                                                
