 2014  5 1 0034 46.7 L   6.530 -73.570100.0  RSN  5 0.4 1.6LRSN                1
 GAP=196        1.02       6.5     5.5 11.0  0.1986E+02 -0.6080E+01 -0.3052E+02E
 Epicentro: EL CARMEN DE CHUCURI - SANTANDER                                   3
 ACTION:UPD 15-03-16 16:54 OP:nd   STATUS:               ID:20140501003446 L   I
 OLDACT:UP  14-05-01 14:16 OP:mh   STATUS:               ID:20140501003001d    3
 OLDACT:DUP 14-05-01 14:14 OP:mh   STATUS:               ID:20140501003001d    3
 2014-05-01-0030-00M.COL___273                                                 6
 STAT SP IPHASW D HRMM SECON CODA AMPLIT PERI AZIMU VELO AIN AR TRES W  DIS CAZ7
 RUS  HZ EP        035  4.98                             136   -0.2410 88.7 143 
 RUS  HN ES        035 20.01                             136    0.3210 88.7 143 
 RUS  HZ I         035 22.28         5.1 0.29            144           88.7 143 
 PTB  HZ EP        035  4.66                             132   -0.7410 98.1 271 
 PTB  HN ES        035 19.92                             132   -0.0910 98.1 271 
 PTB  HZ I         035 23.18        11.0 0.13            136           98.1 271 
 SPBC HZ EP        035  6.64                             128   -0.1710  112 210 
 SPBC HN ES        035 22.64                             128    0.1310  112 210 
 SPBC HZ I         035 28.69        10.5 0.23            133            112 210 
 ZAR  HZ EP        035 13.83                             114    0.19 9  178 307 
 ZAR  HN ES   1    035 35.42                             114    0.75 7  178 307 
 ZAR  HZ I         035 40.25                             119            178 307 
 GUY2CHZ EP   1    035 22.93                             106    0.89 6  246 234 
 GUY2CHN ES   4    035 52.51                             106    2.88 0  246 234 
 GUY2CHZ I         035 59.76         3.0 0.27                           246 234 
                                                                                
