 2015  6 1 0741 41.7 L   6.712 -73.103154.5  RSN  4 0.4 1.1LRSN                1
 GAP=187        1.05       6.2    16.4 10.0  0.6033E+02 -0.4552E+02 -0.1568E+02E
 Epicentro: JORDAN - SANTANDER                                                 3
 ACTION:UPD 15-09-10 22:08 OP:cam  STATUS:               ID:20150601074141 L   I
 OLDACT:UP  15-06-01 19:54 OP:drio STATUS:               ID:20150601073736     3
 OLDACT:REG 15-06-01 13:29 OP:ak   STATUS:               ID:20150601073736     3
 2015-06-01-0737-36M.COL___300                                                 6
 STAT SP IPHASW D HRMM SECON CODA AMPLIT PERI AZIMU VELO AIN AR TRES W  DIS CAZ7
 BAR2 EZ EP        742  2.35                             174    0.1010 15.9 213 
 BAR2 EZ ES        742 17.67                             174   -0.6310 15.9 213 
 BRR  HZ EP        742  4.27                             151   -0.0310 80.2 303 
 BRR  HN ES        742 21.99                             151    0.0510 80.2 303 
 BRR  HZ I         742 27.20         3.0 0.46            148           80.2 303 
 RUS  HZ EP        742  5.24                             148   -0.4110 90.7 179 
 RUS  HE ES        742 25.03                             148    0.6910 90.7 179 
 RUS  HZ I         742 30.19         1.5 0.38            147           90.7 179 
 OCA  HE ES        742 35.29                             130    0.29 9  170 352 
 ZAR  HZ EP   4    742 11.28                             123   -4.27 0  212 294 
 ZAR  HE ES   4    742 36.24                             123   -5.72 0  212 294 
                                                                                
