 2011  7 1 0433 47.6 L   6.794 -73.041142.1  RSN  7 0.2 1.7LRSN                1
 GAP=170        0.56       2.3     5.7  5.6 -0.2555E+00 -0.6892E-01 -0.1215E+01E
 Epicentro: LOS SANTOS - SANTANDER                                             3
 ACTION:UPD 12-07-25 13:57 OP:epov STATUS:               ID:20110701043347 L   I
 2011-07-01-0420-00M.COL___124                                                 6
 STAT SP IPHASW D HRMM SECON CODA AMPLIT PERI AZIMU VELO AIN AR TRES W  DIS CAZ7
 BTL  SZ EP        434  7.25                             168    0.3710 28.6 299 
 GIR2 SZ EP   1    434  7.08                             165    0.15 7 35.7 332 
 BRR  HZ EP        434  8.76                             148   -0.2110 81.9 295 
 BRR  HZ I         434 22.23        37.8 0.50                          81.9 295 
 BRR  HN ES   1    434 25.81                             148    0.15 7 81.9 295 
 RUS  HZ EP        434 10.84                             143   -0.0610 99.8 183 
 RUS  HE ES        434 29.04                             143   -0.0510 99.8 183 
 RUS  HZ I         434 30.81         6.1 0.48                          99.8 183 
 GRA  SZ EP   1    434 12.47                             137    0.18 7  123  12 
 GRA  SZ ES   1    434 31.11                             137   -0.46 7  123  12 
 GRA  SZ I         434 34.96         3.4 0.37                           123  12 
 OCA  SZ EP   1    434 16.01                             128    0.18 7  163 349 
 OCA  SZ ES   1    434 37.81                             128   -0.06 7  163 349 
 OCA  SZ I         434 44.82         4.9 0.32                           163 349 
 NOR  SZ EP   1    434 23.70                             117   -0.38 6  244 236 
                                                                                
