 2010  1 1 0740 27.4 L   6.776 -73.032156.0  RSN  5 0.3 1.1LRSN                1
 GAP=194        0.52       5.3    45.2 15.2  0.1074E+03 -0.1239E+03 -0.3050E+02E
 Epicentro: LOS SANTOS - SANTANDER                                             3
 ACTION:UP  10-08-24 09:42 OP:vdl  STATUS:               ID:20100101074028 L   I
 2010-01-01-0737-26S.COL___096                                                 6
 STAT SP IPHASW D HRMM SECON CODA AMPLIT PERI AZIMU VELO SNR AR TRES W  DIS CAZ7
 BAR2 SZ EP        740 48.20                             170    -0.110   26 220 
 GIR2 SZ EP   3    740 48.25                             166    -0.2 2   38 332 
 RUS  BZ EP   2    740 52.55                             147     0.6 5   98 183 
 RUS  BN ES   3    741 10.58                             147    -0.5 2   98 183 
 RUS  BZ I         741 11.98         2.1 0.33                            98 183 
 OCA  SZ EP        740 56.75                             131    -0.2 9  165 349 
 OCA  SZ ES   2    741 20.44                             131     0.5 5  165 349 
 CHI  HE ES   3    741 35.68                             120     0.0 2  250 198 
                                                                                
