 2015 12 1 0403 36.3 L   6.770 -73.164144.4  RSN 10 0.5 1.8LRSN                1
 GAP=181        1.06       3.3     5.2  6.8 -0.2350E+01  0.3518E+01 -0.2252E+01E
 Epicentro: LOS SANTOS - SANTANDER                                             3
 ACTION:UPD 16-02-04 15:01 OP:cam  STATUS:               ID:20151201040336 L   I
 OLDACT:REG 15-12-01 12:10 OP:mh   STATUS:               ID:20151201035746     3
 2015-12-01-0357-46M.COL___307                                                 6
 STAT SP IPHASW D HRMM SECON CODA AMPLIT PERI AZIMU VELO AIN AR TRES W  DIS CAZ7
 BAR2 EZ EP        4 3 55.73                             172    0.0810 19.7 186 
 BAR2 EZ ES   1    4 4 10.50                             172   -0.28 7 19.7 186 
 BAR2 EZ I         4 4 11.65        15.3 0.16            170           19.7 186 
 BRR  HZ EP   1    4 3 57.76                             152    0.51 7 71.1 302 
 BRR  HN ES        4 4 14.44                             152    0.8210 71.1 302 
 BRR  HZ I         4 4 18.94        10.0 0.14            148           71.1 302 
 RUS  HZ EP        4 3 59.63                             144   -0.0210 97.4 175 
 RUS  HN ES   1    4 4 17.78                             144   -0.10 7 97.4 175 
 RUS  HZ I         4 4 18.45         4.0 0.36            147           97.4 175 
 PTB  HZ EP        4 4  2.63                             132   -0.24 9  145 260 
 PTB  HN ES        4 4 22.98                             132   -0.65 9  145 260 
 PTB  HZ I         4 4 25.43         6.7 0.12            131            145 260 
 SPBC HZ EP        4 4  4.52                             130    0.24 9  159 219 
 SPBC HN ES   1    4 4 26.56                             130    0.42 7  159 219 
 SPBC HZ I         4 4 35.24         7.5 0.16            130            159 219 
 OCA  HZ EP        4 4  5.09                             129    0.33 9  163 354 
 OCA  HN ES        4 4 26.20                             129   -0.78 9  163 354 
 ZAR  HZ EP        4 4  9.13                             122    0.58 9  203 293 
 ZAR  HN ES   1    4 4 34.32                             122    0.58 6  203 293 
 ZAR  HZ I    1    4 4 40.20         8.4 0.32            122            203 293 
 NOR  HZ EP   1    4 4 11.38                             119   -0.14 6  231 235 
 NOR  HN ES        4 4 38.35                             119   -0.67 8  231 235 
 NOR  HZ I         4 4 46.00         4.7 0.20            119            231 235 
 SML  HZ EP        4 4 12.65                             117   -0.40 8  246 336 
 SML  HN ES        4 4 41.56                             117   -0.18 8  246 336 
 SML  HZ I         4 4 54.25         6.6 0.10            118            246 336 
 URE  HZ EP   4    4 4 24.08                             113    6.89 0  283 293 
 URE  HN ES   4    4 4 46.36                             113   -2.76 0  283 293 
 GUY2CHZ EP   4    4 4 21.06                             112    1.66 0  298 235 
 GUY2CHN ES   1    4 4 53.08                             112    0.04 5  298 235 
 GUY2CHZ I         4 5  0.91         2.3 0.26                           298 235 
                                                                                
