 2013  7 1 0535 39.1 L   6.751 -73.163145.6  RSN  7 0.4 1.6LRSN                1
 GAP=137        1.16       4.8     5.9  8.3 -0.2862E+01  0.5232E+01 -0.9683E+00E
 Epicentro: LOS SANTOS - SANTANDER                                             3
 ACTION:UPD 13-08-12 10:34 OP:ep   STATUS:               ID:20130701053539 L   I
 OLDACT:REG 13-07-01 09:02 OP:stll STATUS:               ID:20130701052840     3
 2013-07-01-0528-40M.COL___230                                                 6
 STAT SP IPHASW D HRMM SECON CODA AMPLIT PERI AZIMU VELO AIN AR TRES W  DIS CAZ7
 BAR2 SZ EP        535 58.66                             173    0.0410 17.7 187 
 BAR2 SZ ES        536 13.91                             173    0.0810 17.7 187 
 BAR2 SZ I         536 14.76         7.3 0.18            172           17.7 187 
 GIR2 SZ EP        535 58.96                             165    0.0510 36.4 355 
 BRR  HZ EP        536  0.90                             152    0.5910 72.4 303 
 BRR  HN ES        536 17.66                             152    0.8210 72.4 303 
 BRR  HN I         536 21.96        13.7 0.18            151           72.4 303 
 PAM  SZ EP        536  1.88                             149    0.2410 82.8  38 
 PAM  SN ES        536 18.56                             149   -0.6510 82.8  38 
 PAM  SN I         536 20.59         6.1 0.60            153           82.8  38 
 RUS  HZ EP     C  536  2.37                             145   -0.1010 95.3 175 
 RUS  HN ES        536 20.73                             145    0.0410 95.3 175 
 RUS  HN I         536 22.38         4.2 0.30            148           95.3 175 
 PTB  HZ EP        536  5.65                             132   -0.16 9  145 261 
 PTB  HN ES        536 25.80                             132   -0.83 9  145 261 
 PTB  HN I         536 31.69         6.0 0.14            133            145 261 
 OCA  HN ES        536 30.05                             129   -0.30 9  165 354 
                                                                                
