 2015  9 1 0415 27.6 L   6.807 -73.119149.0  RSN  6 0.4 1.6LRSN                1
 GAP=186        1.13       3.8     9.5  7.7  0.4928E+01 -0.5247E+00 -0.7079E+01E
 Epicentro: LOS SANTOS - SANTANDER                                             3
 ACTION:UPD 15-10-28 16:23 OP:cam  STATUS:               ID:20150901041527 L   I
 OLDACT:REG 15-09-01 13:49 OP:stll STATUS:               ID:20150901040742     3
 2015-09-01-0407-42M.COL___358                                                 6
 STAT SP IPHASW D HRMM SECON CODA AMPLIT PERI AZIMU VELO AIN AR TRES W  DIS CAZ7
 BAR2 EZ EP        415 48.20                             170    0.5010 24.8 196 
 BAR2 EZ I         415 48.47         7.7 0.10            169           24.8 196 
 BAR2 EZ ES        416  3.44                             170    0.1010 24.8 196 
 BRR  HZ EP        415 50.09                             152    0.8210 73.4 297 
 BRR  HZ I         415 50.30         5.2 0.26            149           73.4 297 
 BRR  HN ES        416  6.56                             152    0.4210 73.4 297 
 RUS  HZ EP        415 51.61                             144   -0.1610  101 178 
 RUS  HN ES        416 10.13                             144   -0.4510  101 178 
 RUS  HZ I         416 11.71         3.4 0.40            145            101 178 
 OCA  HZ EP        415 56.43                             130    0.26 9  160 352 
 OCA  HN ES        416 17.78                             130   -0.64 9  160 352 
 OCA  HZ I         416 20.26         7.5 0.38            130            160 352 
 SPBC HZ EP        415 56.46                             129   -0.17 9  166 220 
 SPBC HE ES        416 18.87                             129   -0.37 9  166 220 
 SPBC HZ I         416 22.47         5.2 0.12            128            166 220 
 SML  HZ EP        416  4.38                             118   -0.13 8  244 335 
 SML  HN ES        416 32.68                             118   -0.59 8  244 335 
 SML  HZ I         416 39.25         4.5 0.10            117            244 335 
                                                                                
