 2016  2 1 1457  4.8 L   6.798 -73.163142.6  RSN  8 0.3 1.9LRSN                1
 GAP=134        0.67       2.6     3.0  5.6 -0.6921E+00  0.5594E+01 -0.2896E+01E
 Epicentro: LOS SANTOS - SANTANDER                                             3
 ACTION:UPD 16-03-04 21:22 OP:rebc STATUS:               ID:20160201145704 L   I
 OLDACT:REG 16-02-01 22:05 OP:cara STATUS:               ID:20160201144759     3
 2016-02-01-1447-59S.COL___226                                                 6
 STAT SP IPHASW D HRMM SECON CODA AMPLIT PERI AZIMU VELO AIN AR TRES W  DIS CAZ7
 BAR2 EZ IP     C 1457 23.90                             170   -0.1610 22.8 185 
 BAR2 EZ ES       1457 38.97                             170   -0.0910 22.8 185 
 BAR2 EZ I        1457 40.42        18.6 0.14            173           22.8 185 
 PAM  EZ IP     D 1457 26.97                             150    0.1910 78.8  40 
 PAM  EN ES       1457 44.05                             150    0.1310 78.8  40 
 PAM  EZ I        1457 46.11        14.0 0.64            150           78.8  40 
 RUS  HZ EP       1457 28.47                             143    0.2210  100 175 
 RUS  HN ES       1457 46.40                             143   -0.1310  100 175 
 RUS  HZ I        1457 47.39         7.1 0.22            147            100 175 
 PTB  HZ EP       1457 31.04                             132   -0.31 9  146 259 
 PTB  HN ES       1457 51.88                             132   -0.17 9  146 259 
 PTB  HZ I        1457 54.01         9.9 0.44            131            146 259 
 SPBC HN ES       1457 55.03                             129    0.15 9  162 219 
 SPBC HZ I        1457 57.93         6.7 0.20            130            162 219 
 ZAR  HN ES       1458  2.46                             122    0.56 9  202 292 
 ZAR  HZ I        1458  8.22        14.5 0.80            121            202 292 
 SML  HE ES       1458  9.17                             117   -0.42 8  243 336 
 SML  HZ I        1458 17.10        12.5 0.10            117            243 336 
 GUY2CHN ES   4   1458 23.18                             112    1.34 0  299 235 
 GUY2CHZ I        1458 32.93         2.6 0.42                           299 235 
                                                                                
