 2017  5 1 1634 32.7 L   5.957 -73.714118.0  RSN 11 0.5 1.7LRSN                1
 GAP= 68        1.18       3.2     3.2  6.7 -0.4286E+00  0.2633E+01 -0.2815E+01E
 Epicentro: GUAVATA - SANTANDER                                                3
 ACTION:UPD 17-06-16 13:31 OP:jn   STATUS:               ID:20170501163432 L   I
 OLDACT:UP  17-05-02 00:12 OP:edw  STATUS:               ID:20170501161910     3
 OLDACT:REG 17-05-01 20:17 OP:edw  STATUS:               ID:20170501161910     3
 2017-05-01-1628-00M.COL___377                                                 6
 STAT SP IPHASW D HRMM SECON CODA AMPLIT PERI AZIMU VELO AIN AR TRES W  DIS CAZ7
 SPBC HZ EP       1634 48.75                             155   -1.1110 52.0 230 
 SPBC HN ES       1635  3.26                             155   -0.0210 52.0 230 
 SPBC HZ I        1635  4.93        14.9 0.10            154           52.0 230 
 RUS  HZ EP       1634 51.61                             148    0.1010 70.2  96 
 RUS  HN ES       1635  6.41                             148    0.1910 70.2  96 
 RUS  HZ I        1635  7.91         7.2 0.18            150           70.2  96 
 PTB  HZ EP   9   1634 52.29                             136   -1.16 0  104 308 
 PTB  HN ES       1635  8.67                             135    0.1510  104 308 
 PTB  HZ I        1635 10.15         8.6 0.36            135            104 308 
 BRR  HZ EP       1634 55.48                             129   -0.0110  127   0 
 BRR  HN ES       1635 13.42                             129    0.1210  127   0 
 BRR  HZ I        1635 17.09         9.1 0.18            130            127   0 
 NOR  HZ EP       1634 56.38                             128    0.06 9  135 251 
 NOR  HN ES       1635 15.46                             128    0.68 9  135 251 
 NOR  HZ I        1635 16.65        15.3 0.16            128            135 251 
 CHI  HZ EP       1634 57.76                             125   -0.18 9  147 181 
 CHI  HE ES       1635 17.11                             125   -0.55 9  147 181 
 CHI  HZ I        1635 21.13         3.2 0.22            126            147 181 
 YPLC HE ES       1635 19.73                             122    0.44 9  160 113 
 PAM  EZ EP       1635  3.03                             118    0.53 9  190  36 
 PAM  EN ES       1635 25.63                             118   -0.15 9  190  36 
 PAM  EZ I        1635 28.73         5.3 0.30            119            190  36 
 HEL  HZ EP       1635  4.45                             116    0.70 9  203 277 
 HEL  HE ES       1635 28.39                             116    0.38 9  203 277 
 HEL  HZ I        1635 33.18         4.8 0.18            116            203 277 
 ZAR  HZ EP       1635  3.66                             115   -0.64 8  212 323 
 ZAR  HN ES       1635 28.33                             115   -0.66 8  212 323 
 ZAR  HZ I        1635 34.44         8.8 0.30            115            212 323 
 ORTC HZ EP       1635 12.81                             108    0.34 7  283 217 
 ORTC HN ES   4   1635 45.29                             108    1.75 0  283 217 
 ORTC HZ I        1635 48.02         5.1 0.44            108            283 217 
                                                                                
