 2011  7 1 1102 30.1 L   6.791 -73.095142.2  RSN  8 0.3 1.8LRSN                1
 GAP=143        0.73       3.6     6.8  6.3 -0.3856E+01 -0.7193E+01 -0.5401E+01E
 Epicentro: LOS SANTOS - SANTANDER                                             3
 ACTION:UPD 12-07-25 13:57 OP:epov STATUS:               ID:20110701110230 L   I
 2011-07-01-1100-12S.COL___140                                                 6
 STAT SP IPHASW D HRMM SECON CODA AMPLIT PERI AZIMU VELO AIN AR TRES W  DIS CAZ7
 BTL  SZ EP       11 2 49.79                             170    0.4610 23.7 306 
 BAR2 SZ EP       11 2 49.24                             170   -0.0910 24.0 204 
 BAR2 SZ ES   1   11 3  3.56                             170   -0.76 7 24.0 204 
 BAR2 SZ I        11 3  5.34        14.7 0.27                          24.0 204 
 PAM  SZ EP       11 2 51.96                             151    0.1610 74.8  36 
 PAM  SN ES   2   11 3  8.99                             151    0.28 5 74.8  36 
 BRR  HZ EP       11 2 51.02                             150   -0.1810 76.6 297 
 BRR  HN ES   1   11 3  8.06                             150    0.41 7 76.6 297 
 BRR  HZ I        11 3  8.98        22.5 0.17                          76.6 297 
 RUS  HZ EP       11 2 53.35                             143   -0.0810 99.4 179 
 RUS  HN ES   1   11 3 11.86                             143    0.25 7 99.4 179 
 RUS  HZ I        11 3 13.24         5.0 0.31                          99.4 179 
 BRI  SZ EP       11 2 53.79                             141    0.1910  108  18 
 GRA  SZ EP       11 2 54.84                             136   -0.1610  125  15 
 GRA  SZ ES   1   11 3 14.30                             136   -0.10 7  125  15 
 GRA  SZ I        11 3 15.73         9.1 0.32                           125  15 
 OCA  SZ EP       11 2 58.00                             128   -0.32 9  162 351 
 OCA  SZ I        11 3 25.05        10.8 0.39                           162 351 
                                                                                
