 2017  8 1 1052 54.1 L   6.790 -73.096141.1  RSN  6 0.4 1.3LRSN                1
 GAP=168        1.11       8.6     6.1  7.8 -0.1711E+01  0.1816E+02  0.1166E+02E
 Epicentro: LOS SANTOS - SANTANDER                                             3
 ACTION:UPD 17-09-04 20:15 OP:rebc STATUS:               ID:20170801105254 L   I
 OLDACT:REG 17-08-01 20:26 OP:dhb  STATUS:               ID:20170801104742     3
 2017-08-01-1048-00M.COL___394                                                 6
 STAT SP IPHASW D HRMM SECON CODA AMPLIT PERI AZIMU VELO AIN AR TRES W  DIS CAZ7
 BAR2 HZ EP       1053 13.42                             170    0.2710 23.9 204 
 BAR2 HZ ES       1053 28.15                             170    0.1210 23.9 204 
 BAR2 HZ I        1053 29.27         4.9 0.18            161           23.9 204 
 PAM  EZ IP     C 1053 16.27                             151    0.6310 74.9  36 
 PAM  EN ES       1053 31.72                             151   -0.7410 74.9  36 
 PAM  EE ES       1053 32.64                                           74.9  36 
 PAM  EZ I        1053 33.70         2.9 0.40            150           74.9  36 
 BRR  HZ EP       1053 15.02                             150   -0.0210 76.6 297 
 BRR  HZ I        1053 29.28         9.4 0.62            144           76.6 297 
 BRR  HN ES       1053 31.72                             150    0.3310 76.6 297 
 PTB  HZ EP       1053 20.39                             130   -0.75 9  153 260 
 PTB  HZ I        1053 43.03         1.7 0.09            121            153 260 
 ZAR  HZ EP       1053 27.06                             121    0.27 8  210 292 
 ZAR  HN ES       1053 52.26                             121   -0.06 8  210 292 
 GUY2CHZ EP       1053 37.71                             111   -0.20 7  305 236 
 GUY2CHN ES   4   1054 13.94                             111    1.84 0  305 236 
                                                                                
