 2010  2 1 1722 48.0 L   6.897 -73.019152.2  RSN  9 0.8 2.1LRSN                1
 GAP=227        1.18      12.1    15.5 15.3  0.5384E+02  0.1143E+03 -0.2350E+02E
 Epicentro: PIEDECUESTA - SANTANDER                                            3
 ACTION:UP  10-08-24 09:47 OP:vdl  STATUS:               ID:20100201172248 L   I
 2010-02-01-1722-10S.COL___094                                                 6
 STAT SP IPHASW D HRMM SECON CODA AMPLIT PERI AZIMU VELO SNR AR TRES W  DIS CAZ7
 GIR2 SZ EP   2   1723  9.52                             169     1.2 5   28 316 
 BAR2 SZ IP       1723  9.13                             166     0.310   38 208 
 BAR2 SZ ES   2   1723 24.94                             166    -0.1 5   38 208 
 RUS  BZ EP   1   1723 12.85                             142    -0.3 7  111 184 
 RUS  BZ I        1723 14.61         9.3 0.51                           111 184 
 RUS  BN ES   1   1723 31.94                             142    -0.9 7  111 184 
 CHI  HZ EP   2   1723 27.13                             117    -0.5 4  263 198 
 CHI  HZ I        1724  4.31         6.0 0.44                           263 198 
 HEL  HZ EP   2   1723 31.28                             114     0.9 4  288 254 
 HEL  HE ES   2   1724  3.96                             114     0.6 4  288 254 
 HEL  HZ I        1724  9.54         7.8 0.70                           288 254 
 RREF BZ EP   1   1723 37.31                             110     0.9 5  339 230 
 RREF BZ I        1724 21.43         8.1 0.41                           339 230 
 DBB  SZ EP   2   1723 37.04                             109    -0.2 3  353 272 
 MON  HZ EP   2   1723 36.34                             109    -1.4 3  357 306 
 MON  HN ES   2   1724 14.92                             109    -1.7 3  357 306 
 PRA  HZ EP   2   1723 43.67                             106     0.0 3  408 211 
 PRA  HZ I        1724 30.86         6.8 0.60                           408 211 
                                                                                
