 2014  3 1 1426 58.4 L   6.811 -73.155142.8  RSN  7 0.4 1.9LRSN                1
 GAP=135        1.02       3.7     4.7  7.5  0.1289E+00  0.1242E+02 -0.6954E+01E
 Epicentro: LOS SANTOS - SANTANDER                                             3
 ACTION:UPD 14-04-09 23:13 OP:nd   STATUS:               ID:20140301142658 L   I
 OLDACT:UP  14-03-01 17:00 OP:cam  STATUS:               ID:20140301141818d    3
 OLDACT:DUP 14-03-01 16:57 OP:cam  STATUS:               ID:20140301141818d    3
 OLDACT:REG 14-03-01 16:03 OP:cam  STATUS:               ID:20140301141817     3
 2014-03-01-1418-17M.COL___225                                                 6
 STAT SP IPHASW D HRMM SECON CODA AMPLIT PERI AZIMU VELO AIN AR TRES W  DIS CAZ7
 BAR2 SZ EP       1427 17.74                             170    0.1010 24.4 187 
 BAR2 SZ ES       1427 32.62                             170   -0.0710 24.4 187 
 BAR2 SZ I        1427 33.73        29.4 0.26            170           24.4 187 
 PAM  SZ EP       1427 20.63                             150    0.4010 77.1  41 
 PAM  SN ES       1427 37.43                             150    0.1310 77.1  41 
 PAM  SZ I        1427 39.59        15.4 0.50            153           77.1  41 
 RUS  HZ EP       1427 21.78                             143   -0.1210  102 176 
 RUS  HN ES       1427 40.30                             143    0.0310  102 176 
 RUS  HZ I        1427 41.41         3.5 0.34            146            102 176 
 PTB  HZ EP   1   1427 24.64                             131   -0.37 7  147 258 
 PTB  HN ES       1427 45.20                             131   -0.60 9  147 258 
 PTB  HZ I        1427 49.87         7.8 0.12            132            147 258 
 OCA  HN ES       1427 47.84                             129   -0.27 9  159 353 
 ZAR  HZ EP       1427 30.81                             122    0.35 9  203 292 
 ZAR  HN ES       1427 56.57                             122    1.07 9  203 292 
 ZAR  HZ I        1428  1.77         9.6 0.30            123            203 292 
 SML  HZ EP       1427 34.27                             117   -0.38 8  242 335 
 SML  HN ES       1428  2.43                             117   -0.53 8  242 335 
 SML  HZ I        1428  6.40         9.2 0.10            118            242 335 
                                                                                
