 2010  2 1 1456 57.8 L   6.773 -73.045146.0  RSN  4 0.4 1.9LRSN                1
 GAP=325        0.52       9.5    18.8  8.2 -0.9554E+02  0.3496E+02  0.1206E+02E
 Epicentro: CEPITA - SANTANDER                                                 3
 ACTION:UP  10-08-24 09:47 OP:vdl  STATUS:               ID:20100201145657 L   I
 2010-02-01-1456-43S.COL___094                                                 6
 STAT SP IPHASW D HRMM SECON CODA AMPLIT PERI AZIMU VELO SNR AR TRES W  DIS CAZ7
 BAR2 SZ EP   2   1457 17.42                             170    -0.1 5   25 217 
 BAR2 SZ ES   2   1457 32.84                             170    -0.1 5   25 217 
 RUS  BZ EP   1   1457 21.36                             145     0.0 7   97 182 
 RUS  BE ES   2   1457 40.16                             145     0.4 5   97 182 
 RUS  BZ I        1457 41.32         5.0 0.30                            97 182 
 CHI  HZ EP   2   1457 35.67                             117     0.1 4  249 198 
 CHI  HE ES   2   1458  4.18                             117    -0.8 4  249 198 
 PRA  HZ EP   2   1457 52.10                             106     0.4 3  395 211 
 PRA  HN ES   2   1458 34.38                             106     0.6 3  395 211 
 PRA  HZ I        1458 39.11         4.8 0.20                           395 211 
                                                                                
