 2011 11 1 1605 15.3 L   6.761 -73.147142.5  RSN 17 0.4 2.8LRSN                1
 GAP=115        0.69       2.3     3.0  4.0 -0.1126E+01  0.3664E+01  0.1476E+01E
 Epicentro: LOS SANTOS - SANTANDER                                             3
 ACTION:UPD 12-07-13 16:07 OP:ep   STATUS:               ID:20111101160515 L   I
 2011-11-01-1603-42S.COL___176                                                 6
 STAT SP IPHASW D HRMM SECON CODA AMPLIT PERI AZIMU VELO AIN AR TRES W  DIS CAZ7
 BAR2 SZ IP       16 5 34.49                             172    0.0910 19.1 192 
 BAR2 SZ I        16 5 34.89       175.0 0.32                          19.1 192 
 BAR2 SZ ES   1   16 5 48.74                             172   -0.60 7 19.1 192 
 BTL  SZ EP       16 5 34.82                             171    0.3610 21.9 323 
 GIR2 SZ EP       16 5 34.61                             165   -0.0510 35.5 352 
 GIR2 SZ ES   1   16 5 49.83                             165    0.04 7 35.5 352 
 BRR  HZ IP     C 16 5 36.42                             151    0.2610 73.2 302 
 BRR  HZ I        16 5 36.79       155.2 0.32                          73.2 302 
 BRR  HE ES   1   16 5 53.30                             151    0.83 7 73.2 302 
 PAM  SZ EP       16 5 37.46                             149    0.1310 80.8  38 
 PAM  SN ES   1   16 5 54.20                             149   -0.35 7 80.8  38 
 RUS  HZ EP       16 5 38.37                             144    0.0010 96.3 176 
 RUS  HZ I        16 5 39.49        44.7 0.14                          96.3 176 
 RUS  HN ES   1   16 5 56.35                             144   -0.05 7 96.3 176 
 BRI  SZ EP       16 5 39.33                             140    0.1810  113  20 
 OCA  SZ EP       16 5 43.61                             128   -0.10 9  165 353 
 OCA  SZ ES   1   16 6  4.94                             128   -0.98 7  165 353 
 OCA  SZ I        16 6 12.82        59.7 0.27                           165 353 
 YOP  SZ EP   2   16 5 44.71                             126    0.03 4  175 153 
 YOP  SN ES   2   16 6  8.12                             126    0.48 4  175 153 
 ZAR  HZ EP       16 5 47.64                             121    0.00 8  206 293 
 ZAR  HN ES   1   16 6 12.90                             121   -0.01 6  206 293 
 ZAR  HZ I        16 6 18.38        80.2 0.50                           206 293 
 NOR  SZ EP   1   16 5 50.21                             118   -0.30 6  232 235 
 NOR  SN ES   1   16 6 17.75                             118   -0.26 6  232 235 
 HEL  HZ EP   1   16 5 55.23                             114    0.06 6  271 257 
 HEL  HN ES   1   16 6 25.96                             114   -0.34 6  271 257 
 HEL  HZ I        16 6 34.42        39.1 0.27                           271 257 
 VIL  SZ EP   1   16 5 57.17                             112   -0.87 5  299 192 
 VIL  SE ES   2   16 6 31.48                             112    0.07 4  299 192 
 VIL  SZ I        16 6 43.71        18.1 0.30                           299 192 
 RREF HZ EP   1   16 6  0.84                             110   -0.08 5  319 230 
 RREF HN ES   1   16 6 36.65                             110    0.11 5  319 230 
 RREF HZ I        16 6 48.10        37.6 0.22                           319 230 
 TOL  SZ EP   1   16 6  3.44                             109    0.43 5  340 225 
 DBB  SZ EP   2   16 6  3.19                             109    0.57 3  340 275 
 TOL  SZ ES   2   16 6 39.65                             109   -0.61 3  340 225 
 PRA  HZ EP   1   16 6  7.91                             106   -0.30 4  388 210 
 PRA  HN ES   2   16 6 49.97                             106    0.45 3  388 210 
                                                                                
