 2017  5 1 1410 22.7 L   6.784 -73.103149.7  RSN  5 0.2 1.3LRSN                1
 GAP=143        1.00       5.0     6.5  8.9 -0.1071E+02 -0.1413E+02  0.7580E+01E
 Epicentro: LOS SANTOS - SANTANDER                                             3
 ACTION:UPD 17-06-16 13:31 OP:jn   STATUS:               ID:20170501141022 L   I
 OLDACT:UP  17-05-01 22:38 OP:edw  STATUS:               ID:20170501140741     3
 OLDACT:UP  17-05-01 22:38 OP:edw  STATUS:               ID:20170501140741     3
 OLDACT:UP  17-05-01 22:38 OP:edw  STATUS:               ID:20170501140741     3
 OLDACT:REG 17-05-01 20:09 OP:edw  STATUS:               ID:20170501140741     3
 2017-05-01-1408-00M.COL___377                                                 6
 STAT SP IPHASW D HRMM SECON CODA AMPLIT PERI AZIMU VELO AIN AR TRES W  DIS CAZ7
 PAM  EZ EP       1410 45.22                             151   -0.0210 75.9  36 
 PAM  EN ES       1411  2.69                             151   -0.1410 75.9  36 
 PAM  EZ I        1411  4.41         4.7 0.32            154           75.9  36 
 BRR  HZ EP       1410 44.38                             152   -0.1710 76.2 298 
 BRR  HN ES       1411  1.89                             152    0.2910 76.2 298 
 BRR  HZ I        1411  2.10         5.3 0.18            153           76.2 298 
 RUS  HZ EP       1410 46.96                             145    0.2610 98.6 179 
 RUS  HN ES       1411  5.49                             145    0.0710 98.6 179 
 RUS  HZ I        1411  9.33         1.7 0.44            145           98.6 179 
 PTB  HZ EP   9   1410 49.41                             132   -0.97 0  152 260 
 PTB  HN ES       1411 10.02                             134   -0.98 9  152 260 
 PTB  HZ I        1411 15.35         3.1 0.38            133            152 260 
 SPBC HZ EP   4   1410 48.65                             129   -3.01 0  165 221 
 SPBC HN ES       1411 13.90                             129   -0.35 9  165 221 
 CHI  HE ES   4   1411 27.69                             117   -2.43 0  248 196 
                                                                                
