 2014  1 1 1707  1.0 L   6.714 -73.151138.9  RSN  6 0.5 1.5LRSN                1
 GAP=140        1.13       7.0     5.4  8.5 -0.3793E+01  0.7813E+01  0.9562E+01E
 Epicentro: VILLANUEVA - SANTANDER                                             3
 ACTION:UPD 14-03-13 09:50 OP:ep   STATUS:               ID:20140101170701 L   I
 OLDACT:UP  14-01-01 20:09 OP:mh   STATUS:               ID:20140101170548     3
 OLDACT:REG 14-01-01 19:34 OP:mh   STATUS:               ID:20140101170548     3
 2014-01-01-1705-48M.COL___240                                                 6
 STAT SP IPHASW D HRMM SECON CODA AMPLIT PERI AZIMU VELO AIN AR TRES W  DIS CAZ7
 BAR2 SZ EP       17 7 19.90                             174    0.2710 13.9 195 
 BAR2 SZ ES   1   17 7 34.07                             174   -0.11 7 13.9 195 
 BAR2 SZ I        17 7 35.75        15.5 0.21            173           13.9 195 
 BRR  HZ EP   1   17 7 21.81                             150    0.14 7 75.7 305 
 BRR  HN ES       17 7 38.45                             150    0.6510 75.7 305 
 BRR  HZ I        17 7 41.83         3.6 0.18            148           75.7 305 
 PAM  SZ EP       17 7 23.02                             147    0.0410 85.2  36 
 PAM  SN ES       17 7 39.56                             147   -0.5710 85.2  36 
 PAM  SZ I        17 7 42.32         6.4 0.48            149           85.2  36 
 RUS  HZ EP       17 7 23.41                             145    0.0210 91.2 175 
 RUS  HN ES   2   17 7 41.83                             145    0.97 5 91.2 175 
 RUS  HZ I        17 7 43.24         2.8 0.27            149           91.2 175 
 PTB  HZ EP       17 7 26.66                             131   -0.55 9  146 262 
 PTB  HN ES       17 7 46.90                             131   -0.76 9  146 262 
 PTB  HZ I        17 7 49.85         6.2 0.19            131            146 262 
 ZAR  HZ EP       17 7 33.79                             120    0.46 8  207 295 
 ZAR  HN ES   2   17 7 59.30                             120    0.74 4  207 295 
 ZAR  HZ I        17 8  7.78         3.3 0.12            121            207 295 
                                                                                
