 2014 11 1 1012 17.6 L   6.656 -73.707106.5  RSN  6 0.2 1.4LRSN                1
 GAP=120        0.59       2.2     2.3  4.5 -0.2163E+00 -0.1564E+01 -0.8697E+00E
 Epicentro: EL CARMEN - SANTANDER                                              3
 ACTION:UPD 14-12-19 15:38 OP:nd   STATUS:               ID:20141101101217 L   I
 OLDACT:UP  14-11-01 21:41 OP:spq  STATUS:               ID:20141101100751d    3
 OLDACT:DUP 14-11-01 21:36 OP:spq  STATUS:               ID:20141101100751d    3
 2014-11-01-1007-50M.COL___265                                                 6
 STAT SP IPHASW D HRMM SECON CODA AMPLIT PERI AZIMU VELO AIN AR TRES W  DIS CAZ7
 BRR  HZ IP     C 1012 33.64                             153    0.3110 49.8 359 
 BRR  HN ES       1012 45.87                             153    0.3010 49.8 359 
 BRR  HZ I        1012 47.02         7.5 0.11            153           49.8 359 
 BAR2 SZ EP       1012 34.29                             149    0.1110 58.4  97 
 BAR2 SZ ES   1   1012 46.92                             149   -0.17 7 58.4  97 
 BAR2 SZ I        1012 47.92        21.6 0.18            151           58.4  97 
 PTB  HZ EP       1012 35.68                             139   -0.0210 83.9 261 
 PTB  HE ES       1012 49.46                             139   -0.3310 83.9 261 
 PTB  HZ I        1012 52.40         6.8 0.10            139           83.9 261 
 RUS  HZ EP       1012 38.51                             131   -0.0310  109 141 
 RUS  HN ES       1012 54.97                             131    0.1310  109 141 
 RUS  HZ I        1012 56.20         2.3 0.27            133            109 141 
 PAM  SZ EP       1012 41.05                             124    0.0610  135  56 
 PAM  SN ES       1012 58.79                             124   -0.4210  135  56 
 PAM  SZ I        1012 59.76         6.8 0.24            126            135  56 
 OCA  HZ EP   1   1012 45.25                             116   -0.13 7  180  14 
 OCA  HN ES       1013  7.03                             116   -0.00 9  180  14 
 OCA  HZ I        1013 11.43         2.9 0.20            117            180  14 
                                                                                
