 2017  7 1 1026 37.1 L   6.844 -73.152147.6  RSN 10 0.5 1.8LRSN                1
 GAP=217        0.92       3.9     4.1  5.4  0.7013E+01  0.3008E+01  0.3462E+01E
 Epicentro: LOS SANTOS - SANTANDER                                             3
 ACTION:UPD 17-08-30 15:28 OP:rebc STATUS:               ID:20170701102637 L   I
 OLDACT:DUP 17-07-01 22:25 OP:osc  STATUS:               ID:20170701101740d    3
 2017-07-01-1018-00M.COL___371                                                 6
 STAT SP IPHASW D HRMM SECON CODA AMPLIT PERI AZIMU VELO AIN AR TRES W  DIS CAZ7
 BAR2 EZ IP     D 1026 56.91                             169   -0.1710 28.0 187 
 BAR2 EZ ES       1027 12.41                             169   -0.2310 28.0 187 
 BAR2 EZ I        1027 13.21         8.6 0.16            166           28.0 187 
 BRR  HZ EP       1026 58.26                             154   -0.0610 68.4 295 
 BRR  HN ES       1027 15.17                             154    0.3210 68.4 295 
 BRR  HZ I        1027 19.18        11.5 0.16            151           68.4 295 
 PTB  HZ EP       1027  3.82                             132   -0.46 9  148 257 
 PTB  HE ES       1027 25.15                             132   -0.30 9  148 257 
 PTB  HZ I        1027 30.00         4.6 0.08            131            148 257 
 SPBC HZ EP       1027  6.22                             129    0.14 9  167 218 
 SPBC HE ES       1027 28.49                             129   -0.18 9  167 218 
 SPBC HZ I        1027 30.79        13.7 0.22            128            167 218 
 YPLC HZ EP       1027  7.43                             126   -0.07 9  181 152 
 YPLC HE ES       1027 31.49                             126    0.30 9  181 152 
 ZAR  HZ EP       1027 10.11                             123    0.66 9  202 291 
 ZAR  HE ES       1027 35.27                             123    0.61 9  202 291 
 ZAR  HZ I        1027 41.01        10.1 0.33            123            202 291 
 CHI  HZ EP       1027 15.64                             117    0.23 8  253 195 
 CHI  HN ES       1027 45.02                             117   -0.25 8  253 195 
 CHI  HZ I        1027 52.66         1.4 0.18            118            253 195 
 URE  HZ EP       1027 17.60                             114   -0.42 7  281 291 
 URE  HN ES   2   1027 47.97                             114   -1.95 4  281 291 
 URE  HZ I        1027 57.13         5.7 0.36            114            281 291 
 GUY2CHZ EP   4   1027 22.50                             112    1.42 0  303 234 
 GUY2CHE ES       1027 55.90                             112    0.54 7  303 234 
 GUY2CHZ I        1028  3.31         2.8 0.52                           303 234 
 PAL  HZ EP       1027 32.40                             106   -0.17 6  408 238 
 PAL  HE ES   4   1028 13.91                             106   -1.91 0  408 238 
                                                                                
