 2014  1 1 1659 49.0 L   6.971 -73.131149.2  RSN  7 0.2 1.6LRSN                1
 GAP=128        0.48       2.6     4.0  5.1  0.1911E+01  0.1253E+02  0.4061E+00E
 Epicentro: FLORIDABLANCA - SANTANDER                                          3
 ACTION:UPD 14-03-13 09:50 OP:ep   STATUS:               ID:20140101165949 L   I
 OLDACT:REG 14-01-01 19:32 OP:mh   STATUS:               ID:20140101165848     3
 2014-01-01-1658-48M.COL___240                                                 6
 STAT SP IPHASW D HRMM SECON CODA AMPLIT PERI AZIMU VELO AIN AR TRES W  DIS CAZ7
 BAR2 SZ EP       17 0  9.69                             163    0.1710 42.3 188 
 BAR2 SZ ES   1   17 0 25.62                             163    0.07 7 42.3 188 
 BAR2 SZ I        17 0 28.59         7.6 0.22            154           42.3 188 
 PAM  SN ES       17 0 27.65                             156   -0.0910 62.7  49 
 PAM  SZ I        17 0 29.85         8.7 0.26            159           62.7  49 
 BRR  HZ EP       17 0 10.18                             155   -0.0210 65.9 283 
 BRR  HZ I        17 0 29.90        12.0 0.08            142           65.9 283 
 RUS  HZ EP   1   17 0 14.81                             139    0.35 7  119 177 
 RUS  HN ES   1   17 0 34.12                             139   -0.23 7  119 177 
 RUS  HZ I        17 0 35.81         2.3 0.21            131            119 177 
 PTB  HZ EP       17 0 16.62                             131   -0.16 9  154 252 
 PTB  HZ I        17 0 42.68         3.2 0.10            121            154 252 
 ZAR  HN ES   1   17 0 46.28                             124    0.04 6  199 287 
 ZAR  HZ I        17 0 51.97         5.5 0.09            115            199 287 
 SML  HZ EP   1   17 0 23.65                             120   -0.39 6  227 333 
 SML  HN ES   1   17 0 51.72                             120    0.31 6  227 333 
 SML  HZ I        17 0 54.66         8.1 0.10            113            227 333 
                                                                                
