 2016 11 1 1510  9.4 L   6.777 -73.154136.0  RSN 10 0.4 2.5LRSN                1
 GAP=137        0.93       3.6     3.7  5.2 -0.2666E+01  0.5670E+01  0.3804E+01E
 Epicentro: LOS SANTOS - SANTANDER                                             3
 ACTION:UPD 17-10-26 21:03 OP:lp   STATUS:               ID:20161101151009 L   I
 OLDACT:REG 16-11-01 20:50 OP:cog  STATUS:               ID:20161101150746     3
 2016-11-01-1508-00M.COL___331                                                 6
 STAT SP IPHASW D HRMM SECON CODA AMPLIT PERI AZIMU VELO AIN AR TRES W  DIS CAZ7
 BAR2 EZ EP       1510 27.67                             171   -0.1310 20.7 189 
 BAR2 EZ ES       1510 42.46                             171    0.3110 20.7 189 
 BRR  HZ EP       1510 29.53                             151    0.0010 71.7 301 
 BRR  HE ES       1510 45.75                             151    0.5210 71.7 301 
 BRR  HZ I        1510 51.45        75.4 0.16            148           71.7 301 
 PAM  EZ EP       1510 30.57                             148   -0.1810 79.9  39 
 PAM  EN ES       1510 47.26                             148   -0.1410 79.9  39 
 PAM  EZ I        1510 49.53       101.2 0.44            153           79.9  39 
 RUS  HZ EP       1510 31.73                             143   -0.2810 98.1 175 
 RUS  HE ES       1510 49.95                             143    0.3010 98.1 175 
 RUS  HZ I        1510 52.02        46.0 0.42            145           98.1 175 
 PTB  HZ EP       1510 34.70                             130   -0.76 9  146 260 
 PTB  HN ES       1510 55.29                             130   -0.49 9  146 260 
 PTB  HZ I        1510 58.15        45.6 0.16            130            146 260 
 SPBC HZ EP       1510 36.90                             127   -0.02 9  161 219 
 SPBC HN ES       1510 58.10                             127   -0.28 9  161 219 
 SPBC HZ I        1511  0.75        42.9 0.10            128            161 219 
 NOR  HZ EP       1510 44.42                             117    0.08 8  232 235 
 NOR  HN ES       1511 11.97                             117    0.38 8  232 235 
 NOR  HZ I        1511 15.80        21.2 0.13            118            232 235 
 CHI  HZ EP       1510 46.63                             115    0.36 8  246 195 
 CHI  HN ES       1511 14.77                             115   -0.27 8  246 195 
 CHI  HZ I        1511 18.86        13.0 0.24            117            246 195 
 HEL  HZ EP       1510 49.94                             113    0.98 8  271 256 
 HEL  HE ES       1511 19.52                             113   -0.30 8  271 256 
 HEL  HZ I        1511 26.11        18.0 0.46            114            271 256 
 CBOC HZ EP       1510 56.07                             108    0.34 7  332 252 
 CBOC HE ES   3   1511 32.93                             108    1.05 2  332 252 
 CBOC HZ I        1511 44.34         5.5 0.48            109            332 252 
                                                                                
