 2014  2 1 1616 58.9 L   6.789 -73.174142.2  RSN 10 0.4 1.9LRSN                1
 GAP=133        0.93       3.7     4.2  5.6 -0.4126E+01  0.3671E+01  0.5447E+01E
 Epicentro: LOS SANTOS - SANTANDER                                             3
 ACTION:UPD 14-03-10 08:06 OP:ep   STATUS:               ID:20140201161658 L   I
 OLDACT:REG 14-02-01 14:50 OP:nd   STATUS:               ID:20140201161000     3
 2014-02-01-1610-00M.COL___288                                                 6
 STAT SP IPHASW D HRMM SECON CODA AMPLIT PERI AZIMU VELO AIN AR TRES W  DIS CAZ7
 BAR2 SZ EP       1617 18.08                             171    0.0210 21.8 182 
 BAR2 SZ ES       1617 33.07                             171    0.0610 21.8 182 
 BAR2 SZ I        1617 34.31        32.2 0.20            170           21.8 182 
 BRR  HZ EP       1617 20.11                             153    0.5810 69.1 301 
 BRR  HN ES       1617 36.00                             153    0.3710 69.1 301 
 BRR  HZ I        1617 37.60        14.8 0.30            152           69.1 301 
 PAM  SZ EP       1617 21.02                             149    0.1110 80.3  41 
 PAM  SN ES       1617 37.44                             149   -0.6410 80.3  41 
 PAM  SZ I        1617 40.26        21.5 0.50            152           80.3  41 
 RUS  HZ EP       1617 22.35                             143    0.1310 99.6 174 
 RUS  HN ES       1617 40.76                             143    0.3410 99.6 174 
 RUS  HZ I        1617 41.86         9.8 0.28            144           99.6 174 
 PTB  HZ EP       1617 24.88                             132   -0.38 9  144 259 
 PTB  HN ES       1617 45.25                             132   -0.58 9  144 259 
 PTB  HZ I        1617 48.81         9.1 0.16            132            144 259 
 SPBC HZ EP       1617 26.72                             129   -0.12 9  160 218 
 SPBC HN ES       1617 48.66                             129    0.03 9  160 218 
 SPBC HZ I        1617 51.68        14.3 0.36            129            160 218 
 NOR  HZ EP       1617 34.07                             118    0.01 8  231 234 
 NOR  HN ES       1618  1.84                             118    0.35 8  231 234 
 NOR  HZ I        1618  4.66         5.5 0.16            119            231 234 
 CHI  HZ EP       1617 36.37                             117    0.20 8  247 195 
 CHI  HN ES       1618  4.60                             117   -0.66 8  247 195 
 CHI  HZ I        1618  9.37         5.8 0.54            117            247 195 
 GUY2CHZ EP   4   1617 43.32                             112    1.36 0  298 235 
 GUY2CHN ES   4   1618 17.51                             112    1.95 0  298 235 
 GUY2CHZ I        1618 24.39         4.1 0.34                           298 235 
 SJC  HZ EP   4   1617 52.15                             105   -2.10 0  409 327 
 SJC  HN ES   4   1618 32.32                             105   -5.12 0  409 327 
 SJC  HZ I        1618 40.15         1.8 0.52            106            409 327 
                                                                                
