 2012 12 1 1531 55.8 L   7.409 -73.176134.2  RSN 10 0.4 2.4LRSN                1
 GAP=104        1.12       3.8     4.9  7.5  0.3032E+00  0.1278E+02 -0.3648E+01E
 Epicentro: EL PLAYON - SANTANDER                                              3
 ACTION:UPD 13-01-04 14:25 OP:ep   STATUS:               ID:20121201153155 L   I
 2012-12-01-1530-00M.COL___236                                                 6
 STAT SP IPHASW D HRMM SECON CODA AMPLIT PERI AZIMU VELO AIN AR TRES W  DIS CAZ7
 GIR2 SZ EP       1532 14.66                             164    0.4110 36.5 183 
 PAM  SZ EP       1532 16.15                             157    0.7110 53.2  98 
 PAM  SN ES       1532 30.77                             157    0.0010 53.2  98 
 PAM  SZ I        1532 32.36        64.7 0.14                          53.2  98 
 BAR2 SZ EP       1532 17.36                             144    0.0610 90.3 180 
 BAR2 SZ ES       1532 33.19                             144   -0.8910 90.3 180 
 BAR2 SZ I        1532 35.39       115.0 0.14                          90.3 180 
 OCA  HZ EP       1532 17.42                             143    0.0310 93.1 350 
 OCA  HE ES   1   1532 34.35                             143    0.11 7 93.1 350 
 RUS  HZ EP       1532 24.40                             126   -0.03 9  168 176 
 RUS  HN ES       1532 46.90                             126    0.13 9  168 176 
 RUS  HN I        1532 48.65        13.8 0.21                           168 176 
 PTB  HZ EP       1532 24.48                             125    0.38 9  171 236 
 PTB  HN ES       1532 45.86                             125   -0.33 9  171 236 
 PTB  HZ I        1532 49.96        24.4 0.30                           171 236 
 SML  HZ EP       1532 24.40                             123   -0.88 9  183 327 
 ZAR  HZ EP       1532 25.68                             122    0.08 9  186 273 
 ZAR  HE ES       1532 49.45                             122    0.59 9  186 273 
 ZAR  HZ I        1532 54.07        29.8 0.31                           186 273 
 COD  HZ EP       1532 35.47                             111   -0.49 7  281 354 
 CHI  HZ EP       1532 40.10                             109   -0.11 7  313 191 
                                                                                
