 2010  5 1 1103 52.8 L   6.751 -72.999148.0  RSN  6 0.3 1.7LRSN                1
 GAP=200        0.56       6.2     7.1  6.2 -0.1797E+02 -0.1102E+02 -0.3696E+01E
 Epicentro: CEPITA - SANTANDER                                                 3
 ACTION:UP  10-08-24 10:02 OP:vdl  STATUS:               ID:20100501110352 L   I
 2010-05-01-1059-57S.COL___105                                                 6
 STAT SP IPHASW D HRMM SECON CODA AMPLIT PERI AZIMU VELO SNR AR TRES W  DIS CAZ7
 BAR2 SZ EP   1   11 4 12.55                             169    -0.2 7   27 229 
 BAR2 SZ ES   1   11 4 28.50                             169     0.2 7   27 229 
 BRR  HZ IP     C 11 4 15.07                             148    -0.110   88 297 
 BRR  HZ I        11 4 15.30        12.3 0.15                            88 297 
 BRR  HN ES   1   11 4 32.87                             148     0.2 7   88 297 
 BRI  SZ IP       11 4 17.11                             142     0.210  109  12 
 GUE  SZ EP   1   11 4 17.70                             139    -0.3 7  120   4 
 RREF BE ES   2   11 5 16.59                             111    -0.3 3  331 232 
 RREF BZ I        11 5 24.17         1.6 0.38                           331 232 
 PRA  HZ EP   2   11 4 47.70                             107     0.9 3  396 212 
 PRA  HZ I        11 4 48.47         1.5 0.54                           396 212 
                                                                                
