 2012  7 1 1632 12.2 L   6.763 -73.220145.1  RSN  4 0.2 1.6LRSN                1
 GAP=223        0.56       5.7     6.3  6.8  0.2112E+02 -0.2214E+00  0.3826E+00E
 Epicentro: ZAPATOCA - SANTANDER                                               3
 ACTION:UPD 12-08-14 11:41 OP:ep   STATUS:               ID:20120701163212 L   I
 2012-07-01-1630-00M.COL___201                                                 6
 STAT SP IPHASW D HRMM SECON CODA AMPLIT PERI AZIMU VELO AIN AR TRES W  DIS CAZ7
 BAR2 SZ EP       1632 31.33                             172    -0.410   19 168 
 BAR2 SZ I        1632 47.54         8.2 0.20            158             19 168 
 BRR  HZ EP       1632 33.15                             154     0.110   66 305 
 BRR  HN ES   1   1632 49.36                             154     0.1 7   66 305 
 BRR  HZ I        1632 54.41         7.5 0.48            150             66 305 
 RUS  HZ EP       1632 35.79                             144     0.110   97 171 
 RUS  HN ES   1   1632 54.14                             144     0.2 7   97 171 
 PTB  HZ EP       1632 38.41                             134     0.1 9  139 260 
 PTB  HN ES   2   1632 58.44                             134    -0.3 5  139 260 
