 2015 11 1 1408 31.6 L   6.864 -73.331118.5  RSN  6 0.4 1.6LRSN                1
 GAP=127        0.70       4.7     5.1  6.2  0.1406E+02  0.1078E+02 -0.1057E+01E
 Epicentro: BETULIA - SANTANDER                                                3
 ACTION:UPD 15-12-28 16:08 OP:cam  STATUS:               ID:20151101140831 L   I
 OLDACT:REG 15-11-01 20:49 OP:ar   STATUS:               ID:20151101140750     3
 2015-11-01-1407-50M.COL___289                                                 6
 STAT SP IPHASW D HRMM SECON CODA AMPLIT PERI AZIMU VELO AIN AR TRES W  DIS CAZ7
 BAR2 EZ EP     C 14 8 48.33                             163    0.0610 34.3 151 
 BAR2 EZ ES       14 9  0.92                             163   -0.3710 34.3 151 
 BAR2 EZ I        14 9  1.99        27.6 0.24            167           34.3 151 
 BRR  HZ EP   2   14 8 48.28                             155   -0.32 5 49.9 303 
 BRR  HN ES   2   14 9  1.64                             155   -0.23 5 49.9 303 
 BRR  HZ I        14 9  4.88         6.3 0.36            153           49.9 303 
 PAM  EN ES   2   14 9  8.24                             141    0.84 5 87.4  53 
 PAM  EZ I        14 9 12.29         4.0 0.18            137           87.4  53 
 RUS  HZ EP       14 8 53.66                             134    0.0310  111 166 
 RUS  HE ES   1   14 9 11.21                             134    0.37 7  111 166 
 ZAR  HZ EP       14 8 59.80                             119   -0.25 9  182 292 
 ZAR  HN ES       14 9 22.68                             119    0.42 9  182 292 
 ZAR  HZ I        14 9 24.77         4.9 0.38            120            182 292 
 SML  HZ EP   2   14 9  4.51                             113   -0.68 4  229 339 
 SML  HN ES   2   14 9 31.39                             113   -0.02 4  229 339 
 SML  HZ I        14 9 37.57         7.9 0.10            112            229 339 
                                                                                
