 2012  2 1 1818 53.3 L   6.761 -73.151144.7  RSN  8 0.2 1.9LRSN                1
 GAP=138        0.50       2.5     2.7  3.7  0.1425E+00  0.1941E+01  0.4430E+00E
 ACTION:UP  12-03-07 16:26 OP:epov STATUS:               ID:20120201181853 L   I
 2012-02-01-1814-39S.COL___158                                                 6
 STAT SP IPHASW D HRMM SECON CODA AMPLIT PERI AZIMU VELO SNR AR TRES W  DIS CAZ7
 BAR2 SZ EP       1819 12.83                             172    0.0810 19.0 190 
 BAR2 SZ ES       1819 27.54                             172   -0.3610 19.0 190 
 BAR2 SZ I        1819 29.14        19.6 0.38                          19.0 190 
 GIR2 SZ EP       1819 12.95                             165   -0.0410 35.4 352 
 BRR  HZ IP     C 1819 14.72                             152    0.2610 72.8 302 
 BRR  HZ I        1819 15.04        42.6 0.17                          72.8 302 
 BRR  HN ES   1   1819 31.33                             152    0.40 7 72.8 302 
 PAM  SZ EP       1819 15.65                             149   -0.0110 81.1  38 
 PAM  SN ES   1   1819 33.10                             149    0.02 7 81.1  38 
 RUS  HZ EP   1   1819 16.67                             145    0.00 7 96.3 176 
 RUS  HN ES   1   1819 35.02                             145    0.14 7 96.3 176 
 RUS  HZ I        1819 36.72         7.4 0.36                          96.3 176 
 PTB  HZ EP   1   1819 19.77                             132   -0.31 7  146 260 
 PTB  HE ES   1   1819 40.92                             132   -0.03 7  146 260 
 ZAR  HZ EP   1   1819 25.88                             122    0.06 6  205 293 
 ZAR  HN ES   1   1819 50.85                             122   -0.31 6  205 293 
 ZAR  HZ I        1819 58.01        10.4 0.36                           205 293 
 CHI  HZ EP   1   1819 30.26                             117   -0.24 6  244 195 
 CHI  HE ES   1   1819 59.80                             117    0.31 6  244 195 
 CHI  HZ I        1820  4.34         2.4 0.49                           244 195 
                                                                                
