 2014 10 1 1625  7.8 L   6.800 -73.160140.0  RSN 15 0.5 2.7LRSN                1
 GAP= 70        1.04       3.1     3.1  5.1  0.6641E+00  0.3697E+01  0.1352E+01E
 Epicentro: LOS SANTOS - SANTANDER                                             3
 ACTION:UPD 14-11-29 23:45 OP:nd   STATUS:               ID:20141001162507 L   I
 OLDACT:UP  14-10-01 23:59 OP:cam  STATUS:               ID:20141001162000     3
 OLDACT:UP  14-10-01 23:58 OP:cam  STATUS:               ID:20141001162000     3
 OLDACT:REG 14-10-01 22:34 OP:cam  STATUS:               ID:20141001162000     3
 2014-10-01-1620-00M.COL___252                                                 6
 STAT SP IPHASW D HRMM SECON CODA AMPLIT PERI AZIMU VELO AIN AR TRES W  DIS CAZ7
 BAR2 SZ IP     D 1625 26.73                             170    0.0310 23.1 186 
 BAR2 SZ ES       1625 40.87                             170   -0.6010 23.1 186 
 BAR2 SZ I        1625 42.78        84.1 0.18            175           23.1 186 
 BRR  HZ EP       1625 28.59                             152    0.3810 69.8 299 
 BRR  HE ES       1625 44.38                             152    0.2210 69.8 299 
 BRR  HZ I        1625 49.87        99.7 0.12            145           69.8 299 
 PAM  SZ EP       1625 29.60                             149    0.1710 78.4  40 
 PAM  SN ES       1625 46.63                             149    0.2910 78.4  40 
 PAM  SZ I        1625 48.64       156.0 0.48            142           78.4  40 
 RUS  HZ EP       1625 31.04                             143    0.0710  101 175 
 RUS  HN ES       1625 48.97                             143   -0.0910  101 175 
 RUS  HZ I        1625 50.27        70.6 0.26            142            101 175 
 PTB  HZ EP       1625 33.56                             131   -0.56 9  146 259 
 PTB  HN ES       1625 54.37                             131   -0.31 9  146 259 
 PTB  HZ I        1625 56.37        41.2 0.16            126            146 259 
 TAM  HZ IP     C 1625 35.08                             129   -0.06 9  157 105 
 TAM  HN ES       1625 56.49                             129   -0.00 9  157 105 
 TAM  HN I        1625 57.12       109.2 0.46            125            157 105 
 SPBC HZ EP       1625 35.83                             128    0.10 9  162 219 
 SPBC HN ES       1625 58.03                             128    0.48 9  162 219 
 SPBC HZ I        1625 59.89        55.6 0.40            125            162 219 
 ZAR  HZ EP       1625 40.53                             121    0.85 9  203 292 
 ZAR  HN ES       1626  5.13                             121    0.55 9  203 292 
 ZAR  HZ I        1626 10.83        65.5 0.60            116            203 292 
 SML  HZ EP       1625 43.04                             116   -0.96 8  243 336 
 SML  HZ I        1626 22.87        53.9 0.24            111            243 336 
 CHI  HZ EP       1625 45.02                             116   -0.09 8  248 195 
 CHI  HN ES       1626 13.70                             116   -0.53 8  248 195 
 CHI  HZ I        1626 18.51        13.2 0.48            113            248 195 
 URE  HZ EP   4   1625 48.16                             112   -0.23 0  282 292 
 GUY2CHZ EP   4   1625 52.03                             111    1.07 0  300 235 
 GUY2CHE ES   4   1626 25.96                             111    1.30 0  300 235 
 GUY2CHZ I        1626 31.59        16.3 0.28                           300 235 
 DBB  SZ EP       1625 54.95                             108    0.12 7  338 274 
 DBB  SZ ES   4   1626 30.24                             108   -1.29 0  338 274 
 DBB  SZ I        1626 35.22        68.7 0.42            105            338 274 
 TOL  SZ EP       1625 56.36                             108    0.69 7  342 224 
 MON  HZ IP   4 C 1625 54.61                             108   -1.79 0  352 309 
 MON  HN ES       1626 33.26                             108   -1.07 6  352 309 
 MON  HZ I        1626 33.87        16.3 0.18            104            352 309 
 PRA  HZ EP   1   1626  0.82                             106   -0.18 4  391 209 
 PRA  HN ES       1626 42.39                             106   -0.13 6  391 209 
 PRA  HZ I        1626 49.60        16.3 0.30            103            391 209 
                                                                                
