 2012  3 1 1554 31.7 L   6.777 -73.161148.2  RSN  8 0.4 2.0LRSN                1
 GAP=136        0.90       5.2     4.9  7.5  0.1925E+00  0.9291E+01  0.4580E+01E
 ACTION:UP  12-03-31 23:16 OP:EP   STATUS:               ID:20120301155431 L   I
 2012-03-01-1550-00M.COL___191                                                 6
 STAT SP IPHASW D HRMM SECON CODA AMPLIT PERI AZIMU VELO SNR AR TRES W  DIS CAZ7
 BAR2 SZ EP   1   1554 51.59                             172     0.0 7   21 187 
 BAR2 SZ ES   1   1555  6.56                             172    -0.5 7   21 187 
 BAR2 SZ I        1555  8.32        24.1 0.33                            21 187 
 BRR  HZ EP   1   1554 53.45                             153     0.3 7   71 301 
 BRR  HZ I        1554 53.74        23.8 0.12                            71 301 
 BRR  HE ES   1   1555 10.77                             153     1.0 7   71 301 
 PAM  SZ EP   1   1554 54.45                             150     0.1 7   80  39 
 PAM  SN ES   1   1555 11.81                             150    -0.2 7   80  39 
 PAM  SZ I        1555 13.70         5.8 0.29                            80  39 
 RUS  HZ EP   1   1554 55.71                             145     0.2 7   98 175 
 RUS  HE ES   1   1555 14.16                             145     0.0 7   98 175 
 RUS  HZ I        1555 15.96        12.2 0.63                            98 175 
 PTB  HZ EP   1   1554 58.24                             133    -0.5 7  146 260 
 PTB  HN ES   1   1555 19.36                             133    -0.4 7  146 260 
 ZAR  HZ EP   1   1555  3.99                             123    -0.3 6  203 293 
 ZAR  HE ES   1   1555 29.43                             123    -0.2 6  203 293 
 ZAR  HZ I        1555 36.42        17.3 0.25                           203 293 
 NOR  SE ES   1   1555 35.26                             119     0.2 6  232 235 
 CHI  HZ EP   1   1555  9.55                             118     0.3 6  246 195 
 CHI  HZ I        1555 44.87         5.5 0.38                           246 195 
                                                                                
