 2011 12 1 1911 49.7 L   6.781 -73.110139.5  RSN  5 0.2 1.9LRSN                1
 GAP=142        0.60       3.5     4.0  5.4 -0.3211E+01  0.2278E+00  0.4411E+01E
 Epicentro: LOS SANTOS - SANTANDER                                             3
 ACTION:UPD 12-07-13 16:13 OP:ep   STATUS:               ID:20111201191149 L   I
 2011-12-01-1910-00M.COL___176                                                 6
 STAT SP IPHASW D HRMM SECON CODA AMPLIT PERI AZIMU VELO AIN AR TRES W  DIS CAZ7
 BAR2 SZ EP       1912  8.19                             170   -0.3910 22.3 201 
 BAR2 SZ ES   1   1912 23.41                             170    0.12 7 22.3 201 
 BAR2 SZ I        1912 24.46        16.4 0.26                          22.3 201 
 BRR  HZ EP       1912 10.26                             150   -0.2110 75.7 299 
 BRR  HE ES       1912 26.79                             150    0.1410 75.7 299 
 BRR  HE I        1912 29.38        41.8 0.15                          75.7 299 
 PAM  SZ EP       1912 11.35                             150    0.1210 76.6  36 
 PAM  SN ES       1912 28.00                             150   -0.0110 76.6  36 
 RUS  HZ EP       1912 13.07                             143    0.3810 98.3 178 
 RUS  HE ES   1   1912 30.40                             143   -0.21 7 98.3 178 
 RUS  HZ I        1912 32.09         5.0 0.27                          98.3 178 
 NOR  SE ES   1   1912 53.13                             117    0.05 6  237 235 
                                                                                
