 2013  5 1 1646  0.7 L   6.559 -74.136 27.8  RSN  7 0.4 1.8LRSN                1
 GAP=131        0.99       4.2     2.6  4.7 -0.7269E+01 -0.7771E+01  0.1281E+02E
 Epicentro: PUERTO PARRA - SANTANDER                                           3
 ACTION:UPD 13-06-20 09:47 OP:ep   STATUS:               ID:20130501164600 L   I
 2013-05-01-1640-00M.COL___252                                                 6
 STAT SP IPHASW D HRMM SECON CODA AMPLIT PERI AZIMU VELO AIN AR TRES W  DIS CAZ7
 PTB  HZ EP     C 1646  7.89                             122    0.0110 35.5 267 
 PTB  HN ES       1646 13.66                             122    0.2010 35.5 267 
 BRR  HZ EP     C 1646 13.16                              99   -0.2410 76.6  38 
 BRR  HN ES       1646 22.87                              99   -0.4110 76.6  38 
 BRR  HZ I        1646 23.90        25.6 0.10            103           76.6  38 
 BAR2 SZ EP       1646 17.37                              61   -0.1010  106  88 
 BAR2 SZ ES       1646 29.91                              61   -0.6110  106  88 
 NOR  HZ EP       1646 21.08                              61   -0.08 9  137 216 
 NOR  HE ES       1646 36.87                              61   -0.22 9  137 216 
 NOR  HZ I        1646 38.58         6.9 0.16             56            137 216 
 RUS  HZ EP       1646 22.24                              61    0.42 9  138 122 
 RUS  HN ES       1646 38.29                              61    0.03 9  138 122 
 RUS  HZ I        1646 39.96        19.2 0.48             56            138 122 
 HEL  HZ EP       1646 24.77                              61    0.40 9  159 255 
 HEL  HN ES       1646 42.40                              61   -0.40 9  159 255 
 HEL  HZ I        1646 44.18        10.6 0.22             56            159 255 
 PAM  SZ EP       1646 27.57                              61    0.40 9  181  61 
 PAM  SN ES       1646 48.65                              61    0.87 9  181  61 
 PAM  SZ I        1646 50.45        20.0 0.18             56            181  61 
                                                                                
