 2012 12 1 1607 31.6 L   6.761 -73.151142.4  RSN  4 0.1 1.3LRSN                1
 GAP=138        0.32       2.5     2.5  4.6 -0.1918E+01  0.3376E+01 -0.6574E+00E
 Epicentro: LOS SANTOS - SANTANDER                                             3
 ACTION:UPD 13-01-04 14:25 OP:ep   STATUS:               ID:20121201160731 L   I
 2012-12-01-1600-00M.COL___236                                                 6
 STAT SP IPHASW D HRMM SECON CODA AMPLIT PERI AZIMU VELO AIN AR TRES W  DIS CAZ7
 BAR2 SZ EP   1   16 7 50.68                             172   -0.02 7 18.9 190 
 BAR2 SZ I        16 8  7.62         7.1 0.23                          18.9 190 
 PAM  SZ EP   1   16 7 53.78                             149    0.13 7 81.2  38 
 PAM  SZ I        16 7 53.99         3.1 0.20                          81.2  38 
 PAM  SN ES   1   16 8 10.81                             149   -0.07 7 81.2  38 
 RUS  HZ EP   1   16 7 54.68                             144    0.02 7 96.3 176 
 RUS  HN ES   1   16 8 12.69                             144    0.00 7 96.3 176 
 RUS  HN I        16 8 15.51         2.9 0.44                          96.3 176 
 PTB  HZ EP   1   16 7 57.97                             131   -0.15 7  146 260 
 PTB  HN ES   1   16 8 18.93                             131    0.09 7  146 260 
 PTB  HZ I        16 8 24.83         2.4 0.25                           146 260 
                                                                                
