 2011  1 1 1856 20.0 L   6.817 -72.984148.0  RSN  4 0.4 1.6LRSN                1
 GAP=290        0.67       9.2     9.8  9.4  0.1454E+02  0.3522E+02  0.6985E+01E
 Epicentro: CEPITA - SANTANDER                                                 3
 ACTION:UP  11-02-08 08:37 OP:pat  STATUS:               ID:20110101185620 L   I
 2011-01-01-1852-29S.COL___135                                                 6
 STAT SP IPHASW D HRMM SECON CODA AMPLIT PERI AZIMU VELO SNR AR TRES W  DIS CAZ7
 BAR2 SZ EP   1   1856 40.02                             167    -0.1 7   33 221 
 BAR2 SZ ES   2   1856 55.56                             167    -0.3 5   33 221 
 BAR2 SZ I        1856 56.52        10.1 0.25                            33 221 
 RUS  HZ EP   1   1856 44.51                             144     0.4 7  103 186 
 RUS  HN ES   2   1857  3.04                             144     0.1 5  103 186 
 RUS  HZ I        1857  4.26         3.7 0.38                           103 186 
 CHI  HZ EP   1   1856 58.57                             117     0.0 6  256 199 
 CHI  HN ES   2   1857 28.06                             117    -0.6 4  256 199 
 CHI  HZ I        1857 32.34         3.0 0.53                           256 199 
 HEL  HZ EP   1   1857  1.85                             114    -0.4 5  290 256 
 HEL  HE ES   2   1857 36.07                             114     0.8 4  290 256 
 HEL  HZ I        1857 38.93         2.4 0.24                           290 256 
                                                                                
