 2013  6 1 1728 56.3 L   6.785 -73.139146.0  RSN 13 0.4 2.8LRSN                1
 GAP= 72        1.09       3.6     3.6  5.2 -0.1769E+01  0.3235E+01  0.4886E+01E
 Epicentro: LOS SANTOS - SANTANDER                                             3
 ACTION:UPD 14-01-08 09:51 OP:ep   STATUS:               ID:20130601172856 L   I
 2013-06-01-1728-49M.COL___218                                                 6
 STAT SP IPHASW D HRMM SECON CODA AMPLIT PERI AZIMU VELO AIN AR TRES W  DIS CAZ7
 BAR2 SZ IP       1729 15.80                             171   -0.1410 21.8 193 
 BAR2 SZ I        1729 15.91        60.6 0.20            167           21.8 193 
 BAR2 SZ ES       1729 31.35                             171    0.1010 21.8 193 
 GIR2 SZ EP       1729 16.02                             167   -0.0410 33.1 349 
 GIR2 SZ ES       1729 31.57                             167    0.1110 33.1 349 
 BRR  HZ IP     D 1729 17.74                             152    0.1710 72.7 299 
 BRR  HN ES       1729 35.29                             152    1.1410 72.7 299 
 BRR  HE I        1729 35.96       211.1 0.30            143           72.7 299 
 PAM  SZ EP       1729 18.86                             151    0.2610 78.2  38 
 PAM  SN ES       1729 35.33                             151   -0.6610 78.2  38 
 PAM  SE I        1729 37.20        92.5 0.76            149           78.2  38 
 RUS  HZ EP       1729 19.62                             144   -0.3410 98.9 176 
 RUS  HN ES       1729 38.43                             144    0.0210 98.9 176 
 RUS  HE I        1729 39.45        69.7 0.48            140           98.9 176 
 PTB  HZ EP       1729 22.72                             132   -0.62 9  148 260 
 PTB  HN ES       1729 43.71                             132   -0.70 9  148 260 
 PTB  HE I        1729 49.52       160.8 0.50            124            148 260 
 TAM  HZ EP       1729 23.89                             131   -0.01 9  154 104 
 TAM  HZ I        1729 24.06        48.4 0.34            129            154 104 
 TAM  HN ES       1729 45.70                             131    0.28 9  154 104 
 OCA  HZ EP       1729 24.90                             129    0.10 9  162 353 
 OCA  HN ES       1729 46.74                             129   -0.29 9  162 353 
 NOR  HZ EP       1729 31.57                             119   -0.45 8  234 235 
 NOR  HN ES       1729 59.67                             119   -0.19 8  234 235 
 NOR  HN I        1730  4.55       132.7 0.30            113            234 235 
 CHI  HZ EP       1729 33.93                             117    0.06 8  247 195 
 CHI  HZ I        1729 36.44        17.8 0.32            113            247 195 
 HEL  HZ EP       1729 37.14                             115    0.57 8  272 256 
 HEL  HN I        1730 17.53        26.9 0.60            109            272 256 
 GUY2CHZ EP       1729 40.67                             112    0.78 7  301 235 
 GUY2CHN I        1730 22.92        36.3 0.52                           301 235 
 PRA  HZ EP       1729 49.57                             107   -0.14 6  391 210 
 PRA  HN ES       1730 31.81                             107    0.45 6  391 210 
 PRA  HE I        1730 36.61        25.4 0.48            103            391 210 
                                                                                
