 2010 12 1 1420 59.8 L   6.774 -73.103145.4  RSN 12 0.5 2.5LRSN                1
 GAP=164        0.99       4.2     7.9  7.3 -0.1107E+02  0.8700E+01  0.1763E+01E
 Epicentro: LOS SANTOS - SANTANDER                                             3
 ACTION:UP  11-01-14 15:22 OP:pat  STATUS:               ID:20101201142059 L   I
 2010-12-01-1419-36S.COL___132                                                 6
 STAT SP IPHASW D HRMM SECON CODA AMPLIT PERI AZIMU VELO SNR AR TRES W  DIS CAZ7
 BAR2 SZ EP       1421 19.24                             171    -0.110   22 204 
 BAR2 SZ ES   1   1421 33.97                             171    -0.6 7   22 204 
 BAR2 SZ I        1421 36.06        86.6 0.35                            22 204 
 GIR2 SZ EP   1   1421 19.30                             166    -0.2 7   35 344 
 BRR  HZ IP     C 1421 21.12                             151    -0.110   77 299 
 BRR  HN ES   1   1421 38.62                             151     0.7 7   77 299 
 BRR  HZ I        1421 41.63        61.7 0.16                            77 299 
 RUS  HZ EP   1   1421 23.10                             145    -0.2 7   98 179 
 RUS  HE ES   1   1421 41.92                             145     0.3 7   98 179 
 RUS  HZ I        1421 43.05        38.5 0.14                            98 179 
 GUE  SZ EP   1   1421 24.32                             139    -0.3 7  118  10 
 GRA  SZ EP   1   1421 26.03                             137     0.9 7  127  15 
 GRA  SZ I        1421 51.64        35.5 0.26                           127  15 
 OCA  SZ EP   1   1421 27.81                             129    -0.6 7  164 352 
 OCA  SZ ES   2   1421 51.00                             129     0.3 5  164 352 
 OCA  SZ I        1421 56.04        45.0 0.16                           164 352 
 NOR  SZ EP   1   1421 35.14                             118    -0.6 6  237 236 
 NOR  SN ES   1   1422  3.13                             118    -0.6 6  237 236 
 CHI  HZ EP   1   1421 37.19                             117    -0.1 6  247 196 
 CHI  HE ES   1   1422  6.95                             117     0.4 6  247 196 
 CHI  HZ I        1422 14.40        12.2 0.36                           247 196 
 HEL  HZ EP   2   1421 40.93                             114     0.5 4  276 257 
 HEL  HZ I        1422 17.93        23.4 0.56                           276 257 
 RREF HZ EP   1   1421 46.35                             111     0.3 5  323 230 
 RREF HZ I        1422 27.64        17.1 0.37                           323 230 
 PRA  HZ EP   1   1421 53.40                             106     0.1 4  392 210 
 PRA  HE ES       1422 35.41                             106     0.4 6  392 210 
                                                                                
