 2014  5 1 1655 17.9 L   6.811 -73.181136.8  RSN 12 0.5 1.8LRSN                1
 GAP=132        0.98       3.3     4.0  6.3 -0.1495E+01  0.5736E+01  0.4684E+01E
 Epicentro: LOS SANTOS - SANTANDER                                             3
 OLDACT:REG 14-05-01 20:10 OP:spq  STATUS:               ID:20140501165000     3
 ACTION:UPD 15-03-16 16:54 OP:nd   STATUS:               ID:20140501165517 L   I
 OLDACT:UP  14-05-01 23:19 OP:spq  STATUS:               ID:20140501165000     3
 2014-05-01-1650-00M.COL___273                                                 6
 STAT SP IPHASW D HRMM SECON CODA AMPLIT PERI AZIMU VELO AIN AR TRES W  DIS CAZ7
 BRR  HN ES       1655 53.34                             152   -0.0610 67.2 299 
 PAM  SZ EP       1655 39.61                             148    0.3610 79.0  42 
 PAM  SE ES       1655 56.22                             148    0.3010 79.0  42 
 PAM  SZ I        1655 58.25         9.8 0.60            144           79.0  42 
 RUS  HZ EP   1   1655 41.12                             141    0.24 7  102 174 
 RUS  HN ES   1   1655 58.27                             141   -0.55 7  102 174 
 RUS  SZ I        1656  1.99         9.3 0.86            132            102 174 
 PTB  HZ EP       1655 43.77                             131   -0.03 9  144 258 
 PTB  HN ES       1656  3.40                             131   -0.62 9  144 258 
 PTB  SZ I        1656  6.91         6.9 0.40            121            144 258 
 SPBC HZ EP   1   1655 46.33                             127    0.76 7  162 218 
 SPBC HE ES   1   1656  7.70                             127    0.54 7  162 218 
 SPBC SZ I        1656 10.76         9.7 0.20            118            162 218 
 ZAR  HZ EP       1655 49.10                             121   -0.23 9  200 292 
 ZAR  HN ES       1656 14.51                             121    0.65 9  200 292 
 ZAR  SZ I        1656 22.00         7.2 0.54            113            200 292 
 NOR  HZ EP   1   1655 51.94                             117   -0.90 6  232 234 
 NOR  HE ES   1   1656 20.36                             117    0.25 6  232 234 
 NOR  SZ I        1656 28.37         6.7 0.14            109            232 234 
 SML  HZ EP   1   1655 53.07                             116   -0.65 6  241 336 
 SML  HN ES   1   1656 20.89                             116   -0.78 6  241 336 
 SML  SZ I        1656 23.23         6.4 0.22            109            241 336 
 CHI  HZ EP   1   1655 55.04                             115   -0.08 6  249 194 
 CHI  HN ES   1   1656 23.18                             115   -0.99 6  249 194 
 CHI  SZ I        1656 38.80         3.3 1.00            107            249 194 
 HEL  HZ EP   1   1655 57.94                             113    0.68 6  269 255 
 HEL  SZ I        1656 34.82         5.9 3.08            106            269 255 
 GUY2CHZ EP   1   1656  0.71                             111   -0.10 5  299 234 
 GUY2CHE ES   1   1656 34.74                             111    0.44 5  299 234 
 GUY2CSZ I        1656 42.95         3.0 0.24                           299 234 
 PRA  HZ EP   1   1656 11.15                             105    0.14 4  391 209 
 PRA  HN ES   1   1656 52.52                             105    0.07 4  391 209 
                                                                                
