 2014  1 1 1425 35.3 L   6.845 -73.198149.9  RSN  5 0.4 1.7LRSN                1
 GAP=261        0.64       6.4     7.4 10.6 -0.1148E+02 -0.1881E+02  0.2717E+01E
 Epicentro: ZAPATOCA - SANTANDER                                               3
 ACTION:UPD 14-03-13 09:50 OP:ep   STATUS:               ID:20140101142535 L   I
 OLDACT:DUP 14-01-01 18:55 OP:mh   STATUS:               ID:20140101142001d    3
 2014-01-01-1420-00M.COL___285                                                 6
 STAT SP IPHASW D HRMM SECON CODA AMPLIT PERI AZIMU VELO AIN AR TRES W  DIS CAZ7
 BRR  HZ EP   1   1425 56.65                             156    0.18 9 63.8 297 
 BRR  HN ES   2   1426 13.36                             156    0.35 6 63.8 297 
 BRR  HZ I        1426 17.65         5.3 0.18            157           63.8 297 
 PTB  HZ EP   1   1426  2.25                             134    0.08 8  143 256 
 PTB  HN ES   2   1426 22.07                             134   -1.08 5  143 256 
 PTB  HZ I        1426 30.43         3.6 0.28            137            143 256 
 OCA  HN ES   2   1426 25.09                             132   -0.23 5  155 355 
 ZAR  HN ES       1426 32.45                             124    0.2510  197 291 
 ZAR  HZ I        1426 35.39         3.3 0.12            129            197 291 
 SML  HZ EP   1   1426 11.27                             119   -0.12 7  237 336 
 SML  HN ES   2   1426 39.06                             119   -0.50 5  237 336 
 SML  HZ I        1426 42.44        10.3 0.07            125            237 336 
 SJC  HZ EP   4   1426 28.44                             107   -1.67 0  402 327 
 SJC  HN ES   4   1427 10.50                             107   -2.39 0  402 327 
                                                                                
