 2011  6 1 1906 38.0 L   6.754 -73.094153.1  RSN  5 0.1 1.9LRSN                1
 GAP=162        0.38       2.3     4.9  4.1 -0.6213E+00 -0.6452E+01 -0.1823E+01E
 Epicentro: LOS SANTOS - SANTANDER                                             3
 ACTION:UP  11-07-14 19:02 OP:ep   STATUS:               ID:20110601190638 L   I
 2011-06-01-1905-33S.COL___113                                                 6
 STAT SP IPHASW D HRMM SECON CODA AMPLIT PERI AZIMU VELO SNR AR TRES W  DIS CAZ7
 BAR2 SZ EP   1   19 6 58.28                             172    -0.2 7   20 209 
 BAR2 SZ ES   1   19 7 14.26                             172    -0.1 7   20 209 
 BAR2 SZ I        19 7 16.08        18.2 0.24                            20 209 
 BRR  HZ EP   1   19 7  0.22                             151    -0.1 7   79 300 
 BRR  HZ I        19 7  0.53        35.2 0.20                            79 300 
 BRR  HN ES   1   19 7 17.95                             151     0.1 7   79 300 
 RUS  HZ EP   1   19 7  2.24                             147     0.1 7   95 179 
 RUS  HN ES   1   19 7 21.01                             147     0.1 7   95 179 
 RUS  HZ I        19 7 22.22         6.4 0.28                            95 179 
 BRI  SZ EP   1   19 7  2.90                             142     0.1 7  111  17 
 BRI  SZ I        19 7  3.57         7.1 0.06                           111  17 
 GRA  SZ EP   1   19 7  4.15                             138     0.0 7  129  14 
 GRA  SZ ES   1   19 7 24.60                             138     0.0 7  129  14 
 GRA  SZ I        19 7 25.81         7.3 0.29                           129  14 
                                                                                
