 2013  7 1 1817 16.3 L   6.752 -73.170145.4  RSN  6 0.4 1.3LRSN                1
 GAP=178        0.81       6.7     5.6  8.0  0.1751E+02 -0.1102E+01 -0.5681E+01E
 Epicentro: VILLANUEVA - SANTANDER                                             3
 ACTION:UPD 13-08-12 10:34 OP:ep   STATUS:               ID:20130701181716 L   I
 OLDACT:DUP 13-07-01 16:56 OP:jn   STATUS:               ID:20130701180960d    3
 OLDACT:REG 13-07-01 14:35 OP:jn   STATUS:               ID:20130701180959     3
 2013-07-01-1809-59M.COL___266                                                 6
 STAT SP IPHASW D HRMM SECON CODA AMPLIT PERI AZIMU VELO AIN AR TRES W  DIS CAZ7
 BAR2 SZ EP   1   1817 35.68                             173   -0.11 7 17.7 184 
 BAR2 SZ ES   1   1817 50.40                             173   -0.59 7 17.7 184 
 BAR2 SZ I        1817 51.70         4.6 0.36            169           17.7 184 
 GIR2 SZ EP   1   1817 35.70                             165   -0.38 7 36.3 356 
 BRR  HZ EP       1817 37.47                             152    0.0310 71.6 303 
 BRR  HN ES   1   1817 54.62                             152    0.70 7 71.6 303 
 BRR  HZ I        1817 55.60         4.8 0.20            149           71.6 303 
 RUS  HZ EP       1817 39.98                             145    0.3210 95.5 174 
 RUS  HN ES   1   1817 58.17                             145    0.30 7 95.5 174 
 RUS  HZ I        1817 59.14         1.9 0.28            145           95.5 174 
 PTB  HZ EP   1   1817 42.67                             133   -0.25 7  144 261 
 PTB  HN ES       1818  3.34                             133   -0.34 9  144 261 
 PTB  HZ I        1818  7.77         2.2 0.22            130            144 261 
 ZAR  HE ES   1   1818 14.25                             122    0.30 6  204 294 
 ZAR  HZ I        1818 19.69         3.4 0.30            121            204 294 
                                                                                
