 2010 12 1 1725  8.9 L   6.798 -73.061142.0  RSN  4 0.2 1.5LRSN                1
 GAP=207        0.45       9.7    18.2 12.6  0.1603E+03 -0.1797E+03 -0.9139E+02E
 Epicentro: LOS SANTOS - SANTANDER                                             3
 ACTION:UP  11-01-14 15:22 OP:pat  STATUS:               ID:20101201172508 L   I
 2010-12-01-1721-35S.COL___133                                                 6
 STAT SP IPHASW D HRMM SECON CODA AMPLIT PERI AZIMU VELO SNR AR TRES W  DIS CAZ7
 BAR2 SZ EP   1   1725 28.24                             170     0.0 7   27 211 
 BAR2 SZ I        1725 45.64         5.9 0.34                            27 211 
 GIR2 SZ EP   2   1725 28.26                             166     0.0 5   34 335 
 BRR  HZ EP   1   1725 29.97                             150    -0.2 7   80 295 
 BRR  HZ I        1725 30.32        13.7 0.13                            80 295 
 BRR  HN ES   1   1725 46.90                             150     0.1 7   80 295 
 RUS  HZ EP   2   1725 32.65                             144     0.4 5  100 181 
 RUS  HN ES   1   1725 50.41                             144    -0.1 7  100 181 
 RUS  HZ I        1725 52.57         3.6 0.50                           100 181 
                                                                                
