 2010  7 1 1120 52.7 L   6.887 -73.289124.7  RSN  7 0.3 2.1LRSN                1
 GAP=130        0.58       2.9     5.2  4.8 -0.6524E+01  0.2238E+01  0.2652E+00E
 Epicentro: BETULIA - SANTANDER                                                3
 ACTION:UPD 10-12-01 15:14 OP:pat  STATUS:               ID:20100701112052 L   I
 2010-07-01-1117-27S.COL___118                                                 6
 STAT SP IPHASW D HRMM SECON CODA AMPLIT PERI AZIMU VELO AIN AR TRES W  DIS CAZ7
 BAR2 SZ IP     C 1121 10.07                             164    -0.110   35 160 
 BAR2 SZ ES   1   1121 23.40                             164    -0.4 7   35 160 
 BRR  HZ IP     D 1121 10.46                             156    -0.110   53 298 
 BRR  HN ES   1   1121 24.56                             156     0.1 7   53 298 
 BRR  HZ I        1121 25.42        54.8 0.10                            53 298 
 BRI  SZ EP   1   1121 14.89                             137     0.4 7  107  31 
 BRI  SZ ES   1   1121 31.99                             137     0.5 7  107  31 
 GUE  SZ EP   1   1121 15.11                             135     0.0 7  112  21 
 GUE  SZ ES   1   1121 32.74                             135     0.1 7  112  21 
 OCA  SZ IP       1121 18.14                             126    -0.3 9  150 359 
 OCA  SZ ES   1   1121 38.39                             126    -0.1 7  150 359 
 OCA  SZ I        1121 39.52        27.1 0.49                           150 359 
 CHI  HZ EP   2   1121 29.98                             112     0.0 4  254 191 
 CHI  HZ I        1121 30.55         6.5 0.39                           254 191 
 CHI  HN ES   2   1121 59.12                             112     0.1 4  254 191 
 RREF HZ EP   2   1121 37.63                             107     0.2 3  317 226 
 RREF HN ES   2   1122 13.17                             107     0.9 3  317 226 
 RREF HZ I        1122 18.25         3.1 0.26                           317 226 
                                                                                
