 2017  8 1 1222 44.7 L   6.766 -73.138138.0  RSN 14 0.6 2.1LRSN                1
 GAP=114        1.17       4.1     4.0  6.2  0.4156E+01  0.4026E+01  0.3303E+01E
 Epicentro: LOS SANTOS - SANTANDER                                             3
 ACTION:UPD 17-09-04 20:15 OP:rebc STATUS:               ID:20170801122244 L   I
 OLDACT:UP  17-08-01 22:55 OP:dhb  STATUS:               ID:20170801121745     3
 OLDACT:REG 17-08-01 20:36 OP:dhb  STATUS:               ID:20170801121745     3
 2017-08-01-1218-00M.COL___383                                                 6
 STAT SP IPHASW D HRMM SECON CODA AMPLIT PERI AZIMU VELO AIN AR TRES W  DIS CAZ7
 BAR2 EZ IP     C 1223  3.11                             171   -0.2210 19.8 194 
 BAR2 EZ ES       1223 17.62                             171   -0.2410 19.8 194 
 BAR2 EZ I        1223 19.20        30.7 0.16            166           19.8 194 
 BRR  HZ IP     C 1223  5.03                             150   -0.1410 73.8 301 
 BRR  HN ES       1223 22.02                             150    0.8810 73.8 301 
 BRR  HZ I        1223 22.98        22.1 0.18            149           73.8 301 
 PAM  EZ IP     D 1223  6.14                             149   -0.1110 79.8  37 
 RUS  HZ EP       1223  7.07                             143   -0.3410 96.8 176 
 RUS  HE ES       1223 25.82                             143    0.6910 96.8 176 
 RUS  HZ I        1223 26.57        30.5 0.34            141           96.8 176 
 PTB  HZ EP       1223 10.15                             130   -0.91 9  148 260 
 PTB  HN ES       1223 30.81                             130   -0.81 9  148 260 
 PTB  HZ I        1223 32.96        12.5 0.10            129            148 260 
 SPBC HZ EP       1223 11.89                             128   -0.50 9  161 220 
 SPBC HN ES       1223 34.22                             128    0.24 9  161 220 
 SPBC HZ I        1223 36.73        24.6 0.10            126            161 220 
 YPLC HZ IP     C 1223 13.46                             126   -0.11 9  173 151 
 YPLC HN ES       1223 36.00                             126   -0.09 9  173 151 
 YPLC HZ I        1223 40.85        11.8 0.36            126            173 151 
 ZAR  HZ EP       1223 17.15                             121    0.26 8  206 293 
 ZAR  HN ES       1223 42.18                             121    0.19 8  206 293 
 ZAR  HZ I        1223 48.19        13.5 0.26            121            206 293 
 TABC EZ EP       1223 20.55                             118    0.85 8  227 211 
 TABC EZ ES   4   1223 50.05                             118    3.05 0  227 211 
 TABC EZ I        1223 52.81         9.8 0.38            117            227 211 
 NOR  HZ IP     D 1223 19.74                             117   -0.09 8  233 235 
 NOR  HN ES       1223 46.92                             117   -0.31 8  233 235 
 NOR  HZ I        1223 52.32        11.1 0.20            116            233 235 
 CHI  HZ EP       1223 21.73                             116    0.13 8  245 196 
 CHI  HN ES       1223 50.63                             116    0.24 8  245 196 
 CHI  HZ I        1223 53.72         5.3 0.28            115            245 196 
 ROSC BZ EP   3   1223 23.87                             116    1.77 2  250 212 
 ROSC BN ES   2   1223 49.76                             116   -1.51 4  250 212 
 ROSC BZ I        1224  1.05        11.9 0.30            115            250 212 
 HEL  HZ EP       1223 25.18                             113    0.66 8  272 257 
 HEL  HN ES       1223 55.85                             113    0.27 8  272 257 
 HEL  HZ I        1224  1.80         8.9 0.32            113            272 257 
 GUY2CHZ EP   3   1223 29.59                             111    1.79 2  300 235 
 GUY2CHN ES   3   1224  3.06                             111    1.65 2  300 235 
 GUY2CHZ I        1224  7.77         5.0 0.26                           300 235 
                                                                                
