 2012  1 1 1022 45.0 L   6.702 -73.160132.1  RSN  7 0.5 1.4LRSN                1
 GAP=139        0.96       8.4     6.5 10.7 -0.2562E+01  0.9549E+01  0.2048E+02E
 Epicentro: VILLANUEVA - SANTANDER                                             3
 ACTION:UP  12-02-03 08:12 OP:REBC STATUS:               ID:20120101102245 L   I
 2012-01-01-1020-00M.COL___186                                                 6
 STAT SP IPHASW D HRMM SECON CODA AMPLIT PERI AZIMU VELO SNR AR TRES W  DIS CAZ7
 BAR2 SZ EP   1   1023  3.08                             174     0.2 7   12 192 
 BAR2 SZ ES   2   1023 16.57                             174    -0.2 5   12 192 
 BAR2 SZ I        1023 19.22         6.8 0.14                            12 192 
 BRR  HZ EP   1   1023  5.07                             148     0.0 7   76 306 
 BRR  HZ I        1023  5.54        10.3 0.11                            76 306 
 BRR  HN ES   1   1023 20.98                             148     0.4 7   76 306 
 PAM  SZ EP   1   1023  6.08                             145    -0.4 7   87  36 
 PAM  SZ I        1023  6.37         3.6 0.14                            87  36 
 PAM  SN ES   2   1023 22.67                             145    -0.5 5   87  36 
 RUS  HZ EP   1   1023  7.28                             144     0.6 7   90 175 
 RUS  HZ I        1023  8.26         2.0 0.19                            90 175 
 PTB  HZ EP   1   1023  9.82                             129    -0.8 7  144 263 
 PTB  HN ES   2   1023 30.18                             129    -0.4 5  144 263 
 ZAR  HZ EP   1   1023 17.62                             119     0.7 6  207 295 
 ZAR  HN ES   2   1023 41.85                             119     0.0 4  207 295 
 ZAR  HZ I        1023 48.05         2.2 0.13                           207 295 
 NOR  SN ES   2   1023 45.25                             116    -0.6 4  227 236 
                                                                                
