 2013 12 1 1548 53.3 L   6.608 -73.306 30.1  RSN  4 0.2 1.9LRSN                1
 GAP=169        0.57       2.6     1.7  1.9 -0.6550E+00  0.9486E+00 -0.1435E+01E
 Epicentro: GALAN - SANTANDER                                                  3
 ACTION:UPD 14-01-13 10:15 OP:ep   STATUS:               ID:20131201154853 L   I
 OLDACT:REG 13-12-01 14:41 OP:cam  STATUS:               ID:20131201154000     3
 2013-12-01-1540-00M.COL___282                                                 6
 STAT SP IPHASW D HRMM SECON CODA AMPLIT PERI AZIMU VELO AIN AR TRES W  DIS CAZ7
 BAR2 SZ EP       1548 58.98                             154    0.1110 13.8  97 
 BAR2 SZ ES       1549  3.23                             154    0.0110 13.8  97 
 BAR2 SZ I        1549  4.79        81.5 0.28            156           13.8  97 
 BRR  HZ EP       1549  4.84                             104   -0.4110 71.1 321 
 BRR  HN ES       1549 14.78                             104    0.2010 71.1 321 
 BRR  HZ I        1549 15.24        69.4 0.12             61           71.1 321 
 PAM  SZ EP       1549 10.22                              61    0.1210  105  40 
 PAM  SN ES       1549 23.20                              61   -0.0210  105  40 
 PAM  SZ I        1549 23.63        36.5 0.38             61            105  40 
 PTB  HZ EP       1549 12.12                              61   -0.2210  127 267 
 PTB  HN ES       1549 27.41                              61    0.2110  127 267 
 PTB  HZ I        1549 28.90        22.2 0.36             61            127 267 
                                                                                
