 2015  9 1 1124 41.1 L   6.826 -73.098148.6  RSN  4 0.3 1.7LRSN                1
 GAP=226        0.67       6.3     6.7  6.5  0.2357E+02 -0.8771E+01 -0.2243E+02E
 Epicentro: LOS SANTOS - SANTANDER                                             3
 ACTION:UPD 15-10-28 16:23 OP:cam  STATUS:               ID:20150901112441 L   I
 OLDACT:REG 15-09-01 20:31 OP:ak   STATUS:               ID:20150901111748     3
 2015-09-01-1117-48M.COL___361                                                 6
 STAT SP IPHASW D HRMM SECON CODA AMPLIT PERI AZIMU VELO AIN AR TRES W  DIS CAZ7
 BAR2 EZ EP       1125  1.59                             169    0.4210 27.5 200 
 BAR2 EZ ES       1125 16.43                             169   -0.3910 27.5 200 
 BAR2 EZ I        1125 19.39         7.1 0.26            168           27.5 200 
 BRR  HZ EP       1125  2.81                             152    0.0510 74.6 295 
 BRR  HN ES       1125 19.85                             152    0.2010 74.6 295 
 ZAR  HZ EP   2   1125 13.69                             122   -0.45 4  208 291 
 ZAR  HN ES       1125 39.89                             122   -0.01 8  208 291 
 ZAR  HZ I        1125 44.80         2.8 0.26            122            208 291 
 SML  HZ EP       1125 17.55                             118   -0.31 8  243 334 
 SML  HE ES       1125 46.55                             118    0.03 8  243 334 
 SML  HZ I        1125 49.92         5.9 0.05            119            243 334 
                                                                                
