 2012  2 1 1245 10.7 L   6.807 -73.157145.9  RSN  6 0.6 1.4LRSN                1
 GAP=183        1.17       7.6    10.2 10.6  0.2641E+02  0.1161E+02  0.9505E+01E
 ACTION:UP  12-03-07 16:26 OP:epov STATUS:               ID:20120201124510 L   I
 2012-02-01-1240-00M.COL___187                                                 6
 STAT SP IPHASW D HRMM SECON CODA AMPLIT PERI AZIMU VELO SNR AR TRES W  DIS CAZ7
 BAR2 SZ EP   1   1245 30.32                             170   -0.04 8 23.9 187 
 BAR2 SZ ES   1   1245 44.78                             170   -0.92 8 23.9 187 
 BAR2 SZ I        1245 48.24         7.8 0.28                          23.9 187 
 GIR2 SZ EP   1   1245 30.30                             168   -0.07 8 30.3 352 
 BRR  HZ EP   1   1245 32.08                             153    0.29 8 69.7 298 
 BRR  HN ES   1   1245 49.45                             153    1.22 8 69.7 298 
 RUS  HZ EP   1   1245 34.32                             144   -0.21 7  101 175 
 RUS  HN ES       1245 53.28                             144    0.1610  101 175 
 RUS  HZ I        1245 55.75         2.6 0.39                           101 175 
 PTB  HZ EP   1   1245 37.08                             132   -0.51 7  147 258 
 PTB  HN ES   1   1245 57.77                             132   -0.78 7  147 258 
 CHI  HZ EP   1   1245 48.48                             117    0.03 6  249 195 
 CHI  HN ES   1   1246 18.77                             117    0.87 6  249 195 
 CHI  HZ I        1246 27.57         2.1 0.23                           249 195 
                                                                                
