 2013  7 1 1834 52.9 L   6.764 -73.167145.9  RSN 10 0.4 1.6LRSN                1
 GAP=179        0.97       4.3     5.1  7.1  0.3230E+01  0.7114E+01  0.1017E+01E
 Epicentro: LOS SANTOS - SANTANDER                                             3
 ACTION:UPD 13-08-12 10:34 OP:ep   STATUS:               ID:20130701183452 L   I
 OLDACT:REG 13-07-01 14:35 OP:jn   STATUS:               ID:20130701182959     3
 2013-07-01-1829-59M.COL___267                                                 6
 STAT SP IPHASW D HRMM SECON CODA AMPLIT PERI AZIMU VELO AIN AR TRES W  DIS CAZ7
 BAR2 SZ EP       1835 12.56                             172    0.1110 19.0 185 
 BAR2 SZ ES       1835 28.05                             172    0.3410 19.0 185 
 BAR2 SZ I        1835 28.46        11.3 0.28            171           19.0 185 
 GIR2 SZ EP       1835 12.63                             166   -0.0510 35.0 355 
 BRR  HZ EP       1835 14.22                             153    0.1710 71.2 302 
 BRR  HN ES       1835 31.07                             153    0.5110 71.2 302 
 BRR  HZ I        1835 34.47        10.6 0.38            151           71.2 302 
 RUS  HZ EP       1835 16.53                             145    0.1610 96.8 174 
 RUS  HN ES   1   1835 33.91                             145   -0.79 7 96.8 174 
 RUS  HZ I        1835 36.80         2.3 0.54            148           96.8 174 
 PTB  HZ EP       1835 19.24                             133   -0.34 9  145 260 
 PTB  HN ES       1835 39.69                             133   -0.72 9  145 260 
 PTB  HZ I        1835 45.87         5.6 0.18            133            145 260 
 ZAR  HZ EP   1   1835 25.92                             123    0.65 6  203 293 
 ZAR  HE ES   1   1835 50.35                             123   -0.19 6  203 293 
 ZAR  HZ I        1835 55.68         4.0 0.56            123            203 293 
 NOR  HE ES   1   1835 55.68                             119   -0.00 6  230 235 
 CHI  HN ES   1   1835 59.13                             118    0.00 6  244 195 
 SML  HN ES   1   1835 57.86                             117   -0.75 6  246 336 
 GUY2CHN ES   1   1836 10.39                             113    0.73 5  297 235 
 GUY2CHZ I        1836 20.76         2.1 0.30                           297 235 
                                                                                
