 2014  6 1 1904 39.5 L   6.808 -73.142146.2  RSN 20 0.5 2.7LRSN                1
 GAP= 71        1.10       2.8     2.9  5.2 -0.3143E+00  0.4077E+01  0.2172E+01E
 Epicentro: LOS SANTOS - SANTANDER                                             3
 ACTION:UPD 14-07-01 22:49 OP:nd   STATUS:               ID:20140601190439 L   I
 OLDACT:UP  14-06-01 22:05 OP:cam  STATUS:               ID:20140601190000     3
 OLDACT:UP  14-06-01 22:04 OP:cam  STATUS:               ID:20140601190000     3
 OLDACT:REG 14-06-01 20:53 OP:cam  STATUS:               ID:20140601190000     3
 2014-06-01-1900-00M.COL___276                                                 6
 STAT SP IPHASW D HRMM SECON CODA AMPLIT PERI AZIMU VELO AIN AR TRES W  DIS CAZ7
 BAR2 SZ EP       19 4 59.26                             170    0.0210 24.3 191 
 BAR2 SZ ES       19 5 14.44                             170   -0.1710 24.3 191 
 BAR2 SZ I        19 5 15.92       135.3 0.36            167           24.3 191 
 BRR  HZ IP     C 19 5  1.03                             153    0.3010 71.1 298 
 BRR  HE ES       19 5 18.07                             153    0.8110 71.1 298 
 BRR  HZ I        19 5 20.34        62.7 0.36            151           71.1 298 
 PAM  SZ IP     D 19 5  2.20                             151    0.4610 76.4  40 
 PAM  SN ES       19 5 19.36                             151    0.3010 76.4  40 
 PAM  SZ I        19 5 21.40        84.7 0.50            156           76.4  40 
 RUS  HZ EP       19 5  3.29                             144   -0.1010  101 176 
 RUS  HN ES       19 5 21.88                             144   -0.1210  101 176 
 RUS  HZ I        19 5 22.78        35.5 0.22            143            101 176 
 PTB  HZ EP       19 5  5.97                             132   -0.62 9  148 259 
 PTB  HN ES       19 5 26.93                             132   -0.77 9  148 259 
 PTB  HZ I        19 5 29.19        39.6 0.42            131            148 259 
 TAM  HZ EP     D 19 5  7.63                             131    0.40 9  155 105 
 TAM  HE ES       19 5 27.89                             131   -0.95 9  155 105 
 TAM  HZ I        19 5 28.63        19.3 0.42            133            155 105 
 SPBC HZ EP       19 5  8.32                             129    0.16 9  164 219 
 SPBC HN ES       19 5 30.55                             129    0.06 9  164 219 
 SPBC HZ I        19 5 34.95        65.9 0.24            128            164 219 
 ZAR  HZ EP       19 5 11.86                             122   -0.15 9  204 292 
 ZAR  HN ES       19 5 37.03                             122   -0.32 9  204 292 
 ZAR  HZ I        19 5 42.24        47.6 0.26            122            204 292 
 CTAB SZ EP   4   19 5 17.64                             119    2.22 0  231 211 
 CTAB SZ ES   4   19 5 43.09                             119   -0.32 0  231 211 
 CTAB SZ I        19 5 51.44        40.6 0.48            119            231 211 
 NOR  HZ EP       19 5 14.83                             118   -0.55 8  236 234 
 NOR  HE ES       19 5 42.85                             118   -0.50 8  236 234 
 NOR  HZ I        19 5 52.68        25.4 0.44            118            236 234 
 SML  HZ EP       19 5 15.70                             118   -0.41 8  243 335 
 SML  HN ES       19 5 44.64                             118   -0.00 8  243 335 
 SML  HZ I        19 5 46.29        65.6 0.28            119            243 335 
 CHI  HZ EP       19 5 17.51                             117    0.14 8  250 195 
 CHI  HN ES       19 5 46.88                             117    0.00 8  250 195 
 CHI  HZ I        19 5 50.09        30.6 0.62            117            250 195 
 ROSC BZ EP   4   19 5 19.59                             117    1.80 0  254 211 
 ROSC BE ES       19 5 47.70                             117    0.07 8  254 211 
 ROSC BZ I        19 5 53.55        60.2 0.40            116            254 211 
 HEL  HZ EP   1   19 5 20.14                             115    0.30 6  273 256 
 HEL  HN ES       19 5 51.89                             115    0.61 8  273 256 
 HEL  HZ I        19 5 57.32        17.7 0.28            115            273 256 
 URE  HZ EP   4   19 5 19.23                             114   -1.40 0  284 292 
 GUY2CHZ EP       19 5 24.21                             112    0.95 7  302 235 
 GUY2CHE ES       19 5 58.23                             112    0.86 7  302 235 
 GUY2CHZ I        19 6  5.38        23.9 0.34                           302 235 
 VIL  SZ EP   2   19 5 23.90                             112    0.81 4  304 192 
 VIL  SE ES       19 5 57.55                             112    0.50 7  304 192 
 VIL  SZ I        19 6  6.94        45.1 0.38            112            304 192 
 RREF HZ EP   4   19 5 26.95                             111    1.15 0  323 229 
 RREF HN ES   4   19 6  4.53                             111    2.64 0  323 229 
 RREF HZ I        19 6 11.16        31.3 0.42            111            323 229 
 DBB  SZ EP   4   19 5 26.05                             110   -1.02 0  340 274 
 DBB  SZ ES       19 6  3.35                             110   -0.80 7  340 274 
 TOL  SZ EP   4   19 5 28.44                             109    0.52 0  344 225 
 SDV  BZ EP   4   19 5 28.68                             108   -0.81 0  359  50 
 PRA  HZ EP       19 5 32.94                             107   -0.25 6  393 210 
 PRA  HN ES       19 6 14.62                             107   -0.42 6  393 210 
 PRA  HZ I        19 6 21.56        23.9 0.30            107            393 210 
 ORTC HZ EP   4   19 5 33.53                             106   -0.06 0  396 216 
 SJC  HZ EP   4   19 5 33.45                             106   -1.60 0  409 327 
 SJC  HN ES   4   19 6 14.60                             106   -3.75 0  409 327 
 SJC  HZ I        19 6 22.18         9.8 0.40            106            409 327 
                                                                                
