 2010  2 1 1651 55.1 L   6.781 -73.002150.8  RSN 10 0.4 2.4LRSN                1
 GAP=137        0.68       4.5     8.1  6.4 -0.8457E+01  0.1822E+02 -0.1237E+01E
 Epicentro: LOS SANTOS - SANTANDER                                             3
 ACTION:UP  10-08-24 09:47 OP:vdl  STATUS:               ID:20100201165154 L   I
 2010-02-01-1650-32S.COL___094                                                 6
 STAT SP IPHASW D HRMM SECON CODA AMPLIT PERI AZIMU VELO SNR AR TRES W  DIS CAZ7
 BAR2 SZ IP       1652 15.38                             169    -0.110   29 224 
 BAR2 SZ ES   1   1652 31.05                             169    -0.3 7   29 224 
 GIR2 SZ EP   2   1652 15.53                             165    -0.1 5   39 327 
 GIR2 SZ ES   2   1652 31.65                             165     0.0 5   39 327 
 RUS  BZ EP   2   1652 19.26                             145     0.0 5   99 185 
 RUS  BN ES   1   1652 38.16                             145     0.1 7   99 185 
 RUS  BZ I        1652 39.31        19.0 0.28                            99 185 
 OCA  SZ ES   2   1652 47.79                             130     0.8 5  165 348 
 CHI  HZ EP   2   1652 33.47                             118     0.1 4  251 199 
 CHI  HN ES   2   1653  3.71                             118     0.5 4  251 199 
 CHI  HZ I        1653  8.70        11.6 0.37                           251 199 
 HEL  HZ EP   2   1652 37.56                             114     0.3 4  287 257 
 HEL  HZ I        1653 15.96        12.6 0.40                           287 257 
 RREF BN ES   1   1653 20.45                             111     0.6 5  333 231 
 RREF BZ I        1653 27.01        17.6 0.47                           333 231 
 SDV  BZ EP   2   1652 44.59                             110     0.5 3  350  48 
 DBB  SZ EP   1   1652 43.70                             109    -0.9 5  355 274 
 PRA  HZ EP   2   1652 48.84                             107    -0.7 3  398 212 
 PRA  HZ I        1653 37.20        13.8 0.66                           398 212 
                                                                                
