 2014 11 1 1335 34.3 L   6.788 -73.133146.0  RSN 13 0.4 2.1LRSN                1
 GAP=139        0.85       3.4     3.7  4.9 -0.2639E+01  0.4152E+01  0.5113E+01E
 Epicentro: LOS SANTOS - SANTANDER                                             3
 ACTION:UPD 14-12-19 15:38 OP:nd   STATUS:               ID:20141101133534 L   I
 OLDACT:REG 14-11-01 20:29 OP:spq  STATUS:               ID:20141101132748     3
 2014-11-01-1327-48M.COL___268                                                 6
 STAT SP IPHASW D HRMM SECON CODA AMPLIT PERI AZIMU VELO AIN AR TRES W  DIS CAZ7
 BAR2 SZ EP       1335 53.78                             171   -0.1610 22.4 194 
 BAR2 SZ ES   1   1336  8.88                             171   -0.37 7 22.4 194 
 BAR2 SZ I        1336 10.49        18.8 0.24            166           22.4 194 
 BRR  HZ EP       1335 55.68                             152    0.1010 73.0 299 
 BRR  HN ES       1336 12.83                             152    0.6610 73.0 299 
 BRR  HZ I        1336 14.37        20.3 0.30            150           73.0 299 
 PAM  SZ EP     C 1335 56.68                             151    0.1410 77.5  38 
 PAM  SE ES       1336 13.88                             151   -0.0210 77.5  38 
 PAM  SZ I        1336 15.95        20.5 0.58            158           77.5  38 
 RUS  HZ EP       1335 57.66                             144   -0.3110 99.2 177 
 RUS  HE ES       1336 16.64                             144    0.2010 99.2 177 
 RUS  HZ I        1336 19.04        10.8 0.46            144           99.2 177 
 PTB  HZ EP       1336  0.52                             132   -0.87 9  149 259 
 PTB  HN ES       1336 21.97                             132   -0.54 9  149 259 
 PTB  HZ I        1336 29.48        15.9 0.31            131            149 259 
 SPBC HZ EP       1336  2.82                             129    0.02 9  163 220 
 SPBC HN ES       1336 25.19                             129    0.15 9  163 220 
 SPBC HZ I        1336 29.82        19.8 0.20            128            163 220 
 CHI  HZ EP       1336 11.90                             117   -0.01 8  248 196 
 CHI  HN ES   1   1336 41.41                             117    0.15 6  248 196 
 CHI  HZ I        1336 45.25         4.9 0.38            118            248 196 
 HEL  HZ EP   1   1336 14.87                             115    0.23 6  273 256 
 HEL  HN ES   1   1336 46.63                             115    0.53 6  273 256 
 HEL  HZ I        1336 52.23         7.2 0.30            115            273 256 
 GUY2CHZ EP       1336 18.74                             112    0.78 7  302 235 
 GUY2CHN ES   4   1336 54.65                             112    2.63 0  302 235 
 GUY2CHZ I        1337  0.44         7.3 0.74                           302 235 
 CBOC HZ EP   1   1336 21.40                             110    0.07 5  335 252 
 CBOC HE ES   1   1336 57.55                             110   -0.46 5  335 252 
 CBOC HZ I        1337  4.48         2.8 0.35            111            335 252 
 TOL  SZ EP   4   1336 24.02                             109    1.45 0  344 225 
 TOL  SN ES   4   1337  2.42                             109    2.20 0  344 225 
 TOL  SZ I        1337  7.78        11.3 0.46            110            344 225 
 PRA  HZ EP       1336 27.89                             107    0.11 6  392 210 
 PRA  HN ES       1337  9.72                             107    0.23 6  392 210 
 PRA  HZ I        1337 17.95         4.2 0.49            107            392 210 
 ORTC HZ EP   1   1336 27.89                             106   -0.31 4  395 216 
 ORTC HN ES   1   1337 10.43                             106    0.19 4  395 216 
 ORTC HZ I        1337 18.56         3.0 0.18            107            395 216 
 SJC  HZ EP   4   1336 27.55                             106   -2.53 0  411 327 
 SJC  HN ES   4   1337  7.83                             106   -5.76 0  411 327 
                                                                                
