 2013  9 1 1624 19.8 L   6.822 -73.044143.9  RSN  6 0.5 1.6LRSN                1
 GAP=149        1.29       5.6     7.2  8.6  0.9841E+01  0.1319E+02 -0.1038E+02E
 Epicentro: LOS SANTOS - SANTANDER                                             3
 ACTION:UPD 13-10-22 09:19 OP:ep   STATUS:               ID:20130901162419 L   I
 OLDACT:REG 13-09-01 15:51 OP:nd   STATUS:               ID:20130901161959     3
 2013-09-01-1619-59M.COL___269                                                 6
 STAT SP IPHASW D HRMM SECON CODA AMPLIT PERI AZIMU VELO AIN AR TRES W  DIS CAZ7
 BAR2 SZ EP       1624 39.35                             168   -0.0210 29.6 211 
 BAR2 SZ ES       1624 54.65                             168    0.0310 29.6 211 
 BAR2 SZ I        1624 56.12         6.7 0.28            168           29.6 211 
 PAM  SZ EP       1624 42.31                             153    0.9710 68.8  34 
 PAM  SN ES       1624 57.99                             153   -0.1310 68.8  34 
 PAM  SZ I        1625  1.64         6.5 0.62            155           68.8  34 
 BRR  HZ IP     D 1624 41.33                             149    0.0210 80.3 293 
 BRR  HN ES       1624 58.27                             149    0.2010 80.3 293 
 BRR  HZ I        1625  3.01         6.7 0.34            148           80.3 293 
 RUS  HZ EP       1624 43.54                             143   -0.0110  103 182 
 RUS  HN ES       1625  1.48                             143   -0.5810  103 182 
 RUS  HZ I        1625  3.33         2.2 0.34            147            103 182 
 ZAR  HZ EP       1624 52.73                             121   -0.42 8  214 290 
 ZAR  HN ES       1625 19.97                             121    0.83 8  214 290 
 ZAR  HZ I        1625 24.92         3.2 0.20            122            214 290 
 SML  HZ EP       1624 56.58                             117   -0.07 8  247 333 
 SML  HE ES       1625 24.20                             117   -1.17 8  247 333 
 SML  HZ I        1625 29.97         8.2 0.10            118            247 333 
                                                                                
