 2013  5 1 1156 27.5 L   6.765 -73.153141.7  RSN  7 0.4 1.6LRSN                1
 GAP=137        0.84       4.2     4.5  6.0 -0.3399E+01  0.3936E+01  0.3291E+01E
 Epicentro: LOS SANTOS - SANTANDER                                             3
 ACTION:UPD 13-06-20 09:47 OP:ep   STATUS:               ID:20130501115627 L   I
 2013-05-01-1150-00M.COL___253                                                 6
 STAT SP IPHASW D HRMM SECON CODA AMPLIT PERI AZIMU VELO AIN AR TRES W  DIS CAZ7
 BAR2 SZ EP       1156 46.68                             172    0.0810 19.4 190 
 BAR2 SZ ES       1157  1.31                             172   -0.1610 19.4 190 
 BAR2 SZ I        1157  3.09         9.0 0.24            158           19.4 190 
 BRR  HZ EP       1156 48.42                             151    0.1110 72.4 301 
 BRR  HN ES       1157  5.22                             151    0.7010 72.4 301 
 BRR  HZ I        1157  9.63        11.3 0.60            137           72.4 301 
 PAM  SZ EP       1156 49.50                             149   -0.0310 80.9  38 
 PAM  SE ES       1157  6.26                             149   -0.4310 80.9  38 
 PAM  SZ I        1157  7.07         5.2 0.20            141           80.9  38 
 RUS  HZ EP       1156 50.71                             144    0.1010 96.8 175 
 RUS  HN ES       1157  8.76                             144    0.1510 96.8 175 
 RUS  HZ I        1157 10.96         2.6 0.29            125           96.8 175 
 PTB  HZ EP   1   1156 53.55                             131   -0.49 7  146 260 
 PTB  HN ES   1   1157 14.13                             131   -0.58 7  146 260 
 PTB  HZ I        1157 17.47         3.9 0.17            115            146 260 
 NOR  HE ES   1   1157 29.87                             118   -0.30 6  232 235 
 NOR  HZ I        1157 37.20         3.1 0.38            105            232 235 
 PRA  HZ EP   1   1157 21.07                             106    0.59 4  388 210 
 PRA  HZ I        1158  9.39         2.7 0.28             99            388 210 
                                                                                
