 2013  3 1 1946  8.1 L   6.778 -73.176146.0  RSN  8 0.5 2.0LRSN                1
 GAP=134        0.82       3.7     5.1  8.1 -0.9919E-01  0.1039E+02  0.3933E+01E
 Epicentro: LOS SANTOS - SANTANDER                                             3
 ACTION:UPD 13-04-09 13:59 OP:ep   STATUS:               ID:20130301194608 L   I
 2013-03-01-1940-00M.COL___228                                                 6
 STAT SP IPHASW D HRMM SECON CODA AMPLIT PERI AZIMU VELO AIN AR TRES W  DIS CAZ7
 BAR2 SZ EP   1   1946 27.87                             172    0.20 7 20.5 182 
 BAR2 SZ ES   1   1946 42.90                             172   -0.07 7 20.5 182 
 BAR2 SZ I        1946 44.27        66.0 0.20            168           20.5 182 
 BRR  HZ EP   1   1946 29.93                             153    0.78 7 69.5 302 
 BRR  HN ES   4   1946 46.84                             153    1.25 0 69.5 302 
 BRR  HZ I        1946 50.58        21.4 0.36            149           69.5 302 
 PAM  SZ EP   1   1946 30.76                             150    0.21 7 81.4  40 
 PAM  SN ES   1   1946 47.85                             150   -0.24 7 81.4  40 
 PAM  SZ I        1946 50.21         9.6 0.58            155           81.4  40 
 RUS  HZ EP   1   1946 31.80                             144    0.11 7 98.4 174 
 RUS  HN ES   1   1946 50.22                             144    0.11 7 98.4 174 
 RUS  HZ I        1946 51.67        11.5 0.30            146           98.4 174 
 PTB  HZ EP   2   1946 33.09                             133   -1.63 5  144 260 
 PTB  HN ES   1   1946 55.46                             133   -0.04 7  144 260 
 PTB  HZ I        1946 59.93        12.9 0.18            131            144 260 
 OCA  HN ES   1   1946 58.43                             129   -0.41 7  162 354 
 ZAR  HE ES   1   1947  5.73                             123    0.28 6  202 293 
 ZAR  HZ I        1947 15.07         9.5 0.61            122            202 293 
 CHI  HZ EP   1   1946 45.22                             117   -0.21 6  245 195 
 CHI  HN ES   1   1947 14.33                             117   -0.24 6  245 195 
 CHI  HZ I        1947 22.27         6.4 0.36            119            245 195 
                                                                                
