 2012  8 1 1421 53.3 L   6.481 -73.617109.3  RSN  4 0.1 1.4LRSN                1
 GAP=136        0.39       3.5     2.3  4.8  0.2239E+01  0.2127E+01  0.7352E+01E
 Epicentro: SANTA HELENA DEL OPON - SANTANDER                                  3
 ACTION:UPD 12-09-10 11:53 OP:ep   STATUS:               ID:20120801142153 L   I
 2012-08-01-1420-00M.COL___215                                                 6
 STAT SP IPHASW D HRMM SECON CODA AMPLIT PERI AZIMU VELO AIN AR TRES W  DIS CAZ7
 BAR2 SZ IP       1422  9.58                             154   -0.0510 49.6  76 
 BAR2 SZ I        1422  9.80        19.5 0.34                          49.6  76 
 BAR2 SZ ES   1   1422 22.26                             154   -0.11 7 49.6  76 
 BRR  HZ IP     C 1422 10.41                             145   -0.1410 70.0 351 
 BRR  HZ I        1422 17.81        10.8 0.32                          70.0 351 
 BRR  HE ES   1   1422 24.24                             145    0.22 7 70.0 351 
 RUS  HZ EP       1422 12.65                             139    0.0510 87.9 138 
 RUS  HN ES   3   1422 27.93                             139    0.28 2 87.9 138 
 RUS  HZ I        1422 29.49         2.1 0.38                          87.9 138 
 PTB  HZ EP       1422 12.51                             136    0.1510 93.0 274 
 PTB  HN ES   1   1422 27.07                             136   -0.17 7 93.0 274 
 PTB  HZ I        1422 28.80         5.1 0.20                          93.0 274 
                                                                                
