 2012  4 1 1454 59.6 L   6.809 -73.319125.7  RSN  5 0.3 1.7LRSN                1
 GAP=102        0.62       5.4     4.3  7.6 -0.3895E+01  0.1059E+02  0.2661E+01E
 Epicentro: ZAPATOCA - SANTANDER                                               3
 ACTION:UPD 12-07-05 11:49 OP:tino STATUS:               ID:20120401145459 L   I
 2012-04-01-1450-00M.COL___196                                                 6
 STAT SP IPHASW D HRMM SECON CODA AMPLIT PERI AZIMU VELO AIN AR TRES W  DIS CAZ7
 BAR2 SZ EP   1   1455 17.14                             167     0.2 7   28 148 
 BAR2 SZ I        1455 17.37        16.2 0.14                            28 148 
 BAR2 SZ ES   1   1455 30.06                             167    -0.4 7   28 148 
 BRR  HZ EP   1   1455 17.72                             155     0.1 7   55 307 
 BRR  HE ES   1   1455 31.81                             155     0.1 7   55 307 
 BRR  HZ I        1455 32.20        16.9 0.39                            55 307 
 PAM  SN ES   1   1455 37.07                             142     0.1 7   90  49 
 RUS  HN ES   2   1455 39.46                             138     0.4 5  105 166 
 PTB  HZ EP   1   1455 22.83                             131    -0.4 7  129 257 
 PTB  HN ES   1   1455 41.90                             131     0.2 7  129 257 
 PTB  HZ I        1455 42.67         5.2 0.54                           129 257 
                                                                                
