 2012  7 1 1128 16.1 L   6.774 -73.136139.9  RSN  9 0.4 2.1LRSN                1
 GAP=139        0.93       5.3     4.6  8.1 -0.1422E+01  0.1045E+02  0.1009E+02E
 Epicentro: LOS SANTOS - SANTANDER                                             3
 ACTION:UPD 12-08-14 11:41 OP:ep   STATUS:               ID:20120701112815 L   I
 2012-07-01-1120-00M.COL___201                                                 6
 STAT SP IPHASW D HRMM SECON CODA AMPLIT PERI AZIMU VELO AIN AR TRES W  DIS CAZ7
 BAR2 SZ EP       1128 35.00                             171     0.110   21 194 
 BAR2 SZ ES   3   1128 49.52                             171    -0.1 2   21 194 
 BAR2 SZ I        1128 52.14        23.9 0.22            170             21 194 
 BRR  HZ EP       1128 37.06                             151     0.310   74 300 
 BRR  HZ I        1128 39.24        40.1 0.10            150             74 300 
 BRR  HN ES   1   1128 53.67                             151     0.8 7   74 300 
 PAM  SZ EP       1128 37.81                             149     0.110   79  38 
 PAM  SN ES   1   1128 54.32                             149    -0.3 7   79  38 
 PAM  SZ I        1128 57.07        25.8 0.54            154             79  38 
 RUS  HZ EP       1128 38.99                             143     0.010   98 177 
 RUS  HN ES   2   1128 56.72                             143    -0.2 5   98 177 
 RUS  HZ I        1128 58.52        16.1 0.34            147             98 177 
 PTB  HZ EP       1128 42.08                             130    -0.5 9  148 260 
 PTB  HN ES   1   1129  2.68                             130    -0.6 7  148 260 
 PTB  HZ I        1129  6.20        11.7 0.50            131            148 260 
 OCA  HZ EP   2   1128 43.82                             128    -0.4 5  163 353 
 OCA  HN ES   2   1129  5.28                             128    -0.9 5  163 353 
 ZAR  HZ EP       1128 48.51                             121     0.2 8  206 293 
 ZAR  HE ES   1   1129 13.61                             121     0.1 6  206 293 
 ZAR  HZ I        1129 19.07        21.6 0.56            122            206 293 
 NOR  SZ EP       1128 51.76                             117     0.4 8  234 235 
 HEL  HZ EP   1   1128 56.24                             113     0.2 6  272 256 
 HEL  HN ES   1   1129 26.88                             113    -0.3 6  272 256 
 HEL  HZ I        1129 34.88         7.7 0.27            115            272 256 
