 2015  2 1 1102 39.9 L   6.842 -73.169139.7  RSN  7 0.4 1.7LRSN                1
 GAP=132        1.11       3.8     4.9  7.8 -0.6278E+00  0.1328E+02 -0.8514E+01E
 Epicentro: ZAPATOCA - SANTANDER                                               3
 ACTION:UPD 15-04-30 21:20 OP:nd   STATUS:               ID:20150201110239 L   I
 OLDACT:REG 15-02-01 20:16 OP:cam  STATUS:               ID:20150201105819     3
 2015-02-01-1058-19M.COL___261                                                 6
 STAT SP IPHASW D HRMM SECON CODA AMPLIT PERI AZIMU VELO AIN AR TRES W  DIS CAZ7
 BAR2 EZ EP       11 2 58.97                             168    0.0710 27.6 183 
 BAR2 EZ ES       11 3 13.27                             168   -0.4610 27.6 183 
 BAR2 EZ I        11 3 15.33         6.4 0.18            170           27.6 183 
 PAM  SZ EP       11 3  1.78                             150    0.4110 75.6  43 
 PAM  SN ES       11 3 18.62                             150    0.5010 75.6  43 
 PAM  SZ I        11 3 20.45        21.7 0.52            154           75.6  43 
 RUS  HZ EP       11 3  3.58                             141    0.1510  105 175 
 RUS  HN ES       11 3 21.77                             141   -0.0110  105 175 
 RUS  HZ I        11 3 23.47         4.2 0.28            146            105 175 
 PTB  HZ EP       11 3  5.58                             131   -0.66 9  146 257 
 PTB  HN ES       11 3 26.65                             131   -0.13 9  146 257 
 PTB  HZ I        11 3 32.02         4.5 0.34            132            146 257 
 OCA  HZ EP       11 3  6.99                             129   -0.29 9  155 354 
 OCA  HN ES       11 3 28.18                             129   -0.46 9  155 354 
 OCA  HZ I        11 3 32.86         6.7 0.16            131            155 354 
 ZAR  HZ EP       11 3 12.27                             122    0.74 9  200 291 
 ZAR  HN ES       11 3 36.96                             122    0.76 9  200 291 
 ZAR  HZ I        11 3 43.37         5.3 0.16            123            200 291 
 SML  HZ EP       11 3 15.08                             117   -0.54 8  238 335 
 SML  HN ES       11 3 43.32                             117   -0.15 8  238 335 
 SML  HZ I        11 3 46.13         8.6 0.10            119            238 335 
                                                                                
