 2016  5 1 1842 58.5 L   6.807 -73.185141.5  RSN  4 0.2 1.3LRSN                1
 GAP=144        0.52       3.2     3.2  4.7 -0.3315E+01  0.2172E+01 -0.7432E+00E
 Epicentro: ZAPATOCA - SANTANDER                                               3
 ACTION:UPD 16-08-18 17:41 OP:cam  STATUS:               ID:20160501184258 L   I
 OLDACT:REG 16-05-01 22:06 OP:ak   STATUS:               ID:20160501183745     3
 2016-05-01-1837-45M.COL___301                                                 6
 STAT SP IPHASW D HRMM SECON CODA AMPLIT PERI AZIMU VELO AIN AR TRES W  DIS CAZ7
 BAR2 EZ EP       1843 17.30                             170   -0.2910 23.7 179 
 BAR2 EZ ES       1843 32.43                             170   -0.0710 23.7 179 
 BAR2 EZ I        1843 34.33         6.8 0.18            171           23.7 179 
 PAM  EZ EP       1843 20.60                             149    0.2410 79.6  42 
 PAM  EN ES       1843 37.45                             149    0.0110 79.6  42 
 PAM  EZ I        1843 39.79         6.1 0.54            152           79.6  42 
 RUS  HZ EP       1843 21.69                             143   -0.1910  102 174 
 RUS  HN ES       1843 40.37                             143    0.2210  102 174 
 RUS  HZ I        1843 41.22         1.4 0.32            147            102 174 
 PTB  HZ EP   2   1843 25.00                             132    0.29 5  144 258 
 PTB  HN ES       1843 45.20                             132    0.02 9  144 258 
 PTB  HZ I        1843 50.98         2.0 0.19            132            144 258 
                                                                                
