 2016 11 1 1826 45.7 L   6.780 -73.119142.6  RSN  7 0.3 1.6LRSN                1
 GAP=141        0.77       3.2     3.3  6.0 -0.1380E+01  0.5627E+01  0.5914E+00E
 Epicentro: LOS SANTOS - SANTANDER                                             3
 ACTION:UPD 17-10-26 21:03 OP:lp   STATUS:               ID:20161101182645 L   I
 OLDACT:UP  16-11-01 22:59 OP:lv   STATUS:               ID:20161101181746d    3
 2016-11-01-1818-00M.COL___331                                                 6
 STAT SP IPHASW D HRMM SECON CODA AMPLIT PERI AZIMU VELO AIN AR TRES W  DIS CAZ7
 BRR  HZ EP       1827  6.71                             151   -0.0310 74.8 299 
 BRR  HN ES       1827 23.45                             151    0.3110 74.8 299 
 PAM  EZ EP       1827  7.59                             150   -0.0110 77.3  37 
 PAM  EN ES       1827 24.63                             150   -0.0310 77.3  37 
 PAM  EZ I        1827 27.04         7.7 0.27            153           77.3  37 
 RUS  HZ EP       1827  9.13                             144    0.1410 98.2 178 
 RUS  HN ES       1827 27.33                             144    0.1910 98.2 178 
 RUS  HZ I        1827 28.11         3.4 0.18            146           98.2 178 
 PTB  HZ EP       1827 12.36                             131   -0.30 9  150 260 
 PTB  HE ES       1827 33.05                             131   -0.62 9  150 260 
 PTB  HZ I        1827 35.02         5.6 0.28            132            150 260 
 SPBC HN ES       1827 35.71                             128   -0.34 9  163 220 
 SPBC HZ I        1827 41.94         4.9 0.22            130            163 220 
 ZAR  HZ EP       1827 18.31                             121   -0.03 8  208 292 
 ZAR  HN ES       1827 44.06                             121    0.29 8  208 292 
 ZAR  HZ I        1827 49.95         6.1 0.20            122            208 292 
 GUY2CHE ES       1828  3.96                             112    0.64 7  302 235 
 GUY2CHZ I        1828 12.45         1.5 0.36                           302 235 
                                                                                
