 2017  1 1 1120 44.0 L   6.616 -73.545104.6  RSN  5 0.4 1.3LRSN                1
 GAP=118        1.10       6.2     5.5  9.4  0.1637E+02  0.2330E+02  0.3847E+01E
 Epicentro: EL CARMEN - SANTANDER                                              3
 ACTION:UPD 17-05-22 15:54 OP:jn   STATUS:               ID:20170101112044 L   I
 OLDACT:UP  17-04-19 19:00 OP:nlst STATUS:               ID:20170101112044 L   3
 OLDACT:REG 17-01-01 20:01 OP:lv   STATUS:               ID:20170101111748     3
 2017-01-01-1118-00M.COL___360                                                 6
 STAT SP IPHASW D HRMM SECON CODA AMPLIT PERI AZIMU VELO AIN AR TRES W  DIS CAZ7
 BAR2 EZ EP       1120 59.22                             158   -0.0810 40.2  94 
 BAR2 EZ ES       1121 11.47                             158    0.2010 40.2  94 
 BAR2 EZ I        1121 12.75        11.7 0.18            159           40.2  94 
 BRR  HZ EP       1120 59.15                             149   -0.7510 57.4 341 
 BRR  HN ES       1121 12.28                             149   -0.0510 57.4 341 
 BRR  HZ I        1121 12.71         8.5 0.12            149           57.4 341 
 RUS  HN ES       1121 18.95                             135    0.3110 94.9 147 
 PTB  HZ IP     C 1121  2.95                             132   -0.3910  101 265 
 PTB  HN ES       1121 18.24                             132   -0.2210  101 265 
 PTB  HZ I        1121 19.36         2.1 0.09            133            101 265 
 ZAR  HZ EP       1121 11.37                             116    0.57 9  174 304 
 ZAR  HN ES       1121 32.40                             116    0.66 9  174 304 
 ZAR  HZ I        1121 34.70         2.2 0.23            116            174 304 
                                                                                
