 2011 10 1 1446 56.0 L   6.724 -73.038139.7  RSN  4 0.1 1.5LRSN                1
 GAP=154        0.31       2.8     3.2  3.5  0.2058E+01 -0.2642E+01 -0.9858E+00E
 Epicentro: ARATOCA - SANTANDER                                                3
 ACTION:UPD 12-07-13 16:01 OP:ep   STATUS:               ID:20111001144656 L   I
 2011-10-01-1443-18S.COL___168                                                 6
 STAT SP IPHASW D HRMM SECON CODA AMPLIT PERI AZIMU VELO AIN AR TRES W  DIS CAZ7
 BAR2 SZ EP   1   1447 14.85                             171    0.00 7 21.5 228 
 BAR2 SZ ES   1   1447 29.44                             171   -0.12 7 21.5 228 
 BAR2 SZ I        1447 33.54         6.2 0.46                          21.5 228 
 PAM  SZ EP   1   1447 17.62                             149    0.04 7 77.7  29 
 PAM  SN ES   2   1447 34.45                             149    0.03 5 77.7  29 
 BRR  HZ EP       1447 17.40                             147    0.0110 85.7 300 
 BRR  HN ES       1447 34.10                             147    0.0210 85.7 300 
 BRR  HZ I        1447 37.36        12.3 0.38                          85.7 300 
 RUS  HZ EP   2   1447 18.33                             145   -0.20 5 92.0 183 
 RUS  HN ES   2   1447 36.35                             145    0.24 5 92.0 183 
 RUS  HZ I        1447 38.33         3.1 0.40                          92.0 183 
                                                                                
