 2015  4 1 1422 32.5 L   6.785 -73.159139.9  RSN 11 0.5 2.2LRSN                1
 GAP=136        1.25       3.5     4.8  6.8 -0.3235E+01  0.1160E+02 -0.6875E+00E
 Epicentro: LOS SANTOS - SANTANDER                                             3
 ACTION:UPD 15-06-03 16:51 OP:cam  STATUS:               ID:20150401142232 L   I
 OLDACT:REG 15-04-01 20:25 OP:fm   STATUS:               ID:20150401141749     3
 2015-04-01-1417-49M.COL___271                                                 6
 STAT SP IPHASW D HRMM SECON CODA AMPLIT PERI AZIMU VELO AIN AR TRES W  DIS CAZ7
 BAR2 EZ EP       1422 51.64                             171    0.2210 21.5 187 
 BAR2 EZ ES       1423  6.15                             171   -0.0010 21.5 187 
 BAR2 EZ I        1423  7.54        39.7 0.16            171           21.5 187 
 BRR  HZ EP       1422 53.66                             152    0.6410 70.7 300 
 BRR  HN ES       1423  9.92                             152    0.9210 70.7 300 
 BRR  HZ I        1423 15.25        29.3 0.12            148           70.7 300 
 PAM  SZ IP     D 1422 54.66                             149    0.4010 79.5  40 
 PAM  SN ES       1423 10.90                             149   -0.3110 79.5  40 
 RUS  HZ EP       1422 55.81                             143    0.2110 99.1 175 
 RUS  HE ES       1423 13.22                             143   -0.3710 99.1 175 
 RUS  HZ I        1423 14.58        14.9 0.40            148           99.1 175 
 PTB  HZ EP       1422 57.93                             131   -0.93 9  146 259 
 PTB  HN ES       1423 18.78                             131   -0.62 9  146 259 
 PTB  HZ I        1423 21.75        12.2 0.12            131            146 259 
 SPBC HZ EP       1423  0.58                             128    0.21 9  161 219 
 SPBC HE ES       1423 22.09                             128   -0.00 9  161 219 
 SPBC HZ I        1423 26.88        18.0 0.42            130            161 219 
 OCA  HE ES       1423 21.51                             128   -0.85 9  162 354 
 OCA  HZ I        1423 27.02        45.9 0.36            129            162 354 
 ZAR  HZ EP       1423  4.82                             121    0.30 9  203 293 
 ZAR  HN ES       1423 30.12                             121    0.65 9  203 293 
 ZAR  HZ I        1423 36.51        17.6 0.36            121            203 293 
 NOR  HZ EP       1423  8.09                             117    0.40 8  233 235 
 NOR  HE ES       1423 34.45                             117   -0.67 8  233 235 
 NOR  HZ I        1423 41.42         7.2 0.16            119            233 235 
 SML  HZ EP       1423  8.52                             116   -0.40 8  245 336 
 SML  HN ES       1423 37.07                             116   -0.24 8  245 336 
 SML  HZ I        1423 48.44        21.2 0.10            117            245 336 
 GUY2CHZ EP       1423 15.70                             111    0.07 7  299 235 
 GUY2CHE ES       1423 49.33                             111    0.08 7  299 235 
 GUY2CHZ I        1424  0.35         4.9 0.56                           299 235 
                                                                                
