 2016  5 1 1050 54.2 L   6.775 -73.167137.6  RSN 11 0.4 1.8LRSN                1
 GAP=135        1.01       3.0     3.8  6.5 -0.3126E+01  0.1027E+02 -0.1464E+01E
 Epicentro: LOS SANTOS - SANTANDER                                             3
 ACTION:UPD 16-08-18 17:40 OP:cam  STATUS:               ID:20160501105054 L   I
 OLDACT:REG 16-05-01 21:22 OP:ak   STATUS:               ID:20160501104749     3
 2016-05-01-1047-49M.COL___292                                                 6
 STAT SP IPHASW D HRMM SECON CODA AMPLIT PERI AZIMU VELO AIN AR TRES W  DIS CAZ7
 BAR2 EZ IP     D 1051 12.82                             171    0.0110 20.3 185 
 BAR2 EZ ES       1051 27.68                             171    0.3710 20.3 185 
 BAR2 EZ I        1051 28.70         7.7 0.18            171           20.3 185 
 PAM  EZ IP     C 1051 15.88                             148    0.0710 81.0  40 
 PAM  EN ES       1051 32.67                             148    0.0310 81.0  40 
 PAM  EZ I        1051 35.48         9.4 0.44            152           81.0  40 
 RUS  HZ EP       1051 16.89                             143   -0.1110 98.1 175 
 RUS  HN ES       1051 34.94                             143    0.1910 98.1 175 
 RUS  HZ I        1051 36.28         7.1 0.28            146           98.1 175 
 PTB  HZ EP       1051 19.79                             131   -0.49 9  145 260 
 PTB  HN ES       1051 39.67                             131   -0.92 9  145 260 
 PTB  HZ I        1051 42.68        11.4 0.39            131            145 260 
 SPBC HZ EP       1051 22.00                             128    0.24 9  160 219 
 SPBC HN ES       1051 42.75                             128   -0.49 9  160 219 
 SPBC HZ I        1051 46.16        12.4 0.26            129            160 219 
 OCA  HZ EP       1051 22.49                             127    0.34 9  163 354 
 OCA  HE ES       1051 43.32                             127   -0.61 9  163 354 
 ZAR  HZ EP       1051 26.02                             121   -0.01 9  203 293 
 ZAR  HN ES       1051 51.70                             121    0.86 9  203 293 
 ZAR  HZ I        1051 59.80         8.8 0.30            121            203 293 
 NOR  HZ EP   4   1051 25.04                             117   -4.07 0  231 235 
 NOR  HN ES       1051 56.59                             117    0.27 8  231 235 
 NOR  HZ I        1052  3.70         6.7 0.18            118            231 235 
 CHI  HZ EP   2   1051 31.68                             116    0.55 4  245 195 
 CHI  HN ES       1051 59.85                             116   -0.06 8  245 195 
 HEL  HZ EP   2   1051 33.49                             113   -0.21 4  269 256 
 HEL  HN ES       1052  5.26                             113    0.77 8  269 256 
 HEL  HZ I        1052 11.81         5.2 0.52            114            269 256 
 GUY2CHZ EP   2   1051 36.27                             111   -0.80 4  298 235 
 GUY2CHN ES       1052 10.38                             111   -0.11 7  298 235 
 GUY2CHZ I        1052 20.38         3.3 0.64                           298 235 
 SOCV BZ EP   4   1051 34.55                             110   -2.76 0  305  57 
 SOCV BN ES   4   1052  6.97                             110   -3.95 0  305  57 
                                                                                
