 2010 12 1 1122 49.1 L   6.789 -73.103153.1  RSN  5 0.2 1.5LRSN                1
 GAP=163        0.39       3.3     7.1  6.1  0.5532E+01 -0.1997E+02  0.3579E+01E
 Epicentro: LOS SANTOS - SANTANDER                                             3
 ACTION:UP  11-01-14 15:22 OP:pat  STATUS:               ID:20101201112249 L   I
 2010-12-01-1122-26S.COL___132                                                 6
 STAT SP IPHASW D HRMM SECON CODA AMPLIT PERI AZIMU VELO SNR AR TRES W  DIS CAZ7
 BAR2 SZ EP   1   1123  9.44                             171    -0.2 7   24 202 
 BAR2 SZ I        1123 26.13        12.6 0.21                            24 202 
 BRR  HZ EP   1   1123 11.27                             152     0.0 7   76 298 
 BRR  HE ES   1   1123 28.69                             152     0.0 7   76 298 
 BRR  HZ I        1123 39.27        10.0 0.39                            76 298 
 RUS  HZ EP       1123 13.45                             146     0.010   99 179 
 RUS  HN ES   2   1123 32.69                             146     0.2 5   99 179 
 GRA  SZ EP   2   1123 15.18                             139     0.2 5  126  15 
 GRA  SZ I        1123 16.75         3.9 0.56                           126  15 
 CHI  HZ EP   1   1123 27.47                             119     0.2 6  249 196 
 CHI  HZ I        1123 30.07         0.9 0.66                           249 196 
 CHI  HE ES   2   1123 56.73                             119    -0.2 4  249 196 
                                                                                
