 2015  4 1 1426 29.4 L   6.810 -73.140150.0  RSN  6 0.5 1.6LRSN                1
 GAP=151        1.25       8.3     6.0  9.0 -0.1663E+02  0.1404E+02  0.7907E+01E
 Epicentro: LOS SANTOS - SANTANDER                                             3
 ACTION:UPD 15-06-03 16:51 OP:cam  STATUS:               ID:20150401142629 L   I
 OLDACT:DUP 15-04-01 22:11 OP:fm   STATUS:               ID:20150401141750d    3
 2015-04-01-1417-49M.COL___271                                                 6
 STAT SP IPHASW D HRMM SECON CODA AMPLIT PERI AZIMU VELO AIN AR TRES W  DIS CAZ7
 BAR2 EZ EP       1426 49.80                             170    0.2010 24.5 191 
 BAR2 EZ ES       1427  4.82                             170   -0.5010 24.5 191 
 BAR2 EZ I        1427  6.18         7.0 0.34            170           24.5 191 
 BRR  HZ EP       1426 51.89                             153    0.8510 71.2 298 
 BRR  HE ES       1427  8.27                             153    0.3710 71.2 298 
 BRR  HZ I        1427 12.83         9.4 0.44            152           71.2 298 
 PAM  SZ EP       1426 52.35                             152    0.3210 76.2  40 
 PAM  SE ES       1427  9.34                             152   -0.3110 76.2  40 
 PAM  SZ I        1427 12.07         7.8 0.58            155           76.2  40 
 PTB  HZ EP       1426 56.22                             132   -0.60 9  149 258 
 PTB  HN ES       1427 17.73                             132   -0.45 9  149 258 
 PTB  HZ I        1427 23.72         4.1 0.22            133            149 258 
 ZAR  HZ EP   1   1427  1.41                             123   -0.76 6  204 292 
 ZAR  HN ES       1427 27.63                             123   -0.08 9  204 292 
 ZAR  HZ I        1427 30.73         3.8 0.26            124            204 292 
 NOR  HZ EP   1   1427  5.04                             119   -0.49 6  236 234 
 NOR  HE ES       1427 34.51                             119    0.82 8  236 234 
 NOR  HZ I        1427 37.66         2.1 0.32            121            236 234 
                                                                                
