 2013  3 1 1656  1.0 L   6.403 -73.650103.6  RSN  8 0.5 2.0LRSN                1
 GAP= 81        0.89       4.0     3.5  8.9  0.3847E+00  0.1122E+02 -0.2314E+01E
 Epicentro: SANTA HELENA DEL OPON - SANTANDER                                  3
 ACTION:UPD 13-04-09 13:59 OP:ep   STATUS:               ID:20130301165601 L   I
 2013-03-01-1650-00M.COL___228                                                 6
 STAT SP IPHASW D HRMM SECON CODA AMPLIT PERI AZIMU VELO AIN AR TRES W  DIS CAZ7
 BAR2 SZ EP   1   1656 17.27                             150    0.23 7 55.8  68 
 BAR2 SZ ES   1   1656 30.09                             150    0.50 7 55.8  68 
 BAR2 SZ I        1656 31.20       119.0 0.12            149           55.8  68 
 BRR  HZ EP   1   1656 18.32                             140    0.03 7 78.2 355 
 RUS  HZ EP   1   1656 19.17                             138   -0.30 7 84.4 132 
 RUS  HE ES   1   1656 33.29                             138   -0.61 7 84.4 132 
 RUS  HZ I        1656 35.47         5.8 0.36            141           84.4 132 
 PTB  HZ EP   1   1656 18.32                             135   -1.00 7 90.5 280 
 PTB  HE ES   1   1656 33.80                             135    0.16 7 90.5 280 
 PTB  HZ I        1656 34.92        44.9 0.34            136           90.5 280 
 PAM  SZ EP   1   1656 25.53                             121    0.06 7  148  45 
 PAM  SN ES   1   1656 44.85                             121    0.26 7  148  45 
 PAM  SZ I        1656 49.68         9.2 0.54            121            148  45 
 ZAR  HZ EP   1   1656 28.41                             115    0.07 7  180 312 
 ZAR  HN ES   1   1656 49.17                             115   -0.53 7  180 312 
 ZAR  HZ I        1656 54.49        21.5 0.28            115            180 312 
 CHI  HN ES   1   1656 54.29                             112    0.40 6  196 183 
 HEL  HZ EP   1   1656 32.61                             111    0.50 6  209 264 
 HEL  HN ES   1   1656 56.99                             111    0.59 6  209 264 
 HEL  HZ I        1656 59.68         9.2 0.22            112            209 264 
                                                                                
