 2016  1 1 1009 39.3 L   6.777 -73.196147.3  RSN 16 0.5 2.0LRSN                1
 GAP=131        0.75       2.9     3.2  4.6 -0.1534E+01  0.5838E+01  0.8272E+00E
 Epicentro: ZAPATOCA - SANTANDER                                               3
 ACTION:UPD 16-03-09 23:21 OP:cam  STATUS:               ID:20160101100939 L   I
 OLDACT:REG 16-01-01 20:11 OP:dnl  STATUS:               ID:20160101100748     3
 2016-01-01-1007-48M.COL___317                                                 6
 STAT SP IPHASW D HRMM SECON CODA AMPLIT PERI AZIMU VELO AIN AR TRES W  DIS CAZ7
 BAR2 EZ EP       10 9 59.02                             172   -0.0710 20.5 176 
 BAR2 EZ ES       1010 14.63                             172    0.1210 20.5 176 
 BAR2 EZ I        1010 15.53        31.0 0.27            170           20.5 176 
 BRR  HE ES   2   1010 18.08                             154    1.15 5 67.7 303 
 BRR  HZ I        1010 19.43        25.6 0.13            150           67.7 303 
 PAM  EZ EP       1010  2.36                             149    0.3210 82.9  41 
 PAM  EN ES       1010 19.70                             149   -0.0610 82.9  41 
 PAM  EZ I        1010 22.40        24.9 0.44            153           82.9  41 
 RUS  HZ EP   2   1010  3.02                             145   -0.07 5 98.6 173 
 RUS  HE ES       1010 21.23                             145   -0.4010 98.6 173 
 RUS  HZ I        1010 22.96        11.2 0.24            146           98.6 173 
 PTB  HZ EP   1   1010  5.55                             134   -0.34 7  142 259 
 PTB  HN ES       1010 26.47                             134   -0.15 9  142 259 
 PTB  HZ I        1010 30.14        12.6 0.16            131            142 259 
 SPBC HZ EP   2   1010  7.49                             130    0.05 5  158 218 
 SPBC HN ES   2   1010 29.54                             130    0.18 5  158 218 
 SPBC HZ I        1010 32.52        18.6 0.10            129            158 218 
 ZAR  HZ EP   2   1010 11.39                             123   -0.06 4  200 293 
 ZAR  HN ES       1010 36.73                             123    0.22 9  200 293 
 ZAR  HZ I        1010 43.14         9.8 0.10            122            200 293 
 NOR  HZ EP   2   1010 14.82                             119    0.31 4  229 234 
 NOR  HE ES       1010 41.67                             119   -0.28 8  229 234 
 NOR  HZ I        1010 47.39        11.4 0.24            119            229 234 
 SML  HZ EP   2   1010 15.29                             118   -0.76 4  244 337 
 SML  HE ES   4   1010 42.13                             118   -2.56 0  244 337 
 SML  HZ I        1010 48.53        20.7 0.08            118            244 337 
 CHI  HZ EP   2   1010 16.98                             118    0.28 4  245 194 
 CHI  HE ES   2   1010 45.34                             118   -0.50 4  245 194 
 CHI  HZ I        1010 48.29         4.6 0.30            118            245 194 
 HEL  HZ EP   2   1010 19.84                             116    0.88 4  266 256 
 HEL  HN ES   4   1010 47.04                             116   -2.83 0  266 256 
 HEL  HZ I        1011  2.55         3.1 0.16            115            266 256 
 URE  HZ EP       1010 19.20                             114   -0.81 7  280 293 
 URE  HE ES   4   1010 50.06                             114   -1.68 0  280 293 
 URE  HZ I        1010 52.74         6.2 0.13            114            280 293 
 GUY2CHZ EP   2   1010 22.78                             113    0.44 4  295 235 
 GUY2CHN ES   2   1010 56.07                             113    0.19 4  295 235 
 GUY2CHZ I        1011  4.86         5.8 0.35                           295 235 
 CBOC HZ EP   4   1010 26.94                             111    1.32 0  328 252 
 CBOC HN ES   4   1011  0.09                             111   -1.63 0  328 252 
 CBOC HZ I        1011  8.37         1.6 0.37            110            328 252 
 ANIL HE ES   4   1011  8.92                             109    2.00 0  352 224 
 PRA  HZ EP       1010 32.63                             107    0.30 6  387 209 
 PRA  HN ES       1011 14.61                             107    0.94 6  387 209 
 PRA  HZ I        1011 18.34         3.2 0.36            107            387 209 
 ORTC HZ EP   2   1010 33.40                             107    0.72 3  390 216 
 ORTC HE ES   2   1011 13.74                             107   -0.56 3  390 216 
 ORTC HZ I        1011 20.30         1.8 0.21            107            390 216 
                                                                                
