 2017  9 1 1554  6.7 L   6.798 -73.102142.7  RSN  4 0.3 1.6LRSN                1
 GAP=242        0.77       5.9     9.4  6.2  0.3085E+02  0.2772E+01  0.4197E+01E
 Epicentro: LOS SANTOS - SANTANDER                                             3
 ACTION:UPD 17-10-05 19:08 OP:rebc STATUS:               ID:20170901155406 L   I
 OLDACT:UP  17-09-01 23:07 OP:dhb  STATUS:               ID:20170901152901     3
 OLDACT:REG 17-09-01 20:56 OP:dhb  STATUS:               ID:20170901152901     3
 2017-09-01-1548-00M.COL___405                                                 6
 STAT SP IPHASW D HRMM SECON CODA AMPLIT PERI AZIMU VELO AIN AR TRES W  DIS CAZ7
 BAR2 EZ EP       1554 25.55                             169   -0.4110 24.4 201 
 BAR2 EZ ES       1554 40.96                             169   -0.0410 24.4 201 
 BAR2 EZ I        1554 42.24        19.3 0.05            169           24.4 201 
 BRR  HZ EP       1554 27.47                             150   -0.2810 75.6 297 
 BRR  HN ES       1554 44.44                             150    0.2510 75.6 297 
 BRR  HZ I        1554 45.76         4.8 0.15            151           75.6 297 
 RUS  HZ EP       1554 30.39                             143    0.2910  100 179 
 RUS  HN ES       1554 48.37                             143    0.0110  100 179 
 RUS  HZ I        1554 49.76         6.0 0.43            144            100 179 
 SPBC HZ EP       1554 35.62                             127    0.40 9  166 220 
 SPBC HN ES   2   1554 56.79                             127   -0.69 5  166 220 
                                                                                
