 2012  9 1 1458 34.4 L   6.820 -73.114142.8  RSN  8 0.4 2.0LRSN                1
 GAP=140        0.80       5.0     4.8  6.9  0.2828E+01 -0.2638E+00  0.1326E+01E
 Epicentro: LOS SANTOS - SANTANDER                                             3
 ACTION:UPD 12-10-22 14:16 OP:ep   STATUS:               ID:20120901145834 L   I
 2012-09-01-1450-00M.COL___218                                                 6
 STAT SP IPHASW D HRMM SECON CODA AMPLIT PERI AZIMU VELO AIN AR TRES W  DIS CAZ7
 BAR2 SZ EP   1   1458 53.93                             169    0.16 7 26.3 197 
 BAR2 SZ ES   1   1459  8.63                             169   -0.22 7 26.3 197 
 BAR2 SZ I        1459 10.21        31.3 0.14                          26.3 197 
 GIR2 SZ EP   1   1458 53.65                             167   -0.06 7 30.0 343 
 GIR2 SZ ES   2   1459  9.16                             167    0.41 5 30.0 343 
 BRR  HZ EP       1458 55.36                             151   -0.0210 73.4 296 
 BRR  HZ I        1458 55.62        23.7 0.13                          73.4 296 
 BRR  HN ES   1   1459 12.38                             151    0.66 7 73.4 296 
 PAM  SZ EP       1458 56.46                             151    0.3610 73.4  38 
 PAM  SN ES   2   1459 11.78                             151   -1.21 5 73.4  38 
 RUS  HZ EP   1   1458 57.62                             143   -0.42 7  103 178 
 RUS  HN ES   1   1459 16.58                             143    0.13 7  103 178 
 RUS  HZ I        1459 18.63         9.1 0.26                           103 178 
 PTB  HE ES   1   1459 22.34                             131   -0.30 7  152 258 
 PTB  HZ I        1459 24.69         9.3 0.27                           152 258 
 ZAR  HE ES   1   1459 31.78                             121   -0.52 6  207 291 
 ZAR  HZ I        1459 37.09        13.4 0.30                           207 291 
 CHI  HZ EP   1   1459 12.51                             116    0.21 6  252 196 
                                                                                
