 2014  9 1 1544 40.0 L   6.329 -73.581115.1  RSN 22 0.4 2.6LRSN                1
 GAP= 54        0.96       2.2     2.5  4.6 -0.8083E+00  0.2686E+01 -0.1530E+00E
 Epicentro: SANTA HELENA DEL OPON - SANTANDER                                  3
 ACTION:UPD 14-10-03 23:01 OP:nd   STATUS:               ID:20140901154440 L   I
 OLDACT:UP  14-09-02 06:39 OP:STLL STATUS:               ID:20140901154440 L   3
 OLDACT:REG 14-09-01 20:30 OP:fm   STATUS:               ID:20140901153819     3
 2014-09-01-1538-19M.COL___272                                                 6
 STAT SP IPHASW D HRMM SECON CODA AMPLIT PERI AZIMU VELO AIN AR TRES W  DIS CAZ7
 BAR2 SZ EP     C 1544 57.48                             154    0.3610 52.9  57 
 BAR2 SZ ES   1   1545 10.61                             154    0.11 7 52.9  57 
 BAR2 SZ I        1545 12.04       371.3 0.44            154           52.9  57 
 RUS  HZ EP       1544 58.72                             146   -0.0310 73.3 131 
 RUS  HE ES       1545 13.36                             146   -0.0310 73.3 131 
 RUS  HZ I        1545 14.37        68.6 0.16            147           73.3 131 
 BRR  HZ EP     D 1544 59.05                             140   -0.0310 87.3 350 
 BRR  HE ES       1545 14.25                             140    0.2610 87.3 350 
 BRR  HZ I        1545 22.73        56.0 0.16            140           87.3 350 
 SPBC HZ EP       1544 59.54                             138   -0.0910 92.5 216 
 SPBC HN ES       1545 14.78                             138   -0.1810 92.5 216 
 SPBC HZ I        1545 16.74       101.5 0.20            139           92.5 216 
 PTB  HZ EP     D 1544 59.23                             136   -0.8810 99.5 284 
 PTB  HN ES       1545 15.98                             136    0.1610 99.5 284 
 PTB  HZ I        1545 16.62       129.8 0.32            136           99.5 284 
 PAM  SN ES   1   1545 24.34                             124   -0.73 7  148  41 
 PAM  SZ I        1545 26.95        40.8 0.28            125            148  41 
 NOR  HZ EP       1545  5.99                             121   -0.56 9  166 239 
 NOR  HN ES       1545 27.71                             121    0.43 9  166 239 
 NOR  HZ I        1545 29.21        59.9 0.24            121            166 239 
 CHI  HZ EP       1545  9.55                             117    0.10 9  189 185 
 CHI  HN ES   1   1545 32.24                             117   -0.21 7  189 185 
 CHI  HZ I        1545 36.75        16.6 0.56            118            189 185 
 ZAR  HZ EP       1545  9.04                             117   -0.14 9  191 312 
 ZAR  HN ES       1545 31.86                             117   -0.11 9  191 312 
 ZAR  HZ I        1545 37.12        77.7 0.30            117            191 312 
 TAM  HZ EP       1545 10.14                             116    0.10 9  198  86 
 TAM  HN ES   4   1545 30.89                             116   -2.61 0  198  86 
 TAM  HZ I        1545 38.57        76.7 0.22            117            198  86 
 OCA  HZ EP   1   1545 12.66                             114    0.83 6  213   8 
 OCA  HN ES       1545 37.03                             114    0.36 8  213   8 
 OCA  HZ I        1545 42.61        56.2 0.32            114            213   8 
 HEL  HZ EP       1545 13.26                             113    0.84 8  216 266 
 HEL  HN ES       1545 37.73                             113   -0.00 8  216 266 
 HEL  HZ I        1545 43.90        26.1 0.22            114            216 266 
 GUY2CHZ EP       1545 15.08                             112    0.70 8  232 238 
 GUY2CHN ES   4   1545 43.74                             112    2.52 0  232 238 
 GUY2CHZ I        1545 48.74        27.0 0.52                           232 238 
 URE  HZ EP   4   1545 16.22                             108   -1.55 0  267 306 
 URE  HN ES   4   1545 44.69                             108   -2.57 0  267 306 
 URE  HZ I        1545 47.44        60.4 0.14            109            267 306 
 TOL  SZ EP   9   1545 20.45                             108    1.61 0  273 225 
 TOL  SN ES       1545 50.94                             107    0.17 8  273 225 
 TOL  SZ I        1545 53.66        33.3 0.28            109            273 225 
 CBOC HZ EP       1545 19.37                             108    0.58 8  274 259 
 CBOC HN ES   2   1545 48.88                             108   -0.19 4  274 259 
 CBOC HZ I        1545 50.80        11.8 0.42            108            274 259 
 SML  HZ EP       1545 18.24                             107   -0.88 7  279 349 
 SML  HN ES   1   1545 49.79                             107    0.13 6  279 349 
 SML  HZ I        1545 54.09        25.8 0.30            108            279 349 
 ANIL HZ EP   4   1545 21.75                             107    1.35 0  286 225 
 ANIL HN ES   4   1545 53.48                             107    1.54 0  286 225 
 DBB  SZ EP       1545 21.58                             106   -0.19 7  300 285 
 DBB  SZ ES   1   1545 53.54                             106   -0.84 5  300 285 
 DBB  SZ I        1545 57.82        59.2 0.44            106            300 285 
 PRA  HZ EP       1545 24.37                             104   -0.05 7  323 207 
 PRA  HN ES       1545 58.87                             104   -0.23 7  323 207 
 PRA  HZ I        1546  4.72        13.6 0.26            105            323 207 
 ORTC HZ EP   4   1545 20.96                             104   -3.67 0  325 215 
 ORTC HN ES   4   1546  0.52                             104    1.06 0  325 215 
 ORTC HZ I        1546  6.10        10.5 0.46            105            325 215 
 MON  HZ EP   4   1545 26.77                             102   -1.39 0  355 320 
 MON  HN ES   4   1546  2.65                             102   -3.10 0  355 320 
 MON  HZ I        1546  7.39         8.5 0.48            103            355 320 
 SJC  HZ EP   4   1545 36.32                              99   -1.13 0  432 336 
 SJC  HE ES   4   1546 18.16                              99   -4.12 0  432 336 
 SJC  HZ I        1546 24.29         3.5 0.36            100            432 336 
                                                                                
