 2013  5 1 1158 12.3 L   7.474 -73.226132.9  RSN  5 0.4 1.3LRSN                1
 GAP=231        0.79      11.8     6.8  9.1 -0.4877E+02  0.2835E+02 -0.4994E+02E
 Epicentro: EL PLAYON - SANTANDER                                              3
 ACTION:UPD 13-06-20 09:47 OP:ep   STATUS:               ID:20130501115812 L   I
 2013-05-01-1150-00M.COL___253                                                 6
 STAT SP IPHASW D HRMM SECON CODA AMPLIT PERI AZIMU VELO AIN AR TRES W  DIS CAZ7
 GIR2 SZ EP   1   1158 30.35                             161   -0.53 7 43.8 175 
 GIR2 SZ ES   1   1158 45.05                             161   -0.33 7 43.8 175 
 GIR2 SZ I        1158 45.95         4.3 0.58            167           43.8 175 
 PAM  SZ EP       1158 32.51                             155    0.3710 60.0 104 
 PAM  SN ES   1   1158 47.26                             155   -0.36 7 60.0 104 
 PAM  SZ I        1158 52.02         2.7 0.50            161           60.0 104 
 BRR  HZ EP   1   1158 32.26                             151    0.42 7 67.3 233 
 BRR  HN ES   1   1158 47.44                             151    0.36 7 67.3 233 
 BRR  HZ I        1158 49.96         6.3 0.50            154           67.3 233 
 BAR2 SZ ES   1   1158 51.62                             142    0.29 7 97.6 177 
 PTB  HZ EP   1   1158 40.07                             124   -0.43 7  171 233 
 PTB  HN ES   1   1159  2.30                             124   -0.20 7  171 233 
 PTB  HZ I        1159  6.45         2.1 0.26            128            171 233 
                                                                                
