 2017  3 1 1224 26.5 L   6.730 -73.187147.1  RSN  5 0.3 1.7LRSN                1
 GAP=134        0.73       4.7     4.3  5.6  0.4544E+01 -0.1728E+01 -0.4119E+01E
 Epicentro: VILLANUEVA - SANTANDER                                             3
 ACTION:UPD 17-05-25 18:34 OP:jn   STATUS:               ID:20170301122426 L   I
 OLDACT:DUP 17-03-01 20:45 OP:lv   STATUS:               ID:20170301121745d    3
 2017-03-01-1218-00M.COL___375                                                 6
 STAT SP IPHASW D HRMM SECON CODA AMPLIT PERI AZIMU VELO AIN AR TRES W  DIS CAZ7
 BAR2 EZ EP       1224 46.18                             174    0.0410 15.3 178 
 BAR2 EZ ES       1225  1.19                             174   -0.2810 15.3 178 
 BAR2 EZ I        1225  2.76        23.7 0.13            171           15.3 178 
 BRR  HZ EP       1224 47.93                             153    0.1510 71.4 306 
 BRR  HN ES       1225  4.84                             153    0.4410 71.4 306 
 BRR  HZ I        1225  7.43        12.6 0.19            151           71.4 306 
 PAM  EZ EP       1224 49.03                             148   -0.3510 86.3  39 
 RUS  HZ EP       1224 50.13                             146    0.2710 93.4 173 
 RUS  HN ES       1225  8.16                             146    0.0710 93.4 173 
 RUS  HZ I        1225 10.00         5.4 0.20            147           93.4 173 
 PTB  HZ EP       1224 53.02                             133   -0.01 9  142 262 
 PTB  HN ES       1225 13.37                             133   -0.37 9  142 262 
 PTB  HZ I        1225 19.66         3.7 0.08            132            142 262 
                                                                                
