 2012 12 1 1745  3.9 L   6.794 -73.140141.0  RSN  8 0.4 2.1LRSN                1
 GAP=138        0.85       3.7     4.7  6.7 -0.1682E+01  0.1175E+02 -0.5605E+01E
 Epicentro: LOS SANTOS - SANTANDER                                             3
 ACTION:UPD 13-01-04 14:25 OP:ep   STATUS:               ID:20121201174503 L   I
 2012-12-01-1740-00M.COL___236                                                 6
 STAT SP IPHASW D HRMM SECON CODA AMPLIT PERI AZIMU VELO AIN AR TRES W  DIS CAZ7
 BAR2 SZ EP   1   1745 23.37                             170    0.45 7 22.8 192 
 BAR2 SZ ES       1745 37.78                             170    0.0010 22.8 192 
 BAR2 SZ I        1745 39.23        30.5 0.29                          22.8 192 
 GIR2 SZ EP       1745 23.22                             166    0.2210 32.0 349 
 PAM  SZ EP       1745 26.00                             150    0.4110 77.5  39 
 PAM  SZ I        1745 26.43        35.5 0.25                          77.5  39 
 PAM  SN ES       1745 42.65                             150    0.1210 77.5  39 
 RUS  HZ EP       1745 27.13                             143    0.0210 99.9 176 
 RUS  HN ES       1745 44.71                             143   -0.5210 99.9 176 
 RUS  HN I        1745 46.22        15.2 0.39                          99.9 176 
 PTB  HZ EP   1   1745 30.41                             131   -0.09 7  148 259 
 PTB  HN ES   1   1745 51.37                             131    0.10 7  148 259 
 OCA  HN ES   1   1745 52.88                             128   -0.85 7  161 353 
 ZAR  HZ EP   1   1745 35.70                             121   -0.39 6  205 292 
 ZAR  HN ES   1   1746  1.77                             121    0.54 6  205 292 
 ZAR  HZ I        1746  7.98         9.8 0.38                           205 292 
 SML  HZ EP   1   1745 39.81                             116   -0.51 6  245 335 
                                                                                
