 2012  7 1 1207 10.2 L   6.759 -73.201150.0  RSN  4 0.2 1.5LRSN                1
 GAP=228        0.52       6.9     7.3  8.3  0.2386E+02 -0.1555E+02 -0.2379E+01E
 Epicentro: VILLANUEVA - SANTANDER                                             3
 ACTION:UPD 12-08-14 11:41 OP:ep   STATUS:               ID:20120701120710 L   I
 2012-07-01-1200-00M.COL___201                                                 6
 STAT SP IPHASW D HRMM SECON CODA AMPLIT PERI AZIMU VELO AIN AR TRES W  DIS CAZ7
 BAR2 SZ EP       12 7 30.16                             173    -0.110   19 174 
 BAR2 SZ I        12 7 46.00         4.8 0.32            174             19 174 
 BRR  HZ EP       12 7 31.47                             155    -0.210   68 304 
 BRR  HN ES   1   12 7 48.68                             155     0.3 7   68 304 
 BRR  HZ I        12 7 49.24         7.5 0.42            154             68 304 
 RUS  HZ EP   2   12 7 34.48                             146     0.4 5   97 172 
 RUS  HN ES   2   12 7 52.70                             146     0.0 5   97 172 
 PTB  HZ EP   2   12 7 37.20                             135     0.3 5  141 260 
 PTB  HN ES   2   12 7 57.43                             135    -0.3 5  141 260 
