 2016 11 1 1227 57.5 L   6.770 -73.148152.3  RSN  4 0.4 1.5LRSN                1
 GAP=138        1.13       6.4     6.1  9.9 -0.4509E+01  0.4847E+01  0.7634E+01E
 Epicentro: LOS SANTOS - SANTANDER                                             3
 ACTION:UPD 17-10-26 21:03 OP:lp   STATUS:               ID:20161101122757 L   I
 OLDACT:REG 16-11-01 20:17 OP:cog  STATUS:               ID:20161101121745     3
 2016-11-01-1218-00M.COL___328                                                 6
 STAT SP IPHASW D HRMM SECON CODA AMPLIT PERI AZIMU VELO AIN AR TRES W  DIS CAZ7
 BRR  HZ EP       1228 19.77                             153    0.3110 72.6 301 
 BRR  HN ES       1228 37.31                             153    0.7410 72.6 301 
 PAM  EZ EP       1228 20.60                             151   -0.0010 80.2  38 
 PAM  EN ES       1228 38.06                             151   -0.5410 80.2  38 
 RUS  HZ EP       1228 21.81                             146    0.1210 97.2 176 
 RUS  HE ES       1228 40.65                             146    0.1110 97.2 176 
 RUS  HZ I        1228 43.32         4.0 0.40            145           97.2 176 
 PTB  HZ EP       1228 24.89                             134   -0.07 9  147 260 
 PTB  HN ES       1228 45.58                             134   -0.77 9  147 260 
 PTB  HZ I        1228 47.97         5.7 0.14            134            147 260 
                                                                                
