 2013  1 1 1805 22.1 L   6.715 -73.190147.6  RSN  5 0.2 1.3LRSN                1
 GAP=226        0.46       4.7     4.3  4.9  0.1227E+02  0.3338E+01  0.3891E+00E
 Epicentro: VILLANUEVA - SANTANDER                                             3
 ACTION:UPD 13-02-15 09:11 OP:ep   STATUS:               ID:20130101180522 L   I
 2013-01-01-1800-00M.COL___242                                                 6
 STAT SP IPHASW D HRMM SECON CODA AMPLIT PERI AZIMU VELO AIN AR TRES W  DIS CAZ7
 BAR2 SZ EP   1   18 5 41.64                             174   -0.15 7 13.6 176 
 BAR2 SZ ES   1   18 5 56.99                             174   -0.16 7 13.6 176 
 BAR2 SZ I        18 5 57.52         6.5 0.36            170           13.6 176 
 BRR  HZ EP   1   18 5 43.48                             152   -0.02 7 72.1 307 
 BRR  HE ES   1   18 6  0.22                             152    0.04 7 72.1 307 
 BRR  HZ I        18 6  1.17         3.4 0.28            151           72.1 307 
 RUS  HZ EP   1   18 5 45.59                             147    0.17 7 91.7 173 
 RUS  HN ES   1   18 6  3.83                             147    0.23 7 91.7 173 
 RUS  HZ I        18 6  7.54         1.8 0.32            145           91.7 173 
 PTB  HZ EP   1   18 5 48.41                             134   -0.24 7  141 262 
 PTB  HN ES   1   18 6  9.12                             134   -0.23 7  141 262 
 PTB  HZ I        18 6 11.00         2.5 0.40            132            141 262 
 ZAR  HE ES   1   18 6 20.34                             123    0.42 6  203 295 
 ZAR  HZ I        18 6 25.39         3.0 0.62            122            203 295 
                                                                                
