 2012 12 1 1553 48.1 L   6.798 -73.168139.3  RSN 11 0.2 2.8LRSN                1
 GAP= 70        0.46       1.8     1.7  2.8 -0.2733E+00  0.1182E+01  0.6764E+00E
 Epicentro: LOS SANTOS - SANTANDER                                             3
 ACTION:UPD 13-01-04 14:25 OP:ep   STATUS:               ID:20121201155348 L   I
 2012-12-01-1550-00M.COL___236                                                 6
 STAT SP IPHASW D HRMM SECON CODA AMPLIT PERI AZIMU VELO AIN AR TRES W  DIS CAZ7
 BAR2 SZ EP       1554  7.12                             170    0.1610 22.8 184 
 BAR2 SZ ES       1554 21.62                             170   -0.0310 22.8 184 
 BAR2 SZ I        1554 23.22       232.0 0.34                          22.8 184 
 GIR2 SZ EP       1554  7.09                             167    0.0710 31.2 355 
 PAM  SZ EP       1554  9.86                             149    0.1010 79.2  41 
 PAM  SE ES       1554 26.50                             149   -0.1410 79.2  41 
 PAM  SZ I        1554 29.02       111.5 0.50                          79.2  41 
 RUS  HZ EP       1554 11.12                             142   -0.1210  101 175 
 RUS  HN ES       1554 29.39                             142    0.1310  101 175 
 RUS  HN I        1554 31.39        85.4 0.27                           101 175 
 PTB  HZ EP       1554 13.83                             131   -0.50 9  145 259 
 PTB  HE ES       1554 34.82                             131    0.04 9  145 259 
 PTB  HZ I        1554 39.87        66.4 0.20                           145 259 
 TAM  HZ EP       1554 15.54                             128    0.02 9  157 105 
 TAM  HE ES   1   1554 36.77                             128   -0.12 7  157 105 
 ZAR  HZ EP   1   1554 20.24                             121    0.32 6  202 292 
 ZAR  HN ES   1   1554 44.68                             121   -0.03 6  202 292 
 ZAR  HZ I        1554 50.63        78.9 0.42                           202 292 
 CHI  HZ EP   1   1554 25.47                             116    0.10 6  248 195 
 CHI  HE ES       1554 54.52                             116    0.09 8  248 195 
 HEL  HZ EP   1   1554 28.16                             114    0.43 6  270 256 
 HEL  HZ I        1555  5.43        31.1 0.42                           270 256 
 RREF HZ EP   1   1554 33.81                             110    0.06 5  320 229 
 RREF HZ I        1555 20.05        30.2 0.52                           320 229 
 PRA  HZ EP   1   1554 41.10                             105   -0.16 4  391 209 
 PRA  HN ES   1   1555 22.31                             105   -0.39 4  391 209 
 PRA  HZ I        1555 27.95        25.5 0.42                           391 209 
                                                                                
