 2016 11 1 1740 46.3 L   6.796 -73.159145.1  RSN  8 0.4 1.9LRSN                1
 GAP=135        0.94       3.8     4.2  6.7  0.8091E+00  0.5790E+01  0.1054E+02E
 Epicentro: LOS SANTOS - SANTANDER                                             3
 ACTION:UPD 17-10-26 21:03 OP:lp   STATUS:               ID:20161101174046 L   I
 OLDACT:REG 16-11-01 21:19 OP:cog  STATUS:               ID:20161101173745     3
 2016-11-01-1738-00M.COL___333                                                 6
 STAT SP IPHASW D HRMM SECON CODA AMPLIT PERI AZIMU VELO AIN AR TRES W  DIS CAZ7
 BRR  HZ EP       1741  7.31                             153   -0.0510 70.1 299 
 BRR  HN ES       1741 24.47                             153    0.7210 70.1 299 
 BRR  HZ I        1741 24.99        16.3 0.12            151           70.1 299 
 PAM  EZ EP       1741  8.45                             150   -0.1210 78.7  40 
 PAM  EN ES       1741 25.74                             150   -0.1610 78.7  40 
 PAM  EZ I        1741 27.71        14.4 0.50            155           78.7  40 
 RUS  HZ EP       1741  9.60                             144   -0.4010  100 175 
 RUS  HN ES       1741 28.55                             144    0.1010  100 175 
 RUS  HZ I        1741 29.59         6.8 0.25            145            100 175 
 PTB  HZ EP       1741 13.62                             132    0.51 9  146 259 
 PTB  HN ES       1741 33.38                             132   -0.61 9  146 259 
 PTB  HZ I        1741 40.54         7.0 0.17            131            146 259 
 ZAR  HZ EP   4   1741 20.13                             122    1.51 0  203 292 
 ZAR  HN ES       1741 43.30                             122   -0.49 9  203 292 
 ZAR  HZ I        1741 50.30         8.9 0.19            123            203 292 
 CHI  HZ EP       1741 23.86                             117   -0.05 8  248 195 
 CHI  HN ES       1741 53.29                             117    0.08 8  248 195 
 CHI  HZ I        1741 56.46         4.5 0.64            118            248 195 
 GUY2CHZ EP       1741 30.37                             112    0.62 7  300 235 
 GUY2CHN ES   4   1742  6.53                             112    2.92 0  300 235 
 GUY2CHZ I        1742 11.78         2.7 0.32                           300 235 
 PRA  HZ EP       1741 39.82                             106    0.12 6  391 209 
 PRA  HN ES       1742 21.25                             106   -0.07 6  391 209 
 PRA  HZ I        1742 27.25         5.1 0.32            107            391 209 
                                                                                
