 2014 10 1 1352 20.6 L   6.793 -73.165150.5  RSN 17 0.5 2.6LRSN                1
 GAP= 65        1.23       3.4     3.4  6.0  0.8505E-01  0.4289E+01  0.2785E+01E
 Epicentro: LOS SANTOS - SANTANDER                                             3
 ACTION:UPD 14-11-29 23:45 OP:nd   STATUS:               ID:20141001135220 L   I
 OLDACT:UP  14-10-01 23:33 OP:cam  STATUS:               ID:20141001135000     3
 OLDACT:UP  14-10-01 23:33 OP:cam  STATUS:               ID:20141001135000     3
 OLDACT:UP  14-10-01 23:33 OP:cam  STATUS:               ID:20141001135000     3
 OLDACT:UP  14-10-01 23:32 OP:cam  STATUS:               ID:20141001135000     3
 OLDACT:UP  14-10-01 23:31 OP:cam  STATUS:               ID:20141001135000     3
 OLDACT:REG 14-10-01 22:26 OP:cam  STATUS:               ID:20141001135000     3
 2014-10-01-1350-00M.COL___252                                                 6
 STAT SP IPHASW D HRMM SECON CODA AMPLIT PERI AZIMU VELO AIN AR TRES W  DIS CAZ7
 BAR2 SZ IP     C 1352 40.75                             171    0.0110 22.3 185 
 BAR2 SZ ES       1352 56.11                             171   -0.3710 22.3 185 
 BAR2 SZ I        1352 58.47        53.2 0.30            171           22.3 185 
 BRR  HZ IP     D 1352 42.57                             154    0.4310 69.8 300 
 BRR  HN ES       1352 59.91                             154    0.9310 69.8 300 
 BRR  HZ I        1353  3.57        45.3 0.44            151           69.8 300 
 PAM  SZ EP       1352 43.70                             151    0.3110 79.3  40 
 PAM  SN ES       1353  0.93                             151   -0.2710 79.3  40 
 PAM  SZ I        1353  2.81        61.8 0.50            153           79.3  40 
 RUS  HZ EP       1352 44.63                             145   -0.1110100.0 175 
 RUS  HN ES       1353  3.35                             145   -0.2410100.0 175 
 RUS  HZ I        1353  4.34        25.3 0.26            147          100.0 175 
 PTB  HZ EP       1352 47.11                             133   -0.61 9  146 259 
 PTB  HN ES       1353  8.77                             133   -0.14 9  146 259 
 PTB  HZ I        1353 15.85        56.7 0.34            132            146 259 
 TAM  HZ EP       1352 48.93                             131    0.15 9  157 105 
 TAM  HE ES       1353 10.99                             131    0.20 9  157 105 
 TAM  HE I        1353 11.27        66.7 0.26            135            157 105 
 SPBC HZ EP       1352 49.54                             130    0.29 9  161 219 
 SPBC HN ES       1353 11.06                             130   -0.56 9  161 219 
 SPBC HZ I        1353 14.62        53.0 0.34            130            161 219 
 ZAR  HZ EP       1352 53.05                             124   -0.10 9  202 293 
 ZAR  HE ES       1353 19.47                             124    0.90 9  202 293 
 ZAR  HZ I        1353 24.75        52.9 0.36            123            202 293 
 SML  HZ EP       1352 57.07                             118   -0.37 8  244 336 
 SML  HN ES       1353 25.37                             118   -0.83 8  244 336 
 SML  HZ I        1353 33.24        30.1 0.28            118            244 336 
 CHI  HZ EP       1352 58.91                             118    0.52 8  247 195 
 CHI  HN ES       1353 28.15                             118    0.26 8  247 195 
 CHI  HZ I        1353 37.89        13.4 0.32            119            247 195 
 URE  HZ EP   4   1353  1.48                             115   -0.20 0  282 292 
 GUY2CHZ EP       1353  5.14                             113    0.99 7  299 235 
 GUY2CHN ES       1353 37.31                             113   -0.84 7  299 235 
 GUY2CHZ I        1353 49.50        19.9 0.54                           299 235 
 PTGC HZ EP       1353  3.75                             112   -0.89 7  309 158 
 PTGC HN ES   4   1353 37.27                             112   -1.75 0  309 158 
 PTGC HN I        1353 38.16        50.5 0.28            114            309 158 
 DBB  SZ ES       1353 44.28                             110   -0.73 7  337 274 
 DBB  SZ I        1353 48.76        39.0 0.68            110            337 274 
 TOL  SZ EP   4   1353 10.53                             110    1.75 0  341 224 
 TOL  SZ ES   4   1353 45.23                             110   -1.16 0  341 224 
 TOL  SZ I        1353 51.82        42.7 0.38            111            341 224 
 MON  HZ EP   4   1353  8.07                             109   -1.55 0  353 309 
 MON  HE ES   4   1353 46.39                             109   -1.49 0  353 309 
 MON  HZ I        1354  1.97         9.7 0.44            109            353 309 
 ANIL HZ EP   4   1353 12.59                             109    2.27 0  355 224 
 ANIL HN ES       1353 49.13                             109   -0.00 6  355 224 
 PRA  HZ EP   4 C 1353 15.32                             107    1.27 0  390 209 
 PRA  HE ES       1353 56.62                             107    0.85 6  390 209 
 PRA  HZ I        1354  0.12        15.8 0.62            108            390 209 
 SJC  HZ EP   4   1353 14.62                             106   -1.61 0  409 327 
                                                                                
