 2013  3 1 1343 29.0 L   6.678 -73.171143.0  RSN  4 0.2 1.1LRSN                1
 GAP=225        0.47       4.9     4.9  5.8  0.1207E+02 -0.4640E+00 -0.5332E+00E
 Epicentro: VILLANUEVA - SANTANDER                                             3
 ACTION:UPD 13-04-09 13:59 OP:ep   STATUS:               ID:20130301134329 L   I
 2013-03-01-1340-00M.COL___228                                                 6
 STAT SP IPHASW D HRMM SECON CODA AMPLIT PERI AZIMU VELO AIN AR TRES W  DIS CAZ7
 BAR2 SZ EP   1   1343 48.12                             176    0.02 7 9.54 188 
 BAR2 SZ ES   1   1344  2.91                             176   -0.09 7 9.54 188 
 BAR2 SZ I        1344  5.48         4.0 0.28            174           9.54 188 
 BRR  HZ EP   1   1343 49.83                             150   -0.34 7 76.4 308 
 BRR  HN ES   1   1344  6.92                             150    0.25 7 76.4 308 
 RUS  HZ EP   1   1343 51.87                             147    0.30 7 87.3 174 
 RUS  HE ES   1   1344  9.04                             147   -0.12 7 87.3 174 
 RUS  HZ I        1344 11.97         1.5 0.24            148           87.3 174 
 PTB  HN ES   1   1344 15.81                             132   -0.03 7  143 264 
                                                                                
