 2016  9 1 1638 22.1 L   6.768 -73.149149.2  RSN  9 0.3 1.6LRSN                1
 GAP=208        0.60       3.0     3.3  3.7  0.1206E+01  0.2995E+01  0.1305E-01E
 Epicentro: LOS SANTOS - SANTANDER                                             3
 ACTION:UPD 17-08-17 21:05 OP:lp   STATUS:               ID:20160901163822 L   I
 OLDACT:UP  16-09-02 02:02 OP:edw  STATUS:               ID:20160901163745     3
 OLDACT:UP  16-09-02 02:01 OP:edw  STATUS:               ID:20160901163745     3
 OLDACT:UP  16-09-02 02:00 OP:edw  STATUS:               ID:20160901163745     3
 OLDACT:REG 16-09-01 21:16 OP:edw  STATUS:               ID:20160901163745     3
 2016-09-01-1638-00M.COL___338                                                 6
 STAT SP IPHASW D HRMM SECON CODA AMPLIT PERI AZIMU VELO AIN AR TRES W  DIS CAZ7
 BAR2 EZ EP       1638 41.67                             172   -0.4410 19.7 191 
 BAR2 EZ ES       1638 57.73                             172    0.0410 19.7 191 
 BAR2 EZ I        1638 58.75         7.8 0.22            169           19.7 191 
 BRR  HZ EP       1638 43.65                             153   -0.0810 72.7 301 
 BRR  HN ES       1639  0.94                             153    0.3610 72.7 301 
 RUS  HZ EP       1638 46.01                             146    0.0410 97.0 176 
 RUS  HN ES       1639  4.71                             146    0.1410 97.0 176 
 RUS  HZ I        1639  7.23         4.4 0.44            146           97.0 176 
 PTB  HZ EP       1638 49.25                             133   -0.04 9  147 260 
 PTB  HE ES       1639  9.99                             133   -0.48 9  147 260 
 PTB  HZ I        1639 13.48         5.6 0.13            132            147 260 
 SPBC HZ EP       1638 50.76                             130    0.15 9  160 220 
 SPBC HN ES       1639 12.73                             130   -0.10 9  160 220 
 SPBC HZ I        1639 17.89         9.4 0.22            130            160 220 
 ZAR  HZ EP       1638 55.12                             123    0.22 9  205 293 
 ZAR  HN ES   2   1639 20.87                             123    0.40 4  205 293 
 ZAR  HZ I        1639 27.11         2.8 0.12            123            205 293 
 NOR  HZ EP       1638 57.92                             120    0.12 8  232 235 
 NOR  HE ES       1639 25.65                             120    0.02 8  232 235 
 NOR  HZ I        1639 28.06         3.8 0.24            120            232 235 
 GUY2CHZ EP   2   1639  6.21                             113    0.58 4  299 235 
 GUY2CHE ES   4   1639 40.89                             113    1.33 0  299 235 
 GUY2CHZ I        1639 46.65         2.7 0.28                           299 235 
 SJC  HZ EP   2   1639 17.50                             106   -0.63 3  412 327 
 SJC  HN ES   4   1639 58.86                             106   -2.96 0  412 327 
                                                                                
