 2014  2 1 1826 41.9 L   6.820 -73.159143.4  RSN 13 0.5 2.1LRSN                1
 GAP=134        1.18       3.3     4.6  6.1 -0.7485E+00  0.7556E+01  0.1981E+01E
 Epicentro: LOS SANTOS - SANTANDER                                             3
 ACTION:UPD 14-03-10 08:06 OP:ep   STATUS:               ID:20140201182641 L   I
 OLDACT:REG 14-02-01 14:55 OP:nd   STATUS:               ID:20140201182000     3
 2014-02-01-1820-00M.COL___288                                                 6
 STAT SP IPHASW D HRMM SECON CODA AMPLIT PERI AZIMU VELO AIN AR TRES W  DIS CAZ7
 BAR2 SZ EP       1827  1.29                             170    0.0110 25.3 186 
 BAR2 SZ ES       1827 16.35                             170   -0.0510 25.3 186 
 BAR2 SZ I        1827 17.77        44.9 0.18            168           25.3 186 
 BRR  HZ EP       1827  3.32                             153    0.6610 68.9 298 
 BRR  HN ES       1827 19.81                             153    0.9610 68.9 298 
 BRR  HZ I        1827 24.94        19.2 0.14            152           68.9 298 
 PAM  SZ IP     C 1827  4.29                             151    0.4710 76.7  41 
 PAM  SN ES       1827 20.86                             151   -0.0510 76.7  41 
 PAM  SZ I        1827 22.92        15.2 0.18            156           76.7  41 
 RUS  HZ EP       1827  5.38                             143   -0.2010  103 175 
 RUS  HN ES       1827 23.15                             143   -0.9110  103 175 
 RUS  HZ I        1827 25.83         9.8 0.28            145            103 175 
 PTB  HZ EP       1827  8.23                             132   -0.35 9  147 258 
 PTB  HN ES       1827 28.48                             132   -0.91 9  147 258 
 PTB  HZ I        1827 34.13        20.0 0.15            132            147 258 
 SPBC HZ EP       1827 10.55                             128    0.26 9  164 218 
 SPBC HN ES       1827 32.80                             128    0.37 9  164 218 
 SPBC HZ I        1827 39.10        14.1 0.28            130            164 218 
 ZAR  HZ EP       1827 13.85                             122   -0.11 9  202 292 
 ZAR  HN ES       1827 39.08                             122    0.11 9  202 292 
 ZAR  HZ I        1827 44.38        13.8 0.28            123            202 292 
 NOR  HZ EP       1827 17.27                             118   -0.23 8  235 234 
 NOR  HN ES       1827 45.47                             118    0.20 8  235 234 
 NOR  HZ I        1827 47.40        13.3 0.20            119            235 234 
 SML  HZ EP       1827 17.87                             117   -0.24 8  241 335 
 SML  HN ES       1827 45.53                             117   -0.82 8  241 335 
 SML  HZ I        1827 51.25        17.7 0.24            120            241 335 
 CHI  HZ EP       1827 19.80                             116    0.15 8  250 195 
 CHI  HN ES       1827 49.35                             116    0.25 8  250 195 
 CHI  HZ I        1827 56.28         4.8 0.58            118            250 195 
 GUY2CHZ EP   4   1827 26.85                             112    1.45 0  301 234 
 GUY2CHN ES   4   1827 59.16                             112   -0.18 0  301 234 
 GUY2CHZ I        1828  9.50         6.9 0.34                           301 234 
 PRA  HZ EP       1827 35.44                             106   -0.04 6  393 209 
 PRA  HN ES       1828 17.68                             106    0.42 6  393 209 
 PRA  HZ I        1828 22.71         7.2 0.76            108            393 209 
 SJC  HZ EP   4   1827 35.70                             105   -1.37 0  407 327 
 SJC  HN ES   4   1828 16.63                             105   -3.48 0  407 327 
 SJC  HZ I        1828 18.19         2.1 0.80            107            407 327 
                                                                                
