 2015  5 1 1909  1.6 L   6.805 -73.092146.5  RSN  7 0.5 1.6LRSN                1
 GAP=160        1.18       4.6     6.7  7.8 -0.9631E+01  0.1669E+02  0.5423E+01E
 Epicentro: LOS SANTOS - SANTANDER                                             3
 ACTION:UPD 15-09-10 22:00 OP:cam  STATUS:               ID:20150501190901 L   I
 OLDACT:REG 15-05-12 21:54 OP:ak   STATUS:               ID:20150501185748     3
 2015-05-01-1857-48M.COL___279                                                 6
 STAT SP IPHASW D HRMM SECON CODA AMPLIT PERI AZIMU VELO AIN AR TRES W  DIS CAZ7
 BAR2 EZ EP       19 9 21.39                             170    0.0410 25.6 203 
 BAR2 EZ ES       19 9 35.91                             170   -0.8510 25.6 203 
 BAR2 EZ I        19 9 39.12         7.5 0.24            169           25.6 203 
 PAM  SZ EP       19 9 24.31                             152    0.6710 73.3  36 
 PAM  SN ES       19 9 40.81                             152   -0.0310 73.3  36 
 PAM  SZ I        19 9 43.66         3.6 0.17            155           73.3  36 
 BRR  HZ EP       19 9 23.30                             151    0.2010 76.2 296 
 BRR  HN ES       19 9 40.68                             151    0.8010 76.2 296 
 BRR  HZ I        19 9 43.10         9.8 0.18            153           76.2 296 
 NOR  HZ EP       19 9 37.60                             118   -0.31 8  240 235 
 NOR  HN ES       1910  5.99                             118   -0.25 8  240 235 
 NOR  HZ I        1910  9.14         5.0 0.18            120            240 235 
 SML  HZ EP   1   19 9 38.36                             117   -0.11 6  246 334 
 SML  HN ES       1910  6.33                             117   -0.91 8  246 334 
 CHI  HZ EP   1   19 9 39.13                             117   -0.43 6  251 196 
 CHI  HN ES       1910  9.28                             117    0.11 8  251 196 
 CHI  HZ I        1910 12.84         2.0 0.25            119            251 196 
 GUY2CHZ EP   1   19 9 45.81                             112   -0.00 5  306 235 
 GUY2CHN ES       1910 20.76                             112    0.46 7  306 235 
 GUY2CHZ I        1910 28.78         2.9 0.26                           306 235 
                                                                                
