 2017  9 1 1641 53.1 L   6.781 -73.078138.0  RSN 10 0.5 1.6LRSN                1
 GAP=119        1.09       3.7     4.0  6.0  0.9884E+00  0.7550E+01  0.5913E+01E
 Epicentro: LOS SANTOS - SANTANDER                                             3
 ACTION:UPD 17-10-05 19:08 OP:rebc STATUS:               ID:20170901164153 L   I
 OLDACT:REG 17-09-01 21:01 OP:dhb  STATUS:               ID:20170901163657     3
 2017-09-01-1638-00M.COL___402                                                 6
 STAT SP IPHASW D HRMM SECON CODA AMPLIT PERI AZIMU VELO AIN AR TRES W  DIS CAZ7
 BAR2 EZ IP     C 1642 11.71                             170   -0.0910 23.8 209 
 BAR2 EZ ES       1642 26.90                             170    0.5010 23.8 209 
 BAR2 EZ I        1642 29.69        14.0 0.45            170           23.8 209 
 PAM  EZ IP     C 1642 14.72                             150    0.4010 74.6  34 
 PAM  EN ES       1642 30.35                             150   -0.5310 74.6  34 
 PAM  EZ I        1642 36.74         3.7 0.11            153           74.6  34 
 BRR  HZ EP       1642 13.69                             148   -0.1910 78.8 297 
 BRR  HN ES       1642 30.40                             148    0.3110 78.8 297 
 BRR  HZ I        1642 34.48         9.8 0.22            151           78.8 297 
 RUS  HZ EP       1642 16.17                             143    0.2510 98.2 180 
 RUS  HN ES       1642 33.66                             143   -0.0610 98.2 180 
 RUS  HZ I        1642 35.58         5.9 0.27            145           98.2 180 
 SPBC HZ IP     C 1642 20.70                             127   -0.62 9  166 221 
 SPBC HE ES       1642 43.63                             127    0.29 9  166 221 
 SPBC HZ I        1642 47.21         6.5 0.09            130            166 221 
 YPLC HZ EP       1642 22.17                             126    0.37 9  171 153 
 YPLC HN ES       1642 43.57                             126   -0.63 9  171 153 
 YPLC HZ I        1642 51.99         5.4 0.24            129            171 153 
 ZAR  HZ IP     D 1642 26.57                             120    0.71 8  212 292 
 ZAR  HN ES       1642 50.49                             120   -0.93 8  212 292 
 ZAR  HZ I        1642 56.02         3.4 0.43            123            212 292 
 NOR  HZ EP       1642 29.53                             116    0.61 8  240 236 
 NOR  HE ES       1642 56.53                             116   -0.34 8  240 236 
 NOR  HZ I        1642 59.25         2.3 0.16            119            240 236 
 GUY2CHZ EP       1642 36.40                             110   -0.52 7  306 236 
 GUY2CHN ES       1643 11.47                             110    0.37 7  306 236 
 GUY2CHZ I        1643 18.45         1.7 0.28                           306 236 
 PRA  HZ EP       1642 46.55                             105   -0.03 6  394 211 
 PRA  HE ES       1643 28.19                             105   -0.11 6  394 211 
 PRA  HZ I        1643 30.84         2.1 0.25            107            394 211 
                                                                                
