 2011  3 1 1507 18.6 L   6.861 -73.199138.1  RSN 12 0.4 2.3LRSN                1
 GAP=132        0.75       2.9     5.6  9.0 -0.2065E+01  0.3069E+02  0.3084E+01E
 Epicentro: ZAPATOCA - SANTANDER                                               3
 ACTION:UP  11-06-16 14:31 OP:jfem STATUS:               ID:20110301150718 L   I
 2011-03-01-1504-46S.COL___135                                                 6
 STAT SP IPHASW D HRMM SECON CODA AMPLIT PERI AZIMU VELO SNR AR TRES W  DIS CAZ7
 BAR2 SZ EP   1   15 7 37.72                             167     0.2 8   30 177 
 BAR2 SZ I        15 7 54.65        61.0 0.07                            30 177 
 RUS  HZ EP   1   15 7 42.03                             140    -0.2 8  108 173 
 RUS  HN ES   1   15 8  0.59                             140     0.0 8  108 173 
 RUS  HZ I        15 8  2.54        32.0 0.36                           108 173 
 GRA  SZ IP       15 7 43.10                             136     0.310  121  21 
 GRA  SZ ES       15 8  1.90                             136     0.210  121  21 
 OCA  SZ EP   1   15 7 44.88                             129    -0.8 7  153 355 
 OCA  SZ ES   2   15 8  5.89                             129    -0.8 5  153 355 
 OCA  SZ I        15 8 13.17        24.3 0.26                           153 355 
 YOP  SZ EP   2   15 7 48.53                             123    -0.5 5  188 153 
 YOP  SE ES   2   15 8 12.27                             123    -0.5 5  188 153 
 YOP  SZ I        15 8 15.06        12.9 0.26                           188 153 
 CHI  HZ EP   1   15 7 56.43                             115     0.0 6  254 193 
 CHI  HE ES   2   15 8 25.62                             115    -0.4 4  254 193 
 CHI  HZ I        15 8 33.98         9.7 0.54                           254 193 
 HEL  HZ EP   2   15 7 58.21                             113     0.2 4  268 254 
 HEL  HZ I        15 8 37.33        18.2 0.40                           268 254 
 GUY  SZ I        15 8  5.40        12.6 0.11                           301 233 
 GUY  SE ES   3   15 8 36.63                             111     1.1 2  301 233 
 RREF HZ EP   2   15 8  4.93                             109     0.5 4  322 228 
 RREF HE ES   2   15 8 40.39                             109     0.2 4  322 228 
 RREF HZ I        15 8 48.64        14.9 0.39                           322 228 
 DBB  SZ EP       15 8  5.59                             108     0.5 7  333 273 
 DBB  SZ ES   1   15 8 40.64                             108    -0.6 5  333 273 
 TOL  SZ EP   2   15 8  6.66                             108     0.0 3  344 223 
 PRA  HZ EP   1   15 8 12.47                             105     0.2 4  395 208 
 PRA  HN ES   2   15 8 53.73                             105    -0.3 3  395 208 
                                                                                
