 2017  1 1 1346 45.9 L   6.763 -73.127144.9  RSN  6 0.3 1.6LRSN                1
 GAP=141        0.72       3.3     3.1  5.3 -0.6392E+00  0.4748E+01  0.2126E+01E
 Epicentro: LOS SANTOS - SANTANDER                                             3
 ACTION:UPD 17-05-22 15:54 OP:jn   STATUS:               ID:20170101134645 L   I
 OLDACT:DUP 17-01-01 22:37 OP:lv   STATUS:               ID:20170101133746d    3
 2017-01-01-1338-00M.COL___372                                                 6
 STAT SP IPHASW D HRMM SECON CODA AMPLIT PERI AZIMU VELO AIN AR TRES W  DIS CAZ7
 BRR  HZ EP       1347  7.33                             151    0.1310 75.1 301 
 BRR  HE ES       1347 24.03                             151    0.2310 75.1 301 
 BRR  HZ I        1347 28.19         6.4 0.12            150           75.1 301 
 PAM  EZ EP       1347  8.15                             150   -0.0110 79.3  36 
 PAM  EE ES       1347 25.27                             150   -0.2410 79.3  36 
 PAM  EZ I        1347 27.04        11.2 0.60            154           79.3  36 
 RUS  HZ EP       1347  9.66                             145    0.3710 96.3 177 
 RUS  HE ES       1347 27.46                             145   -0.0510 96.3 177 
 RUS  HZ I        1347 29.37         4.6 0.44            147           96.3 177 
 PTB  HZ EP       1347 12.38                             131   -0.56 9  149 261 
 PTB  HN ES       1347 33.90                             131   -0.11 9  149 261 
 PTB  HZ I        1347 36.21         4.3 0.10            132            149 261 
 ZAR  HZ EP       1347 18.44                             122   -0.23 8  208 293 
 ZAR  HE ES       1347 44.55                             122    0.33 8  208 293 
 ZAR  HZ I        1347 50.24         4.4 0.22            123            208 293 
 NOR  HZ EP       1347 21.91                             118    0.38 8  234 236 
 NOR  HN ES       1347 49.04                             118   -0.27 8  234 236 
 NOR  HZ I        1347 56.51         2.6 0.18            120            234 236 
                                                                                
