 2016  5 1 1713 39.0 L   6.738 -73.141140.0  RSN  6 0.4 1.4LRSN                1
 GAP=140        0.84       3.8     3.8  7.4 -0.2460E+01  0.1061E+02 -0.5273E+01E
 Epicentro: LOS SANTOS - SANTANDER                                             3
 ACTION:UPD 16-08-18 17:41 OP:cam  STATUS:               ID:20160501171339 L   I
 OLDACT:REG 16-05-01 21:58 OP:ak   STATUS:               ID:20160501170747     3
 2016-05-01-1707-47M.COL___301                                                 6
 STAT SP IPHASW D HRMM SECON CODA AMPLIT PERI AZIMU VELO AIN AR TRES W  DIS CAZ7
 BAR2 EZ EP       1713 58.01                             173    0.2010 16.7 196 
 BAR2 EZ ES   2   1714 12.98                             173    0.50 5 16.7 196 
 PAM  EZ EP       1714  0.94                             148    0.0310 82.5  36 
 PAM  EN ES       1714 17.72                             148   -0.3010 82.5  36 
 PAM  EZ I        1714 18.36         4.2 0.18            154           82.5  36 
 RUS  HZ EP       1714  1.41                             144   -0.2710 93.7 176 
 RUS  HN ES       1714 19.69                             144    0.3210 93.7 176 
 RUS  HZ I        1714 22.44         2.0 0.26            146           93.7 176 
 PTB  HZ EP       1714  4.92                             131   -0.52 9  147 262 
 PTB  HN ES       1714 25.75                             131   -0.31 9  147 262 
 PTB  HZ I        1714 29.46         3.7 0.16            131            147 262 
 SPBC HZ EP   2   1714  6.71                             128    0.13 5  158 221 
 SPBC HN ES       1714 28.00                             128   -0.10 9  158 221 
 SPBC HZ I        1714 34.04         3.4 0.15            130            158 221 
 ZAR  HZ EP       1714 12.15                             120    0.75 8  207 294 
 ZAR  HE ES       1714 36.86                             120    0.18 8  207 294 
 ZAR  HZ I        1714 41.77         4.5 0.42            122            207 294 
                                                                                
