 2012  1 1 1813 18.5 L   6.505 -73.564114.0  RSN  7 0.4 1.4LRSN                1
 GAP= 93        0.97       5.7     5.1 11.4 -0.7363E+01  0.2255E+02 -0.1229E+02E
 Epicentro: EL CARMEN DE CHUCURI - SANTANDER                                   3
 ACTION:UP  12-02-03 08:13 OP:REBC STATUS:               ID:20120101181318 L   I
 2012-01-01-1810-00M.COL___187                                                 6
 STAT SP IPHASW D HRMM SECON CODA AMPLIT PERI AZIMU VELO SNR AR TRES W  DIS CAZ7
 BAR2 SZ EP   1   1813 35.67                             158     0.6 7   43  77 
 BAR2 SZ ES   2   1813 47.80                             158    -0.2 5   43  77 
 BAR2 SZ I        1813 49.35        23.2 0.24                            43  77 
 BRR  HZ EP   1   1813 36.56                             147     0.4 7   69 346 
 BRR  HZ I        1813 36.86         9.9 0.12                            69 346 
 BRR  HN ES   2   1813 50.30                             147     0.4 5   69 346 
 RUS  HZ EP   1   1813 37.46                             141    -0.7 7   86 142 
 RUS  HE ES   1   1813 53.86                             141     0.4 7   86 142 
 RUS  HZ I        1813 55.33         3.0 0.13                            86 142 
 PTB  HZ IP     D 1813 38.49                             136     0.010   99 272 
 PTB  HN ES   2   1813 53.55                             136    -0.5 5   99 272 
 PTB  HZ I        1813 54.61         5.5 0.44                            99 272 
 PAM  SZ EP   1   1813 42.33                             127     0.1 7  133  46 
 PAM  SN ES       1814  0.36                             127    -0.410  133  46 
 PAM  SZ I        1814  1.83         2.7 0.18                           133  46 
 NOR  SN ES   2   1814  7.55                             118    -0.5 4  178 234 
 ZAR  HZ EP   1   1813 46.89                             118     0.4 7  180 307 
 ZAR  HZ I        1814 12.80         2.4 0.13                           180 307 
                                                                                
