 2012 12 1 1222 58.0 L   6.774 -73.178134.2  RSN  6 0.1 1.8LRSN                1
 GAP=134        0.35       2.0     1.9  3.4 -0.5778E+00  0.1934E+01 -0.9226E-01E
 Epicentro: LOS SANTOS - SANTANDER                                             3
 ACTION:UPD 13-01-04 14:24 OP:ep   STATUS:               ID:20121201122258 L   I
 2012-12-01-1220-00M.COL___236                                                 6
 STAT SP IPHASW D HRMM SECON CODA AMPLIT PERI AZIMU VELO AIN AR TRES W  DIS CAZ7
 BAR2 SZ EP       1223 16.37                             171    0.1910 20.1 181 
 BAR2 SZ ES   1   1223 30.42                             171    0.06 7 20.1 181 
 BAR2 SZ I        1223 32.50        21.5 0.35                          20.1 181 
 GIR2 SZ EP       1223 16.30                             165   -0.0810 33.7 357 
 PAM  SZ EP       1223 19.31                             147    0.0110 81.9  40 
 PAM  SZ I        1223 19.75        18.7 0.34                          81.9  40 
 PAM  SE ES       1223 35.83                             147   -0.0710 81.9  40 
 RUS  HZ EP       1223 20.53                             142    0.0910 98.0 174 
 RUS  HN ES   1   1223 37.80                             142   -0.15 7 98.0 174 
 RUS  HN I        1223 39.39         9.1 0.28                          98.0 174 
 PTB  HZ EP   1   1223 23.44                             130   -0.23 7  144 260 
 PTB  HE ES   1   1223 43.69                             130    0.00 7  144 260 
 PTB  HZ I        1223 46.87         7.8 0.40                           144 260 
 ZAR  HN ES   1   1223 54.10                             120    0.06 6  202 293 
 ZAR  HZ I        1224  1.19         5.9 0.32                           202 293 
                                                                                
