 2012  1 1 1803 43.3 L   6.835 -73.370123.2  RSN  8 0.4 2.2LRSN                1
 GAP= 89        0.84       4.7     5.9  9.2 -0.2031E+01  0.1216E+02 -0.3961E+01E
 Epicentro: SAN VICENTE DE CHUCURI - SANTANDER                                 3
 ACTION:UP  12-02-03 08:13 OP:REBC STATUS:               ID:20120101180343 L   I
 2012-01-01-1800-00M.COL___187                                                 6
 STAT SP IPHASW D HRMM SECON CODA AMPLIT PERI AZIMU VELO SNR AR TRES W  DIS CAZ7
 BAR2 SZ EP   1   18 4  1.02                             164     0.5 7   34 142 
 BAR2 SZ I        18 4  1.27       170.0 0.10                            34 142 
 BAR2 SZ ES   2   18 4 13.86                             164    -0.1 5   34 142 
 BRR  HZ EP   1   18 4  1.42                             157     0.6 7   48 309 
 BRR  HN ES   2   18 4 15.14                             157     0.7 5   48 309 
 BRR  HZ I        18 4 16.33        55.1 0.12                            48 309 
 PAM  SZ EP   1   18 4  4.26                             141     0.0 7   93  53 
 PAM  SN ES   2   18 4 19.92                             141    -0.7 5   93  53 
 PAM  SZ I        18 4 23.04        12.1 0.37                            93  53 
 RUS  HZ EP   1   18 4  5.75                             136     0.2 7  109 163 
 RUS  HN ES   2   18 4 22.52                             136    -0.5 5  109 163 
 RUS  HZ I        18 4 24.58        14.8 0.18                           109 163 
 PTB  HZ EP   1   18 4  6.20                             132    -0.1 7  124 255 
 PTB  HN ES   2   18 4 23.46                             132    -0.8 5  124 255 
 OCA  SZ EP   1   18 4  9.36                             125    -0.1 7  155   2 
 OCA  SZ ES   2   18 4 29.44                             125    -0.4 5  155   2 
 OCA  SZ I        18 4 34.62        27.1 0.17                           155   2 
 ZAR  HZ EP   1   18 4 11.48                             121    -0.3 7  180 294 
 CHI  HN ES   2   18 4 47.84                             112    -0.2 4  247 189 
                                                                                
