 2013  6 1 1241 27.4 L   6.786 -73.109138.5  RSN  6 0.2 1.9LRSN                1
 GAP=142        0.66       3.1     5.0  4.4 -0.1138E+01 -0.3387E+01 -0.3339E+00E
 Epicentro: LOS SANTOS - SANTANDER                                             3
 ACTION:UPD 14-01-08 09:51 OP:ep   STATUS:               ID:20130601124127 L   I
 2013-06-01-1238-49M.COL___217                                                 6
 STAT SP IPHASW D HRMM SECON CODA AMPLIT PERI AZIMU VELO AIN AR TRES W  DIS CAZ7
 BAR2 SZ IP       1241 46.10                             170   -0.0210 23.0 201 
 BAR2 SZ ES       1242  0.41                             170   -0.3310 23.0 201 
 BAR2 SZ I        1242  2.14        17.9 0.16            148           23.0 201 
 GIR2 SZ EP       1241 46.17                             166   -0.0810 33.7 344 
 GIR2 SZ ES       1242  0.69                             166   -0.2810 33.7 344 
 BRR  HZ EP       1241 47.91                             150   -0.0910 75.5 298 
 BRR  HN ES       1242  4.43                             150    0.3410 75.5 298 
 BRR  HE I        1242  5.04        29.6 0.20            159           75.5 298 
 PAM  SZ EP       1241 49.03                             150    0.2910 76.0  36 
 PAM  SZ I        1241 49.23        17.6 0.22            154           76.0  36 
 PAM  SN ES       1242  5.54                             150    0.1410 76.0  36 
 RUS  HZ EP       1241 50.06                             143   -0.2310 98.9 178 
 RUS  HE ES       1242  8.52                             143    0.3610 98.9 178 
 RUS  HN I        1242 39.60         7.5 0.48            129           98.9 178 
 GRA  SZ EP       1241 51.91                             135   -0.0910  126  15 
                                                                                
