 2010  8 1 1808 37.3 L   6.758 -73.103150.7  RSN  6 0.1 1.7LRSN                1
 GAP=164        0.34       2.9     6.3  4.5  0.2982E+01 -0.1194E+02 -0.3908E+01E
 Epicentro: LOS SANTOS - SANTANDER                                             3
 ACTION:UP  10-09-07 10:51 OP:vdl  STATUS:               ID:20100801180837 L   I
 2010-08-01-1805-35S.COL___122                                                 6
 STAT SP IPHASW D HRMM SECON CODA AMPLIT PERI AZIMU VELO SNR AR TRES W  DIS CAZ7
 BAR2 SZ EP   1   18 8 57.36                             172    -0.1 7   20 206 
 BAR2 SZ ES   2   18 9 12.87                             172    -0.3 5   20 206 
 BAR2 SZ I        18 9 13.99        17.8 0.17                            20 206 
 GIR2 SZ EP   1   18 8 57.56                             166    -0.1 7   37 344 
 GIR2 SZ ES   2   18 9 13.71                             166     0.1 5   37 344 
 BRR  HZ EP   1   18 8 59.23                             151    -0.1 7   78 300 
 BRR  HZ I        18 9  7.42        12.4 0.26                            78 300 
 BRR  HE ES   2   18 9 16.70                             151     0.2 5   78 300 
 RUS  HZ EP   1   18 9  1.22                             146     0.1 7   96 179 
 RUS  HE ES   2   18 9 20.01                             146     0.2 5   96 179 
 RUS  HZ I        18 9 21.06         4.4 0.34                            96 179 
 GUE  SZ EP   1   18 9  2.77                             139     0.1 7  120   9 
 GRA  SZ EP   1   18 9  3.29                             137     0.1 7  129  15 
                                                                                
