 2010  8 1 1026 34.0 L   6.802 -73.048139.9  RSN  8 0.5 1.8LRSN                1
 GAP=170        1.07       6.2    12.5 10.5 -0.2362E+02  0.3612E+01 -0.1695E+01E
 Epicentro: LOS SANTOS - SANTANDER                                             3
 ACTION:UP  10-09-07 10:51 OP:vdl  STATUS:               ID:20100801102634 L   I
 2010-08-01-1024-11S.COL___123                                                 6
 STAT SP IPHASW D HRMM SECON CODA AMPLIT PERI AZIMU VELO SNR AR TRES W  DIS CAZ7
 BAR2 SZ IP     D 1026 52.88                             168    -0.210   28 213 
 BAR2 SZ I        1026 53.20        18.9 0.11                            28 213 
 BAR2 SZ ES   2   1027  8.34                             168     0.4 5   28 213 
 GIR2 SZ EP   1   1026 53.01                             165    -0.1 7   35 332 
 GIR2 SZ ES   2   1027  8.03                             165     0.0 5   35 332 
 BRR  HZ EP   1   1026 54.81                             148    -0.3 7   81 295 
 BRR  HZ I        1026 55.15        24.6 0.09                            81 295 
 BRR  HE ES   2   1027 11.66                             148     0.1 5   81 295 
 RUS  HZ EP   1   1026 56.93                             142    -0.3 7  101 182 
 RUS  HN ES   2   1027 15.27                             142     0.0 5  101 182 
 RUS  HZ I        1027 16.79         5.0 0.32                           101 182 
 GUE  SZ EP   1   1026 57.32                             138    -0.7 7  114   7 
 GRA  SZ EP   1   1026 59.87                             136     1.4 7  123  13 
 GRA  SZ ES   2   1027 18.00                             136     0.4 5  123  13 
 OCA  SZ EP   1   1027  1.78                             128    -0.2 7  162 349 
 OCA  SZ ES   2   1027 23.41                             128    -0.5 5  162 349 
 OCA  SZ I        1027 25.56         8.9 0.56                           162 349 
 RREF HZ EP   1   1027 21.68                             109     0.8 5  330 231 
 RREF HN ES   2   1027 57.86                             109     0.4 3  330 231 
 RREF HZ I        1028  1.31         2.9 0.65                           330 231 
                                                                                
