 2012  1 1 1542  5.0 L   6.751 -73.177138.8  RSN  8 0.3 2.0LRSN                1
 GAP=135        0.66       6.0     4.2  8.5 -0.4626E+01  0.1361E+02  0.2435E+02E
 Epicentro: VILLANUEVA - SANTANDER                                             3
 ACTION:UP  12-02-03 08:12 OP:REBC STATUS:               ID:20120101154205 L   I
 2012-01-01-1540-00M.COL___188                                                 6
 STAT SP IPHASW D HRMM SECON CODA AMPLIT PERI AZIMU VELO SNR AR TRES W  DIS CAZ7
 BAR2 SZ EP       1542 23.71                             172     0.010   18 182 
 BAR2 SZ I        1542 39.99        16.1 0.17                            18 182 
 BRR  HZ EP   1   1542 25.81                             151     0.4 7   71 304 
 BRR  HZ I        1542 27.72        26.4 0.09                            71 304 
 BRR  HN ES   2   1542 40.90                             151    -0.4 5   71 304 
 PAM  SZ EP   1   1542 26.84                             147     0.0 7   84  39 
 PAM  SN ES       1542 44.02                             147     0.110   84  39 
 RUS  HZ EP   1   1542 27.44                             144    -0.2 7   95 174 
 RUS  HZ I        1542 28.65        10.1 0.17                            95 174 
 PTB  HZ EP   1   1542 30.34                             131    -0.6 7  143 261 
 PTB  HN ES   2   1542 51.00                             131    -0.3 5  143 261 
 ZAR  HZ EP   1   1542 36.63                             121    -0.2 6  203 294 
 ZAR  HN ES   2   1543  1.81                             121     0.1 4  203 294 
 ZAR  HZ I        1543  7.87        13.5 0.28                           203 294 
 NOR  SZ EP   1   1542 39.75                             118     0.1 6  229 235 
 NOR  SN ES   2   1543  7.39                             118     0.7 4  229 235 
 HEL  HZ EP   1   1542 44.74                             114     0.4 6  267 257 
 HEL  HN ES   2   1543 15.30                             114     0.3 4  267 257 
 HEL  HZ I        1543 22.36         5.5 0.32                           267 257 
                                                                                
