 2017  2 1 1141  4.4 L   6.733 -73.170145.5  RSN  6 0.4 1.7LRSN                1
 GAP=229        0.93       7.2     6.5  6.5  0.2784E+02  0.9323E+01  0.1144E+02E
 Epicentro: VILLANUEVA - SANTANDER                                             3
 ACTION:UPD 17-05-24 15:31 OP:jn   STATUS:               ID:20170201114104 L   I
 OLDACT:REG 17-02-01 20:22 OP:ar   STATUS:               ID:20170201113741     3
 2017-02-01-1138-00M.COL___322                                                 6
 STAT SP IPHASW D HRMM SECON CODA AMPLIT PERI AZIMU VELO AIN AR TRES W  DIS CAZ7
 BAR2 EZ EP       1141 23.55                             174   -0.3410 15.7 185 
 BAR2 EZ ES       1141 38.85                             174   -0.2210 15.7 185 
 BAR2 EZ I        1141 39.76        12.0 0.26            174           15.7 185 
 BRR  HZ EP       1141 25.39                             152   -0.2410 72.8 305 
 BRR  HN ES       1141 42.58                             152    0.4110 72.8 305 
 BRR  HZ I        1141 45.65        13.8 0.36            150           72.8 305 
 RUS  HZ EP       1141 28.01                             146    0.3710 93.5 174 
 RUS  HN ES   2   1141 46.24                             146    0.48 5 93.5 174 
 RUS  HZ I        1141 48.22         4.6 0.28            148           93.5 174 
 PTB  HZ EP       1141 30.39                             133   -0.62 9  144 262 
 PTB  HN ES       1141 51.43                             133   -0.33 9  144 262 
 PTB  HZ I        1141 52.34         6.9 0.14            132            144 262 
 ZAR  HZ EP       1141 37.12                             122    0.23 9  205 294 
 ZAR  HE ES       1142  2.64                             122    0.42 9  205 294 
 ZAR  HZ I        1142 11.65         5.8 0.22            122            205 294 
 CHI  HZ EP       1141 41.67                             118    0.42 8  241 195 
                                                                                
