 2012  1 1 1237 11.3 L   6.461 -73.697100.0  RSN  5 0.3 1.2LRSN                1
 GAP=100        0.54       4.7     4.7 11.3  0.5071E+01  0.9962E+01  0.3718E+02E
 Epicentro: SANTA HELENA DEL OPON - SANTANDER                                  3
 ACTION:UP  12-02-03 08:12 OP:REBC STATUS:               ID:20120101123711 L   I
 2012-01-01-1230-00M.COL___186                                                 6
 STAT SP IPHASW D HRMM SECON CODA AMPLIT PERI AZIMU VELO SNR AR TRES W  DIS CAZ7
 BAR2 SZ EP   1   1237 27.44                             147     0.3 7   59  76 
 BAR2 SZ ES   2   1237 39.23                             147    -0.4 5   59  76 
 BAR2 SZ I        1237 41.91         8.4 0.18                            59  76 
 BRR  HN ES       1237 40.63                             142     0.010   72 359 
 PTB  HZ EP   3   1237 27.60                             137    -1.2 2   84 276 
 RUS  HZ EP   1   1237 30.04                             134    -0.1 7   93 133 
 RUS  HN ES   2   1237 45.02                             134     0.1 5   93 133 
 RUS  HZ I        1237 47.24         2.5 0.18                            93 133 
 NOR  SE ES   2   1237 56.71                             117     0.1 5  163 233 
                                                                                
