 2011  7 1 1311 30.9 L   6.785 -73.072146.5  RSN  5 0.2 1.7LRSN                1
 GAP=203        0.51       5.8    10.3  5.5  0.3999E+02 -0.2227E+02 -0.1244E+02E
 Epicentro: LOS SANTOS - SANTANDER                                             3
 ACTION:UPD 12-07-25 13:57 OP:epov STATUS:               ID:20110701131130 L   I
 2011-07-01-1309-52S.COL___140                                                 6
 STAT SP IPHASW D HRMM SECON CODA AMPLIT PERI AZIMU VELO AIN AR TRES W  DIS CAZ7
 BAR2 SZ EP       1311 50.65                             170    0.0010 24.5 210 
 BAR2 SZ ES   1   1312  5.62                             170   -0.43 7 24.5 210 
 BAR2 SZ I        1312  6.96        13.1 0.17                          24.5 210 
 BTL  SZ EP       1311 50.79                             169    0.1010 26.2 304 
 BTL  SZ ES   1   1312  6.57                             169    0.46 7 26.2 304 
 GIR2 SZ EP       1311 50.61                             166   -0.1710 35.2 338 
 BRR  HZ EP       1311 52.64                             150    0.0410 79.2 297 
 BRR  HZ I        1311 52.69        11.1 0.26                          79.2 297 
 BRR  HN ES   1   1312  9.41                             150   -0.11 7 79.2 297 
 RUS  HZ EP   2   1311 54.65                             144    0.06 5 98.7 181 
 RUS  HN ES   1   1312 13.17                             144    0.10 7 98.7 181 
 RUS  HZ I        1312 15.17         7.8 0.40                          98.7 181 
                                                                                
