 2016 12 1 1935 16.0 L   6.781 -73.109147.9  RSN  9 0.4 2.2LRSN                1
 GAP=160        0.97       4.2     4.9  6.5 -0.2273E+01  0.9925E+01  0.9445E+01E
 Epicentro: LOS SANTOS - SANTANDER                                             3
 ACTION:UPD 17-01-11 20:11 OP:rebc STATUS:               ID:20161201193516 L   I
 OLDACT:REG 16-12-01 21:15 OP:lv   STATUS:               ID:20161201192747     3
 2016-12-01-1928-00M.COL___336                                                 6
 STAT SP IPHASW D HRMM SECON CODA AMPLIT PERI AZIMU VELO AIN AR TRES W  DIS CAZ7
 BAR2 EZ EP       1935 35.81                             171   -0.0410 22.4 201 
 BAR2 EZ ES       1935 51.00                             171   -0.3510 22.4 201 
 BAR2 EZ I        1935 53.61        31.0 0.24            170           22.4 201 
 BRR  HZ EP       1935 37.70                             151    0.0810 75.7 298 
 BRR  HN ES       1935 55.18                             151    0.6810 75.7 298 
 PAM  EZ EP       1935 38.45                             151    0.0710 76.6  36 
 PAM  EN ES       1935 55.78                             151   -0.0710 76.6  36 
 PTB  HZ EP       1935 42.68                             132   -0.77 9  151 260 
 PTB  HN ES   4   1936  3.43                             132   -1.44 0  151 260 
 PTB  HZ I        1936  5.89        27.7 0.10            131            151 260 
 ZAR  HZ EP       1935 49.58                             122    0.55 8  209 292 
 ZAR  HN ES       1936 14.36                             122   -0.45 8  209 292 
 ZAR  HZ I        1936 19.39        16.5 0.11            122            209 292 
 NOR  HZ EP       1935 52.19                             119    0.13 8  237 235 
 NOR  HE ES       1936 19.93                             119   -0.26 8  237 235 
 CHI  HZ EP       1935 53.53                             118   -0.17 8  248 196 
 CHI  HN ES       1936 23.32                             118    0.21 8  248 196 
 PRA  HZ EP   4   1936 10.88                             107    1.29 0  392 210 
 PRA  HE ES       1936 52.20                             107    0.79 6  392 210 
 PRA  HZ I        1936 55.51         7.3 0.42            107            392 210 
 SJC  HZ EP   4   1936  9.95                             106   -2.13 0  413 327 
 SJC  HN ES   4   1936 50.24                             106   -5.60 0  413 327 
 SJC  HZ I        1936 58.41         2.1 0.30            106            413 327 
                                                                                
