 2013  2 1 1937 43.3 L   6.827 -73.087154.9  RSN  7 0.3 1.7LRSN                1
 GAP=143        0.77       3.3     4.3  5.3 -0.1842E+01  0.6849E+01  0.3591E+01E
 Epicentro: LOS SANTOS - SANTANDER                                             3
 ACTION:UPD 13-03-12 09:29 OP:ep   STATUS:               ID:20130201193743 L   I
 2013-02-01-1928-50M.COL___190                                                 6
 STAT SP IPHASW D HRMM SECON CODA AMPLIT PERI AZIMU VELO AIN AR TRES W  DIS CAZ7
 BAR2 SZ EP       1938  3.83                             169   -0.2710 28.0 202 
 BAR2 SZ ES       1938 19.84                             169   -0.5110 28.0 202 
 BAR2 SZ I        1938 21.57        14.7 0.30            167           28.0 202 
 PAM  SZ EP       1938  6.55                             154    0.4310 71.0  37 
 PAM  SN ES       1938 24.03                             154    0.0910 71.0  37 
 PAM  SZ I        1938 25.89         6.9 0.56            151           71.0  37 
 BRR  HZ EP       1938  5.73                             153    0.0710 75.7 294 
 BRR  HZ I        1938  5.79        13.0 0.18            152           75.7 294 
 BRR  HN ES   1   1938 23.54                             153    0.41 7 75.7 294 
 RUS  HZ EP       1938  7.79                             145   -0.3410  103 180 
 RUS  HZ I        1938 27.21         3.2 0.28            140            103 180 
 RUS  HN ES       1938 27.69                             145    0.1810  103 180 
 ZAR  HZ EP   2   1938 15.74                             124   -1.09 4  209 291 
 ZAR  HN ES   1   1938 43.13                             124    0.12 6  209 291 
 ZAR  HZ I        1938 49.74         7.0 0.44            120            209 291 
 NOR  HZ EP       1938 20.24                             119   -0.05 8  242 235 
 NOR  HN ES       1938 49.10                             119   -0.06 8  242 235 
 NOR  HZ I        1938 51.64         5.5 0.22            116            242 235 
 CHI  HZ EP       1938 22.14                             118    0.15 8  253 196 
 CHI  HN ES       1938 52.58                             118    0.39 8  253 196 
 CHI  HZ I        1938 56.34         2.3 0.58            114            253 196 
                                                                                
