 2017  4 1 1458 45.8 L   6.679 -73.177144.1  RSN  4 0.3 1.4LRSN                1
 GAP=224        0.66       5.2     5.1  6.3  0.1164E+02  0.3303E+01 -0.2850E+01E
 Epicentro: VILLANUEVA - SANTANDER                                             3
 ACTION:UPD 17-05-30 21:07 OP:jn   STATUS:               ID:20170401145845 L   I
 OLDACT:REG 17-04-01 21:03 OP:dnl  STATUS:               ID:20170401145744     3
 2017-04-01-1458-00M.COL___365                                                 6
 STAT SP IPHASW D HRMM SECON CODA AMPLIT PERI AZIMU VELO AIN AR TRES W  DIS CAZ7
 BAR2 EZ EP       1459  5.06                             176    0.0310 9.56 183 
 BAR2 EZ ES       1459 20.43                             176    0.4010 9.56 183 
 BAR2 EZ I        1459 23.68         7.3 0.54            175           9.56 183 
 BRR  HZ EP       1459  7.10                             151    0.0710 75.7 309 
 BRR  HE ES       1459 23.21                             151   -0.3810 75.7 309 
 BRR  HZ I        1459 29.67        12.1 0.30            151           75.7 309 
 RUS  HZ EP   2   1459  8.58                             147    0.10 5 87.5 173 
 RUS  HN ES       1459 25.88                             147   -0.2910 87.5 173 
 RUS  HZ I        1459 28.84         1.6 0.22            152           87.5 173 
 PTB  HZ EP   2   1459 11.99                             133   -0.14 5  142 264 
 PTB  HN ES       1459 32.87                             133    0.20 9  142 264 
 PTB  HZ I        1459 37.39         2.7 0.40            135            142 264 
                                                                                
