 2016 10 1 1508 14.7 L   6.767 -73.105144.0  RSN 10 0.3 1.7LRSN                1
 GAP=143        0.89       3.8     4.9  5.5 -0.7562E+01 -0.1597E+01  0.6416E+01E
 Epicentro: LOS SANTOS - SANTANDER                                             3
 ACTION:UPD 16-11-09 19:15 OP:rebc STATUS:               ID:20161001150814 L   I
 OLDACT:UP  16-10-02 00:42 OP:edw  STATUS:               ID:20161001145143     3
 OLDACT:UP  16-10-02 00:42 OP:edw  STATUS:               ID:20161001145143     3
 OLDACT:UP  16-10-02 00:41 OP:edw  STATUS:               ID:20161001145143     3
 OLDACT:REG 16-10-01 21:03 OP:edw  STATUS:               ID:20161001145143     3
 2016-10-01-1458-00M.COL___368                                                 6
 STAT SP IPHASW D HRMM SECON CODA AMPLIT PERI AZIMU VELO AIN AR TRES W  DIS CAZ7
 BAR2 EZ EP       15 8 33.89                             171   -0.1910 21.1 204 
 BAR2 EZ ES       15 8 49.36                             171    0.1710 21.1 204 
 BAR2 EZ I        15 8 51.73        19.9 0.30            168           21.1 204 
 BRR  HZ EP       15 8 35.91                             151   -0.0810 76.9 299 
 BRR  HN ES       15 8 52.94                             151    0.3410 76.9 299 
 PAM  EZ EP       15 8 36.80                             151    0.0610 77.5  35 
 PAM  EN ES       15 8 53.82                             151   -0.1110 77.5  35 
 PAM  EZ I        15 8 57.21         4.5 0.38            154           77.5  35 
 RUS  HZ EP       15 8 37.90                             145   -0.1010 96.7 179 
 RUS  HN ES       15 8 56.34                             145    0.1610 96.7 179 
 RUS  HZ I        15 8 57.93         6.4 0.36            146           96.7 179 
 PTB  HZ EP   9   15 8 40.86                             131   -1.01 0  152 261 
 PTB  HN ES       15 9  2.89                             129    0.84 9  152 261 
 PTB  HZ I        15 9  8.49         3.8 0.13            129            152 261 
 SPBC HZ EP       15 8 43.16                             129    0.08 9  163 221 
 SPBC HN ES       15 9  4.79                             129   -0.42 9  163 221 
 SPBC HZ I        15 9  9.80         7.4 0.10            128            163 221 
 ZAR  HZ EP   4   15 8 49.44                             122    1.83 0  210 293 
 ZAR  HN ES   4   15 9 12.44                             122   -0.84 0  210 293 
 ZAR  HZ I        15 9 21.36         3.8 0.24            120            210 293 
 NOR  HZ EP   4   15 8 53.71                             118    3.21 0  236 236 
 NOR  HN ES       15 9 17.74                             118   -0.69 8  236 236 
 NOR  HZ I        15 9 23.28         3.0 0.16            118            236 236 
 CHI  HZ EP       15 8 52.37                             117    0.31 8  246 196 
 CHI  HN ES       15 9 21.64                             117    0.45 8  246 196 
 CHI  HZ I        15 9 27.56         2.8 0.36            118            246 196 
 GUY2CHZ EP   4   15 9  1.40                             112    2.99 0  303 236 
 GUY2CHN ES   4   15 9 37.05                             112    4.54 0  303 236 
 GUY2CHZ I        15 9 40.10         3.3 0.34                           303 236 
                                                                                
