 2014  3 1 1348 45.5 L   6.808 -73.162146.7  RSN  8 0.3 1.9LRSN                1
 GAP=134        0.70       2.3     3.3  4.9 -0.8307E+00  0.4794E+01 -0.7481E+00E
 Epicentro: LOS SANTOS - SANTANDER                                             3
 ACTION:UPD 14-04-09 23:13 OP:nd   STATUS:               ID:20140301134845 L   I
 OLDACT:REG 14-03-01 16:02 OP:cam  STATUS:               ID:20140301134819     3
 2014-03-01-1348-19M.COL___225                                                 6
 STAT SP IPHASW D HRMM SECON CODA AMPLIT PERI AZIMU VELO AIN AR TRES W  DIS CAZ7
 BAR2 SZ EP       1349  5.42                             170    0.1310 24.0 185 
 BAR2 SZ ES       1349 20.25                             170   -0.4410 24.0 185 
 BAR2 SZ I        1349 22.22        19.8 0.42            169           24.0 185 
 PAM  SZ EP       1349  8.04                             151    0.1710 77.9  41 
 PAM  SN ES       1349 25.52                             151    0.2210 77.9  41 
 PAM  SZ I        1349 27.55        16.5 0.56            156           77.9  41 
 RUS  HZ EP       1349  9.33                             144   -0.1210  102 175 
 RUS  HN ES       1349 28.28                             144    0.1810  102 175 
 RUS  HZ I        1349 29.00         4.9 0.28            147            102 175 
 PTB  HZ EP       1349 12.47                             132    0.04 9  146 258 
 PTB  HN ES       1349 33.43                             132    0.02 9  146 258 
 PTB  HZ I        1349 39.36         6.6 0.30            132            146 258 
 SPBC HZ EP   1   1349 14.45                             129    0.39 7  163 218 
 SPBC HN ES       1349 36.50                             129    0.19 9  163 218 
 SPBC HZ I        1349 42.27        12.6 0.24            130            163 218 
 ZAR  HZ EP   4   1349 19.94                             123    2.11 0  202 292 
 ZAR  HN ES   1   1349 43.31                             123    0.29 6  202 292 
 ZAR  HZ I        1349 50.97         6.4 0.30            123            202 292 
 SML  HZ EP   1   1349 21.32                             118   -0.72 6  242 336 
 SML  HN ES       1349 50.30                             118   -0.21 8  242 336 
 SML  HZ I        1349 53.25        12.6 0.10            119            242 336 
 CHI  HZ EP   1   1349 23.66                             117    0.34 6  249 195 
 CHI  HN ES       1349 52.20                             117   -0.60 8  249 195 
 CHI  HN I        1349 55.60         6.5 0.40            119            249 195 
                                                                                
