 2016  7 1 1639  8.8 L   7.527 -73.149140.7  RSN 12 0.4 2.2LRSN                1
 GAP=153        0.84       3.6     3.5  4.8 -0.4664E+00  0.5862E+01 -0.3018E+00E
 Epicentro: EL PLAYON - SANTANDER                                              3
 ACTION:UPD 17-03-29 16:45 OP:lp   STATUS:               ID:20160701163908 L   I
 OLDACT:REG 16-07-01 20:06 OP:edw  STATUS:               ID:20160701163746     3
 2016-07-01-1637-46M.COL___346                                                 6
 STAT SP IPHASW D HRMM SECON CODA AMPLIT PERI AZIMU VELO AIN AR TRES W  DIS CAZ7
 PAM  EZ EP       1639 29.76                             158    0.5110 53.7 113 
 PAM  EN ES       1639 45.13                             158   -0.0410 53.7 113 
 PAM  EZ I        1639 46.61        12.6 0.20            160           53.7 113 
 BRR  HZ EP       1639 29.93                             149    0.1110 77.6 233 
 BRR  HN ES       1639 46.39                             149    0.2010 77.6 233 
 BAR2 EZ EP       1639 31.55                             142   -0.4010  103 182 
 BAR2 EZ ES       1639 49.67                             142   -0.3110  103 182 
 BAR2 EZ I        1639 50.74        12.3 0.52            138            103 182 
 RUS  HZ EP       1639 38.72                             125   -0.50 9  181 178 
 RUS  HN ES       1640  3.29                             125    0.37 9  181 178 
 PTB  HZ EP       1639 38.06                             125   -0.56 9  181 233 
 PTB  HN ES       1640  1.43                             125   -0.41 9  181 233 
 PTB  HZ I        1640  3.76        17.2 0.42            120            181 233 
 ZAR  HZ EP       1639 39.82                             123    0.45 9  189 269 
 ZAR  HN ES       1640  3.33                             123    0.14 9  189 269 
 ZAR  HZ I        1640  7.11        19.6 0.26            119            189 269 
 SPBC HZ EP       1639 44.10                             118    0.16 8  231 206 
 SPBC HN ES       1640 11.08                             118   -0.24 8  231 206 
 SPBC HZ I        1640 18.64        17.6 0.34            114            231 206 
 URE  HZ EP   4   1639 49.43                             114    1.96 0  264 276 
 URE  HN ES   4   1640 15.70                             114   -1.90 0  264 276 
 URE  HZ I        1640 26.21        12.6 0.28            110            264 276 
 NOR  HZ EP       1639 50.01                             112   -0.26 7  289 221 
 NOR  HN ES       1640 22.81                             112    0.23 7  289 221 
 NOR  HZ I        1640 30.00        10.5 0.24            109            289 221 
 HEL  HZ EP   4   1639 53.69                             111    1.55 0  302 241 
 HEL  HN ES   4   1640 28.45                             111    2.54 0  302 241 
 SJC  HZ EP       1639 56.62                             108   -0.03 7  344 320 
 SJC  HN ES   4   1640 32.06                             108   -1.89 0  344 320 
 SJC  HZ I        1640 36.26         3.3 0.40            105            344 320 
 GUY2CHZ EP       1639 58.25                             108    0.02 6  353 224 
 GUY2CHN ES       1640 36.89                             108    0.14 6  353 224 
 GUY2CHZ I        1640 46.85         8.8 0.72                           353 224 
 CBOC HZ EP   4   1640 28.04                             107   28.72 0  366 240 
 CBOC HN ES   4   1640 58.71                             107   20.02 0  366 240 
 CRJC HZ EP   4   1639 58.66                             106   -3.05 0  387   4 
 CRJC HN ES   4   1640 43.32                             106    0.37 0  387   4 
 PRA  HZ EP       1640 10.81                             103    0.17 5  464 205 
 PRA  HN ES       1641  0.19                             103    1.34 5  464 205 
 PRA  HZ I        1641  9.45         4.5 0.56            100            464 205 
                                                                                
