 2011  5 1 1729 46.0 L   6.818 -73.077143.8  RSN  6 0.2 1.5LRSN                1
 GAP=145        0.37       6.7    10.9 12.0  0.2164E+02  0.6817E+02  0.6609E+01E
 Epicentro: LOS SANTOS - SANTANDER                                             3
 ACTION:DUP 11-06-29 08:50 OP:tino STATUS:               ID:20110501172947dL   I
 2011-05-01-1728-32S.COL___129                                                 6
 STAT SP IPHASW D HRMM SECON CODA AMPLIT PERI AZIMU VELO SNR AR TRES W  DIS CAZ7
 BAR2 SZ EP       1730  5.60                             169     0.110   28 205 
 BAR2 SZ I        1730 19.73         5.8 0.89                            28 205 
 GIR2 SZ ES   3   1730 20.48                             167    -0.1 2   32 336 
 PAM  SN ES   3   1730 24.66                             152     0.1 2   71  36 
 BRR  HZ EP       1730  7.27                             150     0.010   77 295 
 BRR  HZ I        1730 19.28         7.3 0.59                            77 295 
 RUS  HZ EP   3   1730  9.29                             143    -0.4 2  102 180 
 RUS  HN ES   3   1730 27.77                             143    -0.4 2  102 180 
 GRA  SZ EP   3   1730 10.25                             137    -0.5 2  122  14 
 GRA  SZ I        1730 12.10         4.1 0.39                           122  14 
                                                                                
