 2014  6 1 1108 57.0 L   6.823 -73.188135.4  RSN  7 0.4 2.0LRSN                1
 GAP=179        0.87       2.9     5.1  6.7 -0.8678E+00  0.9866E+01 -0.7170E+01E
 Epicentro: ZAPATOCA - SANTANDER                                               3
 ACTION:UPD 14-07-01 22:49 OP:nd   STATUS:               ID:20140601110857 L   I
 OLDACT:REG 14-06-01 22:09 OP:cam  STATUS:               ID:20140601110644     3
 2014-06-01-1106-44M.COL___241                                                 6
 STAT SP IPHASW D HRMM SECON CODA AMPLIT PERI AZIMU VELO AIN AR TRES W  DIS CAZ7
 BAR2 SZ IP     D 11 9 15.49                             169    0.0410 25.5 179 
 BAR2 SZ ES       11 9 30.23                             169    0.3910 25.5 179 
 BAR2 SZ I        11 9 32.19        16.1 0.18            170           25.5 179 
 RUS  HZ EP       11 9 20.17                             141    0.1810  104 174 
 RUS  HE ES       11 9 37.44                             141   -0.4710  104 174 
 RUS  HZ I        11 9 38.94        10.9 0.32            146            104 174 
 PTB  HZ EP       11 9 22.55                             130   -0.23 9  144 257 
 PTB  HN ES       11 9 42.79                             130   -0.08 9  144 257 
 PTB  HZ I        11 9 45.49        17.6 0.22            131            144 257 
 OCA  HZ EP   1   11 9 24.06                             128   -0.19 7  157 355 
 OCA  HN ES       11 9 45.48                             128   -0.01 9  157 355 
 OCA  HZ I        11 9 47.36        14.0 0.38            129            157 355 
 SPBC HZ EP   1   11 9 25.64                             127    0.99 7  162 217 
 SPBC HN ES       11 9 45.92                             127   -0.29 9  162 217 
 SPBC HZ I        11 9 48.93        12.4 0.24            129            162 217 
 ZAR  HZ EP       11 9 28.69                             121    0.44 9  199 292 
 ZAR  HN ES   4   11 9 54.57                             121    1.96 0  199 292 
 ZAR  HZ I        1110  0.01        13.1 0.26            121            199 292 
 SML  HZ EP       11 9 32.10                             116   -0.52 8  239 336 
 SML  HN ES       1110  0.42                             116    0.04 8  239 336 
 SML  HZ I        1110  6.88        17.4 0.26            117            239 336 
                                                                                
