 2015  3 1 1507 29.0 L   6.411 -73.600117.8  RSN  4 0.5 1.5LRSN                1
 GAP=170        1.17      11.0     6.7 10.7 -0.5634E+02  0.2900E+00  0.1232E+02E
 Epicentro: SANTA HELENA DEL OPON - SANTANDER                                  3
 ACTION:UPD 15-04-30 16:22 OP:nd   STATUS:               ID:20150301150729 L   I
 OLDACT:UP  15-03-01 22:53 OP:mh   STATUS:               ID:20150301145747     3
 OLDACT:REG 15-03-01 21:26 OP:mh   STATUS:               ID:20150301145747     3
 2015-03-01-1457-47M.COL___293                                                 6
 STAT SP IPHASW D HRMM SECON CODA AMPLIT PERI AZIMU VELO AIN AR TRES W  DIS CAZ7
 BAR2 EZ EP       15 7 46.93                             155    0.5810 50.4  67 
 BAR2 EZ ES       15 7 59.46                             155   -0.4010 50.4  67 
 BAR2 EZ I        15 8  1.51        12.1 0.33            150           50.4  67 
 PTB  HZ EP       15 7 48.50                             138   -0.6010 95.7 279 
 PTB  HN ES       15 8  5.04                             138    0.2910 95.7 279 
 PTB  HZ I        15 8  6.26         6.4 0.14            135           95.7 279 
 PAM  SZ EP       15 7 54.54                             126    0.50 9  143  44 
 PAM  SN ES       15 8 13.34                             126   -0.21 9  143  44 
 PAM  SZ I        15 8 27.40         3.9 0.40            121            143  44 
 NOR  HZ EP   1   15 7 55.27                             121   -0.83 7  169 236 
 NOR  HN ES       15 8 17.51                             121    0.31 9  169 236 
 NOR  HZ I        15 8 20.40         3.7 0.18            120            169 236 
                                                                                
