 2011 10 1 1636  4.6 L   6.897 -73.355110.9  RSN  4 0.2 1.6LRSN                1
 GAP=210        0.43       4.5     4.8  3.7  0.1914E+02  0.5958E+01  0.3786E+01E
 Epicentro: SAN VICENTE DE CHUCURI - SANTANDER                                 3
 ACTION:UPD 12-07-13 16:01 OP:ep   STATUS:               ID:20111001163604 L   I
 2011-10-01-1634-29S.COL___168                                                 6
 STAT SP IPHASW D HRMM SECON CODA AMPLIT PERI AZIMU VELO AIN AR TRES W  DIS CAZ7
 BAR2 SZ EP       1636 20.71                             159    0.1610 38.8 150 
 BAR2 SZ ES       1636 33.00                             159   -0.0310 38.8 150 
 BAR2 SZ I        1636 35.35         9.3 0.38                          38.8 150 
 BRR  HZ EP       1636 20.65                             156    0.1210 45.7 300 
 BRR  HN ES       1636 32.82                             156   -0.1610 45.7 300 
 BRR  HZ I        1636 34.68        14.8 0.14                          45.7 300 
 RUS  HZ EP   1   1636 26.21                             131   -0.16 7  115 165 
 RUS  HN ES       1636 43.40                             131    0.0110  115 165 
 ZAR  HZ EP   1   1636 31.87                             117   -0.32 7  179 292 
 ZAR  HE ES       1636 53.90                             117    0.16 9  179 292 
 ZAR  HZ I        1636 57.39         5.2 0.18                           179 292 
                                                                                
