 2017  4 1 1644  4.6 L   6.804 -73.130147.8  RSN  7 0.4 2.0LRSN                1
 GAP=239        1.06       5.4     6.2  7.5  0.1156E+02  0.9992E+01  0.7711E+01E
 Epicentro: LOS SANTOS - SANTANDER                                             3
 ACTION:UPD 17-05-30 21:07 OP:jn   STATUS:               ID:20170401164404 L   I
 OLDACT:UP  17-04-01 23:49 OP:dnl  STATUS:               ID:20170401163742     3
 OLDACT:REG 17-04-01 21:11 OP:dnl  STATUS:               ID:20170401163742     3
 2017-04-01-1638-00M.COL___358                                                 6
 STAT SP IPHASW D HRMM SECON CODA AMPLIT PERI AZIMU VELO AIN AR TRES W  DIS CAZ7
 BAR2 EZ EP       1644 24.50                             170    0.0210 24.1 194 
 BAR2 EZ ES       1644 39.49                             170   -0.5110 24.1 194 
 BAR2 EZ I        1644 40.84        39.1 0.20            163           24.1 194 
 BRR  HZ EP       1644 26.30                             152    0.2710 72.5 298 
 BRR  HE ES       1644 43.48                             152    0.7210 72.5 298 
 BRR  HZ I        1644 46.34        16.7 0.42            147           72.5 298 
 RUS  HZ EP       1644 28.57                             144    0.0110  101 177 
 RUS  HN ES       1644 47.26                             144   -0.0110  101 177 
 RUS  HZ I        1644 48.59         4.6 0.22            143            101 177 
 PTB  HZ EP       1644 31.27                             132   -0.61 9  150 259 
 PTB  HN ES       1644 52.38                             132   -0.79 9  150 259 
 PTB  HZ I        1644 59.57        12.4 0.54            129            150 259 
 SPBC HZ EP       1644 33.48                             129    0.10 9  165 219 
 SPBC HE ES       1644 56.35                             129    0.51 9  165 219 
 SPBC HZ I        1645  2.41        14.0 0.36            127            165 219 
 ZAR  HZ EP   4   1644 38.84                             123    1.52 0  205 292 
 ZAR  HN ES       1645  2.95                             123    0.11 8  205 292 
 ZAR  HZ I        1645  8.70         7.7 0.66            121            205 292 
 PRA  HZ EP   2   1644 58.48                             107    0.16 3  393 210 
 PRA  HN ES       1645 40.60                             107    0.36 6  393 210 
 PRA  HZ I        1645 47.59         4.9 0.32            107            393 210 
                                                                                
