 2013 12 1 1433 38.0 L   6.762 -73.157147.2  RSN  5 0.4 1.5LRSN                1
 GAP=137        0.98       5.3     5.1  7.2 -0.2488E+01  0.4354E+01  0.1408E+01E
 Epicentro: LOS SANTOS - SANTANDER                                             3
 ACTION:UPD 14-01-13 10:15 OP:ep   STATUS:               ID:20131201143338 L   I
 OLDACT:UP  13-12-01 15:37 OP:cam  STATUS:               ID:20131201143000     3
 OLDACT:REG 13-12-01 14:36 OP:cam  STATUS:               ID:20131201143000     3
 2013-12-01-1430-00M.COL___282                                                 6
 STAT SP IPHASW D HRMM SECON CODA AMPLIT PERI AZIMU VELO AIN AR TRES W  DIS CAZ7
 BAR2 SZ EP       1433 57.76                             172    0.0810 18.9 189 
 BAR2 SZ ES       1434 12.66                             172   -0.4010 18.9 189 
 BAR2 SZ I        1434 13.68        11.8 0.28            174           18.9 189 
 BRR  HZ EP       1433 59.65                             152    0.3310 72.3 302 
 BRR  HN ES       1434 16.69                             152    0.7110 72.3 302 
 PAM  SZ EP       1434  0.59                             150    0.0210 81.5  38 
 PAM  SN ES       1434 17.82                             150   -0.3910 81.5  38 
 PAM  SZ I        1434 22.22         4.4 0.58            150           81.5  38 
 RUS  HZ EP       1434  1.69                             145    0.1310 96.5 175 
 RUS  HN ES       1434 20.22                             145    0.2610 96.5 175 
 RUS  HZ I        1434 21.07         3.9 0.20            148           96.5 175 
 PTB  HZ EP       1434  4.46                             133   -0.40 9  146 260 
 PTB  HN ES       1434 25.40                             133   -0.45 9  146 260 
 PTB  HZ I        1434 27.78         4.9 0.18            135            146 260 
                                                                                
