 2012 10 1 1653 23.1 L   7.143 -73.112159.9  RSN  5 0.2 1.9LRSN                1
 GAP=257        0.51       6.0     5.2  6.4  0.1755E+02 -0.2187E+01 -0.1120E+02E
 Epicentro: BUCARAMANGA - SANTANDER                                            3
 ACTION:UPD 12-11-22 17:01 OP:ep   STATUS:               ID:20121001165323 L   I
 2012-10-01-1649-50M.COL___205                                                 6
 STAT SP IPHASW D HRMM SECON CODA AMPLIT PERI AZIMU VELO AIN AR TRES W  DIS CAZ7
 BAR2 SZ EP   1   1653 45.36                             158   -0.32 7 61.4 187 
 BAR2 SZ ES   1   1654  3.27                             158   -0.01 7 61.4 187 
 BAR2 SZ I        1654  7.06        17.0 0.16                          61.4 187 
 BRR  HZ EP       1653 45.69                             156    0.1310 66.4 267 
 BRR  HN ES   1   1654  2.92                             156   -0.15 7 66.4 267 
 BRR  HN I        1654  5.10        31.6 0.22                          66.4 267 
 BRR  HZ I        1654  5.64        12.9 0.28                          66.4 267 
 RUS  HN ES   1   1654 13.30                             137    0.32 7  138 179 
 RUS  HN I        1654 14.83         1.7 0.58                           138 179 
 PTB  HN EP   1   1653 52.52                             132   -0.08 7  163 246 
 PTB  HN ES   1   1654 15.31                             132   -0.29 7  163 246 
 ZAR  HN ES   1   1654 21.61                             126    0.35 6  197 281 
 ZAR  HN I        1654 22.09        17.9 0.14                           197 281 
 ZAR  HZ I        1654 22.91         7.4 0.12                           197 281 
                                                                                
