 2011 11 1 1147 15.9 L   6.785 -73.119142.5  RSN  4 0.3 1.5LRSN                1
 GAP=239        0.59       8.3     9.1  6.1  0.6253E+02 -0.5691E+00 -0.7495E+01E
 Epicentro: LOS SANTOS - SANTANDER                                             3
 ACTION:UPD 12-07-13 16:07 OP:ep   STATUS:               ID:20111101114715 L   I
 2011-11-01-1143-57S.COL___175                                                 6
 STAT SP IPHASW D HRMM SECON CODA AMPLIT PERI AZIMU VELO AIN AR TRES W  DIS CAZ7
 BAR2 SZ EP       1147 35.00                             170   -0.1310 22.5 198 
 BAR2 SZ ES   1   1147 49.72                             170   -0.40 7 22.5 198 
 BAR2 SZ I        1147 52.50         6.9 0.20                          22.5 198 
 BRR  HZ EP   1   1147 36.93                             151    0.03 7 74.6 299 
 BRR  HE ES   1   1147 53.79                             151    0.51 7 74.6 299 
 BRR  HZ I        1147 58.20         9.1 0.30                          74.6 299 
 RUS  HZ EP   1   1147 39.43                             144    0.22 7 98.8 178 
 RUS  HN ES   1   1147 57.48                             144    0.10 7 98.8 178 
 RUS  HZ I        1147 58.92         3.2 0.21                          98.8 178 
 ZAR  HZ EP   1   1147 48.51                             121    0.02 6  207 292 
 ZAR  HE ES   1   1148 13.56                             121   -0.34 6  207 292 
 ZAR  HZ I        1148 20.60         3.2 0.14                           207 292 
                                                                                
