 2015  5 1 1825 47.4 L   6.801 -73.148137.8  RSN  7 0.4 1.6LRSN                1
 GAP=136        1.00       3.4     4.5  7.3 -0.2772E+01  0.1088E+02  0.2904E+01E
 Epicentro: LOS SANTOS - SANTANDER                                             3
 ACTION:UPD 15-09-10 22:00 OP:cam  STATUS:               ID:20150501182547 L   I
 OLDACT:REG 15-05-12 21:48 OP:ak   STATUS:               ID:20150501181749     3
 2015-05-01-1817-49M.COL___276                                                 6
 STAT SP IPHASW D HRMM SECON CODA AMPLIT PERI AZIMU VELO AIN AR TRES W  DIS CAZ7
 BRR  HZ EP       1826  8.05                             151    0.4210 70.8 299 
 BRR  HN ES       1826 23.22                             151   -0.2210 70.8 299 
 BRR  HZ I        1826 29.47         7.8 0.12            151           70.8 299 
 PAM  SZ IP     D 1826  9.19                             149    0.4610 77.5  40 
 PAM  SN ES       1826 25.77                             149    0.3610 77.5  40 
 PAM  SZ I        1826 28.09         8.2 0.46            154           77.5  40 
 RUS  HZ EP       1826 10.03                             142   -0.3210  101 176 
 RUS  HN ES       1826 27.98                             142   -0.3010  101 176 
 RUS  HZ I        1826 29.59         5.2 0.40            147            101 176 
 OCA  HZ IP       1826 14.96                             128   -0.08 9  160 353 
 OCA  HZ EP       1826 14.96                             128            160 353 
 OCA  HE ES       1826 36.06                             128   -0.57 9  160 353 
 OCA  HZ I        1826 38.50        11.5 0.41            131            160 353 
 ZAR  HZ EP   1   1826 18.69                             120   -0.57 6  204 292 
 ZAR  HN ES       1826 44.37                             120    0.23 9  204 292 
 ZAR  HZ I        1826 50.40         3.8 0.25            123            204 292 
 NOR  HZ EP       1826 22.71                             117    0.09 8  235 234 
 NOR  HN ES       1826 49.77                             117   -0.35 8  235 234 
 NOR  HZ I        1826 51.99         2.1 0.18            120            235 234 
 GUY2CHZ EP   1   1826 30.06                             111   -0.53 5  301 235 
 GUY2CHN ES       1827  5.33                             111    1.02 7  301 235 
                                                                                
