 2013  2 1 1153 51.7 L   6.825 -73.117142.0  RSN  7 0.3 1.3LRSN                1
 GAP=139        0.53       4.5     2.7  6.9 -0.3739E+01 -0.8696E+00  0.2027E+02E
 Epicentro: LOS SANTOS - SANTANDER                                             3
 ACTION:UPD 13-03-12 09:29 OP:ep   STATUS:               ID:20130201115351 L   I
 2013-02-01-1148-50M.COL___173                                                 6
 STAT SP IPHASW D HRMM SECON CODA AMPLIT PERI AZIMU VELO AIN AR TRES W  DIS CAZ7
 BAR2 SZ EP       1154 10.70                             169   -0.2410 26.8 196 
 BAR2 SZ ES   2   1154 26.19                             169    0.23 5 26.8 196 
 BAR2 SZ I        1154 27.94         5.1 0.20            155           26.8 196 
 BRR  HE ES   1   1154 28.45                             151   -0.32 7 72.8 295 
 PAM  SZ EP   1   1154 13.72                             151    0.47 7 73.2  39 
 PAM  SZ I        1154 13.73         4.4 0.20            149           73.2  39 
 PAM  SE ES       1154 30.06                             151   -0.0110 73.2  39 
 RUS  HZ EP       1154 15.24                             142   -0.0210  103 178 
 RUS  HZ I        1154 34.58         2.1 0.26            130            103 178 
 PTB  HE ES       1154 39.92                             130    0.17 9  151 258 
 CHI  HZ EP   2   1154 29.00                             116   -0.56 4  252 196 
 CHI  HN ES   1   1154 59.28                             116    0.17 6  252 196 
 CHI  HZ I        1155  4.98         1.2 0.52            110            252 196 
 HEL  HE ES       1155  3.69                             113    0.02 7  276 255 
                                                                                
