 2013 12 1 1148 20.9 L   6.804 -73.141149.2  RSN  9 0.5 2.2LRSN                1
 GAP=152        1.13       4.3     5.8  6.9 -0.9823E+01  0.8932E+01  0.4641E+00E
 Epicentro: LOS SANTOS - SANTANDER                                             3
 ACTION:UPD 14-01-13 10:15 OP:ep   STATUS:               ID:20131201114820 L   I
 OLDACT:REG 13-12-01 14:31 OP:cam  STATUS:               ID:20131201114000     3
 2013-12-01-1140-00M.COL___282                                                 6
 STAT SP IPHASW D HRMM SECON CODA AMPLIT PERI AZIMU VELO AIN AR TRES W  DIS CAZ7
 BAR2 SZ EP       1148 40.77                             171   -0.1410 23.8 191 
 BAR2 SZ ES       1148 55.96                             171   -0.5810 23.8 191 
 BAR2 SZ I        1148 58.99        34.5 0.40            170           23.8 191 
 BRR  HZ EP       1148 42.67                             153    0.2810 71.5 298 
 BRR  HN ES       1149  0.11                             153    0.9210 71.5 298 
 BRR  HZ I        1149  5.77        11.9 0.22            150           71.5 298 
 PAM  SZ EP       1148 43.59                             152    0.1910 76.7  39 
 PAM  SN ES       1149  0.89                             152   -0.0910 76.7  39 
 PAM  SZ I        1149  2.94        12.2 0.20            156           76.7  39 
 PTB  HZ EP       1148 47.66                             133   -0.50 9  148 259 
 PTB  HN ES       1149  8.73                             133   -0.72 9  148 259 
 PTB  HZ I        1149 16.08        20.8 0.48            133            148 259 
 OCA  HZ EP   2   1148 50.21                             130    0.80 5  160 353 
 OCA  HN ES       1149 11.89                             130    0.22 9  160 353 
 OCA  HZ I        1149 19.93        17.8 0.36            133            160 353 
 SPBC HZ EP       1148 49.72                             130    0.04 9  164 219 
 SPBC HN ES   1   1149 12.33                             130    0.17 7  164 219 
 SPBC HZ I        1149 17.50        22.0 0.14            132            164 219 
 NOR  HZ EP       1148 56.76                             119   -0.10 8  235 234 
 NOR  HE ES       1149 25.71                             119    0.77 8  235 234 
 NOR  HZ I        1149 28.37        16.3 0.18            122            235 234 
 SML  HZ EP       1148 57.66                             118   -0.00 8  244 335 
 SML  HN ES       1149 25.65                             118   -0.72 8  244 335 
 SML  HZ I        1149 29.41        22.2 0.10            120            244 335 
 CHI  HZ EP   2   1148 59.08                             118    0.28 4  249 195 
 HEL  HZ EP   4   1149  2.19                             115    0.87 0  273 256 
 GUY2CHZ EP   4   1149  5.68                             113    0.98 0  302 235 
                                                                                
