 2010  7 1 1450 11.9 L   6.793 -73.106144.0  RSN  8 0.4 2.2LRSN                1
 GAP=186        0.92       5.5     9.0  7.6 -0.3057E+02  0.1387E+01  0.7160E+01E
 Epicentro: LOS SANTOS - SANTANDER                                             3
 ACTION:UPD 10-12-01 15:14 OP:pat  STATUS:               ID:20100701145011 L   I
 2010-07-01-1450-13S.COL___118                                                 6
 STAT SP IPHASW D HRMM SECON CODA AMPLIT PERI AZIMU VELO AIN AR TRES W  DIS CAZ7
 BAR2 SZ IP       1450 31.05                             170    -0.210   24 201 
 BAR2 SZ ES   1   1450 46.04                             170    -0.4 7   24 201 
 BRR  HZ IP     C 1450 33.02                             151     0.010   75 297 
 BRR  HZ I        1450 33.36        27.4 0.09                            75 297 
 BRR  HN ES   1   1450 49.73                             151     0.1 7   75 297 
 GUE  SZ EP   1   1450 36.15                             139    -0.2 7  116  10 
 GUE  SZ ES   2   1450 56.08                             139     0.5 5  116  10 
 GRA  SZ IP       1450 37.01                             137     0.110  125  15 
 GRA  SZ ES       1450 57.06                             137     0.610  125  15 
 OCA  SZ EP   1   1450 39.74                             129    -0.4 7  162 352 
 OCA  SZ ES   1   1451  1.42                             129    -0.8 7  162 352 
 OCA  SZ I        1451  3.56        21.6 0.69                           162 352 
 HEL  HZ EP   2   1450 52.19                             114    -0.2 4  276 256 
 HEL  HZ I        1451 30.19         9.2 0.47                           276 256 
 RREF HZ EP   2   1450 58.96                             110     0.7 3  325 230 
 RREF HN ES   1   1451 35.27                             110     0.8 5  325 230 
 RREF HZ I        1451 41.59         4.4 0.23                           325 230 
 PRA  HZ EP   1   1451  5.51                             106     0.0 4  394 210 
 PRA  HN ES   2   1451 47.42                             106     0.1 3  394 210 
 PRA  HZ I        1451 54.47         5.5 0.12                           394 210 
                                                                                
