 2012  9 1 1840  3.3 L   6.791 -73.146147.0  RSN  9 0.3 1.9LRSN                1
 GAP=137        0.61       3.4     3.2  4.4 -0.2582E+00  0.4012E+01  0.3045E+01E
 Epicentro: LOS SANTOS - SANTANDER                                             3
 ACTION:UPD 12-10-22 14:16 OP:ep   STATUS:               ID:20120901184003 L   I
 2012-09-01-1840-00M.COL___218                                                 6
 STAT SP IPHASW D HRMM SECON CODA AMPLIT PERI AZIMU VELO AIN AR TRES W  DIS CAZ7
 BAR2 SZ EP       1840 23.09                             171    0.0410 22.3 190 
 BAR2 SZ ES   1   1840 38.26                             171   -0.20 7 22.3 190 
 BAR2 SZ I        1840 39.56        36.2 0.23                          22.3 190 
 GIR2 SZ EP   1   1840 22.91                             167   -0.22 7 32.3 351 
 GIR2 SZ ES   1   1840 38.49                             167   -0.12 7 32.3 351 
 BRR  HZ EP       1840 24.94                             153    0.3410 71.7 299 
 BRR  HZ I        1840 26.73        15.8 0.13                          71.7 299 
 BRR  HE ES   1   1840 41.75                             153    0.54 7 71.7 299 
 PAM  SZ EP   1   1840 25.83                             151    0.15 7 78.2  39 
 PAM  SZ I        1840 26.13        10.9 0.17                          78.2  39 
 PAM  SE ES   1   1840 43.01                             151   -0.14 7 78.2  39 
 RUS  HZ EP   1   1840 26.91                             144   -0.18 7 99.5 176 
 RUS  HN ES   1   1840 45.75                             144    0.10 7 99.5 176 
 RUS  HZ I        1840 47.48         7.5 0.44                          99.5 176 
 PTB  HZ EP   1   1840 29.83                             132   -0.50 7  148 259 
 PTB  HN ES   1   1840 50.97                             132   -0.46 7  148 259 
 PTB  HZ I        1840 58.37         8.9 0.21                           148 259 
 ZAR  HZ EP   1   1840 35.37                             123   -0.48 6  204 292 
 ZAR  HN ES   1   1841  1.40                             123    0.15 6  204 292 
 NOR  SZ EP   1   1840 39.28                             119    0.26 6  234 235 
 NOR  SN ES   1   1841  7.05                             119    0.16 6  234 235 
 NOR  SZ I        1841 13.38         8.8 0.27                           234 235 
 CHI  HZ EP   1   1840 41.25                             117    0.30 6  248 195 
 CHI  HZ I        1840 42.23         3.8 0.15                           248 195 
                                                                                
