 2013  8 1 1530 58.7 L   6.794 -73.110146.8  RSN  9 0.4 1.8LRSN                1
 GAP=141        0.92       4.5     5.3  5.9  0.2685E+01  0.9500E+01 -0.3330E+00E
 Epicentro: LOS SANTOS - SANTANDER                                             3
 ACTION:UPD 14-01-14 08:58 OP:ep   STATUS:               ID:20130801153058 L   I
 OLDACT:UP  13-08-01 20:08 OP:cam  STATUS:               ID:20130801152850     3
 OLDACT:REG 13-08-01 18:34 OP:cam  STATUS:               ID:20130801152850     3
 2013-08-01-1528-50M.COL___250                                                 6
 STAT SP IPHASW D HRMM SECON CODA AMPLIT PERI AZIMU VELO AIN AR TRES W  DIS CAZ7
 BAR2 SZ EP       1531 18.47                             171    0.0310 23.7 200 
 BAR2 SZ ES       1531 33.24                             171   -0.6210 23.7 200 
 BAR2 SZ I        1531 34.28        14.8 0.20            165           23.7 200 
 GIR2 SZ EP   1   1531 18.77                             167    0.25 7 32.9 344 
 GIR2 SZ ES   1   1531 33.97                             167   -0.03 7 32.9 344 
 BRR  HZ EP   1   1531 20.43                             151    0.27 7 75.0 298 
 BRR  HE ES       1531 37.39                             151    0.4810 75.0 298 
 BRR  HZ I        1531 38.47         9.8 0.14            142           75.0 298 
 PAM  SZ EP   1   1531 21.51                             151    0.62 7 75.5  37 
 PAM  SN ES   1   1531 38.20                             151   -0.03 7 75.5  37 
 PAM  SZ I        1531 40.48        10.9 0.44            151           75.5  37 
 RUS  HZ EP       1531 22.42                             144   -0.0510 99.7 178 
 RUS  HN ES       1531 41.06                             144    0.0310 99.7 178 
 RUS  HZ I        1531 42.49         8.0 0.32            140           99.7 178 
 PTB  HZ EP       1531 25.63                             131   -0.44 9  151 259 
 PTB  HZ I        1531 48.90        11.6 0.12            124            151 259 
 ZAR  HZ EP   1   1531 32.20                             122    0.61 6  208 292 
 ZAR  HN ES   1   1531 56.88                             122   -0.39 6  208 292 
 ZAR  HZ I        1532  5.41         7.7 0.38            116            208 292 
 NOR  HE ES   1   1532  3.31                             118    0.39 6  238 235 
 NOR  HZ I        1532  8.18         6.6 0.36            113            238 235 
 SJC  HZ EP       1531 53.51                             106   -1.08 6  412 327 
                                                                                
