 2013  7 1 1716 50.6 L   6.859 -73.422114.5  RSN  7 0.4 1.5LRSN                1
 GAP= 92        0.86       3.9     5.6  9.6  0.1329E+01  0.2014E+02 -0.1032E+02E
 Epicentro: SAN VICENTE DE CHUCURI - SANTANDER                                 3
 ACTION:UPD 13-08-12 10:34 OP:ep   STATUS:               ID:20130701171650 L   I
 OLDACT:DUP 13-07-01 16:06 OP:jn   STATUS:               ID:20130701170960d    3
 OLDACT:REG 13-07-01 14:30 OP:jn   STATUS:               ID:20130701170959     3
 2013-07-01-1709-59M.COL___267                                                 6
 STAT SP IPHASW D HRMM SECON CODA AMPLIT PERI AZIMU VELO AIN AR TRES W  DIS CAZ7
 GIR2 SZ EP       1717  6.78                             162    0.0810 35.0  46 
 BAR2 SZ EP       1717  7.17                             160    0.1410 39.6 138 
 BAR2 SZ ES       1717 19.84                             160   -0.0110 39.6 138 
 BRR  HZ EP     D 1717  7.53                             158    0.7510 42.2 311 
 BRR  HN ES   4   1717 21.35                             158    1.93 0 42.2 311 
 BRR  HZ I        1717 22.44         8.8 0.14            155           42.2 311 
 RUS  HZ EP   1   1717 12.12                             132   -0.40 7  113 161 
 RUS  HN ES   1   1717 29.36                             132   -0.27 7  113 161 
 RUS  HZ I        1717 30.76         5.7 0.26            137            113 161 
 PTB  HZ EP       1717 12.42                             130   -0.0510  120 253 
 PTB  HN ES   1   1717 29.18                             130   -0.36 7  120 253 
 PTB  HZ I        1717 35.63         5.9 0.44            130            120 253 
 OCA  HN ES   1   1717 34.99                             123   -0.69 7  153   4 
 SML  HN ES   1   1717 49.42                             112   -0.10 6  226 342 
                                                                                
