 2014  2 1 1406 32.8 L   6.790 -73.188141.8  RSN  8 0.4 1.9LRSN                1
 GAP=197        0.86       3.7     4.8  5.5 -0.1715E+01  0.7341E+01 -0.2291E+01E
 Epicentro: LOS SANTOS - SANTANDER                                             3
 ACTION:UPD 14-03-10 08:06 OP:ep   STATUS:               ID:20140201140632 L   I
 OLDACT:REG 14-02-01 14:26 OP:nd   STATUS:               ID:20140201140000     3
 2014-02-01-1400-00M.COL___288                                                 6
 STAT SP IPHASW D HRMM SECON CODA AMPLIT PERI AZIMU VELO AIN AR TRES W  DIS CAZ7
 BAR2 SZ EP       14 6 51.79                             171   -0.1010 21.9 178 
 BAR2 SZ ES       14 7  6.86                             171    0.0610 21.9 178 
 BAR2 SZ I        14 7  8.63        22.2 0.22            170           21.9 178 
 BRR  HZ EP     C 14 6 53.62                             153    0.3310 67.7 301 
 BRR  HN ES   2   14 7  9.63                             153    0.34 5 67.7 301 
 BRR  HZ I        14 7 14.36        13.0 0.38            150           67.7 301 
 RUS  HZ EP       14 6 55.91                             143   -0.1710 99.9 173 
 RUS  HN ES       14 7 14.50                             143    0.2410 99.9 173 
 RUS  HZ I        14 7 15.51         6.4 0.28            146           99.9 173 
 PTB  HZ EP       14 6 58.59                             132   -0.38 9  143 259 
 PTB  HN ES       14 7 19.56                             132    0.15 9  143 259 
 PTB  HZ I        14 7 22.25         8.3 0.12            132            143 259 
 SPBC HZ EP       14 7  0.65                             129    0.05 9  159 218 
 SPBC HN ES       14 7 21.33                             129   -0.98 9  159 218 
 SPBC HZ I        14 7 27.91        11.9 0.18            130            159 218 
 NOR  HZ EP       14 7  7.64                             118   -0.15 8  230 234 
 NOR  HN ES       14 7 35.65                             118    0.55 8  230 234 
 NOR  HZ I        14 7 39.95         5.8 0.16            119            230 234 
 SML  HZ EP       14 7  9.12                             117    0.05 8  243 336 
 SML  HN ES   2   14 7 37.04                             117   -0.35 4  243 336 
 SML  HZ I        14 7 41.99        10.3 0.28            118            243 336 
 PRA  HZ EP       14 7 26.38                             106    0.61 6  389 209 
 PRA  HN ES       14 8  7.33                             106    0.22 6  389 209 
 PRA  HZ I        14 8 13.48         2.6 0.36            108            389 209 
                                                                                
