 2011 12 1 1434 58.1 L   6.793 -73.178146.0  RSN  5 0.3 2.0LRSN                1
 GAP=133        0.56       3.7     7.8  7.2 -0.1043E+02 -0.3634E+01  0.5082E+00E
 Epicentro: LOS SANTOS - SANTANDER                                             3
 ACTION:UPD 12-07-13 16:13 OP:ep   STATUS:               ID:20111201143458 L   I
 2011-12-01-1430-00M.COL___181                                                 6
 STAT SP IPHASW D HRMM SECON CODA AMPLIT PERI AZIMU VELO AIN AR TRES W  DIS CAZ7
 BAR2 SZ EP   1   1435 17.77                             171    0.02 7 22.2 181 
 BAR2 SZ ES   2   1435 33.66                             171    0.60 5 22.2 181 
 BAR2 SZ I        1435 39.55        10.1 0.44                          22.2 181 
 BRR  HZ EP   2   1435 19.74                             153    0.60 5 68.5 301 
 BRR  HE ES   2   1435 35.09                             153   -0.44 5 68.5 301 
 BRR  HE I        1435 37.46        34.2 0.38                          68.5 301 
 PAM  SZ EP       1435 20.49                             150   -0.0410 80.3  41 
 PAM  SN ES   2   1435 37.59                             150   -0.43 5 80.3  41 
 RUS  HZ EP   2   1435 22.01                             144    0.16 5  100 174 
 RUS  HE ES   1   1435 40.43                             144    0.07 7  100 174 
 CHI  HN ES   1   1436  4.53                             117   -0.38 6  247 194 
                                                                                
