 2011  5 1 1103 22.2 L   6.793 -73.129135.6  RSN  5 0.1 1.4LRSN                1
 GAP=139        0.30       3.9     6.4  7.8  0.1047E+02 -0.1391E+02 -0.8726E+01E
 Epicentro: LOS SANTOS - SANTANDER                                             3
 ACTION:UP  11-06-29 08:50 OP:tino STATUS:               ID:20110501110322 L   I
 2011-05-01-1101-37S.COL___128                                                 6
 STAT SP IPHASW D HRMM SECON CODA AMPLIT PERI AZIMU VELO SNR AR TRES W  DIS CAZ7
 BAR2 SZ EP       11 3 40.50                             170    -0.110   23 195 
 BAR2 SZ ES   3   11 3 55.18                             170     0.3 2   23 195 
 BAR2 SZ I        11 3 58.13         6.4 0.29                            23 195 
 BRR  HZ EP       11 3 42.40                             150     0.010   73 298 
 BRR  HZ I        11 3 50.59        10.8 0.16                            73 298 
 BRR  HN ES   3   11 3 57.95                             150    -0.1 2   73 298 
 PAM  SZ EP   3   11 3 43.49                             149     0.2 2   77  38 
 RUS  HZ EP   1   11 3 44.93                             142     0.1 7  100 177 
 RUS  HZ I        11 3 45.60         1.9 0.11                           100 177 
 RUS  HN ES   3   11 4  2.46                             142    -0.1 2  100 177 
 GRA  SZ EP   2   11 3 46.46                             135    -0.1 5  126  17 
                                                                                
