 2011 12 1 1724 14.4 L   6.772 -73.105144.6  RSN  9 0.2 2.3LRSN                1
 GAP=143        0.50       2.1     3.5  3.6 -0.2277E+01  0.3245E+01  0.3170E+00E
 Epicentro: LOS SANTOS - SANTANDER                                             3
 ACTION:UPD 12-07-13 16:13 OP:ep   STATUS:               ID:20111201172414 L   I
 2011-12-01-1720-00M.COL___179                                                 6
 STAT SP IPHASW D HRMM SECON CODA AMPLIT PERI AZIMU VELO AIN AR TRES W  DIS CAZ7
 BAR2 SZ IP       1724 33.73                             171   -0.1510 21.6 203 
 BAR2 SZ ES       1724 49.08                             171    0.0210 21.6 203 
 BAR2 SZ I        1724 50.53        30.4 0.27                          21.6 203 
 GIR2 SZ EP   1   1724 33.84                             166   -0.24 7 35.3 344 
 BRR  HZ EP       1724 35.65                             150   -0.1210 76.6 299 
 BRR  HE ES   1   1724 52.43                             150    0.01 7 76.6 299 
 BRR  HE I        1724 57.10        95.6 0.17                          76.6 299 
 PAM  SZ EP       1724 36.61                             151    0.1110 77.1  35 
 PAM  SE ES       1724 53.68                             151   -0.0410 77.1  35 
 RUS  HZ EP       1724 37.66                             145   -0.1610 97.2 179 
 RUS  HE ES   1   1724 56.30                             145    0.22 7 97.2 179 
 RUS  HZ I        1724 58.12        15.7 0.18                          97.2 179 
 OCA  SZ EP   1   1724 43.55                             129    0.55 7  164 352 
 OCA  SZ ES   1   1725  5.36                             129    0.08 7  164 352 
 OCA  SZ I        1725  9.38        27.0 0.27                           164 352 
 NOR  SZ EP   1   1724 49.82                             118   -0.47 6  237 236 
 NOR  SN ES   1   1725 18.41                             118    0.14 6  237 236 
 CHI  HN ES   1   1725 21.45                             117    0.38 6  247 196 
 GUY  SZ EP   2   1724 58.88                             112    0.42 4  305 236 
 GUY  SZ I        1725 43.99        17.0 0.53                           305 236 
                                                                                
