 2010  9 1 1440 59.4 L   6.781 -73.072141.7  RSN  5 0.2 1.9LRSN                1
 GAP=167        0.48       2.9     5.5  4.4 -0.6866E+00 -0.2791E+01 -0.1029E+01E
 Epicentro: LOS SANTOS - SANTANDER                                             3
 ACTION:UP  11-02-18 10:59 OP:tino STATUS:               ID:20100901144059 L   I
 2010-09-01-1436-40S.COL___120                                                 6
 STAT SP IPHASW D HRMM SECON CODA AMPLIT PERI AZIMU VELO SNR AR TRES W  DIS CAZ7
 BAR2 SZ ES   1   1441 33.48                             170     0.0 7   24 211 
 BAR2 SZ I        1441 35.01        12.9 0.36                            24 211 
 BRR  HZ IP     C 1441 20.35                             149    -0.310   79 297 
 BRR  HE ES   1   1441 37.35                             149     0.2 7   79 297 
 BRR  HZ I        1441 43.72        18.5 0.53                            79 297 
 RUS  HZ EP   1   1441 22.61                             144     0.0 7   98 181 
 RUS  HN ES   1   1441 40.67                             144     0.0 7   98 181 
 GRA  SZ IP       1441 24.44                             136     0.210  126  14 
 GRA  SZ I        1441 25.87         8.8 0.35                           126  14 
 PRA  HZ EP   1   1441 53.08                             106     0.0 4  394 211 
 PRA  HE ES   1   1442 35.21                             106     0.3 4  394 211 
 PRA  HZ I        1442 41.82         3.3 0.51                           394 211 
                                                                                
