 2013 10 1 1640  8.2 L   6.809 -73.207139.4  RSN  4 0.2 1.2LRSN                1
 GAP=146        0.47       2.6     2.6  4.7 -0.2968E+01  0.3497E+01 -0.3245E+00E
 Epicentro: ZAPATOCA - SANTANDER                                               3
 ACTION:UPD 13-11-25 09:18 OP:ep   STATUS:               ID:20131001164008 L   I
 OLDACT:REG 13-10-01 17:37 OP:stll STATUS:               ID:20131001163848     3
 2013-10-01-1638-48M.COL___240                                                 6
 STAT SP IPHASW D HRMM SECON CODA AMPLIT PERI AZIMU VELO AIN AR TRES W  DIS CAZ7
 PAM  SZ EP       1640 30.00                             148    0.0110 81.2  44 
 PAM  SN ES       1640 47.00                             148    0.0210 81.2  44 
 PAM  SZ I        1640 49.41         2.6 0.22            153           81.2  44 
 RUS  HZ EP       1640 31.15                             142   -0.3110  102 172 
 RUS  HN ES       1640 49.73                             142    0.1210  102 172 
 RUS  HZ I        1640 52.70         1.6 0.40            144            102 172 
 PTB  HZ EP       1640 34.12                             132    0.05 9  141 258 
 PTB  HN ES       1640 54.18                             132   -0.06 9  141 258 
 SPBC HZ EP       1640 36.18                             128    0.28 9  160 217 
 SPBC HN ES       1640 57.42                             128   -0.08 9  160 217 
 SPBC HZ I        1641  3.40         3.5 0.30            131            160 217 
                                                                                
