 2014  7 1 1626  6.8 L   6.807 -73.150137.9  RSN  6 0.5 1.9LRSN                1
 GAP=136        1.29       5.4     5.9 10.2  0.1304E+01  0.1994E+02 -0.1717E+02E
 Epicentro: LOS SANTOS - SANTANDER                                             3
 ACTION:UPD 15-03-16 20:40 OP:nd   STATUS:               ID:20140701162606 L   I
 OLDACT:UP  14-07-01 21:59 OP:cam  STATUS:               ID:20140701162000     3
 OLDACT:UP  14-07-01 21:59 OP:cam  STATUS:               ID:20140701162000     3
 OLDACT:REG 14-07-01 20:27 OP:cam  STATUS:               ID:20140701162000     3
 2014-07-01-1620-00M.COL___279                                                 6
 STAT SP IPHASW D HRMM SECON CODA AMPLIT PERI AZIMU VELO AIN AR TRES W  DIS CAZ7
 BAR2 SZ EP       1626 25.08                             170   -0.3910 24.0 189 
 BAR2 SZ ES       1626 39.89                             170   -0.1710 24.0 189 
 BAR2 SZ I        1626 41.17        14.4 0.26            167           24.0 189 
 PAM  SZ EP       1626 28.24                             149    0.1110 77.1  40 
 PAM  SN ES       1626 45.21                             149    0.4110 77.1  40 
 RUS  HZ EP       1626 29.76                             142   -0.0610  101 176 
 RUS  HE ES       1626 47.96                             142    0.1610  101 176 
 RUS  HE I        1626 50.89         3.9 0.42            142            101 176 
 PTB  HN ES       1626 52.92                             130   -0.68 9  147 258 
 PTB  HN I        1626 58.32        15.4 0.40            129            147 258 
 ZAR  HZ EP       1626 39.57                             121    0.94 9  203 292 
 ZAR  HE ES       1627  4.34                             121    0.85 9  203 292 
 ZAR  HE I        1627  9.14        17.6 0.16            121            203 292 
 SML  HZ EP   1   1626 42.13                             116   -0.73 6  243 335 
 SML  HE ES       1627 10.20                             116   -0.82 8  243 335 
                                                                                
