 2016  4 1 1031 52.1 L   6.798 -73.174135.5  RSN  8 0.4 1.8LRSN                1
 GAP=133        0.88       3.3     3.8  5.9 -0.7736E+00  0.7606E+01  0.1300E+01E
 Epicentro: LOS SANTOS - SANTANDER                                             3
 ACTION:UPD 16-05-05 14:17 OP:rebc STATUS:               ID:20160401103152 L   I
 OLDACT:UP  16-04-01 20:15 OP:drio STATUS:               ID:20160401102742     3
 OLDACT:REG 16-04-01 19:28 OP:drio STATUS:               ID:20160401102742     3
 2016-04-01-1027-42M.COL___315                                                 6
 STAT SP IPHASW D HRMM SECON CODA AMPLIT PERI AZIMU VELO AIN AR TRES W  DIS CAZ7
 BAR2 EZ EP       1032 10.03                             170   -0.4510 22.8 182 
 BAR2 EZ ES       1032 24.39                             170   -0.4410 22.8 182 
 BAR2 EZ I        1032 26.35        20.7 0.32            168           22.8 182 
 PAM  EZ EP       1032 13.43                             148    0.0610 79.6  41 
 PAM  EE ES       1032 30.35                             148    0.3910 79.6  41 
 PAM  EZ I        1032 32.35        10.8 0.54            152           79.6  41 
 RUS  HZ EP       1032 14.78                             141   -0.0810  101 174 
 RUS  HE ES       1032 32.86                             141    0.2510  101 174 
 RUS  HZ I        1032 34.65         6.8 0.24            142            101 174 
 PTB  HZ EP       1032 17.39                             130   -0.57 9  145 259 
 PTB  HN ES       1032 38.13                             130    0.00 9  145 259 
 PTB  HZ I        1032 40.49         6.4 0.20            131            145 259 
 SPBC HZ EP       1032 19.66                             127    0.04 9  161 218 
 SPBC HN ES       1032 41.14                             127    0.05 9  161 218 
 SPBC HZ I        1032 45.33         9.6 0.26            128            161 218 
 ZAR  HZ EP       1032 24.05                             120    0.45 9  201 293 
 ZAR  HN ES       1032 48.38                             120    0.21 9  201 293 
 ZAR  HZ I        1032 50.88         6.4 0.46            122            201 293 
 CHI  HZ EP       1032 28.80                             115   -0.34 8  248 194 
 CHI  HE ES       1032 58.73                             115    0.70 8  248 194 
 CHI  HZ I        1033  5.24         2.5 0.42            116            248 194 
 URE  HZ EP   4   1032 34.53                             112    2.16 0  281 292 
 URE  HN ES   4   1033  0.96                             112   -2.82 0  281 292 
 URE  HZ I        1033  2.78         5.0 0.14            113            281 292 
                                                                                
