 2011  3 1 1117 53.0 L   6.804 -73.104139.2  RSN 10 0.4 2.2LRSN                1
 GAP=139        0.82       3.1     7.3  6.8 -0.5178E+01  0.2113E+02 -0.1140E+01E
 Epicentro: LOS SANTOS - SANTANDER                                             3
 ACTION:UP  11-06-16 14:31 OP:jfem STATUS:               ID:20110301111753 L   I
 2011-03-01-1115-03S.COL___135                                                 6
 STAT SP IPHASW D HRMM SECON CODA AMPLIT PERI AZIMU VELO SNR AR TRES W  DIS CAZ7
 BAR2 SZ EP       1118 12.15                             169     0.210   25 201 
 BAR2 SZ ES   1   1118 26.61                             169     0.0 7   25 201 
 BAR2 SZ I        1118 28.17        60.0 0.14                            25 201 
 RUS  HZ EP       1118 16.22                             142     0.110  101 179 
 RUS  HE ES   1   1118 33.89                             142    -0.3 7  101 179 
 RUS  HZ I        1118 36.67        19.8 0.41                           101 179 
 GRA  SZ EP       1118 17.90                             136     0.410  124  15 
 GRA  SZ ES   1   1118 36.74                             136     0.1 7  124  15 
 GRA  SZ I        1118 38.21        25.8 0.39                           124  15 
 OCA  SZ EP       1118 20.23                             128    -0.6 9  160 351 
 OCA  SZ ES   1   1118 42.56                             128     0.0 7  160 351 
 OCA  SZ I        1118 45.81        26.4 0.17                           160 351 
 YOP  SZ EP   1   1118 22.73                             125     0.3 7  177 155 
 YOP  SZ I        1118 23.67        11.2 0.14                           177 155 
 CHI  HZ EP   1   1118 30.37                             115    -0.2 6  250 196 
 CHI  HE ES   2   1118 59.22                             115    -0.6 4  250 196 
 CHI  HZ I        1119  4.42         5.7 0.23                           250 196 
 HEL  HZ EP   1   1118 33.96                             113     0.5 6  277 256 
 HEL  HZ I        1119 10.49        14.5 0.52                           277 256 
 RREF HZ EP   2   1118 40.16                             109     0.8 3  326 230 
 RREF HN ES   2   1119 16.22                             109     0.8 3  326 230 
 RREF HZ I        1119 24.24        10.2 0.30                           326 230 
 DBB  SZ EP       1118 40.32                             108    -0.5 7  344 274 
 PRA  HZ EP   2   1118 46.56                             105    -0.1 3  395 210 
 PRA  HE ES   2   1119 27.94                             105    -0.5 3  395 210 
                                                                                
