 2016 12 1 1242 30.6 L   6.747 -73.158143.6  RSN  5 0.4 2.0LRSN                1
 GAP=151        1.16       9.6     5.5  9.3 -0.1182E+02  0.1125E+02  0.1548E+01E
 Epicentro: LOS SANTOS - SANTANDER                                             3
 ACTION:UPD 17-01-11 20:11 OP:rebc STATUS:               ID:20161201124230 L   I
 OLDACT:DUP 16-12-01 21:48 OP:lv   STATUS:               ID:20161201123750d    3
 2016-12-01-1238-00M.COL___339                                                 6
 STAT SP IPHASW D HRMM SECON CODA AMPLIT PERI AZIMU VELO AIN AR TRES W  DIS CAZ7
 BAR2 EZ EP       1242 50.21                             173    0.3210 17.3 189 
 BAR2 EZ ES       1243  4.80                             173   -0.1110 17.3 189 
 BAR2 EZ I        1243  6.72        21.5 0.28            175           17.3 189 
 BRR  HZ EP       1242 52.02                             151    0.3710 73.0 303 
 BRR  HN ES       1243  8.88                             151    0.8410 73.0 303 
 BRR  HZ I        1243 12.06        19.6 0.26            149           73.0 303 
 PAM  EZ EP       1242 53.00                             149    0.0510 82.9  38 
 PAM  EN ES       1243  9.73                             149   -0.6310 82.9  38 
 PAM  EZ I        1243 12.04        16.4 0.46            149           82.9  38 
 PTB  HZ EP       1242 57.06                             132   -0.14 9  145 261 
 PTB  HN ES       1243 17.38                             132   -0.54 9  145 261 
 PTB  HZ I        1243 20.06        10.4 0.20            133            145 261 
 ZAR  HZ EP   4   1243  4.92                             122    1.88 0  205 294 
 ZAR  HE ES       1243 27.97                             122   -0.34 9  205 294 
 ZAR  HZ I        1243 33.95        10.3 0.20            122            205 294 
                                                                                
