 2012  9 1 1835  2.5 L   6.762 -73.147141.1  RSN 10 0.4 2.1LRSN                1
 GAP=138        0.74       3.4     4.0  5.6 -0.4631E+00  0.6214E+01  0.6444E+01E
 Epicentro: LOS SANTOS - SANTANDER                                             3
 ACTION:UPD 12-10-22 14:16 OP:ep   STATUS:               ID:20120901183502 L   I
 2012-09-01-1830-00M.COL___218                                                 6
 STAT SP IPHASW D HRMM SECON CODA AMPLIT PERI AZIMU VELO AIN AR TRES W  DIS CAZ7
 BAR2 SZ EP   1   1835 21.54                             172    0.00 7 19.2 192 
 BAR2 SZ ES   2   1835 35.65                             172   -0.70 5 19.2 192 
 BAR2 SZ I        1835 39.84        32.2 0.17                          19.2 192 
 GIR2 SZ EP   1   1835 21.64                             165   -0.15 7 35.4 352 
 GIR2 SZ ES   1   1835 36.60                             165   -0.19 7 35.4 352 
 BRR  HZ EP       1835 23.46                             151    0.1510 73.2 301 
 BRR  HZ I        1835 23.96        36.8 0.12                          73.2 301 
 BRR  HN ES   1   1835 39.88                             151    0.38 7 73.2 301 
 PAM  SZ EP   1   1835 24.49                             149    0.01 7 80.8  38 
 PAM  SN ES   1   1835 41.51                             149   -0.07 7 80.8  38 
 PAM  SZ I        1835 42.63        16.5 0.21                          80.8  38 
 RUS  HZ EP   1   1835 25.17                             144   -0.36 7 96.4 176 
 RUS  HN ES   1   1835 44.23                             144    0.76 7 96.4 176 
 PTB  HZ EP   1   1835 28.21                             131   -0.84 7  147 260 
 PTB  HN ES   1   1835 49.18                             131   -0.55 7  147 260 
 PTB  HZ I        1835 53.42        13.7 0.19                           147 260 
 ZAR  HZ EP   1   1835 35.59                             121    0.74 6  206 293 
 ZAR  HN ES   1   1836  0.32                             121    0.28 6  206 293 
 ZAR  HZ I        1836  6.65        20.9 0.31                           206 293 
 NOR  SZ EP   1   1835 37.65                             118   -0.08 6  232 235 
 NOR  SN ES   1   1836  5.36                             118    0.18 6  232 235 
 NOR  SZ I        1836  8.68        11.9 0.21                           232 235 
 CHI  HZ EP   1   1835 39.60                             117    0.06 6  245 195 
 CHI  HN ES   1   1836  8.45                             117    0.05 6  245 195 
 CHI  HZ I        1836 15.08         6.2 0.39                           245 195 
 PRA  HZ EP   1   1835 55.46                             106   -0.01 4  388 210 
 PRA  HN ES   1   1836 36.76                             106    0.01 4  388 210 
                                                                                
