 2017  9 1 1314 11.0 L   6.778 -73.102135.1  RSN  4 0.4 1.5LRSN                1
 GAP=240        0.91       9.7    11.3  7.2  0.9219E+02  0.3653E+01 -0.7282E+01E
 Epicentro: LOS SANTOS - SANTANDER                                             3
 ACTION:UPD 17-10-05 19:08 OP:rebc STATUS:               ID:20170901131411 L   I
 OLDACT:DUP 17-09-01 22:25 OP:dhb  STATUS:               ID:20170901130740d    3
 2017-09-01-1308-00M.COL___405                                                 6
 STAT SP IPHASW D HRMM SECON CODA AMPLIT PERI AZIMU VELO AIN AR TRES W  DIS CAZ7
 BAR2 HZ EP       1314 29.04                             170   -0.2810 22.4 203 
 BAR2 HZ ES       1314 43.24                             170   -0.3810 22.4 203 
 BAR2 HZ I        1314 45.20         8.7 0.25            168           22.4 203 
 BRR  HZ EP       1314 31.22                             149   -0.1110 76.6 298 
 BRR  HN ES       1314 47.84                             149    0.6410 76.6 298 
 BRR  HZ I        1314 52.72         7.4 0.14            148           76.6 298 
 RUS  HZ EP       1314 33.88                             142    0.3710 98.0 179 
 RUS  HN ES       1314 51.10                             142    0.0210 98.0 179 
 RUS  HZ I        1314 53.08         4.8 0.17            145           98.0 179 
 ZAR  HZ EP       1314 43.44                             119    0.10 8  209 292 
 ZAR  HN ES       1315  8.13                             119   -0.44 8  209 292 
 ZAR  HZ I        1315 10.88         2.7 0.18            121            209 292 
                                                                                
