 2012 10 1 1505 43.8 L   6.788 -73.129145.5  RSN  6 0.2 2.1LRSN                1
 GAP=238        0.43       2.9     3.7  4.1  0.6023E+01  0.2164E+01  0.1436E+01E
 Epicentro: LOS SANTOS - SANTANDER                                             3
 ACTION:UPD 12-11-22 17:01 OP:ep   STATUS:               ID:20121001150543 L   I
 2012-10-01-1459-50M.COL___201                                                 6
 STAT SP IPHASW D HRMM SECON CODA AMPLIT PERI AZIMU VELO AIN AR TRES W  DIS CAZ7
 BAR2 SZ EP   1   15 6  3.46                             171    0.06 7 22.5 195 
 BAR2 SZ ES   1   15 6 18.65                             171   -0.02 7 22.5 195 
 BAR2 SZ I        15 6 21.23        21.0 0.30                          22.5 195 
 BRR  HZ EP       15 6  5.28                             152    0.2210 73.4 299 
 BRR  HN ES   1   15 6 21.74                             152    0.11 7 73.4 299 
 BRR  HN I        15 6 22.76        35.6 0.18                          73.4 299 
 RUS  HZ EP   1   15 6  7.37                             144   -0.07 7 99.2 177 
 RUS  HN ES       15 6 25.73                             144   -0.1410 99.2 177 
 PTB  HN ES   1   15 6 32.03                             132    0.00 7  149 259 
 PTB  HN I        15 6 36.42        13.7 0.38                           149 259 
 ZAR  HE ES   1   15 6 41.59                             122   -0.35 6  206 292 
 CHI  HZ EP   1   15 6 21.15                             117   -0.27 6  248 196 
 CHI  HN ES   1   15 6 51.09                             117    0.34 6  248 196 
 CHI  HN I        15 6 53.61         8.9 0.30                           248 196 
                                                                                
