 2014 10 1 1012 33.5 L   6.761 -73.157146.0  RSN  5 0.5 1.5LRSN                1
 GAP=247        1.20       7.2     7.9  8.8  0.9168E+01  0.1406E+02  0.2191E+01E
 Epicentro: LOS SANTOS - SANTANDER                                             3
 ACTION:UPD 14-11-29 23:45 OP:nd   STATUS:               ID:20141001101233 L   I
 OLDACT:UP  14-10-01 23:01 OP:cam  STATUS:               ID:20141001101000     3
 OLDACT:REG 14-10-01 22:11 OP:cam  STATUS:               ID:20141001101000     3
 2014-10-01-1010-00M.COL___252                                                 6
 STAT SP IPHASW D HRMM SECON CODA AMPLIT PERI AZIMU VELO AIN AR TRES W  DIS CAZ7
 BAR2 SZ EP       1012 52.96                             172   -0.0810 18.9 189 
 BAR2 SZ ES       1013  7.94                             172   -0.3710 18.9 189 
 BAR2 SZ I        1013  9.53         6.3 0.28            169           18.9 189 
 BRR  HZ EP       1012 54.51                             152   -0.1910 72.3 302 
 BRR  HN ES       1013 12.01                             152    0.7510 72.3 302 
 BRR  HN I        1013 15.10        14.2 0.18            148           72.3 302 
 PTB  HZ EP       1012 59.71                             132   -0.56 9  146 260 
 PTB  HN ES       1013 20.79                             132   -0.39 9  146 260 
 PTB  HZ I        1013 26.33         2.2 0.44            131            146 260 
 SPBC HZ EP       1013  1.67                             130    0.08 9  159 220 
 SPBC HE ES       1013 24.05                             130    0.51 9  159 220 
 SPBC HZ I        1013 26.47         3.5 0.30            130            159 220 
 ZAR  HZ EP       1013  6.77                             122    0.80 9  205 293 
 ZAR  HN ES       1013 30.83                             122   -0.50 9  205 293 
 ZAR  HZ I        1013 38.70         2.5 0.30            122            205 293 
                                                                                
