 2010  1 1 1058 29.1 L   6.780 -73.011146.0  RSN  5 0.3 1.9LRSN                1
 GAP=210        0.55       4.0    12.6  6.7 -0.1111E+02  0.3023E+02  0.2791E+01E
 Epicentro: CEPITA - SANTANDER                                                 3
 ACTION:UP  10-08-24 09:42 OP:vdl  STATUS:               ID:20100101105829 L   I
 2010-01-01-1040-00S.COL___096                                                 6
 STAT SP IPHASW D HRMM SECON CODA AMPLIT PERI AZIMU VELO SNR AR TRES W  DIS CAZ7
 BAR2 SZ IP       1058 49.10                             169     0.210   28 222 
 BAR2 SZ ES   2   1059  3.78                             169    -0.5 5   28 222 
 GIR2 SZ EP   1   1058 49.15                             165     0.1 7   39 329 
 GIR2 SZ ES   2   1059  5.00                             165     0.4 5   39 329 
 OCA  SZ EP   1   1058 57.46                             129    -0.4 7  165 348 
 OCA  SZ ES   2   1059 20.27                             129    -0.1 5  165 348 
 CHI  HZ EP   1   1059  7.16                             117     0.1 6  251 199 
 CHI  HN ES   2   1059 36.34                             117    -0.3 4  251 199 
 CHI  HZ I        1059 46.48         3.8 0.33                           251 199 
 HEL  HZ EP   1   1059 10.90                             114     0.0 6  286 257 
 HEL  HZ I        1059 48.70         6.9 0.45                           286 257 
                                                                                
