 2014  1 1 1429 51.7 L   6.805 -73.152152.7  RSN  7 0.4 1.6LRSN                1
 GAP=200        0.74       3.7     5.3  8.0  0.5934E+01 -0.1297E+02 -0.6651E+01E
 Epicentro: LOS SANTOS - SANTANDER                                             3
 ACTION:UPD 14-03-13 09:50 OP:ep   STATUS:               ID:20140101142951 L   I
 OLDACT:REG 14-01-01 19:31 OP:mh   STATUS:               ID:20140101142848     3
 2014-01-01-1428-48M.COL___240                                                 6
 STAT SP IPHASW D HRMM SECON CODA AMPLIT PERI AZIMU VELO AIN AR TRES W  DIS CAZ7
 BAR2 SZ EP       1430 12.11                             171   -0.0310 23.8 188 
 BAR2 SZ I        1430 28.82        10.0 0.22            172           23.8 188 
 BRR  HZ EP   1   1430 14.09                             154    0.57 7 70.3 298 
 BRR  HN ES   1   1430 31.15                             154    0.59 7 70.3 298 
 BRR  HZ I        1430 35.82         4.0 0.25            158           70.3 298 
 RUS  HZ EP   1   1430 16.04                             145   -0.11 7  101 176 
 RUS  HN ES   2   1430 34.50                             145   -0.74 5  101 176 
 RUS  HZ I        1430 36.34         2.5 0.37            148            101 176 
 PTB  HZ EP   1   1430 19.19                             134    0.04 7  147 259 
 PTB  HN ES       1430 40.14                             134   -0.46 9  147 259 
 PTB  HZ I        1430 45.97         5.3 0.23            138            147 259 
 SPBC HZ EP       1430 20.97                             131    0.27 9  163 219 
 SPBC HN ES   2   1430 43.56                             131    0.21 5  163 219 
 SPBC HZ I        1430 48.31         7.4 0.26            135            163 219 
 ZAR  HN ES       1430 50.11                             124    0.03 9  203 292 
 ZAR  HZ I        1430 56.55         3.9 0.11            128            203 292 
 SML  HZ EP       1430 28.49                             119   -0.11 8  243 335 
 SML  HN ES       1430 57.06                             119   -0.35 8  243 335 
 SML  HZ I        1431  1.32         8.2 0.11            122            243 335 
                                                                                
