 2016  4 1 1950 37.4 L   6.773 -73.160145.7  RSN  5 0.3 1.3LRSN                1
 GAP=136        0.71       3.8     3.4  6.1 -0.4006E+00  0.6756E+01 -0.2190E+01E
 Epicentro: LOS SANTOS - SANTANDER                                             3
 ACTION:UPD 16-05-05 14:17 OP:rebc STATUS:               ID:20160401195037 L   I
 OLDACT:REG 16-04-01 20:04 OP:drio STATUS:               ID:20160401194747     3
 2016-04-01-1947-47M.COL___292                                                 6
 STAT SP IPHASW D HRMM SECON CODA AMPLIT PERI AZIMU VELO AIN AR TRES W  DIS CAZ7
 BAR2 EZ ES       1951 12.42                             172    0.1510 20.1 187 
 BAR2 EZ I        1951 13.10         8.0 0.34            172           20.1 187 
 PAM  EZ EP       1951  0.04                             150    0.1810 80.7  39 
 PAM  EN ES       1951 17.06                             150   -0.2810 80.7  39 
 PAM  EZ I        1951 18.62         3.8 0.36            152           80.7  39 
 RUS  HZ EP       1951  0.77                             145   -0.2110 97.7 175 
 RUS  HE ES       1951 19.59                             145    0.2410 97.7 175 
 RUS  HZ I        1951 20.98         1.7 0.30            147           97.7 175 
 PTB  HZ EP       1951  4.24                             132    0.03 9  146 260 
 PTB  HN ES       1951 24.64                             132   -0.45 9  146 260 
 PTB  HZ I        1951 27.96         3.1 0.10            132            146 260 
 ZAR  HZ EP   4   1951 11.83                             122    1.98 0  204 293 
 ZAR  HN ES       1951 35.52                             122    0.39 9  204 293 
 ZAR  HZ I        1951 40.04         2.6 0.26            123            204 293 
                                                                                
