 2013  2 1 1453 33.9 L   6.780 -73.122147.8  RSN  8 0.5 2.3LRSN                1
 GAP=140        1.19       4.7     5.1  7.1  0.3440E+01  0.1165E+02  0.4895E+01E
 Epicentro: LOS SANTOS - SANTANDER                                             3
 ACTION:UPD 13-03-12 09:29 OP:ep   STATUS:               ID:20130201145333 L   I
 2013-02-01-1448-50M.COL___194                                                 6
 STAT SP IPHASW D HRMM SECON CODA AMPLIT PERI AZIMU VELO AIN AR TRES W  DIS CAZ7
 BAR2 SZ EP       1453 53.78                             171    0.0410 21.8 198 
 BAR2 SZ ES       1454  9.12                             171   -0.1010 21.8 198 
 BAR2 SZ I        1454 10.63        77.6 0.41            166           21.8 198 
 BRR  HZ EP       1453 55.50                             152    0.0410 74.6 299 
 BRR  HZ I        1453 55.74        44.9 0.22            149           74.6 299 
 BRR  HN ES       1454 12.95                             152    0.6710 74.6 299 
 PAM  SZ EP       1453 56.46                             151    0.1210 77.5  37 
 PAM  SZ I        1453 56.56        60.9 0.20            156           77.5  37 
 PAM  SN ES       1454 13.75                             151   -0.0910 77.5  37 
 RUS  HZ EP       1453 57.54                             145   -0.1410 98.2 177 
 RUS  HN ES       1454 15.85                             145   -0.3810 98.2 177 
 RUS  HZ I        1454 17.45        16.9 0.32            143           98.2 177 
 PTB  HZ EP       1454  0.76                             132   -0.46 9  150 260 
 PTB  HN ES       1454 21.57                             132   -0.97 9  150 260 
 PTB  HZ I        1454 27.47        33.5 0.42            129            150 260 
 ZAR  HZ EP       1454  7.10                             122    0.29 8  207 292 
 ZAR  HN ES       1454 32.88                             122    0.40 8  207 292 
 ZAR  HZ I        1454 38.77        19.7 0.16            121            207 292 
 CHI  HZ EP       1454 11.84                             118    0.29 8  247 196 
 CHI  HN ES       1454 41.97                             118    1.05 8  247 196 
 CHI  HZ I        1454 49.56         6.2 0.32            117            247 196 
 DBB  SZ EP       1454 20.79                             110   -0.98 7  342 275 
 DBB  SZ ES   1   1454 59.78                             110    0.66 5  342 275 
 DBB  SZ I        1455  7.88         5.7 0.28            109            342 275 
                                                                                
