 2013  6 1 1739 27.9 L   6.784 -73.158149.4  RSN  7 0.5 2.0LRSN                1
 GAP=136        1.19       4.9     5.9  8.0 -0.4765E+01 -0.5338E+00 -0.2728E+01E
 Epicentro: LOS SANTOS - SANTANDER                                             3
 ACTION:UPD 14-01-08 09:51 OP:ep   STATUS:               ID:20130601173927 L   I
 2013-06-01-1738-49M.COL___218                                                 6
 STAT SP IPHASW D HRMM SECON CODA AMPLIT PERI AZIMU VELO AIN AR TRES W  DIS CAZ7
 BAR2 SZ EP       1739 47.99                             171    0.1110 21.3 187 
 BAR2 SZ ES       1740  3.45                             171   -0.0510 21.3 187 
 BAR2 SZ I        1740  5.63        16.5 0.30            170           21.3 187 
 BRR  HZ EP       1739 49.72                             153    0.3410 70.9 300 
 BRR  HN ES       1740  7.20                             153    1.0310 70.9 300 
 BRR  HE I        1740 10.74        20.8 0.22            152           70.9 300 
 PAM  SZ EP       1739 50.63                             151    0.0410 79.6  39 
 PAM  SZ I        1739 50.93        23.1 0.20            155           79.6  39 
 PAM  SN ES       1740  8.09                             151   -0.2310 79.6  39 
 RUS  HZ EP       1739 51.86                             145    0.0210 98.9 175 
 RUS  HN ES       1740 10.39                             145   -0.1610 98.9 175 
 RUS  HN I        1740 12.39         9.8 0.28            147           98.9 175 
 PTB  HZ EP       1739 55.19                             133    0.22 9  146 259 
 PTB  HN ES       1740 15.20                             133   -0.92 9  146 259 
 PTB  HN I        1740 21.52        24.7 0.26            133            146 259 
 CAPV BZ EP       1739 55.77                             132    0.02 9  152  38 
 OCA  HN ES       1740 18.42                             130   -0.60 9  162 354 
                                                                                
