 2016  7 1 1442  6.1 L   6.737 -73.189147.1  RSN  8 0.2 1.6LRSN                1
 GAP=227        0.64       3.1     3.3  4.6  0.2253E+01  0.3714E+01 -0.9372E+00E
 Epicentro: VILLANUEVA - SANTANDER                                             3
 ACTION:UPD 17-03-29 16:45 OP:lp   STATUS:               ID:20160701144206 L   I
 OLDACT:REG 16-07-01 19:42 OP:edw  STATUS:               ID:20160701143747     3
 2016-07-01-1437-47M.COL___343                                                 6
 STAT SP IPHASW D HRMM SECON CODA AMPLIT PERI AZIMU VELO AIN AR TRES W  DIS CAZ7
 BAR2 EZ EP       1442 25.44                             173   -0.2910 16.0 177 
 BAR2 EZ ES       1442 40.67                             173   -0.3910 16.0 177 
 BAR2 EZ I        1442 41.63         9.7 0.14            172           16.0 177 
 BRR  HZ EP       1442 27.38                             153    0.0510 70.8 305 
 BRR  HN ES       1442 44.03                             153    0.1110 70.8 305 
 RUS  HZ EP       1442 29.75                             146    0.2610 94.1 173 
 RUS  HE ES       1442 48.15                             146    0.3910 94.1 173 
 RUS  HZ I        1442 49.06         2.3 0.20            146           94.1 173 
 PTB  HZ EP       1442 32.46                             133   -0.15 9  142 261 
 PTB  HN ES       1442 53.51                             133    0.20 9  142 261 
 PTB  HZ I        1442 55.11         3.1 0.12            132            142 261 
 SPBC HN ES       1442 55.46                             131   -0.11 9  155 219 
 ZAR  HZ EP       1442 38.43                             123    0.01 9  202 294 
 ZAR  HN ES       1443  3.83                             123    0.16 9  202 294 
 ZAR  HZ I        1443 10.19         5.1 0.38            122            202 294 
 NOR  HZ IP   4 C 1442 37.84                             120   -3.18 0  227 235 
 NOR  HE ES       1443  7.99                             120   -0.30 8  227 235 
 NOR  HZ I        1443 11.45         3.4 0.18            119            227 235 
 PRA  HZ EP   4   1442 40.02                             107   -18.6 0  384 209 
 PRA  HE ES   4   1442 59.76                             107   -39.9 0  384 209 
 PRA  HZ I        1443 43.19         1.9 0.36            107            384 209 
                                                                                
