 2013  4 1 1840  9.4 L   6.759 -73.132152.7  RSN  6 0.4 1.7LRSN                1
 GAP=140        0.92       6.3     5.6  8.6  0.3466E+01  0.8031E+01 -0.4056E+00E
 Epicentro: LOS SANTOS - SANTANDER                                             3
 ACTION:UPD 13-05-22 14:35 OP:EP   STATUS:               ID:20130401184009 L   I
 2013-04-01-1840-00M.COL___245                                                 6
 STAT SP IPHASW D HRMM SECON CODA AMPLIT PERI AZIMU VELO AIN AR TRES W  DIS CAZ7
 BAR2 SZ EP       1840 29.75                             172    0.0010 19.2 197 
 BAR2 SZ ES   1   1840 45.09                             172   -0.57 7 19.2 197 
 BAR2 SZ I        1840 47.18        18.7 0.24            172           19.2 197 
 BRR  HZ IP     D 1840 31.71                             152    0.2510 74.8 301 
 BRR  HN ES   1   1840 49.74                             152    1.04 7 74.8 301 
 PAM  SZ EP   1   1840 32.51                             151    0.04 7 80.1  37 
 PAM  SE ES   1   1840 50.02                             151   -0.48 7 80.1  37 
 PAM  SZ I        1840 54.54         4.7 0.28            153           80.1  37 
 RUS  HZ EP   1   1840 33.72                             146    0.25 7 95.9 177 
 RUS  HN ES   1   1840 52.51                             146    0.22 7 95.9 177 
 RUS  HZ I        1840 53.93         3.6 0.20            152           95.9 177 
 PTB  HZ EP   1   1840 36.51                             133   -0.45 7  148 261 
 PTB  HN ES   1   1840 58.09                             133   -0.40 7  148 261 
 PTB  HZ I        1841  3.51         7.5 0.28            133            148 261 
 ZAR  HN ES   1   1841  8.18                             123   -0.32 6  207 293 
 ZAR  HZ I        1841 18.54         4.4 0.42            124            207 293 
                                                                                
