 2012 10 1 1019 40.3 L   6.582 -73.236129.7  RSN  9 0.4 1.7LRSN                1
 GAP= 75        0.75       3.5     4.7  6.0  0.4112E+01  0.5823E+01  0.9057E+01E
 Epicentro: CABRERA - SANTANDER                                                3
 ACTION:UPD 12-11-22 17:01 OP:ep   STATUS:               ID:20121001101940 L   I
 2012-10-01-1016-39M.COL___186                                                 6
 STAT SP IPHASW D HRMM SECON CODA AMPLIT PERI AZIMU VELO AIN AR TRES W  DIS CAZ7
 BAR2 SZ EP   1   1019 57.48                             177   -0.26 7 6.03  80 
 BAR2 SZ I        1019 59.67        12.2 0.10                          6.03  80 
 BAR2 SZ ES   2   1020 11.69                             177    0.34 5 6.03  80 
 GIR2 SZ EP       1019 58.83                             156   -0.1910 55.1   5 
 GIR2 SZ ES   1   1020 13.75                             156    0.12 7 55.1   5 
 RUS  HZ EP   1   1020  0.25                             147   -0.62 7 78.1 167 
 RUS  HZ I        1020  1.31         2.8 0.42                          78.1 167 
 RUS  HN ES   1   1020 17.19                             147    0.27 7 78.1 167 
 BRR  HZ EP       1019 59.72                             147   -0.4610 78.3 318 
 BRR  HZ I        1019 59.90        23.7 0.10                          78.3 318 
 BRR  HE ES       1020 15.78                             147    0.0810 78.3 318 
 TAM  HZ EP   1   1020  8.14                             126    0.86 7  161  96 
 ZAR  HE ES   1   1020 36.95                             118    0.40 6  206 299 
 ZAR  HN I        1020 39.50        12.0 0.34                           206 299 
 CHI  HZ EP   1   1020 14.44                             116    0.15 6  223 194 
 CHI  HN ES   1   1020 40.57                             116   -0.24 6  223 194 
 HEL  HZ EP   1   1020 18.50                             113    0.44 6  257 260 
 PRA  HZ EP   1   1020 30.28                             105    0.04 5  366 210 
 PRA  HN ES   1   1021  9.53                             105    0.32 5  366 210 
                                                                                
