 2013  2 1 1417  8.7 L   6.841 -73.147146.5  RSN  7 0.4 1.8LRSN                1
 GAP=134        0.96       4.3     4.3  6.6  0.1364E+01  0.6315E+01  0.5722E+01E
 Epicentro: LOS SANTOS - SANTANDER                                             3
 ACTION:UPD 13-03-12 09:29 OP:ep   STATUS:               ID:20130201141708 L   I
 2013-02-01-1408-50M.COL___192                                                 6
 STAT SP IPHASW D HRMM SECON CODA AMPLIT PERI AZIMU VELO AIN AR TRES W  DIS CAZ7
 BAR2 SZ EP       1417 28.37                             169   -0.1510 27.8 188 
 BAR2 SZ ES       1417 43.55                             169   -0.4310 27.8 188 
 BAR2 SZ I        1417 47.01        14.2 0.22            168           27.8 188 
 BRR  HZ EP   1   1417 30.05                             153    0.24 7 69.0 295 
 BRR  HN ES   1   1417 47.12                             153    0.85 7 69.0 295 
 BRR  HZ I        1417 47.95        11.8 0.38            155           69.0 295 
 PAM  SZ IP     D 1417 31.16                             152    0.3610 74.0  42 
 PAM  SZ I        1417 31.27        16.4 0.18            155           74.0  42 
 PAM  SN ES       1417 47.91                             152   -0.1310 74.0  42 
 RUS  HZ EP       1417 32.81                             143   -0.0510  105 176 
 RUS  HE ES       1417 51.82                             143    0.1110  105 176 
 RUS  HZ I        1417 52.90         6.8 0.34            143            105 176 
 PTB  HZ EP       1417 35.02                             132   -0.78 9  149 257 
 PTB  HN ES       1417 56.81                             132   -0.13 9  149 257 
 PTB  HZ I        1417 58.43        10.2 0.42            133            149 257 
 ZAR  HN ES       1418  6.35                             123    0.14 9  202 291 
 CHI  HZ EP       1417 47.10                             117    0.18 8  253 195 
 CHI  HN ES   1   1418 17.52                             117    0.79 6  253 195 
 CHI  HZ I        1418 19.24         2.3 0.22            118            253 195 
                                                                                
