 2015 12 1 1322 48.9 L   6.764 -73.176141.9  RSN  4 0.3 1.8LRSN                1
 GAP=239        0.75       8.1     5.4  6.0  0.1651E+02  0.7434E+01 -0.4139E+01E
 Epicentro: LOS SANTOS - SANTANDER                                             3
 ACTION:UPD 16-02-04 15:01 OP:cam  STATUS:               ID:20151201132248 L   I
 OLDACT:UP  15-12-01 22:22 OP:drio STATUS:               ID:20151201131747     3
 OLDACT:REG 15-12-01 21:00 OP:drio STATUS:               ID:20151201131747     3
 2015-12-01-1317-47M.COL___310                                                 6
 STAT SP IPHASW D HRMM SECON CODA AMPLIT PERI AZIMU VELO AIN AR TRES W  DIS CAZ7
 BAR2 EZ EP       1323  8.13                             172    0.1610 19.0 182 
 BAR2 EZ ES       1323 22.62                             172   -0.2310 19.0 182 
 BAR2 EZ I        1323 24.77        11.0 0.14            170           19.0 182 
 BRR  HZ EP       1323  9.98                             152    0.4210 70.3 303 
 BRR  HN ES       1323 25.65                             152   -0.0410 70.3 303 
 PTB  HZ EP       1323 14.69                             132   -0.48 9  144 260 
 PTB  HN ES       1323 36.02                             132    0.35 9  144 260 
 PTB  HZ I        1323 39.27         6.8 0.20            131            144 260 
 ZAR  HZ EP       1323 20.82                             122   -0.09 9  202 294 
 ZAR  HE ES       1323 45.72                             122   -0.18 9  202 294 
 ZAR  HZ I        1323 51.82         9.5 0.30            122            202 294 
                                                                                
