 2010 11 1 1208 20.0 L   7.410 -73.247122.6  RSN  4 0.4 1.5LRSN                1
 GAP=160        1.06      15.0    17.9 20.2 -0.1836E+03  0.3669E+02 -0.1134E+03E
 Epicentro: EL PLAYON - SANTANDER                                              3
 ACTION:UP  10-12-17 16:49 OP:REBC STATUS:               ID:20101101120820 L   I
 2010-11-01-1206-41S.COL___126                                                 6
 STAT SP IPHASW D HRMM SECON CODA AMPLIT PERI AZIMU VELO SNR AR TRES W  DIS CAZ7
 GUE  SZ EP       12 8 38.00                             153    -0.410   58  37 
 BRR  HZ EP   1   12 8 37.77                             152    -0.4 7   61 237 
 BRR  HZ I        12 8 38.32         6.7 0.18                            61 237 
 BRR  HE ES   2   12 8 52.73                             152     0.5 5   61 237 
 GRA  SZ EP       12 8 39.56                             148     0.610   72  43 
 GRA  SZ ES   2   12 8 53.44                             148    -0.3 5   72  43 
 GRA  SZ I        12 8 56.11         8.8 0.41                            72  43 
 BAR2 SZ ES   2   12 8 56.41                             141     0.0 5   91 176 
 BAR2 SZ I        12 8 57.25         7.8 0.13                            91 176 
                                                                                
