 2015  1 1 1731 30.6 L   6.780 -73.168150.7  RSN  6 0.4 1.7LRSN                1
 GAP=198        1.08       5.9     7.0  8.5  0.2119E+02  0.3539E+01 -0.8584E+01E
 Epicentro: LOS SANTOS - SANTANDER                                             3
 ACTION:UPD 15-03-02 15:35 OP:nd   STATUS:               ID:20150101173130 L   I
 OLDACT:UP  15-01-02 00:44 OP:cam  STATUS:               ID:20150101172815     3
 OLDACT:UP  15-01-02 00:44 OP:cam  STATUS:               ID:20150101172815     3
 OLDACT:REG 15-01-01 22:24 OP:cam  STATUS:               ID:20150101172815     3
 2015-01-01-1728-15M.COL___280                                                 6
 STAT SP IPHASW D HRMM SECON CODA AMPLIT PERI AZIMU VELO AIN AR TRES W  DIS CAZ7
 BAR2 EZ EP       1731 50.81                             172    0.0710 20.8 184 
 BAR2 EZ ES       1732  6.10                             172   -0.3810 20.8 184 
 BAR2 EZ I        1732  7.36        12.2 0.24            169           20.8 184 
 BRR  HZ EP     D 1731 52.74                             154    0.5510 70.1 301 
 BRR  HN ES       1732  9.71                             154    0.6510 70.1 301 
 BRR  HZ I        1732 12.95         6.6 0.12            149           70.1 301 
 RUS  HZ EP       1731 55.00                             145    0.3410 98.5 175 
 RUS  HE ES       1732 13.14                             145   -0.3210 98.5 175 
 RUS  HZ I        1732 14.95         7.1 0.26            147           98.5 175 
 PTB  HZ EP       1731 57.34                             134   -0.34 9  145 260 
 PTB  HN ES       1732 18.59                             134   -0.24 9  145 260 
 PTB  HZ I        1732 25.94         4.2 0.30            131            145 260 
 ZAR  HZ EP   4   1732  4.08                             124    0.89 0  203 293 
 ZAR  HE ES       1732 28.76                             124    0.13 9  203 293 
 ZAR  HZ I        1732 34.71         5.4 0.34            123            203 293 
 SML  HZ EP   4   1732  6.05                             118   -1.53 0  245 336 
 SML  HE ES       1732 35.69                             118   -0.76 8  245 336 
 SML  HZ I        1732 40.23         6.5 0.10            119            245 336 
 MON  HN ES   4   1732 56.42                             109   -1.60 0  353 309 
                                                                                
