 2011  2 1 1404 27.8 L   6.792 -73.059143.0  RSN  4 0.2 1.5LRSN                1
 GAP=240        0.47       4.9    18.2  5.7  0.4947E+00  0.8558E+01  0.7073E+01E
 Epicentro: LOS SANTOS - SANTANDER                                             3
 ACTION:UP  11-03-28 15:05 OP:jfem STATUS:               ID:20110201140427 L   I
 2011-02-01-1400-00M.COL___140                                                 6
 STAT SP IPHASW D HRMM SECON CODA AMPLIT PERI AZIMU VELO SNR AR TRES W  DIS CAZ7
 BAR2 SZ EP   1   14 4 46.94                             169    -0.2 7   26 212 
 BAR2 SZ ES   2   14 5  2.00                             169    -0.3 5   26 212 
 BAR2 SZ I        14 5  3.78        11.1 0.15                            26 212 
 BTL  SZ EP   2   14 4 47.51                             169     0.3 5   27 301 
 BTL  SZ ES   2   14 5  2.54                             169     0.2 5   27 301 
 RUS  HZ EP   1   14 4 51.44                             144     0.2 7  100 182 
 RUS  HE ES   1   14 5  9.49                             144     0.0 7  100 182 
 RUS  HZ I        14 5 11.29         4.0 0.39                           100 182 
 CHI  HZ EP   1   14 5  5.35                             116    -0.2 6  251 197 
 CHI  HZ I        14 5  5.64         2.5 0.81                           251 197 
 CHI  HE ES   2   14 5 35.23                             116     0.2 4  251 197 
                                                                                
