 2015  5 1 1917 48.9 L   6.807 -73.146141.2  RSN  9 0.5 1.8LRSN                1
 GAP=136        0.98       3.2     4.9  5.7 -0.3084E+01  0.1055E+02  0.1452E+01E
 Epicentro: LOS SANTOS - SANTANDER                                             3
 ACTION:UPD 15-09-10 22:00 OP:cam  STATUS:               ID:20150501191748 L   I
 OLDACT:REG 15-05-12 21:55 OP:ak   STATUS:               ID:20150501190750     3
 2015-05-01-1907-50M.COL___279                                                 6
 STAT SP IPHASW D HRMM SECON CODA AMPLIT PERI AZIMU VELO AIN AR TRES W  DIS CAZ7
 BAR2 EZ EP       1918  7.89                             170   -0.1510 24.1 190 
 BAR2 EZ ES       1918 22.44                             170   -0.5010 24.1 190 
 BAR2 EZ I        1918 24.49        16.5 0.23            168           24.1 190 
 BRR  HZ EP   1   1918  9.26                             152   -0.32 7 70.8 298 
 BRR  HN ES       1918 25.45                             152   -0.2210 70.8 298 
 BRR  HZ I        1918 30.77         9.9 0.30            149           70.8 298 
 PAM  SZ IP     D 1918 10.82                             150    0.1810 76.8  40 
 PAM  SE ES       1918 27.92                             150    0.3610 76.8  40 
 PAM  SZ I        1918 30.01        13.1 0.48            155           76.8  40 
 RUS  HZ EP       1918 12.08                             143   -0.2310  101 176 
 RUS  HE ES       1918 31.11                             143    0.5810  101 176 
 RUS  HZ I        1918 31.73         7.7 0.32            144            101 176 
 NOR  HZ EP       1918 24.23                             117   -0.23 8  235 234 
 NOR  HE ES       1918 51.80                             117   -0.37 8  235 234 
 NOR  HZ I        1918 59.68         6.0 0.18            118            235 234 
 SML  HZ EP       1918 24.69                             117   -0.55 8  243 335 
 SML  HN ES       1918 54.15                             117    0.61 8  243 335 
 SML  HZ I        1918 57.91        15.8 0.09            118            243 335 
 CHI  HZ EP       1918 25.88                             116   -0.60 8  249 195 
 CHI  HN ES   1   1918 55.80                             116    0.04 6  249 195 
 CHI  HZ I        1919  1.77         3.2 0.34            117            249 195 
 GUY2CHZ EP   1   1918 33.12                             111    0.72 5  302 235 
 GUY2CHN ES       1919  6.98                             111    0.69 7  302 235 
 GUY2CHZ I        1919 14.10         3.7 0.15                           302 235 
 TOL  SZ EP   1   1918 37.63                             108    0.54 5  344 225 
 TOL  SN ES   1   1919 15.40                             108    0.76 5  344 225 
 TOL  SZ I        1919 20.55         2.2 0.18            109            344 225 
                                                                                
