 2011  7 1 1710  3.9 L   6.771 -72.997147.1  RSN  5 0.3 1.9LRSN                1
 GAP=198        0.67       6.0    13.4  6.7  0.5350E+02 -0.3171E+02 -0.9138E+01E
 Epicentro: CEPITA - SANTANDER                                                 3
 ACTION:UPD 12-07-25 13:57 OP:epov STATUS:               ID:20110701171003 L   I
 2011-07-01-1706-51S.COL___136                                                 6
 STAT SP IPHASW D HRMM SECON CODA AMPLIT PERI AZIMU VELO AIN AR TRES W  DIS CAZ7
 BAR2 SZ EP       1710 23.89                             170    0.0610 28.5 226 
 BAR2 SZ ES   1   1710 39.28                             170   -0.07 7 28.5 226 
 BTL  SZ EP       1710 24.30                             167    0.3310 34.0 299 
 BTL  SZ ES   1   1710 39.99                             167    0.38 7 34.0 299 
 BRR  HZ EP       1710 26.05                             148   -0.1410 87.3 295 
 BRR  HN ES   1   1710 43.44                             148   -0.12 7 87.3 295 
 BRR  HZ I        1710 44.91        13.3 0.09                          87.3 295 
 RUS  HZ EP       1710 27.71                             145    0.1110 97.7 186 
 RUS  HN ES   1   1710 45.51                             145   -0.55 7 97.7 186 
 OCA  SZ ES   2   1710 54.71                             129   -0.77 5  166 348 
                                                                                
