 2010  5 1 1805  8.3 L   6.765 -73.023143.4  RSN  5 0.5 1.6LRSN                1
 GAP=210        0.79      10.3    13.1 11.1 -0.5380E+02 -0.2364E+02 -0.1135E+02E
 Epicentro: CEPITA - SANTANDER                                                 3
 ACTION:UP  10-08-24 10:02 OP:vdl  STATUS:               ID:20100501180508 L   I
 2010-05-01-1801-26S.COL___105                                                 6
 STAT SP IPHASW D HRMM SECON CODA AMPLIT PERI AZIMU VELO SNR AR TRES W  DIS CAZ7
 BAR2 SZ ES   2   18 5 42.25                             169    -0.6 5   26 223 
 BRR  HZ IP     D 18 5 30.35                             147     0.310   85 296 
 BRR  HE ES   1   18 5 46.89                             147    -0.1 7   85 296 
 BRR  HZ I        18 5 47.68         9.0 0.38                            85 296 
 BRI  SZ ES   2   18 5 51.05                             141     0.7 5  108  13 
 GUE  SZ EP   2   18 5 32.60                             138    -0.3 5  118   5 
 OCA  SZ EP   2   18 5 36.40                             128    -0.6 5  166 349 
 OCA  SZ ES   2   18 5 58.80                             128    -0.6 5  166 349 
 OCA  SZ I        18 6  1.66         4.5 0.42                           166 349 
                                                                                
