 2012  2 1 1346 36.9 L   6.720 -73.185140.7  RSN  7 0.3 1.7LRSN                1
 GAP=135        0.60       4.7     4.1  6.1  0.6182E+01 -0.6605E+00 -0.6726E+01E
 ACTION:UP  12-03-07 16:26 OP:epov STATUS:               ID:20120201134636 L   I
 2012-02-01-1340-00M.COL___187                                                 6
 STAT SP IPHASW D HRMM SECON CODA AMPLIT PERI AZIMU VELO SNR AR TRES W  DIS CAZ7
 BAR2 SZ EP   2   1346 55.93                             174    0.13 5 14.1 179 
 BAR2 SZ ES   1   1347 10.46                             174   -0.05 7 14.1 179 
 BAR2 SZ I        1347 12.07        11.2 0.18                          14.1 179 
 GIR2 SZ EP   1   1346 55.99                             163   -0.28 7 39.7 359 
 BRR  HZ EP       1346 58.04                             151    0.4410 72.3 306 
 BRR  HZ I        1346 58.99        23.2 0.34                          72.3 306 
 BRR  HN ES   1   1347 13.81                             151    0.09 7 72.3 306 
 PAM  SZ EP   1   1346 58.84                             147   -0.40 7 87.0  38 
 RUS  HZ EP   1   1346 59.72                             145    0.13 7 92.1 173 
 RUS  HN ES   1   1347 17.37                             145    0.12 7 92.1 173 
 RUS  HZ I        1347 19.47         2.9 0.66                          92.1 173 
 PTB  HZ EP   1   1347  2.80                             132   -0.17 7  142 262 
 PTB  HN ES   1   1347 22.78                             132   -0.49 7  142 262 
 ZAR  HE ES   1   1347 34.22                             121    0.19 6  204 295 
 ZAR  HZ I        1347 39.88         4.9 0.35                           204 295 
                                                                                
