 2011 11 1 1530 58.1 L   6.746 -73.105138.0  RSN  4 0.1 1.4LRSN                1
 GAP=144        0.30       2.1     3.9  4.2 -0.2236E+01  0.1905E+00  0.2124E+00E
 Epicentro: JORDAN - SANTANDER                                                 3
 ACTION:UPD 12-07-13 16:07 OP:ep   STATUS:               ID:20111101153058 L   I
 2011-11-01-1529-49S.COL___176                                                 6
 STAT SP IPHASW D HRMM SECON CODA AMPLIT PERI AZIMU VELO AIN AR TRES W  DIS CAZ7
 BAR2 SZ EP       1531 16.81                             172    0.0710 19.0 207 
 BAR2 SZ I        1531 33.49        10.7 0.18                          19.0 207 
 BRR  HZ EP   2   1531 18.91                             149    0.05 5 78.1 301 
 BRR  HZ I        1531 22.63         8.4 0.39                          78.1 301 
 BRR  HE ES   2   1531 34.95                             149   -0.08 5 78.1 301 
 PAM  SZ EP       1531 19.65                             149    0.0010 79.5  34 
 PAM  SN ES   1   1531 36.41                             149   -0.03 7 79.5  34 
 PAM  SZ I        1531 38.93         3.1 0.26                          79.5  34 
 RUS  HZ EP   1   1531 20.55                             144   -0.12 7 94.4 179 
 RUS  HN ES   1   1531 38.27                             144    0.03 7 94.4 179 
 RUS  HZ I        1531 42.42         3.0 0.38                          94.4 179 
                                                                                
