 2013  7 1 1324  9.3 L   6.769 -73.182146.0  RSN  8 0.5 1.7LRSN                1
 GAP=176        1.14       7.4     7.1  8.1  0.2434E+02  0.6286E+01  0.3232E+01E
 Epicentro: LOS SANTOS - SANTANDER                                             3
 ACTION:UPD 13-08-12 10:34 OP:ep   STATUS:               ID:20130701132409 L   I
 OLDACT:REG 13-07-01 14:19 OP:jn   STATUS:               ID:20130701131959     3
 2013-07-01-1319-59M.COL___267                                                 6
 STAT SP IPHASW D HRMM SECON CODA AMPLIT PERI AZIMU VELO AIN AR TRES W  DIS CAZ7
 BAR2 SZ EP       1324 28.89                             172   -0.0410 19.6 180 
 BAR2 SZ ES       1324 43.43                             172   -0.7810 19.6 180 
 BAR2 SZ I        1324 45.05        11.9 0.22            153           19.6 180 
 GIR2 SZ EP       1324 28.96                             166   -0.1610 34.2 358 
 BRR  HZ EP       1324 30.60                             153    0.1810 69.5 303 
 BRR  HN ES       1324 47.77                             153    0.9110 69.5 303 
 BRR  HZ I        1324 52.73         7.0 0.14            132           69.5 303 
 RUS  HZ EP       1324 32.87                             145   -0.0310 97.6 174 
 RUS  HE ES       1324 51.72                             145    0.4410 97.6 174 
 RUS  HZ I        1324 52.60         7.0 0.26            119           97.6 174 
 PTB  HZ EP       1324 35.48                             133   -0.44 9  143 260 
 PTB  HN ES       1324 56.47                             133   -0.18 9  143 260 
 PTB  HZ I        1324 58.38         6.0 0.18            110            143 260 
 ZAR  HE ES   1   1325  6.18                             123   -0.51 6  202 293 
 ZAR  HZ I        1325 12.25         5.1 0.32            104            202 293 
 CHI  HZ EP   1   1324 46.92                             118    0.33 6  244 194 
 CHI  HZ I        1325 19.82         2.9 0.34            101            244 194 
 HEL  HZ EP   2   1324 49.87                             115    0.82 4  267 256 
 HEL  HZ I        1325 26.51         2.8 0.32            100            267 256 
                                                                                
