 2016  1 1 1007 46.0 L   6.788 -73.210164.6  RSN  4 0.2 1.4LRSN                1
 GAP=282        0.47       6.5     6.6 10.0  0.1705E+00 -0.3094E+02 -0.2716E+02E
 Epicentro: ZAPATOCA - SANTANDER                                               3
 ACTION:UPD 16-03-09 23:21 OP:cam  STATUS:               ID:20160101100755 L   I
 OLDACT:UP  16-02-10 20:16 OP:cam  STATUS:               ID:20160101100755 L   3
 OLDACT:UP  16-02-01 09:14 OP:mHER STATUS:               ID:20160101100755 L   3
 OLDACT:UP  16-01-01 21:06 OP:dnl  STATUS:               ID:20160101100748     3
 OLDACT:REG 16-01-01 20:11 OP:dnl  STATUS:               ID:20160101100748     3
 2016-01-01-1007-48M.COL___317                                                 6
 STAT SP IPHASW D HRMM SECON CODA AMPLIT PERI AZIMU VELO AIN AR TRES W  DIS CAZ7
 BRR  HZ EP       10 8  9.08                             157    0.0910 65.8 302 
 BRR  HN ES   2   10 8 27.06                             157    0.17 5 65.8 302 
 PTB  HZ EP   4   10 8 14.65                             138    0.64 0  141 259 
 PTB  HN ES   1   10 8 35.52                             138   -0.29 7  141 259 
 PTB  HZ I        10 8 39.00         1.3 0.13            131            141 259 
 ZAR  HN ES   1   10 8 45.33                             127    0.27 6  198 293 
 ZAR  HN I        10 8 50.07         4.0 0.30            122            198 293 
 SML  HZ EP   1   10 8 23.57                             121   -0.05 6  242 337 
 SML  HN ES   2   10 8 52.45                             121   -0.48 4  242 337 
 SML  HZ I        10 8 55.75         2.5 0.10            118            242 337 
                                                                                
