 2014  1 1 1532 36.5 L   6.903 -73.151128.7  RSN  4 0.2 1.3LRSN                1
 GAP=282        0.46      10.0     4.9 15.3  0.1743E+02 -0.1767E+02 -0.9927E+02E
 Epicentro: BETULIA - SANTANDER                                                3
 ACTION:UPD 14-03-13 09:50 OP:ep   STATUS:               ID:20140101153236 L   I
 OLDACT:REG 14-01-01 16:13 OP:mh   STATUS:               ID:20140101153000     3
 2014-01-01-1530-00M.COL___285                                                 6
 STAT SP IPHASW D HRMM SECON CODA AMPLIT PERI AZIMU VELO AIN AR TRES W  DIS CAZ7
 RUS  HZ EP       1532 59.37                             137   -0.1510  112 176 
 RUS  HN ES   2   1533 17.83                             137    0.34 5  112 176 
 RUS  HZ I        1533 19.85         2.9 0.08            156            112 176 
 PTB  HZ EP   1   1533  2.62                             127    0.30 7  150 255 
 PTB  HN ES   2   1533 22.09                             127   -0.38 5  150 255 
 PTB  HZ I        1533 31.09         2.7 0.13            137            150 255 
 SPBC HN ES   2   1533 26.55                             123    0.01 5  172 216 
 NOR  HZ EP   4   1533  2.60                             114   -9.39 0  241 232 
 NOR  HN ES   2   1533 39.66                             114   -0.02 4  241 232 
 NOR  HZ I        1533 42.12         2.3 0.36            125            241 232 
                                                                                
