 2017  3 1 1751  0.8 L   6.807 -73.173145.4  RSN  8 0.4 1.8LRSN                1
 GAP=133        1.09       4.3     4.5  7.2 -0.1244E+00  0.6553E+01  0.8034E+01E
 Epicentro: LOS SANTOS - SANTANDER                                             3
 ACTION:UPD 17-05-25 18:34 OP:jn   STATUS:               ID:20170301175100 L   I
 OLDACT:REG 17-03-01 20:10 OP:lv   STATUS:               ID:20170301174742     3
 2017-03-01-1748-00M.COL___383                                                 6
 STAT SP IPHASW D HRMM SECON CODA AMPLIT PERI AZIMU VELO AIN AR TRES W  DIS CAZ7
 BAR2 EZ EP       1751 20.52                             170    0.0910 23.8 182 
 BAR2 EZ ES       1751 35.81                             170    0.0910 23.8 182 
 BAR2 EZ I        1751 37.05        25.3 0.31            170           23.8 182 
 BRR  HZ EP       1751 21.07                             154   -0.7010 68.1 299 
 BRR  HE ES       1751 38.68                             154    0.5710 68.1 299 
 BRR  HZ I        1751 43.27        20.7 0.34            151           68.1 299 
 PAM  EZ EP       1751 23.40                             150    0.3110 78.8  42 
 PAM  EN ES       1751 40.25                             150   -0.2110 78.8  42 
 PAM  EZ I        1751 43.24         9.9 0.75            154           78.8  42 
 RUS  HZ EP       1751 24.51                             143   -0.1110  102 174 
 RUS  HN ES       1751 43.09                             143   -0.0910  102 174 
 RUS  HZ I        1751 44.36         9.0 0.32            146            102 174 
 PTB  HZ EP       1751 27.17                             133   -0.34 9  145 258 
 PTB  HN ES       1751 47.47                             133   -0.85 9  145 258 
 PTB  HZ I        1751 53.27         5.5 0.14            132            145 258 
 ZAR  HZ EP   4   1751 35.97                             123    3.04 0  201 292 
 ZAR  HN ES       1751 58.61                             123    0.64 9  201 292 
 ZAR  HZ I        1752  4.25         6.0 0.38            123            201 292 
 NOR  HN ES       1752  4.25                             119    0.24 8  233 234 
 NOR  HZ I        1752 10.10         3.5 0.19            120            233 234 
 CHI  HZ EP       1751 38.89                             117    0.38 8  249 194 
 CHI  HN ES       1752  8.27                             117    0.37 8  249 194 
 CHI  HZ I        1752 11.75         2.8 0.31            119            249 194 
                                                                                
