 2016 10 1 1351 43.8 L   6.826 -73.128148.5  RSN 18 0.4 2.2LRSN                1
 GAP=137        1.02       4.4     4.6  5.2  0.5462E+00  0.4959E+01  0.4599E+01E
 Epicentro: LOS SANTOS - SANTANDER                                             3
 ACTION:UPD 16-11-09 19:15 OP:rebc STATUS:               ID:20161001135143 L   I
 OLDACT:UP  16-10-02 00:32 OP:edw  STATUS:               ID:20161001134748     3
 OLDACT:REG 16-10-01 20:53 OP:edw  STATUS:               ID:20161001134748     3
 2016-10-01-1348-00M.COL___366                                                 6
 STAT SP IPHASW D HRMM SECON CODA AMPLIT PERI AZIMU VELO AIN AR TRES W  DIS CAZ7
 BAR2 EZ EP       1352  3.76                             170   -0.0710 26.6 193 
 BAR2 EZ ES       1352 18.98                             170   -0.4710 26.6 193 
 BAR2 EZ I        1352 19.99        45.6 0.24            168           26.6 193 
 BRR  HZ EP       1352  5.59                             153    0.3210 71.6 296 
 BRR  HN ES       1352 22.33                             153    0.3210 71.6 296 
 BRR  HZ I        1352 26.96        21.4 0.32            148           71.6 296 
 PAM  EZ EP       1352  6.47                             152    0.3710 73.9  40 
 PAM  EN ES       1352 23.61                             152    0.1110 73.9  40 
 PAM  EZ I        1352 25.93        31.6 0.48            155           73.9  40 
 RUS  HZ EP       1352  7.70                             143   -0.3210  103 177 
 RUS  HN ES       1352 26.75                             143   -0.1610  103 177 
 RUS  HZ I        1352 27.52        23.9 0.24            145            103 177 
 PTB  HZ EP   9   1352 10.13                             132   -1.08 0  150 258 
 PTB  HN ES       1352 31.50                             131   -0.01 9  150 258 
 PTB  HZ I        1352 34.46        18.0 0.14            130            150 258 
 OCA  HZ EP   4   1352 12.82                             130    0.74 0  158 352 
 OCA  HN ES   4   1352 34.11                             130   -0.02 0  158 352 
 OCA  HZ I        1352 40.20        47.4 0.40            130            158 352 
 SPBC HZ EP       1352 12.87                             129    0.03 9  167 219 
 SPBC HN ES   4   1352 34.99                             129   -0.49 0  167 219 
 SPBC HZ I        1352 37.60        24.8 0.16            128            167 219 
 ZAR  HZ EP   4   1352 14.96                             123   -1.54 0  205 291 
 ZAR  HN ES       1352 41.83                             123   -0.17 9  205 291 
 ZAR  HZ I        1352 47.34        13.8 0.50            121            205 291 
 NOR  HZ EP       1352 19.82                             118   -0.22 8  238 234 
 NOR  HN ES   4   1352 48.02                             118   -0.28 0  238 234 
 NOR  HZ I        1352 52.91        12.2 0.24            118            238 234 
 CHI  HZ EP       1352 21.84                             117   -0.17 8  252 195 
 CHI  HN ES   4   1352 51.34                             117   -0.47 0  252 195 
 CHI  HZ I        1352 54.53        10.0 0.38            118            252 195 
 ROSC BZ EP   4   1352 24.82                             117    2.37 0  256 211 
 ROSC BN ES   4   1352 55.09                             117    2.50 0  256 211 
 ROSC BZ I        1352 58.23        17.3 0.40            117            256 211 
 HEL  HZ EP   9   1352 24.44                             115    0.00 0  275 255 
 HEL  HN ES       1352 55.31                             114   -0.83 8  275 255 
 HEL  HZ I        1353  3.40         8.5 0.32            114            275 255 
 GUY2CHZ EP       1352 28.89                             112    0.99 7  304 235 
 GUY2CHN ES   4   1353  6.93                             112    4.63 0  304 235 
 GUY2CHZ I        1353  9.91         8.6 0.26                           304 235 
 ELA  HZ EP   4   1352 33.24                             110    2.09 0  332 229 
 ELA  HN ES   4   1353 13.76                             110    5.68 0  332 229 
 ELA  HZ I        1353 15.55         5.3 0.48            110            332 229 
 CBOC HZ EP   2   1352 31.96                             110    0.82 3  336 252 
 CBOC HN ES   2   1353  8.27                             110    0.20 3  336 252 
 SJC  HZ EP       1352 38.04                             106   -1.25 6  408 327 
 SJC  HN ES   4   1353 19.25                             106   -3.32 0  408 327 
 SJC  HZ I        1353 27.74         3.1 0.52            106            408 327 
 PAL  HZ EP       1352 39.46                             106    0.04 6  409 239 
 PAL  HN ES   4   1353 22.56                             106   -0.24 0  409 239 
 PAL  HZ I        1353 25.61         2.3 0.18            106            409 239 
 CRJC HZ EP   9   1352 44.31                             104   -1.71 0  465   3 
 CRJC HN ES       1353 31.27                             104   -1.57 5  465   3 
 CRJC HZ I        1353 34.99         3.8 0.22            104            465   3 
                                                                                
