 2016  2 1 1423 16.4 L   6.825 -73.166144.0  RSN 12 0.4 2.3LRSN                1
 GAP=133        0.83       2.4     3.4  4.6 -0.7515E+00  0.6126E+01  0.8051E-02E
 Epicentro: LOS SANTOS - SANTANDER                                             3
 ACTION:UPD 16-03-04 21:22 OP:rebc STATUS:               ID:20160201142316 L   I
 OLDACT:REG 16-02-01 22:02 OP:cara STATUS:               ID:20160201141759     3
 2016-02-01-1417-59S.COL___229                                                 6
 STAT SP IPHASW D HRMM SECON CODA AMPLIT PERI AZIMU VELO AIN AR TRES W  DIS CAZ7
 BAR2 EZ IP     C 1423 35.54                             169   -0.2910 25.8 184 
 BAR2 EZ ES       1423 51.26                             169    0.2410 25.8 184 
 BAR2 EZ I        1423 51.71        50.9 0.30            170           25.8 184 
 PAM  EZ IP     C 1423 38.55                             151    0.2010 76.8  42 
 PAM  EN ES       1423 55.66                             151    0.1610 76.8  42 
 PAM  EZ I        1423 58.77        19.5 0.50            154           76.8  42 
 RUS  HZ EP       1423 39.79                             143   -0.3610  103 175 
 RUS  HN ES       1423 58.76                             143    0.0510  103 175 
 RUS  HZ I        1423 59.60        16.1 0.28            145            103 175 
 PTB  HZ EP       1423 42.48                             132   -0.55 9  146 258 
 PTB  HN ES       1424  3.41                             132   -0.43 9  146 258 
 PTB  HZ I        1424  8.47        25.4 0.46            132            146 258 
 SPBC HZ EP       1423 44.55                             129   -0.24 9  164 218 
 SPBC HE ES       1424  7.57                             129    0.60 9  164 218 
 SPBC HZ I        1424 11.99        44.3 0.20            130            164 218 
 ZAR  HZ EP       1423 48.67                             122    0.30 9  201 292 
 ZAR  HN ES       1424 13.47                             122    0.13 9  201 292 
 ZAR  HZ I        1424 18.90        21.3 0.66            123            201 292 
 NOR  HZ EP       1423 52.21                             118    0.25 8  234 234 
 NOR  HN ES       1424 19.62                             118   -0.11 8  234 234 
 NOR  HZ I        1424 24.88        17.5 0.58            119            234 234 
 SML  HZ EP       1423 52.51                             117   -0.00 8  240 336 
 SML  HN ES       1424 20.48                             117   -0.24 8  240 336 
 SML  HZ I        1424 27.67        24.6 0.10            119            240 336 
 CHI  HZ EP       1423 53.91                             117   -0.28 8  251 195 
 CHI  HN ES       1424 23.16                             117   -0.53 8  251 195 
 CHI  HZ I        1424 28.18        12.8 0.38            119            251 195 
 GUY2CHZ EP       1424  0.69                             112    0.83 7  301 234 
 GUY2CHE ES   4   1424 38.17                             112    4.38 0  301 234 
 GUY2CHZ I        1424 41.91        13.7 0.60                           301 234 
 DBB  EZ IP       1424  3.62                             109    0.14 7  337 274 
 DBB  EZ ES   4   1424 39.26                             109   -0.98 0  337 274 
 DBB  EZ I        1424 41.61         4.5 0.60            110            337 274 
 PRA  HZ IP       1424 10.38                             106    0.41 6  393 209 
 PRA  HN ES       1424 52.31                             106    0.53 6  393 209 
 PRA  HZ I        1424 55.80        12.6 0.30            108            393 209 
                                                                                
