 2017  5 1 1252 22.2 L   6.791 -73.161144.0  RSN 11 0.4 2.1LRSN                1
 GAP=111        0.98       3.5     3.3  5.9  0.1079E+01  0.2737E+01  0.4531E+01E
 Epicentro: LOS SANTOS - SANTANDER                                             3
 ACTION:UPD 17-06-16 13:31 OP:jn   STATUS:               ID:20170501125222 L   I
 OLDACT:UP  17-05-01 22:02 OP:edw  STATUS:               ID:20170501124745d    3
 OLDACT:UP  17-05-01 22:02 OP:edw  STATUS:               ID:20170501124745d    3
 OLDACT:DUP 17-05-01 21:56 OP:edw  STATUS:               ID:20170501124745d    3
 2017-05-01-1248-00M.COL___377                                                 6
 STAT SP IPHASW D HRMM SECON CODA AMPLIT PERI AZIMU VELO AIN AR TRES W  DIS CAZ7
 BRR  HZ EP     C 1252 43.01                             153   -0.0510 70.2 300 
 BRR  HN ES       1252 59.96                             153    0.6010 70.2 300 
 BRR  HZ I        1253  2.49        24.7 0.26            151           70.2 300 
 PAM  EZ EP     C 1252 44.09                             150   -0.2010 79.2  40 
 PAM  EN ES       1253  1.38                             150   -0.1810 79.2  40 
 PAM  EZ I        1253  3.30        12.7 0.40            156           79.2  40 
 RUS  HZ EP     D 1252 45.33                             144   -0.3410 99.7 175 
 RUS  HN ES       1253  3.91                             144   -0.1010 99.7 175 
 RUS  HZ I        1253  5.02        30.0 0.32            144           99.7 175 
 PTB  HZ EP   9   1252 47.09                             132   -1.72 0  146 259 
 PTB  HN ES       1253  8.09                             132    0.21 9  146 259 
 PTB  HZ I        1253 15.90        13.7 0.44            131            146 259 
 SPBC HZ EP       1252 49.90                             129   -0.45 9  161 219 
 SPBC HN ES       1253 11.89                             129   -0.45 9  161 219 
 SPBC HZ I        1253 13.87        16.1 0.14            129            161 219 
 YPLC HZ EP       1252 51.60                             126   -0.21 9  177 151 
 YPLC HN ES       1253 15.84                             126    0.89 9  177 151 
 YPLC HZ I        1253 16.48        16.9 0.30            128            177 151 
 ZAR  HZ EP       1252 55.14                             122    0.77 9  203 293 
 ZAR  HN ES       1253 19.00                             122   -0.49 9  203 293 
 ZAR  HZ I        1253 25.23        10.6 0.24            123            203 293 
 NOR  HZ EP       1252 57.75                             119    0.17 8  233 234 
 NOR  HN ES       1253 25.25                             119    0.05 8  233 234 
 NOR  HZ I        1253 32.95         8.6 0.18            119            233 234 
 CHI  HZ EP       1252 59.55                             117   -0.05 8  247 195 
 CHI  HN ES   4   1253 27.56                             117   -1.25 0  247 195 
 CHI  HZ I        1253 33.05         5.3 0.32            118            247 195 
 ROSC BZ EP   2   1253  0.48                             117    0.49 4  251 211 
 ROSC BN ES   4   1253 33.46                             117    3.95 0  251 211 
 ROSC BZ I        1253 39.34        10.5 0.30            117            251 211 
 HEL  HZ EP   4   1253  3.95                             115    1.88 0  270 256 
 HEL  HE ES       1253 33.37                             115    0.16 8  270 256 
 HEL  HZ I        1253 39.32         6.0 0.28            115            270 256 
                                                                                
