 2016 11 1 1330 48.4 L   6.789 -73.189133.2  RSN  5 0.1 1.2LRSN                1
 GAP=132        0.42       2.1     2.0  3.1 -0.3622E+00  0.8385E+00  0.3307E+00E
 Epicentro: ZAPATOCA - SANTANDER                                               3
 ACTION:UPD 17-10-26 21:03 OP:lp   STATUS:               ID:20161101133048 L   I
 OLDACT:REG 16-11-01 20:29 OP:cog  STATUS:               ID:20161101132747     3
 2016-11-01-1328-00M.COL___328                                                 6
 STAT SP IPHASW D HRMM SECON CODA AMPLIT PERI AZIMU VELO AIN AR TRES W  DIS CAZ7
 BAR2 EZ EP       1331  6.42                             170   -0.1110 21.7 178 
 BAR2 EZ ES       1331 20.70                             170    0.0710 21.7 178 
 BRR  HZ EP       1331  8.00                             151   -0.0310 67.6 301 
 BRR  HN ES       1331 23.27                             151   -0.0410 67.6 301 
 PAM  EZ EP       1331  9.49                             147   -0.1110 81.5  42 
 PAM  EN ES       1331 26.21                             147    0.1010 81.5  42 
 PAM  EZ I        1331 27.25         2.5 0.18            149           81.5  42 
 RUS  HZ EP       1331 10.82                             141   -0.1010 99.8 173 
 RUS  HE ES       1331 28.49                             141    0.0410 99.8 173 
 RUS  HZ I        1331 29.34         1.9 0.32            142           99.8 173 
 PTB  HZ EP       1331 14.29                             130    0.35 9  143 259 
 PTB  HN ES       1331 33.70                             130   -0.14 9  143 259 
 PTB  HZ I        1331 36.87         3.3 0.17            130            143 259 
                                                                                
