 2016 10 1 1733 28.9 L   6.775 -73.125145.7  RSN  4 0.2 1.3LRSN                1
 GAP=140        0.52       2.8     4.2  4.3 -0.1872E+00 -0.1155E+01  0.4128E+00E
 Epicentro: LOS SANTOS - SANTANDER                                             3
 ACTION:UPD 16-11-09 19:15 OP:rebc STATUS:               ID:20161001173328 L   I
 OLDACT:REG 16-10-01 21:13 OP:edw  STATUS:               ID:20161001172740     3
 2016-10-01-1728-00M.COL___369                                                 6
 STAT SP IPHASW D HRMM SECON CODA AMPLIT PERI AZIMU VELO AIN AR TRES W  DIS CAZ7
 BAR2 EZ EP       1733 48.06                             171   -0.4110 21.2 197 
 BAR2 EZ ES       1734  3.80                             171    0.0510 21.2 197 
 BAR2 EZ I        1734  4.97         5.4 0.20            172           21.2 197 
 BRR  HZ EP       1733 50.40                             151    0.1810 74.5 300 
 BRR  HE ES       1734  6.82                             151   -0.0410 74.5 300 
 PAM  EZ EP       1733 51.32                             151    0.1810 78.1  37 
 PAM  EE ES       1734  8.45                             151   -0.0510 78.1  37 
 PAM  EZ I        1734 11.25         3.6 0.56            150           78.1  37 
 RUS  HZ EP       1733 52.42                             145   -0.0110 97.7 177 
 RUS  HN ES       1734 10.90                             145    0.1110 97.7 177 
 RUS  HZ I        1734 12.10         2.9 0.30            146           97.7 177 
                                                                                
