 2014  7 1 1142  8.0 L   6.984 -73.219130.0  RSN  4 0.4 1.6LRSN                1
 GAP=119        0.98      10.1     7.3 11.4 -0.4713E+02  0.5080E+02 -0.7601E+02E
 Epicentro: GIRON - SANTANDER                                                  3
 ACTION:UPD 15-03-16 20:40 OP:nd   STATUS:               ID:20140701114208 L   I
 OLDACT:UP  14-07-02 04:45 OP:CF   STATUS:               ID:20140701114208 L   3
 OLDACT:UP  14-07-01 21:07 OP:cam  STATUS:               ID:20140701114000     3
 OLDACT:UP  14-07-01 21:07 OP:cam  STATUS:               ID:20140701114000     3
 OLDACT:REG 14-07-01 19:26 OP:cam  STATUS:               ID:20140701114000     3
 2014-07-01-1140-00M.COL___279                                                 6
 STAT SP IPHASW D HRMM SECON CODA AMPLIT PERI AZIMU VELO AIN AR TRES W  DIS CAZ7
 BAR2 SZ EP       1142 25.87                             161   -0.5210 43.5 175 
 BAR2 SZ ES       1142 41.08                             161    0.3510 43.5 175 
 BAR2 SZ I        1142 43.10         4.6 0.50            130           43.5 175 
 PAM  SZ EP       1142 28.65                             151    0.5710 69.5  56 
 PAM  SN ES   1   1142 43.15                             151   -0.59 7 69.5  56 
 PAM  SN I        1142 46.76         5.9 0.22            116           69.5  56 
 PTB  HZ EP       1142 33.29                             129   -0.23 9  145 250 
 PTB  HN ES       1142 53.52                             129    0.11 9  145 250 
 PTB  HN I        1142 59.39         7.9 0.26            109            145 250 
 SML  HZ EP       1142 41.45                             117    0.06 8  222 335 
 SML  HE I        1143 20.03         9.1 0.26            101            222 335 
                                                                                
