 2017  4 1 1605 50.5 L   6.758 -73.126141.6  RSN  5 0.4 1.7LRSN                1
 GAP=236        0.95       7.3     6.9  8.1  0.2881E+02  0.1200E+02 -0.3984E+01E
 Epicentro: LOS SANTOS - SANTANDER                                             3
 ACTION:UPD 17-05-30 21:07 OP:jn   STATUS:               ID:20170401160550 L   I
 OLDACT:UP  17-04-02 00:30 OP:dnl  STATUS:               ID:20170401155747d    3
 OLDACT:DUP 17-04-01 23:50 OP:dnl  STATUS:               ID:20170401155747d    3
 2017-04-01-1558-00M.COL___359                                                 6
 STAT SP IPHASW D HRMM SECON CODA AMPLIT PERI AZIMU VELO AIN AR TRES W  DIS CAZ7
 BAR2 EZ EP       16 6  9.67                             172    0.0810 19.4 199 
 BAR2 EZ ES       16 6 23.76                             172   -0.6910 19.4 199 
 BAR2 EZ I        16 6 26.53        16.1 0.28            174           19.4 199 
 BRR  HZ EP       16 6 11.57                             150    0.0910 75.4 301 
 BRR  HN ES       16 6 28.31                             150    0.4910 75.4 301 
 BRR  HZ I        16 6 33.00        11.6 0.26            150           75.4 301 
 RUS  HZ EP   2   16 6 14.18                             144    0.65 5 95.9 177 
 RUS  HN ES       16 6 31.74                             144    0.2710 95.9 177 
 RUS  HZ I        16 6 32.91         4.2 0.22            150           95.9 177 
 PTB  HZ EP       16 6 16.80                             131   -0.48 9  149 261 
 PTB  HE ES       16 6 38.19                             131    0.04 9  149 261 
 PTB  HZ I        16 6 39.62         8.8 0.12            133            149 261 
 ZAR  HZ EP   4   16 6 24.86                             121    1.76 0  208 293 
 ZAR  HN ES       16 6 48.47                             121   -0.04 8  208 293 
 ZAR  HZ I        16 6 54.49         5.7 0.42            123            208 293 
                                                                                
