 2012  9 1 1909  2.2 L   6.741 -73.132141.1  RSN  8 0.3 2.1LRSN                1
 GAP=141        0.62       3.5     3.2  4.7 -0.1348E+01  0.3617E+01  0.1135E+00E
 Epicentro: JORDAN - SANTANDER                                                 3
 ACTION:UPD 12-10-22 14:16 OP:ep   STATUS:               ID:20120901190902 L   I
 2012-09-01-1907-35M.COL___215                                                 6
 STAT SP IPHASW D HRMM SECON CODA AMPLIT PERI AZIMU VELO AIN AR TRES W  DIS CAZ7
 BAR2 SZ EP       19 9 21.28                             173    0.1210 17.4 199 
 BAR2 SZ I        19 9 21.82        35.8 0.18                          17.4 199 
 BAR2 SZ ES   1   19 9 35.70                             173   -0.25 7 17.4 199 
 GIR2 SZ EP       19 9 21.39                             164   -0.1310 37.9 350 
 GIR2 SZ ES   1   19 9 36.59                             164    0.00 7 37.9 350 
 BRR  HZ EP       19 9 23.18                             150    0.0610 75.8 302 
 BRR  HZ I        19 9 23.67        61.6 0.11                          75.8 302 
 BRR  HN ES   1   19 9 39.82                             150    0.39 7 75.8 302 
 PAM  SZ EP       19 9 24.27                             149    0.0810 81.6  36 
 PAM  SE ES   1   19 9 41.02                             149   -0.31 7 81.6  36 
 PAM  SZ I        19 9 42.76        17.0 0.18                          81.6  36 
 RUS  HZ EP   1   19 9 25.37                             145    0.35 7 94.0 177 
 RUS  HN ES   1   19 9 43.00                             145    0.18 7 94.0 177 
 RUS  HZ I        19 9 45.10        12.1 0.25                          94.0 177 
 PTB  HZ EP   1   19 9 27.99                             131   -0.83 7  148 261 
 PTB  HE ES   1   19 9 49.40                             131   -0.19 7  148 261 
 PTB  HZ I        19 9 49.77        13.4 0.41                           148 261 
 ZAR  HZ EP   1   19 9 34.91                             121    0.15 6  208 294 
 ZAR  HE ES   1   1910  0.48                             121    0.33 6  208 294 
 ZAR  HZ I        1910  5.08        11.0 0.30                           208 294 
 NOR  SN ES   1   1910  4.76                             118   -0.08 6  232 236 
                                                                                
