 2015  5 1 1923 38.6 L   6.807 -73.148141.8  RSN  6 0.6 2.0LRSN                1
 GAP=149        1.35       7.1     6.9  8.9 -0.8695E+01  0.2440E+02 -0.3316E+01E
 Epicentro: LOS SANTOS - SANTANDER                                             3
 ACTION:UPD 15-09-10 22:00 OP:cam  STATUS:               ID:20150501192338 L   I
 OLDACT:REG 15-05-12 21:55 OP:ak   STATUS:               ID:20150501191750     3
 2015-05-01-1917-50M.COL___279                                                 6
 STAT SP IPHASW D HRMM SECON CODA AMPLIT PERI AZIMU VELO AIN AR TRES W  DIS CAZ7
 BAR2 EZ IP     C 1923 57.47                             170   -0.2610 24.1 189 
 BAR2 EZ ES       1924 11.74                             170   -0.9410 24.1 189 
 BAR2 EZ I        1924 13.83        18.1 0.16            174           24.1 189 
 BRR  HZ EP       1923 59.45                             152    0.2010 70.6 298 
 BRR  HE ES       1924 16.00                             152    0.6210 70.6 298 
 BRR  HZ I        1924 19.54        23.5 0.32            149           70.6 298 
 PAM  SZ IP     D 1924  0.44                             150    0.1110 76.9  40 
 PAM  SN ES       1924 17.87                             150    0.5710 76.9  40 
 PAM  SZ I        1924 21.56         4.5 0.38            149           76.9  40 
 ZAR  HZ EP       1924 11.34                             121    0.64 9  204 292 
 ZAR  HN ES       1924 35.74                             121   -0.02 9  204 292 
 ZAR  HZ I        1924 41.62         9.4 0.52            122            204 292 
 SML  HZ EP       1924 13.92                             117   -0.96 8  243 335 
 SML  HN ES   1   1924 42.23                             117   -0.97 6  243 335 
 SML  HZ I        1924 49.94        64.5 0.04            117            243 335 
 GUY2CHZ EP       1924 22.50                             111    0.48 7  301 235 
 GUY2CHN ES       1924 55.84                             111   -0.08 7  301 235 
 GUY2CHZ I        1925  5.86         2.2 0.50                           301 235 
                                                                                
