 2012  1 1 1657 23.0 L   6.789 -73.154141.3  RSN  9 0.3 2.0LRSN                1
 GAP=136        0.58       2.8     4.0  5.1 -0.9465E+00  0.5034E+01  0.5847E+00E
 Epicentro: LOS SANTOS - SANTANDER                                             3
 ACTION:UP  12-02-03 08:13 OP:REBC STATUS:               ID:20120101165723 L   I
 2012-01-01-1650-00M.COL___187                                                 6
 STAT SP IPHASW D HRMM SECON CODA AMPLIT PERI AZIMU VELO SNR AR TRES W  DIS CAZ7
 BAR2 SZ EP   1   1657 42.18                             171     0.1 7   22 188 
 BAR2 SZ ES   1   1657 56.70                             171    -0.3 7   22 188 
 BAR2 SZ I        1657 57.99        16.2 0.16                            22 188 
 BRR  HZ EP   1   1657 43.94                             152     0.3 7   71 300 
 BRR  HN ES   2   1658  0.45                             152     0.7 5   71 300 
 BRR  HZ I        1658  1.57        36.9 0.12                            71 300 
 PAM  SZ EP   1   1657 45.03                             149     0.2 7   79  40 
 PAM  SN ES   2   1658  1.56                             149    -0.3 5   79  40 
 RUS  HZ EP   1   1657 46.22                             143     0.0 7   99 175 
 RUS  HZ I        1657 47.45         9.7 0.16                            99 175 
 RUS  HN ES   2   1658  4.74                             143     0.4 5   99 175 
 PTB  HZ EP   1   1657 49.06                             131    -0.5 7  147 259 
 PTB  HN ES   2   1658  9.57                             131    -0.6 5  147 259 
 OCA  SZ EP   1   1657 51.13                             128     0.0 7  161 354 
 OCA  SZ ES   1   1658 12.75                             128    -0.2 7  161 354 
 OCA  SZ I        1658 17.64        11.4 0.30                           161 354 
 ZAR  HZ EP   1   1657 55.40                             121     0.3 6  204 293 
 ZAR  HN ES   2   1658 20.20                             121     0.0 4  204 293 
 ZAR  HZ I        1658 25.80        15.5 0.29                           204 293 
 NOR  SZ EP   2   1657 58.08                             118    -0.3 4  233 235 
 NOR  SN ES   2   1658 26.34                             118     0.5 4  233 235 
 CHI  HZ EP   1   1658  0.36                             116     0.0 6  247 195 
 CHI  HN ES   2   1658 29.21                             116    -0.2 4  247 195 
 CHI  HZ I        1658 33.84         2.8 0.27                           247 195 
                                                                                
