 2011  9 1 1448 49.9 L   6.102 -73.842141.7  RSN  4 0.5 1.6LRSN                1
 GAP=271        0.91      21.3    17.8 18.3  0.2267E+03  0.2472E+03  0.2290E+03E
 Epicentro: EL PEON - SANTANDER                                                3
 ACTION:UPD 12-07-13 15:54 OP:ep   STATUS:               ID:20110901144850 L   I
 2011-09-01-1448-01S.COL___168                                                 6
 STAT SP IPHASW D HRMM SECON CODA AMPLIT PERI AZIMU VELO AIN AR TRES W  DIS CAZ7
 BAR2 SZ EP   1   1449 12.49                             145    0.31 7 90.9  53 
 BAR2 SZ I        1449 14.13         6.4 0.58                          90.9  53 
 BAR2 SZ ES   1   1449 29.03                             145   -0.54 7 90.9  53 
 BRR  HZ EP   1   1449 14.10                             139    0.68 7  112   7 
 BRR  HZ I        1449 19.39         8.8 0.49                           112   7 
 BRR  HE ES   1   1449 32.04                             139    0.26 7  112   7 
 ZAR  HZ EP   1   1449 20.05                             123   -0.60 7  190 324 
 OCA  SZ EP   1   1449 26.08                             116   -0.35 6  243  14 
                                                                                
