 2014 10 1 1735  3.8 L   6.780 -73.123146.9  RSN  7 0.5 2.0LRSN                1
 GAP=140        1.25       5.9     6.0  7.9 -0.1114E+02  0.1055E+02  0.6784E+01E
 Epicentro: LOS SANTOS - SANTANDER                                             3
 ACTION:UPD 14-11-29 23:45 OP:nd   STATUS:               ID:20141001173503 L   I
 OLDACT:UP  14-10-02 00:12 OP:cam  STATUS:               ID:20141001173000     3
 OLDACT:REG 14-10-01 22:35 OP:cam  STATUS:               ID:20141001173000     3
 2014-10-01-1730-00M.COL___252                                                 6
 STAT SP IPHASW D HRMM SECON CODA AMPLIT PERI AZIMU VELO AIN AR TRES W  DIS CAZ7
 BAR2 SZ IP     D 1735 23.54                             171   -0.0210 21.8 198 
 BAR2 SZ ES       1735 38.25                             171   -0.7110 21.8 198 
 BAR2 SZ I        1735 40.24        13.0 0.16            170           21.8 198 
 BRR  HZ EP       1735 25.24                             152   -0.0410 74.5 299 
 BRR  HN ES       1735 42.90                             152    0.8810 74.5 299 
 BRR  HZ I        1735 47.23        22.2 0.26            151           74.5 299 
 PAM  SZ EP       1735 26.48                             151    0.3110 77.6  37 
 PAM  SN ES       1735 43.57                             151   -0.0310 77.6  37 
 PAM  SZ I        1735 45.70        16.4 0.48            155           77.6  37 
 RUS  HZ EP       1735 27.12                             145   -0.4010 98.2 177 
 RUS  HE ES       1735 46.40                             145    0.4010 98.2 177 
 RUS  HZ I        1735 48.21         7.2 0.26            148           98.2 177 
 PTB  HZ EP       1735 30.29                             132   -0.78 9  150 260 
 PTB  HN ES       1735 51.63                             132   -0.69 9  150 260 
 PTB  HZ I        1735 57.37        17.9 0.40            133            150 260 
 SPBC HZ EP       1735 32.54                             129    0.14 9  163 220 
 SPBC HN ES       1735 55.08                             129    0.39 9  163 220 
 SPBC HZ I        1736  0.33        22.2 0.14            131            163 220 
 GUY2CHZ EP       1735 48.15                             112    0.58 7  302 235 
 GUY2CHE ES       1736 22.00                             112    0.30 7  302 235 
 GUY2CHZ I        1736 30.31        11.0 0.76                           302 235 
                                                                                
