 2013  4 1 1136 30.4 L   6.736 -73.192147.7  RSN  5 0.4 1.7LRSN                1
 GAP=227        0.76       8.7     7.6  8.6  0.4398E+02  0.1619E+02  0.1137E+02E
 Epicentro: VILLANUEVA - SANTANDER                                             3
 ACTION:UPD 13-05-22 14:35 OP:EP   STATUS:               ID:20130401113630 L   I
 2013-04-01-1129-52M.COL___203                                                 6
 STAT SP IPHASW D HRMM SECON CODA AMPLIT PERI AZIMU VELO AIN AR TRES W  DIS CAZ7
 BAR2 SZ EP   1   1136 49.74                             174   -0.34 7 15.9 176 
 BAR2 SZ ES   1   1137  4.93                             174   -0.54 7 15.9 176 
 BAR2 SZ I        1137  6.93        14.7 0.26            172           15.9 176 
 BRR  HN ES   1   1137  8.79                             153    0.49 7 70.6 306 
 RUS  HZ EP   1   1136 54.21                             146    0.38 7 94.0 173 
 RUS  HN ES   1   1137 12.49                             146    0.35 7 94.0 173 
 RUS  HZ I        1137 13.78         7.2 0.46            147           94.0 173 
 PTB  HZ EP   1   1136 56.60                             134   -0.31 7  141 261 
 PTB  HN ES   1   1137 17.37                             134   -0.26 7  141 261 
 PTB  HZ I        1137 20.47         5.9 0.14            132            141 261 
 ZAR  HN ES   1   1137 28.21                             123    0.23 6  202 295 
 ZAR  HZ I        1137 34.83         4.5 0.32            122            202 295 
                                                                                
