 2013  5 1 1723 59.1 L   6.769 -73.147143.4  RSN  6 0.4 1.6LRSN                1
 GAP=138        1.12       5.6     5.3  8.1 -0.7070E+01  0.8195E+01  0.3835E+01E
 Epicentro: LOS SANTOS - SANTANDER                                             3
 ACTION:UPD 13-06-20 09:47 OP:ep   STATUS:               ID:20130501172359 L   I
 2013-05-01-1720-00M.COL___253                                                 6
 STAT SP IPHASW D HRMM SECON CODA AMPLIT PERI AZIMU VELO AIN AR TRES W  DIS CAZ7
 BAR2 SZ EP       1724 18.44                             172    0.1110 19.9 191 
 BAR2 SZ ES       1724 32.99                             172   -0.3910 19.9 191 
 BRR  HZ EP       1724 20.19                             152    0.1510 72.7 301 
 BRR  HN ES       1724 37.15                             152    0.7510 72.7 301 
 BRR  HZ I        1724 37.89         6.6 0.14            151           72.7 301 
 PAM  SZ EP       1724 21.25                             149    0.0610 80.2  38 
 PAM  SN ES       1724 38.30                             149   -0.1510 80.2  38 
 PAM  SZ I        1724 39.84         7.7 0.34            153           80.2  38 
 RUS  HZ EP       1724 22.49                             144    0.1610 97.2 176 
 RUS  HN ES       1724 40.53                             144    0.0510 97.2 176 
 RUS  HZ I        1724 42.94         4.0 0.16            143           97.2 176 
 PTB  HZ EP       1724 25.17                             132   -0.58 9  147 260 
 PTB  HN ES       1724 45.81                             132   -0.77 9  147 260 
 PTB  HZ I        1724 48.96         6.8 0.14            131            147 260 
 NOR  HN ES       1725  2.67                             118    0.67 8  233 235 
 NOR  HZ I        1725 10.78         3.0 0.36            118            233 235 
                                                                                
