 2010  9 1 1119 55.7 L   6.844 -73.047150.6  RSN  4 0.3 1.7LRSN                1
 GAP=251        0.55       9.7    17.6  7.8  0.1462E+03 -0.6203E+02 -0.3095E+02E
 Epicentro: LOS SANTOS - SANTANDER                                             3
 ACTION:UP  11-02-18 10:59 OP:tino STATUS:               ID:20100901111955 L   I
 2010-09-01-1115-45S.COL___120                                                 6
 STAT SP IPHASW D HRMM SECON CODA AMPLIT PERI AZIMU VELO SNR AR TRES W  DIS CAZ7
 BAR2 SZ EP   2   1120 16.08                             166     0.0 5   32 209 
 BAR2 SZ ES   2   1120 31.29                             166    -0.7 5   32 209 
 BAR2 SZ I        1120 34.15         8.7 0.61                            32 209 
 BRR  HZ IP     D 1120 17.82                             150     0.010   79 292 
 BRR  HZ I        1120 23.26        10.3 0.53                            79 292 
 BRR  HN ES   1   1120 35.16                             150     0.1 7   79 292 
 RUS  HZ EP   1   1120 20.28                             143     0.0 7  105 182 
 RUS  HE ES   1   1120 39.59                             143     0.2 7  105 182 
 PRA  HZ EP   2   1120 49.98                             106    -0.5 3  402 211 
 PRA  HZ I        1120 54.15         1.6 0.33                           402 211 
                                                                                
