 2016 12 1 1753  8.8 L   6.777 -73.169139.2  RSN  5 0.2 1.3LRSN                1
 GAP=145        0.51       4.1     2.4  4.1 -0.2163E+01  0.2299E+01 -0.4602E-01E
 Epicentro: LOS SANTOS - SANTANDER                                             3
 ACTION:UPD 17-01-11 20:11 OP:rebc STATUS:               ID:20161201175308 L   I
 OLDACT:REG 16-12-01 21:10 OP:lv   STATUS:               ID:20161201174745     3
 2016-12-01-1748-00M.COL___336                                                 6
 STAT SP IPHASW D HRMM SECON CODA AMPLIT PERI AZIMU VELO AIN AR TRES W  DIS CAZ7
 BAR2 EZ EP       1753 27.44                             171   -0.1410 20.5 184 
 BAR2 EZ ES       1753 42.46                             171    0.2210 20.5 184 
 BRR  HZ EP       1753 29.14                             152   -0.0510 70.3 301 
 BRR  HN ES       1753 44.83                             152   -0.2610 70.3 301 
 PAM  EZ EP       1753 30.42                             148   -0.1310 81.0  40 
 PAM  EN ES       1753 47.63                             148    0.1210 81.0  40 
 PTB  HZ EP       1753 35.15                             131    0.19 9  145 260 
 PTB  HN ES       1753 55.24                             131   -0.13 9  145 260 
 PTB  HZ I        1753 57.12         2.5 0.14            131            145 260 
 ZAR  HE ES       1754  5.81                             121    0.26 9  203 293 
                                                                                
