 2012  5 1 1443  4.9 L   6.721 -73.194151.6  RSN  5 0.2 1.7LRSN                1
 GAP=226        0.45       4.7     4.1  4.8  0.1138E+02  0.1782E+01 -0.5443E+00E
 Epicentro: VILLANUEVA - SANTANDER                                             3
 ACTION:UP  12-07-05 12:01 OP:pat  STATUS:               ID:20120501144304 L   I
 2012-05-01-1440-00M.COL___189                                                 6
 STAT SP IPHASW D HRMM SECON CODA AMPLIT PERI AZIMU VELO SNR AR TRES W  DIS CAZ7
 BAR2 SZ EP       1443 24.90                             174    -0.210   14 175 
 BAR2 SZ ES   1   1443 40.90                             174     0.1 7   14 175 
 BAR2 SZ I        1443 43.17        10.3 0.16                            14 175 
 BRR  HZ EP   1   1443 26.84                             153     0.1 7   71 307 
 BRR  HE ES   1   1443 43.85                             153     0.1 7   71 307 
 BRR  HZ I        1443 48.12        15.9 0.30                            71 307 
 RUS  HZ EP   1   1443 28.81                             147     0.1 7   92 172 
 RUS  HN ES   1   1443 47.15                             147    -0.1 7   92 172 
 RUS  HZ I        1443 48.87         3.2 0.12                            92 172 
 PTB  HZ EP   1   1443 31.97                             135     0.2 7  141 262 
 PTB  HN ES   1   1443 52.71                             135     0.0 7  141 262 
 PTB  HZ I        1443 58.83         7.0 0.26                           141 262 
 ZAR  HE ES   1   1444  2.83                             124    -0.3 6  203 295 
 ZAR  HZ I        1444  9.40         8.1 0.33                           203 295 
                                                                                
