 2011 11 1 1701 19.0 L   6.798 -73.044148.0  RSN  5 0.2 1.7LRSN                1
 GAP=150        0.45       3.0     4.1  4.5  0.1217E+01 -0.2462E+01  0.3346E+00E
 Epicentro: LOS SANTOS - SANTANDER                                             3
 ACTION:UPD 12-07-13 16:07 OP:ep   STATUS:               ID:20111101170119 L   I
 2011-11-01-1657-58S.COL___176                                                 6
 STAT SP IPHASW D HRMM SECON CODA AMPLIT PERI AZIMU VELO AIN AR TRES W  DIS CAZ7
 BAR2 SZ EP       17 1 39.01                             169    0.0610 27.4 214 
 BAR2 SZ ES   2   17 1 53.86                             169   -0.68 5 27.4 214 
 BAR2 SZ I        17 1 56.76        11.8 0.56                          27.4 214 
 PAM  SZ EP   1   17 1 40.95                             153   -0.10 7 71.0  32 
 PAM  SE ES   1   17 1 58.46                             153    0.18 7 71.0  32 
 PAM  SZ I        17 2  1.70         4.2 0.40                          71.0  32 
 BRR  HZ EP       17 1 40.86                             150   -0.1010 81.4 295 
 BRR  HZ I        17 1 41.18        19.1 0.16                          81.4 295 
 BRR  HE ES       17 1 58.23                             150    0.1210 81.4 295 
 RUS  HZ EP   1   17 1 42.92                             144    0.01 7  100 183 
 RUS  HN ES   1   17 2  1.72                             144    0.14 7  100 183 
 RUS  HZ I        17 2  2.88         3.1 0.28                           100 183 
 OCA  SZ EP   2   17 1 47.46                             130   -0.18 5  162 349 
 OCA  SZ I        17 2  0.78         8.0 0.42                           162 349 
                                                                                
