 2011  3 1 1133 43.8 L   6.817 -73.178142.2  RSN 17 0.4 3.9LRSN                1
 GAP=102        0.80       2.3     4.3  5.3 -0.2522E+01  0.8164E+01  0.5782E+00E
 Epicentro: LOS SANTOS - SANTANDER                                             3
 ACTION:UP  11-06-16 14:31 OP:jfem STATUS:               ID:20110301113344 L   I
 2011-03-01-1131-40S.COL___135                                                 6
 STAT SP IPHASW D HRMM SECON CODA AMPLIT PERI AZIMU VELO SNR AR TRES W  DIS CAZ7
 BAR2 SZ IP       1134  3.25                             169     0.310   25 181 
 BAR2 SZ ES   1   1134 17.99                             169     0.0 7   25 181 
 BAR2 SZ I        1134 19.36      1611.1 0.34                            25 181 
 RUS  HZ EP       1134  7.23                             142    -0.110  103 174 
 RUS  HN ES   1   1134 25.63                             142    -0.1 7  103 174 
 RUS  HZ I        1134 27.86      1376.6 0.32                           103 174 
 GUE  SZ EP       1134  8.31                             139     0.310  115  14 
 GRA  SZ IP       1134  9.01                             136     0.410  125  19 
 GRA  SZ ES   1   1134 27.91                             136    -0.1 7  125  19 
 GRA  SZ I        1134 29.75      1416.7 0.38                           125  19 
 OCA  SZ EP       1134 11.30                             129    -0.3 9  158 354 
 OCA  SZ ES   1   1134 32.96                             129    -0.3 7  158 354 
 OCA  SZ I        1134 36.44       816.4 0.20                           158 354 
 YOP  SZ IP       1134 14.12                             125     0.2 9  182 153 
 YOP  SN ES   1   1134 37.30                             125    -0.1 7  182 153 
 YOP  SZ I        1134 41.20       507.1 0.30                           182 153 
 CHI  HZ EP       1134 21.45                             116     0.1 8  250 194 
 CHI  HE ES   1   1134 50.01                             116    -0.7 6  250 194 
 CHI  HZ I        1134 54.33       354.4 0.73                           250 194 
 ROSC BN ES   3   1134 51.69                             116     0.5 2  253 210 
 HEL  HZ EP   1   1134 23.53                             114     0.1 6  269 255 
 HEL  HN ES   2   1134 53.99                             114    -0.4 4  269 255 
 HEL  HZ I        1135  2.48       476.9 0.57                           269 255 
 GUY  SZ EP   1   1134 27.61                             112     0.6 5  300 234 
 GUY  SN ES   2   1135  0.02                             112    -0.7 4  300 234 
 GUY  SZ I        1135  9.03       564.8 0.45                           300 234 
 VIL  SZ EP       1134 27.27                             111     0.1 7  305 191 
 VIL  SE ES   1   1135  0.55                             111    -0.4 5  305 191 
 VIL  SZ I        1135 10.73       323.4 0.43                           305 191 
 RREF HZ EP       1134 29.52                             110    -0.1 7  320 229 
 RREF HN ES   2   1135  4.57                             110    -0.8 3  320 229 
 RREF HZ I        1135 16.21       404.7 0.23                           320 229 
 DBB  SZ EP       1134 30.89                             109     0.2 7  336 274 
 TOL  SZ EP       1134 32.25                             109     0.5 7  342 224 
 SDV  BZ EP       1134 32.69                             107    -1.2 6  362  51 
 PRA  HZ EP       1134 37.07                             106    -0.1 6  392 209 
 PRA  HE ES   1   1135 19.29                             106     0.5 4  392 209 
 HORQ SZ EP   2   1134 52.90                             101    -1.1 2  531 226 
                                                                                
