 2012  1 1 1446 11.2 L   6.774 -73.134140.1  RSN  7 0.3 2.0LRSN                1
 GAP=139        0.64       4.8     4.6  6.9 -0.9735E+00  0.1010E+02  0.1333E+01E
 Epicentro: LOS SANTOS - SANTANDER                                             3
 ACTION:UP  12-02-03 08:12 OP:REBC STATUS:               ID:20120101144611 L   I
 2012-01-01-1440-00M.COL___187                                                 6
 STAT SP IPHASW D HRMM SECON CODA AMPLIT PERI AZIMU VELO SNR AR TRES W  DIS CAZ7
 BAR2 SZ EP   1   1446 30.12                             171     0.0 7   21 195 
 BAR2 SZ ES   2   1446 44.68                             171    -0.1 5   21 195 
 BAR2 SZ I        1446 46.39        19.9 0.23                            21 195 
 BRR  HZ EP       1446 32.02                             151     0.110   74 300 
 BRR  HZ I        1446 33.06        31.8 0.11                            74 300 
 BRR  HN ES   2   1446 48.61                             151     0.6 5   74 300 
 PAM  SZ EP   1   1446 32.97                             149     0.1 7   79  37 
 PAM  SN ES   2   1446 49.50                             149    -0.3 5   79  37 
 RUS  HZ EP   1   1446 34.36                             143     0.2 7   98 177 
 RUS  HN ES   2   1446 51.95                             143    -0.1 5   98 177 
 RUS  HZ I        1446 54.58        11.3 0.31                            98 177 
 PTB  HZ EP   1   1446 37.19                             130    -0.6 7  148 260 
 PTB  HN ES   2   1446 57.69                             130    -0.8 5  148 260 
 ZAR  HZ EP   1   1446 43.34                             121    -0.2 6  206 293 
 ZAR  HN ES   2   1447  9.07                             121     0.4 4  206 293 
 ZAR  HZ I        1447 13.93        13.2 0.34                           206 293 
 NOR  SZ EP   1   1446 46.74                             117     0.2 6  234 235 
 NOR  SN ES   2   1447 14.54                             117     0.5 4  234 235 
                                                                                
