 2015 11 1 1325  3.9 L   6.735 -73.108146.7  RSN  5 0.3 1.5LRSN                1
 GAP=144        0.55       4.2     4.1  5.0  0.7833E+00  0.4412E+01  0.1064E+01E
 Epicentro: JORDAN - SANTANDER                                                 3
 ACTION:UPD 15-12-28 16:08 OP:cam  STATUS:               ID:20151101132503 L   I
 OLDACT:REG 15-11-01 20:47 OP:ar   STATUS:               ID:20151101131748     3
 2015-11-01-1317-48M.COL___292                                                 6
 STAT SP IPHASW D HRMM SECON CODA AMPLIT PERI AZIMU VELO AIN AR TRES W  DIS CAZ7
 BAR2 EZ EP       1325 23.34                             173   -0.2010 17.7 207 
 BAR2 EZ ES       1325 38.89                             173    0.0210 17.7 207 
 BAR2 EZ I        1325 39.52         8.8 0.18            172           17.7 207 
 BRR  HZ EP       1325 25.64                             150    0.0710 78.4 302 
 BRR  HN ES       1325 42.72                             150    0.2510 78.4 302 
 BRR  HZ I        1325 45.33         8.0 0.44            148           78.4 302 
 PAM  EZ EP   2   1325 26.52                             150    0.11 5 80.7  34 
 PAM  EN ES       1325 43.87                             150   -0.1110 80.7  34 
 PAM  EZ I        1325 46.41         5.2 0.48            151           80.7  34 
 RUS  HZ EP   2   1325 27.14                             146   -0.08 5 93.2 178 
 RUS  HE ES   2   1325 45.45                             146    0.03 5 93.2 178 
 RUS  HZ I        1325 46.94         3.3 0.36            148           93.2 178 
 ZAR  HZ EP   2   1325 37.76                             122    0.67 4  211 294 
 ZAR  HN ES   2   1326  2.05                             122   -0.93 4  211 294 
 ZAR  HZ I        1326  7.86         3.9 0.28            121            211 294 
                                                                                
