 2010 12 1 1331 15.6 L   7.553 -73.287  2.2  RSN  4 0.2 1.6LRSN                1
 GAP=176        0.57       2.0     3.9  5.2 -0.4414E+00  0.4310E+00  0.3818E+01E
 Epicentro: EL PLAYON - SANTANDER                                              3
 ACTION:UP  11-01-14 15:22 OP:pat  STATUS:               ID:20101201133115 L   I
 2010-12-01-1327-01S.COL___131                                                 6
 STAT SP IPHASW D HRMM SECON CODA AMPLIT PERI AZIMU VELO SNR AR TRES W  DIS CAZ7
 BRR  HZ EP   1   1331 26.36                              47    -0.4 7   68 224 
 BRR  HE ES   1   1331 35.72                              47     0.2 7   68 224 
 BRR  HZ I        1331 44.09        18.8 0.28                            68 224 
 OCA  SZ EP   1   1331 28.22                              47     0.1 7   76 357 
 OCA  SZ ES   2   1331 37.77                              47    -0.1 5   76 357 
 OCA  SZ I        1331 40.35        25.9 0.06                            76 357 
 BAR2 SZ EP   1   1331 33.17                              47     0.3 7  107 174 
 BAR2 SZ ES   1   1331 46.16                              47    -0.2 7  107 174 
 BAR2 SZ I        1331 52.72        18.7 0.44                           107 174 
 RUS  HZ EP   1   1331 45.00                              37     0.1 7  185 173 
 RUS  HN ES   1   1332  7.76                              37     0.0 7  185 173 
 RUS  HZ I        1332  8.67         7.8 0.36                           185 173 
                                                                                
