 2014  5 1 1843 36.6 L   6.769 -73.124143.7  RSN  9 0.4 2.0LRSN                1
 GAP=141        0.82       3.0     3.5  5.7 -0.1592E+01  0.5936E+01  0.2816E+01E
 Epicentro: LOS SANTOS - SANTANDER                                             3
 2014-05-01-1840-00M.COL___273                                                 6
 OLDACT:REG 14-05-01 20:30 OP:spq  STATUS:               ID:20140501184001d    3
 ACTION:UPD 15-03-16 16:54 OP:nd   STATUS:               ID:20140501184336 L   I
 OLDACT:UP  14-05-01 23:53 OP:fm   STATUS:               ID:20140501184001d    3
 STAT SP IPHASW D HRMM SECON CODA AMPLIT PERI AZIMU VELO AIN AR TRES W  DIS CAZ7
 BRR  HZ EP       1843 57.70                             151   -0.0310 75.0 300 
 BRR  HN ES       1844 14.85                             151    0.6310 75.0 300 
 BRR  HZ I        1844 16.47        15.8 0.16            150           75.0 300 
 PAM  SZ EP       1843 58.64                             150   -0.0210 78.6  37 
 PAM  SN ES       1844 15.62                             150   -0.2510 78.6  37 
 PAM  HZ I        1844 17.71        14.5 0.50            154           78.6  37 
 RUS  HZ EP       1843 59.73                             144   -0.1410 97.0 177 
 RUS  HE ES       1844 18.17                             144    0.1310 97.0 177 
 RUS  HZ I        1844 18.80         9.8 0.24            145           97.0 177 
 PTB  HZ EP   1   1844  2.73                             131   -0.81 7  149 260 
 PTB  HN ES   1   1844 23.62                             131   -0.95 7  149 260 
 PTB  HZ I        1844 26.23        11.1 0.12            131            149 260 
 SPBC HZ EP       1844  4.86                             129    0.04 9  162 220 
 SPBC HE ES       1844 26.81                             129   -0.03 9  162 220 
 SPBC HZ I        1844 29.13        13.9 0.22            129            162 220 
 ZAR  HZ EP       1844  9.55                             121    0.29 8  208 293 
 ZAR  HE ES       1844 34.72                             121   -0.03 8  208 293 
 ZAR  HZ I        1844 39.96        14.0 0.30            122            208 293 
 NOR  HZ EP   1   1844 12.31                             118    0.12 6  235 235 
 NOR  HE ES       1844 39.84                             118   -0.12 8  235 235 
 NOR  HZ I        1844 47.94         7.6 0.14            119            235 235 
 CHI  HZ EP   4   1844 10.33                             117   -3.54 0  246 196 
 CHI  HN ES   1   1844 43.21                             117    0.25 6  246 196 
 CHI  HZ I        1844 47.98         6.1 2.12            118            246 196 
 HEL  HN ES   4   1844 46.83                             114   -1.44 0  274 257 
 GUY2CHZ EP       1844 20.60                             112    0.50 7  301 236 
 GUY2CHE ES       1844 54.12                             112    0.09 7  301 236 
 GUY2CHZ I        1845  3.34         4.3 1.82                           301 236 
                                                                                
