 2010 11 1 1405 41.3 L   7.205 -74.075  4.0  RSN  6 0.5 2.1LRSN                1
 GAP=161        0.90       4.8     5.3  8.7 -0.9170E+01 -0.3390E+01  0.5332E+01E
 Epicentro: PUERTO WILCHES - SANTANDER                                         3
 ACTION:UP  10-12-17 16:49 OP:REBC STATUS:               ID:20101101140541 L   I
 2010-11-01-1403-41S.COL___126                                                 6
 STAT SP IPHASW D HRMM SECON CODA AMPLIT PERI AZIMU VELO SNR AR TRES W  DIS CAZ7
 BRR  HZ EP   1   14 5 47.88                              47    -0.3 7   41 105 
 BRR  HE ES   1   14 5 53.16                              47    -0.4 7   41 105 
 BRR  HZ I        14 5 54.55       127.5 0.30                            41 105 
 OCA  SZ ES   2   14 6 20.53                              47    -0.3 5  141  36 
 OCA  SZ I        14 6 29.30        14.5 0.57                           141  36 
 GUE  SZ EP   2   14 6  5.07                              47     0.9 5  145  61 
 GRA  SZ ES   1   14 6 25.67                              47     0.1 7  159  62 
 GRA  SZ I        14 6 27.48        78.0 0.27                           159  62 
 RUS  HZ EP   1   14 6 10.37                              37     0.5 7  182 143 
 RUS  HN ES   1   14 6 32.55                              37     0.3 7  182 143 
 RUS  HZ I        14 6 33.89        23.2 0.30                           182 143 
 HEL  HN ES   2   14 6 34.53                              37    -0.6 4  196 235 
 HEL  HZ I        14 6 38.16        11.3 0.18                           196 235 
                                                                                
