 2015  2 1 1943 18.6 L   6.818 -73.174146.7  RSN 18 0.4 2.7LRSN                1
 GAP= 69        1.02       2.5     2.9  4.9 -0.1582E+00  0.4622E+01  0.6964E-01E
 Epicentro: ZAPATOCA - SANTANDER                                               3
 ACTION:UPD 15-04-30 21:20 OP:nd   STATUS:               ID:20150201194318 L   I
 OLDACT:UP  15-02-01 22:26 OP:cam  STATUS:               ID:20150201193818     3
 OLDACT:UP  15-02-01 22:26 OP:cam  STATUS:               ID:20150201193818     3
 OLDACT:REG 15-02-01 20:37 OP:cam  STATUS:               ID:20150201193818     3
 2015-02-01-1938-18M.COL___250                                                 6
 STAT SP IPHASW D HRMM SECON CODA AMPLIT PERI AZIMU VELO AIN AR TRES W  DIS CAZ7
 BAR2 EZ EP     C 1943 38.33                             170   -0.0510 25.0 182 
 BAR2 EZ ES       1943 53.63                             170   -0.1710 25.0 182 
 BAR2 EZ I        1943 54.76        85.8 0.24            168           25.0 182 
 BRR  HZ EP       1943 40.21                             154    0.5610 67.5 298 
 BRR  HN ES       1943 57.21                             154    1.1510 67.5 298 
 BRR  HZ I        1944  0.95        65.0 0.30            149           67.5 298 
 PAM  SZ EP     D 1943 41.15                             151    0.2010 77.9  42 
 PAM  SN ES       1943 58.34                             151   -0.0410 77.9  42 
 PAM  SZ I        1944  0.49        83.2 0.42            155           77.9  42 
 RUS  HZ EP     C 1943 42.29                             143   -0.3110  103 174 
 RUS  HE ES       1944  0.53                             143   -0.8010  103 174 
 RUS  HZ I        1944  1.96        63.2 0.36            146            103 174 
 OCA  HZ EP       1943 47.26                             130    0.49 9  158 354 
 OCA  HN ES       1944  8.27                             130   -0.47 9  158 354 
 OCA  HZ I        1944 13.04        35.7 0.24            131            158 354 
 TAM  HZ IP     D 1943 46.77                             130    0.09 9  159 105 
 TAM  HZ I        1943 46.97        71.4 0.38            136            159 105 
 TAM  HN ES       1944  8.63                             130    0.04 9  159 105 
 SPBC HZ EP       1943 47.12                             129   -0.01 9  163 218 
 SPBC HN ES       1944  9.28                             129   -0.11 9  163 218 
 SPBC HZ I        1944 16.19        83.6 0.22            129            163 218 
 ZAR  HZ EP       1943 50.87                             123    0.14 9  200 292 
 ZAR  HE ES       1944 15.78                             123   -0.01 9  200 292 
 ZAR  HZ I        1944 26.70        32.7 0.16            122            200 292 
 NOR  HZ EP       1943 54.44                             119    0.21 8  233 234 
 NOR  HN ES       1944 21.78                             119   -0.25 8  233 234 
 NOR  HZ I        1944 30.12        39.9 0.16            119            233 234 
 SML  HZ EP       1943 54.55                             118   -0.39 8  241 336 
 SML  HN ES       1944 22.99                             118   -0.30 8  241 336 
 SML  HZ I        1944 26.55        59.9 0.10            118            241 336 
 CHI  HZ EP       1943 56.64                             117    0.17 8  250 194 
 CHI  HE ES       1944 26.30                             117    0.29 8  250 194 
 CHI  HZ I        1944 32.02        18.5 0.30            118            250 194 
 HEL  HZ EP   4   1944  0.02                             115    1.44 0  270 255 
 HEL  HN ES       1944 29.76                             115    0.00 8  270 255 
 HEL  HZ I        1944 37.85        21.2 0.42            115            270 255 
 URE  HZ EP       1943 58.91                             114   -0.40 7  280 292 
 URE  HN ES   4   1944 29.19                             114   -1.87 0  280 292 
 URE  HZ I        1944 46.69        21.4 0.22            114            280 292 
 GUY2CHZ EP   4   1944  3.58                             113    1.49 0  300 234 
 GUY2CHN ES       1944 35.84                             113   -0.18 7  300 234 
 GUY2CHZ I        1944 48.54        23.8 0.46                           300 234 
 PTGC HZ EP   4   1944  1.62                             112   -1.22 0  312 158 
 RREF HZ EP   4   1944  6.16                             111    1.50 0  321 229 
 DBB  SZ EP       1944  6.15                             110    0.41 7  336 274 
 DBB  SZ ES   4   1944 41.27                             110   -1.23 0  336 274 
 DBB  SZ I        1944 45.87        51.2 0.72            110            336 274 
 TOL  SZ EP   4   1944  8.26                             110    1.46 0  343 224 
 TOL  SE ES   4   1944 46.97                             110    2.57 0  343 224 
 TOL  SZ I        1944 51.82        16.3 0.48            110            343 224 
 MON  HZ EP   4   1944  5.64                             109   -1.57 0  350 308 
 MON  HN ES       1944 44.08                             109   -1.05 6  350 308 
 MON  HZ I        1944 59.29         6.8 0.36            109            350 308 
 ARGC HZ EP   4   1944 10.07                             109    2.12 0  356 341 
 ANIL HZ EP   4   1944  9.81                             109    1.46 0  357 224 
 PAL  HZ EP       1944 13.78                             106    0.19 6  404 239 
                                                                                
