 2013 10 1 1045 52.7 L   6.077 -73.710107.3  RSN  8 0.5 1.5LRSN                1
 GAP=114        1.23       4.3     3.9  8.1 -0.2747E+01  0.6329E+01 -0.8923E+01E
 Epicentro: BOLIVAR - SANTANDER                                                3
 ACTION:UPD 13-11-25 09:18 OP:ep   STATUS:               ID:20131001104552 L   I
 OLDACT:REG 13-10-01 17:14 OP:stll STATUS:               ID:20131001103843     3
 2013-10-01-1038-43M.COL___237                                                 6
 STAT SP IPHASW D HRMM SECON CODA AMPLIT PERI AZIMU VELO AIN AR TRES W  DIS CAZ7
 SPBC HZ EP       1046  9.36                             148    0.0510 61.8 221 
 SPBC HZ I        1046  9.52        15.9 0.12            150           61.8 221 
 SPBC HN ES       1046 22.71                             148    0.4210 61.8 221 
 RUS  HZ EP       1046 10.44                             144   -0.1710 72.3 106 
 RUS  HN ES       1046 23.85                             144   -0.7410 72.3 106 
 RUS  HZ I        1046 26.11         4.4 0.28            147           72.3 106 
 BAR2 SZ EP       1046 11.15                             140    0.2110 81.5  46 
 BAR2 SZ ES       1046 25.68                             140    0.4910 81.5  46 
 BAR2 SZ I        1046 26.70        28.9 0.14            141           81.5  46 
 PTB  HZ EP       1046 11.11                             134   -0.8210 97.1 302 
 PTB  HN ES       1046 26.76                             134   -0.1810 97.1 302 
 PTB  HZ I        1046 28.57         6.2 0.34            135           97.1 302 
 BRR  HZ EP       1046 13.46                             129    0.0310  114 360 
 BRR  HE ES       1046 30.01                             129    0.3910  114 360 
 BRR  HN I        1046 34.00        10.7 0.30            130            114 360 
 NOR  HZ EP       1046 17.18                             123    1.07 9  140 246 
 NOR  HN ES       1046 34.06                             123   -0.33 9  140 246 
 NOR  HZ I        1046 37.27         3.2 0.32            125            140 246 
 PAM  SZ EP       1046 20.67                             116   -0.08 9  179  39 
 PAM  SZ I        1046 22.16         2.7 0.24            118            179  39 
 ZAR  HZ EP       1046 22.59                             113   -0.07 9  201 321 
 ZAR  HN ES       1046 45.76                             113   -0.29 9  201 321 
 ZAR  HZ I        1046 49.14         3.8 0.42            114            201 321 
                                                                                
