 2015 11 1 1054  5.3 L   6.814 -73.151148.3  RSN 10 0.3 1.7LRSN                1
 GAP=135        0.53       2.6     4.1  4.2 -0.2629E+01  0.6033E+01  0.7388E+00E
 Epicentro: LOS SANTOS - SANTANDER                                             3
 ACTION:UPD 15-12-28 16:08 OP:cam  STATUS:               ID:20151101105405 L   I
 OLDACT:REG 15-11-01 20:30 OP:ar   STATUS:               ID:20151101104750     3
 2015-11-01-1047-50M.COL___292                                                 6
 STAT SP IPHASW D HRMM SECON CODA AMPLIT PERI AZIMU VELO AIN AR TRES W  DIS CAZ7
 BAR2 EZ EP     D 1054 25.16                             170   -0.1410 24.8 188 
 BAR2 EZ ES       1054 40.76                             170   -0.1110 24.8 188 
 BAR2 EZ I        1054 42.70         6.5 0.24            167           24.8 188 
 BRR  HZ EP   2   1054 26.49                             153   -0.20 5 70.0 298 
 BRR  HE ES   2   1054 44.09                             153    0.74 5 70.0 298 
 PAM  EZ EP       1054 28.05                             151    0.2810 76.5  41 
 PAM  EE ES       1054 45.31                             151    0.0410 76.5  41 
 PAM  EZ I        1054 47.12         9.4 0.54            155           76.5  41 
 RUS  HZ EP   2   1054 29.07                             144   -0.38 5  102 176 
 RUS  HN ES   2   1054 48.22                             144   -0.04 5  102 176 
 RUS  HZ I        1054 48.62         2.5 0.32            146            102 176 
 OCA  HN ES   2   1054 55.21                             130   -0.60 5  159 353 
 OCA  HZ I        1054 59.56        10.4 0.17            130            159 353 
 SPBC HZ EP       1054 34.27                             129    0.16 9  164 218 
 SPBC HN ES   2   1054 56.26                             129   -0.29 5  164 218 
 SPBC HZ I        1055  2.12        10.1 0.24            128            164 218 
 ZAR  HZ EP   4   1054 39.59                             123    1.76 0  203 292 
 ZAR  HE ES   2   1055  3.32                             123    0.14 4  203 292 
 ZAR  HZ I        1055  8.62         4.4 0.52            121            203 292 
 SML  HZ EP   2   1054 41.67                             118   -0.25 4  242 335 
 SML  HN ES   2   1055  9.86                             118   -0.61 4  242 335 
 SML  HZ I        1055 17.19         5.7 0.10            118            242 335 
 CHI  HZ EP   2   1054 43.57                             117    0.25 4  250 195 
 CHI  HN ES   2   1055 12.50                             117   -0.45 4  250 195 
 CHI  HZ I        1055 18.14         1.9 0.48            118            250 195 
 GUY2CHZ EP   2   1054 49.75                             113    0.64 4  302 234 
 GUY2CHE ES   4   1055 27.67                             113    4.41 0  302 234 
 GUY2CHZ I        1055 31.83         2.8 0.50                           302 234 
                                                                                
