 2016 11 1 1823 42.0 L   6.810 -73.143142.7  RSN 10 0.3 1.9LRSN                1
 GAP=136        0.75       2.7     3.0  4.8 -0.4102E+00  0.2736E+01  0.3333E+01E
 Epicentro: LOS SANTOS - SANTANDER                                             3
 ACTION:UPD 17-10-26 21:03 OP:lp   STATUS:               ID:20161101182342 L   I
 OLDACT:REG 16-11-01 21:25 OP:cog  STATUS:               ID:20161101181745     3
 2016-11-01-1818-00M.COL___331                                                 6
 STAT SP IPHASW D HRMM SECON CODA AMPLIT PERI AZIMU VELO AIN AR TRES W  DIS CAZ7
 BRR  HZ EP       1824  2.94                             152    0.1010 70.9 298 
 BRR  HE ES       1824 19.28                             152    0.2110 70.9 298 
 BRR  HZ I        1824 23.28        17.5 0.14            153           70.9 298 
 PAM  EZ EP       1824  3.97                             151    0.1010 76.4  40 
 PAM  EN ES       1824 20.68                             151   -0.2210 76.4  40 
 PAM  EZ I        1824 22.73        25.7 0.42            156           76.4  40 
 RUS  HZ EP       1824  5.51                             143   -0.0610  102 176 
 RUS  HN ES       1824 24.17                             143    0.2510  102 176 
 RUS  HZ I        1824 25.35         9.7 0.25            143            102 176 
 PTB  HZ EP       1824  7.97                             131   -0.84 9  148 258 
 PTB  HN ES       1824 29.62                             131   -0.06 9  148 258 
 PTB  HZ I        1824 31.57         8.7 0.18            132            148 258 
 SPBC HZ EP       1824 10.57                             128    0.16 9  164 219 
 SPBC HN ES       1824 32.01                             128   -0.52 9  164 219 
 ZAR  HZ EP       1824 14.23                             122   -0.04 9  204 292 
 ZAR  HN ES       1824 39.76                             122    0.34 9  204 292 
 ZAR  HZ I        1824 42.00         8.9 0.11            123            204 292 
 NOR  HZ EP       1824 17.91                             118    0.22 8  236 234 
 NOR  HE ES       1824 45.63                             118    0.14 8  236 234 
 NOR  HZ I        1824 53.16         5.7 0.15            119            236 234 
 CHI  HZ EP       1824 19.76                             116    0.07 8  250 195 
 CHI  HE ES       1824 49.17                             116    0.11 8  250 195 
 CHI  HZ I        1824 58.22         2.2 0.29            117            250 195 
 GUY2CHZ EP   4   1824 26.75                             112    1.14 0  302 235 
 GUY2CHE ES   4   1825  1.31                             112    1.72 0  302 235 
 GUY2CHZ I        1825  8.57         3.3 0.28                           302 235 
 PRA  HZ EP       1824 36.00                             106    0.42 6  393 210 
 PRA  HN ES   4   1825 18.61                             106    1.26 0  393 210 
 PRA  HZ I        1825 24.90         3.1 0.30            107            393 210 
                                                                                
