 2015  4 1 1148 49.0 L   6.746 -73.164152.9  RSN  5 0.4 1.7LRSN                1
 GAP=243        1.05       6.7     8.1 11.6  0.6591E+01 -0.2276E+02 -0.3888E+01E
 Epicentro: LOS SANTOS - SANTANDER                                             3
 ACTION:UPD 15-06-03 16:51 OP:cam  STATUS:               ID:20150401114849 L   I
 OLDACT:REG 15-04-01 20:18 OP:fm   STATUS:               ID:20150401113750     3
 2015-04-01-1137-50M.COL___271                                                 6
 STAT SP IPHASW D HRMM SECON CODA AMPLIT PERI AZIMU VELO AIN AR TRES W  DIS CAZ7
 BAR2 EZ EP       1149  9.46                             173    0.0710 17.1 187 
 BAR2 EZ I        1149 27.63         4.9 0.36            171           17.1 187 
 BRR  HZ EP       1149 10.32                             153   -0.6810 72.6 303 
 BRR  HN ES   1   1149 28.67                             153    0.51 7 72.6 303 
 BRR  HZ I        1149 28.90         7.6 0.50            158           72.6 303 
 PTB  HZ EP       1149 15.89                             134   -0.40 9  145 261 
 PTB  HN ES       1149 37.41                             134   -0.17 9  145 261 
 PTB  HZ I        1149 45.26         5.1 0.34            141            145 261 
 SPBC HZ EP       1149 18.26                             132    0.75 9  157 220 
 SPBC HE ES       1149 39.53                             132   -0.22 9  157 220 
 SPBC HZ I        1149 40.27        14.6 0.10            137            157 220 
 ZAR  HZ EP       1149 22.31                             124    0.34 9  205 294 
 ZAR  HN ES       1149 47.86                             124    0.17 9  205 294 
 ZAR  HZ I        1149 54.17         5.1 0.34            128            205 294 
                                                                                
