 2017  5 1 1047 46.3 L   6.732 -73.134144.7  RSN  4 0.2 1.0LRSN                1
 GAP=233        0.47       3.9     4.0  5.6  0.1080E+02 -0.2686E+01 -0.3909E+01E
 Epicentro: JORDAN - SANTANDER                                                 3
 ACTION:UPD 17-06-16 13:31 OP:jn   STATUS:               ID:20170501104746 L   I
 OLDACT:REG 17-05-01 19:45 OP:edw  STATUS:               ID:20170501104737     3
 2017-05-01-1048-00M.COL___368                                                 6
 STAT SP IPHASW D HRMM SECON CODA AMPLIT PERI AZIMU VELO AIN AR TRES W  DIS CAZ7
 BRR  HZ EP     D 1048  7.33                             151   -0.2510 76.1 303 
 BRR  HE ES       1048 24.31                             151    0.1110 76.1 303 
 RUS  HZ EP       1048  9.58                             146    0.2110 93.0 176 
 RUS  HN ES       1048 27.32                             146   -0.0810 93.0 176 
 RUS  HZ I        1048 29.08         1.8 0.52            146           93.0 176 
 PTB  HN ES       1048 34.04                             132   -0.06 9  148 262 
 ZAR  HN ES       1048 44.73                             122    0.09 8  208 294 
                                                                                
