 2012 12 1 1200 57.3 L   6.803 -73.191139.7  RSN  8 0.2 2.1LRSN                1
 GAP=131        0.42       1.9     2.0  3.0 -0.5031E+00  0.1909E+01  0.8736E+00E
 Epicentro: ZAPATOCA - SANTANDER                                               3
 ACTION:UPD 13-01-04 14:24 OP:ep   STATUS:               ID:20121201120057 L   I
 2012-12-01-1200-00M.COL___236                                                 6
 STAT SP IPHASW D HRMM SECON CODA AMPLIT PERI AZIMU VELO AIN AR TRES W  DIS CAZ7
 BAR2 SZ EP       12 1 16.26                             170    0.0410 23.3 178 
 BAR2 SZ ES       12 1 31.14                             170    0.1810 23.3 178 
 BAR2 SZ I        12 1 32.86        29.5 0.19                          23.3 178 
 GIR2 SZ EP       12 1 16.43                             167    0.1810 30.5 359 
 PAM  SZ EP       12 1 19.19                             149    0.1110 80.4  42 
 PAM  SE ES       12 1 35.92                             149   -0.1410 80.4  42 
 PAM  SZ I        12 1 38.56        19.2 0.69                          80.4  42 
 RUS  HZ EP       12 1 20.39                             142   -0.1510  101 173 
 RUS  HE ES   1   12 1 38.38                             142   -0.26 7  101 173 
 RUS  HE I        12 1 41.05        17.1 0.21                           101 173 
 PTB  HZ EP       12 1 23.23                             132   -0.13 9  143 258 
 PTB  HN ES       12 1 43.62                             132   -0.04 9  143 258 
 PTB  HZ I        12 1 46.99        17.8 0.20                           143 258 
 ZAR  HZ EP   1   12 1 28.91                             122    0.02 6  199 293 
 ZAR  HN ES   1   12 1 53.40                             122   -0.11 6  199 293 
 ZAR  HZ I        12 2  1.78        10.0 0.40                           199 293 
 CHI  HZ EP   1   12 1 34.70                             116    0.12 6  248 194 
 CHI  HE ES   1   12 2  3.61                             116   -0.04 6  248 194 
 PRA  HZ EP   1   12 1 50.09                             106   -0.29 4  390 209 
 PRA  HN ES   1   12 2 32.46                             106    0.69 4  390 209 
 PRA  HZ I        12 2 39.14         5.2 0.25                           390 209 
                                                                                
