 2016  1 1 1437 49.7 L   6.801 -73.174148.0  RSN 16 0.4 2.3LRSN                1
 GAP=198        0.83       2.9     3.8  5.3 -0.4434E+00  0.3710E+01 -0.2744E+00E
 Epicentro: LOS SANTOS - SANTANDER                                             3
 ACTION:UPD 16-03-09 23:21 OP:cam  STATUS:               ID:20160101143749 L   I
 OLDACT:DUP 16-01-01 21:43 OP:dnl  STATUS:               ID:20160101142747d    3
 2016-01-01-1427-46M.COL___323                                                 6
 STAT SP IPHASW D HRMM SECON CODA AMPLIT PERI AZIMU VELO AIN AR TRES W  DIS CAZ7
 BAR2 EZ IP     C 1438  9.58                             171   -0.0610 23.1 182 
 BAR2 EZ ES       1438 24.76                             171   -0.4010 23.1 182 
 BAR2 EZ I        1438 26.42        23.1 0.25            167           23.1 182 
 BRR  HZ EP     C 1438 11.46                             154    0.4810 68.4 300 
 BRR  HE ES       1438 28.31                             154    0.7610 68.4 300 
 BRR  HZ I        1438 32.78        23.6 0.19            148           68.4 300 
 RUS  HZ EP       1438 13.95                             144    0.2110  101 174 
 RUS  HE ES   2   1438 31.97                             144   -0.49 5  101 174 
 RUS  HZ I        1438 33.41        17.4 0.27            143            101 174 
 PTB  HZ EP   1   1438 16.14                             133   -0.48 7  145 259 
 PTB  HN ES       1438 37.59                             133    0.00 9  145 259 
 PTB  HZ I        1438 45.03        18.5 0.28            129            145 259 
 SPBC HZ EP   2   1438 18.37                             130    0.13 5  161 218 
 SPBC HN ES       1438 40.54                             130    0.07 9  161 218 
 SPBC HZ I        1438 42.00        23.6 0.22            127            161 218 
 ZAR  HZ EP   2   1438 22.98                             123    0.94 4  201 292 
 ZAR  HE ES       1438 47.19                             123   -0.03 9  201 292 
 ZAR  HZ I        1438 53.82        24.7 0.13            121            201 292 
 NOR  HZ EP   2   1438 25.48                             119    0.14 4  232 234 
 NOR  HE ES       1438 52.34                             119   -0.76 8  232 234 
 NOR  HZ I        1438 59.09        11.7 0.37            117            232 234 
 SML  HZ EP       1438 25.99                             118   -0.36 8  242 336 
 SML  HN ES       1438 54.22                             118   -0.67 8  242 336 
 SML  HZ I        1439  2.18        20.3 0.09            117            242 336 
 CHI  HZ EP   2   1438 27.85                             118    0.36 4  248 194 
 CHI  HN ES   2   1438 57.10                             118    0.16 4  248 194 
 CHI  HZ I        1439  6.97         6.2 0.38            117            248 194 
 HEL  HZ EP   4   1438 31.92                             116    2.18 0  269 256 
 HEL  HN ES       1439  1.03                             116    0.09 8  269 256 
 HEL  HZ I        1439  9.14         6.1 0.25            114            269 256 
 URE  HZ EP   2   1438 30.44                             114   -0.15 4  281 292 
 URE  HN ES   4   1438 59.73                             114   -2.73 0  281 292 
 URE  HZ I        1439  7.98        14.6 0.11            113            281 292 
 GUY2CHZ EP   4   1438 34.33                             113    1.15 0  299 234 
 GUY2CHN ES       1439  7.35                             113    0.30 7  299 234 
 GUY2CHZ I        1439 18.44        10.1 0.51                           299 234 
 ELA  HZ EP   4   1438 40.03                             111    3.60 0  327 229 
 ELA  HN ES   4   1439  9.89                             111   -2.95 0  327 229 
 ELA  HZ I        1439 22.41         7.7 0.31            110            327 229 
 DBB  SZ EP   2   1438 37.33                             110    0.38 3  336 274 
 DBB  SZ ES   4   1439 10.84                             110   -2.94 0  336 274 
 DBB  SZ I        1439 17.75        23.8 0.65            109            336 274 
 ANIL HE ES   2   1439 17.88                             109   -0.24 3  355 224 
 ANIL HZ I        1439 25.83        19.8 0.55            108            355 224 
 PRA  HZ EP   2   1438 43.47                             107    0.30 3  391 209 
 PRA  HN ES   2   1439 24.27                             107   -0.58 3  391 209 
 PRA  HZ I        1439 29.36         5.4 0.28            106            391 209 
                                                                                
