 2012  8 1 1646 37.4 L   6.769 -73.151142.4  RSN  5 0.3 1.4LRSN                1
 GAP=137        0.53       4.3     3.6  6.9 -0.2064E+01  0.5026E+00  0.2708E+01E
 Epicentro: LOS SANTOS - SANTANDER                                             3
 ACTION:UPD 12-09-10 11:53 OP:ep   STATUS:               ID:20120801164637 L   I
 2012-08-01-1640-00M.COL___215                                                 6
 STAT SP IPHASW D HRMM SECON CODA AMPLIT PERI AZIMU VELO AIN AR TRES W  DIS CAZ7
 BAR2 SZ EP       1646 56.42                             172   -0.1810 19.9 190 
 BAR2 SZ ES   3   1647 11.98                             172    0.44 2 19.9 190 
 BAR2 SZ I        1647 14.44         6.6 0.38                          19.9 190 
 BRR  HZ EP       1646 58.52                             151    0.2210 72.4 301 
 BRR  HZ I        1647  9.99         8.6 0.12                          72.4 301 
 BRR  HN ES   2   1647 15.16                             151    0.60 5 72.4 301 
 PAM  SZ EP       1646 59.38                             149   -0.1010 80.4  38 
 PAM  SZ I        1646 59.49         4.9 0.22                          80.4  38 
 PAM  SN ES   2   1647 16.38                             149   -0.29 5 80.4  38 
 RUS  HZ EP       1647  0.83                             144    0.2110 97.3 176 
 RUS  HN ES   2   1647 18.58                             144   -0.12 5 97.3 176 
 RUS  HZ I        1647 21.12         2.3 0.30                          97.3 176 
 PTB  HZ EP       1647  4.00                             131   -0.03 9  147 260 
 PTB  HN ES   1   1647 24.38                             131   -0.39 7  147 260 
 PTB  HZ I        1647 30.32         2.7 0.26                           147 260 
                                                                                
