 2012  4 1 1236 59.8 L   6.793 -73.147151.6  RSN  7 0.4 1.8LRSN                1
 GAP=137        0.96       5.3     5.8  8.5  0.2631E+01  0.8584E+01  0.1072E+02E
 Epicentro: LOS SANTOS - SANTANDER                                             3
 ACTION:UPD 12-07-05 11:49 OP:tino STATUS:               ID:20120401123659 L   I
 2012-04-01-1230-00M.COL___196                                                 6
 STAT SP IPHASW D HRMM SECON CODA AMPLIT PERI AZIMU VELO AIN AR TRES W  DIS CAZ7
 BAR2 SZ EP   1   1237 20.26                             171     0.1 7   23 190 
 BAR2 SZ ES   1   1237 35.42                             171    -0.6 7   23 190 
 BAR2 SZ I        1237 36.59        22.7 0.23                            23 190 
 BRR  HZ EP   1   1237 22.09                             153     0.5 7   71 299 
 BRR  HE ES   1   1237 39.49                             153     0.9 7   71 299 
 PAM  SZ EP   1   1237 22.43                             152    -0.3 7   78  39 
 PAM  SN ES   1   1237 40.35                             152    -0.2 7   78  39 
 RUS  HZ EP   1   1237 24.37                             145     0.3 7  100 176 
 RUS  HN ES   1   1237 43.07                             145     0.0 7  100 176 
 RUS  HZ I        1237 43.91         6.5 0.36                           100 176 
 PTB  HZ EP   1   1237 26.84                             133    -0.4 7  147 259 
 PTB  HE ES   1   1237 48.06                             133    -0.6 7  147 259 
 PTB  HZ I        1237 50.09         5.7 0.16                           147 259 
 ZAR  HN ES   1   1237 58.13                             124    -0.1 6  204 292 
 ZAR  HZ I        1238  3.50         8.8 0.28                           204 292 
 CHI  HZ EP   1   1237 37.55                             118    -0.2 6  248 195 
 CHI  HN ES   1   1238  7.74                             118     0.4 6  248 195 
 CHI  HZ I        1238  8.85         3.4 0.38                           248 195 
                                                                                
