 2017  3 1 1319 11.7 L   6.738 -73.184155.7  RSN  4 0.4 1.2LRSN                1
 GAP=228        1.05       8.6     8.1  8.4  0.3341E+02  0.5314E+01  0.7074E+00E
 Epicentro: VILLANUEVA - SANTANDER                                             3
 ACTION:UPD 17-05-25 18:34 OP:jn   STATUS:               ID:20170301131911 L   I
 OLDACT:DUP 17-03-01 21:06 OP:lv   STATUS:               ID:20170301131746d    3
 OLDACT:REG 17-03-01 19:57 OP:lv   STATUS:               ID:20170301131744     3
 2017-03-01-1318-00M.COL___371                                                 6
 STAT SP IPHASW D HRMM SECON CODA AMPLIT PERI AZIMU VELO AIN AR TRES W  DIS CAZ7
 BAR2 EZ EP       1319 31.93                             174   -0.5010 16.1 179 
 BAR2 EZ ES       1319 48.02                             174   -0.5610 16.1 179 
 BAR2 EZ I        1319 48.67         4.5 0.32            168           16.1 179 
 BRR  HZ EP       1319 34.02                             154    0.0710 71.2 305 
 BRR  HE ES       1319 51.90                             154    0.6110 71.2 305 
 RUS  HZ EP       1319 36.35                             148    0.3310 94.1 173 
 RUS  HN ES       1319 55.33                             148    0.3510 94.1 173 
 RUS  HZ I        1319 55.54         1.4 0.33            145           94.1 173 
 PTB  HZ EP       1319 38.99                             135   -0.05 9  142 261 
 PTB  HN ES       1320  0.06                             135   -0.30 9  142 261 
 PTB  HZ I        1320  5.79         2.8 0.18            132            142 261 
                                                                                
