 2010  8 1 1454 23.9 L   6.869 -72.984123.9  RSN  5 0.3 1.3LRSN                1
 GAP=182        0.64       5.9    13.2 17.7  0.2778E+02 -0.1445E+03 -0.3872E+02E
 Epicentro: CEPITA - SANTANDER                                                 3
 ACTION:UP  10-09-07 10:51 OP:vdl  STATUS:               ID:20100801145424 L   I
 2010-08-01-1449-38S.COL___123                                                 6
 STAT SP IPHASW D HRMM SECON CODA AMPLIT PERI AZIMU VELO SNR AR TRES W  DIS CAZ7
 GIR2 SZ EP   1   1454 41.32                             165     0.3 7   33 315 
 BAR2 SZ EP   2   1454 42.10                             162     0.8 5   38 216 
 BRR  HZ EP   1   1454 43.52                             144    -0.1 7   85 288 
 BRR  HN ES   2   1454 58.99                             144    -0.1 5   85 288 
 BRR  HZ I        1454 59.72         8.8 0.06                            85 288 
 GUE  SZ EP   1   1454 45.53                             137    -0.3 7  106   4 
 RUS  HZ EP   1   1454 46.18                             137     0.0 7  109 186 
 RUS  HN ES   2   1455  3.23                             137    -0.4 5  109 186 
 RUS  HZ I        1455  4.42         1.7 0.23                           109 186 
                                                                                
