 2010  2 1 1236 58.2 L   6.743 -72.920141.4  RSN  6 0.4 1.9LRSN                1
 GAP=230        0.63       9.1    15.2 10.6 -0.6043E+02 -0.1985E+02  0.6288E+02E
 Epicentro: CEPITA - SANTANDER                                                 3
 ACTION:UP  10-08-24 09:47 OP:vdl  STATUS:               ID:20100201123658 L   I
 2010-02-01-1235-40S.COL___094                                                 6
 STAT SP IPHASW D HRMM SECON CODA AMPLIT PERI AZIMU VELO SNR AR TRES W  DIS CAZ7
 BAR2 SZ IP   1   1237 17.52                                    -0.1 7   34 240 
 BAR2 SZ ES   2   1237 32.59                             166    -0.1 5   34 240 
 GIR2 SZ ES   2   1237 33.17                             161    -0.2 5   48 321 
 RUS  BZ EP   2   1237 21.94                             144     0.8 5   96 191 
 RUS  BZ I        1237 41.38         4.2 0.32                            96 191 
 CHI  HZ EP   2   1237 35.97                             116     0.1 4  250 201 
 CHI  HE ES   1   1238  5.05                             116    -0.2 6  250 201 
 CHI  HZ I        1238  8.85         5.1 0.93                           250 201 
 RREF BE ES   2   1238 23.77                             109     0.6 3  337 233 
 RREF BZ I        1238 29.64         3.9 0.42                           337 233 
 PRA  HZ EP   1   1237 51.87                             105    -0.6 4  400 213 
 PRA  HZ I        1238 42.40         3.8 0.43                           400 213 
                                                                                
