 2016 11 1 1844 29.3 L   6.407 -73.534 22.1  RSN  4 0.2 0.9LRSN                1
 GAP=140        0.58       2.1     1.3  2.9  0.1367E+00 -0.1822E+00 -0.2600E+01E
 Epicentro: SANTA HELENA DEL OPON - SANTANDER                                  3
 ACTION:UPD 17-10-26 21:03 OP:lp   STATUS:               ID:20161101184429 L   I
 OLDACT:REG 16-11-01 21:27 OP:cog  STATUS:               ID:20161101183746     3
 2016-11-01-1838-00M.COL___333                                                 6
 STAT SP IPHASW D HRMM SECON CODA AMPLIT PERI AZIMU VELO AIN AR TRES W  DIS CAZ7
 BAR2 EZ EP       1844 37.56                             115    0.1210 43.9  62 
 BAR2 EZ ES       1844 43.69                             115   -0.0710 43.9  62 
 RUS  HZ EP       1844 42.35                             105    0.1110 75.6 139 
 RUS  HE ES       1844 52.17                             105   -0.1510 75.6 139 
 RUS  HZ I        1844 53.54         3.5 0.16            103           75.6 139 
 PTB  HZ EP       1844 45.82                             100    0.0210  103 278 
 PTB  HN ES       1844 58.54                             100   -0.1210  103 278 
 PAM  EZ EP       1844 51.34                              56    0.43 9  138  42 
 PAM  EE ES       1845  7.43                              56   -0.32 9  138  42 
 PAM  EZ I        1845  8.47         2.9 0.36             56            138  42 
                                                                                
