 2010  8 1 1232 20.9 L   6.818 -73.109136.0  RSN  7 0.4 1.9LRSN                1
 GAP=162        0.66       4.5     9.5  7.1 -0.9393E+01 -0.9510E+00  0.5945E+01E
 Epicentro: LOS SANTOS - SANTANDER                                             3
 ACTION:UP  10-09-07 10:51 OP:vdl  STATUS:               ID:20100801123220 L   I
 2010-08-01-1230-46S.COL___122                                                 6
 STAT SP IPHASW D HRMM SECON CODA AMPLIT PERI AZIMU VELO SNR AR TRES W  DIS CAZ7
 BAR2 SZ EP   1   1232 39.18                             169    -0.3 7   26 198 
 BAR2 SZ ES   2   1232 54.04                             169     0.1 5   26 198 
 BAR2 SZ I        1232 55.38        11.4 0.24                            26 198 
 GIR2 SZ EP   1   1232 39.42                             167     0.0 7   30 342 
 GIR2 SZ ES   2   1232 54.37                             167     0.5 5   30 342 
 BRR  HZ EP   1   1232 41.31                             150     0.1 7   74 296 
 BRR  HN ES   2   1232 56.49                             150    -0.5 5   74 296 
 BRR  HZ I        1233  2.40        22.8 0.23                            74 296 
 RUS  HZ EP   1   1232 43.61                             141    -0.3 7  102 178 
 RUS  HN ES   2   1233  1.92                             141     0.1 5  102 178 
 GUE  SZ EP   1   1232 44.26                             138    -0.3 7  114  10 
 GRA  SZ I        1232 48.49         8.9 0.30                           123  16 
 GRA  SZ ES   2   1233  4.57                             136     0.7 5  123  16 
 PRA  HZ EP   1   1233 15.17                             105     0.6 4  396 210 
 PRA  HE ES   2   1233 57.12                             105     0.7 3  396 210 
 PRA  HZ I        1234  0.95         2.8 0.56                           396 210 
                                                                                
