 2014  5 1 1104 47.7 L   6.809 -73.189137.5  RSN  7 0.4 1.6LRSN                1
 GAP=131        0.75       3.1     3.8  7.2 -0.1728E+01  0.7683E+01 -0.4434E+01E
 Epicentro: ZAPATOCA - SANTANDER                                               3
 OLDACT:REG 14-05-01 19:34 OP:spq  STATUS:               ID:20140501110001d    3
 ACTION:UPD 15-03-16 16:54 OP:nd   STATUS:               ID:20140501110447 L   I
 OLDACT:UP  14-05-01 22:11 OP:spq  STATUS:               ID:20140501110001d    3
 2014-05-01-1100-00M.COL___273                                                 6
 STAT SP IPHASW D HRMM SECON CODA AMPLIT PERI AZIMU VELO AIN AR TRES W  DIS CAZ7
 PAM  SZ EP   2   11 5  9.47                             149    0.32 5 79.8  43 
 PAM  SE ES   1   11 5 25.79                             149   -0.13 8 79.8  43 
 PAM  SZ I        11 5 28.13         5.0 0.62            150           79.8  43 
 RUS  HZ EP   1   11 5 11.04                             142    0.33 8  102 173 
 RUS  HN ES   1   11 5 28.47                             142   -0.23 8  102 173 
 RUS  SZ I        11 5 30.95         5.1 0.92            150            102 173 
 PTB  HZ EP       11 5 13.48                             131   -0.0710  143 258 
 PTB  HN ES       11 5 34.19                             131    0.4510  143 258 
 PTB  SZ I        11 5 38.74         3.9 1.12            134            143 258 
 SPBC HZ EP   1   11 5 15.64                             128    0.32 7  161 217 
 SPBC HN ES   1   11 5 36.70                             128   -0.20 7  161 217 
 SPBC SZ I        11 5 42.76         5.4 0.18            133            161 217 
 ZAR  HZ EP   1   11 5 19.57                             121    0.50 7  199 292 
 ZAR  HN ES       11 5 43.74                             121    0.16 9  199 292 
 ZAR  SZ I        11 5 46.77         3.3 0.12            123            199 292 
 NOR  HZ EP   1   11 5 21.83                             117   -0.73 6  231 234 
 NOR  HE ES       11 5 49.37                             117   -0.42 9  231 234 
 NOR  SZ I        11 5 50.99         4.9 3.80            121            231 234 
 SML  HZ EP       11 5 23.59                             116    0.07 9  241 336 
 SML  HN ES   1   11 5 50.71                             116   -0.78 6  241 336 
 SML  SZ I        11 6 10.55         4.4 1.66            118            241 336 
                                                                                
