 2011  2 1 1054 19.6 L   6.781 -73.082142.4  RSN 11 0.4 2.3LRSN                1
 GAP=131        0.76       3.2     6.3  6.0 -0.9549E+01  0.6110E+01 -0.7579E+00E
 Epicentro: LOS SANTOS - SANTANDER                                             3
 ACTION:UP  11-03-28 15:05 OP:jfem STATUS:               ID:20110201105419 L   I
 2011-02-01-1051-34S.COL___138                                                 6
 STAT SP IPHASW D HRMM SECON CODA AMPLIT PERI AZIMU VELO SNR AR TRES W  DIS CAZ7
 BAR2 SZ EP       1054 39.03                             170     0.210   24 208 
 BAR2 SZ I        1054 39.43        64.4 0.08                            24 208 
 BAR2 SZ ES   1   1054 53.58                             170    -0.2 7   24 208 
 RUS  HZ EP       1054 42.93                             144     0.110   98 180 
 RUS  HN ES   2   1055  1.22                             144     0.2 5   98 180 
 RUS  HZ I        1055  2.71        15.5 0.45                            98 180 
 GRA  SZ EP       1054 44.84                             136     0.310  126  14 
 GRA  SZ ES   1   1055  4.19                             136     0.2 7  126  14 
 GRA  SZ I        1055  5.72        32.4 0.50                           126  14 
 OCA  SZ EP       1054 47.46                             128    -0.5 9  163 351 
 OCA  SZ ES   1   1055 10.06                             128     0.0 7  163 351 
 OCA  SZ I        1055 14.19        23.5 0.57                           163 351 
 NOR  SZ EP   2   1054 55.47                             117    -0.2 4  239 236 
 NOR  SE ES   2   1055 23.19                             117    -0.6 4  239 236 
 CHI  HZ EP   1   1054 57.11                             116     0.0 6  249 197 
 CHI  HN ES   1   1055 25.84                             116    -0.5 6  249 197 
 CHI  HZ I        1055 35.94        14.2 0.56                           249 197 
 HEL  HZ EP   1   1055  0.89                             114     0.6 6  278 257 
 HEL  HZ I        1055 38.20         9.4 0.43                           278 257 
 RREF HZ EP   2   1055  6.77                             110     0.7 3  326 230 
 RREF HE ES   2   1055 41.92                             110    -0.4 3  326 230 
 RREF HZ I        1055 51.58        21.6 0.34                           326 230 
 TOL  SZ EP   2   1055  8.97                             108     0.9 3  347 226 
 DBB  SZ EP   2   1055  7.24                             108    -0.5 3  347 275 
 SDV  BZ EP       1055  8.49                             108    -0.5 6  356  49 
 SDV  BZ I        1055  9.09         2.1 0.26                           356  49 
                                                                                
