 2017  8 1 1949 42.2 L   6.797 -73.169144.0  RSN  9 0.3 2.0LRSN                1
 GAP=134        0.60       2.4     2.4  3.9 -0.3222E+00  0.3889E+01  0.8545E+00E
 Epicentro: LOS SANTOS - SANTANDER                                             3
 ACTION:UPD 17-09-04 20:15 OP:rebc STATUS:               ID:20170801194942 L   I
 OLDACT:REG 17-08-01 21:22 OP:dhb  STATUS:               ID:20170801194744     3
 2017-08-01-1948-00M.COL___392                                                 6
 STAT SP IPHASW D HRMM SECON CODA AMPLIT PERI AZIMU VELO AIN AR TRES W  DIS CAZ7
 BAR2 EZ IP     C 1950  1.45                             171   -0.1210 22.6 184 
 BAR2 EZ ES       1950 16.89                             171    0.1810 22.6 184 
 BAR2 EZ I        1950 17.83        17.6 0.30            170           22.6 184 
 PAM  EZ EP       1950  4.31                             150   -0.0010 79.3  41 
 PAM  EN ES       1950 21.66                             150    0.0810 79.3  41 
 PAM  EZ I        1950 23.67        23.8 0.56            153           79.3  41 
 RUS  HZ EP       1950  5.58                             144   -0.1510  100 175 
 RUS  HN ES       1950 24.31                             144    0.2010  100 175 
 RUS  HZ I        1950 25.67        11.5 0.48            145            100 175 
 PTB  HZ EP       1950  8.22                             132   -0.54 9  145 259 
 PTB  HN ES       1950 29.40                             132   -0.10 9  145 259 
 PTB  HZ I        1950 31.54        11.7 0.10            132            145 259 
 ZAR  HZ EP       1950 14.13                             122   -0.14 9  202 293 
 ZAR  HE ES       1950 39.38                             122    0.07 9  202 293 
 ZAR  HZ I        1950 42.41         7.7 0.16            123            202 293 
 NOR  HZ EP       1950 17.60                             119    0.05 8  232 234 
 NOR  HE ES       1950 45.29                             119    0.15 8  232 234 
 NOR  HZ I        1950 47.66         7.1 0.24            119            232 234 
 CHI  HZ EP       1950 19.65                             117   -0.01 8  248 195 
 CHI  HN ES       1950 48.64                             117   -0.26 8  248 195 
 CHI  HZ I        1950 52.88         5.0 0.38            118            248 195 
 HEL  HZ EP       1950 22.58                             115    0.58 8  270 256 
 HEL  HN ES       1950 53.17                             115    0.09 8  270 256 
 HEL  HZ I        1950 59.31         5.8 0.38            116            270 256 
 GUY2CHZ EP   3   1950 27.46                             112    2.03 2  299 235 
 GUY2CHN ES   4   1951  3.23                             112    4.05 0  299 235 
 GUY2CHZ I        1951  8.12         7.4 0.70                           299 235 
                                                                                
