 2013  3 1 1215 31.0 L   6.794 -73.213159.4  RSN  4 0.3 1.6LRSN                1
 GAP=194        0.64       6.0     8.3 10.1 -0.3095E+01 -0.2783E+02  0.1879E+01E
 Epicentro: ZAPATOCA - SANTANDER                                               3
 ACTION:UPD 13-04-09 13:59 OP:ep   STATUS:               ID:20130301121531 L   I
 2013-03-01-1210-00M.COL___228                                                 6
 STAT SP IPHASW D HRMM SECON CODA AMPLIT PERI AZIMU VELO AIN AR TRES W  DIS CAZ7
 BAR2 SZ EP   1   1215 51.88                             172   -0.41 7 22.5 171 
 BAR2 SZ I        1216  8.95         9.5 0.28            153           22.5 171 
 BRR  HZ EP     C 1215 53.77                             157    0.4110 65.1 302 
 BRR  HN ES   1   1216 10.85                             157    0.07 7 65.1 302 
 BRR  HZ I        1216 14.79         5.7 0.24            175           65.1 302 
 PTB  HZ EP   1   1215 58.46                             136   -0.05 7  140 259 
 PTB  HE ES   1   1216 19.77                             136   -0.17 7  140 259 
 PTB  HZ I        1216 27.21         4.0 0.20            142            140 259 
 SML  HN ES   1   1216 36.89                             120   -0.31 6  241 337 
                                                                                
