 2011  6 1 1750 28.9 L   6.790 -73.054142.0  RSN 12 0.4 2.4LRSN                1
 GAP=166        0.94       4.7     6.3  7.2 -0.1254E+02  0.8747E+01 -0.3374E+01E
 Epicentro: LOS SANTOS - SANTANDER                                             3
 ACTION:UP  11-07-14 19:02 OP:ep   STATUS:               ID:20110601175028 L   I
 2011-06-01-1748-42S.COL___115                                                 6
 STAT SP IPHASW D HRMM SECON CODA AMPLIT PERI AZIMU VELO SNR AR TRES W  DIS CAZ7
 BAR2 SZ EP   1   1750 48.05                             169    -0.1 7   26 213 
 BAR2 SZ ES   1   1751  3.04                             169    -0.1 7   26 213 
 BAR2 SZ I        1751  4.53        63.0 0.28                            26 213 
 BTL  SZ EP       1750 48.24                             169     0.110   28 301 
 GIR2 SZ EP   1   1750 48.15                             165    -0.1 7   35 334 
 BRR  HZ EP       1750 49.95                             149    -0.310   81 296 
 BRR  HZ I        1750 50.32        52.4 0.11                            81 296 
 BRR  HN ES   1   1751  7.20                             149     0.3 7   81 296 
 RUS  HZ EP   1   1750 52.21                             143     0.0 7   99 182 
 RUS  HN ES   1   1751 10.64                             143     0.3 7   99 182 
 RUS  HZ I        1751 11.84        17.5 0.34                            99 182 
 BRI  SZ EP   1   1750 52.60                             141     0.3 7  106  15 
 BRI  SZ I        1750 53.46        18.1 0.09                           106  15 
 GRA  SZ EP       1750 53.92                             136     0.210  124  13 
 GRA  SZ I        1750 55.40        31.2 0.27                           124  13 
 GRA  SZ ES   2   1751 12.48                             136    -0.5 5  124  13 
 OCA  SZ EP   1   1750 56.56                             128    -0.6 7  163 350 
 NOR  SN ES   1   1751 32.28                             117    -1.3 6  242 236 
 HEL  HZ EP   1   1751 10.45                             113     0.5 6  282 257 
 HEL  HN ES   1   1751 42.90                             113     0.8 6  282 257 
 GUY  SZ EP   1   1751 13.82                             111     0.3 5  311 236 
 GUY  SZ I        1751 55.01        11.7 0.51                           311 236 
 PRA  HZ EP   1   1751 22.70                             106    -0.1 4  396 211 
 PRA  HN ES   1   1752  4.76                             106     0.0 4  396 211 
 PRA  HZ I        1752  8.80        21.7 0.33                           396 211 
                                                                                
