 2012  5 1 1041  0.3 L   6.787 -73.180148.0  RSN  6 0.4 1.4LRSN                1
 GAP=133        0.97       6.5     5.4 10.6  0.1235E+01  0.3623E+01  0.3305E+01E
 Epicentro: LOS SANTOS - SANTANDER                                             3
 ACTION:UP  12-07-05 12:01 OP:pat  STATUS:               ID:20120501104100 L   I
 2012-05-01-1040-00M.COL___189                                                 6
 STAT SP IPHASW D HRMM SECON CODA AMPLIT PERI AZIMU VELO SNR AR TRES W  DIS CAZ7
 BAR2 SZ EP       1041 20.16                             171     0.010   22 181 
 BAR2 SZ I        1041 36.35         7.6 0.04                            22 181 
 BRR  HZ EP       1041 21.87                             154     0.410   69 301 
 BRR  HN ES   1   1041 38.79                             154     0.7 7   69 301 
 BRR  HZ I        1041 39.67         8.6 0.12                            69 301 
 PAM  SZ EP       1041 23.03                             150     0.110   81  41 
 PAM  SN ES   1   1041 39.94                             150    -0.7 7   81  41 
 RUS  HZ EP   1   1041 24.14                             145     0.0 7  100 174 
 RUS  HN ES   1   1041 42.81                             145     0.0 7  100 174 
 RUS  HZ I        1041 44.64         2.6 0.37                           100 174 
 PTB  HZ EP   1   1041 26.68                             133    -0.4 7  144 259 
 PTB  HN ES   1   1041 47.56                             133    -0.4 7  144 259 
 PTB  HZ I        1041 50.71         2.0 0.14                           144 259 
 ZAR  HN ES   1   1041 57.41                             123    -0.3 6  201 293 
 ZAR  HZ I        1042  4.59         2.7 0.24                           201 293 
                                                                                
