 2012  3 1 1759  8.3 L   6.698 -73.541111.7  RSN  5 0.4 1.9LRSN                1
 GAP=110        0.86       5.7     4.8  8.7  0.2465E+01  0.5772E+00  0.2872E+01E
 ACTION:UP  12-03-31 23:16 OP:EP   STATUS:               ID:20120301175908 L   I
 2012-03-01-1756-59S.COL___194                                                 6
 STAT SP IPHASW D HRMM SECON CODA AMPLIT PERI AZIMU VELO SNR AR TRES W  DIS CAZ7
 BAR2 SZ EP   1   1759 24.72                             158     0.2 7   41 106 
 BAR2 SZ ES   1   1759 36.68                             158    -0.4 7   41 106 
 BAR2 SZ I        1759 37.80        45.6 0.12                            41 106 
 BRR  HZ EP   1   1759 24.77                             154     0.3 7   49 337 
 BRR  HE ES   1   1759 37.63                             154     0.5 7   49 337 
 BRR  HZ I        1759 38.38        27.1 0.16                            49 337 
 RUS  HZ EP   1   1759 29.41                             135     0.4 7  102 150 
 RUS  HN ES   1   1759 45.26                             135     0.1 7  102 150 
 RUS  HZ I        1759 47.06         8.1 0.23                           102 150 
 PTB  HZ EP   1   1759 28.45                             134     0.1 7  103 260 
 PTB  HN ES   1   1759 43.63                             134    -0.5 7  103 260 
 PAM  SZ EP   1   1759 29.61                             130    -0.7 7  117  53 
 PAM  SE ES   2   1759 47.59                             130     0.1 5  117  53 
                                                                                
