 2013  5 1 1527 26.9 L   6.793 -73.165136.0  RSN  8 0.5 1.5LRSN                1
 GAP=134        1.19       4.9     5.2  9.0 -0.3082E+01  0.1576E+02 -0.2866E+01E
 Epicentro: LOS SANTOS - SANTANDER                                             3
 ACTION:UPD 13-06-20 09:47 OP:ep   STATUS:               ID:20130501152726 L   I
 2013-05-01-1520-00M.COL___253                                                 6
 STAT SP IPHASW D HRMM SECON CODA AMPLIT PERI AZIMU VELO AIN AR TRES W  DIS CAZ7
 BAR2 SZ EP   1   1527 45.11                             170   -0.18 7 22.3 185 
 BAR2 SZ ES       1527 59.04                             170   -0.6310 22.3 185 
 BAR2 SZ I        1528  1.93         8.0 0.24            172           22.3 185 
 BRR  HZ EP       1527 47.30                             151    0.4310 69.7 300 
 BRR  HN ES   1   1528  3.56                             151    1.08 7 69.7 300 
 BRR  HZ I        1528  7.09        13.2 0.34            153           69.7 300 
 PAM  SZ EP       1527 48.43                             148    0.2610 79.3  40 
 PAM  SE ES       1528  4.44                             148   -0.3510 79.3  40 
 PAM  SZ I        1528  7.39         3.0 0.45            152           79.3  40 
 RUS  HZ EP       1527 49.95                             141    0.3310  100 175 
 RUS  HN ES       1528  7.69                             141    0.3210  100 175 
 RUS  HZ I        1528  9.71         4.0 0.28            146            100 175 
 PTB  HZ EP       1527 52.14                             130   -0.70 9  146 259 
 PTB  HN ES       1528 12.60                             130   -0.50 9  146 259 
 PTB  HZ I        1528 15.73         4.3 0.11            133            146 259 
 ZAR  HN ES   1   1528 23.86                             120    0.67 6  202 293 
 NOR  HE ES       1528 29.13                             116    0.07 8  233 234 
 SML  HN ES   1   1528 30.69                             115   -0.38 6  243 336 
                                                                                
