 2015  1 1 1242 30.9 L   6.985 -73.540108.6  RSN  5 0.4 1.4LRSN                1
 GAP=154        0.93       4.4     4.4  6.9  0.2828E+01  0.6501E+01 -0.1182E+02E
 Epicentro: SAN VICENTE DE CHUCURI - SANTANDER                                 3
 ACTION:UPD 15-03-02 15:35 OP:nd   STATUS:               ID:20150101124230 L   I
 OLDACT:UP  15-01-01 23:27 OP:cam  STATUS:               ID:20150101123813     3
 OLDACT:REG 15-01-01 22:10 OP:cam  STATUS:               ID:20150101123813     3
 2015-01-01-1238-13M.COL___280                                                 6
 STAT SP IPHASW D HRMM SECON CODA AMPLIT PERI AZIMU VELO AIN AR TRES W  DIS CAZ7
 BRR  HZ IP     C 1242 45.87                             167    0.1010 23.3 306 
 BRR  HN ES       1242 57.52                             167    0.1910 23.3 306 
 BRR  HZ I        1242 58.21         6.0 0.12            163           23.3 306 
 BAR2 EZ EP       1242 48.23                             150    0.5010 58.7 138 
 BAR2 EZ ES       1243  0.52                             150   -0.3010 58.7 138 
 BAR2 EZ I        1243  1.99         9.9 0.46            154           58.7 138 
 PTB  HZ EP       1242 51.60                             130   -0.1010  113 244 
 PTB  HN ES       1243  7.33                             130   -0.5610  113 244 
 PTB  HZ I        1243 12.39         1.9 0.20            130            113 244 
 ZAR  HZ EP       1242 56.25                             120    0.22 9  156 291 
 ZAR  HN ES       1243 16.14                             120    0.55 9  156 291 
 ZAR  HZ I        1243 19.81         6.2 0.44            120            156 291 
 SML  HZ EP       1243  1.55                             112   -0.30 8  209 344 
 SML  HN ES       1243 25.53                             112   -0.42 8  209 344 
 SML  HZ I        1243 29.36         5.0 0.20            113            209 344 
                                                                                
