 2017  3 1 1553 12.6 L   5.746 -73.917103.4  RSN 10 0.4 1.8LRSN                1
 GAP= 91        1.04       2.3     3.2  7.2 -0.1536E+01  0.3463E+01  0.1485E+00E
 Epicentro: ALBANIA - SANTANDER                                                3
 ACTION:UPD 17-05-25 18:34 OP:jn   STATUS:               ID:20170301155312 L   I
 OLDACT:REG 17-03-01 20:03 OP:lv   STATUS:               ID:20170301154744     3
 2017-03-01-1548-00M.COL___377                                                 6
 STAT SP IPHASW D HRMM SECON CODA AMPLIT PERI AZIMU VELO AIN AR TRES W  DIS CAZ7
 RUS  HZ EP       1553 31.80                             135   -0.0910 93.7  80 
 RUS  HN ES       1553 46.60                             135   -0.3210 93.7  80 
 PTB  HZ EP   4   1553 31.38                             130   -0.98 0  106 326 
 PTB  HN ES       1553 48.51                             130    0.7610  106 326 
 PTB  HZ I        1553 50.36        12.7 0.14            135            106 326 
 NOR  HZ EP       1553 32.21                             130   -0.3210  107 259 
 NOR  HN ES       1553 47.54                             130   -0.5210  107 259 
 NOR  HZ I        1553 50.22        14.3 0.14            132            107 259 
 ROSC BZ EP   4   1553 34.59                             130    1.39 0  110 204 
 ROSC BN ES       1553 49.40                             130    0.1410  110 204 
 ROSC BZ I        1553 53.46        15.2 0.35            132            110 204 
 BAR2 EZ EP       1553 34.37                             126    0.0010  124  41 
 BAR2 EZ ES       1553 51.71                             126    0.3810  124  41 
 BAR2 EZ I        1553 52.95        19.8 0.38            131            124  41 
 CHI  HZ EP       1553 34.64                             126   -0.0910  125 171 
 CHI  HE ES       1553 52.20                             126    0.2310  125 171 
 CHI  HZ I        1553 58.17         3.9 0.33            128            125 171 
 BRR  HZ EP       1553 36.88                             119   -0.09 9  152   9 
 BRR  HN ES       1553 55.54                             119   -0.42 9  152   9 
 ZAR  HZ EP       1553 45.20                             109    0.74 8  219 332 
 ZAR  HN ES       1554  8.83                             109   -0.47 8  219 332 
 ZAR  HZ I        1554 10.23        10.4 0.26            113            219 332 
 PRA  HZ EP       1553 47.28                             106   -0.68 8  249 206 
 PRA  HN ES       1554 15.96                             106    0.42 8  249 206 
 PRA  HZ I        1554 19.71         4.1 0.21            109            249 206 
 ORTC HZ EP       1553 48.60                             106    0.42 8  251 216 
 ORTC HN ES   4   1554 17.27                             106    1.35 0  251 216 
 ORTC HZ I        1554 21.10         4.9 0.31            109            251 216 
 SJC  HZ EP   4   1554 12.91                              94   -2.78 0  480 343 
 SJC  HN ES   4   1554 57.36                              94   -7.52 0  480 343 
                                                                                
