 2016  9 1 1036 50.1 L   6.731 -73.178148.4  RSN  5 0.2 1.5LRSN                1
 GAP=228        0.63       4.8     4.4  4.6  0.1324E+02  0.2828E+01 -0.1722E+01E
 Epicentro: VILLANUEVA - SANTANDER                                             3
 ACTION:UPD 17-08-17 21:05 OP:lp   STATUS:               ID:20160901103650 L   I
 OLDACT:UP  16-09-01 23:44 OP:edw  STATUS:               ID:20160901102742     3
 OLDACT:UP  16-09-01 23:43 OP:edw  STATUS:               ID:20160901102742     3
 OLDACT:REG 16-09-01 19:58 OP:edw  STATUS:               ID:20160901102742     3
 2016-09-01-1028-00M.COL___358                                                 6
 STAT SP IPHASW D HRMM SECON CODA AMPLIT PERI AZIMU VELO AIN AR TRES W  DIS CAZ7
 BAR2 EZ EP       1037  9.65                             174   -0.2810 15.3 182 
 BAR2 EZ ES       1037 25.17                             174   -0.2110 15.3 182 
 BAR2 EZ I        1037 26.73        14.5 0.31            174           15.3 182 
 BRR  HZ EP       1037 11.52                             153   -0.0810 72.2 305 
 BRR  HN ES       1037 28.58                             153    0.2110 72.2 305 
 RUS  HZ EP       1037 13.64                             146    0.0210 93.3 174 
 RUS  HN ES       1037 32.30                             146    0.3510 93.3 174 
 RUS  HZ I        1037 33.52         4.6 0.30            147           93.3 174 
 PTB  HZ EP       1037 16.69                             134   -0.18 9  143 262 
 PTB  HN ES       1037 37.48                             134   -0.26 9  143 262 
 PTB  HZ I        1037 38.55         2.8 0.17            134            143 262 
 ZAR  HZ EP       1037 23.09                             123    0.38 9  204 295 
 ZAR  HN ES       1037 48.25                             123    0.12 9  204 295 
 ZAR  HZ I        1037 52.15         2.2 0.10            123            204 295 
                                                                                
