 2011  4 1 1627 45.1 L   6.763 -73.156151.2  RSN 30 0.5 4.6LRSN                1
 GAP=114        1.01       3.3     4.7  5.6 -0.3008E+01  0.8659E+01  0.6513E+01E
 Epicentro: LOS SANTOS - SANTANDER                                             3
 Evento Sentido                                                                2
 Reportado como Sentido:                                                       3
 BUCARAMANGA, PIEDECUESTA, BARRANCABERMEJA, SAN GIL, FLORIDABLANCA, LEBRIJA,   3
 (SANTANDER), MEDELLIN, ENVIGADO (ANTIOQUIA), BOGOTA, SAMANA, MANIZALES(CALDAS)3
 IBAGUE, FRESNO (TOLIMA)                                                       3
 ACTION:UP  11-06-22 15:27 OP:REBC STATUS:               ID:20110401162745 L   I
 2011-04-01-1626-08S.COL___138                                                 6
 STAT SP IPHASW D HRMM SECON CODA AMPLIT PERI AZIMU VELO SNR AR TRES W  DIS CAZ7
 BAR2 SZ IP       1628  4.96                             172    -0.410   19 189 
 BAR2 SZ ES   1   1628 20.43                             172    -0.7 7   19 189 
 BAR2 SZ I        1628 23.74     11505.7 0.88                            19 189 
 BTL  SZ IP       1628  5.45                             172     0.110   21 324 
 GIR2 SZ IP       1628  6.11                             166     0.610   35 353 
 GIR2 SZ ES   1   1628 22.06                             166     0.6 7   35 353 
 BRR  HZ IP       1628  6.99                             153     0.110   72 302 
 BRR  HZ I        1628  7.51     10711.8 0.19                            72 302 
 BRR  HN ES   1   1628 24.57                             153     0.6 7   72 302 
 PAM  SZ IP       1628  7.98                             151    -0.210   81  38 
 PAM  SN ES   1   1628 25.45                             151    -0.7 7   81  38 
 PAM  SZ I        1628 28.01      5101.7 0.48                            81  38 
 GUE  SZ EP   2   1628 10.51                             139    -0.2 5  121  12 
 GRA  SZ IP       1628 11.92                             137     0.710  130  17 
 GRA  SZ ES   1   1628 31.89                             137     0.3 7  130  17 
 GRA  SZ I        1628 33.09      5541.9 0.41                           130  17 
 OCA  SZ IP       1628 13.42                             130    -0.8 9  164 354 
 OCA  SZ ES   1   1628 36.17                             130    -0.8 7  164 354 
 OCA  SZ I        1628 44.91      6191.4 0.47                           164 354 
 YOP  SZ IP       1628 15.36                             128     0.1 9  176 152 
 YOP  SE ES   1   1628 39.49                             128     0.7 7  176 152 
 YOP  SZ I        1628 43.59      2705.9 0.78                           176 152 
 NOR  SZ EP       1628 20.71                             120    -0.1 8  231 235 
 NOR  SE ES   1   1628 48.21                             120    -0.5 6  231 235 
 CHI  HZ IP     D 1628 22.52                             119    -0.1 8  244 195 
 CHI  HE ES   1   1628 51.28                             119    -0.7 6  244 195 
 CHI  HZ I        1629  0.90      1720.9 0.36                           244 195 
 HEL  HZ EP       1628 24.97                             116    -0.4 8  270 257 
 HEL  HN ES   2   1628 57.08                             116     0.3 4  270 257 
 HEL  HZ I        1629  4.26      2679.3 0.42                           270 257 
 VIL  SZ EP       1628 28.00                             113    -0.3 7  299 192 
 VIL  SN ES   1   1629  1.87                             113    -0.1 5  299 192 
 VIL  SZ I        1629  7.98      1074.7 0.77                           299 192 
 GUY  SZ EP       1628 29.03                             114     0.1 7  300 236 
 GUY  SE ES   2   1629  2.55                             114    -0.5 4  300 236 
 GUY  SZ I        1629 10.05      3556.0 0.14                           300 236 
 RREF HZ EP       1628 31.69                             112     0.6 7  318 230 
 RREF HN ES   2   1629  7.95                             112     1.0 3  318 230 
 RREF HZ I        1629 14.63      2505.5 0.96                           318 230 
 DBB  SZ IP       1628 32.94                             110     0.2 7  339 275 
 TOL  SZ EP       1628 33.29                             110     0.1 7  340 225 
 ANIL HZ EP       1628 35.10                             110     0.4 6  354 225 
 ANIL HZ I        1629 20.34      2491.7 0.00                           354 225 
 MON  HZ IP   4 D 1628 32.23                             109    -2.3 0  355 309 
 SDV  BZ IP   4   1628 34.33                             109    -1.4 0  364  50 
 PRA  HZ EP       1628 38.02                             108    -0.3 6  388 210 
 SOL  SZ EP       1628 48.96                             104     0.6 5  474 263 
 HORQ SZ EP   3   1628 53.92                             102    -1.3 1  529 227 
 MARA HZ EP       1628 55.33                             102    -0.5 4  533 216 
 MAL  SZ EP       1628 57.90                             101     0.0 4  554 237 
 URI  HZ EP   4   1628 55.31                             101    -3.4 0  561  13 
 URI  HZ I        1629 52.95       233.9 0.52                           561  13 
 PCON HZ EP       1629  5.66                             100     0.5 3  608 216 
 POP2 HZ EP       1629  4.21                             100    -0.6 3  609 220 
 SOTA HZ EP       1629  9.22                              99     0.4 2  639 217 
 GOR  SZ EP   2   1629 13.81                              98    -0.9 1  694 233 
 GCUF HZ EP   2   1629 24.40                              97     0.0 0  769 217 
 BCIP BZ EP   3   1629 22.84                              97    -2.7 0  784 290 
                                                                                
