 2012  8 1 1706 24.7 L   6.808 -73.143146.7  RSN 27 0.5 3.6LRSN 3.9WRSN        1
 SPEC AVERAGE  MO 15.0 ST 45.5 OM  2.9 f0 2.84 R0.5563 AL 2.50 WI 27.3 MW  3.9 3
 SPEC SD       MO  0.2 ST 45.4 OM  0.5 f00.710 R0.1641 AL      WI      MW  0.1 3
 GAP= 55        0.94       3.1     3.3  4.9 -0.1443E+01  0.3911E+01  0.3136E+01E
 Epicentro: LOS SANTOS - SANTANDER                                             3
 SPEC ZAR HH Z MO 14.9 ST 26.8 OM  2.4 f0 2.81 R0.5231 AL 3.04 WI 23.0 MW  3.9 3
 SPEC ZAR HH Z T17 656 K 0.000 GD  251 VP 7.60 DE 3.00 Q0230.0 QA 0.60 VS 4.20 3
 SPEC TAM HH N MO 15.0 ST  5.0 OM  3.3 f0 1.54 R0.9545 AL 2.37 WI 24.0 MW  3.9 3
 SPEC TAM HH N T17 714 K 0.000 GD  213 VS 4.20 DE 3.00 Q0230.0 QA 0.60 VS 4.20 3
 SPEC PRA HH Z MO 15.2 ST 94.7 OM  2.4 f0 3.61 R0.4072 AL 2.63 WI 42.2 MW  4.1 3
 SPEC PRA HH Z T17 717 K 0.000 GD  419 VP 7.60 DE 3.00 Q0230.0 QA 0.60 VS 4.20 3
 SPEC ROSCBH Z MO 15.3 ST152.9 OM  2.7 f0 3.79 R0.3879 AL 4.18 WI 27.5 MW  4.1 3
 SPEC ROSCBH Z T17 7 3 K 0.000 GD  293 VP 7.60 DE 3.00 Q0230.0 QA 0.60 VS 4.20 3
 SPEC OCA HH Z MO 15.0 ST 37.4 OM  2.5 f0 3.06 R0.4804 AL 2.57 WI 22.9 MW  3.9 3
 SPEC OCA HH Z T17 651 K 0.000 GD  216 VP 7.60 DE 3.00 Q0230.0 QA 0.60 VS 4.20 3
 SPEC PTB HH Z MO 14.7 ST 11.3 OM  2.2 f0 2.62 R0.5611 AL 2.09 WI 21.8 MW  3.7 3
 SPEC PTB HH Z T17 650 K 0.000 GD  208 VP 7.60 DE 3.00 Q0230.0 QA 0.60 VS 4.20 3
 SPEC RUS HH Z MO 14.8 ST  7.8 OM  2.4 f0 2.09 R0.7033 AL 1.47 WI 18.2 MW  3.8 3
 SPEC RUS HH Z T17 647 K 0.000 GD  178 VP 7.60 DE 3.00 Q0230.0 QA 0.60 VS 4.20 3
 SPEC HEL HH Z MO 14.8 ST 16.3 OM  2.2 f0 2.59 R0.5676 AL 2.01 WI 30.8 MW  3.8 3
 SPEC HEL HH Z T17 7 4 K 0.000 GD  309 VP 7.60 DE 3.00 Q0230.0 QA 0.60 VS 4.20 3
 SPEC CHI HH N MO 15.1 ST 28.1 OM  3.3 f0 2.47 R0.5951 AL 2.58 WI 37.1 MW  4.0 3
 SPEC CHI HH N T17 731 K 0.000 GD  289 VS 4.20 DE 3.00 Q0230.0 QA 0.60 VS 4.20 3
 SPEC BRR HH N MO 15.0 ST 74.7 OM  3.4 f0 3.84 R0.3828 AL 2.04 WI 25.7 MW  3.9 3
 SPEC BRR HH N T17 7 3 K 0.000 GD  162 VS 4.20 DE 3.00 Q0230.0 QA 0.60 VS 4.20 3
 ACTION:UPD 12-09-10 11:53 OP:ep   STATUS:               ID:20120801170624 L   I
 2012-08-01-1700-00M.COL___215                                                 6
 STAT SP IPHASW D HRMM SECON CODA AMPLIT PERI AZIMU VELO AIN AR TRES W  DIS CAZ7
 BAR2 SZ IP     D 17 6 44.46                             170    0.0110 24.3 190 
 BAR2 SZ ES   1   17 6 59.43                             170   -0.43 7 24.3 190 
 BAR2 SZ I        17 7  2.13      1140.9 0.40                          24.3 190 
 BRR  HZ IP     C 17 6 46.31                             153    0.3810 71.0 298 
 BRR  HN ES   1   17 7  3.48                             153    0.99 7 71.0 298 
 BRR  HZ I        17 7  5.92       486.9 0.22                          71.0 298 
 PAM  SZ IP       17 6 47.20                             151    0.2510 76.5  40 
 PAM  SZ I        17 6 47.64       296.9 0.24                          76.5  40 
 PAM  SN ES   1   17 7  4.47                             151    0.16 7 76.5  40 
 RUS  HZ IP     C 17 6 48.25                             144   -0.3510  101 176 
 RUS  HN ES   1   17 7  6.95                             144   -0.29 7  101 176 
 RUS  HZ I        17 7  8.52       307.8 0.32                           101 176 
 PTB  HZ EP       17 6 51.06                             132   -0.72 9  148 259 
 PTB  HN ES   1   17 7 12.27                             132   -0.63 7  148 259 
 PTB  HZ I        17 7 19.50       300.1 0.42                           148 259 
 TAM  HZ IP     D 17 6 52.73                             131    0.30 9  155 105 
 TAM  HZ I        17 6 53.00       318.1 0.38                           155 105 
 TAM  HE ES   1   17 7 13.95                             131   -0.12 7  155 105 
 OCA  HZ EP       17 6 52.62                             130   -0.37 9  159 353 
 OCA  HN ES   1   17 7 15.03                             130   -0.03 7  159 353 
 OCA  HZ I        17 7 17.75       718.9 0.26                           159 353 
 YOP  SZ EP   2   17 6 55.08                             126    0.21 4  180 154 
 YOP  SE ES   3   17 7 18.39                             126   -0.01 2  180 154 
 YOP  SZ I        17 7 19.77       300.3 0.28                           180 154 
 ZAR  HZ EP       17 6 57.03                             123   -0.16 9  204 292 
 ZAR  HZ I        17 7 30.74       362.2 0.32                           204 292 
 NOR  SZ EP       17 7  0.48                             119   -0.08 8  235 234 
 NOR  SE ES   3   17 7 28.36                             119   -0.17 2  235 234 
 CHI  HZ EP       17 7  2.29                             117   -0.25 8  250 195 
 CHI  HN ES   1   17 7 32.38                             117    0.31 6  250 195 
 CHI  HZ I        17 7 38.85       217.6 0.32                           250 195 
 ROSC BZ IP     C 17 7  4.21                             117    1.25 8  254 211 
 ROSC BE ES   1   17 7 32.66                             117   -0.15 6  254 211 
 ROSC BZ I        17 7 42.28       458.3 0.35                           254 211 
 HEL  HZ EP       17 7  5.20                             115    0.19 8  273 256 
 HEL  HN ES   2   17 7 36.28                             115   -0.18 4  273 256 
 HEL  HZ I        17 7 43.12       200.3 0.36                           273 256 
 GUY  SZ EP   1   17 7  9.58                             112    0.89 5  304 235 
 GUY  SN ES   2   17 7 42.60                             112   -0.41 4  304 235 
 GUY  SZ I        17 7 55.05       350.6 0.36                           304 235 
 VIL  SZ EP       17 7  7.64                             112   -0.62 7  304 192 
 VIL  SZ I        17 7 47.56       139.3 0.56                           304 192 
 DBB  SZ IP       17 7 12.10                             110   -0.13 7  340 274 
 TOL  SZ EP       17 7 13.66                             109    0.58 7  344 225 
 ANIL HZ EP       17 7 15.82                             108    1.19 6  358 224 
 ANIL HN ES   2   17 7 52.75                             108   -0.83 3  358 224 
 ANIL HZ I        17 8  5.67       605.7 0.32                           358 224 
 SDV  BZ EP       17 7 14.07                             108   -0.60 6  360  50 
 PRA  HZ EP       17 7 17.50                             107   -0.85 6  393 210 
 PRA  HZ I        17 8  6.85       305.6 0.48                           393 210 
 SJA  SZ EP   2   17 7 20.24                             106    0.85 3  401 193 
 SJA  SZ I        17 8 10.33       259.8 0.36                           401 193 
 PAL  HZ EP   1   17 7 20.13                             106    0.16 4  406 239 
 PAL  HZ I        17 7 21.73       151.0 0.46                           406 239 
 SJC  HZ EP   3   17 7 18.60                             106   -1.61 1  409 327 
 SJC  HZ I        17 8  7.66        45.1 0.40                           409 327 
 YOT  HZ EP   1   17 7 27.29                             103   -0.57 4  473 229 
 YOT  HZ I        17 7 30.07        37.2 0.44                           473 229 
 HORQ SZ EP   2   17 7 34.56                             101   -0.69 2  533 227 
 HORQ SZ I        17 8 37.21        18.3 0.40                           533 227 
 MAL  SZ EP   1   17 7 37.80                             101   -0.07 3  558 237 
 SOTA HZ EP   2   17 7 49.85                              99    1.01 1  644 217 
                                                                                
