 2014  8 1 1320  6.6 L   6.872 -73.135143.4  RSN  6 0.3 1.8LRSN                1
 GAP=215        0.55       3.0     3.9  5.4 -0.5047E+00  0.2233E+01 -0.2630E+01E
 Epicentro: LOS SANTOS - SANTANDER                                             3
 ACTION:UPD 14-09-15 21:46 OP:nd   STATUS:               ID:20140801132006 L   I
 OLDACT:REG 14-08-01 22:56 OP:mh   STATUS:               ID:20140801131819     3
 2014-08-01-1318-19M.COL___254                                                 6
 STAT SP IPHASW D HRMM SECON CODA AMPLIT PERI AZIMU VELO AIN AR TRES W  DIS CAZ7
 BAR2 SZ EP       1320 26.31                             167    0.2110 31.4 190 
 BAR2 SZ ES   1   1320 41.32                             167   -0.02 7 31.4 190 
 PTB  HZ EP   1   1320 33.73                             131    0.13 7  151 256 
 PTB  HN ES       1320 54.63                             131   -0.07 9  151 256 
 PTB  HZ I        1320 59.58         8.0 0.31            130            151 256 
 SPBC HZ EP       1320 35.77                             127    0.22 9  170 218 
 SPBC HN ES   1   1320 57.60                             127   -0.57 7  170 218 
 SPBC HZ I        1321  2.97         6.8 0.19            129            170 218 
 ZAR  HN ES   1   1321  4.01                             122    0.30 6  202 290 
 SML  HZ EP   1   1320 41.86                             118   -0.46 6  237 334 
 SML  HN ES   1   1321 10.11                             118   -0.11 6  237 334 
 SML  HZ I        1321 20.22         5.7 0.22            118            237 334 
 NOR  HZ EP   1   1320 42.48                             117   -0.29 6  240 233 
 NOR  HN ES   1   1321 11.19                             117    0.18 6  240 233 
 NOR  HZ I        1321 15.16         4.8 0.06            118            240 233 
                                                                                
