 2014  8 1 1532 37.8 L   6.794 -73.158141.5  RSN  8 0.4 2.1LRSN                1
 GAP=200        1.07       4.2     6.6  6.7  0.4860E+01  0.5486E+01 -0.3772E+01E
 Epicentro: LOS SANTOS - SANTANDER                                             3
 ACTION:UPD 14-09-15 21:46 OP:nd   STATUS:               ID:20140801153237 L   I
 OLDACT:UP  14-08-02 01:45 OP:mh   STATUS:               ID:20140801152815     3
 OLDACT:UP  14-08-02 01:44 OP:mh   STATUS:               ID:20140801152815     3
 OLDACT:REG 14-08-01 23:13 OP:mh   STATUS:               ID:20140801152815     3
 2014-08-01-1528-15M.COL___254                                                 6
 STAT SP IPHASW D HRMM SECON CODA AMPLIT PERI AZIMU VELO AIN AR TRES W  DIS CAZ7
 BAR2 SZ EP       1532 57.12                             171    0.2010 22.5 187 
 BAR2 SZ ES       1533 12.42                             171    0.6110 22.5 187 
 BAR2 SZ I        1533 14.28        22.8 0.35            167           22.5 187 
 BRR  HZ EP       1532 58.92                             152    0.4610 70.3 300 
 BRR  HN ES       1533 14.72                             152    0.1710 70.3 300 
 BRR  HZ I        1533 21.36        14.4 0.32            147           70.3 300 
 RUS  HZ EP       1533  1.00                             143   -0.1110  100 175 
 RUS  HN ES       1533 18.43                             143   -0.8510  100 175 
 PTB  HZ EP       1533  3.98                             131   -0.32 9  146 259 
 PTB  HN ES       1533 24.73                             131   -0.23 9  146 259 
 PTB  HZ I        1533 32.54        17.5 0.11            130            146 259 
 SPBC HZ EP       1533  5.96                             128    0.10 9  162 219 
 SPBC HN ES       1533 27.82                             128    0.09 9  162 219 
 SML  HZ EP       1533 14.33                             117    0.12 8  244 336 
 SML  HN ES       1533 41.83                             117   -0.77 8  244 336 
 SML  HZ I        1533 46.88        17.6 0.17            118            244 336 
 GUY2CHZ EP   4   1533 22.97                             112    1.91 0  300 235 
 GUY2CHN ES   4   1533 58.88                             112    4.10 0  300 235 
 GUY2CHZ I        1534  2.34         5.3 0.37                           300 235 
 RREF HZ EP       1533 24.13                             110    0.52 7  320 229 
 RREF HN ES   4   1534  2.37                             110    3.05 0  320 229 
 RREF HZ I        1534  5.85         4.8 0.08            111            320 229 
                                                                                
