 2012  5 1 1805 21.4 L   6.067 -73.670115.7  RSN  5 0.3 1.4LRSN                1
 GAP=195        0.70       6.1     4.9  8.8  0.1582E+02  0.2007E+02  0.8727E+01E
 Epicentro: CHIPATA - SANTANDER                                                3
 ACTION:UP  12-07-05 12:01 OP:pat  STATUS:               ID:20120501180521 L   I
 2012-05-01-1800-00M.COL___189                                                 6
 STAT SP IPHASW D HRMM SECON CODA AMPLIT PERI AZIMU VELO SNR AR TRES W  DIS CAZ7
 RUS  HZ EP   1   18 5 40.09                             148     0.2 7   68 107 
 RUS  HN ES   1   18 5 53.86                             148    -0.4 7   68 107 
 RUS  HZ I        18 5 57.57         4.2 0.67                            68 107 
 BAR2 SZ EP   1   18 5 40.37                             143     0.1 7   79  43 
 BAR2 SZ ES   1   18 5 55.16                             143     0.1 7   79  43 
 BAR2 SZ I        18 5 56.86         8.0 0.63                            79  43 
 PTB  HZ EP   1   18 5 41.72                             136     0.0 7  102 301 
 PTB  HN ES   1   18 5 57.99                             136     0.3 7  102 301 
 PTB  HZ I        18 6  0.93         3.9 0.07                           102 301 
 BRR  HZ I        18 5 59.40         8.9 0.47                           115 358 
 BRR  HE ES   1   18 5 59.86                             132     0.1 7  115 358 
 ZAR  HZ EP   1   18 5 52.35                             115     0.1 6  205 320 
 ZAR  HN ES   1   18 6 15.58                             115    -0.7 6  205 320 
                                                                                
