 2011  7 1 1755 17.7 L   7.480 -73.584114.0  RSN  5 0.5 1.4LRSN                1
 GAP=223        1.02       9.9    22.8 34.1 -0.2647E+02 -0.8783E+02  0.2013E+03E
 Epicentro: SABANA DE TORRES - SANTANDER                                       3
 ACTION:UPD 12-07-25 13:57 OP:epov STATUS:               ID:20110701175517 L   I
 2011-07-01-1750-33S.COL___140                                                 6
 STAT SP IPHASW D HRMM SECON CODA AMPLIT PERI AZIMU VELO AIN AR TRES W  DIS CAZ7
 OCA  SZ EP       1755 37.19                             140    0.1410 88.9  19 
 OCA  SZ ES   2   1755 52.04                             140   -0.11 5 88.9  19 
 OCA  SZ I        1755 54.28         8.1 0.29                          88.9  19 
 BRI  SZ EP       1755 37.79                             139    0.5610 90.7  73 
 GRA  SZ EP       1755 37.05                             137   -0.6710 97.0  62 
 GRA  SZ I        1755 56.88         4.1 0.29                          97.0  62 
 PAM  SZ EP   3   1755 39.78                             137    1.45 2 98.8  99 
 BAR2 SZ EP       1755 38.66                             134   -0.0910  108 156 
                                                                                
