 2015  4 1 1345 36.2 L   6.762 -73.140148.3  RSN  7 0.4 1.6LRSN                1
 GAP=139        1.00       5.1     4.8  7.1 -0.8666E+01  0.8915E+01  0.5326E+01E
 Epicentro: LOS SANTOS - SANTANDER                                             3
 ACTION:UPD 15-06-03 16:51 OP:cam  STATUS:               ID:20150401134536 L   I
 OLDACT:REG 15-04-01 20:24 OP:fm   STATUS:               ID:20150401133750     3
 2015-04-01-1337-50M.COL___271                                                 6
 STAT SP IPHASW D HRMM SECON CODA AMPLIT PERI AZIMU VELO AIN AR TRES W  DIS CAZ7
 BAR2 EZ EP       1345 55.39                             172   -0.6210 19.4 194 
 BAR2 EZ ES   1   1346 12.20                             172    0.70 7 19.4 194 
 BAR2 EZ I        1346 12.69         6.7 0.36            170           19.4 194 
 BRR  HZ EP       1345 57.47                             152   -0.2510 73.8 301 
 BRR  HN ES       1346 14.96                             152    0.4210 73.8 301 
 BRR  HZ I        1346 20.69         7.2 0.26            150           73.8 301 
 PAM  SZ EP       1345 59.20                             150    0.4010 80.3  37 
 PAM  SN ES       1346 16.08                             150   -0.3910 80.3  37 
 PAM  SZ I        1346 18.50         9.9 0.60            155           80.3  37 
 RUS  HZ EP   1   1346  0.60                             145    0.75 7 96.4 176 
 RUS  HN ES       1346 18.13                             145   -0.2110 96.4 176 
 RUS  HZ I        1346 20.73         3.8 0.20            149           96.4 176 
 PTB  HZ EP       1346  3.44                             133    0.13 9  148 260 
 PTB  HE ES       1346 24.17                             133   -0.33 9  148 260 
 PTB  HZ I        1346 30.31         5.6 0.26            133            148 260 
 NOR  HZ EP   1   1346 11.68                             119   -0.15 6  233 235 
 NOR  HE ES       1346 39.31                             119   -0.34 8  233 235 
 NOR  HZ I        1346 47.17         4.1 0.28            121            233 235 
 GUY2CHZ EP   1   1346 19.85                             113    0.18 5  299 235 
 GUY2CHN ES       1346 54.06                             113    0.45 7  299 235 
 GUY2CHZ I        1347  3.44         2.8 0.38                           299 235 
                                                                                
