 2011  6 1 1343 19.0 L   6.775 -73.104148.5  RSN  6 0.3 1.9LRSN                1
 GAP=164        0.79       4.7     6.0  7.5 -0.7494E+01  0.9383E+01 -0.2605E+00E
 Epicentro: LOS SANTOS - SANTANDER                                             3
 ACTION:UP  11-07-14 19:02 OP:ep   STATUS:               ID:20110601134319 L   I
 2011-06-01-1341-27S.COL___115                                                 6
 STAT SP IPHASW D HRMM SECON CODA AMPLIT PERI AZIMU VELO SNR AR TRES W  DIS CAZ7
 BAR2 SZ EP   1   1343 38.63                             171    -0.3 7   22 203 
 BAR2 SZ ES   1   1343 53.78                             171    -0.7 7   22 203 
 BAR2 SZ I        1343 55.48        17.8 0.20                            22 203 
 BRR  HZ EP   1   1343 40.64                             151    -0.1 7   77 299 
 BRR  HZ I        1343 52.25        25.5 0.50                            77 299 
 BRR  HN ES   1   1343 58.09                             151     0.4 7   77 299 
 RUS  HZ EP   1   1343 42.87                             145     0.1 7   98 179 
 RUS  HZ I        1343 59.52        77.4 0.63                            98 179 
 RUS  HN ES   1   1344  1.92                             145     0.6 7   98 179 
 GRA  SZ EP   1   1343 44.50                             137    -0.1 7  127  15 
 GRA  SZ ES   1   1344  4.76                             137     0.2 7  127  15 
 GRA  SZ I        1344  5.71         5.8 0.32                           127  15 
 NOR  SZ EP   1   1343 55.16                             119     0.0 6  237 236 
 NOR  SN ES   2   1344 22.86                             119    -0.4 4  237 236 
 NOR  SZ I        1344 26.22         0.9 0.26                           237 236 
 HEL  HN ES   1   1344 31.63                             115     0.1 6  276 257 
                                                                                
