 2016  2 1 1559 17.6 L   6.847 -73.204138.0  RSN  5 0.2 1.5LRSN                1
 GAP=149        0.59       3.4     3.6  5.1 -0.6239E+01  0.7509E+01 -0.3084E+01E
 Epicentro: ZAPATOCA - SANTANDER                                               3
 ACTION:UPD 16-03-04 21:22 OP:rebc STATUS:               ID:20160201155917 L   I
 OLDACT:REG 16-02-01 22:12 OP:cara STATUS:               ID:20160201155759     3
 2016-02-01-1557-59S.COL___223                                                 6
 STAT SP IPHASW D HRMM SECON CODA AMPLIT PERI AZIMU VELO AIN AR TRES W  DIS CAZ7
 BAR2 EZ EP       1559 36.25                             168   -0.1410 28.3 175 
 BAR2 EZ ES       1559 50.70                             168   -0.3610 28.3 175 
 BAR2 EZ I        1559 53.28         6.5 0.74            168           28.3 175 
 PAM  EZ EP       1559 39.15                             149    0.1510 77.9  46 
 PAM  EE ES       1559 55.83                             149    0.1210 77.9  46 
 PAM  EZ I        1559 58.35         3.6 0.40            153           77.9  46 
 RUS  HN ES       1559 59.51                             140    0.2210  106 173 
 PTB  HZ EP       1559 43.14                             131   -0.30 9  143 256 
 PTB  HN ES       16 0  3.91                             131    0.29 9  143 256 
 PTB  HZ I        16 0  6.55         3.6 0.28            133            143 256 
 SPBC HZ IP       1559 45.52                             127    0.01 9  163 216 
 SPBC HE ES       16 0  7.31                             127    0.01 9  163 216 
 SPBC HZ I        16 0 13.45         5.9 0.18            129            163 216 
                                                                                
