 2011  2 1 1729 40.2 L   6.796 -73.120147.4  RSN  6 0.3 1.8LRSN                1
 GAP=162        0.61       4.5     9.1  7.2 -0.1585E+02  0.3386E+02 -0.7801E+01E
 Epicentro: LOS SANTOS - SANTANDER                                             3
 ACTION:UP  11-03-28 15:05 OP:jfem STATUS:               ID:20110201172940 L   I
 2011-02-01-1729-20S.COL___135                                                 6
 STAT SP IPHASW D HRMM SECON CODA AMPLIT PERI AZIMU VELO SNR AR TRES W  DIS CAZ7
 BAR2 SZ EP       1730  0.02                             170     0.010   24 197 
 BAR2 SZ ES   2   1730 15.93                             170     0.4 5   24 197 
 BAR2 SZ I        1730 18.30        14.5 0.19                            24 197 
 RUS  HZ EP   2   1730  3.77                             144    -0.3 5  100 178 
 RUS  HN ES       1730 22.64                             144     0.010  100 178 
 RUS  HZ I        1730 24.00         7.6 0.64                           100 178 
 GRA  SZ EP   2   1730  5.84                             137     0.3 5  125  16 
 GRA  SZ ES   2   1730 24.91                             137    -0.4 5  125  16 
 GRA  SZ I        1730 30.99         7.4 0.43                           125  16 
 NOR  SZ EP   2   1730 15.66                             119    -0.6 4  237 235 
 NOR  SN ES   2   1730 44.00                             119    -0.4 4  237 235 
 CHI  HZ EP       1730 18.11                             117     0.1 8  249 196 
 CHI  HZ I        1730 55.72         4.2 0.44                           249 196 
 HEL  HZ EP   2   1730 21.61                             115     0.8 4  275 256 
 HEL  HZ I        1730 57.90         5.1 0.45                           275 256 
                                                                                
