 2013  5 1 1100  2.5 L   6.618 -73.644102.6  RSN  7 0.4 1.6LRSN                1
 GAP= 88        0.96       3.9     3.3  7.0 -0.1986E+01  0.2494E+01  0.6182E+01E
 Epicentro: EL CARMEN DE CHUCURI - SANTANDER                                   3
 ACTION:UPD 13-06-20 09:47 OP:ep   STATUS:               ID:20130501110002 L   I
 2013-05-01-1100-00M.COL___253                                                 6
 STAT SP IPHASW D HRMM SECON CODA AMPLIT PERI AZIMU VELO AIN AR TRES W  DIS CAZ7
 BAR2 SZ EP       11 0 18.43                             152    0.2310 51.1  93 
 BAR2 SZ ES       11 0 30.71                             152    0.2710 51.1  93 
 BRR  HZ EP       11 0 18.11                             150    0.0510 54.6 352 
 BRR  HE ES       11 0 30.77                             150    0.5710 54.6 352 
 GIR2 SZ EP       11 0 19.16                             142   -0.2410 71.2  44 
 GIR2 SZ ES       11 0 31.72                             142   -0.8610 71.2  44 
 GIR2 SZ I        11 0 33.15        20.5 0.62            145           71.2  44 
 PTB  HZ EP       11 0 20.62                             135   -0.1410 90.3 265 
 PTB  HN ES       11 0 34.95                             135   -0.0410 90.3 265 
 PTB  HZ I        11 0 36.51        15.9 0.16            137           90.3 265 
 RUS  HZ EP       11 0 22.78                             132    0.3910  101 142 
 RUS  HN ES       11 0 37.72                             132   -0.1810  101 142 
 RUS  HZ I        11 0 40.38         4.5 0.20            133            101 142 
 PAM  SZ EP       11 0 25.41                             124    0.1310  131  53 
 PAM  SN ES   4   11 0 41.21                             124   -1.83 0  131  53 
 PAM  SZ I        11 0 43.16         6.9 0.22            126            131  53 
 NOR  HE ES       11 0 50.85                             114   -0.22 9  179 229 
                                                                                
