 2011 10 1 1214 15.4 L   6.768 -73.078139.7  RSN  4 0.1 1.4LRSN                1
 GAP=201        0.30       4.2     8.1  4.9  0.2574E+02 -0.1574E+02 -0.1025E+02E
 Epicentro: LOS SANTOS - SANTANDER                                             3
 ACTION:UPD 12-07-13 16:01 OP:ep   STATUS:               ID:20111001121415 L   I
 2011-10-01-1200-00M.COL___169                                                 6
 STAT SP IPHASW D HRMM SECON CODA AMPLIT PERI AZIMU VELO AIN AR TRES W  DIS CAZ7
 BAR2 SZ EP       1214 34.17                             170   -0.0910 22.6 211 
 BAR2 SZ I        1214 34.73         5.6 0.38                          22.6 211 
 BAR2 SZ ES   2   1214 48.97                             170   -0.02 5 22.6 211 
 GIR2 SZ EP   1   1214 34.59                             164    0.10 7 36.7 340 
 BRR  HZ EP       1214 36.42                             149    0.0410 79.5 298 
 BRR  HZ I        1214 39.67        11.8 0.37                          79.5 298 
 BRR  HN ES   2   1214 52.69                             149   -0.07 5 79.5 298 
 RUS  HZ EP   1   1214 38.23                             144   -0.03 7 96.8 180 
 RUS  HZ I        1214 39.29         1.9 0.16                          96.8 180 
 RUS  HE ES   1   1214 56.17                             144    0.07 7 96.8 180 
                                                                                
