 2015  7 1 1821 47.7 L   6.835 -73.103143.1  RSN 14 0.4 2.5LRSN                1
 GAP=168        0.93       2.4     4.2  7.0  0.2428E+00  0.6767E+01  0.2467E+01E
 Epicentro: LOS SANTOS - SANTANDER                                             3
 ACTION:UPD 15-09-08 21:46 OP:cam  STATUS:               ID:20150701182147 L   I
 OLDACT:UP  15-07-02 01:10 OP:mh   STATUS:               ID:20150701181747     3
 OLDACT:UP  15-07-02 01:09 OP:mh   STATUS:               ID:20150701181747     3
 OLDACT:UP  15-07-02 01:08 OP:mh   STATUS:               ID:20150701181747     3
 OLDACT:UP  15-07-02 01:06 OP:mh   STATUS:               ID:20150701181747     3
 OLDACT:UP  15-07-02 01:06 OP:mh   STATUS:               ID:20150701181747     3
 OLDACT:UP  15-07-02 01:03 OP:mh   STATUS:               ID:20150701181747     3
 OLDACT:UP  15-07-02 00:56 OP:mh   STATUS:               ID:20150701181747     3
 OLDACT:UP  15-07-02 00:56 OP:mh   STATUS:               ID:20150701181747     3
 OLDACT:REG 15-07-01 21:53 OP:mh   STATUS:               ID:20150701181747     3
 2015-07-01-1817-47M.COL___319                                                 6
 STAT SP IPHASW D HRMM SECON CODA AMPLIT PERI AZIMU VELO AIN AR TRES W  DIS CAZ7
 BAR2 EZ EP       1822  7.65                             168    0.5710 28.2 198 
 BAR2 EZ I        1822 25.05        56.3 0.26            171           28.2 198 
 RUS  HZ EP       1822 11.93                             142    0.5110  104 179 
 RUS  HN ES       1822 29.63                             142   -0.3210  104 179 
 RUS  HZ I        1822 31.68        18.9 0.44            148            104 179 
 OCA  HZ EP       1822 15.59                             130    0.12 9  157 351 
 OCA  HN ES       1822 37.08                             130   -0.07 9  157 351 
 OCA  HZ I        1822 45.72        61.9 0.22            134            157 351 
 ZAR  HZ EP       1822 20.17                             121   -0.07 8  207 291 
 ZAR  HN ES       1822 45.65                             121   -0.00 8  207 291 
 ZAR  HZ I        1822 50.53        29.5 0.28            126            207 291 
 NOR  HZ EP   1   1822 23.73                             117   -0.16 6  241 234 
 NOR  HN ES       1822 52.43                             117    0.28 8  241 234 
 NOR  HZ I        1822 58.86        17.5 0.24            122            241 234 
 SML  HZ EP       1822 23.56                             117   -0.42 8  242 334 
 SML  HN ES       1822 52.26                             117   -0.05 8  242 334 
 SML  HZ I        1823  0.59        31.9 0.24            121            242 334 
 CHI  HZ EP       1822 25.08                             116   -0.68 8  254 196 
 CHI  HN ES       1822 55.21                             116   -0.26 8  254 196 
 CHI  HZ I        1822 59.85        18.9 0.50            121            254 196 
 ROSC BZ EP       1822 27.07                             115    0.80 8  258 211 
 ROSC BN ES   4   1822 57.58                             115    1.20 0  258 211 
 ROSC BZ I        1823  1.54        40.3 0.40            120            258 211 
 HEL  HZ EP       1822 28.65                             114    0.30 7  278 255 
 HEL  HN ES       1822 59.13                             114   -0.96 7  278 255 
 HEL  HZ I        1823  5.62        13.6 0.38            118            278 255 
 URE  HZ EP   4   1822 31.07                             113    2.13 0  287 291 
 URE  HN ES   4   1823  1.44                             113    0.31 0  287 291 
 GUY2CHZ EP       1822 31.94                             111    0.11 7  307 235 
 GUY2CHN ES   4   1823  8.47                             111    2.18 0  307 235 
 GUY2CHZ I        1823 13.50        14.2 0.56                           307 235 
 PTGC HZ EP       1822 30.77                             111   -0.85 7  311 160 
 PTGC HN ES   4   1823  3.93                             111   -1.98 0  311 160 
 TOL  SZ EP   1   1822 37.12                             108    0.61 5  350 225 
 TOL  SN ES       1823 14.91                             108    0.30 6  350 225 
 TOL  SZ I        1823 21.25         9.5 0.56            113            350 225 
 PRA  HZ EP   1   1822 41.67                             106   -0.09 4  398 210 
 PRA  HN ES       1823 23.71                             106   -0.24 6  398 210 
 PRA  HZ I        1823 27.25        14.4 0.30            110            398 210 
 ORTC HZ EP   1   1822 42.05                             106   -0.13 4  401 216 
 ORTC HN ES       1823 25.07                             106    0.36 6  401 216 
 ORTC HZ I        1823 28.69         8.6 0.24            109            401 216 
                                                                                
