 2016  9 1 1914 11.7 L   6.797 -73.097153.4  RSN 12 0.4 2.0LRSN                1
 GAP=123        0.87       3.3     3.8  5.0 -0.7944E+00  0.3158E+01  0.4838E+01E
 Epicentro: LOS SANTOS - SANTANDER                                             3
 ACTION:UPD 17-08-17 21:05 OP:lp   STATUS:               ID:20160901191411 L   I
 OLDACT:UP  16-09-01 23:09 OP:dani STATUS:               ID:20160901190736     3
 OLDACT:UP  16-09-01 23:09 OP:dani STATUS:               ID:20160901190736     3
 OLDACT:REG 16-09-01 21:34 OP:edw  STATUS:               ID:20160901190736     3
 2016-09-01-1908-00M.COL___338                                                 6
 STAT SP IPHASW D HRMM SECON CODA AMPLIT PERI AZIMU VELO AIN AR TRES W  DIS CAZ7
 BAR2 EZ EP       1914 32.30                             171    0.0510 24.5 203 
 BAR2 HE ES       1914 47.90                             171   -0.4010 24.5 203 
 BAR2 EZ I        1914 50.11        33.9 0.26            169           24.5 203 
 PAM  EZ EP       1914 34.76                             153    0.2210 74.3  36 
 PAM  EN ES       1914 52.55                             153    0.1810 74.3  36 
 PAM  EZ I        1914 54.56        12.8 0.21            155           74.3  36 
 BRR  HZ EP       1914 34.22                             152    0.2910 76.1 297 
 BRR  HN ES       1914 51.59                             152    0.3010 76.1 297 
 BRR  HZ I        1914 55.22        37.9 0.50            150           76.1 297 
 RUS  HZ EP       1914 36.08                             145   -0.0710  100 179 
 RUS  HE ES       1914 55.13                             145   -0.1010  100 179 
 RUS  HZ I        1914 56.12         9.4 0.28            147            100 179 
 PTB  HZ EP       1914 39.23                             133   -0.52 9  153 259 
 PTB  HE ES   4   1915  0.29                             133   -1.35 0  153 259 
 PTB  HZ I        1915  3.36        12.1 0.12            132            153 259 
 SPBC HZ EP       1914 41.07                             130    0.00 9  166 221 
 SPBC HE ES       1915  3.81                             130   -0.18 9  166 221 
 SPBC HZ I        1915  5.53        27.4 0.13            130            166 221 
 ZAR  HZ EP   4   1914 46.27                             123    1.11 0  209 292 
 ZAR  HE ES       1915 10.61                             123   -0.66 8  209 292 
 ZAR  HZ I        1915 16.67         9.6 0.30            123            209 292 
 NOR  HZ EP       1914 48.28                             120   -0.03 8  239 235 
 NOR  HE ES       1915 17.75                             120    0.87 8  239 235 
 NOR  HZ I        1915 22.05        11.1 0.10            120            239 235 
 CHI  HZ EP       1914 50.32                             118    0.39 8  250 196 
 CHI  HN ES       1915 19.85                             118    0.08 8  250 196 
 CHI  HZ I        1915 24.20         4.8 0.25            120            250 196 
 GUY2CHZ EP   4   1914 57.46                             113    1.34 0  305 235 
 GUY2CHE ES   4   1915 33.29                             113    2.50 0  305 235 
 GUY2CHZ I        1915 42.01         5.5 0.56                           305 235 
 PTGC HZ EP       1914 55.15                             113   -0.48 7  306 160 
 PTGC HN ES   4   1915 28.73                             113   -1.19 0  306 160 
 SJC  HZ EP   4   1915  6.44                             107   -1.44 0  412 326 
 SJC  HN ES   4   1915 48.68                             107   -3.04 0  412 326 
 SJC  HZ I        1915 55.97         1.1 0.14            107            412 326 
                                                                                
