 2013  3 1 1725 20.5 L   6.529 -73.563109.2  RSN 10 0.5 2.2LRSN                1
 GAP=117        1.01       4.7     3.9  7.9 -0.3778E+00  0.6949E+01 -0.2979E+01E
 Epicentro: EL CARMEN DE CHUCURI - SANTANDER                                   3
 ACTION:UPD 13-04-09 13:59 OP:ep   STATUS:               ID:20130301172520 L   I
 2013-03-01-1720-00M.COL___228                                                 6
 STAT SP IPHASW D HRMM SECON CODA AMPLIT PERI AZIMU VELO AIN AR TRES W  DIS CAZ7
 BAR2 SZ EP       1725 36.67                             157    0.2410 42.6  81 
 BAR2 SZ ES   1   1725 48.96                             157    0.07 7 42.6  81 
 BAR2 SZ I        1725 50.39       270.2 0.40            163           42.6  81 
 BRR  HZ EP   1   1725 37.41                             147   -0.03 7 66.0 346 
 BRR  HE ES   1   1725 51.26                             147    0.58 7 66.0 346 
 BRR  HZ I        1725 57.07        31.2 0.12            148           66.0 346 
 RUS  HZ EP   1   1725 39.89                             138    0.11 7 88.1 143 
 RUS  HE ES   1   1725 55.45                             138    0.60 7 88.1 143 
 RUS  HZ I        1725 56.91        18.7 0.38            146           88.1 143 
 PTB  HZ EP   1   1725 39.52                             135   -0.50 7 98.8 271 
 PTB  HN ES   1   1725 54.41                             135   -0.88 7 98.8 271 
 PTB  HZ I        1725 57.92        31.1 0.16            137           98.8 271 
 PAM  SZ EP   1   1725 43.30                             126   -0.34 7  131  47 
 PAM  SE ES   1   1726  0.93                             126   -0.80 7  131  47 
 PAM  SZ I        1726  5.06        13.4 0.44            132            131  47 
 ZAR  HZ EP   1   1725 48.48                             117    0.50 7  178 307 
 ZAR  HE ES   4   1726 11.14                             117    1.69 0  178 307 
 ZAR  HZ I        1726 13.22        37.4 0.50            120            178 307 
 OCA  HN ES   2   1726 11.99                             115   -0.25 4  191   8 
 TAM  HZ EP   1   1725 49.46                             114   -0.53 6  196  93 
 HEL  HZ EP   1   1725 54.01                             111    0.85 6  221 260 
 HEL  HE ES   1   1726 18.29                             111   -0.38 6  221 260 
 HEL  HZ I        1726 24.92        13.9 0.22            115            221 260 
 SML  HE ES   1   1726 26.11                             107    0.75 6  257 347 
                                                                                
