 2011  7 1 1016 25.8 L   6.845 -73.076144.0  RSN  4 0.2 1.4LRSN                1
 GAP=230        0.46      13.2    12.3  9.3  0.1081E+03 -0.5326E+02 -0.5962E+02E
 Epicentro: LOS SANTOS - SANTANDER                                             3
 ACTION:UPD 12-07-25 13:57 OP:epov STATUS:               ID:20110701101625 L   I
 2011-07-01-1000-00M.COL___124                                                 6
 STAT SP IPHASW D HRMM SECON CODA AMPLIT PERI AZIMU VELO AIN AR TRES W  DIS CAZ7
 BTL  SZ EP       1016 45.35                             171    0.1610 22.7 291 
 GIR2 SZ EP       1016 45.11                             168   -0.0710 28.9 333 
 BAR2 SZ EP       1016 45.16                             168   -0.2010 30.4 203 
 BAR2 SZ ES   2   1017  0.88                             168    0.24 5 30.4 203 
 BAR2 SZ I        1017  3.20         5.3 0.65                          30.4 203 
 BRR  HZ EP       1016 47.14                             151    0.1210 76.0 292 
 BRR  HZ I        1016 58.94         5.5 0.45                          76.0 292 
 BRR  HN ES   2   1017  3.28                             151   -0.31 5 76.0 292 
                                                                                
