 2015 10 1 1307  2.5 L   6.806 -73.140148.0  RSN 19 0.4 2.6LRSN                1
 GAP=137        1.02       2.5     3.5  4.9 -0.1456E+01  0.5345E+01  0.7032E+00E
 Epicentro: LOS SANTOS - SANTANDER                                             3
 ACTION:UPD 15-12-22 20:36 OP:cam  STATUS:               ID:20151001130702 L   I
 OLDACT:REG 15-10-01 21:08 OP:ar   STATUS:               ID:20151001125747     3
 2015-10-01-1257-47M.COL___358                                                 6
 STAT SP IPHASW D HRMM SECON CODA AMPLIT PERI AZIMU VELO AIN AR TRES W  DIS CAZ7
 BAR2 EZ EP       13 7 22.12                             170   -0.2710 24.1 191 
 BAR2 EZ ES       13 7 38.20                             170    0.2810 24.1 191 
 BAR2 EZ I        13 7 40.48        74.4 0.26            168           24.1 191 
 BRR  HZ EP       13 7 24.06                             153    0.1810 71.4 298 
 BRR  HN ES       13 7 41.41                             153    0.8410 71.4 298 
 BRR  HZ I        13 7 45.78        33.5 0.26            151           71.4 298 
 PAM  EZ EP     C 13 7 24.86                             152   -0.0210 76.5  39 
 PAM  EN ES       13 7 42.19                             152   -0.1610 76.5  39 
 PAM  EZ I        13 7 44.45        51.2 0.56            156           76.5  39 
 RUS  HZ EP       13 7 26.33                             144   -0.1610  101 176 
 RUS  HN ES       13 7 45.11                             144   -0.1110  101 176 
 RUS  HZ I        13 7 47.50        38.6 0.40            146            101 176 
 PTB  HZ EP       13 7 28.74                             132   -0.95 9  148 259 
 PTB  HN ES       13 7 50.16                             132   -0.76 9  148 259 
 PTB  HZ I        13 7 52.33        41.9 0.20            132            148 259 
 OCA  HZ EP       13 7 30.73                             130   -0.18 9  160 353 
 OCA  HN ES       13 7 53.27                             130    0.18 9  160 353 
 OCA  HZ I        13 7 57.69        72.5 0.26            133            160 353 
 SPBC HZ EP       13 7 31.02                             129   -0.21 9  164 219 
 SPBC HN ES       13 7 53.47                             129   -0.18 9  164 219 
 SPBC HZ I        13 7 58.81        66.6 0.20            130            164 219 
 ZAR  HZ EP       13 7 35.27                             123    0.17 9  204 292 
 ZAR  HN ES       13 8  0.38                             123   -0.17 9  204 292 
 ZAR  HZ I        13 8  7.11        35.9 0.30            123            204 292 
 NOR  HZ EP       13 7 38.60                             119    0.17 8  236 234 
 NOR  HN ES       13 8  6.86                             119    0.39 8  236 234 
 NOR  HZ I        13 8 11.59        32.6 0.28            120            236 234 
 SML  HZ EP       13 7 39.04                             118   -0.15 8  243 335 
 SML  HE ES       13 8  7.96                             118    0.13 8  243 335 
 SML  HZ I        13 8 10.35        48.2 0.10            120            243 335 
 CHI  HZ EP       13 7 40.36                             118   -0.02 8  249 195 
 CHI  HN ES       13 8  9.65                             118   -0.30 8  249 195 
 CHI  HZ I        13 8 19.13        12.9 0.34            119            249 195 
 ROSC BZ EP       13 7 41.72                             117    0.91 8  254 211 
 ROSC BN ES   4   13 8 12.12                             117    1.41 0  254 211 
 ROSC BZ I        13 8 17.86        27.7 0.40            118            254 211 
 HEL  HZ EP   2   13 7 43.75                             115    0.87 4  273 256 
 HEL  HE ES       13 8 14.32                             115   -0.08 8  273 256 
 HEL  HZ I        13 8 21.04        19.9 0.40            116            273 256 
 URE  HZ EP   4   13 7 42.68                             114   -1.01 0  284 292 
 URE  HN ES   4   13 8 12.87                             114   -2.97 0  284 292 
 URE  HZ I        13 8 26.08        17.0 0.18            115            284 292 
 GUY2CHZ EP       13 7 47.15                             113    0.87 7  302 235 
 GUY2CHN ES       13 8 21.36                             113    0.91 7  302 235 
 GUY2CHZ I        13 8 30.71        19.2 0.50                           302 235 
 ELA  HZ EP   4   13 7 52.19                             111    2.67 0  330 229 
 ELA  HE ES       13 8 26.07                             111   -0.14 7  330 229 
 ELA  HZ I        13 8 36.12        13.2 0.34            112            330 229 
 DBB  SZ EP       13 7 49.79                             110   -0.32 7  340 274 
 DBB  SZ ES       13 8 26.66                             110   -0.60 7  340 274 
 DBB  SZ I        13 8 30.16        49.2 0.66            111            340 274 
 ANIL HZ EP   2   13 7 52.38                             109   -0.09 3  358 225 
 ANIL HE ES   4   13 8 33.14                             109    1.68 0  358 225 
 ANIL HZ I        13 8 38.20        38.4 0.36            110            358 225 
 CRJC HZ EP   4   13 7 59.62                             104   -5.34 0  467   3 
 CRJC HN ES   4   13 8 49.02                             104   -4.68 0  467   3 
 CRJC HZ I        13 8 55.87         6.2 0.16            105            467   3 
                                                                                
