 2010 11 1 1611 43.3 L   7.182 -74.031  0.0  RSN  5 0.2 1.6LRSN                1
 GAP=276        0.62       3.7    12.0 12.1 -0.2655E+02 -0.1296E+03  0.2514E+02E
 Epicentro: BARRANCABERMEJA - SANTANDER                                        3
 ACTION:UP  10-12-17 16:49 OP:REBC STATUS:               ID:20101101161143 L   I
 2010-11-01-1610-01S.COL___126                                                 6
 STAT SP IPHASW D HRMM SECON CODA AMPLIT PERI AZIMU VELO SNR AR TRES W  DIS CAZ7
 BRR  HZ IP     D 1611 49.66                              47    -0.310   36 103 
 BRR  HE ES   1   1611 55.17                              47     0.0 7   36 103 
 BRR  HZ I        1611 56.14        41.7 0.23                            36 103 
 BAR2 SZ EP   2   1612  1.82                              47    -0.2 5  114 125 
 BAR2 SZ I        1612 11.41         8.3 0.58                           114 125 
 BAR2 SZ ES   2   1612 16.33                              47    -0.3 5  114 125 
 GUE  SZ EP   1   1612  6.34                              47     0.0 7  142  60 
 GRA  SZ ES   1   1612 28.11                              47     0.3 7  156  60 
 GRA  SZ I        1612 30.34        23.9 0.29                           156  60 
 RUS  HZ EP       1612 12.04                              47     0.2 9  177 144 
 RUS  HE ES   1   1612 34.34                              47     0.3 7  177 144 
 RUS  HZ I        1612 35.47         6.7 0.34                           177 144 
                                                                                
