 2011  4 1 1206 45.9 L   6.792 -73.134141.1  RSN 10 0.4 2.1LRSN                1
 GAP=137        0.66       4.6     5.3  6.5 -0.8377E+01 -0.3968E+00  0.1337E+02E
 Epicentro: LOS SANTOS - SANTANDER                                             3
 ACTION:UP  11-06-22 15:27 OP:REBC STATUS:               ID:20110401120645 L   I
 2011-04-01-1200-00M.COL___134                                                 6
 STAT SP IPHASW D HRMM SECON CODA AMPLIT PERI AZIMU VELO SNR AR TRES W  DIS CAZ7
 BTL  SZ IP       12 7  5.34                             171     0.510   20 313 
 BTL  SZ ES   2   12 7 19.92                             171     0.2 5   20 313 
 BAR2 SZ EP   1   12 7  4.72                             170    -0.2 7   23 194 
 BAR2 SZ ES   2   12 7 19.32                             170    -0.5 5   23 194 
 BAR2 SZ I        12 7 20.83        24.2 0.12                            23 194 
 BRR  HZ EP   1   12 7  6.53                             151    -0.1 7   73 299 
 BRR  HN ES   2   12 7 23.03                             151     0.3 5   73 299 
 BRR  HZ I        12 7 24.17        49.1 0.11                            73 299 
 GRA  SZ EP   1   12 7 10.58                             136    -0.1 7  126  17 
 GRA  SZ ES   2   12 7 29.49                             136    -0.6 5  126  17 
 GRA  SZ I        12 7 34.49        13.3 0.27                           126  17 
 YOP  SZ EP   1   12 7 15.51                             125     0.1 7  178 154 
 YOP  SZ I        12 7 43.36        10.9 0.46                           178 154 
 NOR  SZ EP   1   12 7 21.12                             117    -0.3 6  235 235 
 NOR  SN ES   2   12 7 48.36                             117    -0.7 4  235 235 
 CHI  HZ EP   1   12 7 23.02                             116    -0.2 6  248 196 
 CHI  HE ES   2   12 7 52.82                             116     0.4 4  248 196 
 CHI  HZ I        12 8  3.14         4.9 0.46                           248 196 
 HEL  HZ EP   2   12 7 26.08                             114     0.1 4  273 256 
 HEL  HN ES   2   12 7 57.37                             114     0.1 4  273 256 
 HEL  HZ I        12 8  3.03         9.7 0.37                           273 256 
 RREF HZ EP   2   12 7 32.77                             110     0.9 3  322 230 
 RREF HN ES   2   12 8  7.37                             110    -0.3 3  322 230 
 RREF HZ I        12 8 17.75         6.5 0.51                           322 230 
 PRA  HZ EP   1   12 7 39.05                             106    -0.2 4  392 210 
                                                                                
