 2012  8 1 1510 36.2 L   6.753 -73.133148.3  RSN  5 0.3 1.4LRSN                1
 GAP=140        0.55       6.3    10.2  8.2  0.4451E+02 -0.2858E+02 -0.1094E+02E
 Epicentro: LOS SANTOS - SANTANDER                                             3
 ACTION:UPD 12-09-10 11:53 OP:ep   STATUS:               ID:20120801151036 L   I
 2012-08-01-1510-00M.COL___215                                                 6
 STAT SP IPHASW D HRMM SECON CODA AMPLIT PERI AZIMU VELO AIN AR TRES W  DIS CAZ7
 BAR2 SZ EP       1510 55.97                             172   -0.0910 18.6 197 
 BAR2 SZ I        1511 12.73         6.3 0.40                          18.6 197 
 BRR  HZ EP       1510 57.71                             152   -0.1410 75.0 301 
 BRR  HN ES   1   1511 15.03                             152    0.31 7 75.0 301 
 PAM  SN ES   3   1511 15.94                             150   -0.63 2 80.6  36 
 RUS  HZ EP       1511  0.09                             146    0.2510 95.3 177 
 RUS  HN ES   1   1511 18.10                             146   -0.17 7 95.3 177 
 RUS  HZ I        1511 19.44         3.4 0.28                          95.3 177 
 PTB  HN ES   3   1511 23.56                             132   -1.09 2  148 261 
                                                                                
