 2010 10 1 1801 38.3 L   6.825 -73.110140.5  RSN 12 0.5 2.3LRSN                1
 GAP=139        0.92       4.2     6.0  7.6 -0.3990E+01  0.4082E+01  0.6318E+01E
 Epicentro: LOS SANTOS - SANTANDER                                             3
 ACTION:UP  11-02-18 11:07 OP:tino STATUS:               ID:20101001180138 L   I
 2010-10-01-1759-04S.COL___125                                                 6
 STAT SP IPHASW D HRMM SECON CODA AMPLIT PERI AZIMU VELO SNR AR TRES W  DIS CAZ7
 BAR2 SZ EP   1   18 1 57.45                             169     0.0 8   27 197 
 BAR2 SZ ES   2   18 2 12.40                             169     0.1 5   27 197 
 BAR2 SZ I        18 2 14.10        40.5 0.58                            27 197 
 GIR2 SZ EP   2   18 1 57.63                             168     0.3 5   29 342 
 BRR  HZ EP   1   18 1 59.44                             151     0.4 8   73 295 
 BRR  HZ I        18 2  1.00        52.0 0.07                            73 295 
 BRR  HN ES   1   18 2 15.62                             151     0.4 8   73 295 
 RUS  HZ EP       18 2  1.76                             142     0.010  103 178 
 RUS  HE ES   1   18 2 19.91                             142    -0.1 7  103 178 
 RUS  HZ I        18 2 22.21        31.6 0.35                           103 178 
 GUE  SZ EP       18 2  1.60                             139    -0.710  113  10 
 GRA  SZ EP   2   18 2  3.08                             137     0.3 5  122  16 
 GRA  SZ ES   2   18 2 21.90                             137     0.0 5  122  16 
 GRA  SZ I        18 2 24.28        20.1 0.37                           122  16 
 YOP  SZ EP   2   18 2  8.21                             125     0.1 4  180 155 
 YOP  SN ES   2   18 2 31.47                             125     0.2 4  180 155 
 NOR  SZ EP   1   18 2 14.15                             117    -0.2 6  240 235 
 NOR  SN ES   1   18 2 41.37                             117    -1.0 6  240 235 
 CHI  HZ EP   1   18 2 16.16                             116     0.0 6  252 196 
 CHI  HE ES   2   18 2 45.32                             116    -0.3 4  252 196 
 CHI  HZ I        18 2 55.76        13.3 0.43                           252 196 
 ROSC BZ EP       18 2 17.62                             115     1.0 8  257 211 
 HEL  HZ EP   2   18 2 19.49                             113     0.7 4  277 255 
 HEL  HE ES   2   18 2 50.04                             113    -0.3 4  277 255 
 HEL  HZ I        18 2 57.58        14.1 0.47                           277 255 
 PRA  HZ EP   2   18 2 32.04                             105    -0.2 3  396 210 
 PRA  HE ES   2   18 3 12.93                             105    -1.3 3  396 210 
                                                                                
