 2013 11 1 1426 18.3 L   7.550 -73.061157.1  RSN  7 0.4 1.8LRSN                1
 GAP=159        1.10       4.6     5.4  8.0  0.6119E+01  0.5315E+01 -0.4169E+01E
 Epicentro: EL PLAYON - SANTANDER                                              3
 ACTION:UPD 14-01-09 16:24 OP:ep   STATUS:               ID:20131101142618 L   I
 OLDACT:REG 13-11-01 16:23 OP:carl STATUS:               ID:20131101141849     3
 2013-11-01-1418-49M.COL___219                                                 6
 STAT SP IPHASW D HRMM SECON CODA AMPLIT PERI AZIMU VELO AIN AR TRES W  DIS CAZ7
 PAM  SZ EP       1426 40.59                             163    0.3110 46.2 120 
 PAM  SN ES       1426 57.48                             163    0.0510 46.2 120 
 PAM  SZ I        1426 58.23        10.3 0.20            166           46.2 120 
 BRR  HN ES       1427  0.42                             150    0.6910 86.9 236 
 BAR2 SZ EP       1426 43.47                             144    0.2410  107 187 
 BAR2 SZ ES       1427  2.47                             144   -0.2210  107 187 
 BAR2 SZ I        1427  3.09        11.8 0.18            146            107 187 
 SML  HZ EP       1426 49.21                             129    0.32 9  178 321 
 SML  HN ES       1427 11.94                             129   -0.82 9  178 321 
 SML  HZ I        1427 17.33         8.9 0.32            129            178 321 
 RUS  HZ EP       1426 49.95                             128   -0.14 9  183 181 
 RUS  HN ES       1427 14.02                             128   -0.89 9  183 181 
 PTB  HZ EP       1426 50.29                             127    0.14 9  190 234 
 PTB  HE ES       1427 15.21                             127    0.21 9  190 234 
 PTB  HZ I        1427 19.34         3.3 0.34            127            190 234 
 ZAR  HN ES       1427 16.20                             126   -0.19 9  198 268 
                                                                                
