 2010  9 1 1022 37.4 L   6.825 -73.137138.5  RSN  4 0.1 1.4LRSN                1
 GAP=184        0.39       4.4    10.1  5.3  0.3070E+02 -0.2271E+02 -0.1319E+02E
 Epicentro: LOS SANTOS - SANTANDER                                             3
 ACTION:UP  11-02-18 10:59 OP:tino STATUS:               ID:20100901102237 L   I
 2010-09-01-1017-53S.COL___120                                                 6
 STAT SP IPHASW D HRMM SECON CODA AMPLIT PERI AZIMU VELO SNR AR TRES W  DIS CAZ7
 BAR2 SZ ES   1   1023 10.84                             169     0.0 7   26 191 
 BAR2 SZ I        1023 17.91        11.2 0.52                            26 191 
 BRR  HZ EP   1   1022 57.85                             151     0.1 7   71 296 
 BRR  HN ES   2   1023 13.46                             151    -0.1 5   71 296 
 BRR  HZ I        1023 15.60         7.4 0.18                            71 296 
 RUS  HZ EP   1   1023  0.45                             141    -0.2 7  103 177 
 RUS  HE ES   1   1023 18.86                             141     0.1 7  103 177 
 RUS  HZ I        1023 19.39         2.0 0.40                           103 177 
 OCA  SZ EP   1   1023  4.89                             128     0.0 7  158 353 
 OCA  SZ I        1023  9.50         2.7 0.77                           158 353 
                                                                                
