 2013  6 1 1830  1.6 L   6.817 -73.140146.3  RSN 19 0.6 3.1LRSN                1
 GAP= 71        1.39       3.6     3.8  5.6 -0.3052E+01  0.3392E+01  0.1680E+01E
 Epicentro: LOS SANTOS - SANTANDER                                             3
 ACTION:UPD 14-01-08 09:51 OP:ep   STATUS:               ID:20130601183001 L   I
 2013-06-01-1828-49M.COL___221                                                 6
 STAT SP IPHASW D HRMM SECON CODA AMPLIT PERI AZIMU VELO AIN AR TRES W  DIS CAZ7
 BAR2 SZ EP       1830 21.49                             170    0.1810 25.3 191 
 BAR2 SZ ES       1830 36.38                             170   -0.3310 25.3 191 
 BAR2 SZ I        1830 37.49       282.5 0.22            167           25.3 191 
 GIR2 SZ EP       1830 21.53                             168    0.2610 29.5 348 
 GIR2 SZ ES       1830 36.51                             168   -0.1210 29.5 348 
 BRR  HZ EP       1830 23.36                             153    0.5910 70.9 297 
 BRR  HN ES       1830 40.26                             153    0.9710 70.9 297 
 BRR  HE I        1830 40.97       724.5 0.20            148           70.9 297 
 PAM  SZ IP     C 1830 24.26                             151    0.5210 75.5  40 
 PAM  SN ES       1830 41.18                             151    0.1510 75.5  40 
 PAM  SE I        1830 43.55       183.3 0.46            152           75.5  40 
 RUS  HZ EP       1830 25.43                             143   -0.0910  102 176 
 RUS  HE ES       1830 43.79                             143   -0.4010  102 176 
 RUS  HN I        1830 45.67       189.4 0.22            140            102 176 
 CAPV BZ IP     C 1830 29.49                             132    0.64 9  147  38 
 CAPV BZ ES       1830 49.64                             132   -0.47 9  147  38 
 PTB  HZ EP       1830 28.04                             132   -0.64 9  149 258 
 PTB  HN ES       1830 48.83                             132   -0.99 9  149 258 
 PTB  HE I        1830 50.85       127.4 0.34            127            149 258 
 TAM  HZ IP     C 1830 29.83                             131    0.54 9  155 106 
 TAM  HZ I        1830 29.96       113.1 0.20            130            155 106 
 TAM  HN ES       1830 50.94                             131    0.04 9  155 106 
 OCA  HZ EP       1830 29.98                             130    0.22 9  158 353 
 OCA  HN ES       1830 51.30                             130   -0.44 9  158 353 
 ZAR  HZ EP       1830 34.14                             122    0.09 9  204 292 
 NOR  HZ EP       1830 37.46                             118   -0.05 8  236 234 
 NOR  HN ES       1831  4.86                             118   -0.68 8  236 234 
 NOR  HE I        1831 11.67       121.3 0.46            115            236 234 
 SML  HZ EP       1830 37.68                             118   -0.40 8  242 335 
 SML  HE ES       1831  6.17                             118   -0.38 8  242 335 
 CHI  HZ EP       1830 38.90                             117   -0.62 8  251 195 
 HEL  HZ EP       1830 42.96                             115    1.02 8  273 255 
 HEL  HE I        1831 21.88        43.7 0.50            112            273 255 
 URE  HZ EP       1830 41.83                             114   -0.83 7  284 292 
 SOCV BZ EP       1830 43.83                             112   -0.65 7  300  57 
 GUY2CHZ EP       1830 45.95                             112    0.55 7  303 235 
 GUY2CHN ES       1831 21.36                             112    1.79 7  303 235 
 GUY2CHE I        1831 25.97        46.0 0.70                           303 235 
 PRA  HZ EP       1830 55.20                             106   -0.15 6  394 210 
 PRA  HN ES       1831 36.96                             106   -0.33 6  394 210 
 PRA  HE I        1831 42.06        19.2 0.62            104            394 210 
 ELOV BZ EP       1830 55.56                             106   -0.98 6  405  87 
                                                                                
