 2012  9 1 1134 10.1 L   6.770 -73.149146.6  RSN 11 0.4 2.1LRSN                1
 GAP=137        0.66       3.4     3.4  5.2 -0.7992E+00  0.3777E+01  0.1829E+01E
 Epicentro: LOS SANTOS - SANTANDER                                             3
 ACTION:UPD 12-10-22 14:16 OP:ep   STATUS:               ID:20120901113410 L   I
 2012-09-01-1130-00M.COL___218                                                 6
 STAT SP IPHASW D HRMM SECON CODA AMPLIT PERI AZIMU VELO AIN AR TRES W  DIS CAZ7
 BAR2 SZ EP       1134 29.78                             172    0.0110 20.0 191 
 BAR2 SZ ES   1   1134 44.92                             172   -0.20 7 20.0 191 
 BAR2 SZ I        1134 47.55        38.7 0.17                          20.0 191 
 GIR2 SZ EP       1134 29.77                             166   -0.2010 34.5 352 
 BRR  HZ EP       1134 31.72                             152    0.3010 72.5 301 
 BRR  HZ I        1134 33.72        25.4 0.13                          72.5 301 
 BRR  HN ES   1   1134 48.88                             152    0.83 7 72.5 301 
 PAM  SZ EP       1134 32.68                             150    0.1010 80.2  38 
 PAM  SZ I        1134 32.93        37.1 0.19                          80.2  38 
 PAM  SN ES   1   1134 50.01                             150   -0.10 7 80.2  38 
 RUS  HZ EP   1   1134 33.61                             145   -0.09 7 97.3 176 
 RUS  HN ES   1   1134 51.98                             145   -0.13 7 97.3 176 
 RUS  HZ I        1134 53.74         9.1 0.23                          97.3 176 
 PTB  HZ EP   1   1134 36.60                             132   -0.45 7  147 260 
 PTB  HN ES   1   1134 57.44                             132   -0.63 7  147 260 
 PTB  HZ I        1135  5.56        10.1 0.34                           147 260 
 ZAR  HZ EP   1   1134 42.63                             122   -0.07 6  205 293 
 ZAR  HN ES   1   1135  7.86                             122   -0.27 6  205 293 
 ZAR  HZ I        1135 14.32        10.7 0.27                           205 293 
 NOR  SN ES   2   1135 13.22                             119   -0.14 4  232 235 
 NOR  SZ I        1135 18.17        12.8 0.22                           232 235 
 CHI  HZ EP   2   1134 47.65                             118    0.16 4  245 195 
 CHI  HZ I        1134 50.58         5.1 0.30                           245 195 
 CHI  HN ES   2   1135 17.37                             118    0.72 4  245 195 
 HEL  HN ES   2   1135 21.93                             115    0.40 4  271 256 
 PRA  HZ EP   1   1135  3.78                             107    0.49 4  389 210 
 PRA  HN ES   2   1135 45.09                             107    0.31 3  389 210 
 PRA  HZ I        1135 51.68         5.9 0.33                           389 210 
                                                                                
