 2017  2 1 1241 59.3 L   6.794 -73.422123.3  RSN  5 0.3 1.9LRSN                1
 GAP=173        0.91       6.4     5.4  7.5  0.1637E+02  0.8432E+01  0.1044E+02E
 Epicentro: SAN VICENTE DE CHUCURI - SANTANDER                                 3
 ACTION:UPD 17-05-24 15:31 OP:jn   STATUS:               ID:20170201124159 L   I
 OLDACT:REG 17-02-01 20:33 OP:ar   STATUS:               ID:20170201123743     3
 2017-02-01-1238-00M.COL___322                                                 6
 STAT SP IPHASW D HRMM SECON CODA AMPLIT PERI AZIMU VELO AIN AR TRES W  DIS CAZ7
 BAR2 EZ EP       1242 16.39                             163   -0.2210 34.7 130 
 BAR2 EZ ES       1242 29.48                             163   -0.6010 34.7 130 
 BRR  HZ EP       1242 16.81                             158    0.0410 47.1 317 
 BRR  HN ES       1242 30.86                             158    0.5110 47.1 317 
 BRR  HZ I        1242 31.75        23.2 0.12            153           47.1 317 
 RUS  HZ EP       1242 21.59                             137    0.1510  107 159 
 RUS  HN ES       1242 39.11                             137    0.4310  107 159 
 PTB  HZ EP       1242 21.63                             133   -0.1310  118 256 
 PTB  HN ES       1242 39.06                             133   -0.1810  118 256 
 PTB  HZ I        1242 43.94        12.2 0.20            130            118 256 
 ZAR  HN ES   4   1242 51.59                             121    2.17 0  176 296 
 ZAR  HZ I        1242 54.06        11.5 0.25            119            176 296 
                                                                                
