 2014 10 1 1639 27.7 L   6.804 -73.133153.6  RSN 10 0.5 2.2LRSN                1
 GAP=138        1.18       4.1     5.7  6.6 -0.1769E+01  0.8631E+01 -0.1535E+01E
 Epicentro: LOS SANTOS - SANTANDER                                             3
 ACTION:UPD 14-11-29 23:45 OP:nd   STATUS:               ID:20141001163927 L   I
 OLDACT:REG 14-10-02 00:55 OP:cam  STATUS:               ID:20141001163750     3
 2014-10-01-1637-50M.COL___292                                                 6
 STAT SP IPHASW D HRMM SECON CODA AMPLIT PERI AZIMU VELO AIN AR TRES W  DIS CAZ7
 BAR2 SZ IP     C 1639 48.43                             171    0.1210 24.0 193 
 BAR2 SZ ES       1640  4.08                             171   -0.2910 24.0 193 
 BAR2 SZ I        1640  5.29        14.8 0.28            169           24.0 193 
 BRR  HZ EP       1639 50.35                             153    0.5710 72.2 298 
 BRR  HE ES       1640  7.88                             153    0.9010 72.2 298 
 BRR  HZ I        1640 12.12        22.0 0.26            152           72.2 298 
 PAM  SZ EP       1639 51.30                             152    0.5910 76.2  39 
 PAM  SN ES       1640  8.18                             152   -0.4610 76.2  39 
 PAM  SZ I        1640 10.59        21.6 0.52            158           76.2  39 
 RUS  HZ EP       1639 52.27                             145   -0.0110  101 177 
 RUS  HE ES       1640 10.81                             145   -0.6210  101 177 
 RUS  HZ I        1640 14.52         6.4 0.18            147            101 177 
 PTB  HZ EP       1639 55.37                             133   -0.10 9  149 259 
 PTB  HN ES       1640 16.67                             133   -0.44 9  149 259 
 PTB  HZ I        1640 23.71        31.0 0.40            133            149 259 
 SPBC HZ EP       1639 57.24                             130    0.29 9  164 219 
 SPBC HN ES       1640 20.11                             130    0.37 9  164 219 
 SPBC HZ I        1640 26.49        37.4 0.30            131            164 219 
 ZAR  HZ EP   1   1639 59.73                             124   -1.07 6  205 292 
 SML  HZ EP       1640  4.74                             119   -0.08 8  244 335 
 SML  HN ES       1640 33.20                             119   -0.56 8  244 335 
 SML  HZ I        1640 36.43        27.2 0.10            121            244 335 
 CHI  HZ EP       1640  5.88                             118   -0.07 8  249 195 
 GUY2CHZ EP   4   1640 14.79                             114    2.93 0  303 235 
 DBB  SZ EP   1   1640 15.65                             111   -0.03 5  341 274 
                                                                                
