 2011  9 1 1447 54.5 L   6.494 -73.263131.6  RSN  4 0.2 1.2LRSN                1
 GAP=161        0.45       5.4    10.5  5.9  0.2703E+02  0.2155E+02  0.3003E+01E
 Epicentro: SOCORRO - SANTANDER                                                3
 GOR                                                                           3
 ACTION:UPD 12-07-13 15:54 OP:ep   STATUS:               ID:20110901144754 L   I
 2011-09-01-1443-00S.COL___166                                                 6
 STAT SP IPHASW D HRMM SECON CODA AMPLIT PERI AZIMU VELO AIN AR TRES W  DIS CAZ7
 BAR2 SZ EP   1   1448 12.21                             173   -0.08 7 14.1  40 
 BAR2 SZ I        1448 12.67         3.8 0.18                          14.1  40 
 BAR2 SZ ES   1   1448 25.93                             173   -0.22 7 14.1  40 
 GIR2 SZ EP   1   1448 14.29                             152    0.28 7 65.1   7 
 GIR2 SZ ES   1   1448 29.20                             152   -0.01 7 65.1   7 
 RUS  HN ES   2   1448 30.80                             151    0.25 5 69.4 163 
 RUS  HZ I        1448 31.76         1.8 0.33                          69.4 163 
 BRR  HZ EP   1   1448 14.78                             145   -0.22 7 84.0 324 
 BRR  HZ I        1448 15.57         7.4 0.66                          84.0 324 
 BRR  HN ES   2   1448 31.28                             145    0.31 5 84.0 324 
                                                                                
