 2017  5 1 1444 31.0 L   7.165 -73.968 95.5  RSN  4 0.2 1.2LRSN                1
 GAP=173        0.64       3.8     3.1  5.8  0.5556E+01  0.3882E+01  0.3598E+01E
 Epicentro: BARRANCABERMEJA - SANTANDER                                        3
 ACTION:UPD 17-06-16 13:31 OP:jn   STATUS:               ID:20170501144431 L   I
 OLDACT:DUP 17-05-01 22:55 OP:edw  STATUS:               ID:20170501143743d    3
 OLDACT:UP  17-05-01 22:52 OP:edw  STATUS:               ID:20170501143742     3
 OLDACT:UP  17-05-01 22:52 OP:edw  STATUS:               ID:20170501143742     3
 OLDACT:UP  17-05-01 22:51 OP:edw  STATUS:               ID:20170501143742     3
 OLDACT:REG 17-05-01 20:10 OP:edw  STATUS:               ID:20170501143742     3
 2017-05-01-1438-00M.COL___377                                                 6
 STAT SP IPHASW D HRMM SECON CODA AMPLIT PERI AZIMU VELO AIN AR TRES W  DIS CAZ7
 BRR  HZ EP     C 1444 44.63                             162    0.1910 29.0 103 
 BRR  HN ES       1444 54.87                             162   -0.0710 29.0 103 
 PTB  HZ EP       1444 48.72                             134    0.3310 87.8 218 
 PTB  HN ES       1445  1.86                             134   -0.1210 87.8 218 
 PTB  HZ I        1445  3.78         3.7 0.52            134           87.8 218 
 ZAR  HZ EP       1444 49.54                             129   -0.4110  105 290 
 ZAR  HN ES       1445  4.91                             129    0.1510  105 290 
 ZAR  HZ I        1445  7.99         4.5 0.10            128            105 290 
 RUS  HN ES       1445 18.30                             115   -0.09 9  171 145 
                                                                                
