 2010  4 1 1102 15.2 L   6.799 -73.079145.5  RSN  7 0.4 2.5LRSN                1
 GAP=206        0.57       3.8     6.5  6.4 -0.5555E+01  0.7576E+01  0.6857E+01E
 Epicentro: LOS SANTOS - SANTANDER                                             3
 ACTION:UPD 10-08-24 09:57 OP:vdl  STATUS:               ID:20100401110215 L   I
 2010-04-01-1059-41S.COL___098                                                 6
 STAT SP IPHASW D HRMM SECON CODA AMPLIT PERI AZIMU VELO AIN AR TRES W  DIS CAZ7
 BAR2 SZ IP       11 2 34.93                             169     0.110   26 207 
 BAR2 SZ ES   2   11 2 49.87                             169    -0.3 5   26 207 
 BRR  HZ EP   1   11 2 36.92                             151     0.2 7   78 296 
 BRR  HE ES   2   11 2 53.96                             151     0.5 5   78 296 
 BRR  HZ I        11 2 57.50        37.8 0.54                            78 296 
 OCA  SZ EP   1   11 2 43.32                             130    -0.3 7  161 351 
 OCA  SZ ES   2   11 3  5.21                             130    -0.5 5  161 351 
 CHI  HZ EP   1   11 2 53.14                             117     0.1 6  251 197 
 CHI  HE ES   2   11 3 22.45                             117    -0.2 4  251 197 
 CHI  HZ I        11 3 26.12        18.3 0.51                           251 197 
 HEL  HZ EP   1   11 2 56.52                             114     0.3 6  279 256 
 HEL  HN ES   2   11 3 27.28                             114    -0.9 4  279 256 
 HEL  HZ I        11 3 33.04        10.6 0.40                           279 256 
 RREF BZ EP   1   11 3  2.04                             111     0.1 5  327 230 
 RREF BE ES   2   11 3 38.80                             111     0.4 3  327 230 
 RREF BZ I        11 3 46.98        15.7 0.25                           327 230 
 PRA  HZ EP   1   11 3  8.75                             106    -0.4 4  396 211 
 PRA  HE ES   2   11 3 50.74                             106    -0.4 3  396 211 
 PRA  HZ I        11 3 56.95        13.3 0.32                           396 211 
                                                                                
