 2013  7 1 1802  9.1 L   6.762 -73.162146.9  RSN  8 0.3 1.6LRSN                1
 GAP=180        0.56       3.1     3.4  4.8  0.2238E+01  0.2625E+01  0.1005E+01E
 Epicentro: LOS SANTOS - SANTANDER                                             3
 ACTION:UPD 13-08-12 10:34 OP:ep   STATUS:               ID:20130701180209 L   I
 OLDACT:REG 13-07-01 14:34 OP:jn   STATUS:               ID:20130701175959     3
 2013-07-01-1759-59M.COL___267                                                 6
 STAT SP IPHASW D HRMM SECON CODA AMPLIT PERI AZIMU VELO AIN AR TRES W  DIS CAZ7
 BAR2 SZ EP       18 2 28.90                             172    0.0910 18.9 187 
 BAR2 SZ ES       18 2 44.12                             172   -0.0510 18.9 187 
 BAR2 SZ I        18 2 45.51         9.2 0.14            172           18.9 187 
 GIR2 SZ EP       18 2 28.98                             166   -0.0610 35.2 354 
 BRR  HZ EP       18 2 30.63                             153    0.2010 71.7 302 
 BRR  HN ES   1   18 2 47.34                             153    0.30 7 71.7 302 
 BRR  HZ I        18 2 50.96        12.6 0.26            154           71.7 302 
 RUS  HZ EP       18 2 32.77                             145    0.0710 96.5 175 
 RUS  HN ES   1   18 2 50.86                             145   -0.23 7 96.5 175 
 RUS  HZ I        18 2 54.40         2.5 0.42            148           96.5 175 
 PTB  HZ EP   1   18 2 35.47                             133   -0.48 7  145 260 
 PTB  HN ES   1   18 2 56.52                             133   -0.36 7  145 260 
 PTB  HZ I        18 2 58.54         5.8 0.12            135            145 260 
 ZAR  HE ES   1   18 3  6.80                             123   -0.20 6  204 293 
 NOR  HN ES   1   18 3 12.65                             119    0.56 6  231 235 
 CHI  HN ES   1   18 3 15.47                             118    0.00 6  244 195 
                                                                                
