 2017  8 1 2211  6.4 L   6.786 -73.097150.0  RSN 10 0.3 1.8LRSN                1
 GAP=143        0.64       2.5     3.2  4.8 -0.1278E-01  0.4844E+01  0.2824E+01E
 Epicentro: LOS SANTOS - SANTANDER                                             3
 ACTION:UPD 17-09-04 20:15 OP:rebc STATUS:               ID:20170801221106 L   I
 OLDACT:UP  17-08-02 05:42 OP:and  STATUS:               ID:20170801220743     3
 OLDACT:UP  17-08-02 05:41 OP:and  STATUS:               ID:20170801220743     3
 OLDACT:UP  17-08-02 05:39 OP:and  STATUS:               ID:20170801220743     3
 OLDACT:REG 17-08-02 03:03 OP:and  STATUS:               ID:20170801220743     3
 2017-08-01-2208-00M.COL___392                                                 6
 STAT SP IPHASW D HRMM SECON CODA AMPLIT PERI AZIMU VELO AIN AR TRES W  DIS CAZ7
 BAR2 EZ EP       2211 26.35                             171   -0.1410 23.4 204 
 BAR2 EZ I        2211 43.20        10.1 0.16            171           23.4 204 
 PAM  EZ IP   2 C 2211 29.36                             152    0.46 5 75.3  36 
 PAM  EN ES       2211 46.40                             152   -0.0910 75.3  36 
 PAM  EZ I        2211 48.69        12.1 0.58            151           75.3  36 
 BRR  HZ EP   2   2211 28.41                             152    0.14 5 76.6 298 
 BRR  HN ES       2211 45.73                             152    0.3710 76.6 298 
 RUS  HZ EP       2211 30.21                             145   -0.1910 98.8 179 
 RUS  HN ES       2211 49.13                             145   -0.0210 98.8 179 
 RUS  HZ I        2211 50.59        13.8 0.40            145           98.8 179 
 PTB  HZ EP   2   2211 33.64                             132   -0.47 5  153 260 
 PTB  HN ES   3   2211 54.39                             132   -1.38 2  153 260 
 PTB  HZ I        2211 59.88         4.6 0.20            131            153 260 
 SPBC HZ EP       2211 35.49                             130    0.10 9  165 221 
 SPBC HE ES       2211 58.36                             130    0.32 9  165 221 
 SPBC HZ I        2212  0.75        10.3 0.11            129            165 221 
 ZAR  HZ EP     C 2211 40.06                             123    0.42 8  210 292 
 ZAR  HE ES       2212  5.05                             123   -0.56 8  210 292 
 ZAR  HZ I        2212 11.01         5.9 0.18            122            210 292 
 NOR  HZ IP     D 2211 42.57                             119   -0.13 8  238 236 
 NOR  HE ES       2212 11.00                             119   -0.06 8  238 236 
 NOR  HZ I        2212 15.79         5.7 0.28            118            238 236 
 CHI  HZ EP   2   2211 44.62                             118    0.33 4  249 196 
 CHI  HN ES       2212 13.74                             118   -0.14 8  249 196 
 CHI  HZ I        2212 17.66         2.8 0.56            117            249 196 
 GUY2CHZ EP   9   2211 52.88                             113    2.33 0  305 236 
 GUY2CHE ES   2   2212 27.99                             113    0.63 4  305 236 
 GUY2CHZ I        2212 31.86         3.2 0.36                           305 236 
                                                                                
