 2012  1 1 2204  2.1 L   6.766 -73.178138.9  RSN  4 0.5 1.4LRSN                1
 GAP=134        1.14       7.8     7.4 13.1 -0.1002E+02  0.1730E+01  0.8489E+01E
 Epicentro: LOS SANTOS - SANTANDER                                             3
 ACTION:UP  12-02-03 08:13 OP:REBC STATUS:               ID:20120101220402 L   I
 2012-01-01-2200-00M.COL___186                                                 6
 STAT SP IPHASW D HRMM SECON CODA AMPLIT PERI AZIMU VELO SNR AR TRES W  DIS CAZ7
 BRR  HZ EP   1   22 4 22.58                             152     0.1 7   70 303 
 BRR  HN ES   1   22 4 39.14                             152     0.8 7   70 303 
 BRR  HZ I        22 4 40.42         6.5 0.13                            70 303 
 PAM  SZ EP       22 4 23.66                             148    -0.310   83  40 
 PAM  SE ES   1   22 4 40.67                             148    -0.3 7   83  40 
 PAM  SZ I        22 4 42.52         3.9 0.53                            83  40 
 RUS  HZ EP   1   22 4 25.60                             143     0.7 7   97 174 
 RUS  HN ES   1   22 4 42.49                             143    -0.2 7   97 174 
 RUS  HZ I        22 4 44.19         3.6 0.16                            97 174 
 PTB  HZ EP   1   22 4 28.21                             131     0.1 7  144 260 
 PTB  HN ES   1   22 4 47.66                             131    -0.8 7  144 260 
                                                                                
