 2013  2 1 2117  9.7 L   6.767 -73.179144.9  RSN  6 0.4 1.4LRSN                1
 GAP=134        0.85       5.9     5.8  7.9 -0.3615E+01  0.3789E+01  0.1204E+02E
 Epicentro: LOS SANTOS - SANTANDER                                             3
 ACTION:UPD 13-03-12 09:29 OP:ep   STATUS:               ID:20130201211709 L   I
 2013-02-01-2110-00M.COL___241                                                 6
 STAT SP IPHASW D HRMM SECON CODA AMPLIT PERI AZIMU VELO AIN AR TRES W  DIS CAZ7
 BAR2 SZ ES   1   2117 44.44                             172    0.14 7 19.4 181 
 BRR  HN ES   1   2117 47.77                             153    0.76 7 69.8 303 
 PAM  SZ EP   1   2117 32.23                             149    0.12 7 82.5  40 
 PAM  SN ES   1   2117 49.16                             149   -0.45 7 82.5  40 
 PAM  SZ I        2117 51.11         4.0 0.46            122           82.5  40 
 RUS  HZ EP   1   2117 33.22                             145    0.11 7 97.3 174 
 RUS  HN ES   1   2117 51.15                             145   -0.23 7 97.3 174 
 RUS  HZ I        2117 52.70         3.5 0.26            113           97.3 174 
 PTB  HZ EP   1   2117 35.68                             133   -0.50 7  143 260 
 PTB  HN ES   1   2117 56.38                             133   -0.47 7  143 260 
 PTB  HZ I        2117 59.47         4.7 0.18            107            143 260 
 CHI  HZ EP   1   2117 47.49                             117    0.65 6  244 195 
 CHI  HZ I        2118 23.69         1.8 0.30             98            244 195 
                                                                                
