 2011 11 1 2307 29.3 L   6.782 -73.126143.3  RSN 10 0.3 2.2LRSN                1
 GAP=140        0.46       2.6     3.2  4.8 -0.2024E+01  0.4609E+01  0.2854E+00E
 Epicentro: LOS SANTOS - SANTANDER                                             3
 ACTION:UPD 12-07-13 16:07 OP:ep   STATUS:               ID:20111101230729 L   I
 2011-11-01-2304-24S.COL___176                                                 6
 STAT SP IPHASW D HRMM SECON CODA AMPLIT PERI AZIMU VELO AIN AR TRES W  DIS CAZ7
 BAR2 SZ EP   2   23 7 48.25                             171   -0.38 5 21.9 196 
 BAR2 SZ ES   2   23 8  3.04                             171   -0.64 5 21.9 196 
 BAR2 SZ I        23 8  5.15        26.5 0.24                          21.9 196 
 BRR  HZ IP     C 23 7 50.48                             151    0.1110 74.0 299 
 BRR  HZ I        23 7 50.72        37.4 0.23                          74.0 299 
 BRR  HN ES   2   23 8  7.08                             151    0.30 5 74.0 299 
 PAM  SZ EP       23 7 51.38                             150    0.0910 77.6  37 
 PAM  SN ES   2   23 8  8.30                             150   -0.12 5 77.6  37 
 RUS  HZ EP   1   23 7 52.89                             144    0.21 7 98.5 177 
 RUS  HN ES   2   23 8 11.08                             144    0.18 5 98.5 177 
 RUS  HZ I        23 8 13.88         9.5 0.35                          98.5 177 
 OCA  SZ EP   1   23 7 57.23                             129   -0.42 7  162 352 
 OCA  SZ ES   2   23 8 20.45                             129    0.70 5  162 352 
 OCA  SZ I        23 8 23.37        29.0 0.17                           162 352 
 ZAR  HZ EP   1   23 8  1.55                             121   -0.34 6  207 292 
 ZAR  HE ES   2   23 8 27.36                             121    0.06 4  207 292 
 ZAR  HZ I        23 8 32.84        21.4 0.36                           207 292 
 NOR  SZ EP   2   23 8  4.95                             118   -0.03 4  235 235 
 NOR  SN ES   2   23 8 32.79                             118    0.00 4  235 235 
 HEL  HN ES   2   23 8 40.82                             114   -0.18 4  274 256 
 HEL  HZ I        23 8 48.25         7.5 0.65                           274 256 
 RREF HZ EP   2   23 8 15.73                             110    0.32 3  322 230 
 RREF HN ES   2   23 8 51.65                             110    0.30 3  322 230 
 RREF HZ I        23 9  1.76         7.1 0.14                           322 230 
 PRA  HZ EP   2   23 8 22.64                             106   -0.05 3  391 210 
 PRA  HN ES   2   23 9  4.19                             106   -0.12 3  391 210 
                                                                                
