 2012  3 1 2127  8.3 L   6.790 -73.134152.8  RSN  6 0.4 1.7LRSN                1
 GAP=138        0.72       6.2     5.2  9.4 -0.8800E+01  0.7260E+01  0.1536E+02E
 ACTION:UP  12-03-31 23:16 OP:EP   STATUS:               ID:20120301212708 L   I
 2012-03-01-2120-00M.COL___191                                                 6
 STAT SP IPHASW D HRMM SECON CODA AMPLIT PERI AZIMU VELO SNR AR TRES W  DIS CAZ7
 BRR  HE ES   2   2127 47.59                             153     0.2 5   73 299 
 PAM  SZ EP       2127 31.43                             152     0.210   77  38 
 PAM  SN ES   1   2127 48.79                             152    -0.3 7   77  38 
 RUS  HZ EP   1   2127 32.71                             145     0.1 7   99 177 
 RUS  HZ I        2127 33.47         4.7 0.28                            99 177 
 RUS  HE ES   2   2127 51.85                             145     0.2 5   99 177 
 PTB  HZ EP   1   2127 35.19                             133    -0.7 7  149 259 
 PTB  HE ES   2   2127 57.72                             133     0.3 5  149 259 
 ZAR  HE ES   2   2128  7.48                             124     0.4 4  206 292 
 ZAR  HZ I        2128 14.33         6.6 0.19                           206 292 
 NOR  SZ EP   2   2127 45.20                             120     0.8 4  235 235 
 NOR  SN ES   2   2128 12.12                             120    -0.5 4  235 235 
                                                                                
