 2013 10 1 2213  0.3 L   6.808 -73.167147.9  RSN  8 0.4 1.7LRSN                1
 GAP=134        1.02       4.9     5.9  7.8 -0.1368E+01  0.9491E+01  0.8040E+00E
 Epicentro: LOS SANTOS - SANTANDER                                             3
 ACTION:UPD 13-11-25 09:18 OP:ep   STATUS:               ID:20131001221300 L   I
 OLDACT:DUP 13-10-01 22:04 OP:jn   STATUS:               ID:20131001220960d    3
 2013-10-01-2209-59M.COL___272                                                 6
 STAT SP IPHASW D HRMM SECON CODA AMPLIT PERI AZIMU VELO AIN AR TRES W  DIS CAZ7
 BAR2 SZ EP       2213 20.16                             171   -0.0510 23.9 184 
 BAR2 SZ ES       2213 35.87                             171    0.1510 23.9 184 
 BAR2 SZ I        2213 36.59        17.8 0.28            168           23.9 184 
 BRR  HZ EP       2213 21.97                             154    0.4210 68.7 299 
 BRR  HN ES   1   2213 38.84                             154    0.72 7 68.7 299 
 BRR  HZ I        2213 43.50        14.4 0.46            152           68.7 299 
 PAM  SN ES   2   2213 40.01                             151   -0.33 5 78.2  41 
 RUS  HZ EP       2213 24.28                             144   -0.0610  102 175 
 RUS  HN ES   1   2213 42.71                             144   -0.38 7  102 175 
 RUS  HZ I        2213 43.62         3.0 0.44            145            102 175 
 PTB  HZ EP       2213 26.78                             133   -0.48 9  146 258 
 PTB  HN ES       2213 47.35                             133   -0.93 9  146 258 
 PTB  HZ I        2213 50.16         5.8 0.14            132            146 258 
 SPBC HZ EP       2213 29.21                             130    0.31 9  162 218 
 SPBC HN ES       2213 51.40                             130    0.20 9  162 218 
 SPBC HZ I        2213 59.91         5.4 0.44            130            162 218 
 NOR  HE ES   1   2214  4.55                             119    0.68 6  233 234 
 NOR  HZ I        2214  7.49         4.2 0.16            120            233 234 
 SML  HE ES   1   2214  5.37                             118   -0.01 6  242 336 
                                                                                
