 2013  3 1 2334 22.0 L   6.784 -73.152143.2  RSN  5 0.3 1.5LRSN                1
 GAP=136        0.55       4.2     4.2  6.9 -0.3975E+01  0.4517E+01 -0.4737E+01E
 Epicentro: LOS SANTOS - SANTANDER                                             3
 ACTION:UPD 13-04-09 13:59 OP:ep   STATUS:               ID:20130301233422 L   I
 2013-03-01-2330-00M.COL___228                                                 6
 STAT SP IPHASW D HRMM SECON CODA AMPLIT PERI AZIMU VELO AIN AR TRES W  DIS CAZ7
 BAR2 SZ ES   1   2334 56.39                             171    0.11 7 21.4 189 
 BAR2 SZ I        2334 58.92        14.8 0.36            169           21.4 189 
 BRR  HZ EP   1   2334 43.14                             152    0.30 7 71.5 300 
 BRR  HN ES   2   2334 59.65                             152    0.52 5 71.5 300 
 BRR  HZ I        2335  3.29         7.1 0.26            149           71.5 300 
 PAM  SZ EP   1   2334 44.03                             150    0.02 7 79.2  39 
 PAM  SN ES   1   2335  0.87                             150   -0.34 7 79.2  39 
 PAM  SZ I        2335  3.33         5.0 0.48            155           79.2  39 
 RUS  HZ EP   2   2334 45.21                             144   -0.12 5 98.8 176 
 RUS  HE ES   1   2335  3.65                             144    0.09 7 98.8 176 
 RUS  HZ I        2335  5.08         2.4 0.28            148           98.8 176 
 PTB  HN ES   1   2335  9.00                             132   -0.42 7  147 259 
 PTB  HZ I        2335 16.43         6.4 0.60            131            147 259 
                                                                                
