 2014  4 1 2150 28.2 L   6.830 -73.192145.4  RSN  9 0.5 2.2LRSN                1
 GAP=173        1.01       4.1     5.0  6.6 -0.8241E+01  0.4640E+01  0.3418E+01E
 Epicentro: ZAPATOCA - SANTANDER                                               3
 ACTION:UPD 14-05-13 23:05 OP:nd   STATUS:               ID:20140401215028 L   I
 OLDACT:UP  14-04-02 03:41 OP:mh   STATUS:               ID:20140401214813     3
 OLDACT:UP  14-04-02 03:41 OP:mh   STATUS:               ID:20140401214813     3
 OLDACT:UP  14-04-02 03:41 OP:mh   STATUS:               ID:20140401214813     3
 OLDACT:UP  14-04-02 03:40 OP:mh   STATUS:               ID:20140401214813     3
 OLDACT:UP  14-04-02 03:40 OP:mh   STATUS:               ID:20140401214813     3
 OLDACT:REG 14-04-02 02:41 OP:mh   STATUS:               ID:20140401214813     3
 2014-04-01-2148-13M.COL___258                                                 6
 STAT SP IPHASW D HRMM SECON CODA AMPLIT PERI AZIMU VELO AIN AR TRES W  DIS CAZ7
 BRR  HZ EP       2150 49.10                             155    0.1610 65.1 298 
 BRR  HZ I        2150 59.82        31.0 0.05            151           65.1 298 
 BRR  HN ES       2151  5.75                             155    0.6110 65.1 298 
 PAM  SZ EP       2150 50.30                             150   -0.1010 78.3  44 
 PAM  SN ES       2151  7.68                             150   -0.0610 78.3  44 
 PAM  SZ I        2151  8.92        10.2 0.19            154           78.3  44 
 PTB  HZ EP   1   2150 54.15                             133   -0.57 7  143 257 
 PTB  HN ES       2151 14.79                             133   -0.63 9  143 257 
 PTB  HZ I        2151 21.44        15.5 0.15            131            143 257 
 SPBC HZ EP       2150 56.52                             129   -0.07 9  163 217 
 SPBC HN ES       2151 18.47                             129   -0.29 9  163 217 
 SPBC HZ I        2151 22.70        27.6 0.18            129            163 217 
 ZAR  HZ EP       2150 59.43                             123   -0.54 9  198 292 
 ZAR  HN ES   1   2151 25.42                             123    0.64 6  198 292 
 ZAR  HZ I        2151 32.60        17.8 0.23            122            198 292 
 NOR  HZ EP   1   2151  3.45                             119   -0.20 6  233 233 
 NOR  HN ES       2151 31.37                             119    0.05 8  233 233 
 NOR  HZ I        2151 36.88        13.1 0.16            118            233 233 
 SML  HZ EP       2151  4.17                             118   -0.04 8  239 336 
 SML  HN ES       2151 32.13                             118   -0.20 8  239 336 
 SML  HZ I        2151 36.13        33.7 0.07            118            239 336 
 GUY2CHZ EP       2151 12.57                             112    1.06 7  299 234 
 GUY2CHN ES   4   2151 49.04                             112    3.72 0  299 234 
 RREF HZ EP       2151 14.77                             111    0.66 7  320 228 
 RREF HN ES   4   2151 52.31                             111    2.37 0  320 228 
 RREF HZ I        2151 59.18         8.8 0.39            111            320 228 
 SJC  HZ EP   4   2151 20.38                             106   -2.68 0  404 327 
 SJC  HN ES   4   2152  1.90                             106   -3.97 0  404 327 
                                                                                
