 2013 11 1 2108  3.1 L   6.774 -73.143149.7  RSN  7 0.4 1.9LRSN                1
 GAP=138        0.89       4.4     4.3  5.8 -0.4851E+01  0.5719E+01  0.1887E+01E
 Epicentro: LOS SANTOS - SANTANDER                                             3
 ACTION:UPD 14-01-09 16:24 OP:ep   STATUS:               ID:20131101210803 L   I
 OLDACT:REG 13-11-02 03:38 OP:cam  STATUS:               ID:20131101210738     3
 2013-11-01-2107-38M.COL___220                                                 6
 STAT SP IPHASW D HRMM SECON CODA AMPLIT PERI AZIMU VELO AIN AR TRES W  DIS CAZ7
 BAR2 SZ EP       21 8 23.31                             172    0.1510 20.5 192 
 BAR2 SZ ES       21 8 38.97                             172    0.1710 20.5 192 
 BAR2 SZ I        21 8 39.64        24.6 0.18            171           20.5 192 
 BRR  HZ EP       21 8 24.79                             153    0.0110 72.9 300 
 BRR  HN ES       21 8 42.14                             153    0.4610 72.9 300 
 PAM  SZ EP       21 8 26.07                             151    0.2010 79.5  38 
 PAM  SN ES       21 8 43.43                             151   -0.1910 79.5  38 
 PAM  SZ I        21 8 45.47        10.2 0.58            154           79.5  38 
 RUS  HZ EP       21 8 27.14                             145    0.0910 97.6 176 
 RUS  HN ES       21 8 45.37                             145   -0.3410 97.6 176 
 RUS  HZ I        21 8 47.18         8.1 0.26            146           97.6 176 
 PTB  HZ EP       21 8 29.87                             133   -0.51 9  147 260 
 PTB  HN ES       21 8 51.01                             133   -0.64 9  147 260 
 PTB  HZ I        21 8 55.87        13.1 0.32            133            147 260 
 NOR  HZ EP       21 8 39.30                             119    0.38 8  233 235 
 NOR  HN ES       21 9  7.32                             119    0.48 8  233 235 
 NOR  HZ I        21 9 12.04         8.9 0.20            120            233 235 
 SML  HZ EP   2   21 8 39.56                             118   -0.70 4  246 336 
                                                                                
