 2016 10 1 2231  6.3 L   6.763 -73.142139.1  RSN  7 0.4 1.8LRSN                1
 GAP=139        1.14       5.1     4.7  7.7 -0.1116E+01  0.1144E+02 -0.5719E+00E
 Epicentro: LOS SANTOS - SANTANDER                                             3
 ACTION:UPD 16-11-09 19:15 OP:rebc STATUS:               ID:20161001223106 L   I
 OLDACT:UP  16-10-02 04:36 OP:ar   STATUS:               ID:20161001222744     3
 OLDACT:UP  16-10-02 04:35 OP:ar   STATUS:               ID:20161001222744     3
 OLDACT:REG 16-10-02 03:26 OP:ar   STATUS:               ID:20161001222744     3
 2016-10-01-2228-00M.COL___363                                                 6
 STAT SP IPHASW D HRMM SECON CODA AMPLIT PERI AZIMU VELO AIN AR TRES W  DIS CAZ7
 BAR2 EZ EP       2231 24.73                             172   -0.2810 19.4 193 
 BAR2 EZ ES       2231 39.56                             172   -0.0810 19.4 193 
 BAR2 EZ I        2231 40.74         9.7 0.16            171           19.4 193 
 BRR  HZ EP       2231 26.64                             151   -0.1910 73.5 301 
 BRR  HE ES       2231 43.73                             151    0.8510 73.5 301 
 BRR  HZ I        2231 48.75        10.5 0.36            149           73.5 301 
 PAM  EZ EP       2231 27.70                             149   -0.2510 80.3  37 
 PAM  EN ES       2231 44.89                             149    0.0110 80.3  37 
 PAM  EZ I        2231 47.07        14.5 0.64            152           80.3  37 
 RUS  HZ EP       2231 29.14                             144    0.0810 96.5 176 
 RUS  HN ES       2231 46.91                             144    0.0610 96.5 176 
 RUS  HZ I        2231 48.35         6.1 0.28            147           96.5 176 
 PTB  HZ EP       2231 33.14                             131    0.49 9  147 260 
 PTB  HN ES       2231 52.21                             131   -1.03 9  147 260 
 PTB  HZ I        2231 55.20         5.4 0.12            131            147 260 
 OCA  HE EP   4   2231 38.16                             127    3.71 0  164 353 
 OCA  HN ES   4   2231 54.80                             127   -1.65 0  164 353 
 ZAR  HZ EP       2231 38.79                             121    0.32 8  206 293 
 ZAR  HN ES       2232  3.28                             121   -0.33 8  206 293 
 ZAR  HZ I        2232  9.51        10.3 0.36            122            206 293 
 NOR  HN ES       2232  9.21                             117    0.42 8  233 235 
 NOR  HZ I        2232 15.21         6.5 0.46            119            233 235 
                                                                                
