 2013  6 1 2242 39.5 L   6.800 -73.185142.5  RSN  8 0.3 1.8LRSN                1
 GAP=132        0.84       3.8     3.6  5.2 -0.2132E+01  0.4660E+01  0.3816E+01E
 Epicentro: LOS SANTOS - SANTANDER                                             3
 ACTION:UPD 14-01-08 09:51 OP:ep   STATUS:               ID:20130601224239 L   I
 2013-06-01-2240-00M.COL___261                                                 6
 STAT SP IPHASW D HRMM SECON CODA AMPLIT PERI AZIMU VELO AIN AR TRES W  DIS CAZ7
 BAR2 SZ EP       2242 58.74                             170    0.0110 23.0 179 
 BAR2 SZ ES       2243 13.26                             170   -0.4710 23.0 179 
 BAR2 SZ I        2243 14.91        19.8 0.24            170           23.0 179 
 GIR2 SZ EP       2242 58.79                             167    0.0210 30.8 358 
 GIR2 SZ ES       2243 13.67                             167   -0.1310 30.8 358 
 BRR  HZ EP       2243  0.50                             153    0.4210 67.4 300 
 BRR  HN ES       2243 16.72                             153    0.5910 67.4 300 
 BRR  HZ I        2243 21.39        10.4 0.23            151           67.4 300 
 PAM  SZ EP       2243  1.71                             149    0.1710 80.2  42 
 PAM  SN ES       2243 18.51                             149   -0.2210 80.2  42 
 PAM  SZ I        2243 20.87        11.2 0.42            154           80.2  42 
 RUS  HZ EP       2243  2.92                             143   -0.0410  101 174 
 RUS  HN ES       2243 21.53                             143    0.2710  101 174 
 RUS  HZ I        2243 22.45        11.0 0.28            146            101 174 
 PTB  HZ EP       2243  5.14                             132   -0.67 9  143 258 
 PTB  HN ES       2243 26.36                             132    0.03 9  143 258 
 PTB  HZ I        2243 33.28        10.7 0.44            132            143 258 
 ZAR  HN ES   1   2243 35.66                             122   -0.47 6  200 293 
 NOR  HZ EP       2243 14.82                             118    0.17 8  231 234 
 NOR  HN ES       2243 42.11                             118    0.03 8  231 234 
 NOR  HZ I        2243 47.44         5.0 0.24            119            231 234 
                                                                                
