 2013  2 1 2341 37.6 L   6.814 -73.191139.8  RSN  4 0.1 1.4LRSN                1
 GAP=145        0.34       3.1     2.9  5.2 -0.3673E+01  0.3334E+01 -0.4091E+01E
 Epicentro: ZAPATOCA - SANTANDER                                               3
 ACTION:UPD 13-03-12 09:29 OP:ep   STATUS:               ID:20130201234137 L   I
 2013-02-01-2340-00M.COL___241                                                 6
 STAT SP IPHASW D HRMM SECON CODA AMPLIT PERI AZIMU VELO AIN AR TRES W  DIS CAZ7
 BAR2 SZ EP   1   2341 56.54                             170    0.02 7 24.6 178 
 BAR2 SZ ES   1   2342 11.46                             170    0.16 7 24.6 178 
 BAR2 SZ I        2342 12.59         9.8 0.20            173           24.6 178 
 PAM  SZ EP   1   2341 59.38                             149    0.08 7 79.5  43 
 PAM  SN ES   1   2342 16.11                             149   -0.13 7 79.5  43 
 PAM  SZ I        2342 19.00         3.3 0.38            149           79.5  43 
 RUS  HN ES   1   2342 19.01                             142   -0.09 7  103 173 
 PTB  HN ES   1   2342 23.93                             132   -0.05 7  143 258 
                                                                                
