 2013  7 1 2337  0.0 L   6.800 -73.139142.6  RSN  8 0.5 1.8LRSN                1
 GAP=137        1.07       5.0     6.4  9.8  0.1331E+01  0.2585E+02 -0.1041E+01E
 Epicentro: LOS SANTOS - SANTANDER                                             3
 ACTION:UPD 13-08-12 10:34 OP:ep   STATUS:               ID:20130701233700 L   I
 OLDACT:REG 13-07-02 00:40 OP:carl STATUS:               ID:20130701232960d    3
 2013-07-01-2329-59M.COL___267                                                 6
 STAT SP IPHASW D HRMM SECON CODA AMPLIT PERI AZIMU VELO AIN AR TRES W  DIS CAZ7
 BAR2 SZ EP   1   2337 19.31                             170    0.04 7 23.5 192 
 BAR2 SZ ES   1   2337 33.60                             170   -0.69 7 23.5 192 
 BAR2 SZ I        2337 35.65        13.7 0.18            170           23.5 192 
 GIR2 SZ EP   1   2337 19.44                             167    0.12 7 31.4 349 
 BRR  HZ EP   1   2337 20.88                             152    0.02 7 71.9 298 
 BRR  HE ES   1   2337 38.17                             152    1.05 7 71.9 298 
 BRR  HZ I        2337 41.23         9.5 0.34            150           71.9 298 
 PAM  SN ES       2337 38.52                             151   -0.3810 76.8  39 
 PAM  SN I        2337 40.32        28.1 0.42            154           76.8  39 
 RUS  HZ E        2336 47.00                                            101 177 
 RUS  HZ EP   1   2337 23.36                             143   -0.10 7  101 177 
 RUS  HN ES       2337 42.23                             143    0.4910  101 177 
 RUS  HZ I        2337 42.93         3.8 0.24            147            101 177 
 PTB  HZ EP   1   2337 26.09                             131   -0.71 7  149 259 
 PTB  HN ES   1   2337 46.93                             131   -0.76 7  149 259 
 PTB  HZ I        2337 50.10         7.1 0.48            132            149 259 
 OCA  HE ES   1   2337 50.13                             129    0.15 7  160 353 
 ZAR  HZ EP   1   2337 33.03                             121    0.69 6  205 292 
 ZAR  HE ES   1   2337 57.57                             121    0.03 6  205 292 
 ZAR  HZ I        2338  3.77         7.2 0.36            123            205 292 
                                                                                
