 2014  1 1 2347 20.3 L   6.853 -73.207140.0  RSN  7 0.5 1.7LRSN                1
 GAP=127        1.23       4.1     6.4 10.2 -0.3996E+01  0.9323E+01  0.9143E+01E
 Epicentro: ZAPATOCA - SANTANDER                                               3
 ACTION:UPD 14-03-13 09:50 OP:ep   STATUS:               ID:20140101234720 L   I
 OLDACT:DUP 14-01-02 00:32 OP:nd   STATUS:               ID:20140101234001d    3
 2014-01-01-2340-00M.COL___285                                                 6
 STAT SP IPHASW D HRMM SECON CODA AMPLIT PERI AZIMU VELO AIN AR TRES W  DIS CAZ7
 BRR  HZ EP       2347 41.34                             154    0.9810 62.5 297 
 BRR  HN ES   2   2347 56.47                             154    0.48 5 62.5 297 
 BRR  HZ I        2348  2.35         8.8 0.09            153           62.5 297 
 PAM  SZ IP     C 2347 42.39                             149    0.4510 77.7  46 
 PAM  SN ES       2347 58.69                             149   -0.1210 77.7  46 
 PAM  SZ I        2348  1.25        16.3 0.54            154           77.7  46 
 RUS  HZ EP       2347 43.36                             141   -0.6310  107 173 
 RUS  HN ES   4   2348  0.51                             141   -1.95 0  107 173 
 RUS  HZ I        2348  3.09         6.5 0.26            146            107 173 
 PTB  HZ EP       2347 46.91                             132    0.59 9  142 256 
 PTB  HN ES       2348  6.23                             132   -0.38 9  142 256 
 PTB  HZ I        2348 10.44         8.4 0.12            134            142 256 
 OCA  HZ EP       2347 47.67                             129    0.10 9  154 355 
 OCA  HN ES       2348  8.37                             129   -0.45 9  154 355 
 OCA  HZ I        2348 14.68         7.8 0.30            133            154 355 
 SML  HZ EP       2347 55.82                             117    0.08 8  236 336 
 SML  HN ES       2348 22.72                             117   -0.65 8  236 336 
 SML  HZ I        2348 30.38         8.5 0.10            120            236 336 
 CHI  HZ EP       2347 57.62                             115   -0.51 8  253 193 
 CHI  HN ES       2348 27.59                             115   -0.04 8  253 193 
 CHI  HZ I        2348 31.08         1.6 0.32            120            253 193 
                                                                                
