 2017  5 1 2311  3.5 L   6.786 -73.156146.6  RSN  4 0.4 1.8LRSN                1
 GAP=136        0.99       5.4     5.3  9.6 -0.3384E+01 -0.9302E+00  0.7139E+01E
 Epicentro: LOS SANTOS - SANTANDER                                             3
 ACTION:UPD 17-06-16 13:31 OP:jn   STATUS:               ID:20170501231103 L   I
 OLDACT:REG 17-05-02 04:08 OP:dnl  STATUS:               ID:20170501230746     3
 2017-05-01-2308-00M.COL___371                                                 6
 STAT SP IPHASW D HRMM SECON CODA AMPLIT PERI AZIMU VELO AIN AR TRES W  DIS CAZ7
 BRR  HZ EP       2311 24.95                             153    0.2210 70.9 300 
 BRR  HE ES       2311 41.83                             153    0.5510 70.9 300 
 BRR  HZ I        2311 42.19        24.4 0.32            154           70.9 300 
 PAM  EZ EP       2311 26.03                             150    0.1110 79.3  40 
 PAM  EN ES       2311 42.92                             150   -0.4810 79.3  40 
 PAM  EZ I        2311 44.88         9.1 0.52            152           79.3  40 
 RUS  HZ EP       2311 27.55                             144    0.3110 99.2 175 
 RUS  HE ES       2311 45.67                             144   -0.0710 99.2 175 
 RUS  HZ I        2311 47.69         6.8 0.16            145           99.2 175 
 PTB  HZ EP   2   2311 29.55                             132   -0.86 5  146 259 
 PTB  HN ES       2311 50.87                             132   -0.52 9  146 259 
 PTB  HZ I        2311 53.34         8.8 0.46            134            146 259 
                                                                                
