 2015  4 1 2017  1.3 L   6.803 -73.144145.9  RSN 11 0.4 2.1LRSN                1
 GAP=137        1.05       2.9     4.1  5.6 -0.2744E+01  0.7085E+01 -0.1184E+01E
 Epicentro: LOS SANTOS - SANTANDER                                             3
 ACTION:UPD 15-06-03 16:51 OP:cam  STATUS:               ID:20150401201701 L   I
 OLDACT:REG 15-04-02 04:48 OP:stll STATUS:               ID:20150401200750     3
 2015-04-01-2007-50M.COL___280                                                 6
 STAT SP IPHASW D HRMM SECON CODA AMPLIT PERI AZIMU VELO AIN AR TRES W  DIS CAZ7
 BAR2 EZ IP     D 2017 20.99                             170    0.0610 23.7 190 
 BAR2 EZ I        2017 21.30        31.3 0.10            170           23.7 190 
 BAR2 EZ ES       2017 36.46                             170    0.2010 23.7 190 
 BRR  HZ IP     D 2017 22.82                             153    0.3810 71.2 298 
 BRR  HZ I        2017 22.97        25.4 0.18            150           71.2 298 
 BRR  HN ES       2017 39.21                             153    0.2610 71.2 298 
 PAM  SZ EP     D 2017 23.73                             151    0.2510 77.0  40 
 PAM  SZ I        2017 23.92        31.3 0.22            154           77.0  40 
 PAM  SE ES       2017 40.92                             151    0.1210 77.0  40 
 RUS  HZ EP     D 2017 24.91                             144   -0.1510  101 176 
 RUS  HN ES       2017 43.21                             144   -0.4110  101 176 
 RUS  HZ I        2017 44.21         9.1 0.50            146            101 176 
 PTB  HZ EP       2017 27.73                             132   -0.55 9  148 259 
 PTB  HE ES       2017 48.97                             132   -0.38 9  148 259 
 PTB  HZ I        2017 54.64        11.4 0.16            131            148 259 
 OCA  HZ EP       2017 29.69                             130    0.12 9  160 353 
 OCA  HN ES       2017 51.54                             130   -0.10 9  160 353 
 OCA  HZ I        2017 56.11        23.5 0.24            130            160 353 
 SPBC HZ EP       2017 30.06                             129    0.23 9  164 219 
 SPBC HE ES       2017 51.91                             129   -0.18 9  164 219 
 SPBC HZ I        2017 53.31        19.5 0.18            129            164 219 
 ZAR  HZ EP       2017 33.50                             122   -0.24 9  204 292 
 ZAR  HE ES       2017 59.68                             122    0.62 9  204 292 
 ZAR  HZ I        2018  5.07        20.3 0.52            122            204 292 
 NOR  HZ EP       2017 37.24                             118    0.18 8  235 234 
 NOR  HN ES       2018  4.43                             118   -0.53 8  235 234 
 NOR  HZ I        2018 12.29         6.9 0.42            119            235 234 
 SML  HZ EP       2017 36.95                             117   -0.94 8  244 335 
 SML  HN ES       2018  6.03                             117   -0.42 8  244 335 
 GUY2CHZ EP       2017 46.34                             112    1.40 7  302 235 
 GUY2CHE ES       2018 19.28                             112    0.29 7  302 235 
 GUY2CHZ I        2018 27.39         5.7 0.46                           302 235 
                                                                                
