 2012  3 1 2239 52.3 L   6.787 -73.130157.5  RSN  6 0.4 1.9LRSN                1
 GAP=139        0.63       5.7     4.8  8.6 -0.6528E+01  0.5267E+01  0.9633E-01E
 ACTION:UP  12-03-31 23:16 OP:EP   STATUS:               ID:20120301223952 L   I
 2012-03-01-2240-00M.COL___191                                                 6
 STAT SP IPHASW D HRMM SECON CODA AMPLIT PERI AZIMU VELO SNR AR TRES W  DIS CAZ7
 BRR  HZ EP       2240 15.07                             154     0.210   73 299 
 BRR  HZ I        2240 16.56        19.4 0.13                            73 299 
 BRR  HE ES   2   2240 33.10                             154     0.7 5   73 299 
 PAM  SZ EP       2240 15.82                             153     0.110   77  38 
 PAM  SN ES   2   2240 33.32                             153    -0.7 5   77  38 
 RUS  HZ EP   2   2240 17.06                             147     0.0 5   99 177 
 RUS  HN ES   2   2240 36.34                             147    -0.1 5   99 177 
 RUS  HZ I        2240 37.49         4.1 0.50                            99 177 
 PTB  HZ EP   2   2240 19.89                             134    -0.5 5  149 260 
 PTB  HE ES   2   2240 42.07                             134    -0.2 5  149 260 
 ZAR  HZ EP   2   2240 25.83                             124     0.1 4  206 292 
 ZAR  HN ES   2   2240 51.18                             124    -0.6 4  206 292 
 ZAR  HZ I        2240 57.55        10.0 0.37                           206 292 
 NOR  SZ EP   2   2240 28.44                             121    -0.3 4  235 235 
 NOR  SE ES   2   2240 57.40                             121     0.2 4  235 235 
                                                                                
