 2011  1 1 2208 18.8 L   6.793 -73.125146.6  RSN  7 0.2 1.6LRSN                1
 GAP=138        0.50       2.7     5.1  4.9 -0.2592E+01  0.4424E+01  0.2832E+01E
 Epicentro: LOS SANTOS - SANTANDER                                             3
 ACTION:UP  11-02-08 08:37 OP:pat  STATUS:               ID:20110101220818 L   I
 2011-01-01-2203-10S.COL___135                                                 6
 STAT SP IPHASW D HRMM SECON CODA AMPLIT PERI AZIMU VELO SNR AR TRES W  DIS CAZ7
 BTL  SZ EP       22 8 38.79                             171     0.310   21 311 
 BTL  SZ ES   2   22 8 54.00                             171     0.2 5   21 311 
 BAR2 SZ EP   2   22 8 38.47                             171    -0.1 5   23 196 
 BAR2 SZ ES   2   22 8 53.95                             171     0.0 5   23 196 
 BAR2 SZ I        22 8 54.82        16.2 0.17                            23 196 
 RUS  HZ EP   1   22 8 42.38                             144    -0.2 7  100 177 
 RUS  HN ES   1   22 9  1.06                             144     0.0 7  100 177 
 RUS  HZ I        22 9  2.46         3.8 0.24                           100 177 
 GRA  SZ EP   2   22 8 44.17                             137     0.0 5  126  16 
 GRA  SZ ES   1   22 9  3.60                             137    -0.3 7  126  16 
 GRA  SZ I        22 9  5.94         5.0 0.40                           126  16 
 YOP  SZ EP   1   22 8 48.55                             127    -0.2 7  177 154 
 YOP  SN ES   2   22 9 12.03                             127    -0.1 4  177 154 
 YOP  SZ I        22 9 13.92         4.3 0.29                           177 154 
 NOR  SZ EP   1   22 8 54.48                             118    -0.3 6  236 235 
 NOR  SN ES   2   22 9 22.42                             118    -0.4 4  236 235 
 CHI  HZ EP   1   22 8 56.98                             117     0.5 6  248 196 
 CHI  HN ES   2   22 9 26.12                             117     0.2 4  248 196 
 CHI  HZ I        22 9 33.16         2.7 0.46                           248 196 
                                                                                
