 2011 11 1 2358 10.6 L   7.440 -73.441114.7  RSN  5 0.3 1.8LRSN                1
 GAP= 96        0.45       3.5     3.3  6.7 -0.5717E-01  0.3326E+01 -0.4397E+01E
 Epicentro: SABANA DE TORRES - SANTANDER                                       3
 ACTION:UPD 12-07-13 16:07 OP:ep   STATUS:               ID:20111101235810 L   I
 2011-11-01-2353-48S.COL___176                                                 6
 STAT SP IPHASW D HRMM SECON CODA AMPLIT PERI AZIMU VELO AIN AR TRES W  DIS CAZ7
 BRR  HZ EP   1   2358 26.95                             156   -0.10 7 47.4 219 
 BRR  HZ I        2358 27.35        19.6 0.34                          47.4 219 
 BRR  HE ES   2   2358 40.14                             156    0.24 5 47.4 219 
 PAM  SZ EP   1   2358 30.35                             142    0.36 7 82.7  98 
 PAM  SN ES   2   2358 45.37                             142    0.25 5 82.7  98 
 OCA  SZ EP   1   2358 29.90                             139   -0.14 7 89.4   9 
 OCA  SZ ES   2   2358 44.91                             139   -0.31 5 89.4   9 
 OCA  SZ I        2358 45.47        17.9 0.26                          89.4   9 
 BAR2 SZ EP   2   2358 30.57                             137   -0.29 5 98.0 163 
 BAR2 SZ ES   2   2358 46.27                             137   -0.40 5 98.0 163 
 BAR2 SZ I        2358 47.50         8.1 0.29                          98.0 163 
 ZAR  HZ EP   2   2358 36.16                             122    0.06 5  156 272 
 ZAR  HE ES   2   2358 56.21                             122    0.21 5  156 272 
 ZAR  HZ I        2359  1.03         7.4 0.07                           156 272 
                                                                                
