 2013  5 1 2158 28.1 L   6.795 -73.119143.4  RSN 10 0.5 2.4LRSN                1
 GAP= 73        1.05       4.1     4.2  5.6 -0.1942E+01  0.5871E+01  0.1995E+01E
 Epicentro: LOS SANTOS - SANTANDER                                             3
 ACTION:UPD 13-06-20 09:47 OP:ep   STATUS:               ID:20130501215828 L   I
 2013-05-01-2150-00M.COL___253                                                 6
 STAT SP IPHASW D HRMM SECON CODA AMPLIT PERI AZIMU VELO AIN AR TRES W  DIS CAZ7
 BAR2 SZ IP     D 2158 47.50                             170    0.0810 23.4 197 
 BAR2 SZ ES       2159  2.22                             170   -0.2910 23.4 197 
 BAR2 SZ I        2159  3.61        65.5 0.21            170           23.4 197 
 GIR2 SZ IP     C 2158 47.57                             167    0.0710 32.5 345 
 GIR2 SZ ES       2159  2.74                             167    0.0910 32.5 345 
 GIR2 SZ I        2159  4.50        39.4 0.48            166           32.5 345 
 BRR  HZ IP     C 2158 49.37                             151    0.2310 74.1 298 
 BRR  HN ES   1   2159  6.37                             151    0.81 7 74.1 298 
 BRR  HZ I        2159  7.02        53.2 0.28            150           74.1 298 
 PAM  SZ EP     C 2158 50.31                             151    0.3510 76.0  38 
 PAM  SN ES       2159  7.14                             151    0.1110 76.0  38 
 PAM  SZ I        2159  8.04        22.4 0.20            152           76.0  38 
 RUS  HZ IP     C 2158 51.45                             143   -0.0910 99.8 178 
 RUS  HN ES       2159  9.56                             143   -0.2810 99.8 178 
 RUS  HZ I        2159 11.60        27.8 0.46            145           99.8 178 
 PTB  HZ EP       2158 54.21                             131   -0.90 9  151 259 
 PTB  HN ES   4   2159 14.45                             131   -1.74 0  151 259 
 PTB  HZ I        2159 17.50        35.0 0.14            131            151 259 
 TAM  HZ EP       2158 55.66                             130    0.37 9  152 105 
 TAM  HN ES   1   2159 16.53                             130    0.02 7  152 105 
 TAM  HZ I        2159 17.93        29.8 0.20            132            152 105 
 OCA  HZ EP       2158 55.73                             129   -0.57 9  161 352 
 OCA  HN ES   1   2159 17.48                             129   -0.83 7  161 352 
 OCA  HZ I        2159 22.48        26.0 0.22            129            161 352 
 NOR  HZ EP     C 2159  3.93                             118    0.04 8  237 235 
 NOR  HN ES   1   2159 31.38                             118   -0.44 6  237 235 
 NOR  HZ I        2159 33.26        21.8 0.30            118            237 235 
 HEL  HZ EP       2159  9.30                             114    0.83 8  275 256 
 HEL  HN ES   1   2159 40.74                             114    0.77 6  275 256 
 HEL  HZ I        2159 46.56        22.6 0.30            114            275 256 
                                                                                
