 2014  9 1 2236 21.2 L   6.724 -73.171149.5  RSN  4 0.3 1.5LRSN                1
 GAP=229        0.78       6.3     6.0  6.3  0.1826E+02  0.3715E+01  0.7827E+00E
 Epicentro: VILLANUEVA - SANTANDER                                             3
 ACTION:UPD 14-10-03 23:01 OP:nd   STATUS:               ID:20140901223621 L   I
 OLDACT:REG 14-09-02 03:11 OP:stll STATUS:               ID:20140901222816     3
 2014-09-01-2228-16M.COL___273                                                 6
 STAT SP IPHASW D HRMM SECON CODA AMPLIT PERI AZIMU VELO AIN AR TRES W  DIS CAZ7
 BAR2 SZ EP       2236 41.12                             174   -0.0610 14.7 185 
 BAR2 SZ ES       2236 56.18                             174   -0.5510 14.7 185 
 BAR2 SZ I        2236 57.33         7.6 0.14            175           14.7 185 
 BRR  HZ EP       2236 42.98                             152    0.0710 73.3 305 
 BRR  HN ES       2237  0.23                             152    0.4210 73.3 305 
 BRR  HZ I        2237  3.77         8.6 0.40            152           73.3 305 
 RUS  HZ EP       2236 44.91                             147    0.1110 92.5 174 
 RUS  HN ES       2237  3.49                             147    0.3110 92.5 174 
 RUS  HZ I        2237  4.62         3.2 0.22            149           92.5 174 
 PTB  HZ EP       2236 47.88                             134   -0.26 9  144 262 
 PTB  HN ES       2237  9.05                             134   -0.09 9  144 262 
 PTB  HZ I        2237 10.85         3.7 0.18            135            144 262 
                                                                                
