 2015  5 1 2004 42.9 L   6.099 -73.305160.0  RSN 18 0.4 2.1LRSN                1
 GAP= 63        0.93       2.9     3.3  4.9 -0.3063E+01  0.2884E+01 -0.6904E+00E
 Epicentro: SUAITA - SANTANDER                                                 3
 ACTION:UP  15-09-10 22:00 OP:cam  STATUS:               ID:20150501200442 L   I
 OLDACT:UP  15-05-02 06:38 OP:spq  STATUS:               ID:20150501195750     3
 OLDACT:UP  15-05-02 06:37 OP:spq  STATUS:               ID:20150501195750     3
 OLDACT:REG 15-05-02 06:22 OP:spq  STATUS:               ID:20150501195750     3
 2015-05-01-1957-50M.COL___280                                                 6
 STAT SP IPHASW D HRMM SECON CODA AMPLIT PERI AZIMU VELO AIN AR TRES W  DIS CAZ7
 RUS  HZ EP       20 5  4.81                             168   -0.0210 33.5 133 
 RUS  HE ES       20 5 22.17                             168    0.2210 33.5 133 
 RUS  HZ  IAML    20 5 25.39        21.5 0.58                          33.5 133 
 BAR2 EZ EP       20 5  4.90                             160   -0.3310 56.2  14 
 BAR2 EZ ES   1   20 5 22.03                             160   -0.63 7 56.2  14 
 BAR2 EZ  IAML    20 5 23.72        23.5 0.32                          56.2  14 
 SPBC HZ EP       20 5  7.38                             147    0.0510 98.3 240 
 SPBC HN ES       20 5 26.71                             147    0.3010 98.3 240 
 SPBC HZ  IAML    20 5 30.43        33.9 0.18                          98.3 240 
 BRR  HZ EP       20 5  9.05                             141    0.2710  120 338 
 BRR  HN ES       20 5 29.99                             141    1.0210  120 338 
 BRR  HZ  IAML    20 5 32.32        12.8 0.18                           120 338 
 PAM  SZ EP       20 5 12.43                             134    0.31 9  153  26 
 PAM  SN ES       20 5 34.43                             134   -0.49 9  153  26 
 PAM  SZ  IAML    20 5 36.69        10.2 0.20                           153  26 
 CHI  HZ EP       20 5 13.64                             131    0.14 9  169 196 
 CHI  HN ES       20 5 37.05                             131   -0.34 9  169 196 
 CHI  HZ  IAML    20 5 39.25         9.1 0.36                           169 196 
 TAM  HZ EP       20 5 13.05                             131   -0.17 9  172  77 
 NOR  HZ EP       20 5 14.08                             129   -0.23 9  183 251 
 NOR  HE ES       20 5 38.41                             129   -0.41 9  183 251 
 NOR  HZ  IAML    20 5 45.07        20.8 0.46                           183 251 
 ZAR  HZ EP   1   20 5 18.95                             122   -0.05 6  231 312 
 ZAR  HN ES       20 5 46.54                             122   -0.63 8  231 312 
 ZAR  HZ  IAML    20 5 53.73        18.5 0.52                           231 312 
 OCA  HZ EP   1   20 5 19.81                             121   -0.00 6  237 360 
 OCA  HN ES   1   20 5 48.85                             121    0.23 6  237 360 
 HEL  HZ EP       20 5 21.30                             120    0.19 8  246 272 
 HEL  HN ES   1   20 5 50.58                             120   -0.35 6  246 272 
 HEL  HZ  IAML    20 6  1.05         9.3 0.28                           246 272 
 GUY2CHZ EP   1   20 5 21.59                             120    0.18 6  248 247 
 GUY2CHE ES   4   20 5 53.05                             120    1.59 0  248 247 
 GUY2CHZ  IAML    20 5 58.63         7.5 0.44                           248 247 
 RREF HZ EP   1   20 5 24.14                             119    1.00 6  262 240 
 RREF HE ES   1   20 5 55.12                             119    0.57 6  262 240 
 RREF HZ  IAML    20 5 59.26         2.4 0.52                           262 240 
 TOL  SZ EP   1   20 5 24.59                             117    0.01 6  279 233 
 CBOC HZ EP   1   20 5 26.83                             115    0.07 5  301 265 
 CBOC HN ES   1   20 6  0.23                             115   -0.75 5  301 265 
 CBOC HZ  IAML    20 6  7.81         4.1 0.43                           301 265 
 SML  HZ EP   1   20 5 27.04                             114   -0.57 5  311 344 
 SML  HE ES   4   20 6  1.35                             114   -1.15 0  311 344 
 SML  HZ  IAML    20 6  5.10        16.1 0.15                           311 344 
 MON  HZ EP   4   20 5 34.80                             109   -2.36 0  395 319 
 MON  HN ES   4   20 6 17.99                             109   -1.51 0  395 319 
 MON  HZ  IAML    20 6 24.84         3.3 0.44                           395 319 
 SJC  HZ EP   4   20 5 43.44                             105   -2.38 0  468 334 
 SJC  HE ES   4   20 6 30.71                             105   -4.20 0  468 334 
 SJC  HZ  IAML    20 6 42.78         3.1 0.54                           468 334 
                                                                                
