 2013  2 1 2224 17.1 L   6.799 -73.156145.2  RSN  8 0.4 1.9LRSN                1
 GAP=135        0.77       3.9     4.8  7.0  0.1601E+01  0.9603E+01 -0.3647E+01E
 Epicentro: LOS SANTOS - SANTANDER                                             3
 ACTION:UPD 13-03-12 09:29 OP:ep   STATUS:               ID:20130201222417 L   I
 2013-02-01-2220-00M.COL___241                                                 6
 STAT SP IPHASW D HRMM SECON CODA AMPLIT PERI AZIMU VELO AIN AR TRES W  DIS CAZ7
 BAR2 SZ EP   1   2224 36.60                             171   -0.08 7 23.0 187 
 BAR2 SZ ES   1   2224 51.38                             171   -0.55 7 23.0 187 
 BAR2 SZ I        2224 53.39        19.3 0.38            154           23.0 187 
 BRR  HZ EP       2224 38.76                             153    0.6010 70.3 299 
 PAM  SZ EP   1   2224 39.32                             150   -0.01 7 78.2  40 
 PAM  SE ES   1   2224 56.66                             150    0.02 7 78.2  40 
 PAM  SZ I        2224 58.85        24.7 0.58            140           78.2  40 
 RUS  HZ EP   1   2224 40.48                             144   -0.33 7  101 175 
 RUS  HN ES   1   2224 59.83                             144    0.54 7  101 175 
 RUS  HZ I        2225  0.32         4.2 0.34            124            101 175 
 PTB  HZ EP   1   2224 43.60                             132   -0.34 7  147 259 
 PTB  HN ES   1   2225  4.50                             132   -0.36 7  147 259 
 PTB  HZ I        2225 10.49        13.3 0.24            117            147 259 
 ZAR  HN ES   1   2225 15.06                             122    0.43 6  203 292 
 ZAR  HZ I        2225 20.81        10.3 0.26            110            203 292 
 SML  HZ EP   1   2224 53.32                             117   -0.36 6  243 336 
 SML  HN ES   1   2225 22.00                             117   -0.19 6  243 336 
 CHI  HZ EP   1   2224 54.71                             117   -0.03 6  248 195 
 CHI  HZ I        2225 27.66         2.6 0.20            104            248 195 
                                                                                
