 2013  4 1 2146  6.6 L   6.788 -73.116149.2  RSN  8 0.5 2.2LRSN                1
 GAP=141        1.00       4.2     5.2  6.3 -0.1217E+01  0.6516E+01 -0.2955E+00E
 Epicentro: LOS SANTOS - SANTANDER                                             3
 ACTION:UPD 13-05-22 14:35 OP:EP   STATUS:               ID:20130401214606 L   I
 2013-04-01-2140-00M.COL___245                                                 6
 STAT SP IPHASW D HRMM SECON CODA AMPLIT PERI AZIMU VELO AIN AR TRES W  DIS CAZ7
 BAR2 SZ EP       2146 26.61                             171    0.0210 22.8 199 
 BAR2 SZ ES       2146 41.97                             171   -0.2510 22.8 199 
 BAR2 SZ I        2146 43.14        29.4 0.36            170           22.8 199 
 BRR  HZ EP       2146 28.44                             152    0.1610 74.7 298 
 BRR  HN ES       2146 45.91                             152    0.6910 74.7 298 
 BRR  HN I        2146 47.76        54.6 0.18            151           74.7 298 
 PAM  SZ EP       2146 29.39                             152    0.3110 76.4  37 
 PAM  SN ES       2146 46.61                             152   -0.0410 76.4  37 
 PAM  SN I        2146 48.03        30.0 0.44            153           76.4  37 
 RUS  HZ EP   1   2146 30.54                             145    0.00 7 99.1 178 
 RUS  HN ES   1   2146 48.70                             145   -0.55 7 99.1 178 
 RUS  HN I        2146 49.66        25.6 0.30            146           99.1 178 
 PTB  HZ EP       2146 33.15                             132   -0.93 9  151 260 
 PTB  HE ES   1   2146 55.61                             132    0.07 7  151 260 
 PTB  HE I        2146 59.05        17.3 0.10            132            151 260 
 ZAR  HZ EP   1   2146 40.23                             123    0.63 6  208 292 
 ZAR  HE ES   1   2147  4.84                             123   -0.52 6  208 292 
 CHI  HZ EP   1   2146 45.00                             118    0.59 6  248 196 
 CHI  HN ES   1   2147 14.34                             118    0.41 6  248 196 
 CHI  HN I        2147 17.29        10.1 0.36            118            248 196 
 COD  HZ EP   1   2146 55.05                             109   -0.22 5  350 354 
 COD  HN ES   1   2147 32.57                             109   -0.68 5  350 354 
 COD  HN I        2147 37.58         4.7 0.30            110            350 354 
                                                                                
