 2017  5 1 2333 12.6 L   6.813 -73.177149.9  RSN  5 0.3 1.4LRSN                1
 GAP=132        0.68       3.2     3.7  6.2 -0.1895E+01 -0.8084E+00  0.6133E+01E
 Epicentro: ZAPATOCA - SANTANDER                                               3
 ACTION:UPD 17-06-16 13:31 OP:jn   STATUS:               ID:20170501233312 L   I
 OLDACT:DUP 17-05-02 05:45 OP:dnl  STATUS:               ID:20170501232738d    3
 2017-05-01-2328-00M.COL___371                                                 6
 STAT SP IPHASW D HRMM SECON CODA AMPLIT PERI AZIMU VELO AIN AR TRES W  DIS CAZ7
 BRR  HZ EP       2333 34.25                             154    0.2510 67.5 299 
 BRR  HN ES       2333 51.07                             154    0.3810 67.5 299 
 BRR  HZ I        2333 54.23         4.1 0.14            154           67.5 299 
 PAM  EZ EP       2333 35.41                             151    0.0810 78.5  42 
 PAM  EE ES       2333 52.81                             151   -0.2410 78.5  42 
 PAM  EZ I        2333 54.60         5.5 0.52            154           78.5  42 
 RUS  HZ EP       2333 36.65                             144   -0.2310  102 174 
 RUS  HN ES       2333 55.84                             144    0.0210  102 174 
 RUS  HZ I        2333 56.33         3.7 0.34            145            102 174 
 PTB  HZ EP   2   2333 39.56                             134   -0.08 5  145 258 
 PTB  HN ES       2334  0.25                             134   -0.48 9  145 258 
 PTB  HZ I        2334  3.95         2.5 0.44            134            145 258 
 CHI  HZ EP   2   2333 50.47                             118   -0.12 4  249 194 
 CHI  HN ES       2334 20.53                             118    0.31 8  249 194 
 CHI  HZ I        2334 25.71         1.6 0.44            119            249 194 
                                                                                
