 2013  2 1 2242 58.5 L   6.749 -73.154141.2  RSN  7 0.3 1.6LRSN                1
 GAP=138        0.70       4.3     4.1  6.2  0.2039E+01  0.4880E+01  0.4495E+01E
 Epicentro: LOS SANTOS - SANTANDER                                             3
 ACTION:UPD 13-03-12 09:29 OP:ep   STATUS:               ID:20130201224258 L   I
 2013-02-01-2240-00M.COL___241                                                 6
 STAT SP IPHASW D HRMM SECON CODA AMPLIT PERI AZIMU VELO AIN AR TRES W  DIS CAZ7
 BAR2 SZ EP   1   2243 17.52                             173    0.03 7 17.6 190 
 BAR2 SZ ES   1   2243 32.35                             173    0.06 7 17.6 190 
 BAR2 SZ I        2243 34.22        10.7 0.20            171           17.6 190 
 BRR  HZ EP   1   2243 19.50                             151    0.21 7 73.2 303 
 BRR  HN ES   1   2243 36.15                             151    0.66 7 73.2 303 
 BRR  HZ I        2243 38.64        12.1 0.64            150           73.2 303 
 PAM  SZ EP   1   2243 20.52                             148   -0.04 7 82.3  38 
 PAM  SN ES   1   2243 37.26                             148   -0.49 7 82.3  38 
 PAM  SZ I        2243 38.34         3.8 0.16            152           82.3  38 
 RUS  HZ EP   1   2243 21.70                             144    0.28 7 95.1 175 
 RUS  HN ES   1   2243 39.25                             144   -0.03 7 95.1 175 
 RUS  HZ I        2243 41.65         2.9 0.39            147           95.1 175 
 PTB  HZ EP   1   2243 24.62                             131   -0.32 7  146 261 
 PTB  HN ES   1   2243 44.84                             131   -0.71 7  146 261 
 PTB  HZ I        2243 47.96         5.6 0.18            131            146 261 
 ZAR  HN ES   1   2243 56.15                             121    0.16 6  205 294 
 ZAR  HZ I        2244  1.90         5.6 0.44            122            205 294 
 CHI  HZ EP   1   2243 35.50                             117    0.15 6  243 195 
                                                                                
