 2011  4 1 2356 39.8 L   6.730 -73.090142.3  RSN  7 0.4 2.1LRSN                1
 GAP=164        1.08       6.4    10.0  9.2 -0.3021E+02  0.3361E+01  0.1324E+02E
 Epicentro: JORDAN - SANTANDER                                                 3
 ACTION:UP  11-06-22 15:27 OP:REBC STATUS:               ID:20110401235639 L   I
 2011-04-01-2340-00M.COL___139                                                 6
 STAT SP IPHASW D HRMM SECON CODA AMPLIT PERI AZIMU VELO SNR AR TRES W  DIS CAZ7
 BAR2 SZ EP   1   2356 58.36                             172    -0.6 7   18 214 
 BAR2 SZ I        2356 59.17        28.4 0.14                            18 214 
 BAR2 SZ ES   1   2357 13.99                             172     0.2 7   18 214 
 BTL  SZ EP   1   2357  0.09                             168     1.0 7   29 317 
 PAM  SZ EP   1   2357  1.58                             149    -0.2 7   80  33 
 PAM  SE ES   1   2357 18.47                             149    -0.5 7   80  33 
 PAM  SZ I        2357 20.97        10.4 0.19                            80  33 
 BRR  HZ EP       2357  0.74                             149    -0.410   80 301 
 BRR  HN ES   1   2357 17.93                             149     0.2 7   80 301 
 BRR  HZ I        2357 20.44        39.5 0.16                            80 301 
 GRA  SZ EP       2357  5.67                             135     0.410  132  14 
 GRA  SZ ES   1   2357 25.15                             135     0.1 7  132  14 
 GRA  SZ I        2357 26.42        22.4 0.39                           132  14 
 CHI  HZ EP   1   2357 16.84                             117     0.2 6  243 197 
 CHI  HN ES   1   2357 45.53                             117     0.1 6  243 197 
 CHI  HZ I        2357 50.27         9.9 0.39                           243 197 
 HEL  HZ EP   1   2357 19.89                             114    -0.4 6  276 258 
 HEL  HZ I        2357 55.57         6.5 0.23                           276 258 
                                                                                
