 2011  7 1 2251 45.7 L   6.781 -73.144144.5  RSN 20 0.4 3.0LRSN                1
 GAP= 64        0.72       2.5     4.2  4.0 -0.3406E+01  0.4950E+01  0.2710E+01E
 Epicentro: LOS SANTOS - SANTANDER                                             3
 ACTION:UPD 12-07-25 13:57 OP:epov STATUS:               ID:20110701225145 L   I
 2011-07-01-2247-09S.COL___140                                                 6
 STAT SP IPHASW D HRMM SECON CODA AMPLIT PERI AZIMU VELO AIN AR TRES W  DIS CAZ7
 SAN  SZ EP       2252  5.57                             177    0.6510 7.94 103 
 BTL  SZ EP       2252  5.31                             172    0.1810 20.5 318 
 BTL  SZ ES   1   2252 19.66                             172   -0.62 7 20.5 318 
 BAR2 SZ IP       2252  5.13                             171   -0.0110 21.3 192 
 BAR2 SZ ES   1   2252 19.72                             171   -0.58 7 21.3 192 
 BAR2 SZ I        2252 21.70       259.8 0.15                          21.3 192 
 GIR2 SZ IP       2252  5.22                             166   -0.0710 33.4 351 
 GIR2 SZ ES   1   2252 21.01                             166    0.45 7 33.4 351 
 BRR  HZ IP     D 2252  7.04                             152    0.2510 72.4 300 
 BRR  HN ES   2   2252 24.04                             152    0.81 5 72.4 300 
 BRR  HZ I        2252 26.92       297.4 0.14                          72.4 300 
 PAM  SZ EP       2252  7.98                             150    0.1010 78.9  38 
 PAM  SN ES   1   2252 25.02                             150   -0.15 7 78.9  38 
 RUS  HZ EP       2252  8.94                             144   -0.2410 98.4 176 
 RUS  HZ I        2252 28.44        98.5 0.34                          98.4 176 
 BRI  SZ EP       2252  9.76                             140    0.1410  110  20 
 BRI  SZ ES   1   2252 28.09                             140   -0.19 7  110  20 
 GRA  SZ IP       2252 10.94                             136   -0.0610  128  17 
 GRA  SZ ES   1   2252 30.88                             136    0.15 7  128  17 
 GRA  SZ I        2252 32.24       154.1 0.28                           128  17 
 OCA  SZ EP       2252 13.79                             129   -0.33 9  162 353 
 OCA  SZ ES   1   2252 35.90                             129   -0.39 7  162 353 
 OCA  SZ I        2252 41.35       118.0 0.17                           162 353 
 YOP  SZ EP   2   2252 15.85                             126    0.39 4  177 153 
 YOP  SE ES   2   2252 38.93                             126    0.26 4  177 153 
 NOR  SZ EP       2252 20.87                             118   -0.38 8  234 235 
 NOR  SN ES   2   2252 48.30                             118   -0.67 4  234 235 
 CHI  HZ EP       2252 22.98                             117   -0.14 8  247 195 
 CHI  HN ES   2   2252 52.98                             117    0.68 4  247 195 
 CHI  HZ I        2252 56.01        50.7 0.58                           247 195 
 ROSC BZ EP   2   2252 24.16                             116    0.59 4  251 211 
 ROSC BN ES   2   2252 53.18                             116    0.08 4  251 211 
 ROSC BZ I        2253  2.93        92.7 0.16                           251 211 
 HEL  HZ EP       2252 26.07                             114    0.25 8  272 256 
 HEL  HZ I        2253  4.97        24.2 0.30                           272 256 
 VIL  SZ EP   1   2252 28.15                             112   -0.68 5  301 192 
 VIL  SN ES   2   2253  2.65                             112    0.18 4  301 192 
 VIL  SZ I        2253  5.41        40.8 0.45                           301 192 
 DBB  SZ EP       2252 33.26                             109    0.08 7  340 275 
 TOL  SZ EP   1   2252 34.41                             109    0.65 5  342 225 
 PRA  HZ EP       2252 38.63                             106   -0.35 6  390 210 
 PRA  HZ I        2253 24.88       111.5 0.19                           390 210 
 SJA  SZ EP   2   2252 39.19                             106   -0.79 3  398 193 
 SJA  SZ I        2253 30.59        51.1 0.39                           398 193 
                                                                                
