 2012  7 1 2339  6.8 L   6.443 -73.617104.0  RSN  5 0.3 1.5LRSN                1
 GAP=141        0.69       7.3     4.5  8.1  0.4678E+01  0.1158E+02  0.1473E+02E
 Epicentro: SANTA HELENA DEL OPON - SANTANDER                                  3
 ACTION:UPD 12-08-14 11:41 OP:ep   STATUS:               ID:20120701233906 L   I
 2012-07-01-2337-50M.COL___203                                                 6
 STAT SP IPHASW D HRMM SECON CODA AMPLIT PERI AZIMU VELO AIN AR TRES W  DIS CAZ7
 BAR2 SZ EP   1   2339 22.43                             152    -0.2 7   51  71 
 BAR2 SZ ES   1   2339 35.10                             152     0.1 7   51  71 
 BAR2 SZ I        2339 36.42        17.5 0.44            153             51  71 
 BRR  HZ EP   1   2339 23.26                             142    -0.6 7   74 352 
 BRR  HE ES   1   2339 37.36                             142     0.2 7   74 352 
 RUS  HZ EP   2   2339 25.81                             138     0.4 5   85 136 
 PTB  HZ EP   1   2339 25.33                             135    -0.1 7   93 277 
 PTB  HZ I        2339 25.63         3.9 0.31            137             93 277 
 PTB  HE ES   1   2339 39.94                             135     0.0 7   93 277 
 ZAR  HZ EP   1   2339 34.62                             115     0.5 7  180 310 
