 2017  1 1 2148 20.0 L   6.823 -73.174135.0  RSN  4 0.2 1.0LRSN                1
 GAP=236        0.59       4.7     4.8  5.9  0.1556E+02 -0.3411E+01 -0.6065E+01E
 Epicentro: ZAPATOCA - SANTANDER                                               3
 ACTION:UPD 17-05-22 15:54 OP:jn   STATUS:               ID:20170101214820 L   I
 OLDACT:UP  17-01-02 03:50 OP:dani STATUS:               ID:20170101214747     3
 OLDACT:REG 17-01-02 02:35 OP:dani STATUS:               ID:20170101214747     3
 2017-01-01-2148-00M.COL___378                                                 6
 STAT SP IPHASW D HRMM SECON CODA AMPLIT PERI AZIMU VELO AIN AR TRES W  DIS CAZ7
 BRR  HZ EP       2148 40.08                             152    0.3510 67.2 298 
 BRR  HE ES       2148 54.92                             152   -0.2210 67.2 298 
 BRR  HZ I        2149  0.19         3.1 0.28            155           67.2 298 
 RUS  HZ EP       2148 42.62                             141   -0.2710  103 174 
 RUS  HN ES       2149  0.94                             141    0.1710  103 174 
 RUS  HZ I        2149  2.57         1.9 0.37            146            103 174 
 PTB  HN ES       2149  5.98                             130   -0.03 9  145 258 
 PTB  HZ I        2149  8.49         1.0 0.21            135            145 258 
 ZAR  HZ EP       2148 51.19                             120   -0.13 9  200 292 
 ZAR  HN ES       2149 15.91                             120    0.13 9  200 292 
                                                                                
