 2012  7 1 2339 33.2 L   6.788 -73.143148.9  RSN  9 0.4 1.8LRSN                1
 GAP=137        0.80       4.6     5.3  7.7  0.4612E+01  0.1042E+02  0.4298E+01E
 Epicentro: LOS SANTOS - SANTANDER                                             3
 ACTION:UPD 12-08-14 11:41 OP:ep   STATUS:               ID:20120701233933 L   I
 2012-07-01-2337-50M.COL___203                                                 6
 STAT SP IPHASW D HRMM SECON CODA AMPLIT PERI AZIMU VELO AIN AR TRES W  DIS CAZ7
 BAR2 SZ EP       2339 53.05                             171    -0.110   22 191 
 BAR2 SZ I        2339 53.62        13.5 0.20            168             22 191 
 BAR2 SZ ES   1   2340  8.24                             171    -0.5 7   22 191 
 BRR  HZ EP       2339 55.03                             153     0.310   72 299 
 BRR  HZ I        2339 55.30        19.5 0.16            151             72 299 
 BRR  HE ES   1   2340 12.14                             153     0.6 7   72 299 
 PAM  SN ES   2   2340 13.33                             151    -0.1 5   78  39 
 RUS  HZ EP   1   2339 57.43                             145     0.3 7   99 176 
 RUS  HN ES   1   2340 15.96                             145     0.1 7   99 176 
 RUS  HZ I        2340 17.24         5.4 0.36            145             99 176 
 PTB  HZ EP   1   2339 59.81                             133    -0.6 7  148 259 
 PTB  HN ES   1   2340 21.22                             133    -0.4 7  148 259 
 PTB  HZ I        2340 26.87         8.9 0.26            132            148 259 
 OCA  HN ES   2   2340 23.67                             130    -0.5 5  162 353 
 ZAR  HN ES   1   2340 31.36                             123    -0.1 6  205 292 
 NOR  SZ EP   2   2340  9.05                             119     0.0 4  234 235 
 NOR  SE ES   2   2340 37.50                             119     0.5 4  234 235 
 CHI  HN ES   2   2340 40.11                             118    -0.2 4  247 195 
