 2012 10 1 2241 14.9 L   6.773 -73.146142.0  RSN  7 0.2 2.3LRSN                1
 GAP=138        0.50       3.0     2.8  4.6  0.7307E+00  0.6084E+00 -0.8947E+00E
 Epicentro: LOS SANTOS - SANTANDER                                             3
 ACTION:UPD 12-11-22 17:01 OP:ep   STATUS:               ID:20121001224114 L   I
 2012-10-01-2240-00M.COL___223                                                 6
 STAT SP IPHASW D HRMM SECON CODA AMPLIT PERI AZIMU VELO AIN AR TRES W  DIS CAZ7
 BAR2 SZ EP       2241 34.02                             171    0.0010 20.4 191 
 BAR2 SZ ES   1   2241 48.67                             171   -0.27 7 20.4 191 
 BAR2 SZ I        2241 51.15        27.2 0.20                          20.4 191 
 GIR2 SZ EP       2241 34.09                             166   -0.1210 34.2 351 
 BRR  HZ EP       2241 35.77                             151    0.0410 72.6 301 
 BRR  HN ES   1   2241 52.49                             151    0.51 7 72.6 301 
 BRR  HN I        2241 53.04        68.7 0.22                          72.6 301 
 PAM  SZ EP       2241 36.89                             149    0.0310 79.7  38 
 PAM  SN ES   1   2241 53.87                             149   -0.12 7 79.7  38 
 PAM  SN I        2241 54.81        44.2 0.48                          79.7  38 
 RUS  HZ EP       2241 38.06                             144   -0.0110 97.6 176 
 RUS  HN ES   1   2241 56.41                             144    0.27 7 97.6 176 
 PTB  HN ES   1   2242  1.89                             131   -0.38 7  147 260 
 PTB  HN I        2242  8.42        13.9 0.32                           147 260 
 ZAR  HZ EP   2   2241 47.61                             121    0.39 4  205 293 
 ZAR  HN ES   1   2242 12.35                             121   -0.08 6  205 293 
 ZAR  HN I        2242 19.98        20.1 0.34                           205 293 
                                                                                
