 2017  3 1 2220 10.5 L   6.842 -73.088139.6  RSN  4 0.4 1.3LRSN                1
 GAP=142        1.07       5.8     5.6  9.5 -0.3658E+01  0.6483E+01  0.1000E+02E
 Epicentro: LOS SANTOS - SANTANDER                                             3
 ACTION:UPD 17-05-25 18:34 OP:jn   STATUS:               ID:20170301222010 L   I
 OLDACT:REG 17-03-02 03:18 OP:cog  STATUS:               ID:20170301221745     3
 2017-03-01-2218-00M.COL___390                                                 6
 STAT SP IPHASW D HRMM SECON CODA AMPLIT PERI AZIMU VELO AIN AR TRES W  DIS CAZ7
 PAM  EZ EP       2220 32.28                             152    0.7010 69.7  38 
 PAM  EN ES       2220 47.54                             152   -0.5010 69.7  38 
 PAM  EZ I        2220 52.56         3.1 0.42            155           69.7  38 
 BRR  HZ EP       2220 31.40                             150    0.2210 74.9 293 
 BRR  HN ES       2220 47.40                             150    0.0710 74.9 293 
 BRR  HZ I        2220 55.98         7.5 0.72            152           74.9 293 
 RUS  HZ EP       2220 33.74                             141   -0.2210  105 180 
 RUS  HN ES       2220 52.43                             141    0.1610  105 180 
 RUS  HZ I        2220 53.37         1.9 0.36            149            105 180 
 PTB  HZ EP       2220 36.93                             129   -0.69 9  155 258 
 PTB  HE ES       2220 58.99                             129    0.19 9  155 258 
 PTB  HZ I        2220 59.31         2.1 0.36            134            155 258 
                                                                                
