 2017  1 1 2352 11.6 L   6.784 -73.143156.5  RSN  6 0.4 1.5LRSN                1
 GAP=138        0.85       4.4     4.0  6.2  0.1346E+01  0.5094E+01 -0.2076E+01E
 Epicentro: LOS SANTOS - SANTANDER                                             3
 ACTION:UPD 17-05-22 15:54 OP:jn   STATUS:               ID:20170101235211 L   I
 OLDACT:UP  17-01-02 04:20 OP:dani STATUS:               ID:20170101234745     3
 OLDACT:REG 17-01-02 02:42 OP:dani STATUS:               ID:20170101234745     3
 2017-01-01-2348-00M.COL___378                                                 6
 STAT SP IPHASW D HRMM SECON CODA AMPLIT PERI AZIMU VELO AIN AR TRES W  DIS CAZ7
 BRR  HZ EP       2352 34.35                             154    0.3410 72.3 300 
 BRR  HE ES       2352 51.76                             154    0.2910 72.3 300 
 BRR  HZ I        2352 55.64         4.2 0.14            152           72.3 300 
 PAM  EZ EP       2352 35.30                             152    0.2310 78.6  39 
 PAM  EN ES       2352 52.98                             152   -0.3710 78.6  39 
 PAM  EZ I        2352 54.81         7.1 0.50            156           78.6  39 
 RUS  HZ EP       2352 36.45                             146    0.1210 98.8 176 
 RUS  HN ES       2352 55.54                             146   -0.0610 98.8 176 
 RUS  HZ I        2352 56.87         2.4 0.38            149           98.8 176 
 PTB  HZ EP       2352 39.56                             134    0.07 9  148 260 
 PTB  HE ES       2353  0.62                             134   -0.60 9  148 260 
 PTB  HZ I        2353  7.89         5.2 0.33            135            148 260 
 ZAR  HZ EP       2352 44.97                             124    0.07 9  205 293 
 ZAR  HE ES       2353 11.09                             124    0.25 9  205 293 
 ZAR  HZ I        2353 16.36         3.9 0.27            126            205 293 
 SJC  HZ EP       2353  6.77                             107   -0.99 6  411 327 
 SJC  HN ES   4   2353 48.22                             107   -3.32 0  411 327 
                                                                                
