 2017  4 1 2041 17.1 L   6.704 -73.173146.0  RSN  6 0.4 1.6LRSN                1
 GAP=227        0.80       4.7     5.2  6.0  0.1036E+02  0.1107E+02  0.1178E+01E
 Epicentro: VILLANUEVA - SANTANDER                                             3
 ACTION:UPD 17-05-30 21:07 OP:jn   STATUS:               ID:20170401204117 L   I
 OLDACT:UP  17-04-02 03:39 OP:dani STATUS:               ID:20170401203747     3
 OLDACT:UP  17-04-02 03:38 OP:dani STATUS:               ID:20170401203747     3
 OLDACT:REG 17-04-02 03:09 OP:dani STATUS:               ID:20170401203747     3
 2017-04-01-2038-00M.COL___374                                                 6
 STAT SP IPHASW D HRMM SECON CODA AMPLIT PERI AZIMU VELO AIN AR TRES W  DIS CAZ7
 BAR2 EZ EP       2041 36.53                             175   -0.0310 12.4 185 
 BAR2 EZ ES       2041 51.91                             175    0.1410 12.4 185 
 BRR  HZ EP       2041 38.15                             152   -0.2810 74.4 307 
 BRR  HN ES       2041 55.42                             152    0.3310 74.4 307 
 BRR  HZ I        2041 55.85        12.9 0.50            147           74.4 307 
 RUS  HZ EP       2041 40.12                             147   -0.0110 90.3 174 
 RUS  HN ES       2041 57.95                             147   -0.1710 90.3 174 
 RUS  HE I        2041 59.35         6.8 0.18            146           90.3 174 
 PTB  HZ EP       2041 43.37                             133   -0.27 9  143 263 
 PTB  HN ES   3   2042  2.37                             133   -1.99 2  143 263 
 PTB  HZ I        2042 13.92         3.2 0.18            130            143 263 
 ZAR  HZ EP       2041 50.13                             122    0.44 8  206 295 
 ZAR  HN ES       2042 14.73                             122   -0.39 8  206 295 
 ZAR  HZ I        2042 20.74         3.8 0.29            121            206 295 
 NOR  HN ES       2042 19.57                             120    0.50 8  226 236 
                                                                                
