 2011  5 1 2325  9.8 L   6.306 -73.683 88.0  RSN  5 0.5 1.3LRSN                1
 GAP=122        1.06       7.2     7.1 17.6 -0.1826E+02  0.9290E+02 -0.3392E+02E
 Epicentro: SANTA HELENA DEL OPON - SANTANDER                                  3
 ACTION:UP  11-06-29 08:50 OP:tino STATUS:               ID:20110501232509 L   I
 2011-05-01-2320-00M.COL___139                                                 6
 STAT SP IPHASW D HRMM SECON CODA AMPLIT PERI AZIMU VELO SNR AR TRES W  DIS CAZ7
 BAR2 SZ EP   1   2325 24.52                             142    -0.4 7   64  60 
 BAR2 SZ ES   1   2325 36.48                             142    -0.1 7   64  60 
 BAR2 SZ I        2325 38.90        24.7 0.22                            64  60 
 RUS  HZ EP   1   2325 25.87                             135    -0.7 7   81 125 
 RUS  HZ I        2325 26.47         5.2 0.24                            81 125 
 RUS  HN ES   1   2325 40.32                             135     0.6 7   81 125 
 NOR  SZ EP   1   2325 33.87                             115     0.2 7  155 238 
 NOR  SZ I        2325 56.28         1.2 0.16                           155 238 
 GRA  SZ ES   1   2326  2.04                             109     0.4 6  200  29 
 HEL  HZ EP   1   2325 40.34                             109     0.6 6  205 267 
 HEL  HN ES   1   2326  2.83                             109    -0.3 6  205 267 
 HEL  HZ I        2326 11.37         2.9 0.25                           205 267 
                                                                                
