 2017  8 1 2048 57.5 L   6.808 -73.125144.8  RSN  8 0.4 1.7LRSN                1
 GAP=139        0.93       4.1     4.3  6.2 -0.7945E+00  0.5223E+01  0.4946E+01E
 Epicentro: LOS SANTOS - SANTANDER                                             3
 ACTION:UPD 17-09-04 20:15 OP:rebc STATUS:               ID:20170801204857 L   I
 OLDACT:UP  17-08-02 05:26 OP:and  STATUS:               ID:20170801204740     3
 OLDACT:UP  17-08-02 05:25 OP:and  STATUS:               ID:20170801204740     3
 OLDACT:UP  17-08-02 05:24 OP:and  STATUS:               ID:20170801204740     3
 OLDACT:REG 17-08-02 02:57 OP:and  STATUS:               ID:20170801204740     3
 2017-08-01-2048-00M.COL___386                                                 6
 STAT SP IPHASW D HRMM SECON CODA AMPLIT PERI AZIMU VELO AIN AR TRES W  DIS CAZ7
 BAR2 EZ EP       2049 17.10                             170    0.0510 24.7 195 
 BAR2 EZ ES       2049 32.21                             170   -0.0810 24.7 195 
 BAR2 EZ I        2049 33.16        15.2 0.32            167           24.7 195 
 BRR  HZ EP   1   2049 18.95                             152    0.31 7 72.8 297 
 BRR  HN ES       2049 35.84                             152    0.7210 72.8 297 
 PAM  EZ IP     C 2049 19.88                             151    0.3910 75.3  39 
 PAM  EN ES       2049 36.09                             151   -0.5510 75.3  39 
 PAM  EZ I        2049 39.06        10.3 0.56            155           75.3  39 
 RUS  HZ EP       2049 20.84                             143   -0.3810  101 177 
 RUS  HN ES       2049 39.83                             143    0.1210  101 177 
 RUS  HZ I        2049 40.58         4.1 0.20            143            101 177 
 PTB  HZ EP   9   2049 23.98                             131   -0.63 0  150 259 
 PTB  HN ES   1   2049 44.78                             131   -0.34 7  150 259 
 PTB  HZ I        2049 51.55         3.8 0.09            129            150 259 
 ZAR  HN ES       2049 54.83                             122   -0.64 8  206 292 
 ZAR  HZ I        2050  0.20         6.2 0.28            121            206 292 
 NOR  HZ EP       2049 33.71                             118    0.28 8  237 235 
 NOR  HN ES       2050  1.23                             118   -0.22 8  237 235 
 NOR  HZ I        2050 10.26         3.4 0.46            117            237 235 
 CHI  HZ EP   2   2049 35.27                             117   -0.04 4  250 196 
 CHI  HN ES   2   2050  4.73                             117   -0.06 4  250 196 
 CHI  HZ I        2050  7.91         3.9 0.64            117            250 196 
                                                                                
