 2014 10 1 2305  3.0 L   6.829 -73.150148.0  RSN 10 0.4 1.8LRSN                1
 GAP=240        0.81       4.4     5.1  6.1  0.8461E+01  0.3846E+01  0.8135E+01E
 Epicentro: LOS SANTOS - SANTANDER                                             3
 ACTION:UPD 14-11-29 23:45 OP:nd   STATUS:               ID:20141001230503 L   I
 OLDACT:REG 14-10-02 04:01 OP:spq  STATUS:               ID:20141001225818     3
 2014-10-01-2258-18M.COL___292                                                 6
 STAT SP IPHASW D HRMM SECON CODA AMPLIT PERI AZIMU VELO AIN AR TRES W  DIS CAZ7
 BAR2 SZ EP       23 5 22.92                             169   -0.0810 26.4 188 
 BAR2 SZ ES   1   23 5 38.11                             169   -0.46 7 26.4 188 
 BAR2 SZ I        23 5 39.97         6.5 0.17            160           26.4 188 
 BRR  HZ EP       23 5 24.40                             154    0.0810 69.3 296 
 BRR  HE ES       23 5 41.32                             154    0.3910 69.3 296 
 BRR  HZ I        23 5 44.70        14.4 0.48            149           69.3 296 
 RUS  HZ EP   1   23 5 27.80                             143    0.56 7  104 176 
 RUS  HN ES   1   23 5 46.01                             143   -0.11 7  104 176 
 PTB  HZ EP       23 5 29.41                             133   -0.79 9  148 258 
 PTB  HE ES       23 5 51.28                             133   -0.11 9  148 258 
 PTB  HZ I        23 5 53.71         7.0 0.20            129            148 258 
 SPBC HZ EP   1   23 5 32.07                             129    0.15 7  165 218 
 SPBC HN ES   1   23 5 54.75                             129    0.31 7  165 218 
 SPBC HZ I        23 6  1.48         7.1 0.30            126            165 218 
 ZAR  HN ES       23 6  0.88                             123    0.13 9  202 291 
 ZAR  HZ I        23 6  5.50        12.5 0.44            123            202 291 
 CHI  HZ EP   1   23 5 40.80                             117   -0.38 6  252 195 
 CHI  HE ES   1   23 6 11.29                             117    0.35 6  252 195 
 CHI  HZ I        23 6 19.28         2.5 0.40            116            252 195 
 GUY2CHN ES   4   23 6 23.16                             113    2.02 0  303 234 
 GUY2CHZ I        23 6 29.54         2.0 0.28                           303 234 
 TOL  SN ES   4   23 6 31.21                             110    1.72 0  345 224 
 TOL  SZ I        23 6 38.70         7.8 0.66            109            345 224 
 PRA  HZ EP       23 5 57.47                             107    0.54 6  395 209 
 PRA  HE ES   1   23 6 38.62                             107   -0.35 4  395 209 
 PRA  HZ I        23 6 45.97         2.4 0.36            107            395 209 
                                                                                
