 2017  1 1 2213 36.7 L   6.709 -73.205154.4  RSN  4 0.1 1.1LRSN                1
 GAP=223        0.39       3.3     3.2  3.9  0.7082E+01 -0.2187E+00 -0.9009E+00E
 Epicentro: VILLANUEVA - SANTANDER                                             3
 ACTION:UPD 17-05-22 15:54 OP:jn   STATUS:               ID:20170101221336 L   I
 OLDACT:REG 17-01-02 02:36 OP:dani STATUS:               ID:20170101220745     3
 2017-01-01-2208-00M.COL___378                                                 6
 STAT SP IPHASW D HRMM SECON CODA AMPLIT PERI AZIMU VELO AIN AR TRES W  DIS CAZ7
 BRR  HZ EP       2213 58.58                             154   -0.1710 71.3 308 
 BRR  HN ES       2214 16.04                             154    0.0710 71.3 308 
 BRR  HZ I        2214 16.92         3.6 0.42            152           71.3 308 
 RUS  HZ EP       2214  0.62                             148   -0.0210 91.3 171 
 RUS  HN ES       2214 19.39                             148    0.0410 91.3 171 
 RUS  HZ I        2214 20.50         1.3 0.26            146           91.3 171 
 PTB  HZ EP       2214  3.81                             136    0.18 9  140 262 
 PTB  HN ES       2214 24.53                             136   -0.15 9  140 262 
 PTB  HZ I        2214 30.04         1.6 0.27            133            140 262 
 ZAR  HE ES       2214 35.16                             124    0.08 9  202 295 
                                                                                
