 2016  7 1 2225 40.0 L   6.763 -73.108139.4  RSN  6 0.4 1.6LRSN                1
 GAP=143        1.08       5.2     4.9  7.3  0.1895E+01  0.1013E+02 -0.2188E+01E
 Epicentro: LOS SANTOS - SANTANDER                                             3
 ACTION:UPD 17-03-29 16:45 OP:lp   STATUS:               ID:20160701222540 L   I
 OLDACT:REG 16-07-02 03:37 OP:lv   STATUS:               ID:20160701221742     3
 2016-07-01-2217-42M.COL___337                                                 6
 STAT SP IPHASW D HRMM SECON CODA AMPLIT PERI AZIMU VELO AIN AR TRES W  DIS CAZ7
 BAR2 EZ EP   2   2225 58.51                             171   -0.31 5 20.6 204 
 BAR2 EZ ES       2226 13.39                             171   -0.1110 20.6 204 
 BAR2 EZ I        2226 14.79        12.9 0.18            170           20.6 204 
 BRR  HZ EP       2226  0.37                             149   -0.4510 76.8 300 
 BRR  HE ES       2226 17.50                             149    0.4610 76.8 300 
 BRR  HZ I        2226 19.55        11.1 0.29            149           76.8 300 
 PAM  EZ EP       2226  1.54                             149   -0.0610 78.1  35 
 PAM  EN ES       2226 18.27                             149   -0.1610 78.1  35 
 PAM  EZ I        2226 20.34        10.6 0.42            152           78.1  35 
 RUS  HZ EP       2226  3.06                             144    0.2310 96.3 178 
 RUS  HE ES       2226 20.92                             144    0.2910 96.3 178 
 RUS  HZ I        2226 23.34         2.5 0.36            146           96.3 178 
 PTB  HZ EP       2226  6.12                             130   -0.67 9  151 261 
 PTB  HE ES       2226 27.22                             130   -0.45 9  151 261 
 PTB  HZ I        2226 31.64         3.8 0.18            130            151 261 
 ZAR  HZ EP       2226 13.63                             120    1.01 8  209 293 
 ZAR  HE ES       2226 38.21                             120    0.15 8  209 293 
 ZAR  HZ I        2226 43.24         5.6 0.23            121            209 293 
                                                                                
