 2013  6 1 2323 17.5 L   6.795 -73.161144.0  RSN  7 0.4 1.4LRSN                1
 GAP=135        1.08       4.5     5.5  7.1 -0.5659E+00  0.9385E+01 -0.1926E+01E
 Epicentro: LOS SANTOS - SANTANDER                                             3
 ACTION:UPD 14-01-08 09:51 OP:ep   STATUS:               ID:20130601232317 L   I
 2013-06-01-2320-00M.COL___261                                                 6
 STAT SP IPHASW D HRMM SECON CODA AMPLIT PERI AZIMU VELO AIN AR TRES W  DIS CAZ7
 BAR2 SZ EP   1   2323 37.11                             171    0.22 7 22.6 186 
 BAR2 SZ ES       2323 52.23                             171    0.2010 22.6 186 
 BAR2 SZ I        2323 55.48         3.5 0.14            171           22.6 186 
 GIR2 SZ EP       2323 37.22                             167    0.2610 31.6 354 
 GIR2 SZ ES       2323 51.78                             167   -0.3710 31.6 354 
 BRR  HZ EP       2323 38.95                             153    0.5710 69.9 300 
 BRR  HE ES   1   2323 55.38                             153    0.71 7 69.9 300 
 BRR  HZ I        2323 57.37         8.6 0.28            153           69.9 300 
 PAM  SZ EP       2323 39.99                             150    0.3810 78.9  40 
 PAM  SN ES       2323 56.60                             150   -0.2610 78.9  40 
 PAM  SZ I        2323 59.05         3.8 0.52            153           78.9  40 
 RUS  HZ EP       2323 41.18                             143    0.1410  100 175 
 RUS  HN ES       2323 58.88                             143   -0.5310  100 175 
 RUS  HZ I        2324  0.58         2.7 0.26            146            100 175 
 PTB  HZ EP       2323 43.51                             132   -0.64 9  146 259 
 PTB  HN ES       2324  5.04                             132    0.10 9  146 259 
 PTB  HZ I        2324  8.35         3.9 0.14            134            146 259 
 SML  HN ES       2324 21.78                             117   -0.68 8  243 336 
                                                                                
