 2012  5 1 2029 12.4 L   6.722 -73.191143.3  RSN  5 0.4 2.0LRSN                1
 GAP=226        0.94       9.3     8.4  9.2  0.5181E+02  0.1314E+02 -0.4760E+01E
 Epicentro: VILLANUEVA - SANTANDER                                             3
 ACTION:UP  12-07-05 12:01 OP:pat  STATUS:               ID:20120501202912 L   I
 2012-05-01-2026-35M.COL___165                                                 6
 STAT SP IPHASW D HRMM SECON CODA AMPLIT PERI AZIMU VELO SNR AR TRES W  DIS CAZ7
 BAR2 SZ EP   1   2029 31.27                             174    -0.3 9   14 176 
 BAR2 SZ I        2029 32.11        17.4 0.16                            14 176 
 BAR2 SZ ES   1   2029 46.16                             174    -0.4 9   14 176 
 BRR  HZ EP   1   2029 33.77                             152     0.5 9   72 307 
 BRR  HZ I        2029 35.34        37.2 0.12                            72 307 
 BRR  HN ES   1   2029 50.18                             152     0.6 9   72 307 
 RUS  HZ EP   1   2029 35.69                             146     0.4 9   92 173 
 RUS  HZ I        2029 36.90         6.5 0.17                            92 173 
 RUS  HN ES   1   2029 53.00                             146    -0.2 9   92 173 
 PTB  HZ EP   1   2029 38.59                             133     0.0 8  141 262 
 PTB  HN ES   1   2029 59.36                             133     0.3 8  141 262 
 PTB  HZ I        2030  5.80        12.9 0.29                           141 262 
 ZAR  HZ EP   1   2029 44.31                             122    -0.2 7  203 295 
 ZAR  HN ES       2030  9.15                             122    -0.510  203 295 
 ZAR  HZ I        2030 16.33        19.9 0.37                           203 295 
                                                                                
