 2017  5 1 2219 40.0 L   6.662 -73.213154.5  RSN  4 0.4 1.2LRSN                1
 GAP=133        0.70       5.9     5.9  9.8  0.1503E+02 -0.4177E+01 -0.6950E+01E
 Epicentro: BARICHARA - SANTANDER                                              3
 ACTION:UPD 17-06-16 13:31 OP:jn   STATUS:               ID:20170501221940 L   I
 OLDACT:DUP 17-05-02 05:24 OP:dnl  STATUS:               ID:20170501221742d    3
 OLDACT:REG 17-05-02 04:05 OP:dnl  STATUS:               ID:20170501221741     3
 2017-05-01-2218-00M.COL___377                                                 6
 STAT SP IPHASW D HRMM SECON CODA AMPLIT PERI AZIMU VELO AIN AR TRES W  DIS CAZ7
 BRR  HZ EP   2   2220  2.93                             153    0.73 5 73.9 312 
 BRR  HN ES       2220 19.69                             153    0.1310 73.9 312 
 BRR  HZ I        2220 24.28         3.3 0.14            153           73.9 312 
 RUS  HZ EP   2   2220  4.31                             150    0.67 5 86.3 170 
 RUS  HN ES       2220 22.05                             150   -0.0710 86.3 170 
 RUS  HZ I        2220 24.04         2.1 0.32            153           86.3 170 
 PAM  EZ EP   2   2220  3.36                             147   -0.77 5 94.0  37 
 PAM  EE ES   4   2220 19.96                             147   -3.02 0 94.0  37 
 PAM  EZ I        2220 22.90         3.0 0.38            152           94.0  37 
 PTB  HZ EP   2   2220  6.62                             136   -0.20 5  138 264 
 PTB  HN ES       2220 27.57                             136   -0.20 9  138 264 
 PTB  HZ I        2220 30.93         1.9 0.32            137            138 264 
                                                                                
