 2010 11 1 2111 25.8 L   6.794 -73.059139.4  RSN  5 0.4 1.8LRSN                1
 GAP=168        0.93       7.9    14.5 15.2  0.1876E+02 -0.9872E+02 -0.5709E+02E
 Epicentro: LOS SANTOS - SANTANDER                                             3
 ACTION:UP  10-12-17 16:49 OP:REBC STATUS:               ID:20101101211125 L   I
 2010-11-01-2107-50S.COL___126                                                 6
 STAT SP IPHASW D HRMM SECON CODA AMPLIT PERI AZIMU VELO SNR AR TRES W  DIS CAZ7
 BAR2 SZ EP   1   2111 44.21                             170    -0.6 7   26 212 
 BAR2 SZ ES   2   2111 58.88                             170    -0.7 5   26 212 
 BAR2 SZ I        2112  0.93        18.6 0.30                            26 212 
 BRR  HZ IP     C 2111 46.60                             149    -0.210   80 296 
 BRR  HZ I        2111 46.85        28.9 0.12                            80 296 
 BRR  HN ES   2   2112  3.95                             149     0.7 5   80 296 
 RUS  HZ EP   1   2111 49.05                             143     0.1 7  100 182 
 RUS  HN ES   2   2112  7.56                             143     0.7 5  100 182 
 RUS  HZ I        2112  9.18         4.6 0.51                           100 182 
 GUE  SZ EP   1   2111 49.88                             138     0.0 7  116   7 
 GRA  SZ EP       2111 50.70                             136     0.310  124  13 
                                                                                
