 2016  5 1 2208 29.4 L   6.157 -73.909100.1  RSN  8 0.4 1.5LRSN                1
 GAP= 94        0.97       3.7     2.9  6.8 -0.6180E+00  0.4523E+01 -0.1500E+01E
 Epicentro: LANDAZURI - SANTANDER                                              3
 ACTION:UPD 16-08-18 17:41 OP:cam  STATUS:               ID:20160501220829 L   I
 OLDACT:UP  16-05-02 03:55 OP:drio STATUS:               ID:20160501215748d    3
 OLDACT:DUP 16-05-02 03:45 OP:drio STATUS:               ID:20160501215748d    3
 2016-05-01-2157-47M.COL___301                                                 6
 STAT SP IPHASW D HRMM SECON CODA AMPLIT PERI AZIMU VELO AIN AR TRES W  DIS CAZ7
 SPBC HZ EP       22 8 45.14                             147    0.0810 58.7 198 
 SPBC HN ES       22 8 57.81                             147    0.5110 58.7 198 
 SPBC HZ I        22 8 59.30        17.6 0.26            148           58.7 198 
 PTB  HZ EP       22 8 45.39                             141   -0.6610 73.8 305 
 PTB  HE ES       22 8 58.58                             141   -0.4810 73.8 305 
 PTB  HZ I        22 8 59.31        11.2 0.40            141           73.8 305 
 BAR2 EZ EP       22 8 48.24                             134    0.2310 93.7  59 
 BAR2 EZ ES       22 9  2.58                             134    0.0210 93.7  59 
 RUS  HZ EP       22 8 48.24                             133   -0.3210 96.0 108 
 RUS  HE ES       22 9  3.56                             133    0.0210 96.0 108 
 RUS  HZ I        22 9  4.06         2.5 0.16            135           96.0 108 
 NOR  HZ EP       22 8 50.47                             125   -0.2810  125 238 
 NOR  HE ES       22 9  7.31                             125   -0.1110  125 238 
 NOR  HZ I        22 9 10.82        10.4 0.40            125            125 238 
 HEL  HZ EP       22 8 57.30                             115    0.33 9  179 271 
 HEL  HE ES   4   22 9 20.78                             115    2.27 0  179 271 
 ZAR  HE ES       22 9 18.75                             115    0.70 9  181 325 
 ZAR  HZ I        22 9 21.38         5.9 0.24            114            181 325 
 GUY2CHZ EP       22 8 58.66                             114    0.19 9  191 237 
 GUY2CHN ES   4   22 9 23.55                             114    2.37 0  191 237 
 GUY2CHZ I        22 9 26.75         3.9 0.24                           191 237 
                                                                                
