 2015  4 1 2025 35.7 L   6.838 -73.141144.4  RSN  6 0.6 1.8LRSN                1
 GAP=135        1.42       5.8     7.2  9.4  0.1203E+01  0.1201E+02 -0.1092E+02E
 Epicentro: LOS SANTOS - SANTANDER                                             3
 ACTION:UPD 15-06-03 16:51 OP:cam  STATUS:               ID:20150401202535 L   I
 OLDACT:REG 15-04-02 04:48 OP:stll STATUS:               ID:20150401201739     3
 2015-04-01-2017-39M.COL___280                                                 6
 STAT SP IPHASW D HRMM SECON CODA AMPLIT PERI AZIMU VELO AIN AR TRES W  DIS CAZ7
 BAR2 EZ EP       2025 55.48                             169    0.2010 27.5 190 
 BAR2 EZ ES       2026 10.70                             169    0.1610 27.5 190 
 BAR2 EZ I        2026 16.49         6.5 0.16            169           27.5 190 
 BRR  HZ EP     D 2025 57.12                             153    0.4810 69.8 295 
 BRR  HN ES       2026 13.83                             153    0.8610 69.8 295 
 PAM  SZ EP     C 2025 58.02                             152    0.4310 73.9  41 
 PAM  SZ I        2025 58.51        26.1 0.18            153           73.9  41 
 PAM  SN ES       2026 14.06                             152   -0.5810 73.9  41 
 RUS  HZ EP       2025 59.21                             142   -0.4310  105 177 
 RUS  HE ES       2026 18.04                             142   -0.2610  105 177 
 PTB  HZ EP       2026  3.36                             131    0.66 9  149 257 
 PTB  HN ES       2026 22.76                             131   -0.99 9  149 257 
 SML  HZ EP       2026 11.68                             117   -0.21 8  240 335 
 SML  HE ES       2026 39.40                             117   -0.70 8  240 335 
                                                                                
