 2015  1 1 2321 27.5 L   6.410 -73.339129.2  RSN  8 0.3 1.6LRSN                1
 GAP=182        0.83       3.1     4.2  6.1  0.2536E+01  0.2943E+01  0.2144E+01E
 Epicentro: SIMACOTA - SANTANDER                                               3
 ACTION:UPD 15-03-02 15:36 OP:nd   STATUS:               ID:20150101232127 L   I
 OLDACT:REG 15-01-02 06:55 OP:spq  STATUS:               ID:20150101231747     3
 2015-01-01-2317-47M.COL___277                                                 6
 STAT SP IPHASW D HRMM SECON CODA AMPLIT PERI AZIMU VELO AIN AR TRES W  DIS CAZ7
 RUS  HZ EP   1   2321 47.24                             152    0.10 7 63.9 154 
 RUS  HN ES   1   2322  2.50                             152    0.03 7 63.9 154 
 RUS  HZ I        2322  3.70         8.7 0.26            155           63.9 154 
 BRR  HZ EP       2321 47.85                             144   -0.1110 87.4 332 
 BRR  HN ES       2322  4.38                             144    0.4610 87.4 332 
 BRR  HZ I        2322 11.20         5.9 0.11            148           87.4 332 
 SPBC HZ EP       2321 50.32                             135   -0.0910  117 224 
 SPBC HE ES       2322  7.85                             135   -0.4510  117 224 
 SPBC HZ I        2322 15.09        11.9 0.14            137            117 224 
 PTB  HZ EP   4   2321 49.85                             133   -1.14 0  124 277 
 PTB  HN ES       2322  8.94                             133   -0.3810  124 277 
 PTB  HZ I        2322 11.40         5.8 0.40            135            124 277 
 NOR  HZ EP       2321 58.27                             120    0.42 9  194 241 
 NOR  HN ES       2322 22.40                             120    0.87 9  194 241 
 NOR  HZ I        2322 27.39         5.8 0.14            123            194 241 
 CHI  HZ EP       2321 59.06                             119   -0.11 9  202 192 
 CHI  HN ES   1   2322 23.72                             119   -0.17 6  202 192 
 CHI  HZ I        2322 33.18         1.8 0.46            122            202 192 
 ZAR  HZ EP       2321 58.93                             118   -0.20 8  206 306 
 ZAR  HN ES       2322 23.54                             118   -0.27 8  206 306 
 ZAR  HZ I        2322 28.58        10.9 0.50            122            206 306 
 HEL  HZ EP   1   2322  3.70                             114    0.01 6  244 264 
 HEL  HN ES   1   2322 31.82                             114   -0.11 6  244 264 
 HEL  HZ I        2322 36.91         2.9 0.40            117            244 264 
                                                                                
