 2017  2 1 2247 36.2 L   6.783 -73.149148.5  RSN  6 0.3 1.6LRSN                1
 GAP=137        0.85       3.6     3.9  6.8  0.1105E+01  0.3792E+01  0.7520E+01E
 Epicentro: LOS SANTOS - SANTANDER                                             3
 ACTION:UPD 17-05-24 15:31 OP:jn   STATUS:               ID:20170201224736 L   I
 OLDACT:UP  17-02-02 05:55 OP:dani STATUS:               ID:20170201223746     3
 OLDACT:REG 17-02-02 05:08 OP:dani STATUS:               ID:20170201223746     3
 2017-02-01-2238-00M.COL___328                                                 6
 STAT SP IPHASW D HRMM SECON CODA AMPLIT PERI AZIMU VELO AIN AR TRES W  DIS CAZ7
 BRR  HZ EP       2247 57.87                             153    0.2010 71.8 300 
 BRR  HN ES       2248 15.02                             153    0.6010 71.8 300 
 BRR  HZ I        2248 18.85         9.5 0.32            152           71.8 300 
 PAM  EZ EP       2247 58.98                             151    0.1910 79.1  39 
 PAM  EE ES       2248 15.94                             151   -0.4810 79.1  39 
 PAM  EZ I        2248 19.11         6.0 0.70            156           79.1  39 
 RUS  HZ EP       2248  0.09                             145    0.0110 98.7 176 
 RUS  HN ES       2248 18.71                             145    0.0110 98.7 176 
 RUS  HZ I        2248 19.92         4.7 0.30            147           98.7 176 
 PTB  HZ EP       2248  2.93                             133   -0.39 9  147 260 
 PTB  HE ES       2248 24.36                             133   -0.12 9  147 260 
 PTB  HZ I        2248 30.57         3.9 0.24            133            147 260 
 ZAR  HN ES       2248 34.08                             123   -0.25 9  204 293 
 ZAR  HZ I        2248 39.96         4.2 0.21            124            204 293 
 CHI  HZ EP       2248 14.31                             118    0.48 8  247 195 
 CHI  HN ES       2248 42.85                             118   -0.34 8  247 195 
 CHI  HZ I        2248 48.84         2.4 0.29            120            247 195 
                                                                                
