 2010 10 1 2144 46.1 L   6.755 -73.114141.2  RSN 10 0.4 2.0LRSN                1
 GAP=163        0.95       4.5     8.0  7.4 -0.1430E+02 -0.1295E+01  0.6235E+01E
 Epicentro: LOS SANTOS - SANTANDER                                             3
 ACTION:UP  11-02-18 11:07 OP:tino STATUS:               ID:20101001214446 L   I
 2010-10-01-2141-35S.COL___125                                                 6
 STAT SP IPHASW D HRMM SECON CODA AMPLIT PERI AZIMU VELO SNR AR TRES W  DIS CAZ7
 BAR2 SZ EP       2145  5.09                             172     0.010   20 203 
 BAR2 SZ ES   1   2145 19.59                             172    -0.3 7   20 203 
 BAR2 SZ I        2145 20.98        25.7 0.03                            20 203 
 GIR2 SZ EP       2145  5.10                             165    -0.310   37 346 
 BRR  HZ EP       2145  6.96                             150    -0.110   77 301 
 BRR  HN ES   1   2145 23.78                             150     0.3 7   77 301 
 BRR  HZ I        2145 25.01        22.3 0.11                            77 301 
 RUS  HZ EP       2145  8.95                             144    -0.110   95 178 
 RUS  HN ES   2   2145 27.56                             144     0.6 5   95 178 
 RUS  HZ I        2145 29.20        14.3 0.42                            95 178 
 GUE  SZ EP       2145  9.97                             137    -0.810  121  10 
 GRA  SZ IP     D 2145 11.98                             135     0.710  129  15 
 GRA  SZ ES   1   2145 31.26                             135     0.4 7  129  15 
 GRA  SZ I        2145 32.82        12.0 0.32                           129  15 
 NOR  SZ EP       2145 21.65                             117     0.1 8  235 236 
 NOR  SN ES   2   2145 49.13                             117    -0.1 4  235 236 
 CHI  HZ EP       2145 23.35                             117     0.2 8  245 196 
 CHI  HN ES   2   2145 51.96                             117    -0.1 4  245 196 
 CHI  HZ I        2145 56.21         4.2 0.77                           245 196 
 HEL  HZ EP   3   2145 26.90                             114     0.6 2  274 257 
 HEL  HZ I        2146  4.27         5.7 0.42                           274 257 
 PRA  HZ EP   3   2145 39.50                             106     0.3 1  389 210 
 PRA  HE ES   3   2146 20.95                             106     0.4 1  389 210 
                                                                                
