 2010  4 1 2230 18.0 L   6.773 -73.027137.8  RSN  5 0.3 1.9LRSN                1
 GAP=262        0.53       5.5     8.4  6.6  0.1249E+02  0.6297E+01  0.1861E+02E
 Epicentro: CEPITA - SANTANDER                                                 3
 ACTION:UPD 10-08-24 09:57 OP:vdl  STATUS:               ID:20100401223017 L   I
 2010-04-01-2228-03S.COL___098                                                 6
 STAT SP IPHASW D HRMM SECON CODA AMPLIT PERI AZIMU VELO AIN AR TRES W  DIS CAZ7
 BAR2 SZ EP   1   2230 36.95                             168     0.2 7   27 221 
 BAR2 SZ ES   2   2230 51.60                             168     0.2 5   27 221 
 BRR  HZ IP       2230 38.86                             148    -0.310   84 296 
 BRR  HN ES   1   2230 55.74                             148     0.1 7   84 296 
 BRR  HZ I        2230 59.05        18.8 0.15                            84 296 
 CHI  HZ EP   1   2230 55.46                             116     0.0 6  250 198 
 CHI  HN ES   2   2231 24.38                             116    -0.2 4  250 198 
 CHI  HZ I        2231 27.69         2.8 0.22                           250 198 
 HEL  HZ EP   2   2230 59.94                             113     0.7 4  284 257 
 HEL  HE ES   3   2231 30.99                             113    -0.4 2  284 257 
 HEL  HZ I        2231 36.88         6.3 0.70                           284 257 
 RREF BZ EP   1   2231  5.11                             109     0.3 5  330 231 
 RREF BN ES   3   2231 40.86                             109    -0.4 2  330 231 
 RREF BZ I        2231 49.19         4.1 0.14                           330 231 
                                                                                
