 2013 10 1 2220  7.6 L   6.747 -73.237149.3  RSN  6 0.2 1.7LRSN                1
 GAP=213        0.58       4.2     4.1  4.2  0.9938E+01  0.3500E+01  0.4106E+01E
 Epicentro: VILLANUEVA - SANTANDER                                             3
 ACTION:UPD 13-11-25 09:18 OP:ep   STATUS:               ID:20131001222007 L   I
 OLDACT:REG 13-10-01 21:47 OP:jn   STATUS:               ID:20131001221959     3
 2013-10-01-2219-59M.COL___272                                                 6
 STAT SP IPHASW D HRMM SECON CODA AMPLIT PERI AZIMU VELO AIN AR TRES W  DIS CAZ7
 BAR2 SZ EP       2220 27.33                             173   -0.2610 18.2 161 
 BAR2 SZ ES       2220 43.11                             173   -0.0510 18.2 161 
 BAR2 SZ I        2220 43.64        20.3 0.44            165           18.2 161 
 BRR  HZ EP       2220 29.08                             155    0.2110 65.8 307 
 BRR  HN ES       2220 45.60                             155    0.1610 65.8 307 
 BRR  HZ I        2220 51.97        11.0 0.34            149           65.8 307 
 RUS  HZ EP       2220 31.26                             146   -0.1510 96.1 170 
 RUS  HN ES       2220 50.08                             146    0.1210 96.1 170 
 RUS  HZ I        2220 51.20         5.2 0.28            133           96.1 170 
 PTB  HZ EP       2220 33.61                             135   -0.30 9  137 260 
 PTB  HN ES       2220 54.28                             135   -0.14 9  137 260 
 PTB  HZ I        2220 56.77         5.7 0.32            124            137 260 
 ZAR  HE ES   1   2221  4.69                             124    0.16 6  197 295 
 CHI  HZ EP       2220 45.10                             119    0.46 8  241 193 
 CHI  HZ I        2221 18.10         2.3 0.44            108            241 193 
                                                                                
