 2013  5 1 2000  2.1 L   6.753 -73.168134.4  RSN  7 0.5 1.6LRSN                1
 GAP=136        1.26       6.7     6.1  8.1 -0.1284E+02  0.1071E+02  0.1162E+02E
 Epicentro: VILLANUEVA - SANTANDER                                             3
 ACTION:UPD 13-06-20 09:47 OP:ep   STATUS:               ID:20130501200002 L   I
 2013-05-01-2000-00M.COL___253                                                 6
 STAT SP IPHASW D HRMM SECON CODA AMPLIT PERI AZIMU VELO AIN AR TRES W  DIS CAZ7
 BAR2 SZ EP       20 0 20.48                             172    0.1810 17.8 185 
 BAR2 SZ ES       20 0 33.70                             172   -0.7710 17.8 185 
 BAR2 SZ I        20 0 36.26         8.2 0.18            170           17.8 185 
 GIR2 SZ EP       20 0 20.69                             164    0.0710 36.2 356 
 GIR2 SZ ES       20 0 34.78                             164   -0.2510 36.2 356 
 GIR2 SZ I        20 0 37.46         9.2 0.28            166           36.2 356 
 BRR  HZ EP       20 0 22.45                             150    0.3510 71.7 303 
 BRR  HN ES   1   20 0 39.17                             150    1.49 7 71.7 303 
 BRR  HZ I        20 0 40.59        12.4 0.40            150           71.7 303 
 PAM  SZ EP       20 0 23.55                             146    0.0210 83.0  39 
 PAM  SN ES       20 0 40.10                             146   -0.1110 83.0  39 
 PAM  SZ I        20 0 42.45         4.9 0.38            151           83.0  39 
 RUS  HZ EP       20 0 24.52                             143    0.1010 95.6 174 
 RUS  HN ES   1   20 0 42.50                             143    0.71 7 95.6 174 
 RUS  HZ I        20 0 43.86         4.9 0.24            144           95.6 174 
 PTB  HZ EP       20 0 27.32                             130   -0.56 9  144 261 
 PTB  HN ES       20 0 47.44                             130   -0.53 9  144 261 
 PTB  HZ I        20 0 50.52         6.9 0.21            131            144 261 
 NOR  HZ EP       20 0 36.52                             116   -0.16 8  230 235 
 NOR  HN ES   1   20 1  4.23                             116    0.60 6  230 235 
 NOR  HZ I        20 1 11.38         4.1 0.18            118            230 235 
                                                                                
