 2011  6 1 2318 16.5 L   6.617 -73.248124.0  RSN  5 0.2 1.8LRSN                1
 GAP=149        0.58       3.2     6.1  5.8  0.4985E+01 -0.1206E+02 -0.6465E+01E
 Epicentro: CABRERA - SANTANDER                                                3
 ACTION:UP  11-07-14 19:02 OP:ep   STATUS:               ID:20110601231816 L   I
 2011-06-01-2315-33S.COL___113                                                 6
 STAT SP IPHASW D HRMM SECON CODA AMPLIT PERI AZIMU VELO SNR AR TRES W  DIS CAZ7
 BAR2 SZ ES   2   2318 45.91                             176    -0.4 5    8 110 
 BAR2 SZ I        2318 48.39        15.1 0.48                             8 110 
 BRR  HZ EP       2318 35.31                             147    -0.210   75 317 
 BRR  HZ I        2318 35.52        87.5 0.13                            75 317 
 BRR  HN ES       2318 50.66                             147     0.210   75 317 
 RUS  HZ EP   1   2318 36.82                             145     0.1 7   82 167 
 RUS  HN ES   1   2318 52.68                             145     0.1 7   82 167 
 RUS  HZ I        2318 55.04         3.2 0.25                            82 167 
 GRA  SZ EP   1   2318 42.17                             127     0.1 7  149  19 
 GRA  SZ ES   1   2319  2.13                             127     0.2 7  149  19 
 GRA  SZ I        2319  3.91         5.8 0.33                           149  19 
 OCA  SZ EP       2318 45.19                             121     0.0 9  180 357 
 OCA  SZ ES   2   2319  7.07                             121    -0.5 4  180 357 
 OCA  SZ I        2319  9.72         8.6 0.29                           180 357 
                                                                                
