 2016  1 1 2308  5.5 L   6.819 -73.128150.6  RSN 13 0.4 2.3LRSN                1
 GAP=138        0.86       2.2     3.1  4.3 -0.1224E+01  0.3841E+01  0.2772E+00E
 Epicentro: LOS SANTOS - SANTANDER                                             3
 ACTION:UPD 16-03-09 23:21 OP:cam  STATUS:               ID:20160101230805 L   I
 OLDACT:REG 16-01-02 03:04 OP:cara STATUS:               ID:20160101225746     3
 2016-01-01-2257-46M.COL___320                                                 6
 STAT SP IPHASW D HRMM SECON CODA AMPLIT PERI AZIMU VELO AIN AR TRES W  DIS CAZ7
 BAR2 EZ IP       23 8 25.65                             170   -0.0610 25.7 193 
 BAR2 EZ ES       23 8 41.13                             170   -0.3810 25.7 193 
 BAR2 EZ I        23 8 43.72        38.7 0.26            169           25.7 193 
 BRR  HZ EP       23 8 27.25                             153    0.0810 72.0 296 
 BRR  HN ES       23 8 44.67                             153    0.5710 72.0 296 
 BRR  HZ I        23 8 49.34        24.9 0.26            152           72.0 296 
 PAM  EZ IP     C 23 8 28.47                             152    0.4510 74.6  39 
 PAM  EN ES       23 8 45.74                             152    0.1110 74.6  39 
 PAM  EZ I        23 8 50.38        15.5 0.32            157           74.6  39 
 RUS  HZ EP       23 8 29.60                             144   -0.2210  103 177 
 RUS  HN ES       23 8 48.77                             144   -0.0510  103 177 
 RUS  HZ I        23 8 49.95        16.7 0.38            148            103 177 
 PTB  HZ EP       23 8 32.44                             133   -0.59 9  150 258 
 PTB  HN ES       23 8 53.88                             133   -0.65 9  150 258 
 PTB  HZ I        23 9  1.05        27.1 0.48            134            150 258 
 OCA  HZ EP       23 8 34.07                             131    0.09 9  158 352 
 OCA  HN ES       23 8 56.23                             131    0.01 9  158 352 
 OCA  HZ I        23 9  1.33        32.7 0.50            134            158 352 
 SPBC HZ IP       23 8 34.71                             130    0.12 9  166 219 
 SPBC HN ES       23 8 57.24                             130   -0.08 9  166 219 
 SPBC HZ I        23 9  2.50        40.7 0.12            132            166 219 
 ZAR  HZ EP       23 8 38.12                             123   -0.20 9  205 291 
 ZAR  HN ES       23 9  4.37                             123    0.41 9  205 291 
 ZAR  HZ I        23 9 12.41        18.4 0.36            125            205 291 
 NOR  HZ EP       23 8 41.46                             119   -0.30 8  237 234 
 NOR  HN ES       23 9  9.90                             119   -0.18 8  237 234 
 NOR  HZ I        23 9 13.32        19.6 0.34            121            237 234 
 SML  HZ EP       23 8 41.95                             118   -0.29 8  243 335 
 SML  HN ES       23 9 10.61                             118   -0.33 8  243 335 
 SML  HZ I        23 9 12.57        24.4 0.10            121            243 335 
 CHI  HZ EP       23 8 43.79                             118    0.10 8  251 195 
 CHI  HE ES       23 9 13.82                             118    0.30 8  251 195 
 CHI  HZ I        23 9 21.79         6.0 0.50            121            251 195 
 HEL  HZ EP       23 8 45.93                             115   -0.25 8  274 255 
 HEL  HN ES       23 9 18.27                             115    0.33 8  274 255 
 HEL  HZ I        23 9 24.81        10.9 0.36            118            274 255 
 GUY2CHZ EP       23 8 50.44                             113    0.84 7  304 235 
 GUY2CHN ES       23 9 24.65                             113    0.62 7  304 235 
 GUY2CHZ I        23 9 32.51        14.6 0.74                           304 235 
                                                                                
