 2010  2 1 2207 52.3 L   6.813 -73.002140.4  RSN 11 0.6 2.6LRSN                1
 GAP=136        1.05       4.4     8.4  5.6 -0.1867E+02  0.8625E+01  0.2339E+01E
 Epicentro: CEPITA - SANTANDER                                                 3
 ACTION:UP  10-08-24 09:47 OP:vdl  STATUS:               ID:20100201220752 L   I
 2010-02-01-2204-49S.COL___097                                                 6
 STAT SP IPHASW D HRMM SECON CODA AMPLIT PERI AZIMU VELO SNR AR TRES W  DIS CAZ7
 BAR2 SZ ES       22 8 26.54                             167     0.010   32 219 
 GIR2 SZ EP   1   22 8 11.72                             165     0.2 7   36 324 
 GIR2 SZ ES       22 8 26.13                             165    -0.410   36 324 
 RUS  BN ES   1   22 8 33.94                             142     0.1 7  102 185 
 OCA  SZ EP       22 8 20.90                             128     0.5 9  162 348 
 OCA  SZ ES   1   22 8 42.03                             128    -0.2 7  162 348 
 CHI  HZ EP       22 8 29.89                             115    -0.5 8  255 199 
 CHI  HN ES   1   22 9  0.11                             115     0.0 6  255 199 
 CHI  HZ I        22 9  6.58        20.7 0.09                           255 199 
 RREF BZ EP       22 8 39.87                             109     0.1 7  335 231 
 RREF BE ES   1   22 9 17.36                             109     0.6 5  335 231 
 RREF BZ I        22 9 25.63        19.7 0.42                           335 231 
 SDV  BZ EP       22 8 41.21                             108     0.5 6  347  49 
 DBB  SZ EP   1   22 8 39.70                             107    -1.7 5  355 274 
 TOL  SZ EP       22 8 41.75                             107    -0.1 6  356 226 
 TOL  SZ ES   1   22 9 21.28                             107     0.9 5  356 226 
 ANIL BN ES       22 9 23.91                             107     0.7 6  370 226 
 PRA  HZ EP       22 8 45.68                             105    -1.1 6  401 211 
 PRA  HN ES   1   22 9 29.15                             105    -0.1 4  401 211 
                                                                                
