 2016  8 1 2131  3.9 L   6.815 -73.145145.8  RSN 22 0.5 2.7LRSN                1
 GAP= 73        1.07       3.5     3.0  4.8 -0.2075E+01  0.4257E+01  0.1627E+01E
 Epicentro: LOS SANTOS - SANTANDER                                             3
 ACTION:UPD 16-10-29 15:31 OP:rebc STATUS:               ID:20160801213103 L   I
 OLDACT:UP  16-08-02 07:47 OP:ar   STATUS:               ID:20160801212837     3
 OLDACT:REG 16-08-02 05:42 OP:ar   STATUS:               ID:20160801212837     3
 2016-08-01-2129-00M.COL___362                                                 6
 STAT SP IPHASW D HRMM SECON CODA AMPLIT PERI AZIMU VELO AIN AR TRES W  DIS CAZ7
 BAR2 EZ EP       2131 23.45                             170   -0.1710 24.9 189 
 BAR2 EZ ES       2131 38.79                             170   -0.1710 24.9 189 
 BAR2 EZ I        2131 41.28       161.1 0.48                          24.9 189 
 BRR  HZ IP     C 2131 25.27                             153    0.2110 70.5 297 
 BRR  HN ES       2131 42.18                             153    0.6510 70.5 297 
 BRR  HZ I        2131 46.33        81.3 0.32                          70.5 297 
 PAM  EZ EP       2131 26.31                             151    0.2210 76.1  40 
 PAM  EN ES       2131 43.32                             151   -0.0410 76.1  40 
 PAM  EZ I        2131 45.61        97.6 0.48                          76.1  40 
 RUS  HZ EP       2131 27.39                             143   -0.4310  102 176 
 RUS  HN ES       2131 46.15                             143   -0.2910  102 176 
 RUS  HZ I        2131 47.24        88.1 0.36                           102 176 
 TAM  HZ IP     C 2131 31.89                             130    0.23 9  155 106 
 TAM  HN ES       2131 53.63                             130    0.35 9  155 106 
 TAM  HZ I        2131 54.61        29.5 0.54                           155 106 
 SPBC HZ EP       2131 32.48                             129   -0.09 9  164 219 
 SPBC HN ES       2131 54.32                             129   -0.58 9  164 219 
 SPBC HZ I        2131 56.91       119.4 0.32                           164 219 
 ZAR  HZ EP       2131 36.53                             122    0.19 9  203 292 
 ZAR  HN ES       2132  1.59                             122   -0.01 9  203 292 
 ZAR  HZ I        2132  7.25        50.6 0.30                           203 292 
 NOR  HZ EP       2131 39.65                             118   -0.13 8  236 234 
 NOR  HN ES       2132  7.39                             118   -0.35 8  236 234 
 NOR  HZ I        2132 13.05        37.8 0.16                           236 234 
 ROSC BZ EP   4   2131 43.67                             117    1.45 0  254 211 
 ROSC BN ES   4   2132 14.21                             117    2.13 0  254 211 
 ROSC BZ I        2132 18.19        59.8 0.45                           254 211 
 HEL  HZ EP       2131 44.89                             115    0.68 8  273 255 
 HEL  HN ES   4   2132 17.68                             115    2.06 0  273 255 
 HEL  HZ I        2132 23.70        21.4 0.38                           273 255 
 URE  HZ EP       2131 43.84                             114   -1.11 7  283 292 
 URE  HN ES   4   2132 14.26                             114   -2.68 0  283 292 
 SOCV BZ EP       2131 46.31                             112   -0.58 7  300  57 
 SOCV BN ES   4   2132 18.70                             112   -1.69 0  300  57 
 GUY2CHZ EP       2131 48.79                             112    1.12 7  302 235 
 GUY2CHN ES       2132 22.20                             112    0.43 7  302 235 
 GUY2CHZ I        2132 33.64        31.4 0.46                           302 235 
 VIL  EZ EP       2131 47.22                             112   -0.33 7  305 192 
 VIL  EN ES   4   2132 19.61                             112   -1.94 0  305 192 
 VIL  EZ I        2132 26.96        36.1 0.32                           305 192 
 PTGC HZ EP   4   2131 46.56                             111   -1.41 0  310 159 
 PTGC HN ES   4   2132 19.86                             111   -2.46 0  310 159 
 PTGC HZ I        2132 22.43        32.7 0.42                           310 159 
 LL6C HZ EP   4   2131 49.53                             110    0.07 0  323 358 
 ELA  HZ EP   4   2131 52.85                             110    1.93 0  330 229 
 ELA  HE ES   4   2132 29.82                             110    2.26 0  330 229 
 ELA  HZ I        2132 42.64        19.3 0.38                           330 229 
 CBOC HZ EP       2131 51.80                             110    0.88 7  334 252 
 CBOC HE ES   2   2132 26.74                             110   -0.83 3  334 252 
 CBOC HZ I        2132 38.43         7.9 0.50                           334 252 
 ANIL HZ EP       2131 54.97                             108    1.08 6  359 224 
 ANIL HE ES       2132 32.38                             108   -0.46 6  359 224 
 PRA  HZ EP       2131 57.32                             106   -0.31 6  393 209 
 PRA  HN ES       2132 39.92                             106    0.41 6  393 209 
 PRA  HZ I        2132 45.64        29.0 0.50                           393 209 
 PAL  HZ EP       2131 59.05                             106   -0.16 6  407 239 
 PAL  HN ES       2132 42.10                             106   -0.21 6  407 239 
 PAL  HZ I        2132 45.09         8.4 0.20                           407 239 
 SJC  HZ EP       2131 58.36                             106   -0.99 6  408 327 
 SJC  HN ES   4   2132 38.83                             106   -3.74 0  408 327 
 SJC  HZ I        2132 53.49         6.5 0.30                           408 327 
 CRJC HZ EP   4   2132  3.91                             103   -2.34 0  466   4 
 CRJC HN ES   4   2132 50.74                             103   -4.11 0  466   4 
 CRJC HZ I        2132 53.15        11.7 0.42                           466   4 
                                                                                
