 2014 11 1 2016 17.9 L   6.802 -73.191141.1  RSN 10 0.4 2.1LRSN                1
 GAP=131        0.94       2.8     4.0  5.3 -0.1058E+01  0.4480E+01  0.1427E+01E
 Epicentro: ZAPATOCA - SANTANDER                                               3
 ACTION:UPD 14-12-19 15:38 OP:nd   STATUS:               ID:20141101201617 L   I
 OLDACT:UP  14-11-02 06:00 OP:mh   STATUS:               ID:20141101200750     3
 OLDACT:UP  14-11-02 06:00 OP:mh   STATUS:               ID:20141101200750     3
 OLDACT:UP  14-11-02 05:59 OP:mh   STATUS:               ID:20141101200750     3
 OLDACT:REG 14-11-02 04:52 OP:mh   STATUS:               ID:20141101200750     3
 2014-11-01-2007-50M.COL___274                                                 6
 STAT SP IPHASW D HRMM SECON CODA AMPLIT PERI AZIMU VELO AIN AR TRES W  DIS CAZ7
 BAR2 SZ EP   1   2016 36.81                             170   -0.17 7 23.2 178 
 BAR2 SZ ES       2016 51.65                             170   -0.2010 23.2 178 
 BAR2 SZ I        2016 53.82                             170           23.2 178 
 BRR  HZ EP     C 2016 38.91                             153    0.6110 66.7 300 
 BRR  HN ES       2016 54.82                             153    0.6110 66.7 300 
 BRR  HZ I        2016 56.33        34.1 0.16            150           66.7 300 
 PAM  SZ EP       2016 39.96                             149    0.1410 80.5  42 
 PAM  SN ES       2016 56.73                             149   -0.1810 80.5  42 
 PAM  SZ I        2016 59.00        20.8 0.42            152           80.5  42 
 RUS  HZ EP       2016 41.18                             143   -0.0710  101 173 
 RUS  HN ES       2016 59.25                             143   -0.2210  101 173 
 RUS  HZ I        2017  0.42         8.2 0.22            144            101 173 
 PTB  HZ EP       2016 43.88                             132   -0.18 9  143 258 
 PTB  HN ES       2017  3.89                             132   -0.56 9  143 258 
 PTB  HZ I        2017  9.10        22.2 0.10            130            143 258 
 OCA  HZ EP   1   2016 45.44                             129   -0.35 7  160 355 
 OCA  HN ES       2017  7.37                             129   -0.16 9  160 355 
 OCA  HZ I        2017 11.92        26.4 0.66            129            160 355 
 SPBC HZ EP       2016 45.80                             128    0.03 9  160 218 
 SPBC HN ES       2017  7.94                             128    0.43 9  160 218 
 SPBC HZ I        2017  9.94        30.6 0.46            128            160 218 
 CHI  HZ EP       2016 55.88                             116    0.64 8  248 194 
 CHI  HN ES       2017 24.15                             116   -0.21 8  248 194 
 CHI  HZ I        2017 33.77         4.1 0.42            117            248 194 
 URE  HZ EP       2016 58.17                             113   -0.05 7  279 292 
 URE  HN ES   1   2017 28.86                             113   -0.81 6  279 292 
 URE  HZ I        2017 41.76        15.1 0.32            113            279 292 
 MON  HZ EP   9   2017  4.36                             108   -1.90 0  350 309 
 MON  HN ES       2017 42.93                             109    0.85 6  350 309 
 MON  HZ I        2017 43.99         5.3 0.18            108            350 309 
 SDV  BN ES   4   2017 42.99                             107   -4.44 0  364  51 
                                                                                
