 2015  4 1 2124 41.4 L   6.791 -73.176132.5  RSN  4 0.2 1.1LRSN                1
 GAP=133        0.63       3.3     4.1  5.8 -0.1648E+00  0.4314E+01  0.3383E+01E
 Epicentro: LOS SANTOS - SANTANDER                                             3
 ACTION:UPD 15-06-03 16:51 OP:cam  STATUS:               ID:20150401212441 L   I
 OLDACT:REG 15-04-02 04:51 OP:stll STATUS:               ID:20150401211748     3
 2015-04-01-2117-48M.COL___286                                                 6
 STAT SP IPHASW D HRMM SECON CODA AMPLIT PERI AZIMU VELO AIN AR TRES W  DIS CAZ7
 BRR  HZ EP       2125  1.25                             151    0.2910 68.8 301 
 BRR  HE ES       2125 16.33                             151    0.0910 68.8 301 
 PAM  SZ EP       2125  2.34                             147   -0.0510 80.3  41 
 PAM  SZ I        2125  2.59         4.6 0.20            149           80.3  41 
 PAM  SN ES       2125 18.65                             147   -0.1310 80.3  41 
 RUS  HZ EP       2125  4.08                             141    0.2810 99.9 174 
 RUS  HE ES       2125 21.17                             141   -0.1110 99.9 174 
 RUS  HZ I        2125 23.40         1.5 0.30            141           99.9 174 
 PTB  HZ EP       2125  6.55                             129   -0.42 9  144 259 
                                                                                
