 2017  5 1 2204 25.0 L   6.748 -73.375126.0  RSN  6 0.3 1.7LRSN                1
 GAP= 95        0.89       3.7     4.5  7.0  0.3040E+01 -0.2097E+01  0.5867E+01E
 Epicentro: ZAPATOCA - SANTANDER                                               3
 ACTION:UPD 17-06-16 13:31 OP:jn   STATUS:               ID:20170501220425 L   I
 OLDACT:UP  17-05-02 04:53 OP:dnl  STATUS:               ID:20170501215743     3
 OLDACT:UP  17-05-02 04:53 OP:dnl  STATUS:               ID:20170501215743     3
 OLDACT:UP  17-05-02 04:52 OP:dnl  STATUS:               ID:20170501215743     3
 OLDACT:REG 17-05-02 04:03 OP:dnl  STATUS:               ID:20170501215743     3
 2017-05-01-2158-00M.COL___377                                                 6
 STAT SP IPHASW D HRMM SECON CODA AMPLIT PERI AZIMU VELO AIN AR TRES W  DIS CAZ7
 BRR  HZ IP     C 22 4 43.18                             155    0.1110 54.4 317 
 BRR  HZ I        22 4 57.20        13.8 0.34            148           54.4 317 
 BRR  HN ES       22 4 57.57                             155    0.3910 54.4 317 
 PAM  EZ EP       22 4 46.74                             140   -0.0010 99.2  49 
 PAM  EN ES       22 5  3.53                             140   -0.1810 99.2  49 
 PAM  EZ I        22 5  6.67         9.1 0.56            140           99.2  49 
 RUS  HZ EP       22 4 46.93                             140    0.1310 99.9 161 
 RUS  HN ES       22 5  3.68                             140   -0.1310 99.9 161 
 RUS  HZ I        22 5  5.25         4.0 0.20            139           99.9 161 
 PTB  HZ EP       22 4 47.31                             133   -0.6810  122 259 
 PTB  HN ES   4   22 5  4.56                             133   -1.37 0  122 259 
 PTB  HZ I        22 5 11.57         7.3 0.32            128            122 259 
 YPLC HZ EP       22 4 54.93                             121    0.58 9  186 144 
 YPLC HE ES       22 5 17.07                             121   -0.18 9  186 144 
 YPLC HZ I        22 5 21.45        11.8 0.30            120            186 144 
 NOR  HZ EP   9   22 4 58.48                             117    1.44 0  211 232 
 NOR  HN ES       22 5 23.88                             116    0.40 8  211 232 
 NOR  HZ I        22 5 27.83         4.7 0.16            114            211 232 
                                                                                
