 2011  8 1 2157 19.5 L   6.779 -73.116140.5  RSN 20 0.4 3.4LRSN                1
 GAP=128        0.74       2.5     4.1  4.2 -0.5033E+01  0.4296E+01  0.1220E+01E
 Epicentro: LOS SANTOS - SANTANDER                                             3
 ACTION:UPD 12-07-25 14:05 OP:epov STATUS:               ID:20110801215719 L   I
 2011-08-01-2156-39S.COL___141                                                 6
 STAT SP IPHASW D HRMM SECON CODA AMPLIT PERI AZIMU VELO AIN AR TRES W  DIS CAZ7
 BAR2 SZ EP       2157 38.57                             171    0.0810 22.0 199 
 BAR2 SZ ES   1   2157 53.18                             171   -0.11 7 22.0 199 
 BAR2 SZ I        2157 54.31       864.4 0.23                          22.0 199 
 GIR2 SZ EP   1   2157 39.09                             166    0.44 7 34.2 346 
 BRR  HZ IP     C 2157 40.50                             150    0.1610 75.1 299 
 BRR  HE ES   1   2157 56.62                             150    0.05 7 75.1 299 
 BRR  HZ I        2157 58.52       709.2 0.19                          75.1 299 
 PAM  SZ EP       2157 41.46                             150    0.3010 77.2  37 
 PAM  SE ES   1   2157 57.93                             150   -0.12 7 77.2  37 
 RUS  HZ EP       2157 42.55                             143   -0.0310 98.1 178 
 RUS  HN ES   1   2158  0.46                             143   -0.10 7 98.1 178 
 RUS  HZ I        2158  2.92       231.5 0.34                          98.1 178 
 BRI  SZ EP   1   2157 43.28                             140    0.29 7  109  19 
 BRI  SZ ES   1   2158  1.14                             140   -0.16 7  109  19 
 BRI  SZ I        2158  7.08       804.7 0.42                           109  19 
 GUE  SZ EP   1   2157 44.18                             138    0.30 7  118  10 
 GRA  SZ EP       2157 44.59                             135    0.1910  127  16 
 GRA  SZ ES   1   2158  3.83                             135    0.01 7  127  16 
 GRA  SZ I        2158  5.20       719.3 0.49                           127  16 
 OCA  SZ EP       2157 47.59                             128   -0.09 9  163 352 
 OCA  SZ ES   1   2158  8.77                             128   -0.88 7  163 352 
 OCA  SZ I        2158 10.48       652.9 0.18                           163 352 
 NOR  SZ EP       2157 54.57                             117   -0.52 8  236 235 
 NOR  SN ES   2   2158 22.22                             117   -0.62 4  236 235 
 CHI  HZ EP   1   2157 56.84                             116    0.05 6  247 196 
 CHI  HN ES   1   2158 25.86                             116    0.00 6  247 196 
 CHI  HZ I        2158 29.63        44.0 0.29                           247 196 
 ROSC BZ EP   1   2157 58.19                             116    0.86 6  253 212 
 ROSC BZ I        2158 35.52        95.9 0.36                           253 212 
 HEL  HZ EP   1   2157 59.90                             113    0.14 6  275 256 
 VIL  SZ EP   2   2158  2.19                             111   -0.33 4  302 192 
 VIL  SZ I        2158 47.76        48.9 0.27                           302 192 
 GUY  SZ EP   1   2158  3.79                             111    0.48 5  305 236 
 GUY  SN ES   2   2158 36.77                             111   -0.70 4  305 236 
 GUY  SZ I        2158 42.76       130.0 0.51                           305 236 
 RREF HZ EP   1   2158  5.15                             110   -0.40 5  323 230 
 RREF HN ES   1   2158 41.89                             110    0.43 5  323 230 
 RREF HZ I        2158 50.69       107.0 0.27                           323 230 
 DBB  SZ EP       2158  7.49                             108    0.31 7  343 275 
 TOL  SZ EP   1   2158  8.23                             108    0.58 5  344 225 
 SDV  BZ EP       2158  8.21                             107   -1.03 6  359  50 
 SDV  BZ I        2158  9.21        70.0 0.11                           359  50 
 PRA  HZ EP   1   2158 12.03                             106   -0.79 4  392 210 
 PRA  HN ES   1   2158 53.58                             106   -0.82 4  392 210 
                                                                                
