 2015  5 1 2337 20.1 L   6.896 -73.144149.0  RSN  6 0.4 1.6LRSN                1
 GAP=132        0.80       4.4     4.4  6.6  0.4817E+01  0.6142E+01 -0.8557E+00E
 Epicentro: PIEDECUESTA - SANTANDER                                            3
 ACTION:UPD 15-09-10 22:00 OP:cam  STATUS:               ID:20150501233720 L   I
 OLDACT:REG 15-05-02 03:05 OP:spq  STATUS:               ID:20150501232750     3
 2015-05-01-2327-50M.COL___276                                                 6
 STAT SP IPHASW D HRMM SECON CODA AMPLIT PERI AZIMU VELO AIN AR TRES W  DIS CAZ7
 BAR2 EZ EP       2337 40.41                             167    0.0110 33.8 187 
 BAR2 EZ ES   1   2337 55.47                             167   -0.75 7 33.8 187 
 BAR2 EZ I        2337 57.54         5.0 0.42            167           33.8 187 
 BRR  HZ EP       2337 41.51                             154    0.1110 67.0 290 
 BRR  HN ES       2337 58.49                             154    0.4910 67.0 290 
 BRR  HZ I        2338  1.04         5.1 0.11            152           67.0 290 
 PAM  SZ EP       2337 42.57                             154    0.3210 69.4  45 
 PAM  SE ES       2337 59.44                             154   -0.0610 69.4  45 
 PAM  SZ I        2338  0.61         9.7 0.26            157           69.4  45 
 RUS  HZ EP   1   2337 45.01                             142    0.04 7  111 177 
 RUS  HE ES   1   2338  4.28                             142   -0.07 7  111 177 
 RUS  HZ I        2338  5.69         2.1 0.28            144            111 177 
 ZAR  HZ EP   1   2337 52.01                             124   -0.41 6  200 289 
 ZAR  HN ES       2338 17.62                             124    0.00 9  200 289 
 ZAR  HZ I        2338 23.08         5.8 0.26            124            200 289 
 SML  HE ES   1   2338 23.13                             119   -0.72 6  234 334 
 SML  HN I        2338 27.51         5.7 0.07            120            234 334 
                                                                                
