 2016 11 1 2111 13.2 L   6.773 -73.179150.0  RSN  6 0.3 1.5LRSN                1
 GAP=134        0.78       3.3     3.5  6.2  0.8867E+00  0.2860E+01  0.6163E+01E
 Epicentro: LOS SANTOS - SANTANDER                                             3
 ACTION:UPD 17-10-26 21:03 OP:lp   STATUS:               ID:20161101211113 L   I
 OLDACT:REG 16-11-02 03:55 OP:edw  STATUS:               ID:20161101210747     3
 2016-11-01-2108-00M.COL___334                                                 6
 STAT SP IPHASW D HRMM SECON CODA AMPLIT PERI AZIMU VELO AIN AR TRES W  DIS CAZ7
 BRR  HZ EP       2111 34.92                             154    0.1710 69.6 302 
 BRR  HN ES       2111 51.85                             154    0.3210 69.6 302 
 PAM  EZ EP       2111 35.95                             150   -0.2210 82.0  40 
 PAM  EN ES       2111 54.17                             150    0.1110 82.0  40 
 PAM  EZ I        2111 56.45         2.9 0.42            154           82.0  40 
 RUS  HZ EP       2111 37.07                             145   -0.1410 97.9 174 
 RUS  HN ES       2111 55.69                             145   -0.2310 97.9 174 
 RUS  HZ I        2111 57.05         6.5 0.36            146           97.9 174 
 PTB  HZ EP       2111 39.78                             134   -0.40 9  144 260 
 PTB  HN ES       2112  0.73                             134   -0.47 9  144 260 
 PTB  HZ I        2112  6.42         3.5 0.22            133            144 260 
 ZAR  HZ EP   4   2111 47.98                             124    2.25 0  202 293 
 ZAR  HE ES       2112 11.34                             124    0.26 9  202 293 
 ZAR  HZ I        2112 17.06         4.9 0.68            124            202 293 
 CHI  HZ EP       2111 51.20                             118    0.45 8  245 195 
 CHI  HN ES       2112 20.45                             118    0.43 8  245 195 
 CHI  HZ I        2112 26.71         2.0 0.32            119            245 195 
                                                                                
