 2017  9 1 2224 38.8 L   6.834 -73.124147.0  RSN  4 0.1 1.1LRSN                1
 GAP=138        0.30       2.5     3.8  3.2  0.3130E+01 -0.8214E+00  0.1845E+00E
 Epicentro: LOS SANTOS - SANTANDER                                             3
 ACTION:UPD 17-10-05 19:08 OP:rebc STATUS:               ID:20170901222438 L   I
 OLDACT:UP  17-09-02 06:45 OP:mg   STATUS:               ID:20170901221744     3
 OLDACT:REG 17-09-02 03:59 OP:mg   STATUS:               ID:20170901221744     3
 2017-09-01-2218-00M.COL___408                                                 6
 STAT SP IPHASW D HRMM SECON CODA AMPLIT PERI AZIMU VELO AIN AR TRES W  DIS CAZ7
 BAR2 EZ EP   2   2224 58.64                             169   -0.07 5 27.5 194 
 BAR2 EZ ES   1   2225 14.14                             169   -0.07 7 27.5 194 
 BAR2 EZ I        2225 15.87         2.9 0.19            169           27.5 194 
 BRR  HZ EP       2225  0.25                             153    0.1010 71.7 295 
 BRR  HN ES   1   2225 16.70                             153   -0.07 7 71.7 295 
 BRR  HZ I        2225 18.71         7.1 0.25            154           71.7 295 
 PAM  EZ EP   2   2225  0.78                             152   -0.15 5 72.9  40 
 PAM  EN ES   2   2225 18.28                             152    0.12 5 72.9  40 
 PAM  EZ I        2225 18.97         1.3 0.41            155           72.9  40 
 RUS  HZ EP       2225  2.94                             143   -0.0410  104 178 
 RUS  HN ES   1   2225 21.89                             143    0.08 7  104 178 
 RUS  HZ I        2225 23.42         1.2 0.19            145            104 178 
                                                                                
