 2015 10 1 2257 10.0 L   6.793 -73.119143.2  RSN 10 0.4 2.2LRSN                1
 GAP=140        1.04       3.4     4.4  6.1 -0.1641E+01  0.7733E+01 -0.3728E+01E
 Epicentro: LOS SANTOS - SANTANDER                                             3
 ACTION:UPD 15-12-22 20:36 OP:cam  STATUS:               ID:20151001225710 L   I
 OLDACT:UP  15-10-02 06:03 OP:mh   STATUS:               ID:20151001224748     3
 OLDACT:REG 15-10-02 04:42 OP:mh   STATUS:               ID:20151001224748     3
 2015-10-01-2247-48M.COL___361                                                 6
 STAT SP IPHASW D HRMM SECON CODA AMPLIT PERI AZIMU VELO AIN AR TRES W  DIS CAZ7
 BAR2 EZ EP       2257 29.46                             170    0.1210 23.3 198 
 BAR2 EZ ES       2257 44.00                             170   -0.4110 23.3 198 
 BAR2 EZ I        2257 45.21        28.1 0.16            172           23.3 198 
 BRR  HZ EP       2257 31.38                             151    0.3110 74.2 298 
 BRR  HN ES       2257 48.03                             151    0.5510 74.2 298 
 BRR  HZ I        2257 52.79        21.0 0.18            149           74.2 298 
 PAM  EZ EP     C 2257 32.39                             151    0.5010 76.2  37 
 PAM  EN ES       2257 49.13                             151    0.1910 76.2  37 
 PAM  EZ I        2257 51.53        43.0 0.60            152           76.2  37 
 RUS  HZ EP   1   2257 33.62                             144    0.17 7 99.6 178 
 RUS  HN ES       2257 51.61                             144   -0.1110 99.6 178 
 RUS  HZ I        2257 52.73        17.3 0.24            148           99.6 178 
 PTB  HZ EP       2257 36.52                             131   -0.51 9  151 259 
 PTB  HN ES       2257 57.87                             131   -0.23 9  151 259 
 PTB  HZ I        2257 59.64        16.8 0.14            132            151 259 
 OCA  HZ EP       2257 38.04                             129   -0.20 9  161 352 
 OCA  HN ES       2257 59.41                             129   -0.84 9  161 352 
 OCA  HZ I        2258  2.89        49.3 0.13            129            161 352 
 ZAR  HZ EP   1   2257 43.48                             121    0.86 6  207 292 
 ZAR  HN ES       2258  8.44                             121    0.40 8  207 292 
 ZAR  HZ I        2258 13.33        21.0 0.32            122            207 292 
 NOR  HZ EP       2257 45.99                             118    0.17 8  237 235 
 NOR  HN ES   1   2258 13.26                             118   -0.47 6  237 235 
 NOR  HZ I        2258 15.33         9.9 0.13            120            237 235 
 SML  HZ EP       2257 46.06                             117   -0.66 8  246 335 
 SML  HN ES       2258 15.50                             117    0.16 8  246 335 
 SML  HZ I        2258 24.78        16.0 0.10            118            246 335 
 GUY2CHZ EP   4   2257 55.01                             112    1.27 0  303 235 
 GUY2CHN ES   4   2258 30.98                             112    3.15 0  303 235 
 GUY2CHZ I        2258 35.42         4.4 0.52                           303 235 
                                                                                
