 2013  9 1 2108 46.2 L   6.279 -73.654105.5  RSN  4 0.2 1.0LRSN                1
 GAP=164        0.66       3.9     3.2  6.5  0.4941E+01  0.5976E+01  0.4224E+01E
 Epicentro: SANTA HELENA DEL OPON - SANTANDER                                  3
 ACTION:UPD 13-10-22 09:19 OP:ep   STATUS:               ID:20130901210846 L   I
 OLDACT:REG 13-09-02 00:10 OP:stll STATUS:               ID:20130901205848     3
 2013-09-01-2058-48M.COL___210                                                 6
 STAT SP IPHASW D HRMM SECON CODA AMPLIT PERI AZIMU VELO AIN AR TRES W  DIS CAZ7
 BAR2 SZ EP       21 9  2.78                             147   -0.1010 62.6  56 
 BAR2 SZ ES       21 9 15.64                             147   -0.2810 62.6  56 
 BAR2 SZ I        21 9 17.29         4.6 0.18            151           62.6  56 
 RUS  HZ EP       21 9  4.24                             142    0.0210 76.3 124 
 RUS  HZ I        21 9  4.61         1.1 0.22            145           76.3 124 
 RUS  HN ES       21 9 18.48                             142    0.1910 76.3 124 
 BRR  HZ EP       21 9  4.55                             136   -0.2310 91.8 356 
 BRR  HN ES       21 9 19.71                             136    0.4110 91.8 356 
 PTB  HZ EP       21 9  5.17                             135    0.2310 93.3 288 
 PTB  HN ES       21 9 19.36                             135   -0.2210 93.3 288 
 PTB  HZ I        21 9 22.36         3.5 0.10            137           93.3 288 
                                                                                
