 2011  5 1 2058 59.7 L   6.815 -73.126153.0  RSN  5 0.4 1.6LRSN                1
 GAP=138        0.84       6.6    10.3  9.9 -0.3888E+01 -0.1399E+02  0.1127E+02E
 Epicentro: LOS SANTOS - SANTANDER                                             3
 ACTION:UP  11-06-29 08:50 OP:tino STATUS:               ID:20110501205859 L   I
 2011-05-01-2056-41S.COL___130                                                 6
 STAT SP IPHASW D HRMM SECON CODA AMPLIT PERI AZIMU VELO SNR AR TRES W  DIS CAZ7
 BTL  SZ EP   1   2059 20.30                             173     0.2 7   19 306 
 BAR2 SZ EP   1   2059 19.86                             170    -0.3 7   25 194 
 BAR2 SZ ES   1   2059 35.67                             170    -0.6 7   25 194 
 BAR2 SZ I        2059 36.43         7.5 0.13                            25 194 
 BRR  HN ES   1   2059 38.99                             153     0.2 7   72 297 
 BRR  HZ I        2059 41.83        11.2 0.17                            72 297 
 PAM  SZ EP   2   2059 22.91                             153     0.4 5   75  39 
 PAM  SN ES   1   2059 40.36                             153     0.1 7   75  39 
 RUS  HZ EP   1   2059 23.93                             145    -0.3 7  102 177 
 RUS  HN ES   1   2059 43.98                             145     0.6 7  102 177 
 RUS  HZ I        2059 44.40         4.9 0.38                           102 177 
                                                                                
