 2012  8 1 2035 41.0 L   6.753 -73.150141.7  RSN  6 0.3 1.8LRSN                1
 GAP=138        0.73       4.4     3.9  6.0  0.1527E+01  0.4992E+01 -0.5651E+00E
 Epicentro: LOS SANTOS - SANTANDER                                             3
 ACTION:UPD 12-09-10 11:53 OP:ep   STATUS:               ID:20120801203541 L   I
 2012-08-01-2030-00M.COL___215                                                 6
 STAT SP IPHASW D HRMM SECON CODA AMPLIT PERI AZIMU VELO AIN AR TRES W  DIS CAZ7
 BAR2 SZ EP       2036  0.07                             172    0.0410 18.2 191 
 BAR2 SZ ES   1   2036 14.49                             172   -0.39 7 18.2 191 
 BAR2 SZ I        2036 16.43        16.3 0.22                          18.2 191 
 BRR  HZ EP       2036  1.96                             151    0.1410 73.4 302 
 BRR  HZ I        2036  2.32        18.2 0.22                          73.4 302 
 BRR  HN ES   1   2036 18.68                             151    0.61 7 73.4 302 
 PAM  SZ EP       2036  3.04                             149    0.0010 81.7  37 
 PAM  SN ES   1   2036 19.95                             149   -0.28 7 81.7  37 
 RUS  HZ EP       2036  4.16                             144    0.1910 95.5 176 
 RUS  HN ES   1   2036 22.16                             144    0.27 7 95.5 176 
 RUS  HZ I        2036 24.53         5.8 0.29                          95.5 176 
 PTB  HZ EP       2036  6.90                             131   -0.59 9  146 261 
 PTB  HN ES   1   2036 27.91                             131   -0.26 7  146 261 
 PTB  HZ I        2036 30.57         7.3 0.13                           146 261 
 ZAR  HZ EP   1   2036 13.70                             121    0.37 6  206 294 
 ZAR  HN ES   1   2036 38.55                             121   -0.01 6  206 294 
 ZAR  HZ I        2036 47.46         8.2 0.41                           206 294 
                                                                                
