 2017  9 1 2238 27.6 L   6.914 -72.945135.5  RSN  5 0.1 1.2LRSN                1
 GAP=158        0.37       2.8     3.6  3.3  0.5560E+01  0.1552E+01 -0.1090E+01E
 Epicentro: SANTA BARBARA - SANTANDER                                          3
 ACTION:UPD 17-10-05 19:08 OP:rebc STATUS:               ID:20170901223827 L   I
 OLDACT:REG 17-09-02 04:03 OP:mg   STATUS:               ID:20170901223742     3
 2017-09-01-2238-00M.COL___408                                                 6
 STAT SP IPHASW D HRMM SECON CODA AMPLIT PERI AZIMU VELO AIN AR TRES W  DIS CAZ7
 BAR2 EZ EP       2238 46.86                             161    0.1810 44.2 216 
 BAR2 EZ ES   1   2239  1.38                             161   -0.15 7 44.2 216 
 BAR2 EZ I        2239  3.47         3.7 0.22            162           44.2 216 
 PAM  EZ EP   4   2238 47.68                             157    0.19 0 54.3  30 
 PAM  EN ES   2   2239  3.05                             157    0.08 5 54.3  30 
 PAM  EZ I        2239  3.46         2.0 0.24            151           54.3  30 
 BRR  HZ EP       2238 48.62                             145   -0.1210 87.4 284 
 BRR  HZ I        2239  4.89         5.9 0.34            141           87.4 284 
 BRR  HN ES   1   2239  5.19                             145   -0.01 7 87.4 284 
 RUS  HZ EP       2238 51.29                             138   -0.1610  114 188 
 RUS  HN ES       2239 10.12                             138    0.1010  114 188 
 RUS  HZ I        2239 11.49         1.9 0.40            136            114 188 
 ZAR  HZ EP       2239  1.28                             118    0.06 8  221 287 
 ZAR  HN ES   1   2239 27.50                             118    0.08 6  221 287 
 ZAR  HZ I        2239 29.16         2.2 0.20            114            221 287 
                                                                                
