 2017  9 1 2207 53.2 L   6.798 -73.120143.7  RSN 12 0.4 1.9LRSN                1
 GAP=114        0.62       2.4     2.6  4.1  0.4794E+00  0.3479E+01  0.2071E+01E
 Epicentro: LOS SANTOS - SANTANDER                                             3
 ACTION:UPD 17-10-05 19:08 OP:rebc STATUS:               ID:20170901220753 L   I
 OLDACT:UP  17-09-02 06:27 OP:mg   STATUS:               ID:20170901215744     3
 OLDACT:UP  17-09-02 06:26 OP:mg   STATUS:               ID:20170901215744     3
 OLDACT:REG 17-09-02 03:51 OP:mg   STATUS:               ID:20170901215744     3
 2017-09-01-2158-00M.COL___408                                                 6
 STAT SP IPHASW D HRMM SECON CODA AMPLIT PERI AZIMU VELO AIN AR TRES W  DIS CAZ7
 BAR2 EZ EP   1   22 8 12.42                             170   -0.20 7 23.8 197 
 BAR2 EZ ES   2   22 8 27.09                             170   -0.65 5 23.8 197 
 BAR2 EZ I        22 8 28.56        17.0 0.25            166           23.8 197 
 BRR  HZ EP       22 8 13.92                             151   -0.3910 73.8 298 
 BRR  HN ES       22 8 30.97                             151    0.2310 73.8 298 
 BRR  HZ I        22 8 36.43        13.1 0.16            151           73.8 298 
 PAM  EZ EP     D 22 8 15.26                             151    0.1410 75.7  38 
 PAM  EN ES       22 8 32.07                             151   -0.1310 75.7  38 
 PAM  EZ I        22 8 34.30        23.5 0.48            158           75.7  38 
 RUS  HZ EP       22 8 16.83                             143    0.0810  100 178 
 RUS  HN ES       22 8 35.23                             143    0.1410  100 178 
 RUS  HZ I        22 8 36.57        10.4 0.38            144            100 178 
 SPBC HZ EP   1   22 8 21.51                             128   -0.22 7  165 220 
 SPBC HN ES   1   22 8 43.65                             128   -0.31 7  165 220 
 SPBC HZ I        22 8 49.67         8.6 0.16            129            165 220 
 YPLC HZ EP   1   22 8 22.72                             126   -0.00 7  175 152 
 YPLC HN ES   2   22 8 46.32                             126    0.60 4  175 152 
 YPLC HZ I        22 8 49.26        12.6 0.26            129            175 152 
 ZAR  HZ EP       22 8 25.82                             121   -0.01 8  207 292 
 ZAR  HN ES       22 8 51.51                             121    0.26 8  207 292 
 ZAR  HE ES       22 8 51.96                                            207 292 
 ZAR  HZ I        22 8 56.56        10.5 0.32            124            207 292 
 NOR  HZ EP       22 8 29.64                             118    0.56 8  237 235 
 NOR  HE ES   1   22 8 57.16                             118    0.12 6  237 235 
 NOR  HZ I        22 9  5.39         3.3 0.26            119            237 235 
 CHI  HZ EP   2   22 8 30.10                             117   -0.78 4  249 196 
 CHI  HN ES   3   22 8 59.12                             117   -1.12 2  249 196 
 CHI  HZ I        22 9  6.92         2.2 0.50            118            249 196 
 GUY2CHZ EP   2   22 8 37.39                             112    0.39 4  303 235 
 GUY2CHE ES   1   22 9 11.30                             112    0.17 5  303 235 
 GUY2CHZ I        22 9 20.08         2.3 0.44                           303 235 
 DBB  EZ EP   1   22 8 40.48                             109   -0.48 5  342 274 
 DBB  EN ES   2   22 9 17.53                             109   -0.65 3  342 274 
 DBB  EZ I        22 9 18.67         3.1 0.15            111            342 274 
 SJC  HZ EP   4   22 8 47.40                             105   -1.53 0  411 327 
 SJC  HN ES   4   22 9 27.81                             105   -4.57 0  411 327 
 SJC  HZ I        22 9 32.24         2.5 0.58            108            411 327 
                                                                                
