 2013 12 1 2053 35.6 L   6.756 -73.151143.6  RSN  7 0.3 1.8LRSN                1
 GAP=138        0.89       4.4     4.2  6.0 -0.4586E+01  0.5763E+01  0.3362E+01E
 Epicentro: LOS SANTOS - SANTANDER                                             3
 ACTION:UPD 14-01-13 10:15 OP:ep   STATUS:               ID:20131201205335 L   I
 OLDACT:REG 13-12-01 21:12 OP:nd   STATUS:               ID:20131201205000     3
 2013-12-01-2050-00M.COL___282                                                 6
 STAT SP IPHASW D HRMM SECON CODA AMPLIT PERI AZIMU VELO AIN AR TRES W  DIS CAZ7
 BAR2 SZ EP       2053 54.91                             172    0.0710 18.4 191 
 BAR2 SZ ES       2054  9.55                             172   -0.3210 18.4 191 
 BAR2 SZ I        2054 11.07        31.1 0.30            171           18.4 191 
 BRR  HZ IP     C 2053 56.73                             151    0.1510 73.1 302 
 BRR  HN ES       2054 13.68                             151    0.7010 73.1 302 
 BRR  HZ I        2054 16.80         9.7 0.44            149           73.1 302 
 PAM  SZ EP       2053 57.68                             149   -0.1210 81.6  38 
 PAM  SN ES       2054 14.99                             149   -0.1610 81.6  38 
 PAM  SZ I        2054 17.13        11.1 0.56            152           81.6  38 
 RUS  HZ EP       2053 58.75                             145   -0.0010 95.8 175 
 RUS  HN ES       2054 17.04                             145    0.2010 95.8 175 
 RUS  HZ I        2054 18.75         9.0 0.26            147           95.8 175 
 PTB  HZ EP       2054  1.86                             132   -0.36 9  146 261 
 PTB  HN ES       2054 22.37                             132   -0.64 9  146 261 
 PTB  HZ I        2054 28.58        10.3 0.44            131            146 261 
 NOR  HZ EP       2054 11.20                             118    0.39 8  231 235 
 NOR  HN ES       2054 38.44                             118    0.14 8  231 235 
 NOR  HZ I        2054 44.16         5.9 0.20            119            231 235 
 SJC  HZ EP   4 C 2054 29.09                             105   -2.40 0  413 327 
 SJC  HN ES   4   2055  9.75                             105   -5.37 0  413 327 
 SJC  HZ I        2055 20.61         1.6 0.68            106            413 327 
                                                                                
