 2015 12 1 2019 22.7 L   6.770 -73.133142.8  RSN  5 0.3 1.5LRSN                1
 GAP=158        0.70       4.7     3.7  5.7 -0.4617E+01  0.5313E+01  0.6384E+01E
 Epicentro: LOS SANTOS - SANTANDER                                             3
 ACTION:UPD 16-02-04 15:01 OP:cam  STATUS:               ID:20151201201922 L   I
 OLDACT:DUP 15-12-02 05:32 OP:ak   STATUS:               ID:20151201200751d    3
 2015-12-01-2007-50M.COL___315                                                 6
 STAT SP IPHASW D HRMM SECON CODA AMPLIT PERI AZIMU VELO AIN AR TRES W  DIS CAZ7
 BAR2 EZ EP       2019 41.95                             171   -0.0110 20.4 195 
 BAR2 EZ ES       2019 56.76                             171   -0.1910 20.4 195 
 BAR2 EZ I        2019 58.08        11.3 0.12            168           20.4 195 
 BRR  HZ EP   2   2019 43.20                             151   -0.53 5 74.0 300 
 BRR  HN ES       2019 59.85                             151   -0.2610 74.0 300 
 PAM  EZ EP       2019 44.84                             150    0.1010 79.1  37 
 PAM  EN ES       2020  2.20                             150    0.2910 79.1  37 
 PAM  EZ I        2020  4.69         4.5 0.48            152           79.1  37 
 ZAR  HN ES       2020 20.75                             121    0.13 8  207 293 
 NOR  HZ EP       2019 57.83                             118   -0.38 8  234 235 
 NOR  HN ES       2020 26.44                             118    0.55 8  234 235 
 NOR  HZ I        2020 33.09         2.7 0.22            118            234 235 
                                                                                
