 2010 10 1 2204 26.2 L   6.789 -73.183145.7  RSN 11 0.4 2.4LRSN                1
 GAP=133        1.00       3.6     8.1  8.2 -0.4527E+01 -0.1155E+02  0.3890E+01E
 Epicentro: LOS SANTOS - SANTANDER                                             3
 ACTION:UP  11-02-18 11:07 OP:tino STATUS:               ID:20101001220426 L   I
 2010-10-01-2202-08S.COL___125                                                 6
 STAT SP IPHASW D HRMM SECON CODA AMPLIT PERI AZIMU VELO SNR AR TRES W  DIS CAZ7
 BAR2 SZ IP       22 4 45.75                             171    -0.110   22 180 
 BAR2 SZ I        22 4 46.29        51.4 0.15                            22 180 
 BAR2 SZ ES   2   22 5  0.45                             171    -0.7 5   22 180 
 GIR2 SZ EP       22 4 45.65                             167    -0.310   32 358 
 BRR  HZ IP     C 22 4 47.54                             153     0.310   68 301 
 BRR  HN ES   1   22 5  4.21                             153     0.6 7   68 301 
 BRR  HZ I        22 5  5.11        99.2 0.19                            68 301 
 RUS  HZ EP       22 4 49.85                             144    -0.110  100 174 
 RUS  HN ES   1   22 5  8.38                             144     0.0 7  100 174 
 RUS  HZ I        22 5 10.03        20.6 0.49                           100 174 
 GUE  SZ EP       22 4 50.58                             139    -0.510  119  14 
 GRA  SZ IP       22 4 52.47                             136     0.810  128  19 
 GRA  SZ ES   1   22 5 11.94                             136     0.4 7  128  19 
 GRA  SZ I        22 5 13.19        47.6 0.17                           128  19 
 OCA  SZ EP       22 4 54.38                             129    -0.2 9  161 355 
 OCA  SZ ES   1   22 5 16.04                             129    -0.7 7  161 355 
 OCA  SZ I        22 5 20.94        40.0 0.03                           161 355 
 YOP  SZ EP       22 4 56.46                             126     0.1 9  180 152 
 NOR  SZ EP   3   22 5  2.43                             119     0.9 2  231 234 
 NOR  SN ES   2   22 5 28.30                             119    -0.8 4  231 234 
 CHI  HZ EP   2   22 5  4.16                             117     0.5 4  246 194 
 CHI  HN ES   2   22 5 33.05                             117     0.1 4  246 194 
 CHI  HZ I        22 5 38.81         8.0 0.46                           246 194 
 PRA  HZ EP   1   22 5 19.52                             107     0.1 4  389 209 
 PRA  HN ES   2   22 6  0.68                             107    -0.2 3  389 209 
                                                                                
