 2013  2 1 2313 11.2 L   6.794 -73.152145.1  RSN 13 0.5 2.5LRSN                1
 GAP= 71        1.00       3.7     4.1  6.5  0.6746E+00  0.2845E+01  0.6793E+00E
 Epicentro: LOS SANTOS - SANTANDER                                             3
 ACTION:UPD 13-03-12 09:29 OP:ep   STATUS:               ID:20130201231311 L   I
 2013-02-01-2310-00M.COL___241                                                 6
 STAT SP IPHASW D HRMM SECON CODA AMPLIT PERI AZIMU VELO AIN AR TRES W  DIS CAZ7
 BAR2 SZ EP   1   2313 30.86                             171    0.09 7 22.6 189 
 BAR2 SZ ES   1   2313 45.80                             171   -0.21 7 22.6 189 
 BAR2 SZ I        2313 47.14       185.5 0.20            165           22.6 189 
 BRR  HZ EP       2313 32.74                             152    0.4510 70.9 299 
 BRR  HN ES   1   2313 49.71                             152    0.99 7 70.9 299 
 BRR  HZ I        2313 52.79        59.3 0.42            143           70.9 299 
 PAM  SZ EP   1   2313 33.74                             150    0.31 7 78.3  40 
 PAM  SN ES   1   2313 50.40                             150   -0.35 7 78.3  40 
 PAM  SZ I        2313 52.85        50.1 0.48            148           78.3  40 
 RUS  HZ EP   1   2313 34.78                             144   -0.10 7  100 176 
 RUS  HN ES   1   2313 53.41                             144    0.09 7  100 176 
 RUS  HZ I        2313 54.51        24.8 0.20            137            100 176 
 PTB  HZ EP   1   2313 37.53                             132   -0.55 7  147 259 
 PTB  HN ES   1   2313 58.27                             132   -0.74 7  147 259 
 PTB  HZ I        2314  0.95        49.7 0.16            122            147 259 
 TAM  HZ EP   1   2313 39.16                             130    0.26 7  156 105 
 TAM  HN ES   1   2314  0.50                             130    0.01 7  156 105 
 TAM  HZ I        2314  1.33        27.5 0.26            126            156 105 
 OCA  HZ EP   1   2313 40.48                             129    0.94 7  161 353 
 OCA  HN ES   1   2314  0.59                             129   -1.03 7  161 353 
 OCA  HZ I        2314  5.55        36.6 0.30            122            161 353 
 ZAR  HZ EP   1   2313 43.75                             122    0.16 6  204 292 
 ZAR  HN ES   1   2314  8.73                             122   -0.11 6  204 292 
 ZAR  HZ I        2314 14.93        62.8 0.50            114            204 292 
 SML  HZ EP   1   2313 47.20                             117   -0.65 6  244 335 
 CHI  HZ EP   1   2313 49.09                             117    0.28 6  248 195 
 CHI  HN ES   1   2314 17.67                             117   -0.45 6  248 195 
 CHI  HZ I        2314 26.28        12.7 0.34            110            248 195 
 HEL  HZ EP   1   2313 51.96                             115    0.64 6  271 256 
 HEL  HZ I        2314 29.93        21.1 0.34            108            271 256 
 VIL  SN ES   1   2314 27.96                             112   -0.35 5  303 191 
 SDV  BZ EP   1   2314  0.43                             108   -0.92 5  361  50 
                                                                                
