 2017  2 1 2251 39.9 L   6.812 -73.195146.0  RSN 14 0.5 2.4LRSN                1
 GAP= 76        1.01       3.8     3.4  5.3  0.3841E+00  0.2983E+01  0.3627E+01E
 Epicentro: ZAPATOCA - SANTANDER                                               3
 ACTION:UPD 17-05-24 15:31 OP:jn   STATUS:               ID:20170201225139 L   I
 OLDACT:UP  17-02-02 06:07 OP:dani STATUS:               ID:20170201224746d    3
 OLDACT:UP  17-02-02 06:06 OP:dani STATUS:               ID:20170201224746d    3
 OLDACT:UP  17-02-02 06:06 OP:dani STATUS:               ID:20170201224746d    3
 OLDACT:UP  17-02-02 06:05 OP:dani STATUS:               ID:20170201224746d    3
 OLDACT:UP  17-02-02 06:04 OP:dani STATUS:               ID:20170201224746d    3
 OLDACT:DUP 17-02-02 06:00 OP:dani STATUS:               ID:20170201224746d    3
 OLDACT:UP  17-02-02 06:00 OP:dani STATUS:               ID:20170201224745     3
 OLDACT:REG 17-02-02 05:08 OP:dani STATUS:               ID:20170201224745     3
 2017-02-01-2248-00M.COL___328                                                 6
 STAT SP IPHASW D HRMM SECON CODA AMPLIT PERI AZIMU VELO AIN AR TRES W  DIS CAZ7
 BAR2 EZ EP       2251 59.43                             170   -0.1510 24.4 177 
 BAR2 EZ ES       2252 15.05                             170    0.1210 24.4 177 
 BAR2 EZ I        2252 16.51       106.4 0.32            168           24.4 177 
 BRR  HZ EP     C 2252  0.91                             154    0.1310 65.8 300 
 BRR  HN ES       2252 18.00                             154    0.9410 65.8 300 
 BRR  HZ I        2252 19.04        52.1 0.14            151           65.8 300 
 PAM  EZ EP       2252  2.27                             150   -0.0210 79.9  43 
 PAM  EN ES       2252 19.32                             150   -0.4410 79.9  43 
 PAM  EZ I        2252 21.83        56.7 0.50            154           79.9  43 
 RUS  HZ EP       2252  3.71                             143   -0.1010  102 173 
 RUS  HN ES       2252 22.47                             143    0.0110  102 173 
 RUS  HZ I        2252 24.16        22.0 0.39            143            102 173 
 PTB  HZ EP       2252  5.70                             133   -0.73 9  143 258 
 PTB  HN ES       2252 26.70                             133   -0.43 9  143 258 
 PTB  HZ I        2252 29.05        70.3 0.16            131            143 258 
 TAM  HZ EP       2252  8.19                             130    0.08 9  161 105 
 ZAR  HZ EP       2252 11.77                             123   -0.02 9  199 292 
 ZAR  HN ES       2252 36.36                             123   -0.31 9  199 292 
 ZAR  HZ I        2252 42.40        47.1 0.25            122            199 292 
 NOR  HZ EP       2252 15.72                             119    0.46 8  231 233 
 NOR  HN ES       2252 42.83                             119   -0.01 8  231 233 
 NOR  HZ I        2252 48.18        22.5 0.13            118            231 233 
 CHI  HZ EP       2252 18.57                             117    0.96 8  249 194 
 CHI  HN ES       2252 46.48                             117   -0.54 8  249 194 
 CHI  HZ I        2252 52.20         5.5 0.39            117            249 194 
 URE  HZ EP   9   2252 18.23                             114   -2.13 0  278 292 
 URE  HN ES       2252 49.90                             114    0.11 7  278 292 
 URE  HZ I        2253  0.58        22.5 0.45            113            278 292 
 ELA  HE ES   4   2253  5.04                             111    2.38 0  326 229 
 ELA  HZ I        2253 12.27        10.4 0.52            110            326 229 
 DBB  EZ EP       2252 27.17                             110    0.42 7  334 274 
 DBB  EN ES   3   2253  2.19                             110   -1.11 2  334 274 
 DBB  EZ I        2253  6.94         7.0 0.21            109            334 274 
 ORTC HZ EP   3   2252 34.90                             106    1.31 1  393 215 
 ORTC HN ES   4   2253 18.36                             106    2.90 0  393 215 
 ORTC HZ I        2253 22.67         5.9 0.39            106            393 215 
 SJC  HZ EP   3   2252 33.20                             106   -1.79 1  405 327 
 SJC  HN ES   4   2253 13.76                             106   -4.20 0  405 327 
                                                                                
