 2013 11 1 2130 33.6 L   6.796 -73.144146.8  RSN  8 0.5 2.4LRSN                1
 GAP=137        1.11       4.4     4.8  6.9 -0.5084E+00  0.8341E+01 -0.1285E+01E
 Epicentro: LOS SANTOS - SANTANDER                                             3
 ACTION:UPD 14-01-09 16:24 OP:ep   STATUS:               ID:20131101213033 L   I
 OLDACT:REG 13-11-02 03:16 OP:cam  STATUS:               ID:20131101212850     3
 2013-11-01-2128-50M.COL___220                                                 6
 STAT SP IPHASW D HRMM SECON CODA AMPLIT PERI AZIMU VELO AIN AR TRES W  DIS CAZ7
 BAR2 SZ EP       2130 53.24                             171   -0.1210 22.9 191 
 BAR2 SZ ES       2131  9.03                             171    0.2710 22.9 191 
 BAR2 SZ I        2131 13.68        38.9 0.16            173           22.9 191 
 BRR  HZ EP       2130 55.06                             152    0.1610 71.6 299 
 BRR  HE ES       2131 12.08                             152    0.5810 71.6 299 
 BRR  HZ I        2131 15.72        35.8 0.14            151           71.6 299 
 PAM  SZ EP       2130 56.04                             151    0.0810 77.6  39 
 PAM  SN ES       2131 13.08                             151   -0.3010 77.6  39 
 PAM  SZ I        2131 15.08        32.2 0.50            152           77.6  39 
 RUS  HZ EP       2130 57.30                             144   -0.1410  100 176 
 RUS  HN ES       2131 15.88                             144   -0.1310  100 176 
 RUS  HZ I        2131 17.60        23.9 0.34            150            100 176 
 PTB  HZ EP       2131  0.15                             132   -0.53 9  148 259 
 PTB  HN ES       2131 21.10                             132   -0.69 9  148 259 
 PTB  HZ I        2131 23.16        25.0 0.16            134            148 259 
 SPBC HZ EP       2131  2.31                             129    0.13 9  163 219 
 SPBC HN ES       2131 24.46                             129    0.01 9  163 219 
 SPBC HZ I        2131 26.89        35.8 0.22            133            163 219 
 ZAR  HZ EP       2131  7.23                             122    1.06 9  204 292 
 ZAR  HN ES       2131 31.77                             122    0.21 9  204 292 
 ZAR  HZ I        2131 36.84        33.9 0.44            124            204 292 
 SML  HZ EP   2   2131  9.87                             118   -0.49 4  244 335 
 SML  HN ES   2   2131 37.20                             118   -1.82 4  244 335 
 SML  HZ I        2131 48.99        24.1 0.10            119            244 335 
 HEL  HZ EP   4   2131 15.68                             115    1.78 0  272 256 
 GUY2CHZ EP   4   2131 19.17                             113    1.90 0  301 235 
                                                                                
