 2016  5 1 2005 43.0 L   7.395 -73.168133.0  RSN  7 0.2 1.7LRSN                1
 GAP=107        0.65       2.4     2.9  5.1  0.6380E+00  0.6146E+01  0.1561E+01E
 Epicentro: EL PLAYON - SANTANDER                                              3
 ACTION:UPD 16-08-18 17:41 OP:cam  STATUS:               ID:20160501200543 L   I
 OLDACT:UP  16-05-02 03:00 OP:drio STATUS:               ID:20160501195746     3
 OLDACT:REG 16-05-02 02:43 OP:drio STATUS:               ID:20160501195746     3
 2016-05-01-1957-46M.COL___302                                                 6
 STAT SP IPHASW D HRMM SECON CODA AMPLIT PERI AZIMU VELO AIN AR TRES W  DIS CAZ7
 PAM  EZ EP       20 6  2.51                             158    0.0410 52.1  97 
 PAM  EE ES       20 6 17.99                             158    0.3410 52.1  97 
 PAM  EZ I        20 6 20.38         6.8 0.32            162           52.1  97 
 BAR2 EZ EP       20 6  3.96                             144   -0.3310 88.8 181 
 BAR2 EZ ES       20 6 21.00                             144    0.1110 88.8 181 
 BAR2 EZ I        20 6 22.23        19.0 0.14            146           88.8 181 
 OCA  HZ EP       20 6  4.83                             142    0.2210 94.8 350 
 OCA  HN ES       20 6 21.01                             142   -0.4510 94.8 350 
 OCA  HZ I        20 6 23.14        22.6 0.20            146           94.8 350 
 RUS  HZ EP       20 6 11.41                             126    0.01 9  166 177 
 RUS  HE ES       20 6 33.31                             126   -0.24 9  166 177 
 RUS  HZ I        20 6 34.89         2.3 0.36            129            166 177 
 PTB  HZ EP       20 6 11.42                             124    0.20 9  171 236 
 PTB  HE ES       20 6 33.10                             124   -0.14 9  171 236 
 PTB  HZ I        20 6 39.04         4.5 0.40            127            171 236 
 ZAR  HZ EP       20 6 12.85                             122    0.01 9  187 273 
 ZAR  HN ES       20 6 36.37                             122    0.25 9  187 273 
 ZAR  HZ I        20 6 38.13         9.2 0.28            124            187 273 
 GUY2CHZ EP   4   20 6 33.90                             107    3.17 0  342 225 
 GUY2CHN ES   4   20 7 11.11                             107    3.16 0  342 225 
 GUY2CHZ I        20 7 21.87         2.1 0.64                           342 225 
                                                                                
