 2012  4 1 2148 59.9 L   6.565 -73.564110.1  RSN  5 0.4 1.3LRSN                1
 GAP= 96        0.91       5.1     4.4 10.2 -0.5745E+01  0.1021E+01  0.1119E+02E
 Epicentro: EL CARMEN DE CHUCURI - SANTANDER                                   3
 ACTION:UPD 12-07-05 11:49 OP:tino STATUS:               ID:20120401214900 L   I
 2012-04-01-2145-36M.COL___151                                                 6
 STAT SP IPHASW D HRMM SECON CODA AMPLIT PERI AZIMU VELO AIN AR TRES W  DIS CAZ7
 BRR  HZ EP   1   2149 17.04                             148     0.3 7   62 345 
 BRR  HZ I        2149 29.33        10.3 0.32                            62 345 
 BRR  HN ES   1   2149 30.46                             148     0.6 7   62 345 
 RUS  HZ EP   1   2149 19.39                             138    -0.2 7   91 144 
 RUS  HN ES   1   2149 35.03                             138     0.1 7   91 144 
 RUS  HZ I        2149 36.10         3.3 0.31                            91 144 
 PTB  HZ EP   1   2149 19.14                             135    -0.4 7   99 268 
 PTB  HE ES   1   2149 34.23                             135    -0.6 7   99 268 
 PTB  HZ I        2149 35.38         4.2 0.07                            99 268 
 PAM  SZ EP   1   2149 22.85                             127    -0.1 7  128  48 
 PAM  SN ES   1   2149 40.47                             127    -0.4 7  128  48 
 NOR  SZ EP   1   2149 28.58                             116     0.6 7  182 233 
 NOR  SN ES   1   2149 49.89                             116     0.1 7  182 233 
                                                                                
