 2014 10 2 0123 32.3 L   6.717 -73.161134.8  RSN  4 0.4 1.5LRSN                1
 GAP=244        0.96      10.1     7.4  8.4  0.1738E+02  0.1270E+02  0.3035E+02E
 Epicentro: VILLANUEVA - SANTANDER                                             3
 ACTION:UPD 14-11-29 23:45 OP:nd   STATUS:               ID:20141002012332 L   I
 OLDACT:UP  14-10-02 14:50 OP:cam  STATUS:               ID:20141002011819     3
 OLDACT:REG 14-10-02 12:20 OP:cam  STATUS:               ID:20141002011819     3
 2014-10-02-0118-19M.COL___292                                                 6
 STAT SP IPHASW D HRMM SECON CODA AMPLIT PERI AZIMU VELO AIN AR TRES W  DIS CAZ7
 BAR2 SZ EP        123 50.59                             174    0.1610 14.0 190 
 BAR2 SZ ES        124  4.23                             174   -0.3510 14.0 190 
 BAR2 SZ I         124  7.92         4.5 0.18            171           14.0 190 
 BRR  HZ EP        123 52.42                             149   -0.0410 74.7 305 
 BRR  HN ES        124  8.63                             149    0.4210 74.7 305 
 BRR  HN I         124 10.03        15.6 0.28            152           74.7 305 
 PTB  HZ EP        123 57.47                             130   -0.61 9  145 262 
 PTB  HN ES        124 18.23                             130    0.03 9  145 262 
 PTB  HZ I         124 20.87         2.3 0.34            132            145 262 
 CHI  HZ EP   1    124  9.23                             116    0.86 6  239 195 
                                                                                
