 2016  5 2 0857 59.7 L   6.830 -73.284142.0  RSN  4 0.3 1.2LRSN                1
 GAP=153        0.73       4.5     4.3  6.6 -0.6270E+01  0.3652E+01 -0.1998E+01E
 Epicentro: ZAPATOCA - SANTANDER                                               3
 ACTION:UPD 16-08-18 17:41 OP:cam  STATUS:               ID:20160502085759 L   I
 OLDACT:REG 16-05-02 18:06 OP:ak   STATUS:               ID:20160502084744     3
 2016-05-02-0847-44M.COL___279                                                 6
 STAT SP IPHASW D HRMM SECON CODA AMPLIT PERI AZIMU VELO AIN AR TRES W  DIS CAZ7
 BAR2 EZ EP        858 19.19                             168    0.2210 28.6 157 
 BAR2 EZ ES        858 34.29                             168    0.2710 28.6 157 
 BAR2 EZ I         858 35.62         4.3 0.16            171           28.6 157 
 PAM  EZ EP        858 21.70                             148   -0.3210 85.7  49 
 PAM  EE ES        858 39.45                             148    0.0110 85.7  49 
 PAM  EZ I         858 41.09         5.4 0.48            151           85.7  49 
 RUS  HZ EP        858 23.38                             141   -0.0810  106 168 
 RUS  HN ES        858 41.95                             141   -0.0610  106 168 
 RUS  HZ I         858 42.61         2.2 0.26            145            106 168 
 PTB  HZ EP   2    858 26.10                             134    1.04 5  134 256 
 PTB  HN ES        858 44.55                             134   -0.3010  134 256 
 PTB  HZ I         858 49.56         1.8 0.16            134            134 256 
                                                                                
