 2011  4 2 0437 14.6 L   6.767 -73.098137.0  RSN  5 0.4 1.8LRSN                1
 GAP=171        1.13       7.8    10.2 10.9 -0.2194E+02 -0.1119E+02 -0.6410E+01E
 Epicentro: LOS SANTOS - SANTANDER                                             3
 ACTION:UP  11-06-22 15:28 OP:REBC STATUS:               ID:20110402043714 L   I
 2011-04-02-0436-20S.COL___138                                                 6
 STAT SP IPHASW D HRMM SECON CODA AMPLIT PERI AZIMU VELO SNR AR TRES W  DIS CAZ7
 BAR2 SZ EP        437 33.06                             171    -0.110   21 206 
 BAR2 SZ ES   1    437 47.00                             171    -0.6 7   21 206 
 BAR2 SZ I         437 49.15        16.9 0.08                            21 206 
 PAM  SZ IP        437 36.20                             149     0.310   77  35 
 PAM  SZ I         437 36.40         7.6 0.17                            77  35 
 PAM  SN ES   1    437 52.57                             149     0.1 7   77  35 
 BRR  HZ EP        437 35.07                             149    -0.110   78 299 
 BRR  HN ES   1    437 52.01                             149     0.7 7   78 299 
 BRR  HZ I         437 55.16        10.6 0.22                            78 299 
 GRA  SZ EP        437 39.21                             134     0.010  128  15 
 GRA  SZ ES   1    437 58.73                             134     0.3 7  128  15 
 GRA  SZ I         437 59.71        11.8 0.16                           128  15 
 OCA  SZ ES   1    438  3.67                             127    -0.9 7  165 351 
 OCA  SZ I         438  7.10        12.2 0.42                           165 351 
                                                                                
