 2017  8 2 0822 21.5 L   6.760 -73.177156.0  RSN  5 0.6 1.4LRSN                1
 GAP=231        1.08       6.6     7.0  8.6  0.9550E+01  0.4479E+01 -0.1199E+00E
 Epicentro: LOS SANTOS - SANTANDER                                             3
 ACTION:UPD 17-09-04 20:15 OP:rebc STATUS:               ID:20170802082221 L   I
 OLDACT:DUP 17-08-02 18:39 OP:osc  STATUS:               ID:20170802081739d    3
 OLDACT:UP  17-08-02 18:26 OP:osc  STATUS:               ID:20170802081738     3
 OLDACT:REG 17-08-02 13:40 OP:osc  STATUS:               ID:20170802081738     3
 2017-08-02-0818-00M.COL___392                                                 6
 STAT SP IPHASW D HRMM SECON CODA AMPLIT PERI AZIMU VELO AIN AR TRES W  DIS CAZ7
 BAR2 EZ EP        822 42.34                             173    0.0910 18.5 182 
 BAR2 EZ ES        822 57.57                             173   -0.8910 18.5 182 
 BAR2 EZ I         822 58.46         5.7 0.28            169           18.5 182 
 BRR  HZ EP        822 44.05                             154    0.3510 70.5 303 
 BRR  HN ES        823  1.35                             154    0.3210 70.5 303 
 RUS  HZ EP        822 46.05                             147    0.0910 96.5 174 
 RUS  HN ES        823  5.39                             147    0.3210 96.5 174 
 PTB  HZ EP        822 48.70                             135   -0.22 9  144 260 
 PTB  HN ES        823 10.13                             135   -0.20 9  144 260 
 SPBC HZ EP   3    822 47.75                             132   -2.51 2  158 219 
 SPBC HN ES        823 12.98                             132    0.26 9  158 219 
 SPBC HZ I         823 17.42         2.0 0.08            130            158 219 
                                                                                
