 2016  4 2 0126 45.4 L   6.820 -73.176142.9  RSN  6 0.4 1.5LRSN                1
 GAP=242        1.01       6.6     6.1  8.2  0.1673E+02  0.8777E+01 -0.1149E+02E
 Epicentro: ZAPATOCA - SANTANDER                                               3
 ACTION:UPD 16-05-05 14:17 OP:rebc STATUS:               ID:20160402012645 L   I
 OLDACT:UP  16-04-02 13:43 OP:drio STATUS:               ID:20160402011741     3
 OLDACT:REG 16-04-02 12:34 OP:drio STATUS:               ID:20160402011741     3
 2016-04-02-0117-41M.COL___325                                                 6
 STAT SP IPHASW D HRMM SECON CODA AMPLIT PERI AZIMU VELO AIN AR TRES W  DIS CAZ7
 BAR2 EZ EP        127  4.59                             170   -0.1210 25.2 182 
 BAR2 EZ ES        127 19.81                             170    0.0210 25.2 182 
 BAR2 EZ I         127 20.84         5.7 0.28            163           25.2 182 
 RUS  HZ EP        127  8.96                             142   -0.0810  103 174 
 RUS  HE ES        127 27.60                             142    0.1210  103 174 
 RUS  HZ I         127 29.61         2.4 0.40            141            103 174 
 PTB  HZ EP        127 11.21                             132   -0.65 9  145 258 
 PTB  HN ES        127 32.61                             132    0.10 9  145 258 
 PTB  HZ I         127 38.93         3.1 0.26            129            145 258 
 SPBC HZ EP        127 13.47                             128   -0.16 9  163 218 
 SPBC HN ES        127 35.86                             128    0.20 9  163 218 
 SPBC HZ I         127 42.94         6.0 0.32            127            163 218 
 ZAR  HZ EP        127 18.31                             122    1.07 9  200 292 
 ZAR  HE ES        127 41.72                             122   -0.37 9  200 292 
 ZAR  HZ I         127 47.77         3.2 0.32            122            200 292 
 GUY2CHZ EP   4    127 31.22                             112    2.52 0  300 234 
 GUY2CHE ES   4    128  5.40                             112    2.92 0  300 234 
 GUY2CHZ I         128 12.74         2.0 0.42                           300 234 
                                                                                
