 2011  8 2 0857  9.7 L   6.590 -73.302 24.0  RSN  5 0.3 1.2LRSN                1
 GAP=159        0.71       2.9     4.9  3.6  0.8557E+01  0.4271E+01 -0.2208E+00E
 Epicentro: PALMAR - SANTANDER                                                 3
 ACTION:UPD 12-07-25 14:05 OP:epov STATUS:               ID:20110802085709 L   I
 2011-08-02-0840-00M.COL___140                                                 6
 STAT SP IPHASW D HRMM SECON CODA AMPLIT PERI AZIMU VELO AIN AR TRES W  DIS CAZ7
 BAR2 SZ EP        857 14.58                             151    0.0910 13.2  89 
 BAR2 SZ ES   1    857 18.17                             151   -0.04 7 13.2  89 
 BAR2 SZ I         857 19.78        17.2 0.29                          13.2  89 
 BRR  HZ EP   1    857 21.62                             106   -0.18 7 73.0 322 
 BRR  HZ I         857 21.95        11.7 0.10                          73.0 322 
 BRR  HN ES   1    857 31.19                             106   -0.04 7 73.0 322 
 RUS  HZ EP        857 23.82                             105    0.3410 80.8 163 
 RUS  HZ I         857 24.26         4.8 0.16                          80.8 163 
 RUS  HN ES   1    857 33.75                             105   -0.46 7 80.8 163 
 BRI  SZ EP   1    857 30.01                              56   -0.52 7  136  24 
 BRI  SZ I         857 48.27         5.3 0.17                           136  24 
 OCA  SZ EP   1    857 36.77                              56    0.53 7  182 359 
                                                                                
