 2015  6 2 0747 29.9 L   6.799 -73.107143.8  RSN 19 0.5 2.2LRSN                1
 GAP=122        1.07       2.4     3.5  5.0 -0.8662E+00  0.4557E+01  0.2845E+01E
 Epicentro: LOS SANTOS - SANTANDER                                             3
 ACTION:UPD 15-09-10 22:09 OP:cam  STATUS:               ID:20150602074729 L   I
 OLDACT:REG 15-06-02 13:25 OP:ak   STATUS:               ID:20150602073749     3
 2015-06-02-0737-49M.COL___294                                                 6
 STAT SP IPHASW D HRMM SECON CODA AMPLIT PERI AZIMU VELO AIN AR TRES W  DIS CAZ7
 BAR2 EZ EP   1    747 49.86                             170    0.54 7 24.3 200 
 BAR2 EZ ES        748  4.75                             170    0.2810 24.3 200 
 BAR2 EZ I         748  6.06        25.3 0.24            169           24.3 200 
 PAM  SZ EP        747 52.50                             151    0.7410 74.8  37 
 PAM  SN ES        748  8.80                             151   -0.0110 74.8  37 
 PAM  SZ I         748 12.12        22.7 0.17            155           74.8  37 
 BRR  HZ EP        747 51.55                             151    0.4910 75.0 297 
 BRR  HN ES        748  8.17                             151    0.6010 75.0 297 
 BRR  HZ I         748 12.91        25.2 0.14            150           75.0 297 
 RUS  HZ EP        747 53.73                             144    0.2810  100 178 
 RUS  HN ES   1    748 11.19                             144   -0.61 7  100 178 
 RUS  HZ I         748 13.21        13.3 0.22            145            100 178 
 OCA  HZ EP        747 57.81                             129   -0.32 9  161 352 
 OCA  HN ES        748 19.19                             129   -0.95 9  161 352 
 OCA  HZ I         748 24.09        37.7 0.30            131            161 352 
 SPBC HZ EP        747 58.62                             128    0.11 9  166 220 
 SPBC HE ES        748 20.55                             128   -0.26 9  166 220 
 SPBC HZ I         748 21.82        26.7 0.21            129            166 220 
 ZAR  HZ EP        748  2.67                             121    0.03 8  208 292 
 ZAR  HN ES        748 27.43                             121   -0.73 8  208 292 
 ZAR  HZ I         748 34.52        27.5 0.22            123            208 292 
 NOR  HZ EP        748  6.01                             118    0.12 8  238 235 
 NOR  HN ES        748 33.09                             118   -0.87 8  238 235 
 NOR  HZ I         748 39.95        13.5 0.16            119            238 235 
 SML  HZ EP        748  6.44                             117   -0.19 8  246 334 
 SML  HN ES        748 35.32                             117    0.05 8  246 334 
 SML  HZ I         748 37.73        18.7 0.10            119            246 334 
 CHI  HZ EP        748  7.67                             117    0.06 8  250 196 
 CHI  HN ES        748 37.28                             117    0.26 8  250 196 
 CHI  HZ I         748 43.19         7.7 0.47            118            250 196 
 ROSC BZ EP        748  7.85                             116   -0.30 8  255 212 
 ROSC BN ES        748 37.94                             116   -0.04 8  255 212 
 ROSC BZ I         748 42.46        11.5 0.35            118            255 212 
 HEL  HZ EP        748 10.66                             114    0.19 7  276 256 
 HEL  HN ES        748 41.67                             114   -0.45 7  276 256 
 HEL  HZ I         748 48.74         6.2 0.32            115            276 256 
 GUY2CHZ EP        748 13.44                             112   -0.37 7  305 235 
 GUY2CHN ES        748 48.67                             112    0.61 7  305 235 
 GUY2CHZ I         748 56.13         7.5 0.34                           305 235 
 PTGC HZ EP        748 12.83                             111   -0.66 7  307 159 
 PTGC HN ES        748 46.48                             111   -1.01 7  307 159 
 PTGC HZ I         748 50.21         9.7 0.16            114            307 159 
 CBOC HZ EP        748 17.48                             109    0.28 7  338 252 
 CBOC HN ES        748 54.12                             109    0.03 7  338 252 
 TOL  SZ EP        748 19.16                             109    0.74 6  346 225 
 TOL  SN ES        748 56.31                             109    0.05 6  346 225 
 TOL  SZ E      C  749  2.93                                            346 225 
 TOL  SZ I         749  2.93         4.8 0.36            110            346 225 
 MON  HZ EP   4    748 16.70                             108   -2.52 0  357 308 
 MON  HN ES   4    748 54.23                             108   -3.46 0  357 308 
 MON  HZ I         748 58.11         3.9 0.20            110            357 308 
 ORTC HZ EP        748 24.46                             106    0.41 6  398 217 
 ORTC HN ES        749  6.82                             106    0.55 6  398 217 
 ORTC HZ I         749 12.27         5.5 0.44            107            398 217 
 SJC  HZ EP   4    748 23.73                             105   -1.96 0  412 326 
 SJC  HN ES   4    749  4.76                             105   -4.43 0  412 326 
 SJC  HZ I         749 11.33         2.4 0.34            107            412 326 
                                                                                
