 2014 10 2 0524 16.7 L   6.782 -73.102149.9  RSN  4 0.3 1.4LRSN                1
 GAP=265        0.72       5.7     8.0  6.6 -0.7258E+01  0.9993E+01  0.1101E+01E
 Epicentro: LOS SANTOS - SANTANDER                                             3
 ACTION:UPD 14-11-29 23:45 OP:nd   STATUS:               ID:20141002052416 L   I
 OLDACT:UP  14-10-02 15:37 OP:cam  STATUS:               ID:20141002051810     3
 OLDACT:REG 14-10-02 12:34 OP:cam  STATUS:               ID:20141002051810     3
 2014-10-02-0518-10M.COL___286                                                 6
 STAT SP IPHASW D HRMM SECON CODA AMPLIT PERI AZIMU VELO AIN AR TRES W  DIS CAZ7
 BAR2 SZ EP        524 36.96                             171    0.1710 22.8 203 
 BAR2 SZ ES        524 52.23                             171   -0.2610 22.8 203 
 BAR2 SZ I         524 53.41         4.8 0.16            171           22.8 203 
 BRR  HZ EP        524 38.82                             151    0.2510 76.4 298 
 BRR  HN ES        524 55.74                             151    0.1010 76.4 298 
 BRR  HN I         524 56.36         5.6 0.38            152           76.4 298 
 PTB  HZ EP        524 43.88                             132   -0.50 9  152 260 
 SPBC HN ES        525  8.44                             130    0.20 9  165 221 
 SPBC HN I         525  8.93         3.4 0.12            130            165 221 
                                                                                
