 2011  7 2 0425 57.0 L   6.790 -73.082138.9  RSN 13 0.2 2.0LRSN                1
 GAP=145        0.45       1.9     3.1  3.4 -0.2242E+01  0.1573E+01  0.3199E+00E
 Epicentro: LOS SANTOS - SANTANDER                                             3
 ACTION:UPD 12-07-25 13:57 OP:epov STATUS:               ID:20110702042557 L   I
 2011-07-02-0421-33S.COL___140                                                 6
 STAT SP IPHASW D HRMM SECON CODA AMPLIT PERI AZIMU VELO AIN AR TRES W  DIS CAZ7
 BAR2 SZ EP        426 15.78                             169    0.0010 24.6 207 
 BAR2 SZ ES   1    426 30.53                             169    0.07 7 24.6 207 
 BAR2 SZ I         426 31.90        25.3 0.25                          24.6 207 
 BTL  SZ EP        426 15.92                             169    0.1310 24.9 305 
 GIR2 SZ EP   1    426 15.91                             165    0.02 7 34.2 339 
 PAM  SZ EP   1    426 18.64                             151    0.41 7 74.0  35 
 PAM  SZ I         426 18.96        12.0 0.16                          74.0  35 
 PAM  SN ES   1    426 34.77                             151   -0.05 7 74.0  35 
 BRR  HZ IP     D  426 17.59                             149   -0.1810 77.9 297 
 BRR  HZ I         426 17.77        44.4 0.18                          77.9 297 
 BRR  HN ES   1    426 34.18                             149    0.18 7 77.9 297 
 RUS  HZ EP   1    426 20.17                             143    0.24 7 99.3 180 
 RUS  HN ES   1    426 37.49                             143   -0.37 7 99.3 180 
 RUS  HZ I         426 39.91        18.0 0.31                          99.3 180 
 BRI  SZ EP   1    426 20.18                             140    0.09 7  107  17 
 GRA  SZ EP        426 21.52                             135    0.0110  125  14 
 GRA  SZ ES   1    426 40.42                             135   -0.24 7  125  14 
 GRA  SZ I         426 43.70        12.7 0.33                           125  14 
 OCA  SZ ES   1    426 46.47                             127   -0.28 7  162 351 
 OCA  SZ I         426 49.35        16.1 0.14                           162 351 
 NOR  SE ES   1    427  0.85                             116    0.00 6  240 236 
 CHI  HZ EP   2    426 34.18                             115   -0.20 4  250 197 
 CHI  HN ES   2    427  3.74                             115    0.17 4  250 197 
 CHI  HZ I         427 14.56         3.9 0.47                           250 197 
 HEL  HZ EP   1    426 37.79                             113    0.23 6  279 256 
 HEL  HZ I         427 14.32         3.3 0.35                           279 256 
 PRA  HZ EP   1    426 49.95                             105   -0.60 4  395 211 
                                                                                
