 2017  6 2 0554 33.5 L   6.785 -73.119154.4  RSN 11 0.6 1.6LRSN                1
 GAP=213        0.89       4.5     4.6  6.7  0.3803E+01 -0.2745E+01  0.5177E+01E
 Epicentro: LOS SANTOS - SANTANDER                                             3
 ACTION:UPD 17-09-14 16:48 OP:jn   STATUS:               ID:20170602055433 L   I
 OLDACT:UP  17-06-02 15:45 OP:and  STATUS:               ID:20170602054742     3
 OLDACT:UP  17-06-02 15:45 OP:and  STATUS:               ID:20170602054742     3
 OLDACT:UP  17-06-02 15:45 OP:and  STATUS:               ID:20170602054742     3
 OLDACT:UP  17-06-02 15:44 OP:and  STATUS:               ID:20170602054742     3
 OLDACT:UP  17-06-02 15:44 OP:and  STATUS:               ID:20170602054742     3
 OLDACT:UP  17-06-02 15:43 OP:and  STATUS:               ID:20170602054742     3
 OLDACT:UP  17-06-02 15:41 OP:and  STATUS:               ID:20170602054742     3
 OLDACT:UP  17-06-02 15:40 OP:and  STATUS:               ID:20170602054742     3
 OLDACT:UP  17-06-02 15:40 OP:and  STATUS:               ID:20170602054742     3
 OLDACT:UP  17-06-02 15:39 OP:and  STATUS:               ID:20170602054742     3
 OLDACT:UP  17-06-02 15:39 OP:and  STATUS:               ID:20170602054742     3
 OLDACT:UP  17-06-02 15:38 OP:and  STATUS:               ID:20170602054742     3
 OLDACT:UP  17-06-02 15:38 OP:and  STATUS:               ID:20170602054742     3
 OLDACT:UP  17-06-02 15:30 OP:and  STATUS:               ID:20170602054742     3
 OLDACT:REG 17-06-02 12:49 OP:and  STATUS:               ID:20170602054742     3
 2017-06-02-0548-00M.COL___350                                                 6
 STAT SP IPHASW D HRMM SECON CODA AMPLIT PERI AZIMU VELO AIN AR TRES W  DIS CAZ7
 BRR  HZ EP        554 55.68                             153   -0.0410 74.6 299 
 BRR  HN ES        555 13.27                             153    0.1810 74.6 299 
 BRR  HZ I         555 17.00         8.2 0.14            151           74.6 299 
 RUS  HZ EP   2    554 58.19                             146    0.26 5 98.7 178 
 RUS  HN ES        555 17.22                             146    0.1910 98.7 178 
 RUS  HZ I         555 18.11         5.3 0.22            147           98.7 178 
 PTB  HZ EP        555  0.99                             133   -0.37 9  150 260 
 PTB  HN ES   4    555 22.05                             133   -1.08 0  150 260 
 SPBC HZ EP        555  2.79                             131    0.11 9  164 220 
 SPBC HN ES        555 24.76                             131   -0.71 9  164 220 
 SPBC HZ I         555 31.08         8.5 0.18            130            164 220 
 YPLC HZ IP     D  555  3.94                             129    0.33 9  174 152 
 YPLC HE ES   3    555 28.43                             129    1.30 2  174 152 
 YPLC HZ I         555 28.82         3.9 0.28            131            174 152 
 ZAR  HZ EP   9    555  9.11                             124    2.30 0  207 292 
 ZAR  HN ES        555 34.47                             123   -0.66 8  207 292 
 ZAR  HZ I         555 39.19         3.8 0.32            124            207 292 
 NOR  HZ EP   2    555 10.73                             120    0.88 4  236 235 
 NOR  HE ES        555 38.16                             120   -0.07 8  236 235 
 CHI  HN ES        555 41.38                             119    0.11 8  248 196 
 CHI  HZ I         555 46.51         2.0 0.26            120            248 196 
 HEL  HN ES   4    555 49.73                             116    3.42 0  275 256 
 HEL  HZ I         555 55.01         1.9 0.24            116            275 256 
 PTGC HZ EP   1    555 16.55                             113   -0.86 5  306 159 
 PTGC HN ES   3    555 49.33                             113   -2.37 2  306 159 
 CBOC HZ EP   3    555 22.30                             111    1.30 2  336 253 
 CBOC HN ES        555 58.55                             111    0.47 7  336 253 
 CBOC HZ I         555 58.98         0.4 0.16            111            336 253 
                                                                                
