 2013  1 2 0938 47.4 L   6.755 -73.180144.7  RSN  5 0.3 1.8LRSN                1
 GAP=179        0.88       4.1     5.8  7.1  0.5013E+01  0.3364E+01 -0.1203E+01E
 Epicentro: VILLANUEVA - SANTANDER                                             3
 ACTION:UPD 13-02-15 09:11 OP:ep   STATUS:               ID:20130102093847 L   I
 2013-01-02-0930-00M.COL___242                                                 6
 STAT SP IPHASW D HRMM SECON CODA AMPLIT PERI AZIMU VELO AIN AR TRES W  DIS CAZ7
 BAR2 SZ EP        939  6.87                             173    0.0510 18.0 181 
 BAR2 SZ ES        939 21.64                             173   -0.3210 18.0 181 
 BRR  HZ EP        939  8.79                             153    0.3810 70.5 304 
 BRR  HN ES        939 25.40                             153    0.6210 70.5 304 
 BRR  HN I         939 28.31        15.3 0.16            154           70.5 304 
 RUS  HZ EP        939 10.92                             145    0.1910 96.0 174 
 RUS  HN ES        939 28.86                             145   -0.0710 96.0 174 
 RUS  HN I         939 31.90         5.6 0.20            147           96.0 174 
 PTB  HZ EP        939 13.61                             133   -0.26 9  143 260 
 PTB  HN ES        939 34.21                             133   -0.31 9  143 260 
 PTB  HN I         939 36.17         9.3 0.76            134            143 260 
 OCA  HN ES        939 38.00                             128   -0.42 9  165 355 
                                                                                
