 2012  9 2 0022 57.4 L   6.739 -73.174140.0  RSN  4 0.3 1.2LRSN                1
 GAP=229        0.43       8.6    13.3  8.4  0.9168E+02 -0.4426E+02 -0.4303E+01E
 Epicentro: VILLANUEVA - SANTANDER                                             3
 ACTION:UPD 12-10-22 14:16 OP:ep   STATUS:               ID:20120902002257 L   I
 2012-09-02-0020-00M.COL___218                                                 6
 STAT SP IPHASW D HRMM SECON CODA AMPLIT PERI AZIMU VELO AIN AR TRES W  DIS CAZ7
 BAR2 SZ ES   3    023 30.04                             173   -0.83 2 16.3 183 
 BRR  HZ EP        023 17.92                             152   -0.0410 72.0 304 
 BRR  HZ I         023 18.23         6.1 0.30                          72.0 304 
 BRR  HE ES   1    023 34.15                             152    0.14 7 72.0 304 
 RUS  HZ EP        023 20.10                             145   -0.0110 94.2 174 
 RUS  HE ES   3    023 38.56                             145    0.73 2 94.2 174 
 RUS  HZ I         023 40.38         1.3 0.52                          94.2 174 
 PTB  HN ES   3    023 43.39                             132   -0.47 2  143 261 
                                                                                
