 2014  5 2 0447 20.8 L   6.774 -73.145147.7  RSN  6 0.5 1.6LRSN                1
 GAP=138        0.95       5.3     5.1 12.2 -0.5293E+01  0.1886E+02 -0.7809E+01E
 Epicentro: LOS SANTOS - SANTANDER                                             3
 OLDACT:REG 14-05-02 13:02 OP:fm   STATUS:               ID:20140502043813     3
 ACTION:UPD 15-03-16 16:54 OP:nd   STATUS:               ID:20140502044720 L   I
 OLDACT:UP  14-05-02 17:41 OP:fm   STATUS:               ID:20140502043813     3
 2014-05-02-0438-13M.COL___233                                                 6
 STAT SP IPHASW D HRMM SECON CODA AMPLIT PERI AZIMU VELO AIN AR TRES W  DIS CAZ7
 PAM  SZ EP        447 43.51                             150    0.2010 79.6  38 
 PAM  SN ES        448  0.70                             150   -0.1910 79.6  38 
 PAM  SZ I         448  3.34         5.2 1.20             47           79.6  38 
 RUS  HZ EP   1    447 44.08                             145   -0.41 7 97.7 176 
 RUS  HN ES   1    448  3.31                             145    0.31 7 97.7 176 
 RUS  SZ I         448 18.77         3.9 3.14             47           97.7 176 
 PTB  HN ES   1    448  8.00                             132   -0.97 7  147 260 
 SPBC HZ EP   4    447 46.19                             130   -3.01 0  161 220 
 SPBC HN ES   1    448 11.75                             130    0.37 7  161 220 
 SPBC SZ I         448 16.28         4.0 0.46             47            161 220 
 ZAR  HN ES        448 19.53                             122    0.58 8  205 293 
 SML  HZ EP   2    447 57.38                             117   -0.40 4  246 336 
 SML  SZ I         448 29.14         4.7 1.52             37            246 336 
                                                                                
