 2012  5 2 0158 20.7 L   6.754 -73.160144.9  RSN  7 0.5 1.6LRSN                1
 GAP=137        1.17       7.5     6.5 10.0  0.2552E+01  0.1241E+02 -0.7576E+01E
 Epicentro: LOS SANTOS - SANTANDER                                             3
 ACTION:UP  12-07-05 12:01 OP:pat  STATUS:               ID:20120502015820 L   I
 2012-05-02-0150-00M.COL___189                                                 6
 STAT SP IPHASW D HRMM SECON CODA AMPLIT PERI AZIMU VELO SNR AR TRES W  DIS CAZ7
 BAR2 SZ EP        158 40.24                             172     0.110   18 188 
 BAR2 SZ ES   1    158 54.30                             172    -1.0 7   18 188 
 BAR2 SZ I         158 59.04         7.4 0.46                            18 188 
 BRR  HZ EP        158 42.18                             152     0.310   72 303 
 BRR  HE ES   1    158 59.17                             152     0.9 7   72 303 
 BRR  HZ I         159  0.53        14.0 0.08                            72 303 
 PAM  SZ EP        158 43.11                             149     0.010   82  38 
 PAM  SN ES   1    159  0.35                             149    -0.3 7   82  38 
 RUS  HZ EP   1    158 44.12                             145     0.1 7   96 175 
 RUS  HN ES   1    159  2.73                             145     0.5 7   96 175 
 RUS  HZ I         159  4.73         2.4 0.31                            96 175 
 PTB  HZ EP   1    158 46.93                             132    -0.5 7  145 261 
 PTB  HN ES   1    159  7.91                             132    -0.3 7  145 261 
 PTB  HZ I         159 10.57         3.4 0.10                           145 261 
 ZAR  HN ES   1    159 18.46                             122     0.0 6  205 294 
 ZAR  HZ I         159 24.43         6.2 0.21                           205 294 
 URE  HZ EP   1    159  1.36                                    -0.4 6  284 293 
 URE  HZ I         159 34.82         2.6 0.14                           284 293 
                                                                                
