 2014 10 2 0604 24.1 L   6.738 -73.180147.9  RSN  6 0.4 1.5LRSN                1
 GAP=204        1.01       4.5     7.3  7.3 -0.9611E+00  0.7689E+01 -0.6066E+01E
 Epicentro: VILLANUEVA - SANTANDER                                             3
 ACTION:UPD 14-11-29 23:45 OP:nd   STATUS:               ID:20141002060424 L   I
 OLDACT:UP  14-10-02 15:45 OP:cam  STATUS:               ID:20141002055818     3
 OLDACT:REG 14-10-02 12:35 OP:cam  STATUS:               ID:20141002055818     3
 2014-10-02-0558-18M.COL___289                                                 6
 STAT SP IPHASW D HRMM SECON CODA AMPLIT PERI AZIMU VELO AIN AR TRES W  DIS CAZ7
 BAR2 SZ ES        6 4 58.84                             174   -0.4610 16.1 181 
 BAR2 SZ I         6 4 59.86         5.2 0.24            172           16.1 181 
 BRR  HZ EP        6 4 46.16                             153    0.6410 71.6 305 
 BRR  HN ES        6 5  2.84                             153    0.6310 71.6 305 
 BRR  HN I         6 5  3.63         6.9 0.18            152           71.6 305 
 PTB  HZ EP        6 4 51.13                             134    0.31 9  143 261 
 PTB  HN ES        6 5 11.45                             134   -0.20 9  143 261 
 PTB  HN I         6 5 12.51         4.1 0.47            133            143 261 
 SPBC HZ EP        6 4 51.95                             131   -0.11 9  155 219 
 SPBC HN ES        6 5 13.67                             131   -0.19 9  155 219 
 SPBC HZ I         6 5 20.39         2.0 0.18            130            155 219 
 ZAR  HE ES        6 5 21.72                             123   -0.25 9  203 294 
 SML  HZ EP        6 5  1.10                             117   -0.28 8  248 337 
 SML  HN ES        6 5 29.95                             117   -0.49 8  248 337 
 SML  HN I         6 5 35.24         5.5 0.28            117            248 337 
                                                                                
