 2016 11 2 0321  9.4 L   6.729 -73.202154.1  RSN  4 0.2 1.0LRSN                1
 GAP=225        0.48       4.0     3.9  4.8  0.7697E+01 -0.2408E+01 -0.1571E+01E
 Epicentro: VILLANUEVA - SANTANDER                                             3
 ACTION:UPD 17-10-26 21:03 OP:lp   STATUS:               ID:20161102031744 L   I
 OLDACT:UPD 16-11-02 13:22 OP:dnl  STATUS:               ID:20161102031744 L   3
 2016-11-02-0318-00M.COL___343                                                 6
 STAT SP IPHASW D HRMM SECON CODA AMPLIT PERI AZIMU VELO AIN AR TRES W  DIS CAZ7
 BAR2 EZ EP        321 29.61                             174   -0.2910 15.2 172 
 BRR  HZ EP        321 31.42                             154    0.0210 70.2 307 
 BRR  HE ES        321 48.67                             154    0.1110 70.2 307 
 BRR  HZ I         321 55.76         3.9 0.49            152           70.2 307 
 RUS  HZ EP        321 33.75                             147    0.2710 93.4 172 
 RUS  HE ES        321 52.23                             147   -0.0510 93.4 172 
 RUS  HZ I         321 52.77         0.9 0.50            154           93.4 172 
 PTB  HZ EP        321 36.37                             135   -0.03 9  140 262 
 PTB  HN ES        321 57.43                             135   -0.04 9  140 262 
 PTB  HZ I         322  3.72         1.4 0.28            137            140 262 
                                                                                
