 2013  1 2 0020 19.0 L   6.739 -73.167152.1  RSN  6 0.5 1.5LRSN                1
 GAP=230        1.11       7.9     7.9  7.4  0.3928E+02  0.1098E+02  0.5899E+01E
 Epicentro: VILLANUEVA - SANTANDER                                             3
 ACTION:UPD 13-02-15 09:11 OP:ep   STATUS:               ID:20130102002019 L   I
 2013-01-02-0020-00M.COL___242                                                 6
 STAT SP IPHASW D HRMM SECON CODA AMPLIT PERI AZIMU VELO AIN AR TRES W  DIS CAZ7
 BAR2 SZ EP        020 39.17                             174   -0.1210 16.3 186 
 BAR2 SZ I         020 39.23         7.8 0.18            171           16.3 186 
 BAR2 SZ ES        020 55.10                             174    0.0010 16.3 186 
 BRR  HZ EP        020 40.99                             153    0.0610 72.7 304 
 BRR  HZ I         020 42.47         4.0 0.12            150           72.7 304 
 BRR  HN ES        020 58.44                             153    0.4110 72.7 304 
 RUS  HZ EP        020 43.06                             147    0.1210 94.0 174 
 RUS  HN ES        021  1.24                             147   -0.3710 94.0 174 
 RUS  HN I         021  2.38         2.3 0.30            147           94.0 174 
 PTB  HZ EP        020 45.89                             134   -0.30 9  144 261 
 PTB  HN ES        021  7.09                             134   -0.31 9  144 261 
 PTB  HN I         021 10.75         6.0 0.20            132            144 261 
 ZAR  HZ EP        020 51.09                             124   -0.84 9  205 294 
 ZAR  HN ES        021 18.12                             124    0.52 9  205 294 
 ZAR  HN I         021 23.47         6.3 0.58            122            205 294 
 CHI  HZ EP        020 57.34                             119    1.04 8  241 195 
                                                                                
