 2015  9 2 0133  3.2 L   6.791 -73.184138.6  RSN  7 0.6 1.6LRSN                1
 GAP=132        1.55       5.4     7.2  9.6 -0.5011E+01  0.1520E+02 -0.6842E+01E
 Epicentro: ZAPATOCA - SANTANDER                                               3
 ACTION:UPD 15-10-28 16:23 OP:cam  STATUS:               ID:20150902013303 L   I
 OLDACT:REG 15-09-02 13:48 OP:stll STATUS:               ID:20150902012749     3
 2015-09-02-0127-49M.COL___361                                                 6
 STAT SP IPHASW D HRMM SECON CODA AMPLIT PERI AZIMU VELO AIN AR TRES W  DIS CAZ7
 BAR2 EZ EP        133 23.55                             171    1.6110 22.0 179 
 BAR2 EZ ES        133 36.71                             171    0.1510 22.0 179 
 BAR2 EZ I         133 37.87         6.0 0.16            172           22.0 179 
 BRR  HZ EP        133 23.90                             152    0.5110 68.0 301 
 BRR  HN ES        133 39.29                             152    0.1510 68.0 301 
 BRR  HZ I         133 43.61        14.9 0.30            151           68.0 301 
 PAM  EZ EP        133 24.89                             148    0.0110 80.9  41 
 PAM  EZ I         133 25.02         9.7 0.20            151           80.9  41 
 PAM  EN ES        133 41.43                             148   -0.3610 80.9  41 
 RUS  HZ EP        133 26.08                             142   -0.1310  100 174 
 RUS  HE ES        133 43.25                             142   -0.9110  100 174 
 RUS  HZ I         133 45.40         3.0 0.24            146            100 174 
 PTB  HZ EP        133 29.16                             131   -0.03 9  143 259 
 PTB  HN ES        133 49.50                             131    0.04 9  143 259 
 PTB  HZ I         133 52.90         4.2 0.14            132            143 259 
 SPBC HZ EP        133 31.00                             128    0.17 9  160 218 
 SPBC HN ES        133 51.98                             128   -0.40 9  160 218 
 SML  HZ EP        133 38.46                             116   -0.88 8  243 336 
 SML  HN ES        134  7.09                             116   -0.44 8  243 336 
 SML  HZ I         134 10.59         3.4 0.26            117            243 336 
                                                                                
