 2017  2 2 0133 36.5 L   6.764 -73.205146.0  RSN  5 0.4 1.4LRSN                1
 GAP=228        1.00       7.7     7.0  8.6  0.3419E+02  0.4639E+01 -0.2009E+01E
 Epicentro: ZAPATOCA - SANTANDER                                               3
 ACTION:UPD 17-05-24 15:31 OP:jn   STATUS:               ID:20170202013336 L   I
 OLDACT:REG 17-02-02 12:54 OP:ar   STATUS:               ID:20170202012741     3
 2017-02-02-0128-00M.COL___328                                                 6
 STAT SP IPHASW D HRMM SECON CODA AMPLIT PERI AZIMU VELO AIN AR TRES W  DIS CAZ7
 BAR2 EZ EP        133 55.73                             172   -0.3310 19.1 173 
 BAR2 EZ ES        134 10.70                             172   -0.6410 19.1 173 
 BAR2 EZ I         134 11.71         6.7 0.28            174           19.1 173 
 BRR  HZ EP        133 57.57                             154    0.1110 67.7 304 
 BRR  HN ES        134 14.52                             154    0.6910 67.7 304 
 BRR  HZ I         134 22.02        10.0 0.34            152           67.7 304 
 RUS  HZ EP        134  0.36                             145    0.3410 97.3 172 
 RUS  HN ES        134 18.58                             145    0.2010 97.3 172 
 RUS  HZ I         134 19.25         2.9 0.24            150           97.3 172 
 PTB  HZ EP   2    134  2.62                             133   -0.21 5  141 260 
 PTB  HE ES        134 23.31                             133   -0.07 9  141 260 
 PTB  HZ I         134 28.44         2.1 0.26            135            141 260 
 ZAR  HN ES        134 33.11                             123   -0.34 9  200 294 
                                                                                
