 2016  2 2 0304 45.4 L   6.822 -73.222140.7  RSN 10 0.4 1.6LRSN                1
 GAP=125        0.49       2.7     3.6  5.4 -0.3968E+01  0.9290E+01 -0.8223E+00E
 Epicentro: ZAPATOCA - SANTANDER                                               3
 ACTION:UPD 16-03-04 21:22 OP:rebc STATUS:               ID:20160202030445 L   I
 OLDACT:REG 16-02-02 13:50 OP:dnl  STATUS:               ID:20160202024719     3
 2016-02-02-0258-00M.COL___415                                                 6
 STAT SP IPHASW D HRMM SECON CODA AMPLIT PERI AZIMU VELO AIN AR TRES W  DIS CAZ7
 BAR2 EZ EP   2    3 5  4.62                             169    0.19 5 25.7 170 
 BAR2 EZ ES   2    3 5 19.33                             169    0.02 5 25.7 170 
 BAR2 EZ I         3 5 22.96         9.0 0.23            168           25.7 170 
 PAM  EZ EP        3 5  7.26                             149   -0.0310 81.3  45 
 PAM  EN ES        3 5 24.45                             149    0.0710 81.3  45 
 PAM  EZ I         3 5 26.93        10.7 0.58            155           81.3  45 
 RUS  HZ EP   2    3 5  8.76                             142   -0.10 5  104 171 
 RUS  HN ES   2    3 5 27.12                             142   -0.07 5  104 171 
 RUS  HZ I         3 5 30.19         4.5 0.37            144            104 171 
 PTB  HZ EP   2    3 5 11.16                             132   -0.05 5  140 257 
 PTB  HE ES   2    3 5 31.70                             132    0.33 5  140 257 
 PTB  HZ I         3 5 34.94         5.0 0.14            134            140 257 
 SPBC HZ EP   2    3 5 13.48                             128    0.32 5  160 216 
 SPBC HE ES   2    3 5 34.14                             128   -0.70 5  160 216 
 SPBC HZ I         3 5 41.76         9.8 0.34            130            160 216 
 NOR  HZ EP   2    3 5 21.09                             118    0.87 4  229 233 
 NOR  HN ES   2    3 5 47.11                             118   -0.29 4  229 233 
 NOR  HZ I         3 5 49.97         3.8 0.23            120            229 233 
 SML  HZ EP   2    3 5 20.59                             117   -0.50 4  238 337 
 SML  HE ES   2    3 5 49.00                             117    0.04 4  238 337 
 SML  HZ I         3 5 52.44         5.3 0.07            120            238 337 
 CHI  HZ EP   2    3 5 22.88                             116    0.07 4  249 193 
 CHI  HE ES   2    3 5 51.50                             116   -0.52 4  249 193 
 CHI  HZ I         3 5 57.55         2.0 0.28            119            249 193 
 GUY2CHZ EP   4    3 5 29.82                             112    1.70 0  296 233 
 GUY2CHE ES   2    3 6  2.18                             112    0.71 4  296 233 
 GUY2CHZ I         3 6 13.05         2.1 0.47                           296 233 
 MON  HE ES   2    3 6  9.86                             108   -0.70 3  346 309 
 MON  HZ I         3 6 13.82         0.8 0.16            111            346 309 
                                                                                
