 2013 12 2 0840 40.6 L   6.804 -73.144149.9  RSN 11 0.4 1.9LRSN                1
 GAP=137        1.10       3.1     4.3  5.8 -0.3060E+01  0.7538E+01 -0.1267E+01E
 Epicentro: LOS SANTOS - SANTANDER                                             3
 ACTION:UPD 14-01-13 10:15 OP:ep   STATUS:               ID:20131202084040 L   I
 OLDACT:REG 13-12-02 07:29 OP:carl STATUS:               ID:20131202084000     3
 2013-12-02-0840-00M.COL___282                                                 6
 STAT SP IPHASW D HRMM SECON CODA AMPLIT PERI AZIMU VELO AIN AR TRES W  DIS CAZ7
 BAR2 SZ EP        841  0.74                             171   -0.0110 23.8 190 
 BAR2 SZ ES        841 16.10                             171   -0.3610 23.8 190 
 BAR2 SZ I         841 18.49        24.1 0.50            171           23.8 190 
 BRR  HZ EP        841  2.63                             153    0.4210 71.1 298 
 BRR  HN ES        841 19.97                             153    0.9210 71.1 298 
 BRR  HZ I         841 25.51         6.4 0.26            152           71.1 298 
 PAM  SZ EP        841  3.46                             152    0.2210 76.9  40 
 PAM  SN ES        841 20.86                             152   -0.0310 76.9  40 
 PAM  SZ I         841 23.10         8.3 0.56            155           76.9  40 
 RUS  HZ EP        841  4.53                             145   -0.2710  101 176 
 RUS  HE ES        841 23.45                             145   -0.2210  101 176 
 RUS  HZ I         841 26.07         6.8 0.32            149            101 176 
 PTB  HZ EP        841  7.36                             133   -0.59 9  148 259 
 PTB  HN ES        841 28.74                             133   -0.52 9  148 259 
 PTB  HZ I         841 30.71        10.0 0.14            134            148 259 
 OCA  HZ EP        841  9.72                             130    0.51 9  160 353 
 OCA  HN ES        841 31.76                             130    0.25 9  160 353 
 OCA  HZ I         841 36.09         6.9 0.54            133            160 353 
 SPBC HZ EP        841  9.49                             130    0.01 9  164 219 
 SPBC HN ES        841 31.44                             130   -0.55 9  164 219 
 SPBC HZ I         841 37.41        10.4 0.12            133            164 219 
 ZAR  HZ EP        841 13.15                             123   -0.18 9  204 292 
 ZAR  HN ES        841 38.70                             123   -0.15 9  204 292 
 ZAR  HZ I         841 47.23         7.4 0.30            125            204 292 
 NOR  HZ EP        841 16.83                             119    0.20 8  235 234 
 NOR  HE ES        841 45.56                             119    0.84 8  235 234 
 NOR  HZ I         841 48.30         7.5 0.16            122            235 234 
 SML  HZ EP        841 16.99                             118   -0.45 8  243 335 
 SML  HN ES        841 45.46                             118   -0.70 8  243 335 
 SML  HZ I         841 48.52        11.9 0.10            121            243 335 
 GUY2CHZ EP        841 24.98                             113    0.52 7  302 235 
 GUY2CHN ES        841 58.91                             113    0.25 7  302 235 
 GUY2CHZ I         842  7.46         3.2 0.30                           302 235 
                                                                                
