 2012  2 2 0654 51.8 L   6.734 -73.194144.1  RSN  7 0.4 1.7LRSN                1
 GAP=172        0.79       5.3     6.4  6.5  0.9712E+01 -0.4317E+01 -0.2796E+00E
 ACTION:UP  12-03-07 16:26 OP:epov STATUS:               ID:20120202065451 L   I
 2012-02-02-0650-00M.COL___187                                                 6
 STAT SP IPHASW D HRMM SECON CODA AMPLIT PERI AZIMU VELO SNR AR TRES W  DIS CAZ7
 BAR2 SZ EP        655 11.01                             174   -0.1010 15.7 175 
 BAR2 SZ ES   1    655 25.74                             174   -0.42 7 15.7 175 
 BAR2 SZ I         655 27.03        20.2 0.22                          15.7 175 
 GIR2 SZ EP   1    655 11.14                             164   -0.35 7 38.1   0 
 BRR  HZ EP   1    655 12.94                             152    0.20 7 70.5 306 
 BRR  HN ES        655 29.59                             152    0.5310 70.5 306 
 BRR  HZ I         655 31.43         9.2 0.17                          70.5 306 
 RUS  HZ EP   1    655 14.90                             145   -0.02 7 93.8 172 
 RUS  HN ES   1    655 32.97                             145    0.03 7 93.8 172 
 PTB  HZ EP   1    655 17.68                             133   -0.37 7  141 261 
 PTB  HN ES   1    655 38.05                             133   -0.46 7  141 261 
 OCA  SZ EP   1    655 20.59                             128   -0.04 7  167 355 
 OCA  SZ I         655 44.25         8.8 0.57                           167 355 
 CHI  HZ EP   1    655 29.35                             118    0.85 6  240 194 
 CHI  HZ I         656  4.40         1.1 0.14                           240 194 
                                                                                
