 2016  4 2 0318 55.8 L   6.792 -73.150142.7  RSN  6 0.3 1.3LRSN                1
 GAP=136        0.79       4.3     3.8  6.3  0.1896E+01  0.3944E+01 -0.8719E+01E
 Epicentro: LOS SANTOS - SANTANDER                                             3
 ACTION:UPD 16-05-05 14:17 OP:rebc STATUS:               ID:20160402031855 L   I
 OLDACT:REG 16-04-02 12:36 OP:drio STATUS:               ID:20160402031744     3
 2016-04-02-0317-44M.COL___322                                                 6
 STAT SP IPHASW D HRMM SECON CODA AMPLIT PERI AZIMU VELO AIN AR TRES W  DIS CAZ7
 BAR2 EZ EP        319 14.72                             171   -0.2910 22.4 189 
 BAR2 EZ ES        319 29.82                             171   -0.2010 22.4 189 
 BAR2 EZ I         319 31.34         5.5 0.24            170           22.4 189 
 PAM  EZ EP        319 17.89                             150    0.1810 78.3  39 
 PAM  EN ES   4    319 31.22                             150   -3.61 0 78.3  39 
 PAM  EZ I         319 38.11         2.9 0.50            155           78.3  39 
 RUS  HZ EP        319 19.26                             143    0.1110 99.8 176 
 RUS  HN ES        319 37.66                             143    0.2610 99.8 176 
 RUS  HZ I         319 38.91         2.0 0.34            147           99.8 176 
 PTB  HZ EP        319 21.73                             131   -0.70 9  147 259 
 PTB  HE ES        319 43.41                             131    0.18 9  147 259 
 PTB  HZ I         319 50.11         1.7 0.22            132            147 259 
 SPBC HZ EP        319 23.86                             128   -0.08 9  162 219 
 SPBC HE ES        319 45.98                             128    0.06 9  162 219 
 SPBC HZ I         319 53.63         3.1 0.28            131            162 219 
 ZAR  HZ EP        319 28.55                             122    0.55 9  204 292 
 ZAR  HE ES        319 53.15                             122    0.00 9  204 292 
 ZAR  HZ I         319 58.07         2.0 0.28            124            204 292 
                                                                                
