 2017  2 2 0453  0.5 L   6.863 -73.140144.2  RSN 15 0.7 2.3LRSN                1
 GAP=110        1.55       4.9     4.2  7.4  0.1998E+01  0.1095E+02  0.7924E+01E
 Epicentro: LOS SANTOS - SANTANDER                                             3
 ACTION:UPD 17-05-24 15:31 OP:jn   STATUS:               ID:20170202045301dL   I
 OLDACT:UP  17-04-01 13:52 OP:jn   STATUS:               ID:20170202045301dL   3
 OLDACT:UP  17-04-01 13:39 OP:nlst STATUS:               ID:20170202045301dL   3
 OLDACT:DUP 17-02-02 17:17 OP:ar   STATUS:               ID:20170202044107d    3
 2017-02-02-0448-00M.COL___328                                                 6
 STAT SP IPHASW D HRMM SECON CODA AMPLIT PERI AZIMU VELO AIN AR TRES W  DIS CAZ7
 BAR2 EZ IP     D  453 19.85                             168   -0.3010 30.3 189 
 BAR2 EZ ES        453 34.63                             168   -0.8110 30.3 189 
 BAR2 EZ I         453 36.13        78.5 0.18            165           30.3 189 
 BRR  HZ IP     D  453 21.65                             153    0.2710 68.7 293 
 BRR  HN ES        453 38.72                             153    1.0810 68.7 293 
 BRR  HZ I         453 39.41        32.4 0.16            150           68.7 293 
 PAM  EZ EP        453 22.71                             152    0.4510 71.7  43 
 PAM  EN ES        453 39.70                             152    0.5010 71.7  43 
 PAM  EZ I         453 40.47        28.2 0.22            155           71.7  43 
 RUS  HZ IP     D  453 23.86                             142   -0.7910  107 177 
 RUS  HN ES        453 42.77                             142   -0.6910  107 177 
 RUS  HZ I         453 44.45        21.8 0.28            141            107 177 
 PTB  HZ EP   1    453 26.91                             131   -0.66 7  150 256 
 PTB  HE ES        453 48.50                             131   -0.16 9  150 256 
 PTB  HZ I         453 49.09        30.8 0.52            129            150 256 
 TAM  HZ EP        453 28.21                             130   -0.01 9  156 108 
 TAM  HN ES        453 49.78                             130   -0.03 9  156 108 
 TAM  HZ I         453 50.36        15.7 0.28            132            156 108 
 ZAR  HZ EP        453 32.97                             122    0.29 9  202 290 
 ZAR  HN ES        453 58.13                             122    0.37 9  202 290 
 ZAR  HZ I         454  3.58        30.6 0.50            121            202 290 
 NOR  HZ EP        453 36.49                             118   -0.19 8  239 233 
 NOR  HN ES        454  5.04                             118    0.18 8  239 233 
 NOR  HZ I         454  8.78        23.4 0.30            116            239 233 
 CHI  HZ EP        453 38.13                             116   -0.77 8  256 195 
 CHI  HE ES        454  8.98                             116    0.15 8  256 195 
 CHI  HZ I         454 14.49         8.8 0.52            115            256 195 
 ROSC BZ EP        453 40.04                             116    0.78 8  259 210 
 ROSC BN ES        454 10.59                             116    1.12 8  259 210 
 ROSC BZ I         454 14.81        16.8 0.50            115            259 210 
 URE  HZ EP        453 40.55                             113   -0.77 7  282 291 
 URE  HN ES        454 11.73                             113   -1.39 7  282 291 
 URE  HZ I         454 24.19        11.3 0.34            112            282 291 
 ELA  HZ EP        453 50.03                             110    2.13 7  334 229 
 ELA  HE ES   4    454 28.90                             110    4.05 0  334 229 
 ELA  HZ I         454 31.44         9.1 0.42            109            334 229 
 CBOC HZ EP        453 47.79                             109    0.08 7  336 251 
 CBOC HN ES        454 23.95                             109   -0.56 7  336 251 
 CBOC HZ I         454 41.03         4.7 0.76            109            336 251 
 DBB  EZ EP        453 48.28                             109    0.31 7  340 273 
 DBB  EN ES        454 24.36                             109   -0.61 7  340 273 
 DBB  EZ I         454 33.28         4.9 0.44            108            340 273 
 ORTC HZ EP        453 55.10                             106   -0.01 6  401 216 
 ORTC HN ES        454 37.98                             106    0.31 6  401 216 
 ORTC HZ I         454 41.76         7.5 0.50            105            401 216 
                                                                                
