 2016  3 2 0830  1.6 L   6.163 -73.786 97.1  RSN  7 0.4 1.2LRSN                1
 GAP= 93        1.07       3.6     3.8  8.6  0.2946E+01  0.4805E+01  0.3355E+01E
 Epicentro: LANDAZURI - SANTANDER                                              3
 ACTION:UPD 16-05-13 21:21 OP:cam  STATUS:               ID:20160302083001 L   I
 OLDACT:UP  16-03-02 18:41 OP:mh   STATUS:               ID:20160302082747     3
 OLDACT:UP  16-03-02 18:39 OP:mh   STATUS:               ID:20160302082747     3
 OLDACT:REG 16-03-02 12:58 OP:mh   STATUS:               ID:20160302082747     3
 2016-03-02-0827-47M.COL___312                                                 6
 STAT SP IPHASW D HRMM SECON CODA AMPLIT PERI AZIMU VELO AIN AR TRES W  DIS CAZ7
 SPBC HZ EP        830 17.56                             144    0.1610 64.7 209 
 SPBC HN ES        830 30.01                             144    0.2810 64.7 209 
 SPBC HZ I         830 32.80         4.2 0.26            141           64.7 209 
 BAR2 EZ EP   1    830 19.27                             137    0.31 7 82.0  55 
 BAR2 EZ ES        830 32.46                             137   -0.0510 82.0  55 
 BAR2 EZ I         830 35.01         5.5 0.60            137           82.0  55 
 RUS  HZ EP        830 19.30                             137   -0.1310 83.4 111 
 RUS  HN ES        830 33.36                             137    0.0210 83.4 111 
 RUS  HZ I         830 34.52         2.7 0.26            135           83.4 111 
 PTB  HZ EP        830 18.32                             136   -0.6010 85.0 299 
 PTB  HN ES        830 31.90                             136   -0.5310 85.0 299 
 PTB  HZ I         830 31.99         3.1 0.34            135           85.0 299 
 CHI  HZ EP        830 27.61                             116   -0.41 9  170 178 
 CHI  HE ES        830 48.98                             116    0.34 9  170 178 
 CHI  HZ I         830 56.18         1.1 0.62            114            170 178 
 ZAR  HN ES        830 52.51                             113    0.95 9  189 321 
 ZAR  HZ I         830 54.41         3.7 0.10            112            189 321 
 URE  HZ EP   4    830 55.94                             106   17.85 0  261 312 
 URE  HN ES   4    831  4.57                             106   -1.98 0  261 312 
 URE  HZ I         831  9.38         1.5 0.32            105            261 312 
                                                                                
