 2014  7 2 0750 46.3 L   6.829 -73.181145.6  RSN  6 0.3 1.4LRSN                1
 GAP=198        0.60       2.5     4.0  5.0  0.1814E+01  0.4051E+01 -0.4593E+01E
 Epicentro: ZAPATOCA - SANTANDER                                               3
 ACTION:UPD 15-03-16 20:40 OP:nd   STATUS:               ID:20140702075046 L   I
 OLDACT:UP  14-07-02 14:48 OP:cam  STATUS:               ID:20140702075000     3
 OLDACT:UP  14-07-02 14:47 OP:cam  STATUS:               ID:20140702075000     3
 OLDACT:REG 14-07-02 13:26 OP:cam  STATUS:               ID:20140702075000     3
 2014-07-02-0750-00M.COL___279                                                 6
 STAT SP IPHASW D HRMM SECON CODA AMPLIT PERI AZIMU VELO AIN AR TRES W  DIS CAZ7
 BAR2 SZ EP   1    751  6.06                             169    0.11 7 26.2 180 
 BAR2 SZ ES        751 21.06                             169   -0.2310 26.2 180 
 BAR2 SZ I         751 23.62         5.4 0.16            169           26.2 180 
 RUS  HZ EP        751 10.36                             143    0.0910  104 174 
 RUS  HN ES        751 29.02                             143    0.0410  104 174 
 RUS  HZ I         751 29.74         2.6 0.34            145            104 174 
 PTB  HZ EP        751 12.81                             133   -0.14 9  145 257 
 PTB  HN ES        751 33.89                             133    0.14 9  145 257 
 PTB  HZ I         751 36.84         2.7 0.10            133            145 257 
 SPBC HZ EP        751 14.84                             129    0.06 9  163 217 
 SPBC HN ES        751 36.94                             129   -0.07 9  163 217 
 SPBC HZ I         751 39.61         5.0 0.22            130            163 217 
 SML  HZ EP   1    751 22.19                             118   -0.22 6  239 336 
 SML  HE ES        751 51.14                             118    0.56 8  239 336 
 SJC  HZ EP   4    751 39.77                             106   -1.50 0  404 327 
 SJC  HN ES        752 23.44                             106   -0.72 6  404 327 
                                                                                
