 2015 10 2 0819 45.9 L   6.811 -73.152144.1  RSN 14 0.5 1.9LRSN                1
 GAP=135        0.91       3.2     4.1  5.6 -0.1050E+01  0.6056E+01  0.5148E+00E
 Epicentro: LOS SANTOS - SANTANDER                                             3
 ACTION:UPD 15-12-22 20:36 OP:cam  STATUS:               ID:20151002081945 L   I
 OLDACT:REG 15-10-02 13:26 OP:ar   STATUS:               ID:20151002081747     3
 2015-10-02-0817-47M.COL___351                                                 6
 STAT SP IPHASW D HRMM SECON CODA AMPLIT PERI AZIMU VELO AIN AR TRES W  DIS CAZ7
 BAR2 EZ EP        820  5.43                             170    0.0410 24.5 188 
 BAR2 EZ ES        820 20.03                             170   -0.5310 24.5 188 
 BAR2 EZ I         820 21.06        25.4 0.34            169           24.5 188 
 BRR  HZ IP     C  820  7.18                             153    0.3410 70.0 298 
 BRR  HN ES        820 23.94                             153    0.8110 70.0 298 
 BRR  HZ I         820 24.57        17.0 0.12            149           70.0 298 
 PAM  EZ EP        820  8.27                             150    0.3210 76.9  41 
 PAM  EN ES        820 25.27                             150    0.1610 76.9  41 
 PAM  EZ I         820 26.78        14.2 0.68            153           76.9  41 
 RUS  HZ EP        820  9.69                             143    0.0710  102 176 
 RUS  HN ES        820 27.89                             143   -0.2010  102 176 
 RUS  HZ I         820 29.61         7.1 0.18            143            102 176 
 PTB  HZ EP        820 12.03                             132   -0.70 9  147 258 
 PTB  HN ES        820 33.25                             132   -0.37 9  147 258 
 PTB  HZ I         820 35.39        10.2 0.16            129            147 258 
 OCA  HZ EP   2    820 13.31                             129   -0.68 5  159 353 
 OCA  HN ES   2    820 35.00                             129   -0.87 5  159 353 
 OCA  HZ I         820 38.28        21.8 0.22            129            159 353 
 SPBC HZ EP   2    820 14.20                             129   -0.16 5  164 219 
 SPBC HN ES   2    820 36.00                             129   -0.52 5  164 219 
 SPBC HZ I         820 39.57        11.8 0.12            127            164 219 
 ZAR  HZ EP        820 18.37                             122    0.21 9  203 292 
 ZAR  HN ES   2    820 43.80                             122    0.52 4  203 292 
 ZAR  HZ I         820 51.21        12.7 0.34            121            203 292 
 NOR  HZ EP   2    820 22.06                             118    0.47 4  235 234 
 NOR  HN ES   2    820 48.77                             118   -0.62 4  235 234 
 NOR  HZ I         820 53.42         5.4 0.52            117            235 234 
 SML  HZ EP   2    820 21.76                             117   -0.55 4  242 335 
 SML  HN ES   2    820 50.07                             117   -0.61 4  242 335 
 SML  HZ I         820 58.79         9.6 0.10            117            242 335 
 CHI  HZ EP   2    820 24.15                             117    0.49 4  250 195 
 CHI  HN ES        820 53.41                             117    0.34 8  250 195 
 CHI  HZ I         821  1.24         2.0 0.28            116            250 195 
 HEL  HZ EP   4    820 27.79                             114    1.77 0  272 256 
 HEL  HN ES   2    820 57.64                             114    0.35 4  272 256 
 HEL  HZ I         821  5.95         3.8 0.24            113            272 256 
 URE  HZ EP   4    820 28.44                             113    1.64 0  283 292 
 URE  HN ES   4    820 57.20                             113   -1.47 0  283 292 
 URE  HZ I         820 58.59         4.9 0.36            112            283 292 
 GUY2CHZ EP   4    820 31.53                             112    2.04 0  301 234 
 GUY2CHN ES   4    821  6.19                             112    2.74 0  301 234 
 GUY2CHZ I         821 11.62         4.2 0.30                           301 234 
                                                                                
