 2015  5 2 0828  2.7 L   6.753 -73.137144.6  RSN  5 0.3 1.4LRSN                1
 GAP=140        0.71       3.7     3.9  5.1  0.3326E+01  0.4739E+01 -0.9563E+00E
 Epicentro: LOS SANTOS - SANTANDER                                             3
 ACTION:UPD 15-09-10 22:00 OP:cam  STATUS:               ID:20150502082802 L   I
 OLDACT:DUP 15-05-02 18:38 OP:stll STATUS:               ID:20150502081753d    3
 OLDACT:DUP 15-05-02 18:36 OP:stll STATUS:               ID:20150502081752d    3
 OLDACT:DUP 15-05-02 18:34 OP:stll STATUS:               ID:20150502081751d    3
 OLDACT:DUP 15-05-02 18:33 OP:stll STATUS:               ID:20150502081750d    3
 OLDACT:REG 15-05-02 13:18 OP:stll STATUS:               ID:20150502081749     3
 2015-05-02-0817-49M.COL___276                                                 6
 STAT SP IPHASW D HRMM SECON CODA AMPLIT PERI AZIMU VELO AIN AR TRES W  DIS CAZ7
 BAR2 EZ EP        828 21.98                             172   -0.1410 18.5 196 
 BAR2 EZ ES        828 36.96                             172   -0.2910 18.5 196 
 BAR2 EZ I         828 38.10         7.6 0.24            171           18.5 196 
 BRR  HZ EP        828 24.08                             151    0.1410 74.6 302 
 BRR  HN ES        828 41.02                             151    0.5410 74.6 302 
 BRR  HZ I         828 41.66         5.5 0.34            149           74.6 302 
 PAM  SZ EP        828 25.10                             149    0.0810 80.9  37 
 PAM  SZ I         828 25.30         7.3 0.30            151           80.9  37 
 PAM  SN ES        828 42.27                             149   -0.1410 80.9  37 
 RUS  HZ EP        828 25.97                             145   -0.0110 95.4 176 
 RUS  HN ES        828 44.23                             145    0.1010 95.4 176 
 RUS  HZ I         828 45.39         3.0 0.20            145           95.4 176 
 ZAR  HZ EP        828 35.53                             122    0.14 8  207 293 
 ZAR  HE ES        829  0.34                             122   -0.52 8  207 293 
 ZAR  HZ I         829  5.58         1.5 0.22            121            207 293 
                                                                                
