 2016  4 2 0344 11.0 L   6.808 -73.142143.2  RSN  4 0.2 1.0LRSN                1
 GAP=244        0.57       5.5     4.8  7.8  0.1808E+02 -0.1055E+02 -0.2048E+02E
 Epicentro: LOS SANTOS - SANTANDER                                             3
 ACTION:UPD 16-05-05 14:17 OP:rebc STATUS:               ID:20160402034411 L   I
 OLDACT:UP  16-04-02 14:14 OP:drio STATUS:               ID:20160402033740     3
 OLDACT:REG 16-04-02 12:37 OP:drio STATUS:               ID:20160402033740     3
 2016-04-02-0337-40M.COL___322                                                 6
 STAT SP IPHASW D HRMM SECON CODA AMPLIT PERI AZIMU VELO AIN AR TRES W  DIS CAZ7
 RUS  HZ EP        344 34.52                             143   -0.0310  101 176 
 RUS  HE ES        344 52.95                             143    0.0210  101 176 
 RUS  HZ I         344 54.69         1.1 0.38            139            101 176 
 PTB  HZ EP        344 37.47                             131   -0.33 9  148 259 
 PTB  HN ES        344 58.47                             131   -0.24 9  148 259 
 PTB  HZ I         345  0.38         1.4 0.50            129            148 259 
 SPBC HZ EP        344 39.63                             128    0.25 9  164 219 
 SPBC HN ES        345  1.63                             128    0.10 9  164 219 
 SPBC HZ I         345  6.47         2.0 0.36            125            164 219 
 ZAR  HN ES        345  8.75                             122    0.29 9  204 292 
                                                                                
