 2012  2 2 0944 28.6 L   6.701 -73.201151.1  RSN  5 0.5 1.4LRSN                1
 GAP=169        0.94       9.0     8.6  9.9  0.2813E+02  0.1921E+01 -0.6726E+01E
 ACTION:UP  12-03-07 16:26 OP:epov STATUS:               ID:20120202094428 L   I
 2012-02-02-0940-00M.COL___187                                                 6
 STAT SP IPHASW D HRMM SECON CODA AMPLIT PERI AZIMU VELO SNR AR TRES W  DIS CAZ7
 BAR2 SZ EP   1    944 48.42                             175   -0.27 7 12.2 170 
 BAR2 SZ ES   1    945  3.84                             175   -0.53 7 12.2 170 
 BAR2 SZ I         945  5.24         4.8 0.45                          12.2 170 
 GIR2 SZ EP   1    944 48.78                             164   -0.42 7 41.7   1 
 BRR  HZ EP   1    944 50.26                             153   -0.10 7 72.1 309 
 BRR  HZ I         944 50.57         9.1 0.13                          72.1 309 
 BRR  HN ES   1    945  8.25                             153    0.90 7 72.1 309 
 RUS  HZ EP   1    944 52.79                             148    0.62 7 90.4 172 
 RUS  HE ES   1    945 10.72                             148    0.15 7 90.4 172 
 RUS  HZ I         945 12.29         2.1 0.30                          90.4 172 
 PTB  HZ EP   1    944 55.38                             135    0.08 7  140 263 
 PTB  HN ES   1    945 15.67                             135   -0.48 7  140 263 
                                                                                
