 2011  7 2 0501 29.6 L   7.364 -73.177128.4  RSN  7 0.1 1.6LRSN                1
 GAP=133        0.36       1.8     3.3  3.4 -0.2378E+01 -0.8122E-01  0.6756E+00E
 Epicentro: RIONEGRO - SANTANDER                                               3
 ACTION:UPD 12-07-25 13:57 OP:epov STATUS:               ID:20110702050129 L   I
 2011-07-02-0459-20S.COL___140                                                 6
 STAT SP IPHASW D HRMM SECON CODA AMPLIT PERI AZIMU VELO AIN AR TRES W  DIS CAZ7
 GIR2 SZ EP   1    5 1 47.33                             165    0.15 7 31.6 183 
 BTL  SZ EP        5 1 48.20                             157    0.1510 50.3 191 
 BRI  SZ EP   1    5 1 48.36                             155    0.05 7 57.3  47 
 BRR  HZ EP        5 1 48.42                             151   -0.0910 65.5 244 
 BRR  HN ES   1    5 2  3.15                             151   -0.14 7 65.5 244 
 BRR  HZ I         5 2  5.04        13.3 0.42                          65.5 244 
 GRA  SZ EP        5 1 49.00                             149   -0.0610 70.8  36 
 GRA  SZ ES        5 2  4.14                             149   -0.1210 70.8  36 
 GRA  SZ I         5 2  6.14        12.9 0.22                          70.8  36 
 BAR2 SZ EP        5 1 50.12                             144   -0.0310 85.4 180 
 BAR2 SZ I         5 1 50.89         6.5 0.09                          85.4 180 
 BAR2 SZ ES   1    5 2  6.27                             144    0.06 7 85.4 180 
 OCA  SZ EP        5 1 50.89                             140   -0.0810 98.0 351 
 OCA  SZ ES   1    5 2  7.95                             140    0.29 7 98.0 351 
 OCA  SZ I         5 2 10.42         4.0 0.56                          98.0 351 
                                                                                
