 2016  4 2 0956 48.4 L   6.811 -73.162145.9  RSN 10 0.4 1.9LRSN                1
 GAP=134        0.92       3.0     4.1  6.4 -0.1343E+01  0.6763E+01  0.2995E+01E
 Epicentro: LOS SANTOS - SANTANDER                                             3
 ACTION:UPD 16-05-05 14:18 OP:rebc STATUS:               ID:20160402095648 L   I
 OLDACT:UP  16-04-02 16:19 OP:drio STATUS:               ID:20160402094749     3
 OLDACT:UP  16-04-02 16:18 OP:drio STATUS:               ID:20160402094749     3
 OLDACT:UP  16-04-02 16:18 OP:drio STATUS:               ID:20160402094749     3
 OLDACT:REG 16-04-02 12:53 OP:drio STATUS:               ID:20160402094749     3
 2016-04-02-0947-49M.COL___299                                                 6
 STAT SP IPHASW D HRMM SECON CODA AMPLIT PERI AZIMU VELO AIN AR TRES W  DIS CAZ7
 BAR2 EZ EP     C  957  8.05                             170    0.0110 24.3 185 
 BAR2 EZ ES        957 23.48                             170    0.1010 24.3 185 
 BAR2 EZ I         957 24.30        30.2 0.22            171           24.3 185 
 PAM  EZ EP        957 10.89                             151    0.2710 77.7  41 
 PAM  EE ES        957 28.16                             151    0.1910 77.7  41 
 PAM  EZ I         957 31.68         3.3 0.20            150           77.7  41 
 RUS  HZ EP        957 12.13                             143   -0.1110  102 175 
 RUS  HE ES        957 30.34                             143   -0.5110  102 175 
 RUS  HZ I         957 31.92        13.4 0.22            146            102 175 
 PTB  HZ EP        957 14.63                             132   -0.58 9  146 258 
 PTB  HN ES        957 35.98                             132   -0.16 9  146 258 
 PTB  HZ I         957 43.05         8.4 0.46            129            146 258 
 OCA  HZ EP   4    957 14.58                             130   -1.99 0  159 354 
 OCA  HE ES        957 38.35                             130   -0.20 9  159 354 
 OCA  HZ I         957 48.10        12.6 0.26            127            159 354 
 SPBC HZ EP        957 16.95                             129    0.08 9  163 218 
 SPBC HE ES        957 39.02                             129   -0.06 9  163 218 
 SPBC HZ I         957 41.71        22.6 0.24            128            163 218 
 ZAR  HZ EP   4    957 21.62                             123    1.01 0  202 292 
 ZAR  HE ES        957 46.22                             123    0.47 9  202 292 
 ZAR  HZ I         957 52.25         8.2 0.54            119            202 292 
 CHI  HZ EP        957 25.94                             117   -0.22 8  249 195 
 CHI  HN ES        957 56.65                             117    1.03 8  249 195 
 CHI  HZ I         958  5.25         2.8 0.48            117            249 195 
 GUY2CHZ EP   4    957 33.70                             112    1.80 0  300 234 
 GUY2CHN ES   4    958  9.61                             112    3.76 0  300 234 
 GUY2CHZ I         958 15.90         2.8 0.36                           300 234 
 MON  HZ EP   4    957 42.14                             109    5.01 0  351 308 
 MON  HE ES   4    958 12.70                             109   -2.46 0  351 308 
 MON  HZ I         958 30.09         2.3 0.68            107            351 308 
 SJC  HZ EP   4    957 39.72                             106   -3.99 0  407 327 
 SJC  HN ES   4    958 22.27                             106   -4.60 0  407 327 
                                                                                
