 2017  5 2 0225 25.9 L   6.766 -73.198147.3  RSN  4 0.4 1.1LRSN                1
 GAP=132        0.94       5.2     4.9  8.3 -0.2876E+01  0.2784E+01  0.5346E+01E
 Epicentro: ZAPATOCA - SANTANDER                                               3
 ACTION:UPD 17-06-16 13:31 OP:jn   STATUS:               ID:20170502022525 L   I
 OLDACT:DUP 17-05-02 15:17 OP:edw  STATUS:               ID:20170502021741d    3
 OLDACT:UP  17-05-02 15:17 OP:edw  STATUS:               ID:20170502021740     3
 OLDACT:UP  17-05-02 15:13 OP:edw  STATUS:               ID:20170502021740     3
 OLDACT:REG 17-05-02 12:01 OP:edw  STATUS:               ID:20170502021740     3
 2017-05-02-0218-00M.COL___371                                                 6
 STAT SP IPHASW D HRMM SECON CODA AMPLIT PERI AZIMU VELO AIN AR TRES W  DIS CAZ7
 BRR  HZ EP     C  225 47.35                             154    0.3410 68.2 304 
 BRR  HE ES        226  3.91                             154    0.4010 68.2 304 
 PAM  EZ EP     C  225 48.68                             149    0.0410 84.0  41 
 PAM  EE ES        226  6.02                             149   -0.3910 84.0  41 
 PAM  EZ I         226  7.74         2.6 0.58            150           84.0  41 
 RUS  HZ EP        225 49.97                             145    0.4410 97.4 173 
 RUS  HN ES        226  7.87                             145   -0.1310 97.4 173 
 RUS  HZ I         226  9.32         1.7 0.34            145           97.4 173 
 PTB  HZ EP        225 51.78                             134   -0.60 9  141 260 
 PTB  HN ES        226 12.89                             134   -0.19 9  141 260 
                                                                                
