 2017  4 2 0521 27.4 L   6.771 -73.098149.6  RSN 14 0.5 1.6LRSN                1
 GAP=117        1.16       4.0     3.7  5.9  0.3297E+01  0.4640E+01  0.4315E+01E
 Epicentro: LOS SANTOS - SANTANDER                                             3
 ACTION:UPD 17-05-30 21:07 OP:jn   STATUS:               ID:20170402052127 L   I
 OLDACT:REG 17-04-02 12:45 OP:lv   STATUS:               ID:20170402051745     3
 2017-04-02-0518-00M.COL___362                                                 6
 STAT SP IPHASW D HRMM SECON CODA AMPLIT PERI AZIMU VELO AIN AR TRES W  DIS CAZ7
 BAR2 EZ EP        521 47.72                             171    0.2610 21.9 205 
 BAR2 EZ ES        522  3.40                             171    0.3010 21.9 205 
 BAR2 EZ I         522  3.77         5.4 0.14            164           21.9 205 
 PAM  EZ EP        521 49.13                             152   -0.8510 76.7  35 
 PAM  EN ES        522  7.31                             152   -0.2810 76.7  35 
 BRR  HZ EP        521 49.74                             151    0.4310 77.4 299 
 BRR  HN ES        522  6.88                             151    0.4810 77.4 299 
 BRR  HZ I         522  9.94         5.2 0.20            145           77.4 299 
 RUS  HZ EP        521 51.58                             145    0.3010 97.2 179 
 RUS  HN ES        522 10.06                             145    0.1410 97.2 179 
 RUS  HZ I         522 13.15         2.2 0.28            139           97.2 179 
 PTB  HZ EP        521 54.65                             132   -0.44 9  152 260 
 PTB  HN ES        522 16.02                             132   -0.68 9  152 260 
 PTB  HZ I         522 17.98         6.0 0.24            125            152 260 
 SPBC HZ EP        521 56.52                             130    0.24 9  164 221 
 SPBC HN ES        522 18.82                             130    0.01 9  164 221 
 SPBC HZ I         522 24.32         7.3 0.22            123            164 221 
 YPLC HZ EP        521 57.88                             128    0.92 9  172 152 
 YPLC HN ES        522 19.75                             128   -0.27 9  172 152 
 ZAR  HZ EP        522  0.91                             122    0.19 8  210 292 
 ZAR  HN ES        522 26.41                             122   -0.30 8  210 292 
 ZAR  HZ I         522 33.56         3.3 0.12            117            210 292 
 ROSC BZ EP   9    522  8.40                             117    2.67 0  253 212 
 ROSC BE ES        522 37.84                                   -0.46 8  253 212 
 ROSC BZ I         522 45.18         2.9 0.28            112            253 212 
 HEL  HZ EP        522  7.91                             115   -0.38 7  276 257 
 HEL  HN ES        522 40.51                             115    0.33 7  276 257 
 HEL  HZ I         522 46.38         2.3 0.17            110            276 257 
 URE  HZ EP   9    522  7.79                             114   -1.54 0  290 292 
 URE  HN ES        522 40.42                                   -0.08 7  290 292 
 URE  HZ I         522 50.74         2.6 0.15            110            290 292 
 PTGC HN ES        522 43.53                             113   -1.26 7  304 159 
 CBOC HZ EP        522 15.23                             110    0.29 7  338 253 
 CBOC HN ES        522 51.54                             110   -0.48 7  338 253 
 CBOC HZ I         522 55.90         0.6 0.24            106            338 253 
 PRA  HZ EP        522 21.78                             107    0.74 6  392 210 
 PRA  HZ I         523 10.26         1.6 0.32            103            392 210 
 SJC  HZ EP   4    522 22.67                             106   -1.07 0  415 327 
 SJC  HN ES   4    523  4.60                             106   -3.08 0  415 327 
                                                                                
