 2014  9 2 0631 43.6 L   6.799 -73.158147.4  RSN  5 0.3 1.5LRSN                1
 GAP=141        0.66       4.0     4.6  5.4 -0.9848E+01  0.9860E+01 -0.3410E+01E
 Epicentro: LOS SANTOS - SANTANDER                                             3
 ACTION:UPD 14-10-03 23:01 OP:nd   STATUS:               ID:20140902063143 L   I
 OLDACT:REG 14-09-02 12:55 OP:mh   STATUS:               ID:20140902062811     3
 2014-09-02-0628-11M.COL___260                                                 6
 STAT SP IPHASW D HRMM SECON CODA AMPLIT PERI AZIMU VELO AIN AR TRES W  DIS CAZ7
 BAR2 SZ EP   1    632  3.58                             171    0.15 7 23.0 187 
 BAR2 SZ ES        632 19.09                             171    0.2010 23.0 187 
 BAR2 SZ I         632 20.05         8.7 0.30            170           23.0 187 
 PAM  SZ EP        632  6.10                             151    0.0510 78.3  40 
 PAM  SN ES        632 23.55                             151   -0.0110 78.3  40 
 PAM  SZ I         632 26.35         4.2 0.44            155           78.3  40 
 RUS  HZ EP   1    632  7.17                             144   -0.35 7  101 175 
 RUS  HN ES        632 25.85                             144   -0.3210  101 175 
 RUS  HZ I         632 27.31         2.9 0.15            148            101 175 
 PTB  HZ EP        632 10.28                             133   -0.31 9  146 259 
 PTB  HN ES   1    632 31.36                             133   -0.27 7  146 259 
 PTB  HZ I         632 36.94         3.8 0.40            132            146 259 
 SPBC HZ EP        632 12.59                             130    0.45 9  162 219 
 SPBC HN ES        632 34.65                             130    0.25 9  162 219 
 SPBC HZ I         632 40.43         4.5 0.15            131            162 219 
                                                                                
