 2011 11 2 0411 33.5 L   6.835 -73.226  6.0  RSN  8 0.3 1.9LRSN                1
 GAP=124        0.56       1.4     1.7  4.1  0.3894E+00  0.3519E+01  0.7621E+00E
 Epicentro: ZAPATOCA - SANTANDER                                               3
 ACTION:UPD 12-07-13 16:07 OP:ep   STATUS:               ID:20111102041133 L   I
 2011-11-02-0407-58S.COL___176                                                 6
 STAT SP IPHASW D HRMM SECON CODA AMPLIT PERI AZIMU VELO AIN AR TRES W  DIS CAZ7
 BAR2 SZ IP        411 38.36                              94   -0.1010 27.3 170 
 BAR2 SZ ES   1    411 42.18                              94   -0.17 7 27.3 170 
 BAR2 SZ I         411 42.99       155.6 0.49                          27.3 170 
 BRR  HZ EP        411 43.44                              91    0.0510 61.5 299 
 BRR  HE ES        411 50.86                              91   -0.2610 61.5 299 
 BRR  HZ I         411 51.92        38.6 0.20                          61.5 299 
 PAM  SZ EP        411 46.87                              91    0.0810 80.6  46 
 PAM  SE ES   1    411 56.75                              91   -0.42 7 80.6  46 
 PAM  SZ I         412  1.99        15.3 0.17                          80.6  46 
 RUS  HZ EP        411 50.80                              91    0.2510  105 171 
 RUS  HZ I         411 52.85        17.2 0.14                           105 171 
 OCA  SZ EP   1    411 57.81                              90    0.01 7  156 356 
 OCA  SZ ES   2    412 17.51                              90    0.74 5  156 356 
 OCA  SZ I         412 22.45        24.1 0.41                           156 356 
 ZAR  HZ EP   2    412  3.30                              56    0.45 4  194 292 
 ZAR  HE ES   1    412 26.01                              56    0.24 6  194 292 
 ZAR  HZ I         412 27.52        35.6 0.48                           194 292 
 NOR  SZ EP   2    412  7.35                              56    0.00 4  230 232 
 NOR  SN ES   1    412 33.63                              56   -0.14 6  230 232 
 HEL  HZ EP   1    412 12.43                              56    0.38 6  264 255 
 HEL  HN ES   2    412 41.45                              56   -0.70 4  264 255 
 HEL  HZ I         412 45.53        11.7 0.41                           264 255 
                                                                                
