 2010  4 2 0632 55.4 L   6.843 -73.032140.0  RSN  8 0.4 1.9LRSN                1
 GAP=209        0.67       4.2     8.2  5.5 -0.9308E+01  0.2614E+01  0.4487E+01E
 Epicentro: CEPITA - SANTANDER                                                 3
 ACTION:UPD 10-08-24 09:57 OP:vdl  STATUS:               ID:20100402063255 L   I
 2010-04-02-0630-49S.COL___098                                                 6
 STAT SP IPHASW D HRMM SECON CODA AMPLIT PERI AZIMU VELO AIN AR TRES W  DIS CAZ7
 BAR2 SZ IP        633 14.92                             166     0.410   32 211 
 BAR2 SZ ES   1    633 29.18                             166    -0.3 7   32 211 
 BRR  HZ IP        633 16.65                             149     0.210   81 291 
 BRR  HN ES   1    633 32.93                             149     0.0 7   81 291 
 BRR  HZ I         633 36.93        13.2 0.20                            81 291 
 OCA  SZ EP        633 22.72                             129    -0.3 9  158 348 
 OCA  SZ ES   2    633 44.90                             129     0.4 5  158 348 
 OCA  SZ I         633 48.62        11.9 0.08                           158 348 
 CHI  HZ EP   3    633 33.71                             115     0.0 2  257 198 
 CHI  HE ES   3    634  3.87                             115     0.4 2  257 198 
 CHI  HZ I         634 10.02         2.4 0.47                           257 198 
 ROSC BZ EP        633 33.96                             114    -0.4 8  263 213 
 ROSC BE ES   3    634  5.86                             114     1.1 2  263 213 
 HEL  HZ EP   2    633 37.31                             112     0.5 4  285 256 
 HEL  HE ES   3    634  7.39                             112    -1.7 2  285 256 
 HEL  HZ I         634 13.67         4.8 0.19                           285 256 
 RREF BZ EP   2    633 42.45                             109    -0.3 3  334 230 
 RREF BN ES   2    634 20.33                             109     0.7 3  334 230 
 RREF BZ I         634 25.91         3.3 0.39                           334 230 
 TOL  SZ EP        633 44.82                             107     0.0 6  356 226 
                                                                                
