 2016  7 2 0246 10.6 L   6.790 -73.126145.8  RSN 11 0.3 1.8LRSN                1
 GAP=239        0.72       3.1     3.6  4.3  0.2292E+01  0.5672E+01  0.4258E+01E
 Epicentro: LOS SANTOS - SANTANDER                                             3
 ACTION:UPD 17-03-29 16:45 OP:lp   STATUS:               ID:20160702024610 L   I
 OLDACT:REG 16-07-02 12:51 OP:edw  STATUS:               ID:20160702023739     3
 2016-07-02-0237-39M.COL___331                                                 6
 STAT SP IPHASW D HRMM SECON CODA AMPLIT PERI AZIMU VELO AIN AR TRES W  DIS CAZ7
 BAR2 EZ EP        246 30.14                             171   -0.0610 22.7 196 
 BAR2 EZ ES        246 45.33                             171   -0.1710 22.7 196 
 BAR2 EZ I         246 46.15        14.5 0.22            169           22.7 196 
 BRR  HZ EP        246 32.00                             152    0.1410 73.6 299 
 BRR  HE ES        246 49.09                             152    0.6210 73.6 299 
 RUS  HZ EP        246 34.26                             144    0.0210 99.3 177 
 RUS  HN ES        246 52.65                             144   -0.0510 99.3 177 
 RUS  HZ I         246 53.67         7.5 0.28            144           99.3 177 
 PTB  HZ EP   4    246 36.53                             132   -1.18 0  150 259 
 PTB  HN ES   4    246 57.75                             132   -1.13 0  150 259 
 PTB  HZ I         247  0.63         5.7 0.11            131            150 259 
 SPBC HZ EP        246 38.93                             129   -0.19 9  164 220 
 SPBC HN ES        247  1.24                             129   -0.15 9  164 220 
 SPBC HZ I         247  2.67        11.5 0.18            129            164 220 
 ZAR  HE ES        247  8.00                             122   -0.77 8  206 292 
 NOR  HZ EP        246 46.27                             118   -0.15 8  236 235 
 NOR  HN ES        247 14.46                             118    0.08 8  236 235 
 NOR  HZ I         247 16.47         4.3 0.16            118            236 235 
 CHI  HZ EP        246 48.25                             117    0.03 8  248 196 
 CHI  HN ES        247 17.40                             117   -0.18 8  248 196 
 GUY2CHZ EP        246 54.90                             112    0.60 7  302 235 
 GUY2CHE ES        247 28.19                             112   -0.23 7  302 235 
 GUY2CHZ I         247 36.06         2.6 0.28                           302 235 
 CBOC HZ EP        246 57.76                             110    0.08 7  335 252 
 CBOC HN ES        247 34.72                             110    0.30 7  335 252 
 PRA  HZ EP        247  3.95                             106   -0.15 6  392 210 
 PRA  HE ES        247 46.35                             106    0.49 6  392 210 
 PRA  HZ I         247 50.06         2.6 0.64            107            392 210 
                                                                                
