 2013  1 2 0932 53.3 L   6.684 -73.169145.4  RSN  4 0.2 1.5LRSN                1
 GAP=226        0.52       5.8     3.9  4.7  0.8093E+01  0.2269E+01  0.8902E+01E
 Epicentro: VILLANUEVA - SANTANDER                                             3
 ACTION:UPD 13-02-15 09:11 OP:ep   STATUS:               ID:20130102093253 L   I
 2013-01-02-0930-00M.COL___242                                                 6
 STAT SP IPHASW D HRMM SECON CODA AMPLIT PERI AZIMU VELO AIN AR TRES W  DIS CAZ7
 BAR2 SZ EP        933 12.66                             176   -0.0310 10.2 188 
 BAR2 SZ ES        933 27.62                             176   -0.2010 10.2 188 
 BAR2 SZ I         933 29.30         8.0 0.30            178           10.2 188 
 BRR  HZ EP        933 14.73                             151    0.0410 76.1 308 
 BRR  HN ES        933 31.53                             151    0.1510 76.1 308 
 BRR  HN I         933 35.92         6.3 0.18            149           76.1 308 
 RUS  HZ EP        933 16.38                             147    0.2410 88.0 174 
 PTB  HZ EP        933 19.51                             133   -0.32 9  143 264 
 PTB  HN ES        933 40.62                             133    0.09 9  143 264 
                                                                                
