 2014  1 2 0413 29.7 L   6.817 -73.172143.9  RSN  7 0.6 1.2LRSN                1
 GAP=132        1.38       5.3     8.0  9.3  0.9112E+01 -0.7673E+00  0.5288E+00E
 Epicentro: LOS SANTOS - SANTANDER                                             3
 ACTION:UPD 14-03-13 09:50 OP:ep   STATUS:               ID:20140102041329 L   I
 OLDACT:DUP 14-01-02 11:00 OP:stll STATUS:               ID:20140102040811d    3
 2014-01-02-0408-10M.COL___240                                                 6
 STAT SP IPHASW D HRMM SECON CODA AMPLIT PERI AZIMU VELO AIN AR TRES W  DIS CAZ7
 BAR2 SZ EP        413 48.93                             170   -0.1710 24.8 183 
 BAR2 SZ ES        414  4.32                             170    0.0610 24.8 183 
 BAR2 SZ I         414  5.51         8.3 0.38            170           24.8 183 
 BRR  HZ EP        413 51.02                             153    0.6010 67.8 298 
 BRR  HN ES        414  7.42                             153    0.8110 67.8 298 
 BRR  HZ I         414 11.03         3.8 0.46            151           67.8 298 
 PAM  SZ EP        413 52.15                             150    0.4410 77.9  42 
 PAM  SZ I         413 52.79         1.5 0.18            153           77.9  42 
 RUS  HZ EP        413 53.24                             143   -0.1410  103 175 
 RUS  HZ I         413 54.45         1.4 0.18            144            103 175 
 RUS  HN ES        414 11.00                             143   -0.8810  103 175 
 PTB  HZ EP        413 56.12                             132   -0.13 9  145 258 
 PTB  HN ES        414 16.63                             132   -0.36 9  145 258 
 PTB  HZ I         414 21.77         3.3 0.14            132            145 258 
 SML  HN ES        414 33.00                             117   -1.11 8  241 336 
 CHI  HZ EP        414  7.47                             117    0.10 8  250 194 
 CHI  HZ I         414  9.06         0.7 0.24            118            250 194 
 CHI  HN ES        414 37.37                             117    0.59 8  250 194 
                                                                                
