 2011 11 2 0640  1.2 L   6.814 -73.322117.6  RSN  4 0.2 1.1LRSN                1
 GAP=142        0.47       6.1     8.6  5.7  0.3788E+02 -0.1200E+02 -0.7889E+01E
 Epicentro: ZAPATOCA - SANTANDER                                               3
 ACTION:UPD 12-07-13 16:07 OP:ep   STATUS:               ID:20111102064002dL   I
 2011-11-02-0640-00M.COL___178                                                 6
 STAT SP IPHASW D HRMM SECON CODA AMPLIT PERI AZIMU VELO AIN AR TRES W  DIS CAZ7
 BAR2 SZ EP        640 17.91                             165    0.2710 29.0 148 
 BAR2 SZ I         640 18.10         6.4 0.10                          29.0 148 
 BAR2 SZ ES   1    640 30.31                             165   -0.12 7 29.0 148 
 GIR2 SZ EP        640 17.53                             163   -0.0810 32.6  26 
 BRR  HZ EP        640 18.17                             154   -0.1910 53.9 307 
 BRR  HN ES   1    640 31.89                             154    0.18 7 53.9 307 
 BRR  HZ I         640 33.31         4.6 0.18                          53.9 307 
 RUS  HZ EP   2    640 22.80                             136    0.08 5  105 165 
 RUS  HE ES   2    640 39.25                             136   -0.23 5  105 165 
 RUS  HZ I         640 41.57         1.3 0.28                           105 165 
                                                                                
