 2011  1 2 0204 48.7 L   6.819 -73.111141.0  RSN  7 0.2 1.5LRSN                1
 GAP=162        0.40       2.8     6.6  5.3 -0.6238E+01  0.1003E+02 -0.5147E+01E
 Epicentro: LOS SANTOS - SANTANDER                                             3
 ACTION:UP  11-02-08 08:37 OP:pat  STATUS:               ID:20110102020448 L   I
 2011-01-02-0201-06S.COL___134                                                 6
 STAT SP IPHASW D HRMM SECON CODA AMPLIT PERI AZIMU VELO SNR AR TRES W  DIS CAZ7
 BTL  SZ EP   1    2 5  7.89                             171     0.2 7   21 302 
 BAR2 SZ ES   2    2 5 22.51                             169    -0.3 5   26 198 
 BAR2 SZ I         2 5 23.84        10.1 0.33                            26 198 
 RUS  HZ EP   1    2 5 11.99                             142    -0.2 7  103 178 
 RUS  HN ES   1    2 5 30.51                             142     0.1 7  103 178 
 RUS  HZ I         2 5 31.70         3.1 0.25                           103 178 
 GRA  SZ EP   2    2 5 13.51                             137     0.2 5  123  16 
 GRA  SZ I         2 5 39.04         3.2 0.55                           123  16 
 OCA  SZ EP   1    2 5 16.46                             129    -0.1 7  159 352 
 OCA  SZ I         2 5 41.75         6.2 0.23                           159 352 
 NOR  SN ES   2    2 5 52.71                             117     0.0 4  239 235 
 CHI  HZ EP   1    2 5 26.36                             116    -0.1 6  252 196 
 CHI  HN ES   2    2 5 56.27                             116     0.3 4  252 196 
 CHI  HZ I         2 5 59.31         2.4 0.39                           252 196 
                                                                                
