 2010  3 2 0128 52.0 L   6.794 -73.033148.3  RSN 10 0.3 2.5LRSN                1
 GAP=194        0.69       2.6     4.6  4.3 -0.1010E+00  0.5221E+01  0.1728E+01E
 Epicentro: CEPITA - SANTANDER                                                 3
 ACTION:UP  10-08-24 09:51 OP:vdl  STATUS:               ID:20100302012852 L   I
 2010-03-02-0127-20S.COL___093                                                 6
 STAT SP IPHASW D HRMM SECON CODA AMPLIT PERI AZIMU VELO SNR AR TRES W  DIS CAZ7
 BAR2 SZ IP        129 12.14                             169     0.110   28 217 
 BAR2 SZ ES   1    129 27.40                             169    -0.2 7   28 217 
 BRR  HZ IP        129 14.18                             149     0.110   83 295 
 BRR  HN ES        129 31.44                             149     0.110   83 295 
 BRR  HZ I         129 33.99        81.6 0.04                            83 295 
 RUS  BZ EP        129 15.98                             144     0.110  100 183 
 RUS  BN ES        129 34.55                             144     0.010  100 183 
 RUS  BZ I         129 36.09        49.7 0.49                           100 183 
 OCA  SZ IP        129 20.88                             130     0.2 9  163 349 
 OCA  SZ ES   1    129 42.70                             130    -0.4 7  163 349 
 CHI  HZ EP        129 30.16                             117     0.0 8  252 198 
 CHI  HN ES   1    129 59.62                             117    -0.3 6  252 198 
 CHI  HZ I         130  7.23        12.3 0.95                           252 198 
 HEL  HZ EP   1    129 33.99                             114     0.4 6  284 257 
 HEL  HN ES   1    130  5.70                             114    -0.4 6  284 257 
 HEL  HZ I         130 10.42        12.0 0.32                           284 257 
 RREF BZ EP        129 39.28                             111     0.0 7  331 231 
 RREF BN ES   1    130 16.80                             111     0.7 5  331 231 
 RREF BZ I         130 23.30        23.8 0.11                           331 231 
 TOL  SZ ES   1    130 20.42                             109     0.7 5  352 226 
 DBB  SZ EP        129 40.38                             109    -0.6 6  352 274 
 TOL  SZ EP   1    129 41.63                             109     0.3 5  352 226 
 PRA  HZ EP        129 45.91                             107    -0.3 6  398 211 
 PRA  HE ES   1    130 27.59                             107    -1.0 4  398 211 
                                                                                
