 2017  2 2 0540 49.7 L   6.731 -73.191153.9  RSN  4 0.3 1.2LRSN                1
 GAP=227        0.85       6.9     6.5  6.8  0.2163E+02  0.3932E+01  0.8591E+00E
 Epicentro: VILLANUEVA - SANTANDER                                             3
 ACTION:UPD 17-05-24 15:31 OP:jn   STATUS:               ID:20170202054049 L   I
 OLDACT:REG 17-02-02 13:12 OP:ar   STATUS:               ID:20170202053743     3
 2017-02-02-0538-00M.COL___319                                                 6
 STAT SP IPHASW D HRMM SECON CODA AMPLIT PERI AZIMU VELO AIN AR TRES W  DIS CAZ7
 BAR2 EZ EP        541  9.94                             174   -0.2810 15.4 177 
 BAR2 EZ ES        541 25.69                             174   -0.5110 15.4 177 
 BAR2 EZ I         541 25.99         6.5 0.36            170           15.4 177 
 BRR  HZ EP        541 11.84                             154    0.0810 71.0 306 
 BRR  HN ES        541 29.42                             154    0.4810 71.0 306 
 BRR  HZ I         541 32.17         4.0 0.24            152           71.0 306 
 RUS  HZ EP        541 14.13                             147    0.3110 93.5 173 
 RUS  HN ES        541 32.85                             147    0.2510 93.5 173 
 RUS  HZ I         541 35.45         1.1 0.26            147           93.5 173 
 PTB  HZ EP        541 16.59                             135   -0.25 9  142 261 
 PTB  HN ES        541 37.86                             135   -0.12 9  142 261 
 PTB  HZ I         541 42.57         2.1 0.28            133            142 261 
                                                                                
