 2011  4 2 0731 55.1 L   6.786 -73.117139.9  RSN  8 0.4 1.8LRSN                1
 GAP=161        1.00       7.2     9.0  7.6 -0.3795E+02  0.1065E+02  0.1684E+01E
 Epicentro: LOS SANTOS - SANTANDER                                             3
 ACTION:UP  11-06-22 15:28 OP:REBC STATUS:               ID:20110402073155 L   I
 2011-04-02-0730-18S.COL___138                                                 6
 STAT SP IPHASW D HRMM SECON CODA AMPLIT PERI AZIMU VELO SNR AR TRES W  DIS CAZ7
 BTL  SZ IP        732 14.19                             171     0.210   22 311 
 BTL  SZ ES   2    732 28.52                             171    -0.2 5   22 311 
 BAR2 SZ IP        732 13.93                             170    -0.110   23 199 
 BAR2 SZ ES   1    732 28.17                             170    -0.6 7   23 199 
 BAR2 SZ I         732 29.65        11.9 0.39                            23 199 
 GIR2 SZ EP        732 14.99                             166     0.810   33 345 
 GIR2 SZ ES   2    732 29.46                             166     0.5 5   33 345 
 BRR  HZ IP     C  732 15.72                             150    -0.110   75 298 
 BRR  HZ I         732 15.97        17.3 0.16                            75 298 
 BRR  HN ES   1    732 32.44                             150     0.4 7   75 298 
 PAM  SZ EP   1    732 16.90                             150     0.2 7   77  37 
 PAM  SN ES   2    732 33.07                             150    -0.4 5   77  37 
 GRA  SZ ES   1    732 38.73                             135    -0.5 7  126  16 
 GRA  SZ I         732 40.15         8.6 0.56                           126  16 
 OCA  SZ EP        732 22.79                             128    -0.4 9  162 352 
 OCA  SZ ES   3    732 44.02                             128    -1.0 2  162 352 
 OCA  SZ I         732 47.43         7.1 0.24                           162 352 
 NOR  SZ EP        732 30.36                             117    -0.3 8  236 235 
 NOR  SN ES   1    732 58.26                             117    -0.2 6  236 235 
                                                                                
