 2017  5 2 0734 53.7 L   6.935 -73.104128.0  RSN  4 0.3 1.2LRSN                1
 GAP=134        0.89       4.8     4.4  8.1 -0.2448E+01  0.4830E+01  0.1010E+02E
 Epicentro: PIEDECUESTA - SANTANDER                                            3
 ACTION:UPD 17-06-16 13:32 OP:jn   STATUS:               ID:20170502073453 L   I
 OLDACT:DUP 17-05-02 18:35 OP:edw  STATUS:               ID:20170502072742d    3
 OLDACT:UP  17-05-02 18:34 OP:edw  STATUS:               ID:20170502072741     3
 OLDACT:REG 17-05-02 14:02 OP:edw  STATUS:               ID:20170502072741     3
 2017-05-02-0728-00M.COL___365                                                 6
 STAT SP IPHASW D HRMM SECON CODA AMPLIT PERI AZIMU VELO AIN AR TRES W  DIS CAZ7
 PAM  HZ EP     C  735 13.46                             152    0.3210 63.2  45 
 PAM  HE ES        735 28.53                             152    0.1910 63.2  45 
 BRR  HZ EP     C  735 12.46                             150   -0.3610 69.8 286 
 BRR  HN ES        735 27.33                             150   -0.4410 69.8 286 
 BRR  HZ I         735 28.27         3.9 0.12            149           69.8 286 
 RUS  HZ EP        735 16.60                             136   -0.3110  115 179 
 RUS  HN ES        735 35.07                             136    0.0310  115 179 
 RUS  HZ I         735 36.44         2.5 0.34            136            115 179 
 PTB  HZ EP        735 20.05                             126    0.04 9  156 254 
 PTB  HN ES        735 41.19                             126    0.62 9  156 254 
 PTB  HZ I         735 43.35         1.7 0.32            126            156 254 
                                                                                
