 2016  5 2 0135 32.4 L   6.831 -73.193148.0  RSN  8 0.4 1.6LRSN                1
 GAP=129        0.77       2.6     4.2  5.0 -0.3668E+01  0.5057E+01  0.1415E+00E
 Epicentro: ZAPATOCA - SANTANDER                                               3
 ACTION:UPD 16-08-18 17:41 OP:cam  STATUS:               ID:20160502013532 L   I
 OLDACT:UP  16-05-15 07:29 OP:ar   STATUS:               ID:20160502013532 L   3
 OLDACT:UP  16-05-04 04:57 OP:cara STATUS:               ID:20160502013532 L   3
 OLDACT:REG 16-05-02 13:41 OP:edw  STATUS:               ID:20160502012745     3
 2016-05-02-0127-45M.COL___299                                                 6
 STAT SP IPHASW D HRMM SECON CODA AMPLIT PERI AZIMU VELO AIN AR TRES W  DIS CAZ7
 BAR2 EZ EP        135 52.31                             170   -0.0610 26.4 178 
 BAR2 EZ ES        136  8.24                             170    0.3010 26.4 178 
 BAR2 EZ I         136  9.92         4.4 0.34            170           26.4 178 
 PAM  EZ EP        135 55.30                             151    0.3810 78.3  44 
 PAM  EE ES        136 12.55                             151    0.0810 78.3  44 
 RUS  HZ EP        135 56.42                             144   -0.2410  104 173 
 RUS  HN ES        136 15.34                             144   -0.2310  104 173 
 RUS  HZ I         136 16.45         2.3 0.22            146            104 173 
 PTB  HZ EP        135 58.66                             134   -0.51 9  143 257 
 PTB  HE ES        136 20.18                             134    0.14 9  143 257 
 PTB  HZ I         136 26.29         4.2 0.34            133            143 257 
 OCA  HZ EP        136  0.03                             131   -0.50 9  156 355 
 OCA  HN ES        136 22.55                             131    0.08 9  156 355 
 OCA  HZ I         136 27.19         7.4 0.42            132            156 355 
 SPBC HZ EP        136  1.25                             130    0.22 9  163 217 
 SPBC HN ES        136 23.53                             130    0.17 9  163 217 
 SPBC HZ I         136 25.71         8.3 0.28            131            163 217 
 CHI  HZ EP        136 10.45                             118    0.00 8  251 194 
 CHI  HN ES        136 40.04                             118   -0.08 8  251 194 
 CHI  HZ I         136 43.31         3.3 0.62            119            251 194 
 GUY2CHZ EP   2    136 17.34                             113    1.47 4  299 234 
 GUY2CHE ES   4    136 55.38                             113    5.61 0  299 234 
                                                                                
