 2016 11 2 0508 16.6 L   6.917 -73.167160.1  RSN  4 0.5 1.0LRSN                1
 GAP=209        0.78       6.8     7.2  7.7  0.2595E+02 -0.9937E+01 -0.7293E+01E
 Epicentro: BETULIA - SANTANDER                                                3
 ACTION:UPD 17-10-26 21:03 OP:lp   STATUS:               ID:20161102045648dL   I
 OLDACT:UP  16-11-02 16:16 OP:dani STATUS:               ID:20161102045648dL   3
 OLDACT:DUP 16-11-02 16:11 OP:dani STATUS:               ID:20161102045648dL   3
 OLDACT:DUP 16-11-02 15:57 OP:dani STATUS:               ID:20161102045647dL   3
 OLDACT:UP  16-11-02 15:55 OP:dani STATUS:               ID:20161102045646 L   3
 OLDACT:UP  16-11-02 15:55 OP:dani STATUS:               ID:20161102045646 L   3
 OLDACT:UP  16-11-02 15:55 OP:dani STATUS:               ID:20161102045646 L   3
 OLDACT:UPD 16-11-02 13:22 OP:dnl  STATUS:               ID:20161102045646 L   3
 2016-11-02-0457-00M.COL___343                                                 6
 STAT SP IPHASW D HRMM SECON CODA AMPLIT PERI AZIMU VELO AIN AR TRES W  DIS CAZ7
 BRR  HZ EP        5 8 39.28                             157    0.3710 63.8 289 
 BRR  HN ES        5 8 56.33                             157   -0.0110 63.8 289 
 BRR  HZ I         5 8 57.66         4.4 0.14            158           63.8 289 
 RUS  HZ EP        5 8 42.79                             143    0.1210  114 175 
 RUS  HN ES        5 9  2.79                             143   -0.2410  114 175 
 RUS  HZ I         5 9  4.34         0.6 0.41            144            114 175 
 PTB  HZ EP        5 8 45.01                             135    0.21 9  149 254 
 PTB  HN ES        5 9  6.52                             135   -0.31 9  149 254 
 PTB  HZ I         5 9  7.46         1.3 0.14            136            149 254 
 SJC  HZ EP   2    5 9  9.45                             108   -1.78 3  397 326 
                                                                                
