 2014  8 2 0158 52.6 L   6.753 -73.189146.4  RSN  4 0.4 1.3LRSN                1
 GAP=229        0.98       5.9     8.2  9.3  0.1280E+02  0.8592E+01  0.2273E+01E
 Epicentro: VILLANUEVA - SANTANDER                                             3
 ACTION:UPD 14-09-15 21:46 OP:nd   STATUS:               ID:20140802015852 L   I
 OLDACT:REG 14-08-02 16:05 OP:carl STATUS:               ID:20140802015817     3
 2014-08-02-0158-17M.COL___251                                                 6
 STAT SP IPHASW D HRMM SECON CODA AMPLIT PERI AZIMU VELO AIN AR TRES W  DIS CAZ7
 BRR  HZ EP        159 13.89                             153    0.1210 69.8 304 
 BRR  HN ES        159 30.56                             153    0.3110 69.8 304 
 RUS  HN ES        159 34.05                             145   -0.3610 95.8 173 
 RUS  HZ I         159 35.94         2.7 0.28            143           95.8 173 
 PTB  HZ EP        159 18.82                             133   -0.32 9  142 261 
 PTB  HN ES        159 39.27                             133   -0.55 9  142 261 
 PTB  HZ I         159 43.46         2.2 0.18            131            142 261 
 SPBC HZ EP        159 20.73                             130    0.22 9  156 219 
 SPBC HN ES        159 42.87                             130    0.61 9  156 219 
 SPBC HZ I         159 47.22         2.6 0.20            129            156 219 
                                                                                
