 2013 11 2 0813 25.9 L   6.802 -73.169144.4  RSN  8 0.5 1.3LRSN                1
 GAP=133        1.16       4.7     6.1  7.8  0.1574E+01  0.1052E+02 -0.1135E+01E
 Epicentro: LOS SANTOS - SANTANDER                                             3
 ACTION:UPD 14-01-09 16:24 OP:ep   STATUS:               ID:20131102081325 L   I
 OLDACT:REG 13-11-02 07:22 OP:jn   STATUS:               ID:20131102081000     3
 2013-11-02-0810-00M.COL___273                                                 6
 STAT SP IPHASW D HRMM SECON CODA AMPLIT PERI AZIMU VELO AIN AR TRES W  DIS CAZ7
 BAR2 SZ EP        813 45.45                             170    0.0710 23.2 184 
 BAR2 SZ ES        814  0.34                             170   -0.2210 23.2 184 
 BAR2 SZ I         814  1.65         6.6 0.20            170           23.2 184 
 BRR  HZ EP        813 47.23                             153    0.4510 68.8 299 
 BRR  HN ES        814  3.86                             153    0.8010 68.8 299 
 BRR  HZ I         814  5.23         6.0 0.58            155           68.8 299 
 PAM  SN ES   1    814  4.91                             150   -0.46 7 78.9  41 
 PAM  SZ I         814  8.41         1.9 0.40            153           78.9  41 
 RUS  HZ EP        813 49.58                             143    0.0210  101 175 
 RUS  HN ES        814  7.82                             143   -0.1910  101 175 
 RUS  HZ I         814 10.27         1.6 0.36            144            101 175 
 PTB  HZ EP        813 52.01                             132   -0.53 9  145 259 
 PTB  HN ES        814 12.31                             132   -1.00 9  145 259 
 PTB  HZ I         814 14.25         2.9 0.18            134            145 259 
 SPBC HZ EP        813 54.39                             129    0.22 9  162 218 
 SPBC HN ES        814 16.84                             129    0.63 9  162 218 
 SPBC HZ I         814 22.26         2.7 0.32            130            162 218 
 ZAR  HN ES   2    814 22.94                             122   -0.11 4  202 292 
 SML  HZ EP   1    814  2.22                             117   -0.10 6  242 336 
 SML  HE ES   1    814 30.76                             117    0.04 6  242 336 
                                                                                
