 2017  1 2 0343 42.1 L   6.596 -73.247144.0  RSN  4 0.3 1.1LRSN                1
 GAP=174        0.84       9.1     5.8  6.8  0.1760E+02  0.1182E+02  0.2463E+01E
 Epicentro: CABRERA - SANTANDER                                                3
 ACTION:UPD 17-05-22 15:54 OP:jn   STATUS:               ID:20170102034341 L   I
 OLDACT:UP  17-04-19 19:04 OP:nlst STATUS:               ID:20170102034341 L   3
 OLDACT:DUP 17-01-02 14:56 OP:lv   STATUS:               ID:20170102033310d    3
 2017-01-02-0338-00M.COL___375                                                 6
 STAT SP IPHASW D HRMM SECON CODA AMPLIT PERI AZIMU VELO AIN AR TRES W  DIS CAZ7
 BAR2 EZ EP        344  0.92                             177   -0.3610 7.14  94 
 BAR2 EZ ES        344 16.60                             177    0.3410 7.14  94 
 BRR  HZ EP        344  2.96                             151   -0.3810 76.4 318 
 BRR  HE ES        344 19.98                             151    0.0510 76.4 318 
 BRR  HZ I         344 22.66         2.2 0.28            149           76.4 318 
 PTB  HZ EP        344  8.17                             135    0.5010  134 267 
 PTB  HN ES        344 27.29                             135   -0.3410  134 267 
 ZAR  HZ EP        344 14.62                             122    0.24 9  204 299 
 ZAR  HE ES        344 39.63                             122    0.06 9  204 299 
                                                                                
