 2013  3 2 0024  0.5 L   6.155 -73.755100.8  RSN  4 0.1 1.6LRSN                1
 GAP=188        0.36       2.2     1.7  3.8  0.1448E+01  0.1405E+01  0.1050E+01E
 Epicentro: LANDAZURI - SANTANDER                                              3
 ACTION:UPD 13-04-09 13:59 OP:ep   STATUS:               ID:20130302002400 L   I
 2013-03-02-0018-49M.COL___205                                                 6
 STAT SP IPHASW D HRMM SECON CODA AMPLIT PERI AZIMU VELO AIN AR TRES W  DIS CAZ7
 BAR2 SZ EP        024 18.18                             139    0.1210 79.7  53 
 BAR2 SZ ES        024 31.75                             139    0.0310 79.7  53 
 BAR2 SZ I         024 32.50        15.1 0.26            143           79.7  53 
 RUS  HZ EP        024 18.26                             139   -0.1610 79.9 111 
 RUS  HN ES        024 32.41                             139    0.0410 79.9 111 
 PTB  HZ EP        024 18.63                             135    0.1510 88.4 299 
 PTB  HN ES        024 32.41                             135   -0.0610 88.4 299 
 PTB  HN I         024 35.81         5.4 0.18            137           88.4 299 
 BRR  HZ EP        024 19.89                             130   -0.0910  105   3 
 BRR  HE ES        024 35.13                             130   -0.0310  105   3 
 BRR  HN I         024 36.64        11.9 0.16            133            105   3 
                                                                                
