 2015  3 2 0303 44.4 L   6.827 -73.128142.8  RSN  5 0.3 1.1LRSN                1
 GAP=137        0.67       4.6     3.9  6.2 -0.3258E+01  0.1859E+01 -0.8773E+00E
 Epicentro: LOS SANTOS - SANTANDER                                             3
 ACTION:UPD 15-04-30 16:22 OP:nd   STATUS:               ID:20150302030344 L   I
 OLDACT:REG 15-03-02 12:25 OP:spq  STATUS:               ID:20150302025748     3
 2015-03-02-0257-48M.COL___293                                                 6
 STAT SP IPHASW D HRMM SECON CODA AMPLIT PERI AZIMU VELO AIN AR TRES W  DIS CAZ7
 BAR2 EZ EP   1    3 4  3.60                             169   -0.15 7 26.6 193 
 BAR2 EZ ES   1    3 4 18.48                             169   -0.36 7 26.6 193 
 BAR2 EZ I         3 4 19.56         1.9 0.03            171           26.6 193 
 BRR  HZ EP        3 4  5.17                             152   -0.0810 71.6 296 
 BRR  HE ES   1    3 4 22.26                             152    0.74 7 71.6 296 
 BRR  HZ I         3 4 25.34         5.6 0.14            153           71.6 296 
 PAM  SZ EP     C  3 4  6.17                             151    0.0810 73.9  40 
 PAM  SN ES   1    3 4 22.80                             151   -0.21 7 73.9  40 
 PAM  SZ I         3 4 25.25         1.8 0.28            153           73.9  40 
 RUS  HZ EP   1    3 4  8.39                             142    0.32 7  103 177 
 RUS  HN ES   1    3 4 26.71                             142    0.18 7  103 177 
 RUS  HZ I         3 4 28.23         1.3 0.32            146            103 177 
 PTB  HZ EP   1    3 4 11.25                             131   -0.11 7  150 258 
 PTB  HN ES        3 4 32.12                             131   -0.27 9  150 258 
 PTB  HZ I         3 4 33.09         1.5 0.30            134            150 258 
                                                                                
