 2014 12 2 0728 41.0 L   6.767 -73.130139.9  RSN  9 0.5 1.6LRSN                1
 GAP=140        1.28       4.3     5.2  8.5 -0.3535E+01  0.1183E+02  0.3718E+00E
 Epicentro: LOS SANTOS - SANTANDER                                             3
 ACTION:UPD 15-02-10 16:59 OP:nd   STATUS:               ID:20141202072841 L   I
 OLDACT:REG 14-12-02 13:04 OP:fm   STATUS:               ID:20141202071748     3
 2014-12-02-0717-48M.COL___300                                                 6
 STAT SP IPHASW D HRMM SECON CODA AMPLIT PERI AZIMU VELO AIN AR TRES W  DIS CAZ7
 BAR2 SZ EP        729  0.13                             171    0.2910 20.2 197 
 BAR2 SZ ES        729 14.77                             171    0.2110 20.2 197 
 BAR2 SZ I         729 15.88        14.7 0.20            172           20.2 197 
 BRR  HZ EP     C  729  2.07                             150    0.3810 74.5 300 
 BRR  HN ES        729 18.28                             150    0.4310 74.5 300 
 BRR  HZ I         729 22.96         7.8 0.12            150           74.5 300 
 PAM  SZ EP     C  729  3.21                             149    0.5310 79.1  37 
 PAM  SN ES        729 19.50                             149   -0.1110 79.1  37 
 PAM  SZ I         729 22.63         9.7 0.52            152           79.1  37 
 RUS  HZ EP        729  2.95                             144   -0.9310 96.9 177 
 RUS  HE ES        729 21.96                             144    0.2110 96.9 177 
 RUS  HZ I         729 24.69         4.3 0.40            148           96.9 177 
 PTB  HE ES        729 28.03                             130   -0.29 9  149 260 
 PTB  HZ I         729 31.17         8.1 0.18            132            149 260 
 SPBC HZ EP        729  8.89                             128    0.02 9  162 220 
 SPBC HN ES        729 30.13                             128   -0.50 9  162 220 
 SPBC HZ I         729 35.85         4.8 0.22            131            162 220 
 OCA  HN ES        729 30.14                             128   -1.08 9  164 353 
 OCA  HZ I         729 38.35         3.9 0.24            130            164 353 
 ZAR  HZ EP        729 14.14                             121    0.78 8  207 293 
 ZAR  HN ES        729 38.52                             121   -0.10 8  207 293 
 ZAR  HZ I         729 41.72         4.1 0.10            122            207 293 
 NOR  HE ES        729 43.93                             117    0.07 8  234 235 
 NOR  HZ I         729 46.04         3.2 0.16            120            234 235 
                                                                                
