 2017  2 2 0724 56.1 L   6.767 -73.054150.5  RSN  8 0.3 1.9LRSN                1
 GAP=128        0.81       3.5     4.1  4.6  0.5031E+01  0.3401E+00  0.3451E+01E
 Epicentro: LOS SANTOS - SANTANDER                                             3
 ACTION:UPD 17-05-24 15:31 OP:jn   STATUS:               ID:20170202072456 L   I
 OLDACT:UP  17-02-02 17:59 OP:ar   STATUS:               ID:20170202071744     3
 OLDACT:UP  17-02-02 17:58 OP:ar   STATUS:               ID:20170202071744     3
 OLDACT:REG 17-02-02 13:18 OP:ar   STATUS:               ID:20170202071744     3
 2017-02-02-0718-00M.COL___319                                                 6
 STAT SP IPHASW D HRMM SECON CODA AMPLIT PERI AZIMU VELO AIN AR TRES W  DIS CAZ7
 BAR2 EZ IP     D  725 16.16                             171   -0.1610 23.9 216 
 BAR2 EZ ES        725 32.18                             171    0.1010 23.9 216 
 BAR2 EZ I         725 33.91        28.2 0.32            165           23.9 216 
 PAM  EZ IP        725 18.95                             152    0.2910 74.5  32 
 PAM  EN ES        725 36.25                             152   -0.0010 74.5  32 
 PAM  EZ I         725 38.30        11.6 0.19            159           74.5  32 
 BRR  HZ EP        725 17.99                             150   -0.4010 81.8 297 
 BRR  HN ES        725 35.41                             150   -0.3510 81.8 297 
 BRR  HZ I         725 39.56        14.0 0.10            148           81.8 297 
 RUS  HZ EP        725 20.07                             146    0.0110 96.7 182 
 RUS  HN ES        725 39.12                             146    0.3810 96.7 182 
 RUS  HZ I         725 41.47         7.3 0.44            144           96.7 182 
 PTB  HZ EP   9    725 22.76                             131   -1.54 0  157 261 
 PTB  HN ES        725 44.40                             132   -0.35 9  157 261 
 PTB  HZ I         725 51.15        18.4 0.36            129            157 261 
 ZAR  HZ EP        725 30.36                             122    0.39 8  215 292 
 ZAR  HN ES        725 56.41                             122    0.03 8  215 292 
 ZAR  HZ I         726  2.25         7.8 0.26            122            215 292 
 CHI  HZ EP        725 34.54                             118    0.54 8  248 198 
 CHI  HN ES   4    726  4.79                             118    1.23 0  248 198 
 CHI  HZ I         726 13.41         3.7 0.66            118            248 198 
 PTGC HZ EP        725 39.07                             113   -0.32 7  302 160 
 PTGC HN ES        726 12.48                             113   -0.67 7  302 160 
                                                                                
