 2014  2 2 0905 56.4 L   6.800 -73.179142.3  RSN  6 0.2 1.8LRSN                1
 GAP=198        0.61       2.6     4.4  4.7  0.2254E+01  0.1539E+01 -0.8085E+00E
 Epicentro: LOS SANTOS - SANTANDER                                             3
 ACTION:UPD 14-03-10 08:07 OP:ep   STATUS:               ID:20140202090556 L   I
 OLDACT:REG 14-02-02 07:23 OP:nd   STATUS:               ID:20140202090000     3
 2014-02-02-0900-00M.COL___288                                                 6
 STAT SP IPHASW D HRMM SECON CODA AMPLIT PERI AZIMU VELO AIN AR TRES W  DIS CAZ7
 BAR2 SZ EP        9 6 15.63                             170    0.0110 23.0 181 
 BAR2 SZ ES        9 6 30.64                             170    0.0410 23.0 181 
 BAR2 SZ I         9 6 33.34         7.9 0.36            164           23.0 181 
 RUS  HZ EP        9 6 19.58        17.4 0.13            143   -0.2610  101 174 
 RUS  HZ I         9 6 41.94        17.4 0.13            137            101 174 
 PTB  HZ EP        9 6 22.62                             132   -0.14 9  144 259 
 PTB  HN ES        9 6 43.17                             132   -0.15 9  144 259 
 PTB  HZ I         9 6 51.06         5.0 0.46            131            144 259 
 SML  HZ EP        9 6 32.37                             117   -0.31 8  242 336 
 SML  HN ES        9 7  1.43                             117    0.46 8  242 336 
 SML  HZ I         9 7  3.92         5.4 0.26            116            242 336 
 CHI  HZ EP        9 6 34.08                             116    0.27 8  248 194 
 CHI  HN ES        9 7  3.31                             116    0.32 8  248 194 
 CHI  HZ I         9 7  8.08         7.4 0.64            113            248 194 
 GUY2CHZ EP   4    9 6 40.88                             112    1.37 0  298 234 
 GUY2CHN ES   4    9 7 17.14                             112    4.01 0  298 234 
 GUY2CHZ I         9 7 25.24         2.8 0.70                           298 234 
                                                                                
