 2014 10 2 0818 34.2 L   6.834 -73.116133.6  RSN  7 0.4 1.6LRSN                1
 GAP=203        1.03       4.3     6.3  7.3 -0.3708E+01  0.1010E+02 -0.3768E+01E
 Epicentro: LOS SANTOS - SANTANDER                                             3
 ACTION:UPD 14-11-29 23:45 OP:nd   STATUS:               ID:20141002081834 L   I
 OLDACT:UP  14-10-02 16:46 OP:cam  STATUS:               ID:20141002080815d    3
 OLDACT:DUP 14-10-02 16:43 OP:cam  STATUS:               ID:20141002080815d    3
 2014-10-02-0808-14M.COL___286                                                 6
 STAT SP IPHASW D HRMM SECON CODA AMPLIT PERI AZIMU VELO AIN AR TRES W  DIS CAZ7
 BAR2 SZ EP        818 52.71                             168    0.2310 27.7 195 
 BAR2 SZ ES        819  6.35                             168   -0.3910 27.7 195 
 BAR2 SZ I         819  8.42        13.3 0.36            170           27.7 195 
 BRR  HZ EP        818 54.67                             150    0.5410 72.4 295 
 BRR  HN ES        819  9.78                             150    0.1210 72.4 295 
 BRR  HZ I         819 15.76         5.9 0.38            147           72.4 295 
 PTB  HZ EP     D  818 59.91                             128   -0.68 9  152 258 
 PTB  HN ES        819 20.55                             128   -0.61 9  152 258 
 PTB  HZ I         819 23.16         4.7 0.40            127            152 258 
 OCA  HN ES        819 22.38                             127   -0.01 9  157 352 
 OCA  HN I         819 27.07        16.2 0.20            124            157 352 
 SPBC HZ EP   1    819  2.25                             125   -0.04 7  168 219 
 SPBC HZ I         819 12.69         2.9 0.10            124            168 219 
 SPBC HN ES        819 24.78                             125    0.58 9  168 219 
 ZAR  HZ EP        819  6.01                             119   -0.05 8  206 291 
 ZAR  HE ES        819 31.39                             119    0.48 8  206 291 
 ZAR  HZ I         819 34.90         3.0 0.10            117            206 291 
 SML  HZ EP   1    819  9.53                             115   -0.42 6  242 334 
 SML  HN ES   4    819 39.55                             115    1.72 0  242 334 
 SML  HZ I         819 46.07         4.0 0.30            113            242 334 
                                                                                
