 2012 12 2 0123  7.8 L   6.897 -73.242136.6  RSN  5 0.3 2.1LRSN                1
 GAP=154        0.72       6.7     4.4  9.8  0.9730E+01  0.5454E+01 -0.2610E+02E
 Epicentro: BETULIA - SANTANDER                                                3
 ACTION:UPD 13-01-04 14:25 OP:ep   STATUS:               ID:20121202012307 L   I
 2012-12-02-0120-00M.COL___236                                                 6
 STAT SP IPHASW D HRMM SECON CODA AMPLIT PERI AZIMU VELO AIN AR TRES W  DIS CAZ7
 GIR2 SZ EP        123 26.08                             171   -0.0310 20.8  15 
 BAR2 SZ EP        123 26.36                             165   -0.2410 34.3 169 
 BAR2 SZ ES   1    123 41.19                             165   -0.09 7 34.3 169 
 BAR2 SZ I         123 42.99        55.1 0.27                          34.3 169 
 RUS  HN ES   1    123 50.65                             138    0.53 7  112 171 
 PTB  HZ EP        123 33.33                             131    0.04 9  140 254 
 PTB  HN ES        123 52.81                             131   -0.38 9  140 254 
 PTB  HZ I         123 58.69         8.0 0.05                           140 254 
 ZAR  HN ES        124  2.35                             122    0.42 9  190 290 
                                                                                
