 2017  9 2 0423  7.6 L   6.584 -73.408114.0  RSN  4 0.3 1.2LRSN                1
 GAP=147        0.73       7.4     9.5  7.5  0.6186E+02  0.4856E+02  0.2972E+02E
 Epicentro: HATO - SANTANDER                                                   3
 ACTION:UPD 17-10-05 19:08 OP:rebc STATUS:               ID:20170902042307 L   I
 OLDACT:REG 17-09-02 13:13 OP:dani STATUS:               ID:20170902041742     3
 2017-09-02-0418-00M.COL___399                                                 6
 STAT SP IPHASW D HRMM SECON CODA AMPLIT PERI AZIMU VELO AIN AR TRES W  DIS CAZ7
 BAR2 EZ ES        423 36.25                             167    0.4310 24.9  88 
 BRR  HZ EP        423 24.85                             147   -0.2510 66.9 330 
 BRR  HN ES        423 38.46                             147   -0.3210 66.9 330 
 BRR  HZ I         423 42.42        10.5 0.34            148           66.9 330 
 RUS  HZ EP        423 26.93                             141   -0.1210 84.5 155 
 RUS  HE ES        423 42.14                             141   -0.1110 84.5 155 
 RUS  HZ I         423 42.84         1.1 0.26            145           84.5 155 
 ZAR  HZ EP        423 36.91                             116    0.39 9  189 302 
 ZAR  HN ES        423 59.19                             116    0.09 9  189 302 
 ZAR  HZ I         424  1.07         3.0 0.39            119            189 302 
                                                                                
