 2012 10 2 0423 20.7 L   6.730 -73.552112.6  RSN  4 0.3 1.3LRSN                1
 GAP=133        0.60       6.9     8.9  8.4  0.4617E+02  0.5090E+02  0.3535E+02E
 Epicentro: EL CARMEN DE CHUCURI - SANTANDER                                   3
 ACTION:UPD 12-11-22 17:01 OP:ep   STATUS:               ID:20121002042320 L   I
 2012-10-02-0420-00M.COL___223                                                 6
 STAT SP IPHASW D HRMM SECON CODA AMPLIT PERI AZIMU VELO AIN AR TRES W  DIS CAZ7
 BAR2 SZ EP   1    423 37.52                             157    0.40 7 43.6 110 
 BAR2 SZ ES   1    423 50.24                             157    0.32 7 43.6 110 
 BAR2 SZ I         423 51.69        22.1 0.22                          43.6 110 
 BRR  HZ EP        423 36.72                             156   -0.1310 45.3 337 
 BRR  HN ES   1    423 49.24                             156   -0.20 7 45.3 337 
 BRR  HN I         423 49.74        21.7 0.16                          45.3 337 
 BRR  HZ I         423 51.04         4.6 0.14                          45.3 337 
 RUS  HZ EP   1    423 41.49                             134   -0.37 7  106 151 
 RUS  HN ES   1    423 58.19                             134   -0.16 7  106 151 
 RUS  HN I         423 58.92         1.8 0.16                           106 151 
 RUS  HZ I         423 59.21         1.2 0.20                           106 151 
 HEL  HZ EP   1    423 54.56                             111    0.32 6  227 255 
                                                                                
