 2015  4 2 0032 33.3 L   6.780 -73.176145.8  RSN  6 0.3 1.4LRSN                1
 GAP=134        0.82       3.9     3.7  6.0 -0.2081E+01  0.9696E+01 -0.1855E+01E
 Epicentro: LOS SANTOS - SANTANDER                                             3
 ACTION:UPD 15-06-03 16:51 OP:cam  STATUS:               ID:20150402003233 L   I
 OLDACT:UP  15-04-02 12:54 OP:mh   STATUS:               ID:20150402002746     3
 OLDACT:UP  15-04-02 12:53 OP:mh   STATUS:               ID:20150402002746     3
 OLDACT:UP  15-04-02 12:53 OP:mh   STATUS:               ID:20150402002746     3
 OLDACT:REG 15-04-02 12:31 OP:mh   STATUS:               ID:20150402002746     3
 2015-04-02-0027-46M.COL___283                                                 6
 STAT SP IPHASW D HRMM SECON CODA AMPLIT PERI AZIMU VELO AIN AR TRES W  DIS CAZ7
 BAR2 EZ ES        033  8.46                             171    0.3110 20.7 182 
 BAR2 EZ I         033  9.58         5.3 0.37            171           20.7 182 
 PAM  SZ EP        032 55.37                             150   -0.3810 81.3  40 
 PAM  SN ES        033 13.11                             150   -0.1410 81.3  40 
 PAM  SZ I         033 15.29         3.0 0.68            153           81.3  40 
 RUS  HZ EP        032 57.36                             144    0.4510 98.6 174 
 RUS  HN ES        033 15.22                             144   -0.1010 98.6 174 
 RUS  HZ I         033 16.66         3.2 0.38            146           98.6 174 
 PTB  HZ EP        033  0.07                             133    0.14 9  144 259 
 PTB  HN ES        033 20.27                             133   -0.43 9  144 259 
 PTB  HZ I         033 23.97         2.3 0.14            133            144 259 
 ZAR  HZ EP        033  5.37                             123   -0.14 9  202 293 
 ZAR  HN ES        033 31.18                             123    0.54 9  202 293 
 ZAR  HZ I         033 33.72         3.9 0.30            124            202 293 
 NOR  HZ EP        033  8.69                             119    0.10 8  231 234 
 NOR  HN ES        033 35.74                             119   -0.38 8  231 234 
 NOR  HZ I         033 42.32         2.8 0.16            120            231 234 
                                                                                
