 2010 11 2 0353 15.8 L   6.792 -73.083148.3  RSN 22 0.4 3.4LRSN                1
 GAP=106        0.88       3.1     4.3  5.0 -0.5536E+01  0.1826E+01  0.3292E+01E
 Epicentro: LOS SANTOS - SANTANDER                                             3
 ACTION:UP  10-12-17 16:49 OP:REBC STATUS:               ID:20101102035315 L   I
 2010-11-02-0350-40S.COL___126                                                 6
 STAT SP IPHASW D HRMM SECON CODA AMPLIT PERI AZIMU VELO SNR AR TRES W  DIS CAZ7
 BAR2 SZ IP        353 35.77                             170     0.010   25 207 
 BAR2 SZ ES   1    353 51.19                             170    -0.2 7   25 207 
 BAR2 SZ I         353 52.39       466.2 0.36                            25 207 
 BRR  HZ IP     D  353 37.67                             151     0.010   78 297 
 BRR  HN ES   1    353 54.87                             151     0.2 7   78 297 
 BRR  HZ I         353 58.42       319.4 0.24                            78 297 
 RUS  HZ IP     C  353 39.53                             144    -0.210   99 180 
 RUS  HN ES   1    353 57.98                             144    -0.4 7   99 180 
 RUS  HZ I         353 59.82       218.1 0.34                            99 180 
 GUE  SZ EP        353 40.81                             140     0.110  116   9 
 GRA  SZ IP        353 41.59                             138     0.410  125  14 
 GRA  SZ ES   1    354  1.11                             138     0.1 7  125  14 
 GRA  SZ I         354  2.52       262.7 0.52                           125  14 
 OCA  SZ IP        353 44.15                             130    -0.4 9  162 351 
 OCA  SZ I         354 12.55       375.2 0.33                           162 351 
 YOP  SZ IP        353 46.22                             127     0.5 9  175 155 
 NOR  SZ EP        353 51.41                             118    -0.9 8  240 236 
 NOR  SN ES   1    354 20.35                             118    -0.4 6  240 236 
 ROSC BZ IP     C  353 55.23                             117     0.8 8  256 212 
 ROSC BN ES   2    354 25.27                             117     0.8 4  256 212 
 ROSC BZ I         354 33.77       190.1 0.64                           256 212 
 CVER SZ EP        353 56.98                             115     0.4 8  274 204 
 CVER SZ I         353 58.62       228.3 0.33                           274 204 
 HEL  HZ EP        353 57.03                             115     0.1 7  279 256 
 HEL  HN ES   2    354 28.26                             115    -0.7 4  279 256 
 HEL  HZ I         354 32.32        80.5 0.41                           279 256 
 VIL  SZ EP        353 58.72                             112    -0.5 7  302 191 
 VIL  SE ES   1    354 33.02                             112     0.0 5  302 191 
 VIL  SZ I         354 40.57        77.5 0.22                           302 191 
 GUY  SZ EP        354  0.46                             112     0.3 7  307 236 
 GUY  SE ES   1    354 34.93                             112     0.2 5  307 236 
 GUY  SZ I         354 43.42       236.1 0.42                           307 236 
 RREF HZ EP        354  2.63                             111     0.0 7  326 230 
 RREF HN ES   2    354 38.96                             111    -0.2 3  326 230 
 RREF HZ I         354 44.39       157.5 0.29                           326 230 
 TOL  SZ EP        354  5.12                             109     0.4 6  348 226 
 SDV  BZ IP        354  5.11                             109    -0.3 6  356  49 
 ANIL HZ EP        354  6.34                             108     0.1 6  362 225 
 ANIL HN ES   1    354 45.39                             108    -0.1 5  362 225 
 PRA  HZ EP        354  9.16                             107    -0.6 6  395 211 
 PRA  HN ES   1    354 52.44                             107     0.6 4  395 211 
 GUA  SZ EP   2    354 17.60                             103    -1.3 2  472 174 
 HORQ SZ EP   1    354 26.79                             101    -0.1 3  537 227 
 HORQ SZ I         354 29.03        13.5 0.32                           537 227 
 PCON HZ EP        354 36.44                             100    -0.2 3  615 217 
 POP2 HZ EP        354 35.60                              99    -0.8 3  616 220 
                                                                                
