 2013  5 2 0538 45.9 L   6.754 -73.131152.4  RSN  7 0.4 2.0LRSN                1
 GAP=141        0.95       4.3     5.1  6.9 -0.2654E+01  0.2458E+01 -0.1463E+01E
 Epicentro: LOS SANTOS - SANTANDER                                             3
 ACTION:UPD 13-06-20 09:47 OP:ep   STATUS:               ID:20130502053845 L   I
 2013-05-02-0530-00M.COL___253                                                 6
 STAT SP IPHASW D HRMM SECON CODA AMPLIT PERI AZIMU VELO AIN AR TRES W  DIS CAZ7
 BAR2 SZ EP        539  6.18                             173   -0.0410 18.7 198 
 BAR2 SZ ES   1    539 22.28                             173    0.19 7 18.7 198 
 BAR2 SZ I         539 22.85        14.6 0.21            174           18.7 198 
 GIR2 SZ EP        539  6.24                             166   -0.2410 36.6 349 
 BRR  HZ EP     D  539  8.02                             152    0.0610 75.2 301 
 BRR  HZ I         539  8.47        16.4 0.86            153           75.2 301 
 BRR  HN ES        539 25.68                             152    0.4910 75.2 301 
 PAM  SZ EP        539  8.97                             151   -0.0010 80.4  36 
 PAM  SZ I         539  9.18        24.2 0.20            152           80.4  36 
 PAM  SE ES        539 26.29                             151   -0.7010 80.4  36 
 RUS  HZ EP        539 10.11                             147    0.1910 95.4 177 
 RUS  HN ES        539 28.97                             147    0.2910 95.4 177 
 RUS  HZ I         539 31.42        10.9 0.50            148           95.4 177 
 PTB  HZ EP        539 13.24                             133   -0.21 9  148 261 
 PTB  HN ES        539 34.38                             133   -0.58 9  148 261 
 PTB  HZ I         539 35.81        11.9 0.24            135            148 261 
 OCA  HZ EP   1    539 15.64                             130    0.45 7  166 353 
 OCA  HN ES   1    539 38.77                             130    0.70 7  166 353 
 OCA  HZ I         539 41.90        11.1 0.34            131            166 353 
                                                                                
