 2010  7 2 0615  9.6 L   6.786 -73.083147.2  RSN  6 0.2 1.7LRSN                1
 GAP=163        0.55       2.6     6.3  5.0 -0.4861E+01 -0.8412E+01 -0.2734E+00E
 Epicentro: LOS SANTOS - SANTANDER                                             3
 ACTION:UPD 10-12-01 15:14 OP:pat  STATUS:               ID:20100702061509 L   I
 2010-07-02-0614-00S.COL___118                                                 6
 STAT SP IPHASW D HRMM SECON CODA AMPLIT PERI AZIMU VELO AIN AR TRES W  DIS CAZ7
 BAR2 SZ EP        615 29.28                             170    -0.110   24 207 
 BAR2 SZ ES   1    615 45.24                             170     0.4 7   24 207 
 BRR  HZ EP   1    615 31.13                             150    -0.2 7   78 297 
 BRR  HN ES   1    615 48.24                             150     0.0 7   78 297 
 BRR  HZ I         615 50.68        10.8 0.20                            78 297 
 RUS  HZ EP        615 33.28                             145    -0.110   99 180 
 RUS  HN ES   1    615 51.78                             145    -0.1 7   99 180 
 RUS  HZ I         615 53.18         7.3 0.29                            99 180 
 BRI  SZ EP   2    615 34.32                             142     0.8 5  108  17 
 BRI  SZ ES   2    615 52.11                             142    -0.1 5  108  17 
 GUE  SZ EP        615 34.57                             140     0.110  117   9 
 GRA  SZ EP        615 35.00                             137     0.110  125  14 
 GRA  SZ ES        615 54.47                             137    -0.210  125  14 
                                                                                
