 2017  1 2 0138  7.2 L   6.472 -73.591109.1  RSN  6 0.3 1.4LRSN                1
 GAP=136        0.87       4.8     4.1  7.0  0.1087E+02  0.1131E+02  0.4690E+01E
 Epicentro: SANTA HELENA DEL OPON - SANTANDER                                  3
 ACTION:UPD 17-05-22 15:54 OP:jn   STATUS:               ID:20170102013807 L   I
 OLDACT:DUP 17-01-02 13:18 OP:lv   STATUS:               ID:20170102012742d    3
 2017-01-02-0128-00M.COL___377                                                 6
 STAT SP IPHASW D HRMM SECON CODA AMPLIT PERI AZIMU VELO AIN AR TRES W  DIS CAZ7
 BAR2 EZ EP        138 23.25                             155   -0.0910 47.1  74 
 BAR2 EZ ES        138 35.58                             155   -0.3810 47.1  74 
 BRR  HZ EP        138 24.10                             144   -0.4110 71.5 349 
 BRR  HE ES        138 38.38                             144    0.3410 71.5 349 
 BRR  HZ I         138 43.79         5.4 0.14            147           71.5 349 
 RUS  HZ EP        138 26.31                             139    0.0810 85.2 139 
 RUS  HN ES        138 41.57                             139    0.4610 85.2 139 
 RUS  HZ I         138 43.22         3.0 0.18            147           85.2 139 
 PTB  HZ EP        138 26.11                             135   -0.3610 96.0 275 
 PTB  HN ES        138 41.33                             135   -0.2010 96.0 275 
 PTB  HZ I         138 45.28         7.1 0.10            139           96.0 275 
 ZAR  HZ EP        138 35.12                             116    0.29 9  180 309 
 ZAR  HN ES        138 56.82                             116    0.41 9  180 309 
 ZAR  HZ I         139  0.02         6.4 0.33            121            180 309 
 GUY2CHZ EP   4    138 45.26                             109    3.05 0  240 235 
 GUY2CHE ES   4    139 14.04                             109    4.49 0  240 235 
 GUY2CHZ I         139 16.94         1.3 0.32                           240 235 
                                                                                
