 2011  8 2 0028 22.3 L   6.779 -73.092150.0  RSN 11 0.2 1.9LRSN                1
 GAP=144        0.44       2.2     3.4  3.6 -0.3721E+01  0.1486E+01  0.2018E+01E
 Epicentro: LOS SANTOS - SANTANDER                                             3
 ACTION:UPD 12-07-25 14:05 OP:epov STATUS:               ID:20110802002822 L   I
 2011-08-02-0020-00M.COL___141                                                 6
 STAT SP IPHASW D HRMM SECON CODA AMPLIT PERI AZIMU VELO AIN AR TRES W  DIS CAZ7
 BAR2 SZ EP   1    028 42.43                             171   -0.04 7 22.9 206 
 BAR2 SZ ES   2    028 57.50                             171   -0.67 5 22.9 206 
 BAR2 SZ I         028 58.91        31.7 0.24                          22.9 206 
 PAM  SZ EP   1    028 45.12                             152    0.21 7 75.7  35 
 PAM  SN ES   1    029  2.97                             152    0.46 7 75.7  35 
 BRR  HZ IP     C  028 44.23                             151   -0.0810 77.5 298 
 BRR  HZ I         028 44.47        40.7 0.30                          77.5 298 
 BRR  HN ES   1    029  1.77                             151    0.33 7 77.5 298 
 RUS  HZ EP   1    028 46.16                             145   -0.17 7 98.0 179 
 RUS  HN ES   2    029  5.17                             145    0.13 5 98.0 179 
 RUS  HZ I         029  5.77         8.6 0.46                          98.0 179 
 BRI  SZ EP   1    028 46.51                             142   -0.15 7  109  17 
 GRA  SZ IP        028 47.96                             138   -0.0610  126  15 
 GRA  SZ I         028 49.27         9.8 0.32                           126  15 
 GRA  SZ ES        029  7.86                             138   -0.1810  126  15 
 OCA  SZ EP   2    028 51.55                             130    0.27 5  163 351 
 OCA  SZ ES   2    029 13.61                             130   -0.24 5  163 351 
 OCA  SZ I         029 19.77         8.8 0.53                           163 351 
 NOR  SZ EP   1    028 58.78                             119    0.09 6  238 236 
 NOR  SN ES   2    029 26.89                             119   -0.15 4  238 236 
 CHI  HZ EP   1    029  0.39                             118    0.19 6  248 197 
 CHI  HZ I         029  2.75         2.8 0.50                           248 197 
 CHI  HE ES   2    029 29.83                             118    0.09 4  248 197 
 HEL  HZ EP   2    029  3.55                             115    0.21 4  277 257 
 RREF HZ EP   1    029  8.86                             111   -0.15 5  325 230 
 RREF HN ES   2    029 45.30                             111   -0.11 3  325 230 
 RREF HZ I         029 49.76         2.4 0.36                           325 230 
                                                                                
