 2015  1 2 0651  1.1 L   6.795 -73.152140.7  RSN  9 0.6 1.6LRSN                1
 GAP=182        1.54       4.3     8.2  8.9 -0.2471E+00  0.1076E+02  0.1233E+01E
 Epicentro: LOS SANTOS - SANTANDER                                             3
 ACTION:UPD 15-03-02 15:36 OP:nd   STATUS:               ID:20150102065101 L   I
 OLDACT:REG 15-01-02 13:19 OP:stll STATUS:               ID:20150102064748     3
 2015-01-02-0647-48M.COL___277                                                 6
 STAT SP IPHASW D HRMM SECON CODA AMPLIT PERI AZIMU VELO AIN AR TRES W  DIS CAZ7
 BAR2 EZ EP        651 20.33                             170    0.2110 22.6 189 
 BAR2 EZ ES        651 33.77                             170   -1.1710 22.6 189 
 BAR2 EZ I         651 36.40         9.8 0.28            170           22.6 189 
 BRR  HZ IP     D  651 22.52                             152    0.8310 70.9 299 
 BRR  HZ I         651 22.78         9.8 0.26            150           70.9 299 
 BRR  HN ES        651 38.84                             152    1.0910 70.9 299 
 RUS  HZ EP        651 24.95                             143    0.6310  100 176 
 RUS  HE ES        651 42.68                             143    0.2510  100 176 
 RUS  HZ I         651 43.69         4.0 0.46            144            100 176 
 PTB  HZ EP        651 27.90                             131    0.31 9  147 259 
 PTB  HN ES        651 47.74                             131   -0.51 9  147 259 
 PTB  HZ I         651 49.66         3.6 0.32            130            147 259 
 OCA  HN ES        651 50.40                             128   -0.50 9  161 353 
 OCA  HZ I         651 57.65         6.5 0.30            128            161 353 
 SPBC HZ EP        651 29.57                             128    0.43 9  162 219 
 SPBC HE ES        651 51.14                             128    0.14 9  162 219 
 SPBC HZ I         651 58.35         6.3 0.22            128            162 219 
 NOR  HZ EP        651 36.49                             117    0.04 8  234 234 
 NOR  HN ES        652  3.62                             117   -0.39 8  234 234 
 NOR  HZ I         652  7.71         2.7 0.14            117            234 234 
 SML  HZ EP        651 36.80                             116   -0.68 8  244 336 
 SML  HE ES        652  5.52                             116   -0.33 8  244 336 
 SML  HZ I         652 11.21         4.6 0.22            116            244 336 
 CHI  HZ EP        651 37.63                             116   -0.82 8  248 195 
 CHI  HN ES        652  7.03                             116   -0.54 8  248 195 
 CHI  HZ I         652 13.96         1.6 0.28            116            248 195 
                                                                                
