 2015  1 2 0130 59.1 L   6.678 -73.223147.1  RSN  4 0.5 1.0LRSN                1
 GAP=203        1.28      10.4    11.2 12.7  0.4795E+02  0.5744E+02  0.3044E+01E
 Epicentro: BARICHARA - SANTANDER                                              3
 ACTION:UPD 15-03-02 15:36 OP:nd   STATUS:               ID:20150102013059 L   I
 OLDACT:DUP 15-01-02 13:55 OP:stll STATUS:               ID:20150102012737d    3
 2015-01-02-0127-36M.COL___277                                                 6
 STAT SP IPHASW D HRMM SECON CODA AMPLIT PERI AZIMU VELO AIN AR TRES W  DIS CAZ7
 BAR2 EZ ES        131 33.15                             176   -0.8010 10.5 155 
 BAR2 EZ I         131 34.75         5.0 0.20            171           10.5 155 
 BRR  HZ EP        131 20.25                             152   -0.1410 71.9 311 
 BRR  HN ES        131 37.74                             152    0.7110 71.9 311 
 RUS  HN ES        131 40.57                             148    0.5110 88.2 170 
 RUS  HZ I         131 42.15         1.0 0.24            146           88.2 170 
 PTB  HZ EP        131 25.19                             135   -0.01 9  137 264 
 PTB  HN ES        131 45.30                             135   -0.30 9  137 264 
 PTB  HZ I         131 49.87         1.1 0.48            133            137 264 
                                                                                
