 2010  4 2 0453  3.6 L   6.825 -72.984135.6  RSN  6 0.4 2.1LRSN                1
 GAP=212        0.83       5.2    10.3  7.0 -0.7749E+01  0.5145E+01  0.1083E+01E
 Epicentro: CEPITA - SANTANDER                                                 3
 ACTION:UPD 10-08-24 09:57 OP:vdl  STATUS:               ID:20100402045303 L   I
 2010-04-02-0451-23S.COL___098                                                 6
 STAT SP IPHASW D HRMM SECON CODA AMPLIT PERI AZIMU VELO AIN AR TRES W  DIS CAZ7
 BAR2 SZ IP        453 22.59                             165     0.310   34 221 
 BAR2 SZ ES   1    453 36.28                             165    -0.6 7   34 221 
 BRR  HZ IP        453 24.67                             145     0.010   86 291 
 BRR  HN ES   1    453 41.62                             145     0.6 7   86 291 
 BRR  HZ I         453 42.75        32.5 0.09                            86 291 
 OCA  SZ EP        453 31.27                             127     0.1 9  161 347 
 OCA  SZ ES   2    453 51.83                             127    -0.9 5  161 347 
 OCA  SZ I         453 56.20        32.9 0.32                           161 347 
 CHI  HZ EP   2    453 41.95                             114     0.3 4  256 199 
 CHI  HN ES   2    454 11.41                             114     0.1 4  256 199 
 HEL  HZ EP        453 45.05                             111    -0.3 7  290 256 
 HEL  HZ I         454 22.00         3.6 0.26                           290 256 
 RREF BZ EP   1    453 50.98                             108    -0.1 5  337 231 
 RREF BE ES   3    454 27.03                             108    -1.2 2  337 231 
 RREF BZ I         454 33.05         3.9 0.40                           337 231 
                                                                                
