 2017  1 2 0515 41.4 L   6.759 -73.136140.9  RSN  8 0.3 1.5LRSN                1
 GAP=140        0.89       3.4     3.7  5.9  0.5612E-02  0.7169E+01  0.2082E+01E
 Epicentro: LOS SANTOS - SANTANDER                                             3
 ACTION:UPD 17-05-22 15:54 OP:jn   STATUS:               ID:20170102051541 L   I
 OLDACT:REG 17-01-02 12:33 OP:lv   STATUS:               ID:20170102050744     3
 2017-01-02-0508-00M.COL___369                                                 6
 STAT SP IPHASW D HRMM SECON CODA AMPLIT PERI AZIMU VELO AIN AR TRES W  DIS CAZ7
 BAR2 EZ EP        516  0.38                             172    0.0010 19.1 195 
 BAR2 EZ ES        516 14.94                             172   -0.2310 19.1 195 
 BAR2 EZ I         516 16.29        15.0 0.20            171           19.1 195 
 BRR  HZ EP        516  2.28                             151    0.0610 74.3 301 
 BRR  HE ES        516 19.13                             151    0.6710 74.3 301 
 BRR  HZ I         516 20.86         9.0 0.18            151           74.3 301 
 PAM  EZ EP        516  3.14                             149   -0.1610 80.3  37 
 PAM  EN ES        516 20.34                             149   -0.0310 80.3  37 
 PAM  EZ I         516 22.90         5.2 0.24            152           80.3  37 
 RUS  HZ EP        516  4.68                             144    0.3310 96.0 176 
 RUS  HN ES        516 22.11                             144   -0.1410 96.0 176 
 RUS  HZ I         516 23.78         4.1 0.30            145           96.0 176 
 PTB  HZ EP        516  7.36                             131   -0.64 9  148 261 
 PTB  HN ES        516 28.17                             131   -0.58 9  148 261 
 PTB  HZ I         516 32.91         2.7 0.10            132            148 261 
 ZAR  HZ EP        516 14.10                             121    0.28 8  207 293 
 ZAR  HE ES        516 39.11                             121    0.00 8  207 293 
 ZAR  HZ I         516 41.39         2.7 0.15            122            207 293 
 CHI  HN ES        516 47.52                             116    0.28 8  245 196 
 CHI  HZ I         516 51.74         1.7 0.22            118            245 196 
 GUY2CHZ EP   4    516 26.96                             111    2.36 0  299 236 
 GUY2CHN ES        516 58.62                             111    0.34 7  299 236 
 GUY2CHZ I         517  6.02         1.3 0.22                           299 236 
 SJC  HZ EP   4    516 34.98                             105   -2.35 0  414 327 
 SJC  HN ES   4    517 16.47                             105   -4.48 0  414 327 
                                                                                
