 2017  9 2 0644 17.9 L   6.819 -73.130140.0  RSN  5 0.3 1.2LRSN                1
 GAP=138        0.83       4.5     6.2  6.4  0.6544E+01  0.1363E+02  0.2809E+01E
 Epicentro: LOS SANTOS - SANTANDER                                             3
 ACTION:UPD 17-10-05 19:08 OP:rebc STATUS:               ID:20170902064417 L   I
 OLDACT:UP  17-09-02 16:40 OP:dani STATUS:               ID:20170902063740     3
 OLDACT:UP  17-09-02 16:40 OP:dani STATUS:               ID:20170902063740     3
 OLDACT:REG 17-09-02 13:30 OP:dani STATUS:               ID:20170902063740     3
 2017-09-02-0638-00M.COL___399                                                 6
 STAT SP IPHASW D HRMM SECON CODA AMPLIT PERI AZIMU VELO AIN AR TRES W  DIS CAZ7
 BAR2 EZ EP        644 36.47                             169   -0.3710 25.7 193 
 BAR2 EZ ES        644 51.52                             169   -0.1310 25.7 193 
 BRR  HZ EP        644 38.25                             151   -0.1610 71.8 296 
 BRR  HN ES        644 54.31                             151   -0.1410 71.8 296 
 BRR  HZ I         644 56.90         5.2 0.27            148           71.8 296 
 PAM  EN ES        644 56.25                             151    0.2310 74.7  40 
 RUS  HZ EP        644 40.86                             142   -0.3310  103 177 
 RUS  HE ES        644 59.86                             142    0.4710  103 177 
 RUS  HZ I         645  0.63         1.2 0.31            143            103 177 
 ZAR  HZ EP        644 50.60                             121    0.58 9  205 291 
 ZAR  HE ES   3    645 15.33                             121    0.23 2  205 291 
 ZAR  HZ I         645 19.64         2.4 0.36            120            205 291 
                                                                                
