 2013 10 2 0759 54.9 L   5.770 -73.961108.6  RSN  5 0.4 1.5LRSN                1
 GAP=180        0.93       4.9     4.7  7.3 -0.1179E+02 -0.3077E+01 -0.7338E+01E
 Epicentro: ALBANIA - SANTANDER                                                3
 ACTION:UPD 13-11-25 09:18 OP:ep   STATUS:               ID:20131002075954 L   I
 OLDACT:REG 13-10-02 06:45 OP:nd   STATUS:               ID:20131002075838     3
 2013-10-02-0758-38M.COL___228                                                 6
 STAT SP IPHASW D HRMM SECON CODA AMPLIT PERI AZIMU VELO AIN AR TRES W  DIS CAZ7
 SPBC HZ EP        8 0  9.54                             170   -0.1610 17.9 223 
 SPBC HN ES        8 0 21.42                             170    0.1510 17.9 223 
 SPBC HZ I         8 0 22.20        10.8 0.20            171           17.9 223 
 PTB  HZ EP        8 0 14.07                             134   -0.5210  101 327 
 PTB  HN ES        8 0 29.65                             134   -0.3210  101 327 
 PTB  HZ I         8 0 32.74         4.1 0.28            133            101 327 
 NOR  HZ EP        8 0 15.29                             133    0.4810  103 257 
 NOR  HN ES        8 0 30.37                             133   -0.0010  103 257 
 NOR  HZ I         8 0 32.73         5.6 0.14            134            103 257 
 BAR2 SZ EP        8 0 17.02                             127   -0.1110  125  43 
 BAR2 SZ ES        8 0 34.25                             127   -0.2510  125  43 
 BAR2 SZ I         8 0 35.88        16.0 0.46            129            125  43 
 BRR  HZ EP        8 0 19.44                             121    0.09 9  150  11 
 BRR  HN ES        8 0 39.18                             121    0.73 9  150  11 
 BRR  HZ I         8 0 42.01         6.3 0.16            122            150  11 
                                                                                
