 2010  7 2 0405  2.8 L   6.782 -73.126147.4  RSN  4 0.2 1.4LRSN                1
 GAP=158        0.42       3.6     6.5  6.4  0.2328E+01 -0.1604E+02  0.2417E+01E
 Epicentro: LOS SANTOS - SANTANDER                                             3
 ACTION:UPD 10-12-01 15:14 OP:pat  STATUS:               ID:20100702040502 L   I
 2010-07-02-0403-30S.COL___118                                                 6
 STAT SP IPHASW D HRMM SECON CODA AMPLIT PERI AZIMU VELO AIN AR TRES W  DIS CAZ7
 BAR2 SZ EP   2    4 5 22.40                             171    -0.2 5   22 197 
 BAR2 SZ ES   2    4 5 37.69                             171    -0.4 5   22 197 
 BRR  HZ EP   2    4 5 24.01                             152    -0.3 5   74 299 
 BRR  HN ES   1    4 5 41.20                             152     0.1 7   74 299 
 BRR  HZ I         4 5 42.85         7.7 0.09                            74 299 
 RUS  HZ EP   1    4 5 26.62                             145     0.0 7   99 177 
 RUS  HE ES   2    4 5 45.38                             145     0.3 5   99 177 
 RUS  HZ I         4 5 47.38         2.1 0.28                            99 177 
 BRI  SZ EP   2    4 5 27.15                             141     0.2 5  110  19 
 BRI  SZ ES   2    4 5 45.78                             141     0.0 5  110  19 
                                                                                
