 2014  7 2 0702 42.7 L   6.797 -73.208139.1  RSN  5 0.3 1.3LRSN                1
 GAP=195        0.63       4.2     4.6  5.8  0.6446E+01  0.4633E+01 -0.3960E+01E
 Epicentro: ZAPATOCA - SANTANDER                                               3
 ACTION:UPD 15-03-16 20:40 OP:nd   STATUS:               ID:20140702070242 L   I
 OLDACT:UP  14-07-02 14:43 OP:cam  STATUS:               ID:20140702070000     3
 OLDACT:REG 14-07-02 13:23 OP:cam  STATUS:               ID:20140702070000     3
 2014-07-02-0700-00M.COL___279                                                 6
 STAT SP IPHASW D HRMM SECON CODA AMPLIT PERI AZIMU VELO AIN AR TRES W  DIS CAZ7
 BAR2 SZ EP        7 3  1.58                             170    0.1010 22.8 173 
 BAR2 SZ ES        7 3 16.48                             170    0.3210 22.8 173 
 BAR2 SZ I         7 3 18.62         4.7 0.14            167           22.8 173 
 RUS  HZ EP        7 3  5.67                             142   -0.1210  101 172 
 RUS  HE ES        7 3 23.53                             142   -0.3010  101 172 
 RUS  HZ I         7 3 24.87         1.9 0.34            144            101 172 
 PTB  HZ EP   1    7 3  8.88                             132    0.41 7  141 258 
 PTB  HN ES        7 3 28.41                             132   -0.19 9  141 258 
 PTB  HZ I         7 3 34.31         2.6 0.18            131            141 258 
 SPBC HZ EP   1    7 3 10.43                             128    0.21 7  159 217 
 SPBC HN ES   4    7 3 27.75                             128   -3.97 0  159 217 
 SPBC HZ I         7 3 35.12         3.9 0.26            128            159 217 
 SML  HN ES   1    7 3 46.34                             116   -0.39 6  241 337 
                                                                                
