 2013  2 2 0947 25.6 L   6.785 -73.149149.8  RSN  9 0.4 2.3LRSN 3.0WRSN        1
 SPEC AVERAGE  MO 13.5 ST  5.6 OM  2.2 f0 4.51 R0.3406 AL 2.63 WI 20.6 MW  3.0 3
 SPEC SD       MO  0.2 ST  4.3 OM  0.4 f00.920 R0.0732 AL      WI      MW  0.1 3
 GAP= 71        1.06       3.4     3.5  5.9  0.1184E+01  0.2118E+01  0.1479E+01E
 Epicentro: LOS SANTOS - SANTANDER                                             3
 SPEC ZAR HH N MO 13.6 ST 11.0 OM  1.8 f0 5.85 R0.2513 AL 2.81 WI 28.9 MW  3.0 3
 SPEC ZAR HH N T 94823 K 0.000 GD  253 VS 4.20 DE 3.20 Q0300.0 QA 0.60 VS 4.20 3
 SPEC PTB HH N MO 13.6 ST  2.1 OM  1.9 f0 3.30 R0.4455 AL 1.79 WI 15.5 MW  3.0 3
 SPEC PTB HH N T 94813 K 0.000 GD  209 VS 4.20 DE 3.20 Q0300.0 QA 0.60 VS 4.20 3
 SPEC OCA HH N MO 13.8 ST 11.4 OM  2.1 f0 4.93 R0.2982 AL 2.83 WI 24.2 MW  3.2 3
 SPEC OCA HH N T 94815 K 0.000 GD  220 VS 4.20 DE 3.20 Q0300.0 QA 0.60 VS 4.20 3
 SPEC CHI HH N MO 13.4 ST  1.2 OM  1.5 f0 3.41 R0.4311 AL 2.48 WI 20.0 MW  2.8 3
 SPEC CHI HH N T 94831 K 0.000 GD  288 VS 4.20 DE 3.20 Q0300.0 QA 0.60 VS 4.20 3
 SPEC BRR HH N MO 13.5 ST  6.2 OM  1.9 f0 5.16 R0.2849 AL 3.52 WI 19.7 MW  3.0 3
 SPEC BRR HH N T 948 5 K 0.000 GD  166 VS 4.20 DE 3.20 Q0300.0 QA 0.60 VS 4.20 3
 SPEC BAR2SH Z MO 13.2 ST  1.8 OM  1.6 f0 4.42 R0.3326 AL 2.34 WI 15.6 MW  2.7 3
 SPEC BAR2SH Z T 948 1 K 0.000 GD  151 VS 4.20 DE 3.20 Q0300.0 QA 0.60 VS 4.20 3
 ACTION:UPD 13-03-12 09:29 OP:ep   STATUS:               ID:20130202094725 L   I
 2013-02-02-0938-50M.COL___179                                                 6
 STAT SP IPHASW D HRMM SECON CODA AMPLIT PERI AZIMU VELO AIN AR TRES W  DIS CAZ7
 BAR2 SZ EP        947 45.62                             171   -0.0710 21.7 190 
 BAR2 SZ ES        948  1.49                             171    0.1410 21.7 190 
 BAR2 SZ I         948  3.58        33.5 0.34            171           21.7 190 
 BRR  HZ IP     C  947 47.61                             153    0.3910 71.7 300 
 BRR  HZ I         947 49.08        20.6 0.12            153           71.7 300 
 BRR  HN ES        948  5.20                             153    1.1210 71.7 300 
 PAM  SZ EP        947 48.56                             151    0.2210 78.8  39 
 PAM  SN ES        948  5.28                             151   -0.7910 78.8  39 
 PAM  SN I         948  6.80        15.6 0.46            153           78.8  39 
 RUS  HZ EP        947 49.50                             145   -0.1410 99.0 176 
 RUS  HE ES        948  8.07                             145   -0.3210 99.0 176 
 RUS  HN I         948  9.93        26.9 0.42            146           99.0 176 
 PTB  HZ EP        947 52.53                             133   -0.32 9  147 259 
 PTB  HE ES        948 13.80                             133   -0.30 9  147 259 
 PTB  HE I         948 19.53        38.4 0.30            133            147 259 
 TAM  HZ IP     C  947 53.80                             131    0.20 9  155 104 
 TAM  HE ES        948 15.52                             131    0.09 9  155 104 
 TAM  HE I         948 18.77        10.7 0.54            134            155 104 
 OCA  HZ EP        947 54.51                             130    0.13 9  162 353 
 OCA  HN ES        948 16.70                             130   -0.12 9  162 353 
 OCA  HN I         948 19.80        81.3 0.24            131            162 353 
 ZAR  HZ EP        947 58.25                             123   -0.10 9  204 293 
 ZAR  HE ES        948 23.35                             123   -0.54 9  204 293 
 ZAR  HN I         948 30.04        33.2 0.58            124            204 293 
 CHI  HZ EP        948  3.60                             118    0.25 8  247 195 
 CHI  HN ES        948 32.87                             118    0.07 8  247 195 
 CHI  HN I         948 36.48        12.6 0.46            119            247 195 
                                                                                
