 2010 11 2 0345 40.1 L   6.647 -73.582  8.6  RSN  8 0.5 2.8LRSN                1
 GAP=114        1.12       4.6     6.0 13.1  0.1675E+02  0.2881E+02  0.2780E+02E
 Epicentro: EL CARMEN DE CHUCURI - SANTANDER                                   3
 ACTION:UP  10-12-17 16:49 OP:REBC STATUS:               ID:20101102034540 L   I
 2010-11-02-0343-34S.COL___126                                                 6
 STAT SP IPHASW D HRMM SECON CODA AMPLIT PERI AZIMU VELO SNR AR TRES W  DIS CAZ7
 BAR2 SZ IP        345 47.65                              97    -0.110   45  98 
 BAR2 SZ ES   1    345 53.04                              97    -0.6 7   45  98 
 BAR2 SZ I         345 53.78       664.5 0.20                            45  98 
 BRR  HZ EP        345 48.52                              95    -0.210   53 344 
 BRR  HN ES   1    345 55.05                              95    -0.4 7   53 344 
 BRR  HZ I         345 55.79       477.2 0.16                            53 344 
 RUS  HZ IP     D  345 56.50                              93     0.110  100 146 
 RUS  HZ I         346 11.30        94.3 0.19                           100 146 
 GUE  SZ EP   2    346  4.21                              92     0.5 5  150  29 
 GRA  SZ IP        346  6.31                              92     1.0 9  162  32 
 GRA  SZ ES   2    346 24.72                              92    -0.3 5  162  32 
 GRA  SZ I         346 27.37       178.8 0.50                           162  32 
 OCA  SZ ES   3    346 27.85                              56    -0.9 2  178   9 
 OCA  SZ I         346 34.03       138.2 0.33                           178   9 
 NOR  SE ES   3    346 29.59                              56    -0.7 2  186 230 
 YOP  SZ EP        346  9.14                              56     0.0 9  192 138 
                                                                                
