 2012 10 2 0921 34.6 L   6.786 -73.054147.1  RSN  9 0.3 1.9LRSN                1
 GAP=207        0.51       3.1     4.6  5.0  0.2291E+01  0.3052E+01  0.6070E+01E
 Epicentro: LOS SANTOS - SANTANDER                                             3
 ACTION:UPD 12-11-22 17:01 OP:ep   STATUS:               ID:20121002092134 L   I
 2012-10-02-0920-00M.COL___223                                                 6
 STAT SP IPHASW D HRMM SECON CODA AMPLIT PERI AZIMU VELO AIN AR TRES W  DIS CAZ7
 BAR2 SZ EP   1    921 54.50                             170    0.0210 25.7 214 
 BAR2 SZ ES   1    922  9.63                             170   -0.3210 25.7 214 
 BAR2 SZ I         922 12.24        31.0 0.16                          25.7 214 
 GIR2 SZ EP   1    921 54.54                             166   -0.0610 35.9 335 
 BRR  HZ EP   1    921 56.58                             149    0.0710 81.0 296 
 BRR  HN ES   1    922 13.89                             149    0.3310 81.0 296 
 RUS  HZ EP   1    921 58.22                             144   -0.1810 98.8 182 
 RUS  HE ES   2    922 17.25                             144    0.33 6 98.8 182 
 RUS  HZ I         922 19.56         2.8 0.25                          98.8 182 
 ZAR  HN ES   2    922 33.80                             121   -0.59 5  214 292 
 NOR  SN ES   2    922 39.14                             118   -0.66 5  242 236 
 CHI  HZ EP   1    922 12.64                             117    0.08 7  250 198 
 CHI  HE ES        922 42.31                             117    0.1810  250 198 
 CHI  HZ I         922 49.89         5.7 0.59                           250 198 
 HEL  HN ES   2    922 48.85                             114    0.64 5  282 257 
 PRA  HZ EP   1    922 28.85                             106    0.20 6  396 211 
 PRA  HN ES   2    923 10.08                             106   -0.69 4  396 211 
 PRA  HZ I         923 14.78         4.3 0.24                           396 211 
                                                                                
