 2017  8 2 0622 15.5 L   6.788 -73.098148.9  RSN 10 0.4 1.6LRSN                1
 GAP=222        0.85       4.0     4.1  5.4  0.3983E+01  0.3354E+01  0.5222E+00E
 Epicentro: LOS SANTOS - SANTANDER                                             3
 ACTION:UPD 17-09-04 20:15 OP:rebc STATUS:               ID:20170802062215 L   I
 OLDACT:REG 17-08-02 13:23 OP:osc  STATUS:               ID:20170802061736     3
 2017-08-02-0618-00M.COL___392                                                 6
 STAT SP IPHASW D HRMM SECON CODA AMPLIT PERI AZIMU VELO AIN AR TRES W  DIS CAZ7
 BAR2 EZ IP     D  622 35.62                             171    0.1110 23.6 203 
 BAR2 EZ ES        622 50.52                             171   -0.6010 23.6 203 
 BAR2 EZ I         622 55.84         5.5 0.22            166           23.6 203 
 BRR  HZ EP        622 37.50                             151    0.2110 76.5 298 
 BRR  HE ES        622 54.82                             151    0.5310 76.5 298 
 BRR  HZ I         622 58.14         5.3 0.10            150           76.5 298 
 RUS  HZ EP        622 39.67                             145    0.2210 99.0 179 
 RUS  HN ES        622 58.05                             145   -0.0810 99.0 179 
 RUS  HZ I         622 59.33         2.9 0.22            146           99.0 179 
 PTB  HZ EP   4    622 42.09                             131   -1.08 0  153 260 
 PTB  HE ES        623  4.49                             131   -0.27 9  153 260 
 PTB  HZ I         623 11.26         3.8 0.28            131            153 260 
 SPBC HZ EP        622 44.67                             129    0.21 9  166 221 
 SPBC HE ES        623  7.32                             129    0.26 9  166 221 
 SPBC HZ I         623 14.87         5.6 0.06            130            166 221 
 ZAR  HZ EP        622 48.27                             122   -0.43 8  209 292 
 ZAR  HN ES        623 14.21                             122   -0.40 8  209 292 
 ZAR  HZ I         623 20.17         7.2 0.32            123            209 292 
 NOR  HZ EP        622 52.05                             118    0.26 8  238 235 
 NOR  HE ES        623 20.21                             118    0.11 8  238 235 
 NOR  HZ I         623 25.24         3.0 0.32            120            238 235 
 HEL  HN ES   2    623 28.06                             115   -0.25 4  277 256 
 GUY2CHZ EP   9    623  1.74                             112    2.09 0  305 236 
 GUY2CHE ES        623 35.79                                   -0.40 7  305 236 
 GUY2CHZ I         623 42.39         2.8 0.42                           305 236 
 PTGC HN ES   2    623 31.83                             112   -1.35 4  306 159 
                                                                                
