 2015  2 2 0522 28.1 L   6.818 -73.144142.1  RSN 23 0.7 2.4LRSN                1
 GAP= 71        1.54       3.4     3.5  6.3 -0.2384E+01  0.5293E+01  0.1417E+01E
 Epicentro: LOS SANTOS - SANTANDER                                             3
 ACTION:UPD 15-04-30 21:20 OP:nd   STATUS:               ID:20150202052228 L   I
 OLDACT:REG 15-02-02 13:32 OP:stll STATUS:               ID:20150202051746     3
 2015-02-02-0517-46M.COL___262                                                 6
 STAT SP IPHASW D HRMM SECON CODA AMPLIT PERI AZIMU VELO AIN AR TRES W  DIS CAZ7
 BAR2 EZ IP     D  522 47.62                             169    0.3110 25.4 190 
 BAR2 EZ ES        523  2.13                             169   -0.1810 25.4 190 
 BAR2 EZ I         523  3.67        97.2 0.14            168           25.4 190 
 BRR  HZ IP     D  522 49.50                             152    0.7210 70.4 297 
 BRR  HZ I         522 49.71        53.0 0.22            151           70.4 297 
 BRR  HN ES        523  6.06                             152    1.1210 70.4 297 
 PAM  SZ EP        522 50.49                             151    0.6910 75.7  40 
 PAM  SN ES        523  7.36                             151    0.6210 75.7  40 
 PAM  SZ I         523  9.87        60.1 0.64            154           75.7  40 
 RUS  HZ EP        522 51.06                             143   -0.5610  103 176 
 RUS  HN ES        523  9.54                             143   -0.4410  103 176 
 RUS  HZ I         523 11.20        29.3 0.22            143            103 176 
 PTB  HZ EP        522 54.20                             131   -0.60 9  148 258 
 PTB  HN ES        523 15.13                             131   -0.52 9  148 258 
 PTB  HZ I         523 17.72        36.2 0.44            131            148 258 
 TAM  HZ EP        522 55.92                             130    0.42 9  155 106 
 TAM  HZ I         522 56.13        56.4 0.38            133            155 106 
 TAM  HN ES        523 16.69                             130   -0.19 9  155 106 
 OCA  HZ EP        522 55.91                             129   -0.00 9  158 353 
 OCA  HN ES        523 17.29                             129   -0.34 9  158 353 
 OCA  HZ I         523 20.94        33.6 0.26            130            158 353 
 SPBC HZ EP        522 56.61                             128    0.15 9  165 219 
 SPBC HN ES        523 18.60                             128    0.00 9  165 219 
 SPBC HZ I         523 23.53        41.0 0.20            128            165 219 
 ZAR  HZ EP        523  0.56                             122    0.34 9  203 292 
 ZAR  HN ES        523 25.30                             122    0.00 9  203 292 
 ZAR  HZ I         523 31.90        41.9 0.22            122            203 292 
 NOR  HZ EP        523  4.02                             118    0.28 8  236 234 
 NOR  HN ES        523 31.02                             118   -0.54 8  236 234 
 NOR  HZ I         523 35.51        26.6 0.60            118            236 234 
 SML  HZ EP        523  4.27                             117   -0.03 8  242 335 
 SML  HE ES        523 32.69                             117    0.13 8  242 335 
 SML  HZ I         523 38.05        31.0 0.10            118            242 335 
 CHI  HZ EP        523  5.71                             116   -0.08 8  251 195 
 CHI  HN ES        523 34.37                             116   -0.84 8  251 195 
 CHI  HZ I         523 40.83         8.4 0.28            117            251 195 
 HEL  HZ EP        523  9.50                             114    1.32 8  273 255 
 HEL  HE ES        523 39.38                             114   -0.08 8  273 255 
 HEL  HZ I         523 47.30        11.6 0.40            114            273 255 
 URE  HZ EP        523  8.55                             113   -0.35 7  283 292 
 URE  HE ES        523 38.18                             113   -2.57 7  283 292 
 URE  HZ I         523 44.24        14.5 0.14            113            283 292 
 GUY2CHZ EP     C  523 12.46                             112    0.79 7  303 234 
 GUY2CHN ES        523 45.68                             112    0.01 7  303 234 
 GUY2CHZ I         523 54.20        15.1 0.38                           303 234 
 RREF HZ EP        523 14.45                             110    0.22 7  323 229 
 RREF HE ES        523 49.74                             110   -0.49 7  323 229 
 RREF HZ I         523 58.97        10.2 0.22            111            323 229 
 CBOC HZ EP        523 15.61                             109    0.68 7  334 252 
 CBOC HN ES        523 50.75                             109   -0.73 7  334 252 
 CBOC HZ I         524  3.27         7.3 0.78            110            334 252 
 DBB  SZ EP        523 16.01                             109    0.60 7  340 274 
 TOL  SZ EP        523 16.92                             109    0.55 7  345 224 
 TOL  SE ES        523 54.98                             109    0.94 7  345 224 
 TOL  SZ I         524  3.17         8.5 0.34            109            345 224 
 MON  HZ EP   9    523 15.14                             108   -1.67 0  353 308 
 MON  HN ES        523 52.84                                   -0.31 6  353 308 
 MON  HZ I         523 54.31         7.1 0.20            109            353 308 
 ANIL HN ES        523 57.14                             108    0.33 6  359 224 
 SDV  BZ EP        523 17.11                             108   -0.70 6  359  50 
 SDV  BZ I         523 17.98         6.8 0.20            109            359  50 
 SDV  BN ES        523 54.43                             108   -2.17 6  359  50 
 ORTC HZ EP        523 22.06                             106   -0.02 6  397 216 
 ORTC HE ES        524  3.69                             106   -0.51 6  397 216 
 ORTC HZ I         524  8.61         5.2 0.14            106            397 216 
                                                                                
