 2011  8 2 0209 26.8 L   6.781 -73.128145.1  RSN 16 0.3 2.3LRSN                1
 GAP=140        0.47       1.8     2.8  3.1 -0.2013E+01  0.2550E+01  0.1208E+01E
 Epicentro: LOS SANTOS - SANTANDER                                             3
 ACTION:UPD 12-07-25 14:05 OP:epov STATUS:               ID:20110802020926 L   I
 2011-08-02-0200-00M.COL___141                                                 6
 STAT SP IPHASW D HRMM SECON CODA AMPLIT PERI AZIMU VELO AIN AR TRES W  DIS CAZ7
 BAR2 SZ IP        2 9 46.34                             171   -0.0110 21.7 196 
 BAR2 SZ ES   1    210  1.14                             171   -0.43 7 21.7 196 
 BAR2 SZ I         210  4.11        70.0 0.22                          21.7 196 
 BRR  HZ EP        2 9 48.16                             151    0.0910 73.9 299 
 BRR  HE ES   1    210  5.18                             151    0.56 7 73.9 299 
 BRR  HZ I         210  8.61        48.5 0.30                          73.9 299 
 PAM  SZ EP   1    2 9 49.20                             151    0.19 7 77.9  37 
 PAM  SN ES        210  6.47                             151    0.1710 77.9  37 
 RUS  HZ EP   1    2 9 50.33                             144   -0.03 7 98.3 177 
 RUS  HN ES   2    210  8.55                             144   -0.15 5 98.3 177 
 RUS  HZ I         210 10.12        30.2 0.22                          98.3 177 
 BRI  SZ EP   1    2 9 50.97                             141    0.20 7  110  19 
 GRA  SZ EP        2 9 52.15                             137    0.0010  127  16 
 GRA  SZ ES        210 11.52                             137   -0.3610  127  16 
 GRA  SZ I         210 12.66        22.1 0.42                           127  16 
 OCA  SZ EP   1    2 9 55.07                             129   -0.25 7  163 353 
 OCA  SZ ES   2    210 17.43                             129   -0.10 5  163 353 
 OCA  SZ I         210 21.20        24.1 0.37                           163 353 
 NOR  SZ EP   1    210  2.41                             118   -0.15 6  235 235 
 NOR  SE ES   2    210 30.08                             118   -0.34 4  235 235 
 CHI  HZ EP   1    210  4.43                             117    0.10 6  247 196 
 CHI  HZ I         210  5.05        13.9 0.38                           247 196 
 CHI  HE ES   1    210 34.04                             117    0.47 6  247 196 
 HEL  HZ EP   1    210  6.94                             114   -0.22 6  273 256 
 HEL  HN ES   2    210 38.25                             114   -0.37 4  273 256 
 VIL  SZ EP   1    210 10.28                             112    0.25 5  302 192 
 VIL  SN ES   2    210 43.04                             112   -0.68 4  302 192 
 VIL  SZ I         210 47.37         7.4 0.32                           302 192 
 RREF HZ EP   2    210 13.03                             111    0.07 3  322 230 
 RREF HN ES   2    210 48.98                             111    0.05 3  322 230 
 RREF HZ I         211  0.53        13.5 0.64                           322 230 
 DBB  SZ EP   1    210 14.48                             109   -0.04 5  342 275 
 DBB  SZ ES   2    210 51.97                             109    0.25 3  342 275 
 TOL  SZ EP   1    210 14.94                             109   -0.11 5  343 225 
 PRA  HZ EP   2    210 20.12                             106   -0.11 3  391 210 
 PRA  HN ES   2    211  2.31                             106    0.44 3  391 210 
 SJA  SZ EP   2    210 21.10                             106   -0.08 3  398 193 
                                                                                
