 2012 12 2 0308 18.6 L   6.785 -73.173137.9  RSN  7 0.3 2.0LRSN                1
 GAP=134        0.59       3.5     3.0  5.5  0.2087E+00  0.5520E+01 -0.9660E+00E
 Epicentro: LOS SANTOS - SANTANDER                                             3
 ACTION:UPD 13-01-04 14:25 OP:ep   STATUS:               ID:20121202030818 L   I
 2012-12-02-0300-00M.COL___236                                                 6
 STAT SP IPHASW D HRMM SECON CODA AMPLIT PERI AZIMU VELO AIN AR TRES W  DIS CAZ7
 BAR2 SZ EP   1    3 8 37.14                             171   -0.15 7 21.4 183 
 BAR2 SZ ES   1    3 8 52.11                             171    0.27 7 21.4 183 
 BAR2 SZ I         3 8 53.89        28.0 0.28                          21.4 183 
 GIR2 SZ EP        3 8 37.40                             166   -0.0210 32.5 356 
 PAM  SZ EP        3 8 40.29                             148    0.0510 80.6  40 
 PAM  SZ I         3 8 40.53        27.3 0.25                          80.6  40 
 PAM  SN ES   1    3 8 57.01                             148   -0.07 7 80.6  40 
 RUS  HZ EP        3 8 41.65                             143    0.1210 99.2 174 
 RUS  HE ES   1    3 8 59.35                             143   -0.04 7 99.2 174 
 RUS  HE I         3 9  2.28        18.2 0.51                          99.2 174 
 PTB  HZ EP        3 8 44.22                             131   -0.46 9  144 259 
 PTB  HE ES   1    3 9  4.72                             131   -0.26 7  144 259 
 PTB  HZ I         3 9  8.20        11.1 0.11                           144 259 
 ZAR  HN ES        3 9 15.29                             121    0.19 9  202 293 
 ZAR  HZ I         3 9 21.93         8.1 0.30                           202 293 
 HEL  HZ EP   1    3 8 58.80                             113    0.71 6  269 256 
                                                                                
