 2014  5 2 0111 15.5 L   6.870 -73.180152.0  RSN  7 0.5 1.7LRSN                1
 GAP=129        1.03       5.6     5.5  9.8 -0.5821E+01  0.1054E+02  0.1347E+02E
 Epicentro: ZAPATOCA - SANTANDER                                               3
 OLDACT:REG 14-05-02 12:43 OP:fm   STATUS:               ID:20140502010806     3
 ACTION:UPD 15-03-16 16:54 OP:nd   STATUS:               ID:20140502011115 L   I
 OLDACT:UP  14-05-02 16:36 OP:fm   STATUS:               ID:20140502010806     3
 2014-05-02-0108-06M.COL___239                                                 6
 STAT SP IPHASW D HRMM SECON CODA AMPLIT PERI AZIMU VELO AIN AR TRES W  DIS CAZ7
 BRR  HZ EP   1    111 37.16                             156    0.19 7 64.4 294 
 BRR  HN ES   1    111 53.83                             156    0.12 7 64.4 294 
 BRR  HZ I         112  2.62         8.7 0.34            163           64.4 294 
 PAM  SZ EP   1    111 39.11                             153    0.91 7 74.2  46 
 PAM  SN ES        111 55.68                             153   -0.2310 74.2  46 
 PAM  HZ I         111 57.80        10.0 0.62            165           74.2  46 
 RUS  HZ EP        111 40.25                             143   -0.1910  109 174 
 RUS  HN ES   1    111 59.93                             143    0.03 7  109 174 
 RUS  HZ I         112 14.97         5.9 1.68            146            109 174 
 PTB  HZ EP        111 41.91                             134   -0.90 9  146 256 
 PTB  HN ES   1    112  3.67                             134   -0.44 7  146 256 
 PTB  HZ I         112 11.34         6.2 0.28            141            146 256 
 SPBC HZ EP   1    111 44.82                             130   -0.02 7  167 216 
 SPBC HN ES        112  8.18                             130    0.45 9  167 216 
 SPBC HZ I         112 11.61         4.7 1.06            136            167 216 
 ZAR  HN ES   1    112 13.42                             125    0.58 6  198 290 
 SML  HN ES   4    112 23.05                             120    3.36 0  235 335 
 NOR  HN ES   2    112 20.70                             120    0.65 4  236 232 
 CHI  HE ES   4    112 21.92                             118   -2.57 0  255 194 
 RREF HN ES   4    112 40.58                             112    2.00 0  324 228 
                                                                                
