 2011 10 2 0103  7.5 L   6.791 -73.154133.2  RSN  4 0.2 1.3LRSN                1
 GAP=165        0.38       3.8    12.3  6.7 -0.2486E+02  0.3332E+02 -0.1205E+02E
 Epicentro: LOS SANTOS - SANTANDER                                             3
 ACTION:UPD 12-07-13 16:01 OP:ep   STATUS:               ID:20111002010307 L   I
 2011-10-02-0057-56S.COL___168                                                 6
 STAT SP IPHASW D HRMM SECON CODA AMPLIT PERI AZIMU VELO AIN AR TRES W  DIS CAZ7
 BAR2 SZ EP   2    1 3 25.63                             170   -0.01 5 22.2 188 
 BAR2 SZ ES   2    1 3 40.00                             170    0.25 5 22.2 188 
 BAR2 SZ I         1 3 41.86         4.2 0.05                          22.2 188 
 PAM  SZ EP   2    1 3 28.75                             148    0.23 5 78.7  40 
 PAM  SN ES   2    1 3 44.76                             148   -0.12 5 78.7  40 
 RUS  HZ EP   2    1 3 30.24                             141    0.24 5 99.6 176 
 RUS  HE ES   1    1 3 47.35                             141   -0.18 7 99.6 176 
 RUS  HZ I         1 3 49.56         2.2 0.26                          99.6 176 
 OCA  SZ EP   2    1 3 34.76                             126   -0.23 5  161 353 
 OCA  SZ I         1 3 38.49         4.8 0.45                           161 353 
                                                                                
