 2015  9 2 0945 47.0 L   6.544 -73.536108.3  RSN 14 0.6 1.6LRSN                1
 GAP= 75        1.45       3.0     4.6  7.2 -0.1631E+01  0.1067E+02  0.1012E+01E
 Epicentro: EL CARMEN - SANTANDER                                              3
 ACTION:UPD 15-10-28 16:23 OP:cam  STATUS:               ID:20150902094547 L   I
 OLDACT:UP  15-09-02 17:04 OP:ar   STATUS:               ID:20150902093735     3
 OLDACT:REG 15-09-02 14:18 OP:stll STATUS:               ID:20150902093735     3
 2015-09-02-0937-35M.COL___352                                                 6
 STAT SP IPHASW D HRMM SECON CODA AMPLIT PERI AZIMU VELO AIN AR TRES W  DIS CAZ7
 BAR2 EZ IP     D  946  3.02                             159    0.2910 39.5  82 
 BAR2 EZ ES        946 15.63                             159    0.6310 39.5  82 
 BAR2 EZ I         946 17.04        25.6 0.44            161           39.5  82 
 BRR  HZ EP        946  3.88                             146    0.0410 65.2 343 
 BRR  HN ES        946 17.37                             146    0.4010 65.2 343 
 BRR  HZ I         946 18.32         9.5 0.30            148           65.2 343 
 RUS  HZ EP        946  6.12                             138   -0.0910 87.8 145 
 RUS  HE ES        946 21.15                             138   -0.0510 87.8 145 
 RUS  HZ I         946 23.07         4.4 0.40            140           87.8 145 
 PTB  HZ IP     C  946  5.85                             133   -0.9010  102 270 
 PTB  HZ I         946  6.12        11.6 0.26            134            102 270 
 PTB  HN ES        946 20.71                             133   -1.4410  102 270 
 SPBC HZ EP        946  7.95                             129   -0.1210  115 211 
 SPBC HN ES        946 24.40                             129   -0.1010  115 211 
 SPBC HZ I         946 26.49        11.7 0.10            130            115 211 
 ZAR  HZ EP        946 15.25                             116    0.63 9  180 306 
 ZAR  HN ES        946 35.99                             116   -0.18 9  180 306 
 NOR  HZ EP        946 14.62                             116   -0.43 9  183 234 
 NOR  HN ES        946 38.08                             116    1.15 9  183 234 
 NOR  HZ I         946 43.02         4.6 0.12            116            183 234 
 OCA  HZ EP        946 15.97                             115    0.15 9  189   7 
 OCA  HN ES        946 38.30                             115    0.01 9  189   7 
 CHI  HZ EP        946 17.67                             112   -1.16 8  213 186 
 CHI  HN ES        946 43.33                             112   -0.32 8  213 186 
 GUY2CHZ EP        946 23.90                             108    0.78 8  250 234 
 GUY2CHN ES        946 51.85                             108    0.55 8  250 234 
 GUY2CHZ I         947  1.25         2.6 0.32                           250 234 
 SML  HZ EP        946 22.87                             107   -0.45 8  256 347 
 SML  HN ES        946 51.93                             107    0.29 8  256 347 
 SML  HZ I         946 54.18         7.0 0.10            109            256 347 
 CBOC HZ EP   2    946 27.85                             105    1.07 4  284 255 
 CBOC HZ I         946 28.73         1.8 0.42            106            284 255 
 CBOC HE ES   4    946 57.95                             105    0.14 0  284 255 
 TOL  SN ES        947  0.18                             104    0.10 7  293 222 
 TOL  SZ I         947  4.55         2.1 0.66            105            293 222 
 PRA  HZ EP        946 34.18                             101    0.10 6  347 206 
 PRA  HN ES        947 11.63                             101    0.83 6  347 206 
 PRA  HZ I         947 14.25         2.3 0.20            102            347 206 
                                                                                
