 2014  4 2 0004  7.2 L   6.775 -73.137149.2  RSN  6 0.5 2.3LRSN                1
 GAP=139        0.97       5.5     6.0 10.0 -0.9270E+01  0.8367E+00  0.1637E+02E
 Epicentro: LOS SANTOS - SANTANDER                                             3
 OLDACT:REG 14-04-02 13:26 OP:cam  STATUS:               ID:20140402000005     3
 ACTION:UPD 14-05-13 23:05 OP:nd   STATUS:               ID:20140402000407 L   I
 OLDACT:UP  14-04-02 14:36 OP:fm   STATUS:               ID:20140402000005     3
 OLDACT:UP  14-04-02 14:35 OP:fm   STATUS:               ID:20140402000005     3
 2014-04-02-0000-05M.COL___255                                                 6
 STAT SP IPHASW D HRMM SECON CODA AMPLIT PERI AZIMU VELO AIN AR TRES W  DIS CAZ7
 BRR  HZ EP   1    0 4 29.16                             152    0.27 7 73.4 300 
 BRR  HN ES   1    0 4 46.18                             152    0.41 7 73.4 300 
 BRR  HZ I         0 4 47.04        52.1 0.70            157           73.4 300 
 PAM  SZ EP        0 4 30.27                             151    0.3510 79.0  38 
 PAM  SN ES   1    0 4 46.85                             151   -0.76 7 79.0  38 
 PAM  SZ I         0 4 49.81        35.2 0.60            156           79.0  38 
 RUS  HZ EP   1    0 4 31.51                             145    0.37 7 97.7 176 
 RUS  HN ES   1    0 4 50.00                             145    0.23 7 97.7 176 
 RUS  HZ I         0 4 54.79        39.9 0.72            147           97.7 176 
 PTB  HZ EP   1    0 4 34.29                             133   -0.24 7  148 260 
 PTB  HN ES   1    0 4 55.05                             133   -0.76 7  148 260 
 PTB  HZ I         0 4 58.60        19.8 0.70            137            148 260 
 NOR  HN ES   1    0 5 11.66                             119    0.62 6  234 235 
 CHI  HZ EP   1    0 4 44.06                             118   -0.81 6  246 196 
 CHI  HN ES   1    0 5 13.95                             118   -0.27 6  246 196 
                                                                                
