 2011  7 2 0825 32.8 L   6.754 -73.106146.5  RSN 17 0.3 2.4LRSN                1
 GAP=119        0.65       2.2     3.2  3.9 -0.2366E+01  0.2051E+01  0.1799E+01E
 Epicentro: LOS SANTOS - SANTANDER                                             3
 ACTION:UPD 12-07-25 13:57 OP:epov STATUS:               ID:20110702082532 L   I
 2011-07-02-0824-00S.COL___140                                                 6
 STAT SP IPHASW D HRMM SECON CODA AMPLIT PERI AZIMU VELO AIN AR TRES W  DIS CAZ7
 BAR2 SZ EP        825 52.59                             172    0.1310 19.7 205 
 BAR2 SZ I         825 52.96        48.2 0.15                          19.7 205 
 BAR2 SZ ES   1    826  7.55                             172   -0.24 7 19.7 205 
 BTL  SZ EP        825 52.79                             170    0.2110 25.5 316 
 GIR2 SZ EP   1    825 52.79                             165    0.05 7 37.2 345 
 BRR  HZ EP        825 54.53                             151    0.1310 77.5 300 
 BRR  HE ES        826 11.84                             151    0.5910 77.5 300 
 BRR  HZ I         826 14.34        62.8 0.14                          77.5 300 
 PAM  SZ EP   1    825 54.88                             151   -0.31 7 78.8  35 
 PAM  SE ES   1    826 12.45                             151   -0.20 7 78.8  35 
 RUS  HZ EP        825 56.42                             145    0.1610 95.3 178 
 RUS  HN ES   1    826 14.21                             145   -0.34 7 95.3 178 
 RUS  HZ I         826 16.67        22.6 0.26                          95.3 178 
 BRI  SZ EP   2    825 57.17                             141    0.14 5  112  18 
 GRA  SZ EP        825 58.34                             136   -0.0910  129  15 
 GRA  SZ ES   1    826 17.75                             136   -0.66 7  129  15 
 GRA  SZ I         826 19.11        34.2 0.35                           129  15 
 OCA  SZ EP        826  1.65                             129   -0.06 9  166 352 
 OCA  SZ ES   1    826 24.08                             129   -0.17 7  166 352 
 OCA  SZ I         826 30.95        28.6 0.21                           166 352 
 YOP  SZ EP   1    826  3.02                             128    0.75 7  172 154 
 YOP  SZ I         826  3.53        11.9 0.20                           172 154 
 NOR  SZ EP   1    826  8.48                             119   -0.17 6  235 236 
 NOR  SE ES   1    826 36.37                             119   -0.24 6  235 236 
 CHI  HZ EP   1    826 10.54                             118    0.40 6  245 196 
 CHI  HN ES   1    826 39.15                             118   -0.12 6  245 196 
 CHI  HZ I         826 48.43        14.1 0.80                           245 196 
 HEL  HZ EP   1    826 13.14                             115   -0.25 6  275 257 
 HEL  HN ES   1    826 44.99                             115   -0.06 6  275 257 
 HEL  HZ I         826 50.95        14.0 0.31                           275 257 
 RREF HZ EP   1    826 18.36                             111   -0.63 5  322 231 
 RREF HN ES   1    826 54.71                             111   -0.30 5  322 231 
 RREF HZ I         827  4.39        20.4 0.32                           322 231 
 TOL  SZ EP   2    826 21.80                             109    0.77 3  343 226 
 DBB  SZ EP   1    826 20.74                             109   -0.12 5  344 275 
 PRA  HZ EP   1    826 26.04                             107   -0.05 4  390 210 
 PRA  HN ES   1    827  7.07                             107   -0.58 4  390 210 
                                                                                
