 2016 12 2 0517 25.7 L   6.675 -73.094140.9  RSN  4 0.2 1.4LRSN                1
 GAP=234        0.63       8.4     3.6  7.2 -0.1557E+02 -0.2456E+01  0.2916E+02E
 Epicentro: JORDAN - SANTANDER                                                 3
 ACTION:UPD 17-01-11 20:11 OP:rebc STATUS:               ID:20161202051725 L   I
 OLDACT:REG 16-12-02 12:31 OP:dnl  STATUS:               ID:20161202050742     3
 2016-12-02-0508-00M.COL___337                                                 6
 STAT SP IPHASW D HRMM SECON CODA AMPLIT PERI AZIMU VELO AIN AR TRES W  DIS CAZ7
 BRR  HZ IP     C  517 47.15                             148    0.1110 83.4 305 
 BRR  HN ES        518  3.75                             148    0.0410 83.4 305 
 BRR  HZ I         518  7.53         3.9 0.28            137           83.4 305 
 PAM  EZ EP        517 48.24                             147    0.3710 85.4  31 
 PAM  EN ES        518  4.91                             147   -0.2810 85.4  31 
 PAM  EZ I         518  5.58         2.7 0.38            140           85.4  31 
 PTB  HZ EP        517 52.17                             130   -0.41 9  151 264 
 PTB  HN ES        518 13.74                             130    0.17 9  151 264 
 PTB  HZ I         518 15.28         4.0 0.16            126            151 264 
 ZAR  HZ EP   2    517 58.76                             120   -0.17 4  215 295 
 ZAR  HE ES        518 24.85                             120   -0.02 8  215 295 
 ZAR  HZ I         518 32.21         2.9 0.58            115            215 295 
                                                                                
