 2012  2 2 0245  7.5 L   6.792 -73.175153.5  RSN  9 0.4 1.7LRSN                1
 GAP=178        0.80       5.0     5.2  8.5  0.3922E+01 -0.4306E+01 -0.1611E+01E
 ACTION:UP  12-03-07 16:26 OP:epov STATUS:               ID:20120202024507 L   I
 2012-02-02-0240-00M.COL___187                                                 6
 STAT SP IPHASW D HRMM SECON CODA AMPLIT PERI AZIMU VELO SNR AR TRES W  DIS CAZ7
 BAR2 SZ EP        245 27.94                             171   -0.0610 22.1 182 
 BAR2 SZ I         245 44.46        13.6 0.15                          22.1 182 
 GIR2 SZ EP   1    245 28.02                             168   -0.05 7 31.8 356 
 BRR  HZ EP   1    245 29.92                             155    0.59 7 68.9 300 
 BRR  HE ES   1    245 46.86                             155    0.48 7 68.9 300 
 BRR  HZ I         245 49.67        12.4 0.19                          68.9 300 
 RUS  HZ EP   1    245 31.52                             146   -0.42 7 99.9 174 
 RUS  HN ES   1    245 50.74                             146   -0.29 7 99.9 174 
 RUS  HZ I         245 52.28         5.7 0.36                          99.9 174 
 PTB  HZ EP        245 34.66                             134   -0.12 9  144 259 
 PTB  HN ES   1    245 55.95                             134   -0.14 7  144 259 
 OCA  SZ EP   1    245 36.57                             131    0.13 7  161 354 
 ZAR  HN ES   1    246  4.78                             124   -0.88 6  201 293 
 NOR  SE ES   1    246 11.95                             120    0.66 6  232 234 
 CHI  HZ EP   1    245 45.76                             119    0.34 6  247 195 
 CHI  HZ I         246 18.70         2.9 0.34                           247 195 
                                                                                
