 2015  3 2 0630 57.5 L   6.791 -73.162148.0  RSN  8 0.4 1.2LRSN                1
 GAP=135        0.87       3.0     4.3  5.6 -0.2002E+01  0.2864E+01  0.3828E-01E
 Epicentro: LOS SANTOS - SANTANDER                                             3
 ACTION:UPD 15-04-30 16:22 OP:nd   STATUS:               ID:20150302063057 L   I
 OLDACT:REG 15-03-02 12:48 OP:spq  STATUS:               ID:20150302062737     3
 2015-03-02-0627-37M.COL___290                                                 6
 STAT SP IPHASW D HRMM SECON CODA AMPLIT PERI AZIMU VELO AIN AR TRES W  DIS CAZ7
 BAR2 EZ EP        631 17.35                             171   -0.0310 22.1 186 
 BAR2 EZ ES   1    631 32.48                             171   -0.40 7 22.1 186 
 BAR2 EZ I         631 33.85         2.2 0.12            171           22.1 186 
 BRR  HZ EP        631 18.96                             153    0.1310 70.2 300 
 BRR  HE ES        631 36.13                             153    0.6610 70.2 300 
 BRR  HZ I         631 37.20         3.3 0.40            154           70.2 300 
 PAM  SZ EP     C  631 20.14                             151    0.0710 79.3  40 
 PAM  SE ES        631 37.48                             151   -0.1910 79.3  40 
 PAM  SZ I         631 39.27         3.7 0.50            151           79.3  40 
 RUS  HZ EP   1    631 21.45                             144    0.04 7 99.7 175 
 RUS  HN ES   1    631 39.95                             144   -0.11 7 99.7 175 
 RUS  HZ I         631 41.00         1.7 0.34            145           99.7 175 
 PTB  HZ EP        631 24.26                             133   -0.22 9  146 259 
 PTB  HE ES        631 44.98                             133   -0.54 9  146 259 
 PTB  HZ I         631 45.36         2.9 0.24            133            146 259 
 SPBC HN ES        631 48.29                             130    0.07 9  161 219 
 SPBC HZ I         631 50.67         2.9 0.40            130            161 219 
 SML  HZ EP        631 33.59                             118   -0.69 8  244 336 
 SML  HN ES        632  3.35                             118    0.39 8  244 336 
 SML  HZ I         632  5.47         2.1 0.28            119            244 336 
 CHI  HZ EP        631 35.75                             118    0.58 8  247 195 
 CHI  HN ES   1    632  4.69                             118    0.14 6  247 195 
 CHI  HZ I         632  8.16         0.8 0.36            118            247 195 
                                                                                
