 2012  5 2 0310 20.1 L   6.596 -73.110180.8  RSN  7 0.3 1.8LRSN                1
 GAP=227        0.80       9.0     8.1  7.6  0.4942E+02  0.7221E+01 -0.1025E+02E
 Epicentro: SAN GIL - SANTANDER                                                3
 ACTION:UP  12-07-05 12:01 OP:pat  STATUS:               ID:20120502031020 L   I
 2012-05-02-0310-00M.COL___189                                                 6
 STAT SP IPHASW D HRMM SECON CODA AMPLIT PERI AZIMU VELO SNR AR TRES W  DIS CAZ7
 BAR2 SZ EP   1    310 43.43                             177    -0.3 7    8 267 
 BAR2 SZ ES   1    311  1.77                             177    -0.4 7    8 267 
 BAR2 SZ I         311  2.97        15.1 0.18                             8 267 
 RUS  HZ EP   1    310 46.09                             156     0.0 7   78 178 
 RUS  HN ES   1    311  6.52                             156     0.1 7   78 178 
 RUS  HZ I         311  8.43         7.3 0.26                            78 178 
 BRR  HZ EP   1    310 46.47                             153     0.6 7   87 310 
 BRR  HN ES   1    311  6.37                             153     0.3 7   87 310 
 BRR  HZ I         311  9.34         7.3 0.13                            87 310 
 PTB  HZ EP   1    310 50.46                             139     0.3 7  149 268 
 PTB  HN ES   1    311 13.68                             139     0.0 7  149 268 
 PTB  HZ I         311 14.84         2.3 0.09                           149 268 
 ZAR  HN ES   1    311 24.77                             127     0.3 6  217 297 
 ZAR  HZ I         311 32.41         5.1 0.16                           217 297 
 URE  HZ EP   1    311  4.04                             119    -0.4 5  297 296 
 URE  HN ES   1    311 38.40                             119    -0.6 5  297 296 
 URE  HZ I         311 39.65         3.8 0.19                           297 296 
 MON  HZ I         311 50.70         1.3 0.56                           371 311 
 MON  HN ES   1    311 53.18                             113    -0.3 5  371 311 
                                                                                
