 2012 11 2 0749  6.8 L   6.760 -73.117139.4  RSN  4 0.3 1.6LRSN                1
 GAP=142        0.62       4.3     7.7  7.0  0.4493E+01  0.1515E+01 -0.8268E+01E
 Epicentro: LOS SANTOS - SANTANDER                                             3
 ACTION:UPD 12-12-05 15:30 OP:}ep  STATUS:               ID:20121102074906 L   I
 2012-11-02-0747-36M.COL___191                                                 6
 STAT SP IPHASW D HRMM SECON CODA AMPLIT PERI AZIMU VELO AIN AR TRES W  DIS CAZ7
 BAR2 SZ EP        749 25.60                             171   -0.0210 19.9 201 
 BAR2 SZ ES   1    749 39.71                             171   -0.57 7 19.9 201 
 BRR  HZ EP        749 27.43                             150   -0.1510 76.1 300 
 BRR  HN ES   2    749 44.49                             150    0.72 5 76.1 300 
 BRR  HN I         749 44.62        13.6 0.20                          76.1 300 
 PAM  SZ EP   1    749 28.58                             149    0.12 7 79.0  36 
 PAM  SN ES   2    749 45.49                             149    0.15 5 79.0  36 
 PAM  SN I         749 46.39        10.5 0.46                          79.0  36 
 RUS  HZ EP   1    749 29.64                             144    0.02 7 96.0 178 
 RUS  HN ES        749 47.59                             144    0.2010 96.0 178 
 RUS  HN I         749 49.29         3.8 0.18                          96.0 178 
                                                                                
