 2015  9 2 0415 12.1 L   5.854 -73.811106.6  RSN  6 0.4 1.1LRSN                1
 GAP= 89        1.15       3.5     4.8  8.4 -0.2863E+00 -0.1099E+01 -0.1920E+01E
 Epicentro: JESUS MARIA - SANTANDER                                            3
 ACTION:UPD 15-10-28 16:23 OP:cam  STATUS:               ID:20150902041512 L   I
 OLDACT:REG 15-09-02 13:57 OP:stll STATUS:               ID:20150902040749     3
 2015-09-02-0407-49M.COL___361                                                 6
 STAT SP IPHASW D HRMM SECON CODA AMPLIT PERI AZIMU VELO AIN AR TRES W  DIS CAZ7
 SPBC HZ EP        415 27.43                             160    0.1210 36.5 232 
 SPBC HN ES        415 39.29                             160    0.1310 36.5 232 
 SPBC HZ I         415 41.72         6.8 0.32            159           36.5 232 
 RUS  HZ EP        415 30.71                             140    0.1110 80.7  87 
 RUS  HE ES        415 44.80                             140   -0.2310 80.7  87 
 RUS  HZ I         415 46.59         2.4 0.20            144           80.7  87 
 PTB  HZ EP        415 31.76                             132   -0.1810  104 317 
 PTB  HN ES        415 47.05                             132   -0.3510  104 317 
 PTB  HZ I         415 50.30         2.2 0.20            134            104 317 
 BAR2 EZ EP        415 32.39                             131   -0.1310  107  40 
 BAR2 EZ ES        415 48.26                             131   -0.1710  107  40 
 CHI  HZ EP        415 36.11                             124    0.62 9  136 176 
 CHI  HZ I         415 37.30         2.8 0.20            126            136 176 
 CHI  HE ES        415 53.51                             124   -0.22 9  136 176 
 BRR  HZ EP        415 34.58                             123   -0.71 9  139   4 
 BRR  HN ES        415 54.46                             123    1.08 9  139   4 
                                                                                
