 2013  3 2 0323 32.2 L   6.809 -73.108149.3  RSN  7 0.4 2.0LRSN                1
 GAP=141        1.14       4.8     8.1  9.2  0.1120E+01  0.1467E+02  0.1318E+02E
 Epicentro: LOS SANTOS - SANTANDER                                             3
 ACTION:UPD 13-04-09 13:59 OP:ep   STATUS:               ID:20130302032332 L   I
 2013-03-02-0318-35M.COL___199                                                 6
 STAT SP IPHASW D HRMM SECON CODA AMPLIT PERI AZIMU VELO AIN AR TRES W  DIS CAZ7
 BAR2 SZ EP        323 52.25                             170    0.0010 25.3 199 
 BAR2 SZ I         323 52.60        16.5 0.34            155           25.3 199 
 PAM  SZ EP        323 54.90                             153    0.3510 74.0  38 
 PAM  SN ES        324 11.95                             153   -0.0710 74.0  38 
 PAM  SN I         324 13.69        16.5 0.44            154           74.0  38 
 BRR  HZ EP        323 54.34                             152    0.4810 74.4 296 
 BRR  HN ES        324 11.37                             152    0.5710 74.4 296 
 BRR  HN I         324 19.23        17.3 0.16            136           74.4 296 
 RUS  HZ EP        323 56.56                             144    0.2610  101 178 
 RUS  HN ES        324 14.66                             144   -0.4810  101 178 
 RUS  HN I         324 16.56         8.9 0.40            139            101 178 
 PTB  HZ EP        323 59.04                             132   -0.75 9  152 259 
 PTB  HN I         324 25.85        15.1 0.34            121            152 259 
 OCA  HN ES        324 22.32                             130   -0.64 9  160 352 
 OCA  HN I         324 26.12        30.1 0.34            124            160 352 
 CHI  HZ EP        324 10.39                             118    0.12 8  251 196 
                                                                                
