 2014 12 2 0147 28.6 L   6.747 -73.216142.3  RSN  6 0.4 1.4LRSN                1
 GAP=222        1.09       5.8     6.8  7.8  0.2090E+02  0.1402E+02  0.4971E+01E
 Epicentro: VILLANUEVA - SANTANDER                                             3
 ACTION:UPD 15-02-10 16:59 OP:nd   STATUS:               ID:20141202014728 L   I
 OLDACT:DUP 14-12-02 14:02 OP:fm   STATUS:               ID:20141202013746d    3
 2014-12-02-0137-45M.COL___300                                                 6
 STAT SP IPHASW D HRMM SECON CODA AMPLIT PERI AZIMU VELO AIN AR TRES W  DIS CAZ7
 BAR2 SZ EP        147 47.17                             173   -0.5010 17.5 168 
 BAR2 SZ ES        148  2.31                             173   -0.2710 17.5 168 
 BAR2 SZ I         148  4.72         6.8 0.26            169           17.5 168 
 BRR  HZ EP        147 48.56                             153   -0.5810 67.7 306 
 BRR  HE ES        148  5.62                             153    0.4210 67.7 306 
 BRR  HZ I         148  9.01         6.6 0.50            153           67.7 306 
 RUS  HZ EP        147 52.37                             144    0.7510 95.6 171 
 RUS  HN ES        148  9.84                             144    0.2410 95.6 171 
 RUS  HZ I         148 11.41         4.2 0.26            144           95.6 171 
 PTB  HZ EP        147 54.51                             133    0.05 9  139 261 
 PTB  HN ES        148 14.72                             133    0.06 9  139 261 
 PTB  HZ I         148 17.48         2.7 0.14            132            139 261 
 ZAR  HZ EP        148  0.71                             122    0.43 9  199 295 
 ZAR  HN ES        148 24.82                             122   -0.20 9  199 295 
 ZAR  HZ I         148 27.92         3.7 0.16            123            199 295 
 CHI  HZ EP   4    148  0.12                             117   -5.12 0  241 194 
 CHI  HN ES        148 33.33                             117   -0.52 8  241 194 
 CHI  HZ I         148 41.04         1.8 0.24            118            241 194 
                                                                                
