 2012  8 2 0857 48.3 L   6.777 -73.161150.0  RSN  6 0.4 1.3LRSN                1
 GAP=136        0.80       5.8     5.5  8.6  0.7134E+01  0.1628E+02  0.7109E+01E
 Epicentro: LOS SANTOS - SANTANDER                                             3
 ACTION:UPD 12-09-10 11:53 OP:ep   STATUS:               ID:20120802085748 L   I
 2012-08-02-0850-00M.COL___215                                                 6
 STAT SP IPHASW D HRMM SECON CODA AMPLIT PERI AZIMU VELO AIN AR TRES W  DIS CAZ7
 BAR2 SZ EP   2    858  8.34                             172   -0.04 5 20.5 187 
 BAR2 SZ ES   1    858 23.68                             172   -0.36 7 20.5 187 
 BAR2 SZ I         858 25.43         4.8 0.45                          20.5 187 
 BRR  HZ EP   1    858 10.28                             153    0.40 7 71.0 301 
 BRR  HZ I         858 10.49         6.2 0.15                          71.0 301 
 BRR  HE ES   1    858 27.55                             153    0.82 7 71.0 301 
 PAM  SN ES   1    858 28.54                             151   -0.42 7 80.4  39 
 RUS  HZ EP   1    858 12.49                             145    0.20 7 98.2 175 
 RUS  HN ES   1    858 31.19                             145    0.18 7 98.2 175 
 RUS  HZ I         858 33.73         2.0 0.39                          98.2 175 
 PTB  HZ EP   1    858 15.10                             133   -0.31 7  146 260 
 PTB  HN ES   1    858 36.11                             133   -0.46 7  146 260 
 PTB  HZ I         858 38.05         2.2 0.32                           146 260 
 ZAR  HN ES   1    858 46.24                             123   -0.19 6  203 293 
                                                                                
