 2011  4 2 0331 53.8 L   6.811 -73.121141.5  RSN  9 0.4 1.9LRSN                1
 GAP=157        1.01       6.9     8.9  8.4 -0.2294E+02  0.5608E+01 -0.7276E+01E
 Epicentro: LOS SANTOS - SANTANDER                                             3
 ACTION:UP  11-06-22 15:27 OP:REBC STATUS:               ID:20110402033153 L   I
 2011-04-02-0329-38S.COL___138                                                 6
 STAT SP IPHASW D HRMM SECON CODA AMPLIT PERI AZIMU VELO SNR AR TRES W  DIS CAZ7
 BTL  SZ IP        332 12.82                             171    -0.110   20 306 
 BAR2 SZ EP        332 12.73                             170    -0.210   25 196 
 BAR2 SZ ES   1    332 27.22                             170    -0.7 7   25 196 
 BAR2 SZ I         332 28.71        24.2 0.28                            25 196 
 GIR2 SZ EP   1    332 13.76                             167     0.8 7   31 345 
 BRR  HZ IP     C  332 14.55                             151    -0.110   73 297 
 BRR  HZ I         332 14.90        34.9 0.10                            73 297 
 BRR  HN ES   1    332 31.39                             151     0.5 7   73 297 
 PAM  SZ EP        332 15.67                             151     0.210   75  39 
 PAM  SN ES   1    332 32.68                             151     0.4 7   75  39 
 PAM  SZ I         332 34.55         4.9 0.59                            75  39 
 GRA  SZ IP        332 18.59                             136     0.110  124  16 
 GRA  SZ ES   1    332 37.58                             136    -0.2 7  124  16 
 GRA  SZ I         332 39.06        10.6 0.45                           124  16 
 OCA  SZ EP        332 21.21                             129    -0.5 9  159 352 
 OCA  SZ ES   2    332 43.13                             129    -0.4 5  159 352 
 OCA  SZ I         332 46.95        10.1 0.17                           159 352 
 CHI  HN ES   3    333  1.34                             116     0.5 2  251 196 
 HEL  HZ EP   2    332 34.72                             114     0.6 4  275 256 
 HEL  HZ I         333 13.08         4.4 0.29                           275 256 
                                                                                
