 2012  4 2 0619  7.1 L   6.784 -73.196145.3  RSN  5 0.3 1.4LRSN                1
 GAP=231        0.66       6.8     6.4  8.8  0.2763E+02 -0.3977E+01 -0.5114E+01E
 Epicentro: ZAPATOCA - SANTANDER                                               3
 ACTION:UPD 12-07-05 11:49 OP:tino STATUS:               ID:20120402061907 L   I
 2012-04-02-0615-59S.COL___204                                                 6
 STAT SP IPHASW D HRMM SECON CODA AMPLIT PERI AZIMU VELO AIN AR TRES W  DIS CAZ7
 BAR2 SZ EP   1    619 26.33                             171    -0.3 7   21 176 
 BAR2 SZ I         619 41.36        11.0 0.65                            21 176 
 BRR  HZ EP   1    619 28.48                             154     0.5 7   67 302 
 BRR  HZ I         619 28.81         3.8 0.14                            67 302 
 BRR  HN ES   1    619 44.32                             154     0.0 7   67 302 
 RUS  HZ EP   1    619 30.93                             144     0.2 7   99 173 
 RUS  HN ES   1    619 49.07                             144    -0.1 7   99 173 
 RUS  HZ I         619 49.55         3.6 0.59                            99 173 
 PTB  HZ EP   1    619 33.33                             133    -0.2 7  142 259 
 PTB  HZ I         619 54.12         3.5 0.67                           142 259 
 PTB  HN ES   1    619 54.39                             133     0.2 7  142 259 
 ZAR  HN ES   1    620  3.74                             123    -0.3 6  200 293 
                                                                                
