 2014  3 2 0624 50.1 L   6.792 -73.167141.2  RSN 12 0.5 1.8LRSN                1
 GAP= 70        1.11       2.9     3.5  6.5 -0.8630E+00  0.8785E+01 -0.2935E+00E
 Epicentro: LOS SANTOS - SANTANDER                                             3
 OLDACT:DUP 14-03-02 12:32 OP:stll STATUS:               ID:20140302061818d    3
 ACTION:UPD 14-04-09 23:13 OP:nd   STATUS:               ID:20140302062450 L   I
 OLDACT:UP  14-03-02 12:40 OP:stll STATUS:               ID:20140302061818d    3
 2014-03-02-0618-17M.COL___226                                                 6
 STAT SP IPHASW D HRMM SECON CODA AMPLIT PERI AZIMU VELO AIN AR TRES W  DIS CAZ7
 BAR2 SZ EP        625  9.41                             171    0.2810 22.1 184 
 BAR2 SZ ES        625 24.01                             171    0.0210 22.1 184 
 BAR2 SZ I         625 27.03        22.4 0.30            169           22.1 184 
 PAM  SZ EP        625 12.30                             149    0.3610 79.6  40 
 PAM  SN ES        625 29.66                             149    0.6610 79.6  40 
 PAM  SZ I         625 31.46         5.3 0.32            155           79.6  40 
 RUS  HZ EP        625 13.22                             143   -0.1010 99.9 175 
 RUS  HN ES        625 30.83                             143   -0.6310 99.9 175 
 RUS  SZ I         625 33.19         5.1 2.00            145           99.9 175 
 PTB  HZ EP        625 16.22                             131   -0.22 9  145 259 
 PTB  HN ES        625 36.87                             131   -0.14 9  145 259 
 PTB  SZ I         625 43.73         7.8 1.14            132            145 259 
 TAM  HN ES        625 39.08                             129    0.03 9  157 104 
 OCA  HE ES        625 39.33                             128   -0.62 9  161 354 
 SPBC HZ EP        625 18.28                             128    0.27 9  161 219 
 SPBC HN ES        625 40.40                             128    0.59 9  161 219 
 SPBC SZ I         625 47.27        13.2 0.22            129            161 219 
 ZAR  HZ EP        625 22.36                             122    0.33 9  202 293 
 ZAR  HN ES        625 46.94                             122   -0.02 9  202 293 
 ZAR  SZ I         625 53.55         6.2 0.22            123            202 293 
 NOR  HZ EP        625 25.63                             118    0.36 8  232 234 
 NOR  HE ES        625 52.83                             118    0.10 8  232 234 
 NOR  SZ I         625 57.48         7.2 0.20            119            232 234 
 SML  HZ EP        625 25.75                             116   -0.67 8  244 336 
 SML  HN ES        625 54.31                             116   -0.47 8  244 336 
 SML  SZ I         626  2.10         6.1 0.08            119            244 336 
 CHI  HZ EP        625 27.62                             116    0.27 8  247 195 
 CHI  HN ES        625 55.12                             116   -1.32 8  247 195 
 CHI  SZ I         626  9.20         4.3 1.30            118            247 195 
 HEL  HZ EP        625 30.01                             114    0.24 8  270 256 
 HEL  HN ES        626  1.08                             114    0.34 8  270 256 
 HEL  HZ I         626  7.27         2.1 0.26            115            270 256 
                                                                                
