 2011  2 2 0036  2.2 L   6.885 -73.386108.9  RSN  6 0.3 1.5LRSN                1
 GAP=115        0.53       2.5     9.2  8.1 -0.5454E+01  0.4725E+02 -0.6426E+01E
 Epicentro: SAN VICENTE DE CHUCURI - SANTANDER                                 3
 ACTION:UP  11-03-28 15:05 OP:jfem STATUS:               ID:20110202003602 L   I
 2011-02-02-0033-00S.COL___134                                                 6
 STAT SP IPHASW D HRMM SECON CODA AMPLIT PERI AZIMU VELO SNR AR TRES W  DIS CAZ7
 BAR2 SZ EP   2    036 17.54                             159    -0.5 5   39 145 
 BAR2 SZ ES   2    036 30.08                             159    -0.3 5   39 145 
 BAR2 SZ I         036 32.31        16.3 0.10                            39 145 
 RUS  HZ EP   1    036 23.74                             130    -0.1 8  115 163 
 RUS  HN ES   1    036 41.13                             130     0.4 8  115 163 
 RUS  HZ I         036 43.75         2.9 0.17                           115 163 
 GRA  SZ EP   1    036 24.75                             126     0.1 8  128  30 
 GRA  SZ ES   2    036 42.16                             126     0.0 5  128  30 
 OCA  SZ EP        036 26.99                             122     0.110  150   3 
 OCA  SZ ES   2    036 46.09                             122     0.0 5  150   3 
 HEL  HZ EP   2    036 38.53                             108     0.3 4  249 252 
 HEL  HZ I         037 11.05         3.7 0.31                           249 252 
 CHI  HZ EP   1    036 38.34                             108    -0.3 6  252 189 
 CHI  HZ I         037  4.30         1.3 0.55                           252 189 
                                                                                
