 2015  7 2 0407 53.2 L   6.179 -73.027  0.0  RSN 11 0.4 1.9LRSN                1
 GAP=164        1.33       3.4    12.5  8.4  0.2139E+02  0.3904E+02  0.1009E+02E
 Epicentro: ENCINO - SANTANDER                                                 3
 ACTION:UPD 15-09-08 21:46 OP:cam  STATUS:               ID:20150702040753 L   I
 OLDACT:UP  15-07-07 22:06 OP:cam  STATUS:               ID:20150702040753 L   3
 OLDACT:UP  15-07-07 22:05 OP:cam  STATUS:               ID:20150702040753 L   3
 OLDACT:UP  15-07-07 22:04 OP:cam  STATUS:               ID:20150702040753 L   3
 OLDACT:UP  15-07-07 22:02 OP:cam  STATUS:               ID:20150702040753 L   3
 OLDACT:UP  15-07-07 10:23 OP:Mher STATUS:               ID:20150702040753 L   3
 OLDACT:UP  15-07-02 16:25 OP:ar   STATUS:               ID:20150702035748     3
 OLDACT:UP  15-07-02 16:24 OP:ar   STATUS:               ID:20150702035748     3
 OLDACT:REG 15-07-02 13:37 OP:ar   STATUS:               ID:20150702035748     3
 2015-07-02-0357-48M.COL___307                                                 6
 STAT SP IPHASW D HRMM SECON CODA AMPLIT PERI AZIMU VELO AIN AR TRES W  DIS CAZ7
 RUS  HZ EP        4 7 59.11                              47   -0.6010 32.3 191 
 RUS  HN ES        4 8  4.74                              47   -0.0910 32.3 191 
 RUS  HZ I         4 8  6.01        40.3 0.54             47           32.3 191 
 BAR2 EZ EP        4 8  1.82                              47   -0.1310 48.8 339 
 BAR2 EZ ES        4 8  9.18                              47    0.3610 48.8 339 
 BAR2 EZ I         4 8 12.48        61.5 0.42             47           48.8 339 
 CHI  HZ EP   9    4 8 25.68                              37    2.57 0  188 205 
 CHI  HN ES        4 8 50.28                              37    1.23 9  188 205 
 CHI  HZ I         4 9  5.51         7.4 0.52             37            188 205 
 NOR  HZ EP   4    4 8 30.27                              37    4.26 0  215 252 
 NOR  HN ES   4    4 8 58.46                              37    6.81 0  215 252 
 NOR  HZ I         4 8 59.11        16.3 0.38             37            215 252 
 OCA  HZ EP        4 8 27.89                              37   -0.12 8  230 352 
 OCA  HE ES   4    4 8 57.50                              37    2.29 0  230 352 
 OCA  HZ I         4 9  2.20        35.0 0.50             37            230 352 
 PTGC HZ EP        4 8 29.46                              37    0.35 8  240 156 
 PTGC HE ES   1    4 8 58.06                              37    0.90 6  240 156 
 PTGC HZ I         4 9  6.49        18.2 0.32             37            240 156 
 VIL  SZ EP   4    4 8 31.10                              37    1.84 0  240 198 
 VIL  SZ I         4 9  9.40        19.2 0.42             37            240 198 
 ZAR  HZ EP   4    4 8 33.68                              37    3.47 0  249 306 
 ZAR  HN ES   4    4 9  1.77                              37    2.64 0  249 306 
 ZAR  HZ I         4 9  7.39         5.5 0.34             37            249 306 
 HEL  HN ES   4    4 9 10.40                              37    4.32 0  277 270 
 HEL  HZ I         4 9 13.88         5.3 0.32             37            277 270 
 GUY2CHZ EP   4    4 8 39.20                              37    4.60 0  280 248 
 GUY2CHN ES   4    4 9 14.85                              37    7.92 0  280 248 
 GUY2CHZ I         4 9 18.34         4.5 0.26                           280 248 
 TOL  SZ EP   4    4 8 41.97                              36    3.86 0  309 235 
 TOL  SE ES   4    4 9 16.38                              36    3.20 0  309 235 
 TOL  SZ I         4 9 22.18         3.3 0.34             36            309 235 
                                                                                
