 2011 11 2 0205 57.9 L   7.378 -73.187130.9  RSN  8 0.3 2.2LRSN                1
 GAP=103        0.59       2.7     3.0  4.2 -0.5908E+00  0.3459E+01  0.3324E-01E
 Epicentro: EL PLAYON - SANTANDER                                              3
 ACTION:UPD 12-07-13 16:07 OP:ep   STATUS:               ID:20111102020557 L   I
 2011-11-02-0200-00M.COL___178                                                 6
 STAT SP IPHASW D HRMM SECON CODA AMPLIT PERI AZIMU VELO AIN AR TRES W  DIS CAZ7
 GIR2 SZ EP   1    2 6 15.85                             165   -0.05 7 33.1 181 
 PAM  SZ EP        2 6 17.30                             157    0.0510 54.0  95 
 PAM  SN ES        2 6 31.88                             157   -0.4410 54.0  95 
 BRR  HZ EP        2 6 17.13                             152   -0.0110 65.2 243 
 BRR  HE ES        2 6 32.22                             152    0.1010 65.2 243 
 BRR  HZ I         2 6 33.90        53.3 0.10                          65.2 243 
 BAR2 SZ EP        2 6 18.83                             144   -0.0510 86.9 180 
 BAR2 SZ ES        2 6 35.34                             144    0.1210 86.9 180 
 BAR2 SZ I         2 6 36.66        30.5 0.10                          86.9 180 
 OCA  SZ EP        2 6 19.55                             141    0.1010 96.2 351 
 OCA  SZ ES   1    2 6 36.68                             141    0.45 7 96.2 351 
 OCA  SZ I         2 6 38.96        16.4 0.31                          96.2 351 
 RUS  HZ EP   1    2 6 26.40                             125    0.38 7  165 176 
 ZAR  HZ EP   1    2 6 26.83                             122   -0.60 7  185 274 
 ZAR  HN ES   1    2 6 50.31                             122   -0.13 7  185 274 
 ZAR  HZ I         2 6 55.19        22.2 0.32                           185 274 
 NOR  SZ EP   1    2 6 37.39                             111    0.18 6  274 223 
 NOR  SN ES   1    2 7  7.80                             111   -0.05 6  274 223 
                                                                                
