 2017  5 2 0435 13.0 L   6.768 -73.170143.1  RSN  8 0.4 1.5LRSN                1
 GAP=111        1.11       4.0     3.8  7.4  0.1888E+01  0.4824E+01  0.5206E+01E
 Epicentro: LOS SANTOS - SANTANDER                                             3
 ACTION:UPD 17-06-16 13:32 OP:jn   STATUS:               ID:20170502043513 L   I
 OLDACT:UP  17-05-02 16:56 OP:edw  STATUS:               ID:20170502042739     3
 OLDACT:REG 17-05-02 12:15 OP:edw  STATUS:               ID:20170502042739     3
 2017-05-02-0428-00M.COL___365                                                 6
 STAT SP IPHASW D HRMM SECON CODA AMPLIT PERI AZIMU VELO AIN AR TRES W  DIS CAZ7
 BRR  HZ IP     D  435 33.97                             152    0.1110 70.7 302 
 BRR  HE ES        435 50.65                             152    0.5410 70.7 302 
 BRR  HZ I         435 54.64         4.3 0.66            152           70.7 302 
 PAM  EZ EP        435 35.15                             149   -0.0810 81.8  39 
 PAM  EN ES        435 52.14                             149   -0.4110 81.8  39 
 PAM  EZ I         435 54.08         5.1 0.50            154           81.8  39 
 RUS  HZ EP        435 35.90                             144   -0.3810 97.3 174 
 RUS  HN ES        435 54.58                             144    0.1710 97.3 174 
 RUS  HZ I         435 56.85         3.1 0.32            147           97.3 174 
 PTB  HZ EP        435 38.71                             132   -0.77 9  144 260 
 PTB  HN ES        435 59.34                             132   -0.78 9  144 260 
 PTB  HZ I         436  6.19         2.8 0.58            133            144 260 
 SPBC HZ EP        435 41.08                             129    0.18 9  159 219 
 SPBC HN ES        436  2.48                             129   -0.16 9  159 219 
 SPBC HZ I         436  6.04         5.5 0.68            131            159 219 
 YPLC HZ EP        435 42.24                             126   -0.21 9  175 150 
 YPLC HE ES        436  6.06                             126    0.66 9  175 150 
 ZAR  HZ EP        435 45.70                             122    0.51 9  203 293 
 ZAR  HN ES        436 10.83                             122    0.56 9  203 293 
 ZAR  HZ I         436 16.52         9.5 0.90            124            203 293 
 NOR  HZ EP     C  435 48.59                             118    0.44 8  230 235 
 NOR  HN ES        436 15.51                             118   -0.03 8  230 235 
 NOR  HZ I         436 20.37         2.6 0.18            121            230 235 
                                                                                
