 2016 12 2 0438 11.5 L   6.722 -73.132145.6  RSN  7 0.4 1.8LRSN                1
 GAP=166        0.92       7.6     4.4  6.2 -0.7047E+01  0.8929E+01 -0.3675E+01E
 Epicentro: JORDAN - SANTANDER                                                 3
 ACTION:UPD 17-01-11 20:11 OP:rebc STATUS:               ID:20161202043811 L   I
 OLDACT:UP  16-12-02 14:18 OP:dnl  STATUS:               ID:20161202042747     3
 OLDACT:REG 16-12-02 12:28 OP:dnl  STATUS:               ID:20161202042747     3
 2016-12-02-0428-00M.COL___337                                                 6
 STAT SP IPHASW D HRMM SECON CODA AMPLIT PERI AZIMU VELO AIN AR TRES W  DIS CAZ7
 BAR2 EZ IP     C  438 31.23                             174    0.2710 15.4 201 
 BAR2 EZ ES        438 46.36                             174    0.2110 15.4 201 
 BAR2 EZ I         438 47.29        17.3 0.20            169           15.4 201 
 BRR  HZ IP     C  438 33.16                             151    0.2110 77.0 304 
 BRR  HE ES        438 50.23                             151    0.5310 77.0 304 
 BRR  HZ I         438 54.52        12.9 0.46            142           77.0 304 
 PAM  EZ IP     C  438 34.14                             149    0.0910 83.3  35 
 PAM  EN ES        438 51.03                             149   -0.6210 83.3  35 
 PAM  EZ I         438 52.63         6.0 0.16            145           83.3  35 
 PTB  HZ EP        438 38.11                             132   -0.33 9  148 262 
 PTB  HE ES        438 58.88                             132   -0.59 9  148 262 
 PTB  HZ I         439  1.22         8.4 0.24            130            148 262 
 ZAR  HZ EP        438 44.43                             122    0.02 8  209 294 
 ZAR  HE ES        439 10.10                             122   -0.00 8  209 294 
 ZAR  HZ I         439 18.01        11.1 0.52            120            209 294 
 URE  HZ EP        438 53.25                             113    0.18 7  289 293 
 URE  HN ES   4    439 23.19                             113   -2.33 0  289 293 
 URE  HZ I         439 36.21         4.6 0.38            112            289 293 
 CBOC HZ EP   4    438 59.66                             110    1.40 0  333 254 
 CBOC HE ES   4    439 33.19                             110   -1.56 0  333 254 
 CBOC HZ I         439 34.54         1.3 0.10            110            333 254 
                                                                                
