 2016  1 2 0720 19.7 L   6.787 -73.115146.6  RSN  8 0.4 1.7LRSN                1
 GAP=221        0.92       3.5     4.9  6.2  0.1075E+01  0.4549E+01  0.1793E+01E
 Epicentro: LOS SANTOS - SANTANDER                                             3
 ACTION:UPD 16-03-09 23:22 OP:cam  STATUS:               ID:20160102072019 L   I
 OLDACT:REG 16-01-02 12:40 OP:drio STATUS:               ID:20160102071749     3
 2016-01-02-0717-49M.COL___320                                                 6
 STAT SP IPHASW D HRMM SECON CODA AMPLIT PERI AZIMU VELO AIN AR TRES W  DIS CAZ7
 BAR2 EZ EP        720 39.61                             171    0.1910 22.8 199 
 BAR2 EZ ES        720 54.24                             171   -0.5610 22.8 199 
 BAR2 EZ I         720 56.97         5.8 0.28            167           22.8 199 
 BRR  HZ EP        720 41.52                             151    0.3710 74.9 298 
 BRR  HN ES        720 58.56                             151    0.6810 74.9 298 
 BRR  HZ I         721  2.38         7.2 0.10            149           74.9 298 
 PTB  HZ EP        720 46.79                             132   -0.23 9  151 260 
 PTB  HN ES        721  7.83                             132   -0.49 9  151 260 
 PTB  HZ I         721 11.19         4.8 0.20            130            151 260 
 ZAR  HZ EP   4    720 54.30                             122    1.71 0  208 292 
 ZAR  HN ES        721 18.59                             122    0.36 8  208 292 
 ZAR  HZ I         721 24.59        10.6 0.42            121            208 292 
 SML  HZ EP        720 56.33                             117   -0.35 8  246 335 
 SML  HN ES        721 25.23                             117   -0.28 8  246 335 
 SML  HZ I         721 30.37         6.2 0.30            118            246 335 
 CHI  HZ EP        720 57.42                             117    0.02 8  248 196 
 CHI  HN ES        721 27.05                             117    0.25 8  248 196 
 CHI  HZ I         721 36.87         1.9 0.48            117            248 196 
 HEL  HE ES        721 31.77                             115   -0.17 8  275 256 
 HEL  HZ I         721 40.08         2.0 0.26            114            275 256 
 GUY2CHZ EP   4    721  5.04                             112    1.46 0  303 235 
 GUY2CHN ES        721 37.82                             112    0.03 7  303 235 
 GUY2CHZ I         721 44.75         2.6 0.38                           303 235 
                                                                                
