 2015  7 2 0652 54.8 L   6.821 -73.112146.0  RSN  9 0.4 2.3LRSN                1
 GAP=168        0.99       3.1     4.5  6.4  0.5118E+00  0.9909E+01 -0.1730E+01E
 Epicentro: LOS SANTOS - SANTANDER                                             3
 ACTION:UPD 15-09-08 21:46 OP:cam  STATUS:               ID:20150702065254 L   I
 OLDACT:UP  15-07-02 17:05 OP:ar   STATUS:               ID:20150702064748     3
 OLDACT:REG 15-07-02 14:11 OP:ar   STATUS:               ID:20150702064748     3
 2015-07-02-0647-48M.COL___307                                                 6
 STAT SP IPHASW D HRMM SECON CODA AMPLIT PERI AZIMU VELO AIN AR TRES W  DIS CAZ7
 BAR2 EZ EP        653 14.98                             169    0.4210 26.5 197 
 BAR2 EZ ES        653 29.55                             169   -0.3910 26.5 197 
 BAR2 EZ I         653 32.54        38.6 0.42            165           26.5 197 
 RUS  HZ EP        653 19.16                             143    0.4010  103 178 
 RUS  HN ES        653 37.67                             143    0.2410  103 178 
 RUS  HZ I         653 40.26        16.6 0.34            137            103 178 
 OCA  HZ EP        653 23.16                             130    0.18 9  158 352 
 OCA  HN ES        653 44.86                             130   -0.08 9  158 352 
 OCA  HZ I         653 51.45        41.7 0.22            129            158 352 
 ZAR  HZ EP        653 27.88                             122    0.32 8  207 291 
 ZAR  HE ES        653 53.38                             122    0.29 8  207 291 
 ZAR  HZ I         654  6.18        11.8 0.14            120            207 291 
 SML  HZ EP        653 31.22                             118   -0.19 8  243 334 
 SML  HE ES        653 59.34                             118   -0.60 8  243 334 
 SML  HZ I         654  2.89        22.4 0.24            116            243 334 
 HEL  HZ EP   4    653 37.02                             114    1.50 0  276 256 
 HEL  HN ES        654  7.71                             114    0.45 7  276 256 
 HEL  HZ I         654 13.25         8.2 0.34            112            276 256 
 GUY2CHZ EP        653 39.24                             112    0.29 7  306 235 
 GUY2CHN ES        654 12.37                             112   -0.99 7  306 235 
 GUY2CHZ I         654 18.72         7.8 0.62                           306 235 
 PTGC HZ EP        653 37.86                             112   -0.93 7  310 159 
 PTGC HE ES   4    654 11.48                             112   -1.61 0  310 159 
 PTGC HZ I         654 42.14        14.5 0.42            108            310 159 
 CBOC HZ EP        653 42.36                             110    0.11 7  338 252 
 CBOC HE ES        654 18.85                             110   -0.38 7  338 252 
 CBOC HZ I         654 28.10         3.1 0.60            107            338 252 
                                                                                
