 2010  5 2 0052  0.5 L   6.874 -73.228119.0  RSN 11 0.4 1.9LRSN                1
 GAP=119        0.85       4.4     6.3  5.4 -0.1225E+02 -0.2229E+01 -0.6841E+00E
 Epicentro: BETULIA - SANTANDER                                                3
 ACTION:UP  10-08-24 10:02 OP:vdl  STATUS:               ID:20100502005200 L   I
 2010-05-02-0047-08S.COL___105                                                 6
 STAT SP IPHASW D HRMM SECON CODA AMPLIT PERI AZIMU VELO SNR AR TRES W  DIS CAZ7
 GIR2 SZ EP        052 16.74                             168     0.010   23  10 
 GIR2 SZ ES   1    052 29.53                             168     0.1 7   23  10 
 BAR2 SZ EP        052 17.12                             164     0.010   32 171 
 BAR2 SZ ES   1    052 29.92                             164    -0.2 7   32 171 
 BRR  HZ EP        052 18.08                             152     0.010   59 296 
 BRR  HN ES   1    052 32.36                             152     0.6 7   59 296 
 BRR  HZ I         052 33.50        37.3 0.18                            59 296 
 BRI  SZ EP        052 22.19                             136     0.610  105  27 
 BRI  SZ ES   2    052 38.49                             136     0.4 5  105  27 
 GUE  SZ EP        052 22.26                             134    -0.110  111  18 
 GUE  SZ ES   1    052 38.45                             134    -0.9 7  111  18 
 GRA  SZ EP   1    052 22.94                             131    -0.1 7  121  23 
 OCA  SZ EP        052 25.67                             125    -0.3 9  151 356 
 OCA  SZ ES   2    052 45.36                             125    -0.4 5  151 356 
 CHI  HZ EP   2    052 37.30                             110    -0.2 4  254 193 
 CHI  HE ES   2    053  5.71                             110    -0.7 4  254 193 
 HEL  HZ EP   1    052 38.19                             109    -0.5 6  265 254 
 HEL  HZ I         053 11.51         4.4 0.21                           265 254 
 RREF BZ EP   2    052 46.42                             105     1.0 3  320 227 
 RREF BZ I         053 25.91         3.3 0.34                           320 227 
 SDV  BZ EP   1    052 49.94                             103     0.1 5  362  52 
 SDV  BN ES   2    053 28.92                             103     0.5 3  362  52 
 SDV  BZ I         053 30.18         2.4 0.30                           362  52 
                                                                                
