 2010  6 2 0851 29.8 L   6.804 -73.159143.3  RSN  7 0.4 2.2LRSN                1
 GAP=136        0.70       4.7     6.7  6.0 -0.1778E+02  0.2445E+01 -0.4907E-01E
 Epicentro: LOS SANTOS - SANTANDER                                             3
 ACTION:UP  10-08-24 10:08 OP:vdl  STATUS:               ID:20100602085129 L   I
 2010-06-02-0847-21S.COL___109                                                 6
 STAT SP IPHASW D HRMM SECON CODA AMPLIT PERI AZIMU VELO SNR AR TRES W  DIS CAZ7
 BAR2 SZ EP   1    851 49.19                             170     0.1 8   24 187 
 BAR2 SZ ES   1    852  3.91                             170    -0.3 8   24 187 
 GUE  SZ EP   1    851 54.25                             139     0.0 8  116  13 
 GUE  SZ ES   1    852 13.70                             139     0.4 8  116  13 
 GRA  SZ IP        851 55.21                             136     0.410  126  18 
 GRA  SZ ES   1    852 14.14                             136    -0.2 7  126  18 
 OCA  SZ EP   1    851 57.85                             129     0.0 7  160 354 
 OCA  SZ ES   1    852 19.35                             129    -0.4 7  160 354 
 OCA  SZ I         852 23.94        32.6 0.50                           160 354 
 HEL  HZ EP   2    852  9.84                             114     0.1 4  271 256 
 HEL  HE ES   2    852 40.21                             114    -0.6 4  271 256 
 HEL  HZ I         852 52.01         5.7 0.23                           271 256 
 RREF BZ EP   2    852 15.90                             110     0.2 4  321 229 
 RREF BE ES   2    852 51.90                             110     0.4 4  321 229 
 SDV  BZ IP     D  852 19.07                             108    -0.7 7  361  50 
 SDV  BZ I         852 19.86         4.2 0.15                           361  50 
                                                                                
