 2017  9 2 0714 41.3 L   6.733 -73.188138.0  RSN  5 0.5 1.2LRSN                1
 GAP=227        1.13       6.6     7.9  9.4  0.2001E+02  0.1502E+02  0.1443E+02E
 Epicentro: VILLANUEVA - SANTANDER                                             3
 ACTION:UPD 17-10-05 19:08 OP:rebc STATUS:               ID:20170902071441 L   I
 OLDACT:UP  17-09-02 16:51 OP:dani STATUS:               ID:20170902070647     3
 OLDACT:UP  17-09-02 16:50 OP:dani STATUS:               ID:20170902070647     3
 OLDACT:UP  17-09-02 16:50 OP:dani STATUS:               ID:20170902070647     3
 OLDACT:UP  17-09-02 16:50 OP:dani STATUS:               ID:20170902070647     3
 OLDACT:REG 17-09-02 13:33 OP:dani STATUS:               ID:20170902070647     3
 2017-09-02-0707-00M.COL___399                                                 6
 STAT SP IPHASW D HRMM SECON CODA AMPLIT PERI AZIMU VELO AIN AR TRES W  DIS CAZ7
 BAR2 EZ EP        714 59.55                             173   -0.3110 15.5 178 
 BAR2 EZ ES        715 14.26                             173   -0.0710 15.5 178 
 BAR2 EZ I         715 15.83         2.8 0.38            168           15.5 178 
 BRR  HZ EP        715  1.28                             151   -0.3310 71.2 306 
 BRR  HN ES        715 18.17                             151    0.7110 71.2 306 
 BRR  HZ I         715 22.38         2.4 0.30            148           71.2 306 
 RUS  HZ EP        715  4.08                             144    0.3010 93.6 173 
 RUS  HN ES   2    715 20.15                             144   -1.17 5 93.6 173 
 SPBC HZ EP        715  8.91                             129    0.54 9  154 219 
 SPBC HN ES        715 29.40                             129   -0.09 9  154 219 
 SPBC HZ I         715 35.76         1.6 0.16            128            154 219 
 ZAR  HZ EP   4    715 14.52                             121    1.41 0  203 295 
 ZAR  HN ES        715 37.38                             121   -0.54 9  203 295 
 ZAR  HZ I         715 42.96         2.6 0.40            121            203 295 
                                                                                
