 2016  9 2 0724 44.0 L   6.787 -73.141144.6  RSN 11 0.4 1.8LRSN                1
 GAP=138        0.93       3.0     3.5  5.4 -0.2424E+01  0.5609E+01 -0.4383E+00E
 Epicentro: LOS SANTOS - SANTANDER                                             3
 ACTION:UPD 17-08-17 21:05 OP:lp   STATUS:               ID:20160902072444 L   I
 OLDACT:UP  16-09-02 17:16 OP:drio STATUS:               ID:20160902071732     3
 OLDACT:REG 16-09-02 13:24 OP:drio STATUS:               ID:20160902071732     3
 2016-09-02-0718-00M.COL___346                                                 6
 STAT SP IPHASW D HRMM SECON CODA AMPLIT PERI AZIMU VELO AIN AR TRES W  DIS CAZ7
 BAR2 EZ EP     C  725  3.43                             171   -0.0310 22.0 192 
 BAR2 EZ ES        725 18.66                             171    0.0310 22.0 192 
 BAR2 EZ I         725 21.63        13.6 0.64            170           22.0 192 
 BRR  HZ EP        725  5.33                             152    0.2410 72.4 299 
 BRR  HN ES        725 22.40                             152    0.8710 72.4 299 
 BRR  HZ I         725 23.36         7.9 0.20            151           72.4 299 
 PAM  EZ EP        725  6.28                             150    0.1410 78.2  39 
 PAM  EE ES        725 22.91                             150   -0.4910 78.2  39 
 PAM  EZ I         725 25.38         7.9 0.50            154           78.2  39 
 RUS  HZ EP        725  7.52                             144   -0.0010 99.1 176 
 RUS  HN ES        725 26.05                             144    0.1810 99.1 176 
 RUS  HZ I         725 27.50         5.4 0.48            146           99.1 176 
 PTB  HZ EP        725 10.39                             132   -0.50 9  148 259 
 PTB  HE ES        725 31.18                             132   -0.69 9  148 259 
 PTB  HZ I         725 34.57         7.9 0.46            132            148 259 
 OCA  HZ EP        725 12.73                             129    0.37 9  162 353 
 OCA  HE ES        725 33.96                             129   -0.52 9  162 353 
 SPBC HZ EP        725 12.45                             129    0.12 9  162 219 
 SPBC HN ES        725 34.23                             129   -0.20 9  162 219 
 SPBC HZ I         725 37.16        13.8 0.10            130            162 219 
 ZAR  HZ EP        725 16.62                             122    0.14 9  205 292 
 ZAR  HN ES        725 42.02                             122    0.21 9  205 292 
 ZAR  HZ I         725 47.57         8.8 0.26            123            205 292 
 NOR  HZ EP        725 19.71                             118    0.09 8  234 235 
 NOR  HE ES        725 47.39                             118   -0.01 8  234 235 
 NOR  HZ I         725 52.69         6.8 0.22            119            234 235 
 HEL  HZ EP   4    725 25.76                             114    1.59 0  272 256 
 HEL  HN ES        725 55.46                             114   -0.04 8  272 256 
 HEL  HZ I         726  2.55         4.0 0.28            115            272 256 
 GUY2CHZ EP   4    725 29.84                             112    2.33 0  301 235 
 GUY2CHE ES   4    725 59.59                             112   -1.85 0  301 235 
 GUY2CHZ I         726 11.17         2.8 0.60                           301 235 
                                                                                
