 2011  4 2 0545 34.1 L   6.773 -73.049143.7  RSN  6 0.3 1.2LRSN                1
 GAP=185        0.58      14.5    13.2  7.6  0.9684E+02 -0.2078E+02  0.1357E+01E
 Epicentro: LOS SANTOS - SANTANDER                                             3
 ACTION:UP  11-06-22 15:28 OP:REBC STATUS:               ID:20110402054534 L   I
 2011-04-02-0545-05S.COL___138                                                 6
 STAT SP IPHASW D HRMM SECON CODA AMPLIT PERI AZIMU VELO SNR AR TRES W  DIS CAZ7
 BAR2 SZ EP        545 53.45                             171    -0.110   25 217 
 BAR2 SZ I         545 53.77         3.4 0.18                            25 217 
 BAR2 SZ ES   3    546  8.30                             171    -0.4 2   25 217 
 BTL  SZ EP        545 53.84                             168     0.210   29 304 
 BTL  SZ ES   1    546  8.82                             168    -0.1 7   29 304 
 GIR2 SZ EP   2    545 54.54                             164     0.8 5   37 335 
 PAM  SZ EP   3    545 55.21                             151    -0.7 2   74  32 
 PAM  SZ I         545 56.65         1.5 0.10                            74  32 
 BRR  HZ EP        545 55.63                             149    -0.110   82 297 
 BRR  HZ I         545 55.83         4.4 0.13                            82 297 
 BRR  HN ES   2    546 12.45                             149    -0.1 5   82 297 
 GRA  SZ EP   3    545 58.68                             136    -0.5 2  126  12 
                                                                                
