 2011  4 2 0547 15.8 L   5.937 -74.203  1.8  RSN  7 0.4 1.5LRSN                1
 GAP=171        0.70       4.7     3.3  5.9 -0.1132E+02  0.2882E+01 -0.1317E+01E
 Epicentro: LA BELLEZA - SANTANDER                                             3
 ACTION:UP  11-06-22 15:28 OP:REBC STATUS:               ID:20110402054715 L   I
 2011-04-02-0545-05S.COL___138                                                 6
 STAT SP IPHASW D HRMM SECON CODA AMPLIT PERI AZIMU VELO SNR AR TRES W  DIS CAZ7
 NOR  SZ EP   1    547 29.92                              47     0.4 8   85 241 
 NOR  SN ES   2    547 39.84                              47    -0.5 5   85 241 
 BAR2 SZ EP   3    547 36.01                              47    -1.3 3  134  57 
 BRR  HZ EP        547 37.72                              47    -0.210  140  23 
 BRR  HZ I         547 55.68         8.1 0.13                           140  23 
 HEL  HZ EP        547 39.93                              47     0.210  149 281 
 HEL  HN ES   1    547 58.22                              47    -0.2 7  149 281 
 HEL  HZ I         547 59.80         7.9 0.44                           149 281 
 BTL  SZ EP   1    547 39.38                              47    -0.3 7  150  44 
 RREF HZ EP   2    547 43.54                              47     0.3 5  171 228 
 RREF HN ES   2    548  4.27                              47    -0.4 5  171 228 
 RREF HZ I         548  8.55         3.0 0.29                           171 228 
 PAM  SZ EP   1    547 50.59                              37     0.2 7  227  47 
 PAM  SN ES   1    548 17.92                              37     0.5 7  227  47 
 PAM  SZ I         548 18.41         4.9 0.20                           227  47 
                                                                                
