 2017  5 2 0931 22.9 L   6.817 -73.158141.0  RSN  8 0.5 1.7LRSN                1
 GAP=110        1.26       4.5     4.4  8.4  0.2575E+01  0.6491E+01  0.7715E+01E
 Epicentro: LOS SANTOS - SANTANDER                                             3
 ACTION:UPD 17-06-16 13:32 OP:jn   STATUS:               ID:20170502093122 L   I
 OLDACT:REG 17-05-02 14:08 OP:edw  STATUS:               ID:20170502092736     3
 2017-05-02-0928-00M.COL___356                                                 6
 STAT SP IPHASW D HRMM SECON CODA AMPLIT PERI AZIMU VELO AIN AR TRES W  DIS CAZ7
 BRR  HZ EP        931 42.90                             152   -0.4910 69.1 298 
 BRR  HN ES        932  0.21                             152    0.8210 69.1 298 
 BRR  HZ I         932  3.99        11.2 0.46            152           69.1 298 
 PAM  EZ EP        931 44.70                             150    0.1510 76.8  41 
 PAM  EN ES        932  0.84                             150   -0.6110 76.8  41 
 PAM  EZ I         932  2.48         5.3 0.26            155           76.8  41 
 RUS  HZ EP        931 45.95                             142   -0.3610  103 175 
 RUS  HN ES        932  4.43                             142   -0.1510  103 175 
 RUS  HZ I         932  5.36         4.6 0.24            145            103 175 
 PTB  HZ EP        931 48.99                             131   -0.38 9  147 258 
 PTB  HN ES        932  9.66                             131   -0.38 9  147 258 
 PTB  HZ I         932 17.13         4.7 0.40            132            147 258 
 SPBC HZ EP        931 51.03                             128   -0.04 9  164 218 
 SPBC HN ES        932 12.69                             128   -0.38 9  164 218 
 SPBC HZ I         932 15.48         8.7 0.22            130            164 218 
 YPLC HZ EP        931 53.42                             125    0.87 9  179 151 
 YPLC HN ES        932 16.30                             125    0.60 9  179 151 
 YPLC HZ I         932 18.07         4.8 0.30            129            179 151 
 ZAR  HZ EP        931 55.05                             122    0.24 9  202 292 
 ZAR  HN ES        932 20.39                             122    0.67 9  202 292 
 ZAR  HZ I         932 25.97         9.4 0.22            123            202 292 
 NOR  HZ EP        931 57.69                             117   -0.64 8  235 234 
 NOR  HN ES        932 26.39                             117    0.40 8  235 234 
 NOR  HZ I         932 27.71         3.9 0.18            120            235 234 
                                                                                
