 2017  4 2 0823 28.9 L   6.697 -73.136144.7  RSN  4 0.2 1.1LRSN                1
 GAP=258        0.56       6.3     4.1  4.4  0.9468E+01  0.4290E+01 -0.1419E+01E
 Epicentro: VILLANUEVA - SANTANDER                                             3
 ACTION:UPD 17-05-30 21:07 OP:jn   STATUS:               ID:20170402082328 L   I
 OLDACT:DUP 17-04-02 16:37 OP:lv   STATUS:               ID:20170402081639d    3
 2017-04-02-0818-00M.COL___356                                                 6
 STAT SP IPHASW D HRMM SECON CODA AMPLIT PERI AZIMU VELO AIN AR TRES W  DIS CAZ7
 BAR2 EZ EP        823 48.51                             175    0.2310 12.6 204 
 BAR2 EZ ES        824  3.28                             175   -0.0810 12.6 204 
 BRR  HZ EP        823 50.18                             150   -0.2110 78.2 306 
 BRR  HE ES        824  7.16                             150    0.0510 78.2 306 
 BRR  HZ I         824  9.46         1.6 0.21            147           78.2 306 
 PTB  HZ EP        823 55.43                             132   -0.33 9  147 263 
 PTB  HN ES        824 16.82                             132    0.15 9  147 263 
 PTB  HZ I         824 22.22         1.9 0.09            129            147 263 
 ZAR  HZ EP        824  2.21                             121    0.32 8  210 295 
 ZAR  HN ES        824 27.50                             121   -0.09 8  210 295 
 ZAR  HZ I         824 32.44         1.2 0.26            121            210 295 
                                                                                
