 2014 10 2 0834 16.0 L   6.805 -73.224158.2  RSN  5 0.4 1.9LRSN                1
 GAP=239        0.90       4.3    10.4 10.7  0.1998E+01 -0.1784E+02  0.2107E+01E
 Epicentro: ZAPATOCA - SANTANDER                                               3
 ACTION:UPD 14-11-29 23:45 OP:nd   STATUS:               ID:20141002083416 L   I
 OLDACT:DUP 14-10-02 16:50 OP:cam  STATUS:               ID:20141002082806d    3
 OLDACT:REG 14-10-02 12:41 OP:cam  STATUS:               ID:20141002082805     3
 2014-10-02-0828-05M.COL___289                                                 6
 STAT SP IPHASW D HRMM SECON CODA AMPLIT PERI AZIMU VELO AIN AR TRES W  DIS CAZ7
 BRR  HE ES        834 55.65                             157    0.2710 63.4 302 
 BRR  HE I         834 58.43        11.6 0.26            163           63.4 302 
 PTB  HN ES        835  4.34                             136   -0.25 9  139 258 
 SPBC HZ EP        834 45.43                             133    0.38 9  158 216 
 SPBC HN ES        835  7.31                             133   -0.39 9  158 216 
 SPBC HN I         835 15.16        13.2 0.18            135            158 216 
 ZAR  HN ES        835 14.22                             126    0.41 9  196 293 
 SML  HE ES        835 21.20                             120   -0.54 8  240 337 
 SML  HZ I         835 23.90         4.7 0.10            123            240 337 
                                                                                
