 2012  3 2 0800 52.3 L   6.658 -73.540104.4  RSN  4 0.2 1.1LRSN                1
 GAP=162        0.46       5.8     4.1  6.9 -0.4683E+01  0.9394E+01  0.1519E+00E
 ACTION:UP  12-03-31 23:16 OP:EP   STATUS:               ID:20120302080052 L   I
 2012-03-02-0800-00M.COL___190                                                 6
 STAT SP IPHASW D HRMM SECON CODA AMPLIT PERI AZIMU VELO SNR AR TRES W  DIS CAZ7
 BAR2 SZ ES   2    8 1 19.91                             157     0.3 5   40 100 
 BAR2 SZ I         8 1 21.53         4.6 0.23                            40 100 
 BRR  HZ EP        8 1  7.95                             151    -0.110   53 339 
 BRR  HZ I         8 1  8.16         3.4 0.08                            53 339 
 BRR  HN ES   2    8 1 19.95                             151    -0.3 5   53 339 
 PTB  HZ EP        8 1 11.79                             132     0.010  102 263 
 PTB  HE ES   1    8 1 26.93                             132    -0.1 7  102 263 
 ZAR  HN ES   2    8 1 40.17                             116     0.5 4  172 302 
                                                                                
