 2017  2 2 0113 25.9 L   6.839 -73.146146.9  RSN 19 0.6 2.7LRSN                1
 GAP= 70        1.29       4.2     3.6  5.9  0.4750E+00  0.7024E+01  0.3043E+01E
 Epicentro: LOS SANTOS - SANTANDER                                             3
 ACTION:UPD 17-05-24 15:31 OP:jn   STATUS:               ID:20170202011325 L   I
 OLDACT:UP  17-02-02 14:40 OP:ar   STATUS:               ID:20170202010032     3
 OLDACT:UP  17-02-02 14:38 OP:ar   STATUS:               ID:20170202010032     3
 OLDACT:REG 17-02-02 12:52 OP:ar   STATUS:               ID:20170202010032     3
 2017-02-02-0108-00M.COL___328                                                 6
 STAT SP IPHASW D HRMM SECON CODA AMPLIT PERI AZIMU VELO AIN AR TRES W  DIS CAZ7
 BAR2 EZ IP     C  113 45.70                             169   -0.1110 27.6 188 
 BAR2 EZ ES        114  0.72                             169   -0.5810 27.6 188 
 BAR2 EZ I         114  2.16       153.3 0.48            166           27.6 188 
 BRR  HZ IP     C  113 47.53                             153    0.4210 69.2 295 
 BRR  HN ES        114  4.76                             153    1.1410 69.2 295 
 BRR  HZ I         114  7.67        95.3 0.44            152           69.2 295 
 PAM  EZ EP        113 48.55                             152    0.4610 74.1  42 
 PAM  EN ES        114  5.53                             152    0.1610 74.1  42 
 PAM  EZ I         114  6.21        95.0 0.20            152           74.1  42 
 RUS  HZ IP     C  113 49.70                             143   -0.4310  105 176 
 RUS  HN ES        114  8.35                             143   -0.6410  105 176 
 RUS  HZ I         114  9.99        34.8 0.22            140            105 176 
 PTB  HZ EP        113 52.36                             132   -0.73 9  149 257 
 PTB  HN ES        114 13.55                             132   -0.71 9  149 257 
 PTB  HZ I         114 21.04        82.9 0.32            130            149 257 
 TAM  HZ EP        113 54.02                             131    0.20 9  156 107 
 TAM  HZ I         114 14.79        40.1 0.34            128            156 107 
 TAM  HN ES        114 15.74                             131    0.17 9  156 107 
 ZAR  HZ EP        113 58.45                             123    0.15 9  202 291 
 ZAR  HN ES        114 23.71                             123    0.17 9  202 291 
 ZAR  HZ I         114 29.92        61.1 0.38            121            202 291 
 NOR  HZ EP        114  1.90                             118   -0.12 8  237 234 
 NOR  HN ES        114 29.95                             118   -0.20 8  237 234 
 NOR  HZ I         114 33.70        40.4 0.28            116            237 234 
 CHI  HZ EP        114  4.03                             117   -0.13 8  253 195 
 CHI  HN ES        114 33.46                             117   -0.51 8  253 195 
 CHI  HZ I         114 40.34        33.1 0.46            115            253 195 
 ROSC BZ EP        114  5.58                             117    1.04 8  256 211 
 ROSC BN ES   4    114 36.49                             117    1.86 0  256 211 
 ROSC BZ I         114 40.78        60.0 0.45            114            256 211 
 URE  HZ EP        114  6.41                             114   -0.49 7  282 291 
 URE  HN ES   4    114 36.40                             114   -2.44 0  282 291 
 URE  HZ I         114 38.54        40.5 0.14            112            282 291 
 PTGC HZ IP   4 C  114  8.92                             111   -1.39 0  313 159 
 PTGC HE ES   4    114 42.08                             111   -2.84 0  313 159 
 ELA  HZ EP   4    114 15.16                             110    1.99 0  332 229 
 ELA  HE ES   4    114 54.17                             110    4.17 0  332 229 
 ELA  HZ I         114 57.71        32.6 0.52            108            332 229 
 CBOC HZ EP        114 13.53                             110    0.47 7  335 251 
 CBOC HN ES        114 51.11                             110    1.29 7  335 251 
 CBOC HZ I         114 58.99        12.0 0.42            108            335 251 
 DBB  EZ EP        114 13.35                             110   -0.09 7  339 274 
 DBB  EN ES        114 50.18                             110   -0.30 7  339 274 
 DBB  EZ I         114 58.62        11.2 0.30            108            339 274 
 ORTC HZ EP        114 20.54                             106    0.22 6  399 216 
 ORTC HN ES        115  3.70                             106    0.98 6  399 216 
 ORTC HZ I         115  9.43        16.7 0.64            105            399 216 
 SJC  HZ EP        114 19.97                             106   -1.15 6  406 327 
 SJC  HN ES   4    115  0.90                             106   -3.26 0  406 327 
 PAL  HZ EP        114 21.50                             106    0.09 6  408 239 
 PAL  HN ES   4    115  7.30                             106    2.63 0  408 239 
 PAL  HZ I         115 10.64         7.8 0.22            104            408 239 
 CRJC HZ EP   4    114 25.98                             104   -1.98 0  463   4 
 CRJC HE ES   4    115 13.03                             104   -3.31 0  463   4 
 CRJC HZ I         115 18.00        10.2 0.20            102            463   4 
 SMAR HZ EP        114 30.51                             102   -0.84 4  493 346 
 SMAR HN ES   4    115 18.92                             102   -3.44 0  493 346 
 SMAR HZ I         115 24.89         9.7 0.42            101            493 346 
                                                                                
