 2013  7 2 0415 11.8 L   6.821 -73.131149.8  RSN  6 0.5 1.6LRSN                1
 GAP=137        1.16       5.2     6.9  9.5  0.2835E+01  0.2329E+02 -0.1848E+01E
 Epicentro: LOS SANTOS - SANTANDER                                             3
 ACTION:UPD 13-08-12 10:34 OP:ep   STATUS:               ID:20130702041511 L   I
 OLDACT:UP  13-07-03 00:10 OP:CF   STATUS:               ID:20130702041511 L   3
 OLDACT:DUP 13-07-02 10:09 OP:stll STATUS:               ID:20130702040852d    3
 2013-07-02-0408-49M.COL___227                                                 6
 STAT SP IPHASW D HRMM SECON CODA AMPLIT PERI AZIMU VELO AIN AR TRES W  DIS CAZ7
 BAR2 SZ EP   1    415 32.44                             170    0.44 7 26.0 193 
 BAR2 SZ I         415 32.69         6.2 0.10            170           26.0 193 
 BAR2 SZ ES        415 47.77                             170    0.0410 26.0 193 
 BRR  HZ EP   1    415 34.30                             153    0.87 7 71.5 296 
 BRR  HN ES   1    415 51.32                             153    1.03 7 71.5 296 
 BRR  HN I         415 51.97        11.7 0.20            153           71.5 296 
 PAM  SN ES        415 51.54                             152   -0.3110 74.5  40 
 RUS  HZ EP        415 35.93                             144   -0.2110  103 177 
 RUS  HN ES        415 54.97                             144   -0.1310  103 177 
 PTB  HZ EP        415 39.53                             132    0.22 9  150 258 
 PTB  HN ES        416  0.07                             132   -0.68 9  150 258 
 SML  HE ES        416 16.66                             118   -0.49 8  242 335 
                                                                                
