 2017  2 2 0148 18.3 L   6.776 -73.154148.3  RSN  8 0.4 1.7LRSN                1
 GAP=120        0.94       4.5     4.1  5.9  0.3134E+01  0.2449E+01  0.6916E+01E
 Epicentro: LOS SANTOS - SANTANDER                                             3
 ACTION:UPD 17-05-24 15:31 OP:jn   STATUS:               ID:20170202014818 L   I
 OLDACT:UP  17-02-02 15:47 OP:ar   STATUS:               ID:20170202014739     3
 OLDACT:REG 17-02-02 12:55 OP:ar   STATUS:               ID:20170202014739     3
 2017-02-02-0148-00M.COL___328                                                 6
 STAT SP IPHASW D HRMM SECON CODA AMPLIT PERI AZIMU VELO AIN AR TRES W  DIS CAZ7
 BAR2 EZ EP        148 38.12                             172   -0.0310 20.5 189 
 BAR2 EZ ES        148 53.27                             172   -0.3810 20.5 189 
 BAR2 EZ I         148 54.61        11.7 0.22            167           20.5 189 
 BRR  HZ EP        148 39.91                             153    0.1910 71.8 301 
 BRR  HN ES        148 57.19                             153    0.7410 71.8 301 
 PAM  EZ EP        148 41.03                             150    0.1210 80.0  39 
 PAM  EN ES        148 58.22                             150   -0.3510 80.0  39 
 PAM  EZ I         149  0.19        11.4 0.50            156           80.0  39 
 RUS  HZ EP        148 42.11                             145    0.0210 98.0 175 
 RUS  HN ES        149  1.01                             145    0.3510 98.0 175 
 RUS  HZ I         149  1.81         7.6 0.24            143           98.0 175 
 PTB  HZ EP        148 45.08                             133   -0.24 9  146 260 
 PTB  HN ES        149  5.79                             133   -0.63 9  146 260 
 PTB  HZ I         149 10.92         6.8 0.14            132            146 260 
 ZAR  HN E         148 57.07                                            204 293 
 ZAR  HN ES        149 16.38                             123    0.03 9  204 293 
 CHI  HZ EP        148 56.22                             118    0.41 8  246 195 
 CHI  HN ES   4    149 26.31                             118    1.23 0  246 195 
 CHI  HZ I         149 35.47         3.4 0.32            117            246 195 
 PTGC HZ EP        149  1.63                             112   -0.37 7  307 158 
 PTGC HN ES   4    149 33.87                             112   -2.23 0  307 158 
                                                                                
