 2010  8 2 0737 56.6 L   6.803 -73.036148.0  RSN 12 0.5 2.4LRSN                1
 GAP=168        1.02       5.4    10.5  8.5 -0.2893E+02  0.1629E+02  0.6799E+01E
 Epicentro: CEPITA - SANTANDER                                                 3
 ACTION:UP  10-09-07 10:51 OP:vdl  STATUS:               ID:20100802073756 L   I
 2010-08-02-0736-55S.COL___123                                                 6
 STAT SP IPHASW D HRMM SECON CODA AMPLIT PERI AZIMU VELO SNR AR TRES W  DIS CAZ7
 BAR2 SZ IP     C  738 16.27                             169    -0.310   28 215 
 BAR2 SZ ES   2    738 32.54                             169     0.3 5   28 215 
 GIR2 SZ EP   1    738 16.33                             166    -0.3 7   35 330 
 GIR2 SZ ES   2    738 32.50                             166     0.2 5   35 330 
 BRR  HZ EP   1    738 18.15                             149    -0.4 7   82 294 
 BRR  HZ I         738 18.55        56.8 0.10                            82 294 
 BRR  HN ES   2    738 35.62                             149    -0.2 5   82 294 
 RUS  HZ EP   1    738 19.84                             144    -0.7 7  101 183 
 RUS  HE ES   2    738 39.04                             144    -0.2 5  101 183 
 RUS  HZ I         738 41.34        18.7 0.56                           101 183 
 BRI  SZ EP   1    738 20.98                             143     0.6 7  104  15 
 BRI  SZ ES   2    738 39.44                             143     0.5 5  104  15 
 GUE  SZ EP   1    738 21.21                             140    -0.1 7  114   6 
 GRA  SZ EP   1    738 22.08                             138     0.3 7  122  12 
 GRA  SZ ES   2    738 41.81                             138     0.4 5  122  12 
 GRA  SZ I         738 42.84        42.1 0.35                           122  12 
 OCA  SZ EP   1    738 24.81                             130    -0.4 7  162 349 
 OCA  SZ ES   2    738 47.17                             130    -0.4 5  162 349 
 OCA  SZ I         738 51.33        26.9 0.52                           162 349 
 ROSC BZ EP        738 36.46                             116     0.9 8  259 213 
 ROSC BN ES   2    739  6.82                             116     0.9 4  259 213 
 ROSC BZ I         739 11.49         8.6 0.40                           259 213 
 HEL  HZ EP   1    738 38.11                             114    -0.1 6  284 256 
 HEL  HZ I         739 14.30         9.3 0.46                           284 256 
 RREF HZ EP   1    738 44.86                             110     1.0 5  331 231 
 RREF HE ES   2    739 20.13                             110    -0.7 3  331 231 
 RREF HZ I         739 27.67        15.4 0.55                           331 231 
 PRA  HZ EP   1    738 49.82                             106    -1.1 4  398 211 
 PRA  HN ES   2    739 33.69                             106     0.4 3  398 211 
 PRA  HZ I         739 37.52         7.1 0.24                           398 211 
                                                                                
