 2011  3 2 0640 41.8 L   6.812 -73.173141.7  RSN  6 0.4 1.7LRSN                1
 GAP=156        0.74       4.0     8.6 12.7 -0.9356E+01  0.6103E+02  0.5541E+01E
 Epicentro: LOS SANTOS - SANTANDER                                             3
 ACTION:UP  11-06-16 14:31 OP:jfem STATUS:               ID:20110302064041 L   I
 2011-03-02-0638-02S.COL___136                                                 6
 STAT SP IPHASW D HRMM SECON CODA AMPLIT PERI AZIMU VELO SNR AR TRES W  DIS CAZ7
 BAR2 SZ EP   2    641  1.33                             170     0.4 7   24 183 
 BAR2 SZ I         641 18.19         8.3 0.23                            24 183 
 RUS  HZ EP   2    641  5.28                             142     0.0 7  102 174 
 RUS  HE ES   2    641 23.96                             142     0.4 7  102 174 
 RUS  HZ I         641 24.95         8.0 0.39                           102 174 
 GRA  SZ EP   1    641  7.13                             136     0.510  125  19 
 GRA  SZ ES   1    641 25.43                             136    -0.610  125  19 
 GRA  SZ I         641 28.82         6.6 0.28                           125  19 
 OCA  SZ EP   2    641  9.62                             129     0.0 6  159 354 
 OCA  SZ ES   1    641 31.35                             129     0.0 9  159 354 
 OCA  SZ I         641 37.45         7.0 0.25                           159 354 
 CHI  HZ EP   2    641 18.80                             116    -0.5 5  249 194 
 CHI  HE ES   2    641 47.79                             116    -0.8 5  249 194 
 CHI  HZ I         641 55.31         3.1 0.26                           249 194 
 HEL  HZ EP        641 21.52                             114     0.010  270 255 
 HEL  HE ES   2    641 52.70                             114     0.2 5  270 255 
                                                                                
