 2016  3 2 0232  6.3 L   6.837 -73.218145.5  RSN  5 0.3 1.4LRSN                1
 GAP=149        0.73       3.6     4.2  5.4 -0.4272E+01  0.5013E+01  0.3031E+01E
 Epicentro: ZAPATOCA - SANTANDER                                               3
 ACTION:UPD 16-05-13 21:20 OP:cam  STATUS:               ID:20160302023206 L   I
 OLDACT:UP  16-03-02 16:07 OP:mh   STATUS:               ID:20160302022750     3
 OLDACT:UP  16-03-02 16:07 OP:mh   STATUS:               ID:20160302022750     3
 OLDACT:UP  16-03-02 16:06 OP:mh   STATUS:               ID:20160302022750     3
 OLDACT:UP  16-03-02 16:06 OP:mh   STATUS:               ID:20160302022750     3
 OLDACT:REG 16-03-02 12:48 OP:mh   STATUS:               ID:20160302022750     3
 2016-03-02-0227-50M.COL___319                                                 6
 STAT SP IPHASW D HRMM SECON CODA AMPLIT PERI AZIMU VELO AIN AR TRES W  DIS CAZ7
 BAR2 EZ EP        232 25.94                             169   -0.0010 27.3 172 
 BAR2 EZ ES        232 41.57                             169    0.2710 27.3 172 
 BAR2 EZ I         232 42.68         6.3 0.06            170           27.3 172 
 PAM  EZ EP        232 28.85                             150    0.2610 79.8  46 
 PAM  EN ES        232 45.70                             150   -0.3110 79.8  46 
 PAM  EZ I         232 48.23         3.3 0.46            154           79.8  46 
 RUS  HE EP        232 30.71                             142    0.3710  105 172 
 RUS  HZ ES        232 48.85                             142   -0.2710  105 172 
 RUS  HE I         232 49.63         7.8 0.18            145            105 172 
 PTB  HZ EP        232 32.10                             133   -0.48 9  141 257 
 PTB  HN ES        232 53.31                             133    0.20 9  141 257 
 PTB  HZ I         233  0.63         3.0 0.58            132            141 257 
 CHI  HZ EP        232 44.17                             117    0.02 8  251 193 
 CHI  HN ES        233 13.58                             117   -0.13 8  251 193 
 CHI  HZ I         233 16.91         0.9 0.30            119            251 193 
                                                                                
