 2016  1 2 0529 34.8 L   6.785 -73.144151.4  RSN  5 0.4 1.6LRSN                1
 GAP=216        0.98       6.4     6.6  7.4  0.6575E+01  0.4417E+01 -0.1640E+02E
 Epicentro: LOS SANTOS - SANTANDER                                             3
 ACTION:UPD 16-03-09 23:22 OP:cam  STATUS:               ID:20160102052934 L   I
 OLDACT:REG 16-01-02 12:36 OP:drio STATUS:               ID:20160102052739     3
 2016-01-02-0527-39M.COL___320                                                 6
 STAT SP IPHASW D HRMM SECON CODA AMPLIT PERI AZIMU VELO AIN AR TRES W  DIS CAZ7
 BAR2 EZ EP        529 55.27                             172    0.1910 21.7 191 
 BAR2 EZ ES        530 10.44                             172   -0.4610 21.7 191 
 BAR2 EZ I         530 11.39        13.1 0.38            168           21.7 191 
 BRR  HZ EP        529 57.06                             153    0.4510 72.1 300 
 BRR  HN ES        530 14.21                             153    0.5810 72.1 300 
 BRR  HZ I         530 18.11         4.7 0.20            148           72.1 300 
 PTB  HZ EP        530  2.06                             133   -0.16 9  148 259 
 PTB  HN ES        530 23.14                             133   -0.46 9  148 259 
 PTB  HZ I         530 30.05         3.2 0.24            131            148 259 
 ZAR  HZ EP        530  8.02                             123    0.32 9  205 293 
 ZAR  HE ES        530 33.50                             123    0.14 9  205 293 
 ZAR  HZ I         530 40.32         2.5 0.30            123            205 293 
 SML  HZ EP        530 11.49                             118   -0.43 8  245 335 
 SML  HN ES        530 40.40                             118   -0.47 8  245 335 
 SML  HZ I         530 44.49         4.8 0.10            119            245 335 
                                                                                
