 2017  8 2 0857 47.0 L   6.544 -73.483112.7  RSN 18 0.6 1.7LRSN                1
 GAP= 67        1.33       3.3     2.9  6.1 -0.8810E+00  0.4063E+01  0.5682E+01E
 Epicentro: EL CARMEN - SANTANDER                                              3
 ACTION:UPD 17-09-04 20:15 OP:rebc STATUS:               ID:20170802085747 L   I
 OLDACT:DUP 17-08-02 18:57 OP:osc  STATUS:               ID:20170802084738d    3
 2017-08-02-0848-00M.COL___392                                                 6
 STAT SP IPHASW D HRMM SECON CODA AMPLIT PERI AZIMU VELO AIN AR TRES W  DIS CAZ7
 BAR2 EZ IP     C  858  3.14                             162    0.1510 33.6  81 
 BAR2 EZ ES        858 15.50                             162    0.0310 33.6  81 
 BRR  HZ EP        858  3.89                             146   -0.5310 67.2 338 
 BRR  HE ES        858 17.65                             146   -0.3510 67.2 338 
 BRR  HZ I         858 27.44        17.9 0.14            150           67.2 338 
 RUS  HZ EP        858  6.56                             140    0.2110 84.5 148 
 RUS  HN ES        858 21.49                             140    0.0410 84.5 148 
 RUS  HZ I         858 23.28         8.5 0.36            145           84.5 148 
 PTB  HZ EP   9    858  6.01                             132   -1.62 0  108 270 
 PTB  HE ES        858 21.06                                   -1.0510  108 270 
 PTB  HZ I         858 27.55         9.3 0.09            135            108 270 
 SPBC HZ EP        858  8.08                             129   -0.6210  118 214 
 SPBC HE ES        858 24.96                             129   -0.6710  118 214 
 SPBC HZ I         858 30.83        14.0 0.06            133            118 214 
 PAM  EZ EP        858  9.82                             128    0.1010  123  44 
 PAM  EN ES        858 27.76                             128    0.3110  123  44 
 PAM  EZ I         858 28.72         8.1 0.40            135            123  44 
 YPLC HZ EP        858 15.14                             117    0.60 9  176 136 
 YPLC HE ES   4    858 37.83                             117    1.80 0  176 136 
 ZAR  HZ EP        858 15.51                             116    0.12 9  185 305 
 ZAR  HE ES        858 37.90                             116    0.37 9  185 305 
 ZAR  HZ I         858 40.33        21.7 0.26            120            185 305 
 TAM  HZ EP        858 15.93                             115    0.19 9  187  94 
 TAM  HE ES        858 38.28                             115    0.12 9  187  94 
 NOR  HZ EP        858 15.09                             116   -0.71 9  188 235 
 NOR  HE ES        858 37.78                             116   -0.49 9  188 235 
 NOR  HZ I         858 40.48         7.7 0.07            119            188 235 
 CHI  HZ EP        858 19.55                             112    0.45 8  213 187 
 CHI  HN ES        858 44.77                             112    0.64 8  213 187 
 CHI  HZ I         858 49.49         2.1 0.26            116            213 187 
 HEL  HZ EP        858 21.03                             111    0.15 8  230 260 
 HEL  HN ES        858 47.38                             111    0.08 8  230 260 
 GUY2CHZ EP        858 23.28                             108   -0.56 8  254 235 
 GUY2CHE ES        858 54.02                             108    1.44 8  254 235 
 GUY2CHZ I         859  1.63         2.9 0.64                           254 235 
 CBOC HZ EP        858 27.67                             105    0.08 7  290 255 
 CBOC HN ES        858 59.54                             105    0.29 7  290 255 
 CBOC HZ I         859  6.37         1.8 0.38            108            290 255 
 PTGC HN ES        858 59.77                             104   -1.08 7  299 150 
 PRA  HZ EP        858 33.29                             101   -1.20 6  349 207 
 PRA  HE ES        859 12.55                             101    1.02 6  349 207 
 PRA  HZ I         859 17.48         2.9 0.22            105            349 207 
 ORTC HZ EP        858 34.45                             101   -0.20 6  351 214 
 ORTC HE ES        859 12.71                             101    0.89 6  351 214 
 ORTC HZ I         859 18.23         2.1 0.28            105            351 214 
 PAL  HZ EP        858 35.24                             101   -0.44 6  359 240 
 PAL  HE ES   4    859  7.53                             101   -6.13 0  359 240 
 PAL  HZ I         859 19.15         2.3 0.28            104            359 240 
                                                                                
