 2011  4 2 0303 31.9 L   6.613 -73.183132.8  RSN  5 0.3 1.5LRSN                1
 GAP=162        0.66       9.8     9.6  8.9 -0.5842E+01 -0.1226E+02  0.1532E+02E
 Epicentro: BARICHARA - SANTANDER                                              3
 ACTION:UP  11-06-22 15:27 OP:REBC STATUS:               ID:20110402030331 L   I
 2011-04-02-0300-00M.COL___139                                                 6
 STAT SP IPHASW D HRMM SECON CODA AMPLIT PERI AZIMU VELO SNR AR TRES W  DIS CAZ7
 BAR2 SZ EP   3    3 3 49.62                             179    -0.1 2    2 179 
 BAR2 SZ ES   2    3 4  3.72                             179     0.1 5    2 179 
 BAR2 SZ I         3 4  5.54         7.1 0.13                             2 179 
 BTL  SZ EP        3 3 50.70                             165     0.410   35 344 
 GIR2 SZ EP        3 3 50.54                             158    -0.310   52 359 
 GIR2 SZ ES   2    3 4  5.10                             158    -0.5 5   52 359 
 BRR  HZ EP        3 3 52.12                             147    -0.110   80 313 
 BRR  HZ I         3 3 53.13        10.6 0.07                            80 313 
 BRR  HN ES   1    3 4  8.20                             147     0.1 7   80 313 
 GRA  SZ ES   2    3 4 18.55                             129     0.3 5  147  17 
 GRA  SZ I         3 4 26.62         2.2 0.60                           147  17 
                                                                                
