 2011  9 2 0510 42.7 L   6.789 -73.056144.4  RSN  8 0.1 1.7LRSN                1
 GAP=149        0.30       2.3     4.0  3.8 -0.1393E+01 -0.3369E+00  0.3839E+00E
 Epicentro: LOS SANTOS - SANTANDER                                             3
 ACTION:UPD 12-07-13 15:55 OP:ep   STATUS:               ID:20110902051042 L   I
 2011-09-02-0506-24S.COL___167                                                 6
 STAT SP IPHASW D HRMM SECON CODA AMPLIT PERI AZIMU VELO AIN AR TRES W  DIS CAZ7
 BAR2 SZ EP   1    511  2.27                             169    0.02 7 25.9 213 
 BAR2 SZ ES   2    511 17.52                             169    0.05 5 25.9 213 
 BAR2 SZ I         511 20.45        18.6 0.36                          25.9 213 
 GIR2 SZ EP   2    511  2.57                             166    0.21 5 35.5 335 
 PAM  SZ EP   2    511  4.69                             152    0.18 5 72.5  33 
 BRR  HZ EP   1    511  4.16                             149   -0.13 7 80.6 296 
 BRR  HN ES   2    511 21.11                             149    0.00 5 80.6 296 
 BRR  HZ I         511 24.28        11.0 0.13                          80.6 296 
 RUS  HE ES   2    511 24.37                             144   -0.21 5 99.2 182 
 RUS  HZ I         511 26.30         6.9 0.11                          99.2 182 
 OCA  SZ EP   2    511 11.12                             129   -0.06 5  163 350 
 OCA  SZ I         511 29.29         7.2 0.33                           163 350 
 NOR  SN ES   2    511 47.70                             117    0.08 4  242 236 
 CHI  HZ EP   1    511 20.39                             117   -0.13 6  250 197 
 CHI  HN ES   2    511 50.30                             117    0.29 4  250 197 
 CHI  HZ I         511 55.20         2.7 0.42                           250 197 
                                                                                
