 2015 11 2 0036 42.0 L   6.791 -73.123144.2  RSN 15 0.4 2.0LRSN                1
 GAP= 73        0.59       2.3     2.9  3.8 -0.6960E+00  0.1603E+01  0.2010E+01E
 Epicentro: LOS SANTOS - SANTANDER                                             3
 ACTION:UPD 15-12-28 16:08 OP:cam  STATUS:               ID:20151102003642 L   I
 OLDACT:REG 15-11-02 12:23 OP:ar   STATUS:               ID:20151102002748     3
 2015-11-02-0027-48M.COL___316                                                 6
 STAT SP IPHASW D HRMM SECON CODA AMPLIT PERI AZIMU VELO AIN AR TRES W  DIS CAZ7
 BAR2 EZ EP     D  037  1.25                             171   -0.2010 23.0 197 
 BAR2 EZ ES        037 16.27                             171   -0.3310 23.0 197 
 BAR2 EZ I         037 16.95        40.9 0.34            168           23.0 197 
 BRR  HZ EP     C  037  3.21                             151    0.0610 73.9 298 
 BRR  HE ES        037 20.07                             151    0.4410 73.9 298 
 BRR  HZ I         037 23.10        21.9 0.20            148           73.9 298 
 PAM  EZ EP     C  037  4.34                             150    0.3310 76.5  38 
 PAM  EN ES        037 21.11                             150   -0.0610 76.5  38 
 PAM  EZ I         037 23.14        16.1 0.42            142           76.5  38 
 RUS  HZ EP   2    037  5.37                             144   -0.16 5 99.5 177 
 RUS  HN ES   2    037 23.53                             144   -0.34 5 99.5 177 
 RUS  HZ I         037 25.08         9.2 0.52            136           99.5 177 
 TAM  HZ EP   2    037  9.60                             130    0.28 5  152 105 
 TAM  HZ I         037 29.85        10.3 0.30            121            152 105 
 TAM  HE ES   2    037 30.92                             130    0.31 5  152 105 
 OCA  HE ES   2    037 31.67                             129   -0.73 5  162 352 
 OCA  HZ I         037 39.12        26.7 0.48            121            162 352 
 SPBC HZ EP   2    037 10.60                             128    0.12 5  164 220 
 SPBC HN ES   2    037 32.09                             128   -0.58 5  164 220 
 SPBC HZ I         037 35.97        18.0 0.22            122            164 220 
 ZAR  HZ EP   2    037 14.44                             121   -0.20 4  207 292 
 ZAR  HN ES   2    037 40.28                             121    0.20 4  207 292 
 ZAR  HZ I         037 45.71        12.5 0.26            115            207 292 
 NOR  HZ EP   2    037 17.76                             118   -0.06 4  236 235 
 NOR  HE ES   2    037 45.22                             118   -0.52 4  236 235 
 NOR  HZ I         037 49.56        10.2 0.14            112            236 235 
 SML  HZ EP   2    037 18.43                             117   -0.33 4  246 335 
 SML  HE ES   2    037 47.06                             117   -0.36 4  246 335 
 SML  HZ I         037 50.32        16.5 0.10            110            246 335 
 CHI  HZ EP        037 19.97                             117    0.37 8  248 196 
 CHI  HN ES        037 48.90                             117   -0.01 8  248 196 
 CHI  HZ I         037 56.18         2.6 0.30            110            248 196 
 HEL  HZ EP   4    037 23.57                             114    1.18 0  274 256 
 HEL  HN ES   2    037 54.51                             114    0.62 4  274 256 
 HEL  HZ I         038  1.72         4.9 0.22            108            274 256 
 GUY2CHZ EP   9    037 28.52                             112    2.80 0  303 235 
 GUY2CHE ES   2    038  2.20                                   -0.41 4  303 235 
 GUY2CHZ I         038  8.57         5.2 0.46                           303 235 
 MON  HZ EP   9    037 29.16                             108   -2.09 0  356 308 
 MON  HN ES   2    038  7.62                                    0.05 3  356 308 
 MON  HZ I         038 11.77         2.8 0.56            102            356 308 
 SJC  HZ EP   2    037 36.51                             105   -1.27 3  411 327 
 SJC  HN ES   4    038 17.10                             105   -4.18 0  411 327 
 SJC  HZ I         038 21.39         2.5 0.26            100            411 327 
                                                                                
