 2017  7 2 0251  7.0 L   6.818 -73.140145.5  RSN 24 0.6 2.5LRSN                1
 GAP= 66        0.97       3.0     2.6  4.6  0.8281E-01  0.1975E+01  0.2691E+01E
 Epicentro: LOS SANTOS - SANTANDER                                             3
 ACTION:UPD 17-08-30 15:29 OP:rebc STATUS:               ID:20170702025107 L   I
 OLDACT:UP  17-07-02 13:12 OP:and  STATUS:               ID:20170702024745     3
 OLDACT:UP  17-07-02 13:08 OP:and  STATUS:               ID:20170702024745     3
 OLDACT:UP  17-07-02 13:05 OP:and  STATUS:               ID:20170702024745     3
 OLDACT:UP  17-07-02 12:59 OP:and  STATUS:               ID:20170702024745     3
 OLDACT:REG 17-07-02 11:41 OP:and  STATUS:               ID:20170702024745     3
 2017-07-02-0248-00M.COL___378                                                 6
 STAT SP IPHASW D HRMM SECON CODA AMPLIT PERI AZIMU VELO AIN AR TRES W  DIS CAZ7
 BAR2 EZ IP     C  251 26.53                             170   -0.1010 25.4 191 
 BAR2 EZ ES        251 40.84                             170   -1.1210 25.4 191 
 BAR2 EZ I         251 42.25        49.8 0.18            167           25.4 191 
 BRR  HZ IP     C  251 28.44                             153    0.3510 70.8 297 
 BRR  HN ES        251 45.12                             153    0.5710 70.8 297 
 BRR  HZ I         251 49.41        77.8 0.11            150           70.8 297 
 PAM  EZ IP     C  251 29.53                             151    0.4710 75.4  40 
 PAM  EN ES        251 46.07                             151   -0.2110 75.4  40 
 PAM  EZ I         251 48.43        54.4 0.46            155           75.4  40 
 PTB  HZ IP   9 C  251 33.06                             132   -0.97 0  149 258 
 PTB  HN ES        251 54.27                             132    0.12 9  149 258 
 PTB  HZ I         251 57.93        24.1 0.07            130            149 258 
 TAM  HZ IP     D  251 34.67                             130    0.03 9  155 106 
 TAM  HN ES        251 56.57                             130    0.37 9  155 106 
 SPBC HZ EP        251 35.42                             129   -0.23 9  165 219 
 SPBC HN ES   3    251 56.85                             129   -1.16 2  165 219 
 SPBC HZ I         252  0.83        58.7 0.10            128            165 219 
 YPLC HZ EP        251 37.02                             126    0.11 9  178 152 
 YPLC HN ES        252  0.64                             126    0.40 9  178 152 
 YPLC HZ I         252  3.11        32.0 0.36            128            178 152 
 ZAR  HZ EP        251 39.66                             122    0.26 9  204 292 
 ZAR  HN ES        252  5.17                             122    0.48 9  204 292 
 ZAR  HZ I         252 10.62        54.4 0.32            122            204 292 
 TABC EZ EP   4    251 50.03                             119    7.09 0  232 211 
 TABC EZ ES        252 11.56                             119    0.58 8  232 211 
 NOR  HZ EP        251 42.81                             118   -0.07 8  236 234 
 NOR  HN ES        252 10.29                             118   -0.59 8  236 234 
 NOR  HZ I         252 13.29        21.7 0.24            118            236 234 
 CHI  HZ EP   2    251 45.15                             117    0.25 4  251 195 
 CHI  HN ES        252 13.92                             117   -0.55 8  251 195 
 CHI  HZ I         252 18.32        10.5 0.42            117            251 195 
 ROSC BZ EP   3    251 43.46                             116   -1.86 2  255 211 
 ROSC BN ES   4    252 17.48                             116    2.27 0  255 211 
 ROSC BZ I         252 22.92        45.0 0.55            116            255 211 
 HEL  HZ EP   3    251 48.90                             114    1.59 2  273 255 
 HEL  HN ES        252 18.86                             114    0.10 8  273 255 
 HEL  HZ I         252 25.33        18.2 0.44            114            273 255 
 URE  HZ EP   9    251 46.97                             113   -1.06 0  284 291 
 URE  HN ES        252 19.21                             113    0.23 7  284 291 
 URE  HZ I         252 31.48        25.8 0.18            113            284 291 
 GUY2CHZ EP   4    251 52.61                             112    1.84 0  303 235 
 GUY2CHN ES   4    252 27.88                             112    2.95 0  303 235 
 GUY2CHZ I         252 31.91        20.3 0.24                           303 235 
 VIL  EZ EP        251 50.87                             112    0.24 7  305 192 
 VIL  EN ES   3    252 23.74                             112   -0.93 2  305 192 
 VIL  EZ I         252 29.22        17.0 0.44            112            305 192 
 PTGC HZ IP   3 C  251 49.82                             111   -1.20 2  310 159 
 PTGC HN ES   4    252 22.94                             111   -2.42 0  310 159 
 PTGC HZ I         252 25.34        14.5 0.40            112            310 159 
 LL6C HZ IP     C  251 51.45                             110   -1.00 7  323 357 
 LL6C HN ES   3    252 29.00                             110    1.08 2  323 357 
 CBOC HZ EP   3    251 55.05                             110    1.02 2  335 252 
 CBOC HN ES        252 30.56                             110   -0.17 7  335 252 
 CBOC HZ I         252 34.35         6.4 0.22            110            335 252 
 DBB  EZ EP   2    251 54.61                             109    0.10 3  340 274 
 DBB  EN ES   2    252 31.14                             109   -0.44 3  340 274 
 DBB  EZ I         252 37.83         7.4 0.19            109            340 274 
 ORTC HZ EP        252  1.53                             106    0.40 6  397 216 
 ORTC HN ES   2    252 44.49                             106    1.13 3  397 216 
 ORTC HZ I         252 49.58        10.4 0.46            106            397 216 
 SJC  HZ EP        252  1.35                             106   -1.04 6  408 327 
 SJC  HN ES   4    252 42.38                             106   -3.22 0  408 327 
 SJC  HZ I         252 46.05         6.2 0.40            106            408 327 
 CRJC HZ EP   3    252  7.32                             103   -1.92 1  466   3 
 CRJC HN ES   4    252 53.61                             103   -4.18 0  466   3 
 YOT  HZ EP        252  9.87                             103   -0.37 5  474 229 
 YOT  HN ES   4    253  2.16                             103    2.59 0  474 229 
                                                                                
