 2014 11 2 0243 33.2 L   6.787 -73.133148.0  RSN 18 0.4 2.1LRSN                1
 GAP= 72        0.92       2.8     2.8  4.9 -0.8581E+00  0.2682E+01  0.2647E+01E
 Epicentro: LOS SANTOS - SANTANDER                                             3
 ACTION:UPD 14-12-19 15:38 OP:nd   STATUS:               ID:20141102024333 L   I
 OLDACT:REG 14-11-02 13:24 OP:spq  STATUS:               ID:20141102023749     3
 2014-11-02-0237-49M.COL___274                                                 6
 STAT SP IPHASW D HRMM SECON CODA AMPLIT PERI AZIMU VELO AIN AR TRES W  DIS CAZ7
 BAR2 SZ EP     C  243 52.90                             171   -0.1810 22.3 194 
 BAR2 SZ ES   1    244  8.68                             171    0.10 7 22.3 194 
 BAR2 SZ I         244  9.74        24.5 0.48            169           22.3 194 
 BRR  HZ IP     C  243 54.81                             152    0.1110 73.1 299 
 BRR  HN ES        244 12.39                             152    0.9210 73.1 299 
 BRR  HZ I         244 17.14        24.3 0.07            151           73.1 299 
 PAM  SZ EP        243 55.78                             151    0.1210 77.6  38 
 PAM  SN ES        244 12.92                             151   -0.2610 77.6  38 
 PAM  SZ I         244 15.11        27.6 0.56            151           77.6  38 
 RUS  HZ EP     D  243 56.72                             145   -0.3510 99.1 177 
 RUS  HE ES        244 15.58                             145   -0.1010 99.1 177 
 RUS  HZ I         244 17.17         8.6 0.42            142           99.1 177 
 PTB  HZ EP        243 59.81                             132   -0.64 9  149 259 
 PTB  HN ES        244 21.07                             132   -0.64 9  149 259 
 PTB  HZ I         244 28.35        25.9 0.40            130            149 259 
 TAM  HZ EP     D  244  1.02                             131    0.13 9  153 105 
 TAM  HZ I         244 21.83        10.8 0.38            130            153 105 
 TAM  HE ES        244 22.77                             131    0.27 9  153 105 
 OCA  HZ EP        244  1.64                             130   -0.19 9  162 353 
 OCA  HN ES        244 24.00                             130   -0.16 9  162 353 
 OCA  HZ I         244 27.78        17.9 0.34            129            162 353 
 SPBC HZ EP        244  1.85                             130   -0.00 9  163 220 
 SPBC HE ES        244 24.32                             130    0.11 9  163 220 
 SPBC HZ I         244 31.02        35.1 0.31            127            163 220 
 CHI  HZ EP        244 10.67                             118   -0.25 8  248 196 
 CHI  HE ES   1    244 40.06                             118   -0.28 6  248 196 
 CHI  HZ I         244 48.03         3.6 0.30            116            248 196 
 HEL  HZ EP   1    244 14.43                             115    0.79 6  273 256 
 HEL  HE ES   1    244 46.01                             115    0.82 6  273 256 
 HEL  HZ I         244 52.53         7.9 0.34            113            273 256 
 URE  HZ EP   4    244 13.43                             114   -1.15 0  286 292 
 URE  HE ES   1    244 46.52                             114   -0.34 6  286 292 
 URE  HZ I         244 53.88        10.4 0.28            112            286 292 
 GUY2CHZ EP   4    244 18.13                             113    1.18 0  302 235 
 GUY2CHN ES   4    244 53.10                             113    2.02 0  302 235 
 GUY2CHZ I         244 59.92         7.7 0.32                           302 235 
 PTGC HZ EP   4    244 15.72                             112   -1.23 0  307 159 
 PTGC HN ES   4    244 48.64                             112   -2.44 0  307 159 
 PTGC HZ I         244 53.52        10.1 0.24            111            307 159 
 CBOC HZ EP        244 20.76                             110    0.44 7  335 252 
 CBOC HN ES   1    244 56.57                             110   -0.49 5  335 252 
 CBOC HZ I         245  3.98         2.3 0.22            109            335 252 
 TOL  SZ EP   1    244 22.17                             110    0.62 5  344 225 
 TOL  SN ES   4    245  1.37                             110    2.11 0  344 225 
 TOL  SZ I         245  6.35        13.3 0.36            108            344 225 
 MON  HZ EP   4    244 20.04                             109   -2.48 0  356 308 
 MON  HN ES   4    244 58.75                             109   -2.23 0  356 308 
 MON  HZ I         245  1.28         3.5 0.34            108            356 308 
 PRA  HZ EP        244 27.37                             107    0.63 6  392 210 
 PRA  HE ES        245  8.66                             107    0.16 6  392 210 
 PRA  HZ I         245 12.02         4.0 0.20            105            392 210 
 SJC  HZ EP   4    244 26.89                             106   -2.17 0  411 327 
 SJC  HN ES   4    245  8.28                             106   -4.36 0  411 327 
 SJC  HZ I         245 12.87         3.3 0.54            105            411 327 
                                                                                
