 2013 12 2 0900 29.3 L   6.785 -73.144150.3  RSN  8 0.5 1.6LRSN                1
 GAP=137        1.28       4.7     5.7  9.1  0.1768E+01  0.1067E+02 -0.3923E+01E
 Epicentro: LOS SANTOS - SANTANDER                                             3
 ACTION:UPD 14-01-13 10:15 OP:ep   STATUS:               ID:20131202090029 L   I
 OLDACT:REG 13-12-02 07:30 OP:carl STATUS:               ID:20131202090000     3
 2013-12-02-0900-00M.COL___282                                                 6
 STAT SP IPHASW D HRMM SECON CODA AMPLIT PERI AZIMU VELO AIN AR TRES W  DIS CAZ7
 BAR2 SZ EP        9 0 49.50                             171    0.0210 21.7 191 
 BRR  HZ EP        9 0 51.35                             153    0.3210 72.2 300 
 BRR  HN ES        9 1  8.45                             153    0.4910 72.2 300 
 BRR  HZ I         9 1  9.28         3.5 0.32            151           72.2 300 
 PAM  SZ EP        9 0 52.42                             151    0.3210 78.6  39 
 PAM  SN ES        9 1  9.12                             151   -0.7510 78.6  39 
 RUS  HZ EP        9 0 53.82                             145    0.4110 98.9 176 
 RUS  HN ES        9 1 12.18                             145   -0.0210 98.9 176 
 RUS  HZ I         9 1 13.89         1.6 0.38            147           98.9 176 
 PTB  HZ EP        9 0 56.44                             133   -0.23 9  148 260 
 PTB  HN ES        9 1 17.10                             133   -0.89 9  148 260 
 PTB  HZ I         9 1 19.53         3.4 0.16            133            148 260 
 OCA  HN ES        9 1 21.29                             130    0.64 9  162 353 
 OCA  HN I         9 1 23.35        12.5 0.20            130            162 353 
 ZAR  HZ EP        9 1  2.32                             123    0.15 9  205 293 
 ZAR  HE ES        9 1 28.35                             123    0.57 9  205 293 
 ZAR  HZ I         9 1 33.60         4.3 0.54            123            205 293 
 SML  HZ EP        9 1  5.51                             118   -0.89 8  245 335 
 SML  HE ES        9 1 34.79                             118   -0.51 8  245 335 
 SML  HZ I         9 1 41.42         4.4 0.10            118            245 335 
                                                                                
