 2011 10 2 0414 10.8 L   7.401 -73.198129.3  RSN  6 0.2 1.9LRSN                1
 GAP=105        0.48       2.3     2.9  4.4  0.9020E+00  0.8613E+00  0.1701E+01E
 Epicentro: EL PLAYON - SANTANDER                                              3
 ACTION:UPD 12-07-13 16:01 OP:ep   STATUS:               ID:20111002041410 L   I
 2011-10-02-0412-48S.COL___168                                                 6
 STAT SP IPHASW D HRMM SECON CODA AMPLIT PERI AZIMU VELO AIN AR TRES W  DIS CAZ7
 PAM  SZ EP        414 30.27                             156    0.2810 55.4  97 
 PAM  SN ES   1    414 44.98                             156    0.01 7 55.4  97 
 BRR  HZ EP        414 29.92                             151    0.1010 65.4 240 
 BRR  HN ES   1    414 44.98                             151    0.30 7 65.4 240 
 BRR  HZ I         414 46.39        43.3 0.16                          65.4 240 
 BAR2 SZ EP        414 31.79                             143    0.0410 89.5 179 
 BAR2 SZ ES   1    414 47.96                             143   -0.15 7 89.5 179 
 BAR2 SZ I         414 49.35        22.2 0.04                          89.5 179 
 OCA  SZ EP   1    414 31.91                             142   -0.03 7 93.6 352 
 OCA  SZ ES   1    414 48.07                             142   -0.37 7 93.6 352 
 OCA  SZ I         414 50.64        19.7 0.45                          93.6 352 
 RUS  HZ EP        414 38.86                             124   -0.15 9  167 176 
 RUS  HE ES   1    415  0.76                             124   -0.28 7  167 176 
 RUS  HZ I         415  6.02         2.8 0.22                           167 176 
 ZAR  HN ES   1    415  2.80                             121   -0.06 7  184 273 
                                                                                
