 2014  2 2 0755 23.9 L   6.804 -73.153139.1  RSN  9 0.4 1.6LRSN                1
 GAP=135        1.06       3.2     4.6  6.6 -0.5168E+00  0.1026E+02 -0.1794E+01E
 Epicentro: LOS SANTOS - SANTANDER                                             3
 ACTION:UPD 14-03-10 08:07 OP:ep   STATUS:               ID:20140202075523 L   I
 OLDACT:REG 14-02-02 07:20 OP:nd   STATUS:               ID:20140202075000     3
 2014-02-02-0750-00M.COL___288                                                 6
 STAT SP IPHASW D HRMM SECON CODA AMPLIT PERI AZIMU VELO AIN AR TRES W  DIS CAZ7
 BAR2 SZ EP        755 42.82                             170    0.1210 23.6 188 
 BAR2 SZ ES        755 56.29                             170   -1.1010 23.6 188 
 BAR2 SZ I         755 59.18        14.3 0.14            169           23.6 188 
 PAM  SZ EP        755 45.59                             149    0.2010 77.6  40 
 PAM  SN ES        756  2.74                             149    0.5610 77.6  40 
 PAM  SZ I         756  3.96         3.5 0.16            154           77.6  40 
 RUS  HZ EP        755 46.90                             142   -0.1010  101 176 
 RUS  HN ES        756  5.17                             142    0.1210  101 176 
 RUS  HZ I         756  6.46         3.8 0.32            145            101 176 
 PTB  HZ EP        755 49.89                             130   -0.34 9  147 259 
 PTB  HN ES        756 11.02                             130    0.22 9  147 259 
 PTB  HZ I         756 16.60         4.3 0.26            131            147 259 
 SPBC HZ EP        755 51.72                             127   -0.12 9  163 219 
 SPBC HN ES        756 14.28                             127    0.61 9  163 219 
 SPBC HZ I         756 17.50         6.2 0.18            129            163 219 
 ZAR  HZ EP        755 55.38                             121   -0.41 9  203 292 
 ZAR  HN ES        756 20.81                             121    0.11 9  203 292 
 ZAR  HZ I         756 27.76         5.7 0.38            122            203 292 
 SML  HZ EP        755 59.79                             116   -0.26 8  243 335 
 SML  HN ES        756 28.55                             116    0.27 8  243 335 
 SML  HZ I         756 30.31         6.2 0.11            118            243 335 
 CHI  HZ EP     C  756  1.05                             116   -0.17 8  249 195 
 CHI  HN ES        756 30.71                             116    0.35 8  249 195 
 CHI  HZ I         756 32.97         0.9 0.34            118            249 195 
 GUY2CHZ EP   4    756  6.76                             111   -0.37 0  301 235 
 GUY2CHN ES   4    756 41.57                             111    0.70 0  301 235 
 GUY2CHZ I         756 49.41         2.3 0.56                           301 235 
                                                                                
