 2010  1 2 0935 59.5 L   6.802 -73.050150.0  RSN  7 0.3 1.7LRSN                1
 GAP=193        0.46       2.4     8.7  7.4 -0.4829E+01  0.2277E+02  0.1374E+01E
 Epicentro: LOS SANTOS - SANTANDER                                             3
 ACTION:UP  10-08-24 09:42 OP:vdl  STATUS:               ID:20100102093559 L   I
 2010-01-02-0931-14S.COL___096                                                 6
 STAT SP IPHASW D HRMM SECON CODA AMPLIT PERI AZIMU VELO AIN AR TRES W  DIS CAZ7
 BAR2 SZ IP        936 19.71                             169    -0.110   28 212 
 GIR2 SZ EP   2    936 19.71                             166    -0.1 5   34 333 
 RUS  BZ EP   1    936 23.73                             144     0.0 7  101 182 
 RUS  BE ES   2    936 42.79                             144     0.2 5  101 182 
 RUS  BZ I         936 43.59         5.7 0.35                           101 182 
 OCA  SZ EP        936 28.52                             130     0.2 9  162 349 
 OCA  SZ ES   1    936 50.50                             130    -0.3 7  162 349 
 CHI  HZ EP   1    936 37.97                             117     0.2 6  252 197 
 CHI  HE ES   2    937  7.18                             117    -0.5 4  252 197 
 CHI  HZ I         937 15.56         2.3 0.71                           252 197 
 RREF BN ES   2    937 24.29                             111     0.6 3  330 231 
 RREF BZ I         937 34.24         3.0 0.49                           330 231 
 PRA  HZ EP   1    936 53.64                             107    -0.2 4  397 211 
 PRA  HE ES   2    937 35.71                             107    -0.5 3  397 211 
                                                                                
