 2010  7 2 0521 38.6 L   6.486 -73.630 10.0  RSN  6 0.5 0.9LRSN                1
 GAP=215        1.00       5.2     8.4  7.8  0.2683E+02 -0.2470E+02 -0.2096E+02E
 Epicentro: SANTA HELENA DEL OPON - SANTANDER                                  3
 ACTION:UPD 10-12-01 15:14 OP:pat  STATUS:               ID:20100702052138 L   I
 2010-07-02-0517-04S.COL___118                                                 6
 STAT SP IPHASW D HRMM SECON CODA AMPLIT PERI AZIMU VELO AIN AR TRES W  DIS CAZ7
 BAR2 SZ EP   2    521 47.57                              98     0.4 6   51  77 
 BAR2 SZ ES   2    521 53.60                              98    -0.3 6   51  77 
 BRR  HZ EP   2    521 49.94                              96     0.2 6   69 352 
 BRR  HE ES   1    521 58.56                              96     0.1 8   69 352 
 BRR  HZ I         521 59.30         7.1 0.13                            69 352 
 RUS  HZ EP   1    521 53.86                              95     0.6 8   89 137 
 RUS  HZ I         521 54.25         3.1 0.05                            89 137 
 RUS  HE ES   2    522  4.23                              95    -0.5 6   89 137 
 BRI  SZ ES   2    522 24.34                              56     0.3 5  164  34 
 GUE  SZ EP   2    522  5.00                              56     0.3 5  168  28 
 GRA  SZ EP        522  5.05                              56    -0.910  180  30 
 GRA  SZ ES        522 27.70                              56     0.310  180  30 
                                                                                
