 2015 10 2 0236  5.9 L   6.836 -73.103148.2  RSN 10 0.5 1.6LRSN                1
 GAP=140        0.90       3.8     5.0  6.2 -0.2454E+01  0.6557E+01  0.4402E+01E
 Epicentro: LOS SANTOS - SANTANDER                                             3
 ACTION:UPD 15-12-22 20:36 OP:cam  STATUS:               ID:20151002023605 L   I
 OLDACT:REG 15-10-02 12:29 OP:ar   STATUS:               ID:20151002022743     3
 2015-10-02-0227-43M.COL___355                                                 6
 STAT SP IPHASW D HRMM SECON CODA AMPLIT PERI AZIMU VELO AIN AR TRES W  DIS CAZ7
 BAR2 EZ EP        236 25.37                             168   -0.5710 28.3 198 
 BAR2 EZ ES        236 41.53                             168   -0.0310 28.3 198 
 BAR2 EZ I         236 42.48         8.7 0.20            166           28.3 198 
 PAM  EZ EP        236 28.35                             153    0.3110 71.3  39 
 PAM  EE ES        236 44.83                             153   -0.4610 71.3  39 
 PAM  EZ I         236 48.01         5.1 0.52            157           71.3  39 
 BRR  HZ IPg       236 27.56                             152    0.1110 73.6 294 
 BRR  HZ EP        236 27.82                             152    0.3710 73.6 294 
 BRR  HN ES        236 44.82                             152    0.5610 73.6 294 
 BRR  HZ I         236 48.62         6.4 0.06            150           73.6 294 
 RUS  HZ EP        236 30.29                             143    0.1210  104 179 
 RUS  HN ES        236 48.90                             143   -0.1910  104 179 
 RUS  HZ I         236 49.45         3.7 0.18            144            104 179 
 PTB  HZ EP   2    236 32.74                             131   -0.82 5  153 258 
 PTB  HN ES   2    236 54.32                             131   -0.81 5  153 258 
 PTB  HZ I         236 56.03         5.2 0.12            130            153 258 
 SPBC HZ EP   2    236 34.64                             128   -0.52 5  169 219 
 SPBC HN ES   2    236 57.51                             128   -0.47 5  169 219 
 SPBC HZ I         237  2.37         7.0 0.12            128            169 219 
 ZAR  HZ EP   4    236 40.32                             122    1.51 0  207 291 
 ZAR  HN ES   2    237  4.14                             122   -0.33 4  207 291 
 ZAR  HZ I         237  9.60         7.0 0.32            122            207 291 
 NOR  HZ EP   2    236 41.43                             118   -1.00 4  241 234 
 NOR  HN ES   2    237 10.52                             118   -0.40 4  241 234 
 NOR  HZ I         237 15.89         5.2 0.16            118            241 234 
 CHI  HZ EP   2    236 44.48                             117    0.19 4  254 196 
 CHI  HN ES        237 14.95                             117    0.72 8  254 196 
 CHI  HZ I         237 21.19         1.5 0.36            118            254 196 
 URE  HE ES   4    237 16.91                             114   -2.89 0  287 291 
 GUY2CHZ EP   2    236 50.81                             112    0.49 4  307 235 
 GUY2CHE ES   2    237 25.59                             112    0.63 4  307 235 
 GUY2CHZ I         237 32.50         2.6 0.40                           307 235 
                                                                                
