 2013  5 2 0614 36.6 L   6.721 -73.117148.0  RSN  4 0.4 1.4LRSN                1
 GAP=228        0.72       7.0     4.8  7.4 -0.1803E+02 -0.3472E+01 -0.1775E+01E
 Epicentro: JORDAN - SANTANDER                                                 3
 ACTION:UPD 13-06-20 09:47 OP:ep   STATUS:               ID:20130502061436 L   I
 2013-05-02-0610-00M.COL___253                                                 6
 STAT SP IPHASW D HRMM SECON CODA AMPLIT PERI AZIMU VELO AIN AR TRES W  DIS CAZ7
 BRR  HZ EP        614 58.61                             151    0.1910 78.5 303 
 BRR  HN ES        615 15.63                             151    0.1910 78.5 303 
 BRR  HZ I         615 17.98         3.2 0.60            146           78.5 303 
 PAM  SZ EP        614 59.61                             149    0.2410 82.5  34 
 PAM  SN ES   1    615 16.71                             149   -0.42 7 82.5  34 
 PAM  SZ I         615 18.60         4.5 0.56            147           82.5  34 
 PTB  HZ EP   2    615  4.36                             132    0.44 5  149 262 
 PTB  HN ES        615 25.00                             132   -0.22 9  149 262 
 PTB  HN IS   1    615 25.00                             132   -0.22 7  149 262 
 PTB  HZ I         615 27.39         1.9 0.28            132            149 262 
 SML  HZ EP   1    615 13.52                             117   -0.85 6  253 335 
 SML  HN ES   1    615 44.13                             117    0.31 6  253 335 
 SML  HZ I         615 49.03         2.9 0.24            116            253 335 
                                                                                
