 2012  3 2 0326 15.3 L   6.728 -73.211146.0  RSN  5 0.4 1.6LRSN                1
 GAP=221        0.78       7.3     8.3  8.1  0.3099E+02  0.5738E+01  0.9312E+01E
 ACTION:UP  12-03-31 23:16 OP:EP   STATUS:               ID:20120302032615 L   I
 2012-03-02-0320-00M.COL___190                                                 6
 STAT SP IPHASW D HRMM SECON CODA AMPLIT PERI AZIMU VELO SNR AR TRES W  DIS CAZ7
 BAR2 SZ ES   2    326 49.50                             174    -0.6 5   15 168 
 BAR2 SZ I         326 51.19         7.0 0.23                            15 168 
 BRR  HZ EP        326 36.18                             153    -0.210   69 307 
 BRR  HZ I         326 36.38         7.9 0.11                            69 307 
 BRR  HN ES   1    326 53.52                             153     0.7 7   69 307 
 RUS  HZ EP   1    326 38.59                             146     0.0 7   93 171 
 RUS  HN ES   1    326 56.83                             146     0.1 7   93 171 
 PTB  HZ EP   1    326 41.29                             134    -0.3 7  139 261 
 PTB  HN ES   1    327  1.85                             134    -0.2 7  139 261 
 CHI  HZ EP   1    326 52.47                             118     0.5 6  239 194 
                                                                                
