 2014  7 2 0404 59.2 L   6.810 -73.203159.0  RSN  4 0.4 1.4LRSN                1
 GAP=234        0.93       7.8     9.8 11.2 -0.2923E+02 -0.4996E+02  0.3613E+02E
 Epicentro: ZAPATOCA - SANTANDER                                               3
 ACTION:UPD 15-03-16 20:40 OP:nd   STATUS:               ID:20140702040459 L   I
 OLDACT:UP  14-07-02 14:25 OP:cam  STATUS:               ID:20140702040000     3
 OLDACT:REG 14-07-02 13:13 OP:cam  STATUS:               ID:20140702040000     3
 2014-07-02-0400-00M.COL___279                                                 6
 STAT SP IPHASW D HRMM SECON CODA AMPLIT PERI AZIMU VELO AIN AR TRES W  DIS CAZ7
 BAR2 SZ EP        4 5 19.85                             171   -0.5710 24.2 175 
 BRR  HZ EP     D  4 5 21.80                             157    0.3310 65.1 300 
 BRR  HZ I         4 5 33.71         6.9 0.54            150           65.1 300 
 BRR  HN ES        4 5 39.12                             157    0.2710 65.1 300 
 PTB  HZ EP        4 5 26.70                             136   -0.04 9  142 258 
 PTB  HN ES        4 5 47.75                             136   -0.50 9  142 258 
 PTB  HZ I         4 5 49.88         2.1 0.14            132            142 258 
 SPBC HZ EP        4 5 28.74                             132    0.29 9  160 217 
 SPBC HE ES        4 5 51.54                             132    0.25 9  160 217 
 SPBC HZ I         4 5 52.97         2.7 0.10            130            160 217 
                                                                                
