 2016  3 2 0359 35.8 L   6.799 -73.135146.0  RSN 16 0.5 2.1LRSN                1
 GAP= 72        0.91       2.9     2.6  5.8 -0.1167E+01  0.4822E+01  0.1415E+01E
 Epicentro: LOS SANTOS - SANTANDER                                             3
 ACTION:UPD 16-05-13 21:20 OP:cam  STATUS:               ID:20160302035935 L   I
 OLDACT:UP  16-03-14 10:31 OP:Ak   STATUS:               ID:20160302035935 L   3
 OLDACT:UP  16-03-02 17:36 OP:mh   STATUS:               ID:20160302035750     3
 OLDACT:UP  16-03-02 17:36 OP:mh   STATUS:               ID:20160302035750     3
 OLDACT:UP  16-03-02 17:34 OP:mh   STATUS:               ID:20160302035750     3
 OLDACT:UP  16-03-02 17:33 OP:mh   STATUS:               ID:20160302035750     3
 OLDACT:UP  16-03-02 17:33 OP:mh   STATUS:               ID:20160302035750     3
 OLDACT:UP  16-03-02 17:32 OP:mh   STATUS:               ID:20160302035750     3
 OLDACT:UP  16-03-02 17:32 OP:mh   STATUS:               ID:20160302035750     3
 OLDACT:REG 16-03-02 12:51 OP:mh   STATUS:               ID:20160302035750     3
 2016-03-02-0357-50M.COL___316                                                 6
 STAT SP IPHASW D HRMM SECON CODA AMPLIT PERI AZIMU VELO AIN AR TRES W  DIS CAZ7
 BAR2 EZ EP     C  359 55.44                             170    0.0110 23.4 193 
 BAR2 EZ I         4 0 10.93        20.7 0.16            170           23.4 193 
 PAM  EZ EP        359 58.40                             151    0.4310 76.7  39 
 PAM  EN ES        4 0 15.52                             151    0.2310 76.7  39 
 PAM  EZ I         4 0 16.98        42.7 0.44            154           76.7  39 
 RUS  HZ EP   1    359 59.38                             144   -0.15 7  100 177 
 RUS  HN ES        4 0 17.65                             144   -0.4110  100 177 
 RUS  HZ I         4 0 18.79        15.2 0.26            145            100 177 
 PTB  HZ EP   1    4 0  2.48                             132   -0.38 7  149 259 
 PTB  HN ES        4 0 24.01                             132    0.02 9  149 259 
 PTB  HZ I         4 0 25.02        16.9 0.14            133            149 259 
 TAM  HZ EP     C  4 0  3.79                             131    0.43 9  154 105 
 TAM  HN ES        4 0 24.85                             131   -0.03 9  154 105 
 TAM  HZ I         4 0 25.69         8.7 0.24            133            154 105 
 OCA  HZ EP   1    4 0  3.69                             129   -0.44 7  161 353 
 OCA  HN ES        4 0 25.80                             129   -0.44 9  161 353 
 OCA  HZ I         4 0 29.11        47.5 0.20            132            161 353 
 SPBC HN ES   4    4 0 25.13                             129   -1.51 0  164 219 
 ZAR  HZ EP   1    4 0  8.55                             122    0.20 6  205 292 
 ZAR  HN ES        4 0 34.37                             122    0.61 9  205 292 
 ZAR  HZ I         4 0 40.94        16.1 0.28            124            205 292 
 NOR  HZ EP        4 0 11.92                             118    0.31 8  236 235 
 NOR  HN ES        4 0 39.09                             118   -0.47 8  236 235 
 NOR  HZ I         4 0 46.11         9.7 0.16            120            236 235 
 CHI  HZ EP        4 0 13.68                             117    0.18 8  249 195 
 CHI  HN ES   1    4 0 42.92                             117   -0.01 6  249 195 
 CHI  HZ I         4 0 46.70         4.2 0.42            118            249 195 
 HEL  HZ EP   1    4 0 17.45                             114    1.33 6  273 256 
 HEL  HN ES        4 0 47.12                             114   -0.47 8  273 256 
 HEL  HZ I         4 0 52.43         4.8 0.44            116            273 256 
 URE  HZ EP   4    4 0 16.65                             113   -0.33 0  285 292 
 URE  HN ES   4 C  4 0 47.57                             113   -1.55 0  285 292 
 URE  HZ I         4 0 48.97        13.6 0.12            115            285 292 
 GUY2CHZ EP        4 0 19.27                             112   -0.22 7  302 235 
 GUY2CHN ES        4 0 53.55                             112   -0.04 7  302 235 
 GUY2CHZ I         4 1  3.32         5.8 0.60                           302 235 
 CBOC HN EP        4 0 23.25                             110    0.43 7  335 252 
 CBOC HE ES        4 0 59.56                             110    0.04 7  335 252 
 CBOC HN I         4 1  3.09         6.6 0.36            111            335 252 
 MON  HZ EP   4    4 0 22.91                             108   -1.99 0  355 308 
 MON  HN ES   4    4 1  0.80                             108   -2.42 0  355 308 
 MON  HZ I         4 1  2.19         5.3 0.18            110            355 308 
 SDV  BZ EP   1    4 0 24.91                             108   -0.81 5  360  50 
 SDV  BN ES   4    4 1  2.38                             108   -2.31 0  360  50 
 SDV  BZ I         4 1  4.23         4.2 0.45            110            360  50 
 SJC  HZ EP        4 0 30.32                             105   -1.11 6  410 327 
 SJC  HN ES   4    4 1 12.39                             105   -2.45 0  410 327 
 SJC  HZ I         4 1 15.19         3.8 0.32            107            410 327 
                                                                                
