 2015  3 2 0151 19.2 L   6.793 -73.133145.3  RSN  9 0.3 1.6LRSN                1
 GAP= 72        0.83       3.2     3.4  6.1 -0.3197E+01 -0.2355E+01  0.5889E+01E
 Epicentro: LOS SANTOS - SANTANDER                                             3
 ACTION:UPD 15-04-30 16:22 OP:nd   STATUS:               ID:20150302015119 L   I
 OLDACT:REG 15-03-02 12:21 OP:spq  STATUS:               ID:20150302014748     3
 2015-03-02-0147-48M.COL___289                                                 6
 STAT SP IPHASW D HRMM SECON CODA AMPLIT PERI AZIMU VELO AIN AR TRES W  DIS CAZ7
 BRR  HZ EP        151 40.68                             152    0.3310 72.8 299 
 BRR  HN ES        151 57.15                             152    0.2710 72.8 299 
 BRR  HZ I         152  1.74         7.2 0.42            152           72.8 299 
 PAM  SZ EP        151 41.50                             151    0.1910 77.2  38 
 PAM  SN ES        151 58.36                             151   -0.2310 77.2  38 
 PAM  SZ I         152  0.47        12.4 0.46            153           77.2  38 
 RUS  HZ EP        151 42.61                             144   -0.1910 99.7 177 
 RUS  HN ES        152  1.18                             144   -0.0610 99.7 177 
 RUS  HZ I         152  2.66         5.2 0.42            146           99.7 177 
 PTB  HZ EP        151 45.57                             132   -0.63 9  149 259 
 PTB  HE ES        152  7.70                             132    0.41 9  149 259 
 PTB  HZ I         152  9.63         3.4 0.23            133            149 259 
 TAM  HZ EP     C  151 46.92                             131    0.26 9  154 105 
 OCA  HE ES   1    152  9.11                             129   -0.54 7  161 353 
 OCA  HZ I         152 13.49         6.3 0.30            131            161 353 
 SPBC HN ES        152  9.83                             129   -0.03 9  163 220 
 SPBC HZ I         152 12.17         5.8 0.10            130            163 220 
 NOR  HE ES        152 22.57                             118   -0.26 8  235 235 
 NOR  HZ I         152 24.92         2.3 0.17            120            235 235 
 CHI  HZ EP        151 57.25                             117    0.46 8  248 196 
 CHI  HN ES   1    152 25.63                             117   -0.50 6  248 196 
 CHI  HZ I         152 34.16         1.4 0.50            119            248 196 
                                                                                
