 2011 12 2 0535  3.3 L   6.727 -73.028151.2  RSN  4 0.3 1.3LRSN                1
 GAP=156        0.58       4.3     6.5  6.3 -0.8418E+00 -0.3346E+01  0.5127E+00E
 Epicentro: ARATOCA - SANTANDER                                                3
 ACTION:UPD 12-07-13 16:13 OP:ep   STATUS:               ID:20111202053504dL   I
 2011-12-02-0530-00M.COL___170                                                 6
 STAT SP IPHASW D HRMM SECON CODA AMPLIT PERI AZIMU VELO AIN AR TRES W  DIS CAZ7
 BAR2 SZ EP   1    535 23.24                             171   -0.28 7 22.6 229 
 BAR2 SZ ES   1    535 39.09                             171   -0.24 7 22.6 229 
 BAR2 SZ I         535 45.60         6.0 0.57                          22.6 229 
 PAM  SZ EP   1    535 26.43                             152    0.41 7 76.9  28 
 PAM  SZ I         535 26.90         2.9 0.14                          76.9  28 
 PAM  SN ES   1    535 43.65                             152   -0.13 7 76.9  28 
 BRR  HZ EP   1    535 25.94                             149    0.04 7 86.5 299 
 BRR  HN ES   1    535 43.67                             149    0.11 7 86.5 299 
 BRR  HZ I         535 45.49         4.1 0.28                          86.5 299 
 RUS  HZ EP   1    535 26.67                             147   -0.31 7 92.4 184 
 RUS  HN ES   1    535 45.89                             147    0.40 7 92.4 184 
 RUS  HZ I         535 47.72         1.6 0.20                          92.4 184 
                                                                                
