 2012  5 2 0742 30.4 L   7.556 -73.051151.2  RSN  6 0.3 1.3LRSN                1
 GAP=143        0.67       5.6     4.3  7.4 -0.5965E+01  0.1046E+02 -0.1686E+02E
 Epicentro: EL PLAYON - SANTANDER                                              3
 ACTION:UP  12-07-05 12:01 OP:pat  STATUS:               ID:20120502074230 L   I
 2012-05-02-0740-00M.COL___189                                                 6
 STAT SP IPHASW D HRMM SECON CODA AMPLIT PERI AZIMU VELO SNR AR TRES W  DIS CAZ7
 PAM  SZ EP        742 51.74                             163     0.010   46 122 
 PAM  SN ES   1    743  8.14                             163    -0.2 7   46 122 
 OCA  SZ EP        742 53.28                             150     0.310   81 339 
 OCA  SZ I         742 53.55         0.4 0.15                            81 339 
 BRR  HZ EP   1    742 53.08                             148    -0.1 7   88 236 
 BRR  HN ES   1    743 10.92                             148     0.0 7   88 236 
 BRR  HZ I         743 12.44         5.8 0.12                            88 236 
 BAR2 SZ EP   1    742 54.66                             143    -0.2 7  108 188 
 BAR2 SZ ES   1    743 13.90                             143     0.0 7  108 188 
 BAR2 SZ I         743 15.17         8.6 0.68                           108 188 
 PTB  HZ EP   1    743  1.85                             125    -0.2 7  192 234 
 PTB  HN ES   1    743 27.26                             125     0.6 7  192 234 
 PTB  HZ I         743 32.18         1.9 0.38                           192 234 
 ZAR  HZ EP   1    743  2.69                             124    -0.1 6  200 268 
 ZAR  HN ES   1    743 27.50                             124    -0.5 6  200 268 
 ZAR  HZ I         743 34.29         2.9 0.18                           200 268 
                                                                                
