 2013  8 2 0410 52.5 L   6.813 -73.064150.7  RSN 16 0.5 2.2LRSN                1
 GAP=147        0.96       3.1     4.7  5.7 -0.2294E+01  0.8534E+01  0.2592E+01E
 Epicentro: LOS SANTOS - SANTANDER                                             3
 ACTION:UPD 14-01-14 08:58 OP:ep   STATUS:               ID:20130802041052 L   I
 OLDACT:UP  13-08-02 10:39 OP:carl STATUS:               ID:20130802040959     3
 OLDACT:REG 13-08-02 09:06 OP:carl STATUS:               ID:20130802040959     3
 2013-08-02-0409-59M.COL___269                                                 6
 STAT SP IPHASW D HRMM SECON CODA AMPLIT PERI AZIMU VELO AIN AR TRES W  DIS CAZ7
 BAR2 SZ EP   1    411 12.71                             169   -0.05 7 27.7 208 
 BAR2 SZ ES   1    411 27.97                             169   -0.63 7 27.7 208 
 BAR2 SZ I         411 30.30        17.5 0.44            168           27.7 208 
 GIR2 SZ EP   1    411 13.06                             167    0.32 7 32.7 334 
 GIR2 SZ ES   1    411 28.18                             167   -0.39 7 32.7 334 
 GIR2 SZ I         411 29.87        12.9 0.34            165           32.7 334 
 PAM  SZ EP   1    411 15.61                             154    0.79 7 70.8  35 
 PAM  SN ES   1    411 32.80                             154    0.53 7 70.8  35 
 PAM  SN I         411 34.02        15.4 0.42            155           70.8  35 
 BRR  HZ EP        411 14.64                             151    0.0810 78.6 294 
 BRR  HN ES   1    411 32.13                             151    0.33 7 78.6 294 
 BRR  HN I         411 32.96        60.0 0.20            149           78.6 294 
 RUS  HZ EP        411 16.54                             144   -0.2310  102 181 
 RUS  HN ES   1    411 35.64                             144   -0.10 7  102 181 
 RUS  HN I         411 36.93        18.8 0.36            146            102 181 
 PTB  HZ EP   4    411 19.52                             131   -1.13 0  157 259 
 PTB  HN ES   4    411 41.09                             131   -1.55 0  157 259 
 PTB  HZ I         411 43.86        15.0 0.52            131            157 259 
 OCA  HZ EP   1    411 21.70                             131    0.56 7  160 350 
 OCA  HE ES   1    411 43.52                             131    0.00 7  160 350 
 OCA  HE I         411 49.21        55.8 0.46            131            160 350 
 SPBC HZ EP        411 21.58                             129   -0.40 9  170 221 
 SPBC HN ES   1    411 44.18                             129   -0.82 7  170 221 
 SPBC HN I         411 48.82        30.1 0.26            129            170 221 
 ZAR  HZ EP   1    411 25.48                             122   -0.55 6  212 291 
 ZAR  HN ES   1    411 52.46                             122    0.25 6  212 291 
 ZAR  HN I         411 57.01        30.4 0.16            122            212 291 
 NOR  HZ EP   1    411 28.89                             118   -0.45 6  243 235 
 NOR  HN ES        411 58.40                             118    0.28 8  243 235 
 NOR  HZ I         412  0.42        12.0 0.20            119            243 235 
 SML  HZ EP   1    411 29.13                             118   -0.51 6  246 333 
 SML  HN ES   1    411 57.56                             118   -1.09 6  246 333 
 CHI  HZ EP   1    411 31.14                             118    0.30 6  252 197 
 CHI  HN ES   1    412  1.72                             118    0.94 6  252 197 
 CHI  HN I         412  2.54        10.1 0.28            119            252 197 
 HEL  HZ EP   1    411 34.25                             115    0.33 6  281 256 
 HEL  HN ES        412  7.00                             115    0.74 7  281 256 
 HEL  HZ I         412 11.84         8.1 0.36            115            281 256 
 GUY2CHZ EP        411 37.17                             113   -0.04 7  309 236 
 GUY2CHN ES   4    412 14.19                             113    2.07 0  309 236 
 GUY2CHN I         412 18.64         6.7 0.28                           309 236 
 COD  HZ EP   4    411 42.07                             110    1.09 0  348 353 
 COD  HN ES   4    412 16.59                             110   -2.23 0  348 353 
 COD  HN I         412 21.14         2.8 0.58            110            348 353 
 PRA  HZ EP   1    411 45.82                             107   -0.99 4  398 211 
 PRA  HN ES   1    412 29.54                             107    0.33 4  398 211 
 PRA  HN I         412 33.78         3.6 0.70            108            398 211 
                                                                                
