 2013  8 2 0454 44.7 L   6.788 -73.120146.5  RSN  9 0.5 1.9LRSN                1
 GAP=185        1.03       4.1     6.0  7.1 -0.6651E+00  0.1082E+02  0.5299E+01E
 Epicentro: LOS SANTOS - SANTANDER                                             3
 ACTION:UPD 14-01-14 08:58 OP:ep   STATUS:               ID:20130802045444 L   I
 OLDACT:REG 13-08-02 09:08 OP:carl STATUS:               ID:20130802044959     3
 2013-08-02-0449-59M.COL___269                                                 6
 STAT SP IPHASW D HRMM SECON CODA AMPLIT PERI AZIMU VELO AIN AR TRES W  DIS CAZ7
 BAR2 SZ EP        455  4.45                             171    0.0510 22.7 198 
 BAR2 SZ ES   1    455 19.54                             171   -0.23 7 22.7 198 
 BAR2 SZ I         455 20.79         7.7 0.18            167           22.7 198 
 GIR2 SZ EP        455  4.50                             166   -0.0110 33.1 346 
 GIR2 SZ ES        455 19.35                             166   -0.6010 33.1 346 
 GIR2 SZ I         455 21.58         5.6 0.10            167           33.1 346 
 BRR  HZ EP        455  6.26                             151    0.1610 74.3 298 
 BRR  HN ES   1    455 23.77                             151    0.98 7 74.3 298 
 BRR  HN I         455 27.28        31.0 0.16            150           74.3 298 
 RUS  HZ EP        455  8.41                             144   -0.0110 99.1 178 
 RUS  HN ES   1    455 26.58                             144   -0.33 7 99.1 178 
 RUS  HN I         455 33.22         3.9 0.36            146           99.1 178 
 PTB  HZ EP   1    455 11.69                             131   -0.26 7  150 260 
 PTB  HN ES   1    455 32.46                             131   -0.75 7  150 260 
 PTB  HZ I         455 35.62         9.4 0.44            132            150 260 
 OCA  HE ES        455 36.01                             129    0.55 9  162 352 
 OCA  HE I         455 40.78        27.4 0.28            133            162 352 
 SPBC HZ EP        455 13.40                             129    0.07 9  164 220 
 SPBC HN ES   1    455 36.71                             129    1.06 7  164 220 
 SPBC HN I         455 43.95        23.1 0.30            130            164 220 
 ZAR  HZ EP   1    455 17.03                             122   -0.48 6  207 292 
 ZAR  HN ES   1    455 42.44                             122   -0.66 6  207 292 
 ZAR  HZ I         455 48.46        10.0 0.26            123            207 292 
 NOR  HZ EP   1    455 20.66                             118    0.03 6  236 235 
 NOR  HE ES   1    455 48.95                             118    0.29 6  236 235 
 NOR  HZ I         455 54.17         5.2 0.38            120            236 235 
                                                                                
