 2017  6 2 0321 30.8 L   6.814 -73.103146.9  RSN  7 0.4 1.3LRSN                1
 GAP=217        0.69       4.2     5.3  6.4  0.7486E+01 -0.6221E+01  0.2381E+01E
 Epicentro: LOS SANTOS - SANTANDER                                             3
 ACTION:UPD 17-09-14 16:48 OP:jn   STATUS:               ID:20170602032130 L   I
 OLDACT:UP  17-06-02 14:46 OP:and  STATUS:               ID:20170602031726     3
 OLDACT:UP  17-06-02 14:46 OP:and  STATUS:               ID:20170602031726     3
 OLDACT:UP  17-06-02 14:45 OP:and  STATUS:               ID:20170602031726     3
 OLDACT:UP  17-06-02 14:44 OP:and  STATUS:               ID:20170602031726     3
 OLDACT:UP  17-06-02 14:44 OP:and  STATUS:               ID:20170602031726     3
 OLDACT:REG 17-06-02 12:41 OP:and  STATUS:               ID:20170602031726     3
 2017-06-02-0318-00M.COL___356                                                 6
 STAT SP IPHASW D HRMM SECON CODA AMPLIT PERI AZIMU VELO AIN AR TRES W  DIS CAZ7
 BRR  HZ IP     C  321 52.06                             151   -0.1810 74.7 296 
 BRR  HN ES        322  9.32                             151    0.3410 74.7 296 
 RUS  HZ EP   2    321 54.73                             144    0.01 5  102 179 
 RUS  HN ES        322 13.01                             144   -0.3910  102 179 
 RUS  HZ I         322 14.79         1.4 0.29            138            102 179 
 SPBC HZ EP        321 59.69                             128   -0.06 9  167 220 
 SPBC HN ES        322 22.63                             128    0.28 9  167 220 
 SPBC HZ I         322 25.68         4.6 0.15            123            167 220 
 YPLC HZ IP     C  322  0.85                             127    0.30 9  176 153 
 ZAR  HN ES   2    322 28.48                             122   -0.87 4  208 291 
 ZAR  HZ I         322 33.67         2.5 0.24            118            208 291 
 NOR  HZ EP   2    322  7.50                             118    0.43 4  239 235 
 NOR  HN ES   2    322 34.93                             118   -0.45 4  239 235 
 NOR  HZ I         322 43.87         1.5 0.22            114            239 235 
 PTGC HZ EP   3    322 13.50                             112   -1.14 2  308 160 
                                                                                
