 2011  8 2 0615  0.9 L   6.740 -73.042144.2  RSN  8 0.3 1.5LRSN                1
 GAP=153        0.49       2.9     4.2  4.4 -0.1405E+01  0.1588E+01  0.1037E+01E
 Epicentro: ARATOCA - SANTANDER                                                3
 ACTION:UPD 12-07-25 14:05 OP:epov STATUS:               ID:20110802061500 L   I
 2011-08-02-0600-00M.COL___140                                                 6
 STAT SP IPHASW D HRMM SECON CODA AMPLIT PERI AZIMU VELO AIN AR TRES W  DIS CAZ7
 BAR2 SZ EP   1    615 19.96                             171   -0.32 7 22.6 224 
 BAR2 SZ ES   1    615 35.04                             171   -0.40 7 22.6 224 
 BAR2 SZ I         615 37.87         6.8 0.38                          22.6 224 
 PAM  SZ EP   1    615 23.02                             151    0.18 7 76.3  30 
 PAM  SE ES   2    615 40.39                             151    0.40 5 76.3  30 
 BRR  HZ EP   1    615 22.30                             148   -0.34 7 84.4 299 
 BRR  HE ES   1    615 39.99                             148    0.35 7 84.4 299 
 BRR  HZ I         615 43.00         6.2 0.24                          84.4 299 
 RUS  HZ EP   1    615 24.19                             145    0.22 7 93.9 183 
 RUS  HE ES   2    615 42.24                             145    0.23 5 93.9 183 
 RUS  HZ I         615 43.84         3.0 0.34                          93.9 183 
 BRI  SZ EP   2    615 24.88                             140    0.06 5  111  14 
 OCA  SZ EP   2    615 29.74                             128   -0.09 5  169 350 
 OCA  SZ ES   2    615 52.21                             128   -0.22 5  169 350 
 OCA  SZ I         615 55.33         5.5 0.30                           169 350 
 CHI  HZ EP   2    615 38.39                             117    0.25 4  246 198 
 CHI  HN ES   2    616  7.15                             117   -0.07 4  246 198 
 CHI  HZ I         616 13.04         1.6 0.66                           246 198 
 HEL  HZ EP   1    615 42.06                             114    0.00 6  282 258 
 HEL  HN ES   2    616 14.48                             114    0.27 4  282 258 
                                                                                
