 2011  1 2 0538 47.7 L   5.845 -73.861104.0  RSN  6 0.3 1.3LRSN                1
 GAP=134        0.51       3.8     4.4  8.8 -0.7561E+01  0.5683E+01  0.2484E+00E
 Epicentro: SUCRE - SANTANDER                                                  3
 ACTION:UP  11-02-08 08:37 OP:pat  STATUS:               ID:20110102053847 L   I
 2011-01-02-0537-29S.COL___134                                                 6
 STAT SP IPHASW D HRMM SECON CODA AMPLIT PERI AZIMU VELO SNR AR TRES W  DIS CAZ7
 RUS  HZ EP        539  6.22                             138    -0.210   86  86 
 RUS  HZ I         539  6.55         3.2 0.33                            86  86 
 RUS  HN ES   2    539 20.97                             138     0.0 5   86  86 
 BAR2 SZ EP   2    539  8.15                             129    -0.1 5  112  42 
 BAR2 SZ ES   2    539 24.89                             129     0.5 5  112  42 
 BAR2 SZ I         539 27.12         8.7 0.21                           112  42 
 NOR  SN ES   2    539 24.56                             128    -0.2 5  116 255 
 CHI  HZ EP   1    539 10.74                             124    -0.1 7  135 174 
 CHI  HN ES   2    539 29.16                             124     0.3 5  135 174 
 CHI  HZ I         539 33.43         2.2 0.39                           135 174 
 BTL  SZ EP   1    539 10.69                             123     0.0 7  136  29 
 PRA  HZ EP   2    539 25.21                             106     0.7 4  262 206 
                                                                                
