 2011  5 2 0552 39.3 L   6.788 -73.096155.4  RSN  6 0.3 1.6LRSN                1
 GAP=164        0.72       4.6     7.8  8.3 -0.1356E+02 -0.3768E+01  0.8796E+01E
 Epicentro: LOS SANTOS - SANTANDER                                             3
 ACTION:UP  11-06-29 08:50 OP:tino STATUS:               ID:20110502055239 L   I
 2011-05-02-0550-49S.COL___129                                                 6
 STAT SP IPHASW D HRMM SECON CODA AMPLIT PERI AZIMU VELO SNR AR TRES W  DIS CAZ7
 BRR  HZ EP        553  1.88                             153     0.110   77 297 
 BRR  HN ES   1    553 19.30                             153     0.0 7   77 297 
 BRR  HZ I         553 21.58         8.5 0.12                            77 297 
 RUS  HZ EP   1    553  4.26                             146     0.4 7   99 179 
 RUS  HZ I         553  5.49         3.4 0.42                            99 179 
 RUS  HN ES   2    553 22.80                             146    -0.3 5   99 179 
 GRA  SZ EP   1    553  5.71                             139     0.3 7  125  15 
 GRA  SZ ES   1    553 25.55                             139    -0.2 7  125  15 
 GRA  SZ I         553 26.54         5.6 0.35                           125  15 
 OCA  SZ EP   1    553  8.03                             131    -0.5 7  162 351 
 OCA  SZ ES   2    553 31.98                             131     0.6 5  162 351 
 OCA  SZ I         553 36.05         4.3 0.22                           162 351 
 NOR  SZ EP   1    553 15.61                             120    -0.4 6  238 235 
 RREF HN ES   2    554  3.26                             112     0.4 3  325 230 
 RREF HZ I         554 11.50         2.6 0.48                           325 230 
                                                                                
