 2013 10 2 0846 30.1 L   6.777 -73.178148.3  RSN  6 0.5 1.8LRSN                1
 GAP=205        1.23       5.4     8.2  8.4  0.1115E+01  0.8707E+01 -0.9359E+01E
 Epicentro: LOS SANTOS - SANTANDER                                             3
 ACTION:UPD 13-11-25 09:18 OP:ep   STATUS:               ID:20131002084630 L   I
 OLDACT:REG 13-10-02 06:32 OP:nd   STATUS:               ID:20131002083959     3
 2013-10-02-0839-59M.COL___272                                                 6
 STAT SP IPHASW D HRMM SECON CODA AMPLIT PERI AZIMU VELO AIN AR TRES W  DIS CAZ7
 BAR2 SZ EP   1    846 49.98                             172   -0.04 7 20.4 181 
 BAR2 SZ ES        847  5.09                             172   -0.4310 20.4 181 
 BAR2 SZ I         847  7.00        16.8 0.26            172           20.4 181 
 BRR  HZ IP     C  846 52.00                             154    0.5410 69.4 302 
 BRR  HN ES        847  8.92                             154    0.8310 69.4 302 
 BRR  HZ I         847 11.75         8.1 0.12            150           69.4 302 
 PTB  HZ EP        846 56.72                             133   -0.24 9  144 260 
 PTB  HN ES        847 17.05                             133   -0.83 9  144 260 
 SPBC HZ EP        846 58.78                             130    0.35 9  159 219 
 SPBC HN ES        847 20.47                             130   -0.04 9  159 219 
 SPBC HZ I         847 26.29         4.8 0.24            131            159 219 
 ZAR  HZ EP        847  2.65                             123    0.14 9  202 293 
 ZAR  HN ES        847 28.23                             123    0.46 9  202 293 
 ZAR  HZ I         847 34.21         5.9 0.50            123            202 293 
 SML  HZ EP        847  6.66                             118   -0.34 8  245 336 
 SML  HE ES        847 35.01                             118   -0.74 8  245 336 
 SML  HZ I         847 42.94         8.1 0.08            119            245 336 
                                                                                
