 2014 10 2 0620 56.9 L   6.820 -73.147142.8  RSN 11 0.4 2.1LRSN                1
 GAP=183        0.99       2.6     4.4  5.4  0.9290E+00  0.3760E+01 -0.5662E+00E
 Epicentro: LOS SANTOS - SANTANDER                                             3
 ACTION:UPD 14-11-29 23:45 OP:nd   STATUS:               ID:20141002062056 L   I
 OLDACT:UP  14-10-02 15:52 OP:cam  STATUS:               ID:20141002061806     3
 OLDACT:REG 14-10-02 12:36 OP:cam  STATUS:               ID:20141002061806     3
 2014-10-02-0618-06M.COL___289                                                 6
 STAT SP IPHASW D HRMM SECON CODA AMPLIT PERI AZIMU VELO AIN AR TRES W  DIS CAZ7
 BAR2 SZ EP        621 16.39                             169    0.1710 25.4 189 
 BAR2 SZ ES        621 31.03                             169   -0.2610 25.4 189 
 BAR2 SZ I         621 33.54        35.8 0.26            171           25.4 189 
 BRR  HZ EP     D  621 18.30                             152    0.6310 70.0 297 
 BRR  HE ES        621 34.53                             152    0.6710 70.0 297 
 BRR  HZ I         621 39.28        18.6 0.12            152           70.0 297 
 RUS  HZ EP        621 20.72                             143    0.1910  103 176 
 RUS  HN ES        621 38.51                             143   -0.4410  103 176 
 RUS  HZ I         621 40.00        15.3 0.26            146            103 176 
 PTB  HZ EP        621 23.39                             131   -0.27 9  148 258 
 PTB  HE ES        621 44.31                             131   -0.21 9  148 258 
 PTB  HZ I         621 47.58        15.9 0.42            133            148 258 
 OCA  HZ EP        621 24.90                             129    0.12 9  158 353 
 OCA  HN ES        621 46.36                             129   -0.16 9  158 353 
 OCA  HZ I         621 51.69        13.6 0.26            131            158 353 
 SPBC HZ EP        621 25.48                             128    0.15 9  165 218 
 SPBC HE ES        621 47.67                             128    0.17 9  165 218 
 SPBC HZ I         621 49.75        13.0 0.28            131            165 218 
 ZAR  HZ EP        621 29.65                             122    0.59 9  203 292 
 ZAR  HN ES        621 54.36                             122    0.22 9  203 292 
 ZAR  HZ I         622  0.64        12.0 0.30            124            203 292 
 SML  HZ EP        621 32.66                             117   -0.49 8  242 335 
 SML  HN ES        622  0.54                             117   -0.87 8  242 335 
 SML  HN I         622  5.25        27.7 0.10            119            242 335 
 CHI  HZ EP        621 34.69                             116    0.02 8  251 195 
 CHI  HN ES        622  3.65                             116   -0.46 8  251 195 
 CHI  HN I         622  9.98         9.4 0.62            119            251 195 
 URE  HE ES   1    622  8.69                             113   -0.87 6  283 292 
 GUY2CHZ EP        621 40.85                             112    0.35 7  302 234 
 GUY2CHN ES        622 14.21                             112   -0.30 7  302 234 
 GUY2CHZ I         622 25.13         3.9 0.30                           302 234 
                                                                                
