 2010  8 2 0143 15.0 L   6.834 -73.036139.5  RSN  6 0.1 1.9LRSN                1
 GAP=199        0.37       3.2     4.3  4.3 -0.6065E+01  0.3381E+01 -0.5425E+00E
 Epicentro: CEPITA - SANTANDER                                                 3
 ACTION:UP  10-09-07 10:51 OP:vdl  STATUS:               ID:20100802014315 L   I
 2010-08-02-0141-11S.COL___123                                                 6
 STAT SP IPHASW D HRMM SECON CODA AMPLIT PERI AZIMU VELO SNR AR TRES W  DIS CAZ7
 BAR2 SZ EP        143 34.03                             167     0.010   31 211 
 BAR2 SZ ES   2    143 48.77                             167    -0.2 5   31 211 
 BAR2 SZ I         143 49.71        17.6 0.25                            31 211 
 GIR2 SZ EP        143 34.13                             166     0.210   32 327 
 BRR  HZ EP        143 35.96                             148    -0.110   81 292 
 BRR  HE ES   2    143 52.61                             148     0.1 5   81 292 
 BRR  HZ I         143 56.95        24.6 0.17                            81 292 
 GRA  SZ EP        143 39.05                             137    -0.110  119  12 
 GRA  SZ ES   2    143 58.09                             137     0.2 5  119  12 
 GRA  SZ I         143 59.28         7.6 0.24                           119  12 
 OCA  SZ EP   2    143 42.67                             128     0.0 5  159 349 
 OCA  SZ ES   2    144  4.00                             128    -0.2 5  159 349 
 OCA  SZ I         144  6.02         8.8 0.20                           159 349 
 HEL  HZ EP        143 56.35                             112     0.0 7  285 256 
 HEL  HZ I         144 33.39         3.3 0.32                           285 256 
                                                                                
