 2012 10 2 0412 22.6 L   6.802 -73.106145.3  RSN  8 0.5 2.1LRSN                1
 GAP=142        0.90       4.6     6.4  7.7  0.2636E+01  0.9885E+01  0.9348E+01E
 Epicentro: LOS SANTOS - SANTANDER                                             3
 ACTION:UPD 12-11-22 17:01 OP:ep   STATUS:               ID:20121002041222 L   I
 2012-10-02-0410-00M.COL___223                                                 6
 STAT SP IPHASW D HRMM SECON CODA AMPLIT PERI AZIMU VELO AIN AR TRES W  DIS CAZ7
 BAR2 SZ EP        412 42.12                             170   -0.1010 24.7 200 
 BAR2 SZ ES   1    412 57.48                             170   -0.04 7 24.7 200 
 BAR2 SZ I         413  1.13        40.2 0.44                          24.7 200 
 GIR2 SZ EP        412 42.16                             167   -0.1010 32.1 342 
 PAM  SZ EP   1    412 44.81                             152    0.19 7 74.5  37 
 PAM  SN ES   1    413  2.11                             152    0.33 7 74.5  37 
 BRR  HZ IP     C  412 43.96                             151    0.0210 75.0 297 
 BRR  HZ I         412 44.23        29.7 0.30                          75.0 297 
 BRR  HN ES   1    413  1.08                             151    0.51 7 75.0 297 
 BRR  HN I         413  1.79        62.8 0.24                          75.0 297 
 RUS  HZ EP   1    412 45.96                             144   -0.37 7  101 179 
 RUS  HN ES   1    413  4.06                             144   -0.76 7  101 179 
 RUS  HZ I         413  5.91         3.7 0.38                           101 179 
 RUS  HN I         413  6.37        10.6 0.42                           101 179 
 ZAR  HE ES   1    413 20.44                             122   -0.62 6  208 292 
 ZAR  HN I         413 26.24        22.7 0.48                           208 292 
 CHI  HZ EP   1    413  0.22                             117   -0.22 6  250 196 
 CHI  HZ I         413  0.99         3.0 0.32                           250 196 
 CHI  HN ES   1    413 31.15                             117    1.20 6  250 196 
 CHI  HN I         413 34.92        12.3 0.28                           250 196 
 ROSC BZ EP   1    413  1.47                             116    0.48 6  255 212 
 ROSC BZ I         413 39.67        11.7 0.35                           255 212 
                                                                                
