 2015  5 2 0825  3.8 L   6.810 -73.129143.2  RSN  6 0.3 1.3LRSN                1
 GAP=138        0.85       3.5     4.7  7.1  0.2812E+01  0.2215E+01 -0.8911E+00E
 Epicentro: LOS SANTOS - SANTANDER                                             3
 ACTION:UPD 15-09-10 22:00 OP:cam  STATUS:               ID:20150502082504 L   I
 OLDACT:UP  15-05-06 07:11 OP:AK   STATUS:               ID:20150502082504 L   3
 OLDACT:UP  15-05-02 18:38 OP:stll STATUS:               ID:20150502081752d    3
 OLDACT:DUP 15-05-02 18:36 OP:stll STATUS:               ID:20150502081752d    3
 OLDACT:DUP 15-05-02 18:34 OP:stll STATUS:               ID:20150502081751d    3
 OLDACT:DUP 15-05-02 18:33 OP:stll STATUS:               ID:20150502081750d    3
 OLDACT:REG 15-05-02 13:18 OP:stll STATUS:               ID:20150502081749     3
 2015-05-02-0817-49M.COL___276                                                 6
 STAT SP IPHASW D HRMM SECON CODA AMPLIT PERI AZIMU VELO AIN AR TRES W  DIS CAZ7
 BAR2 EZ EP        825 23.26                             170    0.0810 24.8 194 
 BAR2 EZ ES        825 38.14                             170   -0.1410 24.8 194 
 BAR2 EZ I         825 39.23         5.2 0.18            167           24.8 194 
 BRR  HN ES        825 41.62                             152    0.5210 72.3 297 
 BRR  HZ I         825 45.86         2.8 0.12            147           72.3 297 
 PAM  SZ EP     C  825 26.04                             151    0.3910 75.3  39 
 PAM  SZ I         825 26.23         5.5 0.20            153           75.3  39 
 PAM  SN ES        825 42.74                             151    0.0710 75.3  39 
 RUS  HZ EP        825 27.41                             143    0.0110  102 177 
 RUS  HZ I         825 28.27         2.1 0.14            143            102 177 
 RUS  HN ES        825 45.46                             143   -0.3310  102 177 
 OCA  HN ES        825 53.11                             129   -0.61 9  159 352 
 ZAR  HN ES        826  1.38                             122   -0.15 8  205 292 
 ZAR  HZ I         826  7.65         1.9 0.34            120            205 292 
                                                                                
