 2012  9 2 0821 14.0 L   6.753 -73.125143.3  RSN  5 0.2 1.5LRSN                1
 GAP=164        0.39       7.3     4.0  6.7 -0.1255E+02 -0.8242E+01  0.2763E+02E
 Epicentro: LOS SANTOS - SANTANDER                                             3
 ACTION:UPD 12-10-22 14:16 OP:ep   STATUS:               ID:20120902082114 L   I
 2012-09-02-0820-00M.COL___218                                                 6
 STAT SP IPHASW D HRMM SECON CODA AMPLIT PERI AZIMU VELO AIN AR TRES W  DIS CAZ7
 BAR2 SZ EP        821 33.32                             172    0.0910 18.9 200 
 BAR2 SZ I         821 33.40         7.3 0.24                          18.9 200 
 GIR2 SZ EP        821 33.37                             165   -0.1510 36.8 348 
 BRR  HZ EP        821 35.11                             151   -0.0210 75.8 301 
 BRR  HZ I         821 35.64         7.7 0.10                          75.8 301 
 BRR  HN ES   1    821 51.77                             151    0.14 7 75.8 301 
 PAM  SZ EP        821 36.19                             150    0.0910 80.1  36 
 PAM  SZ I         821 36.80         5.2 0.20                          80.1  36 
 PAM  SN ES   1    821 53.25                             150   -0.09 7 80.1  36 
 PTB  HN ES   3    822  1.09                             131   -0.76 2  149 261 
                                                                                
