 2013  3 2 0254 16.3 L   6.177 -74.203  0.0  RSN  9 0.6 1.9LRSN                1
 GAP= 59        1.53       2.9     3.2  7.1 -0.2313E+00  0.3946E+01 -0.1128E+01E
 Epicentro: CIMITARRA - SANTANDER                                              3
 ACTION:UPD 13-04-09 13:59 OP:ep   STATUS:               ID:20130302025416 L   I
 2013-03-02-0248-48M.COL___199                                                 6
 STAT SP IPHASW D HRMM SECON CODA AMPLIT PERI AZIMU VELO AIN AR TRES W  DIS CAZ7
 PTB  HZ IP     D  254 24.79                              47   -0.1310 48.9 325 
 PTB  HN ES        254 32.08                              47    0.4610 48.9 325 
 PTB  HE I         254 32.82        52.7 0.32            111           48.9 325 
 BRR  HZ IP     C  254 34.81                              47   -0.3110  116  28 
 BRR  HN ES        254 49.89                              47    0.1210  116  28 
 BRR  HN I         254 52.50        39.6 0.32             96            116  28 
 BAR2 SZ EP        254 35.24                              47   -0.9810  122  68 
 BAR2 SZ I         254 56.25        16.1 0.46             96            122  68 
 RUS  HZ EP   1    254 35.87                              47   -1.52 7  128 104 
 RUS  HN I         254 51.92        23.0 0.26             56            128 104 
 HEL  HZ EP        254 40.33                              47    0.23 9  147 271 
 HEL  HN ES        254 58.66                              47    0.01 9  147 271 
 HEL  HN I         255  0.04        20.0 0.52             96            147 271 
 ZAR  HZ EP        254 42.12                              47    0.00 9  162 334 
 ZAR  HE ES        255  1.77                              47   -0.46 9  162 334 
 ZAR  HN I         255  3.58        12.1 0.14             56            162 334 
 CHI  HZ EP        254 45.71                              47    0.68 9  179 163 
 CHI  HZ I         254 49.39         9.3 0.32             56            179 163 
 CHI  HN ES        255  7.90                              47    0.48 9  179 163 
 RREF HZ EP        254 47.28                              37    0.55 9  190 222 
 RREF HE ES        255  9.44                              37   -1.00 9  190 222 
 RREF HZ I         255 13.14        10.0 0.28             56            190 222 
 PAM  SZ EP        254 49.78                              37    0.67 8  210  52 
 PAM  SE ES        255 15.64                              37    0.96 8  210  52 
 PAM  SN I         255 18.03        23.9 0.24             56            210  52 
                                                                                
