 2011 12 2 0144 26.6 L   6.015 -73.748115.2  RSN  5 0.3 1.6LRSN                1
 GAP=183        0.68       3.8     8.2  9.1  0.2171E+01  0.3840E+02  0.5716E+01E
 Epicentro: BOLIVAR - SANTANDER                                                3
 ACTION:UPD 12-07-13 16:13 OP:ep   STATUS:               ID:20111202014426 L   I
 2011-12-02-0140-00M.COL___170                                                 6
 STAT SP IPHASW D HRMM SECON CODA AMPLIT PERI AZIMU VELO AIN AR TRES W  DIS CAZ7
 RUS  HZ EP        144 45.98                             145    0.4910 74.8 100 
 RUS  HE ES   1    145  0.11                             145   -0.11 7 74.8 100 
 BAR2 SZ EP   1    144 46.38                             140    0.16 7 89.4  44 
 BAR2 SZ ES   1    145  1.10                             140   -0.42 7 89.4  44 
 BAR2 SZ I         145  3.81        15.8 0.50                          89.4  44 
 BRR  HZ EP   1    144 48.68                             130    0.06 7  121   2 
 BRR  HZ I         144 57.47         6.6 0.39                           121   2 
 BRR  HN ES   1    145  5.91                             130    0.12 7  121   2 
 CHI  HZ EP   1    144 51.92                             123   -0.42 7  153 179 
 CHI  HZ I         145 19.05         2.7 0.21                           153 179 
 PAM  SZ EP   1    144 55.54                             117   -0.44 7  187  38 
 PAM  SN ES   1    145 18.91                             117    0.02 7  187  38 
                                                                                
