 2017  3 2 0027 48.6 L   6.813 -73.148145.3  RSN 26 0.5 2.7LRSN                1
 GAP= 65        0.97       2.9     2.6  4.6 -0.2097E+00  0.3098E+01  0.2459E+01E
 Epicentro: LOS SANTOS - SANTANDER                                             3
 ACTION:UPD 17-05-25 18:34 OP:jn   STATUS:               ID:20170302002748 L   I
 OLDACT:UP  17-03-02 13:32 OP:and  STATUS:               ID:20170302001743d    3
 OLDACT:UP  17-03-02 13:30 OP:and  STATUS:               ID:20170302001743d    3
 OLDACT:UP  17-03-02 13:30 OP:and  STATUS:               ID:20170302001743d    3
 OLDACT:UP  17-03-02 13:28 OP:and  STATUS:               ID:20170302001743d    3
 OLDACT:UP  17-03-02 13:28 OP:and  STATUS:               ID:20170302001743d    3
 OLDACT:UP  17-03-02 13:28 OP:and  STATUS:               ID:20170302001743d    3
 OLDACT:UP  17-03-02 13:26 OP:and  STATUS:               ID:20170302001743d    3
 OLDACT:UP  17-03-02 13:26 OP:and  STATUS:               ID:20170302001743d    3
 OLDACT:UP  17-03-02 13:25 OP:and  STATUS:               ID:20170302001743d    3
 OLDACT:UP  17-03-02 13:24 OP:and  STATUS:               ID:20170302001743d    3
 OLDACT:UP  17-03-02 13:23 OP:and  STATUS:               ID:20170302001743d    3
 OLDACT:UP  17-03-02 13:22 OP:and  STATUS:               ID:20170302001743d    3
 OLDACT:DUP 17-03-02 13:19 OP:and  STATUS:               ID:20170302001743d    3
 OLDACT:UP  17-03-02 13:18 OP:and  STATUS:               ID:20170302001742     3
 OLDACT:UP  17-03-02 13:18 OP:and  STATUS:               ID:20170302001742     3
 OLDACT:UP  17-03-02 13:16 OP:and  STATUS:               ID:20170302001742     3
 OLDACT:UP  17-03-02 13:15 OP:and  STATUS:               ID:20170302001742     3
 OLDACT:UP  17-03-02 13:15 OP:and  STATUS:               ID:20170302001742     3
 OLDACT:UP  17-03-02 13:14 OP:and  STATUS:               ID:20170302001742     3
 OLDACT:UP  17-03-02 13:12 OP:and  STATUS:               ID:20170302001742     3
 OLDACT:UP  17-03-02 13:12 OP:and  STATUS:               ID:20170302001742     3
 OLDACT:REG 17-03-02 12:26 OP:and  STATUS:               ID:20170302001742     3
 2017-03-02-0018-00M.COL___390                                                 6
 STAT SP IPHASW D HRMM SECON CODA AMPLIT PERI AZIMU VELO AIN AR TRES W  DIS CAZ7
 BAR2 EZ IP     D  028  8.15                             170   -0.1010 24.7 189 
 BAR2 EZ ES        028 22.91                             170   -0.6310 24.7 189 
 BAR2 EZ I         028 24.41       199.9 0.30            166           24.7 189 
 BRR  HZ IP     C  028  9.97                             153    0.2810 70.3 298 
 BRR  HN ES        028 26.91                             153    0.8010 70.3 298 
 BRR  HZ I         028 31.30       114.1 0.22            152           70.3 298 
 PAM  EZ IP     C  028 10.97                             151    0.2210 76.4  40 
 PAM  EN ES        028 27.97                             151   -0.0310 76.4  40 
 PAM  EZ I         028 30.36       178.6 0.54            154           76.4  40 
 RUS  HZ IP     D  028 12.07                             143   -0.3910  102 176 
 RUS  HN ES        028 30.88                             143   -0.1510  102 176 
 RUS  HZ I         028 31.91        37.3 0.30            141            102 176 
 PTB  HZ EP        028 14.66                             132   -0.92 9  148 258 
 PTB  HN ES        028 35.98                             132   -0.61 9  148 258 
 PTB  HZ I         028 43.17        58.1 0.44            131            148 258 
 TAM  HZ IP     D  028 16.62                             130    0.28 9  156 105 
 TAM  HZ I         028 37.48        20.4 0.44            131            156 105 
 TAM  HN ES        028 38.44                             130    0.50 9  156 105 
 ZAR  HZ EP        028 21.32                             122    0.34 9  203 292 
 ZAR  HE ES        028 46.12                             122   -0.09 9  203 292 
 ZAR  HZ I         028 52.95        75.4 0.36            122            203 292 
 NOR  HZ EP        028 24.61                             118    0.19 8  235 234 
 NOR  HN ES        028 52.75                             118    0.43 8  235 234 
 NOR  HZ I         028 58.07        27.8 0.24            117            235 234 
 CHI  HZ EP        028 26.31                             117   -0.15 8  250 195 
 CHI  HN ES        028 55.54                             117   -0.42 8  250 195 
 CHI  HZ I         028 59.21        36.7 0.50            116            250 195 
 ROSC BZ EP   3    028 28.10                             116    1.24 2  254 211 
 ROSC BN ES        028 57.16                             116    0.49 8  254 211 
 ROSC BZ I         029  4.39        55.1 0.35            116            254 211 
 HEL  HZ EP   4    028 32.27                             114    3.42 0  272 255 
 HEL  HN ES        029  0.28                             114    0.07 8  272 255 
 HEL  HZ I         029  7.22        13.4 0.22            114            272 255 
 URE  HZ EP        028 29.26                             113   -0.35 7  283 292 
 URE  HN ES   4    028 59.37                             113   -2.19 0  283 292 
 URE  HZ I         029  9.96        39.8 0.32            113            283 292 
 PTGC HZ IP   9 D  028 31.29                             111   -1.35 0  310 159 
 PTGC HN ES        029  4.95                             111   -0.66 7  310 159 
 PTGC HZ I         029  7.41        44.3 0.38            111            310 159 
 LL6C HN EP   9    028 14.21                             110   -20.0 0  323 358 
 LL6C HE ES        028 49.11                                   -0.60 7  323 358 
 LL6C HN I         028 51.42        30.4 0.62            111            323 358 
 ELA  HZ EP   4    028 38.39                             110    2.83 0  330 229 
 ELA  HE ES        029 12.68                             110    0.52 7  330 229 
 ELA  HZ I         029 20.89        18.1 0.54            110            330 229 
 CBOC HZ EP   9    028 36.71                             110    1.14 0  334 252 
 CBOC HE ES        029 13.60                             110    0.29 7  334 252 
 DBB  EZ EP        028 36.32                             109    0.25 7  339 274 
 DBB  EN ES   3    029 11.32                             109   -1.73 2  339 274 
 DBB  EZ I         029 16.72         9.8 0.20            109            339 274 
 ARGC HZ EP   9    028 39.10                             108    0.98 0  358 340 
 ARGC HN ES        029 18.36                             108    0.67 6  358 340 
 ANIL HN ES   3    029 19.56                             108    2.12 2  358 224 
 PRA  HZ EP        028 42.00                             106   -0.28 6  393 209 
 PRA  HN ES        029 24.21                             106    0.09 6  393 209 
 PRA  HZ I         029 29.39        30.1 0.30            106            393 209 
 ORTC HZ EP        028 42.65                             106   -0.02 6  396 216 
 ORTC HN ES   3    029 25.98                             106    1.17 1  396 216 
 ORTC HZ I         029 29.02        19.5 0.34            106            396 216 
 SJC  HZ EP   9    028 42.36                             105   -1.68 0  408 327 
 SJC  HN ES        029 24.90                             106   -0.66 6  408 327 
 SJC  HZ I         029 28.09        10.4 0.28            106            408 327 
 CRJC HZ EP   4    028 48.45                             103   -2.51 0  466   4 
 CRJC HN ES   4    029 37.56                             103   -2.01 0  466   4 
 CRJC HZ I         029 39.14        15.0 0.40            104            466   4 
 SMAR HZ EP        028 53.95                             102   -0.38 4  496 346 
 SMAR HN ES   4    029 41.25                             102   -4.32 0  496 346 
 SMAR HZ I         029 49.11         9.2 0.36            103            496 346 
 MACC HZ EP   4    028 55.55                             101   -1.96 0  522 189 
 MACC HN ES   4    029 47.34                             101   -3.88 0  522 189 
 MACC HZ I         029 52.88         6.3 0.34            101            522 189 
 GARC HZ EP   4    029  2.19                             100   -1.84 0  574 207 
 GARC HN ES   4    030  0.45                             100   -2.38 0  574 207 
 GARC HZ I         030  4.68         6.2 0.26            100            574 207 
                                                                                
