 2013 11 2 0456 53.7 L   6.790 -73.173154.5  RSN  5 0.4 1.2LRSN                1
 GAP=198        0.90       5.5     7.1  8.5  0.1425E+02 -0.5032E+01 -0.2057E+01E
 Epicentro: LOS SANTOS - SANTANDER                                             3
 ACTION:UPD 14-01-09 16:24 OP:ep   STATUS:               ID:20131102045653 L   I
 OLDACT:REG 13-11-02 07:15 OP:jn   STATUS:               ID:20131102045000     3
 2013-11-02-0450-00M.COL___273                                                 6
 STAT SP IPHASW D HRMM SECON CODA AMPLIT PERI AZIMU VELO AIN AR TRES W  DIS CAZ7
 BRR  HZ EP        457 15.93                             155    0.2910 69.1 301 
 BRR  HN ES        457 33.12                             155    0.3310 69.1 301 
 RUS  HZ EP        457 18.23                             146    0.0110 99.7 174 
 RUS  HN ES        457 37.04                             146   -0.3310 99.7 174 
 RUS  HZ I         457 39.19         2.0 0.34            142           99.7 174 
 PTB  HZ EP        457 20.78                             135   -0.29 9  145 259 
 PTB  HN ES        457 41.88                             135   -0.58 9  145 259 
 PTB  HZ I         457 46.62         2.7 0.14            130            145 259 
 SPBC HZ EP   1    457 23.02                             132    0.43 7  160 218 
 SPBC HN ES   1    457 45.85                             132    0.70 7  160 218 
 SPBC HZ I         457 52.84         2.1 0.22            127            160 218 
 SML  HN ES   2    457 59.29                             119   -0.41 4  243 336 
                                                                                
