 2014  5 2 0204  1.1 L   7.208 -73.077158.0  RSN 15 0.4 2.3LRSN                1
 GAP=110        0.76       2.5     3.5  4.8 -0.8225E+00  0.3812E+01  0.2647E+01E
 Epicentro: BUCARAMANGA - SANTANDER                                            3
 OLDACT:REG 14-05-02 12:47 OP:fm   STATUS:               ID:20140502015816     3
 ACTION:UPD 15-03-16 16:54 OP:nd   STATUS:               ID:20140502020401 L   I
 OLDACT:UP  14-05-02 14:18 OP:fm   STATUS:               ID:20140502015816     3
 2014-05-02-0158-16M.COL___239                                                 6
 STAT SP IPHASW D HRMM SECON CODA AMPLIT PERI AZIMU VELO AIN AR TRES W  DIS CAZ7
 PAM  SZ EP        2 4 23.04                             164   -0.0510 44.1  71 
 PAM  SN ES        2 4 39.92                             164   -0.3510 44.1  71 
 BRR  HZ EP        2 4 23.88                             155    0.3410 71.0 261 
 BRR  HN ES        2 4 41.55                             155    0.4810 71.0 261 
 OCA  HZ EP        2 4 26.91                             142    0.1710  117 347 
 OCA  HE ES        2 4 46.85                             142    0.0810  117 347 
 OCA  SZ I         2 4 48.19        22.1 0.32            143            117 347 
 RUS  HZ EP   1    2 4 29.66                             135    0.15 7  146 180 
 RUS  HN ES   1    2 4 51.63                             135   -0.07 7  146 180 
 PTB  HZ IP     C  2 4 30.64                             130   -0.36 9  169 244 
 PTB  HN ES        2 4 53.99                             130   -0.37 9  169 244 
 PTB  SZ I         2 4 56.52        19.6 0.16            127            169 244 
 ZAR  HZ EP        2 4 33.66                             126   -0.18 9  199 279 
 ZAR  HN ES        2 4 59.71                             126    0.29 9  199 279 
 ZAR  SZ I         2 5  6.50        12.6 0.36            124            199 279 
 SPBC HZ EP   1    2 4 34.62                             125    0.16 6  204 213 
 SPBC HN ES   1    2 5  0.93                             125    0.41 6  204 213 
 SPBC SZ I         2 5  9.38        13.3 0.24            123            204 213 
 SML  HZ EP   2    2 4 35.35                             124    0.69 4  207 328 
 SML  HE ES        2 5  0.37                             124   -0.49 8  207 328 
 SML  SZ I         2 5  3.17        26.1 0.08            125            207 328 
 NOR  HZ EP   1    2 4 40.59                             117   -0.60 6  269 228 
 NOR  HE ES        2 5 11.85                             117   -0.65 8  269 228 
 NOR  SZ I         2 5 21.66        10.3 0.16            116            269 228 
 URE  HE ES   4    2 5 11.35                             116   -2.72 0  278 283 
 CHI  HZ EP   1    2 4 44.45                             115    0.04 5  294 194 
 CHI  HN ES   1    2 5 18.52                             115    0.30 5  294 194 
 CHI  SZ I         2 5 30.65        13.0 4.10            114            294 194 
 HEL  HZ EP        2 4 44.72                             115    0.45 7  294 248 
 HEL  HN ES   4    2 5 20.37                             115    2.39 0  294 248 
 HEL  SZ I         2 5 26.62        12.3 0.32            114            294 248 
 GUY2CHZ EP   4    2 4 50.38                             112    1.33 0  335 229 
 GUY2CHE ES   4    2 5 28.19                             112    1.70 0  335 229 
 GUY2CSZ I         2 5 39.02         5.5 0.64                           335 229 
 CBOC HZ EP   2    2 4 51.48                             110    0.31 3  357 246 
 CBOC HN ES   4    2 5 27.84                             110   -2.42 0  357 246 
 CBOC SZ I         2 5 32.93         4.3 3.12            109            357 246 
 RREF HZ EP   4    2 4 54.79                             111    2.91 0  358 225 
 RREF HN ES   4    2 5 36.60                             111    5.08 0  358 225 
 RREF SZ I         2 5 44.48         4.5 0.30            110            358 225 
 SJC  HZ EP   4    2 4 52.20                             109   -1.10 0  377 322 
 SJC  HN ES   4    2 5 31.37                             109   -2.67 0  377 322 
 SJC  SZ I         2 5 37.45         8.8 2.88            109            377 322 
                                                                                
