 2016  4 2 0750 21.6 L   6.819 -73.183146.2  RSN  9 0.4 1.7LRSN                1
 GAP=131        0.91       2.8     4.0  6.0 -0.1770E+01  0.5432E+01  0.6968E+00E
 Epicentro: ZAPATOCA - SANTANDER                                               3
 ACTION:UPD 16-05-05 14:18 OP:rebc STATUS:               ID:20160402075021 L   I
 OLDACT:UP  16-04-02 15:44 OP:drio STATUS:               ID:20160402074742     3
 OLDACT:UP  16-04-02 15:43 OP:drio STATUS:               ID:20160402074742     3
 OLDACT:REG 16-04-02 12:47 OP:drio STATUS:               ID:20160402074742     3
 2016-04-02-0747-42M.COL___304                                                 6
 STAT SP IPHASW D HRMM SECON CODA AMPLIT PERI AZIMU VELO AIN AR TRES W  DIS CAZ7
 BAR2 EZ EP        750 41.35                             170    0.0610 25.0 180 
 BAR2 EZ ES        750 56.30                             170   -0.3610 25.0 180 
 BAR2 EZ I         750 57.88        17.0 0.28            171           25.0 180 
 PAM  EZ EP        750 44.24                             151    0.3410 78.5  43 
 PAM  EN ES        751  1.57                             151    0.2610 78.5  43 
 PAM  EZ I         751  3.46         6.6 0.56            154           78.5  43 
 RUS  HZ EP        750 45.20                             143   -0.3410  103 174 
 RUS  HE ES        751  4.22                             143   -0.0110  103 174 
 RUS  HZ I         751  5.38         3.7 0.22            147            103 174 
 PTB  HZ EP        750 47.57                             133   -0.68 9  144 258 
 PTB  HN ES        751  9.00                             133   -0.06 9  144 258 
 PTB  HZ I         751 16.30         4.4 0.44            132            144 258 
 OCA  HZ EP        750 49.03                             130   -0.65 9  158 355 
 OCA  HN ES        751 11.78                             130    0.18 9  158 355 
 OCA  HZ I         751 21.26         7.1 0.24            131            158 355 
 SPBC HZ EP        750 50.27                             129    0.25 9  162 217 
 SPBC HE ES        751 12.21                             129    0.01 9  162 217 
 SPBC HZ I         751 17.17         9.6 0.20            131            162 217 
 ZAR  HZ EP   4    750 56.24                             123    2.67 0  199 292 
 ZAR  HN ES        751 19.04                             123    0.50 9  199 292 
 ZAR  HZ I         751 24.54         4.0 0.18            123            199 292 
 CHI  HZ EP        750 59.83                             117    0.43 8  250 194 
 CHI  HN ES        751 29.26                             117    0.36 8  250 194 
 CHI  HZ I         751 32.56         3.0 0.48            120            250 194 
 GUY2CHZ EP   4    751  6.89                             113    1.93 0  299 234 
 GUY2CHN ES   4    751 41.88                             113    3.08 0  299 234 
 GUY2CHZ I         751 47.52         2.1 0.36                           299 234 
 MON  HZ EP   4    751  8.82                             109   -1.25 0  349 309 
 MON  HN ES   4    751 46.59                             109   -1.31 0  349 309 
                                                                                
