 2011 11 2 0052 52.7 L   6.532 -73.508114.6  RSN  6 0.4 1.8LRSN                1
 GAP=159        0.82       4.7     5.4  6.9  0.1262E+02  0.1384E+02  0.3338E+01E
 Epicentro: EL CARMEN DE CHUCURI - SANTANDER                                   3
 ACTION:UPD 12-07-13 16:07 OP:ep   STATUS:               ID:20111102005253 L   I
 2011-11-02-0050-04S.COL___176                                                 6
 STAT SP IPHASW D HRMM SECON CODA AMPLIT PERI AZIMU VELO AIN AR TRES W  DIS CAZ7
 BAR2 SZ EP        053  9.37                             161    0.3110 36.6  80 
 BAR2 SZ I         053  9.77        29.5 0.21                          36.6  80 
 BAR2 SZ ES   1    053 22.04                             161    0.24 7 36.6  80 
 BRR  HZ EP        053 10.12                             147   -0.2410 67.4 341 
 BRR  HZ I         053 22.47         9.9 0.09                          67.4 341 
 BRR  HN ES        053 23.97                             147   -0.1310 67.4 341 
 RUS  HZ EP        053 12.52                             141    0.2110 85.0 146 
 RUS  HN ES   1    053 26.86                             141   -0.71 7 85.0 146 
 PAM  SZ EP   1    053 16.08                             129    0.20 7  126  45 
 PAM  SN ES   1    053 33.81                             129   -0.12 7  126  45 
 ZAR  HZ EP   1    053 21.62                             117    0.56 7  183 306 
 ZAR  HE ES   2    053 43.99                             117    0.84 4  183 306 
 ZAR  HZ I         053 46.13         7.8 0.27                           183 306 
 MON  HZ EP   1    053 38.84                             103   -0.72 5  344 316 
 MON  HN ES   1    054 15.42                             103   -0.67 5  344 316 
 MON  HZ I         054 18.52         2.0 0.36                           344 316 
                                                                                
