 2011 10 2 0648 37.0 L   6.791 -73.122145.0  RSN  7 0.3 1.8LRSN                1
 GAP=140        0.55       2.8     4.4  6.1 -0.2665E+01  0.2900E+01  0.2422E+00E
 Epicentro: LOS SANTOS - SANTANDER                                             3
 ACTION:UPD 12-07-13 16:01 OP:ep   STATUS:               ID:20111002064837 L   I
 2011-10-02-0640-00M.COL___169                                                 6
 STAT SP IPHASW D HRMM SECON CODA AMPLIT PERI AZIMU VELO AIN AR TRES W  DIS CAZ7
 BAR2 SZ EP   1    648 56.44                             171   -0.08 7 22.9 197 
 BAR2 SZ I         649 12.39        15.7 0.29                          22.9 197 
 GIR2 SZ EP   1    648 56.59                             167   -0.02 7 32.8 346 
 BRR  HZ EP   1    648 58.45                             151    0.24 7 74.0 298 
 BRR  HE ES   1    649 15.16                             151    0.39 7 74.0 298 
 BRR  HZ I         649 18.61        11.1 0.15                          74.0 298 
 PAM  SZ EP   1    648 59.37                             151    0.30 7 76.6  38 
 PAM  SN ES   1    649 16.22                             151   -0.08 7 76.6  38 
 PAM  SZ I         649 18.47        16.8 0.48                          76.6  38 
 RUS  HZ EP   1    649  0.52                             144   -0.06 7 99.4 178 
 RUS  HN ES   1    649 18.87                             144   -0.11 7 99.4 178 
 RUS  HZ I         649 20.39         6.1 0.44                          99.4 178 
 OCA  SZ EP   1    649  5.51                             129    0.15 7  162 352 
 OCA  SZ ES   1    649 26.89                             129   -0.61 7  162 352 
 OCA  SZ I         649 32.18        11.4 0.45                           162 352 
 NOR  SN ES   1    649 40.49                             118   -0.31 6  236 235 
                                                                                
