 2016  3 2 0942 53.9 L   6.735 -73.179149.4  RSN  5 0.2 1.0LRSN                1
 GAP=135        0.53       3.2     2.9  4.9 -0.1955E+01  0.3959E+01 -0.1452E+01E
 Epicentro: VILLANUEVA - SANTANDER                                             3
 ACTION:UPD 16-05-13 21:21 OP:cam  STATUS:               ID:20160302094253 L   I
 OLDACT:UP  16-03-02 18:42 OP:mh   STATUS:               ID:20160302093750d    3
 OLDACT:UP  16-03-02 16:39 OP:ak   STATUS:               ID:20160302093750d    3
 OLDACT:DUP 16-03-02 16:36 OP:ak   STATUS:               ID:20160302093750d    3
 OLDACT:REG 16-03-02 13:00 OP:mh   STATUS:               ID:20160302093749     3
 2016-03-02-0937-49M.COL___312                                                 6
 STAT SP IPHASW D HRMM SECON CODA AMPLIT PERI AZIMU VELO AIN AR TRES W  DIS CAZ7
 BAR2 EZ EP   2    943 13.67                             174   -0.19 5 15.8 181 
 BAR2 EZ ES   1    943 29.30                             174   -0.12 7 15.8 181 
 BAR2 EZ I         943 31.37         3.1 0.17            171           15.8 181 
 PAM  EZ EP        943 17.34                             149    0.3410 85.3  38 
 PAM  EN ES        943 34.84                             149   -0.1710 85.3  38 
 RUS  HZ EP        943 17.56                             146    0.0010 93.8 173 
 RUS  HN ES        943 36.09                             146    0.0910 93.8 173 
 RUS  HZ I         943 40.39         1.3 0.28            147           93.8 173 
 PTB  HZ EP        943 20.40                             134   -0.35 9  143 261 
 PTB  HN ES        943 41.82                             134    0.14 9  143 261 
 PTB  HZ I         943 45.82         1.5 0.13            135            143 261 
 ZAR  HN ES   2    943 52.21                             123    0.22 4  203 294 
                                                                                
