 2011  5 2 0043  1.0 L   5.838 -73.695118.3  RSN 12 0.4 2.2LRSN                1
 GAP= 99        0.62       3.0     3.3  6.7 -0.4539E+01  0.8239E+01  0.3312E+00E
 Epicentro: PUENTE NACIONAL - SANTANDER                                        3
 ACTION:UP  11-06-29 08:50 OP:tino STATUS:               ID:20110502004301 L   I
 2011-05-02-0040-00M.COL___140                                                 6
 STAT SP IPHASW D HRMM SECON CODA AMPLIT PERI AZIMU VELO SNR AR TRES W  DIS CAZ7
 RUS  HZ EP   1    043 20.00                             148     0.3 7   68  85 
 RUS  HN ES   2    043 34.07                             148    -0.3 5   68  85 
 RUS  HZ I         043 36.01        17.3 0.30                            68  85 
 BAR2 SZ EP   1    043 22.16                             137     0.4 7  101  34 
 BAR2 SZ ES   1    043 38.02                             137     0.0 7  101  34 
 BAR2 SZ I         043 39.58        91.9 0.20                           101  34 
 BRR  HZ EP   1    043 24.67                             127    -0.4 7  140 359 
 BRR  HN ES   1    043 43.57                             127    -0.3 7  140 359 
 BRR  HZ I         043 56.42        15.5 0.18                           140 359 
 YOP  SE ES   2    043 46.25                             124     0.2 5  151 111 
 YOP  SZ I         043 48.91        14.5 0.28                           151 111 
 PAM  SZ EP   1    043 31.87                             117     0.0 6  199  33 
 PAM  SE ES   2    043 56.24                             117     0.3 4  199  33 
 GUY  SZ EP   1    043 31.76                             117    -0.1 6  200 250 
 GUY  SN ES   2    043 56.36                             117     0.3 4  200 250 
 GUY  SZ I         044  1.73        17.8 0.49                           200 250 
 HEL  HZ EP   1    043 32.28                             116    -0.2 6  207 281 
 HEL  HE ES   2    043 57.88                             116     0.7 4  207 281 
 HEL  HZ I         044  1.17         7.6 0.27                           207 281 
 RREF HZ EP   1    043 32.83                             115    -0.4 6  210 241 
 RREF HN ES   2    043 58.91                             115     0.4 4  210 241 
 RREF HZ I         044  1.34        11.1 0.38                           210 241 
 BRI  SZ EP   2    043 35.45                             113     0.5 4  230  26 
 BRI  SZ ES   2    044  1.11                             113    -0.3 4  230  26 
 BRI  SZ I         044  8.12        14.7 0.40                           230  26 
 GRA  SZ EP   1    043 36.93                             111     0.2 6  247  23 
 GRA  SZ ES   2    044  4.60                             111    -0.1 4  247  23 
 GRA  SZ I         044  9.48        17.7 0.33                           247  23 
 OCA  SZ EP   2    043 40.16                             109     0.9 4  269   9 
 OCA  SZ ES   2    044  8.93                             109    -0.2 4  269   9 
 OCA  SZ I         044 19.81        10.8 0.37                           269   9 
 PRA  HZ EP   1    043 38.99                             109    -0.2 6  269 209 
 PRA  HN ES   2    044  8.71                             109    -0.3 4  269 209 
                                                                                
