 2010  7 2 0428  5.3 L   6.767 -73.096150.1  RSN  6 0.3 1.4LRSN                1
 GAP=162        0.52       4.1     9.9  8.6  0.5835E+00 -0.2846E+02 -0.6604E+01E
 Epicentro: LOS SANTOS - SANTANDER                                             3
 ACTION:UPD 10-12-01 15:14 OP:pat  STATUS:               ID:20100702042805 L   I
 2010-07-02-0426-31S.COL___118                                                 6
 STAT SP IPHASW D HRMM SECON CODA AMPLIT PERI AZIMU VELO AIN AR TRES W  DIS CAZ7
 BAR2 SZ EP   2    428 25.21                             171    -0.2 5   22 207 
 BAR2 SZ ES   2    428 40.52                             171    -0.6 5   22 207 
 BRR  HZ EP   2    428 27.02                             151    -0.3 5   78 299 
 BRR  HZ I         428 27.47         6.4 0.10                            78 299 
 BRR  HN ES   2    428 44.66                             151     0.2 5   78 299 
 RUS  HZ EP   2    428 29.44                             146     0.2 5   97 179 
 RUS  HN ES   2    428 48.35                             146     0.5 5   97 179 
 RUS  HZ I         428 50.27         3.2 0.54                            97 179 
 BRI  SZ EP   2    428 29.75                             142     0.0 5  110  17 
 GRA  SZ EP   2    428 30.91                             137    -0.2 5  128  15 
 GRA  SZ ES   2    428 51.33                             137     0.1 5  128  15 
 OCA  SZ ES   2    428 57.43                             130     0.4 5  165 351 
 OCA  SZ I         429  0.52         3.0 0.39                           165 351 
                                                                                
