 2013  9 2 0434 14.1 L   6.784 -73.145150.1  RSN  8 0.4 1.9LRSN                1
 GAP=137        0.91       3.7     4.6  6.1 -0.4102E+01  0.2082E+01  0.3575E+01E
 Epicentro: LOS SANTOS - SANTANDER                                             3
 ACTION:UPD 13-10-22 09:19 OP:ep   STATUS:               ID:20130902043414 L   I
 OLDACT:UP  13-09-02 09:14 OP:cam  STATUS:               ID:20130902042959     3
 OLDACT:REG 13-09-02 07:56 OP:cam  STATUS:               ID:20130902042959     3
 2013-09-02-0429-59M.COL___269                                                 6
 STAT SP IPHASW D HRMM SECON CODA AMPLIT PERI AZIMU VELO AIN AR TRES W  DIS CAZ7
 BAR2 SZ EP        434 34.03                             171   -0.1610 21.6 191 
 BAR2 SZ ES        434 49.45                             171   -0.4310 21.6 191 
 BAR2 SZ I         434 52.06        11.8 0.38            171           21.6 191 
 BRR  HZ EP        434 35.83                             153    0.1010 72.1 300 
 BRR  HZ I         434 36.18        14.3 0.26            150           72.1 300 
 BRR  HN ES        434 53.51                             153    0.8710 72.1 300 
 PAM  SZ EP        434 36.80                             151   -0.0210 78.7  39 
 PAM  SZ I         434 37.24        19.5 0.23            153           78.7  39 
 PAM  SN ES        434 54.61                             151    0.0410 78.7  39 
 RUS  HZ EP        434 38.45                             145    0.3310 98.8 176 
 RUS  HE ES        434 56.85                             145   -0.0410 98.8 176 
 RUS  HZ I         434 57.66         6.6 0.26            147           98.8 176 
 PTB  HZ EP   1    434 41.17                             133   -0.19 7  147 260 
 PTB  HN ES        435  2.13                             133   -0.53 9  147 260 
 PTB  HZ I         435  7.89         8.9 0.38            132            147 260 
 OCA  HN ES   1    435  4.74                             130   -0.61 7  162 353 
 OCA  HZ I         435  9.49         9.7 0.32            131            162 353 
 SPBC HZ EP        434 42.94                             130    0.17 9  162 219 
 SPBC HN ES        435  5.22                             130    0.05 9  162 219 
 SPBC HZ I         435  8.90        11.9 0.26            131            162 219 
 CHI  HZ EP   1    434 51.74                             118   -0.09 6  247 195 
                                                                                
