 2011  8 2 0904  1.7 L   6.788 -73.129142.9  RSN  6 0.4 1.7LRSN                1
 GAP=157        0.67       3.7     7.6  6.2  0.2441E+00 -0.3984E+01 -0.3799E+01E
 Epicentro: LOS SANTOS - SANTANDER                                             3
 ACTION:UPD 12-07-25 14:05 OP:epov STATUS:               ID:20110802090401 L   I
 2011-08-02-0900-00M.COL___140                                                 6
 STAT SP IPHASW D HRMM SECON CODA AMPLIT PERI AZIMU VELO AIN AR TRES W  DIS CAZ7
 BAR2 SZ EP   1    9 4 21.01                             170    0.01 7 22.5 195 
 BAR2 SZ ES   1    9 4 35.65                             170   -0.38 7 22.5 195 
 BAR2 SZ I         9 4 36.81        11.4 0.23                          22.5 195 
 BRR  HZ EP   1    9 4 23.10                             151    0.40 7 73.4 299 
 BRR  HE ES   1    9 4 39.35                             151    0.29 7 73.4 299 
 BRR  HZ I         9 4 41.09        10.3 0.11                          73.4 299 
 RUS  HZ EP   1    9 4 25.04                             143   -0.06 7 99.2 177 
 RUS  HN ES   2    9 4 43.15                             143   -0.18 5 99.2 177 
 RUS  HZ I         9 4 45.09         4.2 0.33                          99.2 177 
 BRI  SZ EP   1    9 4 25.90                             140    0.50 7  109  20 
 BRI  SZ ES   1    9 4 43.95                             140    0.10 7  109  20 
 BRI  SZ I         9 4 46.24         7.7 0.27                           109  20 
 OCA  SZ EP   1    9 4 29.91                             128   -0.05 7  162 353 
 OCA  SZ ES   1    9 4 51.42                             128   -0.57 7  162 353 
 OCA  SZ I         9 4 56.38         6.5 0.27                           162 353 
 SJC  HZ EP   1    9 4 56.67                             105   -0.77 4  411 327 
                                                                                
