 2017  5 2 0356 17.5 L   6.835 -73.138146.8  RSN 15 0.5 2.0LRSN                1
 GAP=111        1.24       3.8     4.6  6.6 -0.7383E+00  0.7708E+01  0.2512E+01E
 Epicentro: LOS SANTOS - SANTANDER                                             3
 ACTION:UPD 17-06-16 13:31 OP:jn   STATUS:               ID:20170502035617 L   I
 OLDACT:UP  17-05-02 16:48 OP:edw  STATUS:               ID:20170502034745d    3
 OLDACT:DUP 17-05-02 16:42 OP:edw  STATUS:               ID:20170502034745d    3
 OLDACT:UP  17-05-02 16:41 OP:edw  STATUS:               ID:20170502034744     3
 OLDACT:REG 17-05-02 12:11 OP:edw  STATUS:               ID:20170502034744     3
 2017-05-02-0348-00M.COL___365                                                 6
 STAT SP IPHASW D HRMM SECON CODA AMPLIT PERI AZIMU VELO AIN AR TRES W  DIS CAZ7
 BRR  HZ EP     C  356 39.09                             153    0.4210 70.2 295 
 BRR  HN ES        356 55.95                             153    0.7410 70.2 295 
 BRR  HZ I         356 59.62        16.3 0.44            150           70.2 295 
 PAM  EZ EP     D  356 39.98                             151    0.4010 73.8  41 
 PAM  EN ES        356 56.81                             151   -0.0210 73.8  41 
 PAM  EZ I         356 59.41         8.2 0.70            156           73.8  41 
 RUS  HZ IP     C  356 41.09                             143   -0.5110  104 177 
 RUS  HN ES        356 59.47                             143   -0.9510  104 177 
 RUS  HZ I         357  0.75        22.5 0.30            145            104 177 
 PTB  HZ EP   9    356 43.93                             132   -0.74 0  149 257 
 PTB  HN ES        357  4.15                             132   -1.00 9  149 257 
 PTB  HZ I         357 12.20        12.2 0.38            131            149 257 
 SPBC HZ EP        356 46.10                             128   -0.29 9  167 218 
 SPBC HN ES        357  8.24                             128   -0.71 9  167 218 
 SPBC HZ I         357 12.75        17.9 0.14            129            167 218 
 YPLC HZ IP     C  356 47.52                             126   -0.11 9  180 152 
 YPLC HN ES        357 11.45                             126    0.29 9  180 152 
 YPLC HZ I         357 12.18        14.0 0.30            130            180 152 
 ZAR  HZ EP        356 50.34                             122    0.42 9  203 291 
 ZAR  HN ES   4    357 16.12                             122    0.89 0  203 291 
 ZAR  HZ I         357 21.01         8.4 0.42            122            203 291 
 NOR  HZ EP        356 53.76                             118    0.18 8  238 234 
 NOR  HN ES        357 21.39                             118   -0.36 8  238 234 
 NOR  HZ I         357 27.92         8.6 0.24            119            238 234 
 CHI  HZ EP        356 55.49                             117   -0.17 8  253 195 
 CHI  HN ES        357 26.30                             117    0.85 8  253 195 
 CHI  HZ I         357 31.31         5.5 0.32            118            253 195 
 ROSC BZ EP   4    356 57.38                             116    1.32 0  257 211 
 ROSC BN ES   4    357 27.88                             116    1.72 0  257 211 
 ROSC BZ I         357 33.26         8.8 0.40            117            257 211 
 PTGC HZ IP   4 D  357  0.35                             111   -1.40 0  312 159 
 PTGC HN ES   4    357 33.34                             111   -2.95 0  312 159 
 ELA  HN ES   4    357 42.90                             110    1.30 0  332 229 
 CBOC HZ EP        357  4.80                             110    0.13 7  336 252 
 CBOC HE ES        357 41.24                             110   -0.24 7  336 252 
 CBOC HZ I         357 44.19         2.0 0.24            110            336 252 
 DBB  EZ EP        357  4.77                             109   -0.29 7  340 274 
 DBB  EN ES   4    357 39.95                             109   -2.23 0  340 274 
 DBB  EZ I         357 48.23         2.5 0.18            110            340 274 
 ARGC HZ EP   2    357  6.39                             108   -0.38 3  356 340 
 ARGC HN ES   2    357 44.76                             108   -0.47 3  356 340 
 ARGC HZ I         357 53.41         1.5 0.28            110            356 340 
 ANIL HN ES   4    357 45.08                             108   -1.82 0  361 224 
 ORTC HZ EP        357 12.60                             106    0.74 6  399 216 
 ORTC HN ES        357 55.14                             106    0.86 6  399 216 
 ORTC HZ I         357 59.39         3.8 0.38            107            399 216 
 SJC  HZ EP        357 11.84                             106   -0.90 6  406 327 
 SJC  HN ES   4    357 52.80                             106   -3.05 0  406 327 
 SJC  HZ I         357 57.24         2.6 0.44            107            406 327 
                                                                                
