 2016 11 2 0500 12.2 L   6.617 -73.996 77.8  RSN  4 0.2 1.0LRSN                1
 GAP=132        0.48       3.4     2.7  7.6  0.4098E+01  0.7814E+01  0.1724E+02E
 Epicentro: PUERTO PARRA - SANTANDER                                           3
 ACTION:UPD 17-10-26 21:03 OP:lp   STATUS:               ID:20161102045647dL   I
 OLDACT:DUP 16-11-02 15:57 OP:dani STATUS:               ID:20161102045647dL   3
 OLDACT:UP  16-11-02 15:55 OP:dani STATUS:               ID:20161102045646 L   3
 OLDACT:UP  16-11-02 15:55 OP:dani STATUS:               ID:20161102045646 L   3
 OLDACT:UP  16-11-02 15:55 OP:dani STATUS:               ID:20161102045646 L   3
 OLDACT:UPD 16-11-02 13:22 OP:dnl  STATUS:               ID:20161102045646 L   3
 2016-11-02-0457-00M.COL___343                                                 6
 STAT SP IPHASW D HRMM SECON CODA AMPLIT PERI AZIMU VELO AIN AR TRES W  DIS CAZ7
 PTB  HZ EP        5 0 25.01                             143   -0.0610 51.6 261 
 BRR  HZ EP        5 0 25.76                             137   -0.1610 62.7  30 
 BRR  HE ES        5 0 36.80                             137    0.2110 62.7  30 
 BRR  HZ I         5 0 37.15         3.2 0.10            141           62.7  30 
 BAR2 EZ EP        5 0 28.70                             126   -0.0710 90.0  92 
 BAR2 EZ ES        5 0 41.50                             126   -0.1610 90.0  92 
 BAR2 EZ I         5 0 42.34         8.1 0.40            129           90.0  92 
 RUS  HZ EP        5 0 33.49                             116    0.2710  129 128 
 RUS  HE ES        5 0 49.57                             116   -0.0010  129 128 
 RUS  HZ I         5 0 50.87         0.8 0.18            118            129 128 
                                                                                
