 2011  5 2 0442 59.9 L   6.783 -73.093140.7  RSN  8 0.3 1.8LRSN                1
 GAP=144        0.73       4.2     6.6  6.8 -0.6815E+01 -0.7294E+01 -0.4774E+01E
 Epicentro: LOS SANTOS - SANTANDER                                             3
 ACTION:UP  11-06-29 08:50 OP:tino STATUS:               ID:20110502044259 L   I
 2011-05-02-0440-10S.COL___130                                                 6
 STAT SP IPHASW D HRMM SECON CODA AMPLIT PERI AZIMU VELO SNR AR TRES W  DIS CAZ7
 BAR2 SZ EP   1    443 18.91                             170     0.0 8   23 205 
 BAR2 SZ ES   1    443 33.40                             170    -0.4 8   23 205 
 BAR2 SZ I         443 36.15        23.4 0.36                            23 205 
 PAM  SZ EP   1    443 21.84                             150     0.4 8   75  35 
 PAM  SN ES   2    443 38.63                             150     0.3 5   75  35 
 BRR  HZ EP   1    443 20.79                             150    -0.1 8   77 298 
 BRR  HN ES   1    443 37.70                             150     0.5 8   77 298 
 BRR  HZ I         443 42.17        16.1 0.15                            77 298 
 RUS  HZ EP   1    443 22.85                             143    -0.2 8   98 179 
 RUS  HZ I         443 23.78         5.6 0.13                            98 179 
 RUS  HN ES   2    443 41.01                             143     0.0 5   98 179 
 BRI  SZ EP   1    443 23.63                             140     0.3 8  108  18 
 GRA  SZ IP        443 24.88                             136     0.210  126  15 
 GRA  SZ I         443 26.17         7.6 0.40                           126  15 
 GRA  SZ ES   2    443 43.60                             136    -0.5 5  126  15 
 OCA  SZ EP   1    443 27.57                             128    -0.5 7  163 351 
 OCA  SZ ES   2    443 49.31                             128    -0.8 5  163 351 
 OCA  SZ I         443 53.69         7.7 0.28                           163 351 
 NOR  SN ES   2    444  3.74                             117     0.0 4  238 236 
                                                                                
