 2016  8 2 0023 28.7 L   6.789 -73.119152.5  RSN  7 0.3 1.4LRSN                1
 GAP=140        0.66       2.7     3.1  4.2 -0.1050E+01  0.4168E+01  0.7066E+00E
 Epicentro: LOS SANTOS - SANTANDER                                             3
 ACTION:UPD 16-10-29 15:31 OP:rebc STATUS:               ID:20160802002328 L   I
 OLDACT:UP  16-08-02 13:16 OP:edw  STATUS:               ID:20160802001739d    3
 OLDACT:UP  16-08-02 13:11 OP:edw  STATUS:               ID:20160802001739d    3
 OLDACT:DUP 16-08-02 13:06 OP:edw  STATUS:               ID:20160802001739d    3
 2016-08-02-0018-00M.COL___356                                                 6
 STAT SP IPHASW D HRMM SECON CODA AMPLIT PERI AZIMU VELO AIN AR TRES W  DIS CAZ7
 BAR2 EZ EP        023 48.91                             171   -0.2110 22.8 198 
 BAR2 EZ ES        024  4.75                             171   -0.3110 22.8 198 
 BRR  HZ EP        023 50.67                             153   -0.0810 74.4 298 
 BRR  HN ES        024  8.30                             153    0.3510 74.4 298 
 BRR  HZ I         024 11.83         4.1 0.44                          74.4 298 
 PAM  HZ EP        023 51.62                             152    0.0410 76.5  37 
 PAM  EE ES        024  9.58                             152    0.1510 76.5  37 
 PAM  HZ I         024 11.01         4.6 0.58                          76.5  37 
 RUS  HZ EP        023 53.44                             145    0.4310 99.2 178 
 RUS  HN ES        024 11.74                             145   -0.2410 99.2 178 
 RUS  HZ I         024 12.97         1.8 0.20                          99.2 178 
 SPBC HZ EP        023 57.83                             130    0.03 9  164 220 
 SPBC HN ES        024 20.62                             130    0.11 9  164 220 
 SPBC HZ I         024 22.62         4.1 0.28                           164 220 
 ZAR  HZ EP        024  1.92                             123    0.01 8  207 292 
 ZAR  HN ES        024 27.50                             123   -0.33 8  207 292 
 ZAR  HZ I         024 33.91         4.0 0.34                           207 292 
 NOR  HZ EP        024  4.65                             120   -0.35 8  236 235 
 NOR  HE ES        024 33.66                             120    0.34 8  236 235 
 NOR  HZ I         024 40.43         1.0 0.16                           236 235 
                                                                                
