 2011  7 2 0658 13.7 L   6.990 -73.168129.0  RSN  8 0.2 1.4LRSN                1
 GAP=154        0.40       2.5     4.2  4.2 -0.1374E+01 -0.4900E+00  0.1414E+01E
 Epicentro: GIRON - SANTANDER                                                  3
 ACTION:UPD 12-07-25 13:57 OP:epov STATUS:               ID:20110702065813 L   I
 2011-07-02-0654-14S.COL___140                                                 6
 STAT SP IPHASW D HRMM SECON CODA AMPLIT PERI AZIMU VELO AIN AR TRES W  DIS CAZ7
 GIR2 SZ EP   1    658 31.10                             175    0.13 7 10.3 344 
 BTL  SZ EP        658 31.03                             174   -0.1310 13.6 235 
 BAR2 SZ EP        658 32.05                             160    0.0510 44.0 182 
 BAR2 SZ ES   1    658 46.07                             160   -0.20 7 44.0 182 
 BAR2 SZ I         658 47.50         7.3 0.22                          44.0 182 
 BRR  HZ EP        658 32.35                             153   -0.1610 61.5 282 
 BRR  HE ES   1    658 47.36                             153    0.19 7 61.5 282 
 BRR  HZ I         658 48.52         5.9 0.16                          61.5 282 
 GRA  SZ ES   1    658 53.37                             138    0.18 7  107  22 
 RUS  HZ EP   1    658 37.82                             134    0.21 7  122 176 
 RUS  HZ I         658 37.94         1.6 0.09                           122 176 
 OCA  SZ EP   2    658 38.43                             130   -0.31 5  139 353 
 OCA  SZ ES   2    658 58.19                             130   -0.07 5  139 353 
 OCA  SZ I         659  7.71         4.2 0.32                           139 353 
 HEL  HZ EP   2    658 53.92                             111    0.38 4  276 251 
 HEL  HZ I         659 29.13         2.4 0.35                           276 251 
                                                                                
