 2015  5 2 0437 39.4 L   6.553 -73.502110.2  RSN 11 0.5 1.7LRSN                1
 GAP= 65        1.22       3.3     4.5  6.7  0.5976E+00  0.7399E+01 -0.4026E+01E
 Epicentro: EL CARMEN - SANTANDER                                              3
 ACTION:UPD 15-09-10 22:00 OP:cam  STATUS:               ID:20150502043739 L   I
 OLDACT:REG 15-05-02 13:07 OP:stll STATUS:               ID:20150502042736     3
 2015-05-02-0427-36M.COL___276                                                 6
 STAT SP IPHASW D HRMM SECON CODA AMPLIT PERI AZIMU VELO AIN AR TRES W  DIS CAZ7
 BAR2 EZ EP     C  437 55.61                             161    0.4510 35.6  83 
 BAR2 EZ ES        438  7.85                             161    0.3810 35.6  83 
 BAR2 EZ I         438  9.66        35.4 0.44            165           35.6  83 
 BRR  HZ EP        437 56.41                             147   -0.0210 65.5 339 
 BRR  HN ES        438  9.90                             147    0.1810 65.5 339 
 BRR  HZ I         438 15.92         6.3 0.44            147           65.5 339 
 RUS  HZ EP        437 58.76                             139    0.1010 86.5 148 
 RUS  HN ES        438 13.60                             139   -0.1010 86.5 148 
 RUS  HZ I         438 15.57         2.9 0.40            146           86.5 148 
 SPBC HZ EP        438  1.31                             129    0.4510  118 212 
 SPBC HN ES        438 16.70                             129   -0.9210  118 212 
 SPBC HZ I         438 21.74        11.7 0.20            134            118 212 
 PAM  SZ EP        438  2.04                             128    0.0510  124  46 
 PAM  SZ I         438  3.40         4.8 0.40            132            124  46 
 ZAR  HZ EP        438  7.84                             116    0.46 9  182 305 
 ZAR  HN ES        438 29.49                             116    0.27 9  182 305 
 ZAR  HZ I         438 32.66         6.5 0.20            119            182 305 
 NOR  HZ EP        438  7.42                             116   -0.51 9  187 234 
 OCA  HZ EP        438  7.34                             116   -0.80 9  188   6 
 OCA  HN ES        438 29.39                             116   -1.18 9  188   6 
 OCA  HZ I         438 36.29        10.7 0.24            119            188   6 
 TAM  HZ EP        438  8.45                             115    0.21 9  190  94 
 HEL  HZ EP        438 13.32                             111    0.39 8  228 260 
 SML  HZ EP        438 16.01                             108    0.25 8  256 346 
 SML  HN ES        438 44.42                             108    0.29 8  256 346 
 SML  HZ I         438 50.58         7.7 0.24            111            256 346 
                                                                                
