 2014 11 2 0617 58.4 L   6.594 -73.508115.6  RSN 20 0.5 2.1LRSN                1
 GAP= 54        0.93       2.2     2.4  4.8 -0.7351E+00  0.4102E+01  0.9221E+00E
 Epicentro: EL CARMEN - SANTANDER                                              3
 ACTION:UPD 14-12-19 15:38 OP:nd   STATUS:               ID:20141102061758 L   I
 OLDACT:REG 14-11-02 13:40 OP:spq  STATUS:               ID:20141102060747     3
 2014-11-02-0607-47M.COL___271                                                 6
 STAT SP IPHASW D HRMM SECON CODA AMPLIT PERI AZIMU VELO AIN AR TRES W  DIS CAZ7
 BAR2 SZ IP     C  618 14.94                             161    0.1510 36.0  90 
 BAR2 SZ ES   1    618 27.44                             161   -0.16 7 36.0  90 
 BRR  HZ EP     D  618 15.72                             150    0.0210 61.0 338 
 BRR  HN ES        618 29.80                             150    0.5910 61.0 338 
 BRR  HZ I         618 41.15        24.4 0.16            151           61.0 338 
 RUS  HZ EP        618 18.27                             139   -0.2210 90.7 149 
 RUS  HE ES   1    618 33.51                             139   -0.67 7 90.7 149 
 RUS  HZ I         618 34.14        21.3 0.18            146           90.7 149 
 PTB  HZ IP   4 D  618 17.86                             135   -1.16 0  105 267 
 PTB  HE ES   4    618 33.18                             135   -1.95 0  105 267 
 PTB  HZ I         618 39.01        28.4 0.16            137            105 267 
 SPBC HZ EP        618 20.76                             130    0.1610  121 211 
 SPBC HN ES        618 37.30                             130   -0.6410  121 211 
 SPBC HZ I         618 43.09        27.2 0.38            134            121 211 
 PAM  SE ES        618 39.67                             130    0.7510  122  47 
 PAM  SZ I         618 40.59        24.0 0.46            136            122  47 
 OCA  HZ EP   1    618 26.85                             118   -0.09 7  183   7 
 OCA  HE ES   1    618 49.34                             118    0.11 7  183   7 
 OCA  HZ I         618 55.64        23.7 0.20            122            183   7 
 TAM  HZ EP        618 27.58                             117   -0.05 9  191  95 
 TAM  HE ES   1    618 50.24                             117   -0.20 7  191  95 
 TAM  HZ I         618 51.51        11.9 0.22            123            191  95 
 CHI  HZ EP        618 31.41                             113    0.22 8  219 187 
 CHI  HE ES   1    618 56.87                             113    0.08 6  219 187 
 CHI  HZ I         619  0.51         4.8 0.40            118            219 187 
 HEL  HZ EP        618 32.08                             112   -0.10 8  228 259 
 HEL  HE ES        618 57.82                             112   -0.74 8  228 259 
 HEL  HZ I         619  1.66         9.3 0.20            115            228 259 
 GUY2CHZ EP   4    618 36.54                             110    1.09 0  255 234 
 GUY2CHE ES   1    619  4.80                             110    0.44 6  255 234 
 GUY2CHZ I         619  8.35         6.3 0.28                           255 234 
 URE  HZ EP        618 35.26                             109    0.13 8  258 300 
 URE  HE ES        619  3.11                             109   -0.69 8  258 300 
 URE  HZ I         619 10.63        18.4 0.38            112            258 300 
 CBOC HZ EP        618 39.46                             107    0.54 7  289 254 
 CBOC HN ES        619 10.17                             107   -0.38 7  289 254 
 CBOC HZ I         619 14.52         3.5 0.16            110            289 254 
 TOL  SZ EP   1    618 41.25                             106    0.86 5  299 222 
 TOL  SN ES        619 13.77                             106    0.61 7  299 222 
 TOL  SZ I         619 19.01        13.3 0.38            109            299 222 
 DBB  SZ EP   1    618 40.70                             106    0.29 5  302 279 
 DBB  SZ ES   1    619 13.44                             106    0.24 5  302 279 
 DBB  SZ I         619 16.80        17.8 0.38            109            302 279 
 MON  HZ EP        618 43.71                             103   -0.93 7  339 316 
 MON  HN ES        619 20.69                             103   -0.05 7  339 316 
 MON  HZ I         619 22.84         7.5 0.22            106            339 316 
 PRA  HZ EP   1    618 46.26                             103   -0.13 5  353 206 
 PRA  HE ES   1    619 24.07                             103    0.23 5  353 206 
 PRA  HZ I         619 30.85         5.9 0.20            106            353 206 
 ORTC HZ EP        618 46.98                             103    0.51 6  354 213 
 ORTC HN ES        619 24.07                             103    0.09 6  354 213 
 ORTC HZ I         619 32.38         3.4 0.44            106            354 213 
 SDV  BZ EP   1    618 52.18                             100   -0.69 4  406  51 
 SDV  BE ES   1    619 34.53                             100   -0.85 4  406  51 
 SDV  BZ I         619 37.30         5.0 0.40            104            406  51 
 SJC  HE ES   4    619 34.67                             100   -1.09 0  409 333 
 SJC  HZ I         619 41.19         2.5 0.60            103            409 333 
                                                                                
