 2015  9 2 0930 22.8 L   6.769 -73.196146.6  RSN  7 0.5 1.4LRSN                1
 GAP=126        1.18       4.8     5.9  7.6  0.5515E+01 -0.5633E+01 -0.8309E+01E
 Epicentro: ZAPATOCA - SANTANDER                                               3
 ACTION:UPD 15-10-28 16:23 OP:cam  STATUS:               ID:20150902093022 L   I
 OLDACT:REG 15-09-02 14:18 OP:stll STATUS:               ID:20150902092746     3
 2015-09-02-0927-46M.COL___355                                                 6
 STAT SP IPHASW D HRMM SECON CODA AMPLIT PERI AZIMU VELO AIN AR TRES W  DIS CAZ7
 BAR2 EZ EP        930 42.34                             172   -0.0910 19.6 176 
 BAR2 EZ ES        930 57.57                             172   -0.1910 19.6 176 
 BAR2 EZ I         930 58.48         6.3 0.18            171           19.6 176 
 BRR  HZ EP        930 44.54                             154    0.7010 68.2 303 
 BRR  HN ES        931  1.04                             154    0.7610 68.2 303 
 BRR  HZ I         931  2.46         5.6 0.16            152           68.2 303 
 RUS  HZ EP        930 46.25                             145   -0.1510 97.7 173 
 RUS  HE ES        931  4.80                             145   -0.0310 97.7 173 
 RUS  HZ I         931  7.35         2.0 0.30            146           97.7 173 
 PTB  HZ EP        930 49.32                             133    0.06 9  142 260 
 PTB  HN ES        931  9.12                             133   -0.80 9  142 260 
 PTB  HZ I         931 16.13         3.0 0.18            132            142 260 
 SPBC HZ EP        930 51.03                             130    0.27 9  157 218 
 SPBC HN ES        931 12.59                             130    0.01 9  157 218 
 SPBC HZ I         931 15.54         4.4 0.22            130            157 218 
 TAM  HZ EP     D  930 50.64                             130   -0.30 9  160 103 
 SML  HZ EP        930 59.96                             117    0.42 8  245 337 
 SML  HN ES        931 27.29                             117   -0.93 8  245 337 
 SML  HZ I         931 31.87         2.8 0.10            118            245 337 
                                                                                
