 2013  9 2 0531 36.7 L   6.778 -73.169145.6  RSN  6 0.3 1.3LRSN                1
 GAP=233        0.79       4.9     5.2  6.5  0.1015E+02  0.4047E+01  0.2330E+01E
 Epicentro: LOS SANTOS - SANTANDER                                             3
 ACTION:UPD 13-10-22 09:19 OP:ep   STATUS:               ID:20130902053136 L   I
 OLDACT:REG 13-09-02 08:03 OP:cam  STATUS:               ID:20130902052959     3
 2013-09-02-0529-59M.COL___269                                                 6
 STAT SP IPHASW D HRMM SECON CODA AMPLIT PERI AZIMU VELO AIN AR TRES W  DIS CAZ7
 BAR2 SZ EP        531 56.09                             172   -0.1110 20.6 184 
 BAR2 SZ ES   1    532 11.07                             172   -0.39 7 20.6 184 
 BRR  HZ EP        531 57.58                             153   -0.1410 70.2 301 
 BRR  HE ES        532 14.67                             153    0.5110 70.2 301 
 RUS  HZ EP   1    532  0.40                             144    0.18 7 98.4 174 
 RUS  HN ES        532 18.62                             144    0.0110 98.4 174 
 RUS  HZ I         532 20.68         1.8 0.30            144           98.4 174 
 PTB  HZ EP   1    532  3.09                             133   -0.24 7  145 260 
 PTB  HN ES        532 23.55                             133   -0.60 9  145 260 
 PTB  HZ I         532 29.19         5.8 0.28            131            145 260 
 SPBC HZ EP        532  5.03                             130    0.23 9  160 219 
 SPBC HE ES   1    532 27.23                             130    0.47 7  160 219 
 ZAR  HN ES   1    532 34.31                             123    0.19 6  203 293 
                                                                                
