 2014 11 2 0315 33.9 L   6.741 -73.144148.6  RSN  5 0.2 1.1LRSN                1
 GAP=233        0.55       3.9     4.1  5.0  0.3470E+01  0.8810E+00  0.2356E+01E
 Epicentro: LOS SANTOS - SANTANDER                                             3
 ACTION:UPD 14-12-19 15:38 OP:nd   STATUS:               ID:20141102031533 L   I
 OLDACT:UP  14-11-02 17:50 OP:spq  STATUS:               ID:20141102030743     3
 OLDACT:REG 14-11-02 13:27 OP:spq  STATUS:               ID:20141102030743     3
 2014-11-02-0307-43M.COL___274                                                 6
 STAT SP IPHASW D HRMM SECON CODA AMPLIT PERI AZIMU VELO AIN AR TRES W  DIS CAZ7
 BAR2 SZ EP   1    315 53.96                             173    0.16 7 17.0 194 
 BAR2 SZ ES   1    316  8.86                             173   -0.43 7 17.0 194 
 BAR2 SZ I         316 10.24         4.3 0.18            172           17.0 194 
 BRR  HZ EP        315 55.54                             152   -0.0510 74.7 303 
 BRR  HN ES        316 12.60                             152    0.1210 74.7 303 
 BRR  HZ I         316 16.13         2.2 0.36            153           74.7 303 
 RUS  HZ EP   1    315 57.79                             146    0.27 7 94.1 176 
 RUS  HE ES   1    316 16.04                             146    0.13 7 94.1 176 
 RUS  HZ I         316 17.88         1.6 0.42            148           94.1 176 
 PTB  HZ EP   1    316  0.56                             133   -0.49 7  147 261 
 PTB  HE ES        316 22.40                             133    0.20 9  147 261 
 PTB  HZ I         316 23.20         1.4 0.13            134            147 261 
 SPBC HZ EP   1    316  2.25                             131    0.05 7  158 221 
 SPBC HE ES   1    316 24.04                             131   -0.21 7  158 221 
 SPBC HZ I         316 27.10         2.2 0.26            132            158 221 
                                                                                
