 2012  3 2 0124 25.8 L   6.700 -73.203148.3  RSN  6 0.3 1.6LRSN                1
 GAP=221        0.77       6.9     7.3  8.5  0.2709E+02  0.1914E+01  0.6276E+01E
 ACTION:UP  12-03-31 23:16 OP:EP   STATUS:               ID:20120302012425 L   I
 2012-03-02-0120-00M.COL___191                                                 6
 STAT SP IPHASW D HRMM SECON CODA AMPLIT PERI AZIMU VELO SNR AR TRES W  DIS CAZ7
 BAR2 SZ EP   1    124 44.88                             175    -0.7 7   12 169 
 BAR2 SZ I         124 45.81         9.7 0.14                            12 169 
 BRR  HZ EP        124 47.39                             153     0.110   72 309 
 BRR  HZ I         124 47.76        13.1 0.13                            72 309 
 BRR  HE ES   1    125  4.22                             153     0.2 7   72 309 
 RUS  HZ EP   1    124 49.41                             147     0.3 7   90 172 
 RUS  HN ES   1    125  7.42                             147     0.2 7   90 172 
 RUS  HZ I         125  8.84         2.4 0.20                            90 172 
 PTB  HZ EP        124 52.20                             134    -0.1 9  140 263 
 PTB  HE ES   1    125 12.55                             134    -0.4 7  140 263 
 ZAR  HN ES   2    125 24.11                             123     0.5 4  203 296 
 ZAR  HZ I         125 29.55         4.8 0.34                           203 296 
 CHI  HZ EP   1    125  2.50                             119     0.2 6  236 194 
                                                                                
