 2017  2 2 0933 36.4 L   6.521 -73.256 27.9  RSN  4 0.2 1.0LRSN                1
 GAP=158        0.44       1.3     2.2  1.7  0.1172E+01 -0.7748E-03 -0.2424E+00E
 Epicentro: PALMAR - SANTANDER                                                 3
 ACTION:UPD 17-05-24 15:31 OP:jn   STATUS:               ID:20170202093337 L   I
 OLDACT:UP  17-04-01 13:54 OP:nlst STATUS:               ID:20170202093337 L   3
 OLDACT:REG 17-02-02 13:25 OP:ar   STATUS:               ID:20170202092746     3
 2017-02-02-0928-00M.COL___319                                                 6
 STAT SP IPHASW D HRMM SECON CODA AMPLIT PERI AZIMU VELO AIN AR TRES W  DIS CAZ7
 BAR2 EZ EP        933 41.55                             157   -0.0410 11.3  46 
 BAR2 EZ ES        933 45.65                             157    0.0410 11.3  46 
 BAR2 EZ I         933 46.12        18.5 0.12            156           11.3  46 
 RUS  HZ EP        933 49.21                             101    0.1910 72.1 165 
 RUS  HN ES        933 58.65                             101   -0.1810 72.1 165 
 RUS  HZ I         933 58.90         6.3 0.18            103           72.1 165 
 BRR  HZ EP   1    933 50.05                              97    0.16 7 82.1 322 
 BRR  HN ES        934  0.26                              97   -0.1210 82.1 322 
 PAM  EZ EP   1    933 54.22                              61    0.25 7  109  34 
 PAM  EN ES   1    934  7.45                              61   -0.19 7  109  34 
                                                                                
