 2011  2 2 0100  9.9 L   6.717 -73.477109.2  RSN  5 0.2 1.9LRSN                1
 GAP=179        0.42       3.9    16.8  9.3 -0.3904E+02  0.1173E+03 -0.2226E+02E
 Epicentro: EL CARMEN DE CHUCURI - SANTANDER                                   3
 ACTION:UP  11-03-28 15:05 OP:jfem STATUS:               ID:20110202010009 L   I
 2011-02-02-0059-07S.COL___134                                                 6
 STAT SP IPHASW D HRMM SECON CODA AMPLIT PERI AZIMU VELO SNR AR TRES W  DIS CAZ7
 BAR2 SZ EP   2    1 0 25.47                             161    -0.1 5   35 113 
 BAR2 SZ ES   2    1 0 37.83                             161     0.0 5   35 113 
 BAR2 SZ I         1 0 38.85        28.3 0.22                            35 113 
 RUS  HZ EP   2    1 0 30.23                             134    -0.1 5  101 154 
 RUS  HE ES   2    1 0 46.15                             134    -0.1 5  101 154 
 RUS  HZ I         1 0 47.34        14.3 0.23                           101 154 
 GRA  SZ EP   1    1 0 34.39                             122    -0.1 7  149  30 
 GRA  SZ ES   2    1 0 54.05                             122     0.4 5  149  30 
 GRA  SZ I         1 0 55.58         9.7 0.08                           149  30 
 OCA  SZ EP   2    1 0 36.46                             118    -0.2 5  169   6 
 OCA  SZ I         1 1  1.80        13.9 0.40                           169   6 
 CHI  HZ EP   2    1 0 44.50                             110     0.5 4  233 187 
                                                                                
