 2010 10 2 0031 55.7 L   6.830 -73.044143.1  RSN  4 0.2 1.7LRSN                1
 GAP=250        0.46       5.2    10.0  6.5  0.2966E+02 -0.1375E+02  0.3513E+01E
 Epicentro: LOS SANTOS - SANTANDER                                             3
 ACTION:UP  11-02-18 11:07 OP:tino STATUS:               ID:20101002003155 L   I
 2010-10-02-0029-58S.COL___125                                                 6
 STAT SP IPHASW D HRMM SECON CODA AMPLIT PERI AZIMU VELO SNR AR TRES W  DIS CAZ7
 BAR2 SZ EP   1    032 15.24                             167     0.0 7   31 210 
 BAR2 SZ ES   2    032 30.05                             167    -0.4 5   31 210 
 BAR2 SZ I         032 31.40        11.6 0.26                            31 210 
 BRR  HZ EP   1    032 17.09                             149    -0.1 7   80 293 
 BRR  HN ES   1    032 33.92                             149     0.1 7   80 293 
 BRR  HZ I         032 38.22        14.7 0.16                            80 293 
 RUS  HZ EP   2    032 19.40                             142    -0.1 5  104 182 
 RUS  HN ES   2    032 38.39                             142     0.4 5  104 182 
 RUS  HZ I         032 39.79         6.6 0.30                           104 182 
 CHI  HZ EP   2    032 34.24                             116     0.2 4  255 197 
 CHI  HN ES   2    033  3.44                             116    -0.4 4  255 197 
 CHI  HZ I         033  6.85         2.8 0.80                           255 197 
                                                                                
