 2014 11 2 0845 20.6 L   6.811 -73.157144.5  RSN 13 0.4 1.7LRSN                1
 GAP= 70        0.90       2.8     3.0  5.3 -0.9786E+00  0.1676E+01  0.2990E+01E
 Epicentro: LOS SANTOS - SANTANDER                                             3
 ACTION:UPD 14-12-19 15:38 OP:nd   STATUS:               ID:20141102084520 L   I
 OLDACT:DUP 14-11-02 14:33 OP:spq  STATUS:               ID:20141102083744d    3
 2014-11-02-0837-43M.COL___268                                                 6
 STAT SP IPHASW D HRMM SECON CODA AMPLIT PERI AZIMU VELO AIN AR TRES W  DIS CAZ7
 BAR2 SZ EP        845 40.05                             170   -0.0910 24.4 187 
 BAR2 SZ ES   1    845 55.18                             170   -0.17 7 24.4 187 
 BAR2 SZ I         845 55.81        20.3 0.16            169           24.4 187 
 BRR  HZ EP        845 41.94                             153    0.3810 69.5 298 
 BRR  HN ES        845 58.73                             153    0.8610 69.5 298 
 BRR  HZ I         846  0.43        15.3 0.14            153           69.5 298 
 PAM  SZ EP     D  845 43.09                             151    0.3810 77.2  41 
 PAM  SE ES   1    845 59.83                             151   -0.10 7 77.2  41 
 PAM  SZ I         846  2.18        18.3 0.60            153           77.2  41 
 RUS  HZ EP        845 44.47                             143    0.1010  102 175 
 RUS  HE ES   1    846  2.54                             143   -0.33 7  102 175 
 RUS  HZ I         846  4.15         8.9 0.30            144            102 175 
 PTB  HZ EP        845 46.95                             132   -0.47 9  147 258 
 PTB  HN ES        846  7.64                             132   -0.66 9  147 258 
 PTB  HZ I         846 11.09         8.3 0.24            132            147 258 
 TAM  HZ EP     C  845 48.43                             130    0.07 9  157 105 
 TAM  HN ES   1    846  9.75                             130   -0.23 7  157 105 
 TAM  HZ I         846 10.45         6.8 0.26            132            157 105 
 OCA  HZ EP   1    845 48.56                             130   -0.16 7  159 354 
 OCA  HN ES        846 10.20                             130   -0.42 9  159 354 
 OCA  HZ I         846 11.33         8.4 0.34            131            159 354 
 SPBC HZ EP        845 49.12                             129    0.06 9  163 218 
 SPBC HE ES        846 11.37                             129    0.14 9  163 218 
 SPBC HZ I         846 13.24         6.6 0.12            129            163 218 
 CHI  HZ EP   1    845 58.48                             117    0.11 6  250 195 
 CHI  HN ES   1    846 27.06                             117   -0.73 6  250 195 
 CHI  HZ I         846 30.89         1.7 0.64            118            250 195 
 GUY2CHZ EP   4    846  5.86                             112    1.70 0  301 234 
 GUY2CHN ES   1    846 38.53                             112    0.43 5  301 234 
 GUY2CHZ I         846 45.49         2.8 0.24                           301 234 
 CBOC HZ EP   1    846  7.33                             110   -0.08 5  333 252 
 CBOC HE ES   1    846 44.30                             110    0.41 5  333 252 
 CBOC HZ I         846 46.80         1.2 0.20            110            333 252 
 MON  HZ EP   4    846  7.97                             108   -1.42 0  352 308 
 MON  HN ES        846 46.83                             108   -0.58 6  352 308 
 MON  HZ I         846 47.78         1.2 0.18            109            352 308 
 PRA  HZ EP        846 14.91                             106    0.74 6  392 209 
 PRA  HN ES        846 55.91                             106   -0.02 6  392 209 
 PRA  HZ I         847  2.65         1.7 0.22            107            392 209 
                                                                                
