 2015  5 2 0321 45.4 L   6.807 -73.135150.1  RSN  6 0.5 1.6LRSN                1
 GAP=138        1.17       5.9     8.4  8.4  0.3788E+01  0.1371E+02 -0.2224E+01E
 Epicentro: LOS SANTOS - SANTANDER                                             3
 ACTION:UPD 15-09-10 22:00 OP:cam  STATUS:               ID:20150502032145 L   I
 OLDACT:UP  15-05-06 07:11 OP:AK   STATUS:               ID:20150502032145 L   3
 OLDACT:REG 15-05-02 13:03 OP:stll STATUS:               ID:20150502031736     3
 2015-05-02-0317-36M.COL___276                                                 6
 STAT SP IPHASW D HRMM SECON CODA AMPLIT PERI AZIMU VELO AIN AR TRES W  DIS CAZ7
 BAR2 EZ EP        322  5.68                             171    0.0710 24.3 192 
 BAR2 EZ I         322  5.75         7.6 0.40            156           24.3 192 
 BAR2 EZ ES        322 21.11                             171   -0.2410 24.3 192 
 BRR  HZ EP     C  322  7.47                             152    0.3710 71.9 298 
 BRR  HZ I         322  7.72         7.6 0.28            130           71.9 298 
 BRR  HN ES        322 24.65                             152    0.6610 71.9 298 
 PAM  SZ EP        322  8.48                             152    0.4410 76.1  39 
 PAM  SZ I         322  8.77         9.4 0.22            144           76.1  39 
 PAM  SN ES        322 25.51                             152   -0.1610 76.1  39 
 RUS  HZ EP        322  9.89                             145    0.2210  101 177 
 RUS  HN ES        322 27.90                             145   -0.6710  101 177 
 RUS  HZ I         322 29.99         2.4 0.22            135            101 177 
 OCA  HN ES   2    322 35.07                             130   -1.27 5  160 353 
 OCA  HZ I         322 45.93         7.5 0.56            115            160 353 
 ZAR  HZ EP        322 17.67                             123   -0.58 9  205 292 
 ZAR  HZ I         322 49.50         4.5 0.44            108            205 292 
                                                                                
