 2016  7 2 0115 50.6 L   6.773 -73.170146.0  RSN 10 0.3 1.7LRSN                1
 GAP=135        0.70       2.5     2.9  4.3 -0.7764E+00  0.3272E+01  0.2770E+01E
 Epicentro: LOS SANTOS - SANTANDER                                             3
 ACTION:UPD 17-03-29 16:45 OP:lp   STATUS:               ID:20160702011550 L   I
 OLDACT:REG 16-07-02 12:35 OP:edw  STATUS:               ID:20160702010739     3
 2016-07-02-0107-39M.COL___331                                                 6
 STAT SP IPHASW D HRMM SECON CODA AMPLIT PERI AZIMU VELO AIN AR TRES W  DIS CAZ7
 BAR2 EZ EP        116  9.97                             172   -0.2610 20.0 184 
 BAR2 EZ ES        116 25.44                             172   -0.0710 20.0 184 
 BAR2 EZ I         116 26.68        20.3 0.30            172           20.0 184 
 BRR  HZ IP     C  116 11.75                             153   -0.0110 70.4 302 
 BRR  HN ES        116 28.85                             153    0.6110 70.4 302 
 BRR  HZ I         116 32.77         9.9 0.42            151           70.4 302 
 PAM  EZ EP        116 12.96                             150   -0.1610 81.4  40 
 PAM  EE ES        116 30.55                             150   -0.1110 81.4  40 
 PAM  EZ I         116 32.14         7.7 0.50            152           81.4  40 
 RUS  HZ EP        116 14.23                             145    0.0210 97.8 174 
 RUS  HN ES        116 32.63                             145    0.0410 97.8 174 
 RUS  HZ I         116 33.58         4.3 0.32            147           97.8 174 
 PTB  HZ EP        116 17.44                             133    0.11 9  145 260 
 PTB  HN ES        116 38.00                             133   -0.15 9  145 260 
 PTB  HZ I         116 43.30         5.4 0.18            132            145 260 
 SPBC HN ES        116 40.56                             130   -0.15 9  159 219 
 ZAR  HZ EP   4    116 25.27                             123    2.31 0  203 293 
 ZAR  HN ES        116 48.05                             123   -0.12 9  203 293 
 ZAR  HZ I         116 53.16         6.2 0.28            123            203 293 
 CHI  HZ EP   4    116 30.75                             118    2.80 0  245 195 
 CHI  HN ES        116 57.31                             118    0.25 8  245 195 
 GUY2CHZ EP        116 34.19                             113    0.38 7  297 235 
 GUY2CHN ES        117  6.68                             113   -0.80 7  297 235 
 GUY2CHZ I         117 16.23         1.9 0.36                           297 235 
 PRA  HZ EP        116 44.14                             107    0.44 6  388 209 
 PRA  HE ES        117 25.36                             107    0.27 6  388 209 
 PRA  HZ I         117 31.19         3.8 0.32            108            388 209 
                                                                                
