 2012  1 2 0530 47.6 L   6.788 -73.126152.4  RSN  9 0.4 1.6LRSN                1
 GAP=140        0.75       3.4     4.8  5.9 -0.2073E+01  0.6811E+01  0.1024E+01E
 Epicentro: LOS SANTOS - SANTANDER                                             3
 ACTION:UP  12-02-03 08:13 OP:REBC STATUS:               ID:20120102053047 L   I
 2012-01-02-0530-00M.COL___186                                                 6
 STAT SP IPHASW D HRMM SECON CODA AMPLIT PERI AZIMU VELO SNR AR TRES W  DIS CAZ7
 BAR2 SZ EP   1    531  7.52                             171    -0.5 7   22 196 
 BAR2 SZ I         531  8.43         7.2 0.38                            22 196 
 BAR2 SZ ES   1    531 24.50                             171     0.5 7   22 196 
 BRR  HZ EP   1    531  9.75                             153     0.1 7   74 299 
 BRR  HZ I         531 10.13        11.5 0.14                            74 299 
 BRR  HN ES   1    531 27.31                             153     0.5 7   74 299 
 PAM  SZ EP   1    531 10.80                             152     0.3 7   77  38 
 PAM  SE ES   1    531 28.22                             152    -0.2 7   77  38 
 RUS  HZ EP   1    531 11.85                             146    -0.1 7   99 177 
 RUS  HZ I         531 30.03         3.1 0.56                            99 177 
 RUS  HE ES   1    531 30.42                             146    -0.5 7   99 177 
 PTB  HZ EP   1    531 14.93                             133    -0.4 7  150 260 
 PTB  HN ES   2    531 36.60                             133    -0.3 5  150 260 
 OCA  SZ EP   1    531 16.66                             131     0.0 7  162 352 
 OCA  SZ ES   2    531 38.82                             131    -0.4 5  162 352 
 OCA  SZ I         531 43.90         6.0 0.25                           162 352 
 ZAR  HZ EP   1    531 20.88                             124     0.1 6  207 292 
 ZAR  HN ES   2    531 46.34                             124    -0.3 4  207 292 
 ZAR  HZ I         531 54.89         4.4 0.28                           207 292 
 NOR  SN ES   1    531 52.00                             120    -0.1 6  236 235 
 CHI  HZ EP   1    531 26.24                             119     0.6 6  248 196 
 CHI  HN ES   1    531 55.54                             119     0.3 6  248 196 
                                                                                
