 2015  4 2 0355 34.4 L   6.535 -73.567108.1  RSN 10 0.4 1.7LRSN                1
 GAP=128        1.08       3.5     4.1  6.2 -0.7436E+01  0.7385E+01 -0.4904E+01E
 Epicentro: EL CARMEN - SANTANDER                                              3
 ACTION:UPD 15-06-03 16:51 OP:cam  STATUS:               ID:20150402035534 L   I
 OLDACT:UP  15-04-02 13:47 OP:mh   STATUS:               ID:20150402034748     3
 OLDACT:UP  15-04-02 13:47 OP:mh   STATUS:               ID:20150402034748     3
 OLDACT:UP  15-04-02 13:46 OP:mh   STATUS:               ID:20150402034748     3
 OLDACT:UP  15-04-02 13:46 OP:mh   STATUS:               ID:20150402034748     3
 OLDACT:UP  15-04-02 13:46 OP:mh   STATUS:               ID:20150402034748     3
 OLDACT:REG 15-04-02 12:35 OP:mh   STATUS:               ID:20150402034748     3
 2015-04-02-0347-48M.COL___280                                                 6
 STAT SP IPHASW D HRMM SECON CODA AMPLIT PERI AZIMU VELO AIN AR TRES W  DIS CAZ7
 BAR2 EZ EP        355 50.66                             157    0.4010 43.0  82 
 BAR2 EZ ES        356  2.75                             157    0.1210 43.0  82 
 BRR  HZ EP        355 51.46                             147    0.2510 65.3 346 
 BRR  HN ES        356  4.97                             147    0.6510 65.3 346 
 BRR  HZ I         356  7.19         7.3 0.13            144           65.3 346 
 PTB  HZ IP     C  355 53.48                             134   -0.3410 98.4 270 
 PTB  HN ES        356  7.98                             134   -0.9910 98.4 270 
 PTB  HZ I         356  9.39        14.1 0.46            133           98.4 270 
 SPBC HZ EP        355 55.33                             130    0.1310  113 210 
 SPBC HN ES        356 11.79                             130    0.3610  113 210 
 SPBC HZ I         356 15.32        10.6 0.18            131            113 210 
 PAM  SZ EP        355 57.34                             126   -0.1410  131  47 
 PAM  SN ES        356 14.81                             126   -0.6910  131  47 
 PAM  SZ I         356 16.71         4.5 0.23            127            131  47 
 ZAR  HZ EP   1    356  2.50                             116    0.73 7  178 307 
 ZAR  HN ES   4    356 25.75                             116    2.63 0  178 307 
 ZAR  HZ I         356 27.01         8.5 0.32            116            178 307 
 NOR  HZ EP   1    356  2.02                             116   -0.04 7  180 233 
 NOR  HN ES   1    356 23.43                             116   -0.22 7  180 233 
 NOR  HZ I         356 26.89         5.1 0.20            116            180 233 
 OCA  HZ EP        356  2.92                             115   -0.44 9  190   8 
 OCA  HN ES        356 25.89                             115   -0.06 9  190   8 
 OCA  HZ I         356 32.93        18.0 0.44            115            190   8 
 SML  HZ EP        356 11.11                             107    0.38 8  257 348 
 SML  HN ES        356 39.27                             107    0.20 8  257 348 
 SML  HZ I         356 43.65         9.0 0.07            107            257 348 
 CBOC HZ EP        356 13.55                             105   -0.20 7  281 255 
 CBOC HN ES   1    356 44.84                             105    0.39 6  281 255 
 CBOC HZ I         356 49.20         1.9 0.36            106            281 255 
                                                                                
