 2011  2 2 0407 23.2 L   6.784 -73.125139.1  RSN  7 0.2 1.5LRSN                1
 GAP=161        0.40       2.9     6.4  5.6 -0.1137E+02  0.1444E+02 -0.3511E+01E
 Epicentro: LOS SANTOS - SANTANDER                                             3
 ACTION:UP  11-03-28 15:05 OP:jfem STATUS:               ID:20110202040723 L   I
 2011-02-02-0404-05S.COL___135                                                 6
 STAT SP IPHASW D HRMM SECON CODA AMPLIT PERI AZIMU VELO SNR AR TRES W  DIS CAZ7
 BAR2 SZ EP   1    4 7 42.05                             170     0.1 7   22 197 
 BAR2 SZ I         4 7 42.38        16.0 0.10                            22 197 
 BAR2 SZ ES   2    4 7 56.32                             170    -0.3 5   22 197 
 RUS  HZ EP   2    4 7 45.95                             143    -0.2 5   99 177 
 RUS  HN ES   2    4 8  4.27                             143     0.2 5   99 177 
 RUS  HZ I         4 8  5.46         4.1 0.29                            99 177 
 GRA  SZ EP   1    4 7 47.77                             135    -0.1 7  127  16 
 GRA  SZ ES   1    4 8  7.40                             135     0.2 7  127  16 
 GRA  SZ I         4 8  8.41         3.8 0.24                           127  16 
 OCA  SZ EP   2    4 7 50.95                             128    -0.2 5  162 352 
 OCA  SZ I         4 8 17.33         4.6 0.44                           162 352 
 NOR  SN ES   2    4 8 26.18                             117    -0.1 4  236 235 
 CHI  HZ EP   2    4 8  0.42                             116     0.0 4  248 196 
 CHI  HE ES   2    4 8 29.44                             116     0.0 4  248 196 
 CHI  HZ I         4 8 33.57         1.4 0.33                           248 196 
 HEL  HZ EP   2    4 8  3.66                             113     0.4 4  274 256 
 HEL  HZ I         4 8 40.98         2.5 0.30                           274 256 
                                                                                
