 2015 11 2 0257 51.5 L   6.808 -73.108153.3  RSN 10 0.4 2.1LRSN                1
 GAP=141        0.67       2.8     4.7  5.1 -0.3476E+01  0.2899E+01  0.2450E+01E
 Epicentro: LOS SANTOS - SANTANDER                                             3
 ACTION:UPD 15-12-28 16:08 OP:cam  STATUS:               ID:20151102025751 L   I
 OLDACT:REG 15-11-02 12:30 OP:ar   STATUS:               ID:20151102024750     3
 2015-11-02-0247-50M.COL___313                                                 6
 STAT SP IPHASW D HRMM SECON CODA AMPLIT PERI AZIMU VELO AIN AR TRES W  DIS CAZ7
 BAR2 EZ EP     C  258 12.09                             170   -0.0210 25.3 199 
 BAR2 EZ ES   2    258 27.65                             170   -0.51 5 25.3 199 
 BAR2 EZ I         258 31.87        13.7 0.14            167           25.3 199 
 PAM  EZ EP     C  258 14.84                             153    0.4710 74.0  37 
 PAM  EN ES        258 32.17                             153   -0.0110 74.0  37 
 PAM  EZ I         258 33.95        10.6 0.50            159           74.0  37 
 BRR  HZ EP     C  258 13.97                             153    0.2910 74.5 296 
 BRR  HN ES        258 31.33                             153    0.3710 74.5 296 
 BRR  HZ I         258 35.70        17.3 0.30            150           74.5 296 
 RUS  HZ EP   2    258 15.77                             145   -0.31 5  101 178 
 RUS  HN ES   2    258 34.80                             145   -0.43 5  101 178 
 RUS  HZ I         258 35.54         9.6 0.28            146            101 178 
 OCA  HZ EP        258 20.24                             131   -0.17 9  160 352 
 OCA  HE ES        258 42.47                             131   -0.46 9  160 352 
 OCA  HZ I         258 46.16        30.6 0.54            134            160 352 
 SPBC HZ EP        258 21.00                             130    0.07 9  167 220 
 SPBC HN ES   2    258 43.80                             130   -0.07 5  167 220 
 SPBC HZ I         258 46.72        22.9 0.20            130            167 220 
 ZAR  HE ES   4    258 53.79                             124    2.97 0  208 291 
 ZAR  HZ I         258 57.06        18.5 0.20            124            208 291 
 NOR  HZ EP   2    258 27.82                             120   -0.31 4  239 235 
 NOR  HN ES   2    258 56.75                             120    0.07 4  239 235 
 NOR  HZ I         258 59.62         8.4 0.18            120            239 235 
 SML  HZ EP   2    258 28.29                             119   -0.40 4  245 334 
 SML  HN ES   2    258 56.93                             119   -0.75 4  245 334 
 SML  HZ I         258 59.93        20.6 0.10            121            245 334 
 CHI  HZ EP   2    258 30.26                             118    0.38 4  251 196 
 CHI  HN ES   2    258 58.95                             118   -0.83 4  251 196 
 CHI  HZ I         259  9.15         3.5 0.38            120            251 196 
                                                                                
