 2010  3 2 0140  7.7 L   6.795 -73.031144.0  RSN  8 0.3 1.9LRSN                1
 GAP=195        0.66       2.6     6.1  5.4  0.1401E+01 -0.2573E+01  0.6131E+00E
 Epicentro: CEPITA - SANTANDER                                                 3
 ACTION:UP  10-08-24 09:51 OP:vdl  STATUS:               ID:20100302014007 L   I
 2010-03-02-0135-10S.COL___093                                                 6
 STAT SP IPHASW D HRMM SECON CODA AMPLIT PERI AZIMU VELO SNR AR TRES W  DIS CAZ7
 BAR2 SZ EP        140 27.32                             168     0.110   28 217 
 BAR2 SZ ES   2    140 41.63                             168    -0.8 5   28 217 
 BRR  HZ IP        140 29.40                             148     0.110   83 295 
 BRR  HN ES        140 46.10                             148    -0.110   83 295 
 BRR  HZ I         140 51.05        36.5 0.45                            83 295 
 RUS  BZ EP        140 31.24                             144     0.010  100 183 
 RUS  BN ES        140 49.76                             144     0.210  100 183 
 RUS  BZ I         140 50.65        10.2 0.27                           100 183 
 OCA  SZ EP        140 35.82                             129    -0.3 9  163 349 
 OCA  SZ ES   1    140 58.66                             129     0.4 7  163 349 
 CHI  HZ EP   1    140 45.41                             116    -0.2 6  252 198 
 CHI  HZ I         140 47.93         2.3 0.45                           252 198 
 CHI  HN ES   1    141 14.88                             116    -0.3 6  252 198 
 RREF BN ES   1    141 32.15                             110     0.6 5  331 231 
 RREF BZ I         141 38.48         4.2 0.44                           331 231 
 TOL  SZ EP   2    140 56.24                             108    -0.6 3  352 226 
 PRA  HN ES   2    141 43.66                             106    -0.4 3  398 211 
                                                                                
