 2011  5 2 0948 28.0 L   6.657 -73.138138.9  RSN  6 0.2 1.7LRSN                1
 GAP=158        0.40       3.4     5.8  4.9  0.1062E+01 -0.1257E+02 -0.1884E+01E
 Epicentro: VILLANUEVA - SANTANDER                                             3
 ACTION:UP  11-06-29 08:50 OP:tino STATUS:               ID:20110502094828 L   I
 2011-05-02-0947-52S.COL___130                                                 6
 STAT SP IPHASW D HRMM SECON CODA AMPLIT PERI AZIMU VELO SNR AR TRES W  DIS CAZ7
 BTL  SZ IP        948 47.11                             166     0.010   32 334 
 BTL  SZ ES   1    949  2.08                             166     0.2 7   32 334 
 GIR2 SZ EP   1    948 47.36                             160    -0.1 7   47 352 
 BRR  HZ EP   1    948 49.13                             148     0.1 7   81 308 
 BRR  HZ I         948 49.50        21.7 0.35                            81 308 
 BRR  HN ES   1    949  5.24                             148    -0.2 7   81 308 
 RUS  HZ EP   2    948 49.76                             147    -0.3 5   85 176 
 RUS  HN ES   2    949  7.18                             147     0.0 5   85 176 
 RUS  HZ I         949  8.39         8.0 0.31                            85 176 
 BRI  SZ EP   2    948 52.23                             136    -0.3 5  123  18 
 GRA  SZ EP   1    948 54.26                             132     0.3 7  141  15 
 GRA  SZ ES   2    949 14.00                             132    -0.2 5  141  15 
 GRA  SZ I         949 15.02         4.6 0.32                           141  15 
                                                                                
