 2016 11 2 0625 43.7 L   6.822 -73.164158.7  RSN  6 0.5 1.2LRSN                1
 GAP=133        1.08       6.9     6.9 10.4  0.6147E+01 -0.1781E+02 -0.8790E+01E
 Epicentro: LOS SANTOS - SANTANDER                                             3
 ACTION:UPD 17-10-26 21:03 OP:lp   STATUS:               ID:20161102060846 L   I
 OLDACT:UP  16-11-02 16:50 OP:dani STATUS:               ID:20161102060846 L   3
 OLDACT:UPD 16-11-02 13:22 OP:dnl  STATUS:               ID:20161102060846 L   3
 2016-11-02-0618-00M.COL___337                                                 6
 STAT SP IPHASW D HRMM SECON CODA AMPLIT PERI AZIMU VELO AIN AR TRES W  DIS CAZ7
 BAR2 EZ EP        626  5.00                             171    0.1110 25.5 184 
 BRR  HZ EP        626  5.20                             156   -0.8710 68.2 298 
 BRR  HE ES        626 23.72                             156    0.1710 68.2 298 
 BRR  HZ I         626 26.19         2.9 0.33            155           68.2 298 
 PAM  EZ EP        626  7.85                             153    0.6110 76.9  42 
 PAM  EN I         626 26.12         4.7 0.35            143           76.9  42 
 RUS  HZ EP        626  8.99                             146    0.1110  103 175 
 RUS  HE ES        626 28.18                             146   -0.3710  103 175 
 RUS  HZ I         626 29.64         1.4 0.25            145            103 175 
 PTB  HZ EP        626 11.44                             135   -0.14 9  146 258 
 PTB  HN ES        626 33.38                             135    0.02 9  146 258 
 PTB  HZ I         626 33.56         1.5 0.16            137            146 258 
 SPBC HZ EP   2    626 14.03                             132    0.79 5  164 218 
 SPBC HE ES   2    626 37.17                             132    0.86 5  164 218 
 SPBC HZ I         626 42.01         3.0 0.18            133            164 218 
                                                                                
