 2013  5 2 0423 15.3 L   6.188 -73.142185.3  RSN 11 0.6 2.2LRSN                1
 GAP=148        1.37       6.3     6.5  7.5 -0.1574E+02  0.5536E+01  0.2209E+01E
 Epicentro: ENCINO - SANTANDER                                                 3
 ACTION:UPD 13-06-20 09:47 OP:ep   STATUS:               ID:20130502042315 L   I
 OLDACT:UP  13-06-17 18:34 OP:ep   STATUS:               ID:20130502042315 L   3
 OLDACT:UP  13-06-17 17:36 OP:ep   STATUS:               ID:20130502042315 L   3
 2013-05-02-0420-00M.COL___253                                                 6
 STAT SP IPHASW D HRMM SECON CODA AMPLIT PERI AZIMU VELO AIN AR TRES W  DIS CAZ7
 RUS  HZ EP     D  423 40.27                             170    0.0010 33.3 169 
 RUS  HN ES        423 59.94                             170    0.1910 33.3 169 
 RUS  HZ I         424  2.33        15.7 0.34            170           33.3 169 
 BAR2 SZ EP        423 40.08                             166   -0.1110 44.9 354 
 BAR2 SZ ES        423 59.64                             166    0.0310 44.9 354 
 BAR2 SZ I         424  0.65        43.2 0.39            166           44.9 354 
 GIR2 SZ EP        423 42.52                             151    0.0410 98.6 357 
 GIR2 SZ ES        424  3.80                             151    0.1110 98.6 357 
 GIR2 SZ I         424  6.04        16.5 0.52            151           98.6 357 
 BRR  HZ EP        423 43.63                             146    0.0110  120 328 
 BRR  HN ES        424  6.87                             146    1.1510  120 328 
 BRR  HZ I         424  8.05        20.2 0.18            146            120 328 
 PAM  SZ EP     D  423 45.85                             142    0.33 9  136  21 
 PAM  SZ I         423 46.05         9.8 0.50            144            136  21 
 PAM  SN ES   1    424  7.36                             142   -1.74 7  136  21 
 PTB  HZ EP   1    423 45.25                             139   -0.69 7  150 285 
 PTB  HN ES        424  9.76                             139   -0.09 9  150 285 
 PTB  HZ I         424 10.73        16.2 0.10            139            150 285 
 NOR  HZ EP        423 51.42                             130    0.83 9  203 250 
 NOR  HN ES        424 17.08                             130   -1.04 9  203 250 
 NOR  HZ I         424 23.11        14.9 0.16            130            203 250 
 OCA  HZ EP        423 53.20                             127    0.16 8  228 355 
 OCA  HZ I         423 53.44        15.6 0.18            128            228 355 
 OCA  HN ES        424 22.25                             127   -0.23 8  228 355 
 HEL  HZ EP        423 57.63                             123    0.65 8  264 270 
 HEL  HN ES        424 29.12                             123   -0.38 8  264 270 
 HEL  HZ I         424 37.27         6.5 0.22            123            264 270 
 PRA  HZ EP   1    424  3.56                             116   -0.54 5  335 215 
 PRA  HN ES   4    424 40.38                             116   -1.78 0  335 215 
 PRA  HZ I         424 42.66         6.9 0.20            117            335 215 
 COD  HZ EP        424 12.39                             111   -0.66 5  416 355 
 COD  HN ES   4    424 55.64                             111   -2.46 0  416 355 
 COD  HZ I         424 59.60         0.9 0.60            112            416 355 
                                                                                
