 2013 11 2 0031 42.8 L   6.756 -73.343127.2  RSN  7 0.3 1.7LRSN                1
 GAP= 96        0.76       2.7     4.5  5.4  0.2392E+01  0.5143E+00 -0.3903E+01E
 Epicentro: ZAPATOCA - SANTANDER                                               3
 ACTION:UPD 14-01-09 16:24 OP:ep   STATUS:               ID:20131102003142 L   I
 OLDACT:REG 13-11-02 07:08 OP:jn   STATUS:               ID:20131102003000     3
 2013-11-02-0030-00M.COL___273                                                 6
 STAT SP IPHASW D HRMM SECON CODA AMPLIT PERI AZIMU VELO AIN AR TRES W  DIS CAZ7
 BAR2 SZ EP        032  0.57                             168    0.3110 25.4 135 
 BAR2 SZ ES        032 13.93                             168    0.0610 25.4 135 
 BAR2 SZ I         032 14.42        55.2 0.24            168           25.4 135 
 BRR  HZ EP        032  1.22                             155    0.1010 56.3 314 
 BRR  HN ES        032 15.54                             155    0.1410 56.3 314 
 BRR  HZ I         032 17.10        10.8 0.20            156           56.3 314 
 PAM  SZ EP        032  4.73                             141    0.3110 96.0  48 
 PAM  SN ES        032 20.97                             141   -0.3110 96.0  48 
 PAM  SZ I         032 23.33         6.4 0.18            142           96.0  48 
 RUS  HZ EP        032  4.86                             140    0.1510 99.7 163 
 RUS  HE ES        032 21.47                             140   -0.3310 99.7 163 
 RUS  HZ I         032 23.78         3.0 0.26            141           99.7 163 
 PTB  HN ES   2    032 24.15                             132   -0.35 5  125 259 
 OCA  HZ EP        032  9.59                             124   -0.53 9  164   1 
 OCA  HN ES        032 31.81                             124    0.39 9  164   1 
 SML  HN ES        032 45.18                             114   -0.35 8  240 340 
                                                                                
