 2015 10 2 0137 10.9 L   6.827 -73.172150.3  RSN  7 0.4 1.6LRSN                1
 GAP=132        0.78       4.0     4.0  6.0 -0.4483E+01  0.6331E+01 -0.1765E+01E
 Epicentro: ZAPATOCA - SANTANDER                                               3
 ACTION:UPD 15-12-22 20:36 OP:cam  STATUS:               ID:20151002013710 L   I
 OLDACT:UP  15-10-02 14:17 OP:ar   STATUS:               ID:20151002012740     3
 OLDACT:REG 15-10-02 12:23 OP:ar   STATUS:               ID:20151002012740     3
 2015-10-02-0127-40M.COL___355                                                 6
 STAT SP IPHASW D HRMM SECON CODA AMPLIT PERI AZIMU VELO AIN AR TRES W  DIS CAZ7
 BAR2 EZ EP        137 30.92                             170   -0.2010 26.0 182 
 BAR2 EZ ES        137 46.85                             170   -0.0510 26.0 182 
 BAR2 EZ I         137 49.15         5.8 0.10            171           26.0 182 
 BRR  HZ EP   2    137 32.00                             155   -0.31 5 67.2 298 
 BRR  HN ES   2    137 49.93                             155    0.91 5 67.2 298 
 BRR  HZ I         137 54.02         8.7 0.34            151           67.2 298 
 PAM  EZ EP        137 34.00                             152    0.4310 77.1  43 
 PAM  EN ES        137 50.93                             152   -0.3310 77.1  43 
 PAM  EZ I         137 51.55         5.3 0.22            155           77.1  43 
 RUS  HZ EP        137 35.22                             144   -0.0910  104 175 
 RUS  HN ES        137 54.61                             144    0.2410  104 175 
 RUS  HZ I         137 55.21         3.7 0.22            148            104 175 
 PTB  HZ EP        137 37.68                             133   -0.34 9  145 257 
 PTB  HN ES        137 58.90                             133   -0.29 9  145 257 
 PTB  HZ I         137 59.79         3.7 0.16            133            145 257 
 SPBC HZ EP   2    137 40.63                             130    0.85 5  164 218 
 SPBC HN ES        138  2.30                             130   -0.02 9  164 218 
 SPBC HZ I         138  5.79         5.1 0.16            132            164 218 
 ZAR  HZ EP   2    137 43.67                             124    0.43 4  200 292 
 ZAR  HE ES   2    138  9.34                             124    0.86 4  200 292 
 ZAR  HZ I         138 16.29         5.7 0.28            124            200 292 
 SML  HZ EP   4    138  1.64                             119   14.29 0  240 336 
 SML  HE ES   4    138  6.92                             119   -8.87 0  240 336 
                                                                                
