 2017  2 2 0825 40.6 L   6.814 -73.136142.0  RSN 17 0.5 2.9LRSN                1
 GAP=103        1.09       3.9     3.2  5.5  0.7002E+00  0.4773E+01  0.3338E+01E
 Epicentro: LOS SANTOS - SANTANDER                                             3
 ACTION:UPD 17-05-24 15:31 OP:jn   STATUS:               ID:20170202082540 L   I
 OLDACT:UP  17-02-02 18:15 OP:ar   STATUS:               ID:20170202081741     3
 OLDACT:UP  17-02-02 18:15 OP:ar   STATUS:               ID:20170202081741     3
 OLDACT:UP  17-02-02 18:13 OP:ar   STATUS:               ID:20170202081741     3
 OLDACT:UP  17-02-02 18:13 OP:ar   STATUS:               ID:20170202081741     3
 OLDACT:REG 17-02-02 13:22 OP:ar   STATUS:               ID:20170202081741     3
 2017-02-02-0818-00M.COL___319                                                 6
 STAT SP IPHASW D HRMM SECON CODA AMPLIT PERI AZIMU VELO AIN AR TRES W  DIS CAZ7
 BAR2 EZ EP        825 59.75                             170   -0.0810 25.0 192 
 BAR2 EZ ES        826 14.31                             170   -0.5010 25.0 192 
 BAR2 EZ I         826 15.67       351.1 0.20            166           25.0 192 
 BRR  HZ IP     C  826  1.54                             152    0.1710 71.5 297 
 BRR  HE ES        826 18.23                             152    0.6710 71.5 297 
 BRR  HZ I         826 23.68       150.7 0.12            151           71.5 297 
 PAM  EZ IP     C  826  2.49                             151    0.1810 75.5  40 
 PAM  EN ES        826 19.45                             151    0.2110 75.5  40 
 PAM  EZ I         826 21.33       327.3 0.44            156           75.5  40 
 RUS  HZ IP     D  826  3.77                             143   -0.3310  102 177 
 RUS  HE ES        826 22.41                             143   -0.0110  102 177 
 RUS  HZ I         826 23.79        64.8 0.30            142            102 177 
 PTB  HZ EP        826  6.64                             131   -0.76 9  149 258 
 PTB  HE ES        826 27.94                             131   -0.36 9  149 258 
 PTB  HZ I         826 32.64        82.5 0.16            131            149 258 
 TAM  HZ IP     D  826  8.13                             130    0.20 9  154 106 
 TAM  HN ES        826 29.46                             130    0.22 9  154 106 
 TAM  HZ I         826 30.22        46.8 0.25            133            154 106 
 ZAR  HZ EP        826 12.61                             122   -0.25 9  205 292 
 ZAR  HN ES        826 38.22                             122    0.20 9  205 292 
 ZAR  HZ I         826 41.76       112.8 0.26            122            205 292 
 CHI  HZ EP        826 18.26                             116   -0.04 8  250 195 
 CHI  HN ES        826 47.33                             116   -0.36 8  250 195 
 CHI  HZ I         826 51.48        27.5 0.44            117            250 195 
 ROSC BZ EP   9    826 20.08                             116    1.35 0  255 211 
 ROSC BN ES        826 50.54                             116    0.73 8  255 211 
 ROSC BZ I         826 56.66        50.7 0.35            116            255 211 
 URE  HZ EP   1    826 20.13                             113   -1.42 6  284 292 
 URE  HE ES   4    826 51.50                             113   -1.99 0  284 292 
 URE  HZ I         826 53.24       110.0 0.12            114            284 292 
 PTGC HZ EP   4    826 23.12                             111   -1.30 0  310 159 
 PTGC HN ES   4    826 56.25                             111   -2.33 0  310 159 
 PTGC HZ I         826 58.71        51.2 0.38            112            310 159 
 ELA  HZ EP   4    826 29.64                             110    2.12 0  331 229 
 ELA  HE ES   4    827  7.26                             110    3.16 0  331 229 
 ELA  HZ I         827 16.44        19.2 0.38            110            331 229 
 CBOC HZ EP        826 27.86                             109    0.31 7  335 252 
 CBOC HE ES        827  4.97                             109    0.81 7  335 252 
 CBOC HZ I         827  7.86        13.2 0.26            110            335 252 
 DBB  EZ EP        826 27.89                             109   -0.16 7  340 274 
 DBB  EN ES   4    827  3.09                             109   -1.97 0  340 274 
 DBB  EZ I         827  5.68        28.7 0.20            110            340 274 
 ORTC HZ EP        826 35.19                             106    0.56 6  397 216 
 ORTC HN ES        827 17.97                             106    1.21 6  397 216 
 ORTC HZ I         827 23.17        22.4 0.38            106            397 216 
 LCBC HE ES   4    827 22.89                             105    1.06 0  422 303 
 CRJC HZ EP   9    826 40.37                             103   -2.45 0  466   3 
 CRJC HN ES   4    827 27.23                             103   -1.66 0  466   3 
 CRJC HZ I         827 32.91        12.6 0.40            104            466   3 
 MACC HZ EP   4    826 46.98                             101   -2.45 0  522 189 
 MACC HN ES   4    827 38.76                             101   -4.35 0  522 189 
 MACC HZ I         827 46.54        10.3 0.82            102            522 189 
 GARC HE ES   4    827 51.40                             100   -3.42 0  575 207 
                                                                                
