 2016  7 2 0546 17.3 L   6.779 -73.149149.2  RSN  5 0.2 1.3LRSN                1
 GAP=235        0.63       3.8     4.1  4.6  0.3344E+01  0.2116E+01  0.1437E+01E
 Epicentro: LOS SANTOS - SANTANDER                                             3
 ACTION:UPD 17-03-29 16:45 OP:lp   STATUS:               ID:20160702054617 L   I
 OLDACT:UP  16-07-02 16:25 OP:edw  STATUS:               ID:20160702053745d    3
 OLDACT:DUP 16-07-02 16:19 OP:edw  STATUS:               ID:20160702053745d    3
 2016-07-02-0537-44M.COL___322                                                 6
 STAT SP IPHASW D HRMM SECON CODA AMPLIT PERI AZIMU VELO AIN AR TRES W  DIS CAZ7
 BAR2 EZ EP        546 37.34                             172    0.0110 20.9 190 
 BAR2 EZ ES        546 52.69                             172   -0.2410 20.9 190 
 BAR2 EZ I         546 53.70         3.8 0.12            167           20.9 190 
 BRR  HZ EP        546 38.95                             153    0.0510 72.0 300 
 BRR  HN ES        546 56.04                             153    0.3210 72.0 300 
 RUS  HZ EP        546 41.47                             145    0.2110 98.2 176 
 RUS  HN ES        546 59.79                             145   -0.1310 98.2 176 
 RUS  HZ I         547  0.88         2.3 0.26            143           98.2 176 
 PTB  HZ EP        546 44.05                             133   -0.46 9  147 260 
 PTB  HE ES        547  5.55                             133   -0.16 9  147 260 
 PTB  HZ I         547  6.98         2.4 0.58            131            147 260 
 SPBC HZ EP        546 46.06                             130    0.15 9  161 219 
 SPBC HE ES        547  8.43                             130    0.24 9  161 219 
 SPBC HZ I         547 13.97         3.2 0.12            128            161 219 
                                                                                
