 2014 12 2 0230 24.8 L   6.559 -73.701 76.0  RSN  5 0.5 1.2LRSN                1
 GAP=229        1.04       8.4     5.4 19.2 -0.6445E+00  0.2429E+02 -0.7775E+02E
 Epicentro: EL CARMEN - SANTANDER                                              3
 ACTION:UPD 15-02-10 16:59 OP:nd   STATUS:               ID:20141202023024 L   I
 OLDACT:DUP 14-12-02 15:06 OP:fm   STATUS:               ID:20141202022745d    3
 OLDACT:REG 14-12-02 12:47 OP:fm   STATUS:               ID:20141202022744     3
 2014-12-02-0227-44M.COL___300                                                 6
 STAT SP IPHASW D HRMM SECON CODA AMPLIT PERI AZIMU VELO AIN AR TRES W  DIS CAZ7
 PTB  HZ EP        230 40.48                             128    0.2810 83.5 269 
 RUS  HE EP        230 42.45                             123   -0.1110  101 137 
 RUS  HE I         231  0.13         4.6 0.32             96            101 137 
 SPBC HN ES        230 56.95                             120   -0.0410  108 202 
 HEL  HZ EP        230 53.65                             105   -0.83 8  206 259 
 HEL  HN ES        231 17.69                             105    0.03 8  206 259 
 HEL  HZ I         231 23.51         2.4 0.48             56            206 259 
 GUY2CHZ EP        230 59.05                             103    0.86 8  236 231 
 GUY2CHE ES        231 24.10                             103   -0.17 8  236 231 
 GUY2CHZ I         231 28.36         0.9 0.40                           236 231 
                                                                                
