 2011  6 2 0519  6.4 L   6.796 -73.141141.2  RSN  5 0.1 1.4LRSN                1
 GAP=137        0.33       2.4     6.2  5.7 -0.6943E+01  0.1390E+02 -0.5894E+01E
 Epicentro: LOS SANTOS - SANTANDER                                             3
 ACTION:UP  11-07-14 19:02 OP:ep   STATUS:               ID:20110602051906 L   I
 2011-06-02-0517-13S.COL___130                                                 6
 STAT SP IPHASW D HRMM SECON CODA AMPLIT PERI AZIMU VELO SNR AR TRES W  DIS CAZ7
 BRR  HZ EP   1    519 27.14                             151     0.0 7   72 299 
 BRR  HZ I         519 27.50        12.7 0.12                            72 299 
 PAM  SZ EP   1    519 28.32                             150     0.2 7   77  39 
 PAM  SE ES   2    519 45.05                             150     0.0 5   77  39 
 RUS  HZ EP   1    519 29.61                             143    -0.1 7  100 176 
 RUS  HN ES   1    519 47.83                             143     0.0 7  100 176 
 RUS  HZ I         519 48.58         2.4 0.27                           100 176 
 BRI  SZ EP   1    519 29.91                             140     0.0 7  109  20 
 BRI  SZ I         519 30.64         3.0 0.13                           109  20 
 GRA  SZ EP   1    519 31.12                             136    -0.1 7  126  17 
 GRA  SZ ES   2    519 50.59                             136    -0.1 5  126  17 
 GRA  SZ I         519 51.90         3.0 0.32                           126  17 
                                                                                
