 2014  3 2 0643 12.2 L   6.823 -73.166145.9  RSN  6 0.5 1.3LRSN                1
 GAP=133        1.31       5.6     6.2 10.2  0.3352E+00  0.2010E+02 -0.1690E+02E
 Epicentro: LOS SANTOS - SANTANDER                                             3
 ACTION:UPD 14-04-09 23:13 OP:nd   STATUS:               ID:20140302064312 L   I
 OLDACT:DUP 14-03-02 12:44 OP:stll STATUS:               ID:20140302063817d    3
 2014-03-02-0638-16M.COL___226                                                 6
 STAT SP IPHASW D HRMM SECON CODA AMPLIT PERI AZIMU VELO AIN AR TRES W  DIS CAZ7
 BAR2 SZ ES        643 47.67                             170    0.4110 25.6 184 
 PAM  SZ EP        643 34.86                             151    0.4510 76.9  42 
 PAM  SN ES        643 51.89                             151    0.1610 76.9  42 
 PAM  SZ I         643 53.92         3.6 0.62            152           76.9  42 
 RUS  HZ EP        643 36.05                             143   -0.1210  103 175 
 RUS  HN ES        643 53.96                             143   -0.9010  103 175 
 RUS  HZ I         643 55.09         1.3 0.52            148            103 175 
 PTB  HZ EP        643 39.63                             132    0.60 9  146 258 
 PTB  HN ES        643 59.93                             132   -0.02 9  146 258 
 PTB  HZ I         644  2.27         2.6 0.18            133            146 258 
 ZAR  HN ES        644  9.73                             123    0.32 9  201 292 
 ZAR  HZ I         644 16.12         3.3 0.56            123            201 292 
 SML  HZ EP        643 48.43                             118   -0.06 8  240 336 
 SML  HE ES        644 15.65                             118   -1.14 8  240 336 
 SML  HZ I         644 23.34         2.1 0.62            118            240 336 
                                                                                
