 2017  5 2 0651 39.7 L   6.812 -73.154147.7  RSN 22 0.5 2.3LRSN                1
 GAP=111        1.07       3.3     3.7  5.9  0.1678E+01  0.6879E+01  0.5822E+01E
 Epicentro: LOS SANTOS - SANTANDER                                             3
 ACTION:UPD 17-06-16 13:32 OP:jn   STATUS:               ID:20170502065139 L   I
 OLDACT:UP  17-05-02 18:04 OP:edw  STATUS:               ID:20170502064738     3
 OLDACT:REG 17-05-02 13:59 OP:edw  STATUS:               ID:20170502064738     3
 2017-05-02-0648-00M.COL___365                                                 6
 STAT SP IPHASW D HRMM SECON CODA AMPLIT PERI AZIMU VELO AIN AR TRES W  DIS CAZ7
 BRR  HZ IP     D  652  1.26                             153    0.3010 69.8 298 
 BRR  HN ES        652 18.28                             153    0.7210 69.8 298 
 BRR  HZ I         652 22.21        50.1 0.30            150           69.8 298 
 PAM  EZ EP     D  652  2.18                             151    0.1010 77.0  41 
 PAM  EN ES        652 19.31                             151   -0.2510 77.0  41 
 PAM  EZ I         652 22.47        28.0 0.30            159           77.0  41 
 RUS  HZ IP     C  652  3.36                             144   -0.3610  102 176 
 RUS  HN ES        652 21.80                             144   -0.6710  102 176 
 RUS  HZ I         652 23.34        49.7 0.34            144            102 176 
 PTB  HZ EP   9    652  5.94                             132   -0.81 0  147 258 
 PTB  HN ES        652 27.28                             132    0.23 9  147 258 
 PTB  HZ I         652 34.44        22.6 0.42            131            147 258 
 SPBC HZ EP        652  8.37                             129    0.00 9  164 218 
 SPBC HN ES   4    652 30.02                             129   -0.73 0  164 218 
 SPBC HZ I         652 36.64        36.9 0.22            128            164 218 
 YPLC HZ IP     C  652  9.84                             127    0.07 9  178 151 
 YPLC HN ES        652 33.92                             127    0.68 9  178 151 
 YPLC HZ I         652 34.81        29.4 0.26            130            178 151 
 ZAR  HZ EP        652 11.84                             123   -0.28 9  203 292 
 ZAR  HN ES        652 37.28                             123   -0.13 9  203 292 
 ZAR  HZ I         652 42.56        23.3 0.26            123            203 292 
 TABC EZ EP   2    652 16.53                             120    0.92 4  231 210 
 TABC EZ ES   4    652 46.57                             120    2.93 0  231 210 
 NOR  HZ EP        652 15.56                             119    0.04 8  235 234 
 NOR  HN ES        652 43.03                             119   -0.45 8  235 234 
 NOR  HZ I         652 48.17        12.4 0.24            119            235 234 
 CHI  HZ EP        652 16.88                             117   -0.72 8  250 195 
 CHI  HN ES        652 46.96                             117   -0.21 8  250 195 
 CHI  HZ I         652 57.08        10.7 0.58            118            250 195 
 ROSC BZ EP   4    652 19.25                             117    1.27 0  253 211 
 ROSC BN ES   4    652 49.71                             117    1.87 0  253 211 
 ROSC BZ I         652 54.13        25.6 0.45            117            253 211 
 HEL  HZ EP        652 20.28                             115    0.35 8  271 255 
 HEL  HN ES   4    652 53.50                             115    2.18 0  271 255 
 HEL  HZ I         652 59.72        11.8 0.38            115            271 255 
 VIL  EN ES   2    652 57.46                             112    0.12 4  304 191 
 LL1C HZ EP   4    652 24.51                             112    1.31 0  305 352 
 LL1C HN ES   4    653  0.48                             112    3.33 0  305 352 
 PTGC HZ EP   9 C  652 22.55                             112   -1.25 0  310 159 
 PTGC HN ES        652 56.35                             112   -0.61 7  310 159 
 PTGC HZ I         653  0.92         8.2 0.30            114            310 159 
 LL6C HN EP   9    652  4.72                             111   -20.6 0  324 358 
 LL6C HN ES        652 40.03                                   -0.28 7  324 358 
 ELA  HZ EP   4    652 28.78                             111    2.15 0  329 229 
 ELA  HN ES        653  3.67                             111    0.42 7  329 229 
 ELA  HZ I         653 18.69        10.3 0.46            111            329 229 
 CBOC HZ EP   4    652 27.69                             110    1.07 0  333 252 
 CBOC HN ES   4    653  2.07                             110   -1.16 0  333 252 
 CBOC HZ I         653 20.55         4.0 0.70            111            333 252 
 DBB  EZ EP        652 27.47                             110    0.35 7  338 274 
 DBB  EN ES   4    653  2.71                             110   -1.41 0  338 274 
 DBB  EZ I         653  4.47         5.1 0.32            110            338 274 
 ANIL HN ES   4    653 10.30                             109    1.78 0  358 224 
 ORTC HZ EP        652 34.09                             107    0.37 6  396 216 
 ORTC HN ES        653 16.75                             107    0.87 6  396 216 
 ORTC HZ I         653 24.42         5.3 0.40            107            396 216 
 APAC HN ES   2    653 14.67                             106   -1.32 3  397 288 
 APAC HZ I         653 21.35         3.0 0.48            107            397 288 
 PAL  HZ EP        652 34.46                             106   -0.43 6  406 239 
 PAL  HN ES        653 17.43                             106   -0.52 6  406 239 
 PAL  HZ I         653 21.38         3.2 0.22            107            406 239 
 SJC  HZ EP   9    652 33.06                             106   -2.06 0  408 327 
 SJC  HN ES        653 14.52                             106   -1.78 6  408 327 
 SJC  HZ I         653 29.50         4.0 0.36            107            408 327 
                                                                                
