 2010  5 2 0553 13.5 L   6.749 -72.971134.0  RSN  5 0.2 1.4LRSN                1
 GAP=223        0.57       7.3     9.2 10.2 -0.7883E+01 -0.5023E+02  0.1181E+02E
 Epicentro: CEPITA - SANTANDER                                                 3
 ACTION:UP  10-08-24 10:02 OP:vdl  STATUS:               ID:20100502055313 L   I
 2010-05-02-0551-40S.COL___105                                                 6
 STAT SP IPHASW D HRMM SECON CODA AMPLIT PERI AZIMU VELO SNR AR TRES W  DIS CAZ7
 BAR2 SZ EP   1    553 31.98                             168     0.2 7   29 234 
 GIR2 SZ EP   2    553 32.37                             161     0.2 5   44 326 
 GIR2 SZ ES   2    553 46.47                             161    -0.3 5   44 326 
 BRR  HZ EP        553 34.37                             145    -0.310   91 296 
 BRR  HE ES   1    553 51.55                             145     0.3 7   91 296 
 BRR  HZ I         553 54.12         5.4 0.14                            91 296 
 BRI  SZ EP   1    553 36.42                             139     0.1 7  109  10 
 OCA  SZ ES   2    554  3.77                             126    -0.1 5  169 347 
 OCA  SZ I         554  9.42         3.2 0.34                           169 347 
                                                                                
