 2017  9 2 0630 23.8 L   6.806 -73.166140.0  RSN  5 0.6 1.2LRSN                1
 GAP=236        1.22       6.8     9.4  9.5  0.2916E+02  0.2955E+02  0.1175E+01E
 Epicentro: LOS SANTOS - SANTANDER                                             3
 ACTION:UPD 17-10-05 19:08 OP:rebc STATUS:               ID:20170902063023 L   I
 OLDACT:UP  17-09-02 16:29 OP:dani STATUS:               ID:20170902062740     3
 OLDACT:UP  17-09-02 16:29 OP:dani STATUS:               ID:20170902062740     3
 OLDACT:REG 17-09-02 13:27 OP:dani STATUS:               ID:20170902062740     3
 2017-09-02-0628-00M.COL___399                                                 6
 STAT SP IPHASW D HRMM SECON CODA AMPLIT PERI AZIMU VELO AIN AR TRES W  DIS CAZ7
 BAR2 EZ EP        630 42.30                             170   -0.4910 23.7 184 
 BAR2 EZ ES        630 57.39                             170   -0.1810 23.7 184 
 BAR2 EZ I         630 58.70         3.6 0.32            170           23.7 184 
 BRR  HZ EP     D  630 43.82                             152   -0.4210 68.8 299 
 BRR  HE ES        631  0.81                             152    0.6710 68.8 299 
 BRR  HZ I         631  4.18         3.2 0.14            150           68.8 299 
 RUS  HZ EP   3    630 49.33                             143    2.23 2  101 175 
 RUS  HN ES        631  5.62                             143    0.3810  101 175 
 RUS  HZ I         631  6.25         2.1 0.36            146            101 175 
 SPBC HZ EP        630 51.55                             128   -0.27 9  162 218 
 SPBC HN ES        631 13.56                             128   -0.08 9  162 218 
 ZAR  HZ EP        630 56.47                             122    0.80 9  202 292 
 ZAR  HE ES        631 19.96                             122   -0.53 9  202 292 
 ZAR  HZ I         631 27.00         2.0 0.18            122            202 292 
                                                                                
