 2011  7 2 0630 18.5 L   6.733 -73.349124.8  RSN  4 0.1 1.3LRSN                1
 GAP=186        0.33      10.8    10.1  4.7  0.9386E+02 -0.2019E+02 -0.2169E+02E
 Epicentro: GALAN - SANTANDER                                                  3
 ACTION:UPD 12-07-25 13:57 OP:epov STATUS:               ID:20110702063018 L   I
 2011-07-02-0628-49S.COL___140                                                 6
 STAT SP IPHASW D HRMM SECON CODA AMPLIT PERI AZIMU VELO AIN AR TRES W  DIS CAZ7
 BTL  SZ EP        630 35.75                             169    0.1310 22.4  24 
 BAR2 SZ EP   1    630 35.61                             168   -0.05 7 24.1 130 
 BAR2 SZ I         630 36.38         8.7 0.13                          24.1 130 
 BAR2 SZ ES   1    630 49.00                             168   -0.02 7 24.1 130 
 GIR2 SZ EP   1    630 35.99                             160   -0.11 7 42.0  24 
 BRR  HZ EP   1    630 36.59                             154   -0.05 7 57.6 316 
 BRR  HZ I         630 41.61         3.1 0.35                          57.6 316 
 BRR  HE ES   1    630 50.78                             154    0.00 7 57.6 316 
                                                                                
