 2016  6 2 0102 48.8 L   6.791 -73.140145.6  RSN 11 0.5 2.2LRSN                1
 GAP=138        1.13       4.2     4.7  6.3 -0.4882E+01  0.6872E+01  0.7186E+01E
 Epicentro: LOS SANTOS - SANTANDER                                             3
 ACTION:UPD 16-07-21 22:14 OP:rebc STATUS:               ID:20160602010248 L   I
 OLDACT:UP  16-06-02 17:02 OP:edw  STATUS:               ID:20160602005744     3
 OLDACT:UP  16-06-02 17:01 OP:edw  STATUS:               ID:20160602005744     3
 OLDACT:REG 16-06-02 12:25 OP:edw  STATUS:               ID:20160602005744     3
 2016-06-02-0057-44M.COL___304                                                 6
 STAT SP IPHASW D HRMM SECON CODA AMPLIT PERI AZIMU VELO AIN AR TRES W  DIS CAZ7
 BAR2 EZ EP        1 3  8.43                             171    0.0410 22.5 192 
 BAR2 EZ ES        1 3 23.48                             171   -0.2010 22.5 192 
 BAR2 EZ I         1 3 24.51        50.2 0.24                          22.5 192 
 BRR  HZ EP     C  1 3 10.09                             152    0.1010 72.2 299 
 BRR  HN ES        1 3 27.27                             152    0.7510 72.2 299 
 BRR  HZ I         1 3 30.40        32.6 0.26                          72.2 299 
 PAM  EZ EP        1 3 11.37                             151    0.3510 77.8  39 
 PAM  EN ES        1 3 27.99                             151   -0.3610 77.8  39 
 PAM  EZ I         1 3 29.04        12.7 0.30                          77.8  39 
 RUS  HZ EP        1 3 12.37                             144   -0.0910 99.5 176 
 RUS  HN ES        1 3 31.26                             144    0.3510 99.5 176 
 RUS  HZ I         1 3 32.57        18.3 0.42                          99.5 176 
 PTB  HZ EP        1 3 14.85                             132   -0.94 9  148 259 
 PTB  HN ES        1 3 35.94                             132   -0.91 9  148 259 
 PTB  HZ I         1 3 37.98        24.6 0.10                           148 259 
 SPBC HZ EP        1 3 17.36                             129    0.11 9  163 219 
 SPBC HE ES        1 3 39.41                             129   -0.03 9  163 219 
 SPBC HZ I         1 3 41.23        26.2 0.28                           163 219 
 NOR  HZ EP        1 3 24.45                             118   -0.06 8  235 235 
 NOR  HN ES        1 3 52.24                             118   -0.13 8  235 235 
 NOR  HZ I         1 3 57.27        13.6 0.18                           235 235 
 CHI  HZ EP        1 3 25.61                             117   -0.79 8  248 195 
 CHI  HE ES        1 3 55.86                             117    0.13 8  248 195 
 CHI  HZ I         1 4  0.97        12.9 0.38                           248 195 
 ROSC BN ES        1 3 56.86                             117    0.33 8  252 211 
 HEL  HZ EP        1 3 29.96                             115    0.92 8  272 256 
 HEL  HN ES        1 4  0.88                             115    0.45 8  272 256 
 HEL  HZ I         1 4  6.48         8.4 0.36                           272 256 
 PRA  HZ EP        1 3 42.43                             107    0.18 6  391 210 
 PRA  HN ES        1 4 24.17                             107    0.23 6  391 210 
 PRA  HZ I         1 4 28.56         9.0 0.32                           391 210 
                                                                                
