 2010 11 2 0127 13.7 L   6.804 -73.066146.0  RSN  5 0.3 1.7LRSN                1
 GAP=168        0.48       3.2     6.2  6.9 -0.2738E+00 -0.8925E+01  0.5599E+01E
 Epicentro: LOS SANTOS - SANTANDER                                             3
 ACTION:UP  10-12-17 16:49 OP:REBC STATUS:               ID:20101102012713 L   I
 2010-11-02-0126-02S.COL___126                                                 6
 STAT SP IPHASW D HRMM SECON CODA AMPLIT PERI AZIMU VELO SNR AR TRES W  DIS CAZ7
 BAR2 SZ EP   2    127 33.44                             169     0.0 5   27 209 
 BAR2 SZ ES   3    127 47.88                             169    -0.9 2   27 209 
 BAR2 SZ I         127 49.40         7.5 0.33                            27 209 
 BRR  HZ EP        127 35.21                             151    -0.110   79 295 
 BRR  HZ I         127 35.65        11.6 0.19                            79 295 
 BRR  HE ES   1    127 52.40                             151     0.2 7   79 295 
 RUS  HZ EP        127 37.47                             144     0.010  101 181 
 RUS  HN ES   2    127 56.24                             144     0.2 5  101 181 
 GRA  SZ ES   1    127 58.40                             138     0.1 7  123  14 
 GRA  SZ I         127 59.79         6.1 0.32                           123  14 
 OCA  SZ EP   2    127 42.00                             130    -0.1 5  161 350 
 OCA  SZ ES   3    128  3.34                             130    -0.9 2  161 350 
 OCA  SZ I         128  9.37         6.8 0.39                           161 350 
                                                                                
