 2012  2 2 0344 16.6 L   6.688 -73.257154.0  RSN  4 0.3 1.3LRSN                1
 GAP=189        0.74       7.0     7.6  8.6  0.2578E+02 -0.7092E+01  0.2642E+01E
 ACTION:UP  12-03-07 16:26 OP:epov STATUS:               ID:20120202034416 L   I
 2012-02-02-0340-00M.COL___187                                                 6
 STAT SP IPHASW D HRMM SECON CODA AMPLIT PERI AZIMU VELO SNR AR TRES W  DIS CAZ7
 BAR2 SZ EP   1    344 36.39                             175   -0.64 7 13.4 142 
 BRR  HZ EP        344 38.36                             155   -0.1010 68.5 313 
 BRR  HE ES        344 55.75                             155    0.2110 68.5 313 
 BRR  HZ I         344 58.69         5.8 0.13                          68.5 313 
 RUS  HZ EP   1    344 40.94                             148    0.52 7 90.0 168 
 RUS  HN ES   1    344 58.97                             148   -0.06 7 90.0 168 
 RUS  HZ I         345  0.06         2.1 0.37                          90.0 168 
 PTB  HZ EP   1    344 43.26                             137    0.26 7  134 263 
 PTB  HN ES   1    345  3.34                             137   -0.28 7  134 263 
                                                                                
