 2017  1 2 0745 32.4 L   6.698 -73.185139.3  RSN  5 0.5 1.0LRSN                1
 GAP=225        1.24       9.7     9.0  9.3  0.5752E+02  0.2077E+02  0.3819E+01E
 Epicentro: VILLANUEVA - SANTANDER                                             3
 ACTION:UPD 17-05-22 15:54 OP:jn   STATUS:               ID:20170102074532 L   I
 OLDACT:REG 17-01-02 12:40 OP:lv   STATUS:               ID:20170102073748     3
 2017-01-02-0738-00M.COL___366                                                 6
 STAT SP IPHASW D HRMM SECON CODA AMPLIT PERI AZIMU VELO AIN AR TRES W  DIS CAZ7
 BAR2 EZ EP        745 50.35                             175   -0.7010 11.7 179 
 BAR2 EZ ES        746  5.31                             175   -0.3010 11.7 179 
 BAR2 EZ I         746  6.55         5.7 0.23            174           11.7 179 
 BRR  HN ES        746  9.46                             150    0.4010 73.7 308 
 RUS  HZ EP        745 54.58                             146   -0.1510 89.8 173 
 RUS  HN ES        746 12.90                             146    0.7410 89.8 173 
 PTB  HZ EP        745 58.16                             132   -0.11 9  142 263 
 PTB  HN ES        746 17.92                             132   -0.55 9  142 263 
 PTB  HZ I         746 20.72         0.7 0.20            131            142 263 
 ZAR  HZ EP        746  5.20                             121    0.72 9  205 296 
 ZAR  HN ES        746 29.61                             121    0.10 9  205 296 
 ZAR  HZ I         746 31.97         0.7 0.17            121            205 296 
                                                                                
