 2016  6 2 0543  6.4 L   6.690 -73.210149.3  RSN  4 0.4 1.0LRSN                1
 GAP=214        1.11       8.7     8.2  8.9  0.3469E+02  0.9326E+01  0.3496E+01E
 Epicentro: VILLANUEVA - SANTANDER                                             3
 ACTION:UPD 16-07-21 22:14 OP:rebc STATUS:               ID:20160602054306 L   I
 OLDACT:UP  16-06-02 19:22 OP:edw  STATUS:               ID:20160602053741d    3
 OLDACT:DUP 16-06-02 19:16 OP:edw  STATUS:               ID:20160602053741d    3
 2016-06-02-0537-40M.COL___307                                                 6
 STAT SP IPHASW D HRMM SECON CODA AMPLIT PERI AZIMU VELO AIN AR TRES W  DIS CAZ7
 BAR2 EZ EP        543 26.01                             175   -0.2310 11.2 164 
 BAR2 EZ ES        543 41.07                             175   -0.6810 11.2 164 
 BAR2 EZ I         543 42.11         3.1 0.30                          11.2 164 
 BRR  HZ EP        543 28.03                             153    0.0910 72.1 310 
 BRR  HN ES        543 45.37                             153    0.5910 72.1 310 
 RUS  HZ EP        543 29.54                             148   -0.1510 89.3 171 
 RUS  HN ES        543 48.49                             148    0.6010 89.3 171 
 RUS  HZ I         543 49.69         1.2 0.36                          89.3 171 
 PTB  HZ EP        543 32.99                             135    0.16 9  139 263 
 PTB  HN ES        543 53.07                             135   -0.41 9  139 263 
 PTB  HZ I         543 54.76         1.7 0.12                           139 263 
                                                                                
