 2010  8 2 0951 44.3 L   6.993 -73.174131.2  RSN  6 0.2 1.2LRSN                1
 GAP=153        0.41       3.4     6.3  5.8 -0.7023E+01 -0.1249E+02  0.1735E+01E
 Epicentro: GIRON - SANTANDER                                                  3
 ACTION:UP  10-09-07 10:51 OP:vdl  STATUS:               ID:20100802095144 L   I
 2010-08-02-0949-12S.COL___123                                                 6
 STAT SP IPHASW D HRMM SECON CODA AMPLIT PERI AZIMU VELO SNR AR TRES W  DIS CAZ7
 GIR2 SZ EP   1    952  1.73                             176     0.0 7   10 347 
 GIR2 SZ ES   3    952 15.39                             176     0.0 2   10 347 
 BAR2 SZ EP   1    952  2.78                             160     0.0 7   44 181 
 BAR2 SZ ES   2    952 17.14                             160    -0.1 5   44 181 
 BAR2 SZ I         952 18.45         9.2 0.38                            44 181 
 BRR  HZ EP   1    952  3.09                             154    -0.2 7   61 282 
 BRR  HE ES   2    952 18.30                             154     0.2 5   61 282 
 GUE  SZ EP   1    952  5.79                             142    -0.3 7   97  17 
 GRA  SZ EP   1    952  6.88                             138     0.3 7  107  23 
 GRA  SZ ES   2    952 24.17                             138     0.1 5  107  23 
 GRA  SZ I         952 25.25         2.4 0.20                           107  23 
 RUS  HZ EP   1    952  8.55                             135     0.2 7  122 175 
 RUS  HZ I         952  8.93         1.2 0.50                           122 175 
                                                                                
