 2012 12 2 0300 11.6 L   6.762 -73.160147.4  RSN  8 0.2 1.9LRSN                1
 GAP=136        0.53       3.0     2.7  3.9 -0.1188E+01  0.2386E+01  0.2048E+01E
 Epicentro: LOS SANTOS - SANTANDER                                             3
 ACTION:UPD 13-01-04 14:25 OP:ep   STATUS:               ID:20121202030011 L   I
 2012-12-02-0300-00M.COL___236                                                 6
 STAT SP IPHASW D HRMM SECON CODA AMPLIT PERI AZIMU VELO AIN AR TRES W  DIS CAZ7
 BAR2 SZ EP        3 0 31.61                             172    0.2410 18.9 187 
 BAR2 SZ ES        3 0 46.96                             172    0.1910 18.9 187 
 BAR2 SZ I         3 0 49.44        18.2 0.32                          18.9 187 
 GIR2 SZ EP   1    3 0 31.56                             166   -0.04 7 35.2 354 
 PAM  SZ EP        3 0 34.28                             150    0.0110 81.6  39 
 PAM  SN ES        3 0 51.81                             150   -0.1210 81.6  39 
 PAM  SZ I         3 0 54.09        10.1 0.59                          81.6  39 
 RUS  HZ EP   1    3 0 35.39                             145    0.14 7 96.5 175 
 RUS  HN ES   1    3 0 53.34                             145   -0.34 7 96.5 175 
 RUS  HN I         3 0 55.98         7.8 0.15                          96.5 175 
 PTB  HZ EP        3 0 38.41                             133   -0.10 9  145 260 
 PTB  HE ES        3 0 59.51                             133    0.02 9  145 260 
 PTB  HZ I         3 1  6.74        14.2 0.49                           145 260 
 ZAR  HE ES   1    3 1  9.44                             123   -0.15 6  204 293 
 ZAR  HZ I         3 1 16.09         7.9 0.41                           204 293 
 CHI  HZ EP        3 0 48.60                             118   -0.33 8  244 195 
 PRA  HZ EP   1    3 1  5.47                             107    0.79 4  388 210 
 PRA  HZ I         3 1 51.36         2.7 0.65                           388 210 
                                                                                
