 2017  3 2 0126 20.1 L   6.809 -73.164146.0  RSN  5 0.3 1.2LRSN                1
 GAP=134        0.45       4.6     4.3  6.5 -0.5310E+01  0.5091E+01 -0.7296E+01E
 Epicentro: LOS SANTOS - SANTANDER                                             3
 ACTION:UPD 17-05-25 18:34 OP:jn   STATUS:               ID:20170302012620 L   I
 OLDACT:UP  17-03-02 13:52 OP:and  STATUS:               ID:20170302011747d    3
 OLDACT:DUP 17-03-02 13:50 OP:and  STATUS:               ID:20170302011747d    3
 OLDACT:REG 17-03-02 12:31 OP:and  STATUS:               ID:20170302011745     3
 2017-03-02-0118-00M.COL___390                                                 6
 STAT SP IPHASW D HRMM SECON CODA AMPLIT PERI AZIMU VELO AIN AR TRES W  DIS CAZ7
 BAR2 EZ EP        126 39.81                             170    0.0510 24.1 185 
 BAR2 EZ ES   2    126 54.72                             170   -0.39 5 24.1 185 
 BAR2 EZ I         126 56.90         2.8 0.19            172           24.1 185 
 BRR  HZ EP        126 41.31                             153    0.1710 68.9 299 
 BRR  HN ES   3    126 58.50                             153    0.95 2 68.9 299 
 PAM  EZ EP        126 42.33                             150   -0.0310 77.9  41 
 PAM  EN ES   2    126 59.49                             150   -0.25 5 77.9  41 
 PAM  EZ I         127  2.19         2.7 0.38            154           77.9  41 
 RUS  HZ EP   2    126 44.10                             143    0.15 5  102 175 
 RUS  HN ES   2    127  2.70                             143    0.14 5  102 175 
 RUS  HZ I         127  4.03         4.0 0.28            148            102 175 
 PTB  HZ EP   2    126 46.43                             132   -0.48 5  146 258 
 PTB  HN ES   2    127  7.57                             132   -0.26 5  146 258 
 PTB  HZ I         127 10.02         1.8 0.22            136            146 258 
                                                                                
