 2017  6 2 0736 15.7 L   6.741 -73.151148.2  RSN  6 0.2 1.4LRSN                1
 GAP=216        0.54       5.5     4.1  7.3  0.1775E+02 -0.1591E+02 -0.2442E+02E
 Epicentro: LOS SANTOS - SANTANDER                                             3
 ACTION:UPD 17-09-14 16:49 OP:jn   STATUS:               ID:20170602073615 L   I
 OLDACT:UP  17-06-02 16:31 OP:and  STATUS:               ID:20170602072728     3
 OLDACT:REG 17-06-02 13:00 OP:and  STATUS:               ID:20170602072728     3
 2017-06-02-0728-00M.COL___341                                                 6
 STAT SP IPHASW D HRMM SECON CODA AMPLIT PERI AZIMU VELO AIN AR TRES W  DIS CAZ7
 RUS  HZ EP   1    736 39.59                             146    0.39 7 94.2 175 
 RUS  HN ES        736 57.39                             146   -0.1610 94.2 175 
 RUS  HZ I         736 58.23         2.9 0.21            146           94.2 175 
 PTB  HZ EP        736 42.57                             133   -0.10 9  146 261 
 PTB  HN ES        737  4.06                             133    0.32 9  146 261 
 SPBC HN ES        737  5.67                             130   -0.15 9  158 220 
 SPBC HZ I         737  9.64         3.8 0.24            130            158 220 
 YPLC HZ EP        736 45.32                             128    0.22 9  171 150 
 YPLC HN ES   1    737  7.95                             128   -0.12 7  171 150 
 YPLC HZ I         737 10.76         2.2 0.42            129            171 150 
 ZAR  HZ EP   2    736 48.34                             122   -0.13 4  206 294 
 ZAR  HN ES        737 13.84                             122   -0.22 8  206 294 
 ZAR  HZ I         737 18.96         2.5 0.38            123            206 294 
 PTGC HZ EP   2 D  736 58.46                             112   -0.50 4  303 158 
                                                                                
