 2011  7 2 0646  9.2 L   6.780 -73.124147.9  RSN  7 0.1 1.5LRSN                1
 GAP=140        0.36       1.9     3.4  3.9 -0.6692E+00 -0.4565E+01  0.6816E+00E
 Epicentro: LOS SANTOS - SANTANDER                                             3
 ACTION:UPD 12-07-25 13:57 OP:epov STATUS:               ID:20110702064609 L   I
 2011-07-02-0644-30S.COL___140                                                 6
 STAT SP IPHASW D HRMM SECON CODA AMPLIT PERI AZIMU VELO AIN AR TRES W  DIS CAZ7
 BAR2 SZ EP        646 29.12                             171    0.0310 21.8 197 
 BAR2 SZ I         646 46.60         9.4 0.36                          21.8 197 
 BTL  SZ EP        646 29.25                             171    0.1510 22.0 314 
 GIR2 SZ EP   2    646 29.17                             167   -0.07 5 33.9 347 
 BRR  HZ EP        646 30.63                             152   -0.1710 74.3 299 
 BRR  HN ES        646 47.61                             152    0.0010 74.3 299 
 BRR  HZ I         646 50.37         5.9 0.25                          74.3 299 
 PAM  SZ EP   1    646 31.84                             151    0.15 7 77.6  37 
 PAM  SZ I         646 32.23         3.4 0.19                          77.6  37 
 PAM  SN ES   2    646 48.88                             151   -0.33 5 77.6  37 
 RUS  HZ EP        646 32.90                             145   -0.1410 98.3 177 
 RUS  HN ES   1    646 51.73                             145    0.13 7 98.3 177 
 RUS  HZ I         646 53.14         4.3 0.23                          98.3 177 
 GRA  SZ EP        646 34.86                             137    0.0710  127  16 
 GRA  SZ ES   1    646 54.71                             137    0.00 7  127  16 
 GRA  SZ I         646 55.78         3.9 0.22                           127  16 
                                                                                
