 2015  4 2 0451 50.6 L   6.805 -73.155137.4  RSN 12 0.4 1.8LRSN                1
 GAP= 70        1.09       3.3     3.1  6.2 -0.4966E+00  0.3383E+01  0.9226E+00E
 Epicentro: LOS SANTOS - SANTANDER                                             3
 ACTION:UPD 15-06-03 16:51 OP:cam  STATUS:               ID:20150402045150 L   I
 OLDACT:UP  15-04-02 14:17 OP:mh   STATUS:               ID:20150402044748     3
 OLDACT:UP  15-04-02 14:17 OP:mh   STATUS:               ID:20150402044748     3
 OLDACT:UP  15-04-02 14:16 OP:mh   STATUS:               ID:20150402044748     3
 OLDACT:REG 15-04-02 12:37 OP:mh   STATUS:               ID:20150402044748     3
 2015-04-02-0447-48M.COL___280                                                 6
 STAT SP IPHASW D HRMM SECON CODA AMPLIT PERI AZIMU VELO AIN AR TRES W  DIS CAZ7
 BAR2 EZ EP   1    452  9.42                             170    0.23 7 23.7 187 
 BAR2 EZ ES        452 23.88                             170    0.1510 23.7 187 
 BAR2 EZ I         452 25.35                             170           23.7 187 
 BRR  HZ EP     C  452 11.29                             151    0.5510 70.0 299 
 BRR  HN ES        452 26.87                             151    0.3910 70.0 299 
 BRR  HZ I         452 32.13        11.6 0.12            150           70.0 299 
 PAM  SZ EP   1    452 12.26                             149    0.36 7 77.6  40 
 PAM  SN ES        452 28.94                             149    0.3910 77.6  40 
 PAM  SZ I         452 31.62        12.2 0.25            152           77.6  40 
 RUS  HZ EP        452 13.48                             142   -0.0610  101 175 
 RUS  HN ES        452 30.94                             142   -0.5310  101 175 
 PTB  HZ EP   1    452 15.99                             130   -0.78 7  147 259 
 PTB  HN ES   1    452 36.72                             130   -0.50 7  147 259 
 PTB  HZ I         452 39.88         8.7 0.08            131            147 259 
 TAM  HZ EP        452 17.83                             128    0.14 9  156 105 
 TAM  HN ES        452 38.77                             128   -0.09 9  156 105 
 OCA  HZ EP        452 17.72                             128   -0.44 9  160 353 
 OCA  HN ES        452 38.90                             128   -0.80 9  160 353 
 OCA  HZ I         452 40.46        14.0 0.20            129            160 353 
 SPBC HZ EP        452 18.42                             127    0.01 9  163 219 
 SPBC HN ES        452 39.82                             127   -0.31 9  163 219 
 ZAR  HZ EP        452 22.52                             121    0.17 9  203 292 
 ZAR  HN ES        452 47.43                             121    0.29 9  203 292 
 ZAR  HZ I         452 53.10         8.4 0.50            121            203 292 
 NOR  HN ES        452 53.69                             117    0.47 8  234 234 
 SML  HZ EP   9    452 25.58                             116   -1.04 0  243 335 
 SML  HN ES        452 52.54                                   -1.17 8  243 335 
 HEL  HZ EP   4    452 32.68                             113    2.42 0  271 256 
 HEL  HN ES        453  1.25                             113    0.02 8  271 256 
 HEL  HZ I         453  9.53         2.8 0.45            114            271 256 
 URE  HZ EP   4    452 33.62                             112    2.52 0  283 292 
 URE  HN ES   4    453  0.78                             112   -1.94 0  283 292 
                                                                                
