 2016 11 2 0534 45.5 L   6.763 -73.129148.2  RSN  4 0.4 1.0LRSN                1
 GAP=140        0.97      10.1     6.3  9.9 -0.3389E+02 -0.2248E+01  0.2783E+02E
 Epicentro: LOS SANTOS - SANTANDER                                             3
 ACTION:UPD 17-10-26 21:03 OP:lp   STATUS:               ID:20161102052742dL   I
 OLDACT:UP  16-11-02 16:31 OP:dani STATUS:               ID:20161102052742dL   3
 OLDACT:UP  16-11-02 16:31 OP:dani STATUS:               ID:20161102052742dL   3
 OLDACT:DUP 16-11-02 16:28 OP:dani STATUS:               ID:20161102052742dL   3
 OLDACT:UP  16-11-02 16:27 OP:dani STATUS:               ID:20161102052741 L   3
 OLDACT:UP  16-11-02 16:26 OP:dani STATUS:               ID:20161102052741 L   3
 OLDACT:UP  16-11-02 16:26 OP:dani STATUS:               ID:20161102052741 L   3
 OLDACT:UP  16-11-02 16:26 OP:dani STATUS:               ID:20161102052741 L   3
 OLDACT:UPD 16-11-02 13:22 OP:dnl  STATUS:               ID:20161102052741 L   3
 2016-11-02-0528-00M.COL___343                                                 6
 STAT SP IPHASW D HRMM SECON CODA AMPLIT PERI AZIMU VELO AIN AR TRES W  DIS CAZ7
 BRR  HZ EP        535  7.09                             151   -0.0710 74.8 301 
 BRR  HE ES        535 24.60                             151    0.5810 74.8 301 
 BRR  HZ I         535 32.32         3.4 0.48            153           74.8 301 
 PAM  EZ EP        535  8.15                             150    0.0110 79.5  37 
 PAM  EE ES        535 25.50                             150   -0.2710 79.5  37 
 PAM  EZ I         535 27.61         1.5 0.21            154           79.5  37 
 RUS  HZ EP   4    535 10.91                             146    1.67 0 96.3 177 
 RUS  HN ES   2    535 27.93                             146    0.21 5 96.3 177 
 RUS  HZ I         535 29.01         0.9 0.33            152           96.3 177 
 PTB  HZ EP        535 13.14                             132    0.34 9  149 261 
 PTB  HE ES        535 33.38                             132   -0.68 9  149 261 
 PTB  HZ I         535 34.36         1.0 0.22            136            149 261 
                                                                                
