 2016  9 2 0344 32.5 L   6.783 -73.186132.5  RSN  4 0.2 1.3LRSN                1
 GAP=142        0.52       4.4     3.8  6.2 -0.1174E+02  0.1489E+01  0.6369E+01E
 Epicentro: LOS SANTOS - SANTANDER                                             3
 ACTION:UPD 17-08-17 21:05 OP:lp   STATUS:               ID:20160902034432 L   I
 OLDACT:REG 16-09-02 13:11 OP:drio STATUS:               ID:20160902033729     3
 2016-09-02-0338-00M.COL___359                                                 6
 STAT SP IPHASW D HRMM SECON CODA AMPLIT PERI AZIMU VELO AIN AR TRES W  DIS CAZ7
 PAM  HZ EP        344 53.71                             147    0.0810 81.7  41 
 PAM  HE ES        345 10.02                             147   -0.0710 81.7  41 
 PAM  HZ I         345 12.59         3.8 0.24            153           81.7  41 
 RUS  HZ EP   3    344 54.72                             141   -0.17 2 99.1 173 
 RUS  HE ES   3    345 12.82                             141    0.49 2 99.1 173 
 RUS  HZ I         345 14.35         1.3 0.24            144           99.1 173 
 PTB  HZ EP        344 57.73                             130   -0.27 9  143 259 
 PTB  HE ES        345 18.06                             130    0.19 9  143 259 
 PTB  HZ I         345 21.15         4.0 0.16            134            143 259 
 SPBC HZ EP        344 59.91                             126    0.29 9  159 218 
 SPBC HN ES        345 20.52                             126   -0.24 9  159 218 
 SPBC HZ I         345 25.72         3.4 0.22            130            159 218 
                                                                                
