 2010 11 2 0745 37.4 L   6.765 -73.123147.8  RSN  6 0.3 1.6LRSN                1
 GAP=162        0.79       5.0    11.2 11.1  0.8383E+01 -0.5982E+02 -0.1299E+02E
 Epicentro: LOS SANTOS - SANTANDER                                             3
 ACTION:UP  10-12-17 16:49 OP:REBC STATUS:               ID:20101102074537 L   I
 2010-11-02-0744-19S.COL___126                                                 6
 STAT SP IPHASW D HRMM SECON CODA AMPLIT PERI AZIMU VELO SNR AR TRES W  DIS CAZ7
 BAR2 SZ EP        745 57.17                             172     0.010   20 199 
 BAR2 SZ I         746 14.78        11.3 0.45                            20 199 
 BRR  HZ EP        745 58.83                             152    -0.210   75 300 
 BRR  HZ I         745 59.04        14.0 0.22                            75 300 
 BRR  HN ES   1    746 15.96                             152     0.1 7   75 300 
 RUS  HZ EP        746  0.97                             146    -0.110   97 177 
 RUS  HN ES   2    746 19.57                             146     0.1 5   97 177 
 RUS  HZ I         746 20.93         3.5 0.36                            97 177 
 GUE  SZ EP        746  3.08                             139     0.510  120  11 
 GRA  SZ EP   2    746  3.44                             137     0.4 5  129  16 
 GRA  SZ ES   2    746 22.58                             137    -0.5 5  129  16 
 GRA  SZ I         746 29.72         4.4 0.26                           129  16 
 OCA  SZ EP        746  5.92                             129    -0.3 9  164 352 
 OCA  SZ I         746 31.97         6.0 0.27                           164 352 
                                                                                
