 2016 12 2 0354  3.6 L   6.684 -73.119139.6  RSN  4 0.3 1.2LRSN                1
 GAP=182        0.73       7.2     4.4  5.9 -0.1584E+02  0.2035E+01  0.4849E+01E
 Epicentro: JORDAN - SANTANDER                                                 3
 ACTION:UPD 17-01-11 20:11 OP:rebc STATUS:               ID:20161202035403 L   I
 OLDACT:UP  16-12-02 14:14 OP:dnl  STATUS:               ID:20161202034745     3
 OLDACT:REG 16-12-02 12:28 OP:dnl  STATUS:               ID:20161202034745     3
 2016-12-02-0348-00M.COL___340                                                 6
 STAT SP IPHASW D HRMM SECON CODA AMPLIT PERI AZIMU VELO AIN AR TRES W  DIS CAZ7
 BAR2 EZ EP        354 22.34                             175    0.0310 12.3 215 
 BAR2 EZ ES        354 37.03                             175    0.1310 12.3 215 
 BAR2 EZ I         354 40.54         6.1 0.56            174           12.3 215 
 BRR  HZ EP        354 24.65                             148   -0.0110 80.6 306 
 BRR  HE ES        354 41.49                             148    0.4110 80.6 306 
 BRR  HZ I         354 43.57         4.4 0.40            151           80.6 306 
 PAM  EZ EP        354 25.80                             147    0.0910 86.0  33 
 PAM  EN ES        354 42.61                             147   -0.3610 86.0  33 
 PAM  EZ I         354 44.22         2.7 0.38            151           86.0  33 
 PTB  HZ EP        354 30.33                             130    0.17 9  149 264 
 PTB  HN ES        354 50.38                             130   -0.51 9  149 264 
 PTB  HZ I         354 52.56         1.2 0.36            133            149 264 
                                                                                
