 2017  2 2 0624 25.2 L   6.770 -73.151141.4  RSN  7 0.4 1.5LRSN                1
 GAP=137        0.96       4.6     4.2  6.8  0.1855E+01  0.5689E+01  0.1851E+01E
 Epicentro: LOS SANTOS - SANTANDER                                             3
 ACTION:UPD 17-05-24 15:31 OP:jn   STATUS:               ID:20170202062425 L   I
 OLDACT:DUP 17-02-02 17:39 OP:ar   STATUS:               ID:20170202061746d    3
 OLDACT:REG 17-02-02 13:13 OP:ar   STATUS:               ID:20170202061745     3
 2017-02-02-0618-00M.COL___319                                                 6
 STAT SP IPHASW D HRMM SECON CODA AMPLIT PERI AZIMU VELO AIN AR TRES W  DIS CAZ7
 BAR2 EZ IP     C  624 44.12                             172   -0.0810 20.0 190 
 BAR2 EZ ES        624 58.83                             172   -0.2210 20.0 190 
 BAR2 EZ I         625  1.51        10.3 0.44            173           20.0 190 
 BRR  HZ EP        624 46.44                             151    0.5410 72.3 301 
 BRR  HN ES        625  2.42                             151    0.3410 72.3 301 
 BRR  HZ I         625  8.49         5.2 0.14            152           72.3 301 
 PAM  EZ IP     C  624 47.17                             149    0.0710 80.3  38 
 PAM  EN ES        625  3.88                             149   -0.3310 80.3  38 
 PAM  EZ I         625  6.33         6.7 0.50            152           80.3  38 
 RUS  HZ EP        624 48.09                             144   -0.1610 97.3 176 
 RUS  HN ES        625  6.70                             144    0.4410 97.3 176 
 RUS  HZ I         625  7.38         2.5 0.18            148           97.3 176 
 PTB  HZ EP        624 50.95                             131   -0.71 9  147 260 
 PTB  HN ES        625 11.97                             131   -0.36 9  147 260 
 PTB  HZ I         625 14.36         6.7 0.20            134            147 260 
 ZAR  HN ES        625 22.85                             121    0.31 9  205 293 
 CHI  HZ EP   2    625  2.92                             117    0.67 4  245 195 
                                                                                
