 2015 12 2 0553 19.8 L   6.807 -73.135149.5  RSN  9 0.4 1.8LRSN                1
 GAP=184        0.90       2.9     4.7  5.3  0.2061E+01  0.2138E+01 -0.1821E+01E
 Epicentro: LOS SANTOS - SANTANDER                                             3
 ACTION:UPD 16-02-04 15:01 OP:cam  STATUS:               ID:20151202055319 L   I
 OLDACT:UP  15-12-02 15:50 OP:mh   STATUS:               ID:20151202054751d    3
 OLDACT:DUP 15-12-02 15:44 OP:mh   STATUS:               ID:20151202054751d    3
 2015-12-02-0547-50M.COL___315                                                 6
 STAT SP IPHASW D HRMM SECON CODA AMPLIT PERI AZIMU VELO AIN AR TRES W  DIS CAZ7
 BAR2 EZ EP        553 40.19                             170    0.2510 24.3 192 
 BAR2 EZ ES        553 55.60                             170   -0.0210 24.3 192 
 BAR2 EZ I         553 58.02        10.2 0.36            173           24.3 192 
 BRR  HZ EP        553 41.95                             153    0.5110 71.9 298 
 BRR  HN ES        553 58.95                             153    0.6710 71.9 298 
 BRR  HZ I         554  3.38         8.8 0.27            151           71.9 298 
 RUS  HZ EP        553 43.79                             144   -0.2210  101 177 
 RUS  HN ES        554  2.47                             144   -0.3910  101 177 
 RUS  HZ I         554  3.73         5.7 0.38            149            101 177 
 PTB  HZ EP   1    553 46.96                             133   -0.28 7  149 259 
 PTB  HN ES        554  7.92                             133   -0.68 9  149 259 
 PTB  HZ I         554 10.93         5.1 0.42            133            149 259 
 OCA  HZ EP        553 47.83                             131   -0.56 9  160 353 
 OCA  HN ES        554 10.63                             131   -0.03 9  160 353 
 OCA  HZ I         554 18.50         9.0 0.50            131            160 353 
 SPBC HZ EP        553 49.01                             130    0.25 9  164 219 
 SPBC HN ES   1    554 11.55                             130    0.24 7  164 219 
 SPBC HZ I         554 13.55        11.7 0.11            132            164 219 
 ZAR  HZ EP        553 52.69                             123    0.07 9  205 292 
 ZAR  HN ES        554 17.95                             123   -0.24 9  205 292 
 ZAR  HZ I         554 22.08         3.6 0.26            124            205 292 
 SML  HZ EP   1    553 56.73                             118    0.06 6  244 335 
 SML  HN ES        554 25.39                             118    0.00 8  244 335 
 SML  HZ I         554 35.03         7.5 0.28            119            244 335 
 PRA  HZ EP        554 14.11                             107    0.47 6  393 210 
 PRA  HN ES   2    554 56.19                             107    0.59 3  393 210 
 PRA  HZ I         555  1.54         3.1 0.34            109            393 210 
                                                                                
