 2015 10 2 0839 11.7 L   6.268 -73.657112.6  RSN 14 0.4 1.9LRSN                1
 GAP= 67        0.77       2.8     2.7  5.1 -0.2262E+01  0.1777E+01 -0.1191E+01E
 Epicentro: SANTA HELENA DEL OPON - SANTANDER                                  3
 ACTION:UPD 15-12-22 20:36 OP:cam  STATUS:               ID:20151002083911 L   I
 OLDACT:REG 15-10-02 13:27 OP:ar   STATUS:               ID:20151002083747     3
 2015-10-02-0837-47M.COL___351                                                 6
 STAT SP IPHASW D HRMM SECON CODA AMPLIT PERI AZIMU VELO AIN AR TRES W  DIS CAZ7
 BAR2 EZ EP     D  839 29.23                             148    0.0110 63.6  56 
 BAR2 EZ ES        839 42.55                             148   -0.3210 63.6  56 
 BAR2 EZ I         839 44.16        39.1 0.42            148           63.6  56 
 RUS  HZ EP   2    839 30.17                             144   -0.25 5 75.9 123 
 RUS  HN ES   2    839 44.85                             144   -0.16 5 75.9 123 
 RUS  HZ I         839 47.18         7.1 0.68            144           75.9 123 
 SPBC HZ EP   2    839 30.21                             141   -0.10 5 82.2 214 
 SPBC HN ES   2    839 45.54                             141    0.71 5 82.2 214 
 SPBC HZ I         839 49.11        17.0 0.30            140           82.2 214 
 BRR  HZ EP        839 31.16                             137    0.1210 92.9 356 
 BRR  HN ES        839 46.77                             137    0.6410 92.9 356 
 BRR  HZ I         839 47.83        18.6 0.16            136           92.9 356 
 PTB  HZ EP        839 30.60                             137   -0.5010 93.3 289 
 PTB  HN ES        839 45.71                             137   -0.5210 93.3 289 
 PTB  HZ I         839 46.22        28.3 0.12            135           93.3 289 
 NOR  HZ EP   2    839 36.95                             122   -0.06 5  155 240 
 NOR  HN ES   2    839 57.77                             122    1.02 5  155 240 
 NOR  HZ I         839 59.32        24.2 0.16            120            155 240 
 PAM  EZ EP        839 37.88                             121   -0.08 9  159  42 
 CHI  HZ EP   2    839 40.86                             117    0.60 4  181 183 
 CHI  HN ES   2    840  3.12                             117    0.59 4  181 183 
 CHI  HZ I         840  6.94         4.0 0.36            116            181 183 
 ZAR  HZ EP   2    839 40.83                             116    0.20 4  190 316 
 ZAR  HN ES   2    840  3.78                             116    0.59 4  190 316 
 ZAR  HZ I         840  9.63        10.3 0.24            114            190 316 
 HEL  HZ EP   2    839 43.80                             114    0.75 4  207 268 
 HEL  HN ES        840  7.26                             114   -0.24 8  207 268 
 HEL  HZ I         840 11.57         3.8 0.40            112            207 268 
 OCA  HZ EP        839 44.45                             112    0.12 8  221  10 
 OCA  HN ES        840 10.01                             112    0.23 8  221  10 
 OCA  HZ I         840 15.80        18.2 0.28            111            221  10 
 GUY2CHZ EP   4    839 46.05                             112    1.25 0  222 239 
 GUY2CHN ES   2    840 10.36                             112   -0.25 4  222 239 
 GUY2CHZ I         840 18.86         6.2 0.66                           222 239 
 URE  HZ EP   2    839 48.70                             108   -0.41 4  264 308 
 URE  HN ES   4    840 15.75                             108   -2.54 0  264 308 
 SML  HZ EP   2    839 51.24                             106   -0.13 4  284 351 
 SML  HN ES   2    840 21.68                             106   -0.62 4  284 351 
 SML  HZ I         840 31.55         7.0 0.22            105            284 351 
                                                                                
