 2011 11 2 0307 39.9 L   6.823 -73.297115.7  RSN  7 0.4 1.6LRSN                1
 GAP=126        0.79       4.9     5.1  7.0  0.4739E+01  0.5002E+01 -0.2500E+01E
 Epicentro: ZAPATOCA - SANTANDER                                               3
 ACTION:UPD 12-07-13 16:07 OP:ep   STATUS:               ID:20111102030739 L   I
 2011-11-02-0300-00M.COL___178                                                 6
 STAT SP IPHASW D HRMM SECON CODA AMPLIT PERI AZIMU VELO AIN AR TRES W  DIS CAZ7
 BAR2 SZ EP        3 7 56.01                             166   -0.0710 28.5 154 
 BAR2 SZ ES   1    3 8  8.75                             166    0.05 7 28.5 154 
 BAR2 SZ I         3 8 10.68        13.5 0.12                          28.5 154 
 GIR2 SZ EP   1    3 7 55.84                             164   -0.16 7 30.5  22 
 BRR  HZ EP        3 7 56.60                             152   -0.3310 55.6 304 
 BRR  HZ I         3 7 57.09         8.4 0.10                          55.6 304 
 BRR  HN ES        3 8 10.29                             152    0.0910 55.6 304 
 PAM  SZ EP   2    3 7 59.11                             141   -0.65 5 87.3  49 
 PAM  SN ES   1    3 8 15.85                             141    0.60 7 87.3  49 
 RUS  HZ EP   2    3 8  1.81                             135    0.55 5  106 167 
 RUS  HN ES   2    3 8 17.33                             135   -0.59 5  106 167 
 OCA  SZ EP   2    3 8  5.58                             122   -0.12 5  157 359 
 OCA  SZ ES   2    3 8 25.31                             122   -0.50 5  157 359 
 OCA  SZ I         3 8 26.39         5.0 0.32                           157 359 
 ZAR  HZ EP   1    3 8  9.75                             117    0.95 7  188 293 
 ZAR  HN ES   2    3 8 30.94                             117   -0.39 4  188 293 
 ZAR  HZ I         3 8 33.91         4.4 0.05                           188 293 
                                                                                
