 2014  3 2 0104 39.2 L   6.820 -73.150139.5  RSN 18 0.6 2.2LRSN                1
 GAP= 53        1.35       3.2     3.3  6.2 -0.1871E+01  0.4535E+01 -0.1099E+01E
 Epicentro: LOS SANTOS - SANTANDER                                             3
 OLDACT:DUP 14-03-02 09:14 OP:stll STATUS:               ID:20140302005822d    3
 ACTION:UPD 14-04-09 23:13 OP:nd   STATUS:               ID:20140302010439 L   I
 OLDACT:UP  14-03-02 09:32 OP:stll STATUS:               ID:20140302005822d    3
 2014-03-02-0058-20M.COL___232                                                 6
 STAT SP IPHASW D HRMM SECON CODA AMPLIT PERI AZIMU VELO AIN AR TRES W  DIS CAZ7
 BAR2 SZ EP        1 4 58.54                             169    0.3910 25.5 188 
 BAR2 SZ ES        1 5 12.42                             169   -0.4910 25.5 188 
 BAR2 SZ I         1 5 14.65        60.4 0.16            163           25.5 188 
 PAM  SZ IP     C  1 5  1.48                             150    0.7810 76.0  41 
 PAM  SN ES        1 5 17.98                             150    0.5410 76.0  41 
 PAM  SZ I         1 5 19.78        26.7 0.48            138           76.0  41 
 RUS  HZ EP        1 5  2.44                             142   -0.1010  103 176 
 RUS  HE ES        1 5 20.34                             142   -0.3810  103 176 
 PTB  HZ EP        1 5  5.54                             131   -0.14 9  148 258 
 PTB  HN ES        1 5 25.96                             131   -0.36 9  148 258 
 PTB  SZ I         1 5 28.46        15.0 0.26            124            148 258 
 TAM  HZ IP     C  1 5  6.98                             129    0.46 9  156 106 
 TAM  HN ES        1 5 28.06                             129    0.25 9  156 106 
 TAM  SZ I         1 5 41.68        11.0 2.52            116            156 106 
 OCA  HZ EP        1 5  7.67                             128    0.83 9  158 353 
 OCA  HN ES        1 5 28.03                             128   -0.35 9  158 353 
 OCA  SZ I         1 5 31.50        19.3 0.32            120            158 353 
 SPBC HZ EP        1 5  7.55                             127    0.16 9  165 218 
 SPBC HN ES        1 5 28.99                             127   -0.37 9  165 218 
 SPBC SZ I         1 5 35.83        14.8 0.26            119            165 218 
 ZAR  HZ EP        1 5 11.42                             121    0.29 9  203 292 
 ZAR  HN ES        1 5 36.98                             121    0.96 9  203 292 
 ZAR  SZ I         1 5 42.89        17.1 0.26            114            203 292 
 NOR  HZ EP        1 5 15.24                             117    0.54 8  236 234 
 NOR  HN ES        1 5 42.41                             117    0.05 8  236 234 
 NOR  SZ I         1 5 48.36        10.2 0.18            110            236 234 
 SML  HZ EP        1 5 14.65                             116   -0.61 8  241 335 
 SML  HN ES        1 5 42.59                             116   -0.78 8  241 335 
 SML  SZ I         1 5 53.06        13.7 0.10            109            241 335 
 CHI  HZ EP        1 5 16.48                             116   -0.33 8  251 195 
 CHI  HN ES        1 5 46.02                             116   -0.10 8  251 195 
 CHI  SZ I         1 5 54.50         6.9 0.86            107            251 195 
 HEL  HZ EP        1 5 19.37                             113    0.24 8  272 255 
 HEL  HE ES        1 5 48.97                             113   -1.29 8  272 255 
 HEL  SZ I         1 5 56.85         7.0 0.32            107            272 255 
 SOCV BZ EP        1 5 21.10                             111   -0.81 7  301  57 
 GUY2CHZ EP        1 5 23.51                             111    0.86 7  302 234 
 GUY2CHN ES        1 5 57.41                             111    0.89 7  302 234 
 GUY2CSZ I         1 6  3.16         7.2 1.20                           302 234 
 PTGC HZ EP        1 5 22.07                             110   -1.00 7  311 159 
 PTGC SZ I         1 6  3.32        14.1 0.44            102            311 159 
 CBOC HZ EP        1 5 26.41                             109    0.50 7  334 252 
 CBOC HN ES        1 6  1.88                             109   -0.44 7  334 252 
 CBOC SZ I         1 6  3.84         6.0 2.32            102            334 252 
 SDV  BZ EP        1 5 28.13                             107   -0.79 6  359  51 
 SDV  SZ I         1 6 13.35         4.3 2.00             99            359  51 
 SJC  HZ EP        1 5 33.11                             105   -1.23 6  407 327 
                                                                                
