 2017  3 2 0851 55.4 L   6.779 -73.307164.4  RSN  4 0.4 1.4LRSN                1
 GAP=211        0.78       8.7     6.7  7.3  0.4187E+02  0.1778E+01 -0.1515E+02E
 Epicentro: ZAPATOCA - SANTANDER                                               3
 ACTION:UPD 17-05-25 18:34 OP:jn   STATUS:               ID:20170302085155 L   I
 OLDACT:UP  17-04-21 17:19 OP:nlst STATUS:               ID:20170302085155 L   3
 OLDACT:UP  17-03-02 16:18 OP:dani STATUS:               ID:20170302084332     3
 OLDACT:UP  17-03-02 16:18 OP:dani STATUS:               ID:20170302084332     3
 OLDACT:UP  17-03-02 16:16 OP:dani STATUS:               ID:20170302084332     3
 OLDACT:UP  17-03-02 16:16 OP:dani STATUS:               ID:20170302084332     3
 OLDACT:UP  17-03-02 16:16 OP:dani STATUS:               ID:20170302084332     3
 OLDACT:UP  17-03-02 16:16 OP:dani STATUS:               ID:20170302084332     3
 OLDACT:UP  17-03-02 16:16 OP:dani STATUS:               ID:20170302084332     3
 OLDACT:UP  17-03-02 16:15 OP:dani STATUS:               ID:20170302084332     3
 OLDACT:REG 17-03-02 13:01 OP:and  STATUS:               ID:20170302084332     3
 2017-03-02-0848-00M.COL___387                                                 6
 STAT SP IPHASW D HRMM SECON CODA AMPLIT PERI AZIMU VELO AIN AR TRES W  DIS CAZ7
 BAR2 EZ EP   3    852 18.53                             171    1.22 2 24.9 146 
 BAR2 EZ ES        852 34.09                             171   -0.3110 24.9 146 
 BAR2 EZ I         852 35.38         7.0 0.36            165           24.9 146 
 RUS  HZ EP        852 20.91                             147   -0.1610  101 166 
 RUS  HN ES        852 41.51                             147    0.4210  101 166 
 RUS  HZ I         852 44.21         2.1 0.32            146            101 166 
 PTB  HZ EP   1    852 21.94                             140   -0.54 7  130 258 
 PTB  HN ES        852 43.46                             140   -0.1410  130 258 
 PTB  HZ I         852 54.07         3.5 0.43            134            130 258 
 ZAR  HZ EP        852 27.87                             129    0.24 9  189 295 
 ZAR  HE ES        852 53.02                             129    0.25 9  189 295 
 ZAR  HZ I         853  3.36         3.2 0.33            127            189 295 
                                                                                
