 2011  2 2 0101  6.2 L   6.791 -73.198128.0  RSN 10 0.3 2.3LRSN                1
 GAP=132        0.49       2.1     3.7  5.4 -0.1673E+01  0.8825E+01  0.4341E+00E
 Epicentro: ZAPATOCA - SANTANDER                                               3
 ACTION:UP  11-03-28 15:05 OP:jfem STATUS:               ID:20110202010106 L   I
 2011-02-02-0059-07S.COL___134                                                 6
 STAT SP IPHASW D HRMM SECON CODA AMPLIT PERI AZIMU VELO SNR AR TRES W  DIS CAZ7
 BAR2 SZ EP   1    1 1 23.98                             170     0.3 8   22 176 
 BAR2 SZ ES   2    1 1 37.26                             170     0.0 5   22 176 
 BAR2 SZ I         1 1 40.04        67.0 0.27                            22 176 
 RUS  HZ EP        1 1 28.12                             140    -0.110  100 173 
 RUS  HN ES   2    1 1 45.55                             140     0.2 5  100 173 
 RUS  HZ I         1 1 48.76        34.0 0.37                           100 173 
 GRA  SZ EP   1    1 1 30.18                             132     0.0 7  129  20 
 GRA  SZ ES   1    1 1 48.78                             132    -0.1 7  129  20 
 GRA  SZ I         1 1 51.85        23.0 0.36                           129  20 
 OCA  SZ EP   1    1 1 33.16                             125    -0.1 7  161 355 
 OCA  SZ ES   2    1 1 54.05                             125    -0.3 5  161 355 
 OCA  SZ I         1 2  0.37        32.5 0.17                           161 355 
 YOP  SZ EP   2    1 1 34.77                             122    -0.4 4  181 152 
 YOP  SN ES   2    1 1 57.87                             122     0.0 4  181 152 
 YOP  SZ I         1 2  1.77        22.5 0.09                           181 152 
 NOR  SZ EP   1    1 1 40.14                             115    -0.2 6  230 234 
 NOR  SN ES   2    1 2  6.70                             115    -0.3 4  230 234 
 CHI  HZ EP   1    1 1 42.58                             113    -0.1 6  246 194 
 CHI  HZ I         1 2 21.07         9.8 0.36                           246 194 
 HEL  HN ES   2    1 2 15.05                             111     0.0 4  266 256 
 HEL  HZ I         1 2 23.17        14.4 0.29                           266 256 
 RREF HZ EP   2    1 1 51.88                             108     0.9 3  317 229 
 RREF HN ES   2    1 2 25.64                             108    -0.4 3  317 229 
 RREF HZ I         1 2 33.39        10.1 0.45                           317 229 
 DBB  SZ EP   1    1 1 52.77                             106     0.4 5  334 274 
                                                                                
