 2010  5 2 0242 36.9 L   6.874 -73.264121.4  RSN  5 0.4 1.9LRSN                1
 GAP=135        0.95       6.0     9.3  8.4 -0.8405E+01 -0.1620E+01 -0.1096E+02E
 Epicentro: BETULIA - SANTANDER                                                3
 ACTION:UP  10-08-24 10:02 OP:vdl  STATUS:               ID:20100502024236 L   I
 2010-05-02-0239-42S.COL___105                                                 6
 STAT SP IPHASW D HRMM SECON CODA AMPLIT PERI AZIMU VELO SNR AR TRES W  DIS CAZ7
 GIR2 SZ EP        242 53.44                             168    -0.110   24  19 
 GIR2 SZ ES   1    243  6.37                             168    -0.1 7   24  19 
 BAR2 SZ EP        242 53.86                             164    -0.110   32 164 
 BAR2 SZ ES   1    243  6.67                             164    -0.5 7   32 164 
 BRR  HZ IP        242 54.76                             154     0.210   56 298 
 BRR  HE ES   1    243  8.84                             154     0.5 7   56 298 
 BRR  HZ I         243  9.88        20.2 0.17                            56 298 
 BRI  SZ EP   1    242 58.86                             136     0.4 7  107  29 
 BRI  SZ ES   1    243 15.81                             136     0.6 7  107  29 
 OCA  SZ EP   1    243  2.28                             125    -0.3 7  151 358 
 OCA  SZ ES   1    243 21.63                             125    -0.9 7  151 358 
 OCA  SZ I         243 27.89        12.3 0.24                           151 358 
                                                                                
