 2016  2 2 0447  3.9 L   6.820 -73.201139.0  RSN 10 0.5 1.5LRSN                1
 GAP=129        0.67       3.4     4.9  8.1 -0.2367E+01  0.1195E+02 -0.4739E+01E
 Epicentro: ZAPATOCA - SANTANDER                                               3
 ACTION:UPD 16-03-04 21:22 OP:rebc STATUS:               ID:20160202044703 L   I
 OLDACT:REG 16-02-02 13:57 OP:dnl  STATUS:               ID:20160202043836     3
 2016-02-02-0446-00M.COL___411                                                 6
 STAT SP IPHASW D HRMM SECON CODA AMPLIT PERI AZIMU VELO AIN AR TRES W  DIS CAZ7
 BAR2 EZ EP   2    447 22.95                             169    0.15 5 25.2 175 
 BAR2 EZ ES   2    447 38.21                             169    0.70 5 25.2 175 
 BAR2 EZ I         447 45.84         2.7 0.10            170           25.2 175 
 PAM  EZ EP        447 25.87                             149    0.2810 79.8  44 
 PAM  EE ES   2    447 41.56                             149   -0.92 5 79.8  44 
 PAM  EZ I         447 45.10         6.1 0.40            155           79.8  44 
 RUS  HZ EP   2    447 27.10                             141   -0.14 5  103 173 
 RUS  HE ES   2    447 44.95                             141   -0.46 5  103 173 
 RUS  HZ I         447 49.19         1.8 0.52            150            103 173 
 PTB  HZ EP   2    447 30.46                             131    0.60 5  142 257 
 PTB  HN ES   2    447 50.65                             131    0.58 5  142 257 
 PTB  HZ I         447 51.74         2.2 0.14            133            142 257 
 OCA  HZ EP   2    447 32.28                             128    0.81 5  157 355 
 OCA  HN ES   2    447 52.54                             128   -0.40 5  157 355 
 OCA  HZ I         447 56.85         6.3 0.14            132            157 355 
 SPBC HZ EP   2    447 31.67                             128   -0.06 5  161 217 
 SPBC HN ES   2    447 53.19                             128   -0.22 5  161 217 
 SPBC HZ I         447 55.71         4.1 0.13            132            161 217 
 SML  HZ EP   2    447 39.44                             116   -0.27 4  239 336 
 SML  HN ES   2    448  7.12                             116   -0.48 4  239 336 
 SML  HZ I         448 15.04         5.2 0.09            120            239 336 
 CHI  HZ EP   2    447 41.12                             115   -0.22 4  249 194 
 CHI  HN ES   2    448  9.75                             115   -0.76 4  249 194 
 CHI  HZ I         448 12.95         1.4 0.43            121            249 194 
 URE  HE ES   2    448 14.57                             113   -0.60 4  277 292 
 URE  BZ I         448 27.47         3.0 0.15            115            277 292 
 MON  HZ EP   4    447 50.34                             108   -1.63 0  348 309 
 MON  HE ES   2    448 28.99                             108   -0.45 3  348 309 
 MON  HZ I         448 43.82         1.5 0.44            111            348 309 
                                                                                
