 2010  4 2 0832  8.1 L   6.752 -73.066152.1  RSN  4 0.2 1.7LRSN                1
 GAP=226        0.55       4.7     8.9  6.5  0.6206E+01 -0.1748E+02 -0.1064E+02E
 Epicentro: CEPITA - SANTANDER                                                 3
 ACTION:UPD 10-08-24 09:57 OP:vdl  STATUS:               ID:20100402083209 L   I
 2010-04-02-0830-46S.COL___098                                                 6
 STAT SP IPHASW D HRMM SECON CODA AMPLIT PERI AZIMU VELO AIN AR TRES W  DIS CAZ7
 BAR2 SZ EP        832 28.61                             169     0.110   22 216 
 BAR2 SZ ES   1    832 44.11                             169    -0.3 7   22 216 
 BRR  HZ IP        832 30.87                             149     0.310   82 299 
 BRR  HZ I         832 31.03         8.8 0.17                            82 299 
 BRR  HN ES   1    832 48.00                             149    -0.1 7   82 299 
 OCA  SZ EP        832 37.44                             129    -0.1 9  167 350 
 OCA  SZ ES   1    833  0.41                             129    -0.1 7  167 350 
 OCA  SZ I         833  5.38         8.2 0.32                           167 350 
 HEL  HN ES   3    833 21.10                                    -0.6 2  279 257 
 HEL  HZ I         833 26.83         2.1 0.32                           279 257 
                                                                                
