 2013  1 2 0839  7.1 L   6.791 -73.124144.6  RSN  6 0.5 2.0LRSN                1
 GAP=185        1.24       5.9     7.7 11.1  0.8735E+01  0.2239E+02 -0.1133E+02E
 Epicentro: LOS SANTOS - SANTANDER                                             3
 ACTION:UPD 13-02-15 09:11 OP:ep   STATUS:               ID:20130102083907 L   I
 2013-01-02-0838-19M.COL___192                                                 6
 STAT SP IPHASW D HRMM SECON CODA AMPLIT PERI AZIMU VELO AIN AR TRES W  DIS CAZ7
 BAR2 SZ EP        839 26.94                             171    0.3710 22.9 196 
 BAR2 SZ I         839 27.09        21.1 0.40            172           22.9 196 
 BAR2 SZ ES        839 41.72                             171   -0.0410 22.9 196 
 BRR  HZ EP        839 28.78                             151    0.5210 73.8 298 
 BRR  HZ I         839 29.05         9.5 0.26            151           73.8 298 
 BRR  HN ES        839 45.34                             151    0.5610 73.8 298 
 RUS  HN ES        839 48.80                             144   -0.2110 99.4 177 
 PTB  HZ EP        839 33.87                             131   -0.29 9  150 259 
 PTB  HN ES        839 54.54                             131   -0.73 9  150 259 
 PTB  HZ I         839 56.97         8.7 0.14            131            150 259 
 OCA  HN ES        839 56.77                             129   -0.78 9  162 352 
 OCA  HE I         840  0.23        22.5 0.20            128            162 352 
 ZAR  HN ES        840  5.65                             122    0.46 8  207 292 
                                                                                
