 2011 12 2 0120 45.9 L   6.561 -73.491115.0  RSN  5 0.2 1.7LRSN                1
 GAP=104        0.48       2.5     2.8  4.0 -0.1693E+01  0.3259E+01  0.5228E+00E
 Epicentro: EL CARMEN DE CHUCURI - SANTANDER                                   3
 ACTION:UPD 12-07-13 16:13 OP:ep   STATUS:               ID:20111202012045 L   I
 2011-12-02-0120-00M.COL___170                                                 6
 STAT SP IPHASW D HRMM SECON CODA AMPLIT PERI AZIMU VELO AIN AR TRES W  DIS CAZ7
 BAR2 SZ EP        121  2.38                             162    0.1910 34.3  84 
 BAR2 SZ ES        121 14.77                             162   -0.1310 34.3  84 
 BAR2 SZ I         121 16.61        39.9 0.42                          34.3  84 
 BRR  HZ EP        121  3.31                             148   -0.1110 65.1 338 
 BRR  HZ I         121 16.02        10.0 0.14                          65.1 338 
 BRR  HE ES   1    121 17.35                             148    0.26 7 65.1 338 
 RUS  HZ EP        121  5.89                             141    0.2510 86.6 149 
 RUS  HE ES   1    121 20.89                             141   -0.15 7 86.6 149 
 RUS  HZ I         121 22.76         6.0 0.46                          86.6 149 
 PAM  SZ EP        121  8.49                             130   -0.2510  123  45 
 PAM  SE ES   1    121 26.63                             130    0.07 7  123  45 
 NOR  SZ EP   1    121 14.95                             117    0.07 7  188 234 
 NOR  SE ES   1    121 37.26                             117   -0.22 7  188 234 
                                                                                
