 2012 11 2 0356 20.9 L   7.342 -73.442101.3  RSN  7 0.3 1.8LRSN                1
 GAP= 92        0.72       3.5     3.2  5.6  0.3307E+00  0.9178E+00  0.8358E+00E
 Epicentro: SABANA DE TORRES - SANTANDER                                       3
 ACTION:UPD 12-12-05 15:30 OP:}ep  STATUS:               ID:20121102035620 L   I
 2012-11-02-0350-00M.COL___234                                                 6
 STAT SP IPHASW D HRMM SECON CODA AMPLIT PERI AZIMU VELO AIN AR TRES W  DIS CAZ7
 BRR  HZ IP     C  356 35.12                             157   -0.3810 39.6 229 
 BRR  HE ES        356 46.81                             157   -0.0610 39.6 229 
 BRR  HN I         356 48.10        14.1 0.16                          39.6 229 
 GIR2 SZ EP        356 35.58                             157   -0.1510 40.0 137 
 PAM  SZ EP   1    356 39.01                             138    0.01 7 82.0  90 
 PAM  SN ES   1    356 53.60                             138    0.48 7 82.0  90 
 PAM  SN I         356 55.26        14.6 0.18                          82.0  90 
 BAR2 SZ EP        356 38.90                             136   -0.2410 87.8 161 
 OCA  HZ EP        356 39.90                             131   -0.2110  100   8 
 OCA  HN ES   1    356 55.23                             131    0.14 7  100   8 
 OCA  HN I         356 55.99        53.0 0.54                           100   8 
 ZAR  HZ EP        356 45.73                             117    0.04 9  157 276 
 ZAR  HN ES   1    357  5.56                             117    0.55 7  157 276 
 ZAR  HN I         357  8.04        23.1 0.42                           157 276 
 RUS  HZ EP        356 47.65                             116    0.48 9  165 166 
 RUS  HN I         357  9.25         3.1 0.28                           165 166 
                                                                                
