 2014  4 2 0325 53.0 L   6.818 -73.150149.8  RSN 20 0.4 2.7LRSN                1
 GAP= 70        0.81       2.0     2.3  4.9 -0.7243E+00  0.2666E+01 -0.2447E+00E
 Epicentro: LOS SANTOS - SANTANDER                                             3
 ACTION:UPD 14-05-13 23:05 OP:nd   STATUS:               ID:20140402032553 L   I
 OLDACT:UP  14-04-02 16:25 OP:cam  STATUS:               ID:20140402031818     3
 OLDACT:UP  14-04-02 16:00 OP:cam  STATUS:               ID:20140402031818     3
 OLDACT:UP  14-04-02 15:59 OP:cam  STATUS:               ID:20140402031818     3
 OLDACT:REG 14-04-02 14:10 OP:cam  STATUS:               ID:20140402031818     3
 2014-04-02-0318-18M.COL___246                                                 6
 STAT SP IPHASW D HRMM SECON CODA AMPLIT PERI AZIMU VELO AIN AR TRES W  DIS CAZ7
 PAM  SZ EP     C  326 15.98                             152    0.4210 76.1  41 
 PAM  SN ES        326 33.45                             152    0.2810 76.1  41 
 PAM  SZ I         326 35.24        45.5 0.36            139           76.1  41 
 RUS  HZ EP     D  326 17.02                             144   -0.2610  103 176 
 RUS  HN ES        326 36.01                             144   -0.2210  103 176 
 RUS  HZ I         326 36.99        33.6 0.24            131            103 176 
 PTB  HZ EP        326 19.86                             133   -0.42 9  148 258 
 PTB  HN ES        326 40.98                             133   -0.59 9  148 258 
 PTB  HZ I         326 44.12        44.1 0.10            120            148 258 
 TAM  HZ IP     D  326 21.35                             131    0.28 9  156 106 
 TAM  HZ I         326 42.16        22.9 0.38            118            156 106 
 TAM  HN ES        326 43.17                             131    0.19 9  156 106 
 OCA  HZ EP        326 21.25                             131   -0.17 9  158 353 
 OCA  HE ES        326 43.74                             131    0.14 9  158 353 
 OCA  HZ I         326 48.32        38.5 0.42            118            158 353 
 SPBC HZ EP        326 21.99                             130    0.08 9  164 218 
 SPBC HN ES        326 44.32                             130   -0.16 9  164 218 
 SPBC HZ I         326 51.06        72.8 0.22            117            164 218 
 ZAR  HZ EP        326 25.95                             123    0.37 9  203 292 
 ZAR  HE ES        326 51.48                             123    0.48 9  203 292 
 ZAR  HZ I         326 59.08        28.2 0.10            112            203 292 
 NOR  HZ EP        326 29.28                             119    0.25 8  235 234 
 NOR  HE ES   1    326 56.61                             119   -0.55 6  235 234 
 NOR  HZ I         327  1.27        38.2 0.18            108            235 234 
 SML  HZ EP   1    326 29.23                             118   -0.39 6  242 335 
 SML  HE ES   1    326 58.00                             118   -0.20 6  242 335 
 SML  HZ I         327  1.11        58.3 0.26            108            242 335 
 CHI  HZ EP     D  326 31.17                             118    0.07 8  250 195 
 CHI  HN ES        327  0.59                             118   -0.25 8  250 195 
 CHI  HZ I         327  4.94        15.0 0.26            107            250 195 
 ROSC BZ EP   4    326 33.04                             117    1.55 0  254 211 
 ROSC BZ I         327  9.25        43.4 0.55            107            254 211 
 HEL  HZ EP   1    326 34.40                             115    0.99 6  272 255 
 HEL  HN ES        327  4.66                             115   -0.28 8  272 255 
 HEL  HZ I         327 11.46        17.6 0.32            106            272 255 
 URE  HZ EP   4    326 32.99                             114   -1.13 0  283 292 
 URE  HN I         327 15.84        51.0 0.28            105            283 292 
 GUY2CHZ EP   4    326 38.36                             113    1.49 0  302 234 
 GUY2CHN ES   2    327 12.25                             113    1.15 4  302 234 
 GUY2CHZ I         327 19.70        19.9 0.26                           302 234 
 PTGC HZ EP   4    326 35.96                             112   -1.29 0  311 159 
 PTGC HZ I         326 36.44        77.1 0.12            103            311 159 
 RREF HZ EP   4    326 40.99                             111    1.58 0  323 229 
 CBOC HZ EP   2    326 40.78                             110    0.69 3  334 252 
 CBOC HN ES   2    327 17.50                             110    0.67 3  334 252 
 COD  HZ EP   1    326 40.65                             110   -0.64 5  346 355 
 COD  HN ES        327 18.37                             110   -0.59 6  346 355 
 COD  HZ I         327 23.15         7.9 0.34            102            346 355 
 ANIL HZ EP   4    326 43.92                             109    0.85 0  358 224 
 ANIL HN ES   4    327 23.81                             109    1.67 0  358 224 
 ANIL HZ I         327 27.05        52.4 0.46            102            358 224 
 SDV  BZ EP   1    326 42.52                             109   -0.55 5  359  50 
 PRA  HZ EP   1    326 46.70                             107   -0.12 4  394 209 
 PRA  HN ES        327 29.37                             107    0.55 6  394 209 
 PRA  HZ I         327 34.82        29.3 0.30            100            394 209 
                                                                                
