 2011  3 2 0222 55.9 L   6.785 -73.113136.7  RSN 10 0.5 2.4LRSN                1
 GAP=138        0.83       3.5     6.5  7.0 -0.4180E+01  0.1239E+02  0.5436E+01E
 Epicentro: LOS SANTOS - SANTANDER                                             3
 ACTION:UP  11-06-16 14:31 OP:jfem STATUS:               ID:20110302022255 L   I
 2011-03-02-0220-46S.COL___136                                                 6
 STAT SP IPHASW D HRMM SECON CODA AMPLIT PERI AZIMU VELO SNR AR TRES W  DIS CAZ7
 BAR2 SZ IP        223 14.69                             170     0.310   23 200 
 BAR2 SZ ES   1    223 28.58                             170    -0.3 7   23 200 
 RUS  HZ EP        223 18.60                             142     0.010   99 178 
 RUS  HE ES   2    223 36.08                             142    -0.3 5   99 178 
 RUS  HZ I         223 38.63        61.3 0.33                            99 178 
 GRA  SZ IP        223 20.49                             135     0.110  126  16 
 GRA  SZ ES   1    223 39.12                             135    -0.4 7  126  16 
 GRA  SZ I         223 41.21        50.3 0.29                           126  16 
 OCA  SZ ES   2    223 45.30                             127    -0.1 5  162 352 
 OCA  SZ I         223 51.37        43.5 0.28                           162 352 
 YOP  SZ EP        223 25.13                             124     0.1 9  176 154 
 YOP  SN ES   2    223 48.58                             124     0.9 4  176 154 
 YOP  SZ I         223 53.10        15.1 0.29                           176 154 
 CHI  HZ EP        223 32.62                             115    -0.4 8  248 196 
 CHI  HZ I         223 35.38        19.8 0.43                           248 196 
 CHI  HN ES   2    224  2.64                             115     0.6 4  248 196 
 HEL  HZ EP   2    223 36.88                             112     0.9 4  275 256 
 HEL  HE ES   2    224  8.44                             112     1.2 4  275 256 
 HEL  HZ I         224 13.74        15.8 0.25                           275 256 
 DBB  SZ EP   2    223 43.40                             107     0.0 3  343 274 
 TOL  SZ EP        223 43.75                             107    -0.2 7  345 225 
 PRA  HZ EP   2    223 48.31                             105    -0.8 3  392 210 
 PRA  HE ES   1    224 29.69                             105    -1.0 4  392 210 
                                                                                
