 2015  5 2 0819 44.1 L   6.783 -73.155148.0  RSN  9 0.4 1.5LRSN                1
 GAP= 74        1.06       3.5     4.7  6.8  0.2005E+01 -0.4240E+00 -0.3977E+01E
 Epicentro: LOS SANTOS - SANTANDER                                             3
 ACTION:UPD 15-09-10 22:00 OP:cam  STATUS:               ID:20150502081944 L   I
 OLDACT:UP  15-05-02 18:33 OP:stll STATUS:               ID:20150502081749     3
 OLDACT:REG 15-05-02 13:18 OP:stll STATUS:               ID:20150502081749     3
 2015-05-02-0817-49M.COL___276                                                 6
 STAT SP IPHASW D HRMM SECON CODA AMPLIT PERI AZIMU VELO AIN AR TRES W  DIS CAZ7
 BAR2 EZ EP        820  3.88                             171   -0.0710 21.3 188 
 BAR2 EZ ES        820 19.03                             171   -0.4110 21.3 188 
 BAR2 EZ I         820 19.94         6.9 0.26            172           21.3 188 
 BRR  HZ EP        820  5.82                             153    0.3410 71.2 300 
 BRR  HZ I         820  6.22         6.1 0.12            152           71.2 300 
 BRR  HN ES        820 22.04                             153   -0.1310 71.2 300 
 PAM  SZ EP        820  6.74                             150    0.0710 79.5  39 
 PAM  SZ I         820  7.02         6.9 0.24            150           79.5  39 
 PAM  SN ES        820 24.05                             150   -0.2410 79.5  39 
 RUS  HZ EP        820  7.97                             145    0.0410 98.8 175 
 RUS  HN ES        820 26.56                             145    0.0310 98.8 175 
 RUS  HZ I         820 27.41         2.5 0.24            145           98.8 175 
 TAM  HZ EP        820 12.10                             131    0.10 9  156 104 
 SPBC HN ES        820 35.00                             130    0.24 9  161 219 
 OCA  HN ES        820 36.21                             130    1.12 9  162 354 
 ZAR  HN ES        820 42.14                             123    0.09 9  204 293 
 SML  HZ EP        820 20.33                             118   -0.65 8  245 336 
 SML  HN ES        820 48.97                             118   -0.79 8  245 336 
 SML  HZ I         820 53.77         3.4 0.32            117            245 336 
                                                                                
