 2013  6 2 0927  5.7 L   6.496 -73.586106.8  RSN  8 0.4 1.3LRSN                1
 GAP= 94        1.10       6.2     4.3  8.9 -0.7846E+01  0.7627E+01  0.2618E+02E
 Epicentro: SANTA HELENA DEL OPON - SANTANDER                                  3
 ACTION:UPD 14-01-08 09:51 OP:ep   STATUS:               ID:20130602092705 L   I
 2013-06-02-0922-52M.COL___216                                                 6
 STAT SP IPHASW D HRMM SECON CODA AMPLIT PERI AZIMU VELO AIN AR TRES W  DIS CAZ7
 BAR2 SZ IP     C  927 21.63                             155    0.0510 45.9  77 
 BAR2 SZ ES        927 33.95                             155   -0.0110 45.9  77 
 BAR2 SZ I         927 35.70        11.3 0.50            158           45.9  77 
 BRR  HZ EP        927 23.14                             144    0.4810 69.0 348 
 BRR  HN ES        927 36.74                             144    0.8710 69.0 348 
 BRR  HZ I         927 37.88         5.1 0.12            143           69.0 348 
 GIR2 SZ EP        927 23.48                             141   -0.0210 77.7  34 
 GIR2 SZ ES        927 36.62                             141   -0.7510 77.7  34 
 GIR2 SZ I         927 38.23         3.9 0.28            142           77.7  34 
 RUS  HZ EP        927 24.86                             138    0.1410 86.9 140 
 RUS  HN ES   4    927 38.40                             138   -1.14 0 86.9 140 
 RUS  HZ I         927 40.85         4.4 0.50            141           86.9 140 
 PTB  HZ IP     C  927 24.47                             134   -0.3910 96.3 273 
 PTB  HN ES        927 39.29                             134   -0.5010 96.3 273 
 PTB  HZ I         927 42.82         3.6 0.16            133           96.3 273 
 NOR  HZ EP        927 32.90                             116    0.05 9  176 234 
 NOR  HN ES        927 54.38                             116    0.37 9  176 234 
 NOR  HZ I         927 56.73         2.2 0.22            117            176 234 
 HEL  HZ EP        927 37.61                             111   -0.34 8  218 261 
 HEL  HN ES   2    928  3.28                             111    0.18 4  218 261 
 HEL  HZ I         928  6.71         1.1 0.20            111            218 261 
 SML  HZ EP   4    927 42.28                             106   -0.16 0  260 348 
 SML  HN ES   4    928 11.40                             106    0.31 0  260 348 
 SML  HZ I         928 17.36         2.8 0.36            107            260 348 
                                                                                
