 2010 12 2 0252 43.5 L   6.767 -73.098150.1  RSN  7 0.4 1.8LRSN                1
 GAP=164        1.03       4.5    12.9  8.6  0.4666E+00 -0.2725E+02 -0.3256E+01E
 Epicentro: LOS SANTOS - SANTANDER                                             3
 ACTION:UP  11-01-14 15:22 OP:pat  STATUS:               ID:20101202025243 L   I
 2010-12-02-0251-11S.COL___132                                                 6
 STAT SP IPHASW D HRMM SECON CODA AMPLIT PERI AZIMU VELO SNR AR TRES W  DIS CAZ7
 BAR2 SZ EP        253  3.56                             171    -0.110   22 206 
 BAR2 SZ ES   1    253 19.01                             171    -0.3 7   22 206 
 BAR2 SZ I         253 20.27        21.7 0.27                            22 206 
 GIR2 SZ EP   1    253  5.06                             166     1.2 7   36 343 
 BRR  HZ EP        253  5.45                             151     0.010   78 299 
 BRR  HZ I         253  6.91        13.7 0.08                            78 299 
 BRR  HN ES   1    253 22.77                             151     0.1 7   78 299 
 RUS  HZ EP        253  7.37                             146     0.010   97 179 
 RUS  HN ES   1    253 26.12                             146     0.1 7   97 179 
 RUS  HZ I         253 27.75         5.4 0.25                            97 179 
 GRA  SZ EP        253  9.14                             137    -0.210  128  15 
 OCA  SZ EP        253 12.22                             130    -0.3 9  165 351 
 OCA  SZ ES   2    253 34.90                             130    -0.3 5  165 351 
 OCA  SZ I         253 38.20         7.4 0.26                           165 351 
 CHI  HZ EP        253 21.48                             118     0.3 8  247 197 
 CHI  HE ES   1    253 50.06                             118    -0.6 6  247 197 
 CHI  HZ I         253 56.20         3.0 0.39                           247 197 
                                                                                
