 2012 11 2 0855 49.3 L   6.786 -73.114140.9  RSN 13 0.5 2.4LRSN                1
 GAP= 73        1.07       4.0     4.2  6.4 -0.4108E-01  0.7321E+01  0.1018E+02E
 Epicentro: LOS SANTOS - SANTANDER                                             3
 ACTION:UPD 12-12-05 15:30 OP:}ep  STATUS:               ID:20121102085549 L   I
 2012-11-02-0850-00M.COL___234                                                 6
 STAT SP IPHASW D HRMM SECON CODA AMPLIT PERI AZIMU VELO AIN AR TRES W  DIS CAZ7
 BAR2 SZ IP        856  8.25                             170   -0.0610 22.7 199 
 BAR2 SZ I         856  8.30        65.0 0.40                          22.7 199 
 BAR2 SZ ES   1    856 23.59                             170    0.44 7 22.7 199 
 GIR2 SZ EP        856  8.44                             166    0.0110 33.5 345 
 GIR2 SZ ES   1    856 23.00                             166   -0.38 7 33.5 345 
 BRR  HZ IP     C  856 10.27                             150    0.1410 75.0 298 
 BRR  HN ES   1    856 27.24                             150    0.86 7 75.0 298 
 BRR  HN I         856 31.07        72.7 0.18                          75.0 298 
 PAM  SZ IP     C  856 11.39                             150    0.4710 76.4  37 
 PAM  SN ES        856 27.65                             150   -0.1510 76.4  37 
 PAM  SN I         856 29.00        44.9 0.58                          76.4  37 
 RUS  HZ IP     C  856 12.05                             143   -0.3810 98.9 178 
 RUS  HN ES   2    856 29.97                             143   -0.51 5 98.9 178 
 RUS  HN I         856 32.02        31.2 0.30                          98.9 178 
 TAM  HZ IP     C  856 16.49                             130    0.27 9  151 105 
 TAM  HN ES   1    856 37.72                             130    0.48 7  151 105 
 TAM  HN I         856 38.43        46.9 0.34                           151 105 
 OCA  HZ EP   1    856 16.73                             128   -0.67 7  162 352 
 OCA  HN ES        856 38.44                             128   -0.90 9  162 352 
 ZAR  HZ EP   1    856 22.49                             121    0.68 6  208 292 
 ZAR  HN ES   2    856 46.96                             121   -0.22 4  208 292 
 ZAR  HN I         856 55.89        37.9 0.32                           208 292 
 CHI  HZ EP        856 26.19                             116   -0.46 8  248 196 
 CHI  HN ES   1    856 54.90                             116   -0.90 6  248 196 
 CHI  HN I         856 57.34        13.2 0.30                           248 196 
 ROSC BZ EP   1    856 27.92                             116    0.73 6  253 212 
 HEL  HZ EP        856 29.81                             113    0.23 8  275 256 
 HEL  HN ES        857  0.99                             113   -0.03 8  275 256 
 HEL  HN I         857 10.32        12.6 0.28                           275 256 
 RREF HZ EP        856 36.40                             110    0.99 7  323 230 
 PRA  HZ EP        856 41.90                             106   -0.78 6  392 210 
 PRA  HN ES   2    857 24.10                             106   -0.24 3  392 210 
 PRA  HN I         857 29.87         9.7 0.76                           392 210 
                                                                                
