 2016  6 2 0856 34.5 L   6.728 -73.180152.7  RSN  5 0.2 1.6LRSN                1
 GAP=179        0.56       2.7     3.8  4.5  0.2138E+01  0.1293E+01 -0.5120E+00E
 Epicentro: VILLANUEVA - SANTANDER                                             3
 ACTION:UPD 16-07-21 22:14 OP:rebc STATUS:               ID:20160602085634 L   I
 OLDACT:REG 16-06-02 15:05 OP:edw  STATUS:               ID:20160602084748     3
 2016-06-02-0847-48M.COL___301                                                 6
 STAT SP IPHASW D HRMM SECON CODA AMPLIT PERI AZIMU VELO AIN AR TRES W  DIS CAZ7
 BAR2 EZ EP        856 54.54                             174   -0.2610 15.1 181 
 BAR2 EZ ES        857 10.36                             174   -0.3010 15.1 181 
 BAR2 EZ I         857 11.30         8.3 0.46                          15.1 181 
 BRR  HZ EP        856 56.67                             153    0.2410 72.2 305 
 BRR  HN ES        857 13.69                             153    0.1410 72.2 305 
 BRR  HZ I         857 16.94         4.4 0.14                          72.2 305 
 RUS  HZ EP        856 58.49                             147    0.0910 93.0 173 
 RUS  HE ES        857 17.30                             147    0.2410 93.0 173 
 RUS  HZ I         857 18.85         4.0 0.32                          93.0 173 
 PTB  HZ EP        857  1.36                             135   -0.21 9  143 262 
 PTB  HN ES        857 22.70                             135   -0.01 9  143 262 
 PTB  HZ I         857 30.08         4.8 0.36                           143 262 
 OCA  HN ES        857 27.12                             130    0.05 9  168 355 
 OCA  HZ I         857 28.66        10.2 0.18                           168 355 
                                                                                
