 2011  1 2 0709 32.0 L   6.820 -73.125142.0  RSN  6 0.3 1.6LRSN                1
 GAP=185        0.74       3.6     7.7 11.4 -0.4644E+01  0.3413E+02 -0.7039E+01E
 Epicentro: LOS SANTOS - SANTANDER                                             3
 ACTION:DUP 11-02-08 08:37 OP:pat  STATUS:               ID:20110102070933dL   I
 2011-01-02-0700-00M.COL___137                                                 6
 STAT SP IPHASW D HRMM SECON CODA AMPLIT PERI AZIMU VELO SNR AR TRES W  DIS CAZ7
 BAR2 SZ EP        7 9 51.59                             169     0.310   26 194 
 BAR2 SZ I         710  7.36         9.2 0.13                            26 194 
 RUS  HZ EP   1    7 9 55.69                             142     0.1 7  103 177 
 RUS  HN ES   1    710 13.51                             142    -0.4 7  103 177 
 RUS  HZ I         710 15.20         3.4 0.28                           103 177 
 OCA  SZ EP        7 9 59.46                             129    -0.4 9  158 352 
 OCA  SZ ES   1    710 21.85                             129     0.3 7  158 352 
 OCA  SZ I         710 24.90         8.4 0.21                           158 352 
 CHI  HZ I         710 39.22         3.6 0.86                           251 196 
 CHI  HN ES   2    710 39.72                             116     0.4 4  251 196 
 HEL  HN ES   1    710 43.76                             114    -0.1 6  275 255 
 HEL  HZ I         710 49.45         2.6 0.44                           275 255 
 PRA  HZ EP   1    710 25.93                             106     0.1 4  395 210 
 PRA  HN ES   2    711  7.37                             106    -0.3 3  395 210 
                                                                                
