 2014  3 2 0012 28.9 L   6.786 -73.225134.8  RSN  5 0.5 1.4LRSN                1
 GAP=171        1.34       5.9     8.3 10.7  0.1040E+02  0.8449E+01 -0.1881E+01E
 Epicentro: ZAPATOCA - SANTANDER                                               3
 ACTION:UPD 14-04-09 23:13 OP:nd   STATUS:               ID:20140302001228 L   I
 OLDACT:REG 14-03-02 08:03 OP:stll STATUS:               ID:20140302000820     3
 2014-03-02-0008-20M.COL___235                                                 6
 STAT SP IPHASW D HRMM SECON CODA AMPLIT PERI AZIMU VELO AIN AR TRES W  DIS CAZ7
 BAR2 SZ EP        012 47.14                             170    0.0010 22.0 167 
 BAR2 SZ ES        013  1.10                             170   -0.3010 22.0 167 
 BAR2 SZ I         013  2.51         6.9 0.36            171           22.0 167 
 BRR  HZ EP        012 48.90                             153    0.4710 64.4 303 
 BRR  HZ I         012 50.94         5.1 0.32            153           64.4 303 
 BRR  HN ES        013  4.71                             153    1.0010 64.4 303 
 RUS  HZ EP        012 51.73                             142    0.2310  100 171 
 RUS  HN ES        013  8.97                             142   -0.2010  100 171 
 PTB  HZ EP        012 54.18                             131    0.06 9  139 259 
 PTB  HE ES        013 13.09                             131   -0.73 9  139 259 
 OCA  HE ES        013 17.17                             127   -0.72 9  161 356 
                                                                                
