 2012  2 2 0841 52.5 L   6.700 -73.237149.7  RSN  4 0.4 1.5LRSN                1
 GAP=203        0.74      12.4     8.1 14.8  0.3607E+01 -0.3814E+02  0.1006E+03E
 ACTION:UP  12-03-07 16:26 OP:epov STATUS:               ID:20120202084152 L   I
 2012-02-02-0840-00M.COL___187                                                 6
 STAT SP IPHASW D HRMM SECON CODA AMPLIT PERI AZIMU VELO SNR AR TRES W  DIS CAZ7
 BAR2 SZ EP   1    842 11.73                             175   -0.67 7 13.4 153 
 BAR2 SZ I         842 12.34         4.6 0.10                          13.4 153 
 BRR  HZ EP   1    842 13.95                             154    0.03 7 69.1 311 
 BRR  HZ I         842 15.96         7.5 0.09                          69.1 311 
 BRR  HE ES   1    842 30.93                             154    0.28 7 69.1 311 
 RUS  HZ EP   1    842 16.37                             147    0.43 7 90.9 169 
 PTB  HZ EP   1    842 18.87                             135    0.15 7  136 263 
 PTB  HN ES   1    842 38.97                             135   -0.23 7  136 263 
                                                                                
