 2016 11 2 0818 38.5 L   6.760 -73.147144.0  RSN  6 0.4 1.3LRSN                1
 GAP=138        1.03       5.2     4.6  7.5  0.2010E+01  0.6856E+01  0.3234E+00E
 Epicentro: LOS SANTOS - SANTANDER                                             3
 ACTION:UPD 17-10-26 21:03 OP:lp   STATUS:               ID:20161102081745 L   I
 OLDACT:UPD 16-11-02 13:22 OP:dnl  STATUS:               ID:20161102081745 L   3
 2016-11-02-0818-00M.COL___334                                                 6
 STAT SP IPHASW D HRMM SECON CODA AMPLIT PERI AZIMU VELO AIN AR TRES W  DIS CAZ7
 BAR2 EZ EP        818 57.73                             172   -0.1610 18.9 192 
 BAR2 EZ ES        819 12.82                             172   -0.1610 18.9 192 
 BAR2 EZ I         819 13.90         6.5 0.46            172           18.9 192 
 BRR  HZ EP        818 59.69                             151    0.0610 73.3 302 
 BRR  HE ES        819 16.85                             151    0.7710 73.3 302 
 BRR  HZ I         819 20.19         4.1 0.30            150           73.3 302 
 PAM  EZ EP        819  0.76                             149   -0.0410 81.0  38 
 PAM  EN ES        819 17.76                             149   -0.4010 81.0  38 
 PAM  EZ I         819 18.51         3.5 0.20            152           81.0  38 
 RUS  HZ EP        819  2.30                             145    0.4910 96.1 176 
 RUS  HN ES        819 20.06                             145    0.1010 96.1 176 
 RUS  HZ I         819 20.95         1.2 0.24            147           96.1 176 
 PTB  HZ EP        819  5.08                             132   -0.21 9  147 261 
 PTB  HN ES        819 25.40                             132   -0.74 9  147 261 
 PTB  HZ I         819 27.91         2.5 0.32            132            147 261 
 ZAR  HN ES        819 36.61                             122    0.22 8  206 293 
 ZAR  HZ I         819 40.02         2.2 0.26            122            206 293 
                                                                                
