 2014  3 2 0546 30.3 L   6.804 -73.163140.3  RSN 11 0.4 1.8LRSN                1
 GAP=134        1.02       3.0     4.0  5.9 -0.1787E+01  0.9811E+01 -0.8975E+00E
 Epicentro: LOS SANTOS - SANTANDER                                             3
 OLDACT:DUP 14-03-02 12:14 OP:stll STATUS:               ID:20140302053813d    3
 ACTION:UPD 14-04-09 23:13 OP:nd   STATUS:               ID:20140302054630 L   I
 OLDACT:UP  14-03-02 12:28 OP:stll STATUS:               ID:20140302053813d    3
 2014-03-02-0538-11M.COL___229                                                 6
 STAT SP IPHASW D HRMM SECON CODA AMPLIT PERI AZIMU VELO AIN AR TRES W  DIS CAZ7
 BAR2 SZ EP        546 49.45                             170    0.1910 23.6 185 
 BAR2 SZ ES        547  3.42                             170   -0.6410 23.6 185 
 BAR2 SZ I         547  6.12        24.5 0.26            167           23.6 185 
 PAM  SZ EP        546 52.17                             149    0.2010 78.2  41 
 PAM  SN ES        547  9.59                             149    0.7110 78.2  41 
 PAM  SZ I         547 11.19         7.7 0.62            149           78.2  41 
 RUS  HZ EP        546 53.38                             142   -0.1710  101 175 
 RUS  HN ES        547 11.68                             142   -0.0110  101 175 
 RUS  SZ I         547 14.53         5.6 0.32            139            101 175 
 PTB  HZ EP        546 56.34                             131   -0.31 9  146 259 
 PTB  HE ES        547 17.38                             131    0.17 9  146 259 
 PTB  SZ I         547 19.82         7.4 0.12            126            146 259 
 SPBC HZ EP        546 58.29                             128   -0.00 9  162 218 
 SPBC HE ES        547 20.14                             128    0.00 9  162 218 
 SPBC SZ I         547 23.69         9.5 0.22            123            162 218 
 ZAR  HZ EP        547  2.04                             121   -0.14 9  202 292 
 ZAR  HN ES        547 26.87                             121   -0.19 9  202 292 
 ZAR  SZ I         547 33.62         9.9 0.24            117            202 292 
 NOR  HZ EP        547  5.39                             117   -0.18 8  233 234 
 NOR  HE ES        547 33.82                             117    0.73 8  233 234 
 NOR  SZ I         547 40.82         4.5 0.18            113            233 234 
 SML  HZ EP        547  5.70                             116   -0.78 8  242 336 
 SML  HN ES        547 34.47                             116   -0.24 8  242 336 
 SML  SZ I         547 37.35         9.5 0.10            113            242 336 
 CHI  HZ EP        547  7.61                             116   -0.07 8  249 195 
 CHI  HN ES        547 36.36                             116   -0.49 8  249 195 
 CHI  SZ I         547 44.25         5.6 0.90            113            249 195 
 HEL  HZ EP        547 11.12                             114    1.08 8  270 256 
 HEL  SZ I         547 48.15         2.9 0.30            110            270 256 
 GUY2CHZ EP        547 13.95                             111    0.45 7  300 234 
 GUY2CHE ES        547 46.96                             111   -0.25 7  300 234 
 GUY2CSZ I         547 55.92         3.3 0.76                           300 234 
                                                                                
