 2015 10 2 0659  3.5 L   6.820 -73.160141.5  RSN 11 0.4 1.6LRSN                1
 GAP=134        0.86       3.0     3.9  5.9 -0.3883E+01  0.1092E+02 -0.2080E+01E
 Epicentro: LOS SANTOS - SANTANDER                                             3
 ACTION:UPD 15-12-22 20:36 OP:cam  STATUS:               ID:20151002065904dL   I
 OLDACT:REG 15-10-02 13:17 OP:ar   STATUS:               ID:20151002065744     3
 2015-10-02-0657-44M.COL___351                                                 6
 STAT SP IPHASW D HRMM SECON CODA AMPLIT PERI AZIMU VELO AIN AR TRES W  DIS CAZ7
 BAR2 EZ ES        659 38.02                             169    0.4010 25.3 186 
 BAR2 EZ I         659 40.90         5.0 0.28            170           25.3 186 
 BRR  HZ EP   4    659 26.42                             153    2.35 0 68.8 298 
 BRR  HN ES   4    659 41.52                             153    1.42 0 68.8 298 
 BRR  HZ I         659 46.63         6.9 0.14            150           68.8 298 
 PAM  EZ EP        659 25.41                             150    0.1710 76.7  41 
 PAM  EN ES        659 42.37                             150    0.1810 76.7  41 
 PAM  EZ I         659 44.55         4.0 0.56            155           76.7  41 
 RUS  HZ EP        659 26.96                             142   -0.0610  103 175 
 RUS  HN ES        659 45.08                             142   -0.2710  103 175 
 RUS  HZ I         659 45.60         3.4 0.22            148            103 175 
 PTB  HZ EP        659 30.37                             131    0.33 9  147 258 
 PTB  HN ES        659 50.96                             131    0.23 9  147 258 
 PTB  HZ I         659 53.34         5.7 0.16            133            147 258 
 OCA  HZ EP   2    659 30.33                             129   -0.95 5  158 354 
 OCA  HN ES        659 52.43                             129   -0.50 9  158 354 
 OCA  HZ I         659 55.97        13.5 0.34            132            158 354 
 SPBC HZ EP        659 31.91                             128    0.15 9  164 218 
 SPBC HN ES        659 53.26                             128   -0.53 9  164 218 
 SPBC HZ I         659 59.50         5.0 0.22            131            164 218 
 ZAR  HZ EP   2    659 36.00                             122    0.54 4  202 292 
 ZAR  HN ES   2    7 0  1.21                             122    0.84 4  202 292 
 ZAR  HZ I         7 0  7.23         5.4 0.28            124            202 292 
 SML  HZ EP   2    659 39.36                             117   -0.26 4  241 335 
 SML  HN ES   2    7 0  7.37                             117   -0.42 4  241 335 
 SML  HZ I         7 0 10.77         6.5 0.10            120            241 335 
 HEL  HZ EP        659 43.98                             114    0.57 8  271 255 
 HEL  HN ES        7 0 13.75                             114   -0.78 8  271 255 
 HEL  HZ I         7 0 20.78         1.6 0.26            117            271 255 
 GUY2CHZ EP   2    659 46.74                             111   -0.19 4  301 234 
 GUY2CHN ES        7 0 20.87                             111    0.08 7  301 234 
 GUY2CHZ I         7 0 27.80         1.3 0.26                           301 234 
                                                                                
