 2012 10 2 0313 26.8 L   6.826 -73.096142.8  RSN 10 0.4 2.1LRSN                1
 GAP=142        0.55       3.5     4.2  7.3 -0.1625E+01  0.9777E+01  0.9614E+01E
 Epicentro: LOS SANTOS - SANTANDER                                             3
 ACTION:UPD 12-11-22 17:01 OP:ep   STATUS:               ID:20121002031326 L   I
 2012-10-02-0310-00M.COL___223                                                 6
 STAT SP IPHASW D HRMM SECON CODA AMPLIT PERI AZIMU VELO AIN AR TRES W  DIS CAZ7
 BAR2 SZ EP   1    313 45.99                             169   -0.18 7 27.5 200 
 BAR2 SZ I         313 46.53        45.0 0.13                          27.5 200 
 GIR2 SZ EP   1    313 46.01                             168   -0.08 7 30.0 339 
 PAM  SZ EP   1    313 48.51                             152    0.14 7 71.8  38 
 PAM  SN ES   2    314  5.70                             152    0.50 5 71.8  38 
 PAM  SZ I         314  6.45        16.1 0.16                          71.8  38 
 BRR  HZ EP        313 47.81                             151   -0.0310 74.8 295 
 BRR  HZ I         313 48.29        34.8 0.10                          74.8 295 
 BRR  HE ES   2    314  4.68                             151    0.43 5 74.8 295 
 RUS  HZ EP   1    313 50.06                             142   -0.40 7  103 179 
 RUS  HN ES   2    314  8.50                             142   -0.40 5  103 179 
 ZAR  HN ES   2    314 24.61                             121   -0.35 4  208 291 
 NOR  SN ES   2    314 30.59                             117   -0.68 4  241 235 
 CHI  HN ES   2    314 35.19                             116    0.76 4  253 196 
 HEL  HZ EP   1    314  7.68                             114    0.15 6  278 256 
 HEL  HN ES   2    314 39.30                             114    0.00 4  278 256 
 HEL  HZ I         314 44.39         6.5 0.29                           278 256 
 PRA  HZ EP   1    314 20.98                             106    0.15 4  397 210 
 PRA  HE ES        315  3.48                             106    0.51 6  397 210 
                                                                                
