 2015  5 2 0905 24.4 L   6.722 -73.248142.9  RSN  4 0.4 1.3LRSN                1
 GAP=204        1.05      11.3    12.7  8.3  0.1211E+03  0.2440E+02  0.7843E+01E
 Epicentro: VILLANUEVA - SANTANDER                                             3
 ACTION:UPD 15-09-10 22:00 OP:cam  STATUS:               ID:20150502090524 L   I
 OLDACT:REG 15-05-02 13:19 OP:stll STATUS:               ID:20150502085743     3
 2015-05-02-0857-43M.COL___273                                                 6
 STAT SP IPHASW D HRMM SECON CODA AMPLIT PERI AZIMU VELO AIN AR TRES W  DIS CAZ7
 BAR2 EZ EP        9 5 43.22                             173   -0.3210 16.1 153 
 BAR2 EZ ES        9 5 58.31                             173   -0.1710 16.1 153 
 BRR  HZ EP        9 5 44.72                             154   -0.2510 66.7 310 
 BRR  HN ES        9 6  1.54                             154    0.5210 66.7 310 
 BRR  HZ I         9 6  5.54         3.5 0.18            150           66.7 310 
 RUS  HZ EP        9 5 47.30                             145   -0.0510 93.5 169 
 RUS  HN ES        9 6  5.46                             145    0.1910 93.5 169 
 RUS  HZ I         9 6  7.39         2.4 0.16            145           93.5 169 
 ZAR  HZ EP        9 5 56.71                             123    0.77 9  197 296 
 ZAR  HE ES        9 6 19.91                             123   -0.64 9  197 296 
 ZAR  HZ I         9 6 26.47         2.2 0.12            122            197 296 
                                                                                
