 2013  1 2 0811 43.6 L   6.858 -73.042143.1  RSN  8 0.3 2.4LRSN                1
 GAP=194        0.66       2.4     4.6  4.3  0.3220E+01  0.1538E+01  0.5303E+00E
 Epicentro: LOS SANTOS - SANTANDER                                             3
 ACTION:UPD 13-02-15 09:11 OP:ep   STATUS:               ID:20130102081143 L   I
 2013-01-02-0810-00M.COL___242                                                 6
 STAT SP IPHASW D HRMM SECON CODA AMPLIT PERI AZIMU VELO AIN AR TRES W  DIS CAZ7
 BAR2 SZ IP        812  3.36                             166    0.2210 33.2 208 
 BAR2 SZ ES        812 18.36                             166   -0.0310 33.2 208 
 BAR2 SZ I         812 19.71        35.0 0.40            164           33.2 208 
 BRR  HZ IP        812  4.98                             149    0.0710 79.0 290 
 BRR  HN ES        812 21.61                             149    0.0710 79.0 290 
 BRR  HN I         812 25.58        77.0 0.24            148           79.0 290 
 RUS  HZ EP        812  7.52                             141   -0.0210  107 182 
 RUS  HZ I         812  8.65        10.6 0.18            142            107 182 
 RUS  HN ES        812 26.39                             141    0.1610  107 182 
 OCA  HZ EP        812 11.06                             130   -0.20 9  156 349 
 OCA  HN ES        812 32.76                             130   -0.09 9  156 349 
 PTB  HZ EP   4    812  9.92                             129   -1.58 0  160 257 
 PTB  HN ES   4    812 31.01                             129   -2.27 0  160 257 
 PTB  HN I         812 36.51        68.3 0.50            128            160 257 
 ZAR  HE ES        812 42.31                             121   -0.29 8  213 289 
 CHI  HZ EP        812 21.90                             116   -0.26 8  258 197 
 CHI  HN ES        812 51.79                             116   -0.46 8  258 197 
 CHI  HN I         812 54.21        27.2 0.32            116            258 197 
 HEL  HZ EP        812 25.84                             113    0.76 7  285 255 
                                                                                
