 2014  6 2 0253 14.5 L   7.279 -72.979160.0  RSN 11 0.5 2.1LRSN                1
 GAP= 84        1.25       4.1     4.3  7.4  0.3622E+01 -0.2543E+01 -0.3787E+01E
 Epicentro: CHARTA - SANTANDER                                                 3
 ACTION:UPD 14-07-01 22:49 OP:nd   STATUS:               ID:20140602025314 L   I
 OLDACT:UP  14-06-04 04:24 OP:CAM  STATUS:               ID:20140602025314 L   3
 OLDACT:DUP 14-06-02 17:33 OP:stll STATUS:               ID:20140602024815d    3
 2014-06-02-0248-13M.COL___256                                                 6
 STAT SP IPHASW D HRMM SECON CODA AMPLIT PERI AZIMU VELO AIN AR TRES W  DIS CAZ7
 BAR2 SZ EP        253 38.20                             152    0.1710 79.2 196 
 BAR2 SZ ES        253 55.82                             152   -0.5310 79.2 196 
 BAR2 SZ I         253 57.43        38.9 0.30            142           79.2 196 
 BRR  HZ EP        253 38.40                             151    0.4910 83.1 257 
 BRR  HN ES        253 56.65                             151    0.5110 83.1 257 
 BRR  HZ I         254  1.25        19.3 0.30            139           83.1 257 
 OCA  HZ EP        253 40.53                             143    0.4410  113 341 
 OCA  HN ES        254  0.63                             143    0.6210  113 341 
 OCA  HZ I         254  2.92        28.0 0.26            136            113 341 
 RUS  HZ EP        253 44.08                             134    0.20 9  154 184 
 RUS  HZ I         253 44.71         7.2 0.18            125            154 184 
 RUS  HN ES        254  6.46                             134   -0.31 9  154 184 
 TAM  HZ EP        253 44.15                             132    0.23 9  161 125 
 TAM  HZ I         253 44.36        19.1 0.14            128            161 125 
 TAM  HN ES        254  6.69                             132   -0.14 9  161 125 
 PTB  HZ EP        253 45.74                             129   -0.14 9  183 243 
 PTB  HN ES        254 10.03                             129   -0.29 9  183 243 
 PTB  HZ I         254 12.39        15.7 0.40            119            183 243 
 SML  HZ EP        253 47.85                             125   -0.38 8  207 324 
 SML  HN ES        254 13.19                             125   -1.31 8  207 324 
 SML  HZ I         254 15.01        16.9 0.10            117            207 324 
 ZAR  HZ EP        253 48.13                             125   -0.30 8  209 277 
 ZAR  HN ES        254 15.04                             125    0.18 8  209 277 
 ZAR  HZ I         254 19.03        11.1 0.38            116            209 277 
 SOCV BZ EP        253 53.11                             119   -0.58 8  259  64 
 SOCV BN ES   4    254 22.00                             119   -2.23 0  259  64 
 HEL  HZ EP        254  0.55                             114    1.25 7  307 247 
 HEL  HZ I         254 43.19         3.1 0.36            107            307 247 
 GUY2CHZ EP   1    254  3.80                             111   -0.33 5  348 229 
 GUY2CHE ES   1    254 41.97                             111   -0.84 5  348 229 
 GUY2CHZ I         254 52.83         3.4 0.42                           348 229 
                                                                                
