 2016  8 2 0031  8.1 L   6.777 -73.096146.5  RSN  9 0.4 1.7LRSN                1
 GAP=124        0.85       3.0     3.5  4.8  0.8424E+00  0.3777E+01  0.4626E+01E
 Epicentro: LOS SANTOS - SANTANDER                                             3
 ACTION:UPD 16-10-29 15:31 OP:rebc STATUS:               ID:20160802003108 L   I
 OLDACT:DUP 16-08-02 13:41 OP:edw  STATUS:               ID:20160802002736d    3
 2016-08-02-0028-00M.COL___362                                                 6
 STAT SP IPHASW D HRMM SECON CODA AMPLIT PERI AZIMU VELO AIN AR TRES W  DIS CAZ7
 BAR2 EZ EP        031 27.65                             171   -0.1410 22.5 205 
 BAR2 EZ ES        031 43.21                             171    0.0410 22.5 205 
 PAM  EZ EP        031 30.58                             151    0.2710 76.1  35 
 PAM  EN ES        031 47.78                             151    0.1410 76.1  35 
 PAM  EZ I         031 50.00        10.4 0.72                          76.1  35 
 BRR  HZ EP        031 29.36                             151   -0.3110 77.3 298 
 BRR  HN ES        031 46.64                             151    0.1310 77.3 298 
 RUS  HZ EP        031 32.09                             145    0.3810 97.8 179 
 RUS  HN ES        031 50.15                             145    0.0110 97.8 179 
 RUS  HZ I         031 51.16         4.4 0.28                          97.8 179 
 SPBC HZ EP        031 36.86                             129    0.07 9  165 221 
 SPBC HN ES        031 58.92                             129   -0.26 9  165 221 
 SPBC HZ I         032  1.50         6.7 0.28                           165 221 
 ZAR  HZ EP        031 41.43                             122    0.22 8  210 292 
 ZAR  HN ES        032  6.19                             122   -0.86 8  210 292 
 ZAR  HZ I         032  7.94         4.5 0.22                           210 292 
 GUY2CHZ EP        031 52.50                             112    0.42 7  304 236 
 GUY2CHN ES        032 27.06                             112    0.67 7  304 236 
 GUY2CHZ I         032 35.86         2.2 0.48                           304 236 
 PTGC HZ EP        031 50.85                             112   -0.63 7  304 159 
 PTGC HN ES        032 24.74                             112   -0.59 7  304 159 
 PRA  HZ EP        032  1.83                             107    0.14 6  393 210 
 PRA  HN ES        032 43.84                             107    0.33 6  393 210 
 PRA  HZ I         032 44.93         1.9 0.24                           393 210 
                                                                                
