 2013  6 2 0507 27.4 L   6.813 -73.156150.0  RSN  8 0.4 1.6LRSN                1
 GAP=182        1.09       3.8     6.1  8.4 -0.5756E+00  0.2617E+01 -0.1677E+01E
 Epicentro: LOS SANTOS - SANTANDER                                             3
 ACTION:UPD 14-01-08 09:51 OP:ep   STATUS:               ID:20130602050727 L   I
 2013-06-02-0500-50M.COL___220                                                 6
 STAT SP IPHASW D HRMM SECON CODA AMPLIT PERI AZIMU VELO AIN AR TRES W  DIS CAZ7
 BAR2 SZ EP        5 7 47.24                             170   -0.2910 24.6 187 
 BAR2 SZ I         5 8  3.70        11.3 0.24            169           24.6 187 
 GIR2 SZ EP        5 7 47.57                             168    0.0710 29.7 352 
 GIR2 SZ I         5 8 10.75         6.9 0.38            165           29.7 352 
 BRR  HZ IP     C  5 7 49.24                             154    0.3610 69.5 298 
 BRR  HN ES        5 8  6.52                             154    0.8610 69.5 298 
 BRR  HZ I         5 8  9.64         6.4 0.44            157           69.5 298 
 RUS  HZ EP        5 7 51.74                             144    0.1010  102 175 
 RUS  HN ES        5 8 10.30                             144   -0.2810  102 175 
 RUS  HZ I         5 8 11.26         5.0 0.28            142            102 175 
 PTB  HZ EP        5 7 54.18                             133   -0.43 9  147 258 
 PTB  HN ES        5 8 15.24                             133   -0.62 9  147 258 
 PTB  HZ I         5 8 17.20         5.7 0.40            135            147 258 
 OCA  HN ES        5 8 17.83                             131   -0.26 9  159 353 
 NOR  HZ EP        5 8  3.67                             119    0.33 8  235 234 
 NOR  HN ES        5 8 31.67                             119    0.28 8  235 234 
 NOR  HZ I         5 8 40.77         1.9 0.18            119            235 234 
 SML  HZ EP        5 8  4.51                             119    0.47 8  242 335 
 SML  HN ES        5 8 32.03                             119   -0.61 8  242 335 
 SML  HZ I         5 8 38.92         4.4 0.10            117            242 335 
                                                                                
