 2014  5 2 0932 58.0 L   7.094 -73.522 92.0  RSN 10 0.5 1.9LRSN                1
 GAP= 87        1.10       3.1     3.6 11.6 -0.2376E+01  0.1783E+02  0.2862E+01E
 Epicentro: SAN VICENTE DE CHUCURI - SANTANDER                                 3
 OLDACT:REG 14-05-02 13:35 OP:fm   STATUS:               ID:20140502092806     3
 ACTION:UPD 15-03-16 16:54 OP:nd   STATUS:               ID:20140502093258 L   I
 OLDACT:UP  14-05-02 15:49 OP:fm   STATUS:               ID:20140502092806     3
 2014-05-02-0928-06M.COL___227                                                 6
 STAT SP IPHASW D HRMM SECON CODA AMPLIT PERI AZIMU VELO AIN AR TRES W  DIS CAZ7
 PAM  SZ EP        933 16.97                             131    0.5310 94.8  73 
 PAM  SN ES        933 31.19                             131    0.3910 94.8  73 
 PAM  SZ I         933 33.88        14.0 0.22             47           94.8  73 
 PTB  HZ EP        933 17.79                             124   -0.5210  120 239 
 PTB  HN ES        933 33.73                             124   -0.4010  120 239 
 PTB  SZ I         933 36.37         7.8 0.28             47            120 239 
 OCA  HZ EP        933 18.96                             122   -0.4210  129  10 
 OCA  HN ES        933 36.00                             122   -0.0210  129  10 
 OCA  SZ I         933 36.78        19.9 0.16             47            129  10 
 RUS  HZ EP        933 20.63                             119   -0.55 9  141 160 
 RUS  HN ES        933 38.91                             119   -0.32 9  141 160 
 SPBC HZ EP        933 23.68                             114   -0.22 9  171 201 
 SPBC HN ES        933 44.58                             114    0.50 9  171 201 
 SPBC SZ I         933 49.66         8.5 0.20             47            171 201 
 SML  HZ EP   4    933 25.83                             111   -1.12 0  198 342 
 SML  HE ES   4    933 51.29                             111    1.78 0  198 342 
 SML  SZ I         933 56.06        23.1 0.08             37            198 342 
 URE  HZ EP   1    933 30.55                             107   -0.56 6  234 288 
 URE  HE ES        933 57.26                             107    0.35 8  234 288 
 URE  SZ I         933 58.19         6.9 0.34             37            234 288 
 HEL  HZ EP   4    933 33.88                             107    1.18 0  243 246 
 HEL  HN ES   1    934  0.58                             107    0.84 6  243 246 
 HEL  SZ I         934 16.88         4.5 1.76             37            243 246 
 GUY2CHZ EP   1    933 39.33                             104    0.88 5  290 225 
 GUY2CHN ES   4    934 11.58                             104    1.60 0  290 225 
 GUY2CSZ I         934 18.66         7.9 0.60                           290 225 
 RREF HZ EP   4    933 42.82                             102    1.13 0  316 220 
 RREF HN ES        934 16.38                             102    0.65 7  316 220 
 RREF SZ I         934 23.11         7.1 0.58             36            316 220 
                                                                                
