 2016  8 2 0349 52.3 L   6.817 -73.139152.6  RSN 21 0.5 2.5LRSN                1
 GAP= 53        1.18       2.8     2.9  5.0 -0.1771E+01  0.2744E+01 -0.6691E-01E
 Epicentro: LOS SANTOS - SANTANDER                                             3
 ACTION:UPD 16-10-29 15:31 OP:rebc STATUS:               ID:20160802034736 L   I
 OLDACT:UP  16-08-02 15:56 OP:edw  STATUS:               ID:20160802034736 L   3
 OLDACT:UPD 16-08-02 15:21 OP:CARA STATUS:               ID:20160802034736 L   3
 2016-08-02-0348-00M.COL___356                                                 6
 STAT SP IPHASW D HRMM SECON CODA AMPLIT PERI AZIMU VELO AIN AR TRES W  DIS CAZ7
 BAR2 EZ EP        350 12.96                             170    0.1310 25.3 191 
 BAR2 EZ ES        350 28.68                             170   -0.1310 25.3 191 
 BAR2 EZ I         350 29.47       107.5 0.28                          25.3 191 
 BRR  HZ IP     C  350 14.69                             154    0.4810 71.0 297 
 BRR  HN ES        350 31.69                             154    0.4110 71.0 297 
 BRR  HZ I         350 35.74        50.1 0.28                          71.0 297 
 PAM  EZ EP        350 15.69                             153    0.5210 75.5  40 
 PAM  EE ES        350 32.78                             153   -0.2010 75.5  40 
 PAM  EZ I         350 35.08        32.2 0.52                          75.5  40 
 RUS  HZ EP        350 16.89                             145   -0.0010  102 177 
 RUS  HN ES        350 35.48                             145   -0.5610  102 177 
 RUS  HZ I         350 36.95        27.3 0.26                           102 177 
 TAM  HZ EP        350 21.27                             132    0.73 9  155 106 
 TAM  HN ES        350 43.52                             132    0.98 9  155 106 
 SPBC HZ EP        350 21.83                             130    0.29 9  165 219 
 SPBC HN ES        350 44.18                             130   -0.15 9  165 219 
 SPBC HZ I         350 48.73        52.9 0.22                           165 219 
 ZAR  HZ EP        350 24.86                             124   -0.37 9  204 292 
 ZAR  HN ES        350 50.47                             124   -0.42 9  204 292 
 ZAR  HZ I         350 56.25        33.8 0.46                           204 292 
 NOR  HZ EP        350 29.19                             120    0.54 8  236 234 
 NOR  HE ES        350 56.60                             120   -0.37 8  236 234 
 NOR  HZ I         351  4.69        19.2 0.14                           236 234 
 ROSC BZ EP        350 31.04                             118   -0.01 8  255 211 
 ROSC BN ES        351  1.31                             118    0.06 8  255 211 
 ROSC BZ I         351  7.68        41.2 0.40                           255 211 
 HEL  HZ EP        350 32.92                             116   -0.11 8  273 255 
 HEL  HN ES        351  4.81                             116    0.04 8  273 255 
 HEL  HZ I         351 11.84         9.0 0.50                           273 255 
 SOCV BZ EP        350 35.68                             114    0.16 7  300  57 
 SOCV BN ES        351  7.78                             114   -1.42 7  300  57 
 GUY2CHZ EP        350 36.83                             113    0.38 7  303 235 
 GUY2CHN ES        351 11.18                             113    0.31 7  303 235 
 GUY2CHZ I         351 19.14        14.8 0.32                           303 235 
 PTGC HZ EP        350 36.06                             113   -0.61 7  310 159 
 PTGC HN ES        351  9.70                             113   -1.55 7  310 159 
 PTGC HZ I         351 12.32         6.9 0.42                           310 159 
 LL6C HZ EP        350 37.54                             112   -0.58 7  323 357 
 LL6C HN ES        351 13.23                             112   -0.61 7  323 357 
 CBOC HZ EP        350 40.61                             111    0.93 7  335 252 
 CBOC HN ES        351 16.53                             111   -0.09 7  335 252 
 CBOC HZ I         351 22.69         4.3 0.74                           335 252 
 ARGC HZ EP        350 42.10                             109    0.02 6  358 340 
 ARGC HN ES        351 20.83                             109   -0.06 6  358 340 
 PRA  HZ EP        350 46.72                             107    0.39 6  394 210 
 PRA  HN ES        351 28.28                             107   -0.17 6  394 210 
 PRA  HZ I         351 35.13        18.2 0.34                           394 210 
 PAL  HZ EP        350 48.20                             107    0.29 6  407 239 
 PAL  HN ES        351 30.17                             107   -1.10 6  407 239 
 PAL  HZ I         351 42.07         2.9 0.66                           407 239 
 SJC  HZ EP   4    350 47.05                             107   -0.94 0  408 327 
 SJC  HN ES   4    351 30.63                             107   -0.77 0  408 327 
 SJC  HZ I         351 36.02         6.1 0.40                           408 327 
 CRJC HZ EP   9    350 53.20                             104   -1.61 0  466   3 
 CRJC HN ES        351 41.39                             105   -0.54 5  466   3 
 CRJC HZ I         351 48.02        10.4 0.42                           466   3 
 MACC HZ EP   4    351  0.32                             102   -1.13 0  523 189 
 MACC HN ES   4    351 52.30                             102   -3.06 0  523 189 
 MACC HZ I         352  9.48         4.5 0.72                           523 189 
                                                                                
