 2015  2 2 0404 31.7 L   8.535 -73.523 94.4  RSN  4 0.3 1.3LRSN                1
 GAP=210        0.80       4.4     5.0  7.0  0.8234E+01  0.1429E+02  0.1446E+02E
 Epicentro: EL CARMEN - N.SANTANDER                                            3
 ACTION:UPD 15-04-30 21:20 OP:nd   STATUS:               ID:20150202040431 L   I
 OLDACT:REG 15-02-02 13:29 OP:stll STATUS:               ID:20150202035747     3
 2015-02-02-0357-47M.COL___262                                                 6
 STAT SP IPHASW D HRMM SECON CODA AMPLIT PERI AZIMU VELO AIN AR TRES W  DIS CAZ7
 OCA  HZ EP        4 4 46.05                             156    0.2910 39.7 146 
 OCA  HN ES        4 4 56.90                             156    0.1910 39.7 146 
 OCA  HZ I         4 4 57.93         6.0 0.30            154           39.7 146 
 SML  HZ EP        4 4 47.12                             142   -0.1810 67.1 296 
 SML  HN ES        4 4 59.23                             142   -0.2210 67.1 296 
 SML  HZ I         4 5  0.82         9.2 0.10            144           67.1 296 
 BRR  HZ EP        4 4 55.86                             116   -0.45 9  159 188 
 BRR  HN ES        4 5 15.17                             116   -0.33 9  159 188 
 BRR  HZ I         4 5 20.43         2.7 0.38            116            159 188 
 ZAR  HZ EP        4 4 59.94                             112    0.50 9  187 232 
 ZAR  HN ES        4 5 21.31                             112    0.24 9  187 232 
                                                                                
