 2017  5 2 0413 46.2 L   6.776 -73.111153.0  RSN  4 0.3 1.0LRSN                1
 GAP=142        0.82       4.7     6.0  7.3 -0.6996E+00  0.8570E+01  0.4744E+01E
 Epicentro: LOS SANTOS - SANTANDER                                             3
 ACTION:UPD 17-06-16 13:32 OP:jn   STATUS:               ID:20170502041346 L   I
 OLDACT:UP  17-05-02 16:52 OP:edw  STATUS:               ID:20170502040512     3
 OLDACT:REG 17-05-02 12:13 OP:edw  STATUS:               ID:20170502040512     3
 2017-05-02-0408-00M.COL___365                                                 6
 STAT SP IPHASW D HRMM SECON CODA AMPLIT PERI AZIMU VELO AIN AR TRES W  DIS CAZ7
 BRR  HZ EP        414  8.33                             152   -0.0710 75.8 299 
 BRR  HN ES        414 25.59                             152   -0.1210 75.8 299 
 PAM  EZ EP     D  414  9.56                             152    0.3710 77.1  36 
 PAM  EN ES        414 26.99                             152   -0.1210 77.1  36 
 PAM  EZ I         414 28.71         1.6 0.54            157           77.1  36 
 RUS  HZ EP        414  9.91                             146   -0.5810 97.8 178 
 RUS  HN ES        414 29.72                             146    0.3010 97.8 178 
 RUS  HZ I         414 32.04         1.5 0.42            147           97.8 178 
 PTB  HZ EP        414 14.33                             133    0.26 9  151 260 
 PTB  HN ES   4    414 33.46                             133   -2.34 0  151 260 
 PTB  HZ I         414 40.57         1.1 0.30            134            151 260 
                                                                                
