 2012  2 2 0815 26.4 L   6.774 -73.146150.1  RSN  7 0.5 1.8LRSN                1
 GAP=183        0.97       4.5     7.9  8.2  0.2897E+01  0.2207E+01  0.9659E+00E
 ACTION:UP  12-03-07 16:26 OP:epov STATUS:               ID:20120202081526 L   I
 2012-02-02-0810-00M.COL___187                                                 6
 STAT SP IPHASW D HRMM SECON CODA AMPLIT PERI AZIMU VELO SNR AR TRES W  DIS CAZ7
 BAR2 SZ EP        815 46.58                             172    0.0310 20.5 191 
 BAR2 SZ ES   1    816  2.55                             172    0.32 7 20.5 191 
 BAR2 SZ I         816  3.19        20.4 0.21                          20.5 191 
 GIR2 SZ EP   2    815 46.80                             167    0.09 5 34.1 351 
 BRR  HZ EP        815 48.42                             153    0.2810 72.6 301 
 BRR  HE ES   1    816  5.89                             153    0.82 7 72.6 301 
 BRR  HZ I         816  7.47        12.4 0.10                          72.6 301 
 RUS  HZ EP   1    815 49.96                             146   -0.47 7 97.7 176 
 RUS  HN ES   1    816  8.67                             146   -0.46 7 97.7 176 
 PTB  HZ EP        815 53.52                             133   -0.20 9  147 260 
 PTB  HN ES   1    816 14.39                             133   -0.60 7  147 260 
 OCA  SZ EP   1    815 55.84                             130    0.47 7  163 353 
 OCA  SZ ES   1    816 16.95                             130   -0.97 7  163 353 
 OCA  SZ I         816 21.61         4.8 0.21                           163 353 
 CHI  HZ EP   1    816  4.67                             118    0.58 6  246 195 
 CHI  HN ES   1    816 33.56                             118    0.12 6  246 195 
 CHI  HZ I         816 39.58         3.5 0.41                           246 195 
                                                                                
