 2012  4 2 0235 28.3 L   6.766 -73.170152.2  RSN  5 0.3 1.5LRSN                1
 GAP=135        0.70       5.2     4.8  8.5  0.1299E+01  0.7871E+01  0.7082E+01E
 Epicentro: LOS SANTOS - SANTANDER                                             3
 ACTION:UPD 12-07-05 11:49 OP:tino STATUS:               ID:20120402023528 L   I
 2012-04-02-0230-00M.COL___196                                                 6
 STAT SP IPHASW D HRMM SECON CODA AMPLIT PERI AZIMU VELO AIN AR TRES W  DIS CAZ7
 BRR  HZ EP   1    235 50.32                             154     0.2 7   71 302 
 BRR  HZ I         235 50.63         6.8 0.15                            71 302 
 BRR  HE ES   1    236  7.60                             154     0.5 7   71 302 
 PAM  SZ EP   2    235 51.24                             150    -0.2 5   82  39 
 PAM  SN ES   1    236  9.20                             150    -0.3 7   82  39 
 RUS  HZ EP   1    235 52.67                             146     0.2 7   97 174 
 RUS  HN ES   1    236 11.26                             146     0.0 7   97 174 
 RUS  HZ I         236 12.37         2.0 0.47                            97 174 
 PTB  HZ EP   1    235 55.36                             134    -0.1 7  144 260 
 PTB  HN ES   1    236 16.19                             134    -0.5 7  144 260 
 PTB  HZ I         236 17.39         4.1 0.51                           144 260 
 ZAR  HN ES   2    236 26.68                             124     0.1 4  203 293 
 ZAR  HZ I         236 33.58         4.1 0.28                           203 293 
                                                                                
