 2016  7 2 0607 29.7 L   6.647 -73.617 96.6  RSN  9 0.3 1.1LRSN                1
 GAP=109        0.79       2.8     2.9  6.2  0.1715E+01  0.1081E+02  0.6568E+01E
 Epicentro: EL CARMEN - SANTANDER                                              3
 ACTION:UPD 17-03-29 16:45 OP:lp   STATUS:               ID:20160702060729 L   I
 OLDACT:UP  16-07-02 16:34 OP:edw  STATUS:               ID:20160702055743     3
 OLDACT:REG 16-07-02 13:17 OP:edw  STATUS:               ID:20160702055743     3
 2016-07-02-0557-43M.COL___325                                                 6
 STAT SP IPHASW D HRMM SECON CODA AMPLIT PERI AZIMU VELO AIN AR TRES W  DIS CAZ7
 BAR2 EZ EP        6 7 44.78                             152    0.1710 48.4  97 
 BAR2 EZ ES        6 7 56.70                             152    0.4710 48.4  97 
 BRR  HZ EP        6 7 43.88                             150   -0.6010 51.9 348 
 BRR  HN ES        6 7 56.02                             150    0.0310 51.9 348 
 BRR  HZ I         6 7 56.79         4.4 0.10            153           51.9 348 
 PTB  HZ EP   4    6 7 45.85                             133   -1.91 0 93.6 263 
 PTB  HE ES   4    6 7 58.91                             133   -2.92 0 93.6 263 
 PTB  HZ I         6 8  0.28         7.1 0.10            133           93.6 263 
 RUS  HZ EP        6 7 49.40                             130    0.2010  102 145 
 RUS  HN ES        6 8  4.17                             130   -0.2310  102 145 
 RUS  HZ I         6 8  6.31         1.6 0.14            130            102 145 
 SPBC HZ EP        6 7 50.46                             125   -0.0510  121 205 
 SPBC HN ES        6 8  6.19                             125   -0.5310  121 205 
 SPBC HZ I         6 8 11.08         4.0 0.42            124            121 205 
 ZAR  HN ES        6 8 15.11                             116    0.04 9  166 304 
 NOR  HZ EP        6 7 57.19                             113   -0.00 9  183 229 
 NOR  HE ES        6 8 18.65                             113    0.02 9  183 229 
 HEL  HZ EP        6 8  1.33                             110   -0.19 8  217 257 
 HEL  HN ES        6 8 26.46                             110    0.14 8  217 257 
 HEL  HZ I         6 8 28.72         1.1 0.16            109            217 257 
 GUY2CHZ EP        6 8  5.64                             107    0.24 8  249 231 
 GUY2CHN ES        6 8 33.80                             107    0.56 8  249 231 
                                                                                
