 2015  9 2 0432 17.2 L   6.771 -73.202135.2  RSN  6 0.4 1.2LRSN                1
 GAP=229        1.09       5.7     7.5  8.1  0.1710E+02  0.2385E+02  0.1619E+01E
 Epicentro: ZAPATOCA - SANTANDER                                               3
 ACTION:UPD 15-10-28 16:23 OP:cam  STATUS:               ID:20150902043217 L   I
 OLDACT:REG 15-09-02 13:58 OP:stll STATUS:               ID:20150902042746     3
 2015-09-02-0427-46M.COL___361                                                 6
 STAT SP IPHASW D HRMM SECON CODA AMPLIT PERI AZIMU VELO AIN AR TRES W  DIS CAZ7
 BAR2 EZ ES        432 49.43                             171   -0.3410 19.9 174 
 BAR2 EZ I         432 53.04         3.6 0.36            170           19.9 174 
 BRR  HZ EP        432 36.78                             152   -0.2310 67.5 303 
 BRR  HN ES        432 52.74                             152    0.2910 67.5 303 
 BRR  HZ I         432 55.86         3.7 0.60            152           67.5 303 
 RUS  HN ES        432 57.68                             142    0.3610 98.1 172 
 RUS  HZ I         432 58.69         1.8 0.32            144           98.1 172 
 PTB  HZ EP        432 41.93                             131   -0.78 9  141 260 
 PTB  HN ES        433  2.32                             131   -0.28 9  141 260 
 PTB  HZ I         433  4.68         2.5 0.52            132            141 260 
 SPBC HZ EP        432 44.18                             128   -0.12 9  157 218 
 SPBC HE ES        433  5.72                             128    0.29 9  157 218 
 SPBC HZ I         433 10.66         3.2 0.26            129            157 218 
 ZAR  HZ EP        432 49.39                             121    0.88 9  200 294 
 ZAR  HN ES        433 13.04                             121    0.11 9  200 294 
 ZAR  HZ I         433 15.58         2.2 0.18            123            200 294 
                                                                                
