 2014  8 2 0629 14.8 L   6.734 -73.117142.1  RSN  4 0.4 1.1LRSN                1
 GAP=263        1.01       7.6     7.9  9.2 -0.1042E+02  0.1223E+02  0.3761E+01E
 Epicentro: JORDAN - SANTANDER                                                 3
 ACTION:UPD 14-09-15 21:46 OP:nd   STATUS:               ID:20140802062914 L   I
 OLDACT:DUP 14-08-02 17:08 OP:carl STATUS:               ID:20140802062819d    3
 2014-08-02-0628-18M.COL___248                                                 6
 STAT SP IPHASW D HRMM SECON CODA AMPLIT PERI AZIMU VELO AIN AR TRES W  DIS CAZ7
 BAR2 SZ EP        629 34.13                             173    0.2310 17.3 205 
 BAR2 SZ ES        629 48.30                             173   -0.4810 17.3 205 
 BRR  HZ EP        629 36.18                             150    0.2310 77.6 302 
 BRR  HN ES        629 52.84                             150    0.4010 77.6 302 
 BRR  HZ I         630  4.48         2.7 0.30            149           77.6 302 
 PTB  HZ EP        629 41.09                             131   -0.58 9  150 262 
 PTB  HN ES        630  2.30                             131   -0.31 9  150 262 
 PTB  HZ I         630  5.21         1.7 0.44            133            150 262 
 SPBC HN ES        630  4.91                             129    0.45 9  160 222 
 SPBC HZ I         630 15.11         1.4 0.24            132            160 222 
                                                                                
