 2012  4 2 0925 43.3 L   7.010 -72.877181.2  RSN  5 0.3 1.9LRSN                1
 GAP=162        0.73       6.3     5.5  7.5  0.2889E+01  0.7913E+01  0.2337E+01E
 Epicentro: SANTA BARBARA - SANTANDER                                          3
 ACTION:UPD 12-07-05 11:49 OP:tino STATUS:               ID:20120402092543 L   I
 2012-04-02-0920-00M.COL___196                                                 6
 STAT SP IPHASW D HRMM SECON CODA AMPLIT PERI AZIMU VELO AIN AR TRES W  DIS CAZ7
 PAM  SZ EP   1    926  8.13                             167     0.1 7   41  28 
 PAM  SN ES   1    926 26.83                             167    -0.4 7   41  28 
 PAM  SZ I         926 29.19         6.4 0.48                            41  28 
 BRR  HZ EP   1    926  9.62                             152     0.1 7   93 277 
 BRR  HE ES   1    926 30.63                             152     0.7 7   93 277 
 BRR  HZ I         926 33.74        16.8 0.16                            93 277 
 RUS  HZ EP   1    926 12.42                             144     0.1 7  126 190 
 RUS  HE ES   1    926 34.94                             144    -0.1 7  126 190 
 RUS  HZ I         926 37.08         5.3 0.60                           126 190 
 PTB  HZ EP   1    926 16.33                             133     0.0 7  182 254 
 PTB  HN ES   1    926 41.65                             133    -0.4 7  182 254 
 PTB  HZ I         926 43.30         5.3 0.19                           182 254 
 ZAR  HZ EP   1    926 20.20                             126    -0.1 6  225 284 
 ZAR  HN ES   1    926 48.92                             126    -0.3 6  225 284 
 ZAR  HZ I         926 50.67        11.0 0.15                           225 284 
                                                                                
