 2015  2 2 0706 25.5 L   6.965 -73.228140.1  RSN  8 0.5 1.7LRSN                1
 GAP=118        1.23       4.1     5.9  8.9 -0.1097E+01  0.6402E+01  0.3199E+01E
 Epicentro: BETULIA - SANTANDER                                                3
 ACTION:UPD 15-04-30 21:20 OP:nd   STATUS:               ID:20150202070625 L   I
 OLDACT:DUP 15-02-02 18:58 OP:stll STATUS:               ID:20150202065745d    3
 2015-02-02-0657-44M.COL___262                                                 6
 STAT SP IPHASW D HRMM SECON CODA AMPLIT PERI AZIMU VELO AIN AR TRES W  DIS CAZ7
 BAR2 EZ EP        7 6 44.92                             163   -0.0210 41.6 173 
 BAR2 EZ I         7 6 45.07        14.0 0.30            156           41.6 173 
 BRR  HZ EP        7 6 45.65                             157    0.4710 55.7 286 
 BRR  HN ES        7 7  1.47                             157    0.9110 55.7 286 
 BRR  HZ I         7 7  5.66         8.5 0.12            148           55.7 286 
 PAM  SZ EP        7 6 47.00                             152    0.2710 71.5  55 
 PAM  SZ I         7 6 47.47        15.0 0.14            153           71.5  55 
 PAM  SE ES        7 7  3.17                             152   -0.1510 71.5  55 
 RUS  HZ EP        7 6 50.19                             138    0.0310  120 172 
 RUS  HN ES        7 7  8.68                             138   -0.7510  120 172 
 RUS  HZ I         7 7 10.69         3.2 0.36            130            120 172 
 OCA  HZ EP        7 6 51.38                             132   -0.18 9  141 356 
 OCA  HN ES        7 7 11.83                             132   -0.08 9  141 356 
 OCA  HZ I         7 7 16.72         4.8 0.74            127            141 356 
 PTB  HZ EP        7 6 51.42                             132   -0.19 9  144 251 
 PTB  HZ I         7 6 52.25         9.7 0.48            123            144 251 
 PTB  HN ES        7 7 11.44                             132   -0.56 9  144 251 
 SPBC HZ EP        7 6 55.14                             126    0.68 9  173 213 
 SPBC HZ I         7 7 22.06         6.6 0.74            118            173 213 
 SML  HE ES        7 7 25.48                             119   -0.68 8  223 335 
 SML  HZ I         7 7 28.79         6.6 0.34            113            223 335 
                                                                                
