 2014  4 2 0620 18.1 L   6.840 -73.137147.6  RSN  4 0.2 1.6LRSN                1
 GAP=177        0.41       2.3     3.0  5.0 -0.1087E+01  0.8496E+01 -0.5061E+00E
 Epicentro: LOS SANTOS - SANTANDER                                             3
 ACTION:UPD 14-05-13 23:05 OP:nd   STATUS:               ID:20140402062018 L   I
 OLDACT:UP  14-04-02 15:28 OP:cam  STATUS:               ID:20140402061811     3
 OLDACT:REG 14-04-02 14:25 OP:cam  STATUS:               ID:20140402061811     3
 2014-04-02-0618-11M.COL___243                                                 6
 STAT SP IPHASW D HRMM SECON CODA AMPLIT PERI AZIMU VELO AIN AR TRES W  DIS CAZ7
 PAM  SZ EP        620 40.47                             152    0.2310 73.4  41 
 PAM  SN ES        620 57.38                             152   -0.1610 73.4  41 
 PAM  SZ I         620 59.30         4.4 0.50            163           73.4  41 
 SPBC HZ EP   1    620 47.02                             128   -0.06 7  167 218 
 SPBC HN ES   1    621  9.74                             128    0.02 7  167 218 
 SPBC HZ I         621 19.99         6.1 0.26            131            167 218 
 ZAR  HZ EP        620 50.56                             123    0.00 9  203 291 
 ZAR  HN ES   1    621 15.91                             123    0.01 6  203 291 
 ZAR  HZ I         621 21.97         3.4 0.30            126            203 291 
 SML  HZ EP   1    620 54.07                             118   -0.34 6  240 335 
 SML  HN ES        621 22.85                             118    0.09 8  240 335 
 SML  HZ I         621 27.92         2.9 0.10            123            240 335 
                                                                                
