 2016  2 2 0238 34.0 L   6.797 -73.183135.2  RSN 12 0.5 2.0LRSN                1
 GAP=132        0.66       3.0     4.5  6.7 -0.5485E+01  0.1651E+02 -0.4307E+01E
 Epicentro: ZAPATOCA - SANTANDER                                               3
 ACTION:UPD 16-03-04 21:22 OP:rebc STATUS:               ID:20160202023834 L   I
 OLDACT:REG 16-02-02 13:47 OP:dnl  STATUS:               ID:20160202022625     3
 2016-02-02-0234-00M.COL___415                                                 6
 STAT SP IPHASW D HRMM SECON CODA AMPLIT PERI AZIMU VELO AIN AR TRES W  DIS CAZ7
 BAR2 EZ EP        238 52.39                             170    0.0510 22.6 180 
 BAR2 EZ ES   2    239  6.39                             170   -0.26 5 22.6 180 
 BAR2 EZ I         239  8.17        35.4 0.14            169           22.6 180 
 PAM  EZ EP        238 55.31                             148    0.0210 80.3  42 
 PAM  EN ES        239 12.12                             148    0.2310 80.3  42 
 PAM  EZ I         239 14.82        20.0 0.49            152           80.3  42 
 RUS  HE ES        239 14.54                             141    0.0810  101 174 
 RUS  HZ I         239 16.66         9.1 0.28            144            101 174 
 PTB  HZ EP   2    238 59.13                             130   -0.60 5  144 259 
 PTB  HN ES   2    239 18.95                             130   -0.86 5  144 259 
 PTB  HZ I         239 22.91        16.0 0.14            130            144 259 
 OCA  HZ EP   2    239  1.51                             127    0.02 5  160 355 
 OCA  HN ES   2    239 21.97                             127   -0.97 5  160 355 
 OCA  HZ I         239 25.72        27.7 0.34            129            160 355 
 SPBC HZ EP   2    239  1.19                             127   -0.24 5  160 218 
 SPBC HN ES   2    239 22.86                             127    0.04 5  160 218 
 SPBC HZ I         239 25.39        12.1 0.25            128            160 218 
 ZAR  HZ EP   2    239  5.88                             120    0.50 4  200 293 
 ZAR  HN ES   2    239 30.87                             120    1.01 4  200 293 
 ZAR  HZ I         239 37.15         7.0 0.20            121            200 293 
 NOR  HZ EP   2    239  8.86                             116    0.12 4  231 234 
 NOR  HN ES   2    239 35.67                             116   -0.18 4  231 234 
 NOR  HN I         239 40.73        28.9 0.19            118            231 234 
 SML  HZ EP   2    239  9.26                             115   -0.63 4  242 336 
 SML  HE ES   4    239 36.35                             115   -1.55 0  242 336 
 SML  HZ I         239 41.14        14.2 0.08            117            242 336 
 CHI  HZ EP   2    239 11.28                             115    0.30 4  247 194 
 CHI  HE ES   2    239 38.89                             115   -0.93 4  247 194 
 CHI  HZ I         239 45.82         2.7 0.25            117            247 194 
 GUY2CHZ EP   2    239 17.68                             110    0.96 4  298 234 
 GUY2CHN ES   2    239 50.48                             110    0.42 4  298 234 
 GUY2CHZ I         239 57.78         5.7 0.22                           298 234 
 MON  HZ EP   4    239 20.38                             107   -1.87 0  351 309 
 MON  HE ES   4    239 58.17                             107   -1.72 0  351 309 
 MON  HZ I         240  0.17         2.2 0.21            108            351 309 
                                                                                
