 2012  1 2 0300 42.5 L   6.785 -73.129144.0  RSN  5 0.2 1.3LRSN                1
 GAP=139        0.47       3.6     3.4  6.9  0.7793E+00  0.9382E+00 -0.3083E+01E
 Epicentro: LOS SANTOS - SANTANDER                                             3
 ACTION:UP  12-02-03 08:13 OP:REBC STATUS:               ID:20120102030042 L   I
 2012-01-02-0300-00M.COL___186                                                 6
 STAT SP IPHASW D HRMM SECON CODA AMPLIT PERI AZIMU VELO SNR AR TRES W  DIS CAZ7
 BRR  HZ EP   1    3 1  3.50                             151     0.0 7   74 299 
 BRR  HZ I         3 1  3.75         5.0 0.14                            74 299 
 BRR  HE ES   2    3 1 20.50                             151     0.5 5   74 299 
 PAM  SZ EP   1    3 1  4.48                             150     0.0 7   77  38 
 PAM  SN ES   2    3 1 21.40                             150    -0.3 5   77  38 
 RUS  HZ EP   1    3 1  6.23                             144     0.3 7   99 177 
 RUS  HZ I         3 1 23.54         2.9 0.61                            99 177 
 RUS  HN ES   1    3 1 24.01                             144    -0.2 7   99 177 
 PTB  HZ EP   2    3 1  9.20                             131    -0.2 5  149 260 
 PTB  HE ES   1    3 1 30.37                             131    -0.1 7  149 260 
 ZAR  HN ES   2    3 1 40.30                             121    -0.1 4  206 292 
                                                                                
