 2017  3 2 0903  5.1 L   6.826 -73.151147.5  RSN  6 0.3 1.3LRSN                1
 GAP=135        0.80       5.0     4.3  5.8  0.8593E+01 -0.2928E+00 -0.7322E+01E
 Epicentro: LOS SANTOS - SANTANDER                                             3
 ACTION:UPD 17-05-25 18:34 OP:jn   STATUS:               ID:20170302090305 L   I
 OLDACT:REG 17-03-02 13:03 OP:and  STATUS:               ID:20170302085742     3
 2017-03-02-0858-00M.COL___378                                                 6
 STAT SP IPHASW D HRMM SECON CODA AMPLIT PERI AZIMU VELO AIN AR TRES W  DIS CAZ7
 BAR2 EZ EP        9 3 24.73                             170   -0.2510 26.0 188 
 BAR2 EZ ES        9 3 40.23                             170   -0.2710 26.0 188 
 BAR2 EZ I         9 3 41.71         4.7 0.24            170           26.0 188 
 BRR  HZ EP        9 3 26.40                             153    0.0810 69.4 297 
 BRR  HN ES        9 3 42.93                             153    0.0510 69.4 297 
 BRR  HZ I         9 3 44.92         3.2 0.26            152           69.4 297 
 PAM  EZ EP        9 3 27.42                             152    0.0410 75.6  41 
 RUS  HZ EP        9 3 29.01                             143   -0.2010  103 176 
 RUS  HN ES        9 3 48.61                             143    0.5810  103 176 
 RUS  HZ I         9 3 49.42         1.2 0.40            145            103 176 
 PTB  HZ EP        9 3 31.77                             132   -0.42 9  148 258 
 PTB  HN ES        9 3 53.11                             132   -0.23 9  148 258 
 PTB  HZ I         9 3 55.24         2.5 0.10            132            148 258 
 ZAR  HZ EP        9 3 37.99                             123    0.51 9  202 291 
 ZAR  HN ES        9 4  2.97                             123    0.22 9  202 291 
 ZAR  HZ I         9 4  9.22         3.2 0.28            123            202 291 
                                                                                
