 2013  1 2 0543 11.8 L   6.721 -73.166141.1  RSN  5 0.4 1.8LRSN                1
 GAP=229        0.92       7.0     6.6  7.3  0.2411E+02  0.1214E+02 -0.7809E+01E
 Epicentro: VILLANUEVA - SANTANDER                                             3
 ACTION:UPD 13-02-15 09:11 OP:ep   STATUS:               ID:20130102054311 L   I
 2013-01-02-0540-00M.COL___242                                                 6
 STAT SP IPHASW D HRMM SECON CODA AMPLIT PERI AZIMU VELO AIN AR TRES W  DIS CAZ7
 BAR2 SZ EP        543 30.83                             174    0.1310 14.4 187 
 BAR2 SZ ES        543 44.75                             174   -0.7010 14.4 187 
 BAR2 SZ I         543 47.94        10.0 0.32            169           14.4 187 
 BRR  HZ EP        543 32.61                             151    0.0210 73.9 305 
 BRR  HN ES        543 49.37                             151    0.5610 73.9 305 
 BRR  HN I         543 53.29        30.0 0.16            150           73.9 305 
 RUS  HN ES        543 52.47                             145    0.3110 92.1 174 
 RUS  HN I         543 56.27         3.8 0.50            146           92.1 174 
 PTB  HZ EP        543 38.15                             132    0.11 9  144 262 
 PTB  HN ES        543 58.34                             132   -0.18 9  144 262 
 PTB  HN I         544  3.94         9.1 0.20            132            144 262 
 ZAR  HZ EP        543 43.71                             121   -0.36 8  205 295 
 ZAR  HN ES        544  9.24                             121   -0.02 8  205 295 
 ZAR  HN I         544 14.34         8.2 0.18            123            205 295 
                                                                                
