 2015  4 2 0148 33.5 L   6.787 -73.112144.6  RSN  8 0.4 1.8LRSN                1
 GAP=141        1.02       3.4     5.0  6.1 -0.6103E+00  0.7449E+01 -0.3849E+01E
 Epicentro: LOS SANTOS - SANTANDER                                             3
 ACTION:UPD 15-06-03 16:51 OP:cam  STATUS:               ID:20150402014833 L   I
 OLDACT:UP  15-04-02 13:26 OP:mh   STATUS:               ID:20150402014749     3
 OLDACT:UP  15-04-02 13:26 OP:mh   STATUS:               ID:20150402014749     3
 OLDACT:REG 15-04-02 12:33 OP:mh   STATUS:               ID:20150402014749     3
 2015-04-02-0147-49M.COL___283                                                 6
 STAT SP IPHASW D HRMM SECON CODA AMPLIT PERI AZIMU VELO AIN AR TRES W  DIS CAZ7
 BAR2 EZ EP        148 53.07                             171    0.0510 22.8 200 
 BAR2 EZ ES        149  7.85                             171   -0.3610 22.8 200 
 BAR2 EZ I         149  9.11        13.5 0.18            170           22.8 200 
 BRR  HZ EP        148 55.02                             151    0.2310 75.1 298 
 BRR  HN ES        149 11.81                             151    0.4410 75.1 298 
 BRR  HZ I         149 15.12         7.1 0.44            148           75.1 298 
 PAM  SZ EP        148 55.96                             151    0.4010 76.3  37 
 PAM  SN ES        149 12.99                             151    0.2510 76.3  37 
 PAM  SZ I         149 15.26        10.5 0.72            154           76.3  37 
 RUS  HZ EP        148 57.40                             144    0.3410 98.9 178 
 RUS  HN ES        149 15.14                             144   -0.2610 98.9 178 
 RUS  HZ I         149 16.36         7.0 0.28            147           98.9 178 
 OCA  HZ EP        149  1.42                             129   -0.52 9  162 352 
 OCA  HN ES   1    149 23.50                             129   -0.60 7  162 352 
 OCA  HZ I         149 26.01        13.5 0.28            130            162 352 
 SPBC HZ EP        149  2.13                             129    0.07 9  164 220 
 SPBC HN ES        149 23.83                             129   -0.48 9  164 220 
 SPBC HZ I         149 29.72         9.9 0.36            130            164 220 
 ZAR  HZ EP        149  6.97                             122    0.65 8  208 292 
 ZAR  HN ES        149 31.97                             122    0.08 8  208 292 
 ZAR  HZ I         149 37.16         8.6 0.28            122            208 292 
 SML  HZ EP        149  9.49                             117   -0.93 8  247 335 
 SML  HN ES   1    149 39.26                             117    0.08 6  247 335 
 SML  HZ I         149 46.09         6.7 0.24            118            247 335 
                                                                                
