 2017  2 2 0907 16.6 L   6.807 -73.204143.5  RSN  4 0.2 1.0LRSN                1
 GAP=145        0.54       3.3     3.1  4.6 -0.3219E+01  0.3946E+01 -0.1527E+01E
 Epicentro: ZAPATOCA - SANTANDER                                               3
 ACTION:UPD 17-05-24 15:31 OP:jn   STATUS:               ID:20170202090716 L   I
 OLDACT:DUP 17-02-02 18:44 OP:ar   STATUS:               ID:20170202085743d    3
 OLDACT:UP  17-02-02 18:42 OP:ar   STATUS:               ID:20170202085742     3
 OLDACT:UP  17-02-02 18:40 OP:ar   STATUS:               ID:20170202085742     3
 OLDACT:UP  17-02-02 18:39 OP:ar   STATUS:               ID:20170202085742     3
 OLDACT:UP  17-02-02 18:39 OP:ar   STATUS:               ID:20170202085742     3
 OLDACT:UP  17-02-02 18:37 OP:ar   STATUS:               ID:20170202085742     3
 OLDACT:REG 17-02-02 13:24 OP:ar   STATUS:               ID:20170202085742     3
 2017-02-02-0858-00M.COL___319                                                 6
 STAT SP IPHASW D HRMM SECON CODA AMPLIT PERI AZIMU VELO AIN AR TRES W  DIS CAZ7
 BAR2 HZ EP        9 7 36.00                             170    0.0210 23.8 174 
 BAR2 HZ ES        9 7 51.43                             170    0.3410 23.8 174 
 PAM  HZ EP     C  9 7 38.77                             149   -0.0510 81.1  43 
 PAM  EE ES        9 7 55.99                             149   -0.1410 81.1  43 
 PAM  HZ I         9 7 57.57         2.6 0.44            151           81.1  43 
 RUS  HZ EP        9 7 40.24                             143   -0.0010  102 172 
 RUS  HE ES        9 7 58.49                             143   -0.1810  102 172 
 RUS  HZ I         9 8  0.13         1.0 0.36            145            102 172 
 PTB  HZ EP        9 7 43.09                             133    0.25 9  142 258 
 PTB  HN ES        9 8  3.06                             133   -0.24 9  142 258 
 PTB  HZ I         9 8  6.19         2.1 0.42            133            142 258 
                                                                                
