 2013  1 2 0209 43.1 L   6.740 -73.183146.3  RSN  5 0.4 1.5LRSN                1
 GAP=228        1.07       8.5     8.2  8.9  0.4572E+02  0.1762E+02  0.5856E+01E
 Epicentro: VILLANUEVA - SANTANDER                                             3
 ACTION:UPD 13-02-15 09:11 OP:ep   STATUS:               ID:20130102020943 L   I
 2013-01-02-0210-00M.COL___242                                                 6
 STAT SP IPHASW D HRMM SECON CODA AMPLIT PERI AZIMU VELO AIN AR TRES W  DIS CAZ7
 BAR2 SZ ES        210 17.33                             173   -0.5710 16.3 180 
 BAR2 SZ I         210 19.87         5.8 0.20            167           16.3 180 
 BRR  HZ EP        210  4.17                             153   -0.1010 71.2 305 
 BRR  HN ES        210 21.09                             153    0.2810 71.2 305 
 BRR  HN I         210 21.62         9.1 0.34            152           71.2 305 
 RUS  HZ EP        210  6.32                             146   -0.1010 94.3 173 
 RUS  HN ES        210 25.29                             146    0.6510 94.3 173 
 RUS  HN I         210 26.63         5.2 0.24            144           94.3 173 
 PTB  HZ EP        210  9.45                             133   -0.15 9  143 261 
 PTB  HN ES        210 29.82                             133   -0.49 9  143 261 
 PTB  HN I         210 35.90         3.8 0.24            132            143 261 
 ZAR  HN ES        210 41.23                             123    0.56 9  203 294 
                                                                                
