 2013  2 2 0126 55.5 L   6.814 -73.155142.4  RSN 11 0.5 2.2LRSN 2.8WRSN        1
 SPEC AVERAGE  MO 13.3 ST  4.0 OM  1.9 f0 4.91 R0.3177 AL 2.41 WI 17.5 MW  2.8 3
 SPEC SD       MO  0.2 ST  2.4 OM  0.7 f0 1.19 R0.0775 AL      WI      MW  0.1 3
 GAP= 70        1.16       4.0     3.5  6.6  0.1815E+01  0.4523E+01  0.1844E+01E
 Epicentro: LOS SANTOS - SANTANDER                                             3
 SPEC PTB HH E MO 13.0 ST0.820 OM  1.3 f0 3.88 R0.3789 AL 1.25 WI 14.2 MW  2.6 3
 SPEC PTB HH E T 12742 K 0.000 GD  204 VS 4.20 DE 3.20 Q0300.0 QA 0.60 VS 4.20 3
 SPEC OCA HH N MO 13.5 ST  1.8 OM  1.8 f0 3.41 R0.4311 AL 1.83 WI 25.3 MW  3.0 3
 SPEC OCA HH N T 12743 K 0.000 GD  213 VS 4.20 DE 3.20 Q0300.0 QA 0.60 VS 4.20 3
 SPEC PAM SH Z MO 13.4 ST  6.2 OM  1.0 f0 5.74 R0.2561 AL 3.20 WI 15.9 MW  2.9 3
 SPEC PAM SH Z T 12717 K 0.000 GD  161 VP 7.60 DE 3.20 Q0300.0 QA 0.60 VS 4.20 3
 SPEC BRR HH E MO 13.4 ST  4.0 OM  1.8 f0 4.88 R0.3012 AL 3.41 WI 17.9 MW  2.9 3
 SPEC BRR HH E T 12732 K 0.000 GD  158 VS 4.20 DE 3.20 Q0300.0 QA 0.60 VS 4.20 3
 SPEC BAR2SH Z MO 13.2 ST  6.9 OM  0.9 f0 6.65 R0.2211 AL 2.34 WI 14.4 MW  2.8 3
 SPEC BAR2SH Z T 12714 K 0.000 GD  144 VP 7.60 DE 3.20 Q0300.0 QA 0.60 VS 4.20 3
 ACTION:UPD 13-03-12 09:29 OP:ep   STATUS:               ID:20130202012655 L   I
 2013-02-02-0118-50M.COL___179                                                 6
 STAT SP IPHASW D HRMM SECON CODA AMPLIT PERI AZIMU VELO AIN AR TRES W  DIS CAZ7
 BAR2 SZ EP        127 14.73                             170    0.0310 24.7 187 
 BAR2 SZ I         127 15.05        28.6 0.36            159           24.7 187 
 BAR2 SZ ES        127 29.76                             170    0.0410 24.7 187 
 BRR  HZ IP     C  127 16.40                             152    0.2610 69.5 298 
 BRR  HZ I         127 16.68        31.6 0.34            143           69.5 298 
 BRR  HE ES        127 33.22                             152    0.9510 69.5 298 
 PAM  SZ EP        127 17.52                             150    0.2410 76.9  41 
 PAM  SZ I         127 17.76        42.8 0.18            146           76.9  41 
 PAM  SN ES        127 34.33                             150    0.0310 76.9  41 
 RUS  HZ EP        127 18.90                             143   -0.0910  102 176 
 RUS  HN ES        127 37.01                             143   -0.3410  102 176 
 RUS  HE I         127 38.59        19.9 0.22            129            102 176 
 PTB  HZ EP        127 21.34                             131   -0.74 9  147 258 
 PTB  HN ES        127 42.25                             131   -0.59 9  147 258 
 PTB  HN I         127 47.65        23.5 0.58            119            147 258 
 TAM  HZ EP        127 23.21                             129    0.21 9  157 105 
 TAM  HN ES        127 44.40                             129   -0.08 9  157 105 
 OCA  HN ES        127 44.20                             129   -0.90 9  159 353 
 OCA  HN I         127 49.30        38.3 0.26            121            159 353 
 ZAR  HZ EP        127 28.40                             122    0.88 9  202 292 
 ZAR  HN ES        127 52.73                             122    0.21 9  202 292 
 ZAR  HN I         128  0.16        25.2 0.18            112            202 292 
 SML  HE ES   1    127 59.34                             117   -0.61 6  242 335 
 CHI  HZ EP   1    127 33.39                             116    0.29 6  250 195 
 CHI  HE I         128  5.97         4.7 0.46            106            250 195 
 HEL  HZ EP   1    127 35.54                             114    0.12 6  271 255 
 HEL  HE ES        128  6.53                             114   -0.06 8  271 255 
 HEL  HE I         128 13.73         6.6 0.26            104            271 255 
                                                                                
