 2013 11 2 0217 49.6 L   6.646 -73.647104.9  RSN  6 0.4 1.4LRSN                1
 GAP=105        0.77       3.8     3.3  6.7  0.3681E+01  0.4615E+01  0.6263E+01E
 Epicentro: EL CARMEN DE CHUCURI - SANTANDER                                   3
 ACTION:UPD 14-01-09 16:24 OP:ep   STATUS:               ID:20131102021749 L   I
 OLDACT:REG 13-11-02 07:12 OP:jn   STATUS:               ID:20131102021000     3
 2013-11-02-0210-00M.COL___273                                                 6
 STAT SP IPHASW D HRMM SECON CODA AMPLIT PERI AZIMU VELO AIN AR TRES W  DIS CAZ7
 BRR  HZ EP        218  5.39                             151    0.1910 51.5 352 
 BRR  HN ES        218 17.62                             151    0.2310 51.5 352 
 BRR  HZ I         218 18.63         7.8 0.14            153           51.5 352 
 BAR2 SZ EP        218  5.70                             151    0.1410 51.7  97 
 BAR2 SZ ES        218 18.14                             151    0.1210 51.7  97 
 PTB  HZ EP        218  8.01                             136   -0.0310 90.2 263 
 PTB  HN ES        218 22.00                             136   -0.4310 90.2 263 
 PTB  HZ I         218 23.54        12.9 0.16            137           90.2 263 
 RUS  HZ EP        218 10.06                             132    0.1610  104 143 
 RUS  HN ES        218 25.27                             132   -0.4710  104 143 
 RUS  HZ I         218 26.97         2.9 0.12            133            104 143 
 NOR  HE ES   2    218 39.64                             115    0.95 4  181 229 
 SML  HN ES   2    218 50.56                             107   -0.64 4  243 349 
                                                                                
