 2014  2 2 0730  4.0 L   6.821 -73.143139.1  RSN  9 0.4 1.6LRSN                1
 GAP=136        0.89       2.9     3.8  6.4 -0.7053E+00  0.8479E+01 -0.4238E+00E
 Epicentro: LOS SANTOS - SANTANDER                                             3
 ACTION:UPD 14-03-10 08:07 OP:ep   STATUS:               ID:20140202073004 L   I
 OLDACT:REG 14-02-02 07:16 OP:nd   STATUS:               ID:20140202073000     3
 2014-02-02-0730-00M.COL___288                                                 6
 STAT SP IPHASW D HRMM SECON CODA AMPLIT PERI AZIMU VELO AIN AR TRES W  DIS CAZ7
 PAM  SZ EP        730 25.71                             150    0.3210 75.5  40 
 PAM  SN ES        730 42.39                             150    0.3210 75.5  40 
 PAM  SZ I         730 45.05         6.5 0.56            158           75.5  40 
 RUS  HZ EP        730 27.16                             142   -0.1010  103 176 
 RUS  HN ES        730 45.35                             142   -0.0610  103 176 
 RUS  HZ I         730 47.40         2.5 0.34            145            103 176 
 PTB  HZ EP        730 29.97                             130   -0.52 9  148 258 
 PTB  HN ES        730 51.07                             130   -0.09 9  148 258 
 PTB  HZ I         730 58.65         4.8 0.26            132            148 258 
 SPBC HZ EP        730 31.83                             127   -0.34 9  165 219 
 SPBC HN ES        730 54.05                             127   -0.11 9  165 219 
 SPBC HZ I         731  1.56         6.2 0.12            129            165 219 
 ZAR  HZ EP   2    730 36.65                             121    0.70 4  203 292 
 ZAR  HN ES        731  0.82                             121   -0.05 9  203 292 
 ZAR  HZ I         731  7.46         6.0 0.36            123            203 292 
 SML  HZ EP        730 39.90                             116   -0.14 8  242 335 
 SML  HN ES        731  7.67                             116   -0.48 8  242 335 
 SML  HZ I         731 11.44         4.7 0.26            120            242 335 
 CHI  HZ EP        730 41.11                             115   -0.47 8  251 195 
 CHI  HN ES   2    731 10.92                             115    0.03 4  251 195 
 CHI  HZ I         731 18.43         0.8 0.24            119            251 195 
 HEL  HZ EP        730 44.87                             113    0.91 8  273 255 
 HEL  HN ES   2    731 15.89                             113    0.75 4  273 255 
 HEL  HZ I         731 22.46         2.5 0.24            116            273 255 
 GUY2CHZ EP     D  730 48.23                             111    0.76 7  303 234 
 GUY2CHN ES   4    731 24.18                             111    2.79 0  303 234 
 GUY2CHZ I         731 30.01         2.7 0.72                           303 234 
                                                                                
