 2017  8 2 0432 23.9 L   6.791 -73.145147.6  RSN 11 0.5 1.6LRSN                1
 GAP=112        1.15       4.4     4.5  6.8  0.2188E+01  0.2374E+01  0.6646E+01E
 Epicentro: LOS SANTOS - SANTANDER                                             3
 ACTION:UPD 17-09-04 20:15 OP:rebc STATUS:               ID:20170802043223 L   I
 OLDACT:DUP 17-08-02 16:32 OP:osc  STATUS:               ID:20170802042737d    3
 2017-08-02-0428-00M.COL___392                                                 6
 STAT SP IPHASW D HRMM SECON CODA AMPLIT PERI AZIMU VELO AIN AR TRES W  DIS CAZ7
 BAR2 EZ EP        432 43.66                             171   -0.0910 22.3 191 
 BAR2 EZ ES        432 58.39                             171   -0.8310 22.3 191 
 BAR2 EZ I         433  1.52        13.4 0.28            166           22.3 191 
 BRR  HZ EP        432 45.51                             153    0.2110 71.7 299 
 BRR  HN ES        433  2.58                             153    0.6110 71.7 299 
 BRR  HZ I         433  6.51         7.4 0.34            152           71.7 299 
 PAM  EZ EP        432 46.67                             151    0.2910 78.2  39 
 PAM  EE ES   2    433  3.36                             151   -0.53 5 78.2  39 
 RUS  HZ EP        432 47.89                             144    0.1110 99.6 176 
 RUS  HN ES        433  6.44                             144    0.0510 99.6 176 
 RUS  HZ I         433  7.60         6.0 0.34            144           99.6 176 
 PTB  HZ EP        432 50.16                             132   -0.86 9  148 259 
 PTB  HE ES        433 12.31                             132    0.15 9  148 259 
 PTB  HZ I         433 17.17         2.5 0.19            132            148 259 
 SPBC HZ EP        432 52.93                             130    0.44 9  162 219 
 SPBC HE ES        433 14.68                             130   -0.09 9  162 219 
 SPBC HZ I         433 20.32         6.1 0.09            129            162 219 
 YPLC HZ EP        432 54.12                             127    0.36 9  176 151 
 YPLC HN ES   2    433 17.88                             127    0.85 4  176 151 
 ZAR  HN ES        433 22.09                             123    0.13 9  204 292 
 NOR  HZ EP        432 58.57                             119   -1.13 8  234 235 
 NOR  HE ES   4    433 28.50                             119    0.90 0  234 235 
 NOR  HZ I         433 33.31         2.6 0.36            119            234 235 
 CHI  HZ EP        433  1.57                             117   -0.05 8  248 195 
 CHI  HN ES        433 31.07                             117    0.05 8  248 195 
 CHI  HZ I         433 41.33         2.2 0.30            118            248 195 
 GUY2CHE ES        433 42.14                             113    0.56 7  301 235 
                                                                                
