 2014  3 2 0455 44.4 L   6.803 -73.158145.7  RSN  8 0.3 1.8LRSN                1
 GAP=135        0.82       2.6     3.6  5.6 -0.1197E+01  0.6863E+01 -0.2773E+01E
 Epicentro: LOS SANTOS - SANTANDER                                             3
 ACTION:UPD 14-04-09 23:13 OP:nd   STATUS:               ID:20140302045544 L   I
 OLDACT:DUP 14-03-02 11:02 OP:stll STATUS:               ID:20140302044817d    3
 2014-03-02-0448-16M.COL___229                                                 6
 STAT SP IPHASW D HRMM SECON CODA AMPLIT PERI AZIMU VELO AIN AR TRES W  DIS CAZ7
 BAR2 SZ EP        456  3.85                             170   -0.2010 23.5 187 
 BAR2 SZ ES        456 19.44                             170    0.0810 23.5 187 
 BAR2 SZ I         456 22.97        14.2 0.60            170           23.5 187 
 PAM  SZ EP        456  6.97                             151    0.3010 77.9  40 
 PAM  SN ES        456 23.48                             151   -0.5410 77.9  40 
 PAM  SZ I         456 26.22         6.2 0.46            156           77.9  40 
 RUS  HZ EP        456  7.95                             144   -0.2610  101 175 
 RUS  HN ES        456 26.87                             144    0.1210  101 175 
 PTB  HZ EP        456 10.96                             132   -0.32 9  147 259 
 PTB  HN ES        456 32.12                             132   -0.10 9  147 259 
 PTB  HZ I         456 39.63         7.8 0.34            134            147 259 
 OCA  HZ EP        456 13.13                             130    0.45 9  160 354 
 OCA  HN ES        456 35.27                             130    0.55 9  160 354 
 OCA  HZ I         456 38.96         6.8 0.26            134            160 354 
 SPBC HZ EP        456 13.06                             129    0.19 9  163 219 
 SPBC HN ES        456 35.43                             129    0.37 9  163 219 
 SPBC HZ I         456 42.06        12.9 0.30            132            163 219 
 ZAR  HZ EP        456 16.35                             122   -0.38 9  203 292 
 ZAR  HE ES        456 41.93                             122    0.01 9  203 292 
 SML  HE ES        456 49.17                             117   -0.27 8  243 336 
                                                                                
