 2014 11 2 0236 53.7 L   7.003 -73.574112.5  RSN  5 0.4 1.5LRSN                1
 GAP=125        0.87       4.1     4.5  7.3  0.2112E+01 -0.1736E+01  0.5759E+01E
 Epicentro: SAN VICENTE DE CHUCURI - SANTANDER                                 3
 ACTION:UPD 14-12-19 15:38 OP:nd   STATUS:               ID:20141102023653 L   I
 OLDACT:DUP 14-11-02 18:24 OP:spq  STATUS:               ID:20141102022748d    3
 2014-11-02-0227-47M.COL___274                                                 6
 STAT SP IPHASW D HRMM SECON CODA AMPLIT PERI AZIMU VELO AIN AR TRES W  DIS CAZ7
 BRR  HZ EP        237  9.16                             170    0.3210 19.1 307 
 BRR  HN ES        237 21.10                             170    0.4210 19.1 307 
 BRR  HZ I         237 21.64        15.0 0.09            168           19.1 307 
 BAR2 SZ EP        237 11.39                             149    0.2810 62.8 136 
 BAR2 SZ ES   1    237 24.34                             149   -0.38 7 62.8 136 
 BAR2 SZ I         237 25.59        10.7 0.35            150           62.8 136 
 PTB  HZ EP     D  237 14.46                             132   -0.0510  110 242 
 PTB  HE ES        237 30.32                             132   -0.4410  110 242 
 PTB  HZ I         237 34.43         4.7 0.16            132            110 242 
 RUS  HZ EP        237 17.63                             126    0.2110  134 156 
 RUS  HE ES        237 35.76                             126   -0.1910  134 156 
 RUS  HZ I         237 39.47         4.5 0.30            127            134 156 
 OCA  HE ES   1    237 35.40                             125   -0.68 7  140  12 
 OCA  HZ I         237 42.55         7.3 0.07            123            140  12 
                                                                                
