 2011 11 2 0542 47.4 L   6.511 -73.483109.8  RSN  6 0.3 2.0LRSN                1
 GAP=159        0.64       3.4     4.0  6.0  0.3832E+01  0.4732E+01 -0.4411E+01E
 Epicentro: SIMACOTA - SANTANDER                                               3
 ACTION:UPD 12-07-13 16:07 OP:ep   STATUS:               ID:20111102054247 L   I
 2011-11-02-0541-15S.COL___176                                                 6
 STAT SP IPHASW D HRMM SECON CODA AMPLIT PERI AZIMU VELO AIN AR TRES W  DIS CAZ7
 BAR2 SZ EP        543  3.40                             161    0.3410 34.4  75 
 BAR2 SZ ES   1    543 15.72                             161    0.42 7 34.4  75 
 BAR2 SZ I         543 17.40        54.4 0.43                          34.4  75 
 BRR  HZ EP        543  4.44                             145   -0.2810 70.6 339 
 BRR  HE ES   1    543 17.90                             145   -0.37 7 70.6 339 
 BRR  HN I         543 18.94        38.0 0.17                          70.6 339 
 RUS  HZ EP   1    543  6.48                             141    0.27 7 81.4 147 
 RUS  HN ES   1    543 20.53                             141   -0.39 7 81.4 147 
 PAM  SZ EP   1    543  9.90                             128   -0.22 7  126  43 
 PAM  SE ES   1    543 27.81                             128   -0.07 7  126  43 
 ZAR  HZ EP   2    543 16.05                             116    0.22 4  187 306 
 ZAR  HN ES   1    543 38.20                             116    0.17 7  187 306 
 ZAR  HZ I         543 39.90         5.6 0.40                           187 306 
 OCA  SZ EP   1    543 16.33                             115   -0.26 7  192   5 
 OCA  SZ ES   1    543 39.69                             115    0.30 7  192   5 
 OCA  SZ I         543 46.94         7.1 0.27                           192   5 
                                                                                
