 2015  3 2 0626 22.3 L   6.803 -73.157135.8  RSN  4 0.4 0.8LRSN                1
 GAP=135        0.86       6.4     5.6  9.6 -0.1013E+02  0.1081E+02 -0.2650E+01E
 Epicentro: LOS SANTOS - SANTANDER                                             3
 ACTION:UPD 15-04-30 16:22 OP:nd   STATUS:               ID:20150302062622 L   I
 OLDACT:DUP 15-03-02 17:40 OP:spq  STATUS:               ID:20150302061748d    3
 2015-03-02-0617-46M.COL___290                                                 6
 STAT SP IPHASW D HRMM SECON CODA AMPLIT PERI AZIMU VELO AIN AR TRES W  DIS CAZ7
 BRR  HZ EP        626 42.68                             151    0.3910 69.9 299 
 BRR  HN ES   1    626 57.99                             151    0.09 7 69.9 299 
 BRR  HZ I         627  3.62         1.4 0.14            153           69.9 299 
 PAM  SZ EP        626 43.76                             149    0.2710 77.9  40 
 PAM  SN ES   1    626 59.49                             149   -0.54 7 77.9  40 
 PAM  SZ I         627  1.81         0.8 0.42            154           77.9  40 
 RUS  HE ES   1    627  2.99                             141    0.09 7  101 175 
 RUS  HZ I         627  4.95         1.0 0.26            148            101 175 
 PTB  HZ EP        626 47.75                             130   -0.60 9  147 259 
 PTB  HN ES   1    627  8.80                             130    0.12 7  147 259 
 PTB  HZ I         627 11.15         0.9 0.15            134            147 259 
                                                                                
