 2010 12 2 0833 32.4 L   6.821 -72.998146.3  RSN 12 0.4 2.0LRSN                1
 GAP=175        0.89       4.6     9.9  6.9 -0.5312E+01 -0.2453E+01  0.3875E+01E
 Epicentro: CEPITA - SANTANDER                                                 3
 ACTION:UP  11-01-14 15:22 OP:pat  STATUS:               ID:20101202083332 L   I
 2010-12-02-0831-37S.COL___132                                                 6
 STAT SP IPHASW D HRMM SECON CODA AMPLIT PERI AZIMU VELO SNR AR TRES W  DIS CAZ7
 BAR2 SZ EP        833 52.50                             167     0.210   33 219 
 BAR2 SZ ES   1    834  7.37                             167    -0.5 7   33 219 
 BAR2 SZ I         834 10.15        21.5 0.27                            33 219 
 GIR2 SZ EP   3    833 52.55                             166     0.3 2   36 323 
 BRR  HZ EP        833 54.13                             148    -0.310   85 292 
 BRR  HE ES   1    834 11.77                             148     0.1 7   85 292 
 BRR  HZ I         834 15.39        13.1 0.26                            85 292 
 RUS  HZ EP   1    833 56.46                             143     0.1 7  103 185 
 RUS  HE ES   1    834 15.20                             143     0.1 7  103 185 
 RUS  HZ I         834 16.73         9.3 0.43                           103 185 
 GUE  SZ EP        833 56.54                             141    -0.310  112   4 
 GRA  SZ ES   2    834 17.50                             138     1.0 5  120  10 
 GRA  SZ I         834 21.93         9.4 0.20                           120  10 
 OCA  SZ EP   2    834  0.95                             130     0.2 5  161 347 
 CHI  HZ EP        834 10.51                             116    -0.4 8  256 199 
 CHI  HZ I         834 43.01         3.5 0.22                           256 199 
 ROSC BZ EP        834 12.48                             116     0.8 8  263 214 
 HEL  HZ EP   3    834 14.00                             113    -0.5 2  289 256 
 HEL  HZ I         834 53.00         4.9 0.43                           289 256 
 GUY  SZ EP   2    834 17.69                             111     0.0 3  316 236 
 GUY  SZ I         835  3.07         8.4 0.47                           316 236 
 RREF HZ EP   3    834 20.06                             110    -0.1 2  336 231 
 RREF HZ I         835  4.01         5.8 0.37                           336 231 
                                                                                
