 2012  3 2 0925  8.3 L   6.304 -73.645104.0  RSN  5 0.4 1.5LRSN                1
 GAP=209        0.90       8.1     4.6  9.9 -0.3202E+00  0.2353E+02  0.2159E+02E
 ACTION:UP  12-03-31 23:16 OP:EP   STATUS:               ID:20120302092508 L   I
 2012-03-02-0920-00M.COL___190                                                 6
 STAT SP IPHASW D HRMM SECON CODA AMPLIT PERI AZIMU VELO SNR AR TRES W  DIS CAZ7
 BAR2 SZ EP        925 24.61                             148    -0.110   60  58 
 BAR2 SZ I         925 25.00        10.0 0.36                            60  58 
 BAR2 SZ ES        925 37.71                             148     0.210   60  58 
 BRR  HZ EP   1    925 26.11                             136    -0.4 7   89 355 
 BRR  HZ I         925 36.73         7.6 0.33                            89 355 
 BRR  HN ES   1    925 41.02                             136     0.2 7   89 355 
 PTB  HZ EP        925 26.56                             135    -0.410   93 286 
 PTB  HN ES   1    925 41.08                             135    -0.4 7   93 286 
 ZAR  HZ EP   1    925 36.44                             114    -0.1 7  188 314 
 ZAR  HE ES   1    925 58.86                             114     0.2 7  188 314 
 ZAR  HZ I         926  3.33         5.1 0.28                           188 314 
 HEL  HZ EP   1    925 40.21                             111     0.8 6  209 267 
 HEL  HN ES   1    926  4.09                             111     0.4 6  209 267 
 HEL  HZ I         926  8.95         2.2 0.52                           209 267 
                                                                                
