 2013  9 2 0526 37.3 L   6.874 -73.285126.8  RSN 11 0.5 1.9LRSN                1
 GAP=109        1.09       2.8     4.8  6.3  0.3475E+00  0.9020E+01 -0.2685E+00E
 Epicentro: BETULIA - SANTANDER                                                3
 ACTION:UPD 13-10-22 09:19 OP:ep   STATUS:               ID:20130902052637 L   I
 OLDACT:UP  13-09-02 09:39 OP:cam  STATUS:               ID:20130902052000     3
 OLDACT:REG 13-09-02 08:02 OP:cam  STATUS:               ID:20130902052000     3
 2013-09-02-0520-00M.COL___268                                                 6
 STAT SP IPHASW D HRMM SECON CODA AMPLIT PERI AZIMU VELO AIN AR TRES W  DIS CAZ7
 BAR2 SZ EP     D  526 55.00                             165    0.0710 33.2 160 
 BAR2 SZ ES        527  8.56                             165   -0.1310 33.2 160 
 BAR2 SZ I         527  9.74        30.4 0.14            165           33.2 160 
 BRR  HZ EP        526 55.51                             155    0.0710 53.7 299 
 BRR  HN ES        527  9.61                             155    0.0210 53.7 299 
 BRR  HZ I         527 10.18        29.4 0.10            154           53.7 299 
 PAM  SZ EP   1    526 58.54                             145    0.64 7 82.7  51 
 PAM  SN ES        527 14.63                             145    0.6710 82.7  51 
 PAM  SZ I         527 17.13        14.9 0.28            148           82.7  51 
 RUS  HZ EP        526 59.77                             137   -0.3110  111 168 
 RUS  HN ES        527 17.44                             137   -0.4010  111 168 
 RUS  HZ I         527 19.32         7.4 0.26            137            111 168 
 PTB  HZ EP   4    527  0.36                             130   -1.19 0  135 254 
 PTB  HN ES   4    527 17.83                             130   -2.63 0  135 254 
 PTB  HZ I         527 22.56        12.5 0.14            130            135 254 
 OCA  HZ EP        527  3.19                             127   -0.11 9  151 359 
 OCA  HN ES        527 22.92                             127   -0.65 9  151 359 
 OCA  HZ I         527 26.81        19.4 0.28            128            151 359 
 SPBC HZ EP        527  4.29                             125    0.11 9  161 213 
 SPBC HN ES        527 24.43                             125   -0.71 9  161 213 
 SPBC HZ I         527 30.41        11.0 0.42            125            161 213 
 ZAR  HZ EP        527  6.94                             120    0.20 9  187 292 
 ZAR  HE ES        527 30.53                             120    0.83 9  187 292 
 ZAR  HZ I         527 34.54        13.9 0.40            120            187 292 
 SML  HZ EP        527 10.93                             115   -0.49 8  230 338 
 SML  HN ES   1    527 37.50                             115   -0.53 6  230 338 
 CHI  HZ EP   1    527 14.88                             112    0.35 6  253 191 
 CHI  HN ES        527 44.19                             112    0.63 8  253 191 
 CHI  HZ I         527 49.15         4.7 0.46            113            253 191 
 HEL  HZ EP   4    527 16.22                             112    1.04 0  259 253 
 HEL  HN ES   4    527 45.53                             112    0.80 0  259 253 
 HEL  HZ I         527 48.24         3.4 0.24            112            259 253 
                                                                                
