 2017  3 2 0419 26.5 L   6.780 -73.133141.7  RSN 29 0.5 2.7LRSN                1
 GAP= 67        0.75       2.3     2.1  3.2 -0.1289E+00  0.1903E+01  0.5114E+00E
 Epicentro: LOS SANTOS - SANTANDER                                             3
 ACTION:UPD 17-05-25 18:34 OP:jn   STATUS:               ID:20170302041926 L   I
 OLDACT:UP  17-03-02 15:49 OP:and  STATUS:               ID:20170302041744     3
 OLDACT:UP  17-03-02 15:48 OP:and  STATUS:               ID:20170302041744     3
 OLDACT:UP  17-03-02 15:48 OP:and  STATUS:               ID:20170302041744     3
 OLDACT:UP  17-03-02 15:46 OP:and  STATUS:               ID:20170302041744     3
 OLDACT:UP  17-03-02 15:45 OP:and  STATUS:               ID:20170302041744     3
 OLDACT:UP  17-03-02 15:45 OP:and  STATUS:               ID:20170302041744     3
 OLDACT:UP  17-03-02 15:44 OP:and  STATUS:               ID:20170302041744     3
 OLDACT:UP  17-03-02 15:44 OP:and  STATUS:               ID:20170302041744     3
 OLDACT:UP  17-03-02 15:42 OP:and  STATUS:               ID:20170302041744     3
 OLDACT:UP  17-03-02 15:42 OP:and  STATUS:               ID:20170302041744     3
 OLDACT:UP  17-03-02 15:41 OP:and  STATUS:               ID:20170302041744     3
 OLDACT:UP  17-03-02 15:40 OP:and  STATUS:               ID:20170302041744     3
 OLDACT:UP  17-03-02 15:40 OP:and  STATUS:               ID:20170302041744     3
 OLDACT:REG 17-03-02 12:44 OP:and  STATUS:               ID:20170302041744     3
 2017-03-02-0418-00M.COL___387                                                 6
 STAT SP IPHASW D HRMM SECON CODA AMPLIT PERI AZIMU VELO AIN AR TRES W  DIS CAZ7
 BAR2 EZ IP     C  419 45.49                             171   -0.1310 21.5 195 
 BAR2 EZ ES        420  0.55                             171    0.0310 21.5 195 
 BAR2 EZ I         420  1.62        77.0 0.22            162           21.5 195 
 BRR  HZ IP     C  419 47.39                             151    0.0410 73.4 300 
 BRR  HN ES        420  4.15                             151    0.5410 73.4 300 
 BRR  HZ I         420  7.43        71.9 0.20            140           73.4 300 
 PAM  EZ IP     C  419 48.33                             150   -0.0210 78.2  38 
 PAM  EN ES        420  5.09                             150   -0.2910 78.2  38 
 PAM  EZ I         420  5.94       104.9 0.28            143           78.2  38 
 RUS  HZ IP     C  419 49.39                             144   -0.3110 98.3 177 
 RUS  HN ES        420  7.77                             144   -0.0210 98.3 177 
 RUS  HZ I         420  9.03       138.2 0.30            130           98.3 177 
 PTB  HZ EP   9 C  419 52.03                             131   -1.21 0  149 260 
 PTB  HN ES        420 13.02                             131    0.15 9  149 260 
 PTB  HZ I         420 15.58        92.5 0.20            117            149 260 
 TAM  HZ IP     C  419 53.89                             130    0.20 9  153 104 
 TAM  HN ES        420 14.99                             130    0.09 9  153 104 
 TAM  HZ I         420 15.84        68.1 0.24            119            153 104 
 ZAR  HZ EP        419 58.83                             121   -0.08 8  206 293 
 ZAR  HN ES        420 24.43                             121    0.25 8  206 293 
 ZAR  HZ I         420 33.79        82.7 0.42            110            206 293 
 NOR  HZ EP        420  2.13                             118    0.14 8  235 235 
 NOR  HN ES        420 29.58                             118   -0.09 8  235 235 
 NOR  HZ I         420 35.31        54.3 0.35            106            235 235 
 CHI  HZ EP        420  3.84                             117    0.04 8  247 196 
 CHI  HN ES        420 32.44                             117   -0.44 8  247 196 
 CHI  HZ I         420 36.20        23.0 0.28            105            247 196 
 ROSC BZ EP   9    420  5.47                             116    1.18 0  252 212 
 ROSC BN ES        420 35.74                             116    0.81 8  252 212 
 ROSC BZ I         420 40.43        62.1 0.40            105            252 212 
 HEL  HZ EP   3    420  7.70                             114    1.09 2  273 256 
 HEL  HN ES        420 37.84                             114   -0.04 8  273 256 
 HEL  HZ I         420 44.66        50.7 0.44            103            273 256 
 URE  HZ EP        420  6.66                             113   -0.96 7  286 292 
 URE  HN ES   3    420 38.22                             113   -1.46 2  286 292 
 URE  HZ I         420 49.85        36.6 0.26            102            286 292 
 PTGC HZ IP   9 C  420  8.68                             111   -1.22 0  306 159 
 PTGC HN ES        420 41.81                             111   -0.71 7  306 159 
 PTGC HZ I         420 44.51        40.2 0.30            101            306 159 
 LL6C HN EP   9    419 51.91                             110   -20.4 0  327 357 
 LL6C HE ES        420 26.78                                   -0.84 7  327 357 
 LL6C HN I         420 32.66        13.7 0.48            100            327 357 
 ELA  HZ EP   3    420 14.80                             110    1.65 2  329 230 
 ELA  HE ES   4    420 53.07                             110    3.54 0  329 230 
 ELA  HZ I         420 56.78        41.4 0.66             99            329 230 
 CBOC HZ EP        420 13.64                             109    0.31 7  334 253 
 CBOC HN ES        420 50.00                             109    0.15 7  334 253 
 CBOC HZ I         420 53.30        14.7 0.28             99            334 253 
 DBB  EZ EP     C  420 13.77                             109   -0.23 7  341 275 
 DBB  EN ES   3    420 49.40                             109   -1.64 2  341 275 
 DBB  EZ I         420 51.89        16.6 0.36             99            341 275 
 ANIL HZ EP   3    420 17.71                             108    1.62 2  357 225 
 ANIL HN ES   4    420 57.23                             108    2.46 0  357 225 
 ANIL HZ I         421  4.75        56.6 0.44             98            357 225 
 ARGC HZ EP        420 16.61                             107    0.30 6  362 340 
 ARGC HN ES   3    420 56.39                             107    1.25 2  362 340 
 ARGC HZ I         420 58.43         9.3 0.26             98            362 340 
 PRA  HZ EP        420 19.86                             106    0.11 6  391 210 
 PRA  HN ES   2    421  1.12                             106   -0.16 3  391 210 
 PRA  HZ I         421  7.28        22.6 0.12             96            391 210 
 ORTC HZ EP        420 20.78                             106    0.60 6  394 217 
 ORTC HN ES   2    421  3.43                             106    1.38 3  394 217 
 ORTC HZ I         421 10.15        23.2 0.46             95            394 217 
 SJC  HZ EP   4    420 19.99                             105   -2.25 0  412 327 
 SJC  HN ES   4    421  2.14                             105   -3.57 0  412 327 
 SJC  HZ I         421  5.34        13.4 0.44             95            412 327 
 CRJC HZ EP   4    420 26.22                             103   -2.93 0  470   3 
 CRJC HZ I         421 15.12         7.3 0.32                           470   3 
 CRJC HN ES   4    421 16.18                             103   -1.82 0  470   3 
 YOT  HZ EP        420 29.04                             103   -0.36 5  472 229 
 YOT  HN ES   4    421 22.66                             103    4.21 0  472 229 
 SMAR HZ EP        420 32.65                             102    0.08 4  499 346 
 SMAR HN ES   4    421 19.51                             102   -4.58 0  499 346 
 SMAR HZ I         421 25.12         6.0 0.26             91            499 346 
 MACC HZ EP   4    420 33.35                             101   -1.54 0  519 189 
 MACC HN ES   4    421 25.62                             101   -2.61 0  519 189 
 MACC HZ I         421 31.19         6.3 0.43             90            519 189 
 MAL  EZ EP   4    420 40.86                             100    1.38 0  557 237 
 POP2 HZ EP        420 45.96                              99   -0.39 3  612 220 
 POP2 HN ES   4    421 49.69                              99    1.07 0  612 220 
 POP2 HZ I         421 51.94         1.6 0.36             90            612 220 
 BBAC HZ EP        420 57.10                              97    0.53 1  697 221 
 BBAC HN ES   3    422  5.60                              97   -1.21 0  697 221 
 BBAC HZ I         422 11.08         2.4 0.26             90            697 221 
 GCUF HZ EP        421  6.96                              96    0.92 0  772 217 
 GCUF HN ES   4    422 21.92                              96   -1.75 0  772 217 
 GCUF HZ I         422 36.33         2.0 0.50             90            772 217 
                                                                                
