 2014  1 2 0608 46.2 L   6.812 -73.159145.0  RSN  6 0.4 1.4LRSN                1
 GAP=134        0.96       3.3     5.3  6.5 -0.1444E+01  0.1130E+02 -0.1627E+01E
 Epicentro: LOS SANTOS - SANTANDER                                             3
 ACTION:UPD 14-03-13 09:50 OP:ep   STATUS:               ID:20140102060846 L   I
 OLDACT:DUP 14-01-02 12:38 OP:stll STATUS:               ID:20140102055806d    3
 2014-01-02-0558-05M.COL___237                                                 6
 STAT SP IPHASW D HRMM SECON CODA AMPLIT PERI AZIMU VELO AIN AR TRES W  DIS CAZ7
 BAR2 SZ EP        6 9  5.91                             170    0.1510 24.5 186 
 BAR2 SZ ES        6 9 21.29                             170    0.2810 24.5 186 
 BAR2 SZ I         6 9 22.62         8.6 0.26            168           24.5 186 
 PAM  SZ EP        6 9  8.31                             151   -0.0110 77.3  41 
 PAM  SN ES        6 9 25.82                             151    0.2410 77.3  41 
 RUS  HZ EP        6 9  9.77                             143   -0.2110  102 175 
 RUS  HN ES        6 9 27.72                             143   -0.8010  102 175 
 RUS  HZ I         6 9 29.55         2.4 0.26            145            102 175 
 PTB  HZ EP        6 9 12.72                             132   -0.27 9  147 258 
 PTB  HN ES        6 9 33.84                             132   -0.05 9  147 258 
 PTB  HZ I         6 9 39.88         2.4 0.18            130            147 258 
 SML  HZ EP        6 9 22.59                             117    0.01 8  242 335 
 SML  HN ES        6 9 50.92                             117   -0.04 8  242 335 
 SML  HZ I         6 9 55.67         4.3 0.10            118            242 335 
 CHI  HZ EP        6 9 24.03                             117    0.08 8  250 195 
 CHI  HN ES        6 9 54.37                             117    0.97 8  250 195 
 CHI  HZ I         6 9 57.39         1.2 0.32            118            250 195 
                                                                                
