 2016  2 2 0337 43.4 L   6.865 -73.220139.2  RSN  4 0.6 1.1LRSN                1
 GAP=196        0.84       6.3    11.9 16.6  0.2897E+02  0.3035E+02 -0.4028E+02E
 Epicentro: ZAPATOCA - SANTANDER                                               3
 ACTION:UPD 16-03-04 21:22 OP:rebc STATUS:               ID:20160202033743 L   I
 OLDACT:DUP 16-02-02 16:38 OP:dnl  STATUS:               ID:20160202032631d    3
 2016-02-02-0334-00M.COL___409                                                 6
 STAT SP IPHASW D HRMM SECON CODA AMPLIT PERI AZIMU VELO AIN AR TRES W  DIS CAZ7
 BAR2 EZ EP   2    338  2.98                             167    0.55 6 30.4 172 
 BAR2 EZ ES   2    338 18.00                             167    0.74 6 30.4 172 
 BAR2 EZ I         338 19.29         2.3 0.17            172           30.4 172 
 RUS  HZ EP   2    338  6.68                             140   -0.46 6  109 172 
 RUS  HE ES   2    338 24.85                             140   -0.79 6  109 172 
 RUS  HZ I         338 26.44         1.3 0.33            146            109 172 
 PTB  HZ EP   2    338 10.24                             132    0.97 6  141 255 
 PTB  HN ES   2    338 29.06                             132   -0.37 6  141 255 
 PTB  HZ I         338 31.82         1.2 0.20            134            141 255 
 SML  HZ EP   4    338 20.10                             117    1.50 0  234 336 
 SML  HN ES        338 45.81                             117   -0.2310  234 336 
 SML  HZ I         338 52.54         1.9 0.08            119            234 336 
                                                                                
