 2011 11 2 0521 44.7 L   6.744 -73.086143.7  RSN  5 0.3 1.8LRSN                1
 GAP=189        0.73       4.0     8.1  7.1  0.9230E+01 -0.1637E+02 -0.8462E+01E
 Epicentro: JORDAN - SANTANDER                                                 3
 ACTION:UPD 12-07-13 16:07 OP:ep   STATUS:               ID:20111102052144 L   I
 2011-11-02-0519-28S.COL___176                                                 6
 STAT SP IPHASW D HRMM SECON CODA AMPLIT PERI AZIMU VELO AIN AR TRES W  DIS CAZ7
 BAR2 SZ EP        522  4.01                             171    0.0110 19.9 212 
 BAR2 SZ ES   1    522 18.27                             171   -0.80 7 19.9 212 
 BAR2 SZ I         522 21.01        18.3 0.26                          19.9 212 
 BRR  HZ EP        522  6.08                             149   -0.0610 80.0 300 
 BRR  HZ I         522  6.42        24.8 0.15                          80.0 300 
 BRR  HE ES        522 23.21                             149    0.3410 80.0 300 
 RUS  HZ EP   1    522  8.04                             145    0.26 7 94.1 180 
 RUS  HN ES   1    522 26.08                             145    0.29 7 94.1 180 
 RUS  HZ I         522 28.12         4.9 0.32                          94.1 180 
 OCA  SZ EP        522 13.54                             127    0.03 9  167 351 
 OCA  SZ ES   1    522 35.78                             127   -0.21 7  167 351 
 OCA  SZ I         522 41.28         5.4 0.42                           167 351 
 NOR  SE ES   2    522 47.97                             117   -0.48 4  237 237 
                                                                                
