 2012 10 2 0059 46.4 L   6.789 -73.145144.9  RSN  7 0.3 2.0LRSN                1
 GAP=137        0.50       3.3     4.5  4.7  0.2703E+01  0.6188E+01  0.4449E+01E
 Epicentro: LOS SANTOS - SANTANDER                                             3
 ACTION:UPD 12-11-22 17:01 OP:ep   STATUS:               ID:20121002005946 L   I
 2012-10-02-0056-39M.COL___207                                                 6
 STAT SP IPHASW D HRMM SECON CODA AMPLIT PERI AZIMU VELO AIN AR TRES W  DIS CAZ7
 BAR2 SZ EP   1    1 0  5.69                             171   -0.18 7 22.1 191 
 BAR2 SZ ES   2    1 0 20.50                             171   -0.58 5 22.1 191 
 BAR2 SZ I         1 0 21.75        43.8 0.13                          22.1 191 
 GIR2 SZ EP   1    1 0  5.68                             167   -0.29 7 32.5 350 
 GIR2 SZ ES   1    1 0 21.33                             167    0.07 7 32.5 350 
 BRR  HZ EP        1 0  7.44                             152   -0.0210 71.9 299 
 BRR  HZ I         1 0  7.63        29.0 0.13                          71.9 299 
 BRR  HN ES   2    1 0 24.50                             152    0.59 5 71.9 299 
 PAM  SZ EP   1    1 0  8.67                             150    0.13 7 78.3  39 
 PAM  SN ES   2    1 0 25.82                             150   -0.02 5 78.3  39 
 PAM  SZ I         1 0 27.80        15.1 0.41                          78.3  39 
 RUS  HZ EP   1    1 0 10.13                             144    0.18 7 99.4 176 
 RUS  HN ES   2    1 0 28.76                             144    0.42 5 99.4 176 
 ZAR  HZ EP   1    1 0 19.12                             122    0.31 6  205 292 
 ZAR  HE ES   2    1 0 43.61                             122   -0.51 4  205 292 
 ZAR  HZ I         1 0 46.06         7.0 0.19                           205 292 
 CHI  HZ EP   1    1 0 23.79                             117   -0.10 6  247 195 
 CHI  HN ES   2    1 0 53.01                             117   -0.15 4  247 195 
 CHI  HZ I         1 0 56.62         3.9 0.40                           247 195 
                                                                                
