 2015 12 2 0040 47.1 L   6.869 -73.271122.5  RSN  8 0.3 2.0LRSN                1
 GAP=164        0.81       2.5     3.7  5.3  0.1206E+01  0.4316E+01 -0.3013E+01E
 Epicentro: BETULIA - SANTANDER                                                3
 ACTION:UPD 16-02-04 15:01 OP:cam  STATUS:               ID:20151202004047 L   I
 OLDACT:UP  15-12-02 12:57 OP:mh   STATUS:               ID:20151202003747     3
 OLDACT:UP  15-12-02 12:56 OP:mh   STATUS:               ID:20151202003747     3
 OLDACT:UP  15-12-02 12:56 OP:mh   STATUS:               ID:20151202003747     3
 OLDACT:REG 15-12-02 12:08 OP:mh   STATUS:               ID:20151202003747     3
 2015-12-02-0037-47M.COL___314                                                 6
 STAT SP IPHASW D HRMM SECON CODA AMPLIT PERI AZIMU VELO AIN AR TRES W  DIS CAZ7
 BAR2 EZ EP     D  041  4.64                             164    0.4410 32.1 162 
 BAR2 EZ ES        041 17.62                             164    0.1010 32.1 162 
 BAR2 EZ I         041 18.53        21.4 0.26            166           32.1 162 
 BRR  HZ EP        041  5.01                             154    0.1510 55.4 298 
 BRR  HN ES        041 18.72                             154    0.0210 55.4 298 
 BRR  HZ I         041 19.43        28.3 0.14            151           55.4 298 
 RUS  HZ EP        041  9.64                             136    0.2110  110 169 
 RUS  HN ES        041 26.46                             136   -0.3810  110 169 
 RUS  HZ I         041 27.67         8.9 0.24            137            110 169 
 PTB  HZ EP   1    041 10.88                             129   -0.28 7  136 255 
 PTB  HE ES   1    041 29.48                             129   -0.43 7  136 255 
 PTB  HZ I         041 33.38        10.3 0.42            127            136 255 
 OCA  HZ EP   1    041 12.69                             125   -0.16 7  152 358 
 OCA  HN ES        041 32.50                             125   -0.42 9  152 358 
 OCA  HZ I         041 35.70        30.2 0.72            125            152 358 
 ZAR  HZ EP        041 15.82                             119   -0.65 9  188 292 
 ZAR  HN ES        041 39.61                             119    0.25 9  188 292 
 ZAR  HZ I         041 42.64        12.4 0.28            118            188 292 
 NOR  HN ES        041 47.53                             114    0.29 8  228 231 
 NOR  HZ I         041 52.26         2.9 0.18            113            228 231 
 SML  HZ EP        041 21.19                             113    0.05 8  231 338 
 SML  HN ES        041 48.17                             113    0.50 8  231 338 
 SML  HZ I         041 53.09        16.7 0.10            113            231 338 
 SJC  HZ EP   4    041 38.77                             102   -1.58 0  395 328 
 SJC  HN ES   4    042 17.72                             102   -4.15 0  395 328 
                                                                                
