 2013  1 2 0948 21.1 L   6.367 -73.759 85.2  RSN  4 0.5 0.9LRSN                1
 GAP=215        0.94       9.6     5.6 17.4  0.3119E+01  0.4418E+02  0.1004E+02E
 Epicentro: SANTA HELENA DEL OPON - SANTANDER                                  3
 ACTION:UPD 13-02-15 09:11 OP:ep   STATUS:               ID:20130102094821 L   I
 2013-01-02-0940-00M.COL___242                                                 6
 STAT SP IPHASW D HRMM SECON CODA AMPLIT PERI AZIMU VELO AIN AR TRES W  DIS CAZ7
 BAR2 SZ EP   2    948 36.69                             139    0.39 5 68.5  69 
 BAR2 SZ ES   1    948 48.42                             139    0.29 7 68.5  69 
 BAR2 SZ I         948 49.38         6.3 0.48            137           68.5  69 
 PTB  HZ EP   1    948 36.26                             134   -0.69 7 79.5 284 
 PTB  HN ES   1    948 49.54                             134    0.27 7 79.5 284 
 PTB  HZ I         948 50.03         1.0 0.12            132           79.5 284 
 BRR  HN ES   1    948 49.07                             133   -0.57 7 82.0   4 
 BRR  HZ I         948 49.90         2.8 0.44            130           82.0   4 
 ZAR  HE ES   1    949  7.75                             111    0.66 7  174 316 
 ZAR  HZ I         949  9.24         1.0 0.30            110            174 316 
                                                                                
