 2011  1 2 0332 47.7 L   6.806 -73.182141.4  RSN  6 0.1 1.5LRSN                1
 GAP=176        0.35       3.2     6.1  5.8 -0.5483E+01  0.1418E+02 -0.9552E+01E
 Epicentro: LOS SANTOS - SANTANDER                                             3
 ACTION:UP  11-02-08 08:37 OP:pat  STATUS:               ID:20110102033247 L   I
 2011-01-02-0330-42S.COL___134                                                 6
 STAT SP IPHASW D HRMM SECON CODA AMPLIT PERI AZIMU VELO SNR AR TRES W  DIS CAZ7
 BAR2 SZ ES   2    333 21.75                             170     0.0 5   24 180 
 BAR2 SZ I         333 22.87        12.3 0.28                            24 180 
 GIR2 SZ EP   2    333  7.09                             167     0.3 5   30 358 
 RUS  HZ EP   2    333 11.04                             143     0.0 5  102 174 
 RUS  HN ES   1    333 29.27                             143    -0.1 7  102 174 
 RUS  HZ I         333 31.20         2.8 0.64                           102 174 
 OCA  SZ EP   1    333 15.45                             129    -0.1 7  159 355 
 OCA  SZ I         333 45.39         4.0 0.23                           159 355 
 NOR  SN ES   2    333 50.28                             118     0.0 4  232 234 
 CHI  HZ EP   2    333 25.25                             116     0.2 4  248 194 
 CHI  HZ I         333 56.86         2.3 0.37                           248 194 
                                                                                
