 2016 10 2 0837  6.6 L   6.755 -73.178143.9  RSN  4 0.4 1.1LRSN                1
 GAP=230        0.91       7.3     7.6  9.4  0.2618E+02  0.1399E+02 -0.9713E+00E
 Epicentro: LOS SANTOS - SANTANDER                                             3
 ACTION:UPD 16-11-09 19:15 OP:rebc STATUS:               ID:20161002083706 L   I
 OLDACT:REG 16-10-02 13:07 OP:dnl  STATUS:               ID:20161002082743     3
 2016-10-02-0828-00M.COL___366                                                 6
 STAT SP IPHASW D HRMM SECON CODA AMPLIT PERI AZIMU VELO AIN AR TRES W  DIS CAZ7
 BAR2 EZ EP   2    837 25.04                             173   -0.86 5 18.0 181 
 BAR2 EZ ES        837 40.42                             173   -0.5410 18.0 181 
 BAR2 EZ I         837 42.15         3.4 0.24            175           18.0 181 
 BRR  HZ EP        837 27.70                             152    0.1910 70.7 303 
 BRR  HN ES        837 44.20                             152    0.3810 70.7 303 
 BRR  HZ I         837 50.19         2.6 0.60            152           70.7 303 
 RUS  HZ EP   2    837 30.33                             145    0.50 5 95.9 174 
 RUS  HE ES        837 48.29                             145    0.3410 95.9 174 
 RUS  HZ I         837 49.67         1.6 0.26            150           95.9 174 
 PTB  HZ EP   2    837 32.51                             132   -0.49 5  143 261 
 PTB  HN ES        837 53.40                             132   -0.20 9  143 261 
 PTB  HZ I         837 55.82         1.3 0.56            135            143 261 
                                                                                
