 2013  7 2 0457 17.9 L   6.862 -73.299123.0  RSN 12 0.5 2.3LRSN                1
 GAP= 87        1.22       3.8     3.9  7.0  0.9113E+00  0.5224E+01 -0.5616E+01E
 Epicentro: ZAPATOCA - SANTANDER                                               3
 ACTION:UPD 13-08-12 10:34 OP:ep   STATUS:               ID:20130702045717 L   I
 OLDACT:UP  13-07-03 00:10 OP:CF   STATUS:               ID:20130702045717 L   3
 OLDACT:DUP 13-07-02 10:51 OP:stll STATUS:               ID:20130702044848d    3
 2013-07-02-0448-47M.COL___227                                                 6
 STAT SP IPHASW D HRMM SECON CODA AMPLIT PERI AZIMU VELO AIN AR TRES W  DIS CAZ7
 GIR2 SZ EP        457 34.87                             167    0.1310 26.7  26 
 GIR2 SZ ES   1    457 47.45                             167   -0.43 7 26.7  26 
 BAR2 SZ IP        457 35.27                             164    0.2110 32.5 157 
 BAR2 SZ ES        457 48.29                             164   -0.1610 32.5 157 
 BAR2 SZ I         457 49.60       145.5 0.42            165           32.5 157 
 BRR  HZ IP     C  457 35.63                             155    0.0510 53.0 301 
 BRR  HN ES   1    457 49.74                             155    0.37 7 53.0 301 
 BRR  HN I         457 50.19        93.1 0.18            156           53.0 301 
 PAM  SZ EP   1    457 38.75                             144    0.49 7 84.7  51 
 PAM  SN ES        457 54.75                             144    0.6010 84.7  51 
 PAM  SN I         457 56.35        18.0 0.18            146           84.7  51 
 RUS  HZ EP        457 40.33                             136    0.0710  110 167 
 RUS  HN ES        457 57.55                             136   -0.1510  110 167 
 RUS  HN I         457 59.12        16.8 0.24            137            110 167 
 GRA  SZ EP        457 41.26                             131    0.0610  126  26 
 PTB  HZ EP     D  457 40.51                             129   -1.1610  133 254 
 PTB  HN ES   4    457 57.83                             129   -2.39 0  133 254 
 PTB  HN I         458  3.00        31.3 0.52            131            133 254 
 OCA  HZ EP        457 43.40                             125   -0.34 9  152 359 
 OCA  HN ES   1    458  3.22                             125   -0.68 7  152 359 
 CAPV BZ IP        457 44.77                             125    0.63 9  155  44 
 CAPV BZ ES        458  4.21                             125   -0.41 9  155  44 
 TAM  HE ES        458  7.24                             121   -0.21 9  173 106 
 ZAR  HZ EP        457 47.71                             119    0.71 9  186 292 
 ZAR  HE ES        458 10.40                             119    0.70 9  186 292 
 SML  HE ES        458 17.70                             114   -0.71 8  231 338 
                                                                                
