 2010  9 2 0625 14.6 L   6.791 -73.097139.3  RSN  5 0.2 1.3LRSN                1
 GAP=164        0.47       4.7     8.3  8.2  0.4345E+01 -0.4695E+02 -0.7579E+01E
 Epicentro: LOS SANTOS - SANTANDER                                             3
 ACTION:UP  11-02-18 10:59 OP:tino STATUS:               ID:20100902062514 L   I
 2010-09-02-0622-14S.COL___120                                                 6
 STAT SP IPHASW D HRMM SECON CODA AMPLIT PERI AZIMU VELO SNR AR TRES W  DIS CAZ7
 BAR2 SZ ES   2    625 47.90                             170    -0.2 5   24 203 
 BAR2 SZ I         625 49.41         4.4 0.21                            24 203 
 BRR  HZ EP   1    625 35.06                             150    -0.3 8   76 297 
 BRR  HN ES   1    625 51.69                             150     0.2 8   76 297 
 BRR  HZ I         625 55.75         4.7 0.09                            76 297 
 RUS  HZ EP   1    625 37.72                             143     0.1 8   99 179 
 GUE  SZ EP   2    625 38.95                             138     0.3 5  117   9 
 GRA  SZ IP        625 39.16                             136     0.010  125  15 
                                                                                
