 2014 11 2 0831 50.4 L   6.846 -73.141147.9  RSN 25 0.4 2.5LRSN                1
 GAP= 70        0.90       2.5     2.8  4.1 -0.1646E+01  0.2415E+01  0.1384E+01E
 Epicentro: LOS SANTOS - SANTANDER                                             3
 ACTION:UPD 14-12-19 15:38 OP:nd   STATUS:               ID:20141102083150 L   I
 OLDACT:UP  14-11-02 14:23 OP:spq  STATUS:               ID:20141102082747     3
 OLDACT:REG 14-11-02 13:54 OP:spq  STATUS:               ID:20141102082747     3
 2014-11-02-0827-47M.COL___268                                                 6
 STAT SP IPHASW D HRMM SECON CODA AMPLIT PERI AZIMU VELO AIN AR TRES W  DIS CAZ7
 BAR2 SZ IP     C  832 10.33                             169   -0.1110 28.4 189 
 BAR2 SZ ES   1    832 25.82                             169   -0.22 7 28.4 189 
 BAR2 SZ I         832 26.76        69.5 0.24            168           28.4 189 
 BRR  HZ IP     D  832 12.07                             153    0.3510 69.4 295 
 BRR  HN ES        832 28.92                             153    0.6010 69.4 295 
 BRR  HZ I         832 29.65        78.6 0.12            151           69.4 295 
 PAM  SZ EP     D  832 13.19                             152    0.5510 73.2  42 
 PAM  SE ES        832 30.03                             152    0.0710 73.2  42 
 PAM  SZ I         832 32.39        72.2 0.22            154           73.2  42 
 RUS  HZ EP     D  832 14.41                             143   -0.3510  106 177 
 RUS  HE ES        832 33.23                             143   -0.5110  106 177 
 RUS  HZ I         832 34.39        18.0 0.25            143            106 177 
 PTB  HZ EP        832 16.84                             132   -0.88 9  149 257 
 PTB  HE ES        832 38.72                             132   -0.29 9  149 257 
 PTB  HZ I         832 40.48        37.4 0.18            131            149 257 
 OCA  HZ EP        832 18.37                             131   -0.09 9  155 353 
 OCA  HE ES        832 40.10                             131   -0.21 9  155 353 
 OCA  HZ I         832 43.14        41.9 0.20            131            155 353 
 TAM  HZ IP     D  832 18.72                             131    0.36 9  156 107 
 TAM  HE ES        832 40.27                             131    0.12 9  156 107 
 TAM  HZ I         832 41.67        22.0 0.58            132            156 107 
 SPBC HZ EP     D  832 19.38                             129   -0.13 9  167 218 
 SPBC HE ES        832 41.97                             129   -0.21 9  167 218 
 SPBC HZ I         832 47.77        40.1 0.24            128            167 218 
 CHI  HZ EP        832 28.60                             117   -0.20 8  254 195 
 CHI  HN ES        832 58.57                             117   -0.15 8  254 195 
 CHI  HZ I         833  3.39        17.6 0.26            117            254 195 
 URE  HZ EP   1    832 30.80                             114   -0.66 6  282 291 
 URE  HN ES   4    833  0.94                             114   -2.52 0  282 291 
 URE  HZ I         833  6.03        28.1 0.12            113            282 291 
 GUY2CHZ EP        832 34.86                             112    0.34 7  305 234 
 GUY2CHN ES   4    833 10.58                             112    1.67 0  305 234 
 GUY2CHZ I         833 18.41        26.7 0.64                           305 234 
 PTGC HZ EP   4    832 33.64                             112   -1.26 0  313 159 
 PTGC HN ES   4    833  7.18                             112   -2.40 0  313 159 
 PTGC HZ I         833  9.80         7.2 0.56            112            313 159 
 CBOC HZ EP        832 38.21                             110    0.53 7  336 251 
 CBOC HN ES   1    833 14.58                             110    0.05 5  336 251 
 CBOC HZ I         833 25.72         7.6 0.66            110            336 251 
 DBB  SZ EP        832 38.04                             110    0.02 7  340 273 
 DBB  SZ ES   4    833 13.80                             110   -1.34 0  340 273 
 TOL  SZ EP        832 39.70                             109    0.46 6  347 224 
 TOL  SN ES        833 18.17                             109    0.87 6  347 224 
 MON  HZ EP   4    832 37.57                             109   -1.64 0  351 308 
 MON  HN ES   4    833 15.60                             109   -1.66 0  351 308 
 MON  HZ I         833 18.47         8.0 0.28            109            351 308 
 ARGC HZ EP   1    832 39.92                             109    0.27 5  355 340 
 ARGC HN ES   4    833 19.99                             109    1.96 0  355 340 
 ARGC HZ I         833 27.96         7.4 0.38            109            355 340 
 SDV  BZ EP     D  832 39.76                             109   -0.38 6  357  51 
 SDV  BN ES   4    833 14.30                             109   -4.61 0  357  51 
 SDV  BZ I         833 19.99         4.5 0.35            109            357  51 
 ANIL HZ EP   4    832 42.95                             109    2.17 0  361 224 
 ANIL HN ES   4    833 22.63                             109    2.57 0  361 224 
 ANIL HZ I         833 28.73         5.1 0.38            108            361 224 
 PRA  HZ EP        832 44.17                             107   -0.40 6  397 209 
 PRA  HE ES        833 27.03                             107    0.23 6  397 209 
 PRA  HZ I         833 33.06        25.1 0.28            106            397 209 
 ORTC HZ EP        832 44.92                             106   -0.02 6  400 216 
 ORTC HN ES        833 28.54                             106    1.08 6  400 216 
 ORTC HZ I         833 34.84        16.2 0.28            106            400 216 
 SJC  HZ EP   4    832 44.14                             106   -1.47 0  405 326 
 SJC  HN ES   4    833 25.52                             106   -3.12 0  405 326 
 SJC  HZ I         833 29.71        10.9 0.56            106            405 326 
 YOT  HZ EP        832 53.34                             103   -0.64 5  476 228 
 YOT  HN ES   1    833 44.10                             103    0.55 3  476 228 
 SMAR HZ EP   1    832 55.38                             103   -0.41 3  492 346 
 SMAR HE ES   4    833 43.36                             103   -3.42 0  492 346 
 MACC HZ EP   4    832 57.66                             102   -2.14 0  526 189 
 MACC HE ES   4    833 49.53                             102   -4.38 0  526 189 
 MACC HZ I         833 56.30         4.3 0.66            102            526 189 
                                                                                
