 2015  5 2 0332 15.9 L   6.784 -73.166140.4  RSN  6 0.3 1.6LRSN                1
 GAP=106        0.89       3.8     5.7  6.0 -0.4551E+01 -0.6005E+01  0.7285E+01E
 Epicentro: LOS SANTOS - SANTANDER                                             3
 ACTION:UPD 15-09-10 22:00 OP:cam  STATUS:               ID:20150502033215 L   I
 OLDACT:REG 15-05-02 13:04 OP:stll STATUS:               ID:20150502032741     3
 2015-05-02-0327-41M.COL___276                                                 6
 STAT SP IPHASW D HRMM SECON CODA AMPLIT PERI AZIMU VELO AIN AR TRES W  DIS CAZ7
 BAR2 EZ EP        332 35.15                             171    0.2610 21.2 185 
 BAR2 EZ ES        332 50.20                             171    0.5310 21.2 185 
 BAR2 EZ I         332 51.46         9.2 0.20            168           21.2 185 
 BRR  HZ EP        332 36.90                             152    0.4510 70.1 301 
 BRR  HN ES        332 51.94                             152   -0.5110 70.1 301 
 BRR  HZ I         332 56.40         4.3 0.30            150           70.1 301 
 PAM  SZ EP        332 37.83                             149    0.0610 80.2  40 
 PAM  SZ I         332 38.14        11.0 0.22            153           80.2  40 
 PAM  SN ES        332 54.41                             149   -0.3810 80.2  40 
 RUS  HZ EP        332 39.27                             143    0.2210 99.0 175 
 RUS  HN ES        332 56.99                             143   -0.0910 99.0 175 
 RUS  HZ I         332 58.90         4.6 0.34            142           99.0 175 
 TAM  HZ EP        332 43.23                             129   -0.14 9  157 104 
 TAM  HZ I         332 43.56         8.7 0.38            131            157 104 
 CHI  HZ EP        332 52.83                             116   -0.27 8  246 195 
 CHI  HN ES        333 21.68                             116   -0.39 8  246 195 
 CHI  HZ I         333 28.70         1.7 0.28            116            246 195 
                                                                                
