 2017  1 2 0539 52.3 L   6.791 -73.206141.4  RSN  4 0.3 1.0LRSN                1
 GAP=230        0.85       6.6     6.2  6.8  0.2038E+02  0.4615E+01  0.2178E+01E
 Epicentro: ZAPATOCA - SANTANDER                                               3
 ACTION:UPD 17-05-22 15:54 OP:jn   STATUS:               ID:20170102053952 L   I
 OLDACT:REG 17-01-02 12:34 OP:lv   STATUS:               ID:20170102052840     3
 2017-01-02-0538-00M.COL___369                                                 6
 STAT SP IPHASW D HRMM SECON CODA AMPLIT PERI AZIMU VELO AIN AR TRES W  DIS CAZ7
 BAR2 EZ EP        540 11.27                             171   -0.1510 22.1 173 
 BAR2 EZ ES        540 25.75                             171   -0.5510 22.1 173 
 BAR2 EZ I         540 27.73         3.5 0.29            169           22.1 173 
 BRR  HZ EP        540 12.90                             154    0.1710 66.0 302 
 BRR  HE ES        540 29.03                             154    0.4010 66.0 302 
 RUS  HZ EP        540 15.56                             143   -0.0810  100 172 
 RUS  HN ES        540 34.28                             143    0.4710  100 172 
 RUS  HZ I         540 34.96         1.3 0.22            143            100 172 
 PTB  HZ EP        540 18.27                             132   -0.07 9  141 259 
 PTB  HN ES        540 38.41                             132   -0.22 9  141 259 
 PTB  HZ I         540 41.17         1.6 0.15            132            141 259 
                                                                                
