 2016  2 2 0206 27.3 L   7.429 -73.061144.0  RSN  5 0.3 1.4LRSN                1
 GAP=226        0.42       4.5     3.6  6.6 -0.1476E+01  0.8078E+01 -0.1049E+01E
 Epicentro: SURATA - SANTANDER                                                 3
 ACTION:UPD 16-03-04 21:22 OP:rebc STATUS:               ID:20160202020627 L   I
 OLDACT:REG 16-02-02 13:40 OP:dnl  STATUS:               ID:20160202015022     3
 2016-02-02-0158-00M.COL___415                                                 6
 STAT SP IPHASW D HRMM SECON CODA AMPLIT PERI AZIMU VELO AIN AR TRES W  DIS CAZ7
 PAM  EN EP   2    2 6 47.86                             164    0.24 6 41.2 104 
 PAM  EE ES   2    2 7  3.41                             164   -0.03 6 41.2 104 
 PAM  EN I         2 7  4.85        13.3 0.25            167           41.2 104 
 BAR2 EZ EP   2    2 6 49.93                             146   -0.11 6 93.5 188 
 BAR2 EZ ES   2    2 7  8.03                             146    0.27 6 93.5 188 
 BAR2 EZ I         2 7 12.53         5.0 0.10            146           93.5 188 
 RUS  HZ EP   2    2 6 56.84                             128   -0.04 5  170 181 
 RUS  HN ES        2 7 19.86                             128   -0.0610  170 181 
 RUS  HZ I         2 7 23.91         0.8 0.32            131            170 181 
 PTB  HZ EP   2    2 6 56.84                             125   -0.67 5  183 238 
 PTB  HE ES        2 7 21.09                             125    0.0310  183 238 
 PTB  HZ I         2 7 26.29         1.9 0.14            128            183 238 
 GUY2CHZ EP   2    2 7 17.19                             109    0.44 4  353 226 
 GUY2CHN ES   3    2 7 56.44                             109    1.14 2  353 226 
 GUY2CHZ I         2 8  5.93         1.4 0.44                           353 226 
                                                                                
