 2011  6 2 0943 21.8 L   6.871 -73.192134.6  RSN  4 0.3 1.6LRSN                1
 GAP=270        0.61      23.2    20.6 19.3 -0.4471E+03 -0.3347E+03  0.3734E+03E
 Epicentro: ZAPATOCA - SANTANDER                                               3
 ACTION:UP  11-07-14 19:02 OP:ep   STATUS:               ID:20110602094321 L   I
 2011-06-02-0940-00M.COL___113                                                 6
 STAT SP IPHASW D HRMM SECON CODA AMPLIT PERI AZIMU VELO SNR AR TRES W  DIS CAZ7
 BRR  HZ EP        943 41.57                             153     0.310   63 295 
 BRR  HE ES   2    943 55.99                             153    -0.5 5   63 295 
 BRR  HZ I         944  0.43        13.0 0.23                            63 295 
 BRI  SZ EP        943 44.13                             140    -0.110  103  25 
 GRA  SZ EP        943 45.41                             136    -0.210  120  21 
 GRA  SZ I         943 46.54         4.0 0.37                           120  21 
 GRA  SZ ES   1    944  4.33                             136     0.2 7  120  21 
 OCA  SZ ES   3    944  8.94                             129    -0.3 2  152 355 
                                                                                
