 2017  3 2 0915 44.3 L   6.104 -73.616117.5  RSN  7 0.3 1.4LRSN                1
 GAP= 73        0.80       2.5     3.0  6.0  0.9624E+00  0.7276E+01  0.2494E+01E
 Epicentro: CHIPATA - SANTANDER                                                3
 ACTION:UPD 17-05-25 18:34 OP:jn   STATUS:               ID:20170302091544 L   I
 OLDACT:UP  17-03-02 16:27 OP:dani STATUS:               ID:20170302090738     3
 OLDACT:REG 17-03-02 13:04 OP:and  STATUS:               ID:20170302090738     3
 2017-03-02-0908-00M.COL___381                                                 6
 STAT SP IPHASW D HRMM SECON CODA AMPLIT PERI AZIMU VELO AIN AR TRES W  DIS CAZ7
 RUS  HZ EP        916  2.35                             150   -0.2910 63.4 112 
 RUS  HN ES        916 16.63                             150   -0.3510 63.4 112 
 RUS  HZ I         916 18.02         2.2 0.24            155           63.4 112 
 BAR2 EZ EP        916  2.99                             146    0.1510 72.2  42 
 BAR2 EZ ES        916 17.66                             146    0.3310 72.2  42 
 BAR2 EZ I         916 18.69        18.2 0.36            152           72.2  42 
 PTB  HZ EP        916  4.51                             135   -0.5310  105 297 
 PTB  HE ES        916 21.44                             135    0.1810  105 297 
 PTB  HZ I         916 23.90         4.1 0.10            137            105 297 
 BRR  HZ EP        916  5.95                             133    0.3510  111 355 
 BRR  HN ES        916 22.30                             133    0.0410  111 355 
 BRR  HZ I         916 25.97         5.3 0.22            138            111 355 
 NOR  HZ EP        916  9.97                             124    0.50 9  151 247 
 NOR  HN ES        916 29.13                             124   -0.01 9  151 247 
 NOR  HZ I         916 33.70         3.9 0.24            126            151 247 
 CHI  HZ EP        916 11.16                             122   -0.06 9  164 185 
 CHI  HE ES        916 32.38                             122    0.13 9  164 185 
 CHI  HZ I         916 37.10         2.2 0.52            125            164 185 
 ZAR  HZ EP        916 15.25                             115    0.01 8  206 318 
 ZAR  HE ES        916 38.91                             115   -0.50 8  206 318 
 ZAR  HZ I         916 41.74         3.5 0.78            118            206 318 
                                                                                
