 2015 10 2 0521 54.8 L   5.741 -74.032100.3  RSN 12 0.5 1.6LRSN                1
 GAP=124        0.91       3.9     4.0  6.2 -0.5638E+01  0.1284E+01 -0.4294E+01E
 Epicentro: FLORIAN - SANTANDER                                                3
 ACTION:UPD 15-12-22 20:36 OP:cam  STATUS:               ID:20151002052154 L   I
 OLDACT:REG 15-10-02 13:01 OP:ar   STATUS:               ID:20151002051743     3
 2015-10-02-0517-43M.COL___348                                                 6
 STAT SP IPHASW D HRMM SECON CODA AMPLIT PERI AZIMU VELO AIN AR TRES W  DIS CAZ7
 SPBC HZ EP        522  8.32                             174   -0.1410 10.8 204 
 SPBC HN ES        522 19.61                             174    0.4610 10.8 204 
 SPBC HZ I         522 20.44        31.2 0.22            173           10.8 204 
 NOR  HZ EP   2    522 12.84                             134   -0.43 5 94.8 258 
 NOR  HN ES   2    522 27.55                             134   -0.16 5 94.8 258 
 NOR  HZ I         522 30.04        15.5 0.12            133           94.8 258 
 PTB  HZ EP        522 13.14                             132   -0.5510100.0 332 
 PTB  HE ES        522 28.71                             132    0.2610100.0 332 
 PTB  HZ I         522 30.79         8.1 0.26            132          100.0 332 
 RUS  HZ EP   2    522 14.06                             131   -0.86 5  106  81 
 RUS  HN ES   2    522 29.69                             131   -0.96 5  106  81 
 RUS  HZ I         522 33.58         3.6 0.56            133            106  81 
 CHI  HZ EP   4    522 15.37                             126   -1.50 0  127 165 
 CHI  HN ES   4    522 32.27                             126   -1.85 0  127 165 
 CHI  HZ I         522 36.16         2.8 0.40            126            127 165 
 BAR2 EZ EP        522 17.26                             124    0.0510  133  45 
 BAR2 EZ ES        522 34.64                             124   -0.0910  133  45 
 BAR2 EZ I         522 36.61        14.0 0.18            125            133  45 
 BRR  HZ EP        522 19.02                             119   -0.22 9  155  13 
 BRR  HN ES        522 39.31                             119    0.97 9  155  13 
 BRR  HZ I         522 42.59         6.0 0.12            119            155  13 
 GUY2CHZ EP   2    522 20.20                             119   -0.01 5  158 249 
 GUY2CHN ES   2    522 40.43                             119    0.36 5  158 249 
 GUY2CHZ I         522 46.42         3.8 0.36                           158 249 
 HEL  HZ EP   2    522 22.29                             116    0.61 4  173 287 
 HEL  HN ES   4    522 44.71                             116    2.03 0  173 287 
 HEL  HZ I         522 49.18         5.2 0.40            116            173 287 
 ZAR  HZ EP   2    522 25.39                             110   -0.48 4  214 335 
 ZAR  HN ES   2    522 49.71                             110   -0.43 4  214 335 
 ZAR  HZ I         522 51.88         5.9 0.24            110            214 335 
 ORTC HZ EP   2    522 29.09                             108   -0.22 4  243 214 
 ORTC HE ES   2    522 56.11                             108   -0.16 4  243 214 
 ORTC HZ I         522 58.60         2.4 0.40            107            243 214 
 SJC  HZ EP   4    522 56.54                              95            477 345 
 SJC  HE ES   2    523 43.19                              95            477 345 
 SJC  HZ I         523 47.31         1.2 0.34             95            477 345 
                                                                                
