 2011 10 2 0921 34.3 L   6.747 -73.089146.9  RSN  5 0.3 1.7LRSN                1
 GAP=146        0.57       3.8     5.9  5.5  0.4422E+00  0.4598E+00 -0.3797E+01E
 Epicentro: LOS SANTOS - SANTANDER                                             3
 ACTION:UPD 12-07-13 16:01 OP:ep   STATUS:               ID:20111002092134 L   I
 2011-10-02-0918-56S.COL___168                                                 6
 STAT SP IPHASW D HRMM SECON CODA AMPLIT PERI AZIMU VELO AIN AR TRES W  DIS CAZ7
 BAR2 SZ EP   1    921 54.13                             172    0.11 7 20.0 211 
 BAR2 SZ ES   1    922  9.24                             172   -0.15 7 20.0 211 
 BAR2 SZ I         922 10.89        16.4 0.24                          20.0 211 
 PAM  SZ EP   1    921 57.07                             151    0.36 7 78.3  33 
 PAM  SN ES   1    922 14.17                             151    0.00 7 78.3  33 
 BRR  HZ EP        921 56.01                             150   -0.0610 79.5 300 
 BRR  HZ I         921 56.26        22.5 0.16                          79.5 300 
 BRR  HN ES   1    922 13.30                             150    0.26 7 79.5 300 
 RUS  HZ EP   1    921 58.01                             146    0.26 7 94.5 180 
 RUS  HZ I         921 59.17         2.5 0.14                          94.5 180 
 RUS  HN ES   1    922 15.75                             146   -0.28 7 94.5 180 
 OCA  SZ EP   1    922  2.78                             129   -0.56 7  167 351 
 OCA  SZ I         922 31.03         5.6 0.28                           167 351 
                                                                                
