 2012  3 2 0505 54.4 L   6.780 -73.032140.4  RSN  4 0.4 1.4LRSN                1
 GAP=248        0.87       6.6    14.4  8.7  0.4689E+02 -0.3278E+01  0.8245E+01E
 ACTION:UP  12-03-31 23:16 OP:EP   STATUS:               ID:20120302050554 L   I
 2012-03-02-0500-00M.COL___190                                                 6
 STAT SP IPHASW D HRMM SECON CODA AMPLIT PERI AZIMU VELO SNR AR TRES W  DIS CAZ7
 BAR2 SZ EP        5 6 13.65                             169     0.210   27 219 
 BAR2 SZ ES   1    5 6 27.62                             169    -0.7 7   27 219 
 BAR2 SZ I         5 6 30.35         5.8 0.34                            27 219 
 BRR  HZ EP        5 6 15.61                             147    -0.110   83 296 
 BRR  HE ES   1    5 6 32.65                             147     0.3 7   83 296 
 BRR  HZ I         5 6 39.45        11.7 0.38                            83 296 
 RUS  HZ EP   1    5 6 17.64                             143     0.2 7   98 183 
 RUS  HE ES   1    5 6 35.81                             143     0.4 7   98 183 
 RUS  HZ I         5 6 37.41         2.2 0.34                            98 183 
 CHI  HZ EP   1    5 6 31.46                             116    -0.5 6  250 198 
 CHI  HN ES   1    5 7  1.26                             116     0.0 6  250 198 
 CHI  HZ I         5 7  9.54         1.5 0.63                           250 198 
                                                                                
