 2013  1 2 0335 53.9 L   6.867 -73.077141.2  RSN  7 0.4 2.0LRSN                1
 GAP=190        0.94       3.8     7.0  6.6  0.1203E+02  0.8394E+01  0.3759E+01E
 Epicentro: LOS SANTOS - SANTANDER                                             3
 ACTION:UPD 13-02-15 09:11 OP:ep   STATUS:               ID:20130102033554 L   I
 2013-01-02-0330-00M.COL___242                                                 6
 STAT SP IPHASW D HRMM SECON CODA AMPLIT PERI AZIMU VELO AIN AR TRES W  DIS CAZ7
 BAR2 SZ EP        336 13.30                             166    0.1310 32.6 201 
 BAR2 SZ ES        336 28.23                             166   -0.0110 32.6 201 
 BAR2 SZ I         336 29.71         8.5 0.54            166           32.6 201 
 BRR  HZ EP        336 15.02                             150    0.2810 75.0 291 
 BRR  HN ES        336 31.47                             150    0.4410 75.0 291 
 BRR  HN I         336 32.24        20.9 0.30            149           75.0 291 
 RUS  HZ EP        336 17.86                             141    0.1510  108 180 
 RUS  HN ES        336 36.23                             141   -0.0910  108 180 
 OCA  HN ES        336 41.93                             130   -0.65 9  154 350 
 OCA  HN I         336 45.93        23.9 0.24            130            154 350 
 PTB  HZ EP   4    336 19.96                             129   -1.34 0  157 257 
 PTB  HN ES   4    336 41.10                             129   -1.60 0  157 257 
 PTB  HN I         336 46.38        11.3 0.24            129            157 257 
 ZAR  HZ EP        336 27.11                             121    0.64 8  208 289 
 ZAR  HN ES        336 51.39                             121   -0.52 8  208 289 
 CHI  HZ EP        336 32.11                             115   -0.21 8  258 196 
 CHI  HN ES        337  1.84                             115   -0.49 8  258 196 
 CHI  HN I         337  4.27         6.5 0.32            116            258 196 
                                                                                
