 2017  5 2 0537 46.1 L   6.497 -73.226115.9  RSN  4 0.2 1.2LRSN                1
 GAP=135        0.86       4.7     4.8  7.4  0.1241E+01  0.1086E+02 -0.8600E+01E
 Epicentro: SOCORRO - SANTANDER                                                3
 ACTION:UPD 17-06-16 13:32 OP:jn   STATUS:               ID:20170502053746 L   I
 OLDACT:UP  17-05-02 17:20 OP:edw  STATUS:               ID:20170502052746d    3
 OLDACT:UP  17-05-02 17:18 OP:edw  STATUS:               ID:20170502052746d    3
 OLDACT:DUP 17-05-02 17:16 OP:edw  STATUS:               ID:20170502052746d    3
 OLDACT:DUP 17-05-02 17:13 OP:edw  STATUS:               ID:20170502052745d    3
 2017-05-02-0528-00M.COL___365                                                 6
 STAT SP IPHASW D HRMM SECON CODA AMPLIT PERI AZIMU VELO AIN AR TRES W  DIS CAZ7
 RUS  HE ES        538 19.16                             149    0.0210 68.7 167 
 RUS  HZ I         538 20.23         1.4 0.44            103           68.7 167 
 BRR  HZ EP   9    538  8.44                             141    3.21 0 86.2 321 
 BRR  HN ES        538 24.05                             143    0.7110 86.2 321 
 BRR  HZ I         538 35.26        10.1 0.28                          86.2 321 
 PAM  EZ EP     C  538  7.75                             135   -0.1110  110  32 
 PAM  EN ES        538 24.82                             135    0.0110  110  32 
 PAM  EZ I         538 25.76         4.3 0.20                           110  32 
 ZAR  HZ EP        538 17.94                             115    0.33 8  211 301 
 ZAR  HE ES        538 41.96                             115   -0.22 8  211 301 
 ZAR  HZ I         538 45.00         1.6 0.50             90            211 301 
                                                                                
