 2015  5 2 0309 57.5 L   6.795 -73.133144.7  RSN 24 0.5 2.4LRSN                1
 GAP= 55        1.12       2.5     2.9  5.0 -0.4389E+00  0.3993E+01  0.2561E+01E
 Epicentro: LOS SANTOS - SANTANDER                                             3
 ACTION:UPD 15-09-10 22:00 OP:cam  STATUS:               ID:20150502030957 L   I
 OLDACT:UP  15-05-07 14:08 OP:cam  STATUS:               ID:20150502030957 L   3
 OLDACT:UP  15-05-06 07:11 OP:AK   STATUS:               ID:20150502030957 L   3
 OLDACT:REG 15-05-02 13:03 OP:stll STATUS:               ID:20150502030735     3
 2015-05-02-0307-35M.COL___276                                                 6
 STAT SP IPHASW D HRMM SECON CODA AMPLIT PERI AZIMU VELO AIN AR TRES W  DIS CAZ7
 BAR2 EZ EP        310 17.09                             170    0.1110 23.0 194 
 BAR2 EZ ES        310 31.80                             170   -0.3810 23.0 194 
 BAR2 EZ I         310 33.84        50.7 0.18            169           23.0 194 
 BRR  HZ IP     C  310 18.99                             152    0.3910 72.7 298 
 BRR  HN ES        310 35.76                             152    0.6910 72.7 298 
 BRR  HZ I         310 40.14        41.1 0.16            146           72.7 298 
 PAM  SZ EP     C  310 19.97                             151    0.4110 77.0  38 
 PAM  SZ I         310 20.17        70.0 0.20            149           77.0  38 
 PAM  SN ES        310 36.74                             151   -0.0310 77.0  38 
 RUS  HZ EP     D  310 21.14                             144    0.0610 99.9 177 
 RUS  HN ES        310 39.82                             144    0.3410 99.9 177 
 RUS  HZ I         310 40.88        18.7 0.26            143           99.9 177 
 TAM  HZ IP     D  310 25.61                             131    0.67 9  154 105 
 TAM  HZ I         310 25.75        32.1 0.38            130            154 105 
 TAM  HE ES        310 46.22                             131   -0.13 9  154 105 
 OCA  HZ EP     C  310 25.26                             129   -0.52 9  161 353 
 OCA  HN ES        310 47.08                             129   -0.77 9  161 353 
 OCA  HZ I         310 52.60        38.6 0.14            125            161 353 
 SPBC HZ EP        310 26.11                             129    0.17 9  164 219 
 SPBC HE ES        310 47.82                             129   -0.31 9  164 219 
 SPBC HZ I         310 50.58        37.1 0.40            125            164 219 
 ZAR  HZ EP        310 29.51                             122   -0.50 8  206 292 
 ZAR  HN ES        310 55.22                             122   -0.17 8  206 292 
 ZAR  HZ I         311  1.81        22.5 0.36            118            206 292 
 NOR  HZ EP        310 33.22                             118   -0.02 8  235 235 
 NOR  HN ES        311  0.62                             118   -0.50 8  235 235 
 NOR  HZ I         311  7.07        14.9 0.24            115            235 235 
 SML  HZ EP        310 33.60                             117   -0.57 8  245 335 
 SML  HN ES        311  3.03                             117    0.25 8  245 335 
 SML  HZ I         311  4.21        34.1 0.24            114            245 335 
 CHI  HZ EP        310 35.20                             117    0.10 8  248 196 
 CHI  HN ES        311  4.22                             117   -0.22 8  248 196 
 CHI  HZ I         311  8.19        15.7 0.46            114            248 196 
 ROSC BZ EP   4    310 37.05                             116    1.48 0  253 211 
 ROSC BE ES   1    311  6.14                             116    0.87 6  253 211 
 ROSC BZ I         311 11.41        24.5 0.50            114            253 211 
 HEL  HZ EP        310 38.76                             114    0.98 8  273 256 
 HEL  HN ES        311  9.07                             114   -0.13 8  273 256 
 HEL  HZ I         311 15.24         8.5 0.26            111            273 256 
 GUY2CHZ EP        310 40.52                             112   -0.61 7  302 235 
 GUY2CHE ES        311 15.52                             112    0.34 7  302 235 
 GUY2CHZ I         311 21.18         8.7 0.34                           302 235 
 VIL  SN ES   2    311 15.19                             112    0.57 4  303 192 
 VIL  SZ I         311 24.99        19.6 0.52            110            303 192 
 PTGC HZ EP     C  310 40.44                             111   -0.73 7  308 159 
 PTGC HN ES        311 14.36                             111   -0.89 7  308 159 
 PTGC HZ I         311 18.62        18.2 0.34            110            308 159 
 RREF HZ EP        310 44.16                             111    0.50 7  322 230 
 RREF HE ES        311 18.84                             111   -0.83 7  322 230 
 RREF HZ I         311 29.16         5.2 0.38            108            322 230 
 CBOC HZ EP        310 45.58                             110    1.09 7  335 252 
 TOL  SZ EP        310 46.46                             109    0.70 7  344 225 
 TOL  SN ES        311 23.41                             109   -0.01 7  344 225 
 TOL  SZ I         311 30.81        10.4 0.26            107            344 225 
 MON  HZ EP   9    310 44.52                             108   -2.09 0  355 308 
 MON  HN ES        311 22.40                                   -0.44 6  355 308 
 MON  HZ I         311 39.35         3.9 0.58            106            355 308 
 SDV  BZ EP   9    310 45.72                             108   -1.68 0  360  50 
 SDV  BZ I         310 47.48         7.7 0.20            106            360  50 
 SDV  BN ES        311 23.93                                   -0.72 6  360  50 
 ORTC HZ EP        310 51.37                             106   -0.04 6  396 216 
 ORTC HE ES        311 32.60                             106   -0.87 6  396 216 
 ORTC HZ I         311 38.43         9.0 0.30            104            396 216 
 SJC  HZ EP   4 C  310 51.40                             105   -1.76 0  410 327 
 SJC  HZ I         311 39.24         3.8 0.62            103            410 327 
 CRJC HZ EP   4    310 57.47                             103   -2.54 0  468   3 
 CRJC HN ES   4    311 46.37                             103   -2.41 0  468   3 
 CRJC HZ I         311 57.62         8.0 0.30            101            468   3 
                                                                                
