 2014 11 2 0049 10.1 L   6.741 -73.190141.3  RSN  6 0.5 1.2LRSN                1
 GAP=228        1.22       8.4     8.4  9.9  0.2719E+02  0.2524E+02  0.2701E+02E
 Epicentro: VILLANUEVA - SANTANDER                                             3
 ACTION:UPD 14-12-19 15:38 OP:nd   STATUS:               ID:20141102004910 L   I
 OLDACT:REG 14-11-02 13:04 OP:spq  STATUS:               ID:20141102004745     3
 2014-11-02-0047-45M.COL___274                                                 6
 STAT SP IPHASW D HRMM SECON CODA AMPLIT PERI AZIMU VELO AIN AR TRES W  DIS CAZ7
 BAR2 SZ ES        049 43.86                             173    0.0210 16.5 177 
 BAR2 SZ I         049 45.18         4.4 0.22            164           16.5 177 
 BRR  HN ES        049 47.25                             152    0.4610 70.4 305 
 RUS  HZ EP        049 33.05                             145    0.0910 94.6 173 
 RUS  HN ES        049 50.28                             145   -0.5210 94.6 173 
 RUS  HZ I         049 55.18         1.0 0.28            141           94.6 173 
 PTB  HZ EP        049 35.59                             132   -0.54 9  142 261 
 PTB  HN ES        049 55.83                             132   -0.63 9  142 261 
 PTB  HZ I         049 58.85         2.0 0.34            131            142 261 
 SPBC HZ EP        049 37.94                             130    0.48 9  155 219 
 SPBC HN ES        049 59.50                             130    0.68 9  155 219 
 SPBC HZ I         050  6.61         4.2 0.26            127            155 219 
 CCUMBEZ EP        053 31.90                              96   156.3 0  822 219 
                                                                                
