 2013 11 2 0806 44.9 L   6.809 -73.162145.3  RSN  6 0.4 0.8LRSN                1
 GAP=199        1.08       5.8     6.9  8.5  0.2053E+02  0.3656E+01 -0.8500E+01E
 Epicentro: LOS SANTOS - SANTANDER                                             3
 ACTION:UPD 14-01-09 16:24 OP:ep   STATUS:               ID:20131102080644 L   I
 OLDACT:DUP 13-11-02 08:56 OP:jn   STATUS:               ID:20131102080001d    3
 2013-11-02-0800-00M.COL___273                                                 6
 STAT SP IPHASW D HRMM SECON CODA AMPLIT PERI AZIMU VELO AIN AR TRES W  DIS CAZ7
 BAR2 SZ EP        8 7  4.69                             170    0.2310 24.0 185 
 BAR2 SZ ES        8 7 19.31                             170   -0.4310 24.0 185 
 BRR  HZ EP        8 7  6.51                             153    0.6510 69.1 299 
 BRR  HN ES        8 7 22.86                             153    0.6410 69.1 299 
 BRR  HZ I         8 7 29.04         2.2 0.44            151           69.1 299 
 RUS  HZ EP        8 7  8.77                             143    0.1110  102 175 
 RUS  HN ES        8 7 26.85                             143   -0.3610  102 175 
 RUS  HZ I         8 7 29.20         0.7 0.34            146            102 175 
 PTB  HZ EP        8 7 11.50                             132   -0.16 9  146 258 
 PTB  HN ES        8 7 32.45                             132   -0.10 9  146 258 
 PTB  HZ I         8 7 39.96         0.8 0.16            132            146 258 
 ZAR  HN ES        8 7 41.98                             122   -0.21 9  202 292 
 SML  HN ES        8 7 48.97                             117   -0.73 8  242 336 
                                                                                
