 2011  8 2 0541 31.5 L   6.791 -73.098148.3  RSN  7 0.3 1.7LRSN                1
 GAP=161        0.47       2.3     4.8  4.6  0.3659E+00 -0.1691E+01 -0.1568E+00E
 Epicentro: LOS SANTOS - SANTANDER                                             3
 ACTION:UPD 12-07-25 14:05 OP:epov STATUS:               ID:20110802054131 L   I
 2011-08-02-0540-00M.COL___140                                                 6
 STAT SP IPHASW D HRMM SECON CODA AMPLIT PERI AZIMU VELO AIN AR TRES W  DIS CAZ7
 BAR2 SZ EP   1    541 51.58                             170    0.12 7 23.8 203 
 BAR2 SZ I         541 51.70        12.3 0.32                          23.8 203 
 BAR2 SZ ES   2    542  7.16                             170    0.15 5 23.8 203 
 BRR  HZ EP   1    541 53.27                             151    0.04 7 76.3 297 
 BRR  HE ES   1    542 10.32                             151    0.16 7 76.3 297 
 BRR  HZ I         542 10.87        18.4 0.12                          76.3 297 
 RUS  HZ EP   1    541 55.02                             145   -0.40 7 99.3 179 
 RUS  HE ES   1    542 14.22                             145    0.15 7 99.3 179 
 RUS  HZ I         542 15.50         7.3 0.28                          99.3 179 
 BRI  SZ EP   1    541 55.56                             142   -0.03 7  108  18 
 OCA  SZ EP   1    542  0.42                             130    0.24 7  162 351 
 OCA  SZ ES   1    542 22.11                             130   -0.44 7  162 351 
 OCA  SZ I         542 26.48         6.2 0.61                           162 351 
 CHI  HZ EP   1    542  9.57                             118    0.17 6  249 196 
 CHI  HE ES   2    542 38.52                             118   -0.43 4  249 196 
 CHI  HZ I         542 46.10         1.4 0.36                           249 196 
 HEL  HZ EP   2    542 12.92                             115    0.53 4  277 256 
 HEL  HE ES   2    542 44.02                             115   -0.25 4  277 256 
                                                                                
