 2014  5 2 0230 56.1 L   6.802 -73.137141.9  RSN 19 0.4 2.4LRSN                1
 GAP= 71        0.88       2.3     2.5  5.6 -0.7405E+00  0.4766E+01  0.2040E+00E
 Epicentro: LOS SANTOS - SANTANDER                                             3
 OLDACT:REG 14-05-02 12:49 OP:fm   STATUS:               ID:20140502022816     3
 ACTION:UPD 15-03-16 16:54 OP:nd   STATUS:               ID:20140502023056 L   I
 OLDACT:UP  14-05-02 14:25 OP:fm   STATUS:               ID:20140502022816     3
 2014-05-02-0228-16M.COL___236                                                 6
 STAT SP IPHASW D HRMM SECON CODA AMPLIT PERI AZIMU VELO AIN AR TRES W  DIS CAZ7
 PAM  SZ IP        231 18.15                             150    0.2910 76.7  39 
 PAM  SN ES        231 34.85                             150    0.0210 76.7  39 
 PAM  SZ I         231 37.12        62.9 0.56            153           76.7  39 
 RUS  HZ EP        231 19.59                             143    0.1110  101 177 
 RUS  HE ES        231 37.69                             143   -0.0210  101 177 
 RUS  SZ I         231 38.95        27.6 0.32            143            101 177 
 PTB  HZ EP        231 22.19                             131   -0.65 9  149 259 
 PTB  HE ES        231 43.02                             131   -0.67 9  149 259 
 PTB  SZ I         231 46.34        29.0 0.22            130            149 259 
 TAM  HZ IP        231 23.58                             130    0.19 9  154 105 
 TAM  HN ES        231 44.91                             130    0.23 9  154 105 
 OCA  HZ EP        231 23.66                             129   -0.44 9  160 353 
 OCA  HN ES        231 45.41                             129   -0.54 9  160 353 
 OCA  SZ I         231 49.71        26.5 0.14            129            160 353 
 SPBC HZ EP        231 24.45                             128    0.08 9  164 219 
 SPBC HN ES        231 46.28                             128   -0.14 9  164 219 
 SPBC SZ I         231 48.69        28.3 0.20            127            164 219 
 ZAR  HZ EP        231 28.82                             121    0.45 9  205 292 
 ZAR  HE ES        231 54.35                             121    0.80 9  205 292 
 ZAR  SZ I         231 59.58        40.5 0.60            121            205 292 
 NOR  HZ EP   1    231 31.51                             117   -0.18 6  236 235 
 NOR  HN ES        231 59.55                             117    0.09 8  236 235 
 NOR  SZ I         232  1.09        16.5 0.18            117            236 235 
 SML  HZ EP   1    231 32.03                             116   -0.50 6  244 335 
 SML  HE ES        232  1.77                             116    0.82 8  244 335 
 SML  SZ I         232  5.07        46.7 0.08            117            244 335 
 CHI  HZ EP   1    231 33.45                             116   -0.18 6  249 195 
 CHI  HN ES   1    232  2.82                             116   -0.08 6  249 195 
 CHI  SZ I         232  8.55         9.7 0.36            116            249 195 
 ROSC BZ EP   4    231 35.38                             116    1.31 0  253 211 
 ROSC BN ES   4    232  5.15                             116    1.45 0  253 211 
 ROSC SZ I         232 10.72        11.5 0.35            116            253 211 
 HEL  HZ EP   2    231 36.10                             114   -0.12 4  273 256 
 HEL  HN ES        232  7.47                             114   -0.04 8  273 256 
 HEL  SZ I         232 13.34        12.5 0.58            114            273 256 
 URE  HZ EP   2    231 36.24                             113   -0.83 4  285 292 
 URE  HE ES   4    232  7.33                             113   -1.70 0  285 292 
 URE  SZ I         232  9.97        17.2 0.12            113            285 292 
 GUY2CHZ EP   1    231 39.64                             111    0.02 5  302 235 
 GUY2CHN ES   1    232 14.12                             111    0.55 5  302 235 
 GUY2CSZ I         232 20.17        15.1 0.30                           302 235 
 RREF HZ EP   4    231 42.82                             110    0.66 0  323 229 
 RREF HN ES   4    232 18.72                             110    0.62 0  323 229 
 RREF SZ I         232 26.97        12.9 0.30            110            323 229 
 CBOC HZ EP   1    231 43.27                             109    0.31 5  335 252 
 CBOC HE ES   1    232 19.59                             109    0.08 5  335 252 
 DBB  SZ EP   1    231 42.89                             109   -0.63 5  340 274 
 DBB  SZ ES   4    232 16.16                             109   -4.35 0  340 274 
 ORTC HZ EP   1    231 49.68                             106   -0.28 4  396 216 
 ORTC HN ES   1    232 33.09                             106    1.11 4  396 216 
 ORTC SZ I         232 43.65         9.1 3.72            106            396 216 
 SJC  HZ EP   4    231 49.37                             105   -2.20 0  410 327 
 SJC  HN ES   4    232 28.37                             105   -6.48 0  410 327 
 SJC  SZ I         232 43.29         7.4 2.64            105            410 327 
                                                                                
