 2010  7 2 1913 35.7 L   6.786 -73.122148.0  RSN  4 0.2 1.3LRSN                1
 GAP=167        0.38       5.6     9.3  6.7  0.3554E+02 -0.3749E+02 -0.1748E+02E
 Epicentro: LOS SANTOS - SANTANDER                                             3
 ACTION:UPD 10-12-01 15:14 OP:pat  STATUS:               ID:20100702191335 L   I
 2010-07-02-1909-11S.COL___118                                                 6
 STAT SP IPHASW D HRMM SECON CODA AMPLIT PERI AZIMU VELO AIN AR TRES W  DIS CAZ7
 BAR2 SZ IP       1913 55.48                             171    -0.110   23 198 
 BAR2 SZ ES   2   1914 10.95                             171    -0.2 5   23 198 
 BRR  HZ EP   1   1913 57.29                             152     0.0 7   74 299 
 BRR  HZ I        1914 11.56         7.2 0.61                            74 299 
 BRR  HN ES   1   1914 14.15                             152     0.0 7   74 299 
 RUS  HZ EP   2   1913 59.57                             145     0.0 5   99 178 
 RUS  HZ I        1914  0.66         2.0 0.14                            99 178 
 RUS  HE ES   2   1914 18.48                             145     0.3 5   99 178 
 GUE  SZ EP   2   1914  0.96                             140     0.2 5  117  11 
                                                                                
