 2010  4 2 1033 21.7 L   6.585 -73.431120.4  RSN  4 0.3 1.7LRSN                1
 GAP=117        0.64       6.1     8.5 10.8  0.1730E+01  0.3996E+02  0.3845E+02E
 Epicentro: HATO - SANTANDER                                                   3
 ACTION:UPD 10-08-24 09:57 OP:vdl  STATUS:               ID:20100402103321 L   I
 2010-04-02-1030-31S.COL___098                                                 6
 STAT SP IPHASW D HRMM SECON CODA AMPLIT PERI AZIMU VELO AIN AR TRES W  DIS CAZ7
 BAR2 SZ IP       1033 38.74                             166     0.310   27  89 
 BAR2 SZ ES   2   1033 50.98                             166    -0.4 5   27  89 
 BRR  HZ EP   1   1033 39.82                             149     0.0 7   66 332 
 BRR  HZ I        1033 46.61        19.1 0.39                            66 332 
 BRR  HN ES   2   1033 53.86                             149    -0.1 5   66 332 
 CHI  HZ EP   1   1033 54.27                             114    -0.5 6  219 189 
 CHI  HN ES   2   1034 20.84                             114     0.2 4  219 189 
 CHI  HZ I        1034 25.81         2.3 0.26                           219 189 
 RREF BZ EP   1   1034  2.06                             108    -0.2 6  282 229 
 RREF BN ES   2   1034 34.23                             108     0.3 4  282 229 
 RREF BZ I        1034 38.58         3.3 0.33                           282 229 
                                                                                
