 2016 11 2 1537  9.1 L   6.862 -73.135151.8  RSN  6 0.5 1.7LRSN                1
 GAP=135        1.29       6.0     6.0  9.4 -0.4021E+01  0.2011E+02 -0.5165E+01E
 Epicentro: LOS SANTOS - SANTANDER                                             3
 ACTION:UPD 17-10-26 21:04 OP:lp   STATUS:               ID:20161102153709 L   I
 OLDACT:REG 16-11-03 00:44 OP:cog  STATUS:               ID:20161102152355     3
 2016-11-02-1533-00M.COL___352                                                 6
 STAT SP IPHASW D HRMM SECON CODA AMPLIT PERI AZIMU VELO AIN AR TRES W  DIS CAZ7
 BAR2 HZ EP       1537 28.99                             168   -0.6410 30.3 190 
 BAR2 HZ ES       1537 46.04                             168    0.4110 30.3 190 
 PAM  EZ EP       1537 32.17                             154    0.5210 71.4  42 
 PAM  EE ES       1537 49.17                             154   -0.0510 71.4  42 
 PAM  EZ I        1537 51.00        19.2 0.46            154           71.4  42 
 RUS  HZ EP       1537 34.36                             143    0.4110  107 177 
 RUS  HE ES       1537 52.49                             143   -0.8310  107 177 
 RUS  HZ I        1537 54.31         2.9 0.28            145            107 177 
 PTB  HZ EP       1537 36.41                             133   -0.41 9  150 256 
 PTB  HN ES       1537 58.17                             133   -0.26 9  150 256 
 PTB  HZ I        1537 59.95         5.9 0.19            134            150 256 
 SPBC HZ EP       1537 39.19                             129    0.53 9  169 218 
 SPBC HN ES       1538  2.33                             129    0.63 9  169 218 
 ZAR  HZ EP       1537 41.23                             124   -0.60 9  203 290 
 ZAR  HN ES       1538  7.67                             124    0.34 9  203 290 
 GUY2CHZ EP   4   1537 56.20                             113    2.63 0  306 234 
 GUY2CHN ES   4   1538 33.92                             113    5.68 0  306 234 
                                                                                
