 2010  9 2 1543 43.4 L   6.829 -72.979147.2  RSN  4 0.2 1.8LRSN                1
 GAP=255        0.39       4.6     7.7  4.5  0.1911E+02 -0.2169E+01  0.2766E+00E
 Epicentro: CEPITA - SANTANDER                                                 3
 ACTION:UP  11-02-18 10:59 OP:tino STATUS:               ID:20100902154343 L   I
 2010-09-02-1540-30S.COL___120                                                 6
 STAT SP IPHASW D HRMM SECON CODA AMPLIT PERI AZIMU VELO SNR AR TRES W  DIS CAZ7
 BAR2 SZ EP   1   1544  3.61                             166     0.1 7   35 221 
 BAR2 SZ ES   1   1544 18.95                             166    -0.2 7   35 221 
 BAR2 SZ I        1544 20.85        11.9 0.35                            35 221 
 BRR  HZ IP     C 1544  5.66                             148     0.010   87 291 
 BRR  HZ I        1544  5.88        14.1 0.09                            87 291 
 BRR  HE ES   1   1544 23.13                             148     0.1 7   87 291 
 RUS  HZ EP   2   1544  7.79                             143     0.2 5  104 186 
 RUS  HE ES   2   1544 26.61                             143     0.2 5  104 186 
 RUS  HZ I        1544 27.35         4.4 0.28                           104 186 
 PRA  HZ EP   2   1544 38.04                             106    -0.4 3  404 212 
 PRA  HZ I        1544 58.40         2.1 0.39                           404 212 
 PRA  HE ES   2   1545 21.35                             106     0.0 3  404 212 
                                                                                
