 2010  8 2 1639 21.1 L   6.794 -73.067146.7  RSN  7 0.3 1.6LRSN                1
 GAP=167        0.62       4.2     9.0  7.2 -0.1297E+02 -0.5539E+01  0.1614E+01E
 Epicentro: LOS SANTOS - SANTANDER                                             3
 ACTION:UP  10-09-07 10:51 OP:vdl  STATUS:               ID:20100802163921 L   I
 2010-08-02-1635-14S.COL___123                                                 6
 STAT SP IPHASW D HRMM SECON CODA AMPLIT PERI AZIMU VELO SNR AR TRES W  DIS CAZ7
 BAR2 SZ EP   1   1639 40.51                             170    -0.4 7   26 210 
 BAR2 SZ ES   2   1639 56.32                             170     0.0 5   26 210 
 BAR2 SZ I        1639 57.08         7.0 0.23                            26 210 
 GIR2 SZ EP   2   1639 41.03                             166     0.1 5   34 336 
 BRR  HZ EP   1   1639 42.52                             150    -0.3 7   79 296 
 BRR  HE ES   2   1639 59.94                             150     0.2 5   79 296 
 BRR  HZ I        1640  2.97        11.3 0.21                            79 296 
 RUS  HZ EP   1   1639 45.21                             144     0.4 7  100 181 
 RUS  HE ES   2   1640  3.11                             144    -0.3 5  100 181 
 RUS  HZ I        1640  4.53         2.8 0.30                           100 181 
 GUE  SZ EP   1   1639 45.65                             140    -0.2 7  116   8 
 GRA  SZ EP   1   1639 46.32                             138     0.1 7  124  14 
 GRA  SZ ES   2   1640  6.47                             138     0.6 5  124  14 
 GRA  SZ I        1640  7.61         6.9 0.36                           124  14 
 PRA  HZ EP   1   1640 14.94                             106    -0.1 4  396 211 
 PRA  HE ES   2   1640 58.22                             106     1.0 3  396 211 
 PRA  HZ I        1641  0.39         2.2 0.68                           396 211 
                                                                                
