 2015  4 2 1254 40.2 L   6.805 -73.138144.4  RSN  7 0.5 1.6LRSN                1
 GAP=201        1.09       4.7     5.9  7.7  0.7604E+01  0.8284E+01 -0.4016E+01E
 Epicentro: LOS SANTOS - SANTANDER                                             3
 ACTION:UPD 15-06-03 16:51 OP:cam  STATUS:               ID:20150402125440 L   I
 OLDACT:REG 15-04-02 21:23 OP:fm   STATUS:               ID:20150402124746     3
 2015-04-02-1247-46M.COL___280                                                 6
 STAT SP IPHASW D HRMM SECON CODA AMPLIT PERI AZIMU VELO AIN AR TRES W  DIS CAZ7
 BAR2 EZ EP       1255  0.05                             170    0.3810 24.0 192 
 BAR2 EZ ES       1255 15.22                             170    0.3610 24.0 192 
 BAR2 EZ I        1255 16.62        14.0 0.16            170           24.0 192 
 BRR  HZ EP   1   1255  1.05                             152   -0.17 7 71.7 298 
 BRR  HN ES       1255 18.13                             152    0.5110 71.7 298 
 BRR  HZ I        1255 20.36         5.8 0.60            150           71.7 298 
 RUS  HZ EP       1255  4.18                             143    0.3410  101 177 
 RUS  HN ES       1255 21.37                             143   -0.9110  101 177 
 RUS  HZ I        1255 23.95         4.7 0.20            145            101 177 
 PTB  HZ EP       1255  6.93                             132   -0.20 9  149 259 
 PTB  HE ES       1255 27.80                             132   -0.34 9  149 259 
 PTB  HZ I        1255 30.92         4.1 0.28            131            149 259 
 ZAR  HN ES       1255 37.94                             122    0.05 9  205 292 
 ZAR  HZ I        1255 43.39         3.9 0.40            122            205 292 
 NOR  HZ EP   1   1255 16.61                             118    0.67 6  236 234 
 NOR  HN ES       1255 43.94                             118    0.11 8  236 234 
 NOR  HZ I        1255 48.65         2.5 0.22            118            236 234 
 SML  HZ EP   1   1255 16.57                             117   -0.15 6  244 335 
 SML  HN ES       1255 44.53                             117   -0.69 8  244 335 
 SML  HZ I        1255 49.90         5.0 0.24            118            244 335 
                                                                                
