 2011  4 2 1952 50.6 L   6.889 -73.112148.4  RSN  6 0.4 1.7LRSN                1
 GAP=151        0.89      10.9    10.5 11.3 -0.6454E+02 -0.3062E+02  0.4704E+02E
 Epicentro: LOS SANTOS - SANTANDER                                             3
 ACTION:UP  11-06-22 15:28 OP:REBC STATUS:               ID:20110402195250 L   I
 2011-04-02-1951-46S.COL___138                                                 6
 STAT SP IPHASW D HRMM SECON CODA AMPLIT PERI AZIMU VELO SNR AR TRES W  DIS CAZ7
 BTL  SZ EP       1953 10.41                             173    -0.110   18 281 
 GIR2 SZ EP   1   1953 10.40                             171     0.0 7   23 337 
 BAR2 SZ EP   1   1953 10.17                             167    -0.6 7   34 193 
 BAR2 SZ I        1953 10.60        11.0 0.11                            34 193 
 PAM  SZ EP   1   1953 13.24                             154     0.7 7   68  42 
 PAM  SN ES   1   1953 29.95                             154     0.3 7   68  42 
 BRR  HZ EP   1   1953 12.16                             153     0.1 7   71 290 
 BRR  HZ I        1953 12.58        13.7 0.09                            71 290 
 BRR  HN ES   1   1953 28.89                             153     0.2 7   71 290 
 GRA  SZ EP       1953 15.28                             140     0.010  115  17 
 GRA  SZ ES   1   1953 33.90                             140    -0.6 7  115  17 
 GRA  SZ I        1953 37.15         4.5 0.44                           115  17 
                                                                                
