 2012  1 2 1647 17.2 L   6.791 -73.143151.0  RSN  8 0.3 2.2LRSN                1
 GAP=137        0.89       5.1     5.5  6.9 -0.3080E+01  0.9537E+01  0.9055E+01E
 Epicentro: LOS SANTOS - SANTANDER                                             3
 ACTION:UP  12-02-03 08:13 OP:REBC STATUS:               ID:20120102164717 L   I
 2012-01-02-1640-00M.COL___187                                                 6
 STAT SP IPHASW D HRMM SECON CODA AMPLIT PERI AZIMU VELO SNR AR TRES W  DIS CAZ7
 BAR2 SZ IP       1647 37.42                             171     0.010   22 191 
 BAR2 SZ I        1647 37.65        27.5 0.11                            22 191 
 BAR2 SZ ES   1   1647 52.81                             171    -0.5 7   22 191 
 BRR  HZ EP       1647 39.26                             153     0.310   72 299 
 BRR  HE ES   1   1647 56.56                             153     0.6 7   72 299 
 BRR  HZ I        1647 59.06        42.6 0.15                            72 299 
 PAM  SZ EP       1647 40.31                             152     0.310   78  39 
 PAM  SN ES   1   1647 57.42                             152    -0.4 7   78  39 
 RUS  HZ EP       1647 41.24                             145    -0.210  100 176 
 RUS  HZ I        1647 42.70        13.6 0.46                           100 176 
 RUS  HE ES   1   1648  0.64                             145     0.3 7  100 176 
 PTB  HZ EP       1647 44.05                             133    -0.6 9  148 259 
 PTB  HE ES   3   1648  5.55                             133    -0.5 2  148 259 
 PTB  HZ I        1648 11.29        21.3 0.46                           148 259 
 ZAR  HE ES   2   1648 15.35                             123    -0.4 4  205 292 
 ZAR  HZ I        1648 21.88        27.2 0.48                           205 292 
 NOR  SZ EP       1647 53.33                             120     0.1 8  234 235 
 NOR  SN ES   1   1648 21.41                             120     0.1 6  234 235 
 CHI  HZ EP       1647 55.31                             118     0.2 8  248 195 
 CHI  HZ I        1648 33.30         7.2 0.54                           248 195 
                                                                                
