 2011  9 2 1819 12.2 L   6.923 -74.180  7.9  RSN  6 0.4 1.5LRSN                1
 GAP=118        0.74       3.4     2.1  6.5  0.2711E+01  0.3474E+01  0.7206E+01E
 Epicentro: PUERTO PARRA - SANTANDER                                           3
 ACTION:UPD 12-07-13 15:55 OP:ep   STATUS:               ID:20110902181912 L   I
 2011-09-02-1816-26S.COL___170                                                 6
 STAT SP IPHASW D HRMM SECON CODA AMPLIT PERI AZIMU VELO AIN AR TRES W  DIS CAZ7
 BRR  HZ EP       1819 21.21                              47   -0.0110 55.5  68 
 BRR  HZ I        1819 21.37        26.7 0.13                          55.5  68 
 BRR  HE ES   2   1819 28.10                              47   -0.17 5 55.5  68 
 ZAR  HZ EP   1   1819 27.78                              47    0.15 7 97.8 310 
 ZAR  HE ES   1   1819 39.56                              47   -0.12 7 97.8 310 
 ZAR  HZ I        1819 40.25         8.3 0.16                          97.8 310 
 GIR2 SZ EP   1   1819 30.09                              47    0.43 7  110  81 
 BAR2 SZ ES   1   1819 44.29                              47   -0.75 7  116 108 
 BAR2 SZ I        1819 46.85         7.5 0.57                           116 108 
 RUS  HZ EP   1   1819 39.08                              47    0.57 7  166 133 
 RUS  HN ES   1   1819 59.24                              47    0.21 7  166 133 
 RUS  HZ I        1820  0.74         8.5 0.64                           166 133 
 HEL  HN ES   1   1819 59.17                              47   -0.34 7  170 242 
                                                                                
