 2016  6 2 1326 23.8 L   6.840 -73.206140.2  RSN 10 0.3 2.0LRSN                1
 GAP=127        0.79       2.9     3.1  4.4 -0.1415E+01  0.4353E+01  0.1318E+01E
 Epicentro: ZAPATOCA - SANTANDER                                               3
 ACTION:UPD 16-07-21 22:14 OP:rebc STATUS:               ID:20160602132623 L   I
 OLDACT:UP  16-06-03 00:31 OP:ar   STATUS:               ID:20160602131743     3
 OLDACT:REG 16-06-02 21:43 OP:ar   STATUS:               ID:20160602131743     3
 2016-06-02-1317-43M.COL___319                                                 6
 STAT SP IPHASW D HRMM SECON CODA AMPLIT PERI AZIMU VELO AIN AR TRES W  DIS CAZ7
 BAR2 EZ EP       1326 42.76                             168   -0.0510 27.5 174 
 BAR2 EZ ES       1326 57.51                             168   -0.1710 27.5 174 
 BAR2 EZ I        1326 59.00        26.9 0.38                          27.5 174 
 BRR  HZ EP       1326 44.60                             154    0.7410 63.2 298 
 BRR  HE ES       1326 59.44                             154   -0.1110 63.2 298 
 BRR  HZ I        1327  4.67        19.0 0.26                          63.2 298 
 PAM  EZ EP       1326 45.66                             149    0.2010 78.7  45 
 PAM  EN ES       1327  2.51                             149    0.1210 78.7  45 
 PAM  EZ I        1327  4.99        30.6 0.50                          78.7  45 
 RUS  HZ EP       1326 47.30                             141   -0.0410  106 173 
 RUS  HN ES       1327  5.58                             141   -0.1610  106 173 
 RUS  HZ I        1327  5.95         7.5 0.24                           106 173 
 PTB  HZ EP       1326 49.49                             132   -0.27 9  142 257 
 PTB  HN ES       1327 10.26                             132    0.22 9  142 257 
 PTB  HZ I        1327 12.18        16.9 0.46                           142 257 
 SPBC HZ EP       1326 51.57                             128   -0.20 9  163 216 
 SPBC HE ES       1327 13.31                             128   -0.32 9  163 216 
 SPBC HZ I        1327 16.80        17.9 0.22                           163 216 
 NOR  HZ EP       1326 59.22                             118    0.35 8  232 233 
 NOR  HN ES       1327 26.50                             118    0.25 8  232 233 
 NOR  HZ I        1327 30.76         7.6 0.50                           232 233 
 URE  HZ EP   4   1327  7.28                             113    3.60 0  276 292 
 URE  HN ES       1327 34.42                             113   -0.40 7  276 292 
 URE  HZ I        1327 37.94         6.6 0.16                           276 292 
 PRA  HZ EP       1327 16.65                             105   -0.51 6  393 208 
 PRA  HN ES       1327 59.34                             105    0.53 6  393 208 
 PRA  HZ I        1328  5.05         4.3 0.66                           393 208 
 SJC  HZ EP       1327 17.56                             105   -0.71 6  402 327 
 SJC  HN ES   4   1327 57.08                             105   -3.72 0  402 327 
 SJC  HZ I        1328  2.64         3.2 0.72                           402 327 
                                                                                
