 2016 10 2 1725  7.1 L   6.739 -73.193147.5  RSN  5 0.2 1.5LRSN                1
 GAP=227        0.62       6.3     4.4  5.8  0.1610E+02  0.2206E+01  0.5447E+01E
 Epicentro: VILLANUEVA - SANTANDER                                             3
 ACTION:UPD 16-11-09 19:15 OP:rebc STATUS:               ID:20161002172507 L   I
 OLDACT:UP  16-10-03 01:17 OP:dani STATUS:               ID:20161002171705     3
 OLDACT:UP  16-10-03 01:11 OP:dani STATUS:               ID:20161002171705     3
 OLDACT:REG 16-10-02 21:15 OP:dani STATUS:               ID:20161002171705     3
 2016-10-02-1718-00M.COL___369                                                 6
 STAT SP IPHASW D HRMM SECON CODA AMPLIT PERI AZIMU VELO AIN AR TRES W  DIS CAZ7
 BAR2 EZ EP       1725 26.59                             173   -0.2710 16.3 176 
 BAR2 EZ ES       1725 42.05                             173   -0.1910 16.3 176 
 BAR2 EZ I        1725 45.11         5.3 0.58            156           16.3 176 
 BRR  HZ EP       1725 28.38                             153   -0.0510 70.3 305 
 BRR  HN ES       1725 45.37                             153    0.3410 70.3 305 
 BRR  HZ I        1725 46.67         8.2 0.30            157           70.3 305 
 RUS  HZ EP       1725 30.94                             146    0.3110 94.4 173 
 RUS  HZ I        1725 51.60         3.0 0.34            129           94.4 173 
 PTB  HZ EP   4   1725 33.40                             134   -0.29 0  141 261 
 PTB  HN ES       1725 54.33                             134   -0.07 9  141 261 
 PTB  HZ I        1725 55.77         4.4 0.14            126            141 261 
 ZAR  HE ES       1726  4.60                             123   -0.11 9  202 294 
 GUY2CHZ EP   4   1725 54.05                             113    4.13 0  293 235 
                                                                                
