 2015 11 2 1118 59.4 L   6.813 -73.081143.7  RSN  7 0.5 1.6LRSN                1
 GAP=144        1.04       4.6     5.7  6.9  0.4704E+01  0.9556E+01 -0.4978E+01E
 Epicentro: LOS SANTOS - SANTANDER                                             3
 ACTION:UPD 15-12-28 16:08 OP:cam  STATUS:               ID:20151102111859 L   I
 OLDACT:DUP 15-11-03 00:35 OP:cara STATUS:               ID:20151102110750d    3
 2015-11-02-1107-49M.COL___313                                                 6
 STAT SP IPHASW D HRMM SECON CODA AMPLIT PERI AZIMU VELO AIN AR TRES W  DIS CAZ7
 BAR2 EZ EP   2 C 1119 18.86                             169   -0.00 5 26.8 205 
 BAR2 EZ ES       1119 33.42                             169   -0.6210 26.8 205 
 BAR2 EZ I        1119 35.96         7.4 0.18            168           26.8 205 
 PAM  EZ EP       1119 21.64                             152    0.5610 71.9  36 
 PAM  EE ES       1119 38.28                             152    0.3010 71.9  36 
 PAM  EZ I        1119 40.99         8.7 0.50            153           71.9  36 
 BRR  HZ EP       1119 20.29                             150   -0.3710 76.9 295 
 BRR  HE ES       1119 37.76                             150    0.5110 76.9 295 
 BRR  HZ I        1119 39.67         8.5 0.50            148           76.9 295 
 RUS  HZ EP       1119 22.92                             143   -0.1210  102 180 
 RUS  HE ES       1119 41.28                             143   -0.1910  102 180 
 RUS  HZ I        1119 42.73         3.8 0.30            144            102 180 
 ZAR  HZ EP       1119 32.85                             121    0.50 8  210 291 
 ZAR  HE ES       1119 57.95                             121   -0.09 8  210 291 
 ZAR  HZ I        1120  3.52         6.5 0.40            120            210 291 
 SML  HZ EP       1119 35.45                             117   -0.65 8  245 334 
 SML  HN ES   2   1120  4.09                             117   -0.64 4  245 334 
 SML  HZ I        1120 11.70         4.5 0.30            117            245 334 
 CHI  HZ EP   4   1119 40.93                             116    3.58 0  252 197 
 CHI  HN ES   2   1120  7.90                             116    0.95 4  252 197 
 CHI  HZ I        1120 12.35         1.3 0.32            117            252 197 
                                                                                
