 2011 12 2 1926 59.5 L   6.786 -73.090142.0  RSN  4 0.2 1.0LRSN                1
 GAP=144        0.38       2.5     3.7  4.4 -0.2236E+00 -0.9188E+00  0.1339E+01E
 Epicentro: LOS SANTOS - SANTANDER                                             3
 ACTION:UPD 12-07-13 16:13 OP:ep   STATUS:               ID:20111202192659 L   I
 2011-12-02-1920-00M.COL___180                                                 6
 STAT SP IPHASW D HRMM SECON CODA AMPLIT PERI AZIMU VELO AIN AR TRES W  DIS CAZ7
 BAR2 SZ ES   3   1927 33.06                             170   -0.59 2 23.7 205 
 PAM  SZ EP       1927 21.29                             151    0.1110 74.9  35 
 PAM  SN ES   1   1927 38.00                             151   -0.08 7 74.9  35 
 BRR  HZ EP       1927 20.52                             150   -0.1010 77.3 297 
 BRR  HN ES   1   1927 37.21                             150    0.13 7 77.3 297 
 RUS  HZ EP       1927 22.66                             144   -0.1010 98.7 180 
 RUS  HE ES   1   1927 41.04                             144    0.15 7 98.7 180 
 RUS  HZ I        1927 41.57         1.6 0.38                          98.7 180 
                                                                                
