 2010  8 2 1156 30.2 L   6.864 -73.254122.1  RSN 10 0.5 2.5LRSN                1
 GAP=142        0.96       4.8     9.1  8.4 -0.1174E+02  0.2196E+02  0.1075E+01E
 Epicentro: ZAPATOCA - SANTANDER                                               3
 ACTION:UP  10-09-07 10:51 OP:vdl  STATUS:               ID:20100802115630 L   I
 2010-08-02-1152-56S.COL___123                                                 6
 STAT SP IPHASW D HRMM SECON CODA AMPLIT PERI AZIMU VELO SNR AR TRES W  DIS CAZ7
 GIR2 SZ IP     D 1156 46.99                             168     0.210   25  16 
 GIR2 SZ ES   2   1156 59.65                             168    -0.2 5   25  16 
 BAR2 SZ IP     D 1156 47.36                             165     0.210   31 166 
 BAR2 SZ I        1156 47.56       433.4 0.11                            31 166 
 BAR2 SZ ES   2   1157  0.39                             165     0.0 5   31 166 
 BRR  HZ IP     D 1156 47.75                             153    -0.210   57 298 
 BRR  HE ES   2   1157  1.96                             153     0.1 5   57 298 
 BRR  HZ I        1157  2.77       191.8 0.17                            57 298 
 RUS  HZ EP   1   1156 52.10                             136    -0.3 7  109 170 
 RUS  HZ I        1156 53.53        21.7 0.19                           109 170 
 RUS  HN ES   2   1157  9.56                             136    -0.1 5  109 170 
 GUE  SZ EP   1   1156 51.39                             134    -1.1 7  113  19 
 GRA  SZ EP   1   1156 53.82                             132     0.7 7  123  24 
 GRA  SZ ES   2   1157 12.15                             132     1.0 5  123  24 
 GRA  SZ I        1157 14.69        46.4 0.26                           123  24 
 OCA  SZ EP   1   1156 55.69                             125    -0.2 7  152 357 
 OCA  SZ ES   2   1157 15.81                             125    -0.2 5  152 357 
 OCA  SZ I        1157 22.86        60.0 0.29                           152 357 
 HEL  HZ EP   1   1157  8.71                             110     0.5 6  262 254 
 HEL  HZ I        1157 41.51        15.4 0.44                           262 254 
 RREF HZ EP   1   1157 14.87                             106     0.0 5  318 227 
 RREF HZ I        1157 55.66         6.9 0.18                           318 227 
 PRA  HZ EP   1   1157 23.47                             102     0.5 4  393 208 
 PRA  HN ES   2   1158  4.06                             102    -0.2 3  393 208 
 PRA  HZ I        1158 10.69         9.6 0.75                           393 208 
                                                                                
