 2013  3 2 1127 21.6 L   6.697 -73.178141.8  RSN  5 0.4 1.6LRSN                1
 GAP=226        0.77       7.3     6.9  8.0  0.2983E+02  0.7806E+01 -0.2691E+01E
 Epicentro: VILLANUEVA - SANTANDER                                             3
 ACTION:UPD 13-04-09 13:59 OP:ep   STATUS:               ID:20130302112721 L   I
 2013-03-02-1120-00M.COL___228                                                 6
 STAT SP IPHASW D HRMM SECON CODA AMPLIT PERI AZIMU VELO AIN AR TRES W  DIS CAZ7
 BAR2 SZ EP   1   1127 40.58                             175   -0.01 7 11.6 183 
 BAR2 SZ ES   1   1127 54.71                             175   -0.68 7 11.6 183 
 BAR2 SZ I        1127 56.73        13.3 0.22            170           11.6 183 
 BRR  HZ EP     C 1127 42.50                             151   -0.0310 74.5 308 
 BRR  HN ES   1   1127 59.30                             151    0.45 7 74.5 308 
 BRR  HZ I        1128  1.75         9.7 0.28            149           74.5 308 
 RUS  HZ EP   1   1127 44.47                             146    0.26 7 89.6 173 
 RUS  HN ES   1   1128  2.24                             146    0.42 7 89.6 173 
 RUS  HZ I        1128  4.24         2.0 0.38            147           89.6 173 
 PTB  HZ EP   1   1127 47.26                             132   -0.53 7  142 263 
 PTB  HN ES   1   1128  8.01                             132   -0.19 7  142 263 
 PTB  HZ I        1128 12.00         5.7 0.16            131            142 263 
 ZAR  HN ES   1   1128 19.51                             121    0.34 6  205 295 
 ZAR  HZ I        1128 24.74         8.1 0.60            122            205 295 
                                                                                
