 2013  8 2 1107 53.6 L   6.810 -73.154150.6  RSN  7 0.4 1.9LRSN                1
 GAP=184        0.87       4.6     5.6  6.3  0.1013E+02  0.1895E+01 -0.9330E+01E
 Epicentro: LOS SANTOS - SANTANDER                                             3
 ACTION:UPD 14-01-14 08:58 OP:ep   STATUS:               ID:20130802110753 L   I
 OLDACT:REG 13-08-02 14:38 OP:cam  STATUS:               ID:20130802105959     3
 2013-08-02-1059-59M.COL___268                                                 6
 STAT SP IPHASW D HRMM SECON CODA AMPLIT PERI AZIMU VELO AIN AR TRES W  DIS CAZ7
 BAR2 SZ EP       11 8 13.71                             171   -0.1510 24.3 187 
 BAR2 SZ ES       11 8 29.47                             171   -0.1710 24.3 187 
 BAR2 SZ I        11 8 30.12         8.0 0.25            171           24.3 187 
 GIR2 SZ EP   1   11 8 13.71                             168   -0.14 7 30.1 352 
 BRR  HZ EP       11 8 15.40                             154    0.1710 69.8 298 
 BRR  HN ES       11 8 32.56                             154    0.4810 69.8 298 
 BRR  HN I        11 8 33.03        30.3 0.38            153           69.8 298 
 RUS  HZ EP   1   11 8 18.28                             145    0.34 7  102 176 
 RUS  HN ES       11 8 36.93                             145    0.0310  102 176 
 RUS  HZ I        11 8 38.33        10.5 0.30            146            102 176 
 PTB  HZ EP       11 8 20.66                             133   -0.27 9  147 258 
 PTB  HN ES       11 8 41.70                             133   -0.53 9  147 258 
 PTB  HZ I        11 8 44.05         8.0 0.40            133            147 258 
 ZAR  HZ EP       11 8 27.03                             124    0.76 9  203 292 
 ZAR  HN ES   1   11 8 51.88                             124    0.16 6  203 292 
 ZAR  HZ I        11 8 53.49         6.1 0.10            124            203 292 
 SML  HZ EP   1   11 8 29.82                             119   -0.57 6  242 335 
 SML  HE ES       11 8 58.76                             119   -0.29 8  242 335 
 SML  HZ I        11 9  2.06         7.1 0.10            119            242 335 
                                                                                
