 2014  2 2 1718 24.7 L   6.827 -73.149141.8  RSN 15 0.4 2.1LRSN                1
 GAP= 70        1.05       2.7     3.0  5.4 -0.1017E+01  0.3469E+01 -0.7566E+00E
 Epicentro: LOS SANTOS - SANTANDER                                             3
 ACTION:UPD 14-03-10 08:07 OP:ep   STATUS:               ID:20140202171824 L   I
 OLDACT:UP  14-02-03 04:30 OP:CAM  STATUS:               ID:20140202171824 L   3
 OLDACT:DUP 14-02-02 19:44 OP:stll STATUS:               ID:20140202170819d    3
 2014-02-02-1708-18M.COL___236                                                 6
 STAT SP IPHASW D HRMM SECON CODA AMPLIT PERI AZIMU VELO AIN AR TRES W  DIS CAZ7
 BAR2 SZ EP       1718 44.07                             169    0.1210 26.2 188 
 BAR2 SZ ES       1718 58.58                             169   -0.3610 26.2 188 
 BAR2 SZ I        1719  1.19        26.9 0.22            169           26.2 188 
 BRR  HZ EP       1718 45.96                             152    0.6010 69.5 297 
 BRR  HN ES   4   1719  2.96                             152    1.52 0 69.5 297 
 BRR  HZ I        1719  6.84        23.1 0.52            152           69.5 297 
 PAM  SZ EP       1718 46.95                             151    0.5410 75.3  41 
 PAM  SN ES       1719  3.58                             151    0.2710 75.3  41 
 RUS  HZ EP       1718 48.68                             142    0.3610  104 176 
 RUS  HN ES       1719  6.46                             142   -0.2610  104 176 
 RUS  HZ I        1719  7.67        11.0 0.28            144            104 176 
 PTB  HZ EP       1718 51.35                             131   -0.06 9  148 258 
 PTB  HN ES       1719 11.65                             131   -0.56 9  148 258 
 PTB  HZ I        1719 15.25        18.2 0.10            132            148 258 
 TAM  HZ EP       1718 52.47                             129    0.26 9  156 106 
 TAM  HZ I        1718 52.52        26.3 0.18            133            156 106 
 TAM  HN ES       1719 13.75                             129    0.11 9  156 106 
 OCA  HZ EP       1718 51.54                             129   -0.92 9  157 353 
 OCA  HN ES       1719 13.80                             129   -0.27 9  157 353 
 SPBC HZ EP       1718 53.27                             128    0.13 9  165 218 
 SPBC HN ES       1719 15.29                             128    0.00 9  165 218 
 ZAR  HZ EP       1718 57.43                             122    0.66 9  203 291 
 ZAR  HN ES       1719 22.38                             122    0.62 9  203 291 
 NOR  HZ EP       1719  0.39                             117   -0.01 8  236 234 
 NOR  HN ES       1719 27.74                             117   -0.47 8  236 234 
 NOR  HZ I        1719 36.12         6.4 0.16            119            236 234 
 SML  HZ EP       1719  0.20                             117   -0.63 8  241 335 
 SML  HN ES       1719 29.14                             117    0.16 8  241 335 
 SML  HZ I        1719 33.03        11.0 0.10            118            241 335 
 SOCV BZ EP       1719  6.68                             111   -0.78 7  300  57 
 SOCV BZ ES   4   1719 37.59                             111   -3.19 0  300  57 
 GUY2CHZ EP   4   1719 11.02                             111    2.69 0  303 234 
 GUY2CHE ES   4   1719 43.98                             111    1.65 0  303 234 
 GUY2CHZ I        1719 49.14         5.2 0.24                           303 234 
 PRA  HZ EP       1719 18.59                             106    0.18 6  394 209 
 PRA  HN ES       1720  0.46                             106    0.19 6  394 209 
 ORTC HZ EP       1719 18.22                             105   -0.56 6  398 216 
 ORTC HZ I        1719 21.22         2.1 0.22            107            398 216 
                                                                                
