 2011 12 2 1903  7.6 L   6.759 -73.115137.6  RSN  5 0.2 1.8LRSN                1
 GAP=142        0.42       2.6     4.0  4.0 -0.1120E+00 -0.1059E+01 -0.6680E-01E
 Epicentro: LOS SANTOS - SANTANDER                                             3
 ACTION:UPD 12-07-13 16:13 OP:ep   STATUS:               ID:20111202190307 L   I
 2011-12-02-1900-00M.COL___180                                                 6
 STAT SP IPHASW D HRMM SECON CODA AMPLIT PERI AZIMU VELO AIN AR TRES W  DIS CAZ7
 BAR2 SZ EP       19 3 26.24                             171    0.0210 19.9 202 
 BAR2 SZ ES   1   19 3 40.41                             171   -0.30 7 19.9 202 
 BAR2 SZ I        19 3 42.44        10.9 0.46                          19.9 202 
 GIR2 SZ EP       19 3 26.37                             164   -0.1310 36.4 346 
 BRR  HZ EP       19 3 28.14                             149   -0.0910 76.3 300 
 BRR  HZ I        19 3 28.52        31.9 0.30                          76.3 300 
 BRR  HN ES   1   19 3 44.50                             149    0.22 7 76.3 300 
 PAM  SZ EP       19 3 29.24                             149    0.1510 78.9  36 
 PAM  SN ES   1   19 3 45.84                             149    0.02 7 78.9  36 
 RUS  HZ EP       19 3 30.20                             143   -0.0510 95.9 178 
 RUS  HE ES   1   19 3 48.12                             143    0.23 7 95.9 178 
 RUS  HZ I        19 3 49.69         4.8 0.38                          95.9 178 
                                                                                
