 2013  6 2 1202 23.1 L   6.802 -73.145144.4  RSN 14 0.4 2.2LRSN                1
 GAP= 71        1.13       3.4     3.7  5.3 -0.1572E+01  0.1520E+01 -0.2127E+01E
 Epicentro: LOS SANTOS - SANTANDER                                             3
 ACTION:UPD 14-01-08 09:51 OP:ep   STATUS:               ID:20130602120223 L   I
 2013-06-02-1158-52M.COL___220                                                 6
 STAT SP IPHASW D HRMM SECON CODA AMPLIT PERI AZIMU VELO AIN AR TRES W  DIS CAZ7
 BAR2 SZ EP       12 2 42.45                             170   -0.0710 23.6 190 
 BAR2 SZ ES       12 2 57.34                             170   -0.3610 23.6 190 
 BAR2 SZ I        12 2 58.48        25.6 0.22            173           23.6 190 
 GIR2 SZ EP       12 2 42.50                             167   -0.0510 31.1 350 
 GIR2 SZ ES       12 2 58.06                             167    0.3010 31.1 350 
 BRR  HZ EP       12 2 44.36                             152    0.3210 71.1 298 
 BRR  HN ES       12 3  1.41                             152    0.9910 71.1 298 
 BRR  HE I        12 3  2.11        71.3 0.18            152           71.1 298 
 PAM  SZ EP       12 2 45.07                             151   -0.0410 77.2  40 
 PAM  SN ES       12 3  2.36                             151    0.0510 77.2  40 
 PAM  SE I        12 3  5.25        19.6 0.54            150           77.2  40 
 RUS  HZ EP       12 2 46.71                             143    0.0310  101 176 
 RUS  HN ES       12 3  4.94                             143   -0.1710  101 176 
 RUS  HE I        12 3  6.68        15.3 0.32            146            101 176 
 GUE  SZ EP       12 2 46.81                             139   -0.8110  116  12 
 GRA  SZ EP       12 2 48.41                             137    0.2610  126  17 
 PTB  HZ EP       12 2 49.28                             132   -0.63 9  148 259 
 PTB  HN ES       12 3 10.50                             132   -0.36 9  148 259 
 PTB  HE I        12 3 11.88        14.5 0.40            133            148 259 
 CAPV BZ EP       12 2 50.46                             132    0.15 9  149  38 
 TAM  HZ IP     D 12 2 50.72                             130    0.10 9  155 105 
 TAM  HZ I        12 2 50.82        13.7 0.34            132            155 105 
 OCA  HZ EP       12 2 51.96                             129    0.73 9  160 353 
 OCA  HN ES       12 3 12.41                             129   -0.80 9  160 353 
 OCA  HN I        12 3 15.85        31.1 0.20            129            160 353 
 ZAR  HZ EP       12 2 55.60                             122    0.20 9  204 292 
 ZAR  HE ES       12 3 20.71                             122    0.08 9  204 292 
 NOR  HZ EP       12 2 59.17                             118    0.45 8  235 234 
 NOR  HN ES       12 3 26.33                             118   -0.21 8  235 234 
 SML  HZ EP       12 2 60.00                             117    0.42 8  244 335 
 SML  HN ES       12 3 27.46                             117   -0.61 8  244 335 
 SML  HE I        12 3 36.77        15.6 0.10            118            244 335 
                                                                                
