 2010 12 2 1704 47.2 L   6.781 -73.032145.7  RSN  9 0.4 2.2LRSN                1
 GAP=186        0.72       4.2     7.9  6.2 -0.1887E+02 -0.6811E+01  0.6295E+01E
 Epicentro: CEPITA - SANTANDER                                                 3
 ACTION:UP  11-01-14 15:22 OP:pat  STATUS:               ID:20101202170447 L   I
 2010-12-02-1701-24S.COL___132                                                 6
 STAT SP IPHASW D HRMM SECON CODA AMPLIT PERI AZIMU VELO SNR AR TRES W  DIS CAZ7
 BAR2 SZ EP   1   17 5  6.90                             169     0.0 7   27 219 
 BAR2 SZ ES   1   17 5 22.06                             169    -0.2 7   27 219 
 BAR2 SZ I        17 5 23.70        50.8 0.29                            27 219 
 GIR2 SZ EP   1   17 5  7.07                             165     0.1 7   37 332 
 GIR2 SZ ES   2   17 5 23.32                             165     0.8 5   37 332 
 BRR  HZ EP       17 5  8.79                             149    -0.210   83 296 
 BRR  HZ I        17 5  9.03        82.4 0.15                            83 296 
 BRR  HN ES   1   17 5 26.02                             149    -0.1 7   83 296 
 GUE  SZ EP   1   17 5 12.11                             139     0.2 7  117   6 
 GRA  SZ EP   1   17 5 12.72                             137     0.4 7  125  12 
 GRA  SZ ES   1   17 5 31.75                             137    -0.2 7  125  12 
 GRA  SZ I        17 5 38.35         9.6 0.14                           125  12 
 OCA  SZ EP   1   17 5 15.46                             129    -0.4 7  164 349 
 OCA  SZ I        17 5 43.72        12.8 0.30                           164 349 
 CHI  HZ EP   1   17 5 24.99                             117     0.0 6  250 198 
 CHI  HE ES   1   17 5 54.10                             117    -0.5 6  250 198 
 CHI  HZ I        17 6  0.16         4.3 0.34                           250 198 
 RREF HN ES   1   17 6 11.38                             110     0.4 5  330 231 
 RREF HZ I        17 6 16.24         6.7 0.50                           330 231 
 PRA  HE ES   2   17 6 24.22                             106     0.9 3  397 211 
 PRA  HZ I        17 6 32.44        10.4 0.10                           397 211 
                                                                                
