 2013  1 2 1025 41.9 L   6.741 -73.170151.6  RSN  8 0.3 1.6LRSN                1
 GAP=180        0.56       2.7     3.7  4.9  0.2623E+01  0.4451E+01  0.1949E+01E
 Epicentro: VILLANUEVA - SANTANDER                                             3
 ACTION:UPD 13-02-15 09:11 OP:ep   STATUS:               ID:20130102102541 L   I
 2013-01-02-1020-00M.COL___242                                                 6
 STAT SP IPHASW D HRMM SECON CODA AMPLIT PERI AZIMU VELO AIN AR TRES W  DIS CAZ7
 BAR2 SZ EP   1   1026  2.01                             173   -0.12 7 16.5 185 
 BAR2 SZ ES   1   1026 17.54                             173   -0.36 7 16.5 185 
 BAR2 SZ I        1026 18.70        17.7 0.18            176           16.5 185 
 BRR  HZ EP   1   1026  3.89                             153    0.14 7 72.3 304 
 BRR  HN ES   1   1026 21.41                             153    0.62 7 72.3 304 
 BRR  HZ I        1026 27.38         8.3 0.44            152           72.3 304 
 RUS  HZ EP   1   1026  5.87                             147    0.06 7 94.3 174 
 RUS  HN ES   1   1026 24.37                             147   -0.09 7 94.3 174 
 RUS  HZ I        1026 25.93         4.2 0.62            150           94.3 174 
 PTB  HZ EP   1   1026  8.73                             134   -0.30 7  144 261 
 PTB  HN ES   1   1026 30.11                             134   -0.07 7  144 261 
 PTB  HZ I        1026 32.49         6.5 0.62            135            144 261 
 OCA  HN ES   1   1026 34.12                             130   -0.02 7  166 354 
 OCA  HZ I        1026 41.93         3.0 0.16            130            166 354 
 ZAR  HZ EP   1   1026 14.44                             124   -0.31 6  204 294 
 ZAR  HE ES   1   1026 40.25                             124   -0.11 6  204 294 
 ZAR  HZ I        1026 45.45         5.1 0.34            124            204 294 
 CHI  HZ EP   1   1026 19.78                             119    0.59 6  242 195 
 CHI  HN ES   1   1026 48.30                             119    0.03 6  242 195 
 CHI  HZ I        1026 55.08         1.9 0.32            121            242 195 
 HEL  HN ES   1   1026 53.22                             116    0.00 6  268 257 
 MON  HZ EP   4   1026 28.14                             109   -3.23 0  356 309 
 MON  HN ES   4   1027  7.30                             109   -2.65 0  356 309 
                                                                                
