 2011 10 2 1141 42.2 L   7.395 -73.181126.0  RSN  8 0.3 2.1LRSN                1
 GAP=106        0.69       2.9     3.7  5.0  0.1359E+01  0.1782E+01  0.4350E-01E
 Epicentro: EL PLAYON - SANTANDER                                              3
 ACTION:UPD 12-07-13 16:01 OP:ep   STATUS:               ID:20111002114142 L   I
 2011-10-02-1138-52S.COL___168                                                 6
 STAT SP IPHASW D HRMM SECON CODA AMPLIT PERI AZIMU VELO AIN AR TRES W  DIS CAZ7
 PAM  SZ EP       1142  0.97                             156    0.0110 53.5  97 
 PAM  SN ES   1   1142 15.16                             156   -0.42 7 53.5  97 
 BRR  HZ EP       1142  0.86                             150   -0.1210 66.7 242 
 BRR  HN ES       1142 16.06                             150    0.4410 66.7 242 
 BRR  HZ I        1142 17.37        34.5 0.08                          66.7 242 
 BAR2 SZ EP       1142  2.67                             143   -0.1410 88.8 180 
 BAR2 SZ ES       1142 19.01                             143    0.1310 88.8 180 
 BAR2 SZ I        1142 20.41        29.7 0.12                          88.8 180 
 OCA  SZ EP       1142  3.47                             141    0.3510 94.5 351 
 OCA  SZ ES   1   1142 19.43                             141   -0.01 7 94.5 351 
 OCA  SZ I        1142 21.84        18.6 0.17                          94.5 351 
 RUS  HZ EP       1142 10.15                             124    0.02 9  167 176 
 RUS  HE ES   1   1142 31.74                             124   -0.18 7  167 176 
 ZAR  HZ EP   1   1142 10.78                             121   -0.68 7  185 273 
 ZAR  HN ES   1   1142 33.79                             121   -0.48 7  185 273 
 ZAR  HZ I        1142 37.54        19.6 0.24                           185 273 
 HEL  HZ EP   2   1142 24.27                             109    0.53 4  292 243 
 HEL  HZ I        1143  4.34         3.6 0.40                           292 243 
 CHI  HZ EP   2   1142 26.61                             108    0.48 3  312 191 
                                                                                
