 2014  4 2 1837 29.5 L   6.403 -73.655 98.0  RSN 13 0.5 2.2LRSN                1
 GAP=137        1.23       2.8     3.7  7.4 -0.4334E+01 -0.6948E+00  0.1645E+01E
 Epicentro: SANTA HELENA DEL OPON - SANTANDER                                  3
 ACTION:UPD 14-05-13 23:05 OP:nd   STATUS:               ID:20140402183729 L   I
 OLDACT:REG 14-04-02 21:21 OP:carl STATUS:               ID:20140402182811     3
 2014-04-02-1828-11M.COL___249                                                 6
 STAT SP IPHASW D HRMM SECON CODA AMPLIT PERI AZIMU VELO AIN AR TRES W  DIS CAZ7
 BRR  HN ES       1838  0.04                             138    0.6910 78.1 355 
 PTB  HZ EP       1837 46.36                             134   -0.9210 89.9 280 
 PTB  HN ES       1838  0.39                             134   -0.8010 89.9 280 
 PTB  HZ I        1838  3.45        30.7 0.12            133           89.9 280 
 SPBC HZ EP       1837 47.19                             133   -0.6510 95.1 209 
 SPBC HE ES       1838  1.83                             133   -0.3610 95.1 209 
 SPBC HZ I        1838  3.84        54.4 0.22            133           95.1 209 
 PAM  SZ EP       1837 53.94                             120    0.29 9  148  45 
 PAM  SE ES       1838 13.00                             120    0.48 9  148  45 
 PAM  SZ I        1838 13.46        18.2 0.26            121            148  45 
 NOR  HZ EP       1837 54.66                             117   -0.12 9  163 235 
 NOR  HN ES       1838 14.80                             117    0.26 9  163 235 
 NOR  HZ I        1838 16.54        22.3 0.28            117            163 235 
 ZAR  HZ EP       1837 56.81                             114    0.30 9  179 312 
 ZAR  HN ES       1838 17.84                             114    0.23 9  179 312 
 ZAR  HZ I        1838 24.49        18.4 0.38            114            179 312 
 CHI  HZ EP       1837 58.17                             112   -0.76 9  196 183 
 CHI  HN ES       1838 22.59                             112    0.66 9  196 183 
 CHI  HZ I        1838 26.38         7.8 0.28            113            196 183 
 OCA  HZ EP       1837 59.48                             111   -0.28 8  206  10 
 OCA  HN ES       1838 23.52                             111    0.13 8  206  10 
 OCA  HZ I        1838 28.74        24.9 0.18            111            206  10 
 HEL  HZ EP       1838  0.54                             111    0.24 8  209 264 
 HEL  HN ES       1838 24.66                             111    0.30 8  209 264 
 HEL  HZ I        1838 27.35        16.0 0.26            111            209 264 
 GUY2CHZ EP       1838  2.93                             109    0.03 8  230 236 
 GUY2CHN ES       1838 29.92                             109    0.93 8  230 236 
 GUY2CHZ I        1838 33.07        12.2 0.32                           230 236 
 RREF HZ EP       1838  5.68                             107    0.17 8  251 229 
 RREF HN ES       1838 33.82                             107    0.19 8  251 229 
 RREF HZ I        1838 40.46        11.3 0.28            108            251 229 
 CBOC HZ EP       1838  7.46                             106    0.50 8  268 257 
 CBOC HN ES       1838 36.40                             106    0.17 8  268 257 
 CBOC HZ I        1838 39.14         5.0 0.48            106            268 257 
 SML  HZ EP       1838  6.33                             106   -0.59 8  269 350 
 SML  HE ES       1838 35.68                             106   -0.46 8  269 350 
 SML  HZ I        1838 41.64        26.7 0.10            106            269 350 
                                                                                
