 2014 10 2 1315  8.5 L   6.638 -73.171148.0  RSN  6 0.3 1.6LRSN                1
 GAP=222        0.72       4.7     5.6  6.6  0.8891E+01  0.5480E+01  0.5619E+01E
 Epicentro: VILLANUEVA - SANTANDER                                             3
 ACTION:UPD 14-11-29 23:46 OP:nd   STATUS:               ID:20141002131508 L   I
 OLDACT:REG 14-10-02 21:29 OP:stll STATUS:               ID:20141002130748     3
 2014-10-02-1307-48M.COL___291                                                 6
 STAT SP IPHASW D HRMM SECON CODA AMPLIT PERI AZIMU VELO AIN AR TRES W  DIS CAZ7
 BAR2 SZ EP   1   1315 28.21                             178    0.05 7 5.26 194 
 BAR2 SZ ES   1   1315 43.88                             178    0.37 7 5.26 194 
 BAR2 SZ I        1315 44.40        14.7 0.20            173           5.26 194 
 BRR  HZ EP       1315 30.19                             150   -0.1510 79.1 311 
 BRR  HE ES       1315 47.38                             150   -0.0010 79.1 311 
 BRR  HZ I        1315 49.84        12.6 0.14            150           79.1 311 
 RUS  HZ EP   1   1315 31.84                             149    0.55 7 83.0 173 
 RUS  HN ES   1   1315 48.44                             149   -0.63 7 83.0 173 
 RUS  HZ I        1315 49.59         7.1 0.40            147           83.0 173 
 PTB  HZ EP       1315 34.88                             134   -0.29 9  143 266 
 PTB  HN ES       1315 56.16                             134    0.17 9  143 266 
 PTB  HZ I        1315 58.05         4.7 0.28            132            143 266 
 CHI  HE ES   1   1316 12.56                             120    0.18 6  231 196 
 CHI  HZ I        1316 18.45         1.5 0.60            119            231 196 
 GUY2CHE ES   4   1316 26.05                             114    2.21 0  289 237 
 GUY2CHZ I        1316 34.26         2.4 0.30                           289 237 
                                                                                
