 2015  9 2 1338 50.0 L   6.746 -73.180136.0  RSN  5 0.3 1.7LRSN                1
 GAP=239        0.79       4.9     4.6  6.3  0.8931E+01  0.6995E+01 -0.5727E+01E
 Epicentro: VILLANUEVA - SANTANDER                                             3
 ACTION:UPD 15-10-28 16:23 OP:cam  STATUS:               ID:20150902133850 L   I
 OLDACT:UP  15-09-03 00:13 OP:ak   STATUS:               ID:20150902132751d    3
 OLDACT:DUP 15-09-03 00:11 OP:ak   STATUS:               ID:20150902132751d    3
 OLDACT:REG 15-09-02 21:27 OP:ak   STATUS:               ID:20150902132749     3
 2015-09-02-1327-49M.COL___346                                                 6
 STAT SP IPHASW D HRMM SECON CODA AMPLIT PERI AZIMU VELO AIN AR TRES W  DIS CAZ7
 BAR2 EZ EP       1339  8.24                             173   -0.1310 17.0 181 
 BAR2 EZ ES       1339 23.03                             173    0.3610 17.0 181 
 BAR2 EZ I        1339 24.22        17.0 0.16            172           17.0 181 
 RUS  HZ EP       1339 11.96                             143   -0.4610 95.0 174 
 RUS  HE ES       1339 29.75                             143   -0.1310 95.0 174 
 RUS  HZ I        1339 31.76         8.4 0.30            146           95.0 174 
 PTB  HZ EP       1339 15.87                             131    0.09 9  143 261 
 PTB  HN ES       1339 35.59                             131   -0.27 9  143 261 
 PTB  HZ I        1339 38.50         4.4 0.24            131            143 261 
 SPBC HZ EP       1339 17.37                             128    0.25 9  156 219 
 SPBC HE ES       1339 38.49                             128    0.24 9  156 219 
 SPBC HZ I        1339 41.73         6.9 0.21            129            156 219 
 ZAR  HZ EP       1339 22.26                             120    0.52 9  203 294 
 ZAR  HE ES       1339 46.11                             120   -0.37 9  203 294 
 ZAR  HZ I        1339 53.45         7.7 0.41            121            203 294 
                                                                                
