 2011  8 2 1213 28.6 L   7.386 -73.204130.5  RSN  5 0.1 1.6LRSN                1
 GAP=111        0.36       2.7     3.5  4.7 -0.2982E+01  0.5426E+01 -0.7034E+01E
 Epicentro: EL PLAYON - SANTANDER                                              3
 ACTION:UPD 12-07-25 14:05 OP:epov STATUS:               ID:20110802121328 L   I
 2011-08-02-1211-16S.COL___137                                                 6
 STAT SP IPHASW D HRMM SECON CODA AMPLIT PERI AZIMU VELO AIN AR TRES W  DIS CAZ7
 PAM  SZ EP       1213 47.94                             156   -0.0410 55.9  95 
 PAM  SE ES   1   1214  2.98                             156   -0.11 7 55.9  95 
 BRI  SZ EP       1213 47.85                             155    0.2210 57.9  51 
 BRR  HZ EP       1213 47.69                             152   -0.0110 64.0 241 
 BRR  HE ES   2   1214  2.73                             152    0.13 5 64.0 241 
 BRR  HZ I        1214  4.25        12.5 0.52                          64.0 241 
 BAR2 SZ EP       1213 49.59                             144    0.0110 87.8 178 
 BAR2 SZ ES       1214  5.91                             144   -0.0210 87.8 178 
 BAR2 SZ I        1214  7.98         7.6 0.50                          87.8 178 
 OCA  SZ EP       1213 49.88                             142   -0.1310 95.2 352 
 OCA  SZ I        1214  7.50         7.4 0.27                          95.2 352 
                                                                                
