 2013  3 2 1149  2.0 L   6.759 -73.176144.0  RSN  8 0.5 1.7LRSN                1
 GAP=197        0.94       5.2     6.5  8.1  0.1145E+02  0.1790E+02  0.6452E+01E
 Epicentro: VILLANUEVA - SANTANDER                                             3
 ACTION:UPD 13-04-09 13:59 OP:ep   STATUS:               ID:20130302114902 L   I
 2013-03-02-1145-50M.COL___196                                                 6
 STAT SP IPHASW D HRMM SECON CODA AMPLIT PERI AZIMU VELO AIN AR TRES W  DIS CAZ7
 BAR2 SZ EP   1   1149 21.09                             172   -0.24 7 18.5 182 
 BAR2 SZ ES   1   1149 35.83                             172   -0.57 7 18.5 182 
 BAR2 SZ I        1149 38.73        14.9 0.20            171           18.5 182 
 BRR  HZ EP   1   1149 23.16                             152    0.24 7 70.6 303 
 BRR  HN ES   1   1149 40.14                             152    0.89 7 70.6 303 
 BRR  HZ I        1149 44.36         8.1 0.16            152           70.6 303 
 RUS  HZ EP   1   1149 25.45                             145    0.18 7 96.4 174 
 RUS  HE ES   1   1149 43.53                             145    0.10 7 96.4 174 
 RUS  HZ I        1149 45.31         4.1 0.46            148           96.4 174 
 PTB  HZ EP   1   1149 28.06                             132   -0.39 7  144 260 
 PTB  HN ES   1   1149 49.18                             132    0.10 7  144 260 
 PTB  HZ I        1149 55.12         8.0 0.31            134            144 260 
 ZAR  HE ES   1   1149 59.41                             122    0.11 6  203 294 
 SML  HN ES   1   1150  6.79                             117   -0.76 6  246 336 
 HEL  HZ EP   1   1149 42.64                             115    1.00 6  268 257 
 HEL  HE ES   1   1150 11.70                             115   -0.86 6  268 257 
 PRA  HZ EP   1   1149 55.20                             106    0.40 4  386 209 
 PRA  HN ES   1   1150 35.51                             106   -0.48 4  386 209 
                                                                                
