 2012  1 2 1031 15.8 L   6.753 -73.079134.7  RSN  4 0.5 1.1LRSN                1
 GAP=147        1.08      17.8    24.6 17.2  0.2998E+03  0.8740E+01  0.7012E+02E
 Epicentro: LOS SANTOS - SANTANDER                                             3
 ACTION:UP  12-02-03 08:13 OP:REBC STATUS:               ID:20120102103113 L   I
 2012-01-02-1030-00M.COL___186                                                 6
 STAT SP IPHASW D HRMM SECON CODA AMPLIT PERI AZIMU VELO SNR AR TRES W  DIS CAZ7
 BAR2 SZ EP       1031 33.99                             168    -0.110   21 213 
 BAR2 SZ ES   2   1031 47.48                                    -0.8 5   21 213 
 BAR2 SZ I        1031 50.20         3.4 0.80                            21 213 
 PAM  SN ES   3   1031 53.80                             155     0.5 2   77  33 
 BRR  HZ EP       1031 36.02                             151    -0.310   80 299 
 BRR  HE ES   2   1031 53.41                             151     1.1 5   80 299 
 BRR  HZ I        1031 56.02         4.4 0.54                            80 299 
 RUS  HZ EP       1031 38.42                             144     0.310   95 180 
 RUS  HZ I        1031 57.84         1.2 0.42                            95 180 
                                                                                
