 2011  2 2 1519 24.2 L   6.824 -73.138142.0  RSN 11 0.4 2.6LRSN                1
 GAP=122        0.91       3.8     5.3  7.0 -0.7098E+01  0.8886E+01  0.1113E+00E
 Epicentro: LOS SANTOS - SANTANDER                                             3
 ACTION:UP  11-03-28 15:05 OP:jfem STATUS:               ID:20110202151924 L   I
 2011-02-02-1514-57S.COL___135                                                 6
 STAT SP IPHASW D HRMM SECON CODA AMPLIT PERI AZIMU VELO SNR AR TRES W  DIS CAZ7
 BAR2 SZ IP       1519 43.46                             169     0.010   26 191 
 BAR2 SZ ES   1   1519 57.96                             169    -0.5 7   26 191 
 BAR2 SZ I        1520  0.09       117.9 0.27                            26 191 
 RUS  HZ EP   1   1519 47.37                             142    -0.4 7  103 177 
 RUS  HN ES   1   1520  5.82                             142    -0.3 7  103 177 
 RUS  HZ I        1520  7.41        45.2 0.40                           103 177 
 GRA  SZ IP       1519 49.25                             136     0.410  123  17 
 GRA  SZ ES   1   1520  8.50                             136     0.4 7  123  17 
 GRA  SZ I        1520  9.81        40.5 0.32                           123  17 
 YOP  SZ IP       1519 54.20                             125     0.0 9  181 154 
 YOP  SN ES   1   1520 18.35                             125     0.8 7  181 154 
 YOP  SZ I        1520 18.89        23.9 0.25                           181 154 
 NOR  SZ EP       1519 59.52                             117    -0.5 8  237 234 
 NOR  SN ES   1   1520 27.92                             117     0.1 6  237 234 
 CHI  HZ EP   1   1520  1.69                             116    -0.3 6  251 195 
 CHI  HE ES   1   1520 31.12                             116    -0.4 6  251 195 
 CHI  HZ I        1520 34.70        22.5 0.49                           251 195 
 ROSC BZ EP   1   1520  3.00                             115     0.6 6  255 211 
 ROSC BN ES   1   1520 32.81                             115     0.6 6  255 211 
 ROSC BZ I        1520 38.09        58.5 0.44                           255 211 
 HEL  HZ EP   2   1520  5.06                             114     0.7 4  274 255 
 HEL  HN ES   2   1520 36.04                             114     0.3 4  274 255 
 HEL  HZ I        1520 42.00        22.0 0.38                           274 255 
 RREF HZ EP   2   1520  9.94                             110    -0.5 3  324 229 
 RREF HN ES   2   1520 47.03                             110     0.5 3  324 229 
 RREF HZ I        1520 50.65        22.6 0.35                           324 229 
 TOL  SZ EP   2   1520 12.32                             108    -0.3 3  346 224 
 SDV  BZ EP   1   1520 13.02                             108    -0.8 5  358  50 
 SDV  BZ I        1520 13.87        12.0 0.20                           358  50 
                                                                                
