 2011  4 2 1011 57.4 L   6.768 -73.089144.6  RSN  7 0.4 2.2LRSN                1
 GAP=163        0.93       5.8     8.4  7.8 -0.2619E+02 -0.3967E+01  0.8043E+01E
 Epicentro: LOS SANTOS - SANTANDER                                             3
 ACTION:UP  11-06-22 15:28 OP:REBC STATUS:               ID:20110402101157 L   I
 2011-04-02-1000-00M.COL___139                                                 6
 STAT SP IPHASW D HRMM SECON CODA AMPLIT PERI AZIMU VELO SNR AR TRES W  DIS CAZ7
 BAR2 SZ EP       1012 16.96                             171     0.110   22 208 
 BAR2 SZ ES   1   1012 31.60                             171    -0.5 7   22 208 
 BAR2 SZ I        1012 33.18        39.2 0.38                            22 208 
 PAM  SZ IP       1012 19.72                             151     0.310   76  34 
 PAM  SE ES   2   1012 36.96                             151     0.3 5   76  34 
 BRR  HZ IP     C 1012 18.76                             150    -0.110   78 299 
 BRR  HZ I        1012 19.07        65.6 0.15                            78 299 
 BRR  HE ES   1   1012 36.33                             150     0.7 7   78 299 
 GRA  SZ IP       1012 22.70                             136     0.010  127  14 
 GRA  SZ I        1012 23.85        19.1 0.28                           127  14 
 GRA  SZ ES   1   1012 41.68                             136    -0.7 7  127  14 
 OCA  SZ EP   1   1012 26.24                             128     0.2 7  165 351 
 OCA  SZ I        1012 54.62        16.0 0.27                           165 351 
 NOR  SZ EP   1   1012 32.91                             118    -0.5 6  238 236 
 NOR  SE ES   2   1013  0.70                             118    -0.8 4  238 236 
 CHI  HZ EP   1   1012 35.12                             117     0.2 6  247 197 
 CHI  HE ES   2   1013  4.52                             117     0.4 4  247 197 
 CHI  HZ I        1013  8.37         3.8 0.46                           247 197 
                                                                                
