 2011  5 2 1430 45.4 L   6.274 -73.037178.4  RSN  5 0.1 2.0LRSN                1
 GAP=169        0.36       5.4     9.9  5.7 -0.1448E+01 -0.5609E+01 -0.2024E+02E
 Epicentro: COROMORO - SANTANDER                                               3
 ACTION:UP  11-06-29 08:50 OP:tino STATUS:               ID:20110502143045 L   I
 2011-05-02-1420-00M.COL___140                                                 6
 STAT SP IPHASW D HRMM SECON CODA AMPLIT PERI AZIMU VELO SNR AR TRES W  DIS CAZ7
 BAR2 SZ EP   1   1431  9.08                             167    -0.2 7   39 335 
 BAR2 SZ ES   2   1431 28.04                             167     0.1 5   39 335 
 BAR2 SZ I        1431 29.13        15.1 0.41                            39 335 
 RUS  HZ EP   1   1431  9.91                             166     0.2 7   43 187 
 RUS  HN ES   1   1431 28.68                             166    -0.1 7   43 187 
 RUS  HZ I        1431 30.73         9.4 0.24                            43 187 
 BRR  HZ EP   1   1431 12.95                             145     0.0 7  119 321 
 BRR  HZ I        1431 25.72        14.4 0.28                           119 321 
 PAM  SZ EP   1   1431 14.01                             144     0.0 7  124  18 
 GRA  SZ EP   1   1431 18.07                             133     0.0 7  180   8 
                                                                                
