 2010  4 2 1831 47.9 L   6.814 -72.987144.4  RSN  4 0.3 2.0LRSN                1
 GAP=212        0.53       3.7    11.5  7.3  0.1045E+01 -0.2195E+02  0.3006E+01E
 Epicentro: CEPITA - SANTANDER                                                 3
 ACTION:UPD 10-08-24 09:57 OP:vdl  STATUS:               ID:20100402183147 L   I
 2010-04-02-1828-13S.COL___098                                                 6
 STAT SP IPHASW D HRMM SECON CODA AMPLIT PERI AZIMU VELO AIN AR TRES W  DIS CAZ7
 BAR2 SZ IP       1832  7.76                             167     0.110   33 221 
 BAR2 SZ ES   2   1832 22.81                             167    -0.2 5   33 221 
 BRR  HZ IP       1832  9.75                             148    -0.110   86 292 
 BRR  HZ I        1832  9.99        20.6 0.18                            86 292 
 BRR  HE ES   2   1832 27.00                             148     0.0 5   86 292 
 OCA  SZ EP   1   1832 16.48                             129     0.2 7  162 347 
 OCA  SZ ES   2   1832 38.28                             129    -0.1 5  162 347 
 OCA  SZ I        1832 45.05        20.7 0.29                           162 347 
 CHI  HZ EP   1   1832 25.78                             116    -0.5 6  255 199 
 CHI  HN ES   2   1832 56.71                             116     0.5 4  255 199 
 CHI  HZ I        1833  4.56         4.1 0.63                           255 199 
                                                                                
