 2012  3 2 1722 13.2 L   6.768 -73.122143.3  RSN  6 0.3 1.7LRSN                1
 GAP=141        0.76       5.4     5.8  9.0 -0.3672E+01  0.1288E+02  0.1166E+02E
 ACTION:UP  12-03-31 23:16 OP:EP   STATUS:               ID:20120302172213 L   I
 2012-03-02-1720-00M.COL___191                                                 6
 STAT SP IPHASW D HRMM SECON CODA AMPLIT PERI AZIMU VELO SNR AR TRES W  DIS CAZ7
 BAR2 SZ EP   1   1722 32.18                             171    -0.3 7   21 199 
 BAR2 SZ ES   1   1722 47.06                             171    -0.5 7   21 199 
 BAR2 SZ I        1722 48.93         9.6 0.30                            21 199 
 BRR  HZ EP   1   1722 34.17                             151    -0.2 7   75 300 
 BRR  HZ I        1722 34.45        18.1 0.11                            75 300 
 BRR  HE ES   1   1722 51.37                             151     0.6 7   75 300 
 PAM  SN ES   1   1722 52.38                             150     0.0 7   79  36 
 RUS  HZ EP   1   1722 36.85                             144     0.4 7   97 177 
 RUS  HN ES   1   1722 54.85                             144     0.2 7   97 177 
 RUS  HZ I        1722 56.59         4.4 0.50                            97 177 
 PTB  HE ES   2   1723  0.93                             131    -0.2 5  150 260 
 NOR  SE ES   1   1723 16.44                             118    -0.1 6  235 236 
                                                                                
