 2011  4 2 1020 59.2 L   6.782 -73.042141.1  RSN  6 0.4 1.7LRSN                1
 GAP=204        0.92       7.8    12.1 12.6 -0.4230E+02 -0.1966E+02 -0.1182E+02E
 Epicentro: LOS SANTOS - SANTANDER                                             3
 ACTION:UP  11-06-22 15:28 OP:REBC STATUS:               ID:20110402102059 L   I
 2011-04-02-1018-10S.COL___138                                                 6
 STAT SP IPHASW D HRMM SECON CODA AMPLIT PERI AZIMU VELO SNR AR TRES W  DIS CAZ7
 BAR2 SZ EP       1021 18.07                             169    -0.210   26 216 
 BAR2 SZ ES   2   1021 32.77                             169    -0.4 5   26 216 
 BAR2 SZ I        1021 34.36         9.2 0.41                            26 216 
 BTL  SZ EP       1021 19.08                             168     0.710   29 301 
 BRR  HZ EP   1   1021 20.05                             148    -0.4 7   82 296 
 BRR  HZ I        1021 20.42        13.0 0.35                            82 296 
 BRR  HE ES   2   1021 37.42                             148     0.3 5   82 296 
 GRA  SZ EP       1021 23.94                             136     0.010  125  12 
 GRA  SZ ES   2   1021 42.90                             136    -0.3 5  125  12 
 GRA  SZ I        1021 46.55         5.4 0.41                           125  12 
 OCA  SZ EP   1   1021 27.12                             128    -0.3 7  164 349 
 OCA  SZ ES   2   1021 49.61                             128     0.1 5  164 349 
 OCA  SZ I        1021 53.59         8.4 0.37                           164 349 
 NOR  SN ES   2   1022  3.63                             117    -0.3 4  243 236 
                                                                                
