 2017  3 2 1230 11.9 L   6.788 -73.144140.4  RSN  6 0.4 1.7LRSN                1
 GAP=237        0.94       5.5     5.3  6.8  0.1158E+02  0.1113E+02  0.6339E+01E
 Epicentro: LOS SANTOS - SANTANDER                                             3
 ACTION:UPD 17-05-25 18:35 OP:jn   STATUS:               ID:20170302123011 L   I
 OLDACT:REG 17-03-02 20:19 OP:lv   STATUS:               ID:20170302122740     3
 2017-03-02-1228-00M.COL___387                                                 6
 STAT SP IPHASW D HRMM SECON CODA AMPLIT PERI AZIMU VELO AIN AR TRES W  DIS CAZ7
 BAR2 EZ EP       1230 30.73                             171   -0.1710 22.0 191 
 BAR2 EZ ES       1230 46.04                             171    0.3610 22.0 191 
 BAR2 EZ I        1230 47.40        25.9 0.30            169           22.0 191 
 BRR  HZ EP       1230 32.57                             151    0.0110 72.0 299 
 BRR  HN ES       1230 48.80                             151    0.1610 72.0 299 
 RUS  HZ EP       1230 35.24                             143    0.1710 99.2 176 
 RUS  HN ES       1230 52.80                             143   -0.3010 99.2 176 
 RUS  HZ I        1230 54.73         8.7 0.22            143           99.2 176 
 PTB  HZ EP       1230 37.82                             131   -0.65 9  148 259 
 PTB  HN ES       1230 58.63                             131   -0.53 9  148 259 
 PTB  HZ I        1231  0.54         3.2 0.11            130            148 259 
 ZAR  HN ES       1231  9.36                             121    0.15 9  205 292 
 ZAR  HZ I        1231 14.65         6.5 0.15            121            205 292 
 NOR  HZ EP       1230 47.95                             117    0.65 8  234 235 
 NOR  HN ES       1231 15.29                             117    0.42 8  234 235 
 NOR  HZ I        1231 19.10         3.2 0.37            117            234 235 
                                                                                
