 2010  6 2 1658 52.0 L   7.197 -73.102145.8  RSN  4 0.3 2.2LRSN                1
 GAP=172        0.89       4.8    21.0  7.8 -0.2991E+02  0.2219E+02 -0.6727E+01E
 Epicentro: BUCARAMANGA - SANTANDER                                            3
 ACTION:UP  10-08-24 10:08 OP:vdl  STATUS:               ID:20100602165852 L   I
 2010-06-02-1655-18S.COL___109                                                 6
 STAT SP IPHASW D HRMM SECON CODA AMPLIT PERI AZIMU VELO SNR AR TRES W  DIS CAZ7
 GIR2 SZ EP       1659 10.99                             173    -0.410   17 218 
 GIR2 SZ ES   1   1659 26.64                             173     0.2 7   17 218 
 BAR2 SZ EP       1659 13.95                             154     0.610   68 188 
 BAR2 SZ ES       1659 29.65                             154    -0.310   68 188 
 GUE  SZ EP       1659 13.40                             152    -0.310   73  16 
 GUE  SZ ES       1659 30.81                             152     0.210   73  16 
 OCA  SZ EP       1659 16.62                             139     0.010  118 348 
 OCA  SZ ES   1   1659 35.81                             139     0.0 7  118 348 
 OCA  SZ I        1659 37.63        21.3 0.98                           118 348 
                                                                                
