 2012 11 2 1425 22.7 L   6.804 -73.141142.3  RSN  4 0.2 1.8LRSN                1
 GAP=137        0.53       3.5     5.4  5.3 -0.1411E+01 -0.3917E+01  0.1554E+01E
 Epicentro: LOS SANTOS - SANTANDER                                             3
 ACTION:UPD 12-12-05 15:31 OP:}ep  STATUS:               ID:20121102142522 L   I
 2012-11-02-1420-00M.COL___234                                                 6
 STAT SP IPHASW D HRMM SECON CODA AMPLIT PERI AZIMU VELO AIN AR TRES W  DIS CAZ7
 BAR2 SZ EP       1425 41.89                             170   -0.0810 23.8 191 
 BAR2 SZ ES   1   1425 56.73                             170   -0.23 7 23.8 191 
 BAR2 SZ I        1426  1.59         9.7 0.36                          23.8 191 
 BRR  HZ EP   1   1425 43.75                             152    0.22 7 71.4 298 
 BRR  HN ES   1   1425 59.72                             152   -0.02 7 71.4 298 
 BRR  HN I        1426  1.72        17.0 0.42                          71.4 298 
 PAM  SZ EP       1425 44.69                             150    0.1410 76.7  39 
 PAM  SN ES   1   1426  1.51                             150   -0.05 7 76.7  39 
 PAM  SN I        1426  2.89        13.7 0.26                          76.7  39 
 RUS  HZ EP       1425 45.92                             143   -0.2610  101 176 
 RUS  HE ES   1   1426  4.91                             143    0.44 7  101 176 
 RUS  HE I        1426  5.77         6.6 0.28                           101 176 
                                                                                
