 2014  2 2 1458  8.2 L   5.809 -73.935102.7  RSN  5 0.3 1.3LRSN                1
 GAP=137        0.90       5.8     3.1  7.0 -0.4275E+01  0.2835E+01  0.6024E+01E
 Epicentro: ALBANIA - SANTANDER                                                3
 ACTION:UPD 14-03-10 08:07 OP:ep   STATUS:               ID:20140202145808 L   I
 OLDACT:REG 14-02-02 15:39 OP:stll STATUS:               ID:20140202144819     3
 2014-02-02-1448-19M.COL___171                                                 6
 STAT SP IPHASW D HRMM SECON CODA AMPLIT PERI AZIMU VELO AIN AR TRES W  DIS CAZ7
 SPBC HN ES       1458 33.63                             166    0.0610 23.1 221 
 SPBC HZ I        1458 34.96        26.1 0.34            166           23.1 221 
 RUS  HZ EP       1458 27.69                             134    0.1910 94.8  84 
 RUS  HZ I        1458 27.77         1.7 0.28            135           94.8  84 
 RUS  HN ES       1458 42.51                             134   -0.0510 94.8  84 
 PTB  HN ES       1458 42.24                             132    0.1210 99.2 324 
 NOR  HZ EP       1458 27.54                             130   -0.4810  107 255 
 NOR  HZ I        1458 28.23         7.7 0.16            131            107 255 
 NOR  HE ES       1458 43.05                             130   -0.4310  107 255 
 GUY2CHZ EP       1458 35.13                             116   -0.04 9  171 248 
 GUY2CHN ES       1458 56.95                             116    0.74 9  171 248 
 GUY2CHZ I        1459  1.98         1.2 0.62                           171 248 
                                                                                
