 2011  7 2 1113  2.0 L   6.791 -73.089147.4  RSN 13 0.4 2.4LRSN                1
 GAP=144        0.76       3.3     6.1  4.3 -0.1000E+02  0.5526E+01  0.1071E+01E
 Epicentro: LOS SANTOS - SANTANDER                                             3
 ACTION:UPD 12-07-25 13:57 OP:epov STATUS:               ID:20110702111302 L   I
 2011-07-02-1111-25S.COL___140                                                 6
 STAT SP IPHASW D HRMM SECON CODA AMPLIT PERI AZIMU VELO AIN AR TRES W  DIS CAZ7
 BAR2 SZ IP       1113 21.82                             170    0.0310 24.2 205 
 BAR2 SZ ES   1   1113 37.12                             170   -0.15 7 24.2 205 
 BAR2 SZ I        1113 38.40        95.1 0.24                          24.2 205 
 BTL  SZ ES   1   1113 37.08                             170   -0.20 7 24.3 306 
 GIR2 SZ EP       1113 21.82                             166   -0.0710 33.9 340 
 GIR2 SZ ES   1   1113 38.01                             166    0.57 7 33.9 340 
 PAM  SZ EP       1113 24.66                             152    0.4910 74.4  35 
 PAM  SN ES   1   1113 41.44                             152   -0.05 7 74.4  35 
 BRR  HZ IP       1113 23.63                             151    0.0110 77.2 297 
 BRR  HZ I        1113 23.83       135.8 0.14                          77.2 297 
 BRR  HN ES   2   1113 41.04                             151    0.52 5 77.2 297 
 RUS  HZ EP       1113 25.59                             144   -0.1810 99.3 180 
 RUS  HN ES   1   1113 44.06                             144   -0.29 7 99.3 180 
 BRI  SZ IP       1113 26.30                             142    0.3810  107  17 
 BRI  SZ ES   2   1113 44.68                             142    0.07 5  107  17 
 GRA  SZ IP       1113 27.56                             137    0.2810  125  15 
 GRA  SZ I        1113 28.62        20.9 0.34                           125  15 
 GRA  SZ ES   1   1113 46.01                             137   -1.03 7  125  15 
 OCA  SZ EP       1113 29.99                             130   -0.57 9  162 351 
 OCA  SZ I        1113 58.59        24.1 0.33                           162 351 
 NOR  SZ EP       1113 38.19                             118   -0.07 8  239 236 
 CHI  HZ EP       1113 39.81                             117    0.00 8  249 197 
 CHI  HN ES   2   1114  9.66                             117    0.31 4  249 197 
 RREF HZ EP       1113 48.68                             111    0.05 7  326 230 
 RREF HN ES   2   1114 25.08                             111    0.05 3  326 230 
 RREF HZ I        1114 33.41         6.8 0.28                           326 230 
 PRA  HZ EP   2   1113 55.32                             107   -0.46 3  394 210 
 PRA  HN ES   3   1114 38.48                             107    0.71 1  394 210 
                                                                                
