 2010  9 2 1237 29.9 L   6.534 -73.506112.3  RSN 10 0.4 2.4LRSN                1
 GAP= 80        0.95       3.3     5.5  7.0 -0.5466E+01  0.1388E+02 -0.9282E+00E
 Epicentro: EL CARMEN DE CHUCURI - SANTANDER                                   3
 ACTION:UP  11-02-18 10:59 OP:tino STATUS:               ID:20100902123729 L   I
 2010-09-02-1233-59S.COL___120                                                 6
 STAT SP IPHASW D HRMM SECON CODA AMPLIT PERI AZIMU VELO SNR AR TRES W  DIS CAZ7
 BAR2 SZ IP       1237 46.12                             161     0.110   36  80 
 BAR2 SZ ES   1   1237 58.38                             161    -0.1 7   36  80 
 BAR2 SZ I        1238  0.20       384.2 0.49                            36  80 
 BRR  HZ EP       1237 47.07                             147    -0.310   67 340 
 BRR  HZ I        1237 55.12        99.5 0.10                            67 340 
 BRR  HN ES   1   1238  0.94                             147     0.0 7   67 340 
 RUS  HZ EP       1237 49.03                             140    -0.310   85 147 
 RUS  HE ES   1   1238  4.60                             140     0.2 7   85 147 
 RUS  HZ I        1238  6.98        23.7 0.32                            85 147 
 GUE  SZ EP       1237 55.20                             121    -0.6 9  157  24 
 GUE  SZ I        1237 58.90        25.2 0.07                           157  24 
 GRA  SZ EP       1237 57.55                             119     0.8 9  168  27 
 GRA  SZ ES   2   1238 17.93                             119     0.3 5  168  27 
 GRA  SZ I        1238 22.64        28.4 0.34                           168  27 
 OCA  SZ EP   1   1237 58.56                             116    -0.5 7  190   6 
 OCA  SZ ES   1   1238 22.06                             116     0.3 7  190   6 
 OCA  SZ I        1238 27.61        50.2 0.22                           190   6 
 CHI  HZ EP   2   1238  1.88                             113     0.0 4  212 187 
 CHI  HE ES   2   1238 27.25                             113     0.5 4  212 187 
 CHI  HZ I        1238 31.44        10.6 0.25                           212 187 
 HEL  HZ EP   2   1238  3.53                             111     0.0 4  227 260 
 HEL  HE ES   2   1238 30.26                             111     0.6 4  227 260 
 HEL  HZ I        1238 32.78        11.8 0.13                           227 260 
 RREF HZ EP   1   1238  9.61                             107     0.5 6  272 229 
 RREF HN ES   1   1238 39.09                             107    -0.5 6  272 229 
 RREF HZ I        1238 46.05        16.2 0.21                           272 229 
 PRA  HZ EP   1   1238 16.80                             102    -0.4 5  347 206 
 PRA  HN ES   1   1238 54.38                             102     0.4 5  347 206 
 PRA  HZ I        1238 58.99        22.2 0.23                           347 206 
                                                                                
