 2011  4 2 1144 55.2 L   6.592 -73.429117.9  RSN  8 0.3 2.1LRSN                1
 GAP= 97        0.66       3.9     4.5  5.7 -0.5704E+01  0.1770E+01  0.3357E+01E
 Epicentro: EL CARMEN DE CHUCURI - SANTANDER                                   3
 ACTION:UP  11-06-22 15:28 OP:REBC STATUS:               ID:20110402114455 L   I
 2011-04-02-1142-36S.COL___138                                                 6
 STAT SP IPHASW D HRMM SECON CODA AMPLIT PERI AZIMU VELO SNR AR TRES W  DIS CAZ7
 BAR2 SZ IP       1145 11.58                             166    -0.110   27  90 
 BAR2 SZ ES   1   1145 24.33                             166    -0.1 7   27  90 
 BAR2 SZ I        1145 26.12        60.3 0.26                            27  90 
 BTL  SZ IP       1145 12.17                             160     0.110   40  26 
 BRR  HZ EP   1   1145 12.93                             149    -0.1 7   65 331 
 BRR  HZ I        1145 13.21        37.8 0.17                            65 331 
 BRR  HE ES   1   1145 26.98                             149     0.0 7   65 331 
 PAM  SE ES   2   1145 35.67                             133     0.6 5  115  44 
 GRA  SZ EP   1   1145 20.65                             123    -0.7 7  159  26 
 GRA  SZ I        1145 52.32        10.2 0.30                           159  26 
 YOP  SZ EP   1   1145 23.31                             120     0.1 7  177 141 
 YOP  SZ I        1145 46.78        15.0 0.31                           177 141 
 OCA  SZ EP   1   1145 24.37                             119     0.5 7  182   4 
 OCA  SZ ES   2   1145 46.16                             119    -0.1 4  182   4 
 OCA  SZ I        1145 53.59        20.5 0.36                           182   4 
 NOR  SZ EP   1   1145 25.33                             117     0.1 6  196 235 
 NOR  SN ES   1   1145 48.56                             117     0.0 6  196 235 
                                                                                
