 2012  2 2 1714 15.9 L   6.024 -73.893 90.0  RSN  4 0.2 1.4LRSN                1
 GAP=146        0.42       3.0     2.2  7.1 -0.2912E+01  0.5371E+01 -0.3213E+01E
 ACTION:UP  12-03-07 16:27 OP:epov STATUS:               ID:20120202171415 L   I
 2012-02-02-1710-00M.COL___187                                                 6
 STAT SP IPHASW D HRMM SECON CODA AMPLIT PERI AZIMU VELO SNR AR TRES W  DIS CAZ7
 RUS  HZ EP       1714 33.70                             132   -0.1010 90.8  99 
 RUS  HE ES   1   1714 47.83                             132    0.08 7 90.8  99 
 RUS  HZ I        1714 49.65         3.4 0.29                          90.8  99 
 BAR2 SZ EP   1   1714 34.32                             128   -0.07 7  101  51 
 BAR2 SZ ES   1   1714 48.88                             128    0.08 7  101  51 
 BAR2 SZ I        1714 50.68         4.9 0.27                           101  51 
 NOR  SZ EP   1   1714 36.43                             123    0.39 7  119 245 
 NOR  SE ES   1   1714 51.53                             123   -0.21 7  119 245 
 BRR  HZ EP   1   1714 36.05                             122   -0.13 7  121   9 
 BRR  HZ I        1714 38.77        16.6 0.37                           121   9 
 BRR  HE ES   2   1714 52.09                             122    0.11 5  121   9 
                                                                                
