 2010 10 2 1634 58.9 L   6.789 -73.106138.9  RSN 14 0.5 2.3LRSN                1
 GAP=163        1.15       4.3     6.0  7.3 -0.9221E+01  0.5084E+01  0.3467E+01E
 Epicentro: LOS SANTOS - SANTANDER                                             3
 ACTION:UP  11-02-18 11:07 OP:tino STATUS:               ID:20101002163458 L   I
 2010-10-02-1631-35S.COL___124                                                 6
 STAT SP IPHASW D HRMM SECON CODA AMPLIT PERI AZIMU VELO SNR AR TRES W  DIS CAZ7
 BAR2 SZ EP       1635 17.75                             170     0.010   23 202 
 BAR2 SZ ES   1   1635 32.06                             170    -0.3 7   23 202 
 BAR2 SZ I        1635 33.84        89.6 0.28                            23 202 
 GIR2 SZ EP   1   1635 18.06                             166     0.2 7   33 343 
 BRR  HZ EP       1635 19.80                             150     0.210   76 298 
 BRR  HN ES       1635 36.08                             150     0.410   76 298 
 BRR  HZ I        1635 40.79        72.3 0.19                            76 298 
 RUS  HZ EP       1635 21.81                             143    -0.110   99 179 
 RUS  HZ I        1635 23.12        28.1 0.07                            99 179 
 RUS  HN ES   1   1635 39.44                             143    -0.4 7   99 179 
 GUE  SZ EP       1635 22.87                             138    -0.210  117  10 
 GUE  SZ I        1635 23.63         9.2 0.22                           117  10 
 GRA  SZ EP       1635 23.67                             135     0.110  126  15 
 GRA  SZ ES   1   1635 42.85                             135     0.1 7  126  15 
 GRA  SZ I        1635 44.09        29.5 0.38                           126  15 
 OCA  SZ EP       1635 26.72                             128    -0.2 9  162 352 
 OCA  SZ I        1635 51.31        31.0 0.21                           162 352 
 NOR  SZ EP       1635 33.76                             117    -0.8 8  238 235 
 NOR  SN ES   1   1636  2.40                             117     0.0 6  238 235 
 NOR  SZ I        1636  5.83         3.1 0.28                           238 235 
 CHI  HZ EP   1   1635 36.30                             116     0.0 6  249 196 
 CHI  HN ES   2   1636  6.73                             116     1.4 4  249 196 
 CHI  HZ I        1636 12.90         9.0 0.31                           249 196 
 ROSC BN ES   2   1636  5.49                             115    -0.9 4  254 212 
 ROSC BZ I        1636 13.90        13.8 0.63                           254 212 
 HEL  HN ES   1   1636 10.11                             113    -0.6 6  276 256 
 HEL  HZ I        1636 16.24        11.8 0.51                           276 256 
 RREF HZ EP       1635 46.23                             109     1.2 7  324 230 
 RREF HN ES   2   1636 22.94                             109     1.9 3  324 230 
 RREF HZ I        1636 26.03        10.5 0.37                           324 230 
 DBB  SZ ES   1   1636 23.21                             108    -0.7 5  344 274 
 PRA  HZ EP       1635 52.36                             105     0.0 6  393 210 
 PRA  HN ES   2   1636 33.53                             105    -0.5 3  393 210 
 PRA  HZ I        1636 38.74        44.1 0.60                           393 210 
                                                                                
