 2017  5 2 1632 13.1 L   6.780 -73.142150.4  RSN  6 0.2 1.5LRSN                1
 GAP=138        0.60       2.9     2.6  5.0 -0.5385E+00  0.2888E+01  0.1655E+01E
 Epicentro: LOS SANTOS - SANTANDER                                             3
 ACTION:UPD 17-06-16 13:32 OP:jn   STATUS:               ID:20170502163213 L   I
 OLDACT:REG 17-05-02 20:45 OP:ar   STATUS:               ID:20170502162745     3
 2017-05-02-1628-00M.COL___371                                                 6
 STAT SP IPHASW D HRMM SECON CODA AMPLIT PERI AZIMU VELO AIN AR TRES W  DIS CAZ7
 BRR  HZ IP       1632 34.94                             153    0.0910 72.6 300 
 BRR  HZ I        1632 49.95         7.5 0.30            147           72.6 300 
 BRR  HN ES       1632 52.15                             153    0.3410 72.6 300 
 PAM  EZ EP       1632 36.16                             151    0.2410 78.8  38 
 PAM  EE ES       1632 53.39                             151   -0.3110 78.8  38 
 PAM  EZ I        1632 53.93         5.3 0.16            148           78.8  38 
 RUS  HZ EP       1632 37.35                             145    0.1710 98.4 176 
 RUS  HN ES       1632 55.83                             145   -0.1110 98.4 176 
 RUS  HZ I        1632 57.19         2.7 0.22            141           98.4 176 
 PTB  HZ EP       1632 40.08                             133   -0.39 9  148 260 
 PTB  HN ES       1633  1.71                             133   -0.10 9  148 260 
 PTB  HZ I        1633  6.06         4.5 0.24            127            148 260 
 ZAR  HZ EP   2   1632 45.95                             123   -0.05 4  205 293 
 ZAR  HE ES       1633 11.53                             123   -0.11 8  205 293 
 NOR  HE ES       1633 17.18                             120    0.14 8  234 235 
 NOR  HZ I        1633 24.65         3.8 0.22            115            234 235 
                                                                                
