 2016 10 2 1619 41.4 L   6.764 -73.173149.4  RSN  4 0.2 1.1LRSN                1
 GAP=232        0.57       7.4     4.8  8.5  0.2219E+01 -0.1274E+02  0.3364E+02E
 Epicentro: LOS SANTOS - SANTANDER                                             3
 ACTION:UPD 16-11-09 19:15 OP:rebc STATUS:               ID:20161002161941 L   I
 OLDACT:UP  16-10-03 00:34 OP:dani STATUS:               ID:20161002161743     3
 OLDACT:UP  16-10-03 00:33 OP:dani STATUS:               ID:20161002161743     3
 OLDACT:REG 16-10-02 21:09 OP:dani STATUS:               ID:20161002161743     3
 2016-10-02-1618-00M.COL___369                                                 6
 STAT SP IPHASW D HRMM SECON CODA AMPLIT PERI AZIMU VELO AIN AR TRES W  DIS CAZ7
 BAR2 EZ EP       1620  1.02                             172   -0.3810 19.0 183 
 BAR2 EZ I        1620 17.33         2.9 0.22            139           19.0 183 
 BRR  HZ EP       1620  3.02                             153    0.1010 70.7 303 
 BRR  HN ES       1620 19.81                             153    0.1110 70.7 303 
 BRR  HZ I        1620 21.85         5.4 0.34            160           70.7 303 
 RUS  HZ EP       1620  5.50                             146    0.2410 96.9 174 
 RUS  HZ I        1620 24.39         1.1 0.25            126           96.9 174 
 PTB  HZ EP       1620  8.34                             134   -0.01 9  144 260 
 PTB  HE ES       1620 29.28                             134   -0.08 9  144 260 
 PTB  HZ I        1620 30.89         1.4 0.16            138            144 260 
                                                                                
