 2013  7 2 1535 55.5 L   7.266 -73.681  9.1  RSN  6 0.2 1.3LRSN                1
 GAP=125        0.60       2.2     1.7  3.6  0.1102E+01 -0.1458E+01 -0.1775E+01E
 Epicentro: SABANA DE TORRES - SANTANDER                                       3
 ACTION:UPD 13-08-12 10:34 OP:ep   STATUS:               ID:20130702153555 L   I
 OLDACT:REG 13-07-02 13:42 OP:j    STATUS:               ID:20130702152959     3
 2013-07-02-1529-59M.COL___267                                                 6
 STAT SP IPHASW D HRMM SECON CODA AMPLIT PERI AZIMU VELO AIN AR TRES W  DIS CAZ7
 GIR2 SZ EP       1536  5.22                              96    0.2010 57.7 111 
 BAR2 SZ EP       1536 10.52                              93    0.1110 92.7 143 
 BAR2 SZ ES   1   1536 21.53                              93   -0.51 7 92.7 143 
 BAR2 SZ I        1536 21.90         4.7 0.20             92           92.7 143 
 PTB  HZ EP       1536 14.16                              93    0.2410  117 227 
 PTB  HN ES       1536 28.08                              93   -0.2110  117 227 
 PTB  HZ I        1536 28.92        10.1 0.16             92            117 227 
 ZAR  HE ES   1   1536 32.34                              92    0.05 7  132 281 
 RUS  HZ EP       1536 21.43                              56   -0.19 9  166 156 
 RUS  HN ES       1536 42.23                              56    0.24 9  166 156 
 RUS  HZ I        1536 43.47         4.5 0.26             91            166 156 
 SML  HE ES   1   1536 42.76                              56   -0.27 7  175 346 
                                                                                
