 2012  1 2 1058  0.1 L   6.747 -73.096142.0  RSN  4 0.2 1.1LRSN                1
 GAP=145        0.53       7.7     6.0  9.9 -0.9471E+01 -0.2216E+02  0.3642E+02E
 Epicentro: LOS SANTOS - SANTANDER                                             3
 ACTION:UP  12-02-03 08:13 OP:REBC STATUS:               ID:20120102105800 L   I
 2012-01-02-1050-00M.COL___186                                                 6
 STAT SP IPHASW D HRMM SECON CODA AMPLIT PERI AZIMU VELO SNR AR TRES W  DIS CAZ7
 BAR2 SZ EP       1058 19.12                             172     0.010   20 209 
 BAR2 SZ I        1058 19.66         3.0 0.38                            20 209 
 BRR  HZ EP       1058 21.06                             150    -0.210   79 300 
 BRR  HZ I        1058 21.41         6.0 0.10                            79 300 
 BRR  HN ES   1   1058 38.02                             150     0.2 7   79 300 
 PAM  SZ EP       1058 22.12                             150     0.210   79  34 
 PAM  SE ES   2   1058 38.72                             150    -0.3 5   79  34 
 RUS  HZ EP   2   1058 23.13                             145     0.1 5   94 179 
 RUS  HZ I        1058 42.26         1.1 0.48                            94 179 
                                                                                
