 2013  8 2 1541  9.7 L   6.797 -73.157148.0  RSN  6 0.5 1.7LRSN                1
 GAP=200        1.20       6.3     7.7  9.2  0.2364E+02 -0.4837E+01 -0.2101E+02E
 Epicentro: LOS SANTOS - SANTANDER                                             3
 ACTION:UPD 14-01-14 08:58 OP:ep   STATUS:               ID:20130802154109 L   I
 OLDACT:REG 13-08-02 14:58 OP:cam  STATUS:               ID:20130802153959     3
 2013-08-02-1539-59M.COL___269                                                 6
 STAT SP IPHASW D HRMM SECON CODA AMPLIT PERI AZIMU VELO AIN AR TRES W  DIS CAZ7
 BAR2 SZ EP   1   1541 29.42                             171   -0.14 7 22.8 187 
 BAR2 SZ ES       1541 44.93                             171   -0.1510 22.8 187 
 BAR2 SZ I        1541 45.85         8.0 0.27            170           22.8 187 
 BRR  HZ EP       1541 30.95                             153   -0.0610 70.3 299 
 BRR  HN ES       1541 48.47                             153    0.8110 70.3 299 
 RUS  HZ EP       1541 33.93                             144    0.3010  100 175 
 RUS  HE ES       1541 52.08                             144   -0.2310  100 175 
 RUS  HZ I        1541 53.92         2.6 0.20            144            100 175 
 PTB  HZ EP   1   1541 36.89                             133    0.18 7  146 259 
 PTB  HN ES       1541 57.06                             133   -0.74 9  146 259 
 PTB  HZ I        1541 59.59         5.9 0.48            133            146 259 
 ZAR  HE ES       1542  7.99                             123    0.49 9  203 292 
 SML  HZ EP       1541 46.77                             118    0.37 8  244 336 
 SML  HE ES       1542 14.06                             118   -0.99 8  244 336 
 SML  HZ I        1542 16.03         9.9 0.26            118            244 336 
                                                                                
