 2013  6 2 1352 48.4 L   6.158 -73.782 98.0  RSN  7 0.5 1.9LRSN                1
 GAP= 67        1.37       3.9     4.3 10.9  0.2096E+01  0.1496E+02  0.9201E+01E
 Epicentro: LANDAZURI - SANTANDER                                              3
 ACTION:UPD 14-01-08 09:51 OP:ep   STATUS:               ID:20130602135248 L   I
 2013-06-02-1348-52M.COL___218                                                 6
 STAT SP IPHASW D HRMM SECON CODA AMPLIT PERI AZIMU VELO AIN AR TRES W  DIS CAZ7
 BAR2 SZ EP       1353  6.13                             137    0.2510 81.8  54 
 BAR2 SZ ES       1353 19.91                             137    0.4310 81.8  54 
 BAR2 SZ I        1353 21.12        23.3 0.30            139           81.8  54 
 RUS  HZ EP       1353  6.04                             137   -0.2610 82.7 111 
 RUS  HZ I        1353  6.46        16.6 0.10            139           82.7 111 
 RUS  HN ES       1353 19.78                             137   -0.4510 82.7 111 
 PTB  HZ IP     C 1353  5.06                             136   -0.8410 85.7 300 
 PTB  HZ I        1353  5.34        23.1 0.34            138           85.7 300 
 PTB  HN ES       1353 18.98                             136   -0.5410 85.7 300 
 BRR  HZ EP       1353  7.61                             129   -0.0410  105   4 
 BRR  HN ES       1353 22.85                             129    0.2110  105   4 
 BRR  HE I        1353 26.39        24.0 0.16            132            105   4 
 NOR  HZ EP       1353 11.19                             122    0.25 9  137 241 
 NOR  HN ES       1353 28.66                             122    0.16 9  137 241 
 CHI  HZ EP       1353 14.06                             116   -0.80 9  169 178 
 CHI  HN ES       1353 36.57                             116    1.11 9  169 178 
 CHI  HE I        1353 39.97         9.5 0.54            117            169 178 
 ZAR  HZ EP       1353 16.67                             113    0.03 9  190 321 
 ZAR  HN ES       1353 39.41                             113    0.78 9  190 321 
                                                                                
