 2017  1 2 1149  0.7 L   6.796 -73.099151.8  RSN 10 0.5 1.9LRSN                1
 GAP=123        1.14       5.8     5.5  6.9  0.9417E+01  0.9352E+01  0.9295E+01E
 Epicentro: LOS SANTOS - SANTANDER                                             3
 ACTION:UPD 17-05-22 15:54 OP:jn   STATUS:               ID:20170102114900 L   I
 OLDACT:UP  17-01-02 21:55 OP:dnl  STATUS:               ID:20170102114744     3
 OLDACT:UP  17-01-02 21:54 OP:dnl  STATUS:               ID:20170102114744     3
 OLDACT:UP  17-01-02 21:54 OP:dnl  STATUS:               ID:20170102114744     3
 OLDACT:UP  17-01-02 21:53 OP:dnl  STATUS:               ID:20170102114744     3
 OLDACT:UP  17-01-02 21:52 OP:dnl  STATUS:               ID:20170102114744     3
 OLDACT:REG 17-01-02 21:12 OP:ndl  STATUS:               ID:20170102114744     3
 2017-01-02-1148-00M.COL___372                                                 6
 STAT SP IPHASW D HRMM SECON CODA AMPLIT PERI AZIMU VELO AIN AR TRES W  DIS CAZ7
 BAR2 EZ IP     D 1149 21.34                             170    0.2310 24.4 202 
 BAR2 EZ ES       1149 36.56                             170   -0.4410 24.4 202 
 BAR2 EZ I        1149 40.24        18.8 0.80            166           24.4 202 
 PAM  EZ EP   3   1149 23.95                             153    0.52 2 74.5  36 
 PAM  EN ES       1149 40.45                             153   -0.6810 74.5  36 
 PAM  EZ I        1149 43.56         7.1 0.40            148           74.5  36 
 BRR  HZ IP     C 1149 23.32                             152    0.5210 76.0 297 
 BRR  HE ES       1149 40.78                             152    0.7710 76.0 297 
 BRR  HZ I        1149 42.99        12.7 0.18            150           76.0 297 
 RUS  HZ EP       1149 25.60                             145    0.5710100.0 179 
 RUS  HN ES       1149 44.25                             145    0.2610100.0 179 
 RUS  HZ I        1149 46.90         4.7 0.46            137          100.0 179 
 PTB  HZ EP       1149 28.26                             132   -0.38 9  153 259 
 PTB  HN ES       1149 49.75                             132   -0.67 9  153 259 
 PTB  HZ I        1149 55.24        12.1 0.26            127            153 259 
 ZAR  HZ EP       1149 33.98                             123   -0.10 8  209 292 
 ZAR  HN ES       1150  0.16                             123    0.07 8  209 292 
 ZAR  HZ I        1150  5.91        12.6 0.52            118            209 292 
 URE  HZ EP   4   1149 41.49                             114   -1.16 0  289 292 
 URE  HN ES   4   1150 11.93                             114   -3.42 0  289 292 
 URE  HZ I        1150 22.18         7.0 0.34            109            289 292 
 GUY2CHZ EP   9   1149 47.00                             113    1.93 0  305 235 
 GUY2CHE ES   2   1150 21.19                             112   -0.40 4  305 235 
 GUY2CHZ  IAML    1150 31.51         6.6 0.52                           305 235 
 PTGC HZ EP       1149 44.15                             113   -0.46 7  306 160 
 PTGC HZ I        1150 16.58         5.2 0.38            107            306 160 
 PTGC HE ES   4   1150 16.63                             113   -2.21 0  306 160 
 ORTC HZ EP       1149 54.85                             107   -0.33 6  398 217 
 ORTC HN ES   4   1150 39.11                             107    1.45 0  398 217 
 ORTC HZ I        1150 42.41         2.9 0.54            102            398 217 
                                                                                
