 2014 10 2 1052 45.2 L   6.818 -73.143139.0  RSN 15 0.6 2.5LRSN                1
 GAP= 71        1.40       4.0     5.2  6.7 -0.5911E+01  0.5289E+01  0.6793E+01E
 Epicentro: LOS SANTOS - SANTANDER                                             3
 ACTION:UPD 14-11-29 23:45 OP:nd   STATUS:               ID:20141002105245 L   I
 OLDACT:REG 14-10-02 21:05 OP:stll STATUS:               ID:20141002104748     3
 2014-10-02-1047-48M.COL___292                                                 6
 STAT SP IPHASW D HRMM SECON CODA AMPLIT PERI AZIMU VELO AIN AR TRES W  DIS CAZ7
 BAR2 SZ IP     C 1053  4.14                             169    0.1110 25.4 190 
 BAR2 SZ ES       1053 18.46                             169   -0.2910 25.4 190 
 BAR2 SZ I        1053 19.95        79.5 0.30            167           25.4 190 
 BRR  HZ IP     D 1053  5.88                             152    0.3310 70.5 297 
 BRR  HN ES       1053 22.34                             152    0.8910 70.5 297 
 BRR  HZ I        1053 25.88        51.2 0.16            144           70.5 297 
 PAM  SZ IP     C 1053  7.02                             150    0.4610 75.7  40 
 PAM  SN ES       1053 23.67                             150    0.4210 75.7  40 
 PAM  SZ I        1053 25.81        94.6 0.54            150           75.7  40 
 RUS  HZ EP       1053  8.17                             142   -0.2410  103 176 
 RUS  HN ES       1053 26.66                             142    0.1210  103 176 
 RUS  HZ I        1053 28.72        43.9 0.32            141            103 176 
 PTB  HZ EP       1053 10.84                             130   -0.81 9  148 258 
 PTB  HN ES       1053 31.28                             130   -1.03 9  148 258 
 PTB  HZ I        1053 34.97        39.5 0.18            125            148 258 
 TAM  HZ IP     D 1053 12.51                             129    0.16 9  155 106 
 TAM  HZ I        1053 12.74       100.7 0.36            130            155 106 
 OCA  HN EP       1053 12.22                             128   -0.55 9  158 353 
 OCA  HN ES       1053 33.50                             128   -0.80 9  158 353 
 OCA  HZ I        1053 39.90        29.9 0.24            125            158 353 
 SPBC HZ EP       1053 13.15                             127   -0.18 9  165 219 
 SPBC HN ES       1053 35.30                             127    0.01 9  165 219 
 SPBC HZ I        1053 42.20        48.5 0.38            123            165 219 
 CHI  HZ EP       1053 22.57                             115   -0.15 8  251 195 
 CHI  HN ES       1053 51.15                             115   -0.87 8  251 195 
 CHI  HZ I        1053 57.18        16.0 0.30            113            251 195 
 GUY2CHZ EP       1053 28.57                             111   -0.06 7  303 234 
 GUY2CHN ES       1054  4.06                             111    1.53 7  303 234 
 GUY2CHZ I        1054 12.25        19.5 0.64                           303 234 
 DBB  SZ EP       1053 33.76                             108    1.37 7  340 274 
 DBB  SZ I        1054  9.39        32.9 0.60            105            340 274 
 MON  HZ EP   9   1053 31.08                             107   -2.71 0  353 308 
 MON  HE ES       1054  8.24                                   -0.77 6  353 308 
 MON  HZ I        1054 14.26         4.1 0.20            105            353 308 
 ANIL HZ EP       1053 35.34                             107    0.43 6  359 224 
 ANIL HN ES       1054 14.45                             107    0.74 6  359 224 
 ANIL HZ I        1054 30.23         3.1 0.46            105            359 224 
 PRA  HZ EP       1053 38.94                             105    0.26 6  394 209 
 PRA  HN ES       1054 19.71                             105   -0.72 6  394 209 
 PRA  HZ I        1054 26.67        20.9 0.26            103            394 209 
 ORTC HZ EP       1053 38.65                             105   -0.42 6  397 216 
 ORTC HN ES       1054 21.27                             105    0.15 6  397 216 
 ORTC HZ I        1054 25.86         7.4 0.20            103            397 216 
                                                                                
