 2014  7 2 1446  8.1 L   6.782 -73.112146.8  RSN 10 0.4 1.7LRSN                1
 GAP=203        0.97       3.5     4.7  6.2  0.1921E+01  0.5175E+01 -0.2906E+01E
 Epicentro: LOS SANTOS - SANTANDER                                             3
 ACTION:UPD 15-03-16 20:40 OP:nd   STATUS:               ID:20140702144608 L   I
 OLDACT:REG 14-07-02 20:34 OP:spq  STATUS:               ID:20140702143818     3
 2014-07-02-1438-18M.COL___247                                                 6
 STAT SP IPHASW D HRMM SECON CODA AMPLIT PERI AZIMU VELO AIN AR TRES W  DIS CAZ7
 BAR2 SZ EP       1446 28.13                             171    0.2610 22.3 200 
 BAR2 SZ ES   1   1446 43.04                             171   -0.22 7 22.3 200 
 BAR2 SZ I        1446 46.02         6.8 0.27            170           22.3 200 
 BRR  HZ EP       1446 30.01                             151    0.3710 75.4 299 
 BRR  HN ES       1446 46.38                             151   -0.0310 75.4 299 
 BRR  HZ I        1446 50.40         9.6 0.30            151           75.4 299 
 RUS  HZ EP       1446 30.99                             145   -0.8510 98.4 178 
 RUS  HN ES       1446 50.80                             145    0.4910 98.4 178 
 RUS  HZ I        1446 52.60         4.2 0.35            147           98.4 178 
 PTB  HZ EP       1446 35.04                             132   -0.45 9  151 260 
 PTB  HN ES       1446 56.16                             132   -0.66 9  151 260 
 PTB  HZ I        1446 58.95         5.0 0.16            133            151 260 
 SPBC HZ EP       1446 37.13                             129    0.33 9  164 220 
 SPBC HN ES       1446 59.25                             129    0.11 9  164 220 
 SPBC HZ I        1447  2.02        11.1 0.22            131            164 220 
 ZAR  HZ EP       1446 40.90                             122   -0.19 8  208 292 
 ZAR  HN ES       1447  6.94                             122    0.16 8  208 292 
 ZAR  HZ I        1447  8.71         3.7 0.12            123            208 292 
 SML  HZ EP       1446 45.59                             117    0.39 8  247 335 
 SML  HN ES       1447 14.11                             117    0.02 8  247 335 
 SML  HZ I        1447 16.93         6.8 0.10            119            247 335 
 HEL  HN ES       1447 20.83                             115    0.40 8  275 256 
 HEL  HZ I        1447 28.60         4.2 0.22            116            275 256 
 GUY2CHZ EP       1446 51.75                             112   -0.26 7  303 235 
 GUY2CHE ES       1447 26.54                             112    0.31 7  303 235 
 GUY2CHZ I        1447 33.59         2.8 0.22                           303 235 
 SJC  HZ EP   4   1447  2.74                             106   -1.44 0  413 327 
 SJC  HN ES   4   1447 44.27                             106   -3.61 0  413 327 
 SJC  HZ I        1447 49.71         1.2 0.27            107            413 327 
                                                                                
