 2012  5 2 1804 29.4 L   6.766 -73.188147.4  RSN  8 0.4 2.1LRSN                1
 GAP=230        0.71       4.3     5.7  5.9  0.8843E+01  0.1025E+02  0.7918E+01E
 Epicentro: VILLANUEVA - SANTANDER                                             3
 ACTION:UP  12-07-05 12:01 OP:pat  STATUS:               ID:20120502180429 L   I
 2012-05-02-1800-00M.COL___186                                                 6
 STAT SP IPHASW D HRMM SECON CODA AMPLIT PERI AZIMU VELO SNR AR TRES W  DIS CAZ7
 BAR2 SZ EP   1   18 4 48.87                             172    -0.3 7   19 178 
 BAR2 SZ ES   1   18 5  4.28                             172    -0.3 7   19 178 
 BAR2 SZ I        18 5  6.65        31.3 0.23                            19 178 
 BRR  HZ EP   1   18 4 50.94                             153     0.3 7   69 303 
 BRR  HN ES   1   18 5  7.50                             153     0.3 7   69 303 
 BRR  HZ I        18 5  9.98        37.5 0.16                            69 303 
 RUS  HZ EP   1   18 4 52.92                             145    -0.2 7   97 173 
 RUS  HN ES   1   18 5 11.87                             145     0.3 7   97 173 
 RUS  HZ I        18 5 14.56        10.1 0.60                            97 173 
 PTB  HZ EP   1   18 4 55.60                             133    -0.5 7  143 260 
 PTB  HN ES   1   18 5 16.58                             133    -0.3 7  143 260 
 PTB  HZ I        18 5 24.31        14.8 0.35                           143 260 
 ZAR  HZ EP   1   18 5  1.97                             123     0.3 6  201 294 
 ZAR  HN ES   2   18 5 27.15                             123     0.3 4  201 294 
 ZAR  HZ I        18 5 33.66        15.3 0.31                           201 294 
 CHI  HZ EP   1   18 5  6.92                             118     0.2 6  244 194 
 CHI  HE ES   1   18 5 36.25                             118     0.5 6  244 194 
 CHI  HZ I        18 5 40.36         5.7 0.42                           244 194 
 RREF HZ EP   2   18 5 14.39                             112    -0.6 3  316 229 
 RREF HN ES   2   18 5 50.72                             112     0.2 3  316 229 
 RREF HZ I        18 6  1.46        11.8 0.32                           316 229 
 PRA  HZ EP   1   18 5 22.84                             107     0.5 4  386 209 
 PRA  HE ES   1   18 6  3.08                             107    -0.6 4  386 209 
                                                                                
