 2013 12 2 1146 48.5 L   6.715 -73.121151.2  RSN  4 0.5 1.6LRSN                1
 GAP=172        1.14      12.1     7.3  9.6 -0.4366E+02  0.1802E+01  0.1146E+02E
 Epicentro: JORDAN - SANTANDER                                                 3
 ACTION:UPD 14-01-13 10:15 OP:ep   STATUS:               ID:20131202114648 L   I
 OLDACT:UP  13-12-02 16:10 OP:cam  STATUS:               ID:20131202114000     3
 OLDACT:UP  13-12-02 16:10 OP:cam  STATUS:               ID:20131202114000     3
 OLDACT:REG 13-12-02 14:24 OP:cam  STATUS:               ID:20131202114000     3
 2013-12-02-1140-00M.COL___282                                                 6
 STAT SP IPHASW D HRMM SECON CODA AMPLIT PERI AZIMU VELO AIN AR TRES W  DIS CAZ7
 BAR2 SZ EP       1147  8.74                             174    0.1210 15.2 206 
 BAR2 SZ ES       1147 24.55                             174    0.2110 15.2 206 
 BAR2 SZ I        1147 24.73         8.2 0.48            173           15.2 206 
 BRR  HZ EP       1147 10.70                             151    0.0810 78.3 304 
 BRR  HN ES       1147 28.58                             151    0.6910 78.3 304 
 PAM  SZ EP     C 1147 11.68                             150    0.0610 83.3  34 
 PAM  SN ES       1147 29.09                             150   -0.5910 83.3  34 
 PAM  SZ I        1147 30.98         6.6 0.58            151           83.3  34 
 PTB  HZ EP   1   1147 16.26                             133    0.27 7  149 263 
 PTB  HN ES       1147 36.64                             133   -0.81 9  149 263 
 PTB  HZ I        1147 42.45         4.3 0.40            132            149 263 
                                                                                
