 2015  1 2 1813  4.4 L   7.435 -73.132159.8  RSN  4 0.1 1.8LRSN                1
 GAP=271        0.44       5.9     4.1  5.0  0.1148E+02  0.5091E+00 -0.1018E+02E
 Epicentro: EL PLAYON - SANTANDER                                              3
 ACTION:UPD 15-03-02 15:36 OP:nd   STATUS:               ID:20150102181304 L   I
 OLDACT:UP  15-01-03 00:17 OP:cam  STATUS:               ID:20150102180815     3
 OLDACT:REG 15-01-02 20:26 OP:cam  STATUS:               ID:20150102180815     3
 2015-01-02-1808-15M.COL___280                                                 6
 STAT SP IPHASW D HRMM SECON CODA AMPLIT PERI AZIMU VELO AIN AR TRES W  DIS CAZ7
 BRR  HZ EP       1813 27.00                             154   -0.2010 73.6 241 
 BRR  HN ES       1813 45.03                             154    0.0410 73.6 241 
 BRR  HN I        1813 46.28        26.9 0.22            144           73.6 241 
 BAR2 EZ ES       1813 47.73                             148    0.0610 93.3 183 
 PTB  HZ EP       1813 35.36                             130    0.21 9  177 236 
 PTB  HE ES       1813 58.98                             130   -0.15 9  177 236 
 PTB  HZ I        1814  5.35         2.9 0.34            124            177 236 
 ZAR  HE ES       1814  1.56                             127    0.07 9  191 272 
                                                                                
