 2016 11 2 1754 52.2 L   6.807 -73.173156.0  RSN  5 0.3 1.2LRSN                1
 GAP=235        0.73       5.5     5.3  6.5  0.1715E+02 -0.6433E+01 -0.1016E+02E
 Epicentro: LOS SANTOS - SANTANDER                                             3
 ACTION:UPD 17-10-26 21:04 OP:lp   STATUS:               ID:20161102175452 L   I
 OLDACT:REG 16-11-02 21:29 OP:cog  STATUS:               ID:20161102174744     3
 2016-11-02-1748-00M.COL___346                                                 6
 STAT SP IPHASW D HRMM SECON CODA AMPLIT PERI AZIMU VELO AIN AR TRES W  DIS CAZ7
 BRR  HZ EP       1755 14.65                             155    0.3510 68.1 299 
 BRR  HN ES       1755 31.34                             155   -0.2010 68.1 299 
 RUS  HZ EP       1755 17.21                             146    0.1810  102 174 
 RUS  HE ES       1755 36.36                             146   -0.0510  102 174 
 RUS  HZ I        1755 38.96         1.2 0.20            145            102 174 
 PTB  HZ EP       1755 19.67                             135   -0.10 9  145 258 
 PTB  HE ES       1755 41.12                             135   -0.15 9  145 258 
 PTB  HZ I        1755 42.43         2.0 0.16            135            145 258 
 ZAR  HZ EP       1755 24.48                             125   -0.53 9  201 292 
 ZAR  HN ES       1755 51.06                             125    0.45 9  201 292 
 ZAR  HZ I        1755 52.87         2.4 0.11            126            201 292 
 GUY2CHZ EP   9   1755 39.32                             114    3.25 0  299 234 
 GUY2CHN ES       1756 13.83                                    0.29 7  299 234 
 GUY2CHZ I        1756 20.42         0.9 0.37                           299 234 
                                                                                
