 2016 10 2 1401 45.9 L   6.830 -73.023144.7  RSN  4 0.1 1.5LRSN                1
 GAP=151        0.31       2.2     3.6  3.2  0.3759E+01 -0.5817E+01 -0.2673E+01E
 Epicentro: CEPITA - SANTANDER                                                 3
 ACTION:UPD 16-11-09 19:15 OP:rebc STATUS:               ID:20161002140145 L   I
 OLDACT:UP  16-10-02 23:24 OP:dani STATUS:               ID:20161002135747d    3
 OLDACT:DUP 16-10-02 23:21 OP:dani STATUS:               ID:20161002135747d    3
 OLDACT:UP  16-10-02 23:19 OP:dani STATUS:               ID:20161002135746d    3
 OLDACT:UP  16-10-02 23:18 OP:dani STATUS:               ID:20161002135746d    3
 OLDACT:UP  16-10-02 23:17 OP:dani STATUS:               ID:20161002135746d    3
 OLDACT:UP  16-10-02 23:17 OP:dani STATUS:               ID:20161002135746d    3
 OLDACT:DUP 16-10-02 23:04 OP:dani STATUS:               ID:20161002135746d    3
 2016-10-02-1358-00M.COL___381                                                 6
 STAT SP IPHASW D HRMM SECON CODA AMPLIT PERI AZIMU VELO AIN AR TRES W  DIS CAZ7
 BAR2 EZ EP       14 2  5.51                             167   -0.0610 31.7 214 
 BAR2 EZ ES       14 2 20.93                             167   -0.0010 31.7 214 
 BAR2 EZ I        14 2 23.39         9.2 0.31            166           31.7 214 
 PAM  EZ EP       14 2  7.38                             154    0.0210 66.7  32 
 BRR  HZ EP       14 2  7.65                             149    0.0910 82.1 292 
 BRR  HN ES       14 2 24.43                             149   -0.0410 82.1 292 
 BRR  HZ I        14 2 29.19         8.1 0.27            148           82.1 292 
 RUS  HZ EP       14 2  9.69                             143   -0.0710  104 184 
 RUS  HN ES       14 2 28.45                             143    0.0610  104 184 
 RUS  HZ I        14 2 29.32         3.8 0.31            146            104 184 
                                                                                
