 2015  4 2 1029 18.3 L   6.816 -73.138141.8  RSN 11 0.5 1.7LRSN                1
 GAP=184        1.30       4.1     5.3  8.2 -0.1327E+01  0.1256E+02 -0.7348E+01E
 Epicentro: LOS SANTOS - SANTANDER                                             3
 ACTION:UPD 15-06-03 16:51 OP:cam  STATUS:               ID:20150402102918 L   I
 OLDACT:REG 15-04-02 21:17 OP:fm   STATUS:               ID:20150402102743     3
 2015-04-02-1027-43M.COL___277                                                 6
 STAT SP IPHASW D HRMM SECON CODA AMPLIT PERI AZIMU VELO AIN AR TRES W  DIS CAZ7
 BAR2 EZ EP       1029 37.73                             170    0.2110 25.2 191 
 BAR2 EZ ES       1029 52.30                             170   -0.1910 25.2 191 
 BAR2 EZ I        1029 53.74        11.4 0.18            171           25.2 191 
 BRR  HZ IP     C 1029 39.66                             152    0.6110 71.1 297 
 BRR  HN ES       1029 56.19                             152    0.9810 71.1 297 
 BRR  HZ I        1029 57.55         8.6 0.24            150           71.1 297 
 RUS  HZ EP       1029 41.09                             143   -0.7310  102 177 
 RUS  HN ES       1029 59.91                             143   -0.2310  102 177 
 RUS  HZ I        1030  1.33         4.1 0.32            146            102 177 
 PTB  HZ EP       1029 45.86                             131    0.78 9  149 258 
 PTB  HN ES       1030  5.02                             131   -0.93 9  149 258 
 PTB  HZ I        1030  7.34         7.4 0.48            131            149 258 
 OCA  HZ EP       1029 46.27                             129    0.09 9  159 353 
 OCA  HN ES       1030  7.64                             129   -0.26 9  159 353 
 OCA  HZ I        1030 14.74         8.4 0.42            129            159 353 
 ZAR  HZ EP   1   1029 50.69                             121    0.16 6  204 292 
 ZAR  HN ES       1030 15.72                             121    0.07 9  204 292 
 ZAR  HZ I        1030 22.50         7.6 0.38            122            204 292 
 NOR  HE ES       1030 21.57                             118   -0.28 8  236 234 
 NOR  HZ I        1030 24.03         2.8 0.16            119            236 234 
 SML  HZ EP       1029 54.27                             117   -0.33 8  242 335 
 SML  HE ES       1030 22.70                             117   -0.20 8  242 335 
 SML  HZ I        1030 27.35         6.2 0.10            117            242 335 
 HEL  HE ES       1030 30.14                             114    0.34 8  273 255 
 HEL  HZ I        1030 36.20         2.1 0.32            115            273 255 
 URE  HZ EP   1   1029 59.67                             113    0.45 6  284 292 
 URE  HE ES       1030 30.07                             113   -1.05 7  284 292 
 URE  HZ I        1030 34.46         2.9 0.42            113            284 292 
 GUY2CHE ES       1030 36.48                             111    0.51 7  303 235 
 GUY2CHZ I        1030 42.82         2.4 0.30                           303 235 
                                                                                
