 2014  2 2 1624 32.8 L   6.756 -73.106144.3  RSN  5 0.2 1.9LRSN                1
 GAP=144        0.46       2.0     3.6  3.7 -0.1256E+01 -0.2078E+00  0.1492E+01E
 Epicentro: LOS SANTOS - SANTANDER                                             3
 ACTION:UPD 14-03-10 08:07 OP:ep   STATUS:               ID:20140202162432 L   I
 OLDACT:REG 14-02-02 15:40 OP:stll STATUS:               ID:20140202161815     3
 2014-02-02-1618-15M.COL___236                                                 6
 STAT SP IPHASW D HRMM SECON CODA AMPLIT PERI AZIMU VELO AIN AR TRES W  DIS CAZ7
 BAR2 SZ EP       1624 52.10                             172   -0.0510 19.9 205 
 BAR2 SZ ES       1625  7.27                             172   -0.0010 19.9 205 
 BAR2 SZ I        1625  8.74        39.6 0.28            171           19.9 205 
 BRR  HZ EP       1624 53.92                             150   -0.2010 77.4 300 
 BRR  HZ I        1624 54.20         9.3 0.24            152           77.4 300 
 BRR  HN ES       1625 10.86                             150    0.0910 77.4 300 
 PAM  SZ EP       1624 54.89                             150   -0.0110 78.6  35 
 PAM  SZ I        1624 55.27        17.2 0.22            151           78.6  35 
 PAM  SN ES       1625 12.32                             150    0.1610 78.6  35 
 RUS  HZ EP       1624 56.07                             145    0.0610 95.5 178 
 RUS  HN ES       1625 13.89                             145   -0.2410 95.5 178 
 RUS  HZ I        1625 15.93         6.9 0.22            145           95.5 178 
 CHI  HN ES       1625 39.37                             117    0.33 8  245 196 
                                                                                
