 2016  2 2 1846 11.4 L   6.818 -73.164147.0  RSN  7 0.3 1.8LRSN                1
 GAP=133        0.72       3.3     3.1  5.4 -0.2465E+01  0.6216E+01 -0.4950E+00E
 Epicentro: LOS SANTOS - SANTANDER                                             3
 ACTION:UPD 16-03-04 21:22 OP:rebc STATUS:               ID:20160202184611 L   I
 OLDACT:DUP 16-02-03 01:30 OP:cara STATUS:               ID:20160202183760d    3
 2016-02-02-1837-59S.COL___181                                                 6
 STAT SP IPHASW D HRMM SECON CODA AMPLIT PERI AZIMU VELO AIN AR TRES W  DIS CAZ7
 BAR2 EZ EP       1846 31.31                             170    0.0910 25.0 185 
 BAR2 EZ ES       1846 46.62                             170   -0.0510 25.0 185 
 BAR2 EZ I        1846 47.69        15.9 0.16            169           25.0 185 
 PAM  EZ IP     D 1846 33.97                             151    0.2310 77.2  42 
 PAM  EN ES       1846 51.19                             151    0.0310 77.2  42 
 PAM  EZ I        1846 53.22         7.5 0.46            155           77.2  42 
 RUS  HZ EP       1846 35.27                             143   -0.1610  103 175 
 RUS  HN ES       1846 54.07                             143   -0.1010  103 175 
 RUS  HZ I        1846 55.32         5.4 0.44            146            103 175 
 PTB  HZ EP       1846 37.80                             133   -0.52 9  146 258 
 PTB  HN ES       1846 58.86                             133   -0.46 9  146 258 
 PTB  HZ I        1847  5.66         6.9 0.46            132            146 258 
 SPBC HN ES       1847  2.74                             129    0.40 9  163 218 
 SPBC HZ I        1847  6.88        12.8 0.24            130            163 218 
 ZAR  HN ES       1847  9.11                             123    0.30 9  201 292 
 ZAR  HZ I        1847 14.22         8.2 0.22            123            201 292 
 NOR  HZ EP       1846 47.22                             119    0.07 8  234 234 
 NOR  HN ES       1847 15.37                             119    0.34 8  234 234 
 NOR  HZ I        1847 21.05         4.2 0.20            120            234 234 
                                                                                
