 2016  8 2 1903 36.4 L   6.820 -73.154138.5  RSN  7 0.3 1.8LRSN                1
 GAP=134        0.69       3.3     3.1  5.5 -0.1545E+01  0.7724E+01 -0.2481E+01E
 Epicentro: LOS SANTOS - SANTANDER                                             3
 ACTION:UPD 16-10-29 15:31 OP:rebc STATUS:               ID:20160802190336 L   I
 OLDACT:UP  16-08-02 23:47 OP:dani STATUS:               ID:20160802185759     3
 OLDACT:UP  16-08-02 23:46 OP:dani STATUS:               ID:20160802185759     3
 OLDACT:REG 16-08-02 20:39 OP:dani STATUS:               ID:20160802185759     3
 2016-08-02-1857-59S.COL___340                                                 6
 STAT SP IPHASW D HRMM SECON CODA AMPLIT PERI AZIMU VELO AIN AR TRES W  DIS CAZ7
 BAR2 EZ ES       19 4 10.20                             169    0.3210 25.3 187 
 BAR2 EZ I        19 4 11.44        23.8 0.20                          25.3 187 
 PAM  EZ EP       19 3 57.98                             150    0.1810 76.3  41 
 PAM  EE ES       19 4 14.19                             150   -0.2910 76.3  41 
 PAM  EZ I        19 4 17.38         8.6 0.62                          76.3  41 
 RUS  HZ EP       19 3 59.43                             142   -0.2010  103 176 
 RUS  HE ES       19 4 17.84                             142    0.1110  103 176 
 RUS  HZ I        19 4 18.88         7.5 0.30                           103 176 
 PTB  HZ EP       19 4  2.50                             130   -0.26 9  147 258 
 PTB  HE ES       19 4 22.87                             130   -0.43 9  147 258 
 PTB  HZ I        19 4 24.78         6.5 0.56                           147 258 
 ZAR  HZ EP       19 4  8.58                             121    0.36 9  202 292 
 ZAR  HN ES       19 4 33.20                             121    0.17 9  202 292 
 ZAR  HZ I        19 4 42.18         6.0 0.36                           202 292 
 NOR  HE ES       19 4 39.52                             117    0.14 8  235 234 
 PRA  HZ EP   4   19 4 28.21                             105   -1.65 0  393 209 
 PRA  HE ES   4   19 5 12.78                             105    1.23 0  393 209 
 PRA  HZ I        19 5 17.72         4.1 0.66                           393 209 
                                                                                
