 2010  5 2 1459 29.0 L   6.738 -73.044145.1  RSN  8 0.3 2.4LRSN                1
 GAP=184        0.70       5.9     8.5  7.4 -0.2456E+02 -0.2298E+02  0.8291E+01E
 Epicentro: ARATOCA - SANTANDER                                                3
 ACTION:UP  10-08-24 10:02 OP:vdl  STATUS:               ID:20100502145929 L   I
 2010-05-02-1457-00S.COL___105                                                 6
 STAT SP IPHASW D HRMM SECON CODA AMPLIT PERI AZIMU VELO SNR AR TRES W  DIS CAZ7
 BAR2 SZ IP       1459 48.34                             171    -0.210   22 224 
 BAR2 SZ ES   2   15 0  3.64                             171    -0.1 5   22 224 
 BRR  HZ IP     D 1459 50.90                             148     0.010   84 299 
 BRR  HZ I        1459 52.96        45.5 0.09                            84 299 
 BRR  HE ES   1   15 0  8.10                             148     0.2 7   84 299 
 BRI  SZ IP       1459 53.15                             140     0.110  112  14 
 BRI  SZ ES   1   15 0 11.67                             140    -0.2 7  112  14 
 GUE  SZ EP       1459 54.60                             138     0.510  122   6 
 GRA  SZ IP       1459 54.42                             136    -0.110  130  12 
 OCA  SZ EP   1   1459 57.29                             128    -0.8 7  169 350 
 CHI  HZ EP   2   15 0  6.47                             117     0.2 4  245 198 
 PRA  HZ EP   2   15 0 22.51                             106     0.0 3  392 212 
                                                                                
