 2017  2 2 1838 12.3 L   6.807 -73.239135.3  RSN  6 0.3 1.4LRSN                1
 GAP=120        0.74       3.8     3.4  5.9  0.3081E+01  0.6914E+01  0.3606E+01E
 Epicentro: ZAPATOCA - SANTANDER                                               3
 ACTION:UPD 17-05-24 15:32 OP:jn   STATUS:               ID:20170202183812 L   I
 OLDACT:DUP 17-02-02 23:02 OP:lv   STATUS:               ID:20170202182752d    3
 OLDACT:REG 17-02-02 20:46 OP:dnl  STATUS:               ID:20170202182750     3
 2017-02-02-1828-00M.COL___337                                                 6
 STAT SP IPHASW D HRMM SECON CODA AMPLIT PERI AZIMU VELO AIN AR TRES W  DIS CAZ7
 BAR2 EZ EP       1838 30.57                             169   -0.1610 24.6 165 
 BAR2 EZ ES       1838 45.46                             169    0.3810 24.6 165 
 BAR2 EZ I        1838 46.94         4.9 0.13            170           24.6 165 
 BRR  HZ EP       1838 32.41                             154    0.5910 61.9 302 
 BRR  HN ES       1838 47.03                             154    0.0010 61.9 302 
 BRR  HZ I        1838 52.08        17.9 0.42            155           61.9 302 
 PAM  EN ES       1838 50.31                             147   -0.3410 83.8  45 
 PAM  EZ I        1838 51.22         5.1 0.36            152           83.8  45 
 RUS  HZ EP       1838 35.18                             141   -0.0410  103 170 
 RUS  HN ES       1838 52.97                             141   -0.1010  103 170 
 RUS  HZ I        1838 55.28         1.8 0.14            144            103 170 
 PTB  HZ EP       1838 37.53                             132   -0.01 9  138 258 
 PTB  HN ES       1838 56.89                             132   -0.31 9  138 258 
 PTB  HZ I        1839  0.67         4.1 0.17            134            138 258 
 ZAR  HN ES       1839  6.99                             121   -0.07 9  194 293 
                                                                                
