 2015  1 2 1324 19.9 L   6.773 -73.227142.1  RSN  5 0.5 1.6LRSN                1
 GAP=189        1.14       6.8     7.7 12.2  0.1008E+02  0.2514E+02 -0.4537E+02E
 Epicentro: ZAPATOCA - SANTANDER                                               3
 ACTION:UPD 15-03-02 15:36 OP:nd   STATUS:               ID:20150102132419 L   I
 OLDACT:REG 15-01-02 20:16 OP:cam  STATUS:               ID:20150102131817     3
 2015-01-02-1318-17M.COL___280                                                 6
 STAT SP IPHASW D HRMM SECON CODA AMPLIT PERI AZIMU VELO AIN AR TRES W  DIS CAZ7
 BAR2 EZ ES       1324 54.21                             171    0.2010 20.6 166 
 BAR2 EZ I        1324 54.98         8.0 0.34            177           20.6 166 
 RUS  HE ES       1325  1.32                             144   -0.0210 98.7 171 
 RUS  HE I        1325  3.53         5.5 0.64            149           98.7 171 
 PTB  HZ EP       1324 45.77                             133    0.01 9  138 259 
 PTB  HN ES       1325  5.25                             133   -0.65 9  138 259 
 PTB  HZ I        1325  7.98         2.9 0.14            134            138 259 
 ZAR  HN ES       1325 16.86                             123    0.90 9  197 294 
 ZAR  HN I        1325 24.21         6.4 0.16            123            197 294 
 SML  HZ EP       1324 56.49                             117    0.22 8  243 338 
 SML  HE ES       1325 23.94                             117   -0.66 8  243 338 
 SML  HZ I        1325 32.70         3.1 0.34            117            243 338 
                                                                                
