 2013 10 2 1300 48.1 L   6.193 -73.816101.3  RSN  5 0.5 1.5LRSN                1
 GAP= 93        1.33       5.5     6.1 12.5 -0.6281E+01 -0.1616E+02  0.8443E+00E
 Epicentro: LANDAZURI - SANTANDER                                              3
 ACTION:UPD 13-11-25 09:18 OP:ep   STATUS:               ID:20131002130048 L   I
 OLDACT:REG 13-10-02 13:52 OP:stll STATUS:               ID:20131002125839     3
 2013-10-02-1258-39M.COL___234                                                 6
 STAT SP IPHASW D HRMM SECON CODA AMPLIT PERI AZIMU VELO AIN AR TRES W  DIS CAZ7
 SPBC HZ EP       13 1  4.58                             144    0.1910 66.2 205 
 SPBC HN ES       13 1 17.57                             144    0.4410 66.2 205 
 SPBC HZ I        13 1 22.21        11.3 0.16            139           66.2 205 
 PTB  HZ IP     D 13 1  4.91                             138   -0.4710 80.5 298 
 PTB  HN ES       13 1 18.36                             138   -0.5310 80.5 298 
 PTB  HZ I        13 1 21.80         6.4 0.14            127           80.5 298 
 BAR2 SZ EP       13 1  5.86                             138   -0.0210 82.9  58 
 BAR2 SZ ES       13 1 19.06                             138   -0.7310 82.9  58 
 BAR2 SZ I        13 1 20.87        16.1 0.52            140           82.9  58 
 RUS  HZ I        13 1  6.63         5.4 0.10            146           87.7 112 
 RUS  HZ EP       13 1  6.64                             136   -0.0010 87.7 112 
 BRR  HZ EP       13 1  7.34                             131    0.1310  102   7 
 BRR  HN ES       13 1 23.14                             131    1.0010  102   7 
                                                                                
