 2015 11 2 1305 31.3 L   6.754 -73.124140.3  RSN  4 0.2 1.5LRSN                1
 GAP=141        0.66       3.6     5.4  5.7  0.1418E+01  0.1374E+01  0.2475E+01E
 Epicentro: LOS SANTOS - SANTANDER                                             3
 ACTION:UPD 15-12-28 16:08 OP:cam  STATUS:               ID:20151102130531 L   I
 OLDACT:REG 15-11-02 21:09 OP:cara STATUS:               ID:20151102125748     3
 2015-11-02-1257-48M.COL___310                                                 6
 STAT SP IPHASW D HRMM SECON CODA AMPLIT PERI AZIMU VELO AIN AR TRES W  DIS CAZ7
 BAR2 EZ EP       13 5 49.96                             172   -0.2810 19.0 200 
 BAR2 EZ ES       13 6  4.70                             172   -0.2810 19.0 200 
 BAR2 EZ I        13 6  5.57         9.4 0.28            167           19.0 200 
 BRR  HZ EP       13 5 51.92                             150   -0.2710 75.8 301 
 BRR  HN ES       13 6  8.74                             150    0.3010 75.8 301 
 BRR  HZ I        13 6 19.00         5.5 0.50            144           75.8 301 
 PAM  EZ EP   2   13 5 53.22                             149    0.08 5 79.9  36 
 PAM  EN ES       13 6 10.25                             149    0.1010 79.9  36 
 PAM  EZ I        13 6 12.12         5.7 0.58            152           79.9  36 
 RUS  HZ EP       13 5 54.52                             144    0.3310 95.3 177 
 RUS  HE ES       13 6 12.07                             144    0.0710 95.3 177 
 RUS  HZ I        13 6 13.20         3.5 0.26            149           95.3 177 
                                                                                
