 2012 12 2 1157  9.6 L   6.758 -73.119139.4  RSN  8 0.4 1.9LRSN                1
 GAP=142        0.96       3.7     4.4  6.3  0.1208E+00  0.9641E+01  0.2797E+01E
 Epicentro: LOS SANTOS - SANTANDER                                             3
 ACTION:UPD 13-01-04 14:25 OP:ep   STATUS:               ID:20121202115709 L   I
 2012-12-02-1150-00M.COL___236                                                 6
 STAT SP IPHASW D HRMM SECON CODA AMPLIT PERI AZIMU VELO AIN AR TRES W  DIS CAZ7
 BAR2 SZ EP       1157 28.46                             172    0.0710 19.7 201 
 BAR2 SZ ES       1157 43.14                             172    0.0910 19.7 201 
 BAR2 SZ I        1157 45.65        11.5 0.38                          19.7 201 
 GIR2 SZ EP       1157 28.50                             165   -0.1610 36.4 347 
 PAM  SZ EP       1157 31.28                             149    0.0310 79.2  36 
 PAM  SN ES       1157 47.94                             149   -0.2010 79.2  36 
 PAM  SN I        1157 48.91        17.1 0.24                          79.2  36 
 RUS  HZ EP       1157 32.57                             144    0.1910 95.8 178 
 RUS  HN ES       1157 50.46                             144    0.3110 95.8 178 
 RUS  HN I        1157 52.43        10.9 0.28                          95.8 178 
 PTB  HZ EP       1157 35.31                             130   -0.93 9  150 261 
 PTB  HE ES       1157 56.80                             130   -0.23 9  150 261 
 PTB  HN I        1157 58.34        14.2 0.72                           150 261 
 ZAR  HZ EP       1157 42.56                             120    0.46 8  209 293 
 ZAR  HN ES       1158  8.00                             120    0.54 8  209 293 
 ZAR  HN I        1158 13.30         9.6 0.22                           209 293 
 CHI  HZ EP       1157 46.32                             116   -0.23 8  245 196 
 CHI  HN ES       1158 15.05                             116   -0.32 8  245 196 
 CHI  HN I        1158 19.63         3.7 0.36                           245 196 
 PRA  HZ EP       1158  3.48                             106    0.87 6  389 210 
                                                                                
