 2010  6 2 1722 52.1 L   7.150 -73.175125.1  RSN  9 0.8 2.5LRSN                1
 GAP=154        1.76       7.2    13.7 15.3 -0.5460E+02  0.1327E+03 -0.1543E+02E
 Epicentro: LEBRIJA - SANTANDER                                                3
 ACTION:UP  10-08-24 10:08 OP:vdl  STATUS:               ID:20100602172252 L   I
 2010-06-02-1717-54S.COL___109                                                 6
 STAT SP IPHASW D HRMM SECON CODA AMPLIT PERI AZIMU VELO SNR AR TRES W  DIS CAZ7
 BAR2 SZ EP       1723 10.29                             152    -0.510   62 181 
 BAR2 SZ ES       1723 24.54                             152    -0.910   62 181 
 GUE  SZ EP       1723 11.86                             145    -0.210   80  20 
 GUE  SZ ES   1   1723 28.01                             145     0.3 7   80  20 
 GRA  SZ IP   1   1723 12.99                             141     0.3 7   91  27 
 GRA  SZ ES       1723 29.69                             141     1.010   91  27 
 OCA  SZ IP       1723 14.90                             133    -0.310  121 352 
 OCA  SZ ES   2   1723 32.54                             133    -0.6 5  121 352 
 HEL  HZ EP   1   1723 32.68                             109     0.3 6  281 248 
 HEL  HN ES       1724  4.16                             109     0.4 7  281 248 
 HEL  HZ I        1724  6.50        17.3 0.81                           281 248 
 CHI  HN ES   1   1724  5.81                             109     1.0 6  285 192 
 CHI  HZ I        1724 12.28        11.1 0.13                           285 192 
 ROSC BZ EP   1   1723 34.44                             109     1.6 6  285 206 
 ROSC BN ES   1   1724  4.96                             109     0.3 6  285 206 
 ROSC BZ I        1724 15.19        14.7 1.58                           285 206 
 DBB  SZ EP       1723 37.01                             105    -1.3 7  336 268 
 RREF BZ EP       1723 39.33                             105    -0.9 6  346 224 
 RREF BN ES   1   1724 19.54                             105     1.7 5  346 224 
 RREF BZ I        1724 26.86        18.7 0.11                           346 224 
                                                                                
