 2016  2 2 1554 12.9 L   7.389 -73.169132.7  RSN  4 0.2 1.4LRSN                1
 GAP=182        0.49       3.9     2.5  5.0 -0.1550E+01  0.7136E+01 -0.5384E+01E
 Epicentro: EL PLAYON - SANTANDER                                              3
 ACTION:UPD 16-03-04 21:22 OP:rebc STATUS:               ID:20160202155412 L   I
 OLDACT:DUP 16-02-03 00:13 OP:cara STATUS:               ID:20160202154760d    3
 2016-02-02-1547-59S.COL___199                                                 6
 STAT SP IPHASW D HRMM SECON CODA AMPLIT PERI AZIMU VELO AIN AR TRES W  DIS CAZ7
 PAM  EZ EP       1554 32.42                             157    0.0610 52.1  96 
 PAM  EN ES       1554 47.54                             157    0.0210 52.1  96 
 PAM  EZ I        1554 48.60         6.8 0.48            162           52.1  96 
 BAR2 EZ EP       1554 34.29                             144    0.1510 88.2 181 
 BAR2 EZ ES       1554 50.48                             144   -0.2010 88.2 181 
 BAR2 EZ I        1554 52.47         3.8 0.40            147           88.2 181 
 PTB  HZ IP       1554 40.81                             124   -0.27 9  170 237 
 PTB  HE ES       1555  3.35                             124    0.30 9  170 237 
 PTB  HZ I        1555  6.07         1.8 0.20            126            170 237 
 ZAR  HZ EP       1554 42.77                             122    0.03 9  187 274 
 ZAR  HN ES       1555  5.88                             122   -0.11 9  187 274 
 ZAR  HZ I        1555  8.82         4.3 0.38            124            187 274 
                                                                                
