 2016 11 2 1612 53.9 L   6.787 -73.167139.9  RSN  4 0.3 1.3LRSN                1
 GAP=141        0.84       5.0     4.9  7.0 -0.7514E+01  0.9601E+01 -0.3407E+01E
 Epicentro: LOS SANTOS - SANTANDER                                             3
 ACTION:UPD 17-10-26 21:04 OP:lp   STATUS:               ID:20161102161253 L   I
 OLDACT:REG 16-11-02 21:09 OP:cog  STATUS:               ID:20161102160746     3
 2016-11-02-1608-00M.COL___346                                                 6
 STAT SP IPHASW D HRMM SECON CODA AMPLIT PERI AZIMU VELO AIN AR TRES W  DIS CAZ7
 BAR2 EZ EP       1613 12.92                             171    0.1410 21.6 184 
 BAR2 EZ ES       1613 27.10                             171   -0.4110 21.6 184 
 BAR2 EZ I        1613 28.90         7.1 0.20            171           21.6 184 
 PAM  EZ EP       1613 15.99                             149    0.3410 80.0  40 
 PAM  EN ES       1613 32.59                             149   -0.0410 80.0  40 
 PAM  EZ I        1613 33.81         3.9 0.19            151           80.0  40 
 RUS  HZ EP       1613 16.77                             143   -0.2010 99.3 175 
 RUS  HN ES       1613 35.26                             143    0.2810 99.3 175 
 RUS  HZ I        1613 36.16         1.6 0.17            145           99.3 175 
 PTB  HZ EP       1613 19.65                             131   -0.49 9  145 259 
 PTB  HN ES       1613 41.00                             131    0.38 9  145 259 
 PTB  HZ I        1613 42.96         4.6 0.15            132            145 259 
                                                                                
