 2015  9 2 1603 43.6 L   6.752 -73.156136.0  RSN 11 0.5 2.0LRSN                1
 GAP=137        1.17       4.1     4.5  6.5 -0.3401E+01  0.9744E+01  0.5450E+01E
 Epicentro: LOS SANTOS - SANTANDER                                             3
 ACTION:UPD 15-10-28 16:23 OP:cam  STATUS:               ID:20150902160343 L   I
 OLDACT:UP  15-09-02 23:03 OP:ak   STATUS:               ID:20150902155749     3
 OLDACT:REG 15-09-02 21:38 OP:ak   STATUS:               ID:20150902155749     3
 2015-09-02-1557-49M.COL___343                                                 6
 STAT SP IPHASW D HRMM SECON CODA AMPLIT PERI AZIMU VELO AIN AR TRES W  DIS CAZ7
 BAR2 EZ IP     C 16 4  2.10                             172    0.1510 17.9 189 
 BAR2 EZ ES       16 4 16.32                             172    0.0510 17.9 189 
 BAR2 EZ I        16 4 18.38        22.3 0.16            170           17.9 189 
 BRR  HZ EP       16 4  3.96                             150    0.1610 72.9 303 
 BRR  HN ES       16 4 20.31                             150    0.7610 72.9 303 
 BRR  HZ I        16 4 24.06        16.6 0.25            149           72.9 303 
 PAM  EZ EP       16 4  4.86                             147   -0.2310 82.2  38 
 PAM  EN ES       16 4 21.82                             147   -0.0410 82.2  38 
 PAM  EZ I        16 4 22.67        13.5 0.22            152           82.2  38 
 RUS  HZ EP       16 4  6.09                             143    0.0710 95.4 175 
 RUS  HN ES       16 4 23.54                             143    0.0410 95.4 175 
 RUS  HZ I        16 4 25.53        10.3 0.26            145           95.4 175 
 PTB  HZ EP       16 4  8.76                             130   -0.83 9  146 261 
 PTB  HN ES       16 4 29.16                             130   -0.70 9  146 261 
 PTB  HZ I        16 4 32.17        16.7 0.14            130            146 261 
 SPBC HZ EP       16 4 11.14                             128    0.24 9  158 220 
 SPBC HN ES       16 4 31.42                             128   -0.77 9  158 220 
 SPBC HZ I        16 4 35.37        15.2 0.09            128            158 220 
 ZAR  HZ EP       16 4 14.74                             120   -0.79 9  205 294 
 ZAR  HE ES       16 4 40.97                             120    0.54 9  205 294 
 ZAR  HZ I        16 4 46.17        16.8 0.11            121            205 294 
 NOR  HZ EP   1   16 4 17.77                             117   -0.57 6  231 235 
 NOR  HN ES       16 4 46.26                             117    0.82 8  231 235 
 NOR  HZ I        16 4 49.91         9.6 0.14            118            231 235 
 GUY2CHZ EP   1   16 4 27.24                             111    0.92 5  297 235 
 GUY2CHN ES       16 4 59.70                             111    0.06 7  297 235 
 GUY2CHZ I        16 5  8.72         6.0 0.38                           297 235 
 TOL  SZ EP   1   16 4 31.04                             108    0.09 5  339 225 
 TOL  SN ES       16 5  7.68                             108   -0.20 7  339 225 
 TOL  SZ I        16 5 18.61         4.1 0.34            109            339 225 
 PRA  HZ EP       16 4 36.73                             105    0.54 6  387 210 
 PRA  HN ES       16 5 17.94                             105    0.73 6  387 210 
 PRA  HZ I        16 5 22.17         3.1 0.36            106            387 210 
 SJC  HZ EP   4   16 4 35.77                             104   -3.53 0  413 327 
 SJC  HN ES   4   16 5 17.89                             104   -4.86 0  413 327 
                                                                                
