 2016  9 2 1332 29.3 L   6.861 -73.104148.5  RSN 22 0.6 2.7LRSN                1
 GAP=121        1.15       2.9     3.5  5.0 -0.2781E+01  0.1242E+01 -0.1421E+01E
 Epicentro: LOS SANTOS - SANTANDER                                             3
 ACTION:UPD 17-08-17 21:05 OP:lp   STATUS:               ID:20160902133229 L   I
 OLDACT:UP  16-09-03 01:48 OP:edw  STATUS:               ID:20160902132732     3
 OLDACT:UP  16-09-03 01:47 OP:edw  STATUS:               ID:20160902132732     3
 OLDACT:REG 16-09-02 21:10 OP:edw  STATUS:               ID:20160902132732     3
 2016-09-02-1328-00M.COL___358                                                 6
 STAT SP IPHASW D HRMM SECON CODA AMPLIT PERI AZIMU VELO AIN AR TRES W  DIS CAZ7
 BAR2 EZ EP       1332 49.69                             168    0.2510 31.0 196 
 BAR2 EZ ES       1333  4.64                             168   -0.5010 31.0 196 
 BAR2 EZ I        1333  5.91       133.3 0.24            168           31.0 196 
 PAM  HZ EP   4   1332 52.61                             154    1.26 0 69.2  40 
 PAM  EN ES   4   1333  9.38                             154    0.83 0 69.2  40 
 PAM  HZ I        1333 11.85        86.1 0.48            155           69.2  40 
 BRR  HZ EP     C 1332 51.45                             152    0.6310 72.5 292 
 BRR  HN ES       1333  8.64                             152    1.0310 72.5 292 
 BRR  HZ I        1333 11.69        44.5 0.26            150           72.5 292 
 RUS  HZ EP       1332 53.68                             142   -0.1210  107 179 
 RUS  HN ES       1333 12.56                             142   -0.3510  107 179 
 RUS  HZ I        1333 13.42        59.9 0.28            144            107 179 
 PTB  HZ EP   9   1332 56.14                             131   -0.90 0  154 257 
 PTB  HN ES       1333 17.33                             131   -0.44 9  154 257 
 PTB  HZ I        1333 19.57        34.3 0.09            131            154 257 
 SPBC HZ EP       1332 58.62                             128   -0.17 9  171 219 
 SPBC HN ES       1333 20.87                             128   -0.92 9  171 219 
 SPBC HZ I        1333 25.05        78.4 0.20            129            171 219 
 ZAR  HZ EP       1333  2.33                             123    0.21 8  206 290 
 ZAR  HN ES       1333 27.57                             123   -0.15 8  206 290 
 ZAR  HZ I        1333 32.83        42.1 0.26            122            206 290 
 NOR  HZ EP       1333  5.68                             118   -0.34 8  242 234 
 NOR  HN ES       1333 34.39                             118   -0.27 8  242 234 
 NOR  HZ I        1333 38.32        33.7 0.32            118            242 234 
 CHI  HZ EP       1333  7.85                             117   -0.15 8  256 196 
 CHI  HN ES   4   1333 37.07                             117   -1.11 0  256 196 
 CHI  HZ I        1333 40.96        29.8 0.52            118            256 196 
 ROSC BZ EP   4   1333  9.40                             116    0.93 0  261 211 
 ROSC BN ES       1333 39.09                             116    0.08 8  261 211 
 ROSC BZ I        1333 44.16        61.4 0.35            117            261 211 
 HEL  HZ EP       1333 11.68                             115    1.34 7  278 255 
 HEL  HN ES   4   1333 41.96                             115   -0.39 0  278 255 
 HEL  HZ I        1333 47.75        26.8 0.28            115            278 255 
 URE  HZ EP       1333 10.37                             114   -0.35 7  286 290 
 URE  HN ES       1333 42.52                             114   -0.50 7  286 290 
 URE  HZ I        1333 47.23        19.0 0.28            114            286 290 
 SOCV BZ EP       1333 12.55                             113    0.92 7  294  57 
 SOCV BN ES       1333 44.85                             113    0.21 7  294  57 
 GUY2CHZ EP       1333 13.93                             112    0.02 7  309 234 
 GUY2CHN ES       1333 49.12                             112    0.42 7  309 234 
 GUY2CHZ I        1333 55.94        26.2 0.36                           309 234 
 VIL  EZ EP       1333 13.69                             112   -0.01 7  311 192 
 VIL  EN ES       1333 48.13                             112   -0.21 7  311 192 
 VIL  EZ I        1333 50.36        38.5 0.44            113            311 192 
 PTGC HZ EP   4   1333 12.72                             112   -1.10 0  313 160 
 PTGC HN ES   4   1333 45.73                             112   -2.80 0  313 160 
 LL6C HZ EP       1333 14.36                             111   -0.02 7  318 357 
 LL6C HE ES       1333 49.15                             111   -0.39 7  318 357 
 LL6C HZ I        1333 55.68        13.2 0.46            112            318 357 
 ELA  HZ EP       1333 17.30                             110    0.12 7  337 229 
 ELA  HN ES       1333 54.53                             110    0.01 7  337 229 
 ELA  HZ I        1334  3.22        16.6 0.60            111            337 229 
 CBOC HZ EP       1333 17.17                             110    0.09 7  340 251 
 CBOC HE ES       1333 54.31                             110   -0.04 7  340 251 
 CBOC HZ I        1334  2.20        15.3 0.10            110            340 251 
 ANIL HZ EP       1333 20.01                             108   -0.14 6  365 224 
 ANIL HN ES       1334  0.26                             108    0.45 6  365 224 
 SJC  HZ IP   4 C 1333 23.83                             106   -0.77 0  406 326 
 SJC  HN ES   4   1334  4.47                             106   -3.25 0  406 326 
 SJC  HZ I        1334 13.65         6.2 0.40            106            406 326 
 PAL  HZ EP       1333 25.19                             106   -0.24 6  413 239 
 PAL  HN ES       1334  9.59                             106    0.38 6  413 239 
 PAL  HZ I        1334 14.69         6.0 0.20            106            413 239 
 CRJC HZ EP       1333 30.18                             104   -0.87 5  461   3 
 CRJC HN ES       1334 17.08                             104   -2.13 5  461   3 
 CRJC HZ I        1334 24.80        17.6 0.38            104            461   3 
                                                                                
