 2010  9 2 1212 12.4 L   6.805 -72.994149.8  RSN  4 0.2 1.7LRSN                1
 GAP=253        0.44       4.8     8.3  4.7  0.1995E+02  0.1612E+01  0.3385E+01E
 Epicentro: CEPITA - SANTANDER                                                 3
 ACTION:UP  11-02-18 10:59 OP:tino STATUS:               ID:20100902121212 L   I
 2010-09-02-1209-59S.COL___120                                                 6
 STAT SP IPHASW D HRMM SECON CODA AMPLIT PERI AZIMU VELO SNR AR TRES W  DIS CAZ7
 BAR2 SZ EP   1   1212 32.79                             167     0.1 7   32 222 
 BAR2 SZ ES   1   1212 48.46                             167    -0.1 7   32 222 
 BAR2 SZ I        1212 49.19         7.5 0.32                            32 222 
 BRR  HZ IP     C 1212 34.80                             148    -0.110   86 293 
 BRR  HZ I        1212 35.10        20.4 0.14                            86 293 
 BRR  HN ES   1   1212 52.48                             148     0.1 7   86 293 
 RUS  HZ EP   2   1212 36.29                             144    -0.3 5  101 186 
 RUS  HN ES   2   1212 55.71                             144     0.2 5  101 186 
 RUS  HZ I        1212 59.00         3.1 0.70                           101 186 
 PRA  HZ EP   1   1213  7.51                             107     0.4 4  401 212 
 PRA  HZ I        1213 27.18         1.7 0.33                           401 212 
 PRA  HE ES   2   1213 49.34                             107    -0.4 3  401 212 
                                                                                
