 2011  4 2 1040 10.7 L   6.806 -73.127142.8  RSN 11 0.4 2.3LRSN                1
 GAP=156        0.72       4.4     5.5  6.2 -0.1219E+02  0.5353E+01  0.5599E+01E
 Epicentro: LOS SANTOS - SANTANDER                                             3
 ACTION:UP  11-06-22 15:28 OP:REBC STATUS:               ID:20110402104010 L   I
 2011-04-02-1038-55S.COL___138                                                 6
 STAT SP IPHASW D HRMM SECON CODA AMPLIT PERI AZIMU VELO SNR AR TRES W  DIS CAZ7
 BAR2 SZ EP       1040 29.79                             170    -0.210   24 195 
 BAR2 SZ ES   2   1040 44.34                             170    -0.7 5   24 195 
 BAR2 SZ I        1040 45.96        28.9 0.28                            24 195 
 GIR2 SZ EP   1   1040 30.80                             167     0.8 7   31 346 
 BRR  HZ IP     D 1040 31.61                             151     0.010   73 297 
 BRR  HE ES   1   1040 47.94                             151     0.0 7   73 297 
 BRR  HZ I        1040 51.86        76.5 0.14                            73 297 
 PAM  SZ EP   1   1040 32.65                             151     0.2 7   76  39 
 PAM  SE ES   2   1040 49.55                             151     0.1 5   76  39 
 GRA  SZ IP       1040 35.47                             137    -0.110  124  17 
 GRA  SZ ES   1   1040 55.27                             137     0.3 7  124  17 
 GRA  SZ I        1040 57.26        22.2 0.13                           124  17 
 OCA  SZ EP   1   1040 38.20                             129    -0.5 7  160 352 
 OCA  SZ ES   2   1041  0.42                             129    -0.2 5  160 352 
 OCA  SZ I        1041  9.88        27.4 0.43                           160 352 
 NOR  SZ EP   1   1040 46.26                             118    -0.2 6  237 235 
 NOR  SN ES   2   1041 14.03                             118    -0.4 4  237 235 
 CHI  HZ EP   2   1040 48.08                             116    -0.3 4  250 196 
 CHI  HE ES   2   1041 18.18                             116     0.4 4  250 196 
 CHI  HZ I        1041 25.50        16.4 0.44                           250 196 
 HEL  HZ EP   1   1040 51.10                             114     0.1 6  274 256 
 HEL  HN ES   2   1041 23.20                             114     0.8 4  274 256 
 HEL  HZ I        1041 26.42         8.8 0.21                           274 256 
 RREF HZ EP   1   1040 57.41                             110     0.5 5  324 230 
 DBB  SZ EP   1   1040 58.01                             109    -0.3 5  342 274 
                                                                                
