 2013  3 2 1302 11.4 L   6.718 -73.147142.8  RSN  6 0.4 1.6LRSN                1
 GAP=140        0.80       6.9     5.7  9.5  0.1770E-01  0.2315E+02  0.1015E+01E
 Epicentro: VILLANUEVA - SANTANDER                                             3
 *Mb:4.6 - POTOSI, BOLIVIA, Z=237.4 Km (NEIC)                                  3
 ACTION:UPD 13-04-09 13:59 OP:ep   STATUS:               ID:20130302130211 L   I
 2013-03-02-1300-00M.COL___228                                                 6
 STAT SP IPHASW D HRMM SECON CODA AMPLIT PERI AZIMU VELO AIN AR TRES W  DIS CAZ7
 BAR2 SZ EP   1   13 2 31.07                             174    0.58 7 14.4 196 
 BAR2 SZ ES   1   13 2 45.39                             174   -0.02 7 14.4 196 
 BRR  HZ EP   1   13 2 32.76                             150    0.29 7 75.8 305 
 BRR  HN ES   1   13 2 49.52                             150    0.59 7 75.8 305 
 BRR  HZ I        13 2 53.27        11.7 0.17            149           75.8 305 
 PAM  SN ES   1   13 2 50.59                             148   -0.57 7 84.7  36 
 PAM  SZ I        13 2 53.06         6.2 0.52            154           84.7  36 
 RUS  HN ES   2   13 2 51.69                             146   -0.29 5 91.5 176 
 PTB  HZ EP   1   13 2 37.63                             132   -0.32 7  146 262 
 PTB  HN ES   1   13 2 58.34                             132   -0.34 7  146 262 
 PTB  HZ I        13 3  6.58         5.1 0.20            133            146 262 
 ZAR  HN ES   1   13 3  9.17                             121   -0.25 6  208 294 
                                                                                
