 2016  7 2 1609 26.3 L   6.807 -73.120149.1  RSN 11 0.4 2.0LRSN                1
 GAP=121        0.95       3.5     3.5  5.7 -0.2310E+01  0.9852E+00  0.1364E+01E
 Epicentro: LOS SANTOS - SANTANDER                                             3
 ACTION:UPD 17-03-29 16:45 OP:lp   STATUS:               ID:20160702160926 L   I
 OLDACT:REG 16-07-02 23:03 OP:ak   STATUS:               ID:20160702160745     3
 2016-07-02-1607-45M.COL___337                                                 6
 STAT SP IPHASW D HRMM SECON CODA AMPLIT PERI AZIMU VELO AIN AR TRES W  DIS CAZ7
 BAR2 EZ EP       16 9 46.60                             170    0.2610 24.7 196 
 BAR2 EZ ES       1610  1.70                             170   -0.2910 24.7 196 
 BAR2 EZ I        1610  2.86        23.4 0.22            169           24.7 196 
 BRR  HZ EP       16 9 48.39                             153    0.4710 73.4 297 
 BRR  HN ES       1610  5.28                             153    0.4910 73.4 297 
 BRR  HZ I        1610  8.84        14.1 0.30            150           73.4 297 
 RUS  HZ EP       16 9 50.57                             144    0.1610  101 178 
 RUS  HN ES       1610  9.70                             144    0.4810  101 178 
 RUS  HZ I        1610 10.39        11.9 0.26            145            101 178 
 PTB  HZ EP       16 9 53.68                             132   -0.11 9  151 259 
 PTB  HN ES       1610 14.60                             132   -0.65 9  151 259 
 PTB  HZ I        1610 17.33        11.5 0.12            131            151 259 
 SPBC HZ EP   2   16 9 55.97                             129    0.70 5  166 220 
 SPBC HN ES       1610 17.31                             129   -0.56 9  166 220 
 SPBC HZ I        1610 22.30        18.8 0.28            129            166 220 
 ZAR  HZ EP   2   16 9 59.43                             123    0.23 4  206 292 
 ZAR  HN ES       1610 24.78                             123   -0.09 8  206 292 
 ZAR  HZ I        1610 31.54         7.4 0.13            122            206 292 
 NOR  HZ EP       1610  2.60                             119    0.09 8  237 235 
 NOR  HN ES       1610 30.12                             119   -0.64 8  237 235 
 NOR  HZ I        1610 36.10         6.9 0.22            119            237 235 
 CHI  HZ EP   4   1610  2.50                             118   -1.83 0  250 196 
 CHI  HN ES       1610 34.06                             118    0.06 8  250 196 
 CHI  HZ I        1610 37.92         6.9 0.46            118            250 196 
 SOCV BZ EP   2   1610  8.82                             113   -0.35 4  298  57 
 SOCV BN ES       1610 41.89                             113   -0.73 7  298  57 
 GUY2CHZ EP   2   1610 10.72                             113    0.36 4  304 235 
 GUY2CHE ES       1610 45.34                             113    0.60 7  304 235 
 GUY2CHZ I        1610 52.71         4.2 0.28                           304 235 
 PRA  HZ EP   2   1610 20.57                             107    0.41 3  394 210 
 PRA  HN ES       1611  1.57                             107   -0.62 6  394 210 
 PRA  HZ I        1611  6.96         3.6 0.20            107            394 210 
                                                                                
