 2012  1 2 1447 53.7 L   6.805 -73.027157.3  RSN  4 0.2 1.7LRSN                1
 GAP=152        0.33       4.0    10.2 10.1 -0.2714E+01  0.7769E+02 -0.4035E+01E
 Epicentro: CEPITA - SANTANDER                                                 3
 ACTION:UP  12-02-03 08:13 OP:REBC STATUS:               ID:20120102144753 L   I
 2012-01-02-1440-00M.COL___187                                                 6
 STAT SP IPHASW D HRMM SECON CODA AMPLIT PERI AZIMU VELO SNR AR TRES W  DIS CAZ7
 BAR2 SZ EP   3   1448 14.33                             169    -0.5 2   29 216 
 PAM  SZ EP   3   1448 17.00                             155     0.3 2   69  31 
 PAM  SN ES   2   1448 34.64                             155     0.0 5   69  31 
 BRR  HZ EP       1448 16.77                             151     0.010   83 294 
 BRR  HZ I        1448 17.26         8.3 0.27                            83 294 
 RUS  HZ EP   2   1448 18.61                             146     0.0 5  101 183 
 RUS  HN ES   2   1448 38.13                             146     0.0 5  101 183 
                                                                                
