 2014  1 2 1318 33.3 L   6.816 -73.128147.6  RSN 18 0.5 2.5LRSN                1
 GAP= 71        1.00       2.8     3.3  5.2 -0.9828E+00  0.2694E+01  0.2241E+01E
 Epicentro: LOS SANTOS - SANTANDER                                             3
 ACTION:UPD 14-03-13 09:50 OP:ep   STATUS:               ID:20140102131833 L   I
 OLDACT:UP  14-01-02 20:16 OP:mh   STATUS:               ID:20140102131739     3
 OLDACT:UP  14-01-02 20:13 OP:mh   STATUS:               ID:20140102131739     3
 OLDACT:UP  14-01-02 20:12 OP:mh   STATUS:               ID:20140102131739     3
 OLDACT:UP  14-01-02 20:08 OP:mh   STATUS:               ID:20140102131739     3
 OLDACT:REG 14-01-02 20:00 OP:mh   STATUS:               ID:20140102131739     3
 2014-01-02-1317-39M.COL___240                                                 6
 STAT SP IPHASW D HRMM SECON CODA AMPLIT PERI AZIMU VELO AIN AR TRES W  DIS CAZ7
 BAR2 SZ EP     C 1318 53.17                             170   -0.0010 25.5 194 
 BAR2 SZ ES   1   1319  8.87                             170    0.18 7 25.5 194 
 BAR2 SZ I        1319  9.38        85.0 0.24            169           25.5 194 
 BRR  HZ EP     C 1318 55.02                             153    0.3410 72.1 297 
 BRR  HN ES       1319 11.93                             153    0.5610 72.1 297 
 BRR  HZ I        1319 15.98        36.3 0.08            154           72.1 297 
 PAM  SZ EP     C 1318 55.93                             152    0.4010 74.8  39 
 PAM  SN ES   1   1319 13.24                             152    0.34 7 74.8  39 
 PAM  SZ I        1319 15.32        49.7 0.21            151           74.8  39 
 RUS  HZ EP       1318 57.00                             144   -0.3310  102 177 
 RUS  HN ES   1   1319 15.34                             144   -0.74 7  102 177 
 RUS  HZ I        1319 17.34        23.8 0.33            143            102 177 
 PTB  HZ EP   1   1318 59.79                             132   -0.81 7  150 258 
 PTB  HN ES   1   1319 21.32                             132   -0.59 7  150 258 
 PTB  HZ I        1319 27.04        41.8 0.15            132            150 258 
 TAM  HZ EP       1319  1.27                             131    0.30 9  154 106 
 TAM  HZ I        1319 22.13        24.3 0.42            130            154 106 
 TAM  HN ES   2   1319 22.34                             131   -0.23 5  154 106 
 OCA  HZ EP       1319  0.92                             130   -0.67 9  159 352 
 OCA  HN ES       1319 23.47                             130   -0.20 9  159 352 
 SPBC HZ EP       1319  2.06                             129   -0.10 9  166 219 
 SPBC HN ES       1319 24.39                             129   -0.30 9  166 219 
 SPBC HZ I        1319 29.34        59.8 0.20            129            166 219 
 ZAR  HZ EP       1319  5.34                             123   -0.62 8  205 291 
 ZAR  HN ES       1319 31.89                             123    0.43 8  205 291 
 ZAR  HZ I        1319 37.54        43.2 0.32            123            205 291 
 NOR  HZ EP   1   1319  9.11                             119   -0.28 6  237 234 
 NOR  HN ES   1   1319 37.37                             119   -0.19 6  237 234 
 NOR  HZ I        1319 41.13        22.6 0.23            118            237 234 
 SML  HZ EP       1319  9.46                             118   -0.46 8  243 335 
 SML  HN ES   1   1319 38.14                             118   -0.37 6  243 335 
 SML  HZ I        1319 42.35        81.3 0.08            118            243 335 
 CHI  HZ EP     C 1319 11.16                             117   -0.16 8  251 195 
 CHI  HN ES   2   1319 40.63                             117   -0.36 4  251 195 
 CHI  HZ I        1319 46.53        12.6 0.26            117            251 195 
 ROSC BZ EP       1319 12.78                             117    1.01 8  255 211 
 ROSC BN ES   4   1319 44.31                             117    2.51 0  255 211 
 HEL  HZ EP       1319 14.85                             115    1.01 8  274 256 
 HEL  HN ES       1319 45.56                             115    0.08 8  274 256 
 HEL  HZ I        1319 52.04        13.7 0.33            115            274 256 
 URE  HZ EP   4   1319 12.55                             114   -2.02 0  285 291 
 URE  HN ES   4   1319 43.23                             114   -3.54 0  285 291 
 GUY2CHZ EP   1   1319 17.60                             112    0.33 5  304 235 
 GUY2CHN ES   4   1319 55.60                             112    4.02 0  304 235 
 GUY2CHZ I        1320  0.03        20.8 0.35                           304 235 
 RREF HZ EP   4   1319 21.10                             111    1.30 0  324 229 
 RREF HN ES   4   1319 58.35                             111    2.26 0  324 229 
 CBOC HZ EP       1319 20.81                             110    0.27 7  336 252 
 CBOC HN ES   2   1319 56.80                             110   -0.61 3  336 252 
 DBB  SZ EP   2   1319 21.03                             110   -0.01 3  341 274 
 COD  HZ EP   4   1319 20.49                             109   -1.05 0  347 354 
 COD  HN ES   4   1319 58.07                             109   -1.12 0  347 354 
 ORTC HZ EP   1   1319 27.39                             107   -0.17 4  398 216 
 ORTC HN ES       1320 10.57                             107    0.67 6  398 216 
 SJC  HZ EP   4   1319 26.54                             106   -2.31 0  409 327 
 SJC  HN ES   4   1320  8.18                             106   -4.02 0  409 327 
                                                                                
