 2016  5 2 1722  4.9 L   6.809 -73.170139.8  RSN 15 0.4 2.3LRSN                1
 GAP=133        0.85       3.0     3.4  5.3 -0.2279E+01  0.6969E+01  0.1904E+00E
 Epicentro: LOS SANTOS - SANTANDER                                             3
 ACTION:UPD 16-08-18 17:41 OP:cam  STATUS:               ID:20160502172204 L   I
 OLDACT:UP  16-05-15 07:30 OP:ar   STATUS:               ID:20160502172204 L   3
 OLDACT:REG 16-05-02 21:20 OP:dnl  STATUS:               ID:20160502171743     3
 2016-05-02-1717-43M.COL___295                                                 6
 STAT SP IPHASW D HRMM SECON CODA AMPLIT PERI AZIMU VELO AIN AR TRES W  DIS CAZ7
 BAR2 EZ EP       1722 23.81                             170   -0.0110 24.0 183 
 BAR2 EZ ES       1722 38.73                             170    0.1410 24.0 183 
 BAR2 EZ I        1722 42.35        32.6 0.12            166           24.0 183 
 PAM  EZ IP     C 1722 26.47                             149   -0.0710 78.4  42 
 PAM  EN ES       1722 43.56                             149    0.1410 78.4  42 
 PAM  EZ I        1722 45.30        36.2 0.16            156           78.4  42 
 RUS  HZ EP       1722 27.92                             142   -0.2410  102 175 
 RUS  HE ES       1722 46.34                             142    0.0410  102 175 
 RUS  HZ I        1722 48.51        14.9 0.21            144            102 175 
 PTB  HZ EP       1722 30.39                             131   -0.77 9  145 258 
 PTB  HN ES       1722 51.13                             131   -0.51 9  145 258 
 PTB  HZ I        1722 55.11        26.4 0.24            130            145 258 
 SPBC HZ EP       1722 32.63                             128   -0.23 9  162 218 
 SPBC HN ES       1722 54.80                             128    0.13 9  162 218 
 SPBC HZ I        1723  0.99        33.6 0.24            128            162 218 
 ZAR  HZ EP       1722 36.97                             121    0.31 9  201 292 
 ZAR  HN ES       1723  1.98                             121    0.55 9  201 292 
 ZAR  HZ I        1723  7.61        30.7 0.36            121            201 292 
 NOR  HZ EP   2   1722 39.44                             117   -0.67 4  233 234 
 NOR  HN ES       1723  7.25                             117   -0.33 8  233 234 
 NOR  HZ I        1723 14.75        16.2 0.34            118            233 234 
 CHI  HZ EP   2   1722 42.54                             116    0.24 4  249 195 
 CHI  HN ES       1723 11.90                             116    0.42 8  249 195 
 CHI  HZ I        1723 14.78         8.4 0.26            117            249 195 
 ROSC BZ EP   9   1722 44.58                             115    1.94 0  252 210 
 ROSC BE ES       1723 13.56                             115   -0.46 8  252 210 
 ROSC BZ I        1723 19.29        24.2 0.35            116            252 210 
 HEL  HZ EP   4   1722 46.28                             114    1.74 0  270 255 
 HEL  HE ES   4   1723 19.01                             114    3.54 0  270 255 
 HEL  HZ I        1723 23.35        13.5 0.40            114            270 255 
 URE  HZ EP   4   1722 47.56                             113    2.21 0  281 292 
 URE  HE ES   4   1723 14.82                             113   -2.09 0  281 292 
 URE  HZ I        1723 27.78        16.9 0.16            113            281 292 
 ELA  HZ EP   4   1722 53.89                             109    2.55 0  328 229 
 ELA  HN ES       1723 28.31                             109    0.74 7  328 229 
 ELA  HZ I        1723 38.41         7.1 0.52            110            328 229 
 DBB  SZ EP   2   1722 52.34                             108    0.53 3  337 274 
 DBB  SZ ES   4   1723 25.77                             108   -2.64 0  337 274 
 ORTC HZ EP       1722 59.17                             105    0.64 6  395 216 
 ORTC HN ES   2   1723 40.30                             105   -0.06 3  395 216 
 ORTC HZ I        1723 44.88         6.1 0.25            107            395 216 
 SJC  HZ EP   4   1722 58.05                             105   -1.94 0  407 327 
 SJC  HN ES   4   1723 38.91                             105   -4.05 0  407 327 
 SJC  HZ I        1723 42.14         4.0 0.54            106            407 327 
                                                                                
