 2017  2 2 1714 14.5 L   6.808 -73.311118.5  RSN  5 0.4 1.6LRSN                1
 GAP=203        0.79       7.2     7.4  7.9  0.4197E+02  0.2022E+02  0.1014E+02E
 Epicentro: ZAPATOCA - SANTANDER                                               3
 ACTION:UPD 17-05-24 15:32 OP:jn   STATUS:               ID:20170202171414 L   I
 OLDACT:REG 17-02-02 20:35 OP:dnl  STATUS:               ID:20170202170740     3
 2017-02-02-1708-00M.COL___334                                                 6
 STAT SP IPHASW D HRMM SECON CODA AMPLIT PERI AZIMU VELO AIN AR TRES W  DIS CAZ7
 BAR2 EZ EP       1714 30.85                             166   -0.1710 27.8 149 
 BAR2 EZ ES       1714 43.99                             166    0.1110 27.8 149 
 BAR2 EZ I        1714 45.02        21.8 0.24            172           27.8 149 
 BRR  HZ EP   2   1714 31.19                             153   -0.65 5 55.3 307 
 BRR  HE ES       1714 45.22                             153   -0.1210 55.3 307 
 BRR  HZ I        1714 51.15        12.3 0.60            151           55.3 307 
 RUS  HZ EP   2   1714 35.60                             136   -0.44 5  104 166 
 RUS  HN ES       1714 53.08                             136    0.2810  104 166 
 PTB  HZ EP   4   1714 36.07                             129   -1.64 0  130 257 
 PTB  HN ES   2   1714 54.72                             129   -1.06 5  130 257 
 PTB  HZ I        1714 58.34         3.4 0.42            130            130 257 
 ZAR  HZ EP   2   1714 43.71                             118    0.21 4  187 294 
 ZAR  HE ES       1715  6.59                             118    0.50 9  187 294 
 ZAR  HZ I        1715 11.08         3.2 0.26            120            187 294 
                                                                                
