 2012  5 2 1858 16.6 L   6.770 -73.143150.1  RSN  7 0.4 2.1LRSN                1
 GAP=235        1.04       7.4     9.0  8.6  0.3657E+02  0.2155E+02  0.1143E+02E
 Epicentro: LOS SANTOS - SANTANDER                                             3
 ACTION:UP  12-07-05 12:01 OP:pat  STATUS:               ID:20120502185816 L   I
 2012-05-02-1850-00M.COL___186                                                 6
 STAT SP IPHASW D HRMM SECON CODA AMPLIT PERI AZIMU VELO SNR AR TRES W  DIS CAZ7
 BAR2 SZ EP   1   1858 36.55                             172    -0.1 8   20 193 
 BAR2 SZ I        1858 36.78        19.0 0.23                            20 193 
 BAR2 SZ ES   1   1858 51.92                             172    -0.4 8   20 193 
 BRR  HZ EP   1   1858 38.47                             153     0.2 8   73 301 
 BRR  HE ES   1   1858 56.06                             153     0.8 8   73 301 
 BRR  HZ I        1858 58.13        24.7 0.13                            73 301 
 RUS  HZ EP   1   1858 40.32                             146    -0.2 8   97 176 
 RUS  HN ES   1   1858 59.40                             146     0.2 8   97 176 
 RUS  HZ I        1859  0.88        12.5 0.47                            97 176 
 PTB  HZ EP       1858 43.32                             133    -0.610  147 260 
 PTB  HE ES   1   1859  4.75                             133    -0.4 7  147 260 
 PTB  HZ I        1859 10.37        15.3 0.45                           147 260 
 ZAR  HZ EP   1   1858 49.74                             123     0.3 7  206 293 
 ZAR  HN ES   1   1859 14.87                             123    -0.3 7  206 293 
 ZAR  HZ I        1859 20.97        20.0 0.40                           206 293 
 CHI  HZ EP   1   1858 54.14                             118    -0.1 6  246 195 
 CHI  HN ES   1   1859 24.04                             118     0.5 6  246 195 
 CHI  HZ I        1859 29.82         5.7 0.38                           246 195 
 HEL  HZ EP   1   1858 57.85                             116     0.9 6  272 256 
                                                                                
