 2012  2 2 1628 47.9 L   6.784 -73.138138.7  RSN 15 0.4 3.1LRSN                1
 GAP=115        0.78       2.6     2.8  4.1 -0.2105E+00  0.3192E+01  0.2776E+01E
 ACTION:UP  12-03-07 16:27 OP:epov STATUS:               ID:20120202162847 L   I
 2012-02-02-1624-39S.COL___160                                                 6
 STAT SP IPHASW D HRMM SECON CODA AMPLIT PERI AZIMU VELO SNR AR TRES W  DIS CAZ7
 BAR2 SZ IP       1629  6.81                             171    0.1210 21.8 193 
 BAR2 SZ ES       1629 21.25                             171   -0.0710 21.8 193 
 BAR2 SZ I        1629 22.90       308.8 0.30                          21.8 193 
 GIR2 SZ EP       1629  6.79                             166   -0.0410 33.2 349 
 BRR  HZ EP       1629  8.60                             151    0.1710 72.8 299 
 BRR  HN ES       1629 25.17                             151    0.7610 72.8 299 
 BRR  HZ I        1629 28.50       254.3 0.20                          72.8 299 
 PAM  SZ EP       1629  9.59                             149    0.1310 78.2  38 
 PAM  SN ES       1629 26.00                             149   -0.2510 78.2  38 
 RUS  HZ EP       1629 10.88                             143    0.0110 98.7 177 
 RUS  HN ES       1629 28.34                             143   -0.4110 98.7 177 
 RUS  HZ I        1629 31.36       179.0 0.26                          98.7 177 
 PTB  HN ES       1629 34.56                             130   -0.47 9  148 260 
 OCA  SZ EP   1   1629 16.21                             128    0.32 7  162 353 
 YOP  SZ EP   1   1629 17.28                             125   -0.01 7  177 153 
 YOP  SN ES   1   1629 40.50                             125    0.33 7  177 153 
 ZAR  HZ EP   1   1629 19.52                             121   -0.57 6  206 293 
 ZAR  HN ES   1   1629 44.56                             121   -0.61 6  206 293 
 ZAR  HZ I        1629 52.66       132.7 0.27                           206 293 
 NOR  SZ EP       1629 22.86                             117   -0.38 8  234 235 
 NOR  SE ES   1   1629 50.85                             117    0.08 6  234 235 
 CHI  HZ EP       1629 25.05                             116   -0.04 8  247 195 
 CHI  HE ES   1   1629 54.45                             116    0.37 6  247 195 
 CHI  HZ I        1629 58.42        44.7 0.31                           247 195 
 HEL  HZ EP       1629 27.95                             113    0.10 8  273 256 
 HEL  HN ES   1   1629 58.47                             113   -0.52 6  273 256 
 HEL  HZ I        1630  5.24        65.6 0.43                           273 256 
 GUY  SZ EP       1629 31.83                             111    0.36 7  303 235 
 GUY  SE ES   1   1630  6.23                             111    0.81 5  303 235 
 GUY  SZ I        1630 12.47        66.1 0.30                           303 235 
 RREF HZ EP   1   1629 33.78                             109    0.05 5  321 230 
 RREF HN ES   1   1630 10.10                             109    0.65 5  321 230 
 RREF HZ I        1630 18.94        45.1 0.20                           321 230 
 PRA  HZ EP       1629 40.77                             105   -0.33 6  391 210 
 PRA  HN ES   1   1630 22.18                             105   -0.38 4  391 210 
                                                                                
