 2017  4 2 1526  2.8 L   6.809 -73.173145.8  RSN 10 0.4 1.8LRSN                1
 GAP=133        0.85       3.3     3.4  5.5 -0.1185E+01  0.3756E+01  0.4885E+01E
 Epicentro: LOS SANTOS - SANTANDER                                             3
 ACTION:UPD 17-05-30 21:07 OP:jn   STATUS:               ID:20170402152602 L   I
 OLDACT:UP  17-04-02 23:29 OP:dnl  STATUS:               ID:20170402151739     3
 OLDACT:REG 17-04-02 22:10 OP:dnl  STATUS:               ID:20170402151739     3
 2017-04-02-1518-00M.COL___374                                                 6
 STAT SP IPHASW D HRMM SECON CODA AMPLIT PERI AZIMU VELO AIN AR TRES W  DIS CAZ7
 BAR2 EZ EP       1526 22.24                             170   -0.2110 23.9 182 
 BAR2 EZ ES       1526 37.42                             170   -0.3610 23.9 182 
 BAR2 EZ I        1526 39.98        18.0 0.28            168           23.9 182 
 BRR  HZ EP   2   1526 24.13                             154    0.35 5 68.1 299 
 BRR  HE ES       1526 40.84                             154    0.6910 68.1 299 
 PAM  EZ EP       1526 25.18                             150    0.0810 78.7  42 
 PAM  EN ES       1526 42.33                             150   -0.1610 78.7  42 
 PAM  EZ I        1526 44.57        11.5 0.74            154           78.7  42 
 RUS  HZ EP       1526 26.39                             143   -0.2510  102 174 
 RUS  HN ES       1526 45.66                             143    0.4210  102 174 
 RUS  HZ I        1526 46.07         7.5 0.36            143            102 174 
 PTB  HZ EP   2   1526 29.12                             133   -0.40 5  145 258 
 PTB  HN ES       1526 49.55                             133   -0.81 9  145 258 
 PTB  HZ I        1526 50.98         6.1 0.16            131            145 258 
 SPBC HZ EP       1526 31.13                             129   -0.06 9  162 218 
 SPBC HE ES       1526 53.41                             129    0.07 9  162 218 
 SPBC HZ I        1526 59.40        10.4 0.28            128            162 218 
 ZAR  HZ EP   4   1526 37.75                             123    2.83 0  201 292 
 ZAR  HE ES       1527  0.07                             123    0.10 9  201 292 
 ZAR  HZ I        1527  7.28         4.3 0.40            122            201 292 
 NOR  HZ EP       1526 38.76                             119    0.44 8  233 234 
 NOR  HN ES       1527  6.14                             119    0.11 8  233 234 
 NOR  HZ I        1527 14.04         4.7 0.18            118            233 234 
 CHI  HZ EP   2   1526 40.50                             117   -0.01 4  249 194 
 CHI  HN ES       1527 10.00                             117    0.07 8  249 194 
 CHI  HZ I        1527 12.82         2.9 0.24            117            249 194 
 PRA  HZ EP   2   1526 56.30                             107    0.06 3  391 209 
 PRA  HE ES   4   1527 39.38                             107    1.45 0  391 209 
 PRA  HZ I        1527 44.53         2.2 0.36            107            391 209 
                                                                                
