 2013  2 2 1441  2.2 L   6.798 -73.125149.2  RSN 12 0.4 2.6LRSN                1
 GAP= 72        0.83       3.1     3.1  4.6 -0.5931E+00  0.2943E+01  0.2589E+01E
 Epicentro: LOS SANTOS - SANTANDER                                             3
 ACTION:UPD 13-03-12 09:29 OP:ep   STATUS:               ID:20130202144102 L   I
 2013-02-02-1440-00M.COL___241                                                 6
 STAT SP IPHASW D HRMM SECON CODA AMPLIT PERI AZIMU VELO AIN AR TRES W  DIS CAZ7
 BAR2 SZ IP       1441 22.19                             171   -0.0710 23.6 195 
 BAR2 SZ ES       1441 37.83                             171   -0.0710 23.6 195 
 BAR2 SZ I        1441 39.11        76.0 0.36            170           23.6 195 
 BRR  HZ EP       1441 24.15                             152    0.3010 73.3 298 
 BRR  HN ES       1441 41.38                             152    0.6510 73.3 298 
 BRR  HN I        1441 45.92        93.8 0.16            151           73.3 298 
 PAM  SZ EP       1441 25.03                             152    0.3010 76.1  38 
 PAM  SE ES       1441 41.93                             152   -0.3510 76.1  38 
 PAM  SZ I        1441 44.42        58.6 0.61            154           76.1  38 
 RUS  HZ EP       1441 26.03                             145   -0.2510  100 177 
 RUS  HN ES       1441 45.01                             145   -0.0410  100 177 
 RUS  HN I        1441 46.73        91.1 0.42            146            100 177 
 PTB  HZ EP       1441 29.12                             132   -0.54 9  150 259 
 PTB  HE ES   1   1441 50.69                             132   -0.37 7  150 259 
 PTB  HZ I        1441 52.33        48.1 0.13            132            150 259 
 TAM  HZ EP       1441 30.35                             132    0.39 9  153 105 
 TAM  HZ I        1441 30.67        87.9 0.38            135            153 105 
 OCA  HN ES   2   1441 52.30                             130   -0.87 5  161 352 
 ZAR  HZ EP   1   1441 34.94                             123   -0.17 6  206 292 
 ZAR  HE ES   1   1442  0.65                             123   -0.11 6  206 292 
 ZAR  HZ I        1442  6.79        27.6 0.42            123            206 292 
 NOR  HZ EP       1441 38.31                             119   -0.02 8  236 235 
 NOR  HN ES       1442  6.52                             119    0.02 8  236 235 
 NOR  HZ I        1442  8.53        23.6 0.30            120            236 235 
 CHI  HZ EP       1441 40.29                             118    0.14 8  249 196 
 CHI  HN ES       1442  9.60                             118   -0.13 8  249 196 
 CHI  HN I        1442 14.98        27.8 0.54            119            249 196 
 HEL  HZ EP   1   1441 43.69                             115    0.85 6  274 256 
 HEL  HN ES   1   1442 14.81                             115    0.28 6  274 256 
 HEL  HZ I        1442 20.52        17.4 0.32            116            274 256 
 URE  HZ EP   1   1441 42.96                             114   -0.74 6  286 292 
                                                                                
