 2016  9 2 1032 24.7 L   6.889 -73.138143.2  RSN  4 0.2 1.1LRSN                1
 GAP=282        0.67       6.0     4.5  5.9  0.2955E+01  0.5341E+01 -0.5693E+01E
 Epicentro: PIEDECUESTA - SANTANDER                                            3
 ACTION:UPD 17-08-17 21:05 OP:lp   STATUS:               ID:20160902103224 L   I
 OLDACT:UP  16-09-02 23:31 OP:edw  STATUS:               ID:20160902102731d    3
 OLDACT:DUP 16-09-02 23:08 OP:edw  STATUS:               ID:20160902102731d    3
 OLDACT:UP  16-09-02 23:03 OP:edw  STATUS:               ID:20160902102730     3
 OLDACT:UP  16-09-02 23:02 OP:edw  STATUS:               ID:20160902102730     3
 OLDACT:REG 16-09-02 20:30 OP:edw  STATUS:               ID:20160902102730     3
 2016-09-02-1028-00M.COL___358                                                 6
 STAT SP IPHASW D HRMM SECON CODA AMPLIT PERI AZIMU VELO AIN AR TRES W  DIS CAZ7
 BAR2 EZ EP       1032 43.79                             166   -0.4810 33.1 189 
 BAR2 EZ ES       1032 59.74                             166    0.2110 33.1 189 
 BAR2 EZ I        1033  2.42         3.0 0.32            168           33.1 189 
 RUS  HZ EP       1032 49.27                             141    0.3310  110 177 
 RUS  HN ES       1033  7.74                             141   -0.1010  110 177 
 RUS  HZ I        1033 10.14         1.5 0.38            143            110 177 
 PTB  HZ EP       1032 51.74                             131   -0.01 9  151 255 
 PTB  HN ES       1033 12.92                             131    0.08 9  151 255 
 PTB  HZ I        1033 15.08         1.4 0.12            133            151 255 
 SPBC HZ EP       1032 54.01                             127    0.20 9  171 217 
 SPBC HN ES       1033 16.30                             127   -0.21 9  171 217 
                                                                                
