 2011 12 2 1300 58.3 L   6.784 -73.091150.0  RSN  5 0.2 1.3LRSN                1
 GAP=144        0.54       4.1     5.4  5.9 -0.1479E+01 -0.2788E+01  0.5267E+01E
 Epicentro: LOS SANTOS - SANTANDER                                             3
 ACTION:UPD 12-07-13 16:13 OP:ep   STATUS:               ID:20111202130058 L   I
 2011-12-02-1300-00M.COL___180                                                 6
 STAT SP IPHASW D HRMM SECON CODA AMPLIT PERI AZIMU VELO AIN AR TRES W  DIS CAZ7
 BAR2 SZ EP       13 1 18.19                             171   -0.2110 23.5 206 
 BAR2 SZ I        13 1 18.79         5.5 0.10                          23.5 206 
 BAR2 SZ ES   2   13 1 33.91                             171   -0.20 5 23.5 206 
 GIR2 SZ EP       13 1 18.69                             166    0.1710 34.5 341 
 PAM  SZ EP       13 1 21.04                             152    0.2510 75.1  35 
 PAM  SN ES   1   13 1 38.10                             152   -0.26 7 75.1  35 
 BRR  HZ EP       13 1 20.13                             151   -0.0910 77.4 298 
 BRR  HE ES   1   13 1 37.44                             151    0.10 7 77.4 298 
 RUS  HZ EP       13 1 22.15                             145   -0.1410 98.6 180 
 RUS  HZ I        13 1 23.16         2.5 0.22                          98.6 180 
 RUS  HE ES   2   13 1 41.63                             145    0.60 5 98.6 180 
                                                                                
