 2010  7 2 1412 27.1 L   6.793 -73.096144.5  RSN  7 0.4 1.9LRSN                1
 GAP=164        0.61       3.4     6.4  6.1 -0.3953E+01 -0.3853E+00  0.3390E+01E
 Epicentro: LOS SANTOS - SANTANDER                                             3
 ACTION:UPD 10-12-01 15:14 OP:pat  STATUS:               ID:20100702141227 L   I
 2010-07-02-1408-25S.COL___118                                                 6
 STAT SP IPHASW D HRMM SECON CODA AMPLIT PERI AZIMU VELO AIN AR TRES W  DIS CAZ7
 BAR2 SZ EP   1   1412 46.50                             170    -0.1 7   24 204 
 BAR2 SZ ES   2   1413  1.34                             170    -0.5 5   24 204 
 BRR  HZ EP   1   1412 48.34                             151    -0.1 7   76 297 
 BRR  HE ES   1   1413  5.19                             151     0.1 7   76 297 
 BRR  HZ I        1413  8.96        13.7 0.45                            76 297 
 RUS  HZ EP   1   1412 50.53                             144    -0.1 7  100 179 
 RUS  HZ I        1412 52.22         4.2 0.30                           100 179 
 RUS  HE ES   1   1413  9.61                             144     0.6 7  100 179 
 GRA  SZ EP   1   1412 52.20                             137     0.0 7  125  15 
 GRA  SZ ES   2   1413 11.87                             137     0.1 5  125  15 
 CHI  HZ EP   2   1413  4.88                             117     0.0 4  249 196 
 CHI  HE ES   2   1413 33.21                             117    -1.0 4  249 196 
 CHI  HZ I        1413 37.73         5.8 0.51                           249 196 
 RREF HZ EP   2   1413 13.78                             111     0.1 3  325 230 
 RREF HE ES   2   1413 50.13                             111     0.2 3  325 230 
 RREF HZ I        1413 58.19         4.1 0.45                           325 230 
 PRA  HZ EP   2   1413 20.65                             106    -0.2 3  394 210 
 PRA  HE ES   2   1414  3.21                             106     0.5 3  394 210 
 PRA  HZ I        1414  7.24         4.6 0.63                           394 210 
                                                                                
