 2017  3 2 1340  2.3 L   6.721 -73.232137.5  RSN  4 0.2 1.0LRSN                1
 GAP=224        0.47       5.2     4.1  4.6  0.1562E+02  0.5862E+01  0.1134E+01E
 Epicentro: VILLANUEVA - SANTANDER                                             3
 ACTION:UPD 17-05-25 18:35 OP:jn   STATUS:               ID:20170302134002 L   I
 OLDACT:REG 17-03-02 20:22 OP:lv   STATUS:               ID:20170302132839     3
 2017-03-02-1338-00M.COL___391                                                 6
 STAT SP IPHASW D HRMM SECON CODA AMPLIT PERI AZIMU VELO AIN AR TRES W  DIS CAZ7
 BAR2 EZ ES       1340 35.14                             173   -0.0510 15.3 159 
 BAR2 EZ I        1340 35.92         3.4 0.22            169           15.3 159 
 RUS  HZ EP       1340 24.46                             144   -0.2010 93.1 170 
 RUS  HN ES       1340 42.32                             144    0.1810 93.1 170 
 RUS  HZ I        1340 44.80         1.3 0.30            143           93.1 170 
 PTB  HZ EP       1340 27.73                             132    0.16 9  137 262 
 PTB  HN ES       1340 47.15                             132   -0.17 9  137 262 
 PTB  HZ I        1340 49.17         1.6 0.07            132            137 262 
 ZAR  HN ES       1340 58.22                             121    0.10 9  199 295 
                                                                                
