 2014  1 2 1714 41.5 L   6.788 -73.160149.3  RSN  8 0.3 1.7LRSN                1
 GAP=135        0.60       3.1     4.3  5.2 -0.6455E+00  0.6698E+01 -0.2478E+01E
 Epicentro: LOS SANTOS - SANTANDER                                             3
 ACTION:UPD 14-03-13 09:50 OP:ep   STATUS:               ID:20140102171441 L   I
 OLDACT:UP  14-01-02 19:25 OP:mher STATUS:               ID:20140102171000     3
 OLDACT:REG 14-01-02 15:42 OP:mh   STATUS:               ID:20140102171000     3
 2014-01-02-1710-00M.COL___285                                                 6
 STAT SP IPHASW D HRMM SECON CODA AMPLIT PERI AZIMU VELO AIN AR TRES W  DIS CAZ7
 BAR2 SZ EP       1715  1.56                             171    0.0310 21.8 186 
 BAR2 SZ ES   1   1715 17.11                             171   -0.04 7 21.8 186 
 BAR2 SZ I        1715 17.92        23.0 0.13            172           21.8 186 
 BRR  HZ EP       1715  3.21                             153    0.2210 70.5 300 
 BRR  HN ES   2   1715 20.04                             153    0.28 5 70.5 300 
 BRR  HZ I        1715 23.79        13.1 0.27            152           70.5 300 
 PAM  SZ EP       1715  4.52                             150    0.3110 79.4  40 
 PAM  SN ES   2   1715 21.74                             150   -0.19 5 79.4  40 
 PAM  SZ I        1715 24.30         5.2 0.27            154           79.4  40 
 RUS  HZ EP       1715  5.53                             145    0.0110 99.4 175 
 RUS  HN ES   1   1715 23.96                             145   -0.29 7 99.4 175 
 RUS  HZ I        1715 25.36         5.6 0.29            148           99.4 175 
 PTB  HZ EP   1   1715  8.12                             133   -0.48 7  146 259 
 PTB  HN ES   2   1715 29.19                             133   -0.54 5  146 259 
 NOR  HZ EP       1715 17.07                             119   -0.14 8  233 234 
 NOR  HN ES   2   1715 46.16                             119    1.09 4  233 234 
 NOR  HZ I        1715 48.54         4.9 0.16            122            233 234 
 SML  HZ EP   1   1715 18.14                             118   -0.24 6  244 336 
 SML  HN ES   1   1715 47.00                             118   -0.16 6  244 336 
 GUY2CHZ EP   4   1715 26.97                             113    1.93 0  299 235 
 GUY2CHN ES   4   1716  1.91                             113    2.91 0  299 235 
 GUY2CHZ I        1716  6.97         2.5 0.21                           299 235 
 SJC  HZ EP   4   1715 35.43                             106   -1.78 0  409 327 
 SJC  HN ES   4   1716 19.08                             106   -1.58 0  409 327 
                                                                                
