 2012  2 2 1133  3.7 L   6.564 -73.457114.2  RSN 11 0.4 1.9LRSN                1
 GAP= 67        0.81       2.9     3.5  5.9  0.3053E+00  0.8773E+01  0.6411E+01E
 ACTION:UP  12-03-07 16:26 OP:epov STATUS:               ID:20120202113303 L   I
 2012-02-02-1130-00M.COL___187                                                 6
 STAT SP IPHASW D HRMM SECON CODA AMPLIT PERI AZIMU VELO SNR AR TRES W  DIS CAZ7
 BAR2 SZ IP       1133 19.92                             164    0.1610 30.6  84 
 BAR2 SZ ES   1   1133 32.58                             164    0.29 7 30.6  84 
 BAR2 SZ I        1133 33.89        29.2 0.19                          30.6  84 
 GIR2 SZ EP       1133 21.26                             149    0.0010 64.0  27 
 GIR2 SZ ES   1   1133 34.89                             149   -0.07 7 64.0  27 
 BRR  HZ EP       1133 21.36                             148    0.1510 66.3 335 
 BRR  HZ I        1133 31.74        22.9 0.17                          66.3 335 
 BRR  HE ES       1133 35.25                             148    0.3810 66.3 335 
 RUS  HZ EP       1133 23.19                             141   -0.0510 85.0 151 
 RUS  HE ES       1133 38.15                             141   -0.3310 85.0 151 
 RUS  HZ I        1133 40.32        12.8 0.22                          85.0 151 
 PTB  HZ EP       1133 23.83                             133   -0.8910  111 269 
 PAM  SZ EP   1   1133 26.45                             130    0.24 7  120  44 
 PAM  SN ES   1   1133 43.61                             130   -0.16 7  120  44 
 ZAR  HE ES   1   1133 54.17                             117   -0.42 7  186 304 
 NOR  SZ EP   1   1133 32.98                             116    0.00 7  191 235 
 NOR  SE ES   1   1133 55.99                             116    0.18 7  191 235 
 CHI  HZ EP       1133 36.50                             113    0.34 8  216 188 
 CHI  HE ES   2   1134  0.81                             113   -0.67 4  216 188 
 CHI  HZ I        1134  6.54         6.0 0.42                           216 188 
 RREF HZ EP   1   1133 44.30                             107    0.69 6  279 229 
 RREF HE ES   1   1134 15.25                             107    0.51 6  279 229 
 RREF HZ I        1134 22.52         5.7 0.34                           279 229 
 PRA  HZ EP   1   1133 51.61                             102   -0.01 5  353 207 
                                                                                
