 2010  1 2 1302  9.5 L   6.822 -73.052144.7  RSN  5 0.5 1.8LRSN                1
 GAP=208        0.77       5.9    27.7  9.4 -0.8311E+02  0.8269E+02  0.4546E+01E
 Epicentro: LOS SANTOS - SANTANDER                                             3
 ACTION:UP  10-08-24 09:42 OP:vdl  STATUS:               ID:20100102130209 L   I
 2010-01-02-1300-30S.COL___096                                                 6
 STAT SP IPHASW D HRMM SECON CODA AMPLIT PERI AZIMU VELO AIN AR TRES W  DIS CAZ7
 BAR2 SZ IP       13 2 29.31                             168     0.110   29 210 
 BAR2 SZ ES   2   13 2 44.28                             168    -0.2 5   29 210 
 GIR2 SZ EP   1   13 2 29.10                             167     0.0 7   32 331 
 GIR2 SZ ES   2   13 2 44.19                             167    -0.2 5   32 331 
 OCA  SZ EP   1   13 2 38.07                             130     0.4 7  159 349 
 OCA  SZ ES   2   13 2 59.36                             130    -0.3 5  159 349 
 CHI  HZ EP   1   13 2 47.50                             117    -0.2 6  254 197 
 CHI  HE ES   2   13 3 18.44                             117     0.9 4  254 197 
 CHI  HZ I        13 3 23.77         2.1 0.47                           254 197 
 PRA  HZ EP   1   13 3  2.49                             106    -1.4 4  399 211 
 PRA  HE ES   2   13 3 46.96                             106     0.7 3  399 211 
 PRA  HZ I        13 3 51.61         3.1 0.22                           399 211 
                                                                                
