 2012  7 2 1144 55.2 L   6.725 -73.184149.6  RSN  6 0.3 1.6LRSN                1
 GAP=227        0.77       5.9     5.7  7.2  0.1179E+02  0.1096E+02 -0.5713E+00E
 Epicentro: VILLANUEVA - SANTANDER                                             3
 ACTION:UPD 12-08-14 11:42 OP:ep   STATUS:               ID:20120702114455 L   I
 2012-07-02-1140-00M.COL___201                                                 6
 STAT SP IPHASW D HRMM SECON CODA AMPLIT PERI AZIMU VELO AIN AR TRES W  DIS CAZ7
 BAR2 SZ EP   1   1145 14.93                             174    -0.3 8   15 179 
 BAR2 SZ ES   1   1145 30.43                             174    -0.3 8   15 179 
 BRR  HZ EP   1   1145 16.95                             153     0.1 8   72 306 
 BRR  HN ES   1   1145 34.34                             153     0.6 8   72 306 
 BRR  HZ I        1145 35.91         8.8 0.14            150             72 306 
 RUS  HZ EP   1   1145 19.05                             147     0.2 8   93 173 
 RUS  HN ES   1   1145 37.30                             147     0.1 8   93 173 
 RUS  HZ I        1145 40.79         4.5 0.56            148             93 173 
 PTB  HZ EP       1145 21.83                             134    -0.210  142 262 
 PTB  HN ES   1   1145 42.37                             134    -0.5 7  142 262 
 PTB  HZ I        1145 50.76         6.3 0.38            132            142 262 
 ZAR  HZ EP   1   1145 27.97                             123     0.1 7  203 295 
 ZAR  HE ES   1   1145 53.21                             123    -0.1 7  203 295 
 ZAR  HZ I        1146  0.87         5.3 0.29            124            203 295 
 NOR  SE ES   1   1145 58.14                             120     0.5 7  226 236 
