 2014  7 2 1041 19.9 L   6.824 -73.169138.0  RSN 22 0.4 2.4LRSN                1
 GAP=132        0.95       2.3     3.4  5.0 -0.2492E+01  0.7781E+01 -0.9193E+00E
 Epicentro: LOS SANTOS - SANTANDER                                             3
 ACTION:UPD 15-03-16 20:40 OP:nd   STATUS:               ID:20140702104119 L   I
 OLDACT:REG 14-07-02 20:03 OP:spq  STATUS:               ID:20140702103816     3
 2014-07-02-1038-16M.COL___241                                                 6
 STAT SP IPHASW D HRMM SECON CODA AMPLIT PERI AZIMU VELO AIN AR TRES W  DIS CAZ7
 BAR2 SZ IP     D 1041 38.87                             169    0.1810 25.6 183 
 BAR2 SZ ES   1   1041 52.95                             169   -0.36 7 25.6 183 
 BAR2 SZ I        1041 54.70        38.0 0.14            171           25.6 183 
 PAM  SZ EP       1041 41.39                             149    0.0710 77.1  42 
 PAM  SN ES       1041 58.09                             149    0.1010 77.1  42 
 PAM  SZ I        1042  0.76        88.7 0.54            147           77.1  42 
 RUS  HZ EP       1041 43.66                             141    0.5110  103 175 
 RUS  HN ES       1042  1.26                             141    0.0110  103 175 
 RUS  HZ I        1042  2.56        27.4 0.28            142            103 175 
 PTB  HZ EP       1041 45.54                             131   -0.56 9  146 258 
 PTB  HN ES       1042  7.34                             131    0.83 9  146 258 
 PTB  HZ I        1042  8.86        29.1 0.12            127            146 258 
 OCA  HZ EP       1041 47.16                             128   -0.22 9  157 354 
 OCA  HN ES       1042  8.12                             128   -0.66 9  157 354 
 OCA  HZ I        1042 12.58        29.4 0.34            125            157 354 
 SPBC HZ EP       1041 47.98                             127    0.08 9  164 218 
 SPBC HE ES       1042  9.76                             127    0.05 9  164 218 
 SPBC HZ I        1042 13.69        27.1 0.20            125            164 218 
 ZAR  HZ EP       1041 51.77                             121    0.23 9  201 292 
 ZAR  HN ES       1042 16.76                             121    0.57 9  201 292 
 ZAR  HZ I        1042 25.17        28.0 0.26            118            201 292 
 SML  HZ EP       1041 55.13                             116   -0.64 8  240 336 
 SML  HZ I        1042 31.22        30.2 0.09            113            240 336 
 ROSC BZ EP   4   1041 59.08                             115    1.32 0  254 210 
 ROSC BN ES       1042 26.36                             115   -0.89 8  254 210 
 ROSC BZ I        1042 33.87        13.1 0.30            113            254 210 
 HEL  HZ EP       1042  0.14                             113    0.57 8  270 255 
 HEL  HN ES       1042 30.43                             113   -0.04 8  270 255 
 HEL  HZ I        1042 35.80         7.3 0.32            111            270 255 
 URE  HZ EP       1042  0.20                             112   -0.07 7  280 292 
 URE  HN ES   4   1042 29.71                             112   -2.01 0  280 292 
 URE  HZ I        1042 32.70        21.2 0.14            110            280 292 
 GUY2CHZ EP       1042  3.15                             111    0.01 7  301 234 
 GUY2CHN ES       1042 36.20                             111   -0.63 7  301 234 
 GUY2CHZ I        1042 46.49         9.3 0.58                           301 234 
 PTGC HZ EP   4   1042  2.18                             110   -1.67 0  312 158 
 PTGC HN ES   4   1042 34.21                             110   -3.89 0  312 158 
 PTGC HZ I        1042 37.26        34.3 0.34            109            312 158 
 RREF HZ EP       1042  5.98                             109    0.25 7  322 229 
 RREF HN ES       1042 41.70                             109    0.25 7  322 229 
 RREF HZ I        1042 46.58         7.8 0.28            108            322 229 
 CBOC HZ EP       1042  6.34                             109   -0.02 7  332 252 
 CBOC HN ES       1042 41.96                             109   -0.60 7  332 252 
 CBOC HZ I        1042 54.80         3.2 0.52            106            332 252 
 DBB  SZ EP       1042  6.88                             108    0.08 7  337 274 
 DBB  SZ ES   1   1042 42.48                             108   -0.86 5  337 274 
 TOL  SZ EP       1042  8.73                             108    0.82 7  344 224 
 TOL  SN ES       1042 45.10                             108   -0.22 7  344 224 
 TOL  SZ I        1042 51.18        18.2 0.22            106            344 224 
 ARGC HZ EP       1042  9.61                             107    0.69 6  356 341 
 ARGC HN ES       1042 47.29                             107    0.16 6  356 341 
 ARGC HZ I        1042 55.57         8.4 0.32            105            356 341 
 ANIL HE ES       1042 48.39                             107    0.29 6  357 224 
 ANIL HZ I        1042 54.89        28.4 0.38            105            357 224 
 PRA  HZ EP       1042 12.63                             105   -0.70 6  393 209 
 PRA  HN ES       1042 54.74                             105   -0.23 6  393 209 
 PRA  HZ I        1043  1.89         8.0 0.30            104            393 209 
 ORTC HZ EP       1042 13.87                             105    0.19 6  396 216 
 ORTC HE ES       1042 55.36                             105   -0.24 6  396 216 
 ORTC HZ I        1043  1.92         5.7 0.30            103            396 216 
 SJC  HZ EP   4   1042 13.23                             105   -1.60 0  406 327 
 SJC  HN ES   4   1042 53.02                             105   -4.63 0  406 327 
 SJC  HZ I        1042 58.45         5.1 0.30            103            406 327 
                                                                                
