 2012  5 2 1218 44.5 L   6.810 -73.148145.2  RSN 15 0.4 2.6LRSN                1
 GAP=126        0.83       3.1     3.7  5.0 -0.2878E+01  0.4033E+01  0.1569E+01E
 Epicentro: LOS SANTOS - SANTANDER                                             3
 ACTION:UP  12-07-05 12:01 OP:pat  STATUS:               ID:20120502121844 L   I
 2012-05-02-1216-36M.COL___177                                                 6
 STAT SP IPHASW D HRMM SECON CODA AMPLIT PERI AZIMU VELO SNR AR TRES W  DIS CAZ7
 BAR2 SZ EP   1   1219  4.01                             170     0.013   24 189 
 BAR2 SZ ES   1   1219 18.78                             170    -0.513   24 189 
 BAR2 SZ I        1219 20.17       118.5 0.24                            24 189 
 BRR  HZ EP   1   1219  5.81                             153     0.313   70 298 
 BRR  HZ I        1219 22.45        80.1 0.18                            70 298 
 BRR  HE ES   1   1219 22.53                             153     0.613   70 298 
 PAM  SZ EP   1   1219  6.94                             151     0.413   77  40 
 PAM  SN ES   1   1219 23.86                             151     0.113   77  40 
 RUS  HZ EP   1   1219  8.04                             143    -0.213  102 176 
 RUS  HN ES   1   1219 27.16                             143     0.413  102 176 
 RUS  HZ I        1219 28.41        60.9 0.30                           102 176 
 PTB  HZ EP   1   1219 10.71                             132    -0.712  148 258 
 PTB  HN ES   1   1219 31.77                             132    -0.612  148 258 
 PTB  HZ I        1219 38.72        37.0 0.37                           148 258 
 ZAR  HZ EP   1   1219 17.17                             122     0.411  203 292 
 ZAR  HN ES   1   1219 41.89                             122    -0.111  203 292 
 ZAR  HZ I        1219 44.41        28.6 0.15                           203 292 
 NOR  SZ EP   1   1219 19.83                             118    -0.410  235 234 
 NOR  SN ES   1   1219 48.11                             118     0.010  235 234 
 CHI  HZ EP   1   1219 22.19                             117     0.010  250 195 
 CHI  HN ES   1   1219 51.44                             117    -0.310  250 195 
 CHI  HZ I        1219 55.80        27.5 0.56                           250 195 
 ROSC BZ EP   1   1219 23.39                             116     0.810  254 211 
 ROSC BE ES   1   1219 52.35                             116    -0.110  254 211 
 ROSC BZ I        1219 58.63        40.5 0.43                           254 211 
 HEL  HZ EP   1   1219 25.33                             115     0.710  272 256 
 HEL  HN ES   1   1219 55.78                             115    -0.210  272 256 
 HEL  HZ I        1220  2.19        23.9 0.29                           272 256 
 GUY  SZ EP   1   1219 28.80                             112     0.4 9  304 235 
 GUY  SE ES   1   1220  2.24                             112    -0.4 9  304 235 
 RREF HZ EP   1   1219 31.32                             111     0.7 9  322 229 
 RREF HN ES   1   1220  6.71                             111     0.1 9  322 229 
 RREF HZ I        1220 16.20        33.4 0.59                           322 229 
 COD  HZ EP   1   1219 31.92                             109    -0.8 8  347 355 
 COD  HN ES   1   1220 10.31                             109     0.0 8  347 355 
 SDV  BZ EP   1   1219 33.64                             108    -0.8 8  360  50 
 PRA  HZ EP       1219 37.82                             106    -0.210  393 209 
 PRA  HN ES   1   1220 19.83                             106     0.0 7  393 209 
                                                                                
