 2010  3 2 1843 59.8 L   6.772 -73.121151.8  RSN  6 0.4 2.1LRSN                1
 GAP=185        0.67       3.1     9.0  5.6  0.6202E+01  0.6086E+01  0.2326E+00E
 Epicentro: LOS SANTOS - SANTANDER                                             3
 ACTION:UP  10-08-24 09:51 OP:vdl  STATUS:               ID:20100302184401dL   I
 2010-03-02-1842-28S.COL___094                                                 6
 STAT SP IPHASW D HRMM SECON CODA AMPLIT PERI AZIMU VELO SNR AR TRES W  DIS CAZ7
 BAR2 SZ EP   1   1844 20.14                             172     0.0 7   21 199 
 BAR2 SZ ES   1   1844 35.54                             172    -0.5 7   21 199 
 BRR  HZ IP       1844 21.99                             152     0.110   75 300 
 BRR  HZ I        1844 22.20        51.9 0.17                            75 300 
 BRR  HN ES   1   1844 39.30                             152     0.3 7   75 300 
 RUS  BZ EP   1   1844 24.02                             146     0.1 7   97 178 
 RUS  BN ES       1844 42.85                             146     0.110   97 178 
 RUS  BZ I        1844 45.96         9.0 0.44                            97 178 
 OCA  SZ EP   1   1844 28.94                             130     0.0 7  164 352 
 OCA  SZ ES   1   1844 51.46                             130    -0.2 7  164 352 
 OCA  SZ I        1844 56.29        41.7 0.26                           164 352 
 CHI  HZ EP   1   1844 38.07                             118     0.4 6  246 196 
 CHI  HE ES   3   1845  8.33                             118     1.2 2  246 196 
 CHI  HZ I        1845 13.37         3.7 0.34                           246 196 
 PRA  HZ EP   2   1844 52.25                             107    -1.2 3  391 210 
 PRA  HE ES   1   1845 34.58                             107    -0.6 4  391 210 
                                                                                
