 2012  7 2 1016 37.6 L   6.755 -73.151138.0  RSN  6 0.4 1.8LRSN                1
 GAP=182        1.17       6.4     7.9  9.4  0.1434E+02  0.4646E+01 -0.1118E+02E
 Epicentro: LOS SANTOS - SANTANDER                                             3
 ACTION:UPD 12-08-14 11:42 OP:ep   STATUS:               ID:20120702101637 L   I
 2012-07-02-1010-00M.COL___201                                                 6
 STAT SP IPHASW D HRMM SECON CODA AMPLIT PERI AZIMU VELO AIN AR TRES W  DIS CAZ7
 BAR2 SZ EP       1016 56.42                             172     0.210   18 191 
 BAR2 SZ I        1016 56.84        13.5 0.14            170             18 191 
 BAR2 SZ ES   1   1017 10.04                             172    -0.7 7   18 191 
 BRR  HZ EP       1016 58.29                             150     0.210   73 302 
 BRR  HN ES       1017 14.64                             150     0.710   73 302 
 BRR  HZ I        1017 16.82        21.2 0.19            148             73 302 
 RUS  HZ EP   1   1017  0.39                             144     0.2 7   96 175 
 RUS  HE ES   1   1017 17.97                             144     0.1 7   96 175 
 RUS  HZ I        1017 20.32         4.5 0.40            146             96 175 
 PTB  HZ EP   1   1017  3.47                             131    -0.3 7  146 261 
 PTB  HE ES   1   1017 23.46                             131    -0.8 7  146 261 
 PTB  HZ I        1017 28.98         5.9 0.26            130            146 261 
 OCA  HZ EP   1   1017  5.74                             127    -0.1 7  165 354 
 OCA  HE ES   1   1017 27.06                             127    -0.7 7  165 354 
 OCA  HZ I        1017 30.23        12.2 0.35            129            165 354 
 ZAR  HZ EP       1017  9.57                             120    -0.1 8  205 293 
 ZAR  HN ES   1   1017 35.10                             120     0.4 6  205 293 
 ZAR  HZ I        1017 40.73         9.5 0.44            121            205 293 
