 2010  2 2 1611 46.7 L   6.887 -73.233119.1  RSN  5 0.3 2.0LRSN                1
 GAP=159        0.63       4.6    18.8  7.5  0.7321E+00  0.6799E+02  0.1352E+00E
 Epicentro: BETULIA - SANTANDER                                                3
 ACTION:UP  10-08-24 09:47 OP:vdl  STATUS:               ID:20100202161146 L   I
 2010-02-02-1610-00S.COL___096                                                 6
 STAT SP IPHASW D HRMM SECON CODA AMPLIT PERI AZIMU VELO SNR AR TRES W  DIS CAZ7
 GIR2 SZ EP   1   1612  2.47                             169    -0.4 7   22  11 
 GIR2 SZ ES   2   1612 15.49                             169    -0.1 5   22  11 
 BAR2 SZ IP       1612  3.60                             163     0.210   33 171 
 BAR2 SZ ES   1   1612 16.34                             163    -0.1 7   33 171 
 RUS  BZ EP   1   1612  8.46                             134    -0.3 7  111 171 
 RUS  BZ I        1612  9.17        10.4 0.25                           111 171 
 RUS  BE ES   1   1612 26.32                             134     0.3 7  111 171 
 OCA  SZ EP   2   1612 12.65                             125     0.7 5  150 356 
 PRA  HZ EP   2   1612 39.51                             101    -0.3 3  396 208 
 PRA  HE ES   2   1613 21.43                             101     0.1 3  396 208 
 PRA  HZ I        1613 25.72         5.1 0.88                           396 208 
                                                                                
