 2017  2 2 1024 40.6 L   5.940 -73.772111.6  RSN  7 0.2 1.5LRSN                1
 GAP= 95        0.55       1.8     2.5  5.2  0.1255E+01  0.4409E+01  0.2152E+01E
 Epicentro: SUCRE - SANTANDER                                                  3
 ACTION:UPD 17-05-24 15:31 OP:jn   STATUS:               ID:20170202102440 L   I
 OLDACT:UP  17-02-02 21:50 OP:dnl  STATUS:               ID:20170202101743     3
 OLDACT:UP  17-02-02 21:50 OP:dnl  STATUS:               ID:20170202101743     3
 OLDACT:REG 17-02-02 20:09 OP:dnl  STATUS:               ID:20170202101743     3
 2017-02-02-1018-00M.COL___325                                                 6
 STAT SP IPHASW D HRMM SECON CODA AMPLIT PERI AZIMU VELO AIN AR TRES W  DIS CAZ7
 RUS  HZ IP     D 1024 59.17                             143   -0.0410 76.4  94 
 RUS  HN ES       1025 13.38                             143   -0.3810 76.4  94 
 BAR2 EZ IP     D 1025  0.73                             136    0.2310 97.3  42 
 BAR2 EZ ES       1025 16.18                             136    0.1210 97.3  42 
 PTB  HZ EP   4   1024 59.30                             135   -1.19 0  101 311 
 PTB  HN ES       1025 16.10                             135    0.0710  101 311 
 PTB  HZ I        1025 18.72         4.7 0.18            136            101 311 
 BRR  HZ EP       1025  3.18                             127    0.0710  129   3 
 BRR  HE ES       1025 20.79                             127    0.0910  129   3 
 BRR  HZ I        1025 26.77         7.0 0.16            130            129   3 
 CHI  HZ EP       1025  5.04                             124   -0.19 9  145 178 
 CHI  HN ES       1025 24.76                             124    0.30 9  145 178 
 CHI  HZ I        1025 28.45         2.8 0.34            126            145 178 
 ZAR  HE ES       1025 35.61                             113   -0.29 8  210 325 
 ZAR  HZ I        1025 37.77         5.3 0.40            115            210 325 
 ORTC HZ EP   2   1025 19.31                             106   -0.23 4  278 216 
 ORTC HN ES   4   1025 51.56                             106    1.62 0  278 216 
 ORTC HZ I        1025 52.78         2.5 0.46            108            278 216 
                                                                                
