 2017  8 2 1351 11.6 L   7.487 -73.163130.0  RSN 22 0.7 2.6LRSN                1
 GAP=110        1.28       3.1     3.6  6.0  0.1064E+01  0.4153E+01 -0.8396E+00E
 Epicentro: EL PLAYON - SANTANDER                                              3
 ACTION:UPD 17-09-04 20:15 OP:rebc STATUS:               ID:20170802135111 L   I
 OLDACT:UP  17-08-02 23:58 OP:dhb  STATUS:               ID:20170802134737     3
 OLDACT:REG 17-08-02 21:18 OP:dhb  STATUS:               ID:20170802134737     3
 2017-08-02-1348-00M.COL___392                                                 6
 STAT SP IPHASW D HRMM SECON CODA AMPLIT PERI AZIMU VELO AIN AR TRES W  DIS CAZ7
 PAM  EZ IP     C 1351 31.68                             157    0.9110 53.7 108 
 PAM  EE ES       1351 46.52                             157    0.7610 53.7 108 
 PAM  EZ I        1351 48.56        34.3 0.16            157           53.7 108 
 BRR  HZ IP     C 1351 31.31                             149    0.1210 73.7 235 
 BRR  HN ES       1351 46.59                             149    0.0910 73.7 235 
 BRR  HZ I        1351 47.04        82.5 0.12            146           73.7 235 
 BAR2 EZ IP     D 1351 33.23                             141   -0.0910 99.0 181 
 BAR2 EZ ES       1351 49.45                             141   -0.8410 99.0 181 
 BAR2 EZ I        1351 50.81       160.3 0.12            138           99.0 181 
 PTB  HZ EP       1351 39.74                             123   -0.48 9  177 234 
 PTB  HE ES       1352  2.93                             123    0.36 9  177 234 
 PTB  HZ I        1352  5.86        35.0 0.12            121            177 234 
 RUS  HZ EP       1351 40.39                             123   -0.39 9  177 177 
 RUS  HN ES       1352  2.10                             123   -1.47 9  177 177 
 RUS  HZ I        1352  4.38        21.1 0.32            122            177 177 
 ZAR  HZ EP       1351 41.28                             121    0.04 9  187 270 
 ZAR  HE ES       1352  4.92                             121    0.54 9  187 270 
 ZAR  HZ I        1352  6.01        69.0 0.22            120            187 270 
 TAM  HZ EP       1351 42.10                             121    0.40 9  191 127 
 TAM  HN ES       1352  5.73                             121    0.52 9  191 127 
 TAM  HZ I        1352  6.96        29.4 0.30            120            191 127 
 SPBC HZ IP     C 1351 45.83                             116    0.26 8  226 206 
 SPBC HN ES       1352 11.93                             116   -0.16 8  226 206 
 SPBC HZ I        1352 19.11        46.8 0.21            115            226 206 
 YPLC HZ IP     C 1351 47.97                             114    0.16 8  247 159 
 YPLC HN ES       1352 14.84                             114   -1.24 8  247 159 
 YPLC HZ I        1352 19.15        26.0 0.36            113            247 159 
 LL6C HZ IP     C 1351 48.18                             113    0.23 8  249 357 
 LL6C HN ES       1352 15.52                             113   -0.81 8  249 357 
 LL6C HZ I        1352 21.27        11.5 0.48            113            249 357 
 URE  HZ EP   9   1351 48.16                             112   -1.40 0  263 277 
 URE  HE ES       1352 18.07                             112    0.28 8  263 277 
 URE  HZ I        1352 19.00        26.4 0.22            111            263 277 
 NOR  HZ IP     C 1351 51.65                             110   -0.37 7  284 222 
 NOR  HE ES       1352 23.48                             110   -0.10 7  284 222 
 NOR  HZ I        1352 27.86        27.4 0.22            109            284 222 
 TABC EZ EP   2   1351 54.18                             110    0.19 4  297 203 
 TABC EZ ES   2   1352 27.69                             110    0.61 4  297 203 
 TABC EZ I        1352 36.06        29.6 0.44            108            297 203 
 HEL  HZ EP       1351 54.80                             109    0.79 7  298 241 
 HEL  HE ES   3   1352 30.33                             109    3.22 2  298 241 
 HEL  HZ I        1352 36.32        18.2 0.24            108            298 241 
 ROSC BZ EP       1351 56.23                             108   -0.27 7  319 204 
 ROSC BN ES   4   1352 34.80                             108    3.25 0  319 204 
 ROSC BZ I        1352 41.91        18.0 0.50            107            319 204 
 CHI  HZ EP       1351 57.68                             108    0.84 7  322 191 
 CHI  HN ES       1352 32.29                             108    0.13 7  322 191 
 CHI  HZ I        1352 38.71         8.8 0.28            107            322 191 
 DBB  EZ IP     C 1351 58.23                             106   -0.33 7  340 261 
 DBB  EN ES   3   1352 32.22                             106   -2.99 2  340 261 
 DBB  EZ I        1352 33.99        21.2 0.26            106            340 261 
 SJC  HZ IP     C 1351 59.05                             106   -0.23 6  347 320 
 SJC  HN ES       1352 35.61                             106   -0.88 6  347 320 
 SJC  HZ I        1352 37.86         4.1 0.12            106            347 320 
 GUY2CHZ EP   4   1352  2.55                             106    2.48 0  349 224 
 GUY2CHN ES   4   1352 38.67                             106    0.76 0  349 224 
 GUY2CHZ I        1352 46.55        18.1 0.46                           349 224 
 CBOC HZ EP       1352  1.46                             105    0.20 6  362 241 
 CBOC HE ES   4   1352 41.46                             105    1.43 0  362 241 
 VIL  HE ES   4   1352 43.60                             104    0.46 0  378 189 
 ORTC HZ EP       1352 13.23                             101    0.79 5  458 210 
 ORTC HE ES       1353  0.59                             101    0.67 5  458 210 
 ORTC HZ I        1353  8.05         8.5 0.54            100            458 210 
 PRA  HZ EP   2   1352 13.23                             101    0.69 2  459 205 
 PRA  HE ES       1352 60.00                             101   -0.10 5  459 205 
 PRA  HZ I        1353  6.90        11.5 0.32            100            459 205 
                                                                                
