 2014 10 2 1142 15.9 L   6.724 -73.161143.3  RSN  5 0.4 1.7LRSN                1
 GAP=230        1.12       6.4     7.0  8.2  0.9705E+01  0.8664E+01  0.5324E+01E
 Epicentro: VILLANUEVA - SANTANDER                                             3
 ACTION:UPD 14-11-29 23:46 OP:nd   STATUS:               ID:20141002114215 L   I
 OLDACT:DUP 14-10-02 23:54 OP:stll STATUS:               ID:20141002113749d    3
 2014-10-02-1137-48M.COL___292                                                 6
 STAT SP IPHASW D HRMM SECON CODA AMPLIT PERI AZIMU VELO AIN AR TRES W  DIS CAZ7
 BAR2 SZ EP       1142 35.17                             174    0.0710 14.8 189 
 BAR2 SZ ES       1142 50.42                             174    0.3510 14.8 189 
 BAR2 SZ I        1142 51.67        29.5 0.18            173           14.8 189 
 BRR  HZ EP       1142 37.08                             151    0.1110 74.1 305 
 BRR  HN ES       1142 53.54                             151    0.1510 74.1 305 
 BRR  HZ I        1142 56.77         8.7 0.26            149           74.1 305 
 RUS  HZ EP       1142 38.59                             146   -0.2510 92.4 175 
 RUS  HZ I        1142 39.96         4.8 0.44            148           92.4 175 
 RUS  HN ES       1142 56.13                             146   -0.6010 92.4 175 
 PTB  HZ EP       1142 42.07                             132   -0.33 9  145 262 
 PTB  HN ES       1143  2.38                             132   -0.68 9  145 262 
 PTB  HZ I        1143  8.93         7.0 0.54            131            145 262 
 SPBC HZ EP       1142 44.06                             130    0.55 9  156 220 
 SPBC HN ES       1143  5.73                             130    0.69 9  156 220 
                                                                                
