 2011  3 2 1711 11.2 L   6.827 -73.127142.9  RSN 14 0.5 2.9LRSN                1
 GAP=104        0.83       2.8     5.3  6.8 -0.2974E+01  0.1557E+02  0.9374E-01E
 Epicentro: LOS SANTOS - SANTANDER                                             3
 ACTION:UP  11-06-16 14:31 OP:jfem STATUS:               ID:20110302171111 L   I
 2011-03-02-1708-40S.COL___135                                                 6
 STAT SP IPHASW D HRMM SECON CODA AMPLIT PERI AZIMU VELO SNR AR TRES W  DIS CAZ7
 BAR2 SZ IP       1711 30.68                             169     0.110   27 194 
 BAR2 SZ ES   2   1711 45.37                             169    -0.3 5   27 194 
 BAR2 SZ I        1711 48.29       114.6 0.27                            27 194 
 RUS  HZ EP       1711 34.78                             142    -0.110  103 177 
 RUS  HN ES   1   1711 53.24                             142    -0.1 7  103 177 
 RUS  HZ I        1711 55.29       123.1 0.28                           103 177 
 GRA  SZ IP       1711 36.20                             137     0.310  122  17 
 GRA  SZ ES   1   1711 55.17                             137     0.0 7  122  17 
 GRA  SZ I        1711 56.72       158.3 0.42                           122  17 
 OCA  SZ EP       1711 38.64                             129    -0.4 9  158 352 
 OCA  SZ ES   2   1712  0.60                             129    -0.1 5  158 352 
 OCA  SZ I        1712  6.07       114.4 0.21                           158 352 
 YOP  SZ EP       1711 41.43                             125     0.2 9  181 154 
 YOP  SN ES   1   1712  5.02                             125     0.4 7  181 154 
 YOP  SZ I        1712  8.89        57.9 0.53                           181 154 
 CHI  HZ EP       1711 49.05                             116    -0.1 8  252 195 
 CHI  HE ES   1   1712 18.53                             116    -0.1 6  252 195 
 CHI  HZ I        1712 25.27        50.3 0.50                           252 195 
 HEL  HZ EP   1   1711 51.88                             114     0.3 6  275 255 
 HEL  HN ES   3   1712 22.54                             114    -0.5 2  275 255 
 HEL  HZ I        1712 29.59        45.3 0.33                           275 255 
 GUY  SZ EP   2   1711 55.41                             111     0.3 4  305 235 
 GUY  SN ES   2   1712 30.16                             111     0.9 4  305 235 
 GUY  SZ I        1712 39.37        87.2 0.18                           305 235 
 VIL  SZ EP   3   1711 55.12                             111     0.3 2  307 192 
 VIL  SE ES   2   1712 27.71                             111    -1.2 4  307 192 
 VIL  SZ I        1712 35.75        39.4 0.34                           307 192 
 RREF HZ EP   1   1711 58.05                             110     0.4 5  325 229 
 RREF HN ES   2   1712 33.14                             110    -0.7 3  325 229 
 RREF HZ I        1712 43.19        59.1 0.39                           325 229 
 DBB  SZ IP       1711 58.58                             109    -0.2 7  341 274 
 TOL  SZ EP       1712  0.50                             108     0.8 6  347 225 
 SDV  BZ EP   1   1711 59.84                             108    -0.9 5  357  50 
 SDV  BZ I        1712 41.90        15.9 0.51                           357  50 
 PRA  HZ EP   1   1712  4.21                             106    -0.8 4  396 210 
 PRA  HE ES   1   1712 46.03                             106    -1.0 4  396 210 
                                                                                
