 2016 11 2 1639  4.1 L   6.816 -73.161147.6  RSN 12 0.4 1.9LRSN                1
 GAP=134        0.92       3.4     4.0  4.9 -0.4483E+01  0.3402E+01  0.3245E+01E
 Epicentro: LOS SANTOS - SANTANDER                                             3
 ACTION:UPD 17-10-26 21:04 OP:lp   STATUS:               ID:20161102163904 L   I
 OLDACT:REG 16-11-02 21:14 OP:cog  STATUS:               ID:20161102162745     3
 2016-11-02-1628-00M.COL___346                                                 6
 STAT SP IPHASW D HRMM SECON CODA AMPLIT PERI AZIMU VELO AIN AR TRES W  DIS CAZ7
 BAR2 EZ EP       1639 23.97                             170    0.0210 24.8 185 
 BAR2 EZ ES       1639 39.05                             170   -0.4010 24.8 185 
 BAR2 EZ I        1639 40.21        25.0 0.22            169           24.8 185 
 BRR  HZ EP       1639 25.90                             154    0.6110 68.9 298 
 BRR  HN ES       1639 42.29                             154    0.4510 68.9 298 
 BRR  HZ I        1639 43.43         9.1 0.11            152           68.9 298 
 PAM  EZ EP       1639 26.92                             151    0.4510 77.2  41 
 PAM  EN ES       1639 43.85                             151   -0.0910 77.2  41 
 PAM  EZ I        1639 46.03        19.8 0.52            154           77.2  41 
 RUS  HZ EP       1639 28.17                             144    0.0410  102 175 
 RUS  HN ES       1639 46.75                             144   -0.1510  102 175 
 RUS  HZ I        1639 47.63        12.6 0.26            144            102 175 
 PTB  HZ EP       1639 30.72                             133   -0.35 9  146 258 
 PTB  HN ES       1639 51.60                             133   -0.52 9  146 258 
 PTB  HZ I        1639 54.64         8.5 0.16            132            146 258 
 SPBC HZ EP       1639 32.68                             129   -0.06 9  163 218 
 SPBC HN ES       1639 55.35                             129    0.26 9  163 218 
 SPBC HZ I        1639 57.62        14.6 0.17            129            163 218 
 NOR  HZ EP       1639 39.55                             119   -0.32 8  234 234 
 NOR  HE ES       1640  7.65                             119   -0.13 8  234 234 
 NOR  HZ I        1640 12.67         7.3 0.29            119            234 234 
 CHI  HZ EP       1639 42.23                             117    0.23 8  250 195 
 CHI  HN ES       1640 11.25                             117   -0.34 8  250 195 
 CHI  HZ I        1640 14.63         5.6 0.41            117            250 195 
 GUY2CHZ EP   9   1639 49.23                             113    1.51 0  301 234 
 GUY2CHN ES       1640 23.51                                    0.24 7  301 234 
 GUY2CHZ I        1640 30.00         4.5 0.30                           301 234 
 ELA  HZ EP   4   1639 52.51                             111    1.53 0  329 229 
 ELA  HN ES       1640 28.35                             111    0.78 7  329 229 
 ELA  HZ I        1640 35.87         2.7 0.43            111            329 229 
 PRA  HZ EP       1639 57.93                             107    0.20 6  393 209 
 PRA  HE ES       1640 39.53                             107   -0.06 6  393 209 
 PRA  HZ I        1640 43.98         3.0 0.23            107            393 209 
 SJC  HZ EP       1639 58.21                             106   -1.21 6  407 327 
 SJC  HN ES   4   1640 39.65                             106   -2.93 0  407 327 
 SJC  HZ I        1640 43.60         2.2 0.58            106            407 327 
                                                                                
