 2013  9 2 1957  5.6 L   6.743 -73.188146.2  RSN  5 0.3 1.9LRSN                1
 GAP=228        0.57       4.5     5.5  8.6  0.5585E+01 -0.1122E+02 -0.5417E+01E
 Epicentro: VILLANUEVA - SANTANDER                                             3
 ACTION:UPD 13-10-22 09:19 OP:ep   STATUS:               ID:20130902195705 L   I
 OLDACT:REG 13-09-02 17:11 OP:mh   STATUS:               ID:20130902194959     3
 2013-09-02-1949-59M.COL___269                                                 6
 STAT SP IPHASW D HRMM SECON CODA AMPLIT PERI AZIMU VELO AIN AR TRES W  DIS CAZ7
 BRR  HZ EP   1   1957 26.96                             153    0.18 8 70.5 305 
 BRR  HN ES   2   1957 43.62                             153    0.34 5 70.5 305 
 BRR  HN I        1957 44.73        23.8 0.28            147           70.5 305 
 RUS  HZ EP   1   1957 28.85                             145   -0.16 8 94.8 173 
 RUS  HN ES   2   1957 46.85                             145   -0.40 5 94.8 173 
 RUS  HN I        1957 47.99         6.2 0.34            143           94.8 173 
 PTB  HZ EP   1   1957 31.74                             133   -0.38 8  142 261 
 PTB  HN ES   1   1957 52.82                             133    0.05 8  142 261 
 PTB  HZ I        1957 58.53         3.7 0.28            128            142 261 
 SPBC HZ EP   1   1957 33.93                             131    0.51 7  155 219 
 SPBC HN ES       1957 55.14                             131    0.0410  155 219 
 SPBC HN I        1958  2.78        17.9 0.30            127            155 219 
 ZAR  HN ES   2   1958  2.53                             123   -0.56 5  202 294 
 ZAR  HN I        1958  8.56         8.4 0.42            121            202 294 
                                                                                
