 2011 12 2 1306 26.9 L   6.820 -73.152143.2  RSN  5 0.3 1.6LRSN                1
 GAP=135        0.62       4.4     8.6  8.1 -0.1060E+02  0.2734E+02 -0.4943E+01E
 Epicentro: LOS SANTOS - SANTANDER                                             3
 ACTION:UPD 12-07-13 16:13 OP:ep   STATUS:               ID:20111202130626 L   I
 2011-12-02-1300-00M.COL___180                                                 6
 STAT SP IPHASW D HRMM SECON CODA AMPLIT PERI AZIMU VELO AIN AR TRES W  DIS CAZ7
 BAR2 SZ EP       13 6 45.81                             170   -0.5010 25.4 188 
 BAR2 SZ ES   2   13 7  1.35                             170   -0.06 5 25.4 188 
 GIR2 SZ EP   3   13 6 46.09                             168   -0.16 2 29.0 351 
 BRR  HZ EP       13 6 47.88                             153    0.1610 69.6 297 
 BRR  HZ I        13 7 12.76        18.5 0.36                          69.6 297 
 PAM  SZ EP       13 6 49.07                             151    0.2610 76.1  41 
 PAM  SN ES   1   13 7  5.79                             151   -0.07 7 76.1  41 
 RUS  HZ EP       13 6 50.60                             143    0.0010  103 176 
 RUS  HE ES   1   13 7  9.32                             143    0.26 7  103 176 
 RUS  HZ I        13 7 10.98         3.0 0.28                           103 176 
                                                                                
