 2010 12 2 1050 33.3 L   6.811 -72.950142.0  RSN  4 0.3 1.6LRSN                1
 GAP=257        0.69       6.2    13.7 12.8  0.3020E+02 -0.7060E+02  0.1555E+02E
 Epicentro: CEPITA - SANTANDER                                                 3
 ACTION:UP  11-01-14 15:22 OP:pat  STATUS:               ID:20101202105033 L   I
 2010-12-02-1048-38S.COL___132                                                 6
 STAT SP IPHASW D HRMM SECON CODA AMPLIT PERI AZIMU VELO SNR AR TRES W  DIS CAZ7
 BAR2 SZ EP   1   1050 52.96                             165     0.2 7   35 227 
 BAR2 SZ I        1051 15.43        12.2 0.66                            35 227 
 BRR  HZ EP   1   1050 54.87                             146    -0.4 7   90 291 
 BRR  HN ES   1   1051 12.53                             146     0.2 7   90 291 
 BRR  HZ I        1051 15.21        10.3 0.15                            90 291 
 RUS  HZ EP   1   1050 57.17                             142     0.3 7  103 188 
 RUS  HE ES   2   1051 14.59                             142    -0.6 5  103 188 
 RUS  HZ I        1051 19.05         3.1 0.55                           103 188 
 CHI  HZ EP   2   1051 11.16                             116    -0.5 4  256 200 
 CHI  HE ES   1   1051 41.68                             116     0.2 6  256 200 
                                                                                
