 2015  9 2 1332 17.5 L   6.284 -73.570107.9  RSN  4 0.4 1.3LRSN                1
 GAP=157        1.03       7.8     5.4  9.6  0.2330E+02  0.2103E+02 -0.1989E+01E
 Epicentro: SANTA HELENA DEL OPON - SANTANDER                                  3
 ACTION:UPD 15-10-28 16:23 OP:cam  STATUS:               ID:20150902133217 L   I
 OLDACT:UP  15-09-03 00:11 OP:ak   STATUS:               ID:20150902132750d    3
 OLDACT:DUP 15-09-03 00:08 OP:ak   STATUS:               ID:20150902132750d    3
 OLDACT:REG 15-09-02 21:27 OP:ak   STATUS:               ID:20150902132749     3
 2015-09-02-1327-49M.COL___346                                                 6
 STAT SP IPHASW D HRMM SECON CODA AMPLIT PERI AZIMU VELO AIN AR TRES W  DIS CAZ7
 BAR2 EZ EP       1332 33.78                             151   -0.2010 54.8  51 
 BAR2 EZ ES       1332 46.57                             151   -0.2710 54.8  51 
 BAR2 EZ I        1332 47.69        17.5 0.27            155           54.8  51 
 RUS  HZ EP       1332 35.52                             145    0.2610 69.1 129 
 RUS  HN ES       1332 49.48                             145    0.3610 69.1 129 
 RUS  HZ I        1332 51.08         1.9 0.28            150           69.1 129 
 PTB  HZ EP       1332 36.54                             133   -0.7010  102 286 
 PTB  HN ES       1332 52.54                             133   -0.0910  102 286 
 PTB  HZ I        1332 55.41         2.7 0.10            134            102 286 
 ZAR  HZ EP       1332 46.94                             114    0.12 9  195 313 
 ZAR  HN ES       1333 10.41                             114    0.73 9  195 313 
 ZAR  HZ I        1333 15.07         4.1 0.26            116            195 313 
                                                                                
