 2012  7 2 1947 32.8 L   6.749 -73.125136.6  RSN  5 0.3 1.7LRSN                1
 GAP=141        0.66       4.1     4.7  6.5  0.4822E+01  0.4265E+01  0.1119E+01E
 Epicentro: LOS SANTOS - SANTANDER                                             3
 ACTION:UPD 12-08-14 11:42 OP:ep   STATUS:               ID:20120702194732 L   I
 2012-07-02-1940-00M.COL___201                                                 6
 STAT SP IPHASW D HRMM SECON CODA AMPLIT PERI AZIMU VELO AIN AR TRES W  DIS CAZ7
 BAR2 SZ EP   1   1947 51.50                             172     0.2 7   18 200 
 BAR2 SZ ES   1   1948  5.40                             172    -0.2 7   18 200 
 BAR2 SZ I        1948  7.71        15.5 0.28            165             18 200 
 BRR  HZ EP       1947 53.30                             149     0.010   76 301 
 BRR  HZ I        1947 53.84        13.2 0.12            143             76 301 
 BRR  HE ES   1   1948  9.76                             149     0.5 7   76 301 
 PAM  SZ EP   1   1947 54.25                             148     0.0 7   81  36 
 PAM  SN ES   1   1948 10.84                             148    -0.2 7   81  36 
 RUS  HZ EP       1947 55.29                             144     0.010   95 177 
 RUS  HZ I        1947 56.87         3.8 0.10            143             95 177 
 RUS  HN ES   1   1948 12.65                             144    -0.1 7   95 177 
 ZAR  HN ES   1   1948 29.84                             120    -0.5 6  208 293 
 ZAR  HZ I        1948 39.30         4.8 0.23            117            208 293 
