 2017  4 2 1516 19.0 L   6.838 -73.160144.0  RSN  4 0.2 1.6LRSN                1
 GAP=302        0.59       6.5     5.2  6.2 -0.1599E+02  0.1228E+02 -0.5285E+01E
 Epicentro: LOS SANTOS - SANTANDER                                             3
 ACTION:UPD 17-05-30 21:07 OP:jn   STATUS:               ID:20170402151619 L   I
 OLDACT:REG 17-04-02 22:10 OP:dnl  STATUS:               ID:20170402150743     3
 2017-04-02-1508-00M.COL___374                                                 6
 STAT SP IPHASW D HRMM SECON CODA AMPLIT PERI AZIMU VELO AIN AR TRES W  DIS CAZ7
 BAR2 EZ EP       1516 38.51                             169    0.0210 27.3 185 
 BAR2 EZ ES       1516 53.70                             169   -0.0110 27.3 185 
 BAR2 EZ I        1516 54.71        14.3 0.24            166           27.3 185 
 RUS  HZ EP       1516 42.72                             142   -0.1610  105 175 
 RUS  HN ES       1517  1.75                             142    0.2310  105 175 
 RUS  HZ I        1517  2.43         3.6 0.34            142            105 175 
 SPBC HE ES       1517  9.46                             128   -0.41 9  166 218 
 SPBC HZ I        1517 14.04         7.7 0.20            127            166 218 
 NOR  HZ EP   2   1516 55.04                             118    0.29 4  236 233 
 NOR  HN ES       1517 22.96                             118    0.32 8  236 233 
 NOR  HZ I        1517 27.06         1.5 0.18            117            236 233 
                                                                                
