 2012  2 2 1616  4.4 L   6.808 -73.158141.0  RSN  8 0.2 1.8LRSN                1
 GAP=135        0.38       2.7     2.6  3.9 -0.2646E+01  0.3399E+01 -0.6127E+00E
 ACTION:UP  12-03-07 16:26 OP:epov STATUS:               ID:20120202161604 L   I
 2012-02-02-1610-00M.COL___187                                                 6
 STAT SP IPHASW D HRMM SECON CODA AMPLIT PERI AZIMU VELO SNR AR TRES W  DIS CAZ7
 BAR2 SZ EP       1616 23.50                             170    0.0410 24.0 187 
 BAR2 SZ ES   1   1616 38.47                             170    0.13 7 24.0 187 
 BAR2 SZ I        1616 42.25        16.2 0.53                          24.0 187 
 GIR2 SZ EP   2   1616 23.59                             167    0.12 5 30.2 352 
 BRR  HZ EP   1   1616 25.30                             152    0.36 7 69.6 298 
 BRR  HZ I        1616 25.99        10.1 0.08                          69.6 298 
 PAM  SZ EP   1   1616 26.03                             150   -0.08 7 77.6  41 
 PAM  SE ES   1   1616 42.91                             150   -0.15 7 77.6  41 
 RUS  HZ EP   1   1616 27.78                             142    0.03 7  102 175 
 RUS  HE ES   1   1616 45.88                             142   -0.09 7  102 175 
 PTB  HZ EP   1   1616 30.59                             131   -0.28 7  147 258 
 PTB  HE ES   1   1616 51.36                             131   -0.16 7  147 258 
 NOR  SN ES   1   1617  7.51                             117    0.11 6  234 234 
 CHI  HZ EP   2   1616 41.84                             116   -0.04 4  249 195 
                                                                                
