 2012 10 2 1015 24.5 L   6.790 -73.098146.7  RSN  4 0.1 1.9LRSN                1
 GAP=197        0.32       3.7     7.2  4.4  0.1521E+02 -0.4804E+01 -0.5464E+01E
 Epicentro: LOS SANTOS - SANTANDER                                             3
 ACTION:UPD 12-11-22 17:01 OP:ep   STATUS:               ID:20121002101524 L   I
 2012-10-02-1010-00M.COL___223                                                 6
 STAT SP IPHASW D HRMM SECON CODA AMPLIT PERI AZIMU VELO AIN AR TRES W  DIS CAZ7
 BAR2 SZ EP       1015 44.33                             170    0.0610 23.8 203 
 BAR2 SZ ES   2   1015 59.44                             170   -0.23 5 23.8 203 
 BAR2 SZ I        1016  0.36        10.2 0.34                          23.8 203 
 GIR2 SZ EP       1015 44.28                             166   -0.0910 33.6 342 
 GIR2 SZ ES   2   1016  0.05                             166    0.20 5 33.6 342 
 BRR  HZ EP       1015 46.12                             151    0.0510 76.4 297 
 BRR  HN ES   2   1016  2.79                             151   -0.08 5 76.4 297 
 BRR  HN I        1016  3.63        28.6 0.18                          76.4 297 
 RUS  HZ EP   3   1015 48.09                             144   -0.18 2 99.2 179 
 RUS  HN ES   1   1016  6.83                             144    0.04 7 99.2 179 
                                                                                
