 2010  3 2 1639 12.3 L   6.791 -73.066147.1  RSN 11 0.4 3.1LRSN                1
 GAP=132        0.79       3.8     4.7  4.6 -0.4300E+01  0.3217E+01  0.1075E+01E
 Epicentro: LOS SANTOS - SANTANDER                                             3
 ACTION:UP  10-08-24 09:51 OP:vdl  STATUS:               ID:20100302163912 L   I
 2010-03-02-1636-41S.COL___094                                                 6
 STAT SP IPHASW D HRMM SECON CODA AMPLIT PERI AZIMU VELO SNR AR TRES W  DIS CAZ7
 BAR2 SZ EP       1639 32.25                             170     0.110   26 211 
 BAR2 SZ ES       1639 47.21                             170    -0.410   26 211 
 BRR  HZ EP       1639 34.13                             150     0.010   80 296 
 BRR  HE ES   1   1639 51.72                             150     0.6 7   80 296 
 BRR  HZ I        1639 54.29       196.2 0.16                            80 296 
 RUS  BZ EP       1639 36.23                             144     0.110   99 181 
 RUS  BE ES   2   1639 55.06                             144     0.4 5   99 181 
 RUS  BZ I        1639 56.09       111.5 0.29                            99 181 
 OCA  SZ EP       1639 40.88                             129    -0.1 9  163 350 
 CHI  HZ IP       1639 50.31                             117     0.0 8  250 197 
 CHI  HN ES   2   1640 19.63                             117    -0.2 4  250 197 
 CHI  HZ I        1640 25.66        50.9 0.59                           250 197 
 HEL  HZ EP       1639 54.11                             114     0.6 7  280 256 
 HEL  HN ES   1   1640 25.12                             114    -0.6 6  280 256 
 HEL  HZ I        1640 30.76        62.5 0.25                           280 256 
 RREF BZ EP       1639 59.31                             111     0.1 7  328 231 
 RREF BN ES   1   1640 35.59                             111    -0.2 5  328 231 
 RREF BZ I        1640 43.86        74.5 0.36                           328 231 
 DBB  SZ EP       1640  0.22                             109    -0.7 6  348 274 
 TOL  SZ EP       1640  1.65                             109     0.4 6  349 226 
 TOL  SZ ES   2   1640 39.12                             109    -0.3 3  349 226 
 SDV  BZ EP       1640  1.66                             109    -0.1 6  354  49 
 SDV  BZ I        1640  2.51        40.8 0.08                           354  49 
 PRA  HZ EP       1640  5.91                             106    -0.4 6  396 211 
 PRA  HN ES   2   1640 49.20                             106     0.8 3  396 211 
 PRA  HZ I        1640 52.15        57.4 0.48                           396 211 
                                                                                
