 2016 12 2 1821  6.6 L   6.739 -73.155141.1  RSN  4 0.5 1.6LRSN                1
 GAP=153        1.17      10.4     6.1 11.1 -0.2226E+02  0.2581E+02 -0.1779E+02E
 Epicentro: LOS SANTOS - SANTANDER                                             3
 ACTION:UPD 17-01-11 20:12 OP:rebc STATUS:               ID:20161202182106 L   I
 OLDACT:REG 16-12-02 21:15 OP:lv   STATUS:               ID:20161202181744     3
 2016-12-02-1818-00M.COL___346                                                 6
 STAT SP IPHASW D HRMM SECON CODA AMPLIT PERI AZIMU VELO AIN AR TRES W  DIS CAZ7
 BAR2 EZ EP       1821 25.70                             173    0.1510 16.5 190 
 BAR2 EZ ES       1821 40.83                             173    0.5010 16.5 190 
 BAR2 EZ I        1821 41.87        12.5 0.28            175           16.5 190 
 PAM  EZ EP       1821 29.06                             148    0.3610 83.3  37 
 PAM  EE ES       1821 45.32                             148   -0.6110 83.3  37 
 PAM  EZ I        1821 49.12         4.2 0.32            150           83.3  37 
 PTB  HZ EP       1821 32.59                             131   -0.40 9  146 261 
 PTB  HN ES       1821 53.04                             131   -0.53 9  146 261 
 PTB  HZ I        1821 57.55         5.4 0.20            133            146 261 
 ZAR  HE ES       1822  4.70                             121    0.57 8  206 294 
                                                                                
