 2013  5 2 1108 46.9 L   6.709 -73.207146.8  RSN  4 0.2 1.5LRSN                1
 GAP=223        0.54       6.0     6.7  7.1  0.2887E+02  0.4042E+00 -0.3282E+01E
 Epicentro: VILLANUEVA - SANTANDER                                             3
 ACTION:UPD 13-06-20 09:47 OP:ep   STATUS:               ID:20130502110846 L   I
 2013-05-02-1107-48M.COL___223                                                 6
 STAT SP IPHASW D HRMM SECON CODA AMPLIT PERI AZIMU VELO AIN AR TRES W  DIS CAZ7
 BRR  HZ EP       11 9  7.89                             153   -0.2910 71.0 308 
 BRR  HN ES   1   11 9 24.86                             153    0.10 7 71.0 308 
 BRR  HN I        11 9 28.62        14.3 0.20            152           71.0 308 
 RUS  HZ EP   1   11 9 10.47                             147    0.33 7 91.3 171 
 RUS  HE ES   1   11 9 28.22                             147   -0.03 7 91.3 171 
 RUS  HZ I        11 9 30.74         2.1 0.40            148           91.3 171 
 PTB  HZ EP   1   11 9 13.19                             134   -0.05 7  139 262 
 PTB  HN ES   2   11 9 33.48                             134   -0.28 5  139 262 
 PTB  HN I        11 9 39.44         5.9 0.48            134            139 262 
 ZAR  HE ES   1   11 9 44.79                             123    0.38 6  202 296 
                                                                                
