 2012  5 2 1352 23.4 L   6.524 -73.339 24.5  RSN  5 0.3 1.4LRSN                1
 GAP=113        0.79       2.5     2.8  3.0  0.1053E+01  0.3524E+01 -0.3397E+00E
 Epicentro: HATO - SANTANDER                                                   3
 ACTION:UP  12-07-05 12:01 OP:pat  STATUS:               ID:20120502135223 L   I
 2012-05-02-1350-00M.COL___186                                                 6
 STAT SP IPHASW D HRMM SECON CODA AMPLIT PERI AZIMU VELO SNR AR TRES W  DIS CAZ7
 BAR2 SZ EP       1352 29.05                             142     0.410   19  66 
 BAR2 SZ ES   1   1352 32.60                             142    -0.2 7   19  66 
 BAR2 SZ I        1352 34.76        77.5 0.34                            19  66 
 RUS  HZ EP   1   1352 36.77                             107     0.4 7   75 158 
 RUS  HN ES   1   1352 45.85                             107    -0.6 7   75 158 
 RUS  HZ I        1352 47.24         5.7 0.15                            75 158 
 BRR  HZ EP       1352 35.95                             106     0.010   77 327 
 BRR  HE ES   1   1352 45.56                             106    -0.3 7   77 327 
 BRR  HZ I        1352 46.44        14.1 0.14                            77 327 
 PAM  SZ EP   1   1352 41.98                              56     0.2 7  115  38 
 PAM  SN ES   1   1352 55.87                              56    -0.3 7  115  38 
 PTB  HZ EP       1352 42.38                              56     0.010  124 271 
 PTB  HN ES   1   1352 57.17                              56     0.0 7  124 271 
 PTB  HZ I        1352 58.59         8.9 0.16                           124 271 
                                                                                
