 2014 12 2 1823  1.1 L   6.786 -73.155143.8  RSN  7 0.4 1.9LRSN                1
 GAP=136        0.88       4.3     3.8  5.9 -0.1924E+01  0.7581E+01  0.1524E+01E
 Epicentro: LOS SANTOS - SANTANDER                                             3
 ACTION:UPD 15-02-10 16:59 OP:nd   STATUS:               ID:20141202181746 L   I
 OLDACT:UP  14-12-03 10:44 OP:mh   STATUS:               ID:20141202181746 L   3
 OLDACT:UPD 14-12-03 10:15 OP:nlst STATUS:               ID:20141202181746 L   3
 2014-12-02-1817-46M.COL___306                                                 6
 STAT SP IPHASW D HRMM SECON CODA AMPLIT PERI AZIMU VELO AIN AR TRES W  DIS CAZ7
 BAR2 SZ EP       1823 20.55                             171    0.1310 21.6 188 
 BAR2 SZ ES       1823 35.42                             171   -0.1010 21.6 188 
 BAR2 SZ I        1823 37.19        18.5 0.12            171           21.6 188 
 BRR  HZ EP     C 1823 22.49                             152    0.5010 71.0 300 
 BRR  HN ES   1   1823 38.61                             152    0.30 7 71.0 300 
 BRR  HZ I        1823 41.90        14.1 0.34            151           71.0 300 
 PAM  SZ EP       1823 23.02                             150   -0.1610 79.3  39 
 PAM  SN ES       1823 40.52                             150    0.0810 79.3  39 
 PAM  SZ I        1823 43.17         9.8 0.48            153           79.3  39 
 RUS  HZ EP       1823 24.42                             144   -0.0910 99.1 175 
 RUS  HN ES   1   1823 42.77                             144   -0.03 7 99.1 175 
 RUS  HZ I        1823 43.89         5.9 0.26            147           99.1 175 
 PTB  HZ EP       1823 27.11                             132   -0.63 9  146 259 
 PTB  HN ES       1823 47.91                             132   -0.65 9  146 259 
 PTB  HZ I        1823 51.67        10.7 0.10            132            146 259 
 ZAR  HZ EP       1823 33.26                             122   -0.08 9  204 293 
 ZAR  HN ES       1823 58.61                             122    0.10 9  204 293 
 ZAR  HZ I        1824  4.38        17.4 0.40            123            204 293 
 NOR  HZ EP       1823 36.70                             118    0.22 8  233 235 
 NOR  HN ES       1824  4.82                             118    0.71 8  233 235 
 NOR  HZ I        1824 10.24         5.7 0.69            120            233 235 
 MON  HN ES   4   1824 24.35                             108   -3.83 0  354 309 
                                                                                
