 2016  6 2 1320 30.4 L   6.855 -73.110151.0  RSN  6 0.6 1.7LRSN                1
 GAP=212        1.39       6.9     9.3  9.4  0.1802E+02  0.4831E+01 -0.1419E+02E
 Epicentro: LOS SANTOS - SANTANDER                                             3
 ACTION:UPD 16-07-21 22:14 OP:rebc STATUS:               ID:20160602132030 L   I
 OLDACT:DUP 16-06-03 00:31 OP:ar   STATUS:               ID:20160602131744d    3
 OLDACT:REG 16-06-02 21:43 OP:ar   STATUS:               ID:20160602131743     3
 2016-06-02-1317-43M.COL___319                                                 6
 STAT SP IPHASW D HRMM SECON CODA AMPLIT PERI AZIMU VELO AIN AR TRES W  DIS CAZ7
 BAR2 EZ EP       1320 51.02                             168    0.2510 30.2 195 
 BAR2 EZ ES       1321  5.96                             168   -0.7410 30.2 195 
 BAR2 EZ I        1321  7.47        13.8 0.28                          30.2 195 
 BRR  HZ EP       1320 52.99                             153    0.8610 72.1 293 
 BRR  HN ES       1321  9.83                             153    0.7210 72.1 293 
 BRR  HZ I        1321 14.69        10.4 0.22                          72.1 293 
 RUS  HZ EP       1320 55.15                             143    0.1010  107 178 
 RUS  HN ES       1321 13.84                             143   -0.4810  107 178 
 RUS  HZ I        1321 14.52         3.2 0.20                           107 178 
 PTB  HZ EP       1320 58.16                             132   -0.06 9  153 257 
 PTB  HN ES       1321 19.29                             132   -0.66 9  153 257 
 PTB  HZ I        1321 21.06         4.3 0.40                           153 257 
 SPBC HZ EP       1320 59.73                             129   -0.22 9  170 219 
 SPBC HN ES       1321 23.70                             129    0.68 9  170 219 
 SPBC HZ I        1321 26.74        10.4 0.24                           170 219 
 SJC  HZ EP       1321 25.04                             107   -0.71 6  406 326 
 SJC  HN ES       1322  8.17                             107   -0.79 6  406 326 
 SJC  HZ I        1322 14.09         1.3 0.66                           406 326 
                                                                                
