 2013  2 2 1338 41.0 L   6.771 -73.122145.7  RSN  4 0.2 1.4LRSN                1
 GAP=238        0.57       7.4    11.8  5.0  0.7414E+02  0.8246E+01  0.3977E+01E
 Epicentro: LOS SANTOS - SANTANDER                                             3
 ACTION:UPD 13-03-12 09:29 OP:ep   STATUS:               ID:20130202133841 L   I
 2013-02-02-1330-00M.COL___241                                                 6
 STAT SP IPHASW D HRMM SECON CODA AMPLIT PERI AZIMU VELO AIN AR TRES W  DIS CAZ7
 BAR2 SZ ES       1339 15.73                             171   -0.1410 20.9 199 
 BAR2 SZ I        1339 16.45        11.0 0.32             61           20.9 199 
 BRR  HZ EP       1339  2.15                             151   -0.2410 75.0 300 
 BRR  HZ I        1339  2.28         6.0 0.15             61           75.0 300 
 BRR  HE ES       1339 19.28                             151    0.2310 75.0 300 
 RUS  HZ EP       1339  4.83                             145    0.2910 97.2 177 
 RUS  HN ES       1339 22.79                             145   -0.0810 97.2 177 
 RUS  HN I        1339 24.89         3.1 0.40             61           97.2 177 
 PTB  HZ EP   1   1339  8.06                             131   -0.12 7  150 260 
 PTB  HZ I        1339 43.67         2.4 0.17             61            150 260 
                                                                                
