 2015  1 2 1413  7.7 L   6.778 -73.172150.4  RSN  5 0.4 1.5LRSN                1
 GAP=207        1.04       7.6     8.4 10.2 -0.6718E+01  0.2579E+02 -0.4089E+02E
 Epicentro: LOS SANTOS - SANTANDER                                             3
 ACTION:UPD 15-03-02 15:36 OP:nd   STATUS:               ID:20150102141307 L   I
 OLDACT:UP  15-01-02 23:39 OP:cam  STATUS:               ID:20150102140818     3
 OLDACT:REG 15-01-02 20:18 OP:cam  STATUS:               ID:20150102140818     3
 2015-01-02-1408-18M.COL___280                                                 6
 STAT SP IPHASW D HRMM SECON CODA AMPLIT PERI AZIMU VELO AIN AR TRES W  DIS CAZ7
 BAR2 EZ ES       1413 43.69                             172    0.1710 20.6 183 
 PTB  HZ EP       1413 34.34                             134   -0.39 9  144 260 
 PTB  HN ES       1413 55.38                             134   -0.45 9  144 260 
 PTB  HZ I        1414  0.89         2.6 0.42            133            144 260 
 ZAR  HZ EP       1413 41.01                             124    0.76 9  202 293 
 ZAR  HE ES       1414  6.17                             124    0.52 9  202 293 
 ZAR  HZ I        1414 13.25         2.5 0.28            123            202 293 
 SML  HZ EP       1413 44.51                             118   -0.17 8  245 336 
 SML  HN ES       1414 13.12                             118   -0.41 8  245 336 
 SML  HZ I        1414 20.42         3.6 0.26            119            245 336 
 PRV  HN E        1410 25.15                                           1157 310 
                                                                                
