 2015  4 2 1332 43.3 L   6.782 -73.355119.8  RSN  4 0.4 1.2LRSN                1
 GAP=202        0.93       8.3     6.0  9.8  0.3328E+02  0.3541E+01 -0.2182E+02E
 Epicentro: ZAPATOCA - SANTANDER                                               3
 ACTION:UPD 15-06-03 16:51 OP:cam  STATUS:               ID:20150402133243 L   I
 OLDACT:REG 15-04-02 21:25 OP:fm   STATUS:               ID:20150402132749     3
 2015-04-02-1327-49M.COL___280                                                 6
 STAT SP IPHASW D HRMM SECON CODA AMPLIT PERI AZIMU VELO AIN AR TRES W  DIS CAZ7
 BAR2 EZ EP       1333  0.05                             166    0.1210 28.4 138 
 BAR2 EZ ES   1   1333 12.90                             166   -0.02 7 28.4 138 
 RUS  HZ EP       1333  5.22                             137    0.4610  103 163 
 RUS  HN ES       1333 21.17                             137   -0.3510  103 163 
 RUS  HZ I        1333 25.36         1.3 0.32            137            103 163 
 PTB  HZ EP       1333  5.40                             131   -0.6310  125 258 
 PTB  HN ES       1333 24.24                             131    0.4510  125 258 
 PTB  HZ I        1333 27.12         5.4 0.46            130            125 258 
 ZAR  HZ EP   1   1333 12.20                             119    0.24 7  184 295 
 ZAR  HN ES       1333 34.14                             119   -0.20 9  184 295 
 ZAR  HZ I        1333 36.89         2.5 0.20            121            184 295 
                                                                                
