 2013  2 2 1832 47.7 L   6.738 -73.126148.8  RSN  5 0.3 1.8LRSN                1
 GAP=142        0.73       4.7     4.7  7.5 -0.3978E+01  0.3314E+01  0.7476E+01E
 Epicentro: JORDAN - SANTANDER                                                 3
 ACTION:UPD 13-03-12 09:30 OP:ep   STATUS:               ID:20130202183247 L   I
 2013-02-02-1830-00M.COL___240                                                 6
 STAT SP IPHASW D HRMM SECON CODA AMPLIT PERI AZIMU VELO AIN AR TRES W  DIS CAZ7
 BAR2 SZ EP       1833  7.69                             173    0.1410 17.2 201 
 BRR  HZ EP       1833  9.74                             151    0.2910 76.6 302 
 BRR  HN ES   1   1833 26.97                             151    0.53 7 76.6 302 
 BRR  HN I        1833 27.47        16.8 0.28            152           76.6 302 
 PAM  SZ EP       1833 10.45                             150    0.0010 81.5  35 
 PAM  SE ES       1833 27.82                             150   -0.4110 81.5  35 
 PAM  SZ I        1833 29.87         9.0 0.56            155           81.5  35 
 RUS  HZ EP       1833 11.30                             146    0.0710 93.6 177 
 RUS  HN ES   1   1833 29.68                             146    0.07 7 93.6 177 
 RUS  HN I        1833 32.16        11.6 0.42            147           93.6 177 
 PTB  HZ EP   1   1833 14.58                             132   -0.38 7  149 262 
 PTB  HN ES   1   1833 35.76                             132   -0.50 7  149 262 
 PTB  HZ I        1833 41.66         4.4 0.34            133            149 262 
                                                                                
