 2015  9 2 1740 55.6 L   6.786 -73.113149.1  RSN 25 0.5 2.8LRSN                1
 GAP= 68        1.04       2.4     2.6  4.5 -0.5270E+00  0.3177E+01  0.1757E+01E
 Epicentro: LOS SANTOS - SANTANDER                                             3
 ACTION:UPD 15-10-28 16:23 OP:cam  STATUS:               ID:20150902174055 L   I
 OLDACT:REG 15-09-02 21:47 OP:ak   STATUS:               ID:20150902173750     3
 2015-09-02-1737-50M.COL___349                                                 6
 STAT SP IPHASW D HRMM SECON CODA AMPLIT PERI AZIMU VELO AIN AR TRES W  DIS CAZ7
 BAR2 EZ IP     D 1741 15.78                             171    0.1310 22.7 200 
 BAR2 EZ ES       1741 31.38                             171    0.1210 22.7 200 
 BAR2 EZ I        1741 33.83        72.5 0.24            168           22.7 200 
 BRR  HZ EP     C 1741 17.69                             152    0.3310 75.1 298 
 BRR  HN ES       1741 34.80                             152    0.4910 75.1 298 
 BRR  HZ I        1741 42.39        59.6 0.27            151           75.1 298 
 PAM  EZ EP       1741 18.69                             152    0.5510 76.4  37 
 PAM  EE ES       1741 36.12                             152    0.4210 76.4  37 
 PAM  EZ I        1741 38.04        79.7 0.50            157           76.4  37 
 RUS  HZ EP       1741 19.64                             145    0.0610 98.8 178 
 RUS  HN ES       1741 37.81                             145   -0.4610 98.8 178 
 TAM  HZ EP       1741 23.56                             132    0.35 9  151 105 
 TAM  HN ES       1741 44.40                             132   -0.34 9  151 105 
 TAM  HZ I        1741 46.40        43.1 0.46            138            151 105 
 PTB  HZ EP       1741 22.65                             132   -0.51 9  151 260 
 PTB  HN ES       1741 43.87                             132   -0.76 9  151 260 
 PTB  HZ I        1741 51.28       147.5 0.44            132            151 260 
 OCA  HZ EP       1741 24.25                             130   -0.13 9  162 352 
 OCA  HN ES       1741 46.69                             130   -0.13 9  162 352 
 OCA  HZ I        1741 51.76       149.8 0.40            133            162 352 
 SPBC HZ EP       1741 24.79                             130    0.31 9  164 220 
 SPBC HN ES       1741 47.40                             130    0.41 9  164 220 
 SPBC HZ I        1741 53.96        90.6 0.28            131            164 220 
 ZAR  HZ EP       1741 28.57                             123   -0.12 8  208 292 
 ZAR  HN ES       1741 54.88                             123    0.40 8  208 292 
 ZAR  HZ I        1742  0.93        76.6 0.49            124            208 292 
 NOR  HZ EP       1741 31.51                             119   -0.25 8  237 235 
 NOR  HE ES       1741 59.67                             119   -0.29 8  237 235 
 NOR  HZ I        1742  6.26        41.5 0.27            120            237 235 
 SML  HZ EP       1741 32.01                             118   -0.75 8  247 335 
 SML  HN ES       1742  0.71                             118   -1.01 8  247 335 
 SML  HZ I        1742  6.29        45.5 0.24            120            247 335 
 CHI  HZ EP       1741 33.65                             118    0.20 8  248 196 
 CHI  HN ES       1742  2.03                             118   -0.92 8  248 196 
 CHI  HZ I        1742 10.96        29.9 0.44            120            248 196 
 ROSC BZ EP   4   1741 35.41                             117    1.43 0  253 212 
 ROSC BN ES   4   1742  5.55                             117    1.64 0  253 212 
 ROSC BZ I        1742 13.37        59.7 0.40            119            253 212 
 HEL  HZ EP       1741 36.28                             115   -0.07 8  275 256 
 HEL  HN ES       1742  7.94                             115   -0.18 8  275 256 
 HEL  HZ I        1742 14.13        41.8 0.36            117            275 256 
 URE  HZ EP   4   1741 35.86                             114   -1.43 0  288 292 
 URE  HN ES       1742  9.63                             114   -0.17 7  288 292 
 URE  HZ I        1742 20.23        32.8 0.19            116            288 292 
 GUY2CHZ EP       1741 40.50                             113    0.88 7  303 235 
 GUY2CHN ES       1742 14.20                             113    0.27 7  303 235 
 GUY2CHZ I        1742 20.80        43.4 0.32                           303 235 
 PTGC HZ EP       1741 38.61                             112   -0.71 7  306 159 
 PTGC HN ES   4   1742 11.25                             112   -2.15 0  306 159 
 ELA  HZ EP   4   1741 44.27                             111    1.46 0  331 230 
 ELA  HN ES       1742 19.37                             111   -0.25 7  331 230 
 ELA  HZ I        1742 35.78        29.7 0.60            112            331 230 
 CBOC HZ EP       1741 43.79                             110    0.78 7  337 253 
 CBOC HN ES       1742 20.54                             110    0.56 7  337 253 
 CBOC HZ I        1742 25.97        12.5 0.48            112            337 253 
 DBB  SZ EP       1741 43.29                             110   -0.37 7  343 274 
 DBB  SZ ES   4   1742 19.49                             110   -1.64 0  343 274 
 TOL  SZ EP   1   1741 45.11                             110    0.93 5  345 225 
 TOL  SN ES       1742 22.04                             110   -0.01 7  345 225 
 TOL  SZ I        1742 26.91        20.7 0.31            112            345 225 
 PRA  HZ EP       1741 49.33                             107    0.02 6  392 210 
 PRA  HN ES       1742 31.04                             107   -0.14 6  392 210 
 PRA  HZ I        1742 35.71        22.9 0.44            109            392 210 
 ORTC HZ EP       1741 50.48                             107    0.72 6  396 217 
 ORTC HN ES       1742 32.14                             107    0.16 6  396 217 
 ORTC HZ I        1742 39.45        17.5 0.66            109            396 217 
 SJC  HZ EP   4   1741 49.23                             106   -2.45 0  413 327 
 SJC  HN ES   4   1742 31.04                             106   -4.37 0  413 327 
 SJC  HZ I        1742 36.10        15.2 0.22            108            413 327 
 CRJC HZ EP   4   1741 56.92                             104   -1.46 0  469   3 
 CRJC HN ES   4   1742 42.88                             104   -4.45 0  469   3 
 CRJC HZ I        1742 54.82        10.6 0.20            106            469   3 
                                                                                
