 2010  9 2 1318 13.7 L   6.832 -73.088136.0  RSN  5 0.4 1.7LRSN                1
 GAP=165        0.81       5.0     8.2  9.7 -0.3795E+01 -0.2501E+01  0.2122E+01E
 Epicentro: LOS SANTOS - SANTANDER                                             3
 ACTION:UP  11-02-18 10:59 OP:tino STATUS:               ID:20100902131813 L   I
 2010-09-02-1314-19S.COL___120                                                 6
 STAT SP IPHASW D HRMM SECON CODA AMPLIT PERI AZIMU VELO SNR AR TRES W  DIS CAZ7
 BRR  HZ EP   1   1318 33.67                             150    -0.4 7   75 294 
 BRR  HZ I        1318 36.07        11.5 0.29                            75 294 
 BRR  HE ES   1   1318 49.99                             150     0.1 7   75 294 
 RUS  HZ EP   1   1318 36.17                             141    -0.6 7  104 180 
 RUS  HZ I        1318 36.89         3.1 0.39                           104 180 
 RUS  HN ES   1   1318 55.11                             141     0.4 7  104 180 
 GRA  SZ EP   1   1318 37.96                             136     0.3 7  121  15 
 GRA  SZ ES   2   1318 56.13                             136    -0.2 5  121  15 
 GRA  SZ I        1318 58.39         6.6 0.38                           121  15 
 HEL  HZ EP   2   1318 55.03                             112     0.8 4  279 255 
 HEL  HZ I        1319 30.53         5.2 0.28                           279 255 
 RREF HZ EP   2   1319  0.24                             109     0.0 3  329 230 
 RREF HN ES   2   1319 36.38                             109    -0.2 3  329 230 
 RREF HZ I        1319 43.17         3.3 0.49                           329 230 
                                                                                
