 2012  9 2 1217 56.2 L   6.800 -73.152144.7  RSN  9 0.5 2.0LRSN                1
 GAP=136        0.88       5.1     5.2  7.4  0.7118E+01  0.1172E+02  0.1267E+02E
 Epicentro: LOS SANTOS - SANTANDER                                             3
 ACTION:UPD 12-10-22 14:16 OP:ep   STATUS:               ID:20120902121756 L   I
 2012-09-02-1210-00M.COL___218                                                 6
 STAT SP IPHASW D HRMM SECON CODA AMPLIT PERI AZIMU VELO AIN AR TRES W  DIS CAZ7
 BAR2 SZ EP       1218 15.67                             171   -0.0610 23.3 188 
 BAR2 SZ ES   1   1218 30.07                             171   -0.88 7 23.3 188 
 BAR2 SZ I        1218 32.06        37.9 0.25                          23.3 188 
 BRR  HZ EP       1218 17.49                             152    0.2610 70.6 299 
 BRR  HE ES   1   1218 34.44                             152    0.83 7 70.6 299 
 BRR  HZ I        1218 38.37        19.9 0.28                          70.6 299 
 PAM  SN ES   2   1218 35.37                             150   -0.25 5 77.8  40 
 RUS  HZ EP   1   1218 19.78                             144   -0.10 7  101 176 
 RUS  HN ES   1   1218 39.02                             144    0.68 7  101 176 
 RUS  HZ I        1218 39.46        15.5 0.31                           101 176 
 PTB  HN ES   1   1218 43.33                             132   -0.65 7  147 259 
 ZAR  HE ES   1   1218 53.40                             122   -0.35 6  203 292 
 ZAR  HZ I        1219  1.28         6.5 0.12                           203 292 
 NOR  SZ EP   2   1218 31.53                             118   -0.31 4  234 234 
 NOR  SN ES   2   1218 59.56                             118   -0.06 4  234 234 
 NOR  SZ I        1219  5.47         7.9 0.22                           234 234 
 CHI  HZ EP       1218 33.85                             117   -0.01 8  249 195 
 CHI  HN ES   1   1219  3.05                             117   -0.15 6  249 195 
 CHI  HZ I        1219  6.67         5.6 0.33                           249 195 
 HEL  HZ EP   1   1218 36.26                             115   -0.06 6  271 256 
 HEL  HN ES   1   1219  8.10                             115    0.51 6  271 256 
 HEL  HZ I        1219 16.06         6.8 0.40                           271 256 
                                                                                
