 2016 12 2 1439  3.3 L   6.228 -73.632108.3  RSN  4 0.3 1.7LRSN                1
 GAP=240        0.70       6.8     2.7  6.3 -0.3653E+01  0.2921E+01 -0.6148E+01E
 Epicentro: LA PAZ - SANTANDER                                                 3
 ACTION:UPD 17-01-11 20:12 OP:rebc STATUS:               ID:20161202143903 L   I
 OLDACT:REG 16-12-02 21:00 OP:lv   STATUS:               ID:20161202143745     3
 2016-12-02-1438-00M.COL___328                                                 6
 STAT SP IPHASW D HRMM SECON CODA AMPLIT PERI AZIMU VELO AIN AR TRES W  DIS CAZ7
 BAR2 EZ EP       1439 20.71                             147    0.3210 64.0  51 
 BAR2 EZ ES       1439 33.94                             147    0.2210 64.0  51 
 BAR2 EZ I        1439 34.97        16.1 0.11            147           64.0  51 
 PTB  HZ EP       1439 22.60                             135   -0.0610 97.5 291 
 PTB  HN ES       1439 37.41                             135   -0.3610 97.5 291 
 PTB  HZ I        1439 40.08         9.0 0.13            134           97.5 291 
 PAM  EZ EP       1439 29.18                             120   -0.27 9  160  40 
 PAM  EN ES       1439 49.56                             120   -0.29 9  160  40 
 ZAR  HZ EP       1439 32.70                             114    0.13 9  195 316 
 ZAR  HE ES       1439 55.73                             114    0.33 9  195 316 
 ZAR  HZ I        1440  0.17         5.3 0.41            114            195 316 
                                                                                
