 2010  5 2 1817  9.0 L   6.814 -73.065141.6  RSN  6 0.4 1.8LRSN                1
 GAP=278        0.89      11.8    12.9 11.4 -0.8958E+02 -0.8121E+02  0.4648E+02E
 Epicentro: LOS SANTOS - SANTANDER                                             3
 ACTION:UP  10-08-24 10:02 OP:vdl  STATUS:               ID:20100502181709 L   I
 2010-05-02-1812-46S.COL___105                                                 6
 STAT SP IPHASW D HRMM SECON CODA AMPLIT PERI AZIMU VELO SNR AR TRES W  DIS CAZ7
 GIR2 SZ EP   1   1817 27.81                             167    -0.4 7   33 334 
 GIR2 SZ ES   2   1817 42.47                             167    -0.7 5   33 334 
 BRR  HZ IP     D 1817 30.26                             150     0.110   79 294 
 BRR  HZ I        1817 32.30        10.6 0.15                            79 294 
 BRR  HE ES   1   1817 47.00                             150     0.4 7   79 294 
 BRI  SZ IP       1817 32.55                             142     0.410  104  17 
 GUE  SZ EP   1   1817 32.81                             140    -0.3 7  113   8 
 GUE  SZ ES   1   1817 52.03                             140     0.1 7  113   8 
 GRA  SZ IP       1817 33.85                             137     0.310  122  14 
 OCA  SZ EP   1   1817 36.21                             129    -0.8 7  160 350 
 OCA  SZ ES   2   1817 58.50                             129    -0.3 5  160 350 
 OCA  SZ I        1818  2.10         8.9 0.22                           160 350 
                                                                                
