 2011  4 2 1730  8.6 L   6.812 -73.152148.8  RSN 33 0.5 4.9LRSN                1
 GAP=103        1.00       3.1     4.5  5.1 -0.3120E+01  0.6841E+01  0.4138E+01E
 Epicentro: LOS SANTOS - SANTANDER                                             3
 Evento Sentido                                                                2
 Reportado como Sentido:                                                       3
 CHIQUINQUIRA, DUITAMA, (BOYACA),BUCARAMANGA, FLORIDABLANCA, PIEDECUESTA,      3
 LEBRIJA,(SANTANDER),  MANIZALES, SAMANA(CALDAS), MEDELLIN, ENVIGADO(ANTIOQUIA)3
 FRESNO, IBAGUE (TOLIMA), BOGOTA                                               3
 ACTION:UP  11-06-22 15:28 OP:REBC STATUS:               ID:20110402173009 L   I
 2011-04-02-1728-35S.COL___138                                                 6
 STAT SP IPHASW D HRMM SECON CODA AMPLIT PERI AZIMU VELO SNR AR TRES W  DIS CAZ7
 BTL  SZ EP       1730 28.68                             173     0.210   17 313 
 BAR2 SZ IP       1730 28.57                             170     0.010   25 188 
 BAR2 SZ ES   1   1730 43.13                             170    -1.1 7   25 188 
 BAR2 SZ I        1730 44.94     12122.5 0.62                            25 188 
 GIR2 SZ EP       1730 28.56                             168     0.010   30 351 
 GIR2 SZ ES   1   1730 43.77                             168    -0.4 7   30 351 
 BRR  HZ IP       1730 30.34                             153     0.410   70 298 
 BRR  HZ I        1730 31.07      9526.4 0.33                            70 298 
 BRR  HE ES   1   1730 47.10                             153     0.4 7   70 298 
 PAM  SZ IP       1730 31.30                             151     0.210   77  41 
 PAM  SN ES   1   1730 48.33                             151    -0.3 7   77  41 
 GUE  SZ EP       1730 33.56                             140     0.110  115  13 
 GRA  SZ IP       1730 34.34                             138     0.410  125  18 
 GRA  SZ I        1730 35.91      7274.2 0.29                           125  18 
 GRA  SZ ES   1   1730 53.84                             138     0.0 7  125  18 
 OCA  SZ EP       1730 37.01                             130     0.0 9  159 353 
 OCA  SZ ES   1   1730 59.10                             130     0.0 7  159 353 
 OCA  SZ I        1731  3.78      5711.8 0.22                           159 353 
 YOP  SZ IP       1730 39.25                             127     0.3 9  180 153 
 YOP  SZ I        1730 40.47      5704.5 0.80                           180 153 
 YOP  SE ES   1   1731  3.31                             127     0.6 7  180 153 
 NOR  SZ IP       1730 44.43                             119    -0.1 8  235 234 
 NOR  SE ES   1   1731 12.93                             119     0.4 6  235 234 
 CHI  HZ IP     C 1730 46.40                             117    -0.2 8  250 195 
 CHI  HE ES   1   1731 15.61                             117    -0.6 6  250 195 
 CHI  HZ I        1731 26.53      4903.2 1.08                           250 195 
 HEL  HZ EP       1730 48.68                             115    -0.2 8  272 255 
 HEL  HZ I        1731 27.98      6214.2 0.44                           272 255 
 GUY  SZ EP       1730 53.01                             113     0.4 7  304 235 
 GUY  SZ I        1731 35.46      7821.6 0.45                           304 235 
 VIL  SZ IP       1730 51.78                             112    -0.5 7  305 191 
 VIL  SE ES   1   1731 26.08                             112    -0.3 5  305 191 
 VIL  SZ I        1731 34.50      4498.4 0.44                           305 191 
 RREF HZ EP       1730 54.97                             111     0.1 7  322 229 
 RREF HZ I        1731 38.54      6182.5 0.73                           322 229 
 DBB  SZ EP       1730 56.52                             110     0.4 7  339 274 
 TOL  SZ EP       1730 57.74                             110     0.7 7  344 224 
 MON  HZ IP     C 1730 55.93                             109    -1.6 6  352 308 
 ANIL HZ EP   2   1730 58.70                             109     0.2 3  358 224 
 SDV  BZ IP     D 1730 58.01                             109    -0.7 6  360  50 
 SOL  SZ EP       1731 11.80                             103    -0.1 5  475 262 
 HORQ SZ EP       1731 17.91                             102    -1.2 4  533 226 
 MARA HZ EP       1731 18.65                             101    -1.1 4  538 215 
 MARA HZ I        1732 39.98       756.5 0.43                           538 215 
 URI  HZ EP   4   1731 19.04                             101    -2.5 0  556  13 
 MAL  SZ EP       1731 23.03                             101     1.3 3  557 236 
 PCON HZ EP       1731 29.21                             100     0.1 3  613 216 
 POP2 HZ EP       1731 28.38                             100    -0.3 3  613 220 
 FLO2 HZ EP       1731 30.74                              99    -1.1 2  641 206 
 SOTA HZ EP       1731 32.95                              99     0.2 2  644 217 
 GOR  SZ EP   3   1731 36.00                              98    -2.6 0  698 233 
 CRU  SZ EP       1731 42.83                              98     1.5 1  717 216 
 GCUF HZ EP       1731 48.57                              97     0.2 0  773 217 
 BCIP BZ EP   3   1731 46.32                              97    -2.5 0  782 290 
 OTAV BZ IP   2   1732  6.17                              95    -1.8 0  935 219 
                                                                                
