 2012  7 2 1356 13.8 L   6.675 -73.233141.8  RSN  6 0.4 2.0LRSN                1
 GAP=196        0.95       6.5     6.3  8.4  0.1193E+02  0.1613E+02  0.2621E+01E
 Epicentro: BARICHARA - SANTANDER                                              3
 ACTION:UPD 12-08-14 11:42 OP:ep   STATUS:               ID:20120702135613 L   I
 2012-07-02-1350-00M.COL___201                                                 6
 STAT SP IPHASW D HRMM SECON CODA AMPLIT PERI AZIMU VELO AIN AR TRES W  DIS CAZ7
 BAR2 SZ EP       1356 32.55                             175    -0.210   11 148 
 BAR2 SZ ES   1   1356 46.75                             175    -0.8 7   11 148 
 BAR2 SZ I        1356 48.85        30.9 0.15            174             11 148 
 BRR  HZ EP       1356 34.47                             152    -0.110   71 312 
 BRR  HN ES   1   1356 51.35                             152     0.7 7   71 312 
 BRR  HZ I        1356 54.14        26.9 0.14            149             71 312 
 RUS  HZ EP   1   1356 36.46                             147     0.2 7   88 169 
 RUS  HE ES   1   1356 54.51                             147     0.7 7   88 169 
 RUS  HZ I        1356 56.18        14.1 0.27            152             88 169 
 PTB  HZ EP   1   1356 39.33                             134    -0.1 7  136 264 
 PTB  HE ES   1   1356 59.04                             134    -0.3 7  136 264 
 PTB  HZ I        1357  4.22         9.9 0.19            133            136 264 
 ZAR  HZ EP   1   1356 45.92                             122     0.3 6  201 297 
 ZAR  HN ES   1   1357 10.64                             122     0.1 6  201 297 
 ZAR  HZ I        1357 20.68         8.5 0.29            123            201 297 
 NOR  SZ EP   1   1356 47.43                             119    -0.2 6  219 236 
 NOR  SE ES   1   1357 13.88                             119    -0.1 6  219 236 
