 2010  1 2 1216 33.2 L   6.780 -73.048143.1  RSN  7 0.4 2.4LRSN                1
 GAP=208        0.68       4.6    10.4  7.6 -0.1763E+02  0.3181E+02  0.5684E+01E
 Epicentro: LOS SANTOS - SANTANDER                                             3
 ACTION:UP  10-08-24 09:42 OP:vdl  STATUS:               ID:20100102121633 L   I
 2010-01-02-1214-41S.COL___096                                                 6
 STAT SP IPHASW D HRMM SECON CODA AMPLIT PERI AZIMU VELO AIN AR TRES W  DIS CAZ7
 BAR2 SZ IP       1216 52.83                             169     0.310   26 216 
 BAR2 SZ ES   2   1217  7.19                             169    -0.5 5   26 216 
 GIR2 SZ EP   1   1216 52.91                             165     0.2 7   37 334 
 GIR2 SZ ES   2   1217  7.49                             165    -0.5 5   37 334 
 OCA  SZ EP   1   1217  1.21                             128    -0.5 7  164 350 
 OCA  SZ ES   2   1217 24.69                             128     0.8 5  164 350 
 CHI  HZ EP   1   1217 10.97                             116     0.1 6  250 198 
 CHI  HE ES   2   1217 40.47                             116     0.2 4  250 198 
 CHI  HZ I        1217 44.00        11.5 0.49                           250 198 
 HEL  HZ EP   1   1217 13.90                             113    -0.5 6  282 257 
 HEL  HE ES   3   1217 47.16                             113     0.6 2  282 257 
 RREF BZ EP   1   1217 20.09                             110     0.1 5  329 231 
 RREF BE ES   2   1217 57.28                             110     0.7 3  329 231 
 RREF BZ I        1218  4.54         8.1 0.48                           329 231 
 PRA  HZ EP   1   1217 26.77                             106    -0.3 4  396 211 
 PRA  HN ES   2   1218  8.22                             106    -0.8 3  396 211 
 PRA  HZ I        1218 14.89         9.6 0.41                           396 211 
                                                                                
