 2016  9 2 1837  6.5 L   6.956 -73.121160.3  RSN  9 0.4 2.2LRSN                1
 GAP=130        0.99       3.9     4.4  6.7 -0.1430E+01  0.6994E+01  0.3177E+01E
 Epicentro: PIEDECUESTA - SANTANDER                                            3
 ACTION:UPD 17-08-17 21:05 OP:lp   STATUS:               ID:20160902183706 L   I
 OLDACT:UP  16-09-02 23:53 OP:dani STATUS:               ID:20160902182739     3
 OLDACT:REG 16-09-02 21:45 OP:edw  STATUS:               ID:20160902182739     3
 2016-09-02-1828-00M.COL___353                                                 6
 STAT SP IPHASW D HRMM SECON CODA AMPLIT PERI AZIMU VELO AIN AR TRES W  DIS CAZ7
 PAM  EZ EP       1837 29.81                             158    0.3010 63.0  48 
 PAM  EE ES       1837 47.26                             158   -0.2310 63.0  48 
 PAM  EZ I        1837 48.07        31.7 0.24            159           63.0  48 
 BRR  HZ EP       1837 29.40                             156    0.4010 67.3 284 
 BRR  HN ES       1837 46.72                             156    0.1410 67.3 284 
 BRR  HZ I        1837 49.26        29.5 0.14            154           67.3 284 
 RUS  HZ EP       1837 32.54                             142   -0.3510  118 178 
 RUS  HE ES       1837 53.12                             142   -0.3710  118 178 
 RUS  HZ I        1837 53.96        10.4 0.29            146            118 178 
 OCA  HE ES       1837 56.85                             136    0.52 9  144 351 
 OCA  HZ I        1838  4.81        23.7 0.39            136            144 351 
 PTB  HZ EP       1837 35.17                             134   -0.08 9  155 253 
 PTB  HE ES       1837 57.33                             134   -0.37 9  155 253 
 PTB  HZ I        1837 58.84        12.2 0.12            135            155 253 
 SPBC HZ EP       1837 37.84                             129    0.31 9  179 216 
 SPBC HN ES   4   1838  0.74                             129   -1.02 0  179 216 
 SPBC HZ I        1838  4.42        11.5 0.12            132            179 216 
 ZAR  HZ EP       1837 39.41                             126   -0.16 9  201 287 
 ZAR  HN ES       1838  4.94                             126   -0.45 9  201 287 
 ZAR  HZ I        1838 11.97        18.9 0.18            126            201 287 
 NOR  HE ES       1838 14.79                             120    0.82 8  247 232 
 CHI  HN ES   4   1838 19.68                             118    1.31 0  266 195 
 SJC  HZ EP       1838  0.16                             109   -0.89 6  396 325 
 SJC  HE ES   4   1838 41.99                             109   -1.64 0  396 325 
 SJC  HZ I        1838 44.53         3.1 0.26            109            396 325 
                                                                                
