 2017  5 2 1445 22.9 L   6.743 -73.155148.0  RSN  5 0.4 1.8LRSN                1
 GAP=138        1.14       5.9     5.6  9.1 -0.8777E+01  0.8566E+01  0.1086E+02E
 Epicentro: LOS SANTOS - SANTANDER                                             3
 ACTION:UPD 17-06-16 13:32 OP:jn   STATUS:               ID:20170502144522 L   I
 OLDACT:REG 17-05-02 20:41 OP:ar   STATUS:               ID:20170502143741     3
 2017-05-02-1438-00M.COL___376                                                 6
 STAT SP IPHASW D HRMM SECON CODA AMPLIT PERI AZIMU VELO AIN AR TRES W  DIS CAZ7
 BRR  HZ EP       1445 44.60                             152    0.2210 73.6 303 
 BRR  HE ES       1446  1.98                             152    0.8110 73.6 303 
 PAM  EZ EP       1445 45.62                             150   -0.0210 83.0  37 
 PAM  EE ES       1446  3.02                             150   -0.4010 83.0  37 
 PAM  EZ I        1446  4.79        12.0 0.46            152           83.0  37 
 RUS  HZ EP       1445 46.40                             146    0.0110 94.3 175 
 RUS  HE ES       1446  4.84                             146    0.0910 94.3 175 
 RUS  HZ I        1446  5.75         8.8 0.36            147           94.3 175 
 PTB  HZ EP       1445 49.31                             133   -0.50 9  146 261 
 PTB  HN ES       1446 10.07                             133   -0.77 9  146 261 
 PTB  HZ I        1446 14.01         5.2 0.22            133            146 261 
 NOR  HZ EP       1445 58.75                             120    0.51 8  230 236 
 NOR  HE ES       1446 25.92                             120    0.08 8  230 236 
 NOR  HZ I        1446 30.83         5.2 0.32            120            230 236 
                                                                                
