 2013 10 2 1921 59.9 L   6.793 -73.152149.5  RSN  9 0.5 2.2LRSN 2.7WRSN        1
 SPEC AVERAGE  MO 13.2 ST197.3 OM  1.4 f0 20.2 R0.1699 AL 0.00 WI 20.0 MW  2.7 3
 SPEC SD       MO  0.1 ST273.3 OM  0.3 f0 12.6 R0.1561 AL      WI      MW  0.1 3
 GAP=136        1.25       3.9     5.6  6.9 -0.3958E+01  0.8511E+01  0.1180E+01E
 Epicentro: LOS SANTOS - SANTANDER                                             3
 SPEC BAR2SH Z MO 13.3 ST194.3 OM  1.4 f0 26.0 R0.0740 AL-0.00 WI 20.0 MW  2.8 3
 SPEC BAR2SH Z T192234 K 0.050 GD  151 VS 5.20 DE 3.20 Q0750.0 QA 1.50 VS 5.20 3
 SPEC BRR HH Z MO 13.2 ST 32.4 OM  1.3 f0 15.0 R0.1283 AL-0.00 WI 20.0 MW  2.7 3
 SPEC BRR HH Z T192237 K 0.050 GD  165 VS 5.20 DE 3.20 Q0750.0 QA 1.50 VS 5.20 3
 SPEC PAM SH Z MO 13.1 ST  2.6 OM  1.2 f0 6.94 R0.2772 AL-0.00 WI 20.0 MW  2.7 3
 SPEC PAM SH Z T192238 K 0.050 GD  168 VS 5.20 DE 3.20 Q0750.0 QA 1.50 VS 5.20 3
 SPEC RUS HH Z MO 12.9 ST  4.9 OM  1.0 f0 9.81 R0.1961 AL-0.00 WI 20.0 MW  2.6 3
 SPEC RUS HH Z T192240 K 0.050 GD  179 VS 5.20 DE 3.20 Q0750.0 QA 1.50 VS 5.20 3
 SPEC PTB HH Z MO 13.1 ST491.7 OM  1.1 f0 40.0 R0.0481 AL-0.00 WI 20.0 MW  2.7 3
 SPEC PTB HH Z T192246 K 0.050 GD  209 VS 5.20 DE 3.20 Q0750.0 QA 1.50 VS 5.20 3
 SPEC SPBCHH Z MO 13.3 ST162.0 OM  1.3 f0 23.3 R0.0826 AL-0.00 WI 20.0 MW  2.8 3
 SPEC SPBCHH Z T192248 K 0.050 GD  220 VS 5.20 DE 3.20 Q0750.0 QA 1.50 VS 5.20 3
 SPEC NOR HH Z MO 13.1 ST 42.6 OM  1.0 f0 17.4 R0.1106 AL-0.00 WI 20.0 MW  2.7 3
 SPEC NOR HH Z T1923 2 K 0.050 GD  277 VS 5.20 DE 3.20 Q0750.0 QA 1.50 VS 5.20 3
 SPEC SML HH Z MO 13.3 ST844.9 OM  1.2 f0 40.0 R0.0481 AL-0.00 WI 20.0 MW  2.8 3
 SPEC SML HH Z T1923 3 K 0.050 GD  286 VS 5.20 DE 3.20 Q0750.0 QA 1.50 VS 5.20 3
 SPEC CHI HH Z MO 13.0 ST0.265 OM  0.9 f0 3.41 R0.5642 AL-0.00 WI 20.0 MW  2.6 3
 SPEC CHI HH Z T1923 5 K 0.050 GD  289 VS 5.20 DE 3.20 Q0750.0 QA 1.50 VS 5.20 3
 OLDACT:REG 13-10-02 18:16 OP:stll STATUS:               ID:20131002191838     3
 ACTION:UPD 13-11-25 09:18 OP:ep   STATUS:               ID:20131002192159 L   I
 OLDACT:UP  13-10-02 20:59 OP:stll STATUS:               ID:20131002191838     3
 2013-10-02-1918-38M.COL___234                                                 6
 STAT SP IPHASW D HRMM SECON CODA AMPLIT PERI AZIMU VELO AIN AR TRES W  DIS CAZ7
 BAR2 SZ EP       1922 19.91                             171   -0.0210 22.5 189 
 BAR2 SZ ES       1922 35.97                             171    0.4010 22.5 189 
 BAR2 SZ I        1922 38.07        32.7 0.24            169           22.5 189 
 BRR  HZ EP       1922 21.60                             153    0.1910 71.0 299 
 BRR  HN ES       1922 39.37                             153    1.1610 71.0 299 
 BRR  SZ I        1922 42.22        27.7 0.36            152           71.0 299 
 PAM  SZ EP       1922 22.70                             151    0.1610 78.4  40 
 PAM  SN ES       1922 39.81                             151   -0.4110 78.4  40 
 PAM  SZ I        1922 41.71        38.8 0.62            156           78.4  40 
 RUS  HZ EP       1922 23.98                             145    0.0410 99.9 176 
 RUS  HN ES       1922 42.19                             145   -0.5210 99.9 176 
 RUS  SZ I        1922 45.03        16.8 0.56            146           99.9 176 
 PTB  HZ EP       1922 26.89                             133   -0.18 9  147 259 
 PTB  HN ES       1922 47.98                             133   -0.31 9  147 259 
 PTB  SZ I        1922 53.73        15.5 0.36            133            147 259 
 SPBC HZ EP       1922 28.93                             130    0.37 9  162 219 
 SPBC HN ES       1922 50.06                             130   -0.88 9  162 219 
 SPBC SZ I        1922 56.30        28.8 0.18            131            162 219 
 NOR  HZ EP       1922 36.08                             119    0.36 8  234 235 
 NOR  HE ES       1923  3.69                             119    0.02 8  234 235 
 NOR  SZ I        1923  9.13        11.3 0.20            120            234 235 
 SML  HZ EP       1922 36.64                             118   -0.11 8  244 336 
 SML  HN ES       1923  4.53                             118   -0.98 8  244 336 
 SML  SZ I        1923  8.78        30.3 0.06            120            244 336 
 CHI  HZ EP       1922 38.23                             118    0.55 8  248 195 
 CHI  HN ES       1923  7.09                             118   -0.08 8  248 195 
 CHI  SZ I        1923 12.71         5.7 0.28            120            248 195 
                                                                                
