 2013  7 2 1622 52.7 L   6.794 -73.149144.2  RSN  8 0.5 2.2LRSN                1
 GAP=136        1.32       5.3     6.0  9.1 -0.4771E+00  0.1084E+02 -0.1886E+01E
 Epicentro: LOS SANTOS - SANTANDER                                             3
 ACTION:UPD 13-08-12 10:34 OP:ep   STATUS:               ID:20130702162252 L   I
 OLDACT:REG 13-07-02 13:43 OP:j    STATUS:               ID:20130702161959     3
 2013-07-02-1619-59M.COL___266                                                 6
 STAT SP IPHASW D HRMM SECON CODA AMPLIT PERI AZIMU VELO AIN AR TRES W  DIS CAZ7
 BAR2 SZ EP     D 1623 12.19                             171    0.1010 22.7 189 
 BAR2 SZ ES       1623 27.00                             171   -0.2410 22.7 189 
 BAR2 SZ I        1623 28.23        52.3 0.22            171           22.7 189 
 GIR2 SZ EP       1623 12.25                             167    0.0910 31.8 351 
 BRR  HZ EP     D 1623 14.04                             152    0.4010 71.2 299 
 BRR  HN ES       1623 31.03                             152    1.0310 71.2 299 
 BRR  HZ I        1623 34.24        38.4 0.30            151           71.2 299 
 PAM  SZ EP       1623 15.10                             150    0.3510 78.1  39 
 PAM  SN ES       1623 32.01                             150    0.0310 78.1  39 
 PAM  SZ I        1623 34.42        27.9 0.66            153           78.1  39 
 RUS  HZ EP       1623 16.15                             144   -0.0610100.0 176 
 RUS  HN ES       1623 34.46                             144   -0.1310100.0 176 
 RUS  HZ I        1623 35.78        15.1 0.28            147          100.0 176 
 PTB  HZ EP       1623 18.96                             132   -0.50 9  147 259 
 PTB  HN ES       1623 39.70                             132   -0.66 9  147 259 
 PTB  HZ I        1623 42.28        19.2 0.10            132            147 259 
 OCA  HN ES       1623 41.80                             129   -1.13 9  161 353 
 ZAR  HZ EP   1   1623 25.72                             122    0.72 6  204 292 
 ZAR  HE ES   1   1623 50.47                             122    0.25 6  204 292 
 ZAR  HZ I        1623 56.88        20.9 0.28            123            204 292 
                                                                                
