 2014  2 2 1759 26.4 L   6.782 -73.140138.5  RSN  8 0.4 1.9LRSN                1
 GAP=138        1.01       3.4     4.9  6.0 -0.4077E+01  0.3418E+01  0.1096E+01E
 Epicentro: LOS SANTOS - SANTANDER                                             3
 ACTION:UPD 14-03-10 08:07 OP:ep   STATUS:               ID:20140202175926 L   I
 OLDACT:REG 14-02-02 15:45 OP:stll STATUS:               ID:20140202175816     3
 2014-02-02-1758-16M.COL___243                                                 6
 STAT SP IPHASW D HRMM SECON CODA AMPLIT PERI AZIMU VELO AIN AR TRES W  DIS CAZ7
 BAR2 SZ ES       1759 59.58                             171   -0.1710 21.5 192 
 BAR2 SZ I        18 0  1.33        31.0 0.14            160           21.5 192 
 BRR  HZ EP       1759 47.19                             151    0.3110 72.7 300 
 BRR  HN ES       18 0  3.75                             151    0.9110 72.7 300 
 BRR  HZ I        18 0  8.20        21.7 0.14            144           72.7 300 
 PAM  SZ EP       1759 48.08                             149    0.1310 78.5  38 
 PAM  SZ I        1759 48.38        30.5 0.26            147           78.5  38 
 PAM  SN ES       18 0  4.74                             149    0.0010 78.5  38 
 RUS  HZ EP       1759 49.23                             143   -0.0910 98.6 176 
 RUS  HN ES       18 0  7.16                             143   -0.0210 98.6 176 
 RUS  HZ I        18 0  8.51         7.0 0.26            131           98.6 176 
 PTB  HZ EP       1759 52.92                             130    0.09 9  148 260 
 PTB  HN ES       18 0 13.04                             130   -0.39 9  148 260 
 PTB  HZ I        18 0 17.02         7.5 0.16            120            148 260 
 SPBC HZ EP       1759 54.24                             128   -0.03 9  162 220 
 SPBC HN ES       18 0 15.60                             128   -0.38 9  162 220 
 SPBC HZ I        18 0 24.88         8.1 0.26            117            162 220 
 OCA  HZ EP       1759 54.51                             128    0.13 9  162 353 
 OCA  HN ES       18 0 15.31                             128   -0.87 9  162 353 
 OCA  HZ I        18 0 17.04         9.3 0.44            122            162 353 
 CHI  HZ EP       18 0  3.79                             116    0.25 8  247 195 
 CHI  HZ I        18 0 42.00         2.8 0.62            107            247 195 
                                                                                
