 2011  6 2 1558 10.6 L   7.393 -73.578156.5  RSN  4 0.4 1.9LRSN                1
 GAP=212        1.02      24.7    23.5 13.4 -0.5125E+03  0.8890E+02 -0.5294E+02E
 Epicentro: SABANA DE TORRES - SANTANDER                                       3
 ACTION:UP  11-07-14 19:02 OP:ep   STATUS:               ID:20110602155810 L   I
 2011-06-02-1556-06S.COL___132                                                 6
 STAT SP IPHASW D HRMM SECON CODA AMPLIT PERI AZIMU VELO SNR AR TRES W  DIS CAZ7
 BRR  HZ EP       1558 31.08                             166    -0.310   35 205 
 BRR  HN ES   2   1558 47.83                             166     0.2 5   35 205 
 BRR  HZ I        1558 50.07        16.8 0.09                            35 205 
 BTL  SZ EP       1558 33.18                             156     0.410   63 147 
 BRI  SZ EP       1558 34.29                             147    -0.210   93  67 
 BRI  SZ ES   1   1558 52.30                             147    -0.8 7   93  67 
 GRA  SZ EP       1558 35.14                             145     0.210  101  57 
 GRA  SZ ES   1   1558 54.66                             145     0.7 7  101  57 
                                                                                
