 2015 11 2 1207 39.6 L   6.807 -73.130154.6  RSN  5 0.5 1.5LRSN                1
 GAP=138        1.07       4.9     8.3  8.4  0.1099E+02  0.6831E+01 -0.6698E+01E
 Epicentro: LOS SANTOS - SANTANDER                                             3
 ACTION:UPD 15-12-28 16:08 OP:cam  STATUS:               ID:20151102120739 L   I
 OLDACT:REG 15-11-02 21:01 OP:cara STATUS:               ID:20151102115748     3
 2015-11-02-1157-48M.COL___310                                                 6
 STAT SP IPHASW D HRMM SECON CODA AMPLIT PERI AZIMU VELO AIN AR TRES W  DIS CAZ7
 BAR2 EZ EP       12 8  0.19                             171   -0.1010 24.4 194 
 BAR2 EZ ES   2   12 8 15.57                             171   -0.87 5 24.4 194 
 BAR2 EZ I        12 8 17.97         8.0 0.46            171           24.4 194 
 BRR  HZ EP       12 8  2.02                             154    0.2810 72.3 297 
 BRR  HN ES       12 8 19.64                             154    0.6010 72.3 297 
 BRR  HZ I        12 8 28.04         4.7 0.22            151           72.3 297 
 PAM  EZ EP       12 8  2.91                             153    0.2710 75.7  39 
 PAM  EN ES       12 8 20.72                             153    0.0910 75.7  39 
 PAM  EZ I        12 8 24.61         2.8 0.46            156           75.7  39 
 RUS  HZ EP       12 8  4.59                             145    0.3410  101 177 
 RUS  HE ES       12 8 22.92                             145   -0.5710  101 177 
 RUS  HZ I        12 8 24.01         3.6 0.26            152            101 177 
 SML  HZ EP       12 8 16.36                             119   -0.35 8  244 335 
 SML  HN ES       12 8 44.93                             119   -0.75 8  244 335 
 SML  HZ I        12 8 51.71         5.4 0.26            122            244 335 
                                                                                
