 2010  1 2 1841 30.2 L   6.793 -73.075150.5  RSN  4 0.2 1.6LRSN                1
 GAP=203        0.40       4.2    18.5  5.3 -0.2396E+02  0.7533E+01  0.7015E+01E
 Epicentro: LOS SANTOS - SANTANDER                                             3
 ACTION:UP  10-08-24 09:42 OP:vdl  STATUS:               ID:20100102184130 L   I
 2010-01-02-1836-03S.COL___097                                                 6
 STAT SP IPHASW D HRMM SECON CODA AMPLIT PERI AZIMU VELO AIN AR TRES W  DIS CAZ7
 BAR2 SZ EP   1   1841 50.33                             170    -0.2 7   25 209 
 BAR2 SZ ES   2   1842  6.14                             170    -0.1 5   25 209 
 GIR2 SZ EP   1   1841 50.65                             167     0.1 7   34 337 
 GIR2 SZ ES   2   1842  6.53                             167     0.1 5   34 337 
 RUS  BZ EP   1   1841 54.61                             145     0.2 7  100 181 
 RUS  BE ES   2   1842 13.05                             145    -0.2 5  100 181 
 RUS  BZ I        1842 14.47         7.5 0.33                           100 181 
 CHI  HZ EP   1   1842  8.11                             118    -0.2 6  250 197 
 CHI  HZ I        1842 10.03         2.5 0.55                           250 197 
 CHI  HN ES   2   1842 38.35                             118     0.3 4  250 197 
                                                                                
