 2010 11 2 1029 46.1 L   6.821 -73.297135.5  RSN  4 0.2 1.3LRSN                1
 GAP=138        0.47       6.5    17.3  7.9  0.3287E+02  0.1966E+02 -0.1868E+02E
 Epicentro: ZAPATOCA - SANTANDER                                               3
 ACTION:UP  10-12-17 16:49 OP:REBC STATUS:               ID:20101102102946 L   I
 2010-11-02-1027-43S.COL___126                                                 6
 STAT SP IPHASW D HRMM SECON CODA AMPLIT PERI AZIMU VELO SNR AR TRES W  DIS CAZ7
 BAR2 SZ EP   2   1030  4.64                             167     0.1 5   28 154 
 BAR2 SZ I        1030 13.76         5.8 0.75                            28 154 
 BAR2 SZ ES   1   1030 18.88                             167    -0.1 7   28 154 
 BRR  HZ EP   2   1030  5.37                             156     0.1 5   56 305 
 BRR  HZ I        1030 24.18        10.6 0.50                            56 305 
 RUS  HZ EP   2   1030  8.83                             140    -0.4 5  105 167 
 RUS  HE ES   2   1030 27.62                             140     0.4 5  105 167 
 RUS  HZ I        1030 28.70         1.5 0.21                           105 167 
 GUE  SZ EP   2   1030 10.18                             136     0.1 5  119  20 
                                                                                
