 2015  4 2 1702 25.3 L   6.823 -73.170146.6  RSN 12 0.4 2.1LRSN                1
 GAP=132        1.00       3.2     3.6  5.3 -0.2161E+01  0.7440E+01 -0.5243E+00E
 Epicentro: LOS SANTOS - SANTANDER                                             3
 ACTION:UPD 15-06-03 16:51 OP:cam  STATUS:               ID:20150402170225 L   I
 OLDACT:REG 15-04-02 21:58 OP:fm   STATUS:               ID:20150402165748     3
 2015-04-02-1657-48M.COL___283                                                 6
 STAT SP IPHASW D HRMM SECON CODA AMPLIT PERI AZIMU VELO AIN AR TRES W  DIS CAZ7
 BAR2 EZ EP       17 2 45.04                             170   -0.0010 25.5 183 
 BAR2 EZ ES       17 2 59.86                             170   -0.6110 25.5 183 
 BAR2 EZ I        17 3  1.65        30.3 0.14            167           25.5 183 
 BRR  HZ IP     C 17 2 46.89                             154    0.5810 67.6 298 
 BRR  HE ES       17 3  3.51                             154    0.7910 67.6 298 
 BRR  HZ I        17 3  7.93        20.9 0.30            149           67.6 298 
 PAM  SZ IP     C 17 2 48.03                             151    0.4710 77.2  42 
 PAM  SE ES       17 3  4.97                             151    0.0210 77.2  42 
 PAM  SZ I        17 3  7.42        13.9 0.52            157           77.2  42 
 RUS  HZ EP       17 2 49.00                             143   -0.2910  103 175 
 RUS  HN ES       17 3  8.04                             143    0.0010  103 175 
 RUS  HZ I        17 3  9.40        13.8 0.26            147            103 175 
 PTB  HZ EP       17 2 51.55                             133   -0.56 9  146 258 
 PTB  HE ES       17 3 12.64                             133   -0.41 9  146 258 
 PTB  HZ I        17 3 20.11        16.3 0.36            132            146 258 
 SPBC HZ EP       17 2 53.89                             129    0.03 9  163 218 
 SPBC HE ES       17 3 16.34                             129    0.18 9  163 218 
 SPBC HZ I        17 3 22.96        20.6 0.20            130            163 218 
 ZAR  HZ EP       17 2 57.34                             123   -0.07 9  201 292 
 ZAR  HN ES       17 3 22.62                             123    0.13 9  201 292 
 ZAR  HZ I        17 3 33.47         9.2 0.30            123            201 292 
 NOR  HZ EP       17 3  1.15                             119    0.18 8  234 234 
 NOR  HN ES       17 3 28.72                             119   -0.09 8  234 234 
 NOR  HZ I        17 3 34.76        11.8 0.18            120            234 234 
 SML  HZ EP       17 3  0.93                             118   -0.64 8  240 336 
 SML  HE ES       17 3 29.36                             118   -0.53 8  240 336 
 SML  HZ I        17 3 33.25        13.1 0.40            120            240 336 
 HEL  HZ EP   1   17 3  6.13                             115    0.83 6  270 255 
 HEL  HE ES       17 3 36.67                             115    0.14 8  270 255 
 HEL  HZ I        17 3 45.36         8.2 0.42            116            270 255 
 GUY2CHZ EP       17 3  8.39                             113   -0.44 7  300 234 
 GUY2CHE ES       17 3 42.80                             113   -0.01 7  300 234 
 GUY2CHZ I        17 3 50.31         6.1 0.48                           300 234 
 CBOC HZ EP       17 3 12.79                             110    0.78 7  332 252 
 CBOC HN ES       17 3 48.22                             110   -0.25 7  332 252 
 CBOC HZ I        17 4  5.89         3.0 0.74            112            332 252 
                                                                                
