 2014  1 2 1007  0.5 L   6.816 -73.111147.7  RSN 16 0.5 2.3LRSN                1
 GAP=121        0.89       2.6     3.9  5.2 -0.1554E+01  0.5663E+01 -0.1024E+01E
 Epicentro: LOS SANTOS - SANTANDER                                             3
 ACTION:UPD 14-03-13 09:50 OP:ep   STATUS:               ID:20140102100700 L   I
 OLDACT:UP  14-01-02 16:26 OP:mher STATUS:               ID:20140102100002d    3
 OLDACT:DUP 14-01-02 16:05 OP:mher STATUS:               ID:20140102100002d    3
 2014-01-02-1000-00M.COL___285                                                 6
 STAT SP IPHASW D HRMM SECON CODA AMPLIT PERI AZIMU VELO AIN AR TRES W  DIS CAZ7
 BAR2 SZ IP     C 10 7 20.57                             170    0.1910 26.0 198 
 BAR2 SZ ES   1   10 7 35.81                             170   -0.10 7 26.0 198 
 BAR2 SZ I        10 7 37.27        55.0 0.35            169           26.0 198 
 PAM  SZ IP     D 10 7 23.45                             152    0.7910 73.6  38 
 PAM  SE ES   1   10 7 40.36                             152    0.39 7 73.6  38 
 PAM  SZ I        10 7 42.80        25.6 0.59            156           73.6  38 
 RUS  HZ IP     D 10 7 24.42                             144   -0.1010  102 178 
 RUS  HN ES       10 7 43.02                             144   -0.2610  102 178 
 RUS  HZ I        10 7 44.83        11.7 0.43            148            102 178 
 PTB  HZ EP   1   10 7 27.46                             132   -0.50 7  152 258 
 PTB  HN ES       10 7 48.93                             132   -0.47 9  152 258 
 PTB  HZ I        10 7 54.76        38.4 0.38            132            152 258 
 OCA  HZ EP   1   10 7 29.39                             130    0.59 7  159 352 
 OCA  HN ES   1   10 7 50.81                             130   -0.09 7  159 352 
 OCA  HZ I        10 7 56.57        16.7 0.15            132            159 352 
 SPBC HZ IP     D 10 7 29.56                             129    0.09 9  167 220 
 SPBC HN ES   1   10 7 51.77                             129   -0.32 7  167 220 
 SPBC HZ I        10 7 58.92        51.2 0.32            131            167 220 
 ZAR  HZ EP       10 7 33.11                             122   -0.22 8  207 291 
 ZAR  HN ES   2   10 7 58.55                             122   -0.41 4  207 291 
 ZAR  HZ I        10 8  5.39        32.7 0.51            123            207 291 
 NOR  HZ EP       10 7 36.52                             118   -0.23 8  239 235 
 NOR  HN ES   1   10 8  5.12                             118    0.07 6  239 235 
 SML  HZ EP       10 7 37.01                             118   -0.18 8  244 334 
 SML  HN ES   1   10 8  5.35                             118   -0.49 6  244 334 
 SML  HZ I        10 8  8.57        19.9 0.10            119            244 334 
 CHI  HZ EP   1   10 7 38.58                             117    0.01 6  251 196 
 CHI  HN ES       10 8  8.80                             117    0.51 8  251 196 
 CHI  HZ I        10 8 12.05         9.6 0.33            120            251 196 
 ROSC BZ EP   4   10 7 40.29                             117    1.22 0  256 212 
 ROSC BN ES   4   10 8 12.20                             117    3.02 0  256 212 
 HEL  HZ EP   1   10 7 42.34                             115    1.11 6  276 256 
 HEL  HN ES   2   10 8 13.41                             115    0.38 4  276 256 
 HEL  HZ I        10 8 19.56        13.7 0.50            116            276 256 
 URE  HZ EP   4   10 7 40.45                             114   -1.50 0  287 291 
 URE  HN ES   4   10 8 10.52                             114   -3.79 0  287 291 
 GUY2CHZ EP       10 7 44.82                             112    0.19 7  305 235 
 GUY2CHN ES   4   10 8 22.21                             112    3.13 0  305 235 
 GUY2CHZ I        10 8 27.60        15.0 0.35                           305 235 
 PTGC HZ EP       10 7 43.34                             112   -1.10 7  309 159 
 CBOC HZ EP       10 7 48.17                             110    0.23 7  338 252 
 CBOC HN ES   2   10 8 26.08                             110    1.11 3  338 252 
 COD  HZ EP   1   10 7 48.31                             109   -0.44 5  347 354 
 COD  HN ES   2   10 8 25.77                             109   -0.64 3  347 354 
 COD  HZ I        10 8 32.82         3.3 0.52            111            347 354 
 ORTC HN ES   2   10 8 37.38                             106    0.05 3  399 216 
 SJC  HZ EP   4   10 7 54.16                             106   -2.00 0  410 326 
 SJC  HN ES   4   10 8 35.74                             106   -3.86 0  410 326 
                                                                                
