 2011  8 2 1304 18.6 L   6.780 -73.092148.5  RSN  5 0.2 1.6LRSN                1
 GAP=144        0.47       3.6     4.6  5.8 -0.1846E+01 -0.3327E+01  0.6116E+01E
 Epicentro: LOS SANTOS - SANTANDER                                             3
 ACTION:UPD 12-07-25 14:05 OP:epov STATUS:               ID:20110802130418 L   I
 2011-08-02-1303-10S.COL___137                                                 6
 STAT SP IPHASW D HRMM SECON CODA AMPLIT PERI AZIMU VELO AIN AR TRES W  DIS CAZ7
 BAR2 SZ EP       13 4 38.28                             171   -0.2410 23.0 206 
 BAR2 SZ I        13 4 38.64        13.1 0.34                          23.0 206 
 PAM  SZ EP       13 4 41.13                             152    0.1610 75.6  35 
 PAM  SE ES   1   13 4 58.32                             152   -0.12 7 75.6  35 
 BRR  HZ EP       13 4 40.21                             151   -0.1610 77.5 298 
 BRR  HZ I        13 4 40.46        13.8 0.26                          77.5 298 
 BRR  HE ES   1   13 4 57.59                             151    0.21 7 77.5 298 
 RUS  HZ EP       13 4 42.61                             145    0.1910 98.1 179 
 RUS  HE ES   2   13 5  0.98                             145   -0.04 5 98.1 179 
 RUS  HZ I        13 5  3.36         2.8 0.28                          98.1 179 
 BRI  SZ EP   2   13 4 42.77                             142    0.04 5  109  17 
                                                                                
