 2016  4 2 1020 15.5 L   6.787 -73.154141.5  RSN  5 0.4 1.3LRSN                1
 GAP=136        0.91       4.4     4.3  9.1 -0.1123E+01  0.9657E+01 -0.6461E+01E
 Epicentro: LOS SANTOS - SANTANDER                                             3
 ACTION:UPD 16-05-05 14:18 OP:rebc STATUS:               ID:20160402102015 L   I
 OLDACT:UP  16-04-02 21:49 OP:mh   STATUS:               ID:20160402101742     3
 OLDACT:REG 16-04-02 20:26 OP:mh   STATUS:               ID:20160402101742     3
 2016-04-02-1017-42M.COL___302                                                 6
 STAT SP IPHASW D HRMM SECON CODA AMPLIT PERI AZIMU VELO AIN AR TRES W  DIS CAZ7
 PAM  EZ EP       1020 37.37                             149    0.0310 79.1  39 
 PAM  EN ES   1   1020 54.12                             149   -0.28 7 79.1  39 
 PAM  EZ I        1020 56.45         3.5 0.56            152           79.1  39 
 RUS  HZ EP       1020 38.58                             143   -0.1210 99.2 175 
 RUS  HN ES       1020 57.19                             143    0.3610 99.2 175 
 RUS  HZ I        1020 58.40         1.7 0.48            147           99.2 175 
 PTB  HZ EP       1020 41.50                             131   -0.48 9  147 259 
 PTB  HN ES       1021  2.08                             131   -0.58 9  147 259 
 PTB  HZ I        1021  3.55         2.2 0.14            133            147 259 
 SPBC HZ EP       1020 43.44                             128   -0.04 9  161 219 
 SPBC HE ES       1021  5.47                             128    0.14 9  161 219 
 SPBC HZ I        1021  7.55         3.6 0.32            131            161 219 
 ZAR  HZ EP   1   1020 48.28                             121    0.68 6  204 293 
 ZAR  HN ES       1021 13.26                             121    0.59 9  204 293 
 ZAR  HZ I        1021 18.87         2.1 0.09            123            204 293 
                                                                                
