 2011 11 2 1048 41.4 L   6.791 -73.140148.0  RSN 10 0.5 2.4LRSN                1
 GAP=138        0.83       3.7     5.3  6.3 -0.2995E+01  0.8977E+01 -0.3914E+00E
 Epicentro: LOS SANTOS - SANTANDER                                             3
 ACTION:UPD 12-07-13 16:07 OP:ep   STATUS:               ID:20111102104841 L   I
 2011-11-02-1047-08S.COL___176                                                 6
 STAT SP IPHASW D HRMM SECON CODA AMPLIT PERI AZIMU VELO AIN AR TRES W  DIS CAZ7
 BAR2 SZ EP       1049  1.33                             171    0.0410 22.5 192 
 BAR2 SZ ES   1   1049 16.61                             171   -0.19 7 22.5 192 
 BAR2 SZ I        1049 18.09        50.5 0.34                          22.5 192 
 BRR  HZ IP     C 1049  3.19                             153    0.3310 72.3 299 
 BRR  HZ I        1049  3.42        80.7 0.20                          72.3 299 
 BRR  HE ES   1   1049 20.45                             153    0.86 7 72.3 299 
 PAM  SZ EP       1049  4.10                             151    0.2110 77.8  39 
 PAM  SE ES   1   1049 21.51                             151    0.09 7 77.8  39 
 RUS  HZ EP       1049  5.05                             145   -0.2610 99.5 176 
 RUS  HN ES   1   1049 23.91                             145   -0.03 7 99.5 176 
 OCA  SZ EP       1049  9.77                             130   -0.23 9  161 353 
 OCA  SZ ES   1   1049 31.33                             130   -0.96 7  161 353 
 OCA  SZ I        1049 37.64        26.0 0.27                           161 353 
 ZAR  HZ EP   1   1049 14.47                             123    0.36 6  205 292 
 ZAR  HE ES   2   1049 39.12                             123   -0.49 4  205 292 
 ZAR  HZ I        1049 46.50        27.1 0.30                           205 292 
 NOR  SZ EP   1   1049 17.51                             119    0.24 6  235 235 
 NOR  SN ES   1   1049 44.33                             119   -0.90 6  235 235 
 HEL  HZ EP   3   1049 21.53                             115   -0.25 2  272 256 
 RREF HZ EP   2   1049 28.43                             111    0.80 3  322 230 
 RREF HZ I        1050 11.11         7.2 0.40                           322 230 
 PRA  HZ EP   2   1049 34.86                             107   -0.08 3  391 210 
 PRA  HN ES   3   1050 17.28                             107    0.58 1  391 210 
                                                                                
