 2013  6 2 1749 24.1 L   6.819 -73.165145.9  RSN  8 0.5 2.2LRSN                1
 GAP=133        1.40       5.5     6.8  8.9 -0.6275E+01 -0.2636E+00 -0.7567E+01E
 Epicentro: LOS SANTOS - SANTANDER                                             3
 ACTION:UPD 14-01-08 09:51 OP:ep   STATUS:               ID:20130602174924 L   I
 2013-06-02-1748-52M.COL___224                                                 6
 STAT SP IPHASW D HRMM SECON CODA AMPLIT PERI AZIMU VELO AIN AR TRES W  DIS CAZ7
 BAR2 SZ EP       1749 43.79                             170   -0.0210 25.2 184 
 BAR2 SZ ES       1749 59.05                             170   -0.1210 25.2 184 
 BAR2 SZ I        1749 59.73        15.8 0.32            171           25.2 184 
 GIR2 SZ EP       1749 43.80                             168    0.0510 28.8 354 
 BRR  HZ IP     C 1749 45.71                             153    0.5810 68.3 298 
 BRR  HE ES       1750  2.64                             153    1.1310 68.3 298 
 BRR  HN I        1750  3.29        61.5 0.36            153           68.3 298 
 PAM  SZ EP       1749 46.72                             151    0.3710 77.2  42 
 PAM  SE ES       1750  3.62                             151   -0.0610 77.2  42 
 PAM  SN I        1750  4.74        22.1 0.50            151           77.2  42 
 RUS  HZ EP       1749 48.29                             143    0.2310  103 175 
 RUS  HN ES       1750  6.12                             143   -0.6110  103 175 
 RUS  HE I        1750  7.57        15.3 0.16            145            103 175 
 PTB  HZ EP       1749 50.56                             132   -0.39 9  146 258 
 PTB  HN ES       1750 11.48                             132   -0.40 9  146 258 
 PTB  HE I        1750 12.79        16.2 0.28            133            146 258 
 CAPV BZ EP       1749 51.83                             132    0.33 9  149  39 
 OCA  HZ EP       1749 52.06                             130   -0.16 9  158 354 
 OCA  HN ES       1750 12.95                             130   -1.19 9  158 354 
 OCA  HN I        1750 17.30        74.2 0.20            131            158 354 
                                                                                
