 2016  6 2 1343 21.7 L   6.836 -73.157142.0  RSN 18 0.5 2.4LRSN 0.6sRSN        1
 GAP= 69        1.12       3.2     3.3  5.0 -0.1768E+01  0.4930E+01  0.2336E+01E
 Epicentro: LOS SANTOS - SANTANDER                                             3
 ACTION:UPD 16-07-21 22:14 OP:rebc STATUS:               ID:20160602134321 L   I
 OLDACT:UP  16-06-03 00:56 OP:ar   STATUS:               ID:20160602133742     3
 OLDACT:REG 16-06-02 21:44 OP:ar   STATUS:               ID:20160602133742     3
 2016-06-02-1337-42M.COL___319                                                 6
 STAT SP IPHASW D HRMM SECON CODA AMPLIT PERI AZIMU VELO AIN AR TRES W  DIS CAZ7
 BAR2 EZ EP       1343 40.84                             169   -0.1510 27.1 186 
 BAR2 EZ ES       1343 56.12                             169    0.1010 27.1 186 
 BAR2 EZ I        1343 57.27        33.4 0.38                          27.1 186 
 BRR  HZ EP       1343 42.56                             153    0.2510 68.3 296 
 BRR  HN ES       1343 59.18                             153    0.8310 68.3 296 
 BRR  HZ I        1344  0.15        45.5 0.16                          68.3 296 
 PAM  EZ EP       1343 43.74                             151    0.3310 75.1  42 
 PAM  EN ES       1344  0.63                             151    0.3110 75.1  42 
 PAM  EZ I        1344  1.19        42.1 0.20                          75.1  42 
 RUS  HZ EP       1343 44.96                             142   -0.4610  105 176 
 RUS  HN ES       1344  4.14                             142    0.2510  105 176 
 RUS  HZ I        1344  5.74        12.5 0.30                           105 176 
 PTB  HZ EP       1343 47.72                             131   -0.64 9  147 257 
 PTB  HN ES       1344  8.36                             131   -0.77 9  147 257 
 PTB  HZ I        1344 14.55        21.6 0.12                           147 257 
 OCA  HZ EP       1343 49.41                             130    0.05 9  156 353 
 OCA  HN ES       1344 10.27                             130   -0.64 9  156 353 
 OCA  HZ I        1344 16.03        60.7 0.28                           156 353 
 TAM  HZ EP       1343 49.27                             129   -0.06 9  157 106 
 TAM  HE ES       1344 10.67                             129   -0.18 9  157 106 
 SPBC HZ EP       1343 50.21                             128    0.04 9  166 218 
 SPBC HN ES       1344 11.89                             128   -0.47 9  166 218 
 SPBC HZ I        1344 18.88        41.0 0.26                           166 218 
 NOR  HZ EP       1343 57.30                             118   -0.09 8  236 233 
 NOR  HN ES       1344 24.78                             118   -0.43 8  236 233 
 NOR  HZ I        1344 31.15        21.7 0.32                           236 233 
 CHI  HZ EP       1343 59.35                             116   -0.26 8  252 195 
 CHI  HN ES       1344 29.13                             116   -0.03 8  252 195 
 CHI  HZ I        1344 32.31        10.1 0.28                           252 195 
 HEL  HZ EP       1344  2.30                             114    0.57 8  272 255 
 HEL  HN ES   4   1344 35.76                             114    2.82 0  272 255 
 HEL  HZ I        1344 40.38        11.2 0.22                           272 255 
 URE  HZ EP       1344  1.48                             113   -0.84 7  281 291 
 URE  HN ES   4   1344 31.48                             113   -2.51 0  281 291 
 URE  HZ I        1344 36.34        20.8 0.14                           281 291 
 CBOC HZ EP       1344  9.22                             109    0.72 7  334 251 
 CBOC HN ES       1344 46.04                             109    1.06 7  334 251 
 CBOC HZ I        1344 55.24         4.8 0.50                           334 251 
 DBB  SZ EP       1344  8.68                             109   -0.20 7  338 274 
 DBB  SZ ES   4   1344 48.35                             109    2.69 0  338 274 
 DBB  SZ I        1344 53.52        24.5 0.70                           338 274 
 ANIL HZ EP       1344 12.78                             108    1.15 6  359 224 
 ANIL HN ES   4   1344 53.97                             108    3.43 0  359 224 
 ANIL HZ I        1345  1.45        15.5 52.0                           359 224 
 PRA  HZ EP       1344 15.57                             106    0.11 6  395 209 
 PRA  HN ES   4   1344 56.59                             106   -0.78 0  395 209 
 PRA  HZ I        1345  1.36        10.3 0.40                           395 209 
 ORTC HZ EP       1344 16.35                             106    0.53 6  398 216 
 ORTC HN ES   4   1345  0.53                             106    2.52 0  398 216 
 ORTC HZ I        1345  5.20         7.9 0.26                           398 216 
 PAL  HZ EP       1344 16.62                             105   -0.27 6  407 238 
 PAL  HN ES       1345  0.49                             105    0.58 6  407 238 
 PAL  HZ I        1345 15.29         4.2 0.72                           407 238 
 CRJC HZ EP   4   1344 23.92                             103    0.26 0  464   4 
 CRJC HN ES   4   1345  8.39                             103   -3.57 0  464   4 
                                                                                
