 2011  9 2 1702 56.3 L   5.912 -73.895 90.1  RSN  5 0.3 1.6LRSN                1
 GAP=196        0.67       2.8     9.2 15.4 -0.3825E+01  0.1043E+03 -0.2359E+01E
 Epicentro: SUCRE - SANTANDER                                                  3
 ACTION:UPD 12-07-13 15:55 OP:ep   STATUS:               ID:20110902170256 L   I
 2011-09-02-1700-35S.COL___170                                                 6
 STAT SP IPHASW D HRMM SECON CODA AMPLIT PERI AZIMU VELO AIN AR TRES W  DIS CAZ7
 RUS  HZ EP   1   17 3 13.91                             132   -0.16 7 89.9  91 
 RUS  HZ I        17 3 14.43         4.1 0.20                          89.9  91 
 RUS  HN ES   1   17 3 27.74                             132   -0.21 7 89.9  91 
 BAR2 SZ EP   1   17 3 15.52                             125   -0.04 7  109  46 
 BAR2 SZ ES   1   17 3 31.12                             125    0.51 7  109  46 
 BAR2 SZ I        17 3 33.63        44.1 0.35                           109  46 
 BRR  HZ EP   1   17 3 17.60                             119   -0.22 7  134   9 
 BRR  HZ I        17 3 33.98        10.3 0.39                           134   9 
 BRR  HE ES   1   17 3 34.60                             119   -0.04 7  134   9 
 CHI  HZ EP   1   17 3 20.04                             118    0.68 7  143 173 
 CHI  HE ES   1   17 3 37.07                             118   -0.31 7  143 173 
 CHI  HZ I        17 3 46.50         3.1 0.39                           143 173 
 GIR2 SZ EP   2   17 3 19.39                             116   -0.46 5  151  31 
                                                                                
