 2017  7 2 1203  8.9 L   6.709 -73.115154.5  RSN  5 0.4 1.3LRSN                1
 GAP=176        0.96       7.3     6.2  8.1 -0.2607E+02  0.1320E+01  0.7581E+01E
 Epicentro: JORDAN - SANTANDER                                                 3
 ACTION:UPD 17-08-30 15:29 OP:rebc STATUS:               ID:20170702120308 L   I
 OLDACT:REG 17-07-02 23:02 OP:ar   STATUS:               ID:20170702115739     3
 2017-07-02-1158-00M.COL___377                                                 6
 STAT SP IPHASW D HRMM SECON CODA AMPLIT PERI AZIMU VELO AIN AR TRES W  DIS CAZ7
 BAR2 EZ EP       12 3 29.61                             174    0.1910 14.9 210 
 BAR2 EZ ES       12 3 44.98                             174   -0.4710 14.9 210 
 BAR2 EZ I        12 3 47.08         4.0 0.34            174           14.9 210 
 BRR  HZ EP   2   12 3 31.71                             151    0.29 5 79.3 304 
 BRR  HE ES       12 3 48.72                             151   -0.2910 79.3 304 
 PAM  HZ EP       12 3 31.91                             150   -0.4710 83.5  33 
 PAM  EN ES       12 3 51.38                             150    0.6610 83.5  33 
 PTB  HZ EP       12 3 36.55                             134   -0.16 9  149 263 
 PTB  HE ES       12 3 58.71                             134    0.28 9  149 263 
 SPBC HN ES       12 4  0.17                             132    0.25 9  158 222 
                                                                                
