 2013  7 2 1042 50.5 L   6.465 -73.593110.2  RSN  7 0.4 1.6LRSN                1
 GAP=137        0.83       4.8     4.2  7.4  0.6852E+01  0.1033E+02 -0.2847E+01E
 Epicentro: SANTA HELENA DEL OPON - SANTANDER                                  3
 ACTION:UPD 13-08-12 10:34 OP:ep   STATUS:               ID:20130702104250 L   I
 OLDACT:REG 13-07-02 13:32 OP:j    STATUS:               ID:20130702103959     3
 2013-07-02-1039-59M.COL___267                                                 6
 STAT SP IPHASW D HRMM SECON CODA AMPLIT PERI AZIMU VELO AIN AR TRES W  DIS CAZ7
 BAR2 SZ IP     C 1043  7.16                             155    0.3010 47.6  73 
 BAR2 SZ ES       1043 19.49                             155   -0.1010 47.6  73 
 BRR  HE ES   1   1043 21.80                             144    0.10 7 72.2 350 
 BRR  HZ I        1043 23.41        12.5 0.28            148           72.2 350 
 GIR2 SZ EP       1043  8.73                             141   -0.1610 81.0  33 
 RUS  HZ EP   1   1043  8.81                             140   -0.86 7 84.8 138 
 RUS  HN ES   1   1043 25.12                             140    0.51 7 84.8 138 
 RUS  HZ I        1043 27.31         5.2 0.22            145           84.8 138 
 PTB  HZ IP     C 1043  9.92                             136    0.0110 95.8 275 
 PTB  HN ES   1   1043 24.80                             136   -0.24 7 95.8 275 
 PTB  HZ I        1043 29.60         9.4 0.26            136           95.8 275 
 ZAR  HZ EP   1   1043 19.06                             117    0.77 7  180 309 
 ZAR  HE ES   1   1043 39.80                             117   -0.14 7  180 309 
 ZAR  HZ I        1043 44.14         7.2 0.28            120            180 309 
 GUY2CHZ EP   4   1043 28.92                             110    3.38 0  239 235 
 SML  HE ES   1   1043 56.61                             107   -0.18 6  264 348 
                                                                                
