 2015 10 2 1559 26.1 L   6.804 -73.151146.0  RSN 12 0.4 1.9LRSN                1
 GAP=136        0.78       2.5     3.1  4.8 -0.7201E+00  0.3150E+01  0.2109E+01E
 Epicentro: LOS SANTOS - SANTANDER                                             3
 ACTION:UPD 15-12-22 20:37 OP:cam  STATUS:               ID:20151002155926 L   I
 OLDACT:REG 15-10-02 20:57 OP:spq  STATUS:               ID:20151002155748     3
 2015-10-02-1557-48M.COL___351                                                 6
 STAT SP IPHASW D HRMM SECON CODA AMPLIT PERI AZIMU VELO AIN AR TRES W  DIS CAZ7
 BAR2 EZ EP       1559 45.73                             170   -0.0710 23.7 188 
 BAR2 EZ ES   1   16 0  0.99                             170   -0.15 7 23.7 188 
 BAR2 EZ I        16 0  2.14        26.9 0.18            169           23.7 188 
 BRR  HZ EP   1   1559 47.82                             153    0.55 7 70.4 298 
 BRR  HN ES       16 0  3.97                             153    0.2210 70.4 298 
 BRR  HZ I        16 0  5.91        17.6 0.34            149           70.4 298 
 PAM  EZ EP     D 1559 48.51                             151    0.1310 77.4  40 
 PAM  EN ES       16 0  5.69                             151   -0.0410 77.4  40 
 PAM  EZ I        16 0  6.39         6.5 0.16            154           77.4  40 
 RUS  HZ EP       1559 49.69                             144   -0.2610  101 176 
 RUS  HE ES       16 0  8.29                             144   -0.2310  101 176 
 RUS  HZ I        16 0  9.51         6.1 0.30            145            101 176 
 PTB  HZ EP       1559 52.48                             132   -0.59 9  147 259 
 PTB  HN ES       16 0 13.65                             132   -0.44 9  147 259 
 PTB  HZ I        16 0 18.16         7.9 0.18            130            147 259 
 OCA  HN ES   1   16 0 17.16                             130    0.69 7  160 353 
 OCA  HZ I        16 0 18.93        23.5 0.24            130            160 353 
 SPBC HZ EP   1   1559 55.07                             129    0.42 7  163 219 
 SPBC HE ES       16 0 16.93                             129    0.04 9  163 219 
 SPBC HZ I        16 0 19.96        13.5 0.10            128            163 219 
 ZAR  HE ES       16 0 23.80                             122    0.02 9  203 292 
 ZAR  HZ I        16 0 32.20         8.3 0.32            121            203 292 
 NOR  HZ EP       16 0  2.05                             118    0.20 8  234 234 
 NOR  HE ES       16 0 30.22                             118    0.51 8  234 234 
 NOR  HZ I        16 0 35.35         7.4 0.52            118            234 234 
 SML  HZ EP   2   16 0  2.02                             117   -0.68 4  243 335 
 SML  HN ES   1   16 0 30.62                             117   -0.60 6  243 335 
 SML  HZ I        16 0 35.08        10.4 0.10            117            243 335 
 CHI  HZ EP       16 0  4.00                             117    0.12 8  249 195 
 CHI  HN ES   1   16 0 33.82                             117    0.51 6  249 195 
 CHI  HZ I        16 0 38.88         2.9 0.30            118            249 195 
 GUY2CHZ EP   1   16 0  9.52                             112   -0.21 5  301 235 
 GUY2CHE ES   4   16 0 45.21                             112    1.48 0  301 235 
 GUY2CHZ I        16 0 52.27         6.9 0.34                           301 235 
                                                                                
