 2012  1 2 1847  2.1 L   6.712 -73.119144.1  RSN  8 0.5 2.0LRSN                1
 GAP=144        1.02       7.2     7.4 11.0 -0.1622E+02  0.8081E+01  0.2577E+02E
 Epicentro: JORDAN - SANTANDER                                                 3
 ACTION:UP  12-02-03 08:13 OP:REBC STATUS:               ID:20120102184702 L   I
 2012-01-02-1840-00M.COL___187                                                 6
 STAT SP IPHASW D HRMM SECON CODA AMPLIT PERI AZIMU VELO SNR AR TRES W  DIS CAZ7
 BAR2 SZ EP       1847 21.42                             174     0.010   15 208 
 BAR2 SZ I        1847 38.33        22.0 0.48                            15 208 
 BRR  HZ EP       1847 23.41                             150    -0.110   79 304 
 BRR  HE ES   1   1847 40.76                             150     0.5 7   79 304 
 BRR  HZ I        1847 43.20        21.5 0.38                            79 304 
 PAM  SZ EP       1847 24.26                             148    -0.310   83  34 
 PAM  SN ES   1   1847 41.60                             148    -0.4 7   83  34 
 RUS  HZ EP       1847 25.31                             146     0.310   91 178 
 RUS  HZ I        1847 45.76        12.3 0.40                            91 178 
 PTB  HZ EP   1   1847 28.31                             131    -0.8 7  149 263 
 PTB  HN ES   3   1847 49.32                             131    -0.8 2  149 263 
 PTB  HZ I        1847 51.39        10.6 0.18                           149 263 
 OCA  SZ EP       1847 31.86                             127     0.6 9  170 353 
 OCA  SZ I        1847 58.66        20.1 0.30                           170 353 
 ZAR  HN ES   3   1847 59.36                             121    -1.5 2  211 294 
 ZAR  HZ I        1848  6.97         9.6 0.36                           211 294 
 NOR  SZ EP       1847 37.37                             118     0.0 8  232 237 
 NOR  SN ES   2   1848  5.15                             118     0.2 4  232 237 
                                                                                
