 2011 10 2 1942 26.5 L   6.758 -73.174139.1  RSN  9 0.3 2.1LRSN                1
 GAP=135        0.66       2.3     3.6  4.4 -0.7142E+00  0.2980E+01  0.8569E+00E
 Epicentro: LOS SANTOS - SANTANDER                                             3
 ACTION:UPD 12-07-13 16:01 OP:ep   STATUS:               ID:20111002194226 L   I
 2011-10-02-1938-41S.COL___168                                                 6
 STAT SP IPHASW D HRMM SECON CODA AMPLIT PERI AZIMU VELO AIN AR TRES W  DIS CAZ7
 BAR2 SZ EP       1942 44.99                             172   -0.2810 18.4 183 
 BAR2 SZ ES   1   1942 59.67                             172   -0.21 7 18.4 183 
 BAR2 SZ I        1943  1.12        34.0 0.21                          18.4 183 
 BRR  HZ IP     C 1942 47.26                             151    0.3210 70.9 303 
 BRR  HE ES       1943  3.41                             151    0.5410 70.9 303 
 BRR  HZ I        1943  5.26        36.6 0.19                          70.9 303 
 PAM  SZ EP       1942 48.40                             148    0.0110 82.9  39 
 PAM  SN ES   1   1943  5.14                             148   -0.30 7 82.9  39 
 RUS  HZ EP       1942 49.24                             144   -0.0710 96.3 174 
 RUS  HN ES       1943  7.13                             144    0.0510 96.3 174 
 RUS  HZ I        1943  9.24        17.9 0.46                          96.3 174 
 OCA  SZ EP       1942 54.71                             127   -0.03 9  165 354 
 OCA  SZ ES   1   1943 16.44                             127   -0.31 7  165 354 
 OCA  SZ I        1943 17.43        13.5 0.20                           165 354 
 ZAR  HZ EP   2   1942 57.99                             121   -0.45 4  203 294 
 ZAR  HE ES   2   1943 22.96                             121   -0.37 4  203 294 
 ZAR  HZ I        1943 28.54        18.3 0.33                           203 294 
 NOR  SZ EP   1   1943  1.25                             118   -0.07 6  229 235 
 NOR  SE ES   1   1943 27.72                             118   -0.73 6  229 235 
 CHI  HZ EP       1943  3.70                             116    0.41 8  243 195 
 CHI  HN ES   1   1943 32.21                             116    0.25 6  243 195 
 CHI  HZ I        1943 35.61         7.8 0.27                           243 195 
 HEL  HZ EP   2   1943  6.22                             114    0.27 4  268 257 
 HEL  HN ES   2   1943 36.40                             114   -0.30 4  268 257 
 HEL  HZ I        1943 43.11         5.5 0.33                           268 257 
                                                                                
