 2010 11 2 1054 41.0 L   6.787 -73.148149.5  RSN  5 0.3 1.5LRSN                1
 GAP=159        0.59       4.6     9.8  7.1 -0.1464E+01 -0.1518E+02 -0.6770E+01E
 Epicentro: LOS SANTOS - SANTANDER                                             3
 ACTION:UP  10-12-17 16:49 OP:REBC STATUS:               ID:20101102105441 L   I
 2010-11-02-1051-01S.COL___126                                                 6
 STAT SP IPHASW D HRMM SECON CODA AMPLIT PERI AZIMU VELO SNR AR TRES W  DIS CAZ7
 BAR2 SZ EP       1055  0.81                             171    -0.210   22 190 
 BAR2 SZ ES   1   1055 16.75                             171     0.1 7   22 190 
 BAR2 SZ I        1055 17.79         7.6 0.15                            22 190 
 BRR  HZ EP   1   1055  2.58                             153     0.0 7   72 300 
 BRR  HZ I        1055  5.46         7.9 0.45                            72 300 
 BRR  HE ES   2   1055 19.42                             153     0.0 5   72 300 
 RUS  HZ EP   1   1055  5.01                             145     0.0 7   99 176 
 RUS  HN ES   2   1055 23.99                             145     0.2 5   99 176 
 RUS  HZ I        1055 24.62         4.5 0.22                            99 176 
 GUE  SZ EP   2   1055  7.04                             140     0.9 5  118  12 
 GRA  SZ EP   1   1055  6.58                             137    -0.1 7  127  17 
 GRA  SZ ES   2   1055 26.54                             137    -0.2 5  127  17 
 GRA  SZ I        1055 27.62         4.2 0.29                           127  17 
                                                                                
