 2010 10 2 1004 10.9 L   6.811 -73.139142.9  RSN 16 0.6 3.3LRSN                1
 GAP=159        1.50       4.1     6.8  6.9 -0.9973E+01  0.1372E+02  0.4688E+01E
 Epicentro: LOS SANTOS - SANTANDER                                             3
 ACTION:UP  11-02-18 11:07 OP:tino STATUS:               ID:20101002100410 L   I
 2010-10-02-1001-06S.COL___124                                                 6
 STAT SP IPHASW D HRMM SECON CODA AMPLIT PERI AZIMU VELO SNR AR TRES W  DIS CAZ7
 BAR2 SZ EP       10 4 30.25                             170     0.010   25 191 
 BAR2 SZ ES       10 4 45.11                             170    -0.210   25 191 
 BAR2 SZ I        10 4 47.64       588.4 0.61                            25 191 
 GIR2 SZ EP       10 4 30.37                             167     0.110   30 349 
 GIR2 SZ ES       10 4 45.29                             167     0.010   30 349 
 BRR  HZ EP       10 4 32.15                             152     0.410   71 297 
 BRR  HN ES       10 4 49.26                             152     1.210   71 297 
 BRR  HZ I        10 4 53.44       367.1 0.28                            71 297 
 RUS  HZ EP       10 4 34.21                             143    -0.310  102 176 
 RUS  HN ES       10 4 52.32                             143    -0.510  102 176 
 RUS  HZ I        10 4 53.78       244.6 0.22                           102 176 
 GUE  SZ EP       10 4 35.30                             139     0.010  115  12 
 GUE  SZ I        10 4 36.47        36.9 0.06                           115  12 
 GRA  SZ IP       10 4 36.22                             137     0.410  124  17 
 GRA  SZ ES   1   10 4 55.39                             137     0.2 7  124  17 
 GRA  SZ I        10 4 56.77       243.1 0.23                           124  17 
 OCA  SZ EP       10 4 38.87                             129     0.0 9  159 353 
 OCA  SZ ES       10 4 59.41                             129    -1.3 9  159 353 
 OCA  SZ I        10 5  5.08       221.4 0.35                           159 353 
 NOR  SZ EP       10 4 45.96                             118    -0.7 8  236 234 
 NOR  SN ES       10 5 13.58                             118    -0.9 8  236 234 
 CHI  HZ EP       10 4 48.34                             116    -0.3 8  250 195 
 CHI  HN ES       10 5 18.48                             116     0.5 8  250 195 
 CHI  HZ I        10 5 21.79        70.7 0.48                           250 195 
 ROSC BZ EP       10 4 49.79                             116     0.7 8  254 211 
 ROSC BN ES   2   10 5 18.92                             116     0.1 4  254 211 
 ROSC BZ I        10 5 26.57       105.1 0.13                           254 211 
 HEL  HZ EP   1   10 4 52.26                             114     1.2 6  273 256 
 HEL  HN ES   1   10 5 22.33                             114    -0.1 6  273 256 
 HEL  HZ I        10 5 28.81       121.0 0.49                           273 256 
 RREF HZ EP       10 4 56.86                             110    -0.2 7  323 229 
 RREF HN ES       10 5 33.21                             110     0.1 7  323 229 
 RREF HZ I        10 5 40.54        74.1 0.98                           323 229 
 DBB  SZ EP       10 4 58.44                             109     0.1 7  340 274 
 DBB  SZ ES   1   10 5 34.22                             109    -1.1 5  340 274 
 TOL  SZ EP       10 4 59.54                             109     0.3 7  345 225 
 TOL  SZ ES   1   10 5 36.45                             109    -0.4 5  345 225 
 ANIL HZ EP       10 5  1.49                             108     0.7 6  359 224 
 ANIL HN ES   1   10 5 39.47                             108    -0.2 5  359 224 
 ANIL HZ I        10 5 45.64       137.8 0.43                           359 224 
 PRA  HZ EP       10 5  3.63                             106    -0.9 6  393 210 
 PRA  HN ES       10 5 47.06                             106     0.7 6  393 210 
 PRA  HZ I        10 5 52.87       250.0 0.69                           393 210 
                                                                                
