 2013 10 2 1126 15.9 L   6.833 -73.390122.2  RSN  5 0.4 1.6LRSN                1
 GAP=116        0.97       6.1     7.3  7.4  0.1335E+02  0.3253E+01 -0.1609E+02E
 Epicentro: SAN VICENTE DE CHUCURI - SANTANDER                                 3
 ACTION:UPD 13-11-25 09:18 OP:ep   STATUS:               ID:20131002112615 L   I
 OLDACT:REG 13-10-02 13:49 OP:stll STATUS:               ID:20131002111843     3
 2013-10-02-1118-43M.COL___231                                                 6
 STAT SP IPHASW D HRMM SECON CODA AMPLIT PERI AZIMU VELO AIN AR TRES W  DIS CAZ7
 BAR2 SZ EP       1126 33.14                             163    0.0710 35.2 139 
 BAR2 SZ ES       1126 45.89                             163   -0.5710 35.2 139 
 BAR2 SZ I        1126 47.33        38.2 0.44            165           35.2 139 
 BRR  HZ EP       1126 33.57                             158    0.3810 46.7 310 
 BRR  HN ES       1126 47.10                             158    0.4310 46.7 310 
 BRR  HZ I        1126 49.14        10.8 0.58            156           46.7 310 
 PAM  SZ EP       1126 37.20                             140    0.2510 94.7  54 
 PTB  HZ EP       1126 38.36                             132   -0.2810  122 255 
 PTB  HZ I        1126 40.99         2.7 0.16            131            122 255 
 SML  HZ EP       1126 49.96                             113    0.15 8  230 341 
 SML  HN ES       1127 15.65                             113   -0.61 8  230 341 
                                                                                
