 2013  7 2 1841 13.6 L   6.785 -73.136148.5  RSN 10 0.4 2.0LRSN                1
 GAP=139        0.99       3.5     4.3  6.7 -0.2066E+01  0.4966E+01  0.3315E+01E
 Epicentro: LOS SANTOS - SANTANDER                                             3
 ACTION:UPD 13-08-12 10:34 OP:ep   STATUS:               ID:20130702184113 L   I
 OLDACT:REG 13-07-02 18:27 OP:y    STATUS:               ID:20130702183959     3
 2013-07-02-1839-59M.COL___267                                                 6
 STAT SP IPHASW D HRMM SECON CODA AMPLIT PERI AZIMU VELO AIN AR TRES W  DIS CAZ7
 BAR2 SZ EP       1841 33.59                             171    0.0810 21.9 194 
 BAR2 SZ ES       1841 48.61                             171   -0.4410 21.9 194 
 BAR2 SZ I        1841 50.95        17.5 0.26            167           21.9 194 
 GIR2 SZ EP       1841 33.70                             167    0.0810 33.2 349 
 BRR  HZ EP       1841 35.44                             152    0.3210 73.0 299 
 BRR  HN ES       1841 52.59                             152    0.6610 73.0 299 
 BRR  HZ I        1841 55.80        18.4 0.16            151           73.0 299 
 PAM  SZ EP       1841 36.37                             151    0.2510 78.0  38 
 PAM  SN ES       1841 53.39                             151   -0.3210 78.0  38 
 PAM  SZ I        1841 55.76        20.8 0.54            157           78.0  38 
 RUS  HZ EP       1841 37.21                             145   -0.2610 98.8 177 
 RUS  HN ES       1841 56.41                             145    0.3010 98.8 177 
 RUS  HZ I        1841 59.05         8.1 0.38            145           98.8 177 
 PTB  HZ EP       1841 40.25                             132   -0.58 9  149 260 
 PTB  HN ES       1842  1.39                             132   -0.71 9  149 260 
 PTB  HZ I        1842  8.98        24.2 0.46            131            149 260 
 OCA  HN ES       1842  4.72                             130    0.07 9  162 353 
 ZAR  HE ES   1   1842 11.80                             123   -0.15 6  206 292 
 ZAR  HZ I        1842 19.75        10.2 0.46            123            206 292 
 NOR  HE ES       1842 18.10                             119    0.66 8  235 235 
 CHI  HZ EP   1   1841 51.19                             118   -0.09 6  247 196 
 CHI  HN ES   1   1842 20.83                             118    0.14 6  247 196 
 CHI  HZ I        1842 30.62         5.6 0.36            119            247 196 
                                                                                
