 2017  7 2 1009 40.0 L   6.634 -73.311136.4  RSN 11 0.5 2.1LRSN                1
 GAP=138        1.14       4.7     3.4  6.9  0.3550E+01  0.3328E+01  0.3686E+01E
 Epicentro: GALAN - SANTANDER                                                  3
 ACTION:UPD 17-08-30 15:29 OP:rebc STATUS:               ID:20170702100940 L   I
 OLDACT:UP  17-07-02 21:51 OP:ar   STATUS:               ID:20170702100742     3
 OLDACT:UP  17-07-02 21:50 OP:ar   STATUS:               ID:20170702100742     3
 OLDACT:UP  17-07-02 21:47 OP:ar   STATUS:               ID:20170702100742     3
 OLDACT:REG 17-07-02 21:11 OP:osc  STATUS:               ID:20170702100742     3
 2017-07-02-1008-00M.COL___374                                                 6
 STAT SP IPHASW D HRMM SECON CODA AMPLIT PERI AZIMU VELO AIN AR TRES W  DIS CAZ7
 BAR2 EZ EP     C 10 9 57.95                             173   -0.4210 15.0 108 
 BAR2 EZ ES       1010 12.24                             173   -0.4510 15.0 108 
 BAR2 EZ I        1010 13.16        20.0 0.58            174           15.0 108 
 BRR  HZ IP     C 1010  0.15                             152    0.1510 68.5 320 
 BRR  HN ES       1010 15.84                             152    0.2510 68.5 320 
 BRR  HZ I        1010 16.50        55.3 0.20            152           68.5 320 
 PTB  HZ EP       1010  4.10                             134   -0.2610  127 265 
 PTB  HN ES   4   1010 20.46                             134   -2.89 0  127 265 
 PTB  HZ I        1010 27.72         9.3 0.30            133            127 265 
 SPBC HZ EP       1010  6.38                             132    1.00 9  137 218 
 SPBC HN ES       1010 25.55                             132    0.38 9  137 218 
 SPBC HZ I        1010 30.61        11.8 0.24            131            137 218 
 TAM  HZ IP       1010  8.58                             126    0.21 9  170  97 
 TAM  HN ES       1010 30.59                             126    0.10 9  170  97 
 YPLC HE ES       1010 31.11                             125    0.23 9  171 143 
 ZAR  HZ EP       1010 11.18                             121    0.21 9  195 299 
 ZAR  HN ES       1010 35.14                             121    0.03 9  195 299 
 ZAR  HZ I        1010 39.29        20.5 0.40            122            195 299 
 NOR  HZ EP   4   1010 14.37                             119    1.90 0  209 236 
 NOR  HN ES       1010 36.81                             119   -0.97 8  209 236 
 NOR  HZ I        1010 41.86         7.7 0.32            119            209 236 
 HEL  HZ EP   4   1010 19.23                             115    1.91 0  250 259 
 HEL  HN ES       1010 46.74                             115    0.32 8  250 259 
 HEL  HZ I        1010 51.78         5.8 0.22            115            250 259 
 URE  HZ EP       1010 19.21                             112   -0.40 8  275 297 
 URE  HN ES   4   1010 48.27                             112   -2.23 0  275 297 
 URE  HZ I        1010 50.67         8.0 0.16            113            275 297 
 PTGC HZ EP       1010 21.57                             110   -0.81 7  299 154 
 PTGC HN ES   4   1010 53.41                             110   -2.01 0  299 154 
 PTGC HZ I        1010 58.21         9.3 0.48            111            299 154 
                                                                                
