 2014  3 2 1259  9.3 L   6.815 -73.131148.1  RSN 15 0.5 2.3LRSN                1
 GAP= 71        1.15       2.9     3.9  5.8 -0.1958E+01  0.5783E+01 -0.1698E+01E
 Epicentro: LOS SANTOS - SANTANDER                                             3
 ACTION:UPD 14-04-09 23:14 OP:nd   STATUS:               ID:20140302125909 L   I
 OLDACT:REG 14-03-02 16:47 OP:cam  STATUS:               ID:20140302125812     3
 2014-03-02-1258-12M.COL___229                                                 6
 STAT SP IPHASW D HRMM SECON CODA AMPLIT PERI AZIMU VELO AIN AR TRES W  DIS CAZ7
 BAR2 SZ EP       1259 29.28                             170    0.0210 25.3 193 
 BAR2 SZ ES       1259 44.35                             170   -0.4710 25.3 193 
 BAR2 SZ I        1259 47.14        54.5 0.34            169           25.3 193 
 PAM  SZ EP       1259 32.17                             152    0.5310 75.1  39 
 PAM  SN ES       1259 49.61                             152    0.5610 75.1  39 
 PAM  SZ I        1259 51.69        26.5 0.64            156           75.1  39 
 RUS  HZ EP     C 1259 33.18                             144   -0.2210  102 177 
 RUS  HE ES       1259 52.10                             144   -0.0910  102 177 
 RUS  HZ I        1259 53.57        16.0 0.24            146            102 177 
 PTB  HZ EP       1259 36.24                             132   -0.40 9  150 258 
 PTB  HN ES       1259 57.35                             132   -0.60 9  150 258 
 PTB  HZ I        13 0  1.63        20.8 0.38            133            150 258 
 TAM  HZ EP       1259 37.51                             131    0.44 9  154 106 
 OCA  HZ EP       1259 37.76                             130    0.10 9  159 353 
 OCA  HN ES       1259 59.87                             130    0.09 9  159 353 
 OCA  HZ I        13 0  4.12        28.5 0.34            133            159 353 
 SPBC HZ EP       1259 38.28                             129    0.08 9  165 219 
 SPBC HN ES       13 0  0.83                             129    0.09 9  165 219 
 SPBC HZ I        13 0  7.29        40.3 0.40            130            165 219 
 ZAR  HZ EP       1259 41.74                             123   -0.25 9  205 292 
 ZAR  HE ES       13 0  7.78                             123    0.29 9  205 292 
 ZAR  HZ I        13 0 13.36        20.1 0.34            124            205 292 
 NOR  HZ EP       1259 45.26                             119   -0.15 8  237 234 
 NOR  HE ES       13 0 13.21                             119   -0.37 8  237 234 
 NOR  HZ I        13 0 16.85        20.5 0.22            120            237 234 
 SML  HZ EP       1259 45.62                             118   -0.35 8  243 335 
 SML  HE ES       13 0 14.20                             118   -0.37 8  243 335 
 SML  HZ I        13 0 17.69        39.5 0.10            120            243 335 
 CHI  HZ EP       1259 47.39                             117    0.04 8  251 195 
 CHI  HN ES       13 0 16.49                             117   -0.54 8  251 195 
 CHI  HZ I        13 0 24.37         7.4 0.34            119            251 195 
 ROSC BZ EP   4   1259 49.23                             117    1.43 0  255 211 
 HEL  HZ EP       1259 50.60                             115    0.75 8  274 256 
 HEL  HN ES       13 0 23.02                             115    1.54 8  274 256 
 HEL  HZ I        13 0 29.73        10.7 0.40            116            274 256 
 GUY2CHZ EP       1259 53.90                             113    0.62 7  303 235 
 PTGC HZ EP   4   1259 52.23                             112   -1.15 0  310 159 
 COD  HZ EP       1259 56.91                             109   -0.69 6  347 354 
 SJC  HZ EP       13 0  3.69                             106   -1.19 6  409 327 
 SJC  HN ES   4   13 0 44.23                             106   -4.00 0  409 327 
 SJC  HZ I        13 0 50.77         3.1 0.26            108            409 327 
                                                                                
