 2010 11 2 1715 19.3 L   6.800 -73.098148.2  RSN 10 0.4 2.2LRSN                1
 GAP=140        1.02       4.5     7.7  7.4  0.2273E+00 -0.1392E+02  0.1047E+01E
 Epicentro: LOS SANTOS - SANTANDER                                             3
 ACTION:UP  10-12-17 16:49 OP:REBC STATUS:               ID:20101102171519 L   I
 2010-11-02-1713-25S.COL___129                                                 6
 STAT SP IPHASW D HRMM SECON CODA AMPLIT PERI AZIMU VELO SNR AR TRES W  DIS CAZ7
 BAR2 SZ EP   1   1715 39.24                             170     0.0 7   25 202 
 BAR2 SZ ES   1   1715 54.68                             170    -0.2 7   25 202 
 BAR2 SZ I        1715 56.00        57.7 0.28                            25 202 
 BRR  HZ IP     C 1715 41.10                             151     0.110   76 297 
 BRR  HZ I        1715 41.40        29.2 0.18                            76 297 
 BRR  HN ES       1715 58.51                             151     0.610   76 297 
 RUS  HZ EP       1715 43.09                             144    -0.210  100 179 
 RUS  HN ES   1   1716  1.61                             144    -0.4 7  100 179 
 RUS  HZ I        1716  3.10        11.2 0.21                           100 179 
 GUE  SZ EP       1715 43.42                             140    -0.810  116  10 
 GRA  SZ EP       1715 44.95                             138     0.310  124  15 
 OCA  SZ EP   1   1715 47.97                             130     0.1 7  161 351 
 OCA  SZ ES   2   1716 10.01                             130    -0.2 5  161 351 
 OCA  SZ I        1716 12.99        11.6 0.16                           161 351 
 YOP  SZ EP       1715 49.85                             127     0.5 9  177 155 
 NOR  SZ EP   1   1715 55.28                             118    -0.4 6  239 235 
 NOR  SE ES   2   1716 23.33                             118    -0.7 4  239 235 
 RREF HZ EP   1   1716  6.27                             111     0.2 5  326 230 
 RREF HZ I        1716 51.75        11.5 0.27                           326 230 
 PRA  HZ EP   1   1716 13.73                             107     0.5 4  395 210 
                                                                                
