 2013  7 2 1422 24.2 L   6.785 -73.162148.7  RSN 13 0.4 2.3LRSN                1
 GAP=135        0.91       3.2     4.1  6.1 -0.1332E+01  0.7065E+01  0.1739E+01E
 Epicentro: LOS SANTOS - SANTANDER                                             3
 ACTION:UPD 13-08-12 10:34 OP:ep   STATUS:               ID:20130702142224 L   I
 OLDACT:REG 13-07-02 13:38 OP:j    STATUS:               ID:20130702141959     3
 2013-07-02-1419-59M.COL___266                                                 6
 STAT SP IPHASW D HRMM SECON CODA AMPLIT PERI AZIMU VELO AIN AR TRES W  DIS CAZ7
 BAR2 SZ EP       1422 44.15                             171    0.0510 21.4 186 
 BAR2 SZ ES       1422 59.40                             171   -0.2610 21.4 186 
 BAR2 SZ I        1423  0.99        38.0 0.28            169           21.4 186 
 GIR2 SZ EP       1422 44.31                             167    0.1010 32.7 354 
 BRR  HZ EP     C 1422 46.07                             153    0.4910 70.5 300 
 BRR  HN ES   1   1423  3.55                             153    1.25 7 70.5 300 
 BRR  HZ I        1423  8.36        28.1 0.17            152           70.5 300 
 PAM  SZ EP       1422 47.00                             150    0.1710 79.8  40 
 PAM  SN ES       1423  4.36                             150   -0.1510 79.8  40 
 PAM  SZ I        1423  6.39        20.7 0.54            156           79.8  40 
 RUS  HZ EP       1422 48.05                             145   -0.0410 99.1 175 
 RUS  HN ES       1423  6.65                             145   -0.1110 99.1 175 
 RUS  HZ I        1423  9.39        25.9 0.46            147           99.1 175 
 PTB  HZ EP       1422 50.78                             133   -0.40 9  146 259 
 PTB  HN ES       1423 11.97                             133   -0.29 9  146 259 
 PTB  HZ I        1423 15.54        33.5 0.14            133            146 259 
 OCA  HN ES   1   1423 14.79                             130   -0.41 7  162 354 
 ZAR  HE ES   1   1423 21.34                             123   -0.73 6  203 293 
 ZAR  HZ I        1423 29.14        32.6 0.28            124            203 293 
 NOR  HE ES   1   1423 28.11                             119    0.51 6  232 235 
 SML  HE ES   1   1423 29.63                             118   -0.16 6  244 336 
 CHI  HN ES   1   1423 30.67                             118   -0.48 6  247 195 
 CHI  HZ I        1423 37.36        10.7 0.30            120            247 195 
 GUY2CHZ EP   1   1423  7.61                             113   -0.02 5  299 235 
 GUY2CHZ I        1423 49.65         9.0 0.56                           299 235 
 PRA  HZ EP   1   1423 17.67                             107    0.17 4  390 209 
 PRA  HN ES   1   1423 59.89                             107    0.77 4  390 209 
 PRA  HZ I        1424  3.37         8.7 0.30            109            390 209 
                                                                                
