 2013  5 2 1214 40.3 L   6.719 -73.135142.0  RSN  6 0.4 1.8LRSN                1
 GAP=141        0.85       5.4     5.0  8.6 -0.7112E+01  0.3854E+01  0.1496E+02E
 Epicentro: JORDAN - SANTANDER                                                 3
 ACTION:UPD 13-06-20 09:47 OP:ep   STATUS:               ID:20130502121440 L   I
 2013-05-02-1210-00M.COL___253                                                 6
 STAT SP IPHASW D HRMM SECON CODA AMPLIT PERI AZIMU VELO AIN AR TRES W  DIS CAZ7
 BAR2 SZ EP   1   1214 59.23                             174   -0.08 7 15.0 200 
 BAR2 SZ I        1215 15.36         8.9 0.28            173           15.0 200 
 BRR  HZ EP   1   1215  1.54                             150    0.19 7 76.8 304 
 BRR  HN ES       1215 18.25                             150    0.4610 76.8 304 
 BRR  HN I        1215 22.70        15.8 0.14            152           76.8 304 
 PAM  SZ EP   1   1215  2.59                             148    0.10 7 83.8  35 
 PAM  SN ES   1   1215 19.51                             148   -0.31 7 83.8  35 
 PAM  SZ I        1215 21.70         6.0 0.42            145           83.8  35 
 RUS  HZ EP   1   1215  3.11                             146    0.10 7 91.6 176 
 RUS  HN ES   1   1215 20.72                             146   -0.03 7 91.6 176 
 RUS  HN I        1215 23.01         8.5 0.28            144           91.6 176 
 PTB  HZ EP   1   1215  6.22                             131   -0.68 7  147 262 
 PTB  HN ES   1   1215 26.74                             131   -0.93 7  147 262 
 PTB  HN I        1215 27.46        10.0 0.32            132            147 262 
 NOR  HZ EP   1   1215 15.61                             118    0.27 6  231 236 
 NOR  HE ES       1215 43.06                             118    0.37 8  231 236 
 NOR  HE I        1215 44.77         9.4 0.24            118            231 236 
                                                                                
