 2014  9 2 1236 56.2 L   6.801 -73.126153.6  RSN 21 0.4 2.5LRSN                1
 GAP= 72        0.99       3.1     3.1  5.1 -0.4934E+00  0.2795E+01  0.1870E+01E
 Epicentro: LOS SANTOS - SANTANDER                                             3
 ACTION:UPD 14-10-03 23:01 OP:nd   STATUS:               ID:20140902123656 L   I
 OLDACT:REG 14-09-02 20:18 OP:fm   STATUS:               ID:20140902122819     3
 2014-09-02-1228-19M.COL___257                                                 6
 STAT SP IPHASW D HRMM SECON CODA AMPLIT PERI AZIMU VELO AIN AR TRES W  DIS CAZ7
 BAR2 SZ EP     D 1237 16.64                             171   -0.1410 23.9 195 
 BAR2 SZ ES   1   1237 32.50                             171   -0.33 7 23.9 195 
 BAR2 SZ I        1237 32.95        67.6 0.32            167           23.9 195 
 BRR  HZ IP     C 1237 18.49                             153    0.2010 73.0 298 
 BRR  HE ES       1237 35.96                             153    0.4310 73.0 298 
 BRR  HZ I        1237 40.79        30.6 0.14            150           73.0 298 
 PAM  SZ EP       1237 19.48                             153    0.3210 75.9  38 
 PAM  SN ES       1237 37.30                             153    0.2210 75.9  38 
 PAM  SZ I        1237 38.80        44.9 0.54            158           75.9  38 
 RUS  HZ EP       1237 20.54                             145   -0.1810  101 177 
 RUS  HN ES       1237 39.49                             145   -0.3610  101 177 
 RUS  HZ I        1237 40.52        24.1 0.28            145            101 177 
 PTB  HZ EP       1237 23.47                             133   -0.53 9  150 259 
 PTB  HE ES       1237 45.07                             133   -0.62 9  150 259 
 PTB  HZ I        1237 51.89        45.6 0.36            131            150 259 
 TAM  HZ EP       1237 23.61                             133   -0.71 9  153 105 
 TAM  HN ES   1   1237 46.67                             133    0.42 7  153 105 
 OCA  HN ES   4   1237 49.27                             131    1.56 0  160 352 
 OCA  HZ I        1237 53.23        43.9 0.30            133            160 352 
 SPBC HZ EP       1237 25.66                             131    0.22 9  165 220 
 SPBC HE ES       1237 48.11                             131   -0.14 9  165 220 
 SPBC HZ I        1237 53.78        48.9 0.32            129            165 220 
 ZAR  HZ EP       1237 29.09                             124   -0.27 8  206 292 
 ZAR  HN ES       1237 55.78                             124    0.55 8  206 292 
 ZAR  HZ I        1238  1.75        25.2 0.28            123            206 292 
 NOR  HZ EP       1237 32.94                             120    0.36 8  237 235 
 NOR  HN ES       1238  0.96                             120   -0.00 8  237 235 
 NOR  HZ I        1238  4.52        23.5 0.19            119            237 235 
 SML  HZ EP       1237 32.89                             119   -0.46 8  245 335 
 SML  HE ES   1   1238  2.45                             119    0.11 6  245 335 
 SML  HZ I        1238  4.76        29.8 0.31            120            245 335 
 CHI  HZ EP       1237 34.56                             119    0.15 8  249 196 
 CHI  HN ES       1238  5.28                             119    1.06 8  249 196 
 CHI  HZ I        1238 12.07         7.9 0.52            119            249 196 
 ROSC BZ EP   4   1237 35.72                             118    0.84 0  254 211 
 ROSC BE ES   4   1238 10.20                             118    5.14 0  254 211 
 ROSC BZ I        1238 14.55        25.8 0.35            118            254 211 
 HEL  HZ EP   4   1237 38.19                             116    1.14 0  274 256 
 HEL  HN ES   4   1238 13.29                             116    4.38 0  274 256 
 HEL  HZ I        1238 16.04        18.3 0.26            116            274 256 
 GUY2CHZ EP   4   1237 41.61                             114    1.23 0  303 235 
 GUY2CHN ES   4   1238 18.85                             114    4.01 0  303 235 
 GUY2CHZ I        1238 21.86        15.7 0.48                           303 235 
 CBOC HZ EP   4   1237 45.15                             111    1.47 0  336 252 
 CBOC HN ES       1238 20.22                             111   -0.50 7  336 252 
 CBOC HZ I        1238 32.22         6.2 0.54            111            336 252 
 TOL  SZ EP   1   1237 45.86                             111    0.90 5  345 225 
 TOL  SN ES   4   1238 24.78                             111    1.79 0  345 225 
 TOL  SZ I        1238 28.43        34.1 0.76            111            345 225 
 ANIL HZ EP   4   1237 48.35                             110    1.86 0  359 225 
 ANIL HN ES   4   1238 29.12                             110    3.39 0  359 225 
 ANIL HZ I        1238 33.16         3.1 0.38            110            359 225 
 PRA  HZ EP       1237 50.09                             108   -0.04 6  393 210 
 PRA  HE ES   4   1238 35.05                             108    2.85 0  393 210 
 PRA  HZ I        1238 37.03         7.7 0.35            108            393 210 
 ORTC HZ EP   1   1237 51.16                             108    0.61 4  397 216 
 ORTC HN ES   4   1238 34.39                             108    1.44 0  397 216 
 ORTC HZ I        1238 40.56         8.9 0.48            108            397 216 
 SJC  HZ EP   4   1237 50.45                             107   -1.70 0  410 327 
 SJC  HN ES   4   1238 32.12                             107   -3.67 0  410 327 
 SJC  HZ I        1238 36.34         8.9 0.50            107            410 327 
                                                                                
