 2011  5 2 1213 15.8 L   6.767 -73.107143.6  RSN  5 0.2 1.6LRSN                1
 GAP=143        0.58       3.4     6.0  7.0 -0.4003E+01 -0.8447E+00  0.2347E+01E
 Epicentro: LOS SANTOS - SANTANDER                                             3
 ACTION:UP  11-06-29 08:50 OP:tino STATUS:               ID:20110502121315 L   I
 2011-05-02-1207-35S.COL___133                                                 6
 STAT SP IPHASW D HRMM SECON CODA AMPLIT PERI AZIMU VELO SNR AR TRES W  DIS CAZ7
 BAR2 SZ EP   1   1213 35.21                             171     0.1 7   21 203 
 BRR  HZ EP   1   1213 36.58                             150    -0.4 7   77 299 
 BRR  HN ES   1   1213 53.80                             150     0.2 7   77 299 
 BRR  HZ I        1213 56.85        13.0 0.16                            77 299 
 PAM  SN ES   1   1213 54.80                             150    -0.1 7   78  35 
 RUS  HZ EP   1   1213 39.37                             144     0.3 7   97 178 
 RUS  HZ I        1213 39.73         2.3 0.11                            97 178 
 RUS  HE ES   1   1213 57.05                             144    -0.2 7   97 178 
 GRA  SZ EP   1   1213 41.03                             136     0.0 7  128  15 
 GRA  SZ ES   1   1214  0.86                             136     0.1 7  128  15 
 GRA  SZ I        1214  1.79         7.2 0.34                           128  15 
                                                                                
