 2017  9 2 1021 40.1 L   6.857 -73.102146.6  RSN 10 0.4 1.8LRSN                1
 GAP=114        1.04       3.6     3.9  6.1  0.3268E+01  0.7273E+01  0.5303E+01E
 Epicentro: LOS SANTOS - SANTANDER                                             3
 ACTION:UPD 17-10-05 19:08 OP:rebc STATUS:               ID:20170902102140 L   I
 OLDACT:REG 17-09-02 20:13 OP:dhb  STATUS:               ID:20170902101738     3
 2017-09-02-1018-00M.COL___405                                                 6
 STAT SP IPHASW D HRMM SECON CODA AMPLIT PERI AZIMU VELO AIN AR TRES W  DIS CAZ7
 BAR2 EZ EP       1021 59.44                             168   -0.6010 30.6 197 
 BAR2 EZ ES       1022 15.80                             168    0.2410 30.6 197 
 PAM  EZ IP     C 1022  2.16                             154    0.1610 69.4  40 
 PAM  EN ES       1022 19.13                             154    0.0910 69.4  40 
 PAM  EZ I        1022 21.13        11.0 0.40            156           69.4  40 
 BRR  HZ IP     C 1022  1.04                             152   -0.4310 72.9 292 
 BRR  HN ES       1022 17.86                             152   -0.2610 72.9 292 
 BRR  HZ I        1022 21.05        10.7 0.14            151           72.9 292 
 RUS  HZ EP       1022  4.48                             142    0.0610  107 179 
 RUS  HN ES       1022 24.10                             142    0.7410  107 179 
 SPBC HZ IP     C 1022  8.98                             128   -0.48 9  171 219 
 SPBC HN ES       1022 31.63                             128   -0.70 9  171 219 
 SPBC HZ I        1022 34.78         5.4 0.13            128            171 219 
 YPLC HZ IP     D 1022 10.36                             126    0.03 9  180 154 
 YPLC HN ES       1022 33.70                             126   -0.17 9  180 154 
 ZAR  HZ EP       1022 13.63                             122    0.76 8  206 290 
 ZAR  HN ES       1022 38.32                             122   -0.08 8  206 290 
 ZAR  HZ I        1022 43.46         7.0 0.25            122            206 290 
 URE  HN ES       1022 54.12                             114    0.36 7  286 290 
 GUY2CHZ EP   4 D 1022 26.76                             112    2.11 0  309 234 
 GUY2CHN ES       1023  0.04                             112    0.68 7  309 234 
 GUY2CHZ I        1023  6.36         2.2 0.45                           309 234 
 PRA  HZ EP       1022 34.65                             106    0.04 6  400 210 
 PRA  HE ES       1023 17.24                             106    0.14 6  400 210 
 PRA  HZ I        1023 25.22         2.2 0.38            107            400 210 
                                                                                
