 2014  4 2 1350  9.1 L   6.822 -73.095150.0  RSN 16 0.5 2.3LRSN                1
 GAP=129        1.16       2.9     3.9  5.8 -0.3904E+01  0.1167E+01  0.3579E+01E
 Epicentro: LOS SANTOS - SANTANDER                                             3
 ACTION:UPD 14-05-13 23:05 OP:nd   STATUS:               ID:20140402135009 L   I
 OLDACT:REG 14-04-02 21:08 OP:carl STATUS:               ID:20140402134819     3
 2014-04-02-1348-19M.COL___252                                                 6
 STAT SP IPHASW D HRMM SECON CODA AMPLIT PERI AZIMU VELO AIN AR TRES W  DIS CAZ7
 PAM  SZ EP       1350 32.14                             153    0.6610 72.0  37 
 PAM  SN ES       1350 49.49                             153    0.5610 72.0  37 
 PAM  SZ I        1350 51.53        30.0 0.46            155           72.0  37 
 BRR  HZ EP       1350 31.21                             152    0.2610 75.1 295 
 BRR  HN ES       1350 48.57                             152    0.6010 75.1 295 
 BRR  HZ I        1350 51.59        27.8 0.32            151           75.1 295 
 RUS  HZ EP       1350 33.08                             144   -0.3610  103 179 
 RUS  HN ES       1350 52.13                             144   -0.2810  103 179 
 RUS  HZ I        1350 54.74        16.6 0.36            146            103 179 
 PTB  HZ EP   2   1350 36.26                             132   -0.71 5  154 258 
 PTB  HE ES       1350 58.22                             132   -0.47 9  154 258 
 PTB  HZ I        1350 59.57        29.8 0.14            132            154 258 
 OCA  HN ES       1351  0.09                             131    0.25 9  159 351 
 OCA  HN I        1351  3.83        92.7 0.28            132            159 351 
 SPBC HZ EP       1350 38.25                             129   -0.20 9  169 220 
 SPBC HN ES       1351  0.39                             129   -0.94 9  169 220 
 SPBC HZ I        1351  5.89        38.2 0.40            130            169 220 
 ZAR  HZ EP       1350 42.02                             123   -0.26 8  208 291 
 ZAR  HN ES       1351  7.58                             123   -0.57 8  208 291 
 ZAR  HZ I        1351 14.35        19.6 0.52            123            208 291 
 NOR  HZ EP       1350 45.99                             119    0.26 8  241 235 
 NOR  HE ES       1351 14.22                             119   -0.07 8  241 235 
 SML  HZ EP       1350 45.68                             118   -0.33 8  244 334 
 SML  HN ES       1351 14.14                             118   -0.64 8  244 334 
 SML  HZ I        1351 21.98        28.9 0.10            119            244 334 
 CHI  HZ EP       1350 47.27                             118   -0.20 8  252 196 
 CHI  HN ES       1351 17.13                             118   -0.25 8  252 196 
 CHI  HZ I        1351 22.18         6.9 0.26            119            252 196 
 GUY2CHZ EP       1350 54.80                             113    1.21 7  307 235 
 GUY2CHE ES       1351 29.67                             113    1.39 7  307 235 
 GUY2CHZ I        1351 35.99        10.2 0.26                           307 235 
 RREF HZ EP       1350 56.73                             111    0.62 7  328 230 
 RREF HE ES       1351 32.97                             111    0.21 7  328 230 
 RREF HZ I        1351 40.19        13.6 0.24            112            328 230 
 SDV  BZ EP       1350 58.62                             109   -0.03 6  355  50 
 SDV  BN ES       1351 36.51                             109   -0.78 6  355  50 
 SDV  BZ I        1351 39.75         2.8 0.35            111            355  50 
 ANIL HZ EP       1350 59.95                             109    0.21 6  363 225 
 ANIL HN ES       1351 38.62                             109   -0.60 6  363 225 
 PRA  HZ EP       1351  3.47                             107    0.12 6  397 210 
 PRA  HN ES       1351 45.59                             107   -0.07 6  397 210 
 PRA  HZ I        1351 53.84         6.6 0.42            108            397 210 
 ORTC HZ EP       1351  3.85                             107    0.05 6  401 217 
 ORTC HN ES       1351 46.35                             107   -0.10 6  401 217 
 ORTC HZ I        1351 53.03         6.5 0.42            108            401 217 
                                                                                
