 2012  1 2 1220 56.3 L   6.783 -73.138148.1  RSN  5 0.4 1.8LRSN                1
 GAP=138        0.82       5.3     6.5  7.5  0.4492E+01  0.3645E+01 -0.3248E+00E
 Epicentro: LOS SANTOS - SANTANDER                                             3
 ACTION:UP  12-02-03 08:13 OP:REBC STATUS:               ID:20120102122056 L   I
 2012-01-02-1220-00M.COL___186                                                 6
 STAT SP IPHASW D HRMM SECON CODA AMPLIT PERI AZIMU VELO SNR AR TRES W  DIS CAZ7
 BAR2 SZ IP       1221 16.00                             171    -0.210   22 193 
 BAR2 SZ ES   1   1221 31.43                             171    -0.3 7   22 193 
 BAR2 SZ I        1221 32.26        11.4 0.38                            22 193 
 BRR  HZ IP     C 1221 17.84                             152     0.010   73 300 
 BRR  HZ I        1221 18.08        29.8 0.14                            73 300 
 BRR  HN ES   1   1221 35.15                             152     0.6 7   73 300 
 PAM  SZ EP       1221 18.87                             151     0.010   78  38 
 PAM  SZ I        1221 19.03         7.2 0.20                            78  38 
 PAM  SN ES   1   1221 36.26                             151    -0.1 7   78  38 
 RUS  HZ EP       1221 20.26                             145     0.110   99 176 
 RUS  HE ES   1   1221 38.74                             145     0.0 7   99 176 
 RUS  HZ I        1221 39.72         5.4 0.28                            99 176 
 ZAR  HZ EP   2   1221 29.44                             123     0.4 4  206 293 
 ZAR  HN ES   2   1221 53.34                             123    -1.3 4  206 293 
 ZAR  HZ I        1222  0.96         7.5 0.30                           206 293 
                                                                                
