 2015  3 2 1737 43.8 L   6.747 -73.136151.2  RSN  4 0.4 1.5LRSN                1
 GAP=160        0.97      10.2     6.1  7.8 -0.3133E+02  0.3245E+01  0.8567E+01E
 Epicentro: LOS SANTOS - SANTANDER                                             3
 ACTION:UPD 15-04-30 16:22 OP:nd   STATUS:               ID:20150302173743 L   I
 OLDACT:DUP 15-03-03 00:03 OP:carl STATUS:               ID:20150302172749d    3
 2015-03-02-1727-48M.COL___296                                                 6
 STAT SP IPHASW D HRMM SECON CODA AMPLIT PERI AZIMU VELO AIN AR TRES W  DIS CAZ7
 BAR2 EZ EP       1738  4.26                             173    0.2210 17.9 197 
 BAR2 EZ ES       1738 19.92                             173    0.1210 17.9 197 
 BAR2 EZ I        1738 21.96         5.9 0.28            171           17.9 197 
 BRR  HZ EP       1738  6.13                             152    0.3210 75.1 302 
 BRR  HN ES       1738 23.42                             152    0.4810 75.1 302 
 PAM  SZ EP       1738  7.02                             151    0.1410 81.3  36 
 PAM  SN ES       1738 24.26                             151   -0.5910 81.3  36 
 PAM  SZ I        1738 25.35         5.0 0.18            153           81.3  36 
 PTB  HZ EP       1738 10.95                             133   -0.32 9  148 261 
 PTB  HN ES       1738 32.19                             133   -0.47 9  148 261 
                                                                                
