 2015 10 2 1027 50.5 L   6.760 -73.160149.2  RSN  9 0.4 1.6LRSN                1
 GAP=137        0.95       4.0     4.7  7.0 -0.3795E+00  0.3051E+00 -0.5114E+01E
 Epicentro: LOS SANTOS - SANTANDER                                             3
 ACTION:UPD 15-12-22 20:36 OP:cam  STATUS:               ID:20151002102750 L   I
 OLDACT:DUP 15-10-02 23:42 OP:spq  STATUS:               ID:20151002101752d    3
 2015-10-02-1017-50M.COL___354                                                 6
 STAT SP IPHASW D HRMM SECON CODA AMPLIT PERI AZIMU VELO AIN AR TRES W  DIS CAZ7
 BAR2 EZ EP       1028  9.93                             173   -0.5210 18.7 188 
 BAR2 EZ ES   1   1028 25.24                             173   -0.78 7 18.7 188 
 BAR2 EZ I        1028 26.30         7.6 0.18            171           18.7 188 
 BRR  HZ EP       1028 12.37                             153    0.3110 72.1 302 
 BRR  HN ES       1028 29.51                             153    0.6310 72.1 302 
 BRR  HZ I        1028 30.23         7.0 0.46            151           72.1 302 
 PAM  EZ EP       1028 13.39                             150    0.0510 81.8  38 
 RUS  HZ EP   2   1028 14.99                             146    0.71 5 96.3 175 
 RUS  HN ES   1   1028 33.01                             146    0.18 7 96.3 175 
 RUS  HZ I        1028 34.19         4.6 0.22            146           96.3 175 
 PTB  HZ EP       1028 17.30                             133   -0.24 9  145 260 
 PTB  HN ES       1028 38.17                             133   -0.46 9  145 260 
 PTB  HZ I        1028 40.49         5.0 0.12            132            145 260 
 SPBC HZ EP       1028 19.34                             131    0.50 9  159 220 
 SPBC HE ES       1028 41.13                             131    0.17 9  159 220 
 SPBC HZ I        1028 46.32         4.3 0.36            130            159 220 
 ZAR  HZ EP   4   1028 24.84                             123    1.65 0  204 293 
 ZAR  HE ES       1028 48.73                             123    0.03 9  204 293 
 ZAR  HZ I        1028 54.45         3.3 0.26            122            204 293 
 SML  HZ EP       1028 27.35                             118   -0.33 8  247 336 
 SML  HE ES   1   1028 56.72                             118    0.03 6  247 336 
 SML  HZ I        1028 58.55         3.9 0.10            118            247 336 
 GUY2CHZ EP   4   1028 35.41                             113    1.58 0  297 235 
 GUY2CHE ES   1   1029  7.32                             113   -0.32 5  297 235 
 GUY2CHZ I        1029 16.95         1.5 0.42                           297 235 
                                                                                
