 2010 10 2 1241  6.8 L   6.796 -73.034140.4  RSN  7 0.3 1.6LRSN                1
 GAP=171        0.80       5.2     9.3  8.3 -0.3278E+00 -0.2971E+02 -0.1373E+02E
 Epicentro: CEPITA - SANTANDER                                                 3
 ACTION:UP  11-02-18 11:07 OP:tino STATUS:               ID:20101002124106 L   I
 2010-10-02-1236-54S.COL___124                                                 6
 STAT SP IPHASW D HRMM SECON CODA AMPLIT PERI AZIMU VELO SNR AR TRES W  DIS CAZ7
 BAR2 SZ EP   1   1241 25.74                             169    -0.2 7   28 216 
 BAR2 SZ ES   1   1241 41.02                             169     0.2 7   28 216 
 BAR2 SZ I        1241 42.08        13.1 1.14                            28 216 
 BRR  HZ EP       1241 27.65                             148    -0.410   82 295 
 BRR  HE ES       1241 44.78                             148     0.110   82 295 
 RUS  HN ES   2   1241 48.18                             143     0.1 5  100 183 
 RUS  HZ I        1241 49.68         4.5 0.36                           100 183 
 GUE  SZ EP       1241 31.20                             139     0.310  115   6 
 GUE  SZ I        1241 50.74         1.4 0.14                           115   6 
 GRA  SZ ES   2   1241 49.88                             136    -0.6 5  123  12 
 GRA  SZ I        1241 53.75        11.3 0.81                           123  12 
 OCA  SZ EP       1241 35.20                             128     0.2 9  163 349 
 OCA  SZ I        1242  2.05        11.4 0.17                           163 349 
 CHI  HZ I        1241 45.30         2.7 0.47                           252 198 
 CHI  HN ES   2   1242 13.87                             116    -0.1 4  252 198 
                                                                                
