 2015 10 2 1030 13.4 L   6.773 -73.148152.0  RSN  7 0.3 1.5LRSN                1
 GAP=200        0.69       3.5     4.5  5.8  0.3260E+01  0.1079E+01  0.3297E+00E
 Epicentro: LOS SANTOS - SANTANDER                                             3
 ACTION:UPD 15-12-22 20:36 OP:cam  STATUS:               ID:20151002103013 L   I
 OLDACT:DUP 15-10-02 23:11 OP:spq  STATUS:               ID:20151002102747d    3
 2015-10-02-1027-46M.COL___354                                                 6
 STAT SP IPHASW D HRMM SECON CODA AMPLIT PERI AZIMU VELO AIN AR TRES W  DIS CAZ7
 BAR2 EZ EP       1030 33.49                             172   -0.2110 20.4 191 
 BAR2 EZ ES   1   1030 49.49                             172   -0.06 7 20.4 191 
 BAR2 EZ I        1030 51.07         4.6 0.20            173           20.4 191 
 BRR  HZ EP       1030 35.56                             153    0.2910 72.4 301 
 BRR  HE ES       1030 52.60                             153    0.2510 72.4 301 
 BRR  HZ I        1030 58.17         5.9 0.70            152           72.4 301 
 RUS  HZ EP   2   1030 37.85                             146    0.31 5 97.6 176 
 RUS  HE ES   2   1030 56.04                             146   -0.35 5 97.6 176 
 RUS  HZ I        1030 57.30         2.8 0.32            150           97.6 176 
 PTB  HZ EP       1030 40.23                             134   -0.56 9  147 260 
 PTB  HE ES       1031  2.10                             134   -0.07 9  147 260 
 PTB  HZ I        1031  3.07         2.1 0.16            135            147 260 
 SPBC HZ EP       1030 42.57                             131    0.44 9  161 220 
 SPBC HE ES       1031  4.51                             131   -0.05 9  161 220 
 SPBC HZ I        1031  7.15         6.1 0.22            134            161 220 
 ZAR  HE ES       1031 12.10                             124    0.08 9  205 293 
 ZAR  HZ I        1031 17.42         2.8 0.34            125            205 293 
 SML  HE ES   1   1031 19.33                             119   -0.37 6  246 336 
 SML  HZ I        1031 22.12         3.8 0.10            120            246 336 
                                                                                
