 2013  1 2 1206 14.6 L   6.855 -73.007156.8  RSN  6 0.5 1.6LRSN                1
 GAP=197        0.90       5.8     7.8  9.8  0.1713E+02  0.6457E+01  0.3364E+01E
 Epicentro: CEPITA - SANTANDER                                                 3
 ACTION:UPD 13-02-15 09:11 OP:ep   STATUS:               ID:20130102120614 L   I
 2013-01-02-1200-00M.COL___242                                                 6
 STAT SP IPHASW D HRMM SECON CODA AMPLIT PERI AZIMU VELO AIN AR TRES W  DIS CAZ7
 BAR2 SZ ES   1   12 6 52.19                             167   -0.24 8 34.9 214 
 BAR2 SZ I        12 6 53.51        20.7 0.20            165           34.9 214 
 BRR  HE ES   1   12 6 56.13                             151    0.54 8 82.8 290 
 RUS  HZ EP       12 6 39.79                             144   -0.1310  107 185 
 RUS  HN ES   1   12 7  0.01                             144    0.37 7  107 185 
 RUS  HZ I        12 7  1.48         2.0 0.22            144            107 185 
 OCA  HN ES   1   12 7  5.74                             133   -0.32 7  157 347 
 PTB  HZ EP   1   12 6 44.33                             131    0.34 7  164 258 
 PTB  HE ES   1   12 7  5.94                             131   -0.94 7  164 258 
 PTB  HZ I        12 7  7.86         4.2 0.14            131            164 258 
 ZAR  HN ES   1   12 7 16.41                             123    0.48 6  216 289 
 ZAR  HZ I        12 7 17.97         3.4 0.28            124            216 289 
                                                                                
