 2012 12 2 1144 35.5 L   6.819 -73.133142.4  RSN  4 0.2 1.5LRSN                1
 GAP=137        0.62       2.7     3.5  6.7 -0.1050E+01  0.9184E+01 -0.2543E+01E
 Epicentro: LOS SANTOS - SANTANDER                                             3
 ACTION:UPD 13-01-04 14:25 OP:ep   STATUS:               ID:20121202114435 L   I
 2012-12-02-1140-00M.COL___236                                                 6
 STAT SP IPHASW D HRMM SECON CODA AMPLIT PERI AZIMU VELO AIN AR TRES W  DIS CAZ7
 PAM  SZ EP       1144 57.34                             151    0.1410 74.8  40 
 PAM  SN ES       1145 13.86                             151   -0.2610 74.8  40 
 PAM  SN I        1145 16.15         6.7 0.54                          74.8  40 
 RUS  HZ EP       1144 59.10                             142    0.0310  103 177 
 RUS  HN ES       1145 17.67                             142    0.2210  103 177 
 RUS  HN I        1145 19.39         2.5 0.36                           103 177 
 PTB  HZ EP       1145  1.98                             131   -0.38 9  150 258 
 PTB  HN ES       1145 23.31                             131    0.00 9  150 258 
 PTB  HN I        1145 25.71         7.7 0.60                           150 258 
 SML  HN ES       1145 40.43                             117    0.33 8  242 335 
                                                                                
