 2017  6 2 1702 58.5 L   6.797 -73.142151.0  RSN  6 0.5 1.8LRSN                1
 GAP=213        1.17       6.3     6.0  8.9  0.1643E+02  0.1165E+01  0.1140E+02E
 Epicentro: LOS SANTOS - SANTANDER                                             3
 ACTION:UPD 17-09-14 16:49 OP:jn   STATUS:               ID:20170602170258 L   I
 OLDACT:UP  17-06-03 01:24 OP:ar   STATUS:               ID:20170602165033d    3
 OLDACT:DUP 17-06-03 01:11 OP:ar   STATUS:               ID:20170602165033d    3
 2017-06-02-1658-00M.COL___347                                                 6
 STAT SP IPHASW D HRMM SECON CODA AMPLIT PERI AZIMU VELO AIN AR TRES W  DIS CAZ7
 BRR  HZ EP       17 3 20.47                             153    0.1810 71.7 299 
 BRR  HN ES       17 3 37.64                             153    0.3910 71.7 299 
 RUS  HZ EP       17 3 22.31                             145   -0.4810  100 176 
 RUS  HE ES       17 3 41.05                             145   -0.6510  100 176 
 RUS  HZ I        17 3 42.17         5.7 0.38            141            100 176 
 PTB  HZ EP       17 3 25.57                             133   -0.40 9  148 259 
 PTB  HN ES       17 3 47.24                             133   -0.13 9  148 259 
 PTB  HZ I        17 3 48.18         8.0 0.68            131            148 259 
 YPLC HZ EP       17 3 28.37                             128   -0.31 9  176 151 
 YPLC HE ES       17 3 52.99                             128    0.81 9  176 151 
 YPLC HZ I        17 3 54.66         6.8 0.38            126            176 151 
 NOR  HZ EP       17 3 34.41                             120   -0.19 8  235 235 
 NOR  HN ES       17 4  3.13                             120    0.42 8  235 235 
 NOR  HZ I        17 4  8.17         5.8 0.20            118            235 235 
 CHI  HZ EP       17 3 37.43                             118    0.92 8  248 195 
 CHI  HN ES       17 4  5.97                             118   -0.16 8  248 195 
 CHI  HZ I        17 4 12.27         3.8 0.32            116            248 195 
                                                                                
