 2010  4 2 1152 36.5 L   6.790 -73.057145.4  RSN  6 0.2 2.1LRSN                1
 GAP=208        0.43       3.0     8.4  5.1 -0.6385E+01  0.7393E-01  0.4861E+01E
 Epicentro: LOS SANTOS - SANTANDER                                             3
 ACTION:UPD 10-08-24 09:57 OP:vdl  STATUS:               ID:20100402115236 L   I
 2010-04-02-1148-34S.COL___098                                                 6
 STAT SP IPHASW D HRMM SECON CODA AMPLIT PERI AZIMU VELO AIN AR TRES W  DIS CAZ7
 BAR2 SZ EP   1   1152 55.97                             169    -0.1 7   26 213 
 BAR2 SZ ES   2   1153 11.46                             169     0.0 5   26 213 
 BRR  HZ EP   1   1152 57.96                             150    -0.2 7   81 296 
 BRR  HE ES   2   1153 15.12                             150     0.1 5   81 296 
 BRR  HZ I        1153 17.44        15.7 0.23                            81 296 
 OCA  SZ EP   1   1153  5.30                             129     0.3 7  163 350 
 OCA  SZ ES   2   1153 27.04                             129    -0.2 5  163 350 
 CHI  HZ EP   1   1153 14.38                             117     0.0 6  250 197 
 CHI  HE ES   2   1153 44.28                             117     0.4 4  250 197 
 CHI  HZ I        1153 49.70         5.8 0.60                           250 197 
 RREF BZ EP   1   1153 23.65                             110     0.3 5  329 231 
 PRA  HZ EP   1   1153 30.04                             106    -0.4 4  396 211 
 PRA  HE ES   2   1154 12.15                             106    -0.4 3  396 211 
 PRA  HZ I        1154 18.19         6.0 0.79                           396 211 
                                                                                
