 2013  8 2 1057 30.1 L   6.781 -73.167153.5  RSN  9 0.4 2.1LRSN                1
 GAP=180        0.90       3.1     4.6  5.7  0.2067E+01  0.1097E+01 -0.4308E+01E
 Epicentro: LOS SANTOS - SANTANDER                                             3
 ACTION:UPD 14-01-14 08:58 OP:ep   STATUS:               ID:20130802105730 L   I
 OLDACT:UP  13-08-02 17:17 OP:cam  STATUS:               ID:20130802105650     3
 OLDACT:REG 13-08-02 16:39 OP:cam  STATUS:               ID:20130802105650     3
 2013-08-02-1056-50M.COL___227                                                 6
 STAT SP IPHASW D HRMM SECON CODA AMPLIT PERI AZIMU VELO AIN AR TRES W  DIS CAZ7
 BAR2 SZ EP       1057 50.48                             172   -0.1810 20.9 185 
 BAR2 SZ ES       1058  6.49                             172   -0.1710 20.9 185 
 GIR2 SZ EP       1057 50.63                             167   -0.1510 33.1 355 
 BRR  HZ EP     C 1057 52.35                             154    0.2710 70.2 301 
 BRR  HN ES       1058  9.80                             154    0.6210 70.2 301 
 BRR  HZ I        1058 12.20        14.3 0.16            153           70.2 301 
 RUS  HZ EP       1057 54.37                             146   -0.1610 98.7 175 
 RUS  HN ES       1058 13.27                             146   -0.2810 98.7 175 
 RUS  HZ I        1058 14.82        11.0 0.36            152           98.7 175 
 PTB  HZ EP   1   1057 57.31                             134   -0.20 7  145 259 
 PTB  HN ES       1058 18.58                             134   -0.28 9  145 259 
 PTB  HZ I        1058 20.57        17.7 0.16            136            145 259 
 SPBC HZ EP       1057 59.42                             131    0.46 9  160 219 
 SPBC HN ES   1   1058 21.68                             131    0.25 7  160 219 
 OCA  HZ EP       1057 59.77                             131    0.54 9  162 354 
 OCA  HN ES       1058 22.15                             131    0.23 9  162 354 
 OCA  HZ I        1058 31.16         7.3 0.34            131            162 354 
 ZAR  HZ EP       1058  3.23                             124    0.27 9  203 293 
 ZAR  HE ES       1058 28.31                             124   -0.25 9  203 293 
 ZAR  HZ I        1058 35.33        16.4 0.26            126            203 293 
 SML  HZ EP       1058  6.92                             119   -0.40 8  245 336 
 SML  HN ES       1058 35.49                             119   -0.82 8  245 336 
 SML  HZ I        1058 41.04        15.1 0.10            120            245 336 
                                                                                
