 2011  7 2 1814 53.1 L   6.740 -73.122144.8  RSN 11 0.4 2.3LRSN                1
 GAP=159        0.91       3.9     6.3  5.6 -0.1020E+02  0.6311E+01 -0.9670E+00E
 Epicentro: JORDAN - SANTANDER                                                 3
 ACTION:UPD 12-07-25 13:57 OP:epov STATUS:               ID:20110702181453 L   I
 2011-07-02-1813-48S.COL___140                                                 6
 STAT SP IPHASW D HRMM SECON CODA AMPLIT PERI AZIMU VELO AIN AR TRES W  DIS CAZ7
 BAR2 SZ EP       1815 12.43                             173   -0.0410 17.6 202 
 BAR2 SZ ES   1   1815 26.57                             173   -1.04 7 17.6 202 
 BAR2 SZ I        1815 29.38        44.6 0.20                          17.6 202 
 BTL  SZ EP       1815 12.92                             169    0.3010 25.5 321 
 BTL  SZ ES   1   1815 28.48                             169    0.60 7 25.5 321 
 GIR2 SZ EP       1815 12.70                             164   -0.1310 38.3 348 
 GIR2 SZ ES   2   1815 27.88                             164   -0.36 5 38.3 348 
 BRR  HZ EP       1815 14.51                             150    0.0810 76.8 302 
 BRR  HZ I        1815 14.76        63.9 0.28                          76.8 302 
 BRR  HN ES   1   1815 31.75                             150    0.65 7 76.8 302 
 RUS  HZ EP       1815 16.24                             146    0.0110 93.8 177 
 RUS  HN ES   1   1815 34.64                             146    0.33 7 93.8 177 
 BRI  SZ EP       1815 17.25                             140   -0.0310  114  18 
 BRI  SZ ES   1   1815 36.20                             140    0.04 7  114  18 
 GRA  SZ EP       1815 18.64                             136   -0.0510  131  16 
 GRA  SZ I        1815 40.77        17.3 0.44                           131  16 
 OCA  SZ EP       1815 21.52                             128   -0.43 9  167 353 
 OCA  SZ I        1815 48.63        16.1 0.40                           167 353 
 NOR  SZ EP       1815 28.37                             118   -0.18 8  233 236 
 NOR  SN ES   1   1815 55.23                             118   -1.01 6  233 236 
 CHI  HZ EP   3   1815 30.35                             118    0.27 2  243 196 
 CHI  HN ES   1   1815 59.30                             118    0.34 6  243 196 
 HEL  HZ EP       1815 33.93                             114    0.60 8  273 257 
 HEL  HZ I        1816 11.86         9.6 0.26                           273 257 
                                                                                
