 2013 11 2 1315 30.7 L   6.771 -73.152140.1  RSN  8 0.5 1.8LRSN                1
 GAP=137        1.35       5.3     5.4  8.2 -0.3498E+01  0.1378E+02  0.2682E+01E
 Epicentro: LOS SANTOS - SANTANDER                                             3
 ACTION:UPD 14-01-09 16:25 OP:ep   STATUS:               ID:20131102131530 L   I
 OLDACT:REG 13-11-02 17:44 OP:carl STATUS:               ID:20131102130848     3
 2013-11-02-1308-48M.COL___214                                                 6
 STAT SP IPHASW D HRMM SECON CODA AMPLIT PERI AZIMU VELO AIN AR TRES W  DIS CAZ7
 BAR2 SZ EP       1315 49.36                             171   -0.2010 20.1 190 
 BAR2 SZ ES       1316  3.97                             171   -0.3210 20.1 190 
 BAR2 SZ I        1316  5.43        29.0 0.26            170           20.1 190 
 BRR  HZ EP       1315 52.40                             151    1.1310 72.2 301 
 BRR  HN ES       1316  8.03                             151    0.7010 72.2 301 
 BRR  HZ I        1316  8.62        12.3 0.32            151           72.2 301 
 PAM  SZ IP     C 1315 52.26                             149   -0.2110 80.3  38 
 PAM  SN ES       1316  9.03                             149   -0.4410 80.3  38 
 PAM  SZ I        1316 11.32         4.2 0.42            153           80.3  38 
 RUS  HZ EP       1315 53.42                             143   -0.2310 97.5 176 
 RUS  HN ES       1316 11.91                             143    0.3510 97.5 176 
 RUS  HZ I        1316 13.70         6.9 0.32            145           97.5 176 
 PTB  HZ EP       1315 56.32                             131   -0.75 9  146 260 
 PTB  HE ES       1316 17.27                             131   -0.39 9  146 260 
 PTB  HZ I        1316 22.26         7.8 0.54            131            146 260 
 SPBC HZ EP       1315 58.42                             128   -0.05 9  160 220 
 SPBC HE ES       1316 20.52                             128    0.38 9  160 220 
 SPBC HZ I        1316 24.78         7.9 0.22            129            160 220 
 ZAR  HZ EP       1316  3.66                             121    0.84 9  205 293 
 ZAR  HN ES       1316 27.15                             121   -0.74 9  205 293 
 ZAR  HZ I        1316 32.40         6.5 0.32            122            205 293 
 NOR  HZ EP       1316  5.84                             117    0.01 8  232 235 
 NOR  HE ES       1316 33.03                             117   -0.21 8  232 235 
 NOR  HZ I        1316 37.08         4.4 0.50            118            232 235 
                                                                                
