 2016 10 2 1836 58.7 L   6.829 -73.141145.6  RSN  4 0.2 1.3LRSN                1
 GAP=136        0.57       3.1     2.8  6.3 -0.1141E+00  0.5933E+01  0.3497E+00E
 Epicentro: LOS SANTOS - SANTANDER                                             3
 ACTION:UPD 16-11-09 19:15 OP:rebc STATUS:               ID:20161002183658 L   I
 OLDACT:REG 16-10-02 21:21 OP:dani STATUS:               ID:20161002182746     3
 2016-10-02-1828-00M.COL___369                                                 6
 STAT SP IPHASW D HRMM SECON CODA AMPLIT PERI AZIMU VELO AIN AR TRES W  DIS CAZ7
 PAM  EZ EP       1837 20.92                             152    0.2010 74.6  41 
 PAM  EN ES       1837 37.77                             152   -0.1310 74.6  41 
 PAM  EZ I        1837 39.72         5.4 0.48            154           74.6  41 
 RUS  HZ EP       1837 22.30                             143   -0.3510  104 176 
 RUS  HN ES       1837 41.58                             143    0.2310  104 176 
 RUS  HZ I        1837 42.62         1.4 0.16            145            104 176 
 PTB  HZ EP       1837 25.89                             132    0.14 9  149 258 
 PTB  HN ES       1837 46.70                             132   -0.16 9  149 258 
 PTB  HZ I        1837 49.27         3.3 0.16            134            149 258 
 ZAR  HN ES       1837 56.37                             122    0.08 9  203 291 
                                                                                
