 2011  4 2 1907 26.1 L   6.713 -73.520110.9  RSN  6 0.1 1.6LRSN                1
 GAP=224        0.30       3.3     3.9  4.5 -0.2696E+01 -0.3025E+01 -0.2878E+00E
 Epicentro: EL CARMEN DE CHUCURI - SANTANDER                                   3
 ACTION:UP  11-06-22 15:28 OP:REBC STATUS:               ID:20110402190726 L   I
 2011-04-02-1904-15S.COL___138                                                 6
 STAT SP IPHASW D HRMM SECON CODA AMPLIT PERI AZIMU VELO SNR AR TRES W  DIS CAZ7
 BTL  SZ EP       19 7 42.00                             161     0.010   36  51 
 BAR2 SZ EP       19 7 42.21                             159     0.110   40 110 
 BAR2 SZ I        19 7 42.55        11.6 0.12                            40 110 
 BAR2 SZ ES   2   19 7 54.52                             159    -0.1 5   40 110 
 BRR  HZ EP   2   19 7 42.08                             155    -0.1 5   49 334 
 BRR  HN ES   2   19 7 54.80                             155     0.0 5   49 334 
 BRR  HZ I        19 7 55.14        16.3 0.32                            49 334 
 GIR2 SZ EP       19 7 42.63                             152    -0.110   54  42 
 PAM  SZ EP   1   19 7 47.74                             131    -0.1 7  114  53 
 PAM  SN ES   2   19 8  4.69                             131     0.0 5  114  53 
 GRA  SZ ES   2   19 8 10.65                             122     0.1 5  152  31 
 GRA  SZ I        19 8 12.60         6.2 0.29                           152  31 
                                                                                
