 2010 10 2 1136  0.8 L   6.806 -73.074142.0  RSN  4 0.6 1.4LRSN                1
 GAP=167        1.67      11.3    18.2 22.2 -0.1357E+02 -0.1753E+03 -0.6156E+02E
 Epicentro: LOS SANTOS - SANTANDER                                             3
 ACTION:UP  11-02-18 11:07 OP:tino STATUS:               ID:20101002113600 L   I
 2010-10-02-1133-07S.COL___124                                                 6
 STAT SP IPHASW D HRMM SECON CODA AMPLIT PERI AZIMU VELO SNR AR TRES W  DIS CAZ7
 BRR  HZ EP       1136 21.47                             150    -0.510   78 295 
 BRR  HZ I        1136 23.11        15.9 0.43                            78 295 
 BRR  HN ES       1136 38.73                             150     0.310   78 295 
 RUS  HN ES   1   1136 42.51                             143     0.0 7  101 181 
 RUS  HZ I        1136 44.20         2.2 0.35                           101 181 
 GUE  SZ EP       1136 24.49                             139    -0.510  114   8 
 GUE  SZ I        1136 37.30         2.2 0.10                           114   8 
 GRA  SZ EP   1   1136 26.92                             137     1.5 7  123  14 
 GRA  SZ ES   1   1136 44.38                             137    -0.3 7  123  14 
                                                                                
