 2017  9 2 1228 26.6 L   6.807 -73.354120.2  RSN  6 0.2 1.8LRSN                1
 GAP=191        0.59       2.9     3.1  3.8  0.5780E+01  0.2139E+01  0.2105E+01E
 Epicentro: ZAPATOCA - SANTANDER                                               3
 ACTION:UPD 17-10-05 19:08 OP:rebc STATUS:               ID:20170902122826 L   I
 OLDACT:REG 17-09-02 20:33 OP:dhb  STATUS:               ID:20170902122747     3
 2017-09-02-1228-00M.COL___405                                                 6
 STAT SP IPHASW D HRMM SECON CODA AMPLIT PERI AZIMU VELO AIN AR TRES W  DIS CAZ7
 BAR2 EZ IP     C 1228 43.16                             165   -0.2110 30.4 141 
 BAR2 EZ ES       1228 56.27                             165   -0.1710 30.4 141 
 BAR2 EZ I        1228 57.42        24.9 0.35            164           30.4 141 
 BRR  HZ EP       1228 43.55                             155   -0.3510 51.7 310 
 BRR  HN ES       1228 57.58                             155    0.1810 51.7 310 
 BRR  HZ I        1228 59.64        17.0 0.31            155           51.7 310 
 RUS  HZ EP       1228 48.48                             136    0.1410  105 164 
 RUS  HN ES       1229  5.55                             136    0.2510  105 164 
 SPBC HZ EP       1228 51.95                             125   -0.04 9  150 212 
 SPBC HN ES       1229 11.50                             125   -0.28 9  150 212 
 SPBC HZ I        1229 17.73         4.1 0.09            124            150 212 
 ZAR  HZ EP       1228 55.29                             119    0.08 9  183 295 
 ZAR  HN ES       1229 17.83                             119    0.31 9  183 295 
 ZAR  HZ I        1229 20.40         6.5 0.26            120            183 295 
 YPLC HZ EP       1228 55.96                             118   -0.08 9  190 145 
 YPLC HN ES       1229 19.25                             118    0.26 9  190 145 
 YPLC HZ I        1229 22.33         9.9 0.45            119            190 145 
                                                                                
