 2013  6 2 1000 43.3 L   6.766 -73.212144.0  RSN  4 0.5 1.6LRSN                1
 GAP=227        1.16       9.2     9.3 10.4  0.5798E+02 -0.3272E+01 -0.1430E+02E
 Epicentro: ZAPATOCA - SANTANDER                                               3
 ACTION:UPD 14-01-08 09:51 OP:ep   STATUS:               ID:20130602100043 L   I
 2013-06-02-0958-54M.COL___216                                                 6
 STAT SP IPHASW D HRMM SECON CODA AMPLIT PERI AZIMU VELO AIN AR TRES W  DIS CAZ7
 BRR  HZ EP       10 1  3.89                             154   -0.1610 66.9 304 
 BRR  HN ES       10 1 20.00                             154   -0.2110 66.9 304 
 BRR  HE I        10 1 25.22        12.2 0.26            155           66.9 304 
 RUS  HZ EP       10 1  6.37                             144   -0.3310 97.7 172 
 RUS  HN ES       10 1 25.45                             144    0.5310 97.7 172 
 RUS  HE I        10 1 28.27         5.0 0.48            147           97.7 172 
 PTB  HZ EP       10 1  8.75                             133   -0.69 9  140 260 
 PTB  HN ES       10 1 29.66                             133   -0.14 9  140 260 
 PTB  HE I        10 1 35.82         5.2 0.22            136            140 260 
 ZAR  HZ EP       10 1 16.00                             123    0.89 9  199 294 
 ZAR  HE ES       10 1 40.24                             123    0.34 9  199 294 
                                                                                
