 2013 12 2 1827 52.1 L   6.787 -73.123144.7  RSN  9 0.5 2.1LRSN                1
 GAP=140        1.12       4.6     4.6  6.7 -0.2881E+01  0.8779E+01  0.4380E+01E
 Epicentro: LOS SANTOS - SANTANDER                                             3
 ACTION:UPD 14-01-13 10:15 OP:ep   STATUS:               ID:20131202182752 L   I
 OLDACT:UP  13-12-02 16:46 OP:cam  STATUS:               ID:20131202182000     3
 OLDACT:REG 13-12-02 14:34 OP:cam  STATUS:               ID:20131202182000     3
 2013-12-02-1820-00M.COL___282                                                 6
 STAT SP IPHASW D HRMM SECON CODA AMPLIT PERI AZIMU VELO AIN AR TRES W  DIS CAZ7
 BAR2 SZ EP       1828 11.50                             171   -0.0910 22.5 197 
 BAR2 SZ ES       1828 26.27                             171   -0.5210 22.5 197 
 BAR2 SZ I        1828 27.72        39.9 0.22            170           22.5 197 
 BRR  HZ EP       1828 13.35                             151    0.0510 74.1 299 
 BRR  HN ES       1828 30.38                             151    0.5410 74.1 299 
 BRR  HZ I        1828 37.07        15.1 0.18            149           74.1 299 
 PAM  SZ EP       1828 14.29                             151    0.1110 77.0  37 
 PAM  SN ES       1828 31.62                             151    0.2110 77.0  37 
 PAM  SZ I        1828 33.79        16.8 0.62            154           77.0  37 
 RUS  HZ EP       1828 15.42                             144   -0.2110 99.0 177 
 RUS  HE ES       1828 34.13                             144    0.1410 99.0 177 
 RUS  HZ I        1828 35.06        12.3 0.30            148           99.0 177 
 PTB  HZ EP       1828 18.32                             131   -0.86 9  150 260 
 PTB  HN ES       1828 39.30                             131   -1.00 9  150 260 
 PTB  HZ I        1828 43.92        12.6 0.44            132            150 260 
 SPBC HZ EP       1828 20.51                             129   -0.05 9  164 220 
 SPBC HE ES       1828 43.35                             129    0.59 9  164 220 
 SPBC HZ I        1828 44.95        18.1 0.34            131            164 220 
 ZAR  HZ EP   2   1828 24.92                             122    0.15 4  207 292 
 ZAR  HN ES       1828 50.55                             122    0.29 8  207 292 
 ZAR  HZ I        1828 55.79        14.6 0.30            123            207 292 
 NOR  HZ EP       1828 28.06                             118    0.17 8  236 235 
 NOR  HE ES       1828 56.43                             118    0.62 8  236 235 
 NOR  HZ I        1829  1.84        14.6 0.22            120            236 235 
 GUY2CHZ EP       1828 36.13                             112    0.34 7  302 235 
                                                                                
