 2014  6 2 1458 44.9 L   7.512 -73.343122.6  RSN 16 0.4 2.5LRSN                1
 GAP=103        0.99       2.7     3.6  5.6 -0.5217E+00  0.6229E+01  0.2059E+01E
 Epicentro: EL PLAYON - SANTANDER                                              3
 OLDACT:REG 14-06-02 22:16 OP:fm   STATUS:               ID:20140602145814     3
 ACTION:UPD 14-07-01 22:49 OP:nd   STATUS:               ID:20140602145844 L   I
 OLDACT:UP  14-06-03 00:23 OP:fm   STATUS:               ID:20140602145814     3
 2014-06-02-1458-14M.COL___256                                                 6
 STAT SP IPHASW D HRMM SECON CODA AMPLIT PERI AZIMU VELO AIN AR TRES W  DIS CAZ7
 BRR  HZ IP     C 1459  2.92                             152    0.0210 60.5 222 
 BRR  HN ES       1459 16.59                             152   -0.3810 60.5 222 
 BRR  HZ I        1459 18.23       130.2 0.14            143           60.5 222 
 PAM  SZ EP       1459  4.89                             147    0.4810 73.6 105 
 PAM  SN ES       1459 20.42                             147    0.7610 73.6 105 
 PAM  HZ I        1459 21.31        48.0 0.18            144           73.6 105 
 OCA  HZ EP       1459  4.33                             145   -0.0710 80.4   2 
 OCA  HE ES       1459 19.55                             145   -0.1010 80.4   2 
 OCA  HZ I        1459 23.39        38.3 0.24            137           80.4   2 
 BAR2 SZ IP     D 1459  6.32                             137    0.0410  103 170 
 BAR2 SZ ES   1   1459 22.19                             137   -0.79 7  103 170 
 BAR2 HZ I        1459 23.04        52.3 0.34            130            103 170 
 PTB  HZ EP       1459 11.04                             123   -0.57 9  163 229 
 PTB  HN ES       1459 32.17                             123   -0.31 9  163 229 
 PTB  HZ I        1459 33.97        32.8 0.16            115            163 229 
 SML  HZ EP       1459 11.37                             123   -0.23 9  164 331 
 SML  HN ES   1   1459 32.05                             123   -0.42 7  164 331 
 SML  HZ I        1459 35.29        65.6 0.08            115            164 331 
 ZAR  HZ EP       1459 12.13                             122    0.14 9  167 269 
 ZAR  HN ES       1459 33.99                             122    0.83 9  167 269 
 ZAR  HZ I        1459 38.02        38.8 0.40            114            167 269 
 RUS  HZ EP       1459 13.83                             120   -0.27 9  181 171 
 RUS  HE ES   1   1459 36.18                             120   -0.73 7  181 171 
 SPBC HZ EP       1459 17.87                             115    0.01 8  221 201 
 SPBC HE ES       1459 43.65                             115    0.04 8  221 201 
 SPBC HZ I        1459 50.13        49.2 0.22            109            221 201 
 URE  HN ES   4   1459 46.17                             112   -1.67 0  243 276 
 NOR  HZ EP       1459 24.12                             109    0.33 8  274 218 
 NOR  HN ES       1459 54.59                             109    0.44 8  274 218 
 NOR  HZ I        1459 59.36        19.4 0.22            105            274 218 
 HEL  HZ EP   4   1459 26.82                             109    1.64 0  282 239 
 HEL  HZ I        15 0  6.32        13.0 0.40            104            282 239 
 ROSC BZ EP   1   1459 29.66                             106    0.70 5  315 200 
 ROSC BN ES   4   15 0  6.90                             106    3.54 0  315 200 
 ROSC HZ I        15 0 13.68        14.4 0.40            103            315 200 
 CHI  HN ES   4   15 0  7.17                             106    2.30 0  322 188 
 SJC  HZ EP       1459 30.09                             105   -0.52 7  332 323 
 SJC  HN ES   4   15 0  4.04                             105   -2.26 0  332 323 
 SJC  HZ I        15 0 17.39         9.0 1.12            102            332 323 
 GUY2CHZ EP   4   1459 33.59                             105    1.82 0  338 222 
 GUY2CHN ES       15 0  8.59                             105    0.23 7  338 222 
 GUY2CHZ I        15 0 18.24        11.5 0.50                           338 222 
 RREF HZ EP   4   1459 37.91                             104    2.82 0  364 218 
 RREF HN ES   4   15 0 17.91                             104    3.65 0  364 218 
 RREF HZ I        15 0 28.28        12.0 0.30            101            364 218 
 VIL  SN ES   4   15 0 21.03                             103    4.94 0  378 186 
 TOL  SZ EP   4   1459 40.51                             102    2.63 0  391 214 
 TOL  SN ES   4   15 0 23.27                             102    4.04 0  391 214 
 PRA  HZ EP   2   1459 45.36                             100    0.33 2  453 202 
 PRA  HN ES   4   15 0 35.42                             100    3.46 0  453 202 
 PRA  HZ I        15 0 42.55        17.8 0.68             98            453 202 
                                                                                
