 2013  7 2 1638  7.4 L   6.799 -73.162142.8  RSN  9 0.4 1.8LRSN                1
 GAP=134        0.92       4.2     4.6  7.3  0.1717E+01  0.1002E+02 -0.2028E+01E
 Epicentro: LOS SANTOS - SANTANDER                                             3
 ACTION:UPD 13-08-12 10:34 OP:ep   STATUS:               ID:20130702163807 L   I
 OLDACT:REG 13-07-02 17:14 OP:jn   STATUS:               ID:20130702163649     3
 2013-07-02-1636-49M.COL___236                                                 6
 STAT SP IPHASW D HRMM SECON CODA AMPLIT PERI AZIMU VELO AIN AR TRES W  DIS CAZ7
 BAR2 SZ EP       1638 26.77                             170    0.1010 23.0 186 
 BAR2 SZ ES       1638 41.31                             170   -0.3910 23.0 186 
 BAR2 SZ I        1638 43.53        14.8 0.20            172           23.0 186 
 GIR2 SZ EP       1638 26.95                             167    0.2310 31.1 354 
 BRR  HZ EP       1638 28.68                             153    0.5410 69.6 299 
 BRR  HN ES   1   1638 45.02                             153    0.70 7 69.6 299 
 BRR  HZ I        1638 48.98        12.8 0.46            151           69.6 299 
 PAM  SE ES   1   1638 45.98                             150   -0.54 7 78.6  41 
 PAM  SZ I        1638 47.59        10.9 0.20            153           78.6  41 
 RUS  HZ EP       1638 30.88                             143    0.0110  101 175 
 RUS  HN ES       1638 49.43                             143    0.2610  101 175 
 RUS  HZ I        1638 50.60         8.9 0.28            148            101 175 
 PTB  HZ EP       1638 33.49                             132   -0.47 9  146 259 
 PTB  HN ES       1638 54.46                             132   -0.22 9  146 259 
 PTB  HZ I        1638 56.54        11.1 0.40            133            146 259 
 ZAR  HE ES   1   1639  4.82                             122    0.31 6  202 292 
 ZAR  HZ I        1639 11.18         9.1 0.38            123            202 292 
 NOR  HE ES   1   1639  9.90                             118   -0.50 6  233 234 
 SML  HE ES   1   1639 11.66                             117   -0.51 6  243 336 
                                                                                
