 2014  6 2 1919  2.2 L   6.792 -73.112150.9  RSN  8 0.4 2.0LRSN                1
 GAP=141        0.88       3.7     4.7  6.2 -0.6069E+01  0.8139E+01  0.2660E+01E
 Epicentro: LOS SANTOS - SANTANDER                                             3
 OLDACT:REG 14-06-02 22:33 OP:fm   STATUS:               ID:20140602191809     3
 ACTION:UPD 14-07-01 22:50 OP:nd   STATUS:               ID:20140602191902 L   I
 OLDACT:UP  14-06-03 01:53 OP:fm   STATUS:               ID:20140602191809     3
 2014-06-02-1918-09M.COL___256                                                 6
 STAT SP IPHASW D HRMM SECON CODA AMPLIT PERI AZIMU VELO AIN AR TRES W  DIS CAZ7
 BAR2 SZ EP       1919 22.36                             171   -0.0710 23.4 199 
 BAR2 SZ ES   1   1919 38.37                             171    0.15 7 23.4 199 
 BAR2 SZ I        1919 38.52        13.0 0.24            171           23.4 199 
 BRR  HZ EP   1   1919 23.71                             152   -0.38 7 74.9 298 
 BRR  HE ES       1919 41.59                             152    0.4110 74.9 298 
 BRR  SZ I        1919 44.72        17.3 0.30            151           74.9 298 
 PAM  SZ EP       1919 25.06                             152    0.2110 75.8  37 
 PAM  SN ES       1919 42.53                             152   -0.0010 75.8  37 
 PAM  SZ I        1919 44.39        21.4 0.50            154           75.8  37 
 RUS  HZ EP       1919 26.45                             145    0.0810 99.5 178 
 RUS  HN ES       1919 45.21                             145   -0.0210 99.5 178 
 RUS  SZ I        1919 46.02         8.4 0.24            147           99.5 178 
 SPBC HZ EP       1919 31.17                             130   -0.07 9  165 220 
 SPBC HN ES       1919 53.10                             130   -0.80 9  165 220 
 SPBC SZ I        1919 58.79        24.3 0.30            131            165 220 
 NOR  HN ES       1920  6.72                             119   -0.08 8  237 235 
 SML  HZ EP   4   1919 35.28                             118   -4.07 0  246 335 
 SML  HE ES   1   1920  7.50                             118   -0.84 6  246 335 
 SML  SZ I        1920 10.86        19.6 0.08            119            246 335 
 GUY2CHZ EP       1919 46.76                             113    0.44 7  304 235 
 GUY2CHN ES       1920 21.46                             113    0.72 7  304 235 
 GUY2CSZ I        1920 31.71         4.1 0.62                           304 235 
                                                                                
