 2011 11 2 1933 30.8 L   6.771 -73.111147.2  RSN 11 0.4 2.6LRSN                1
 GAP=142        0.78       3.4     5.8  5.6 -0.1654E+01  0.1254E+02  0.1195E+01E
 Epicentro: LOS SANTOS - SANTANDER                                             3
 ACTION:UPD 12-07-13 16:07 OP:ep   STATUS:               ID:20111102193330 L   I
 2011-11-02-1931-57S.COL___176                                                 6
 STAT SP IPHASW D HRMM SECON CODA AMPLIT PERI AZIMU VELO AIN AR TRES W  DIS CAZ7
 BAR2 SZ IP       1933 50.63                             171    0.0310 21.3 202 
 BAR2 SZ ES   1   1934  5.01                             171   -1.01 7 21.3 202 
 BAR2 SZ I        1934  7.10       130.5 0.28                          21.3 202 
 BRR  HZ IP     C 1933 52.55                             151    0.1310 76.0 299 
 BRR  HZ I        1933 52.94       152.4 0.10                          76.0 299 
 BRR  HN ES   1   1934  9.99                             151    0.74 7 76.0 299 
 PAM  SZ IP       1933 53.49                             151    0.2710 77.6  36 
 PAM  SN ES   1   1934 10.87                             151    0.20 7 77.6  36 
 RUS  HZ EP       1933 54.51                             145    0.0210 97.2 178 
 RUS  HE ES   1   1934 13.00                             145    0.06 7 97.2 178 
 RUS  HZ I        1934 14.19        46.2 0.40                          97.2 178 
 OCA  SZ EP       1933 59.20                             129   -0.40 9  164 352 
 OCA  SZ ES   1   1934 22.14                             129    0.10 7  164 352 
 OCA  SZ I        1934 26.29        46.1 0.40                           164 352 
 ZAR  HZ EP       1934  3.30                             122   -0.56 8  209 293 
 ZAR  HE ES   3   1934 29.09                             122   -0.53 2  209 293 
 ZAR  HZ I        1934 35.46        48.4 0.30                           209 293 
 NOR  SZ EP       1934  7.00                             119    0.22 8  236 236 
 HEL  HZ EP   2   1934 11.87                             115    0.43 4  275 257 
 HEL  HZ I        1934 49.54        14.9 0.48                           275 257 
 GUY  SZ EP   3   1934 14.73                             112   -0.19 2  305 236 
 GUY  SZ I        1934 56.08        14.8 0.40                           305 236 
 RREF HZ EP   3   1934 17.53                             111    0.40 2  323 230 
 RREF HZ I        1935  4.54        18.5 0.26                           323 230 
 PRA  HZ EP       1934 24.35                             107    0.05 6  391 210 
 PRA  HE ES   2   1935  6.40                             107    0.39 3  391 210 
                                                                                
