 2014  1 2 1416 59.5 L   7.598 -73.677 92.6  RSN  5 0.4 1.6LRSN                1
 GAP=112        1.07       4.1     3.6 16.9 -0.5958E+00  0.4258E+01 -0.1058E+02E
 Epicentro: SABANA DE TORRES - SANTANDER                                       3
 ACTION:UPD 14-03-13 09:50 OP:ep   STATUS:               ID:20140102141659 L   I
 OLDACT:UP  14-01-02 18:26 OP:mher STATUS:               ID:20140102141000     3
 OLDACT:REG 14-01-02 14:58 OP:mh   STATUS:               ID:20140102141000     3
 2014-01-02-1410-00M.COL___285                                                 6
 STAT SP IPHASW D HRMM SECON CODA AMPLIT PERI AZIMU VELO AIN AR TRES W  DIS CAZ7
 OCA  HZ EP       1417 15.95                             136   -0.3710 81.1  29 
 OCA  HN ES   2   1417 29.65                             136    0.25 5 81.1  29 
 OCA  HZ I        1417 32.88        10.7 0.39            140           81.1  29 
 PAM  SZ EP       1417 19.78                             126    0.1610  112 105 
 PAM  SE ES       1417 35.47                             126    0.1910  112 105 
 PAM  SZ I        1417 36.87         6.2 0.20            134            112 105 
 ZAR  HN ES       1417 38.33                             121    0.6610  131 265 
 SML  HZ EP       1417 22.33                             119    0.40 9  140 342 
 SML  HN ES       1417 38.88                             119   -0.50 9  140 342 
 SML  HZ I        1417 43.63        11.4 0.09            124            140 342 
 PTB  HZ EP   4   1417 25.30                             118    2.77 0  145 216 
 PTB  HN ES       1417 39.84                             118   -0.61 9  145 216 
                                                                                
