 2015  9 2 1042 57.7 L   6.245 -73.698105.7  RSN 14 0.5 1.9LRSN                1
 GAP= 64        1.21       2.6     3.4  6.2 -0.9831E+00  0.7449E+01  0.1996E+01E
 Epicentro: LANDAZURI - SANTANDER                                              3
 ACTION:UPD 15-10-28 16:23 OP:cam  STATUS:               ID:20150902104257 L   I
 OLDACT:REG 15-09-02 21:12 OP:ak   STATUS:               ID:20150902103749     3
 2015-09-02-1037-49M.COL___358                                                 6
 STAT SP IPHASW D HRMM SECON CODA AMPLIT PERI AZIMU VELO AIN AR TRES W  DIS CAZ7
 BAR2 EZ IP     D 1043 15.29                             145    0.4710 68.8  56 
 BAR2 EZ ES       1043 28.25                             145    0.0410 68.8  56 
 BAR2 EZ I        1043 29.66        51.4 0.18            145           68.8  56 
 SPBC HZ EP       1043 15.16                             141   -0.1010 77.5 212 
 SPBC HN ES       1043 29.61                             141    0.6210 77.5 212 
 RUS  HZ EP       1043 15.89                             141   -0.0010 78.4 120 
 RUS  HN ES       1043 29.80                             141   -0.3110 78.4 120 
 RUS  HZ I        1043 32.24        14.4 0.26            141           78.4 120 
 PTB  HZ EP       1043 15.34                             136   -0.8210 90.0 291 
 PTB  HN ES       1043 29.70                             136   -0.9010 90.0 291 
 PTB  HZ E        1043 30.36                                           90.0 291 
 PTB  HZ I        1043 30.37        10.4 0.11            135           90.0 291 
 BRR  HZ EP       1043 16.77                             134    0.1710 95.4 359 
 BRR  HE ES       1043 32.28                             134    0.9010 95.4 359 
 NOR  HZ EP       1043 21.51                             120   -0.48 9  150 240 
 NOR  HE ES       1043 40.81                             120   -0.15 9  150 240 
 NOR  HZ I        1043 45.29        19.4 0.18            120            150 240 
 CHI  HZ EP       1043 25.46                             116   -0.08 9  179 181 
 CHI  HN ES       1043 46.70                             116   -0.59 9  179 181 
 CHI  HZ I        1043 51.57         5.2 0.24            115            179 181 
 ZAR  HZ EP       1043 26.07                             114   -0.02 9  188 317 
 ZAR  HN ES       1043 47.85                             114   -0.42 9  188 317 
 ZAR  HZ I        1043 51.60        10.4 0.17            114            188 317 
 HEL  HZ EP       1043 28.56                             112    0.40 9  203 268 
 HEL  HN ES       1043 52.72                             112    0.77 9  203 268 
 HEL  HZ I        1043 56.39         7.3 0.26            112            203 268 
 GUY2CHZ EP       1043 30.41                             111    0.56 8  216 239 
 GUY2CHN ES       1043 54.86                             111   -0.10 8  216 239 
 GUY2CHZ I        1044  0.68         9.5 0.44                           216 239 
 TOL  SZ EP       1043 34.81                             107    0.45 8  257 224 
 TOL  SN ES       1044  3.76                             107    0.78 8  257 224 
 TOL  SZ I        1044  7.18         5.0 0.53            106            257 224 
 SML  HZ EP       1043 36.80                             104   -0.52 7  286 352 
 SML  HN ES       1044  8.03                             104   -0.23 7  286 352 
 SML  HZ I        1044 14.21         8.2 0.12            104            286 352 
 PRA  HZ EP       1043 40.67                             103    0.49 7  309 205 
 PRA  HN ES       1044 13.24                             103   -0.11 7  309 205 
 PRA  HZ I        1044 18.81         5.7 0.30            102            309 205 
 ORTC HZ EP   1   1043 40.19                             102   -0.08 5  310 214 
 ORTC HN ES       1044 12.87                             102   -0.64 7  310 214 
 ORTC HZ I        1044 17.85         3.7 0.58            102            310 214 
                                                                                
