 2014  6 2 1430  1.3 L   6.792 -73.110155.2  RSN  8 0.4 1.8LRSN                1
 GAP=204        0.72       3.2     5.3  6.5  0.1615E+01 -0.7548E+00  0.1336E+00E
 Epicentro: LOS SANTOS - SANTANDER                                             3
 ACTION:UPD 14-07-01 22:49 OP:nd   STATUS:               ID:20140602143001 L   I
 OLDACT:REG 14-06-02 22:14 OP:fm   STATUS:               ID:20140602142819     3
 2014-06-02-1428-19M.COL___256                                                 6
 STAT SP IPHASW D HRMM SECON CODA AMPLIT PERI AZIMU VELO AIN AR TRES W  DIS CAZ7
 BRR  HZ EP       1430 24.01                             153    0.2810 75.1 298 
 BRR  HN ES       1430 41.29                             153    0.0910 75.1 298 
 BRR  HZ I        1430 44.84         6.9 0.52            138           75.1 298 
 RUS  HZ EP       1430 26.06                             146    0.1010 99.6 178 
 RUS  HN ES   1   1430 44.59                             146   -0.57 7 99.6 178 
 RUS  HZ I        1430 46.03         3.0 0.40            135           99.6 178 
 SPBC HZ EP       1430 30.78                             131    0.03 9  165 220 
 SPBC HN ES       1430 53.99                             131    0.29 9  165 220 
 SPBC HZ I        1430 58.06         8.5 0.22            118            165 220 
 ZAR  HE ES   1   1431  0.33                             124   -0.61 6  208 292 
 ZAR  HZ I        1431  6.30         5.4 0.30            110            208 292 
 NOR  HZ EP   1   1430 37.99                             120    0.06 6  237 235 
 NOR  HN ES   1   1431  6.08                             120   -0.38 6  237 235 
 NOR  HZ I        1431 14.20         4.0 0.16            108            237 235 
 SML  HZ EP   1   1430 38.04                             119   -0.73 6  246 335 
 SML  HN ES   1   1431  8.36                             119    0.39 6  246 335 
 SML  HZ I        1431 10.58         9.2 0.10            107            246 335 
 GUY2CHN ES   1   1431 20.56                             114    0.24 5  304 235 
 SJC  HZ EP   4   1430 56.03                             107   -1.53 0  412 327 
 SJC  HZ I        1431 41.12         2.1 0.80            100            412 327 
                                                                                
