 2015  2 2 1043 40.5 L   6.738 -73.143152.2  RSN  4 0.5 1.4LRSN                1
 GAP=219        1.00       7.7    11.1 10.0 -0.2459E+02  0.2096E+02 -0.3308E+02E
 Epicentro: LOS SANTOS - SANTANDER                                             3
 ACTION:UPD 15-04-30 21:20 OP:nd   STATUS:               ID:20150202104340 L   I
 OLDACT:REG 15-02-02 22:45 OP:y    STATUS:               ID:20150202103814     3
 2015-02-02-1038-14M.COL___262                                                 6
 STAT SP IPHASW D HRMM SECON CODA AMPLIT PERI AZIMU VELO AIN AR TRES W  DIS CAZ7
 BAR2 EZ ES   1   1044 16.28                             173   -0.37 8 16.7 195 
 BRR  HN ES   1   1044 20.53                             152    0.74 8 75.0 303 
 PTB  HZ EP       1044  8.47                             134    0.5310  147 261 
 PTB  HN ES       1044 28.87                             134   -0.4710  147 261 
 PTB  HN I        1044 34.67         2.7 0.40            130            147 261 
 SML  HZ EP       1044 17.93                             118   -0.26 8  250 336 
 SML  HN ES       1044 47.42                             118   -0.16 8  250 336 
 SML  HZ I        1044 53.52         1.6 0.10            117            250 336 
                                                                                
