 2011  7 2 1851 38.2 L   6.706 -73.190149.7  RSN  4 0.4 1.8LRSN                1
 GAP=193        0.92      11.6    21.8  8.5  0.1969E+03 -0.1386E+02 -0.1131E+01E
 Epicentro: VILLANUEVA - SANTANDER                                             3
 ACTION:UPD 12-07-25 13:57 OP:epov STATUS:               ID:20110702185138 L   I
 2011-07-02-1849-22S.COL___140                                                 6
 STAT SP IPHASW D HRMM SECON CODA AMPLIT PERI AZIMU VELO AIN AR TRES W  DIS CAZ7
 BAR2 SZ EP       1851 57.83                             175   -0.3310 12.7 176 
 BAR2 SZ ES   1   1852 12.91                             175   -0.80 7 12.7 176 
 BAR2 SZ I        1852 14.48        13.4 0.22                          12.7 176 
 BTL  SZ EP       1851 58.77                             170    0.4110 25.0 340 
 BTL  SZ ES   1   1852 14.55                             170    0.49 7 25.0 340 
 BRR  HZ EP       1851 59.83                             153   -0.0510 72.8 308 
 BRR  HZ I        1852  1.54         9.6 0.10                          72.8 308 
 BRR  HN ES   1   1852 16.71                             153   -0.06 7 72.8 308 
 RUS  HZ EP       1852  1.56                             147   -0.1310 90.8 173 
 RUS  HN ES   1   1852 20.52                             147    0.53 7 90.8 173 
                                                                                
