 2014  9 2 1343 12.0 L   6.573 -73.566104.6  RSN  9 0.5 1.7LRSN                1
 GAP=100        1.17       4.0     4.8  8.1 -0.8393E+00  0.1442E+02  0.1442E+01E
 Epicentro: EL CARMEN - SANTANDER                                              3
 ACTION:UPD 14-10-03 23:01 OP:nd   STATUS:               ID:20140902134312 L   I
 OLDACT:REG 14-09-02 20:21 OP:fm   STATUS:               ID:20140902133819     3
 2014-09-02-1338-19M.COL___263                                                 6
 STAT SP IPHASW D HRMM SECON CODA AMPLIT PERI AZIMU VELO AIN AR TRES W  DIS CAZ7
 BAR2 SZ EP     C 1343 27.50                             156    0.0710 42.4  87 
 BAR2 SZ ES   1   1343 39.55                             156    0.07 7 42.4  87 
 BAR2 SZ I        1343 41.03        33.7 0.46            155           42.4  87 
 BRR  HZ EP       1343 28.03                             147   -0.1410 61.3 345 
 BRR  HN ES       1343 41.31                             147    0.5010 61.3 345 
 RUS  HN ES   1   1343 46.31                             136    0.07 7 92.2 145 
 RUS  HZ I        1343 48.53         7.4 0.32            133           92.2 145 
 PTB  HZ EP     D 1343 30.54                             133   -0.5910 98.6 268 
 PTB  HN ES       1343 45.17                             133   -0.9010 98.6 268 
 PTB  HZ I        1343 45.87        10.3 0.10            131           98.6 268 
 ZAR  HZ EP   1   1343 39.67                             116    0.76 7  175 306 
 ZAR  HN ES       1344  0.62                             116    0.70 9  175 306 
 ZAR  HZ I        1344  5.27         6.2 0.28            115            175 306 
 NOR  HZ EP   1   1343 39.15                             115   -0.60 7  182 232 
 NOR  HN ES       1344  1.99                             115    0.57 9  182 232 
 NOR  HZ I        1344  4.74         4.9 0.18            114            182 232 
 GUY2CHZ EP   1   1343 48.74                             107    0.87 6  249 233 
 GUY2CHN ES   1   1344 15.79                             107   -0.08 6  249 233 
 GUY2CHZ I        1344 23.86         1.7 0.22                           249 233 
 SML  HZ EP   1   1343 47.29                             106   -0.43 6  253 347 
 SML  HN ES       1344 15.15                             106   -0.45 8  253 347 
 SML  HZ I        1344 19.78        10.4 0.10            107            253 347 
 PRA  HZ EP   1   1343 59.38                             100    0.24 5  348 205 
 PRA  HN ES   4   1344 38.75                             100    2.81 0  348 205 
 PRA  HZ I        1344 44.21         2.6 0.30            102            348 205 
                                                                                
