 2011 11 2 1249 51.7 L   6.797 -73.330123.9  RSN  6 0.3 1.6LRSN                1
 GAP=130        0.70       6.6     6.4  7.1  0.2173E+02  0.1729E+02  0.2845E+01E
 Epicentro: ZAPATOCA - SANTANDER                                               3
 ACTION:UPD 12-07-13 16:07 OP:ep   STATUS:               ID:20111102124951 L   I
 2011-11-02-1247-02S.COL___176                                                 6
 STAT SP IPHASW D HRMM SECON CODA AMPLIT PERI AZIMU VELO AIN AR TRES W  DIS CAZ7
 BTL  SZ EP       1250  9.12                             172    0.5410 15.1  27 
 BAR2 SZ EP       1250  9.01                             167    0.1510 27.9 144 
 BAR2 SZ I        1250  9.28        12.4 0.16                          27.9 144 
 BAR2 SZ ES   1   1250 22.25                             167    0.03 7 27.9 144 
 BRR  HZ EP       1250  9.45                             155   -0.1310 54.4 309 
 BRR  HN ES   1   1250 23.41                             155   -0.09 7 54.4 309 
 BRR  HZ I        1250 24.75        12.4 0.14                          54.4 309 
 PAM  SE ES   2   1250 28.40                             141   -0.69 5 91.9  49 
 RUS  HZ EP   2   1250 13.48                             138   -0.18 5  104 165 
 RUS  HN ES   2   1250 30.12                             138   -0.64 5  104 165 
 ZAR  HZ EP       1250 20.59                             120   -0.27 9  185 295 
 ZAR  HN ES   2   1250 43.83                             120    0.25 4  185 295 
 ZAR  HZ I        1250 47.44         3.7 0.52                           185 295 
                                                                                
