 2015  5 2 1359 12.3 L   6.774 -73.164134.0  RSN  4 0.2 1.4LRSN                1
 GAP=146        0.56       3.7     3.3  4.9 -0.4509E+01  0.8896E+01 -0.1550E+01E
 Epicentro: LOS SANTOS - SANTANDER                                             3
 ACTION:UPD 15-09-10 22:00 OP:cam  STATUS:               ID:20150502135912 L   I
 OLDACT:REG 15-05-02 20:49 OP:ak   STATUS:               ID:20150502135748     3
 2015-05-02-1357-48M.COL___270                                                 6
 STAT SP IPHASW D HRMM SECON CODA AMPLIT PERI AZIMU VELO AIN AR TRES W  DIS CAZ7
 BAR2 EZ EP       1359 30.57                             171    0.1610 20.2 186 
 BAR2 EZ ES       1359 44.60                             171    0.0310 20.2 186 
 BAR2 EZ I        1359 47.33         3.8 0.18            171           20.2 186 
 PAM  SZ EP       1359 33.30                             147   -0.1610 80.9  39 
 PAM  SN ES       1359 49.98                             147   -0.0210 80.9  39 
 PAM  SZ I        1359 51.79         5.9 0.40            152           80.9  39 
 ZAR  HZ EP       1359 43.67                             120   -0.21 9  203 293 
 ZAR  HN ES       14 0  8.73                             120    0.18 9  203 293 
 ZAR  HZ I        14 0 14.77         3.8 0.24            121            203 293 
 NOR  HZ EP       1359 47.36                             116    0.39 8  231 235 
 NOR  HN ES       14 0 13.67                             116   -0.37 8  231 235 
 NOR  HZ I        14 0 18.45         1.9 0.16            118            231 235 
                                                                                
