 2015 12 2 1459 27.4 L   6.807 -73.103145.8  RSN 18 0.4 2.6LRSN                1
 GAP=122        1.03       2.7     3.7  5.1 -0.2883E+01  0.5332E+01 -0.3816E+00E
 Epicentro: LOS SANTOS - SANTANDER                                             3
 ACTION:UPD 16-02-04 15:02 OP:cam  STATUS:               ID:20151202145927 L   I
 OLDACT:REG 15-12-02 19:58 OP:drio STATUS:               ID:20151202145749     3
 2015-12-02-1457-49M.COL___315                                                 6
 STAT SP IPHASW D HRMM SECON CODA AMPLIT PERI AZIMU VELO AIN AR TRES W  DIS CAZ7
 BAR2 EZ EP       1459 47.33                             170    0.2210 25.3 200 
 BAR2 EZ ES       15 0  2.10                             170   -0.3610 25.3 200 
 BAR2 EZ I        15 0  3.03        72.7 0.34            168           25.3 200 
 PAM  EZ EP       1459 50.22                             152    0.7710 73.9  37 
 PAM  EE ES       15 0  7.04                             152    0.4210 73.9  37 
 PAM  EZ I        15 0  9.13       122.8 0.48            155           73.9  37 
 BRR  HZ EP       1459 49.35                             151    0.5410 75.0 296 
 BRR  HN ES       15 0  5.91                             151    0.4310 75.0 296 
 BRR  HZ I        15 0  7.14        45.6 0.14            149           75.0 296 
 RUS  HZ EP       1459 50.82                             144   -0.4110  101 179 
 RUS  HE ES       15 0  9.62                             144   -0.1710  101 179 
 RUS  HZ I        15 0 10.99        19.1 0.30            146            101 179 
 PTB  HZ EP       1459 54.56                             131   -0.29 9  153 259 
 PTB  HN ES   4   15 0 14.65                             131   -1.57 0  153 259 
 PTB  HZ I        15 0 20.50        38.8 0.26            130            153 259 
 OCA  HZ EP       1459 55.62                             130   -0.12 9  160 351 
 OCA  HN ES       15 0 17.18                             130   -0.64 9  160 351 
 OCA  HZ I        15 0 24.65        79.1 0.46            131            160 351 
 SPBC HZ EP       1459 56.34                             128    0.06 9  167 220 
 SPBC HN ES       15 0 18.53                             128   -0.24 9  167 220 
 SPBC HZ I        15 0 23.90        34.1 0.28            129            167 220 
 ZAR  HZ EP       15 0  0.50                             122    0.19 8  208 291 
 ZAR  HE ES       15 0 25.82                             122   -0.13 8  208 291 
 ZAR  HZ I        15 0 31.34        57.5 0.34            122            208 291 
 NOR  HZ EP       15 0  3.89                             118    0.26 8  239 235 
 NOR  HE ES       15 0 31.33                             118   -0.53 8  239 235 
 NOR  HZ I        15 0 37.13        14.8 0.18            119            239 235 
 SML  HZ EP       15 0  3.75                             117   -0.46 8  245 334 
 SML  HE ES       15 0 32.77                             117   -0.12 8  245 334 
 SML  HZ I        15 0 37.75        33.0 0.10            118            245 334 
 HEL  HZ EP   4   15 0  9.64                             114    1.46 0  277 256 
 HEL  HE ES       15 0 39.50                             114   -0.46 7  277 256 
 HEL  HZ I        15 0 46.63        10.0 0.40            115            277 256 
 SOCV BZ EP       15 0  9.28                             112   -0.72 7  297  56 
 SOCV BN ES   4   15 0 40.92                             112   -2.27 0  297  56 
 GUY2CHZ EP   4   15 0 12.62                             112    1.08 0  305 235 
 GUY2CHN ES       15 0 46.59                             112    0.66 7  305 235 
 GUY2CHZ I        15 0 54.96        13.7 0.56                           305 235 
 ELA  HZ EP   4   15 0 15.92                             110    1.16 0  333 230 
 ELA  HN ES       15 0 52.14                             110    0.47 7  333 230 
 ELA  HZ I        15 0 58.66         6.8 0.62            111            333 230 
 DBB  SZ EP       15 0 15.76                             109    0.31 7  344 274 
 DBB  SZ ES   4   15 0 51.83                             109   -1.07 0  344 274 
 DBB  SZ I        15 0 56.06        45.9 0.28            110            344 274 
 MON  HZ EP   4   15 0 15.26                             108   -1.56 0  357 308 
 MON  HN ES   4   15 0 53.85                             108   -1.48 0  357 308 
 MON  HZ I        15 0 54.47        23.1 0.20            109            357 308 
 PRA  HZ EP       15 0 22.16                             106    0.85 6  395 210 
 PRA  HN ES       15 1  2.64                             106   -0.69 6  395 210 
 PRA  HZ I        15 1  8.08        11.5 0.28            107            395 210 
 SJC  HZ EP   4   15 0 22.04                             106   -1.20 0  411 326 
 SJC  HN ES   4   15 1  2.67                             106   -4.09 0  411 326 
 SJC  HZ I        15 1  7.33        13.8 0.38            106            411 326 
                                                                                
