 2010  3 2 1132 31.6 L   6.848 -72.977148.2  RSN  5 0.2 1.6LRSN                1
 GAP=257        0.38       5.7     6.6  6.3  0.8302E+01 -0.3480E+01  0.1056E+02E
 Epicentro: CEPITA - SANTANDER                                                 3
 ACTION:UP  10-08-24 09:51 OP:vdl  STATUS:               ID:20100302113231 L   I
 2010-03-02-1128-30S.COL___093                                                 6
 STAT SP IPHASW D HRMM SECON CODA AMPLIT PERI AZIMU VELO SNR AR TRES W  DIS CAZ7
 BAR2 SZ EP   1   1132 51.95                             165     0.1 7   36 219 
 BAR2 SZ ES   2   1133  7.41                             165    -0.2 5   36 219 
 BRR  HN ES   2   1133 11.25                             148     0.0 5   86 290 
 RUS  BZ EP   1   1132 55.97                             143     0.0 7  106 186 
 RUS  BN ES   2   1133 15.13                             143     0.1 5  106 186 
 RUS  BZ I        1133 16.22         3.5 0.24                           106 186 
 CHI  HZ EP   3   1133  9.70                             116    -0.9 2  259 199 
 CHI  HZ I        1133 43.01         4.7 0.48                           259 199 
 RREF BN ES   2   1133 57.62                             110     0.1 3  339 231 
 RREF BZ I        1134  3.76         1.7 0.25                           339 231 
                                                                                
