 2011 12 2 1402 33.6 L   6.791 -73.094139.3  RSN  6 0.3 1.5LRSN                1
 GAP=144        0.59       3.5     6.3  6.5 -0.6017E+01  0.4516E+01  0.7117E+01E
 Epicentro: LOS SANTOS - SANTANDER                                             3
 ACTION:UPD 12-07-13 16:13 OP:ep   STATUS:               ID:20111202140233 L   I
 2011-12-02-1400-00M.COL___180                                                 6
 STAT SP IPHASW D HRMM SECON CODA AMPLIT PERI AZIMU VELO AIN AR TRES W  DIS CAZ7
 BAR2 SZ EP       14 2 52.39                             170   -0.0610 24.1 204 
 BAR2 SZ ES   2   14 3  7.04                             170   -0.12 5 24.1 204 
 BAR2 SZ I        14 3 11.26         4.3 0.18                          24.1 204 
 GIR2 SZ EP       14 2 52.31                             166   -0.2410 33.6 341 
 PAM  SZ EP       14 2 55.07                             151    0.1310 74.7  36 
 PAM  SN ES   1   14 3 11.76                             151    0.15 7 74.7  36 
 BRR  HZ EP       14 2 54.08                             150   -0.2810 76.7 297 
 BRR  HE ES   2   14 3 11.30                             150    0.73 5 76.7 297 
 BRR  HZ I        14 3 11.38         9.9 0.34                          76.7 297 
 RUS  HZ EP       14 2 56.60                             143   -0.0110 99.4 179 
 RUS  HE ES   2   14 3 14.30                             143   -0.27 5 99.4 179 
 RUS  HZ I        14 3 16.95         5.0 0.28                          99.4 179 
 CHI  HZ EP   1   14 3 11.60                             116    0.61 6  249 196 
 CHI  HN ES   1   14 3 40.40                             116    0.22 6  249 196 
                                                                                
