 2010  7 2 1726 47.1 L   6.788 -73.095142.5  RSN 10 0.4 2.2LRSN                1
 GAP=161        0.69       2.9     5.9  5.2 -0.7280E+01  0.2424E+01  0.5137E+00E
 Epicentro: LOS SANTOS - SANTANDER                                             3
 ACTION:UPD 10-12-01 15:14 OP:pat  STATUS:               ID:20100702172647 L   I
 2010-07-02-1724-14S.COL___118                                                 6
 STAT SP IPHASW D HRMM SECON CODA AMPLIT PERI AZIMU VELO AIN AR TRES W  DIS CAZ7
 BAR2 SZ IP       1727  6.25                             170    -0.110   24 204 
 BAR2 SZ ES   1   1727 20.85                             170    -0.5 7   24 204 
 BRR  HZ IP     C 1727  8.03                             150    -0.210   77 297 
 BRR  HN ES   1   1727 24.94                             150     0.2 7   77 297 
 BRR  HZ I        1727 25.85        50.2 0.05                            77 297 
 RUS  HZ EP   1   1727 10.38                             144     0.0 7   99 179 
 RUS  HN ES   1   1727 28.91                             144     0.3 7   99 179 
 RUS  HZ I        1727 31.33        16.1 0.30                            99 179 
 BRI  SZ IP       1727 10.81                             141     0.210  108  18 
 BRI  SZ ES   2   1727 29.21                             141     0.2 5  108  18 
 GRA  SZ IP       1727 12.09                             136     0.110  126  15 
 GRA  SZ ES   1   1727 31.86                             136     0.4 7  126  15 
 OCA  SZ EP   1   1727 14.73                             129    -0.6 7  162 351 
 OCA  SZ ES   2   1727 37.16                             129    -0.2 5  162 351 
 OCA  SZ I        1727 40.15        16.6 0.18                           162 351 
 CHI  HZ EP   2   1727 23.81                             116    -0.8 4  249 196 
 CHI  HE ES   2   1727 54.25                             116     0.3 4  249 196 
 CHI  HZ I        1727 56.93         9.3 0.26                           249 196 
 HEL  HZ EP   2   1727 27.76                             114     0.1 4  277 256 
 HEL  HZ I        1728  6.26         6.8 0.37                           277 256 
 RREF HZ EP   2   1727 34.43                             110     0.9 3  325 230 
 RREF HE ES   2   1728 10.19                             110     0.5 3  325 230 
 RREF HZ I        1728 16.33         7.1 0.31                           325 230 
 PRA  HZ EP   1   1727 40.63                             106    -0.1 4  394 210 
 PRA  HE ES   1   1728 22.59                             106     0.1 4  394 210 
 PRA  HZ I        1728 27.28         8.6 0.62                           394 210 
                                                                                
