 2015 10 2 1620 26.5 L   6.818 -73.129152.5  RSN 11 0.4 1.7LRSN                1
 GAP=138        0.86       3.7     3.7  5.8 -0.2413E+01  0.3771E+01  0.3416E+01E
 Epicentro: LOS SANTOS - SANTANDER                                             3
 ACTION:UPD 15-12-22 20:37 OP:cam  STATUS:               ID:20151002162026 L   I
 OLDACT:REG 15-10-02 20:57 OP:spq  STATUS:               ID:20151002161747     3
 2015-10-02-1617-47M.COL___361                                                 6
 STAT SP IPHASW D HRMM SECON CODA AMPLIT PERI AZIMU VELO AIN AR TRES W  DIS CAZ7
 BAR2 EZ EP       1620 46.77                             170   -0.1710 25.7 193 
 BAR2 EZ ES   1   1621  2.37                             170   -0.55 7 25.7 193 
 BAR2 EZ I        1621  5.95         7.2 0.32            168           25.7 193 
 BRR  HZ EP       1620 48.78                             153    0.4110 71.9 296 
 BRR  HE ES       1621  5.99                             153    0.5210 71.9 296 
 BRR  HZ I        1621  8.94        13.2 0.46            150           71.9 296 
 PAM  EZ EP       1620 49.59                             153    0.3610 74.6  39 
 PAM  EE ES       1621  6.72                             153   -0.2810 74.6  39 
 PAM  EZ I        1621  8.77         7.3 0.58            157           74.6  39 
 RUS  HZ EP       1620 50.74                             145   -0.2610  102 177 
 RUS  HE ES   1   1621 10.45                             145    0.30 7  102 177 
 RUS  HZ I        1621 10.59         2.5 0.38            147            102 177 
 PTB  HZ EP       1620 53.88                             133   -0.30 9  150 258 
 PTB  HN ES       1621 15.11                             133   -0.69 9  150 258 
 PTB  HZ I        1621 22.08         7.4 0.36            132            150 258 
 SPBC HZ EP       1620 55.84                             130    0.11 9  166 219 
 SPBC HN ES       1621 19.06                             130    0.49 9  166 219 
 SPBC HZ I        1621 25.49         4.3 0.19            131            166 219 
 ZAR  HE ES       1621 25.22                             124    0.04 9  205 291 
 ZAR  HZ I        1621 30.60         8.7 0.50            124            205 291 
 NOR  HZ EP       1621  2.72                             120   -0.15 8  237 234 
 NOR  HE ES       1621 31.34                             120    0.07 8  237 234 
 NOR  HZ I        1621 36.53         3.0 0.24            120            237 234 
 SML  HZ EP   2   1621  3.23                             119   -0.13 4  243 335 
 SML  HE ES   2   1621 31.99                             119   -0.15 4  243 335 
 SML  HZ I        1621 35.23        10.7 0.24            120            243 335 
 URE  HE ES   4   1621 38.89                             115   -1.46 0  285 291 
 URE  HZ I        1621 48.49         4.3 0.18            116            285 291 
 GUY2CHE ES   4   1621 46.90                             113    1.72 0  304 235 
 GUY2CHZ I        1621 55.68         1.9 0.52                           304 235 
                                                                                
