 2010  8 2 1901 39.7 L   6.773 -73.016143.4  RSN 10 0.4 2.5LRSN                1
 GAP=171        0.71       4.8     7.8  7.3 -0.1726E+02  0.9997E+01 -0.1064E+00E
 Epicentro: CEPITA - SANTANDER                                                 3
 ACTION:UP  10-09-07 10:51 OP:vdl  STATUS:               ID:20100802190139 L   I
 2010-08-02-1858-22S.COL___123                                                 6
 STAT SP IPHASW D HRMM SECON CODA AMPLIT PERI AZIMU VELO SNR AR TRES W  DIS CAZ7
 BAR2 SZ EP   1   19 1 59.04                             169    -0.1 7   27 223 
 BAR2 SZ ES   2   19 2 14.03                             169    -0.2 5   27 223 
 GIR2 SZ EP   1   19 1 59.13                             164    -0.2 7   39 330 
 BRR  HZ EP   1   19 2  0.92                             148    -0.5 7   85 296 
 BRR  HZ I        19 2  1.22       138.4 0.16                            85 296 
 BRR  HE ES   2   19 2 18.38                             148     0.0 5   85 296 
 RUS  HZ EP   1   19 2  2.98                             144     0.0 7   98 184 
 RUS  HN ES   2   19 2 21.42                             144     0.3 5   98 184 
 RUS  HZ I        19 2 22.89        23.0 0.22                            98 184 
 BRI  SZ EP   1   19 2  3.43                             141     0.2 7  107  13 
 GUE  SZ EP   1   19 2  4.07                             139    -0.1 7  117   5 
 GRA  SZ EP   1   19 2  4.85                             137     0.2 7  125  11 
 GRA  SZ ES   2   19 2 24.61                             137     0.5 5  125  11 
 GRA  SZ I        19 2 25.49        39.7 0.35                           125  11 
 HEL  HZ EP   1   19 2 21.18                             113    -0.1 6  285 257 
 HEL  HZ I        19 2 57.36        16.4 0.34                           285 257 
 RREF HZ EP   1   19 2 27.63                             110     0.9 5  331 231 
 RREF HN ES   2   19 3  4.25                             110     0.8 3  331 231 
 RREF HZ I        19 3 10.71        14.4 0.46                           331 231 
 PRA  HZ EP   1   19 2 32.79                             106    -0.9 4  397 212 
 PRA  HZ I        19 2 34.64         8.7 0.15                           397 212 
                                                                                
