 2010 11 2 1646 58.9 L   6.829 -73.068153.1  RSN  4 0.3 1.5LRSN                1
 GAP=167        0.69       6.1    11.0 12.1 -0.4822E+01 -0.6710E+02 -0.4764E+01E
 Epicentro: LOS SANTOS - SANTANDER                                             3
 ACTION:UP  10-12-17 16:49 OP:REBC STATUS:               ID:20101102164658 L   I
 2010-11-02-1644-38S.COL___129                                                 6
 STAT SP IPHASW D HRMM SECON CODA AMPLIT PERI AZIMU VELO SNR AR TRES W  DIS CAZ7
 BRR  HZ EP   1   1647 21.42                             151     0.2 7   78 293 
 BRR  HE ES   1   1647 38.58                             151     0.0 7   78 293 
 BRR  HZ I        1647 53.41        15.3 0.11                            78 293 
 RUS  HZ EP   2   1647 23.94                             144     0.3 5  104 181 
 RUS  HE ES   2   1647 42.61                             144    -0.2 5  104 181 
 RUS  HZ I        1647 44.27         1.7 0.27                           104 181 
 GUE  SZ EP   1   1647 23.41                             142    -0.5 7  112   8 
 GRA  SZ EP   2   1647 24.83                             140     0.4 5  120  14 
 GRA  SZ ES   2   1647 44.58                             140     0.3 5  120  14 
 GRA  SZ I        1647 45.30         4.8 0.49                           120  14 
                                                                                
