 2013  7 2 1059 10.0 L   6.802 -73.154146.9  RSN  9 0.5 1.8LRSN                1
 GAP=135        1.05       4.8     5.6  8.2 -0.6343E+00  0.8726E+01 -0.3216E+01E
 Epicentro: LOS SANTOS - SANTANDER                                             3
 ACTION:UPD 13-08-12 10:34 OP:ep   STATUS:               ID:20130702105910 L   I
 OLDACT:REG 13-07-02 17:24 OP:jn   STATUS:               ID:20130702105749     3
 2013-07-02-1057-49M.COL___226                                                 6
 STAT SP IPHASW D HRMM SECON CODA AMPLIT PERI AZIMU VELO AIN AR TRES W  DIS CAZ7
 BAR2 SZ IP     D 1059 29.84                             171    0.0710 23.4 188 
 BAR2 SZ ES   1   1059 44.96                             171   -0.22 7 23.4 188 
 BAR2 SZ I        1059 47.54        16.1 0.32            172           23.4 188 
 GIR2 SZ EP       1059 29.93                             167    0.1310 30.9 352 
 BRR  HZ IP     C 1059 31.71                             153    0.4910 70.3 299 
 BRR  HE ES   1   1059 49.00                             153    1.23 7 70.3 299 
 BRR  HZ I        1059 51.37         8.5 0.12            155           70.3 299 
 PAM  SZ EP       1059 32.61                             151    0.2510 77.8  40 
 PAM  SN ES   1   1059 49.51                             151   -0.29 7 77.8  40 
 PAM  SZ I        1059 52.03        13.8 0.54            154           77.8  40 
 RUS  HZ EP       1059 33.85                             144   -0.0410  101 176 
 RUS  HN ES   1   1059 52.10                             144   -0.41 7  101 176 
 RUS  HZ I        1059 53.69        11.1 0.24            147            101 176 
 PTB  HZ EP       1059 36.61                             132   -0.38 9  147 259 
 PTB  HN ES       1059 57.64                             132   -0.39 9  147 259 
 PTB  HZ I        1059 59.44         8.7 0.29            135            147 259 
 OCA  HE ES   1   1059 59.76                             130   -0.74 7  160 353 
 ZAR  HZ EP       1059 42.71                             123    0.28 9  203 292 
 SML  HE ES   1   11 0 14.48                             118   -0.72 6  243 335 
                                                                                
