 2013  5 2 1208  8.7 L   6.817 -73.151146.8  RSN 19 0.4 3.4LRSN 3.5WRSN        1
 SPEC AVERAGE  MO 14.3 ST  4.3 OM  2.2 f0 4.32 R0.6394 AL 2.48 WI 22.9 MW  3.5 3
 SPEC SD       MO  0.2 ST  3.0 OM  0.5 f0 1.20 R0.1272 AL      WI      MW  0.1 3
 GAP= 65        0.92       2.6     3.1  4.6  0.1086E+01  0.3272E+01  0.1351E+01E
 Epicentro: LOS SANTOS - SANTANDER                                             3
 SPEC YOP SH N MO 14.6 ST  7.2 OM  2.1 f0 4.39 R0.6405 AL 3.28 WI 24.2 MW  3.7 3
 SPEC YOP SH N T12 838 K 0.000 GD  233 VP 7.60 DE 3.20 Q0300.0 QA 0.60 VS 4.20 3
 SPEC TAM HH N MO 14.3 ST  3.4 OM  1.8 f0 4.43 R0.6348 AL 2.00 WI 18.7 MW  3.5 3
 SPEC TAM HH N T12 836 K 0.000 GD  214 VP 7.60 DE 3.20 Q0300.0 QA 0.60 VS 4.20 3
 SPEC RUS HH E MO 14.3 ST  1.7 OM  1.9 f0 3.45 R0.8151 AL 2.53 WI 17.9 MW  3.5 3
 SPEC RUS HH E T12 831 K 0.000 GD  179 VP 7.60 DE 3.20 Q0300.0 QA 0.60 VS 4.20 3
 SPEC PRA HH N MO 14.2 ST  6.1 OM  1.4 f0 5.85 R0.4807 AL 3.10 WI 35.2 MW  3.4 3
 SPEC PRA HH N T12 9 1 K 0.000 GD  419 VP 7.60 DE 3.20 Q0300.0 QA 0.60 VS 4.20 3
 SPEC ROSCBH Z MO 14.6 ST  9.3 OM  2.0 f0 4.77 R0.5895 AL 3.57 WI 28.7 MW  3.7 3
 SPEC ROSCBH Z T12 847 K 0.000 GD  293 VP 7.60 DE 3.20 Q0300.0 QA 0.60 VS 4.20 3
 SPEC NOR HH Z MO 14.1 ST  4.1 OM  1.5 f0 5.45 R0.5160 AL 2.20 WI 25.5 MW  3.4 3
 SPEC NOR HH Z T12 843 K 0.000 GD  277 VP 7.60 DE 3.20 Q0300.0 QA 0.60 VS 4.20 3
 SPEC OCA HH Z MO 14.1 ST  2.0 OM  1.6 f0 4.34 R0.6479 AL 1.76 WI 21.3 MW  3.3 3
 SPEC OCA HH Z T12 835 K 0.000 GD  215 VP 7.60 DE 3.20 Q0300.0 QA 0.60 VS 4.20 3
 SPEC PTB HH N MO 14.1 ST  2.3 OM  1.6 f0 4.54 R0.6194 AL 1.63 WI 19.8 MW  3.3 3
 SPEC PTB HH N T12 834 K 0.000 GD  208 VP 7.60 DE 3.20 Q0300.0 QA 0.60 VS 4.20 3
 SPEC PAM SH N MO 14.5 ST 10.4 OM  2.1 f0 5.56 R0.5058 AL 4.86 WI 14.2 MW  3.6 3
 SPEC PAM SH N T12 830 K 0.000 GD  165 VP 7.60 DE 3.20 Q0300.0 QA 0.60 VS 4.20 3
 SPEC COD HH N MO 14.2 ST0.737 OM  2.2 f0 1.62 R0.9593 AL 1.36 WI 29.4 MW  3.4 3
 SPEC COD HH N T12 932 K 0.000 GD  375 VS 4.20 DE 3.20 Q0300.0 QA 0.60 VS 4.20 3
 SPEC HEL HH N MO 13.9 ST  1.1 OM  1.2 f0 4.28 R0.6570 AL 2.72 WI 28.7 MW  3.2 3
 SPEC HEL HH N T12 849 K 0.000 GD  309 VP 7.60 DE 3.20 Q0300.0 QA 0.60 VS 4.20 3
 SPEC BRR HH Z MO 14.3 ST  5.4 OM  1.9 f0 5.24 R0.5366 AL 1.93 WI 16.1 MW  3.5 3
 SPEC BRR HH Z T12 829 K 0.000 GD  162 VP 7.60 DE 3.20 Q0300.0 QA 0.60 VS 4.20 3
 SPEC BAR2SH Z MO 14.3 ST  2.3 OM  2.7 f0 2.19 R0.7096 AL 1.33 WI 18.2 MW  3.5 3
 SPEC BAR2SH Z T12 842 K 0.000 GD  148 VS 4.20 DE 3.20 Q0300.0 QA 0.60 VS 4.20 3
 ACTION:UPD 13-06-20 09:47 OP:ep   STATUS:               ID:20130502120808 L   I
 2013-05-02-1206-48M.COL___223                                                 6
 STAT SP IPHASW D HRMM SECON CODA AMPLIT PERI AZIMU VELO AIN AR TRES W  DIS CAZ7
 BAR2 SZ IP     C 12 8 28.62                             170    0.1010 25.1 188 
 BAR2 SZ ES   1   12 8 43.63                             170   -0.33 7 25.1 188 
 BAR2 SZ I        12 8 46.17       504.5 0.24            166           25.1 188 
 GIR2 SZ EP     C 12 8 28.68                             168    0.2110 29.3 351 
 GIR2 SZ ES   1   12 8 43.71                             168   -0.16 7 29.3 351 
 GIR2 SZ I        12 8 45.18       273.7 0.12            168           29.3 351 
 BRR  HZ IP     C 12 8 30.46                             153    0.5510 69.8 297 
 BRR  HN ES       12 8 47.20                             153    0.7710 69.8 297 
 BRR  HN I        12 8 48.11      1369.7 0.42            150           69.8 297 
 PAM  SZ EP     C 12 8 31.45                             151    0.4610 76.3  41 
 PAM  SN ES       12 8 48.50                             151    0.1510 76.3  41 
 PAM  SZ I        12 8 50.74       280.6 0.46            156           76.3  41 
 RUS  HZ IP     D 12 8 32.53                             143   -0.2010  103 176 
 RUS  HN ES       12 8 50.80                             143   -0.6410  103 176 
 RUS  HZ I        12 8 52.50       281.9 0.36            142            103 176 
 PTB  HZ EP   1   12 8 34.99                             132   -0.78 7  148 258 
 PTB  HN ES   2   12 8 56.26                             132   -0.59 5  148 258 
 PTB  HN I        12 9  1.54       458.7 0.52            130            148 258 
 TAM  HZ IP     C 12 8 37.01                             131    0.42 9  156 106 
 TAM  HN ES   1   12 8 57.65                             131   -0.67 7  156 106 
 TAM  HN I        12 8 59.44       256.5 0.36            133            156 106 
 OCA  HZ EP   1   12 8 36.72                             130   -0.22 7  158 353 
 OCA  HN ES       12 8 58.75                             130   -0.18 9  158 353 
 OCA  HN I        12 9  2.91       736.2 0.22            131            158 353 
 YOP  SZ EP     D 12 8 39.35                             126    0.31 9  181 153 
 YOP  SE ES   1   12 9  2.65                             126   -0.04 7  181 153 
 YOP  SE I        12 9  6.74       331.7 0.28            126            181 153 
 ZAR  HZ EP   1   12 8 41.15                             123    0.03 6  203 292 
 ZAR  HE ES   1   12 9  5.98                             123   -0.39 6  203 292 
 NOR  HZ EP       12 8 44.70                             119    0.11 8  235 234 
 NOR  HN ES   1   12 9 12.54                             119   -0.02 6  235 234 
 NOR  HZ I        12 9 18.11       157.4 0.18            117            235 234 
 SML  HZ EP   1   12 8 45.00                             118   -0.20 6  242 335 
 SML  HN ES       12 9 13.08                             118   -0.56 8  242 335 
 SML  HN I        12 9 15.93       465.1 0.10            118            242 335 
 ROSC BZ EP   4   12 8 48.43                             117    1.37 0  254 211 
 ROSC BN ES   4   12 9 20.25                             117    3.30 0  254 211 
 ROSC BZ I        12 9 26.66       140.7 0.35            116            254 211 
 HEL  HZ EP   1   12 8 49.23                             115    0.24 6  272 255 
 HEL  HN ES   4   12 9 21.71                             115    1.32 0  272 255 
 HEL  HZ I        12 9 28.74        99.5 0.32            114            272 255 
 URE  HZ EP   4   12 8 48.41                             114   -1.30 0  283 292 
 URE  HE ES   4   12 9 20.09                             114   -1.59 0  283 292 
 URE  HN I        12 9 29.08       247.4 0.28            113            283 292 
 RREF HZ EP   4   12 8 56.81                             111    1.80 0  323 229 
 RREF HN ES   1   12 9 32.16                             111    1.05 5  323 229 
 RREF HZ I        12 9 42.97        98.0 0.58            110            323 229 
 DBB  SZ EP       12 8 56.00                             110   -0.17 7  339 274 
 COD  HZ EP   1   12 8 56.20                             109   -0.72 5  346 355 
 COD  HN ES   2   12 9 33.77                             109   -0.74 3  346 355 
 COD  HN I        12 9 39.67        70.2 0.48            110            346 355 
 PRA  HZ EP   1   12 9  1.85                             107   -0.60 4  393 209 
 PRA  HN ES   2   12 9 44.16                             107   -0.19 3  393 209 
 PRA  HN I        12 9 49.81        91.7 0.80            106            393 209 
                                                                                
