 2013  7 2 1345  3.0 L   6.725 -73.177146.3  RSN  5 0.3 1.4LRSN                1
 GAP=228        0.77       8.4     7.3  8.1  0.3476E+02  0.2272E+02  0.6373E+01E
 Epicentro: VILLANUEVA - SANTANDER                                             3
 ACTION:UPD 13-08-12 10:34 OP:ep   STATUS:               ID:20130702134503 L   I
 OLDACT:REG 13-07-02 13:37 OP:j    STATUS:               ID:20130702133959     3
 2013-07-02-1339-59M.COL___267                                                 6
 STAT SP IPHASW D HRMM SECON CODA AMPLIT PERI AZIMU VELO AIN AR TRES W  DIS CAZ7
 BAR2 SZ EP       1345 22.79                             174    0.2410 14.7 182 
 BAR2 SZ ES       1345 37.36                             174   -0.4310 14.7 182 
 BAR2 SZ I        1345 39.09         5.8 0.10            172           14.7 182 
 BRR  HE ES   1   1345 41.21                             152    0.32 7 72.7 306 
 RUS  HE ES   1   1345 44.81                             146    0.44 7 92.6 174 
 RUS  HZ I        1345 46.51         3.8 0.26            147           92.6 174 
 PTB  HZ EP       1345 29.21                             133   -0.37 9  143 262 
 PTB  HN ES   1   1345 50.26                             133   -0.04 7  143 262 
 PTB  HZ I        1345 52.30         3.4 0.12            132            143 262 
 ZAR  HE ES   1   1346  1.10                             122    0.27 6  204 295 
 ZAR  HZ I        1346  6.35         3.3 0.48            122            204 295 
                                                                                
