 2012  8 2 1934 47.9 L   6.492 -73.842 92.0  RSN  4 0.2 1.2LRSN                1
 GAP=146        0.40       3.4     2.5  6.7 -0.1129E+01 -0.7300E+01  0.1203E+02E
 Epicentro: SANTA HELENA DEL OPON - SANTANDER                                  3
 ACTION:UPD 12-09-10 11:53 OP:ep   STATUS:               ID:20120802193447 L   I
 2012-08-02-1930-00M.COL___215                                                 6
 STAT SP IPHASW D HRMM SECON CODA AMPLIT PERI AZIMU VELO AIN AR TRES W  DIS CAZ7
 PTB  HZ EP       1935  3.32                             141   -0.0210 68.2 274 
 PTB  HN ES   1   1935 15.38                             141   -0.03 7 68.2 274 
 PTB  HZ I        1935 16.01         4.3 0.14                          68.2 274 
 BRR  HZ EP       1935  3.45                             140    0.0210 69.5  12 
 BRR  HN ES   1   1935 15.68                             140    0.13 7 69.5  12 
 BRR  HZ I        1935 21.36        12.0 0.44                          69.5  12 
 BAR2 SZ EP       1935  3.99                             139   -0.1110 73.8  81 
 BAR2 SZ ES   3   1935 15.80                             139   -0.95 2 73.8  81 
 BAR2 SZ I        1935 17.56         4.7 0.24                          73.8  81 
 RUS  HZ EP       1935  7.53                             127    0.0710  107 128 
 RUS  HZ I        1935  8.42         3.1 0.10                           107 128 
 RUS  HN ES   3   1935 23.38                             127    0.65 2  107 128 
                                                                                
