 2016 10 2 1240 49.8 L   6.833 -73.145139.1  RSN  4 0.3 1.3LRSN                1
 GAP=240        0.85       8.5     9.9  8.5  0.3860E+02  0.2209E+02 -0.1485E+02E
 Epicentro: LOS SANTOS - SANTANDER                                             3
 ACTION:UPD 16-11-09 19:15 OP:rebc STATUS:               ID:20161002124049 L   I
 OLDACT:UP  16-10-02 22:41 OP:dani STATUS:               ID:20161002123744d    3
 OLDACT:UP  16-10-02 22:39 OP:dani STATUS:               ID:20161002123744d    3
 OLDACT:UP  16-10-02 22:38 OP:dani STATUS:               ID:20161002123744d    3
 OLDACT:UP  16-10-02 22:38 OP:dani STATUS:               ID:20161002123744d    3
 OLDACT:DUP 16-10-02 22:32 OP:dani STATUS:               ID:20161002123744d    3
 OLDACT:UP  16-10-02 22:31 OP:dani STATUS:               ID:20161002123743     3
 OLDACT:REG 16-10-02 20:40 OP:dani STATUS:               ID:20161002123743     3
 2016-10-02-1238-00M.COL___381                                                 6
 STAT SP IPHASW D HRMM SECON CODA AMPLIT PERI AZIMU VELO AIN AR TRES W  DIS CAZ7
 BAR2 EZ EP       1241  8.62                             168   -0.1410 27.0 189 
 BAR2 EZ ES       1241 23.20                             168   -0.3110 27.0 189 
 BAR2 EZ I        1241 27.75         3.3 0.28            171           27.0 189 
 BRR  HZ EP       1241 10.72                             152    0.5310 69.6 296 
 BRR  HZ I        1241 29.29        10.5 0.40            144           69.6 296 
 RUS  HZ EP       1241 12.92                             141   -0.3010  104 176 
 RUS  HE ES       1241 31.88                             141    0.4310  104 176 
 RUS  HZ I        1241 34.26         2.1 0.37            152            104 176 
 PTB  HZ EP       1241 16.16                             130   -0.20 9  149 257 
 PTB  HN ES   2   1241 36.84                             130   -0.20 5  149 257 
 PTB  HZ I        1241 38.22         2.6 0.28            133            149 257 
                                                                                
