 2010  2 2 1820 10.0 L   6.827 -73.009148.3  RSN  6 0.3 1.8LRSN                1
 GAP=221        0.52       5.1    12.3  6.0  0.1590E+02  0.3399E+02  0.8696E+01E
 Epicentro: CEPITA - SANTANDER                                                 3
 ACTION:UP  10-08-24 09:47 OP:vdl  STATUS:               ID:20100202182010 L   I
 2010-02-02-1818-29S.COL___096                                                 6
 STAT SP IPHASW D HRMM SECON CODA AMPLIT PERI AZIMU VELO SNR AR TRES W  DIS CAZ7
 BAR2 SZ EP   2   1820 30.42                             167     0.3 6   32 217 
 BAR2 SZ ES   2   1820 45.52                             167    -0.4 6   32 217 
 GIR2 SZ EP   2   1820 30.59                             166     0.5 6   34 324 
 GIR2 SZ ES   2   1820 45.69                             166     0.0 6   34 324 
 RUS  BZ EP   1   1820 34.23                             143     0.010  104 185 
 RUS  BE ES   1   1820 53.10                             143     0.010  104 185 
 RUS  BZ I        1820 53.97         9.7 0.35                           104 185 
 CHI  HZ EP       1820 48.37                             117    -0.310  256 198 
 CHI  HZ I        1820 50.06         4.2 0.86                           256 198 
 CHI  HE ES   2   1821 19.57                             117     0.8 5  256 198 
 HEL  HZ EP   2   1820 52.14                             114     0.1 5  287 256 
 DBB  SZ EP   2   1820 59.03                             109    -0.3 4  354 274 
                                                                                
