 2016  2 2 1346 33.9 L   6.804 -73.145145.1  RSN 10 0.3 2.1LRSN                1
 GAP=136        0.70       2.1     2.8  4.1 -0.7478E+00  0.3667E+01 -0.7249E+00E
 Epicentro: LOS SANTOS - SANTANDER                                             3
 ACTION:UPD 16-03-04 21:22 OP:rebc STATUS:               ID:20160202134633 L   I
 OLDACT:REG 16-02-02 20:36 OP:cara STATUS:               ID:20160202133759     3
 2016-02-02-1337-59S.COL___214                                                 6
 STAT SP IPHASW D HRMM SECON CODA AMPLIT PERI AZIMU VELO AIN AR TRES W  DIS CAZ7
 BAR2 EZ IP       1346 53.23                             170   -0.1810 23.8 190 
 BAR2 EZ ES       1347  8.57                             170   -0.1010 23.8 190 
 BAR2 EZ I        1347 10.70        19.8 0.26            169           23.8 190 
 PAM  EZ IP     D 1346 56.27                             151    0.2910 77.0  40 
 PAM  EN ES       1347 13.41                             151    0.1810 77.0  40 
 PAM  EZ I        1347 15.43        11.2 0.54            155           77.0  40 
 RUS  HZ EP       1346 57.63                             143    0.0610  101 176 
 RUS  HN ES       1347 15.71                             143   -0.3610  101 176 
 RUS  HZ I        1347 16.98         8.7 0.30            145            101 176 
 PTB  HZ EP       1347  0.08                             132   -0.70 9  148 259 
 PTB  HN ES       1347 21.64                             132   -0.14 9  148 259 
 PTB  HZ I        1347 22.77        11.0 0.12            132            148 259 
 SPBC HZ EP       1347  2.26                             129   -0.08 9  164 219 
 SPBC HN ES       1347 24.97                             129    0.42 9  164 219 
 SPBC HZ I        1347 31.36        14.7 0.14            130            164 219 
 ZAR  HZ EP       1347  6.43                             122    0.18 9  204 292 
 ZAR  HE ES       1347 31.42                             122   -0.09 9  204 292 
 ZAR  HZ I        1347 36.78        12.1 0.40            123            204 292 
 NOR  HZ EP       1347  9.42                             118   -0.16 8  235 234 
 NOR  HN ES       1347 37.90                             118    0.46 8  235 234 
 NOR  HZ I        1347 44.03         8.3 0.20            119            235 234 
 SML  HZ EP       1347 10.33                             117   -0.07 8  243 335 
 SML  HE ES       1347 39.10                             117    0.19 8  243 335 
 SML  HZ I        1347 41.69        17.8 0.10            119            243 335 
 CHI  HZ EP       1347 11.58                             117    0.02 8  249 195 
 CHI  HE ES       1347 41.29                             117    0.32 8  249 195 
 CHI  HZ I        1347 44.13         5.9 0.34            118            249 195 
 GUY2CHZ EP   9   1347 19.27                             112    1.80 0  301 235 
 GUY2CHE ES       1347 53.04                                   -0.25 7  301 235 
 GUY2CHZ I        1347 58.03        14.8 0.92                           301 235 
                                                                                
