 2011  7 2 1936  3.2 L   6.022 -73.708107.1  RSN  9 0.5 2.1LRSN                1
 GAP= 84        0.77       4.9     4.3  9.0 -0.1211E+02  0.2276E+02 -0.2083E+02E
 Epicentro: BOLIVAR - SANTANDER                                                3
 ACTION:UPD 12-07-25 13:57 OP:epov STATUS:               ID:20110702193603 L   I
 2011-07-02-1933-51S.COL___140                                                 6
 STAT SP IPHASW D HRMM SECON CODA AMPLIT PERI AZIMU VELO AIN AR TRES W  DIS CAZ7
 RUS  HZ EP       1936 21.02                             144    0.0410 70.7 102 
 RUS  HN ES   1   1936 34.94                             144    0.08 7 70.7 102 
 BAR2 SZ EP       1936 21.69                             138   -0.0910 85.8  43 
 BAR2 SZ ES   1   1936 36.11                             138   -0.17 7 85.8  43 
 BAR2 SZ I        1936 37.90        92.4 0.26                          85.8  43 
 BTL  SZ EP   3   1936 25.92                             130    1.99 2  110  26 
 BRR  HZ EP       1936 24.01                             128   -0.5010  120 360 
 BRR  HZ I        1936 46.61        12.0 0.36                           120 360 
 GIR2 SZ EP       1936 26.05                             125    0.3710  130  26 
 NOR  SZ EP       1936 26.42                             123    0.03 9  138 249 
 NOR  SN ES   1   1936 44.96                             123    0.47 7  138 249 
 CHI  HZ EP   3   1936 28.27                             120   -0.23 2  154 181 
 CHI  HN ES   2   1936 47.52                             120   -0.72 5  154 181 
 HEL  HZ EP       1936 33.79                             113    0.06 9  202 275 
 HEL  HN ES   3   1936 55.30                             113   -2.24 2  202 275 
 HEL  HZ I        1937  1.51         8.0 0.33                           202 275 
 GRA  SZ EP       1936 36.60                             109    0.12 8  229  26 
                                                                                
