 2010 11 2 1643 56.1 L   7.203 -74.041  4.8  RSN  5 0.5 1.7LRSN                1
 GAP=277        1.22       6.3     9.6 16.5  0.1083E+02  0.7928E+02  0.4925E+02E
 Epicentro: PUERTO WILCHES - SANTANDER                                         3
 ACTION:UP  10-12-17 16:49 OP:REBC STATUS:               ID:20101102164356 L   I
 2010-11-02-1640-38S.COL___129                                                 6
 STAT SP IPHASW D HRMM SECON CODA AMPLIT PERI AZIMU VELO SNR AR TRES W  DIS CAZ7
 BRR  HZ IP     D 1644  2.15                              91    -0.310   38 106 
 BRR  HN ES       1644  7.75                              91     0.410   38 106 
 BRR  HZ I        1644  8.62        58.7 0.21                            38 106 
 BAR2 SZ EP       1644 14.63                              90     0.010  116 125 
 BAR2 SZ ES   2   1644 28.29                              90    -0.7 5  116 125 
 BAR2 SZ I        1644 31.83         6.0 0.24                           116 125 
 GUE  SZ EP       1644 17.94                              90    -0.5 9  141  61 
 GRA  SZ EP       1644 21.38                              90     0.9 9  156  61 
 GRA  SZ ES   1   1644 39.14                              90    -0.4 7  156  61 
 GRA  SZ I        1644 41.79        33.4 0.16                           156  61 
 RUS  HZ EP       1644 24.47                              56     0.1 9  179 144 
 RUS  HE ES   2   1644 46.11                              56    -0.2 4  179 144 
 RUS  HZ I        1644 47.95        11.3 0.65                           179 144 
                                                                                
