 2011 10 2 1211 26.9 L   6.776 -74.167 58.8  RSN  5 0.1 1.4LRSN                1
 GAP=118        0.38       2.8     1.6  7.4  0.2063E+01  0.6604E+01  0.1527E+02E
 Epicentro: PUERTO PARRA - SANTANDER                                           3
 ACTION:UPD 12-07-13 16:01 OP:ep   STATUS:               ID:20111002121126 L   I
 2011-10-02-1209-44S.COL___168                                                 6
 STAT SP IPHASW D HRMM SECON CODA AMPLIT PERI AZIMU VELO AIN AR TRES W  DIS CAZ7
 BRR  HZ EP       1211 39.07                             127    0.1310 62.1  54 
 BRR  HZ I        1211 39.29        16.0 0.10                          62.1  54 
 BRR  HN ES       1211 48.27                             127   -0.0610 62.1  54 
 ZAR  HZ EP   1   1211 43.86                             110   -0.33 7  110 316 
 ZAR  HN ES   1   1211 57.75                             110    0.08 7  110 316 
 ZAR  HZ I        1212  1.52        13.4 0.30                           110 316 
 BAR2 SZ EP       1211 44.64                             110    0.0810  111 101 
 BAR2 SZ I        1211 45.04         5.5 0.10                           111 101 
 RUS  HZ EP   1   1211 50.16                             103    0.07 7  155 129 
 RUS  HE ES   1   1212  7.97                             103   -0.20 7  155 129 
 HEL  HZ EP   1   1211 51.14                             102    0.07 7  164 247 
 HEL  HE ES   1   1212  9.94                             102    0.03 7  164 247 
 HEL  HZ I        1212 13.49         2.7 0.38                           164 247 
                                                                                
