 2011  1 2 1349 23.0 L   6.842 -73.215122.9  RSN  4 0.2 1.6LRSN                1
 GAP=188        0.37       4.1    16.6  5.5 -0.5736E+02  0.4301E+02 -0.8048E+01E
 Epicentro: ZAPATOCA - SANTANDER                                               3
 ACTION:UP  11-02-08 08:37 OP:pat  STATUS:               ID:20110102134923 L   I
 2011-01-02-1340-00M.COL___137                                                 6
 STAT SP IPHASW D HRMM SECON CODA AMPLIT PERI AZIMU VELO SNR AR TRES W  DIS CAZ7
 BAR2 SZ EP   1   1349 39.88                             166    -0.2 7   28 173 
 BAR2 SZ I        1349 40.09        26.7 0.10                            28 173 
 BAR2 SZ ES   2   1349 53.26                             166     0.0 5   28 173 
 RUS  HZ EP   1   1349 44.94                             137    -0.1 7  106 172 
 RUS  HE ES   2   1350  2.35                             137     0.1 5  106 172 
 RUS  HZ I        1350  4.39         3.2 0.31                           106 172 
 GRA  SZ EP   1   1349 46.22                             132     0.1 7  124  21 
 GRA  SZ ES   2   1350  4.37                             132     0.2 5  124  21 
 GRA  SZ I        1350  6.22         7.5 0.28                           124  21 
 CHI  HZ EP   1   1349 59.85                             112     0.0 6  251 193 
 CHI  HE ES   2   1350 28.98                             112     0.4 4  251 193 
 CHI  HZ I        1350 34.12         1.7 0.54                           251 193 
                                                                                
