 2012 12 2 1514 39.5 L   6.798 -73.135149.2  RSN 11 0.5 2.5LRSN                1
 GAP=138        1.17       3.2     4.7  6.0 -0.9815E+00  0.1080E+02  0.1081E+01E
 Epicentro: LOS SANTOS - SANTANDER                                             3
 ACTION:UPD 13-01-04 14:25 OP:ep   STATUS:               ID:20121202151439 L   I
 2012-12-02-1510-00M.COL___236                                                 6
 STAT SP IPHASW D HRMM SECON CODA AMPLIT PERI AZIMU VELO AIN AR TRES W  DIS CAZ7
 BAR2 SZ EP       1514 59.44                             171   -0.0710 23.3 193 
 BAR2 SZ ES       1515 14.70                             171   -0.4310 23.3 193 
 BAR2 SZ I        1515 16.13        60.4 0.38                          23.3 193 
 GIR2 SZ EP       1514 59.55                             167   -0.0110 31.8 348 
 GIR2 SZ ES       1515 15.91                             167    0.6810 31.8 348 
 GIR2 SZ I        1515 16.80        27.2 0.38                          31.8 348 
 PAM  SZ EP       1515  2.27                             151    0.2510 76.9  39 
 PAM  SN ES       1515 19.75                             151    0.1510 76.9  39 
 RUS  HZ EP       1515  3.59                             145    0.0610  100 177 
 RUS  HN ES       1515 22.00                             145   -0.3010  100 177 
 RUS  HN I        1515 23.55        31.2 0.18                           100 177 
 PTB  HZ EP       1515  6.02                             133   -0.79 9  149 259 
 PTB  HN ES       1515 27.62                             133   -0.51 9  149 259 
 PTB  HN I        1515 32.56        71.3 0.32                           149 259 
 OCA  HZ EP       1515  7.61                             130   -0.47 9  161 353 
 OCA  HN ES       1515 29.91                             130   -0.49 9  161 353 
 OCA  HN I        1515 36.49        68.7 0.42                           161 353 
 ZAR  HZ EP       1515 12.05                             123   -0.20 9  205 292 
 ZAR  HN ES       1515 37.63                             123   -0.20 9  205 292 
 ZAR  HN I        1515 47.48        31.5 0.36                           205 292 
 SML  HZ IPg      1515 16.06                             118   -0.30 8  244 335 
 SML  HN ES       1515 46.44                             118    1.30 8  244 335 
 SML  HN I        1515 51.68        45.3 0.28                           244 335 
 CHI  HZ EP       1515 17.54                             118    0.18 8  249 195 
 CHI  HN ES       1515 47.72                             118    0.80 8  249 195 
 CHI  HN I        1515 51.54        10.5 0.26                           249 195 
 HEL  HZ EP       1515 20.42                             115    0.45 8  273 256 
 HEL  HN ES       1515 52.24                             115    0.68 8  273 256 
 HEL  HN I        1515 58.14         9.9 0.36                           273 256 
 PRA  HZ EP       1515 33.02                             107   -0.13 6  392 210 
 PRA  HN ES       1516 15.15                             107    0.14 6  392 210 
 PRA  HN I        1516 20.15         5.8 0.38                           392 210 
                                                                                
