 2016  6 2 1111 54.6 L   6.805 -73.162142.9  RSN 14 0.4 2.4LRSN                1
 GAP=134        1.05       3.1     4.1  5.7 -0.2220E+01  0.9938E+01  0.7135E+00E
 Epicentro: LOS SANTOS - SANTANDER                                             3
 ACTION:UPD 16-07-21 22:14 OP:rebc STATUS:               ID:20160602111154 L   I
 OLDACT:UP  16-06-02 23:48 OP:ar   STATUS:               ID:20160602110746     3
 OLDACT:REG 16-06-02 21:21 OP:ar   STATUS:               ID:20160602110746     3
 2016-06-02-1107-46M.COL___316                                                 6
 STAT SP IPHASW D HRMM SECON CODA AMPLIT PERI AZIMU VELO AIN AR TRES W  DIS CAZ7
 BAR2 EZ IP     D 1112 14.01                             170    0.0710 23.6 185 
 BAR2 EZ ES       1112 28.39                             170   -0.6010 23.6 185 
 BAR2 EZ I        1112 35.43        18.0 0.46                          23.6 185 
 BRR  HZ EP       1112 15.97                             153    0.5910 69.3 299 
 BRR  HN ES       1112 32.51                             153    0.9610 69.3 299 
 BRR  HZ I        1112 36.79        37.2 0.14                          69.3 299 
 PAM  EZ EP       1112 17.08                             150    0.4810 78.1  41 
 PAM  EN ES       1112 33.73                             150    0.0010 78.1  41 
 PAM  EZ I        1112 35.93        46.3 0.44                          78.1  41 
 RUS  HZ EP       1112 17.99                             143   -0.1810  101 175 
 RUS  HN ES       1112 36.33                             143   -0.1810  101 175 
 RUS  HZ I        1112 36.91        26.8 0.44                           101 175 
 OCA  HZ EP       1112 22.37                             129   -0.29 9  159 354 
 OCA  HN ES       1112 43.92                             129   -0.59 9  159 354 
 OCA  HZ I        1112 49.25        53.9 0.22                           159 354 
 SPBC HZ EP       1112 23.04                             128    0.18 9  162 218 
 SPBC HE ES       1112 44.70                             128   -0.16 9  162 218 
 SPBC HZ I        1112 47.92        36.4 0.22                           162 218 
 NOR  HZ EP       1112 30.42                             118    0.34 8  234 234 
 NOR  HN ES       1112 57.77                             118    0.05 8  234 234 
 NOR  HZ I        1112 59.66        12.8 0.18                           234 234 
 HEL  HZ EP   4   1112 36.38                             114    1.85 0  270 256 
 HEL  HN ES       1113  5.47                             114   -0.17 8  270 256 
 HEL  HZ I        1113 14.61         9.0 0.34                           270 256 
 URE  HZ EP       1112 34.78                             113   -0.58 7  282 292 
 URE  HN ES       1113  6.35                             113   -0.77 7  282 292 
 URE  HZ I        1113 16.70        11.7 0.36                           282 292 
 DBB  SZ EP       1112 41.71                             109   -0.08 7  338 274 
 DBB  SZ ES       1113 18.98                             109    0.42 7  338 274 
 DBB  SZ I        1113 21.62        17.8 0.26                           338 274 
 PRA  HZ EP       1112 47.96                             106   -0.06 6  392 209 
 PRA  HN ES       1113 29.16                             106   -0.49 6  392 209 
 PRA  HZ I        1113 38.33         5.9 0.56                           392 209 
 ORTC HZ EP       1112 48.95                             106    0.56 6  395 216 
 ORTC HN ES   4   1113 32.25                             106    1.93 0  395 216 
 ORTC HZ I        1113 36.82         7.0 0.40                           395 216 
 SJC  HN ES   4   1113 29.73                             105   -3.34 0  408 327 
 SJC  HZ I        1113 33.74         3.8 0.32                           408 327 
 CRJC HZ EP   4   1112 54.88                             103   -2.13 0  467   4 
 CRJC HZ I        1113 20.67         9.9 0.76                           467   4 
 CRJC HN ES   4   1113 42.23                             103   -3.43 0  467   4 
                                                                                
