 2011  8 2 1151 41.0 L   6.861 -73.313121.3  RSN  5 0.2 1.6LRSN                1
 GAP=135        0.53       3.2     5.0  4.9  0.3057E+01 -0.4869E+01 -0.3475E+01E
 Epicentro: ZAPATOCA - SANTANDER                                               3
 ACTION:UPD 12-07-25 14:05 OP:epov STATUS:               ID:20110802115141 L   I
 2011-08-02-1149-53S.COL___134                                                 6
 STAT SP IPHASW D HRMM SECON CODA AMPLIT PERI AZIMU VELO AIN AR TRES W  DIS CAZ7
 BAR2 SZ EP       1151 58.00                             164    0.0310 33.1 154 
 BAR2 SZ ES   1   1152 10.75                             164   -0.46 7 33.1 154 
 BRR  HZ EP       1151 58.33                             155   -0.0810 51.8 302 
 BRR  HZ I        1151 58.72        15.5 0.34                          51.8 302 
 BRR  HE ES   1   1152 12.33                             155    0.32 7 51.8 302 
 PAM  SZ EP       1152  1.37                             143    0.1010 85.9  52 
 PAM  SN ES   2   1152 17.40                             143    0.30 5 85.9  52 
 RUS  HZ EP       1152  3.39                             135    0.1710  110 167 
 RUS  HE ES   2   1152 20.47                             135   -0.08 5  110 167 
 RUS  HZ I        1152 21.65         3.4 0.30                           110 167 
 OCA  SZ EP       1152  6.49                             125   -0.23 9  152 360 
 OCA  SZ I        1152 27.73        11.3 0.67                           152 360 
                                                                                
