 2017  1 2 1639  3.4 L   6.779 -73.164142.8  RSN  6 0.4 1.5LRSN                1
 GAP=135        1.07       5.4     4.8  8.6  0.2408E+01  0.5069E+01  0.9542E+00E
 Epicentro: LOS SANTOS - SANTANDER                                             3
 ACTION:UPD 17-05-22 15:54 OP:jn   STATUS:               ID:20170102163904dL   I
 OLDACT:REG 17-01-02 21:24 OP:ndl  STATUS:               ID:20170102163747     3
 2017-01-02-1638-00M.COL___369                                                 6
 STAT SP IPHASW D HRMM SECON CODA AMPLIT PERI AZIMU VELO AIN AR TRES W  DIS CAZ7
 BAR2 EZ EP       1639 22.54                             171   -0.0310 20.7 186 
 BAR2 EZ ES       1639 36.76                             171   -0.8010 20.7 186 
 BAR2 EZ I        1639 38.52         8.6 0.40            173           20.7 186 
 BRR  HZ EP   2   1639 24.32                             152    0.18 5 70.6 301 
 BRR  HE ES       1639 41.18                             152    0.8210 70.6 301 
 BRR  HZ I        1639 45.55         7.9 0.20            151           70.6 301 
 PAM  EZ EP       1639 25.48                             149    0.0410 80.5  40 
 PAM  EN ES       1639 42.56                             149   -0.1110 80.5  40 
 PAM  EZ I        1639 44.05         4.5 0.18            151           80.5  40 
 RUS  HZ EP       1639 26.67                             144    0.0210 98.4 175 
 RUS  HN ES       1639 45.33                             144    0.5010 98.4 175 
 RUS  HZ I        1639 46.11         2.9 0.20            147           98.4 175 
 PTB  HZ EP   2   1639 29.46                             132   -0.40 5  145 260 
 PTB  HN ES       1639 50.19                             132   -0.33 9  145 260 
 PTB  HZ I        1639 52.27         3.3 0.18            132            145 260 
 ZAR  HZ EP   4   1639 36.84                             122    1.34 0  203 293 
 ZAR  HN ES       1640  0.44                             122   -0.14 9  203 293 
 ZAR  HZ I        1640  5.63         3.7 0.32            122            203 293 
                                                                                
