 2014  4 2 1846  2.7 L   6.857 -73.414114.9  RSN 16 0.5 2.5LRSN                1
 GAP=105        1.14       2.4     3.1  5.8 -0.1454E+01  0.4992E+01  0.1298E+01E
 Epicentro: SAN VICENTE DE CHUCURI - SANTANDER                                 3
 ACTION:UPD 14-05-13 23:05 OP:nd   STATUS:               ID:20140402184602 L   I
 OLDACT:REG 14-04-02 21:21 OP:carl STATUS:               ID:20140402183811     3
 2014-04-02-1838-11M.COL___249                                                 6
 STAT SP IPHASW D HRMM SECON CODA AMPLIT PERI AZIMU VELO AIN AR TRES W  DIS CAZ7
 BRR  HZ IP     C 1846 19.26                             158    0.2810 43.0 310 
 BRR  HN ES       1846 32.21                             158    0.5310 43.0 310 
 BRR  HZ I        1846 33.37        63.8 0.12            156           43.0 310 
 PAM  SZ EP       1846 23.37                             138    0.2610 95.3  56 
 PAM  SN ES       1846 38.66                             138   -0.3810 95.3  56 
 PAM  SZ I        1846 43.25        44.3 0.46            139           95.3  56 
 RUS  HZ EP       1846 24.32                             133   -0.2910  113 161 
 RUS  HN ES       1846 41.43                             133   -0.2810  113 161 
 PTB  HZ IP     C 1846 23.90                             130   -0.7710  120 253 
 PTB  HE ES       1846 41.52                             130   -0.3010  120 253 
 PTB  HZ I        1846 44.80       109.3 0.28            128            120 253 
 OCA  HZ EP       1846 27.66                             123   -0.42 9  153   4 
 OCA  HN ES       1846 47.68                             123   -0.20 9  153   4 
 OCA  HZ I        1846 54.13        52.0 0.46            123            153   4 
 ZAR  HZ EP       1846 30.27                             119    0.18 9  174 294 
 ZAR  HN ES       1846 51.61                             119    0.15 9  174 294 
 NOR  HZ EP       1846 34.41                             113   -0.24 8  215 228 
 NOR  HN ES       1847  0.40                             113    0.83 8  215 228 
 NOR  HZ I        1847  4.58        45.4 0.32            112            215 228 
 SML  HZ EP       1846 35.60                             112   -0.28 8  227 341 
 SML  HN ES       1847  2.11                             112    0.34 8  227 341 
 SML  HZ I        1847  4.74        55.2 0.24            111            227 341 
 HEL  HZ EP       1846 38.49                             110    0.06 8  245 253 
 HEL  HN ES       1847  6.07                             110   -0.24 8  245 253 
 HEL  HZ I        1847 14.34        34.3 0.48            109            245 253 
 CHI  HZ EP       1846 39.37                             110    0.48 8  249 188 
 CHI  HN ES       1847  7.85                             110    0.72 8  249 188 
 CHI  HZ I        1847 19.87         8.4 0.48            109            249 188 
 URE  HZ EP       1846 38.34                             109   -0.65 8  254 293 
 URE  HN ES       1847  7.94                             109    0.63 8  254 293 
 URE  HZ I        1847 16.08        51.2 0.26            108            254 293 
 RREF HZ EP       1846 46.39                             105    0.77 7  304 225 
 RREF HN ES       1847 19.08                             105   -0.03 7  304 225 
 RREF HZ I        1847 28.20        11.2 0.20            105            304 225 
 CBOC HZ EP       1846 45.26                             105   -0.19 7  308 249 
 CBOC HN ES       1847 17.33                             105   -1.47 7  308 249 
 CBOC HZ I        1847 35.56         7.1 0.62            104            308 249 
 COD  HZ EP       1846 50.02                             103    0.91 7  340 359 
 COD  HN ES       1847 25.47                             103    0.16 7  340 359 
 COD  HZ I        1847 35.11         7.5 0.68            103            340 359 
 ANIL HE ES       1847 25.72                             103   -0.57 7  342 220 
 SDV  BZ EP   4   1846 52.73                             101   -1.34 0  380  54 
 SDV  BN ES   4   1847 28.44                             101   -5.71 0  380  54 
 ORTC HZ EP       1846 54.39                             101    0.04 6  384 212 
 ORTC HN ES       1847 35.38                             101    0.73 6  384 212 
 ORTC HZ I        1847 45.87         7.6 0.56            100            384 212 
                                                                                
