 2014 10 2 2216 16.3 L   6.757 -73.097142.0  RSN 11 0.4 1.9LRSN                1
 GAP=145        0.78       2.8     4.2  5.5 -0.8763E+00  0.1739E+01  0.3751E+01E
 Epicentro: LOS SANTOS - SANTANDER                                             3
 ACTION:UPD 14-11-29 23:46 OP:nd   STATUS:               ID:20141002221616 L   I
 OLDACT:REG 14-10-03 06:31 OP:spq  STATUS:               ID:20141002220748     3
 2014-10-02-2207-48M.COL___292                                                 6
 STAT SP IPHASW D HRMM SECON CODA AMPLIT PERI AZIMU VELO AIN AR TRES W  DIS CAZ7
 BAR2 SZ EP       2216 35.29                             171   -0.0910 20.6 207 
 BAR2 SZ ES   1   2216 50.09                             171   -0.21 7 20.6 207 
 BAR2 SZ I        2216 51.37        28.1 0.18            171           20.6 207 
 PAM  SZ EP       2216 38.53                             150    0.4310 77.9  34 
 PAM  SE ES   1   2216 54.60                             150   -0.54 7 77.9  34 
 PAM  SZ I        2217  1.15         5.3 0.18            152           77.9  34 
 BRR  HZ EP     C 2216 37.63                             150    0.2110 78.2 300 
 BRR  HN ES       2216 54.65                             150    0.7310 78.2 300 
 BRR  HZ I        2217  0.38        18.8 0.26            149           78.2 300 
 RUS  HZ EP       2216 39.35                             144    0.0710 95.7 179 
 RUS  HE ES   1   2216 57.20                             144   -0.04 7 95.7 179 
 RUS  HZ I        2216 58.40         7.0 0.42            147           95.7 179 
 PTB  HZ EP   1   2216 43.09                             130   -0.25 7  152 261 
 PTB  HE ES       2217  4.16                             130   -0.30 9  152 261 
 PTB  HZ I        2217  7.55         8.9 0.28            131            152 261 
 OCA  HE ES       2217  6.71                             128   -0.34 9  166 351 
 OCA  HZ I        2217 10.63        15.8 0.18            129            166 351 
 ZAR  HE ES   4   2217 14.51                             121   -0.33 0  211 293 
 ZAR  HZ I        2217 20.01        12.0 0.42            122            211 293 
 CHI  HZ EP   1   2216 53.47                             117    0.05 6  246 197 
 CHI  HE ES   1   2217 22.18                             117   -0.22 6  246 197 
 CHI  HZ I        2217 26.80         2.0 0.66            119            246 197 
 SML  HE ES   1   2217 21.88                             116   -0.47 6  250 335 
 SML  HZ I        2217 25.37        13.1 0.10            117            250 335 
 GUY2CHZ EP   1   2217  0.03                             111    0.13 5  303 236 
 GUY2CHE ES   4   2217 33.41                             111   -0.52 0  303 236 
 GUY2CHZ I        2217 44.45         3.9 0.64                           303 236 
 PRA  HZ EP   1   2217  9.82                             106    0.33 4  391 211 
 PRA  HE ES   1   2217 50.40                             106   -0.61 4  391 211 
 PRA  HZ I        2217 56.07         2.6 0.22            108            391 211 
                                                                                
