 2017  2 2 2043 59.6 L   6.774 -73.147144.8  RSN  6 0.4 1.6LRSN                1
 GAP=138        1.05       4.7     4.5  7.7 -0.1271E+01  0.9723E+01  0.4609E+01E
 Epicentro: LOS SANTOS - SANTANDER                                             3
 ACTION:UPD 17-05-24 15:32 OP:jn   STATUS:               ID:20170202204359 L   I
 OLDACT:REG 17-02-03 04:22 OP:cog  STATUS:               ID:20170202203742     3
 2017-02-02-2038-00M.COL___337                                                 6
 STAT SP IPHASW D HRMM SECON CODA AMPLIT PERI AZIMU VELO AIN AR TRES W  DIS CAZ7
 BRR  HZ EP       2044 20.76                             152    0.0210 72.5 301 
 BRR  HE ES       2044 37.86                             152    0.6510 72.5 301 
 PAM  EZ EP       2044 21.73                             150   -0.1410 79.7  38 
 PAM  EE ES       2044 39.01                             150   -0.2210 79.7  38 
 PAM  EZ I        2044 40.82         6.9 0.60            153           79.7  38 
 RUS  HZ EP       2044 23.45                             144    0.3810 97.7 176 
 RUS  HN ES       2044 41.26                             144   -0.1010 97.7 176 
 RUS  HZ I        2044 41.91         3.5 0.38            146           97.7 176 
 PTB  HZ EP       2044 25.67                             132   -0.77 9  147 260 
 PTB  HN ES       2044 46.68                             132   -0.69 9  147 260 
 PTB  HZ I        2044 50.24         3.5 0.50            131            147 260 
 ZAR  HZ EP       2044 32.47                             122    0.37 9  205 293 
 ZAR  HE ES       2044 57.47                             122    0.03 9  205 293 
 ZAR  HZ I        2045  3.86         6.0 0.32            122            205 293 
 NOR  HZ EP       2044 35.39                             118    0.30 8  233 235 
 NOR  HN ES       2045  3.06                             118    0.29 8  233 235 
 NOR  HZ I        2045  9.46         3.1 0.14            119            233 235 
                                                                                
