 2014 10 2 2352 11.0 L   6.784 -73.163144.0  RSN  9 0.4 2.1LRSN                1
 GAP= 99        0.93       3.7     4.0  5.4 -0.4192E+01 -0.7220E+00  0.6598E+01E
 Epicentro: LOS SANTOS - SANTANDER                                             3
 ACTION:UPD 14-11-29 23:46 OP:nd   STATUS:               ID:20141002235211 L   I
 OLDACT:REG 14-10-03 06:37 OP:spq  STATUS:               ID:20141002234750     3
 2014-10-02-2347-50M.COL___286                                                 6
 STAT SP IPHASW D HRMM SECON CODA AMPLIT PERI AZIMU VELO AIN AR TRES W  DIS CAZ7
 BAR2 SZ EP       2352 30.24                             171   -0.1910 21.3 186 
 BAR2 SZ ES       2352 45.48                             171   -0.0610 21.3 186 
 BAR2 SZ I        2352 48.06        47.9 0.30            169           21.3 186 
 BRR  HZ EP       2352 32.09                             152    0.1310 70.4 301 
 BRR  HN ES       2352 49.03                             152    0.7610 70.4 301 
 BRR  HZ I        2352 53.07        19.5 0.26            152           70.4 301 
 PAM  SZ EP       2352 33.33                             150    0.1010 80.0  40 
 PAM  SZ I        2352 33.79        19.1 0.54            154           80.0  40 
 PAM  SN ES       2352 50.53                             150   -0.0110 80.0  40 
 RUS  HZ EP       2352 34.36                             144   -0.1510 98.9 175 
 RUS  HN ES       2352 52.46                             144   -0.3510 98.9 175 
 RUS  HZ I        2352 54.11        12.3 0.38            145           98.9 175 
 PTB  HZ EP       2352 36.85                             132   -0.82 9  146 259 
 PTB  HN ES       2352 58.00                             132   -0.44 9  146 259 
 PTB  HZ I        2353  0.59        11.6 0.12            132            146 259 
 TAM  HZ EP       2352 38.77                             130    0.05 9  156 104 
 TAM  HZ I        2352 38.88        21.3 0.18            133            156 104 
 SPBC HZ EP       2352 39.23                             129    0.06 9  161 219 
 SPBC HN ES       2353  1.13                             129    0.03 9  161 219 
 SPBC HZ I        2353  8.25        18.7 0.28            129            161 219 
 CHI  HZ EP       2352 48.71                             117    0.30 8  246 195 
 CHI  HZ I        2352 49.35         6.2 0.22            118            246 195 
 CHI  HN ES       2353 17.91                             117    0.36 8  246 195 
 PRA  HZ EP       2353  4.26                             106    0.04 6  390 209 
 PRA  HN ES       2353 46.60                             106    0.91 6  390 209 
 PRA  HZ I        2353 52.72         5.6 0.24            107            390 209 
                                                                                
