 2012  1 2 2221 55.1 L   6.793 -73.139144.6  RSN  8 0.3 1.8LRSN                1
 GAP=138        0.59       3.0     4.6  5.1 -0.3758E+01  0.4078E+01 -0.2838E+00E
 Epicentro: LOS SANTOS - SANTANDER                                             3
 ACTION:UP  12-02-03 08:13 OP:REBC STATUS:               ID:20120102222155 L   I
 2012-01-02-2220-49S.COL___155                                                 6
 STAT SP IPHASW D HRMM SECON CODA AMPLIT PERI AZIMU VELO SNR AR TRES W  DIS CAZ7
 BAR2 SZ EP   1   2222 14.35                             171    -0.2 7   23 192 
 BAR2 SZ ES   1   2222 29.41                             171    -0.3 7   23 192 
 BAR2 SZ I        2222 31.26        13.5 0.13                            23 192 
 BRR  HZ EP   1   2222 16.58                             152     0.4 7   72 299 
 BRR  HZ I        2222 22.33        14.5 0.48                            72 299 
 BRR  HE ES   2   2222 33.26                             152     0.7 5   72 299 
 PAM  SZ EP       2222 17.45                             150     0.310   78  39 
 PAM  SE ES   1   2222 34.36                             150    -0.1 7   78  39 
 RUS  HZ EP   1   2222 18.59                             144    -0.1 7  100 176 
 RUS  HN ES   1   2222 37.18                             144     0.1 7  100 176 
 PTB  HZ EP   2   2222 21.61                             132    -0.4 5  148 259 
 PTB  HN ES   2   2222 42.80                             132    -0.2 5  148 259 
 OCA  SZ EP   1   2222 23.01                             129    -0.4 7  161 353 
 OCA  SZ ES   2   2222 45.12                             129    -0.3 5  161 353 
 OCA  SZ I        2222 48.38        13.2 0.19                           161 353 
 NOR  SN ES   2   2222 58.61                             118     0.0 4  235 235 
 CHI  HZ EP   1   2222 32.68                             117     0.0 6  248 195 
 CHI  HN ES   2   2223  1.87                             117    -0.1 4  248 195 
 CHI  HZ I        2223 10.74         2.2 0.48                           248 195 
                                                                                
