 2013  4 2 2158  8.4 L   6.506 -73.611111.7  RSN  4 0.1 1.5LRSN                1
 GAP=133        0.30       1.8     1.7  3.2  0.2061E+00  0.2340E+01  0.4241E+00E
 Epicentro: SANTA HELENA DEL OPON - SANTANDER                                  3
 ACTION:UPD 13-05-22 14:35 OP:EP   STATUS:               ID:20130402215808 L   I
 2013-04-02-2150-00M.COL___245                                                 6
 STAT SP IPHASW D HRMM SECON CODA AMPLIT PERI AZIMU VELO AIN AR TRES W  DIS CAZ7
 BAR2 SZ ES       2158 37.86                             155    0.0310 48.4  79 
 BAR2 SZ I        2158 38.52        25.8 0.17            157           48.4  79 
 GIR2 SZ EP       2158 26.62                             142   -0.0910 78.4  36 
 GIR2 SZ ES       2158 41.01                             142    0.0310 78.4  36 
 GIR2 SZ I        2158 44.14         8.6 0.44            144           78.4  36 
 RUS  HZ EP   1   2158 28.11                             139    0.05 7 89.6 139 
 RUS  HN ES       2158 43.37                             139   -0.0310 89.6 139 
 RUS  HN I        2158 44.31         4.1 0.40            143           89.6 139 
 RUS  HZ I        2158 44.99         2.3 0.20                          89.6 139 
 PTB  HZ EP       2158 27.80                             137    0.0710 93.5 272 
 PTB  HE ES   1   2158 42.74                             137   -0.07 7 93.5 272 
 PTB  HE I        2158 44.56         9.5 0.10            139           93.5 272 
                                                                                
