 2014  6 2 2141 35.2 L   6.770 -73.166155.7  RSN  4 0.3 1.3LRSN                1
 GAP=233        0.75       5.5     6.5  8.2  0.8655E+01 -0.5954E+01  0.6972E+00E
 Epicentro: LOS SANTOS - SANTANDER                                             3
 ACTION:UPD 14-07-01 22:50 OP:nd   STATUS:               ID:20140602214135 L   I
 OLDACT:UP  14-06-03 03:11 OP:cam  STATUS:               ID:20140602214000     3
 OLDACT:UP  14-06-03 03:10 OP:cam  STATUS:               ID:20140602214000     3
 OLDACT:UP  14-06-03 03:10 OP:cam  STATUS:               ID:20140602214000     3
 OLDACT:REG 14-06-03 02:35 OP:cam  STATUS:               ID:20140602214000     3
 2014-06-02-2140-00M.COL___276                                                 6
 STAT SP IPHASW D HRMM SECON CODA AMPLIT PERI AZIMU VELO AIN AR TRES W  DIS CAZ7
 BRR  HZ EP       2141 57.61                             154    0.1710 70.9 302 
 BRR  HN ES       2142 14.93                             154    0.1610 70.9 302 
 BRR  HZ I        2142 17.16         3.9 0.14            151           70.9 302 
 RUS  HZ EP   1   2141 59.80                             147    0.05 7 97.5 175 
 RUS  HN ES   1   2142 18.50                             147   -0.39 7 97.5 175 
 RUS  HZ I        2142 19.11         1.6 0.36            147           97.5 175 
 PTB  HZ EP       2142  2.65                             135   -0.13 9  145 260 
 PTB  HN ES       2142 23.86                             135   -0.41 9  145 260 
 PTB  HZ I        2142 30.76         3.1 0.58            133            145 260 
 SPBC HE ES   1   2142 27.39                             132    0.69 7  159 219 
                                                                                
