 2012 11 2 2127 35.4 L   6.750 -73.070143.2  RSN  5 0.2 1.8LRSN                1
 GAP=149        0.50       3.0     4.3  4.3  0.2657E+00 -0.2546E+01  0.2815E+01E
 Epicentro: LOS SANTOS - SANTANDER                                             3
 ACTION:UPD 12-12-05 15:31 OP:}ep  STATUS:               ID:20121102212735 L   I
 2012-11-02-2120-00M.COL___232                                                 6
 STAT SP IPHASW D HRMM SECON CODA AMPLIT PERI AZIMU VELO AIN AR TRES W  DIS CAZ7
 BAR2 SZ EP       2127 54.77                             171    0.0410 21.4 216 
 BAR2 SZ ES   1   2128 10.22                             171    0.44 7 21.4 216 
 BAR2 SZ I        2128 11.55        16.3 0.29                          21.4 216 
 PAM  SZ EP       2127 57.54                             150    0.1710 77.0  32 
 PAM  SZ I        2127 58.23         7.8 0.29                          77.0  32 
 PAM  SE ES   1   2128 14.14                             150   -0.33 7 77.0  32 
 BRR  HZ EP       2127 56.95                             149    0.0210 81.2 299 
 BRR  HZ I        2127 59.85        26.5 0.37                          81.2 299 
 BRR  HN ES       2128 13.54                             149   -0.1410 81.2 299 
 RUS  HZ EP       2127 58.55                             145    0.0210 94.8 181 
 RUS  HZ I        2127 59.74         5.0 0.24                          94.8 181 
 RUS  HN ES   1   2128 16.36                             145   -0.18 7 94.8 181 
 CHI  HZ EP   1   2128 12.50                             117   -0.18 6  246 197 
                                                                                
