 2016 11 2 2154 46.5 L   6.777 -73.141146.4  RSN  9 0.2 1.9LRSN                1
 GAP=138        0.58       2.2     2.4  3.6 -0.6320E+00  0.2630E+01  0.8658E+00E
 Epicentro: LOS SANTOS - SANTANDER                                             3
 ACTION:UPD 17-10-26 21:04 OP:lp   STATUS:               ID:20161102215446 L   I
 OLDACT:REG 16-11-03 03:44 OP:cara STATUS:               ID:20161102214745     3
 2016-11-02-2148-00M.COL___346                                                 6
 STAT SP IPHASW D HRMM SECON CODA AMPLIT PERI AZIMU VELO AIN AR TRES W  DIS CAZ7
 BAR2 EZ IP       2155  6.09                             171   -0.1010 20.9 193 
 BAR2 EZ ES       2155 21.73                             171    0.2010 20.9 193 
 BAR2 EZ I        2155 24.80        18.4 0.78            170           20.9 193 
 BRR  HZ EP       2155  8.07                             152    0.2310 72.9 300 
 BRR  HN ES       2155 24.82                             152    0.3510 72.9 300 
 BRR  HZ I        2155 28.40        10.9 0.14            151           72.9 300 
 PAM  EZ EP       2155  8.90                             150   -0.0110 79.1  38 
 PAM  EN ES       2155 26.20                             150   -0.1810 79.1  38 
 PAM  EZ I        2155 28.37        15.1 0.50            156           79.1  38 
 RUS  HZ EP       2155 10.25                             145    0.0910 98.0 176 
 RUS  HE ES       2155 28.35                             145   -0.2410 98.0 176 
 RUS  HZ I        2155 29.92         6.0 0.36            147           98.0 176 
 PTB  HZ EP       2155 13.64                             132    0.09 9  148 260 
 PTB  HN ES       2155 34.28                             132   -0.34 9  148 260 
 PTB  HZ I        2155 41.44        10.3 0.40            133            148 260 
 SPBC HZ EP       2155 15.07                             129    0.15 9  162 220 
 SPBC HN ES       2155 37.00                             129   -0.06 9  162 220 
 SPBC HZ I        2155 43.28        13.1 0.34            131            162 220 
 ZAR  HZ EP       2155 18.99                             122   -0.17 8  205 293 
 ZAR  HN ES       2155 44.31                             122   -0.30 8  205 293 
 ZAR  HZ I        2155 49.63        12.3 0.40            124            205 293 
 GUY2CHZ EP   4   2155 31.54                             112    1.50 0  300 235 
 GUY2CHN ES       2156  4.43                             112    0.44 7  300 235 
 GUY2CHZ I        2156 12.77         3.0 0.26                           300 235 
 PTGC HZ EP   4   2155 28.93                             112   -1.19 0  306 159 
 PTGC HN ES   4   2156  1.18                             112   -2.95 0  306 159 
 PRA  HN EP   4   2155 40.88                             107    1.04 0  390 210 
 PRA  HE ES       2156 21.19                             107   -0.23 6  390 210 
 PRA  HZ I        2156 26.15         3.8 0.62            109            390 210 
 SJC  HN EP   4   2155 39.82                             106   -2.57 0  412 327 
 SJC  HE ES   4   2156 20.82                             106   -5.15 0  412 327 
                                                                                
