 2011 12 2 2327 44.9 L   6.808 -73.093145.3  RSN 15 0.4 2.6LRSN                1
 GAP=130        0.82       3.2     5.2  4.6 -0.7170E+01  0.2558E+01  0.2142E+01E
 Epicentro: LOS SANTOS - SANTANDER                                             3
 ACTION:UPD 12-07-13 16:13 OP:ep   STATUS:               ID:20111202232744 L   I
 2011-12-02-2320-00M.COL___182                                                 6
 STAT SP IPHASW D HRMM SECON CODA AMPLIT PERI AZIMU VELO AIN AR TRES W  DIS CAZ7
 BAR2 SZ IP       2328  4.52                             169   -0.0410 25.8 202 
 BAR2 SZ ES   1   2328 19.33                             169   -0.54 7 25.8 202 
 BAR2 SZ I        2328 21.09       116.7 0.34                          25.8 202 
 GIR2 SZ EP   1   2328  4.54                             167   -0.03 7 32.0 340 
 GIR2 SZ ES   1   2328 19.20                             167   -0.69 7 32.0 340 
 PAM  SZ EP   1   2328  7.07                             152    0.21 7 73.2  36 
 PAM  SZ I        2328  7.46        65.9 0.16                          73.2  36 
 PAM  SE ES   1   2328 24.14                             152    0.19 7 73.2  36 
 BRR  HZ EP   1   2328  6.27                             151   -0.04 7 76.0 296 
 BRR  HN ES   1   2328 23.40                             151    0.42 7 76.0 296 
 BRR  HZ I        2328 28.71        77.1 0.12                          76.0 296 
 RUS  HZ EP   1   2328  8.57                             143   -0.12 7  101 179 
 RUS  HZ I        2328  9.67        31.7 0.11                           101 179 
 RUS  HE ES   1   2328 27.27                             143    0.06 7  101 179 
 BRI  SZ EP   1   2328  8.82                             142    0.24 7  106  18 
 BRI  SZ ES   1   2328 27.70                             142    0.68 7  106  18 
 OCA  SZ EP   1   2328 13.83                             129    0.62 7  160 351 
 OCA  SZ ES   1   2328 34.98                             129   -0.28 7  160 351 
 OCA  SZ I        2328 41.51        46.5 0.29                           160 351 
 NOR  SZ EP   1   2328 21.30                             118    0.10 6  240 235 
 NOR  SE ES   1   2328 49.02                             118   -0.47 6  240 235 
 CHI  HZ EP   1   2328 22.76                             117   -0.11 6  251 196 
 CHI  HN ES   1   2328 52.83                             117    0.37 6  251 196 
 CHI  HZ I        2329  1.61        16.8 0.34                           251 196 
 ROSC BZ EP   1   2328 24.44                             116    1.00 6  257 212 
 ROSC BZ I        2329  0.01        53.7 0.45                           257 212 
 HEL  HZ EP   1   2328 25.29                             114   -0.48 6  278 256 
 HEL  HZ I        2329  5.58        30.6 0.24                           278 256 
 RREF HZ EP   1   2328 31.94                             110    0.31 5  327 230 
 RREF HZ I        2329 18.93        23.0 0.64                           327 230 
 COD  HZ EP   1   2328 32.51                             109   -0.76 5  348 354 
 COD  HZ I        2328 33.50        14.3 0.86                           348 354 
 SDV  BZ EP       2328 33.57                             108   -0.82 6  355  50 
 SDV  BZ I        2328 34.57        17.9 0.20                           355  50 
 PRA  HZ EP   1   2328 38.67                             106   -0.20 4  396 210 
                                                                                
