 2014  4 2 2031  6.3 L   6.801 -73.145136.1  RSN 15 0.5 2.3LRSN                1
 GAP=137        0.99       3.1     4.0  6.1 -0.2297E+01  0.5097E+01  0.2956E+01E
 Epicentro: LOS SANTOS - SANTANDER                                             3
 ACTION:UPD 14-05-13 23:05 OP:nd   STATUS:               ID:20140402203106 L   I
 OLDACT:UP  14-04-03 04:45 OP:mh   STATUS:               ID:20140402202811     3
 OLDACT:UP  14-04-03 04:44 OP:mh   STATUS:               ID:20140402202811     3
 OLDACT:UP  14-04-03 04:44 OP:mh   STATUS:               ID:20140402202811     3
 OLDACT:REG 14-04-03 02:37 OP:mh   STATUS:               ID:20140402202811     3
 2014-04-02-2028-11M.COL___255                                                 6
 STAT SP IPHASW D HRMM SECON CODA AMPLIT PERI AZIMU VELO AIN AR TRES W  DIS CAZ7
 BRR  HZ EP       2031 27.06                             151    0.6810 71.2 298 
 BRR  HE ES   1   2031 42.00                             151   -0.07 7 71.2 298 
 BRR  HZ I        2031 48.39        41.5 0.18            142           71.2 298 
 PAM  SZ EP     C 2031 27.94                             149    0.4910 77.2  40 
 PAM  SN ES   1   2031 44.00                             149    0.02 7 77.2  40 
 PAM  SZ I        2031 47.18        38.1 0.42            141           77.2  40 
 RUS  HZ EP       2031 28.87                             142   -0.2110  101 176 
 RUS  HN ES       2031 47.19                             142    0.3010  101 176 
 RUS  HZ I        2031 48.28        20.9 0.21            142            101 176 
 PTB  HZ EP       2031 31.89                             130   -0.58 9  148 259 
 PTB  HN ES       2031 52.41                             130   -0.51 9  148 259 
 PTB  HZ I        2031 55.10        22.2 0.13            124            148 259 
 OCA  HZ EP   1   2031 33.65                             127   -0.19 7  160 353 
 OCA  HN ES   1   2031 54.92                             127   -0.42 7  160 353 
 OCA  HZ I        2032  0.72        32.1 0.27            119            160 353 
 SPBC HN ES   1   2031 54.99                             127   -0.74 7  163 219 
 ZAR  HZ EP       2031 38.04                             120   -0.07 9  204 292 
 ZAR  HN ES   1   2032  3.87                             120    0.93 6  204 292 
 ZAR  HZ I        2032 11.80        25.8 0.15            114            204 292 
 NOR  HZ EP   1   2031 41.34                             116   -0.13 6  235 234 
 NOR  HN ES       2032  9.02                             116    0.10 8  235 234 
 NOR  HZ I        2032 12.64        17.9 0.15            112            235 234 
 SML  HZ EP   1   2031 41.44                             115   -0.92 6  244 335 
 SML  HZ I        2032 15.87        38.8 0.09            109            244 335 
 CHI  HZ EP       2031 43.07                             115   -0.39 8  249 195 
 CHI  HN ES   1   2032 11.98                             115   -0.49 6  249 195 
 CHI  HZ I        2032 15.53         6.3 0.32            112            249 195 
 HEL  HE ES   1   2032 16.89                             113   -0.13 6  272 256 
 GUY2CHZ EP       2031 50.31                             110    0.85 7  301 235 
 GUY2CHN ES   4   2032 22.80                             110   -0.35 0  301 235 
 GUY2CHZ I        2032 32.35        10.9 0.25                           301 235 
 PTGC HZ EP   4   2031 47.94                             110   -1.77 0  309 159 
 RREF HZ EP       2031 52.76                             109    0.74 7  322 229 
 RREF HN ES   1   2032 27.85                             109    0.14 5  322 229 
 RREF HZ I        2032 36.15         9.6 0.42            105            322 229 
 PRA  HZ EP       2031 59.21                             105   -0.27 6  392 210 
 PRA  HN ES   1   2032 40.90                             105   -0.09 4  392 210 
 PRA  HZ I        2032 45.35         8.8 0.25            102            392 210 
 ORTC HZ EP       2031 59.71                             105   -0.17 6  396 216 
 ORTC HN ES   1   2032 42.44                             105    0.73 4  396 216 
 ORTC HZ I        2032 48.96         4.6 0.17            101            396 216 
                                                                                
