 2015  7 2 2321 52.3 L   6.816 -73.133149.1  RSN 20 0.4 2.5LRSN                1
 GAP=137        0.88       2.2     3.4  4.9 -0.1581E+01  0.7683E+01  0.1401E+01E
 Epicentro: LOS SANTOS - SANTANDER                                             3
 ACTION:UPD 15-09-08 21:46 OP:cam  STATUS:               ID:20150702232152 L   I
 OLDACT:UP  15-07-03 04:43 OP:drio STATUS:               ID:20150702231750     3
 OLDACT:REG 15-07-03 02:59 OP:drio STATUS:               ID:20150702231750     3
 2015-07-02-2317-50M.COL___328                                                 6
 STAT SP IPHASW D HRMM SECON CODA AMPLIT PERI AZIMU VELO AIN AR TRES W  DIS CAZ7
 BAR2 EZ EP       2322 12.25                             170   -0.1710 25.3 192 
 BAR2 EZ ES       2322 28.16                             170    0.0810 25.3 192 
 BAR2 EZ I        2322 28.88        57.7 0.24            167           25.3 192 
 PAM  EZ EP       2322 15.13                             152    0.3410 75.2  40 
 PAM  EE ES       2322 31.93                             152   -0.3710 75.2  40 
 PAM  EZ I        2322 34.52        19.7 0.44            156           75.2  40 
 RUS  HZ EP       2322 16.14                             144   -0.4010  102 177 
 RUS  HZ I        2322 36.03        24.8 0.40            145            102 177 
 OCA  HZ EP       2322 21.36                             131    0.58 9  159 353 
 OCA  HE ES       2322 43.60                             131    0.65 9  159 353 
 ZAR  HZ EP       2322 24.89                             123   -0.19 9  205 292 
 ZAR  HE ES       2322 50.63                             123    0.02 9  205 292 
 ZAR  HZ I        2322 56.62        45.4 0.30            123            205 292 
 NOR  HZ EP       2322 28.32                             119   -0.18 8  237 234 
 NOR  HE ES       2322 56.57                             119   -0.13 8  237 234 
 NOR  HZ I        2322 59.80        37.9 0.20            119            237 234 
 SML  HZ EP       2322 28.95                             118   -0.10 8  243 335 
 SML  HN ES       2322 57.32                             118   -0.37 8  243 335 
 SML  HZ I        2323  2.07        51.1 0.24            119            243 335 
 CHI  HZ EP       2322 30.35                             118   -0.10 8  251 195 
 CHI  HN ES       2323  0.01                             118   -0.16 8  251 195 
 CHI  HZ I        2323  5.37        10.8 0.58            118            251 195 
 ROSC BZ EP       2322 31.03                             117    0.14 8  255 211 
 ROSC BE ES       2323  1.04                             117    0.09 8  255 211 
 ROSC BZ I        2323  7.13        34.3 0.40            118            255 211 
 HEL  HZ EP       2322 33.45                             115    0.53 8  274 256 
 HEL  HN ES   4   2323  6.73                             115    2.15 0  274 256 
 HEL  HZ I        2323 11.41        21.9 0.32            115            274 256 
 URE  HZ EP       2322 32.98                             114   -0.67 7  284 291 
 URE  HE ES   4   2323  4.02                             114   -1.85 0  284 291 
 URE  HZ I        2323 13.00        19.7 0.22            114            284 291 
 GUY2CHZ EP       2322 37.27                             113    0.92 7  303 235 
 GUY2CHE ES       2323 10.37                             113   -0.30 7  303 235 
 GUY2CHZ I        2323 19.48        21.7 0.28                           303 235 
 PTGC HZ EP   4   2322 35.12                             112   -1.36 0  310 159 
 PTGC HE ES   4   2323  8.51                             112   -2.39 0  310 159 
 CBOC HZ EP       2322 40.12                             110    0.51 7  335 252 
 CBOC HE ES       2323 16.71                             110    0.23 7  335 252 
 CBOC HZ I        2323 28.74         5.5 0.44            111            335 252 
 DBB  SZ EP       2322 39.69                             110   -0.41 7  341 274 
 DBB  SZ ES       2323 17.40                             110    0.05 7  341 274 
 DBB  SZ I        2323 41.03        29.2 0.66            110            341 274 
 TOL  SZ EP       2322 41.14                             110    0.15 6  346 225 
 TOL  SN ES       2323 19.04                             110    0.11 6  346 225 
 TOL  SZ I        2323 23.80        16.4 0.36            110            346 225 
 MON  HZ EP   4   2322 39.36                             109   -2.12 0  354 308 
 MON  HN ES   4   2323 18.08                             109   -1.72 0  354 308 
 MON  HZ I        2323 32.89         9.0 0.58            110            354 308 
 PRA  HZ EP       2322 45.82                             107   -0.42 6  394 210 
 PRA  HN ES       2323 28.17                             107   -0.10 6  394 210 
 PRA  HZ I        2323 32.98        14.0 0.48            108            394 210 
 ORTC HZ EP       2322 47.01                             107    0.37 6  398 216 
 ORTC HE ES       2323 29.62                             107    0.64 6  398 216 
 ORTC HZ I        2323 35.23        11.2 0.40            107            398 216 
 PAL  HZ EP       2322 48.14                             106    0.28 6  408 239 
 PAL  HN ES       2323 30.39                             106   -0.77 6  408 239 
 PAL  HZ I        2323 33.81         5.0 0.22            107            408 239 
 SJC  HZ EP       2322 46.61                             106   -1.33 6  409 327 
 SJC  HN ES   4   2323 27.30                             106   -4.00 0  409 327 
 SJC  HZ I        2323 33.00         6.9 0.30            107            409 327 
                                                                                
