 2015  2 2 2132 13.9 L   6.804 -73.145144.4  RSN  6 0.3 1.6LRSN                1
 GAP=141        0.57       3.8     3.5  5.0 -0.7472E+01  0.5204E+01  0.5963E+00E
 Epicentro: LOS SANTOS - SANTANDER                                             3
 ACTION:UPD 15-04-30 21:20 OP:nd   STATUS:               ID:20150202213213 L   I
 OLDACT:REG 15-02-03 03:34 OP:spq  STATUS:               ID:20150202212750     3
 2015-02-02-2127-50M.COL___269                                                 6
 STAT SP IPHASW D HRMM SECON CODA AMPLIT PERI AZIMU VELO AIN AR TRES W  DIS CAZ7
 BAR2 EZ ES   1   2132 48.53                             170   -0.02 7 23.7 190 
 BAR2 EZ I        2132 49.64         5.9 0.17            169           23.7 190 
 PAM  SZ EP       2132 36.02                             151    0.0810 77.0  40 
 PAM  SE ES       2132 53.11                             151   -0.0210 77.0  40 
 PAM  SZ I        2132 55.13         6.9 0.56            154           77.0  40 
 RUS  HZ EP   1   2132 37.65                             143    0.12 7  101 176 
 RUS  HN ES   1   2132 56.04                             143    0.06 7  101 176 
 RUS  HZ I        2132 56.93         4.3 0.32            144            101 176 
 PTB  HZ EP   1   2132 40.18                             132   -0.58 7  148 259 
 PTB  HE ES       2133  1.85                             132    0.13 9  148 259 
 PTB  HZ I        2133  3.85         5.2 0.12            132            148 259 
 SPBC HZ EP   1   2132 42.24                             129   -0.08 7  164 219 
 SPBC HN ES   1   2133  3.95                             129   -0.54 7  164 219 
 SPBC HZ I        2133  9.78         8.6 0.23            129            164 219 
 NOR  HZ EP   1   2132 49.77                             118    0.20 6  235 234 
 NOR  HE ES       2133 17.76                             118    0.36 8  235 234 
 NOR  HZ I        2133 22.91         3.4 0.44            119            235 234 
                                                                                
