 2012  4 2 2151 55.9 L   6.794 -73.111150.9  RSN  8 0.4 2.0LRSN                1
 GAP=141        0.95       4.4     6.1  8.0 -0.2401E+00  0.1253E+02  0.4342E+01E
 Epicentro: LOS SANTOS - SANTANDER                                             3
 ACTION:UPD 12-07-05 11:49 OP:tino STATUS:               ID:20120402215155 L   I
 2012-04-02-2150-00M.COL___196                                                 6
 STAT SP IPHASW D HRMM SECON CODA AMPLIT PERI AZIMU VELO AIN AR TRES W  DIS CAZ7
 BAR2 SZ EP   1   2152 15.96                             171    -0.2 7   24 199 
 BAR2 SZ I        2152 16.63        24.8 0.36                            24 199 
 BAR2 SZ ES   1   2152 31.45                             171    -0.5 7   24 199 
 BRR  HZ EP   1   2152 18.02                             152     0.2 7   75 298 
 BRR  HZ I        2152 18.32        39.1 0.10                            75 298 
 BRR  HN ES   1   2152 35.79                             152     0.9 7   75 298 
 PAM  SZ EP   1   2152 18.84                             152     0.3 7   76  37 
 PAM  SN ES   1   2152 36.24                             152     0.0 7   76  37 
 RUS  HZ EP   1   2152 19.86                             145    -0.2 7  100 178 
 RUS  HN ES   1   2152 38.59                             145    -0.4 7  100 178 
 RUS  HZ I        2152 39.64         8.2 0.26                           100 178 
 OCA  SZ EP   2   2152 24.68                             131     0.0 5  161 352 
 OCA  SZ ES   2   2152 47.53                             131     0.3 5  161 352 
 ZAR  HZ EP   1   2152 28.55                             123    -0.5 6  208 292 
 ZAR  HN ES   1   2152 54.21                             123    -0.7 6  208 292 
 ZAR  HZ I        2153  1.17        10.8 0.18                           208 292 
 NOR  SN ES   1   2153  0.76                             119     0.2 6  237 235 
 CHI  HZ EP   1   2152 34.16                             118     0.2 6  249 196 
 CHI  HZ I        2152 36.10         3.6 0.19                           249 196 
 CHI  HN ES   1   2153  4.30                             118     0.7 6  249 196 
                                                                                
