 2010  3 2 2352 20.8 L   6.781 -73.118150.4  RSN  6 0.2 1.6LRSN                1
 GAP=239        0.45       3.8     6.2  4.9  0.5227E+01  0.9577E+01  0.5068E+01E
 Epicentro: LOS SANTOS - SANTANDER                                             3
 ACTION:UP  10-08-24 09:51 OP:vdl  STATUS:               ID:20100302235220 L   I
 2010-03-02-2350-49S.COL___094                                                 6
 STAT SP IPHASW D HRMM SECON CODA AMPLIT PERI AZIMU VELO SNR AR TRES W  DIS CAZ7
 BAR2 SZ EP   1   2352 40.84                             171    -0.1 7   22 199 
 BAR2 SZ ES   2   2352 56.91                             171     0.2 5   22 199 
 BRR  HZ EP   1   2352 42.48                             152    -0.2 7   75 299 
 BRR  HZ I        2352 48.74        12.9 0.37                            75 299 
 BRR  HE ES   2   2352 59.83                             152     0.1 5   75 299 
 RUS  BZ EP       2352 44.98                             145     0.110   98 178 
 RUS  BN ES   1   2353  3.56                             145    -0.1 7   98 178 
 RUS  BZ I        2353  5.14         3.7 0.48                            98 178 
 CHI  HZ EP   2   2352 58.78                             118     0.1 4  247 196 
 CHI  HN ES   2   2353 27.49                             118    -0.7 4  247 196 
 CHI  HZ I        2353 34.09         1.5 0.30                           247 196 
 RREF BZ EP   2   2353  7.02                             112    -0.3 3  323 230 
 RREF BN ES   2   2353 43.91                             112     0.4 3  323 230 
 RREF BZ I        2353 52.37         1.9 0.36                           323 230 
 PRA  HZ EP       2353 14.74                             107     0.3 6  392 210 
 PRA  HE ES   3   2353 56.05                             107    -0.3 1  392 210 
 PRA  HZ I        2354  0.05         1.9 0.46                           392 210 
                                                                                
