 2011 10 2 2137  3.9 L   7.293 -73.450102.0  RSN  8 0.4 1.6LRSN                1
 GAP= 90        0.61       4.0     3.5  5.6 -0.4037E+01  0.3290E+01 -0.4654E+00E
 Epicentro: SABANA DE TORRES - SANTANDER                                       3
 ACTION:UPD 12-07-13 16:01 OP:ep   STATUS:               ID:20111002213703 L   I
 2011-10-02-2132-58S.COL___168                                                 6
 STAT SP IPHASW D HRMM SECON CODA AMPLIT PERI AZIMU VELO AIN AR TRES W  DIS CAZ7
 BRR  HZ IP     C 2137 17.96                             159   -0.4610 35.5 235 
 BRR  HN ES   1   2137 29.72                             159    0.00 7 35.5 235 
 BRR  HZ I        2137 30.77        18.3 0.24                          35.5 235 
 BTL  SZ EP   3   2137 19.58                             153    0.30 2 46.0 154 
 BAR2 SZ EP   3   2137 21.68                             137   -0.14 2 82.9 159 
 BAR2 SZ ES   3   2137 35.76                             137   -0.02 2 82.9 159 
 BAR2 SZ I        2137 39.72         7.3 0.18                          82.9 159 
 PAM  SZ EP       2137 22.14                             138   -0.0410 83.0  86 
 PAM  SE ES   1   2137 36.81                             138    0.40 7 83.0  86 
 PAM  SZ I        2137 37.71         5.5 0.24                          83.0  86 
 OCA  SZ EP       2137 23.64                             130   -0.0710  106   8 
 OCA  SZ ES   2   2137 39.16                             130    0.03 5  106   8 
 OCA  SZ I        2137 41.91        22.1 0.37                           106   8 
 ZAR  HZ EP   3   2137 28.13                             118   -0.61 2  157 278 
 ZAR  HE ES   2   2137 48.54                             118    0.46 5  157 278 
 ZAR  HZ I        2137 50.92        11.4 0.26                           157 278 
 RUS  HZ EP   3   2137 28.44                             117   -1.24 2  160 165 
 RUS  HZ I        2137 49.15         2.2 0.59                           160 165 
 NOR  SZ EP       2137 39.59                             106    0.55 8  247 219 
 NOR  SE ES   3   2138  6.04                             106   -0.39 2  247 219 
                                                                                
