 2013  4 2 2312 37.2 L   6.767 -73.161148.1  RSN  6 0.4 1.9LRSN                1
 GAP=136        0.83       4.5     4.3  7.4  0.2585E+01  0.8607E+01  0.4254E+00E
 Epicentro: LOS SANTOS - SANTANDER                                             3
 ACTION:UPD 13-05-22 14:35 OP:EP   STATUS:               ID:20130402231237 L   I
 2013-04-02-2310-00M.COL___245                                                 6
 STAT SP IPHASW D HRMM SECON CODA AMPLIT PERI AZIMU VELO AIN AR TRES W  DIS CAZ7
 BAR2 SZ EP   2   2312 56.42                             172   -0.58 5 19.4 187 
 BAR2 SZ ES   1   2313 11.91                             172   -0.56 7 19.4 187 
 BAR2 SZ I        2313 12.86        21.8 0.34            170           19.4 187 
 BRR  HZ EP       2312 58.71                             153    0.1210 71.6 302 
 BRR  HN ES       2313 15.80                             153    0.5110 71.6 302 
 BRR  HN I        2313 19.03        22.2 0.16            148           71.6 302 
 PAM  SZ EP   1   2312 59.83                             150   -0.03 7 81.3  39 
 PAM  SN ES       2313 17.32                             150   -0.2410 81.3  39 
 PAM  SN I        2313 17.96        10.0 0.68            153           81.3  39 
 RUS  HZ EP   1   2313  1.23                             145    0.33 7 97.0 175 
 RUS  HN ES       2313 19.68                             145    0.2810 97.0 175 
 RUS  HN I        2313 20.18         9.0 0.24            147           97.0 175 
 PTB  HZ EP   1   2313  3.75                             133   -0.37 7  145 260 
 PTB  HN ES   1   2313 24.49                             133   -0.64 7  145 260 
 PTB  HN I        2313 29.76         8.2 0.46            130            145 260 
 ZAR  HZ EP   4   2313 11.37                             123    1.62 0  204 293 
 ZAR  HN ES       2313 35.34                             123    0.17 9  204 293 
 ZAR  HN I        2313 45.19         6.3 0.14            121            204 293 
                                                                                
