 2011  7 2 2234 50.2 L   5.906 -73.645122.1  RSN 21 0.3 3.3LRSN                1
 GAP= 67        0.55       1.5     2.0  3.5 -0.1276E+01  0.2566E+01 -0.1605E+00E
 Epicentro: PUENTE NACIONAL - SANTANDER                                        3
 ACTION:UPD 12-07-25 13:57 OP:epov STATUS:               ID:20110702223450 L   I
 2011-07-02-2233-22S.COL___140                                                 6
 STAT SP IPHASW D HRMM SECON CODA AMPLIT PERI AZIMU VELO AIN AR TRES W  DIS CAZ7
 RUS  HZ IP     D 2235  8.88                             151   -0.1010 62.2  91 
 RUS  HN ES   1   2235 23.37                             151   -0.28 7 62.2  91 
 BAR2 SZ IP       2235 10.69                             141    0.0710 91.5  34 
 BAR2 SZ ES   1   2235 26.50                             141   -0.06 7 91.5  34 
 BAR2 SZ I        2235 27.67       692.1 0.14                          91.5  34 
 SAN  SZ EP       2235 12.95                             134    0.5110  114  34 
 SAN  SZ ES   1   2235 29.77                             134   -0.02 7  114  34 
 BTL  SZ IP       2235 13.03                             133    0.0610  120  20 
 BTL  SZ ES   1   2235 30.94                             133    0.21 7  120  20 
 BRR  HZ EP       2235 13.79                             129   -0.1010  133 357 
 BRR  HN ES   1   2235 32.22                             129   -0.16 7  133 357 
 BRR  HZ I        2235 33.82       349.7 0.44                           133 357 
 GIR2 SZ IP       2235 14.61                             128   -0.04 9  139  21 
 GIR2 SZ ES   1   2235 33.57                             128   -0.16 7  139  21 
 ROSC BZ EP   1   2235 15.61                             128    0.57 7  140 212 
 ROSC BZ I        2235 40.82       208.7 0.25                           140 212 
 NOR  SZ IP       2235 14.36                             127   -0.34 9  141 254 
 NOR  SN ES   1   2235 33.81                             127   -0.02 7  141 254 
 CHI  HZ EP       2235 15.12                             127   -0.13 9  141 184 
 CHI  HN ES   1   2235 34.66                             127   -0.14 7  141 184 
 CHI  HZ I        2235 37.96       167.6 0.54                           141 184 
 YOP  SZ IP       2235 15.83                             126    0.28 9  149 114 
 YOP  SN ES   2   2235 35.48                             126    0.14 5  149 114 
 PAM  SZ EP       2235 19.97                             119   -0.33 9  190  33 
 VIL  SZ EP   1   2235 20.39                             117   -0.36 6  198 182 
 VIL  SN ES   2   2235 44.81                             117    0.21 4  198 182 
 VIL  SZ I        2235 49.28       254.9 0.41                           198 182 
 GUY  SZ EP       2235 22.45                             116    0.26 8  208 249 
 GUY  SN ES   2   2235 47.45                             116    0.29 4  208 249 
 GUY  SZ I        2235 51.15       234.8 0.36                           208 249 
 HEL  HZ EP       2235 22.41                             116   -0.01 8  211 279 
 HEL  HZ I        2235 53.58       129.3 0.22                           211 279 
 RREF HZ EP       2235 23.24                             115   -0.40 8  219 240 
 RREF HZ I        2235 55.20       174.4 0.70                           219 240 
 BRI  SZ EP       2235 23.41                             114    0.11 8  221  25 
 TOL  SZ EP   1   2235 25.07                             113   -0.12 6  236 232 
 TOL  SZ ES   2   2235 53.00                             113    0.51 4  236 232 
 GRA  SZ EP       2235 24.97                             113   -0.16 8  238  23 
 GRA  SZ I        2235 59.55       118.3 0.58                           238  23 
 OCA  SZ EP       2235 27.66                             110   -0.05 8  261   8 
 OCA  SZ ES   1   2235 57.53                             110    0.55 6  261   8 
 OCA  SZ I        2236  1.28       185.1 0.67                           261   8 
 PRA  HZ EP   2   2235 29.19                             109   -0.47 4  279 210 
 PRA  HE ES   1   2236  0.95                             109    0.49 6  279 210 
 DBB  SZ EP       2235 33.17                             107   -0.08 7  309 294 
                                                                                
