 2014  8 2 2331 19.3 L   6.807 -73.117147.9  RSN 19 0.5 2.3LRSN                1
 GAP=140        1.03       2.9     4.3  5.5 -0.2129E+01  0.4678E+01  0.2116E+01E
 Epicentro: LOS SANTOS - SANTANDER                                             3
 ACTION:UPD 14-09-15 21:46 OP:nd   STATUS:               ID:20140802233119 L   I
 OLDACT:REG 14-08-03 02:58 OP:fm   STATUS:               ID:20140802232818     3
 2014-08-02-2328-18M.COL___254                                                 6
 STAT SP IPHASW D HRMM SECON CODA AMPLIT PERI AZIMU VELO AIN AR TRES W  DIS CAZ7
 BAR2 SZ EP     C 2331 39.22                             170   -0.0110 24.9 197 
 BAR2 SZ ES   1   2331 54.65                             170   -0.11 7 24.9 197 
 BAR2 SZ I        2331 56.85        33.9 0.26            165           24.9 197 
 BRR  HZ EP       2331 41.33                             152    0.5010 73.6 297 
 BRR  HN ES       2331 58.33                             152    0.7210 73.6 297 
 BRR  HZ I        2332  2.00        20.6 0.12            146           73.6 297 
 PAM  SZ EP     C 2331 41.98                             152    0.3810 74.8  38 
 PAM  SN ES   1   2331 59.27                             152    0.28 7 74.8  38 
 PAM  SZ I        2332  1.34        28.2 0.22            155           74.8  38 
 RUS  HZ EP   1   2331 43.14                             144   -0.18 7  101 178 
 RUS  HE ES   1   2332  1.30                             144   -0.74 7  101 178 
 RUS  HZ I        2332  2.58        11.0 0.38            141            101 178 
 PTB  HZ EP   1   2331 46.17                             132   -0.58 7  151 259 
 PTB  HN ES       2332  7.22                             132   -0.92 9  151 259 
 PTB  HZ I        2332 14.76        23.1 0.34            127            151 259 
 OCA  HZ EP   1   2331 47.08                             130   -0.67 7  160 352 
 OCA  HN ES       2332  9.81                             130   -0.12 9  160 352 
 OCA  HZ I        2332 17.62        21.9 0.34            128            160 352 
 SPBC HZ EP       2331 48.10                             129   -0.12 9  166 220 
 SPBC HN ES       2332 10.95                             129    0.18 9  166 220 
 SPBC HZ I        2332 16.02        34.8 0.16            125            166 220 
 ZAR  HZ EP       2331 51.79                             122   -0.37 8  207 292 
 ZAR  HN ES       2332 17.94                             122    0.15 8  207 292 
 ZAR  HZ I        2332 23.51        21.8 0.30            119            207 292 
 NOR  HZ EP   1   2331 55.39                             119   -0.10 6  238 235 
 NOR  HZ I        2332 27.03        14.4 0.24            115            238 235 
 SML  HZ EP       2331 55.24                             118   -0.88 8  244 335 
 SML  HN ES   1   2332 24.93                             118    0.10 6  244 335 
 SML  HZ I        2332 27.71        22.7 0.10            116            244 335 
 CHI  HZ EP   1   2331 57.35                             117    0.05 6  250 196 
 CHI  HN ES   1   2332 26.09                             117   -0.85 6  250 196 
 CHI  HZ I        2332 35.18         7.9 0.48            115            250 196 
 ROSC BZ EP   1   2331 58.15                             117    0.35 6  255 212 
 ROSC BN ES   1   2332 28.03                             117    0.21 6  255 212 
 ROSC BZ I        2332 37.17        17.7 0.35            114            255 212 
 HEL  HZ EP   1   2331 59.92                             115   -0.07 6  275 256 
 HEL  HN ES   1   2332 31.78                             115    0.06 6  275 256 
 HEL  HZ I        2332 37.89         8.3 0.36            112            275 256 
 GUY2CHZ EP       2332  4.26                             112    0.90 7  304 235 
 GUY2CHN ES   1   2332 37.64                             112   -0.08 5  304 235 
 GUY2CHZ I        2332 46.07        14.9 0.76                           304 235 
 RREF HZ EP   1   2332  6.71                             111    0.83 5  325 230 
 RREF HN ES   4   2332 44.61                             111    2.41 0  325 230 
 RREF HZ I        2332 47.82         9.6 0.24            108            325 230 
 CBOC HZ EP   1   2332  6.93                             110    0.25 5  337 252 
 CBOC HN ES   4   2332 42.17                             110   -1.47 0  337 252 
 CBOC HZ I        2332 59.42         3.2 0.54            107            337 252 
 TOL  SZ EP   1   2332  8.87                             109    0.90 5  346 225 
 TOL  SN ES   4   2332 47.22                             109    1.29 0  346 225 
 TOL  SZ I        2332 53.05        23.5 0.38            107            346 225 
 PRA  HZ EP   4   2332 10.58                             107   -2.59 0  394 210 
 PRA  HN ES   1   2332 55.95                             107    0.77 4  394 210 
 PRA  HZ I        2332 59.87         7.9 0.38            105            394 210 
 SJC  HN ES   4   2332 54.04                             106   -4.51 0  410 327 
 SJC  HZ I        2333  3.53         2.5 0.42            104            410 327 
                                                                                
