 2017  3 2 2034 51.2 L   6.759 -73.122138.7  RSN 10 0.3 1.8LRSN                1
 GAP=141        0.89       3.6     3.9  5.5 -0.8535E+00  0.4758E+01  0.1458E+01E
 Epicentro: LOS SANTOS - SANTANDER                                             3
 ACTION:UPD 17-05-25 18:35 OP:jn   STATUS:               ID:20170302203451 L   I
 OLDACT:UP  17-03-03 04:05 OP:edw  STATUS:               ID:20170302202745     3
 OLDACT:REG 17-03-03 03:14 OP:edw  STATUS:               ID:20170302202745     3
 2017-03-02-2028-00M.COL___397                                                 6
 STAT SP IPHASW D HRMM SECON CODA AMPLIT PERI AZIMU VELO AIN AR TRES W  DIS CAZ7
 BAR2 EZ EP       2035  9.80                             171   -0.1310 19.6 200 
 BAR2 EZ ES       2035 24.04                             171   -0.4810 19.6 200 
 BAR2 EZ I        2035 25.67        16.7 0.16            168           19.6 200 
 BRR  HZ IP     D 2035 11.84                             150   -0.0410 75.7 301 
 BRR  HN ES       2035 28.49                             150    0.4910 75.7 301 
 BRR  HZ I        2035 30.27        16.9 0.16            149           75.7 301 
 PAM  EZ EP       2035 12.79                             149   -0.0210 79.3  36 
 PAM  EN ES       2035 29.57                             149   -0.0810 79.3  36 
 PAM  EZ I        2035 30.24        10.6 0.34            153           79.3  36 
 RUS  HZ EP       2035 13.86                             144   -0.0810 95.9 177 
 RUS  HN ES       2035 32.08                             144    0.4110 95.9 177 
 RUS  HZ I        2035 33.10         8.2 0.26            142           95.9 177 
 PTB  HZ EP   9   2035 16.34                             130   -1.45 0  150 261 
 PTB  HN ES       2035 37.60                             131    0.54 9  150 261 
 PTB  HZ I        2035 41.20         8.3 0.10            129            150 261 
 ZAR  HZ EP       2035 24.24                             120    0.59 8  208 293 
 ZAR  HN ES       2035 48.45                             120   -0.50 8  208 293 
 ZAR  HZ I        2035 51.10         5.8 0.10            120            208 293 
 NOR  HZ EP   4   2035 25.24                             117   -1.27 0  234 236 
 NOR  HN ES       2035 53.92                             117   -0.11 8  234 236 
 NOR  HZ I        2035 59.23         5.0 0.16            117            234 236 
 CHI  HZ EP   4   2035 25.71                             116   -2.43 0  245 196 
 CHI  HN ES   4   2035 58.31                             116    1.37 0  245 196 
 CHI  HZ I        2036  1.85         1.8 0.50            116            245 196 
 URE  HZ EP   4   2035 34.10                             112    1.67 0  288 293 
 URE  HN ES   4   2036  2.08                             112   -2.48 0  288 293 
 URE  HZ I        2036  3.91         6.2 0.14            112            288 293 
 PRA  HZ EP   4   2035 46.07                             106    1.87 0  389 210 
 PRA  HN ES       2036 25.37                             106   -0.16 6  389 210 
 PRA  HZ I        2036 30.29         3.8 0.74            105            389 210 
                                                                                
