 2016  1 2 2256 36.7 L   6.824 -73.278144.3  RSN 12 0.3 2.2LRSN                1
 GAP=109        0.83       2.2     2.8  4.2 -0.8608E+00  0.3820E+01  0.3940E+00E
 Epicentro: ZAPATOCA - SANTANDER                                               3
 ACTION:UPD 16-03-09 23:22 OP:cam  STATUS:               ID:20160102225636 L   I
 OLDACT:REG 16-01-03 03:11 OP:cara STATUS:               ID:20160102224748     3
 2016-01-02-2247-48M.COL___314                                                 6
 STAT SP IPHASW D HRMM SECON CODA AMPLIT PERI AZIMU VELO AIN AR TRES W  DIS CAZ7
 BAR2 EZ IP       2256 56.34                             169    0.0610 27.8 158 
 BAR2 EZ ES       2257 11.40                             169   -0.1310 27.8 158 
 BAR2 EZ I        2257 12.29        23.9 0.24            171           27.8 158 
 BRR  HZ IP     C 2256 57.32                             157    0.3310 57.2 303 
 BRR  HN ES       2257 13.16                             157    0.3710 57.2 303 
 BRR  HZ I        2257 17.51        26.3 0.12            154           57.2 303 
 PAM  EZ EP       2256 59.62                             148    0.3110 85.6  48 
 PAM  EN ES       2257 17.17                             148    0.2610 85.6  48 
 PAM  EZ I        2257 19.23        30.1 0.56            151           85.6  48 
 RUS  HZ EP       2257  0.49                             142   -0.1910  105 168 
 RUS  HN ES       2257 18.99                             142   -0.3710  105 168 
 PTB  HZ IP     D 2257  2.01                             135   -0.3510  134 256 
 PTB  HE ES       2257 21.93                             135   -0.4110  134 256 
 PTB  HZ I        2257 23.84        26.8 0.16            134            134 256 
 OCA  HZ IP       2257  4.49                             130   -0.08 9  157 358 
 OCA  HN ES       2257 25.97                             130   -0.32 9  157 358 
 ZAR  HZ EP       2257  8.11                             124    0.52 9  190 293 
 ZAR  HN ES       2257 31.85                             124    0.19 9  190 293 
 ZAR  HZ I        2257 39.93        19.7 0.14            124            190 293 
 NOR  HZ EP       2257 11.18                             119   -0.11 8  225 232 
 NOR  HN ES       2257 38.58                             119    0.33 8  225 232 
 NOR  HZ I        2257 42.51        11.7 0.18            120            225 232 
 SML  HZ EP       2257 11.76                             118   -0.62 8  235 338 
 SML  HN ES       2257 40.12                             118   -0.07 8  235 338 
 SML  HZ I        2257 47.30        30.6 0.30            119            235 338 
 CHI  HZ EP       2257 14.37                             117    0.11 8  248 192 
 CHI  HN ES       2257 43.56                             117    0.03 8  248 192 
 CHI  HZ I        2257 49.58         4.6 0.30            119            248 192 
 HEL  HZ EP       2257 14.96                             116   -0.42 8  259 254 
 HEL  HN ES       2257 45.05                             116   -0.48 8  259 254 
 HEL  HZ I        2257 53.47        10.0 0.24            116            259 254 
 GUY2CHZ EP       2257 19.77                             113    0.65 7  291 233 
 GUY2CHN ES       2257 52.71                             113    0.53 7  291 233 
 GUY2CHZ I        2258  0.80         6.4 0.60                           291 233 
                                                                                
