 2011  4 2 2000 52.7 L   6.767 -73.017135.5  RSN  6 0.4 2.0LRSN                1
 GAP=213        0.97      11.8    14.3 14.8 -0.1313E+03 -0.9224E+02  0.1013E+03E
 Epicentro: CEPITA - SANTANDER                                                 3
 ACTION:UP  11-06-22 15:28 OP:REBC STATUS:               ID:20110402200052 L   I
 2011-04-02-2000-00M.COL___139                                                 6
 STAT SP IPHASW D HRMM SECON CODA AMPLIT PERI AZIMU VELO SNR AR TRES W  DIS CAZ7
 BAR2 SZ EP   2   20 1 11.33                             168     0.2 5   27 223 
 BAR2 SZ I        20 1 11.83        14.1 0.16                            27 223 
 BTL  SZ EP       20 1 11.68                             166     0.410   32 301 
 BRR  HZ EP   1   20 1 13.33                             146    -0.3 7   85 296 
 BRR  HZ I        20 1 15.06        25.4 0.19                            85 296 
 BRR  HE ES   1   20 1 30.11                             146     0.1 7   85 296 
 GRA  SZ EP   1   20 1 16.47                             135    -0.6 7  126  11 
 GRA  SZ ES   1   20 1 35.69                             135    -0.3 7  126  11 
 GRA  SZ I        20 1 39.21        11.2 0.45                           126  11 
 OCA  SZ EP   1   20 1 21.45                             126     0.7 7  166 348 
 OCA  SZ I        20 1 51.15        10.9 0.37                           166 348 
 RREF HZ EP   1   20 1 39.71                             108     0.3 5  330 231 
 RREF HE ES   1   20 2 15.18                             108    -0.7 5  330 231 
 RREF HZ I        20 2 23.16         7.4 0.37                           330 231 
                                                                                
