 2010  5 2 2127 58.2 L   6.795 -72.994146.5  RSN 11 0.5 2.8LRSN                1
 GAP=189        1.06       5.2     8.3  7.9 -0.2686E+02 -0.1405E+02  0.1558E+02E
 Epicentro: CEPITA - SANTANDER                                                 3
 ACTION:UP  10-08-24 10:02 OP:vdl  STATUS:               ID:20100502212758 L   I
 2010-05-02-2123-14S.COL___105                                                 6
 STAT SP IPHASW D HRMM SECON CODA AMPLIT PERI AZIMU VELO SNR AR TRES W  DIS CAZ7
 BAR2 SZ EP       2128 17.84                             168    -0.210   31 223 
 BAR2 SZ ES   1   2128 33.16                             168    -0.4 7   31 223 
 GIR2 SZ EP       2128 17.92                             165    -0.210   38 325 
 BRR  HZ EP       2128 20.30                             148     0.010   87 294 
 BRR  HN ES       2128 37.68                             148     0.110   87 294 
 BRR  HZ I        2128 40.01       201.1 0.32                            87 294 
 GUE  SZ EP       2128 22.85                             140     0.010  115   4 
 GRA  SZ EP       2128 23.63                             138     0.410  122  10 
 GRA  SZ ES   1   2128 43.41                             138     0.7 7  122  10 
 OCA  SZ EP       2128 26.41                             129    -0.5 9  164 347 
 OCA  SZ ES   2   2128 48.88                             129    -0.4 5  164 347 
 OCA  SZ I        2128 54.18        64.7 0.34                           164 347 
 CHI  HZ EP       2128 36.04                             117    -0.3 8  253 199 
 ROSC BZ EP   1   2128 38.71                             116     1.4 6  261 214 
 ROSC BN ES       2129  8.28                             116     0.5 8  261 214 
 ROSC BZ I        2129 12.90        22.0 0.08                           261 214 
 HEL  HZ EP   1   2128 39.99                             114    -0.2 5  288 257 
 HEL  HN ES   2   2129 13.21                             114     0.2 4  288 257 
 HEL  HZ I        2129 16.22        21.2 0.05                           288 257 
 RREF BN ES       2129 22.85                             110    -0.1 7  334 231 
 RREF BZ I        2129 29.58        46.0 1.60                           334 231 
 PRA  HZ EP       2128 52.02                             106    -0.6 6  400 212 
 PRA  HZ I        2128 52.41        23.9 0.12                           400 212 
                                                                                
