 2012 12 2 2000 10.5 L   6.784 -73.437117.3  RSN 16 0.5 3.5LRSN 3.6WRSN        1
 SPEC AVERAGE  MO 14.6 ST 36.1 OM  3.3 f0 4.14 R0.3657 AL 3.08 WI 15.9 MW  3.6 3
 SPEC SD       MO  0.1 ST 14.7 OM  0.6 f00.724 R0.0598 AL      WI      MW  0.1 3
 GAP= 49        1.02       3.2     3.3  6.2 -0.4055E+00  0.4512E+01 -0.5787E+00E
 Epicentro: EL CARMEN DE CHUCURI - SANTANDER                                   3
 SPEC ZAR HH N MO 14.7 ST 44.0 OM  3.0 f0 3.93 R0.3740 AL 1.81 WI 14.3 MW  3.8 3
 SPEC ZAR HH N T20 059 K 0.000 GD  210 VS 4.20 DE 3.20 Q0300.0 QA 0.60 VS 4.20 3
 SPEC PTB HH N MO 14.6 ST 18.8 OM  3.0 f0 3.21 R0.4579 AL 2.12 WI 16.1 MW  3.7 3
 SPEC PTB HH N T20 046 K 0.000 GD  164 VS 4.20 DE 3.20 Q0300.0 QA 0.60 VS 4.20 3
 SPEC TAM HH N MO 14.4 ST 60.7 OM  2.7 f0 5.43 R0.2707 AL 4.46 WI  9.7 MW  3.6 3
 SPEC TAM HH N T20 1 1 K 0.000 GD  219 VS 4.20 DE 3.20 Q0300.0 QA 0.60 VS 4.20 3
 SPEC COD HH E MO 14.5 ST 29.2 OM  2.5 f0 4.18 R0.3517 AL 3.21 WI 26.4 MW  3.6 3
 SPEC COD HH E T20 133 K 0.000 GD  368 VS 4.20 DE 3.20 Q0300.0 QA 0.60 VS 4.20 3
 SPEC CHI HH N MO 14.5 ST 27.9 OM  2.7 f0 3.93 R0.3740 AL 3.79 WI 12.9 MW  3.6 3
 SPEC CHI HH N T20 113 K 0.000 GD  267 VS 4.20 DE 3.20 Q0300.0 QA 0.60 VS 4.20 3
 ACTION:UPD 13-01-04 14:25 OP:ep   STATUS:               ID:20121202200010 L   I
 2012-12-02-2000-00M.COL___236                                                 6
 STAT SP IPHASW D HRMM SECON CODA AMPLIT PERI AZIMU VELO AIN AR TRES W  DIS CAZ7
 BAR2 SZ EP       20 0 27.40                             162    0.3110 35.3 127 
 BAR2 SZ ES   1   20 0 40.23                             162    0.20 7 35.3 127 
 BAR2 SZ I        20 0 41.41      2229.8 0.20                          35.3 127 
 GIR2 SZ EP     D 20 0 27.41                             159    0.1810 42.3  40 
 GIR2 SZ ES   1   20 0 40.83                             159    0.54 7 42.3  40 
 GIR2 SZ I        20 0 41.63      1064.4 0.52                          42.3  40 
 PAM  SZ EP   1   20 0 31.56                             136   -0.13 7  102  53 
 PAM  SZ I        20 0 51.31       256.0 0.26                           102  53 
 RUS  HZ EP   1   20 0 31.89                             135   -0.14 7  106 158 
 RUS  HN ES   1   20 0 48.68                             135   -0.15 7  106 158 
 RUS  HZ I        20 0 51.29       319.5 0.30                           106 158 
 PTB  HZ IP     C 20 0 31.46                             132   -0.7910  116 257 
 PTB  HN ES   1   20 0 47.75                             132   -1.47 7  116 257 
 PTB  HZ I        20 0 52.56       722.5 0.26                           116 257 
 OCA  HZ EP   1   20 0 36.50                             122   -0.39 7  161   5 
 OCA  HZ I        20 0 58.88       837.4 0.16                           161   5 
 ZAR  HZ EP   1   20 0 38.14                             120   -0.02 7  175 297 
 ZAR  HN ES   1   20 1  0.66                             120    0.93 7  175 297 
 ZAR  HZ I        20 1  4.77       703.6 0.40                           175 297 
 TAM  HZ IP     D 20 0 39.33                             118   -0.01 9  186 102 
 TAM  HN ES   1   20 1  1.52                             118   -0.32 7  186 102 
 TAM  HZ I        20 1  3.14       250.8 0.26                           186 102 
 NOR  HZ EP   1   20 0 41.45                             115   -0.32 6  208 230 
 NOR  HN ES   1   20 1  6.52                             115    0.36 6  208 230 
 NOR  HZ I        20 1 11.48       301.0 0.29                           208 230 
 CTAB SZ EP   4   20 0 44.77                             114    1.87 0  214 203 
 SML  HZ EP   1   20 0 43.83                             112   -0.74 6  234 343 
 SML  HN ES   1   20 1 11.87                             112    0.72 6  234 343 
 ROSC BZ EP   4   20 0 47.49                             112    2.16 0  236 205 
 HEL  HZ I        20 1 18.96       285.5 0.34                           240 254 
 CHI  HZ I        20 1 22.18        93.5 0.57                           240 188 
 HEL  HZ EP   1   20 0 46.86                             111    1.06 6  240 254 
 HEL  HN ES   1   20 1 13.18                             111   -0.15 6  240 254 
 CHI  HZ EP   1   20 0 46.17                             111    0.32 6  240 188 
 CHI  HN ES   1   20 1 13.66                             111    0.23 6  240 188 
 URE  HZ EP   4   20 0 46.08                             110   -0.93 0  255 295 
 URE  HN ES   4   20 1 13.78                             110   -1.71 0  255 295 
 CVER SZ EP   4   20 0 49.54                             110    1.38 0  260 196 
 VIL  SZ EP   1   20 0 52.25                             106    0.25 5  297 186 
 VIL  SZ I        20 1 28.91       219.4 0.32                           297 186 
 MON  HZ EP   4   20 0 54.23                             104   -1.54 0  330 312 
 MON  HN ES   4   20 1 29.26                             104   -1.82 0  330 312 
 MON  HZ I        20 1 31.65       105.9 0.22                           330 312 
 COD  HZ EP   1   20 0 57.78                             103   -0.16 5  349 360 
 COD  HE ES   1   20 1 35.04                             103    0.10 5  349 360 
 COD  HZ I        20 1 42.44        63.4 0.43                           349 360 
 PRA  HZ EP   1   20 1  1.50                             102    0.29 5  376 205 
 PRA  HE ES   1   20 1 41.40                             102    0.64 5  376 205 
 PRA  HZ I        20 1 50.29       136.6 0.36                           376 205 
                                                                                
