 2011  5 2 2355 54.4 L   6.777 -73.133149.3  RSN 11 0.3 3.6LRSN                1
 GAP=139        0.64       2.5     4.7  4.3 -0.5067E+01  0.4272E+01  0.1338E+01E
 Epicentro: LOS SANTOS - SANTANDER                                             3
 ACTION:UP  11-06-29 08:50 OP:tino STATUS:               ID:20110502235554 L   I
 2011-05-02-2354-20S.COL___131                                                 6
 STAT SP IPHASW D HRMM SECON CODA AMPLIT PERI AZIMU VELO SNR AR TRES W  DIS CAZ7
 BAR2 SZ IP       2356 14.39                             172     0.010   21 195 
 BAR2 SZ ES   1   2356 29.70                             172    -0.3 7   21 195 
 BAR2 SZ I        2356 31.24      1252.9 0.24                            21 195 
 BRR  HZ EP   1   2356 16.29                             152     0.2 7   74 300 
 BRR  HZ I        2356 16.59      1404.0 0.17                            74 300 
 BRR  HE ES   1   2356 33.32                             152     0.4 7   74 300 
 PAM  SZ EP   1   2356 17.21                             150     0.2 7   79  38 
 PAM  SN ES   1   2356 34.58                             150    -0.1 7   79  38 
 RUS  HZ EP   1   2356 18.33                             145     0.0 7   98 177 
 RUS  HN ES   1   2356 36.71                             145    -0.2 7   98 177 
 RUS  HZ I        2356 38.35       543.6 0.36                            98 177 
 BRI  SZ IP       2356 18.95                             141     0.210  110  20 
 BRI  SZ ES   1   2356 37.92                             141     0.2 7  110  20 
 GRA  SZ IP       2356 20.20                             137     0.110  128  16 
 GRA  SZ I        2356 21.39       419.3 0.36                           128  16 
 GRA  SZ ES   1   2356 40.38                             137     0.2 7  128  16 
 OCA  SZ EP   1   2356 22.61                             129    -0.6 7  163 353 
 OCA  SZ ES   1   2356 45.11                             129    -0.6 7  163 353 
 OCA  SZ I        2356 51.50       392.8 0.32                           163 353 
 NOR  SZ EP   1   2356 30.13                             119    -0.2 6  234 235 
 NOR  SN ES   2   2356 58.45                             119     0.2 4  234 235 
 HEL  HZ EP   1   2356 35.09                             115     0.2 6  273 256 
 HEL  HZ I        2357 13.04       116.7 0.26                           273 256 
 VIL  SZ EP   1   2356 37.87                             113     0.2 5  301 192 
 VIL  SN ES   1   2357 11.90                             113     0.4 5  301 192 
 VIL  SZ I        2357 22.84       116.1 0.49                           301 192 
 PRA  HZ EP   1   2356 47.40                             107    -0.4 4  390 210 
 PRA  HN ES   1   2357 29.06                             107    -0.5 4  390 210 
                                                                                
