 2016  3 2 2224 34.2 L   6.506 -73.527110.0  RSN  7 0.2 1.6LRSN                1
 GAP=129        0.48       2.2     2.1  3.4  0.6373E+00  0.2411E+01 -0.9141E+00E
 Epicentro: SANTA HELENA DEL OPON - SANTANDER                                  3
 ACTION:UPD 16-05-13 21:21 OP:cam  STATUS:               ID:20160302222434 L   I
 OLDACT:REG 16-03-03 02:05 OP:cara STATUS:               ID:20160302221751     3
 2016-03-02-2217-51M.COL___316                                                 6
 STAT SP IPHASW D HRMM SECON CODA AMPLIT PERI AZIMU VELO AIN AR TRES W  DIS CAZ7
 BAR2 EZ EP       2224 50.04                             159   -0.1210 39.3  76 
 BAR2 EZ ES       2225  2.57                             159   -0.0010 39.3  76 
 BAR2 EZ I        2225  4.14        29.9 0.44            162           39.3  76 
 RUS  HZ EP       2224 53.57                             140    0.2810 83.7 144 
 RUS  HE ES       2225  7.97                             140   -0.1710 83.7 144 
 RUS  HZ I        2225 10.23         3.3 0.36            143           83.7 144 
 PTB  HZ IP   9 C 2224 52.88                             133   -1.34 0  103 272 
 PTB  HE ES       2225  8.37                                   -0.1010  103 272 
 PTB  HZ I        2225 11.24         7.2 0.16            134            103 272 
 SPBC HZ EP       2224 55.37                             131    0.2210  112 213 
 SPBC HE ES       2225 11.49                             131    0.0310  112 213 
 NOR  HZ EP       2225  1.93                             116   -0.26 9  181 235 
 NOR  HN ES   4   2225 20.87                             116   -3.13 0  181 235 
 NOR  HZ I        2225 27.19         5.7 0.16            118            181 235 
 ZAR  HZ EP       2225  2.14                             116   -0.18 9  183 307 
 ZAR  HE ES       2225 24.36                             116    0.14 9  183 307 
 ZAR  HZ I        2225 26.52         7.5 0.38            118            183 307 
 GUY2CHZ EP   9   2225 10.12                             108   -0.11 0  248 235 
 GUY2CHE ES       2225 38.07                                   -0.13 8  248 235 
 GUY2CHZ I        2225 48.32         2.2 0.34                           248 235 
                                                                                
