 2012  2 2 2319  4.0 L   6.882 -73.176145.3  RSN 14 0.3 2.7LRSN                1
 GAP=128        0.70       3.0     3.5  4.5 -0.2677E+00  0.4076E+01  0.1912E+01E
 ACTION:UP  12-03-07 16:27 OP:epov STATUS:               ID:20120202231904 L   I
 2012-02-02-2317-59S.COL___188                                                 6
 STAT SP IPHASW D HRMM SECON CODA AMPLIT PERI AZIMU VELO SNR AR TRES W  DIS CAZ7
 GIR2 SZ EP       2319 23.42                             171    0.0110 21.8 355 
 BAR2 SZ EP       2319 23.82                             167    0.0310 32.1 181 
 BAR2 SZ ES   1   2319 39.39                             167    0.17 7 32.1 181 
 BAR2 SZ I        2319 40.97       112.0 0.38                          32.1 181 
 BRR  HZ IP     C 2319 25.18                             155    0.4510 64.2 293 
 BRR  HZ I        2319 26.08       133.4 0.14                          64.2 293 
 BRR  HN ES   1   2319 41.59                             155    0.70 7 64.2 293 
 PAM  SZ EP       2319 26.01                             152    0.0910 73.0  46 
 PAM  SN ES   1   2319 42.72                             152   -0.29 7 73.0  46 
 RUS  HZ EP       2319 28.39                             141   -0.0210  110 175 
 RUS  HN ES   1   2319 47.10                             141   -0.34 7  110 175 
 RUS  HZ I        2319 48.89        32.4 0.30                           110 175 
 PTB  HZ EP       2319 30.32                             132   -0.50 9  147 255 
 PTB  HN ES   1   2319 51.26                             132   -0.48 7  147 255 
 PTB  HZ I        2319 53.15        96.7 0.32                           147 255 
 OCA  SZ EP       2319 30.90                             132   -0.51 9  151 354 
 OCA  SZ I        2319 56.21        88.5 0.37                           151 354 
 ZAR  HZ EP   2   2319 35.75                             123   -0.01 4  198 290 
 ZAR  HZ I        2319 38.06       100.8 0.46                           198 290 
 ZAR  HN ES   1   2320  0.47                             123   -0.06 6  198 290 
 NOR  SZ EP       2319 40.05                             118    0.05 8  237 232 
 CHI  HZ EP       2319 42.88                             116    0.33 8  257 194 
 CHI  HN ES   1   2320 12.73                             116    0.12 6  257 194 
 CHI  HZ I        2320 17.63        16.9 0.36                           257 194 
 HEL  HZ EP   3   2319 44.82                             115    0.72 2  271 254 
 HEL  HN ES   3   2320 14.31                             115   -1.06 2  271 254 
 HEL  HZ I        2320 23.34        29.4 0.28                           271 254 
 RREF HZ EP   3   2319 50.75                             111    0.22 2  325 228 
 RREF HZ I        2320 38.37        26.1 0.62                           325 228 
 DBB  SZ EP       2319 51.39                             110    0.38 7  336 273 
 PRA  HZ EP       2319 58.27                             106    0.02 6  398 208 
                                                                                
