 2013  1 2 2054 34.3 L   6.755 -73.202148.2  RSN  5 0.3 1.5LRSN                1
 GAP=228        0.64       6.2     5.1  7.6  0.1734E+02  0.1215E+01 -0.3388E+01E
 Epicentro: VILLANUEVA - SANTANDER                                             3
 ACTION:UPD 13-02-15 09:11 OP:ep   STATUS:               ID:20130102205434 L   I
 2013-01-02-2050-00M.COL___242                                                 6
 STAT SP IPHASW D HRMM SECON CODA AMPLIT PERI AZIMU VELO AIN AR TRES W  DIS CAZ7
 BAR2 SZ EP   1   2054 53.91                             173   -0.17 8 18.1 173 
 BAR2 SZ ES   1   2055  9.15                             173   -0.39 8 18.1 173 
 BAR2 SZ I        2055  9.84        12.0 0.24            175           18.1 173 
 BRR  HZ EP   1   2054 55.51                             154    0.00 8 68.5 305 
 BRR  HE ES   1   2055 12.34                             154    0.24 8 68.5 305 
 BRR  HZ I        2055 15.57         8.1 0.37            151           68.5 305 
 RUS  HZ EP   1   2054 57.91                             145   -0.02 8 96.2 172 
 RUS  HN ES   1   2055 16.91                             145    0.50 8 96.2 172 
 RUS  HZ I        2055 18.44         2.4 0.40            148           96.2 172 
 PTB  HE ES       2055 21.21                             134   -0.2910  141 260 
 PTB  HZ I        2055 22.73         3.9 0.42            133            141 260 
 ZAR  HN ES   1   2055 32.01                             123    0.40 7  200 294 
 ZAR  HZ I        2055 37.89         2.9 0.34            123            200 294 
                                                                                
