 2016  9 2 2106 35.4 L   6.791 -73.150147.6  RSN  7 0.3 1.6LRSN                1
 GAP=136        0.75       3.6     3.4  7.1 -0.1946E+01  0.6866E+01 -0.1509E+01E
 Epicentro: LOS SANTOS - SANTANDER                                             3
 ACTION:UPD 17-08-17 21:05 OP:lp   STATUS:               ID:20160902210635 L   I
 OLDACT:REG 16-09-03 05:08 OP:and  STATUS:               ID:20160902205743     3
 2016-09-02-2058-00M.COL___356                                                 6
 STAT SP IPHASW D HRMM SECON CODA AMPLIT PERI AZIMU VELO AIN AR TRES W  DIS CAZ7
 BAR2 EZ EP       21 6 55.13                             171   -0.0710 22.3 189 
 BAR2 EZ ES   2   21 7 10.70                             171    0.03 5 22.3 189 
 BAR2 EZ I        21 7 11.87        10.7 0.30            172           22.3 189 
 PAM  EZ IP     D 21 6 58.11                             151    0.2710 78.5  39 
 PAM  EE ES       21 7 15.36                             151   -0.0110 78.5  39 
 PAM  EZ I        21 7 17.31         8.2 0.18            154           78.5  39 
 RUS  HZ EP       21 6 59.07                             144   -0.1610 99.6 176 
 RUS  HE ES       21 7 17.74                             144   -0.1110 99.6 176 
 RUS  HZ I        21 7 19.33         2.1 0.23            148           99.6 176 
 PTB  HZ EP       21 7  2.05                             133   -0.38 9  147 259 
 PTB  HE ES       21 7 23.08                             133   -0.45 9  147 259 
 PTB  HZ I        21 7 29.02         4.9 0.18            134            147 259 
 SPBC HZ EP   2   21 7  4.26                             130    0.35 5  162 219 
 SPBC HN ES       21 7 26.76                             130    0.59 9  162 219 
 ZAR  HE ES       21 7 33.64                             123    0.32 9  204 292 
 GUY2CHZ EP   4   21 7 21.64                             113    2.69 0  300 235 
 GUY2CHE ES   4   21 7 56.00                             113    3.05 0  300 235 
 GUY2CHZ I        21 8  2.04         3.1 0.38                           300 235 
                                                                                
