 2012  2 2 2240 34.0 L   6.757 -73.196152.6  RSN  4 0.2 1.5LRSN                1
 GAP=228        0.33       6.1     5.9  6.1 -0.4347E+01 -0.3580E+01  0.7217E+01E
 ACTION:UP  12-03-07 16:27 OP:epov STATUS:               ID:20120202224034 L   I
 2012-02-02-2240-00M.COL___188                                                 6
 STAT SP IPHASW D HRMM SECON CODA AMPLIT PERI AZIMU VELO SNR AR TRES W  DIS CAZ7
 BRR  HZ EP       2240 55.80                             154   -0.0110 68.9 304 
 BRR  HN ES   2   2241 12.76                             154   -0.03 5 68.9 304 
 BRR  HZ I        2241 17.87        31.0 0.38                          68.9 304 
 RUS  HZ EP   3   2240 57.59                             146   -0.58 2 96.4 173 
 RUS  HZ I        2241 11.46         1.4 0.48                          96.4 173 
 RUS  HN ES   3   2241 17.25                             146    0.25 2 96.4 173 
 PTB  HZ EP       2241  1.10                             135    0.09 9  141 260 
 PTB  HN ES   2   2241 21.92                             135   -0.14 5  141 260 
 PTB  HZ I        2241 29.27         3.4 0.34                           141 260 
 ZAR  HZ EP   3   2241  6.29                             124   -0.31 2  201 294 
                                                                                
