 2012  7 2 2155 19.0 L   6.768 -73.135152.0  RSN  4 0.4 1.3LRSN                1
 GAP=139        0.63       9.2    14.6 11.9  0.7015E+02  0.3360E+02  0.2855E+01E
 Epicentro: LOS SANTOS - SANTANDER                                             3
 ACTION:UPD 12-08-14 11:42 OP:ep   STATUS:               ID:20120702215519 L   I
 2012-07-02-2150-00M.COL___201                                                 6
 STAT SP IPHASW D HRMM SECON CODA AMPLIT PERI AZIMU VELO AIN AR TRES W  DIS CAZ7
 BRR  HZ EP       2155 41.06                             153     0.110   74 301 
 BRR  HZ I        2155 58.41         7.1 0.16                            74 301 
 BRR  HN ES   2   2155 58.43                             153     0.3 5   74 301 
 PAM  SN ES   3   2155 59.13                             151    -0.8 2   79  37 
 RUS  HZ EP   2   2155 43.45                             146     0.3 5   97 177 
 RUS  HZ I        2155 44.31         1.5 0.14            105             97 177 
 RUS  HN ES   2   2156  1.83                             146    -0.1 5   97 177 
 PTB  HZ EP   2   2155 45.76                             134    -0.8 5  148 260 
