 2013  1 2 2103 40.3 L   6.740 -73.175150.2  RSN  5 0.3 1.7LRSN                1
 GAP=229        0.66       6.8     6.2  6.4  0.2633E+02  0.5103E+01 -0.3719E+01E
 Epicentro: VILLANUEVA - SANTANDER                                             3
 ACTION:UPD 13-02-15 09:11 OP:ep   STATUS:               ID:20130102210340 L   I
 2013-01-02-2100-00M.COL___242                                                 6
 STAT SP IPHASW D HRMM SECON CODA AMPLIT PERI AZIMU VELO AIN AR TRES W  DIS CAZ7
 BAR2 SZ EP   1   21 4  0.21                             174   -0.13 7 16.3 183 
 BAR2 SZ ES   1   21 4 15.43                             174   -0.54 7 16.3 183 
 BRR  HZ EP   1   21 4  2.11                             153    0.15 7 71.9 304 
 BRR  HN ES   1   21 4 19.44                             153    0.58 7 71.9 304 
 BRR  HZ I        21 4 23.12        11.5 0.20            148           71.9 304 
 RUS  HZ EP   1   21 4  4.44                             146    0.39 7 94.2 174 
 RUS  HN ES   1   21 4 22.56                             146   -0.01 7 94.2 174 
 RUS  HZ I        21 4 23.94         6.4 0.24            147           94.2 174 
 PTB  HZ EP   1   21 4  7.05                             134   -0.19 7  143 261 
 PTB  HN ES   1   21 4 28.41                             134    0.15 7  143 261 
 PTB  HZ I        21 4 35.60         6.7 0.28            131            143 261 
 ZAR  HZ EP   1   21 4 12.80                             123   -0.20 6  204 294 
 ZAR  HE ES   1   21 4 38.15                             123   -0.35 6  204 294 
 ZAR  HZ I        21 4 45.59         5.8 0.46            123            204 294 
                                                                                
