 2013  2 2 2028 35.9 L   7.349 -73.639 97.5  RSN  7 0.4 1.9LRSN                1
 GAP=103        0.78       3.5     3.2  7.5  0.4333E+00  0.1362E+01  0.2224E+01E
 Epicentro: SABANA DE TORRES - SANTANDER                                       3
 ACTION:UPD 13-03-12 09:30 OP:ep   STATUS:               ID:20130202202835 L   I
 2013-02-02-2026-49M.COL___197                                                 6
 STAT SP IPHASW D HRMM SECON CODA AMPLIT PERI AZIMU VELO AIN AR TRES W  DIS CAZ7
 BRR  HZ EP   1   2028 49.34                             163   -0.20 7 27.9 197 
 BRR  HN ES   1   2029  0.01                             163   -0.19 7 27.9 197 
 BRR  HZ I        2029  1.28        47.9 0.64            160           27.9 197 
 BAR2 SZ EP   1   2028 54.60                             132   -0.08 7 97.7 149 
 BAR2 SZ ES   1   2029  9.72                             132    0.39 7 97.7 149 
 BAR2 SZ I        2029 12.13        28.3 0.22            131           97.7 149 
 PAM  SZ EP   1   2028 55.70                             130    0.13 7  104  91 
 PAM  SN ES   1   2029 10.99                             130    0.06 7  104  91 
 PAM  SZ I        2029 12.65        29.7 0.42            130            104  91 
 OCA  HE ES   1   2029 10.03                             130   -0.23 7  105  20 
 PTB  HN ES   1   2029 13.23                             124   -0.70 7  127 225 
 ZAR  HZ EP   1   2028 58.06                             122   -0.05 7  135 277 
 ZAR  HN ES   1   2029 16.31                             122    0.86 7  135 277 
 ZAR  HZ I        2029 17.56        12.3 0.26            122            135 277 
 RUS  HZ EP   1   2029  2.34                             116   -0.40 7  172 159 
 RUS  HE ES   1   2029 24.14                             116    0.45 7  172 159 
 RUS  HZ I        2029 27.34         4.1 0.16            114            172 159 
                                                                                
