 2017  2 2 2323 38.3 L   6.721 -73.233150.0  RSN  4 0.3 1.3LRSN                1
 GAP=221        0.49       5.8     8.1  5.8  0.3826E+02 -0.2894E+02 -0.1749E+02E
 Epicentro: VILLANUEVA - SANTANDER                                             3
 ACTION:UPD 17-05-24 15:32 OP:jn   STATUS:               ID:20170202232338 L   I
 OLDACT:UP  17-02-03 05:41 OP:cog  STATUS:               ID:20170202231744     3
 OLDACT:REG 17-02-03 04:38 OP:cog  STATUS:               ID:20170202231744     3
 2017-02-02-2318-00M.COL___325                                                 6
 STAT SP IPHASW D HRMM SECON CODA AMPLIT PERI AZIMU VELO AIN AR TRES W  DIS CAZ7
 BRR  HZ EP       2323 59.66                             155   -0.0610 68.1 309 
 BRR  HE ES       2324 16.58                             155    0.1410 68.1 309 
 BRR  HZ I        2324 22.37        11.0 0.40            151           68.1 309 
 RUS  HZ EP       2324  1.71                             148   -0.2210 93.0 170 
 RUS  HN ES       2324 20.54                             148    0.1610 93.0 170 
 RUS  HZ I        2324 20.97         1.8 0.34            153           93.0 170 
 PTB  HZ EP   9   2324  4.36                             136   -0.28 0  137 262 
 PTB  HN ES       2324 24.89                                   -0.03 9  137 262 
 PTB  HZ I        2324 26.36         1.7 0.22            136            137 262 
 ZAR  HZ EP   3   2324 11.66                             125    1.18 2  199 296 
 ZAR  HN ES   2   2324 35.25                             125   -0.34 4  199 296 
 ZAR  HZ I        2324 42.36         1.9 0.00            124            199 296 
                                                                                
