 2015  2 2 2313 41.7 L   6.772 -73.110148.6  RSN 10 0.3 2.0LRSN                1
 GAP=142        0.74       2.6     3.5  4.9 -0.1505E+01  0.5654E+01 -0.2009E+01E
 Epicentro: LOS SANTOS - SANTANDER                                             3
 ACTION:UPD 15-04-30 21:20 OP:nd   STATUS:               ID:20150202231341 L   I
 OLDACT:REG 15-02-03 03:44 OP:spq  STATUS:               ID:20150202230749     3
 2015-02-02-2307-49M.COL___265                                                 6
 STAT SP IPHASW D HRMM SECON CODA AMPLIT PERI AZIMU VELO AIN AR TRES W  DIS CAZ7
 BAR2 EZ EP   1   2314  1.56                             171   -0.09 7 21.4 202 
 BAR2 EZ ES   1   2314 16.68                             171   -0.51 7 21.4 202 
 BAR2 EZ I        2314 17.52        21.6 0.42            170           21.4 202 
 BRR  HZ EP       2314  3.79                             151    0.3410 76.1 299 
 BRR  HN ES       2314 20.63                             151    0.2310 76.1 299 
 BRR  HZ I        2314 25.20        22.8 0.12            149           76.1 299 
 PAM  SZ EP     D 2314  4.59                             151    0.3510 77.5  36 
 PAM  SE ES       2314 21.90                             151    0.1010 77.5  36 
 PAM  SZ I        2314 22.79         9.1 0.22            154           77.5  36 
 RUS  HZ EP   1   2314  5.97                             145    0.46 7 97.2 178 
 RUS  HE ES       2314 23.87                             145   -0.2010 97.2 178 
 RUS  HZ I        2314 24.83         9.1 0.26            148           97.2 178 
 PTB  HZ EP       2314  8.77                             132   -0.44 9  151 260 
 PTB  HN ES   4   2314 29.30                             132   -1.35 0  151 260 
 PTB  HZ I        2314 31.66         8.4 0.16            132            151 260 
 SPBC HZ EP   1   2314 10.20                             130   -0.24 7  163 221 
 SPBC HN ES   1   2314 32.72                             130   -0.12 7  163 221 
 SPBC HZ I        2314 39.55         9.5 0.28            131            163 221 
 OCA  HZ EP   1   2314 10.62                             130    0.04 7  164 352 
 OCA  HE ES   1   2314 32.56                             130   -0.54 7  164 352 
 OCA  HZ I        2314 36.92        15.9 0.20            131            164 352 
 ZAR  HZ EP   1   2314 14.67                             122   -0.17 6  209 293 
 ZAR  HN ES       2314 40.76                             122    0.09 8  209 293 
 ZAR  HZ I        2314 46.69        13.9 0.52            123            209 293 
 NOR  HN ES       2314 46.25                             119    0.38 8  236 236 
 NOR  HZ I        2314 47.65         5.1 0.48            120            236 236 
 SML  HZ EP       2314 18.46                             118   -0.53 8  248 335 
 SML  HE ES   1   2314 48.39                             118    0.33 6  248 335 
 SML  HZ I        2314 52.54        17.3 0.10            119            248 335 
 MON  HZ EP   4   2314 29.51                             109   -1.89 0  359 308 
                                                                                
