 2010 11 2 2332 38.8 L   6.804 -73.140148.3  RSN  8 0.3 1.8LRSN                1
 GAP=159        0.58       4.2     6.8  5.7 -0.7536E+01  0.1102E+02  0.3345E+01E
 Epicentro: LOS SANTOS - SANTANDER                                             3
 ACTION:UP  10-12-17 16:49 OP:REBC STATUS:               ID:20101102233238 L   I
 2010-11-02-2329-14S.COL___128                                                 6
 STAT SP IPHASW D HRMM SECON CODA AMPLIT PERI AZIMU VELO SNR AR TRES W  DIS CAZ7
 BTL  SZ EP   1   2332 58.83                             172     0.2 7   19 312 
 BTL  SZ ES   2   2333 14.22                             172     0.1 5   19 312 
 BAR2 SZ EP   1   2332 58.80                             170     0.0 7   24 191 
 BAR2 SZ ES   2   2333 13.93                             170    -0.4 5   24 191 
 BAR2 SZ I        2333 17.14         9.9 0.51                            24 191 
 BRR  HZ EP   1   2333  0.36                             153     0.1 7   72 298 
 BRR  HN ES   2   2333 17.47                             153     0.5 5   72 298 
 BRR  HZ I        2333 20.36        14.0 0.42                            72 298 
 RUS  HZ EP   1   2333  3.00                             144     0.1 7  101 176 
 RUS  HE ES   2   2333 21.62                             144     0.0 5  101 176 
 RUS  HZ I        2333 23.53         5.0 0.35                           101 176 
 GRA  SZ EP   1   2333  4.26                             138     0.0 7  125  17 
 GRA  SZ ES   2   2333 23.52                             138    -0.5 5  125  17 
 GRA  SZ I        2333 26.49        15.4 0.37                           125  17 
 NOR  SZ EP   1   2333 14.22                             119    -0.6 6  236 235 
 HEL  HZ EP   1   2333 19.20                             115     0.0 6  273 256 
 HEL  HZ I        2333 58.20         5.1 0.34                           273 256 
 PRA  HZ EP   1   2333 33.13                             107     0.6 4  393 210 
 PRA  HN ES   2   2334 13.68                             107    -0.7 3  393 210 
                                                                                
