 2016 11 2 2159 38.5 L   6.313 -73.580111.0  RSN  7 0.2 1.6LRSN                1
 GAP= 87        0.57       2.1     2.3  4.0  0.7160E+00  0.3368E+01  0.1135E+00E
 Epicentro: SANTA HELENA DEL OPON - SANTANDER                                  3
 ACTION:UPD 17-10-26 21:04 OP:lp   STATUS:               ID:20161102215938 L   I
 OLDACT:REG 16-11-03 03:44 OP:cara STATUS:               ID:20161102215747     3
 2016-11-02-2158-00M.COL___346                                                 6
 STAT SP IPHASW D HRMM SECON CODA AMPLIT PERI AZIMU VELO AIN AR TRES W  DIS CAZ7
 BAR2 EZ EP       2159 55.35                             152    0.1110 53.7  55 
 BAR2 EZ ES       22 0  8.65                             152    0.3410 53.7  55 
 BAR2 EZ I        22 0  9.50        20.6 0.44            154           53.7  55 
 RUS  HZ EP       2159 56.83                             145    0.0710 71.9 130 
 RUS  HN ES       22 0 10.70                             145   -0.3110 71.9 130 
 RUS  HZ I        22 0 12.38         4.6 0.16            148           71.9 130 
 BRR  HZ EP       2159 57.11                             138   -0.2510 89.1 351 
 BRR  HN ES       22 0 12.09                             138   -0.0010 89.1 351 
 SPBC HZ EP       2159 57.70                             138    0.0410 91.1 217 
 SPBC HN ES       22 0 12.54                             138   -0.0810 91.1 217 
 SPBC HZ I        22 0 14.04        11.5 0.10            139           91.1 217 
 PTB  HZ EP   4   2159 57.34                             135   -0.98 0  100 285 
 PTB  HN ES       22 0 13.79                             135   -0.0010  100 285 
 PTB  HZ I        22 0 15.29         8.8 0.20            135            100 285 
 ZAR  HZ EP       22 0  7.35                             115   -0.28 9  192 313 
 ZAR  HE ES       22 0 30.39                             115    0.03 9  192 313 
 ZAR  HZ I        22 0 35.12         6.8 0.28            116            192 313 
 GUY2CHZ EP       22 0 13.04                             111    0.41 8  231 239 
 GUY2CHE ES   4   22 0 40.54                             111    1.28 0  231 239 
 GUY2CHZ I        22 0 45.35         1.6 0.20                           231 239 
                                                                                
