 2010  8 2 2106 24.7 L   6.804 -73.065145.9  RSN  4 0.3 1.5LRSN                1
 GAP=168        0.43       8.2    15.7  6.8  0.8450E+02 -0.2200E+02 -0.2289E+02E
 Epicentro: LOS SANTOS - SANTANDER                                             3
 ACTION:UP  10-09-07 10:51 OP:vdl  STATUS:               ID:20100802210624 L   I
 2010-08-02-2103-22S.COL___122                                                 6
 STAT SP IPHASW D HRMM SECON CODA AMPLIT PERI AZIMU VELO SNR AR TRES W  DIS CAZ7
 BAR2 SZ EP   1   21 6 44.37                             170     0.0 7   27 209 
 BAR2 SZ ES   1   21 6 59.68                             170    -0.1 7   27 209 
 BAR2 SZ I        21 7  1.18         7.6 0.35                            27 209 
 BRR  HZ EP   1   21 6 46.17                             151    -0.1 7   79 295 
 BRR  HZ I        21 6 46.59         8.3 0.07                            79 295 
 BRR  HN ES   3   21 7  3.95                             151     0.8 2   79 295 
 RUS  HZ EP   2   21 6 48.74                             145     0.3 5  101 181 
 RUS  HE ES   2   21 7  7.00                             145     0.0 5  101 181 
 RUS  HZ I        21 7  8.27         3.4 0.21                           101 181 
 GRA  SZ EP   3   21 6 50.16                             138     0.5 2  123  14 
                                                                                
