 2013  1 2 2040 54.7 L   6.732 -73.223146.9  RSN  4 0.3 1.4LRSN                1
 GAP=216        0.70       7.6     7.4  7.8  0.2980E+02  0.1234E+02  0.6831E+01E
 Epicentro: VILLANUEVA - SANTANDER                                             3
 ACTION:UPD 13-02-15 09:11 OP:ep   STATUS:               ID:20130102204054 L   I
 2013-01-02-2040-00M.COL___242                                                 6
 STAT SP IPHASW D HRMM SECON CODA AMPLIT PERI AZIMU VELO AIN AR TRES W  DIS CAZ7
 BAR2 SZ ES   1   2041 29.09                             173   -0.61 7 16.0 164 
 BAR2 SZ I        2041 30.26        12.3 0.38            171           16.0 164 
 BRR  HZ EP   1   2041 15.81                             154   -0.03 7 68.2 308 
 BRR  HN ES   1   2041 32.79                             154    0.49 7 68.2 308 
 BRR  HZ I        2041 34.45         7.7 0.18            153           68.2 308 
 RUS  HZ EP   1   2041 18.14                             146    0.00 7 94.1 171 
 RUS  HN ES   1   2041 36.79                             146    0.39 7 94.1 171 
 RUS  HZ I        2041 38.24         2.1 0.22            146           94.1 171 
 PTB  HZ EP   1   2041 20.84                             134   -0.09 7  138 261 
 PTB  HN ES   1   2041 41.18                             134   -0.18 7  138 261 
 PTB  HZ I        2041 44.25         2.5 0.16            134            138 261 
                                                                                
