 2012 12 2 2148 19.5 L   6.797 -73.228139.1  RSN  5 0.2 1.2LRSN                1
 GAP=123        0.50       3.6     4.0  5.4 -0.4329E+01  0.9504E+00  0.1315E+01E
 Epicentro: ZAPATOCA - SANTANDER                                               3
 ACTION:UPD 13-01-04 14:25 OP:ep   STATUS:               ID:20121202214819 L   I
 2012-12-02-2147-37M.COL___204                                                 6
 STAT SP IPHASW D HRMM SECON CODA AMPLIT PERI AZIMU VELO AIN AR TRES W  DIS CAZ7
 BAR2 SZ ES   1   2148 53.39                             170    0.36 7 23.2 167 
 GIR2 SZ EP   1   2148 38.58                             167    0.17 7 31.4   7 
 GIR2 SZ ES   1   2148 53.21                             167    0.07 7 31.4   7 
 GIR2 SZ I        2148 54.90         3.8 0.28                          31.4   7 
 PAM  SZ EP   1   2148 41.57                             147    0.13 7 83.8  44 
 PAM  SN ES   1   2148 58.15                             147   -0.38 7 83.8  44 
 PAM  SZ I        2148 59.31         2.8 0.20                          83.8  44 
 RUS  HZ EP   1   2148 42.67                             142    0.00 7  101 171 
 RUS  HE ES   1   2149  0.54                             142   -0.19 7  101 171 
 RUS  HZ I        2149  1.75         1.5 0.20                           101 171 
 PTB  HN ES   1   2149  4.92                             132   -0.18 7  139 258 
 PTB  HZ I        2149  8.26         3.5 0.16                           139 258 
                                                                                
