 2013  8 2 2116 19.1 L   6.798 -73.156139.2  RSN 14 0.5 2.7LRSN                1
 GAP=135        1.09       3.0     4.3  5.8 -0.1743E+01  0.7054E+01  0.1598E+01E
 Epicentro: LOS SANTOS - SANTANDER                                             3
 ACTION:UPD 14-01-14 08:58 OP:ep   STATUS:               ID:20130802211619 L   I
 OLDACT:UP  13-08-02 22:52 OP:mh   STATUS:               ID:20130802210959     3
 OLDACT:REG 13-08-02 21:40 OP:mh   STATUS:               ID:20130802210959     3
 2013-08-02-2109-59M.COL___270                                                 6
 STAT SP IPHASW D HRMM SECON CODA AMPLIT PERI AZIMU VELO AIN AR TRES W  DIS CAZ7
 BAR2 SZ IP     D 2116 38.07                             170    0.1010 23.0 187 
 BAR2 SZ ES   1   2116 52.63                             170   -0.03 7 23.0 187 
 BAR2 SZ I        2116 53.94        73.3 0.22            169           23.0 187 
 GIR2 SZ EP     C 2116 38.18                             167    0.1510 31.3 352 
 GIR2 SZ ES   1   2116 52.66                             167   -0.11 7 31.3 352 
 GIR2 SZ I        2116 55.22        51.3 0.28            167           31.3 352 
 BRR  HZ IP     C 2116 39.99                             152    0.4610 70.3 299 
 BRR  HN ES       2116 56.28                             152    0.8510 70.3 299 
 BRR  HZ I        2116 58.39        59.3 0.16            150           70.3 299 
 PAM  SZ EP       2116 41.00                             149    0.2910 78.2  40 
 PAM  SN ES       2116 57.53                             149   -0.0110 78.2  40 
 PAM  SN I        2116 59.32        58.8 0.22            153           78.2  40 
 RUS  HZ EP   1   2116 42.40                             142    0.16 7  100 175 
 RUS  HN ES       2116 59.68                             142   -0.5810  100 175 
 RUS  HZ I        2117  1.14        35.2 0.52            144            100 175 
 PTB  HZ EP       2116 44.98                             131   -0.49 9  147 259 
 PTB  HN ES       2117  5.41                             131   -0.60 9  147 259 
 PTB  HN I        2117  7.96        85.0 0.18            130            147 259 
 OCA  HZ EP   1   2116 46.39                             128   -0.56 7  160 354 
 OCA  HN ES   1   2117  8.04                             128   -0.60 7  160 354 
 OCA  HN I        2117 11.63       395.3 0.34            130            160 354 
 SPBC HZ EP   1   2116 47.11                             128    0.05 7  162 219 
 SPBC HN ES       2117  8.39                             128   -0.45 9  162 219 
 SPBC HN I        2117 14.16        56.8 0.12            128            162 219 
 ZAR  HZ EP   1   2116 50.89                             121   -0.17 6  203 292 
 ZAR  HN ES       2117 16.78                             121    0.82 9  203 292 
 ZAR  HN I        2117 22.70       101.6 0.38            122            203 292 
 NOR  HZ EP   1   2116 54.79                             117    0.41 6  234 234 
 NOR  HN ES   1   2117 21.39                             117   -0.48 6  234 234 
 NOR  HN I        2117 27.13        34.1 0.16            118            234 234 
 SML  HZ EP   1   2116 54.53                             116   -0.84 6  243 336 
 SML  HN ES   1   2117 22.77                             116   -0.86 6  243 336 
 CHI  HZ EP   1   2116 57.23                             116    0.80 6  248 195 
 CHI  HN ES       2117 26.18                             116    0.67 8  248 195 
 CHI  HN I        2117 31.69        22.9 0.48            117            248 195 
 GUY2CHZ EP   4   2117  4.05                             111    1.72 0  300 235 
 GUY2CHN ES   4   2117 36.25                             111    0.23 0  300 235 
 DBB  SZ EP       2117  6.38                             108    0.16 7  338 274 
 PRA  HZ EP   1   2117 12.70                             105    0.35 4  391 209 
 PRA  HN ES       2117 53.38                             105   -0.48 6  391 209 
 PRA  HN I        2117 58.79         9.3 0.56            106            391 209 
 SJC  HZ EP   4   2117 12.98                             105   -1.45 0  409 327 
 SJC  HN ES   4   2117 53.84                             105   -3.73 0  409 327 
                                                                                
