 2016 10 2 2055 34.8 L   6.817 -73.119146.6  RSN  6 0.3 1.5LRSN                1
 GAP=139        0.83       3.5     4.7  6.5 -0.2821E+01  0.7535E+01  0.3523E+01E
 Epicentro: LOS SANTOS - SANTANDER                                             3
 ACTION:UPD 16-11-09 19:15 OP:rebc STATUS:               ID:20161002205534 L   I
 OLDACT:DUP 16-10-03 07:41 OP:ar   STATUS:               ID:20161002204746d    3
 OLDACT:UP  16-10-03 07:39 OP:ar   STATUS:               ID:20161002204745     3
 OLDACT:REG 16-10-03 07:22 OP:ar   STATUS:               ID:20161002204745     3
 2016-10-02-2048-00M.COL___381                                                 6
 STAT SP IPHASW D HRMM SECON CODA AMPLIT PERI AZIMU VELO AIN AR TRES W  DIS CAZ7
 BAR2 EZ EP       2055 54.87                             170    0.2610 25.9 196 
 BAR2 EZ ES       2056 10.60                             170    0.5610 25.9 196 
 BAR2 EZ I        2056 12.19        11.0 0.30            171           25.9 196 
 PAM  EZ EP       2055 57.28                             152    0.3410 74.0  39 
 PAM  EN ES       2056 13.68                             152   -0.5010 74.0  39 
 PAM  EZ I        2056 17.50         4.0 0.52            153           74.0  39 
 RUS  HZ EP       2055 58.56                             143   -0.2310  102 178 
 RUS  HN ES       2056 17.22                             143   -0.2610  102 178 
 RUS  HZ I        2056 18.38         3.8 0.30            147            102 178 
 SPBC HN ES       2056 26.03                             129   -0.21 9  167 219 
 ZAR  HN ES       2056 32.94                             122   -0.11 8  206 291 
 ZAR  HZ I        2056 38.31         2.9 0.24            123            206 291 
 CHI  HZ EP       2056 12.85                             117   -0.01 8  251 196 
 CHI  HE ES       2056 42.66                             117    0.14 8  251 196 
                                                                                
