 2015  2 2 2024  8.4 L   6.768 -73.147150.9  RSN  5 0.1 1.3LRSN                1
 GAP=138        0.37       2.5     2.0  4.6 -0.1020E+01  0.2313E+01  0.3781E+00E
 Epicentro: LOS SANTOS - SANTANDER                                             3
 ACTION:UPD 15-04-30 21:20 OP:nd   STATUS:               ID:20150202202408 L   I
 OLDACT:REG 15-02-03 03:31 OP:spq  STATUS:               ID:20150202201745     3
 2015-02-02-2017-45M.COL___271                                                 6
 STAT SP IPHASW D HRMM SECON CODA AMPLIT PERI AZIMU VELO AIN AR TRES W  DIS CAZ7
 BAR2 EZ EP   2   2024 28.55                             172    0.00 5 19.8 192 
 PAM  SZ EP       2024 31.38                             151    0.0910 80.2  38 
 PAM  SN ES       2024 49.13                             151   -0.0510 80.2  38 
 PAM  SZ I        2024 50.51         2.0 0.20            152           80.2  38 
 RUS  HZ EP   1   2024 32.48                             146    0.10 7 97.0 176 
 RUS  HN ES   1   2024 50.98                             146   -0.13 7 97.0 176 
 RUS  HZ I        2024 52.03         1.5 0.38            149           97.0 176 
 PTB  HZ EP   1   2024 35.45                             133   -0.24 7  147 260 
 PTB  HE ES       2024 57.18                             133    0.18 9  147 260 
 PTB  HZ I        2024 59.00         2.8 0.12            133            147 260 
 ZAR  HE ES   1   2025  6.81                             123   -0.14 6  205 293 
 ZAR  HZ I        2025 13.20         3.5 0.32            123            205 293 
                                                                                
