 2012 11 2 2255 50.8 L   6.771 -73.112137.6  RSN  4 0.2 1.9LRSN                1
 GAP=142        0.47       3.1     4.3  4.7 -0.4435E+00 -0.1084E+01 -0.6907E+00E
 Epicentro: LOS SANTOS - SANTANDER                                             3
 ACTION:UPD 12-12-05 15:31 OP:}ep  STATUS:               ID:20121102225550 L   I
 2012-11-02-2250-00M.COL___232                                                 6
 STAT SP IPHASW D HRMM SECON CODA AMPLIT PERI AZIMU VELO AIN AR TRES W  DIS CAZ7
 BAR2 SZ EP       2256  9.38                             171   -0.0310 21.3 201 
 BAR2 SZ ES   1   2256 23.57                             171   -0.35 7 21.3 201 
 BAR2 SZ I        2256 25.41        32.6 0.24                          21.3 201 
 BRR  HZ EP       2256 11.19                             149   -0.1810 76.0 299 
 BRR  HZ I        2256 19.21        13.1 0.35                          76.0 299 
 BRR  HN ES   1   2256 27.68                             149    0.28 7 76.0 299 
 PAM  SZ EP       2256 12.27                             149    0.1010 77.6  36 
 PAM  SN ES   1   2256 28.88                             149    0.04 7 77.6  36 
 PAM  SZ I        2256 31.31        12.4 0.44                          77.6  36 
 RUS  HZ EP   1   2256 13.53                             143    0.02 7 97.2 178 
 RUS  HN ES   1   2256 31.44                             143    0.22 7 97.2 178 
 RUS  HN I        2256 33.82        15.8 0.39                          97.2 178 
                                                                                
