 2015  3 2 2202 29.0 L   7.166 -73.460 81.0  RSN  4 0.4 1.5LRSN                1
 GAP=102        0.84       4.1     4.1 13.6 -0.6970E+01  0.3476E+02 -0.3568E+02E
 Epicentro: SABANA DE TORRES - SANTANDER                                       3
 ACTION:UPD 15-04-30 16:22 OP:nd   STATUS:               ID:20150302220229 L   I
 OLDACT:UP  15-03-03 05:54 OP:mh   STATUS:               ID:20150302215748     3
 OLDACT:REG 15-03-03 03:40 OP:mh   STATUS:               ID:20150302215748     3
 2015-03-02-2157-48M.COL___296                                                 6
 STAT SP IPHASW D HRMM SECON CODA AMPLIT PERI AZIMU VELO AIN AR TRES W  DIS CAZ7
 BAR2 EZ EP   1   22 2 43.81                             135   -0.10 7 70.5 154 
 BAR2 EZ ES       22 2 55.11                             135   -0.4610 70.5 154 
 BAR2 EZ I        22 2 59.19        13.5 0.13            155           70.5 154 
 PAM  SZ EP       22 2 45.70                             129    0.0410 86.1  77 
 PAM  SN ES   1   22 2 59.23                             129    0.53 7 86.1  77 
 PAM  SZ I        22 3  1.15         6.4 0.20            144           86.1  77 
 PTB  HZ EP       22 2 50.06                             116    0.4410  130 238 
 PTB  HN ES       22 3  5.85                             116    0.1110  130 238 
 PTB  HZ I        22 3  9.26         4.1 0.10            128            130 238 
 SML  HZ EP   1   22 2 56.10                             107   -0.70 7  193 340 
 SML  HN ES       22 3 18.49                             107   -0.03 9  193 340 
 SML  HZ I        22 3 27.39         7.4 0.30            114            193 340 
                                                                                
