 2013  6 2 2139 51.1 L   6.779 -73.138144.0  RSN  6 0.4 1.4LRSN                1
 GAP=201        0.87       4.5     6.2  8.3  0.7134E+01  0.8089E+01  0.9519E-01E
 Epicentro: LOS SANTOS - SANTANDER                                             3
 ACTION:UPD 14-01-08 09:52 OP:ep   STATUS:               ID:20130602213951 L   I
 2013-06-02-2137-50M.COL___223                                                 6
 STAT SP IPHASW D HRMM SECON CODA AMPLIT PERI AZIMU VELO AIN AR TRES W  DIS CAZ7
 BAR2 SZ ES   1   2140 25.22                             171   -0.39 7 21.3 193 
 BRR  HZ EP       2140 12.32                             152    0.1310 73.1 300 
 BRR  HN ES       2140 29.04                             152    0.4210 73.1 300 
 BRR  HZ I        2140 32.55         5.6 0.46            150           73.1 300 
 RUS  HZ EP       2140 14.33                             144   -0.2010 98.2 176 
 RUS  HN ES       2140 32.95                             144    0.1610 98.2 176 
 RUS  HZ I        2140 34.06         3.3 0.30            147           98.2 176 
 PTB  HN ES   1   2140 38.03                             132   -0.91 7  148 260 
 PTB  HZ I        2140 44.29         3.9 0.24            132            148 260 
 NOR  HN ES       2140 54.76                             118    0.34 8  234 235 
 SML  HE ES   1   2140 56.38                             117   -0.23 6  246 335 
                                                                                
