 2012  2 2 2033 50.7 L   6.790 -73.152149.3  RSN  7 0.3 1.8LRSN                1
 GAP=136        0.68       4.6     5.7  7.2 -0.3094E+01  0.1342E+02 -0.6758E+00E
 ACTION:UP  12-03-07 16:27 OP:epov STATUS:               ID:20120202203350 L   I
 2012-02-02-2030-00M.COL___188                                                 6
 STAT SP IPHASW D HRMM SECON CODA AMPLIT PERI AZIMU VELO SNR AR TRES W  DIS CAZ7
 BAR2 SZ EP   2   2034 10.95                             171    0.19 5 22.2 189 
 BAR2 SZ ES   2   2034 26.03                             171   -0.36 5 22.2 189 
 GIR2 SZ EP       2034 10.64                             167   -0.2110 32.2 352 
 BRR  HZ EP       2034 12.90                             153    0.6410 71.1 300 
 BRR  HN ES   2   2034 29.50                             153    0.45 5 71.1 300 
 BRR  HZ I        2034 37.76        23.7 0.36                          71.1 300 
 PAM  SZ EP       2034 13.23                             151   -0.1710 78.7  39 
 PAM  SN ES   1   2034 30.90                             151   -0.18 7 78.7  39 
 RUS  HZ EP       2034 14.63                             145   -0.1310 99.6 176 
 RUS  HN ES   1   2034 33.65                             145    0.15 7 99.6 176 
 RUS  HZ I        2034 34.62         5.4 0.20                          99.6 176 
 PTB  HZ EP       2034 17.78                             133   -0.13 9  147 259 
 PTB  HN ES   3   2034 38.25                             133   -0.86 2  147 259 
 PTB  HZ I        2034 42.78         5.5 0.16                           147 259 
 ZAR  HN ES   3   2034 48.14                             123   -0.71 2  204 292 
 ZAR  HZ I        2034 56.65         5.6 0.30                           204 292 
                                                                                
