 2012 12 2 2258 60.0 L   6.779 -73.164139.4  RSN  6 0.3 1.3LRSN                1
 GAP=135        0.56       3.6     3.4  5.4 -0.3660E+00  0.5441E+01  0.6450E+00E
 Epicentro: LOS SANTOS - SANTANDER                                             3
 ACTION:UPD 13-01-04 14:25 OP:ep   STATUS:               ID:20121202225860 L   I
 2012-12-02-2257-35M.COL___204                                                 6
 STAT SP IPHASW D HRMM SECON CODA AMPLIT PERI AZIMU VELO AIN AR TRES W  DIS CAZ7
 BAR2 SZ EP   1   2259 18.86                             171    0.09 7 20.8 186 
 BAR2 SZ ES   1   2259 33.44                             171    0.00 7 20.8 186 
 BAR2 SZ I        2259 35.03         7.7 0.10                          20.8 186 
 GIR2 SZ EP   1   2259 18.96                             166    0.03 7 33.3 354 
 GIR2 SZ ES   1   2259 33.39                             166   -0.34 7 33.3 354 
 GIR2 SZ I        2259 35.01         5.0 0.13                          33.3 354 
 PAM  SZ EP   1   2259 21.82                             149    0.13 7 80.4  40 
 PAM  SN ES   1   2259 38.66                             149    0.02 7 80.4  40 
 PAM  SZ I        2259 40.84         4.0 0.44                          80.4  40 
 RUS  HZ EP   1   2259 22.85                             143   -0.08 7 98.5 175 
 RUS  HN ES   1   2259 41.16                             143    0.31 7 98.5 175 
 RUS  HZ I        2259 42.50         1.7 0.28                          98.5 175 
 PTB  HZ EP   1   2259 25.70                             131   -0.49 7  145 260 
 PTB  HN ES   1   2259 46.45                             131   -0.20 7  145 260 
 PTB  HZ I        2259 47.57         3.5 0.28                           145 260 
 ZAR  HN ES   1   2259 57.39                             121    0.59 6  203 293 
                                                                                
