 2015 11 2 2235 36.8 L   6.794 -73.092153.5  RSN 11 0.5 1.9LRSN                1
 GAP=144        1.12       3.4     5.1  6.4 -0.6243E+00  0.1042E+02  0.1007E+00E
 Epicentro: LOS SANTOS - SANTANDER                                             3
 ACTION:UPD 15-12-28 16:08 OP:cam  STATUS:               ID:20151102223536 L   I
 OLDACT:REG 15-11-03 03:52 OP:mh   STATUS:               ID:20151102222750     3
 2015-11-02-2227-50M.COL___313                                                 6
 STAT SP IPHASW D HRMM SECON CODA AMPLIT PERI AZIMU VELO AIN AR TRES W  DIS CAZ7
 BAR2 EZ EP   1   2235 57.51                             171    0.11 7 24.4 204 
 BAR2 EZ ES       2236 12.77                             171   -0.6810 24.4 204 
 BAR2 EZ I        2236 15.44        17.2 0.13            169           24.4 204 
 PAM  EZ EP       2236  0.41                             153    0.7310 74.3  36 
 PAM  EN ES       2236 17.74                             153    0.2210 74.3  36 
 PAM  EZ I        2236 19.64         5.3 0.18            156           74.3  36 
 BRR  HZ IP     C 2235 59.47                             152    0.3610 76.7 297 
 BRR  HN ES       2236 17.11                             152    0.6110 76.7 297 
 BRR  HZ I        2236 20.87        14.1 0.33            150           76.7 297 
 RUS  HZ EP       2236  0.87                             146   -0.4010 99.7 179 
 RUS  HN ES       2236 20.26                             146   -0.0910 99.7 179 
 RUS  HZ I        2236 21.02         7.1 0.28            147           99.7 179 
 SPBC HZ EP       2236  6.45                             130    0.23 9  166 221 
 SPBC HN ES       2236 28.53                             130   -0.63 9  166 221 
 SPBC HZ I        2236 30.52        19.2 0.12            130            166 221 
 ZAR  HZ EP       2236  9.83                             123   -0.52 8  210 292 
 ZAR  HE ES       2236 36.91                             123    0.40 8  210 292 
 ZAR  HZ I        2236 41.61         8.0 0.28            123            210 292 
 NOR  HZ EP       2236 13.24                             120   -0.23 8  239 235 
 NOR  HN ES   1   2236 42.53                             120    0.46 6  239 235 
 NOR  HZ I        2236 45.25         8.0 0.26            120            239 235 
 SML  HZ EP       2236 13.88                             119   -0.33 8  247 334 
 SML  HN ES       2236 42.51                             119   -0.88 8  247 334 
 SML  HZ I        2236 47.61        11.0 0.30            120            247 334 
 CHI  HZ EP   1   2236 15.26                             119    0.20 6  250 197 
 CHI  HE ES       2236 45.26                             119    0.37 8  250 197 
 CHI  HZ I        2236 53.17         3.8 0.60            120            250 197 
 HEL  HN ES   1   2236 50.36                             116    0.16 6  278 256 
 HEL  HZ I        2236 55.99         4.4 0.24            116            278 256 
 GUY2CHZ EP   4   2236 23.84                             113    2.55 0  306 236 
 GUY2CHE ES   4   2236 59.66                             113    3.68 0  306 236 
 GUY2CHZ I        2237  2.11         4.9 0.32                           306 236 
                                                                                
