 2015  7 2 2319 54.2 L   6.869 -73.162144.3  RSN 16 0.4 2.0LRSN                1
 GAP=131        0.79       2.1     3.1  4.5 -0.5259E-01  0.7402E+01  0.6484E+00E
 Epicentro: ZAPATOCA - SANTANDER                                               3
 ACTION:UPD 15-09-08 21:46 OP:cam  STATUS:               ID:20150702231954 L   I
 OLDACT:UP  15-07-03 05:29 OP:drio STATUS:               ID:20150702231751d    3
 OLDACT:DUP 15-07-03 04:42 OP:drio STATUS:               ID:20150702231751d    3
 2015-07-02-2317-50M.COL___328                                                 6
 STAT SP IPHASW D HRMM SECON CODA AMPLIT PERI AZIMU VELO AIN AR TRES W  DIS CAZ7
 BAR2 EZ ES       2320 28.75                             167   -0.3310 30.7 184 
 BAR2 EZ I        2320 30.87        20.6 0.18            165           30.7 184 
 PAM  EZ EP       2320 16.24                             152    0.3010 72.9  44 
 PAM  EN ES       2320 33.17                             152    0.2310 72.9  44 
 PAM  EZ I        2320 36.33        16.5 0.46            146           72.9  44 
 RUS  HZ EP       2320 18.21                             141   -0.1310  108 175 
 RUS  HE ES       2320 37.20                             141    0.0010  108 175 
 RUS  HZ I        2320 37.93         8.2 0.30            135            108 175 
 ZAR  HZ EP       2320 25.73                             123   -0.31 9  200 290 
 ZAR  HE ES       2320 51.28                             123    0.37 9  200 290 
 ZAR  HZ I        2320 57.33         8.7 0.24            116            200 290 
 SML  HZ EP       2320 29.60                             118   -0.26 8  236 335 
 SML  HE ES       2320 57.98                             118    0.28 8  236 335 
 SML  HZ I        2321  9.40        10.0 0.22            112            236 335 
 NOR  HZ EP       2320 30.36                             118    0.23 8  238 233 
 NOR  HE ES       2320 57.79                             118   -0.40 8  238 233 
 NOR  HZ I        2321  0.73         5.8 0.16            112            238 233 
 CHI  HZ EP       2320 32.57                             116    0.04 8  256 194 
 CHI  HN ES       2321  1.94                             116   -0.52 8  256 194 
 CHI  HZ I        2321  5.13         5.8 0.62            110            256 194 
 ROSC BZ EP   4   2320 31.65                             116   -1.16 0  258 210 
 ROSC BN ES   4   2321  3.87                             116    0.90 0  258 210 
 ROSC BZ I        2321  8.44        12.4 0.40            110            258 210 
 HEL  HZ EP       2320 34.69                             114    0.38 8  272 254 
 HEL  HE ES       2321  5.92                             114    0.28 8  272 254 
 HEL  HZ I        2321 13.19         5.2 0.42            109            272 254 
 GUY2CHZ EP       2320 38.95                             112    0.92 7  304 233 
 GUY2CHE ES       2321 12.24                             112   -0.02 7  304 233 
 GUY2CHZ I        2321 20.45         4.7 0.38                           304 233 
 DBB  SZ EP       2320 41.20                             109   -0.10 7  337 273 
 DBB  SZ ES       2321 17.79                             109   -0.29 7  337 273 
 DBB  SZ I        2321 22.06        11.2 0.30            104            337 273 
 TOL  SZ EP       2320 42.50                             109   -0.34 6  348 224 
 TOL  SN ES       2321 21.43                             109    0.62 6  348 224 
 TOL  SZ I        2321 27.77         3.7 0.50            104            348 224 
 MON  HZ EP       2320 41.51                             109   -0.87 6  348 308 
 MON  HN ES       2321 19.44                             109   -0.56 6  348 308 
 PRA  HZ EP       2320 48.35                             106    0.05 6  398 209 
 PRA  HE ES       2321 30.64                             106    0.10 6  398 209 
 PRA  HZ I        2321 34.61         4.2 0.74            101            398 209 
 ORTC HZ EP       2320 48.13                             106   -0.49 6  401 215 
 ORTC HE ES       2321 31.60                             106    0.49 6  401 215 
 ORTC HZ I        2321 35.48         3.4 0.22            101            401 215 
 PAL  HZ EP       2320 49.64                             105    0.09 6  408 238 
 PAL  HZ I        2321 36.51         1.5 0.28            101            408 238 
                                                                                
