 2015  5 2 2108 55.5 L   6.793 -73.137150.0  RSN  8 0.4 1.5LRSN                1
 GAP=138        0.77       3.1     4.2  5.7  0.1738E+00  0.4737E+01  0.3154E+01E
 Epicentro: LOS SANTOS - SANTANDER                                             3
 ACTION:UPD 15-09-10 22:00 OP:cam  STATUS:               ID:20150502210855 L   I
 OLDACT:REG 15-05-03 06:19 OP:spq  STATUS:               ID:20150502210747     3
 2015-05-02-2107-47M.COL___270                                                 6
 STAT SP IPHASW D HRMM SECON CODA AMPLIT PERI AZIMU VELO AIN AR TRES W  DIS CAZ7
 BAR2 EZ EP   1   21 9 15.37                             171   -0.29 7 22.7 193 
 BAR2 EZ ES   1   21 9 30.95                             171   -0.41 7 22.7 193 
 BAR2 EZ I        21 9 31.89        16.2 0.18            169           22.7 193 
 BRR  HZ EP   1   21 9 17.32                             153    0.11 7 72.4 299 
 BRR  HN ES       21 9 34.63                             153    0.5210 72.4 299 
 BRR  HZ I        21 9 35.52         6.8 0.38            150           72.4 299 
 PAM  SZ EP       21 9 18.21                             152    0.0110 77.4  39 
 PAM  SN ES   1   21 9 36.20                             152    0.32 7 77.4  39 
 PAM  SZ I        21 9 37.21         2.8 0.72            154           77.4  39 
 RUS  HZ EP   1   21 9 19.25                             145   -0.39 7 99.7 177 
 RUS  HE ES       21 9 38.25                             145   -0.1910 99.7 177 
 RUS  HZ I        21 9 39.20         5.8 0.22            144           99.7 177 
 ZAR  HE ES   1   21 9 53.28                             123   -0.71 6  205 292 
 ZAR  HZ I        21 9 59.86         3.6 0.10            122            205 292 
 NOR  HZ EP   1   21 9 31.95                             119    0.41 6  235 235 
 NOR  HE ES       21 9 59.55                             119   -0.08 8  235 235 
 NOR  HZ I        2110  4.23         3.0 0.12            118            235 235 
 SML  HN ES   1   2110  1.12                             118   -0.25 6  245 335 
 CHI  HZ EP       21 9 33.50                             118    0.09 8  248 195 
 CHI  HN ES   1   2110  3.68                             118    0.72 6  248 195 
 CHI  HZ I        2110  8.37         1.3 0.27            118            248 195 
                                                                                
