 2012  3 2 2153 30.4 L   6.787 -73.142143.9  RSN  7 0.4 1.5LRSN                1
 GAP=138        0.65       6.0     5.5  9.5 -0.2126E+01  0.1499E+02  0.3126E+01E
 ACTION:UP  12-03-31 23:16 OP:EP   STATUS:               ID:20120302215330 L   I
 2012-03-02-2150-00M.COL___191                                                 6
 STAT SP IPHASW D HRMM SECON CODA AMPLIT PERI AZIMU VELO SNR AR TRES W  DIS CAZ7
 BAR2 SZ ES   2   2154  4.32                             171    -0.6 5   22 192 
 BRR  HZ EP   2   2153 52.11                             152     0.7 5   72 299 
 BRR  HE ES   2   2154  8.34                             152     0.6 5   72 299 
 PAM  SZ EP   2   2153 52.61                             150     0.1 5   78  39 
 PAM  SN ES   2   2154  9.47                             150    -0.2 5   78  39 
 RUS  HZ EP   2   2153 53.62                             144    -0.2 5   99 176 
 RUS  HZ I        2153 54.36         3.4 0.34                            99 176 
 RUS  HN ES   2   2154 12.58                             144     0.4 5   99 176 
 PTB  HZ EP   2   2153 56.59                             132    -0.6 5  148 259 
 PTB  HE ES   2   2154 17.82                             132    -0.3 5  148 259 
 ZAR  HN ES   2   2154 27.87                             122    -0.2 4  205 292 
 ZAR  HZ I        2154 32.80         4.7 0.29                           205 292 
 NOR  SE ES   2   2154 34.03                             118     0.3 4  234 235 
                                                                                
