 2014 11 2 2208 31.8 L   6.364 -73.699106.9  RSN  4 0.4 1.8LRSN                1
 GAP=156        0.92       5.9     4.4  9.3  0.1058E+02  0.9695E+01  0.8421E+01E
 Epicentro: SANTA HELENA DEL OPON - SANTANDER                                  3
 ACTION:UPD 14-12-19 15:38 OP:nd   STATUS:               ID:20141102220831 L   I
 OLDACT:REG 14-11-03 04:04 OP:mh   STATUS:               ID:20141102220750     3
 2014-11-02-2207-50M.COL___262                                                 6
 STAT SP IPHASW D HRMM SECON CODA AMPLIT PERI AZIMU VELO AIN AR TRES W  DIS CAZ7
 BAR2 SZ EP   1   22 8 49.18                             148    0.54 7 62.5  66 
 BAR2 SZ ES       22 9  1.78                             148   -0.0110 62.5  66 
 BAR2 SZ I        22 9  3.07        41.8 0.18            151           62.5  66 
 BRR  HZ EP       22 8 49.02                             140   -0.7210 82.2 359 
 BRR  HN ES   1   22 9  4.13                             140    0.39 7 82.2 359 
 RUS  HZ EP       22 8 51.01                             139    0.3010 85.8 127 
 RUS  HN ES       22 9  5.20                             139   -0.2710 85.8 127 
 PTB  HZ EP       22 8 50.21                             138    0.1510 85.9 283 
 PTB  HN ES       22 9  4.34                             138    0.0210 85.9 283 
 PTB  HZ I        22 9  6.62         6.3 0.32            140           85.9 283 
                                                                                
