 2013  6 2 2048 50.1 L   6.106 -73.350160.3  RSN 18 0.6 3.7LRSN 4.0WRSN        1
 SPEC AVERAGE  MO 15.0 ST 18.2 OM  3.5 f0 2.20 R0.7583 AL 2.10 WI 24.6 MW  4.0 3
 SPEC SD       MO  0.3 ST 16.6 OM  0.4 f00.542 R0.2173 AL      WI      MW  0.2 3
 GAP= 61        1.36       3.0     3.5  6.5 -0.1883E+00  0.6164E+01  0.1886E+01E
 Epicentro: SUAITA - SANTANDER                                                 3
 SPEC ZAR HH N MO 15.1 ST 31.0 OM  3.3 f0 2.68 R0.5799 AL 1.35 WI 24.9 MW  4.0 3
 SPEC ZAR HH N T204952 K 0.000 GD  277 VS 4.20 DE 3.20 Q0300.0 QA 0.60 VS 4.20 3
 SPEC VIL SH N MO 15.5 ST  8.6 OM  3.7 f0 1.29 R1.2047 AL 2.33 WI 38.3 MW  4.3 3
 SPEC VIL SH N T204951 K 0.000 GD  275 VS 4.20 DE 3.20 Q0300.0 QA 0.60 VS 4.20 3
 SPEC TAM HH N MO 15.2 ST 17.1 OM  3.4 f0 2.14 R0.7262 AL 2.62 WI 24.4 MW  4.1 3
 SPEC TAM HH N T204942 K 0.000 GD  238 VS 4.20 DE 3.20 Q0300.0 QA 0.60 VS 4.20 3
 SPEC YOP SH N MO 15.5 ST 16.8 OM  3.8 f0 1.64 R0.9476 AL 2.64 WI 18.4 MW  4.3 3
 SPEC YOP SH N T204937 K 0.000 GD  207 VS 4.20 DE 3.20 Q0300.0 QA 0.60 VS 4.20 3
 SPEC PRA HH N MO 14.7 ST 10.9 OM  2.8 f0 2.56 R0.6070 AL 2.16 WI 22.7 MW  3.8 3
 SPEC PRA HH N T2050 9 K 0.000 GD  353 VS 4.20 DE 3.20 Q0300.0 QA 0.60 VS 4.20 3
 SPEC OCA HH Z MO 14.9 ST 19.2 OM  3.0 f0 2.85 R0.5453 AL 2.26 WI 28.0 MW  3.8 3
 SPEC OCA HH Z T204953 K 0.000 GD  285 VS 4.20 DE 3.20 Q0300.0 QA 0.60 VS 4.20 3
 SPEC OCA HH N MO 15.5 ST 65.8 OM  3.6 f0 2.71 R0.5734 AL 2.47 WI 31.6 MW  4.2 3
 SPEC OCA HH N T204954 K 0.000 GD  285 VS 4.20 DE 3.20 Q0300.0 QA 0.60 VS 4.20 3
 SPEC RUS HH Z MO 14.4 ST0.728 OM  2.8 f0 1.34 R1.1597 AL 1.85 WI 18.0 MW  3.6 3
 SPEC RUS HH Z T204927 K 0.000 GD  164 VS 4.20 DE 3.20 Q0300.0 QA 0.60 VS 4.20 3
 SPEC PAM SH N MO 14.9 ST  4.5 OM  3.2 f0 1.64 R0.9476 AL 1.86 WI 15.4 MW  3.9 3
 SPEC PAM SH N T204941 K 0.000 GD  222 VS 4.20 DE 3.20 Q0300.0 QA 0.60 VS 4.20 3
 SPEC PTB HH N MO 15.1 ST 40.5 OM  3.4 f0 2.99 R0.5197 AL 1.86 WI 21.6 MW  4.0 3
 SPEC PTB HH N T204936 K 0.000 GD  207 VS 4.20 DE 3.20 Q0300.0 QA 0.60 VS 4.20 3
 SPEC HEL HH N MO 14.9 ST 13.2 OM  3.0 f0 2.50 R0.6216 AL 2.11 WI 34.0 MW  3.8 3
 SPEC HEL HH N T204956 K 0.000 GD  289 VS 4.20 DE 3.20 Q0300.0 QA 0.60 VS 4.20 3
 SPEC CHI HH N MO 15.1 ST 10.2 OM  3.3 f0 1.96 R0.7929 AL 2.59 WI 20.5 MW  4.0 3
 SPEC CHI HH N T204943 K 0.000 GD  232 VS 4.20 DE 3.20 Q0300.0 QA 0.60 VS 4.20 3
 SPEC BRR HH N MO 14.8 ST 11.0 OM  3.1 f0 2.47 R0.6291 AL 1.58 WI 19.3 MW  3.8 3
 SPEC BRR HH N T204937 K 0.000 GD  199 VS 4.20 DE 3.20 Q0300.0 QA 0.60 VS 4.20 3
 SPEC BAR2SH Z MO 14.7 ST  5.3 OM  3.1 f0 2.04 R0.7618 AL 1.69 WI 27.4 MW  3.8 3
 SPEC BAR2SH Z T204928 K 0.000 GD  170 VS 4.20 DE 3.20 Q0300.0 QA 0.60 VS 4.20 3
 ACTION:UPD 14-01-08 09:52 OP:ep   STATUS:               ID:20130602204850 L   I
 2013-06-02-2046-53M.COL___223                                                 6
 STAT SP IPHASW D HRMM SECON CODA AMPLIT PERI AZIMU VELO AIN AR TRES W  DIS CAZ7
 RUS  HZ IP     D 2049 12.37                             166    0.2110 37.8 129 
 RUS  HN ES       2049 29.42                             166    0.0210 37.8 129 
 BAR2 SZ EP       2049 12.59                             160    0.1210 56.9  19 
 BAR2 SZ ES       2049 29.62                             160   -0.3310 56.9  19 
 BAR2 SZ I        2049 31.38       512.3 0.26            160           56.9  19 
 GIR2 SZ EP       2049 15.60                             144    0.2610  109   9 
 GIR2 SZ ES       2049 35.49                             144    0.4210  109   9 
 BRR  HZ EP       2049 16.36                             142    0.5710  118 340 
 BRR  HN ES   1   2049 37.46                             142    1.60 7  118 340 
 BRR  HZ I        2049 39.99       393.2 0.38            140            118 340 
 PTB  HZ EP       2049 17.16                             139    0.2810  131 291 
 PTB  HN ES       2049 37.44                             139   -0.3710  131 291 
 PTB  HZ I        2049 42.57       679.6 0.54            135            131 291 
 YOP  SZ EP       2049 17.32                             138    0.2410  132 129 
 YOP  SN ES       2049 38.56                             138    0.4010  132 129 
 YOP  SZ I        2049 39.52      1378.1 0.22            139            132 129 
 PAM  SZ EP       2049 20.05                             134    0.60 9  154  28 
 PAM  SN ES       2049 41.73                             134   -0.65 9  154  28 
 PAM  SZ I        2049 45.98       314.7 0.48            134            154  28 
 CHI  HZ EP       2049 20.94                             131    0.30 9  169 195 
 CHI  HN ES       2049 44.21                             131   -0.29 9  169 195 
 CHI  HZ I        2049 46.70       234.6 0.38            129            169 195 
 TAM  HZ EP       2049 20.76                             130   -0.09 9  176  78 
 TAM  HE ES       2049 43.79                             130   -1.08 9  176  78 
 TAM  HZ I        2049 49.80       443.0 0.40            130            176  78 
 NOR  HZ EP       2049 21.50                             129    0.42 9  179 250 
 NOR  HE ES       2049 45.57                             129    0.28 9  179 250 
 NOR  HZ I        2049 52.74       854.9 0.48            126            179 250 
 VIL  SZ EP       2049 25.38                             123   -0.26 8  224 190 
 VIL  SN ES       2049 52.33                             123   -1.07 8  224 190 
 VIL  SZ I        2049 54.91       361.5 0.30            121            224 190 
 ZAR  HZ EP       2049 25.44                             122   -0.32 8  226 313 
 ZAR  HN ES       2049 53.05                             122   -0.56 8  226 313 
 ZAR  HZ I        2050  1.70       656.9 0.34            120            226 313 
 OCA  HZ EP       2049 27.05                             121    0.13 8  236   1 
 OCA  HE ES       2049 55.42                             121   -0.26 8  236   1 
 OCA  HZ I        2050  0.74       628.7 0.34            120            236   1 
 HEL  HZ EP       2049 28.01                             121    0.24 8  241 272 
 HEL  HN ES       2049 57.75                             121    0.56 8  241 272 
 HEL  HZ I        2050  7.56       290.6 0.29            118            241 272 
 RREF HZ EP       2049 30.30                             119    0.39 8  258 239 
 RREF HZ I        2050  6.79       266.1 0.30            117            258 239 
 URE  HZ EP       2049 32.92                             115   -0.97 7  302 307 
 URE  HE ES       2050  6.18                             115   -1.90 7  302 307 
 URE  HZ I        2050  8.67       353.8 0.14            113            302 307 
 SML  HN ES   1   2050  9.53                             114    0.24 5  308 345 
 PRA  HZ EP       2049 35.64                             114    0.33 7  315 213 
 PRA  HN ES       2050 10.42                             114   -0.19 7  315 213 
 PRA  HZ I        2050 17.30       150.6 0.30            112            315 213 
                                                                                
