 2012 11 2 2011 41.2 L   6.716 -73.103145.2  RSN  4 0.1 1.8LRSN                1
 GAP=146        0.35       2.4     3.5  3.8  0.2063E+01 -0.4698E+01 -0.4278E+00E
 Epicentro: JORDAN - SANTANDER                                                 3
 ACTION:UPD 12-12-05 15:31 OP:}ep  STATUS:               ID:20121102201141 L   I
 2012-11-02-2010-00M.COL___232                                                 6
 STAT SP IPHASW D HRMM SECON CODA AMPLIT PERI AZIMU VELO AIN AR TRES W  DIS CAZ7
 BAR2 SZ EP       2012  0.46                             173   -0.1910 16.2 213 
 BAR2 SZ I        2012  1.02        12.9 0.17                          16.2 213 
 BAR2 SZ ES   2   2012 15.61                             173   -0.20 5 16.2 213 
 BRR  HZ EP       2012  2.82                             150    0.0010 80.0 303 
 BRR  HN ES       2012 19.72                             150    0.0510 80.0 303 
 BRR  HZ I        2012 19.98        17.3 0.39                          80.0 303 
 PAM  SZ EP       2012  3.73                             149    0.0710 82.1  33 
 PAM  SZ I        2012  4.08         8.8 0.21                          82.1  33 
 PAM  SN ES   2   2012 21.21                             149    0.05 5 82.1  33 
 RUS  HZ EP       2012  4.29                             146    0.0510 91.1 179 
 RUS  HN ES   1   2012 22.32                             146    0.12 7 91.1 179 
 RUS  HN I        2012 23.47         8.5 0.36                          91.1 179 
                                                                                
