 2012  5 2 2120 56.3 L   6.790 -73.157147.5  RSN 12 0.4 2.6LRSN                1
 GAP=136        0.95       3.8     4.7  7.1 -0.1803E+01  0.6871E+01  0.3952E+01E
 Epicentro: LOS SANTOS - SANTANDER                                             3
 ACTION:UP  12-07-05 12:01 OP:pat  STATUS:               ID:20120502212056 L   I
 2012-05-02-2120-00M.COL___186                                                 6
 STAT SP IPHASW D HRMM SECON CODA AMPLIT PERI AZIMU VELO SNR AR TRES W  DIS CAZ7
 BAR2 SZ EP   1   2121 16.05                             171    -0.1 7   22 187 
 BAR2 SZ I        2121 33.17        86.3 0.31                            22 187 
 BRR  HZ EP   1   2121 17.95                             153     0.4 7   71 300 
 BRR  HZ I        2121 18.27        89.9 0.16                            71 300 
 BRR  HN ES   1   2121 34.95                             153     0.7 7   71 300 
 PAM  SZ EP       2121 19.00                             151     0.210   79  40 
 PAM  SN ES   1   2121 36.16                             151    -0.2 7   79  40 
 RUS  HZ EP   1   2121 20.03                             144    -0.1 7  100 175 
 RUS  HN ES   1   2121 38.65                             144    -0.1 7  100 175 
 RUS  HZ I        2121 40.48        38.2 0.38                           100 175 
 PTB  HZ EP   1   2121 22.65                             133    -0.6 7  146 259 
 PTB  HN ES   1   2121 43.82                             133    -0.5 7  146 259 
 PTB  HZ I        2121 47.47        31.3 0.13                           146 259 
 ZAR  HZ EP   1   2121 28.49                             123    -0.3 6  203 293 
 ZAR  HN ES   1   2121 53.60                             123    -0.5 6  203 293 
 ZAR  HZ I        2122  0.27        49.7 0.29                           203 293 
 CHI  HZ EP   1   2121 33.40                             118    -0.5 6  247 195 
 CHI  HN ES   1   2122  2.76                             118    -0.5 6  247 195 
 CHI  HZ I        2122  9.37        20.5 0.32                           247 195 
 ROSC BZ EP   1   2121 35.22                             117     0.9 6  251 211 
 ROSC BZ I        2122  9.36        42.2 0.52                           251 211 
 HEL  HZ EP   1   2121 37.05                             115     0.6 6  271 256 
 HEL  HN ES   1   2122  7.90                             115     0.2 6  271 256 
 HEL  HZ I        2122 15.14        19.5 0.46                           271 256 
 GUY  SZ EP   1   2121 40.49                             113     0.4 5  302 235 
 GUY  SZ I        2122 21.65        29.9 0.45                           302 235 
 COD  HZ EP   1   2121 44.30                             109    -0.5 5  349 355 
 COD  HN ES   1   2122 22.78                             109     0.1 5  349 355 
 COD  HZ I        2122 25.10         7.5 0.28                           349 355 
 PRA  HZ EP   1   2121 49.68                             107     0.0 4  390 209 
 PRA  HE ES   1   2122 31.90                             107     0.6 4  390 209 
                                                                                
