 2010  7 2 2224  1.8 L   6.802 -73.044139.0  RSN  6 0.5 2.0LRSN                1
 GAP=170        1.01       6.7    12.2 11.6 -0.2332E+02  0.1268E+02 -0.3470E+01E
 Epicentro: LOS SANTOS - SANTANDER                                             3
 ACTION:UPD 10-12-01 15:14 OP:pat  STATUS:               ID:20100702222401 L   I
 2010-07-02-2220-06S.COL___117                                                 6
 STAT SP IPHASW D HRMM SECON CODA AMPLIT PERI AZIMU VELO AIN AR TRES W  DIS CAZ7
 BAR2 SZ EP   1   2224 19.87                             168    -0.8 7   28 214 
 BAR2 SZ ES   2   2224 35.40                             168    -0.1 5   28 214 
 BRR  HZ EP   1   2224 22.74                             148    -0.1 7   81 295 
 BRR  HZ I        2224 23.26        33.8 0.11                            81 295 
 BRR  HE ES   2   2224 39.55                             148     0.3 5   81 295 
 RUS  HZ EP   1   2224 25.39                             142     0.5 7  101 182 
 RUS  HN ES   2   2224 43.03                             142     0.1 5  101 182 
 RUS  HZ I        2224 45.20        12.2 0.32                           101 182 
 GUE  SZ EP   1   2224 25.06                             138    -0.7 7  114   7 
 GUE  SZ ES   2   2224 44.02                             138    -0.4 5  114   7 
 GRA  SZ EP   1   2224 26.85                             136     0.7 7  123  12 
 GRA  SZ ES   2   2224 45.91                             136     0.7 5  123  12 
 HEL  HZ EP   1   2224 43.09                             112     0.2 6  283 256 
 HEL  HZ I        2225 17.99         5.1 0.46                           283 256 
                                                                                
