 2014  9 2 2343 20.9 L   6.772 -73.195145.3  RSN  5 0.4 1.3LRSN                1
 GAP=132        1.02       6.5     6.1  8.0  0.8794E+01 -0.2213E+01 -0.7544E+01E
 Epicentro: ZAPATOCA - SANTANDER                                               3
 ACTION:UPD 14-10-03 23:01 OP:nd   STATUS:               ID:20140902234320 L   I
 OLDACT:REG 14-09-03 04:28 OP:stll STATUS:               ID:20140902233816     3
 2014-09-02-2338-16M.COL___263                                                 6
 STAT SP IPHASW D HRMM SECON CODA AMPLIT PERI AZIMU VELO AIN AR TRES W  DIS CAZ7
 BAR2 SZ ES       2343 55.12                             172   -0.4610 19.9 176 
 BAR2 SZ I        2343 58.19         4.6 0.28            176           19.9 176 
 BRR  HZ EP       2343 42.29                             153    0.5110 68.1 303 
 BRR  HN ES       2343 58.42                             153    0.3210 68.1 303 
 BRR  HZ I        2344  4.68         7.6 0.32            154           68.1 303 
 PAM  SZ EP       2343 43.12                             149   -0.2710 83.3  41 
 PAM  SZ I        2343 43.61         4.2 0.16            150           83.3  41 
 RUS  HZ EP       2343 44.75                             144    0.3810 98.0 173 
 RUS  HN ES       2344  2.85                             144    0.1310 98.0 173 
 RUS  HZ I        2344  4.10         2.2 0.26            151           98.0 173 
 PTB  HZ EP       2343 46.60                             133   -0.65 9  142 260 
 PTB  HN ES       2344  7.80                             133   -0.03 9  142 260 
                                                                                
