 2012  8 2 2041 14.3 L   6.763 -73.153151.9  RSN 10 0.5 2.5LRSN                1
 GAP= 96        0.89       4.9     3.5  7.6 -0.6208E+00 -0.2577E-01  0.7860E+01E
 Epicentro: LOS SANTOS - SANTANDER                                             3
 ACTION:UPD 12-09-10 11:53 OP:ep   STATUS:               ID:20120802204114 L   I
 2012-08-02-2040-00M.COL___215                                                 6
 STAT SP IPHASW D HRMM SECON CODA AMPLIT PERI AZIMU VELO AIN AR TRES W  DIS CAZ7
 BAR2 SZ IP       2041 34.78                             172    0.1510 19.2 190 
 BAR2 SZ I        2041 35.07        83.2 0.23                          19.2 190 
 BAR2 SZ ES   1   2041 50.71                             172    0.26 7 19.2 190 
 BRR  HZ EP   1   2041 36.16                             153   -0.06 7 72.5 302 
 BRR  HN ES   1   2041 54.03                             153    0.74 7 72.5 302 
 BRR  HZ I        2041 57.78        63.7 0.18                          72.5 302 
 PAM  SZ EP       2041 37.52                             151    0.1010 81.1  38 
 PAM  SE ES   1   2041 54.69                             151   -0.74 7 81.1  38 
 RUS  HZ EP   1   2041 38.00                             146   -0.42 7 96.6 175 
 RUS  HN ES   2   2041 56.68                             146   -0.52 5 96.6 175 
 RUS  HZ I        2041 58.08        17.7 0.29                          96.6 175 
 PTB  HZ EP   1   2041 40.86                             134   -0.81 7  146 260 
 PTB  HN ES   1   2042  2.60                             134   -0.39 7  146 260 
 PTB  HZ I        2042  7.53        35.6 0.21                           146 260 
 TAM  HZ IP     D 2041 42.93                             132    0.44 9  155 103 
 TAM  HZ I        2041 43.11        56.8 0.20                           155 103 
 TAM  HE ES   1   2042  4.31                             132   -0.13 7  155 103 
 ZAR  HE ES   1   2042 13.06                             124    0.11 6  205 293 
 ZAR  HZ I        2042 19.22        45.5 0.31                           205 293 
 CHI  HN ES   1   2042 21.90                             119    0.64 6  244 195 
 ROSC BN ES   2   2042 21.39                             118   -0.65 4  249 211 
 HEL  HN ES   1   2042 26.44                             116    0.31 6  270 257 
                                                                                
