 2015  2 2 2113 24.6 L   6.803 -73.159147.5  RSN  4 0.3 1.1LRSN                1
 GAP=142        0.57       4.1     4.4  6.7 -0.9647E+01  0.8257E+01  0.6055E+00E
 Epicentro: LOS SANTOS - SANTANDER                                             3
 ACTION:UPD 15-04-30 21:20 OP:nd   STATUS:               ID:20150202211324 L   I
 OLDACT:REG 15-02-03 03:33 OP:spq  STATUS:               ID:20150202210750     3
 2015-02-02-2107-50M.COL___269                                                 6
 STAT SP IPHASW D HRMM SECON CODA AMPLIT PERI AZIMU VELO AIN AR TRES W  DIS CAZ7
 PAM  SZ EP       2113 47.15                             151    0.0810 78.1  41 
 PAM  SN ES       2114  4.54                             151   -0.0410 78.1  41 
 PAM  SZ I        2114  6.66         2.9 0.48            156           78.1  41 
 RUS  HZ EP   1   2113 48.70                             144    0.12 7  101 175 
 RUS  HN ES   1   2114  7.16                             144   -0.10 7  101 175 
 RUS  HZ I        2114  9.96         2.0 0.38            148            101 175 
 PTB  HZ EP   1   2113 51.92                             133    0.31 7  146 259 
 PTB  HN ES   1   2114 12.45                             133   -0.21 7  146 259 
 PTB  HZ I        2114 16.80         1.7 0.26            135            146 259 
 SPBC HZ EP   1   2113 52.61                             129   -0.59 7  162 219 
 SPBC HN ES   1   2114 15.86                             129    0.38 7  162 219 
                                                                                
