 2017  9 2 2150 41.2 L   6.339 -73.704100.0  RSN  9 0.4 1.7LRSN                1
 GAP= 83        0.72       2.2     2.6  5.7 -0.9901E+00  0.7874E+01 -0.1263E+01E
 Epicentro: SANTA HELENA DEL OPON - SANTANDER                                  3
 ACTION:UPD 17-10-05 19:08 OP:rebc STATUS:               ID:20170902215041 L   I
 OLDACT:UP  17-09-03 05:46 OP:mg   STATUS:               ID:20170902214740     3
 OLDACT:UP  17-09-03 05:45 OP:mg   STATUS:               ID:20170902214740     3
 OLDACT:UP  17-09-03 05:45 OP:mg   STATUS:               ID:20170902214740     3
 OLDACT:REG 17-09-03 03:23 OP:mg   STATUS:               ID:20170902214740     3
 2017-09-02-2148-00M.COL___414                                                 6
 STAT SP IPHASW D HRMM SECON CODA AMPLIT PERI AZIMU VELO AIN AR TRES W  DIS CAZ7
 BAR2 EZ EP       2150 57.53                             145    0.1010 64.2  64 
 BAR2 EZ ES       2151 10.53                             145    0.4210 64.2  64 
 BAR2 EZ I        2151 11.74        19.7 0.16            148           64.2  64 
 RUS  HZ EP       2150 59.05                             137   -0.3110 84.6 126 
 RUS  HN ES       2151 13.37                             137   -0.1910 84.6 126 
 RUS  HZ I        2151 14.35         9.3 0.20            140           84.6 126 
 BRR  HZ EP       2150 58.58                             137   -0.1310 84.9 359 
 BRR  HN ES       2151 12.28                             137   -0.1210 84.9 359 
 BRR  HZ I        2151 12.93        11.5 0.14            138           84.9 359 
 SPBC HZ EP       2150 58.76                             136   -0.1810 86.2 208 
 SPBC HN ES       2151 13.12                             136    0.3110 86.2 208 
 SPBC HZ I        2151 14.59        22.9 0.20            138           86.2 208 
 NOR  HZ EP       2151  6.17                             118    0.50 9  155 236 
 NOR  HN ES   2   2151 23.60                             118   -1.20 5  155 236 
 NOR  HZ I        2151 26.82         7.8 0.24            120            155 236 
 PAM  EZ EP   2   2151  6.59                             118    0.15 5  157  45 
 PAM  EN ES   1   2151 26.13                             118   -0.02 7  157  45 
 PAM  EZ I        2151 27.71         4.8 0.18            121            157  45 
 ZAR  HZ EP       2151  8.18                             114   -0.24 9  180 315 
 ZAR  HN ES       2151 29.74                             114    0.05 9  180 315 
 ZAR  HZ I        2151 31.62         7.9 0.36            115            180 315 
 HEL  HZ EP   1   2151 11.35                             111   -0.04 6  203 265 
 HEL  HN ES   2   2151 35.50                             111    0.52 4  203 265 
 HEL  HZ I        2151 37.30         4.2 0.22            112            203 265 
 GUY2CHZ EP   2   2151 14.39                             109    0.69 4  221 236 
 GUY2CHN ES   1   2151 38.75                             109   -0.33 6  221 236 
 GUY2CHZ I        2151 43.81         2.1 0.30                           221 236 
                                                                                
