 2012 12 2 2342 58.4 L   6.781 -73.168143.5  RSN 10 0.5 1.9LRSN                1
 GAP= 72        0.91       4.0     4.4  6.9 -0.1143E+01  0.1161E+02 -0.4572E+01E
 Epicentro: LOS SANTOS - SANTANDER                                             3
 ACTION:UPD 13-01-04 14:25 OP:ep   STATUS:               ID:20121202234258 L   I
 2012-12-02-2340-00M.COL___236                                                 6
 STAT SP IPHASW D HRMM SECON CODA AMPLIT PERI AZIMU VELO AIN AR TRES W  DIS CAZ7
 BAR2 SZ EP   1   2343 17.75                             171    0.09 7 20.9 184 
 BAR2 SZ ES   1   2343 33.08                             171    0.36 7 20.9 184 
 BAR2 SZ I        2343 34.72        19.0 0.25                          20.9 184 
 GIR2 SZ EP   1   2343 18.03                             166    0.22 7 33.0 355 
 GIR2 SZ ES   1   2343 33.38                             166    0.40 7 33.0 355 
 GIR2 SZ I        2343 35.43        13.0 0.28                          33.0 355 
 PAM  SZ EP   1   2343 20.85                             149    0.33 7 80.6  40 
 PAM  SE ES   1   2343 37.97                             149    0.16 7 80.6  40 
 PAM  SZ I        2343 42.99         5.6 0.34                          80.6  40 
 RUS  HZ EP   1   2343 21.43                             144   -0.32 7 98.7 175 
 RUS  HN ES   1   2343 39.83                             144   -0.16 7 98.7 175 
 RUS  HZ I        2343 40.98         9.3 0.52                          98.7 175 
 PTB  HZ EP   1   2343 24.37                             132   -0.51 7  145 259 
 PTB  HN ES   1   2343 45.44                             132   -0.13 7  145 259 
 PTB  HZ I        2343 49.13        14.7 0.20                           145 259 
 TAM  HN ES   1   2343 47.23                             130   -0.38 7  157 104 
 TAM  HZ I        2343 48.32         9.9 0.46                           157 104 
 OCA  HZ EP   1   2343 26.39                             129   -0.27 7  162 354 
 OCA  HN ES   1   2343 47.58                             129   -1.16 7  162 354 
 OCA  HZ I        2343 54.35         9.6 0.42                           162 354 
 ZAR  HZ EP   1   2343 30.43                             122   -0.07 6  203 293 
 ZAR  HZ I        2344  4.73         9.7 0.28                           203 293 
 SML  HZ EP   1   2343 35.76                             117    0.81 6  245 336 
 SML  HE ES   1   2344  3.78                             117    0.28 6  245 336 
 HEL  HZ EP   1   2343 39.25                             115    1.12 6  269 256 
 HEL  HN ES   1   2344  8.67                             115   -0.49 6  269 256 
 HEL  HZ I        2344 18.11         5.3 0.56                           269 256 
                                                                                
