 2015  8 2 2356 13.2 L   6.781 -73.118151.6  RSN 11 0.5 2.0LRSN                1
 GAP=141        1.07       3.2     4.4  5.8 -0.1235E+01  0.1033E+02  0.1879E+01E
 Epicentro: LOS SANTOS - SANTANDER                                             3
 ACTION:UPD 15-09-15 22:59 OP:cam  STATUS:               ID:20150802235613 L   I
 OLDACT:REG 15-08-03 03:00 OP:ak   STATUS:               ID:20150802234748     3
 2015-08-02-2347-48M.COL___349                                                 6
 STAT SP IPHASW D HRMM SECON CODA AMPLIT PERI AZIMU VELO AIN AR TRES W  DIS CAZ7
 BAR2 EZ EP       2356 33.47                             171   -0.0710 22.1 199 
 BAR2 EZ ES       2356 48.74                             171   -0.6410 22.1 199 
 BAR2 EZ I        2356 51.20        14.9 0.19            170           22.1 199 
 BRR  HZ EP       2356 35.52                             152    0.3010 74.9 299 
 BRR  HN ES       2356 53.00                             152    0.6310 74.9 299 
 BRR  HZ I        2356 55.59        15.7 0.23            145           74.9 299 
 PAM  EZ EP       2356 36.61                             152    0.5610 77.1  37 
 PAM  EN ES       2356 53.86                             152    0.0110 77.1  37 
 PAM  EZ I        2356 55.63         8.7 0.63            139           77.1  37 
 RUS  HZ EP       2356 37.50                             146    0.1010 98.3 178 
 RUS  HN ES       2356 56.30                             146    0.0410 98.3 178 
 RUS  HZ I        2356 57.98         5.3 0.31            136           98.3 178 
 ZAR  HZ EP       2356 46.11                             123   -0.33 8  208 292 
 ZAR  HN ES       2357 12.03                             123   -0.31 8  208 292 
 ZAR  HZ I        2357 18.75        13.0 0.42            113            208 292 
 NOR  HZ EP       2356 48.56                             120   -0.89 8  236 235 
 NOR  HN ES       2357 17.91                             120    0.21 8  236 235 
 NOR  HZ I        2357 22.42         9.7 0.26            110            236 235 
 CHI  HZ EP       2356 50.59                             118   -0.54 8  247 196 
 CHI  HN ES       2357 20.59                             118   -0.11 8  247 196 
 CHI  HZ I        2357 25.13         3.6 0.14            109            247 196 
 SML  HZ EP       2356 50.22                             118   -0.31 8  247 335 
 SML  HN ES       2357 19.20                             118   -0.43 8  247 335 
 SML  HZ I        2357 21.42        10.6 0.08            108            247 335 
 HEL  HZ EP       2356 54.83                             116    0.81 8  275 256 
 HEL  HN ES       2357 25.50                             116   -0.34 8  275 256 
 HEL  HZ I        2357 33.30         7.1 0.24            107            275 256 
 GUY2CHZ EP       2356 57.97                             113    0.70 7  303 235 
 GUY2CHN ES       2357 32.31                             113    0.70 7  303 235 
 GUY2CHZ I        2357 40.05         5.6 0.09                           303 235 
 TOL  SZ EP   1   2357  2.09                             110    0.28 5  344 225 
 TOL  SN ES       2357 39.22                             110   -0.48 7  344 225 
 TOL  SZ I        2357 47.24         4.4 0.50            102            344 225 
                                                                                
