 2013  3 2 2243 19.6 L   6.767 -73.122149.6  RSN  7 0.4 2.0LRSN                1
 GAP=141        1.00       4.1     4.5  6.9  0.1669E+01  0.5680E+01  0.6777E+01E
 Epicentro: LOS SANTOS - SANTANDER                                             3
 ACTION:UPD 13-04-09 13:59 OP:ep   STATUS:               ID:20130302224319 L   I
 2013-03-02-2240-00M.COL___228                                                 6
 STAT SP IPHASW D HRMM SECON CODA AMPLIT PERI AZIMU VELO AIN AR TRES W  DIS CAZ7
 BAR2 SZ EP       2243 39.49                             172   -0.1910 20.4 199 
 BAR2 SZ ES   1   2243 55.66                             172    0.35 7 20.4 199 
 BRR  HZ IP     C 2243 41.40                             152   -0.0410 75.3 300 
 BRR  HE ES       2243 58.84                             152    0.4010 75.3 300 
 BRR  HE I        2243 59.24        23.1 0.22            149           75.3 300 
 PAM  SZ EP       2243 42.30                             151   -0.0510 78.7  36 
 PAM  SN ES       2243 59.76                             151   -0.2910 78.7  36 
 PAM  SN I        2244  0.98        10.1 0.42            154           78.7  36 
 RUS  HZ EP       2243 43.83                             146    0.3210 96.8 177 
 RUS  HN ES       2244  2.15                             146    0.0310 96.8 177 
 RUS  HN I        2244  3.65        19.5 0.22            146           96.8 177 
 PTB  HZ EP       2243 46.37                             132   -0.73 9  150 260 
 PTB  HN ES       2244  7.76                             132   -0.75 9  150 260 
 PTB  HN I        2244 13.30        16.1 0.36            131            150 260 
 ZAR  HZ EP   2   2243 53.49                             123    0.76 4  208 293 
 ZAR  HN ES       2244 19.12                             123    0.58 8  208 293 
 ZAR  HN I        2244 25.61        12.2 0.38            122            208 293 
 CHI  HZ EP       2243 57.72                             118    0.46 8  246 196 
 CHI  HN ES       2244 26.68                             118    0.09 8  246 196 
 CHI  HN I        2244 28.72         3.2 0.40            119            246 196 
                                                                                
