 2010  2 2 2104 48.1 L   6.823 -73.116147.0  RSN 10 0.8 2.8LRSN                1
 GAP=186        1.68       5.3    11.3 12.1 -0.3027E+01  0.6797E+02  0.7275E+01E
 Epicentro: LOS SANTOS - SANTANDER                                             3
 ACTION:UP  10-08-24 09:47 OP:vdl  STATUS:               ID:20100202210448 L   I
 2010-02-02-2101-34S.COL___096                                                 6
 STAT SP IPHASW D HRMM SECON CODA AMPLIT PERI AZIMU VELO SNR AR TRES W  DIS CAZ7
 BAR2 SZ IP       21 5  8.00                             169     0.110   27 196 
 BAR2 SZ ES   1   21 5 23.75                             169     0.3 7   27 196 
 GIR2 SZ IP       21 5  8.24                             168     0.410   30 343 
 GIR2 SZ ES   1   21 5 22.84                             168    -0.4 7   30 343 
 RUS  BZ IP       21 5 11.78                             143    -0.310  103 178 
 RUS  BN ES   1   21 5 30.29                             143    -0.6 7  103 178 
 RUS  BZ I        21 5 32.10        58.9 0.51                           103 178 
 OCA  SZ EP       21 5 16.76                             130     0.5 9  158 352 
 OCA  SZ ES       21 5 38.74                             130     0.5 9  158 352 
 CHI  HZ EP   1   21 5 25.93                             117    -0.3 6  252 196 
 CHI  HN ES       21 5 55.07                             117    -0.9 8  252 196 
 CHI  HZ I        21 6  5.01        19.0 1.03                           252 196 
 HEL  HN ES   1   21 5 59.71                             115    -0.8 6  276 255 
 HEL  HZ I        21 6  8.30        32.1 0.42                           276 255 
 RREF BZ EP       21 5 35.62                             111     0.9 7  326 229 
 RREF BN ES       21 6 12.96                             111     1.8 7  326 229 
 RREF BZ I        21 6 17.76        47.8 1.13                           326 229 
 TOL  SZ EP   1   21 5 37.77                             109     0.9 5  348 225 
 MON  HZ EP       21 5 35.54                             109    -1.7 6  354 308 
 MON  HN ES       21 6 14.48                             109    -1.0 6  354 308 
 MON  HZ I        21 6 30.52        28.2 1.14                           354 308 
 PRA  HZ EP       21 5 41.62                             106    -0.5 6  396 210 
 PRA  HN ES       21 6 24.48                             106     0.3 6  396 210 
                                                                                
