 2010  4 2 2241 29.6 L   6.792 -73.010144.3  RSN  9 0.4 2.6LRSN                1
 GAP=211        0.79       3.9     8.7  6.5 -0.9914E+01 -0.9577E+00  0.7599E+01E
 Epicentro: CEPITA - SANTANDER                                                 3
 ACTION:UPD 10-08-24 09:57 OP:vdl  STATUS:               ID:20100402224129 L   I
 2010-04-02-2240-09S.COL___098                                                 6
 STAT SP IPHASW D HRMM SECON CODA AMPLIT PERI AZIMU VELO AIN AR TRES W  DIS CAZ7
 BAR2 SZ IP       2241 49.37                             168     0.210   29 221 
 BAR2 SZ ES   1   2242  4.31                             168    -0.2 7   29 221 
 BRR  HZ IP       2241 51.35                             149    -0.110   85 294 
 BRR  HE ES   1   2242  8.28                             149    -0.2 7   85 294 
 BRR  HZ I        2242 10.80        43.5 0.29                            85 294 
 OCA  SZ EP       2241 57.76                             129    -0.4 9  164 348 
 OCA  SZ ES   1   2242 20.93                             129     0.6 7  164 348 
 OCA  SZ I        2242 23.28        46.0 0.14                           164 348 
 CHI  HZ IP       2242  7.68                             117     0.1 8  252 199 
 CHI  HE ES   2   2242 37.00                             117    -0.2 4  252 199 
 CHI  HZ I        2242 40.60        15.0 0.63                           252 199 
 ROSC BZ EP   1   2242  9.40                             116     1.0 6  260 214 
 ROSC BE ES   2   2242 39.16                             116     0.4 4  260 214 
 ROSC BZ I        2242 44.02        24.3 0.39                           260 214 
 HEL  HZ EP   1   2242 11.09                             113    -0.3 6  286 257 
 HEL  HE ES   3   2242 43.85                             113     0.0 2  286 257 
 HEL  HZ I        2242 47.91        11.1 0.34                           286 257 
 RREF BN ES   2   2242 54.22                             110     0.4 3  333 231 
 RREF BZ I        2243  1.05        15.7 0.56                           333 231 
 ANIL BN ES   2   2243  0.40                             108     0.2 3  367 226 
 ANIL BZ I        2243  3.42        29.3 0.29                           367 226 
 PRA  HZ EP   1   2242 23.16                             106    -0.7 4  399 212 
 PRA  HE ES   2   2243  5.36                             106    -0.8 3  399 212 
 PRA  HZ I        2243 11.58        16.5 0.43                           399 212 
                                                                                
