 2015  3 2 2128 47.9 L   6.822 -73.191145.6  RSN  9 0.3 2.2LRSN                1
 GAP=134        0.74       2.8     3.9  4.7 -0.4541E+01  0.6314E+01  0.6999E+00E
 Epicentro: ZAPATOCA - SANTANDER                                               3
 ACTION:UPD 15-04-30 16:22 OP:nd   STATUS:               ID:20150302212847 L   I
 OLDACT:REG 15-03-03 03:39 OP:mh   STATUS:               ID:20150302212748     3
 2015-03-02-2127-48M.COL___296                                                 6
 STAT SP IPHASW D HRMM SECON CODA AMPLIT PERI AZIMU VELO AIN AR TRES W  DIS CAZ7
 BAR2 EZ EP   1   2129  7.36                             169   -0.17 7 25.4 178 
 BAR2 EZ ES       2129 22.98                             169    0.1110 25.4 178 
 BAR2 EZ I        2129 25.37        23.3 0.17            170           25.4 178 
 PAM  SZ EP     C 2129 10.38                             150    0.2110 78.9  43 
 PAM  SN ES       2129 27.60                             150    0.0410 78.9  43 
 PAM  SZ I        2129 29.79        20.6 0.20            155           78.9  43 
 PTB  HZ EP       2129 14.18                             133   -0.25 9  143 258 
 PTB  HN ES       2129 34.65                             133   -0.50 9  143 258 
 PTB  HZ I        2129 41.13        19.8 0.22            133            143 258 
 SPBC HZ EP       2129 16.39                             129    0.14 9  162 217 
 SPBC HN ES       2129 38.60                             129    0.22 9  162 217 
 SPBC HZ I        2129 44.50        30.1 0.43            131            162 217 
 NOR  HZ EP       2129 23.43                             119    0.12 8  232 233 
 NOR  HN ES   1   2129 51.45                             119    0.50 6  232 233 
 SML  HZ EP   1   2129 23.63                             118   -0.41 6  239 336 
 SML  HN ES       2129 52.23                             118   -0.01 8  239 336 
 SML  HZ I        2129 59.05        19.4 0.52            120            239 336 
 CHI  HZ EP       2129 25.16                             117   -0.52 8  250 194 
 CHI  HN ES   1   2129 54.43                             117   -0.74 6  250 194 
 CHI  HZ I        2129 59.01         4.9 0.72            119            250 194 
 GUY2CHZ EP       2129 31.80                             112    0.62 7  298 234 
 GUY2CHN ES   4   2130  6.31                             112    1.36 0  298 234 
 GUY2CHZ I        2130 14.21        10.7 0.76                           298 234 
 RREF HZ EP   4   2129 35.04                             111    1.28 0  320 228 
 RREF HN ES   4   2130 11.61                             111    2.06 0  320 228 
 TOL  SZ EP       2129 36.16                             109    0.24 7  342 224 
 TOL  SN ES       2130 13.73                             109    0.34 7  342 224 
 TOL  SZ I        2130 21.25         7.1 0.40            111            342 224 
                                                                                
