 2017  7 2 2054 26.7 L   6.785 -73.175142.0  RSN 14 0.5 2.3LRSN                1
 GAP= 64        1.21       4.2     3.8  7.0 -0.7565E+00  0.2312E+01  0.9412E+01E
 Epicentro: LOS SANTOS - SANTANDER                                             3
 ACTION:UPD 17-08-30 15:29 OP:rebc STATUS:               ID:20170702205426 L   I
 OLDACT:REG 17-07-03 02:47 OP:lv   STATUS:               ID:20170702204740     3
 2017-07-02-2048-00M.COL___380                                                 6
 STAT SP IPHASW D HRMM SECON CODA AMPLIT PERI AZIMU VELO AIN AR TRES W  DIS CAZ7
 BAR2 EZ EP       2054 45.81                             171   -0.0510 21.3 182 
 BAR2 EZ ES       2054 59.98                             171   -0.8110 21.3 182 
 BAR2 EZ I        2055  3.61                             168           21.3 182 
 BRR  HZ EP       2054 47.48                             153    0.1210 69.2 301 
 BRR  HN ES       2055  4.62                             153    1.1710 69.2 301 
 PAM  EZ EP       2054 48.69                             149   -0.0610 80.7  41 
 PAM  EE ES       2055  6.01                             149    0.0810 80.7  41 
 PAM  EZ I        2055  7.95        27.9 0.35            154           80.7  41 
 PTB  HZ EP       2054 52.50                             132   -0.57 9  144 259 
 PTB  HN ES       2055 13.46                             132   -0.16 9  144 259 
 TAM  HZ EP       2054 54.11                             129   -0.25 9  158 104 
 SPBC HZ EP       2054 54.70                             129    0.08 9  160 218 
 SPBC HN ES       2055 16.00                             129   -0.38 9  160 218 
 SPBC HZ I        2055 19.32        36.8 0.21            128            160 218 
 YPLC HZ EP       2054 55.89                             126   -0.37 9  177 150 
 YPLC HN ES       2055 19.90                             126    0.60 9  177 150 
 YPLC HZ I        2055 21.29        33.2 0.47            127            177 150 
 ZAR  HZ EP       2054 59.08                             122    0.40 9  202 293 
 ZAR  HN ES       2055 23.09                             122   -0.52 9  202 293 
 ZAR  HZ I        2055 29.52        11.3 0.20            123            202 293 
 TABC EZ EP   4   2055  3.27                             119    1.34 0  227 210 
 TABC EZ ES       2055 30.05                             119    0.67 8  227 210 
 TABC EZ I        2055 34.67        14.0 0.15            119            227 210 
 NOR  HN ES   4   2055 30.96                             118    1.71 0  231 234 
 NOR  HZ I        2055 35.39        25.0 0.05            118            231 234 
 ROSC BZ EP   4   2055  6.01                             116    1.70 0  250 211 
 ROSC BN ES   4   2055 37.59                             116    3.97 0  250 211 
 ROSC BZ I        2055 40.54        12.3 0.25            117            250 211 
 GUY2CHZ EP   4   2055 11.08                             112    1.33 0  298 235 
 GUY2CHN ES       2055 43.22                             112   -0.10 7  298 235 
 GUY2CHZ I        2055 56.20         9.4 0.59                           298 235 
 PTGC HZ EP   4   2055  8.83                             111   -1.55 0  308 158 
 PTGC HN ES   4   2055 37.39                             111   -7.03 0  308 158 
 LL6C HZ EP   9   2055 11.00                             110   -1.45 0  326 358 
 LL6C HN ES       2055 46.31                                   -0.35 7  326 358 
 ORTC HZ EP       2055 20.97                             106    0.83 6  392 216 
 ORTC HN ES       2056  1.44                             106   -0.36 6  392 216 
 ORTC HZ I        2056  9.61         7.2 0.30            107            392 216 
                                                                                
