 2013 11 2 2228 25.2 L   6.769 -73.138146.3  RSN  5 0.3 1.4LRSN                1
 GAP=139        0.92       4.9     4.8  6.8 -0.2234E+01  0.3966E+01  0.1324E+01E
 Epicentro: LOS SANTOS - SANTANDER                                             3
 ACTION:UPD 14-01-09 16:25 OP:ep   STATUS:               ID:20131102222825 L   I
 OLDACT:UP  13-11-03 00:53 OP:cam  STATUS:               ID:20131102222000     3
 OLDACT:REG 13-11-02 21:49 OP:cam  STATUS:               ID:20131102222000     3
 2013-11-02-2220-00M.COL___273                                                 6
 STAT SP IPHASW D HRMM SECON CODA AMPLIT PERI AZIMU VELO AIN AR TRES W  DIS CAZ7
 BAR2 SZ EP       2228 44.74                             172   -0.1110 20.2 194 
 BAR2 SZ ES       2229  0.35                             172    0.1810 20.2 194 
 BAR2 SZ I        2229  1.34        21.2 0.18            171           20.2 194 
 BRR  HZ EP       2228 46.73                             152    0.1810 73.6 301 
 BRR  HN ES       2229  3.79                             152    0.5910 73.6 301 
 PAM  SZ EP       2228 47.80                             150    0.1910 79.5  38 
 PAM  SN ES       2229  4.52                             150   -0.5710 79.5  38 
 PAM  SZ I        2229  7.02         3.0 0.52            153           79.5  38 
 RUS  HZ EP       2228 48.85                             145    0.0810 97.1 176 
 RUS  HN ES       2229  7.17                             145    0.0210 97.1 176 
 RUS  HZ I        2229  8.20         1.8 0.32            147           97.1 176 
 PTB  HZ EP       2228 52.25                             132    0.01 9  148 260 
 PTB  HN ES       2229 12.66                             132   -0.66 9  148 260 
 PTB  HZ I        2229 20.04         3.3 0.32            132            148 260 
                                                                                
