 2015  1 2 2343 21.7 L   6.826 -73.135147.0  RSN 14 0.4 1.9LRSN                1
 GAP=137        0.88       2.6     3.5  5.4 -0.1376E+01  0.2841E+01  0.1020E+01E
 Epicentro: LOS SANTOS - SANTANDER                                             3
 ACTION:UPD 15-03-02 15:36 OP:nd   STATUS:               ID:20150102234321 L   I
 OLDACT:REG 15-01-03 06:07 OP:spq  STATUS:               ID:20150102233747     3
 2015-01-02-2337-47M.COL___277                                                 6
 STAT SP IPHASW D HRMM SECON CODA AMPLIT PERI AZIMU VELO AIN AR TRES W  DIS CAZ7
 BAR2 EZ EP       2343 41.56                             169    0.0110 26.4 191 
 BAR2 EZ ES   1   2343 57.11                             169    0.08 7 26.4 191 
 BAR2 EZ I        2343 57.84        14.3 0.20            168           26.4 191 
 BRR  HZ EP       2343 43.31                             153    0.3410 70.9 296 
 BRR  HN ES       2344  0.14                             153    0.5710 70.9 296 
 BRR  HZ I        2344  3.28        14.6 0.25            152           70.9 296 
 PAM  SZ EP       2343 44.39                             152    0.5110 74.4  40 
 PAM  SN ES   1   2344  1.43                             152    0.25 7 74.4  40 
 PAM  SZ I        2344  6.97         8.0 0.22            156           74.4  40 
 RUS  HZ EP       2343 45.82                             143    0.0410  103 177 
 RUS  HN ES   1   2344  3.70                             143   -0.86 7  103 177 
 RUS  HZ I        2344  5.57         7.0 0.24            145            103 177 
 PTB  HZ EP       2343 48.42                             132   -0.51 9  150 258 
 PTB  HE ES       2344 10.02                             132   -0.15 9  150 258 
 PTB  HZ I        2344 12.43        12.8 0.14            132            150 258 
 OCA  HZ EP   1   2343 49.83                             130   -0.03 7  158 353 
 OCA  HN ES       2344 11.09                             130   -0.73 9  158 353 
 OCA  HZ I        2344 16.40        11.0 0.18            133            158 353 
 SPBC HZ EP   1   2343 50.55                             129   -0.03 7  166 219 
 SPBC HN ES   1   2344 12.55                             129   -0.55 7  166 219 
 SPBC HZ I        2344 17.81        15.6 0.20            130            166 219 
 ZAR  HZ EP   1   2343 54.02                             123   -0.21 6  204 291 
 ZAR  HE ES       2344 19.78                             123    0.17 9  204 291 
 ZAR  HZ I        2344 24.99        13.3 0.18            124            204 291 
 NOR  HZ EP   1   2343 58.08                             118    0.29 6  237 234 
 NOR  HN ES       2344 25.59                             118   -0.34 8  237 234 
 NOR  HZ I        2344 30.81         4.9 0.18            120            237 234 
 SML  HZ EP       2343 57.96                             118   -0.21 8  242 335 
 SML  HE ES   1   2344 26.58                             118   -0.04 6  242 335 
 CHI  HZ EP   1   2344  0.08                             117    0.28 6  252 195 
 CHI  HN ES       2344 29.75                             117    0.23 8  252 195 
 CHI  HZ I        2344 36.69         2.9 0.40            119            252 195 
 HEL  HZ EP   4   2344  3.70                             115    1.52 0  274 255 
 HEL  HN ES   1   2344 33.98                             115    0.22 6  274 255 
 HEL  HZ I        2344 39.73         4.2 0.34            116            274 255 
 RREF HN ES   1   2344 45.33                             111    0.84 5  325 229 
 RREF HZ I        2344 53.48         2.8 0.40            112            325 229 
 MON  HZ EP   4   2344  9.00                             109   -1.66 0  353 308 
 MON  HN ES   4   2344 47.17                             109   -1.67 0  353 308 
 MON  HZ I        2344 49.39         1.5 0.44            110            353 308 
                                                                                
