 2016 12 2 2156 55.8 L   6.760 -73.159142.7  RSN  9 0.3 2.0LRSN                1
 GAP=149        0.75       3.1     3.3  4.9 -0.1572E+01  0.3293E+01  0.5541E+01E
 Epicentro: LOS SANTOS - SANTANDER                                             3
 ACTION:UPD 17-01-11 20:12 OP:rebc STATUS:               ID:20161202215655 L   I
 OLDACT:DUP 16-12-03 07:15 OP:cara STATUS:               ID:20161202214743d    3
 2016-12-02-2148-00M.COL___355                                                 6
 STAT SP IPHASW D HRMM SECON CODA AMPLIT PERI AZIMU VELO AIN AR TRES W  DIS CAZ7
 BAR2 EZ ES       2157 30.19                             172    0.2810 18.7 188 
 BAR2 EZ I        2157 32.77        41.3 0.28            168           18.7 188 
 BRR  HZ EP       2157 16.85                             152    0.2010 72.1 302 
 BRR  HE ES       2157 33.24                             152    0.3110 72.1 302 
 BRR  HZ I        2157 37.78        25.2 0.30            152           72.1 302 
 PAM  EZ EP     C 2157 17.73                             149   -0.2110 81.8  38 
 PAM  EN ES       2157 34.88                             149   -0.3510 81.8  38 
 PAM  EZ I        2157 38.19         9.7 0.48            157           81.8  38 
 PTB  HZ EP       2157 21.84                             132   -0.45 9  145 260 
 PTB  HN ES       2157 42.62                             132   -0.35 9  145 260 
 PTB  HZ I        2157 49.84         9.1 0.18            133            145 260 
 ZAR  HZ EP       2157 28.62                             122    0.56 9  204 293 
 ZAR  HE ES       2157 53.20                             122   -0.04 9  204 293 
 ZAR  HZ I        2157 58.18        10.5 0.20            124            204 293 
 NOR  HE ES       2157 58.13                             118   -0.21 8  231 235 
 NOR  HZ I        2158  8.49         6.6 0.38            120            231 235 
 CHI  HZ EP       2157 33.21                             117    0.41 8  244 195 
 CHI  HE ES       2158  1.72                             117    0.04 8  244 195 
 CHI  HZ I        2158  6.22         6.5 0.76            119            244 195 
 PRA  HZ EP       2157 48.70                             106    0.04 6  387 210 
 PRA  HE ES       2158 29.70                             106   -0.20 6  387 210 
 PRA  HZ I        2158 37.09         7.8 0.38            108            387 210 
 SJC  HZ IP   4   2157 49.14                             105   -2.44 0  412 327 
 SJC  HE ES   4   2158 26.04                             105   -9.07 0  412 327 
 SJC  HZ I        2158 34.09         1.8 0.38            108            412 327 
                                                                                
