 2012  3 2 2326 19.9 L   6.773 -73.146131.5  RSN  5 0.3 1.5LRSN                1
 GAP=138        0.51       4.4     5.1  9.3  0.5852E+01  0.2035E+02  0.1122E+02E
 ACTION:UP  12-03-31 23:16 OP:EP   STATUS:               ID:20120302232619 L   I
 2012-03-02-2320-00M.COL___191                                                 6
 STAT SP IPHASW D HRMM SECON CODA AMPLIT PERI AZIMU VELO SNR AR TRES W  DIS CAZ7
 PAM  SN ES   2   2326 56.73                             147    -0.3 5   80  38 
 RUS  HZ EP   1   2326 42.21                             141     0.2 7   98 176 
 RUS  HN ES   2   2326 59.62                             141     0.3 5   98 176 
 RUS  HZ I        2327  1.30         5.0 0.24                            98 176 
 PTB  HZ EP   2   2326 45.59                             128    -0.1 5  147 260 
 PTB  HN ES   2   2327  5.28                             128    -0.5 5  147 260 
 ZAR  HZ EP   2   2326 51.60                             119     0.0 4  205 293 
 ZAR  HN ES   2   2327 16.85                             119     0.6 4  205 293 
 ZAR  HZ I        2327 22.76         5.4 0.38                           205 293 
 CHI  HZ EP   2   2326 56.22                             114    -0.3 4  246 195 
 CHI  HN ES   2   2327 24.91                             114    -0.2 4  246 195 
 CHI  HZ I        2327 29.30         1.9 0.51                           246 195 
                                                                                
