 2011  1 2 2113  5.3 L   6.815 -72.741122.0  RSN  6 0.4 1.9LRSN                1
 GAP=204        0.80       5.4    24.7 13.8 -0.5013E+02 -0.1561E+03  0.3184E+01E
 Epicentro: CERRITO - SANTANDER                                                3
 ACTION:UP  11-02-08 08:38 OP:pat  STATUS:               ID:20110102211305 L   I
 2011-01-02-2100-00M.COL___137                                                 6
 STAT SP IPHASW D HRMM SECON CODA AMPLIT PERI AZIMU VELO SNR AR TRES W  DIS CAZ7
 BAR2 SZ EP   1   2113 22.63                             155    -0.7 7   55 243 
 BAR2 SZ ES   2   2113 37.60                             155     0.2 5   55 243 
 BAR2 SZ I        2113 39.39        33.7 0.90                            55 243 
 GIR2 SZ EP   1   2113 23.16                             154    -0.2 7   58 300 
 RUS  HZ EP   2   2113 27.70                             136     0.2 5  109 200 
 RUS  HN ES   2   2113 45.40                             136     0.6 5  109 200 
 RUS  HZ I        2113 48.22        10.4 0.39                           109 200 
 GRA  SZ EP   1   2113 27.91                             133     0.0 7  119 357 
 GRA  SZ ES   2   2113 45.92                             133     0.4 5  119 357 
 GRA  SZ I        2113 48.34        13.7 0.32                           119 357 
 OCA  SZ EP   2   2113 32.93                             123     0.0 5  170 338 
 OCA  SZ ES   2   2113 54.84                             123     0.4 5  170 338 
 OCA  SZ I        2113 57.13        15.9 0.34                           170 338 
 CHI  HZ EP   2   2113 44.47                             111     0.7 4  265 204 
 CHI  HZ I        2114 16.87         3.8 0.23                           265 204 
                                                                                
