 2015  2 2 2108  4.3 L   6.798 -73.926 23.5  RSN  9 0.3 2.0LRSN                1
 GAP= 88        0.82       1.9     1.5  2.3 -0.5285E+00  0.2611E+00  0.1316E+01E
 Epicentro: PUERTO PARRA - SANTANDER                                           3
 ACTION:UPD 15-04-30 21:20 OP:nd   STATUS:               ID:20150202210804 L   I
 OLDACT:REG 15-02-03 03:33 OP:spq  STATUS:               ID:20150202205745     3
 2015-02-02-2057-45M.COL___269                                                 6
 STAT SP IPHASW D HRMM SECON CODA AMPLIT PERI AZIMU VELO AIN AR TRES W  DIS CAZ7
 BRR  HZ EP       21 8 11.79                             117   -0.1410 41.6  35 
 BRR  HN ES       21 8 18.09                             117    0.2210 41.6  35 
 BRR  HZ I        21 8 18.37       137.6 0.12            115           41.6  35 
 PTB  HZ EP       21 8 15.16                             108   -0.1210 65.2 244 
 PTB  HE ES       21 8 24.14                             108    0.3210 65.2 244 
 PTB  HZ I        21 8 25.11       170.3 0.14            104           65.2 244 
 BAR2 EZ EP       21 8 17.88                             104   -0.5610 85.3 105 
 BAR2 EZ ES   1   21 8 28.99                             104   -0.46 7 85.3 105 
 BAR2 EZ I        21 8 31.79        21.6 0.24            101           85.3 105 
 SPBC HZ EP       21 8 24.29                              56    0.3110  128 187 
 SPBC HN ES       21 8 39.35                              56    0.0310  128 187 
 SPBC HZ I        21 8 45.73        19.5 0.24             56            128 187 
 ZAR  HZ EP       21 8 23.87                              56   -0.1110  128 307 
 ZAR  HE ES       21 8 39.02                              56   -0.3010  128 307 
 ZAR  HZ I        21 8 43.27        17.3 0.30             56            128 307 
 RUS  HZ EP       21 8 25.89                              56    0.29 9  137 137 
 RUS  HN ES       21 8 42.33                              56    0.13 9  137 137 
 RUS  HZ I        21 8 44.08        60.0 0.18             56            137 137 
 PAM  SZ EP     D 21 8 27.46                              56    0.44 9  148  66 
 PAM  SN ES       21 8 44.75                              56    0.03 9  148  66 
 PAM  SZ I        21 8 46.80        56.5 0.28             56            148  66 
 NOR  HZ EP   1   21 8 29.41                              56   -0.05 7  172 217 
 NOR  HN ES   1   21 8 48.27                              56   -0.79 7  172 217 
 NOR  HZ I        21 8 52.74         6.6 0.14             56            172 217 
 HEL  HZ EP   1   21 8 32.80                              56    0.74 7  190 249 
 HEL  HN ES       21 8 53.52                              56   -0.17 9  190 249 
 HEL  HZ I        21 8 54.88         7.7 0.36             56            190 249 
                                                                                
