 2012  6 2 2318 17.2 L   6.794 -73.167145.5  RSN 11 0.3 2.5LRSN                1
 GAP=134        0.57       2.4     3.0  4.3 -0.1265E+01  0.4551E+01  0.8541E+00E
 Epicentro: LOS SANTOS - SANTANDER                                             3
 ACTION:UPD 12-08-06 17:46 OP:ep   STATUS:               ID:20120602231826 L   I
 2012-06-02-2317-29S.COL___211                                                 6
 STAT SP IPHASW D HRMM SECON CODA AMPLIT PERI AZIMU VELO AIN AR TRES W  DIS CAZ7
 BAR2 SZ IP       2318 36.82                             171    0.0210 22.4 184 
 BAR2 SZ ES   1   2318 52.05                             171   -0.02 7 22.4 184 
 BAR2 SZ I        2318 53.55        72.7 0.37            153           22.4 184 
 PAM  SZ EP       2318 39.60                             150    0.0810 79.4  41 
 PAM  SN ES   1   2318 56.86                             150   -0.06 7 79.4  41 
 PAM  SZ I        2318 59.38        52.3 0.58            139           79.4  41 
 RUS  HZ EP   1   2318 40.65                             144   -0.26 7  100 175 
 RUS  HN ES   1   2318 59.42                             144    0.03 7  100 175 
 RUS  HZ I        2319  1.16        40.2 0.40            123            100 175 
 PTB  HZ EP   1   2318 43.55                             132   -0.40 7  145 259 
 PTB  HN ES   1   2319  4.63                             132   -0.16 7  145 259 
 PTB  HZ I        2319  6.97        43.3 0.13            119            145 259 
 OCA  HZ EP   1   2318 45.06                             129   -0.48 7  161 354 
 OCA  HN ES   1   2319  8.06                             129    0.42 7  161 354 
 ZAR  HZ EP   1   2318 49.13                             123   -0.32 6  202 293 
 ZAR  HE ES   1   2319 14.89                             123    0.30 6  202 293 
 ZAR  HZ I        2319 21.32        66.9 0.20            112            202 293 
 NOR  SZ EP   1   2318 52.92                             119    0.23 6  232 234 
 NOR  SE ES   1   2319 20.42                             119    0.06 6  232 234 
 CHI  HZ EP   1   2318 54.89                             117    0.12 6  247 195 
 CHI  HZ I        2319 28.25        14.2 0.28            105            247 195 
 ROSC BZ EP   1   2318 56.06                             117    0.93 6  251 211 
 ROSC BZ I        2319 31.30        31.0 0.39            105            251 211 
 DBB  SZ EP   1   2319  4.34                             110   -0.08 5  337 274 
 PRA  HZ EP   1   2319 10.61                             107    0.08 4  390 209 
 PRA  HN ES   1   2319 51.70                             107   -0.41 4  390 209 
                                                                                
