 2011  1 2 2057 47.9 L   6.833 -73.138137.2  RSN 10 0.4 2.4LRSN                1
 GAP=137        0.69       4.4     6.7  8.6 -0.1415E+02  0.1732E+02  0.9146E+00E
 Epicentro: LOS SANTOS - SANTANDER                                             3
 ACTION:UP  11-02-08 08:38 OP:pat  STATUS:               ID:20110102205747 L   I
 2011-01-02-2040-00M.COL___137                                                 6
 STAT SP IPHASW D HRMM SECON CODA AMPLIT PERI AZIMU VELO SNR AR TRES W  DIS CAZ7
 BAR2 SZ EP   1   2058  6.77                             168     0.1 8   27 191 
 BAR2 SZ ES   2   2058 21.47                             168     0.3 5   27 191 
 BAR2 SZ I        2058 22.61        81.6 0.05                            27 191 
 GIR2 SZ EP   1   2058  7.04                             168     0.5 8   28 347 
 RUS  HZ EP   1   2058 11.13                             141     0.0 8  104 177 
 GRA  SZ IP       2058 11.86                             136    -0.310  122  18 
 GRA  SZ ES   2   2058 30.30                             136    -0.7 5  122  18 
 GRA  SZ I        2058 32.34        53.1 0.20                           122  18 
 OCA  SZ EP   1   2058 15.55                             128     0.3 7  157 353 
 OCA  SZ I        2058 41.59        72.5 0.44                           157 353 
 YOP  SZ EP   2   2058 17.24                             124    -0.4 5  182 154 
 YOP  SZ I        2058 46.16        11.8 0.23                           182 154 
 NOR  SZ EP       2058 23.45                             116    -0.1 8  238 234 
 NOR  SE ES   2   2058 50.65                             116    -0.6 4  238 234 
 CHI  HZ EP   2   2058 25.25                             115    -0.3 4  252 195 
 CHI  HE ES   2   2058 54.88                             115    -0.1 4  252 195 
 CHI  HZ I        2059  0.30         8.8 0.36                           252 195 
 HEL  HZ EP   2   2058 28.83                             113     0.9 4  274 255 
 HEL  HN ES   2   2058 58.68                             113    -0.4 4  274 255 
 HEL  HZ I        2059  9.66        15.9 0.27                           274 255 
 PRA  HZ EP   2   2058 41.96                             105     0.4 3  396 209 
                                                                                
