 2014  2 2 2138  4.4 L   6.763 -73.156144.5  RSN 12 0.4 2.2LRSN                1
 GAP= 72        0.87       3.5     2.9  4.9 -0.2037E+01  0.1387E+01  0.8000E+00E
 Epicentro: LOS SANTOS - SANTANDER                                             3
 ACTION:UPD 14-03-10 08:07 OP:ep   STATUS:               ID:20140202213804 L   I
 OLDACT:UP  14-02-02 21:47 OP:cam  STATUS:               ID:20140202213000     3
 OLDACT:REG 14-02-02 21:28 OP:cam  STATUS:               ID:20140202213000     3
 2014-02-02-2130-00M.COL___288                                                 6
 STAT SP IPHASW D HRMM SECON CODA AMPLIT PERI AZIMU VELO AIN AR TRES W  DIS CAZ7
 BAR2 SZ EP     C 2138 23.68                             172   -0.0910 19.1 189 
 BAR2 SZ ES       2138 38.37                             172   -0.5310 19.1 189 
 BAR2 SZ I        2138 39.54        66.9 0.16            172           19.1 189 
 BRR  HZ IP     D 2138 25.67                             152    0.2210 72.3 302 
 BRR  HN ES       2138 42.61                             152    0.7310 72.3 302 
 BRR  HZ I        2138 47.25        38.0 0.12            148           72.3 302 
 PAM  SZ EP     D 2138 26.66                             149   -0.0310 81.3  38 
 PAM  SN ES       2138 44.41                             149    0.3110 81.3  38 
 PAM  SZ I        2138 45.87        10.5 0.52            151           81.3  38 
 RUS  HZ EP       2138 27.86                             145    0.1510 96.6 175 
 RUS  HN ES       2138 45.57                             145   -0.3510 96.6 175 
 RUS  HZ I        2138 47.04        22.3 0.30            148           96.6 175 
 PTB  HZ EP       2138 30.82                             132   -0.25 9  146 260 
 PTB  HN ES       2138 51.38                             132   -0.51 9  146 260 
 PTB  HZ I        2138 56.84        11.7 0.10            131            146 260 
 TAM  HZ EP       2138 31.97                             130    0.01 9  155 103 
 TAM  HN ES       2138 53.45                             130   -0.02 9  155 103 
 SPBC HZ EP       2138 32.70                             129    0.29 9  159 220 
 SPBC HN ES       2138 54.53                             129    0.26 9  159 220 
 SPBC HZ I        2138 55.47        23.3 0.20            130            159 220 
 OCA  HE ES   4   2138 54.07                             128   -1.18 0  164 354 
 ZAR  HZ EP   4   2138 38.38                             122    1.59 0  205 293 
 NOR  HZ EP   1   2138 40.25                             119    0.57 6  231 235 
 NOR  HN ES       2139  7.09                             119   -0.12 8  231 235 
 NOR  HZ I        2139 17.12         7.4 0.16            119            231 235 
 CHI  HZ EP   2   2138 41.75                             117    0.21 4  244 195 
 SML  HZ EP       2138 40.66                             117   -0.62 8  247 336 
 SML  HN ES   4   2139  8.49                             117   -1.58 0  247 336 
 SML  HZ I        2139 16.23        23.6 0.28            117            247 336 
 GUY2CHZ EP   4   2138 49.12                             112    1.57 0  298 235 
 GUY2CHN ES   4   2139 23.82                             112    2.59 0  298 235 
 GUY2CHZ I        2139 28.05         5.0 0.30                           298 235 
 PTGC HZ EP   4   2138 46.72                             112   -1.07 0  305 158 
 RREF BZ EP   4   2138 51.16                             111    1.10 0  318 230 
 PRA  HZ EP   2   2138 57.57                             106    0.20 3  388 210 
                                                                                
