 2012  3 2 2310 30.8 L   6.820 -73.327127.1  RSN  8 0.4 1.7LRSN                1
 GAP=104        0.77       4.7     5.0  8.6  0.3230E+01  0.1494E+02  0.7348E+01E
 ACTION:UP  12-03-31 23:16 OP:EP   STATUS:               ID:20120302231030 L   I
 2012-03-02-2310-00M.COL___191                                                 6
 STAT SP IPHASW D HRMM SECON CODA AMPLIT PERI AZIMU VELO SNR AR TRES W  DIS CAZ7
 BAR2 SZ EP       2310 48.61                             166     0.310   30 148 
 BAR2 SZ ES   2   2311  1.64                             166    -0.4 5   30 148 
 BRR  HZ EP       2310 49.08                             156     0.210   53 307 
 BRR  HE ES   2   2311  3.21                             156     0.2 5   53 307 
 BRR  HZ I        2311  3.76        20.9 0.12                            53 307 
 PAM  SZ EP   2   2310 51.68                             143    -0.2 5   90  50 
 PAM  SN ES   2   2311  7.78                             143    -0.6 5   90  50 
 RUS  HZ EP   1   2310 53.42                             138     0.2 7  106 165 
 RUS  HN ES   1   2311 10.89                             138     0.2 7  106 165 
 PTB  HZ EP       2310 53.93                             132    -0.510  129 256 
 PTB  HE ES   2   2311 12.37                             132    -0.6 5  129 256 
 ZAR  HN ES   2   2311 23.75                             121     0.9 4  185 294 
 ZAR  HZ I        2311 26.12         5.6 0.32                           185 294 
 NOR  SZ EP   2   2311  4.29                             116     0.4 4  220 231 
 NOR  SE ES   2   2311 29.91                             116     0.2 4  220 231 
 CHI  HZ EP   2   2311  7.18                             113    -0.1 4  246 191 
 CHI  HN ES   2   2311 35.05                             113    -0.6 4  246 191 
 CHI  HZ I        2311 45.10         1.9 0.54                           246 191 
                                                                                
