 2012  6 2 2009 53.0 L   7.122 -73.345115.1  RSN  6 0.4 1.9LRSN                1
 GAP=162        0.75       3.2     4.2  9.0  0.6230E+00  0.1156E+02 -0.2913E+01E
 Epicentro: LEBRIJA - SANTANDER                                                3
 ACTION:UPD 12-08-06 17:46 OP:ep   STATUS:               ID:20120602200952 L   I
 2012-06-02-2010-00M.COL___201                                                 6
 STAT SP IPHASW D HRMM SECON CODA AMPLIT PERI AZIMU VELO AIN AR TRES W  DIS CAZ7
 BAR2 SZ EP       2010 11.30                             150    0.6310 61.3 163 
 BAR2 SZ ES   1   2010 24.60                             150    0.18 7 61.3 163 
 OCA  HZ EP   1   2010 15.24                             130   -0.27 7  124   1 
 OCA  HE ES   1   2010 32.71                             130   -0.33 7  124   1 
 RUS  HZ EP   1   2010 17.37                             126   -0.08 7  139 168 
 RUS  HN ES   1   2010 36.00                             126   -0.50 7  139 168 
 RUS  HZ I        2010 38.35        10.8 0.25            128            139 168 
 PTB  HZ EP   1   2010 16.44                             126   -0.36 7  139 242 
 PTB  HE ES   1   2010 35.11                             126   -0.22 7  139 242 
 PTB  HZ I        2010 36.17         9.6 0.20            126            139 242 
 ZAR  HZ EP   1   2010 20.46                             120    0.25 7  172 284 
 ZAR  HE ES   1   2010 41.69                             120    0.28 7  172 284 
 ZAR  HZ I        2010 45.93        11.1 0.27            120            172 284 
 NOR  SE ES   1   2010 54.93                             111   -0.21 6  241 224 
                                                                                
