 2015  3 2 2331  9.4 L   6.785 -73.119151.5  RSN 12 0.4 2.2LRSN                1
 GAP=122        0.87       3.0     4.5  5.0 -0.5111E+01 -0.4618E+00  0.3413E+01E
 Epicentro: LOS SANTOS - SANTANDER                                             3
 ACTION:UPD 15-04-30 16:22 OP:nd   STATUS:               ID:20150302233109 L   I
 OLDACT:UP  15-03-03 07:20 OP:mh   STATUS:               ID:20150302232747     3
 OLDACT:UP  15-03-03 07:17 OP:mh   STATUS:               ID:20150302232747     3
 OLDACT:UP  15-03-03 07:17 OP:mh   STATUS:               ID:20150302232747     3
 OLDACT:REG 15-03-03 03:43 OP:mh   STATUS:               ID:20150302232747     3
 2015-03-02-2327-47M.COL___296                                                 6
 STAT SP IPHASW D HRMM SECON CODA AMPLIT PERI AZIMU VELO AIN AR TRES W  DIS CAZ7
 BAR2 EZ EP   1   2331 29.95                             171    0.20 7 22.5 198 
 BAR2 EZ ES       2331 45.80                             171    0.2110 22.5 198 
 BAR2 EZ I        2331 47.11        27.5 0.23            172           22.5 198 
 BRR  HZ EP       2331 31.71                             153    0.3010 74.6 299 
 BRR  HN ES       2331 48.96                             153    0.4210 74.6 299 
 BRR  HZ I        2331 55.56        22.8 0.20            147           74.6 299 
 PAM  SZ EP   1   2331 32.64                             152    0.40 7 76.8  37 
 PAM  SN ES   1   2331 49.65                             152   -0.38 7 76.8  37 
 PAM  SZ I        2331 51.95        19.1 0.54            144           76.8  37 
 PTB  HZ EP       2331 36.65                             133   -0.47 9  150 260 
 PTB  HN ES       2331 57.87                             133   -0.84 9  150 260 
 PTB  HZ I        2331 59.48        21.3 0.16            126            150 260 
 OCA  HZ EP       2331 38.50                             131    0.11 9  162 352 
 OCA  HN ES       2332  0.70                             131   -0.27 9  162 352 
 SPBC HZ EP       2331 38.70                             130    0.25 9  164 220 
 SPBC HN ES   1   2332  1.04                             130   -0.03 7  164 220 
 SPBC HZ I        2332  3.34        23.0 0.20            124            164 220 
 NOR  HZ EP       2331 45.78                             120    0.11 8  236 235 
 NOR  HN ES       2332 14.15                             120    0.22 8  236 235 
 NOR  HZ I        2332 21.59        15.9 0.30            113            236 235 
 SML  HZ EP       2331 46.62                             118   -0.07 8  246 335 
 SML  HZ I        2332 22.03        22.6 0.10            111            246 335 
 CHI  HZ EP   1   2331 47.42                             118    0.04 6  248 196 
 CHI  HN ES       2332 16.52                             118   -0.46 8  248 196 
 CHI  HZ I        2332 26.88         6.9 0.46            112            248 196 
 GUY2CHZ EP   4   2331 54.95                             113    1.46 0  303 235 
 GUY2CHN ES   4   2332 30.33                             113    2.48 0  303 235 
 GUY2CHZ I        2332 34.98         5.9 0.32                           303 235 
 PTGC HZ EP       2331 52.88                             113   -0.39 7  306 159 
 PTGC HE ES   4   2332 21.83                             113   -5.63 0  306 159 
 PTGC HZ I        2332 41.26        15.3 0.36            107            306 159 
 TOL  SZ EP   4   2331 59.96                             110    1.92 0  344 225 
 TOL  SN ES       2332 36.68                             110    0.73 7  344 225 
 TOL  SZ I        2332 42.69         7.0 0.22            105            344 225 
                                                                                
