 2016  8 2 2357 20.4 L   6.793 -73.154146.9  RSN  8 0.3 2.2LRSN                1
 GAP=100        0.81       3.4     2.7  5.3 -0.7462E+00  0.8464E+00  0.2608E+01E
 Epicentro: LOS SANTOS - SANTANDER                                             3
 ACTION:UPD 16-10-29 15:31 OP:rebc STATUS:               ID:20160802235720 L   I
 OLDACT:UP  16-08-03 04:21 OP:ar   STATUS:               ID:20160802234740     3
 OLDACT:REG 16-08-03 03:27 OP:ar   STATUS:               ID:20160802234740     3
 2016-08-02-2348-00M.COL___350                                                 6
 STAT SP IPHASW D HRMM SECON CODA AMPLIT PERI AZIMU VELO AIN AR TRES W  DIS CAZ7
 BAR2 EZ EP       2357 39.96                             171   -0.1810 22.4 188 
 BAR2 EZ ES       2357 55.09                             171   -0.4610 22.4 188 
 BAR2 EZ I        2357 57.69        43.7 0.30                          22.4 188 
 BRR  HZ EP       2357 41.73                             153    0.0910 70.7 299 
 BRR  HE ES       2357 58.87                             153    0.6610 70.7 299 
 BRR  HZ I        2358  2.80        19.6 0.18                          70.7 299 
 PAM  EZ EP       2357 42.75                             151   -0.0510 78.6  40 
 PAM  EE ES       2358  0.07                             151   -0.2210 78.6  40 
 PAM  EZ I        2358  2.04        28.7 0.48                          78.6  40 
 RUS  HZ EP       2357 44.04                             144   -0.1610 99.8 175 
 RUS  HE ES       2358  2.75                             144   -0.0310 99.8 175 
 RUS  HZ I        2358  3.77        22.7 0.30                          99.8 175 
 TAM  HZ EP       2357 48.20                             131   -0.03 9  156 105 
 TAM  HE ES       2358 10.48                             131    0.54 9  156 105 
 SPBC HZ EP       2357 48.80                             129   -0.06 9  162 219 
 SPBC HN ES       2358 10.94                             129   -0.13 9  162 219 
 SPBC HZ I        2358 12.44        24.0 0.30                           162 219 
 ZAR  HZ EP   4   2357 51.81                             123   -1.04 0  203 292 
 ZAR  HN ES       2358 17.88                             123   -0.29 9  203 292 
 ZAR  HZ I        2358 26.16         8.9 0.18                           203 292 
 NOR  HZ EP   4   2357 59.47                             119    3.42 0  233 234 
 NOR  HE ES       2358 24.31                             119    0.44 8  233 234 
 NOR  HZ I        2358 29.36        14.2 0.18                           233 234 
                                                                                
