 2012  7 2 2248 44.5 L   6.797 -73.162143.9  RSN 14 0.4 2.6LRSN                1
 GAP= 64        0.97       4.1     4.1  6.2  0.4836E+00  0.5341E+01  0.4872E+01E
 Epicentro: LOS SANTOS - SANTANDER                                             3
 ACTION:UPD 12-08-14 11:42 OP:ep   STATUS:               ID:20120702224844 L   I
 2012-07-02-2247-40M.COL___208                                                 6
 STAT SP IPHASW D HRMM SECON CODA AMPLIT PERI AZIMU VELO AIN AR TRES W  DIS CAZ7
 BAR2 SZ IP       2249  3.81                             171     0.010   23 186 
 BAR2 SZ ES   1   2249 18.36                             171    -0.6 7   23 186 
 BAR2 SZ I        2249 21.14        73.0 0.20            164             23 186 
 BRR  HZ IP     C 2249  5.57                             153     0.310   70 300 
 BRR  HZ I        2249  5.78       126.9 0.14            139             70 300 
 BRR  HN ES   1   2249 22.41                             153     0.8 7   70 300 
 PAM  SZ EP   2   2249  6.62                             150     0.1 5   79  40 
 PAM  SN ES   1   2249 23.79                             150     0.0 7   79  40 
 PAM  SZ I        2249 26.51        18.7 0.54            143             79  40 
 RUS  HZ IP     C 2249  7.80                             143    -0.210  100 175 
 RUS  HN ES   1   2249 26.74                             143     0.4 7  100 175 
 RUS  HZ I        2249 27.58        41.7 0.26            131            100 175 
 PTB  HZ EP       2249 10.34                             132    -0.8 9  146 259 
 PTB  HN ES   1   2249 31.49                             132    -0.4 7  146 259 
 PTB  HZ I        2249 33.55        29.8 0.14            118            146 259 
 TAM  HZ IP     D 2249 12.27                             130     0.1 9  157 105 
 OCA  HZ EP   2   2249 12.07                             129    -0.6 5  160 354 
 OCA  HN ES   2   2249 34.56                             129    -0.1 5  160 354 
 OCA  HZ I        2249 40.29        53.7 0.36            117            160 354 
 YOP  SZ EP   3   2249 13.96                             126    -0.5 2  179 153 
 YOP  SN ES   3   2249 37.99                             126     0.2 2  179 153 
 ZAR  HZ EP       2249 16.69                             122     0.1 9  202 292 
 ZAR  HN ES   1   2249 41.55                             122    -0.2 6  202 292 
 ZAR  HZ I        2249 47.04        38.2 0.44            110            202 292 
 NOR  SZ EP       2249 19.78                             118    -0.1 8  233 234 
 NOR  SE ES   1   2249 47.62                             118     0.1 6  233 234 
 CHI  HZ EP   2   2249 21.68                             117    -0.3 4  248 195 
 CHI  HN ES   1   2249 51.64                             117     0.4 6  248 195 
 CHI  HZ I        2249 53.79        22.3 0.34            106            248 195 
 ROSC BN ES   2   2249 51.35                             116    -0.5 4  252 211 
 ROSC BZ I        2249 58.64        33.4 0.35            105            252 211 
 HEL  HZ EP       2249 25.25                             114     0.9 8  270 256 
 HEL  HZ I        2250  3.19        16.1 0.32            103            270 256 
 PRA  HZ EP       2249 37.96                             106     0.2 6  391 209 
 PRA  HZ I        2250 22.48        40.1 0.22             96            391 209 
