 2012  8 2 2040 28.4 L   6.761 -73.153140.7  RSN 13 0.4 2.6LRSN                1
 GAP= 96        0.81       3.3     2.9  5.2  0.1447E+00  0.3095E+01  0.4582E+01E
 Epicentro: LOS SANTOS - SANTANDER                                             3
 ACTION:UPD 12-09-10 11:53 OP:ep   STATUS:               ID:20120802204028 L   I
 2012-08-02-2040-00M.COL___215                                                 6
 STAT SP IPHASW D HRMM SECON CODA AMPLIT PERI AZIMU VELO AIN AR TRES W  DIS CAZ7
 BAR2 SZ IP       2040 47.42                             172    0.1210 18.9 190 
 BAR2 SZ ES   1   2041  2.26                             172    0.19 7 18.9 190 
 BAR2 SZ I        2041  3.99       112.0 0.21                          18.9 190 
 BRR  HZ EP       2040 49.24                             151    0.1910 72.7 302 
 BRR  HN ES   1   2041  6.10                             151    0.91 7 72.7 302 
 BRR  HZ I        2041 10.37       115.6 0.12                          72.7 302 
 PAM  SZ EP       2040 50.13                             149   -0.1510 81.3  38 
 PAM  SN ES   1   2041  7.03                             149   -0.35 7 81.3  38 
 RUS  HZ IP     C 2040 51.43                             144    0.1310 96.3 175 
 RUS  HN ES   1   2041  9.08                             144   -0.12 7 96.3 175 
 RUS  HZ I        2041 11.92        32.8 0.34                          96.3 175 
 PTB  HZ EP       2040 54.10                             131   -0.67 9  146 260 
 PTB  HN ES   1   2041 15.07                             131   -0.30 7  146 260 
 PTB  HZ I        2041 18.52        26.2 0.16                           146 260 
 TAM  HZ IP     C 2040 55.79                             129    0.18 9  155 103 
 TAM  HZ I        2040 56.13        44.3 0.38                           155 103 
 TAM  HN ES   1   2041 16.50                             129   -0.37 7  155 103 
 ZAR  HZ EP       2041  0.17                             121   -0.40 9  205 293 
 ZAR  HN ES   1   2041 25.42                             121   -0.28 6  205 293 
 ZAR  HZ I        2041 31.61        44.8 0.22                           205 293 
 CHI  HZ EP       2041  5.75                             117    0.45 8  244 195 
 CHI  HN ES   1   2041 33.74                             117   -0.37 6  244 195 
 CHI  HZ I        2041 42.14        20.9 0.63                           244 195 
 ROSC BZ EP   2   2041  6.72                             116    0.97 4  249 211 
 ROSC BN ES   1   2041 34.91                             116   -0.01 6  249 211 
 ROSC BZ I        2041 42.40        40.2 0.59                           249 211 
 HEL  HZ EP   1   2041  9.03                             114    0.92 6  270 257 
 HEL  HN ES   1   2041 38.83                             114   -0.29 6  270 257 
 HEL  HZ I        2041 46.50        22.3 0.33                           270 257 
 VIL  SZ EP   2   2041 10.64                             111   -0.41 4  299 192 
 VIL  SZ I        2041 49.42        17.3 0.43                           299 192 
 GUY  SZ EP   2   2041 12.27                             111    0.63 4  300 236 
 PRA  HZ EP       2041 21.13                             106   -0.09 6  388 210 
 PRA  HN ES   1   2042  2.56                             106    0.11 4  388 210 
                                                                                
