 2010  9 2 2314 31.2 L   6.740 -73.011131.7  RSN  7 0.4 2.1LRSN                1
 GAP=175        0.87       6.1     8.4 12.2 -0.1799E+02 -0.4731E+02  0.3755E+02E
 Epicentro: CEPITA - SANTANDER                                                 3
 ACTION:UP  11-02-18 10:59 OP:tino STATUS:               ID:20100902231431 L   I
 2010-09-02-2312-29S.COL___120                                                 6
 STAT SP IPHASW D HRMM SECON CODA AMPLIT PERI AZIMU VELO SNR AR TRES W  DIS CAZ7
 BAR2 SZ EP       2314 49.25                             169     0.010   25 229 
 BAR2 SZ I        2314 49.71        31.8 0.30                            25 229 
 BRR  HZ EP       2314 51.43                             144    -0.510   88 298 
 BRR  HN ES       2315  8.29                             144     0.210   88 298 
 BRR  HZ I        2315  9.43        36.4 0.10                            88 298 
 RUS  HZ EP       2314 53.12                             143     0.010   94 185 
 RUS  HZ I        2314 54.30        13.8 0.13                            94 185 
 GRA  SZ EP       2314 55.67                             133     0.210  129  10 
 GRA  SZ ES   2   2315 14.53                             133     0.1 5  129  10 
 GRA  SZ I        2315 20.82         9.1 0.30                           129  10 
 OCA  SZ EP   3   2314 58.58                             125    -0.8 2  169 348 
 OCA  SZ I        2315 25.64        16.3 0.93                           169 348 
 RREF HZ EP   1   2315 18.56                             108     0.9 5  329 232 
 RREF HN ES   2   2315 53.84                             108     0.0 3  329 232 
 RREF HZ I        2315 58.39         6.5 0.28                           329 232 
 PRA  HE ES   2   2316  5.58                             104    -0.5 3  394 212 
 PRA  HZ I        2316 10.31         3.6 1.23                           394 212 
                                                                                
