 2014  6 3 0939 32.6 L   6.832 -73.134133.9  RSN  6 0.6 1.3LRSN                1
 GAP=202        1.23       7.0     8.2 12.6  0.1418E+02  0.5459E+01 -0.4583E+02E
 Epicentro: LOS SANTOS - SANTANDER                                             3
 ACTION:UPD 14-07-01 22:50 OP:nd   STATUS:               ID:20140603093932 L   I
 OLDACT:REG 14-06-03 13:19 OP:fm   STATUS:               ID:20140603093812     3
 2014-06-03-0938-12M.COL___247                                                 6
 STAT SP IPHASW D HRMM SECON CODA AMPLIT PERI AZIMU VELO AIN AR TRES W  DIS CAZ7
 BAR2 SZ ES   1    940  5.49                             168    0.36 8 27.1 191 
 BAR2 SZ I         940  7.10         3.8 0.30            172           27.1 191 
 RUS  HZ EP   1    939 55.47                             141    0.03 8  104 177 
 RUS  HN ES   1    940 13.17                             141   -0.11 8  104 177 
 RUS  HZ I         940 17.04         1.6 0.42            144            104 177 
 PTB  HZ EP        939 57.83                             129   -0.9610  150 258 
 PTB  HN ES        940 18.98                             129   -0.2510  150 258 
 PTB  HZ I         940 19.94         1.8 0.12            133            150 258 
 SPBC HN ES   1    940 22.48                             126    0.12 7  167 219 
 SPBC HZ I         940 24.45         2.7 0.24            130            167 219 
 ZAR  HZ EP        940  5.41                             120    1.15 9  204 291 
 ZAR  HE ES        940 29.30                             120    0.33 9  204 291 
 ZAR  HZ I         940 31.22         2.6 0.26            122            204 291 
 SML  HZ EP        940  8.28                             115    0.02 9  241 335 
 SML  HN ES   1    940 35.40                             115   -0.70 6  241 335 
 SML  HZ I         940 42.00         2.4 0.24            117            241 335 
                                                                                
