 2016 11 3 0510 14.8 L   6.756 -73.214145.7  RSN  4 0.3 1.0LRSN                1
 GAP=224        0.89       7.0     6.5  7.2  0.2231E+02  0.5258E+01  0.2309E+01E
 Epicentro: ZAPATOCA - SANTANDER                                               3
 ACTION:UPD 17-10-26 21:04 OP:lp   STATUS:               ID:20161103051014 L   I
 OLDACT:REG 16-11-03 12:28 OP:dani STATUS:               ID:20161103050749     3
 2016-11-03-0508-00M.COL___337                                                 6
 STAT SP IPHASW D HRMM SECON CODA AMPLIT PERI AZIMU VELO AIN AR TRES W  DIS CAZ7
 BAR2 EZ EP        510 33.85                             172   -0.4710 18.4 169 
 BAR2 EZ ES        510 49.13                             172   -0.4210 18.4 169 
 BRR  HZ EP        510 35.85                             154    0.1410 67.3 305 
 BRR  HN ES        510 52.49                             154    0.4510 67.3 305 
 BRR  HZ I         510 54.59         2.5 0.19            150           67.3 305 
 RUS  HZ EP        510 38.36                             145    0.1210 96.6 171 
 RUS  HE ES        510 56.92                             145    0.3810 96.6 171 
 RUS  HZ I         510 58.70         1.0 0.40            143           96.6 171 
 PTB  HZ EP        510 41.09                             134    0.09 9  139 260 
 PTB  HN ES        511  1.13                             134   -0.32 9  139 260 
 PTB  HZ I         511  8.92         1.7 0.36            130            139 260 
                                                                                
