 2011 11 3 0642 18.0 L   6.041 -73.718101.8  RSN  7 0.4 1.8LRSN                1
 GAP=157        0.88       4.8     5.4  9.8  0.1166E+02  0.3187E+02  0.1535E+02E
 Epicentro: BOLIVAR - SANTANDER                                                3
 ACTION:UPD 12-07-13 16:07 OP:ep   STATUS:               ID:20111103064218 L   I
 2011-11-03-0639-30S.COL___174                                                 6
 STAT SP IPHASW D HRMM SECON CODA AMPLIT PERI AZIMU VELO AIN AR TRES W  DIS CAZ7
 RUS  HZ EP        642 35.54                             142    0.2110 72.1 103 
 RUS  HN ES   1    642 48.33                             142   -0.56 7 72.1 103 
 RUS  HZ I         642 51.00         9.7 0.26                          72.1 103 
 BAR2 SZ EP        642 35.94                             137   -0.0610 85.0  44 
 BAR2 SZ ES        642 50.12                             137    0.0510 85.0  44 
 BAR2 SZ I         642 51.82        42.6 0.37                          85.0  44 
 BRR  HZ EP        642 38.16                             126   -0.5210  118   0 
 BRR  HZ I         642 38.74        12.4 0.11                           118   0 
 BRR  HN ES        642 55.40                             126    0.5510  118   0 
 YOP  SZ EP   1    642 43.80                             117    0.33 7  163 118 
 YOP  SZ I         643  6.96         6.9 0.27                           163 118 
 HEL  HZ EP   1    642 48.77                             111    0.66 6  201 275 
 HEL  HN ES   2    643 11.80                             111    0.17 4  201 275 
 HEL  HZ I         643 18.64         3.4 0.19                           201 275 
 ZAR  HZ EP   2    642 47.48                             111   -0.50 4  204 322 
 ZAR  HE ES   1    643 10.68                             111   -0.73 6  204 322 
 ZAR  HZ I         643 12.96        14.9 0.51                           204 322 
 OCA  SZ EP   1    642 52.89                             106   -0.24 6  247  10 
 OCA  SZ ES   2    643 21.19                             106    0.62 4  247  10 
 OCA  SZ I         643 23.81         6.1 0.26                           247  10 
                                                                                
