 2012  8 3 0751 47.4 L   6.834 -73.520 96.1  RSN  5 0.2 1.0LRSN                1
 GAP= 98        0.40       2.4     2.1  8.1 -0.1691E-01  0.3840E+01  0.9623E+00E
 Epicentro: SAN VICENTE DE CHUCURI - SANTANDER                                 3
 ACTION:UPD 12-09-10 11:54 OP:ep   STATUS:               ID:20120803075144 L   I
 2012-08-03-0750-00M.COL___215                                                 6
 STAT SP IPHASW D HRMM SECON CODA AMPLIT PERI AZIMU VELO AIN AR TRES W  DIS CAZ7
 BRR  HZ EP   1    752  1.32                             157    0.07 8 36.9 325 
 BAR2 SZ EP   1    752  2.35                             153    0.29 8 45.9 126 
 BAR2 SZ I         752  2.61         7.7 0.14                          45.9 126 
 PAM  SN ES   1    752 22.56                             129   -0.13 8  106  58 
 PTB  HZ EP   1    752  6.84                             128    0.06 8  109 253 
 PTB  HN ES   1    752 21.81                             128   -0.11 8  109 253 
 PTB  HZ I         752 28.31         1.3 0.12                           109 253 
 RUS  HZ EP   1    752  7.81                             127   -0.21 7  115 155 
 RUS  HE ES        752 24.15                             127    0.0210  115 155 
 RUS  HZ I         752 26.37         1.4 0.36                           115 155 
                                                                                
