 2012  7 3 0141 51.3 L   6.692 -73.241141.4  RSN  7 0.2 1.9LRSN                1
 GAP=198        0.54       3.8     3.2  4.4  0.2444E+01  0.4209E+01  0.5629E+01E
 Epicentro: BARICHARA - SANTANDER                                              3
 ACTION:UPD 12-08-14 11:42 OP:ep   STATUS:               ID:20120703014151 L   I
 2012-07-03-0140-00M.COL___200                                                 6
 STAT SP IPHASW D HRMM SECON CODA AMPLIT PERI AZIMU VELO AIN AR TRES W  DIS CAZ7
 BAR2 SZ EP        142 10.06                             175    -0.210   13 149 
 BAR2 SZ I         142 10.41        22.8 0.08            171             13 149 
 BAR2 SZ ES   1    142 24.83                             175    -0.2 7   13 149 
 BRR  HZ EP        142 11.91                             152     0.010   69 311 
 BRR  HZ I         142 12.41        18.4 0.10            149             69 311 
 BRR  HN ES        142 28.19                             152     0.210   69 311 
 RUS  HZ EP        142 13.99                             146     0.110   90 169 
 RUS  HZ I         142 15.23         7.7 0.11            145             90 169 
 RUS  HN ES   1    142 31.84                             146     0.3 7   90 169 
 PTB  HZ EP   1    142 16.75                             134    -0.1 7  135 263 
 PTB  HE ES   1    142 36.34                             134    -0.4 7  135 263 
 PTB  HZ I         142 41.89         6.3 0.08            130            135 263 
 NOR  SZ EP   1    142 25.22                             119     0.1 6  219 235 
 NOR  SE ES   1    142 51.40                             119    -0.1 6  219 235 
 HEL  HZ EP   1    142 30.20                             115     0.3 6  259 258 
 HEL  HN ES   1    143  0.21                             115     0.3 6  259 258 
 HEL  HZ I         143  8.51         6.9 0.14            114            259 258 
 PRA  HZ EP   1    142 42.73                             107    -0.2 5  376 209 
