 2012  8 3 0805 40.4 L   5.766 -73.945105.1  RSN  7 0.4 1.5LRSN                1
 GAP=176        0.84       5.2     4.3 10.4 -0.6507E+01 -0.1310E+02  0.1897E+01E
 Epicentro: ALBANIA - SANTANDER                                                3
 ACTION:UPD 12-09-10 11:54 OP:ep   STATUS:               ID:20120803080540 L   I
 2012-08-03-0800-00M.COL___215                                                 6
 STAT SP IPHASW D HRMM SECON CODA AMPLIT PERI AZIMU VELO AIN AR TRES W  DIS CAZ7
 RUS  HZ EP   1    8 5 59.69                             134   -0.36 8 96.5  82 
 RUS  HZ I         8 6  0.43         4.2 0.16                          96.5  82 
 PTB  HZ EP   1    8 5 59.27                             132   -0.68 8  103 327 
 PTB  HN ES   1    8 6 14.67                             132   -0.53 8  103 327 
 PTB  HZ I         8 6 17.26         3.6 0.19                           103 327 
 NOR  SZ EP   1    8 6  0.23                             131    0.03 8  105 258 
 NOR  SN ES   1    8 6 16.22                             131    0.57 8  105 258 
 BAR2 SZ EP   1    8 6  2.30                             126   -0.01 8  124  43 
 BAR2 SZ I         8 6  2.67        11.5 0.24                           124  43 
 BAR2 SZ ES   1    8 6 19.44                             126    0.03 8  124  43 
 BRR  HZ EP        8 6  4.76                             120    0.0810  151  10 
 BRR  HN ES   1    8 6 24.04                             120    0.42 7  151  10 
 BRR  HZ I         8 6 27.48         8.1 0.18                           151  10 
 ZAR  HZ EP   1    8 6 11.45                             110   -0.47 7  216 332 
 ZAR  HN ES   1    8 6 36.92                             110    0.40 7  216 332 
 ZAR  HZ I         8 6 41.71         4.6 0.52                           216 332 
 PAM  SZ EP   1    8 6 13.96                             110    0.75 7  222  38 
                                                                                
