 2012  4 3 0656 39.7 L   6.531 -73.464115.2  RSN  5 0.4 1.4LRSN                1
 GAP=156        0.81       5.4     4.8  8.7  0.3439E+01  0.1388E+02 -0.1031E+02E
 Epicentro: SIMACOTA - SANTANDER                                               3
 ACTION:UPD 12-07-05 11:50 OP:tino STATUS:               ID:20120403065639 L   I
 2012-04-03-0650-00M.COL___196                                                 6
 STAT SP IPHASW D HRMM SECON CODA AMPLIT PERI AZIMU VELO AIN AR TRES W  DIS CAZ7
 BAR2 SZ EP   1    656 56.36                             163     0.4 8   32  78 
 BAR2 SZ ES   1    657  8.66                             163     0.0 8   32  78 
 BAR2 SZ I         657 10.01        17.3 0.32                            32  78 
 BRR  HZ EP   1    656 56.87                             147    -0.7 8   69 337 
 BRR  HN ES   1    657 11.43                             147     0.0 8   69 337 
 RUS  HN ES   1    657 14.23                             142    -0.1 8   82 149 
 PAM  SZ EP   1    657  2.27                             130    -0.4 7  123  43 
 PAM  SE ES        657 20.63                             130     0.210  123  43 
 PAM  SZ I         657 22.63         2.0 0.24                           123  43 
 ZAR  HZ EP   1    657  9.14                             117     0.6 7  187 305 
 ZAR  HN ES   1    657 30.95                             117    -0.1 7  187 305 
 ZAR  HZ I         657 33.29         2.1 0.38                           187 305 
                                                                                
