 2010 11 3 0145 26.1 L   6.792 -73.042147.5  RSN  5 0.3 1.4LRSN                1
 GAP=243        0.54       8.4    13.8  8.5  0.7235E+02 -0.3273E+02  0.4310E+01E
 Epicentro: LOS SANTOS - SANTANDER                                             3
 ACTION:UP  10-12-17 16:50 OP:REBC STATUS:               ID:20101103014526 L   I
 2010-11-03-0143-22S.COL___128                                                 6
 STAT SP IPHASW D HRMM SECON CODA AMPLIT PERI AZIMU VELO SNR AR TRES W  DIS CAZ7
 BAR2 SZ EP   2    145 45.88                             170    -0.1 5   27 215 
 BAR2 SZ I         145 46.08         4.5 0.18                            27 215 
 BTL  SZ EP   1    145 46.19                             169     0.1 7   29 299 
 BTL  SZ ES   2    146  2.14                             169     0.5 5   29 299 
 BRR  HZ EP   2    145 47.87                             150    -0.2 5   82 295 
 BRR  HE ES   1    146  5.01                             150    -0.2 7   82 295 
 BRR  HZ I         146  7.91         9.4 0.13                            82 295 
 RUS  HZ EP   2    145 49.48                             145    -0.5 5  100 183 
 RUS  HE ES   2    146  8.61                             145     0.1 5  100 183 
 RUS  HZ I         146 10.27         2.4 0.32                           100 183 
 PRA  HZ EP   2    146 20.91                             107     0.7 3  397 211 
                                                                                
