 2011  3 3 0702  3.6 L   6.836 -73.077145.6  RSN  7 0.4 1.8LRSN                1
 GAP=131        0.76       4.6     6.9  6.6 -0.1415E+02  0.7678E+01 -0.5015E+01E
 Epicentro: LOS SANTOS - SANTANDER                                             3
 ACTION:UP  11-06-16 14:31 OP:jfem STATUS:               ID:20110303070203 L   I
 2011-03-03-0659-38S.COL___135                                                 6
 STAT SP IPHASW D HRMM SECON CODA AMPLIT PERI AZIMU VELO SNR AR TRES W  DIS CAZ7
 BAR2 SZ IP     D  7 2 23.42                             168     0.010   29 204 
 BAR2 SZ ES   1    7 2 38.78                             168     0.0 7   29 204 
 BAR2 SZ I         7 2 42.72        21.3 0.10                            29 204 
 RUS  HZ EP        7 2 27.65                             143     0.010  104 180 
 RUS  HN ES   2    7 2 46.20                             143    -0.2 5  104 180 
 RUS  HZ I         7 2 47.15         3.5 0.10                           104 180 
 GRA  SZ EP   1    7 2 28.71                             138     0.3 7  120  15 
 GRA  SZ ES   1    7 2 47.66                             138     0.0 7  120  15 
 GRA  SZ I         7 2 49.22        17.4 0.31                           120  15 
 OCA  SZ EP   1    7 2 31.44                             130    -0.2 7  157 350 
 CHI  HZ EP   2    7 2 41.30                             116    -0.7 4  255 197 
 HEL  HZ EP        7 2 45.47                             114     0.7 7  280 255 
 HEL  HN ES   2    7 3 15.71                             114    -1.2 4  280 255 
 SDV  BZ EP        7 2 52.36                             109    -0.3 6  352  50 
                                                                                
