 2013 11 3 0147 54.3 L   6.796 -73.138149.1  RSN 16 0.5 2.5LRSN                1
 GAP= 72        1.22       3.6     3.9  7.0 -0.4569E+00  0.2281E+01  0.1047E-01E
 Epicentro: LOS SANTOS - SANTANDER                                             3
 ACTION:UPD 14-01-09 16:25 OP:ep   STATUS:               ID:20131103014754 L   I
 OLDACT:REG 13-11-03 08:01 OP:jn   STATUS:               ID:20131103014637     3
 2013-11-03-0146-37M.COL___217                                                 6
 STAT SP IPHASW D HRMM SECON CODA AMPLIT PERI AZIMU VELO AIN AR TRES W  DIS CAZ7
 BAR2 SZ EP        148 14.45                             171    0.1410 23.0 192 
 BAR2 SZ ES        148 29.60                             171   -0.3310 23.0 192 
 BAR2 SZ I         148 31.28        93.1 0.24            160           23.0 192 
 BRR  HZ EP        148 16.35                             153    0.5010 72.1 299 
 BRR  HN ES        148 33.76                             153    1.1010 72.1 299 
 BRR  HZ I         148 37.60        58.7 0.16            131           72.1 299 
 PAM  SZ EP        148 17.23                             151    0.3810 77.2  39 
 PAM  SN ES        148 33.62                             151   -0.8210 77.2  39 
 PAM  SZ I         148 36.76        63.5 0.56            139           77.2  39 
 RUS  HZ EP        148 18.27                             145   -0.0610  100 177 
 RUS  HN ES        148 37.21                             145    0.1310  100 177 
 RUS  HZ I         148 38.20        17.3 0.24            128            100 177 
 PTB  HZ EP        148 20.86                             133   -0.73 9  148 259 
 PTB  HN ES        148 42.34                             133   -0.55 9  148 259 
 PTB  HZ I         148 48.37        71.0 0.30            113            148 259 
 TAM  HZ EP        148 22.59                             131    0.44 9  154 105 
 TAM  HN ES        148 43.67                             131   -0.21 9  154 105 
 OCA  HZ EP        148 22.49                             130   -0.42 9  161 353 
 OCA  HE ES        148 45.63                             130    0.40 9  161 353 
 OCA  HZ I         148 50.98        25.9 0.20            113            161 353 
 SPBC HZ EP        148 23.40                             130    0.34 9  163 219 
 SPBC HN ES        148 45.60                             130    0.10 9  163 219 
 SPBC HZ I         148 50.58        38.6 0.24            112            163 219 
 ZAR  HN ES   1    148 52.72                             123    0.12 6  205 292 
 ZAR  HZ I         149  3.30        35.2 0.36            106            205 292 
 NOR  HN ES   1    148 57.77                             119   -0.54 6  235 235 
 SML  HN ES        148 59.47                             118   -0.49 8  244 335 
 ROSC BZ EP   1    148 32.55                             117   -0.05 6  253 211 
 HEL  HZ EP   4    148 36.15                             115    1.40 0  273 256 
 HEL  HZ I         149 13.05        19.6 0.30            102            273 256 
 GUY2CHZ EP   4    148 39.13                             113    1.03 0  302 235 
 GUY2CHZ I         149 21.56        15.2 0.26                           302 235 
 RREF HZ EP   4    148 41.35                             111    0.73 0  322 230 
 RREF HZ I         149 26.92        18.1 0.40            100            322 230 
 SJC  HZ EP   4    148 48.68                             106   -1.38 0  410 327 
 SJC  HZ I         149 34.72         5.8 0.40             98            410 327 
                                                                                
