 2014  8 3 0218 39.5 L   6.753 -73.178136.7  RSN  4 0.3 1.0LRSN                1
 GAP=238        0.78       5.6     5.8  7.0 -0.4962E+01  0.8405E+01  0.2674E+01E
 Epicentro: LOS SANTOS - SANTANDER                                             3
 ACTION:UPD 14-09-15 21:46 OP:nd   STATUS:               ID:20140803021839 L   I
 OLDACT:REG 14-08-03 12:53 OP:carl STATUS:               ID:20140803021818     3
 2014-08-03-0218-18M.COL___242                                                 6
 STAT SP IPHASW D HRMM SECON CODA AMPLIT PERI AZIMU VELO AIN AR TRES W  DIS CAZ7
 BAR2 SZ EP        218 58.09                             172    0.1210 17.8 182 
 BAR2 SZ ES        219 12.06                             172   -0.2910 17.8 182 
 BAR2 SZ I         219 14.53         3.2 0.28            165           17.8 182 
 BRR  HZ EP        219  0.03                             151    0.3410 70.8 304 
 BRR  HN ES        219 15.54                             151    0.1310 70.8 304 
 PTB  HZ EP        219  4.81                             131   -0.55 9  143 261 
 PTB  HN ES        219 25.43                             131   -0.08 9  143 261 
 PTB  HZ I         219 33.69         1.0 0.38            129            143 261 
 SPBC HN ES        219 28.24                             128    0.28 9  157 219 
 SPBC HZ I         219 33.17         1.5 0.20            126            157 219 
                                                                                
