 2012  7 3 0234 19.7 L   6.749 -73.132134.0  RSN  8 0.4 2.2LRSN                1
 GAP=141        0.99       5.1     5.2  8.0 -0.2187E+01  0.9802E+01  0.4101E+00E
 Epicentro: LOS SANTOS - SANTANDER                                             3
 ACTION:UPD 12-08-14 11:42 OP:ep   STATUS:               ID:20120703023419 L   I
 2012-07-03-0230-00M.COL___200                                                 6
 STAT SP IPHASW D HRMM SECON CODA AMPLIT PERI AZIMU VELO AIN AR TRES W  DIS CAZ7
 BAR2 SZ EP   1    234 38.04                             172     0.2 7   18 198 
 BAR2 SZ ES   1    234 51.14                             172    -0.8 7   18 198 
 BAR2 SZ I         234 54.26        37.6 0.25            175             18 198 
 BRR  HZ EP        234 40.29                             149     0.410   75 302 
 BRR  HZ I         234 40.76        48.7 0.09            137             75 302 
 BRR  HE ES   1    234 56.02                             149     0.4 7   75 302 
 PAM  SZ EP   1    234 40.89                             147     0.0 7   81  36 
 PAM  SE ES   1    234 57.60                             147     0.1 7   81  36 
 RUS  HZ EP        234 42.34                             143     0.410   95 177 
 RUS  HN ES   1    234 59.08                             143    -0.1 7   95 177 
 PTB  HZ EP   1    234 45.10                             129    -0.7 7  148 261 
 PTB  HE ES   1    235  6.16                             129     0.0 7  148 261 
 PTB  HZ I         235  8.93        14.5 0.16            123            148 261 
 OCA  HZ EP   1    234 47.16                             126    -0.6 7  166 353 
 OCA  HZ I         235 11.82        35.6 0.29            114            166 353 
 ZAR  HN ES   1    235 16.73                             119    -0.1 6  208 293 
 ZAR  HZ I         235 23.17        11.6 0.14            111            208 293 
 NOR  SZ EP   1    234 54.19                             116    -0.4 6  233 236 
 NOR  SN ES   1    235 21.99                             116     0.2 6  233 236 
