 2016  6 3 0657 31.6 L   6.750 -73.219153.4  RSN  4 0.4 0.9LRSN                1
 GAP=221        1.12       9.0     8.4  9.0  0.3628E+02  0.6870E+01  0.2390E+01E
 Epicentro: ZAPATOCA - SANTANDER                                               3
 ACTION:UPD 16-07-21 22:14 OP:rebc STATUS:               ID:20160603065731 L   I
 OLDACT:UP  16-06-03 17:24 OP:edw  STATUS:               ID:20160603064747     3
 OLDACT:REG 16-06-03 12:25 OP:edw  STATUS:               ID:20160603064747     3
 2016-06-03-0647-47M.COL___319                                                 6
 STAT SP IPHASW D HRMM SECON CODA AMPLIT PERI AZIMU VELO AIN AR TRES W  DIS CAZ7
 BAR2 EZ EP        657 51.76                             173   -0.2810 17.9 167 
 BAR2 EZ ES        658  7.48                             173   -0.5210 17.9 167 
 BRR  HZ EP        657 53.69                             155    0.3310 67.3 306 
 BRR  HE ES        658 10.69                             155    0.3410 67.3 306 
 RUS  HZ EP        657 56.32                             147    0.5410 96.0 171 
 RUS  HE ES        658 14.79                             147    0.1310 96.0 171 
 RUS  HZ I         658 17.53         1.3 0.46                          96.0 171 
 PTB  HZ EP        657 57.65                             136   -0.76 9  139 260 
 PTB  HN ES        658 19.50                             136    0.17 9  139 260 
                                                                                
