 2015  4 3 0707 48.4 L   7.537 -73.158140.4  RSN 13 0.5 2.0LRSN                1
 GAP=126        1.07       3.2     3.5  5.6  0.1555E+01  0.4907E+01  0.3039E+01E
 Epicentro: EL PLAYON - SANTANDER                                              3
 ACTION:UPD 15-06-03 16:52 OP:cam  STATUS:               ID:20150403070748 L   I
 OLDACT:UP  15-04-03 15:35 OP:mh   STATUS:               ID:20150403065741     3
 OLDACT:UP  15-04-03 15:33 OP:mh   STATUS:               ID:20150403065741     3
 OLDACT:REG 15-04-03 12:59 OP:mh   STATUS:               ID:20150403065741     3
 2015-04-03-0657-41M.COL___283                                                 6
 STAT SP IPHASW D HRMM SECON CODA AMPLIT PERI AZIMU VELO AIN AR TRES W  DIS CAZ7
 PAM  SZ EP        7 8  9.36                             158    0.5310 55.1 113 
 PAM  SN ES        7 8 25.08                             158    0.3110 55.1 113 
 PAM  SZ I         7 8 25.72        15.2 0.24            162           55.1 113 
 BRR  HZ EP        7 8  9.86                             149    0.5210 77.4 232 
 BRR  HN ES        7 8 25.58                             149   -0.0910 77.4 232 
 BRR  HZ I         7 8 29.34        16.7 0.12            147           77.4 232 
 OCA  HZ EP        7 8  9.92                             149    0.2210 79.6 347 
 OCA  HN ES        7 8 26.57                             149    0.2610 79.6 347 
 OCA  HZ I         7 8 29.11        28.5 0.42            151           79.6 347 
 BAR2 EZ EP   1    7 8 11.21                             141   -0.35 7  105 181 
 BAR2 EZ ES        7 8 29.32                             141   -0.3010  105 181 
 BAR2 EZ I         7 8 30.67        44.0 0.28            142            105 181 
 SML  HZ EP        7 8 16.54                             126   -0.70 9  172 324 
 SML  HN ES   1    7 8 38.69                             126   -1.05 7  172 324 
 SML  HZ I         7 8 44.15        14.6 0.10            127            172 324 
 PTB  HZ EP        7 8 18.14                             125    0.01 9  181 233 
 PTB  HN ES   1    7 8 40.43                             125   -0.90 7  181 233 
 PTB  HZ I         7 8 45.63         6.6 0.44            125            181 233 
 RUS  HZ EP        7 8 18.84                             125   -0.03 9  182 177 
 RUS  HN ES        7 8 42.47                             125   -0.17 9  182 177 
 ZAR  HZ EP        7 8 18.85                             124    0.05 9  188 269 
 ZAR  HN ES        7 8 43.03                             124    0.50 9  188 269 
 ZAR  HZ I         7 8 48.27        10.0 0.29            124            188 269 
 TAM  HZ EP        7 8 19.34                             123   -0.16 9  194 129 
 TAM  HN ES        7 8 43.30                             123   -0.46 9  194 129 
 TAM  HZ I         7 8 45.76         7.8 0.78            126            194 129 
 SPBC HZ EP   1    7 8 23.78                             118    0.25 6  232 206 
 SPBC HN ES   1    7 8 50.46                             118   -0.48 6  232 206 
 SPBC HZ I         7 8 59.82         8.5 0.24            118            232 206 
 URE  HZ EP   4    7 8 22.84                             114   -4.04 0  263 275 
 URE  HN ES   4    7 8 53.97                             114   -2.93 0  263 275 
 NOR  HZ EP        7 8 30.84                             112    1.02 7  289 221 
 NOR  HE ES        7 9  2.73                             112    0.59 7  289 221 
 NOR  HZ I         7 9  9.62         5.4 0.21            113            289 221 
 HEL  HZ EP        7 8 30.98                             111   -0.66 7  301 241 
 HEL  HN ES   1    7 9  4.84                             111   -0.53 5  301 241 
 HEL  HZ I         7 9 13.06         2.3 0.18            112            301 241 
 GUY2CHZ EP        7 8 38.01                             108    0.23 6  354 224 
 GUY2CHN ES   4    7 9 20.36                             108    4.06 0  354 224 
 GUY2CHZ I         7 9 30.99         3.3 0.72                           354 224 
                                                                                
