 2017  9 3 0520  6.4 L   6.808 -73.143147.9  RSN 11 0.3 1.8LRSN                1
 GAP=112        0.83       2.7     3.2  4.6  0.7417E+00  0.2880E+01  0.2046E+01E
 Epicentro: LOS SANTOS - SANTANDER                                             3
 ACTION:UPD 17-10-05 19:08 OP:rebc STATUS:               ID:20170903052006 L   I
 OLDACT:UP  17-09-03 16:04 OP:dani STATUS:               ID:20170903051736     3
 OLDACT:UP  17-09-03 16:04 OP:dani STATUS:               ID:20170903051736     3
 OLDACT:UP  17-09-03 16:03 OP:dani STATUS:               ID:20170903051736     3
 OLDACT:REG 17-09-03 13:19 OP:dani STATUS:               ID:20170903051736     3
 2017-09-03-0518-00M.COL___408                                                 6
 STAT SP IPHASW D HRMM SECON CODA AMPLIT PERI AZIMU VELO AIN AR TRES W  DIS CAZ7
 BAR2 EZ EP        520 25.98                             170   -0.2910 24.3 190 
 BAR2 EZ ES        520 41.32                             170   -0.4710 24.3 190 
 BAR2 EZ I         520 43.78        15.4 0.30            168           24.3 190 
 BRR  HZ EP        520 27.91                             153    0.1810 71.0 298 
 BRR  HN ES        520 44.85                             153    0.4510 71.0 298 
 BRR  HZ I         520 48.81         9.9 0.26            152           71.0 298 
 PAM  HZ EP     D  520 28.95                             152    0.2010 76.5  40 
 PAM  EN ES        520 46.17                             152   -0.0510 76.5  40 
 PAM  HZ I         520 49.03         7.2 0.28            155           76.5  40 
 RUS  HZ EP        520 30.02                             144   -0.3710  101 176 
 RUS  HN ES        520 48.87                             144   -0.2510  101 176 
 RUS  HZ I         520 49.86         5.4 0.40            144            101 176 
 SPBC HZ EP        520 34.96                             129   -0.15 9  164 219 
 SPBC HN ES        520 57.87                             129    0.34 9  164 219 
 SPBC HZ I         520 59.86         8.9 0.10            129            164 219 
 YPLC HZ EP     D  520 36.41                             127    0.03 9  177 152 
 YPLC HN ES        521  0.55                             127    0.76 9  177 152 
 YPLC HZ I         521  1.37         8.5 0.24            129            177 152 
 ZAR  HZ EP        520 38.73                             123   -0.21 9  204 292 
 ZAR  HN ES        521  4.37                             123    0.02 9  204 292 
 ZAR  HZ I         521  9.14         5.1 0.30            123            204 292 
 NOR  HZ EP        520 42.39                             119    0.09 8  235 234 
 NOR  HN ES        521 10.07                             119   -0.25 8  235 234 
 NOR  HZ I         521 15.52         4.3 0.16            119            235 234 
 CHI  HZ EP        520 44.41                             117    0.13 8  250 195 
 CHI  HN ES        521 13.80                             117   -0.06 8  250 195 
 CHI  HZ I         521 19.80         2.3 0.24            118            250 195 
 ROSC BZ EP   9    520 46.49                             117    1.79 0  254 211 
 ROSC BN ES        521 17.01                             117    0.62 8  254 211 
 ROSC BZ I         521 20.87         8.0 0.54            118            254 211 
 GUY2CHN ES   4    521 28.39                             113    4.08 0  302 235 
 PTGC HZ EP   9 D  520 49.15                             112   -1.25 0  309 159 
 PTGC HN ES        521 22.96                             112   -0.54 7  309 159 
 PTGC HZ I         521 28.08         3.7 0.25            113            309 159 
                                                                                
