 2015  3 3 0404 55.2 L   6.823 -73.144150.0  RSN  7 0.4 1.4LRSN                1
 GAP=136        0.87       3.4     4.4  6.2 -0.2958E+01  0.9901E+00  0.4371E+01E
 Epicentro: LOS SANTOS - SANTANDER                                             3
 ACTION:UPD 15-04-30 16:22 OP:nd   STATUS:               ID:20150303040455 L   I
 OLDACT:REG 15-03-03 12:44 OP:spq  STATUS:               ID:20150303035748     3
 2015-03-03-0357-48M.COL___284                                                 6
 STAT SP IPHASW D HRMM SECON CODA AMPLIT PERI AZIMU VELO AIN AR TRES W  DIS CAZ7
 BRR  HZ EP        4 5 17.06                             154    0.2710 70.2 297 
 BRR  HE ES        4 5 33.99                             154    0.3910 70.2 297 
 BRR  HZ I         4 5 37.10         4.6 0.40            155           70.2 297 
 PAM  SZ EP        4 5 18.20                             152    0.4110 75.3  41 
 PAM  SE ES        4 5 35.04                             152   -0.3310 75.3  41 
 PAM  SZ I         4 5 37.28         3.1 0.26            156           75.3  41 
 RUS  HZ EP        4 5 19.53                             144   -0.0610  103 176 
 RUS  HN ES   1    4 5 38.25                             144   -0.33 7  103 176 
 RUS  HZ I         4 5 40.46         2.1 0.26            144            103 176 
 PTB  HZ EP        4 5 21.97                             133   -0.64 9  148 258 
 PTB  HN ES        4 5 43.84                             133   -0.13 9  148 258 
 PTB  HZ I         4 5 45.00         4.9 0.36            134            148 258 
 SPBC HZ EP        4 5 24.40                             130    0.14 9  165 218 
 SPBC HN ES        4 5 47.13                             130    0.23 9  165 218 
 SPBC HZ I         4 5 53.17         3.7 0.22            130            165 218 
 SML  HZ EP   1    4 5 31.46                             119   -0.40 6  241 335 
 SML  HE ES   1    4 6  0.16                             119   -0.27 6  241 335 
 SML  HZ I         4 6  2.92         4.6 0.10            121            241 335 
 CHI  HZ EP        4 5 33.97                             118    0.53 8  251 195 
 CHI  HE ES   1    4 6  2.62                             118   -0.63 6  251 195 
 CHI  HZ I         4 6 11.46         0.9 0.30            119            251 195 
                                                                                
