 2012 11 3 0742 54.7 L   6.774 -73.126143.9  RSN 10 0.4 2.2LRSN                1
 GAP=140        0.71       2.9     4.0  5.8 -0.1431E+00  0.6237E+01  0.4109E+01E
 Epicentro: LOS SANTOS - SANTANDER                                             3
 ACTION:UPD 12-12-05 15:31 OP:}ep  STATUS:               ID:20121103074254 L   I
 2012-11-03-0740-00M.COL___234                                                 6
 STAT SP IPHASW D HRMM SECON CODA AMPLIT PERI AZIMU VELO AIN AR TRES W  DIS CAZ7
 BAR2 SZ EP        743 14.10                             171    0.0010 21.1 197 
 BAR2 SZ ES   1    743 28.64                             171   -0.55 7 21.1 197 
 BAR2 SZ I         743 31.84        32.4 0.28                          21.1 197 
 GIR2 SZ EP   1    743 14.23                             166   -0.05 7 34.5 347 
 BRR  HZ EP        743 16.03                             151    0.1610 74.5 300 
 BRR  HE ES   1    743 33.09                             151    0.73 7 74.5 300 
 BRR  HE I         743 37.01        39.7 0.20                          74.5 300 
 PAM  SZ EP        743 16.98                             150    0.1810 78.2  37 
 PAM  SN ES   1    743 34.27                             150    0.26 7 78.2  37 
 PAM  SN I         743 34.75        29.0 0.40                          78.2  37 
 RUS  HZ EP        743 17.99                             144   -0.1010 97.6 177 
 RUS  HE ES   1    743 36.42                             144    0.12 7 97.6 177 
 RUS  HE I         743 37.77        17.4 0.48                          97.6 177 
 OCA  HN ES   1    743 44.60                             129   -0.79 7  163 352 
 ZAR  HN ES   1    743 52.47                             121   -0.38 6  207 293 
 ZAR  HN I         743 58.49        15.3 0.18                           207 293 
 CHI  HZ EP   1    743 32.00                             117   -0.10 6  247 196 
 CHI  HN ES   1    744  0.98                             117   -0.26 6  247 196 
 CHI  HN I         744  5.33        13.2 0.24                           247 196 
 HEL  HZ EP   1    743 35.51                             114    0.49 6  274 256 
 HEL  HN ES   1    744  6.39                             114   -0.05 6  274 256 
 HEL  HN I         744 15.09         5.7 0.36                           274 256 
 PRA  HE ES   1    744 29.54                             106   -0.07 4  391 210 
 PRA  HE I         744 35.06         5.2 0.24                           391 210 
                                                                                
