 2015  8 3 0527 59.8 L   6.836 -73.098142.0  RSN 16 0.4 2.0LRSN                1
 GAP=188        1.00       2.6     5.0  5.4  0.2200E+01  0.8867E+01  0.2301E+01E
 Epicentro: LOS SANTOS - SANTANDER                                             3
 ACTION:UPD 15-09-15 22:59 OP:cam  STATUS:               ID:20150803052759 L   I
 OLDACT:UP  15-08-03 17:49 OP:mh   STATUS:               ID:20150803052649     3
 OLDACT:UP  15-08-03 17:49 OP:mh   STATUS:               ID:20150803052649     3
 OLDACT:UP  15-08-03 17:47 OP:mh   STATUS:               ID:20150803052649     3
 OLDACT:UP  15-08-03 17:46 OP:mh   STATUS:               ID:20150803052649     3
 OLDACT:UP  15-08-03 17:46 OP:mh   STATUS:               ID:20150803052649     3
 OLDACT:REG 15-08-03 17:40 OP:mh   STATUS:               ID:20150803052649     3
 2015-08-03-0526-49M.COL___352                                                 6
 STAT SP IPHASW D HRMM SECON CODA AMPLIT PERI AZIMU VELO AIN AR TRES W  DIS CAZ7
 BAR2 EZ EP        528 19.04                             168   -0.0710 28.5 199 
 BAR2 EZ ES        528 33.73                             168   -0.4310 28.5 199 
 BAR2 EZ I         528 36.42        19.3 0.26            163           28.5 199 
 BRR  HZ EP        528 21.00                             151    0.2610 74.2 294 
 BRR  HN ES        528 37.96                             151    0.9110 74.2 294 
 BRR  HZ I         528 41.74        13.9 0.22            145           74.2 294 
 RUS  HZ EP        528 23.40                             142   -0.0810  104 179 
 RUS  HN ES        528 42.02                             142    0.0910  104 179 
 RUS  HZ I         528 42.83        13.4 0.24            143            104 179 
 OCA  HZ EP   1    528 27.77                             129    0.23 7  157 351 
 OCA  HN ES        528 48.93                             129   -0.23 9  157 351 
 OCA  HZ I         528 52.35        20.4 0.18            130            157 351 
 ZAR  HZ EP        528 31.64                             121   -0.74 8  208 291 
 ZAR  HE ES        528 57.40                             121   -0.39 8  208 291 
 ZAR  HZ I         529  2.61        10.0 0.40            120            208 291 
 SML  HZ EP        528 35.59                             117   -0.50 8  242 334 
 SML  HN ES        529  4.55                             117    0.16 8  242 334 
 SML  HZ I         529  7.53        15.7 0.10            117            242 334 
 CHI  HZ EP        528 37.66                             116   -0.22 8  254 196 
 CHI  HE ES        529  7.00                             116   -0.57 8  254 196 
 CHI  HZ I         529  9.94         8.5 0.36            117            254 196 
 ROSC BZ EP        528 39.31                             115    0.90 8  259 212 
 ROSC BN ES   4    529 10.57                             115    2.06 0  259 212 
 ROSC BZ I         529 13.63        12.7 0.35            116            259 212 
 HEL  HZ EP        528 41.09                             113    0.57 7  278 255 
 HEL  HN ES        529 12.21                             113   -0.06 7  278 255 
 HEL  HZ I         529 17.26         6.0 0.32            113            278 255 
 URE  HZ EP   4    528 38.98                             113   -2.12 0  287 291 
 URE  HN ES   4    529 10.77                             113   -2.53 0  287 291 
 VIL  SE ES        529 18.09                             111    0.29 7  308 192 
 GUY2CHZ EP        528 44.28                             111    0.28 7  308 235 
 GUY2CHN ES   4    529 20.12                             111    1.65 0  308 235 
 GUY2CHZ I         529 23.25         4.1 0.38                           308 235 
 CBOC HZ EP        528 47.58                             109    0.28 7  340 252 
 CBOC HN ES   1    529 23.70                             109   -0.64 5  340 252 
 CBOC HZ I         529 32.89         1.8 0.44            109            340 252 
 TOL  SZ EP        528 48.72                             108    0.04 6  350 225 
 TOL  SN ES        529 26.41                             108   -0.38 6  350 225 
 TOL  SZ I         529 32.63         3.8 0.64            109            350 225 
 MON  HZ EP   4    528 46.03                             108   -2.85 0  355 307 
 MON  HN ES   4    529 23.52                             108   -3.63 0  355 307 
 MON  HZ I         529 40.03         3.3 0.62            108            355 307 
 ORTC HZ EP   4    528 53.16                             105   -1.19 0  402 216 
 ORTC HN ES   4    529 38.02                             105    1.13 0  402 216 
 ORTC HZ I         529 42.76         2.7 0.50            106            402 216 
 SJC  HZ EP   4    528 53.21                             105   -2.00 0  409 326 
 SJC  HN ES   4    529 33.89                             105   -4.53 0  409 326 
 SJC  HZ I         529 39.24         2.3 0.66            106            409 326 
                                                                                
