 2013  6 3 0215 38.3 L   6.631 -73.317141.9  RSN  6 0.4 2.0LRSN                1
 GAP=146        0.87       8.1     6.2  8.9  0.1482E+02  0.1986E+01  0.1556E+02E
 Epicentro: GALAN - SANTANDER                                                  3
 ACTION:UPD 14-01-08 09:52 OP:ep   STATUS:               ID:20130603021538 L   I
 2013-06-03-0210-00M.COL___257                                                 6
 STAT SP IPHASW D HRMM SECON CODA AMPLIT PERI AZIMU VELO AIN AR TRES W  DIS CAZ7
 BAR2 SZ EP        215 56.90                             174   -0.4210 15.4 106 
 BAR2 SZ ES   1    216 11.82                             174   -0.34 7 15.4 106 
 BAR2 SZ I         216 14.12        14.0 0.32            177           15.4 106 
 BRR  HZ IP     D  215 58.72                             152   -0.1410 68.4 320 
 BRR  HN ES        216 15.35                             152    0.4410 68.4 320 
 BRR  HZ I         216 19.63         8.0 0.14            149           68.4 320 
 RUS  HZ EP   1    216  1.03                             148    0.41 7 85.7 162 
 RUS  HN ES   2    216 18.38                             148    0.34 5 85.7 162 
 RUS  HN I         216 20.46        12.7 0.22            152           85.7 162 
 PTB  HZ EP   1    216  3.62                             136    0.56 7  126 265 
 PTB  HN ES        216 22.05                             136   -0.3210  126 265 
 PTB  HN I         216 27.43         8.0 0.20            134            126 265 
 ZAR  HN ES   4    216 35.40                             123    1.45 0  195 299 
 ZAR  HN I         216 44.03        16.8 0.42            122            195 299 
 NOR  HZ EP   4    216 13.72                             121    2.71 0  209 236 
 NOR  HN ES   4    216 39.24                             121    2.71 0  209 236 
 SML  HZ EP   4    216 12.97                             115   -2.86 0  254 341 
 SML  HN ES   4    216 41.91                             115   -3.20 0  254 341 
 SML  HN I         216 47.68        20.1 0.10            117            254 341 
                                                                                
