 2015 11 3 0445  4.7 L   6.762 -73.058137.8  RSN  4 0.3 0.6LRSN                1
 GAP=150        0.72       3.5     4.8  6.6 -0.5623E+01  0.2770E+01  0.4287E+01E
 Epicentro: LOS SANTOS - SANTANDER                                             3
 ACTION:UPD 15-12-28 16:08 OP:cam  STATUS:               ID:20151103044504 L   I
 OLDACT:UP  15-11-03 19:28 OP:ak   STATUS:               ID:20151103043741d    3
 OLDACT:DUP 15-11-03 19:26 OP:ak   STATUS:               ID:20151103043741d    3
 OLDACT:UP  15-11-03 19:23 OP:ak   STATUS:               ID:20151103043739     3
 OLDACT:UP  15-11-03 19:15 OP:ak   STATUS:               ID:20151103043739     3
 OLDACT:UP  15-11-03 19:10 OP:ak   STATUS:               ID:20151103043739     3
 OLDACT:REG 15-11-03 13:58 OP:cara STATUS:               ID:20151103043739     3
 2015-11-03-0437-39M.COL___313                                                 6
 STAT SP IPHASW D HRMM SECON CODA AMPLIT PERI AZIMU VELO AIN AR TRES W  DIS CAZ7
 PAM  EZ EP        445 26.34                             150    0.4510 75.1  32 
 PAM  EN ES        445 42.03                             150   -0.4310 75.1  32 
 PAM  EZ I         445 44.83         0.6 0.20            151           75.1  32 
 BRR  HZ EP        445 25.58                             147   -0.0310 81.7 298 
 BRR  HN ES        445 42.13                             147    0.1810 81.7 298 
 RUS  HZ EP   1    445 27.28                             143   -0.03 7 96.2 182 
 RUS  HN ES        445 45.18                             143    0.2010 96.2 182 
 RUS  HZ I         445 47.29         0.8 0.38            144           96.2 182 
 SPBC HZ EP        445 32.54                             127   -0.33 9  166 222 
 SPBC HN ES        445 54.78                             127   -0.09 9  166 222 
                                                                                
