 2012 12 3 0849 52.6 L   7.138 -73.927 72.0  RSN 13 0.4 2.3LRSN                1
 GAP= 52        0.79       2.4     2.1  8.2 -0.5417E-01  0.5226E+01 -0.4404E+01E
 Epicentro: BARRANCABERMEJA - SANTANDER                                        3
 ACTION:UPD 13-01-04 14:25 OP:ep   STATUS:               ID:20121203084952 L   I
 2012-12-03-0850-00M.COL___236                                                 6
 STAT SP IPHASW D HRMM SECON CODA AMPLIT PERI AZIMU VELO AIN AR TRES W  DIS CAZ7
 GIR2 SZ IP     C  850  7.93                             128    0.2110 81.3  95 
 GIR2 SZ ES   1    850 20.17                             128    0.68 7 81.3  95 
 GIR2 SZ I         850 22.05        74.7 0.28                          81.3  95 
 PTB  HZ IP     D  850  7.97                             125   -0.2910 88.3 222 
 PTB  HN ES   1    850 20.13                             125   -0.33 7 88.3 222 
 PTB  HZ I         850 22.10        47.8 0.38                          88.3 222 
 BAR2 SZ EP        850 10.08                             121    0.0910  102 126 
 BAR2 SZ ES   1    850 23.09                             121   -0.45 7  102 126 
 BAR2 SZ I         850 26.52       107.9 0.22                           102 126 
 ZAR  HZ EP     D  850 10.99                             118    0.4310  110 291 
 ZAR  HZ I         850 28.44        68.3 0.20                           110 291 
 PAM  SZ EP        850 13.94                             113   -0.31 9  137  81 
 PAM  SN ES   1    850 31.42                             113    0.30 7  137  81 
 PAM  SZ I         850 33.25        41.9 0.36                           137  81 
 OCA  HZ EP   1    850 13.73                             112   -0.29 7  139  29 
 OCA  HN ES   1    850 31.11                             112    0.40 7  139  29 
 OCA  HZ I         850 32.22        41.7 0.14                           139  29 
 RUS  HZ EP   1    850 17.16                             108   -0.46 7  166 146 
 RUS  HN ES   1    850 37.12                             108    0.00 7  166 146 
 RUS  HZ I         850 40.11        14.7 0.26                           166 146 
 SML  HZ EP   1    850 18.46                             106   -0.72 7  185 355 
 SML  HN ES   1    850 39.34                             106   -0.56 7  185 355 
 SML  HZ I         850 43.44        65.0 0.10                           185 355 
 URE  HZ EP   1    850 20.39                             105    0.57 7  190 291 
 URE  HE ES   2    850 40.92                             105   -0.11 4  190 291 
 HEL  HZ EP   1    850 22.82                             104    0.66 6  206 240 
 HEL  HN ES   1    850 45.20                             104   -0.01 6  206 240 
 HEL  HZ I         850 51.59        10.1 0.36                           206 240 
 TAM  HZ EP   1    850 26.71                             101   -0.23 6  249 108 
 TAM  HN ES   2    850 53.81                             101    0.11 4  249 108 
 TAM  HZ I         851  0.07        10.9 0.42                           249 108 
 MON  HZ EP   1    850 28.15                             100   -0.60 6  264 314 
 MON  HN ES   1    850 57.19                             100    0.27 6  264 314 
 PRA  HZ EP   1    850 45.19                              96    0.56 4  393 196 
 PRA  HN ES   2    851 25.87                              96    0.68 3  393 196 
 PRA  HZ I         851 40.65         3.4 0.40                           393 196 
                                                                                
