 2011  8 3 0523 22.8 L   6.838 -72.948138.6  RSN  4 0.1 1.4LRSN                1
 GAP=259        0.35       4.3     8.6  5.3  0.2762E+02 -0.1551E+02 -0.4431E+01E
 Epicentro: CEPITA - SANTANDER                                                 3
 ACTION:UPD 12-07-25 14:05 OP:epov STATUS:               ID:20110803052322 L   I
 2011-08-03-0518-15S.COL___119                                                 6
 STAT SP IPHASW D HRMM SECON CODA AMPLIT PERI AZIMU VELO AIN AR TRES W  DIS CAZ7
 BAR2 SZ ES   2    523 57.16                             164    0.23 5 37.6 224 
 BAR2 SZ I         523 59.58         5.2 0.32                          37.6 224 
 BRR  HZ EP   1    523 44.33                             145   -0.05 7 89.5 289 
 BRR  HN ES   1    524  1.18                             145   -0.02 7 89.5 289 
 BRR  HZ I         524  4.24        10.0 0.11                          89.5 289 
 RUS  HZ EP   1    523 46.34                             141    0.08 7  106 188 
 RUS  HN ES   1    524  4.38                             141   -0.16 7  106 188 
 RUS  HZ I         524  5.62         2.2 0.19                           106 188 
 CHI  HN ES   2    524 31.46                             114    0.15 4  259 200 
 CHI  HZ I         524 35.94         1.4 0.26                           259 200 
                                                                                
