 2014 11 3 0645 36.0 L   6.811 -73.130149.2  RSN  6 0.5 1.6LRSN                1
 GAP=240        1.23       6.6     8.5  8.9  0.1624E+02  0.1649E+02  0.1890E+02E
 Epicentro: LOS SANTOS - SANTANDER                                             3
 ACTION:UPD 14-12-19 15:39 OP:nd   STATUS:               ID:20141103064536 L   I
 OLDACT:DUP 14-11-03 19:33 OP:carl STATUS:               ID:20141103063750d    3
 2014-11-03-0637-48M.COL___259                                                 6
 STAT SP IPHASW D HRMM SECON CODA AMPLIT PERI AZIMU VELO AIN AR TRES W  DIS CAZ7
 BAR2 SZ EP        645 56.13                             170    0.0710 24.9 193 
 BAR2 SZ ES        646 11.24                             170   -0.4810 24.9 193 
 BAR2 SZ I         646 14.30         7.2 0.18            168           24.9 193 
 BRR  HZ EP        645 57.90                             153    0.3410 72.2 297 
 BRR  HN ES        646 15.25                             153    0.8610 72.2 297 
 BRR  HZ I         646 20.48         5.8 0.18            151           72.2 297 
 RUS  HZ EP        645 59.63                             144   -0.5210  102 177 
 RUS  HN ES        646 19.05                             144    0.0510  102 177 
 RUS  HZ I         646 20.70         4.4 0.36            146            102 177 
 PTB  HZ EP        646  3.03                             132   -0.37 9  150 259 
 PTB  HN ES        646 24.06                             132   -0.74 9  150 259 
 PTB  HZ I         646 27.83         6.6 0.12            132            150 259 
 CHI  HN ES        646 44.45                             118    0.71 8  250 195 
 PRA  HZ EP        646 30.30                             107    0.46 6  394 210 
 PRA  HN ES        647 11.96                             107    0.10 6  394 210 
 PRA  HZ I         647 18.79         2.4 0.60            109            394 210 
                                                                                
