 2017  4 3 0401 14.6 L   6.797 -73.135148.5  RSN  5 0.4 1.3LRSN                1
 GAP=238        0.67       6.0     8.8  6.4  0.2073E+02  0.2735E+02  0.4648E+00E
 Epicentro: LOS SANTOS - SANTANDER                                             3
 ACTION:UPD 17-05-30 21:07 OP:jn   STATUS:               ID:20170403040114 L   I
 OLDACT:UP  17-04-03 16:02 OP:and  STATUS:               ID:20170403035630     3
 OLDACT:UP  17-04-03 16:01 OP:and  STATUS:               ID:20170403035630     3
 OLDACT:REG 17-04-03 12:41 OP:and  STATUS:               ID:20170403035630     3
 2017-04-03-0358-00M.COL___362                                                 6
 STAT SP IPHASW D HRMM SECON CODA AMPLIT PERI AZIMU VELO AIN AR TRES W  DIS CAZ7
 BAR2 EZ EP        4 1 34.43                             171   -0.1710 23.3 193 
 BAR2 EZ ES        4 1 49.91                             171   -0.2510 23.3 193 
 BAR2 EZ I         4 1 50.88         3.2 0.34            159           23.3 193 
 BRR  HZ EP        4 1 36.46                             153    0.3110 72.4 298 
 BRR  HN ES   3    4 1 54.52                             153    1.59 2 72.4 298 
 RUS  HZ EP        4 1 38.81                             144    0.1710  100 177 
 RUS  HN ES        4 1 57.42                             144    0.0710  100 177 
 RUS  HZ I         4 1 59.87         2.1 0.44            141            100 177 
 PTB  HZ EP        4 1 41.63                             132   -0.30 9  149 259 
 PTB  HN ES   3    4 2  2.10                             132   -1.12 2  149 259 
 PTB  HZ I         4 2  9.79         3.1 0.52            127            149 259 
 SPBC HZ EP        4 1 43.45                             129    0.05 9  164 219 
 SPBC HN ES   3    4 2  6.78                             129    0.95 2  164 219 
 SPBC HZ I         4 2 10.97         2.8 0.22            125            164 219 
                                                                                
