 2011  7 3 0340 44.6 L   6.963 -73.236151.3  RSN  4 0.1 1.3LRSN                1
 GAP=147        0.33       5.3     7.2  7.3 -0.2345E+02 -0.3752E+02  0.2199E+02E
 Epicentro: BETULIA - SANTANDER                                                3
 ACTION:UPD 12-07-25 13:57 OP:epov STATUS:               ID:20110703034044 L   I
 2011-07-03-0338-15S.COL___140                                                 6
 STAT SP IPHASW D HRMM SECON CODA AMPLIT PERI AZIMU VELO AIN AR TRES W  DIS CAZ7
 BTL  SZ EP        341  4.55                             178   -0.0910 6.01 215 
 BRR  HZ EP   1    341  5.47                             159   -0.03 7 54.9 287 
 BRR  HE ES   1    341 21.90                             159    0.06 7 54.9 287 
 BRR  HZ I         341 26.46         4.2 0.18                          54.9 287 
 GRA  SZ EP   1    341  9.37                             141    0.11 7  113  25 
 GRA  SZ ES   2    341 28.47                             141   -0.06 5  113  25 
 GRA  SZ I         341 35.00         2.3 0.40                           113  25 
 RUS  HZ EP   2    341 10.41                             140    0.14 5  120 172 
 RUS  HZ I         341 27.79         2.4 0.30                           120 172 
                                                                                
