 2017  3 3 0409 12.0 L   7.436 -73.119134.5  RSN  4 0.3 1.6LRSN                1
 GAP=272        0.71       8.4     5.5  7.5  0.2452E+02 -0.7572E+01 -0.3301E+02E
 Epicentro: EL PLAYON - SANTANDER                                              3
 ACTION:UPD 17-05-25 18:35 OP:jn   STATUS:               ID:20170303040912 L   I
 OLDACT:REG 17-03-03 12:25 OP:ar   STATUS:               ID:20170303040734     3
 2017-03-03-0408-00M.COL___394                                                 6
 STAT SP IPHASW D HRMM SECON CODA AMPLIT PERI AZIMU VELO AIN AR TRES W  DIS CAZ7
 BRR  HZ EP        4 9 32.42                             149    0.2410 74.9 241 
 BRR  HN ES        4 9 47.89                             149   -0.0210 74.9 241 
 BAR2 EZ EP        4 9 34.16                             143    0.3710 93.6 184 
 BAR2 EZ ES        4 9 50.45                             143   -0.3310 93.6 184 
 BAR2 EZ I         4 9 51.52        10.8 0.36            142           93.6 184 
 PTB  HZ EP        4 9 40.87                             124   -0.17 9  178 236 
 PTB  HN ES        410  3.86                             124    0.17 9  178 236 
 PTB  HZ I         410  5.22         3.2 0.16            123            178 236 
 ZAR  HZ EP        4 9 42.01                             121   -0.47 9  192 272 
 ZAR  HE ES        410  6.38                             121    0.13 9  192 272 
 ZAR  HZ I         410  8.53         3.9 0.54            121            192 272 
                                                                                
