 2014  1 3 0056 32.0 L   6.652 -73.197147.1  RSN  4 0.6 0.6LRSN                1
 GAP=214        1.29      10.5    10.8 12.1  0.6223E+02  0.8935E+01  0.1502E+01E
 Epicentro: BARICHARA - SANTANDER                                              3
 ACTION:UPD 14-03-13 09:50 OP:ep   STATUS:               ID:20140103005632 L   I
 OLDACT:DUP 14-01-03 11:13 OP:stll STATUS:               ID:20140103004817d    3
 2014-01-03-0048-16M.COL___249                                                 6
 STAT SP IPHASW D HRMM SECON CODA AMPLIT PERI AZIMU VELO AIN AR TRES W  DIS CAZ7
 BAR2 SZ ES   2    057  5.88                             177   -1.01 5 6.83 166 
 BRR  HZ EP        056 53.45                             152   -0.1510 75.9 312 
 BRR  HE ES        057 10.83                             152    0.4110 75.9 312 
 RUS  HZ EP        056 54.27                             149   -0.5910 84.9 171 
 RUS  HZ I         056 58.58         0.7 0.42            146           84.9 171 
 RUS  HE ES        057 13.23                             149    0.5610 84.9 171 
 PTB  HZ EP        056 59.00                             134    0.60 9  140 265 
 PTB  HN ES        057 18.40                             134   -0.57 9  140 265 
                                                                                
