 2015  5 3 0338 57.0 L   6.786 -73.093139.9  RSN  4 0.2 1.3LRSN                1
 GAP=144        0.52       2.7     4.0  4.4 -0.2833E+00 -0.1203E+01  0.2802E+00E
 Epicentro: LOS SANTOS - SANTANDER                                             3
 ACTION:UPD 15-09-10 22:01 OP:cam  STATUS:               ID:20150503033856 L   I
 OLDACT:UP  15-05-07 15:40 OP:cam  STATUS:               ID:20150503033856 L   3
 OLDACT:UP  15-05-07 06:55 OP:AK   STATUS:               ID:20150503033856 L   3
 OLDACT:DUP 15-05-03 17:18 OP:stll STATUS:               ID:20150503032750d    3
 OLDACT:REG 15-05-03 13:50 OP:stll STATUS:               ID:20150503032749     3
 2015-05-03-0327-49M.COL___273                                                 6
 STAT SP IPHASW D HRMM SECON CODA AMPLIT PERI AZIMU VELO AIN AR TRES W  DIS CAZ7
 BAR2 EZ ES        339 30.57                             170   -0.1510 23.6 205 
 BAR2 EZ I         339 31.84         8.3 0.20            169           23.6 205 
 PAM  SZ EP        339 18.59                             150    0.1210 75.1  35 
 PAM  SZ I         339 18.85         6.7 0.22            152           75.1  35 
 PAM  SN ES        339 35.18                             150   -0.0310 75.1  35 
 BRR  HZ EP        339 17.57                             149   -0.3210 77.1 297 
 BRR  HN ES        339 34.40                             149    0.2310 77.1 297 
 BRR  HZ I         339 35.70         4.8 0.38            150           77.1 297 
 RUS  HZ EP        339 20.21                             143    0.1410 98.8 179 
 RUS  HE ES        339 38.05                             143    0.0010 98.8 179 
 RUS  HZ I         339 39.96         1.4 0.30            143           98.8 179 
                                                                                
