 2015  5 3 0641 49.7 L   6.784 -73.139142.8  RSN 11 0.5 1.9LRSN                1
 GAP= 72        1.23       3.5     4.9  6.5 -0.4127E+01  0.6592E+01  0.7959E+00E
 Epicentro: LOS SANTOS - SANTANDER                                             3
 ACTION:UPD 15-09-10 22:01 OP:cam  STATUS:               ID:20150503064149 L   I
 OLDACT:UP  15-05-07 15:50 OP:cam  STATUS:               ID:20150503064149 L   3
 OLDACT:UP  15-05-07 06:55 OP:AK   STATUS:               ID:20150503064149 L   3
 OLDACT:REG 15-05-03 13:55 OP:stll STATUS:               ID:20150503063736     3
 2015-05-03-0637-36M.COL___273                                                 6
 STAT SP IPHASW D HRMM SECON CODA AMPLIT PERI AZIMU VELO AIN AR TRES W  DIS CAZ7
 BAR2 EZ EP        642  9.10                             171    0.1610 21.7 193 
 BAR2 EZ ES        642 24.20                             171    0.2510 21.7 193 
 BAR2 EZ I         642 26.80        13.4 0.32            171           21.7 193 
 BRR  HZ EP        642 11.08                             152    0.4710 72.7 300 
 BRR  HZ I         642 11.26        17.3 0.26            149           72.7 300 
 BRR  HN ES        642 27.63                             152    0.7010 72.7 300 
 PAM  SZ EP        642 11.91                             150    0.2510 78.3  38 
 PAM  SZ I         642 12.23        28.7 0.22            151           78.3  38 
 PAM  SE ES        642 29.03                             150    0.2510 78.3  38 
 RUS  HZ EP        642 12.81                             144   -0.2110 98.7 176 
 RUS  HN ES        642 30.85                             144   -0.3710 98.7 176 
 RUS  HZ I         642 32.91         6.6 0.38            146           98.7 176 
 TAM  HZ EP        642 17.30                             130    0.27 9  154 104 
 TAM  HZ I         642 17.49         8.6 0.20            133            154 104 
 SPBC HN ES        642 38.97                             129   -0.89 9  162 220 
 SPBC HZ I         642 44.14        16.5 0.36            129            162 220 
 OCA  HZ EP        642 17.34                             129   -0.62 9  162 353 
 OCA  HN ES        642 38.97                             129   -1.03 9  162 353 
 OCA  HZ I         642 43.85        18.5 0.18            128            162 353 
 SML  HZ EP        642 26.10                             117   -0.27 8  246 335 
 SML  HE ES   2    642 54.37                             117   -0.61 4  246 335 
 SML  HZ I         643  3.65         8.4 0.28            117            246 335 
 CHI  HZ EP        642 27.50                             117    0.44 8  247 195 
 CHI  HZ I         642 29.05         2.7 0.46            118            247 195 
 CHI  HN ES        642 55.86                             117   -0.35 8  247 195 
 HEL  HZ EP        642 30.49                             114    0.70 8  272 256 
 HEL  HN ES        643  1.66                             114    0.60 8  272 256 
 HEL  HZ I         643  7.35         4.1 0.28            114            272 256 
 GUY2CHZ EP        642 33.48                             112    0.36 7  301 235 
 GUY2CHN ES        643  6.34                             112   -0.65 7  301 235 
 GUY2CHZ I         643 14.38         3.0 0.26                           301 235 
                                                                                
