 2017  3 3 0546 14.4 L   6.730 -73.507106.9  RSN 21 0.6 2.6LRSN                1
 GAP= 47        1.47       3.5     3.2  6.5 -0.2284E+00  0.7359E+01  0.1214E+01E
 Epicentro: EL CARMEN - SANTANDER                                              3
 ACTION:UPD 17-05-25 18:35 OP:jn   STATUS:               ID:20170303054614 L   I
 OLDACT:UP  17-03-03 16:58 OP:ar   STATUS:               ID:20170303053744     3
 OLDACT:REG 17-03-03 12:34 OP:ar   STATUS:               ID:20170303053744     3
 2017-03-03-0538-00M.COL___394                                                 6
 STAT SP IPHASW D HRMM SECON CODA AMPLIT PERI AZIMU VELO AIN AR TRES W  DIS CAZ7
 BAR2 EZ IP     C  546 29.85                             158   -0.0710 38.9 113 
 BAR2 EZ ES        546 42.23                             158    0.1810 38.9 113 
 BAR2 EZ I         546 43.65       325.8 0.34            156           38.9 113 
 BRR  HZ IP     C  546 29.59                             154   -0.4010 47.5 331 
 BRR  HN ES        546 42.69                             154    0.5210 47.5 331 
 BRR  HZ I         546 44.05       130.4 0.12            156           47.5 331 
 RUS  HZ EP        546 34.41                             132   -0.4210  104 153 
 RUS  HN ES        546 50.52                             132   -0.2710  104 153 
 RUS  HZ I         546 52.02       122.9 0.42            129            104 153 
 PTB  HZ IP   9 C  546 32.85                             131   -1.64 0  107 259 
 PTB  HN ES        546 47.39                             130   -1.1510  107 259 
 PTB  HZ I         546 48.52       147.9 0.48            129            107 259 
 PAM  EZ EP        546 35.26                             130   -0.3010  112  53 
 PAM  EN ES        546 52.12                             130    0.0410  112  53 
 PAM  EZ I         546 53.50        82.3 0.14            130            112  53 
 SPBC HZ EP        546 36.28                             124   -0.9710  135 208 
 SPBC HN ES        546 54.11                             124   -0.9810  135 208 
 SPBC HZ I         546 59.13       119.8 0.24            121            135 208 
 ZAR  HZ EP        546 40.82                             117   -0.20 9  171 300 
 ZAR  HN ES        547  3.00                             117    1.21 9  171 300 
 ZAR  HZ I         547  4.48        69.4 0.16            116            171 300 
 TAM  HZ IP        546 43.35                             113   -0.03 9  192 100 
 TAM  HN ES        547  6.59                             113    0.60 9  192 100 
 TAM  HZ I         547  8.45        17.8 0.40            112            192 100 
 NOR  HZ EP        546 44.56                             113    0.50 9  198 230 
 NOR  HN ES   4    547  5.17                             113   -2.04 0  198 230 
 NOR  HZ I         547  9.02        42.7 0.16            111            198 230 
 ROSC BZ EP   9    546 50.26                             109    2.47 0  228 203 
 ROSC BN ES        547 15.56                             108   -0.76 8  228 203 
 ROSC BZ I         547 24.37        19.1 0.50            108            228 203 
 HEL  HZ EP        546 48.12                             109   -0.10 8  232 255 
 HEL  HN ES        547 14.50                             109   -0.11 8  232 255 
 HEL  HZ I         547 17.00        24.2 0.24            108            232 255 
 CHI  HZ EP        546 48.67                             109    0.16 8  234 186 
 CHI  HN ES        547 16.17                             109    1.03 8  234 186 
 URE  HZ EP        546 48.93                             107   -1.06 8  251 297 
 URE  HN ES   4    547 15.64                             107   -2.13 0  251 297 
 URE  HZ I         547 18.81        54.4 0.80            106            251 297 
 CBOC HZ EP        546 56.64                             104    1.44 7  293 251 
 CBOC HN ES        547 27.56                             104    0.52 7  293 251 
 CBOC HZ I         547 32.20         8.6 0.58            102            293 251 
 ELA  HZ EP   4    546 57.60                             104    1.82 0  294 226 
 ELA  HN ES        547 29.00                             104    0.93 7  294 226 
 DBB  EZ EP        546 55.74                             103   -0.20 7  300 276 
 DBB  EN ES        547 28.00                             103   -0.35 7  300 276 
 DBB  EZ I         547 30.48        19.0 0.20            102            300 276 
 PTGC HZ EP   4 D  546 56.74                             102   -1.24 0  319 151 
 PTGC HN ES   4    547 30.46                             102   -1.53 0  319 151 
 PTGC HZ I         547 46.08         8.6 0.28            100            319 151 
 ANIL HZ EP   4    547  1.99                             102    2.91 0  325 220 
 ANIL HN ES   4    547 35.86                             102    1.92 0  325 220 
 ANIL HZ I         547 39.97        47.7 0.28            100            325 220 
 APAC HZ EP        547  2.94                              99   -0.38 6  363 291 
 APAC HN ES        547 40.80                              99   -0.70 6  363 291 
 APAC HZ I         547 44.90        20.0 0.32             98            363 291 
 PRA  HZ EP        547  4.14                              99    0.32 6  367 205 
 PRA  HN ES        547 42.16                              99   -0.23 6  367 205 
 PRA  HZ I         547 48.76        11.6 0.36             98            367 205 
 CRJC HZ EP        547 17.93                              95    0.43 5  479   8 
 CRJC HN ES        548  6.33                              95   -0.40 5  479   8 
 CRJC HZ I         548  8.73         9.9 0.56             93            479   8 
                                                                                
