 2012  9 3 0013 36.1 L   7.418 -73.171141.0  RSN  5 0.3 1.6LRSN                1
 GAP=268        0.56       8.0     4.9  6.9  0.9354E+01  0.8503E+01 -0.1551E+02E
 Epicentro: EL PLAYON - SANTANDER                                              3
 ACTION:UPD 12-10-22 14:16 OP:ep   STATUS:               ID:20120903001336 L   I
 2012-09-03-0010-00M.COL___218                                                 6
 STAT SP IPHASW D HRMM SECON CODA AMPLIT PERI AZIMU VELO AIN AR TRES W  DIS CAZ7
 GIR2 SZ EP   1    013 55.36                             164    0.00 7 37.6 184 
 GIR2 SZ ES   1    014  9.94                             164   -0.47 7 37.6 184 
 BRR  HZ EP   1    013 56.87                             152    0.31 7 68.9 240 
 BRR  HZ I         013 57.25         7.3 0.14                          68.9 240 
 BRR  HE ES   1    014 12.91                             152    0.35 7 68.9 240 
 BAR2 SZ ES   1    014 15.86                             145    0.17 7 91.3 181 
 BAR2 SZ I         014 16.57         8.7 0.28                          91.3 181 
 PTB  HZ EP   1    014  4.72                             126   -0.24 7  172 236 
 PTB  HN ES   1    014 27.38                             126   -0.13 7  172 236 
 ZAR  HE ES   1    014 29.94                             124   -0.09 7  186 273 
                                                                                
