 2013  2 3 0451 27.8 L   6.555 -73.448114.8  RSN  4 0.3 1.6LRSN                1
 GAP=146        0.64       4.1     8.5  7.1  0.1855E+02  0.3503E+02  0.1634E+02E
 Epicentro: HATO - SANTANDER                                                   3
 ACTION:UPD 13-03-12 09:30 OP:ep   STATUS:               ID:20130203045127 L   I
 2013-02-03-0450-00M.COL___240                                                 6
 STAT SP IPHASW D HRMM SECON CODA AMPLIT PERI AZIMU VELO AIN AR TRES W  DIS CAZ7
 BAR2 SZ EP        451 44.28                             164    0.3510 29.7  82 
 BAR2 SZ ES        451 56.57                             164    0.0810 29.7  82 
 BAR2 SZ I         451 57.89        45.8 0.46            178           29.7  82 
 BRR  HZ EP        451 45.18                             147   -0.3110 67.6 334 
 BRR  HN ES   1    451 59.37                             147    0.11 7 67.6 334 
 BRR  HN I         452  4.91         5.6 0.15            148           67.6 334 
 RUS  HZ EP        451 47.39                             142    0.0610 83.7 151 
 RUS  HE ES   1    452  2.05                             142   -0.48 7 83.7 151 
 RUS  HE I         452  5.58         4.1 0.53            148           83.7 151 
 CHI  HZ EP   1    452  0.03                             113   -0.20 6  215 188 
 CHI  HN ES   1    452 25.78                             113    0.28 6  215 188 
                                                                                
