 2017  1 3 0707  3.8 L   6.797 -73.126144.9  RSN 12 0.4 1.8LRSN                1
 GAP=121        1.00       3.4     4.0  5.3 -0.3317E+00  0.6900E+01  0.3538E+01E
 Epicentro: LOS SANTOS - SANTANDER                                             3
 ACTION:UPD 17-05-22 15:54 OP:jn   STATUS:               ID:20170103070703 L   I
 OLDACT:REG 17-01-03 12:41 OP:lv   STATUS:               ID:20170103065739     3
 2017-01-03-0658-00M.COL___381                                                 6
 STAT SP IPHASW D HRMM SECON CODA AMPLIT PERI AZIMU VELO AIN AR TRES W  DIS CAZ7
 BAR2 EZ EP        7 7 23.21                             170   -0.1110 23.4 195 
 BAR2 EZ ES        7 7 38.69                             170    0.1410 23.4 195 
 BAR2 EZ I         7 7 40.76        20.7 0.26            167           23.4 195 
 BRR  HZ EP        7 7 25.02                             152    0.0510 73.3 298 
 BRR  HN ES        7 7 42.11                             152    0.6310 73.3 298 
 BRR  HZ I         7 7 44.65         8.9 0.16            150           73.3 298 
 PAM  EZ EP        7 7 26.02                             151    0.1710 76.3  38 
 PAM  EN ES        7 7 43.20                             151    0.1510 76.3  38 
 PAM  EZ I         7 7 47.08         7.2 0.40            156           76.3  38 
 RUS  HZ EP        7 7 27.14                             144   -0.2810  100 177 
 RUS  HN ES        7 7 45.57                             144   -0.2810  100 177 
 RUS  HZ I         7 7 46.94         6.7 0.36            144            100 177 
 PTB  HZ EP        7 7 30.66                             131   -0.22 9  150 259 
 PTB  HN ES        7 7 51.04                             131   -0.96 9  150 259 
 PTB  HZ I         7 7 55.64         8.1 0.10            130            150 259 
 ZAR  HZ EP        7 7 35.94                             122   -0.46 8  206 292 
 ZAR  HN ES        7 8  1.66                             122   -0.18 8  206 292 
 ZAR  HZ I         7 8  7.41         5.7 0.20            122            206 292 
 CHI  HZ EP        7 7 41.36                             117   -0.11 8  249 196 
 CHI  HN ES        7 8 10.72                             117   -0.13 8  249 196 
 CHI  HZ I         7 8 16.19         2.8 0.26            118            249 196 
 ROSC BZ EP   9    7 7 43.83                             116    1.88 0  254 211 
 ROSC BN ES        7 8 13.76                                    0.17 8  254 211 
 ROSC BZ I         7 8 20.98         9.3 0.35            117            254 211 
 GUY2CHZ EP        7 7 48.39                             112    0.85 7  303 235 
 GUY2CHE ES        7 8 22.34                             112    0.68 7  303 235 
 GUY2CHZ I         7 8 29.54         6.0 0.32                           303 235 
 PTGC HZ EP   9    7 7 46.19                             111   -1.29 0  308 159 
 PTGC HN ES        7 8 19.82                                   -0.45 7  308 159 
 CBOC HZ EP        7 7 50.76                             110   -0.13 7  336 252 
 CBOC HE ES   4    7 8 25.55                             110   -2.08 0  336 252 
 CBOC HZ I         7 8 40.91         1.4 0.58            110            336 252 
 ORTC HZ EP        7 7 58.12                             106    0.32 6  396 216 
 ORTC HN ES        7 8 40.91                             106    0.99 6  396 216 
 ORTC HZ I         7 8 46.19         3.1 0.44            107            396 216 
 SJC  HE ES   4    7 8 39.67                             105   -3.28 0  411 327 
                                                                                
