 2013  5 3 0525 23.8 L   6.816 -73.192147.3  RSN  4 0.2 1.6LRSN                1
 GAP=197        0.45       2.6     3.3  4.2  0.2734E+01  0.1318E+01 -0.4174E+01E
 Epicentro: ZAPATOCA - SANTANDER                                               3
 ACTION:UPD 13-06-20 09:47 OP:ep   STATUS:               ID:20130503052523 L   I
 2013-05-03-0520-00M.COL___253                                                 6
 STAT SP IPHASW D HRMM SECON CODA AMPLIT PERI AZIMU VELO AIN AR TRES W  DIS CAZ7
 BAR2 SZ EP        525 43.45                             170   -0.1810 24.8 178 
 BAR2 SZ ES        525 59.07                             170   -0.0410 24.8 178 
 BAR2 SZ I         526  0.01         9.0 0.18            167           24.8 178 
 RUS  HZ EP        525 47.87                             143    0.0210  103 173 
 RUS  HZ I         525 48.58         3.0 0.18            144            103 173 
 RUS  HN ES        526  6.77                             143    0.1510  103 173 
 PTB  HZ EP        525 50.30                             133   -0.17 9  143 258 
 PTB  HN ES        526 11.34                             133    0.06 9  143 258 
 PTB  HZ I         526 18.29         5.8 0.36            130            143 258 
 SML  HZ EP   1    526  0.58                             118    0.48 6  240 336 
 SML  HN ES        526 28.40                             118   -0.03 8  240 336 
 SML  HZ I         526 30.28         4.3 0.30            118            240 336 
                                                                                
