 2012 11 3 0009 48.4 L   6.781 -73.114148.0  RSN  7 0.3 1.8LRSN                1
 GAP=141        0.69       3.5     4.8  5.6  0.5981E+00  0.4029E+01  0.6219E+01E
 Epicentro: LOS SANTOS - SANTANDER                                             3
 ACTION:UPD 12-12-05 15:31 OP:}ep  STATUS:               ID:20121103000948 L   I
 2012-11-03-0010-00M.COL___233                                                 6
 STAT SP IPHASW D HRMM SECON CODA AMPLIT PERI AZIMU VELO AIN AR TRES W  DIS CAZ7
 BAR2 SZ EP        010  7.68                             171   -0.5610 22.2 200 
 BAR2 SZ ES   1    010 23.64                             171   -0.10 7 22.2 200 
 BAR2 SZ I         010 26.24        11.6 0.38                          22.2 200 
 BRR  HZ EP        010 10.05                             152    0.0610 75.3 299 
 BRR  HN ES   1    010 27.32                             152    0.47 7 75.3 299 
 BRR  HN I         010 31.40        15.7 0.18                          75.3 299 
 PAM  SZ EP        010 10.86                             152    0.0710 76.9  37 
 PAM  SN ES   1    010 28.38                             152    0.10 7 76.9  37 
 PAM  SN I         010 29.26         8.7 0.22                          76.9  37 
 RUS  HZ EP        010 12.24                             145    0.0710 98.3 178 
 RUS  HN ES   1    010 31.12                             145    0.38 7 98.3 178 
 RUS  HN I         010 32.29        10.9 0.40                          98.3 178 
 ZAR  HE ES   1    010 46.79                             122   -0.32 6  208 292 
 ZAR  HE I         010 52.38        18.7 0.50                           208 292 
 CHI  HZ EP        010 25.99                             118   -0.08 8  248 196 
 CHI  HN ES   1    010 55.07                             118   -0.40 6  248 196 
 CHI  HN I         010 58.91         3.2 0.52                           248 196 
 PRA  HZ EP   1    010 42.75                             107    0.80 4  392 210 
 PRA  HN ES   2    011 24.41                             107    0.67 3  392 210 
 PRA  HN I         011 29.81         1.2 0.42                           392 210 
                                                                                
