 2014 12 3 0626 43.9 L   6.758 -73.190140.6  RSN  7 0.5 1.5LRSN                1
 GAP=229        1.26       6.4     7.2  9.1  0.1349E+02  0.2284E+02 -0.1488E+01E
 Epicentro: LOS SANTOS - SANTANDER                                             3
 ACTION:UPD 15-02-10 17:00 OP:nd   STATUS:               ID:20141203062643 L   I
 OLDACT:REG 14-12-03 12:54 OP:fm   STATUS:               ID:20141203061749     3
 2014-12-03-0617-49M.COL___303                                                 6
 STAT SP IPHASW D HRMM SECON CODA AMPLIT PERI AZIMU VELO AIN AR TRES W  DIS CAZ7
 BAR2 SZ EP        627  3.05                             172    0.2110 18.4 177 
 BAR2 SZ ES        627 17.42                             172   -0.1810 18.4 177 
 BAR2 SZ I         627 19.39        10.1 0.20            170           18.4 177 
 BRR  HZ IP     D  627  4.85                             152    0.4410 69.4 304 
 BRR  HN ES        627 21.02                             152    0.6210 69.4 304 
 BRR  HZ I         627 26.82         4.2 0.16            149           69.4 304 
 RUS  HN ES        627 24.31                             144   -0.4610 96.4 173 
 PTB  HZ EP        627 10.41                             132    0.45 9  142 260 
 PTB  HE ES        627 29.46                             132   -0.81 9  142 260 
 PTB  HZ I         627 33.61         3.6 0.16            131            142 260 
 SPBC HZ EP        627 11.29                             129   -0.10 9  156 219 
 SPBC HN ES        627 33.27                             129    0.45 9  156 219 
 SPBC HZ I         627 37.29         4.5 0.10            130            156 219 
 ZAR  HZ EP        627 14.86                             122   -0.90 9  201 294 
 ZAR  HE ES        627 40.29                             122   -0.30 9  201 294 
 ZAR  HZ I         627 47.38         4.4 0.34            122            201 294 
 HEL  HE ES   1    627 54.68                             114    0.80 6  266 257 
 HEL  HZ I         628  1.15         1.3 0.42            115            266 257 
                                                                                
