 2016 11 3 0811  1.0 L   6.724 -73.198149.7  RSN  4 0.2 0.8LRSN                1
 GAP=225        0.59       4.8     4.8  5.9  0.1555E+02 -0.2680E+00 -0.1832E+01E
 Epicentro: VILLANUEVA - SANTANDER                                             3
 ACTION:UPD 17-10-26 21:04 OP:lp   STATUS:               ID:20161103081101 L   I
 OLDACT:UP  16-11-03 16:23 OP:dani STATUS:               ID:20161103080747     3
 OLDACT:REG 16-11-03 12:41 OP:dani STATUS:               ID:20161103080747     3
 2016-11-03-0808-00M.COL___337                                                 6
 STAT SP IPHASW D HRMM SECON CODA AMPLIT PERI AZIMU VELO AIN AR TRES W  DIS CAZ7
 BRR  HZ EP        811 22.30                             153   -0.2510 70.9 307 
 BRR  HN ES        811 39.40                             153    0.0410 70.9 307 
 BRR  HZ I         811 40.42         1.6 0.19            154           70.9 307 
 RUS  HZ EP        811 24.95                             147    0.3510 92.8 172 
 RUS  HE ES        811 42.91                             147   -0.1010 92.8 172 
 RUS  HZ I         811 43.86         0.8 0.23            147           92.8 172 
 PTB  HZ EP        811 27.43                             134   -0.23 9  141 262 
 PTB  HN ES        811 48.42                             134   -0.03 9  141 262 
 PTB  HZ I         811 49.72         0.7 0.18            135            141 262 
 ZAR  HN ES        811 59.11                             123    0.26 9  202 295 
                                                                                
