 2010  8 3 0642  9.1 L   6.823 -73.064139.6  RSN  5 0.2 1.5LRSN                1
 GAP=173        0.57       4.1     9.9  9.2  0.7313E+01 -0.4240E+02 -0.4864E+01E
 Epicentro: LOS SANTOS - SANTANDER                                             3
 ACTION:UP  10-09-07 10:51 OP:vdl  STATUS:               ID:20100803064209 L   I
 2010-08-03-0639-44S.COL___123                                                 6
 STAT SP IPHASW D HRMM SECON CODA AMPLIT PERI AZIMU VELO SNR AR TRES W  DIS CAZ7
 BAR2 SZ ES   2    642 42.83                             168    -0.1 5   29 207 
 BAR2 SZ I         642 43.70         5.6 0.23                            29 207 
 BRR  HZ EP        642 29.83                             149    -0.210   78 294 
 BRR  HE ES   2    642 46.76                             149     0.4 5   78 294 
 BRR  HZ I         642 51.00        12.0 0.14                            78 294 
 RUS  HZ EP        642 32.46                             142     0.010  103 181 
 RUS  HE ES   3    642 50.31                             142    -0.3 2  103 181 
 RUS  HZ I         642 51.32         2.9 0.46                           103 181 
 GUE  SZ EP        642 33.13                             138     0.210  112   8 
 OCA  SZ ES   2    642 58.03                             128    -0.4 5  159 350 
 OCA  SZ I         643  4.35         4.8 0.16                           159 350 
                                                                                
