 2017  4 3 0620 32.1 L   6.776 -73.115148.9  RSN  5 0.4 1.2LRSN                1
 GAP=239        0.50       6.1     6.6  7.4  0.8905E+01  0.5122E+01  0.3230E+01E
 Epicentro: LOS SANTOS - SANTANDER                                             3
 ACTION:UPD 17-05-30 21:07 OP:jn   STATUS:               ID:20170403062032 L   I
 OLDACT:DUP 17-04-03 16:48 OP:and  STATUS:               ID:20170403061743d    3
 OLDACT:UP  17-04-03 16:47 OP:and  STATUS:               ID:20170403061742     3
 OLDACT:UP  17-04-03 16:46 OP:and  STATUS:               ID:20170403061742     3
 OLDACT:UP  17-04-03 16:44 OP:and  STATUS:               ID:20170403061742     3
 OLDACT:UP  17-04-03 16:44 OP:and  STATUS:               ID:20170403061742     3
 OLDACT:REG 17-04-03 12:47 OP:and  STATUS:               ID:20170403061742     3
 2017-04-03-0618-00M.COL___362                                                 6
 STAT SP IPHASW D HRMM SECON CODA AMPLIT PERI AZIMU VELO AIN AR TRES W  DIS CAZ7
 BAR2 EZ EP   2    620 52.14                             171    0.02 5 21.6 200 
 BAR2 EZ ES   2    621  7.50                             171   -0.20 5 21.6 200 
 BRR  HZ EP   2    620 54.11                             152    0.24 5 75.4 299 
 BRR  HN ES   2    621 11.16                             152    0.34 5 75.4 299 
 RUS  HZ EP   2    620 55.53                             145   -0.47 5 97.7 178 
 RUS  HN ES   2    621 14.69                             145    0.07 5 97.7 178 
 PTB  HZ EP   2    620 59.55                             132   -0.07 5  151 260 
 PTB  HN ES   2    621 20.35                             132   -0.70 5  151 260 
 PTB  HZ I         621 27.60         1.3 0.24            127            151 260 
 SPBC HZ EP   2    621  1.19                             130    0.30 5  163 220 
 SPBC HN ES   2    621 23.82                             130    0.50 5  163 220 
 SPBC HZ I         621 25.44         2.8 0.10            126            163 220 
                                                                                
