 2017  8 3 0530 57.1 L   6.690 -73.188143.8  RSN  5 0.3 1.3LRSN                1
 GAP=224        0.60       7.0     4.5  5.4  0.8865E+01  0.4918E+01  0.7126E+01E
 Epicentro: VILLANUEVA - SANTANDER                                             3
 ACTION:UPD 17-09-04 20:15 OP:rebc STATUS:               ID:20170803053057 L   I
 OLDACT:UP  17-08-03 18:39 OP:edw  STATUS:               ID:20170803052744     3
 OLDACT:REG 17-08-03 14:55 OP:osc  STATUS:               ID:20170803052744     3
 2017-08-03-0528-00M.COL___398                                                 6
 STAT SP IPHASW D HRMM SECON CODA AMPLIT PERI AZIMU VELO AIN AR TRES W  DIS CAZ7
 BAR2 EZ EP        531 15.96                             175   -0.3410 10.8 177 
 BAR2 EZ ES        531 31.36                             175    0.0810 10.8 177 
 BAR2 EZ I         531 32.14         8.0 0.88            170           10.8 177 
 BRR  HZ EP        531 18.10                             151   -0.0910 74.1 309 
 BRR  HE ES        531 34.77                             151    0.1210 74.1 309 
 RUS  HZ EP   2    531 20.51                             147    0.67 5 88.9 173 
 PTB  HZ EP        531 23.55                             133    0.24 9  141 263 
 PTB  HN ES        531 43.55                             133   -0.22 9  141 263 
 PTB  HZ I         531 47.50         1.2 0.44            132            141 263 
 ZAR  HN ES   2    531 55.00                             122    0.25 4  205 296 
                                                                                
