 2011  1 3 0728 21.6 L   6.782 -73.107145.8  RSN  9 0.4 1.9LRSN                1
 GAP=163        0.75       3.2     6.2  6.6 -0.8830E+01  0.1650E+02 -0.2608E+01E
 Epicentro: LOS SANTOS - SANTANDER                                             3
 ACTION:UP  11-02-08 08:38 OP:pat  STATUS:               ID:20110103072821 L   I
 2011-01-03-0723-23S.COL___136                                                 6
 STAT SP IPHASW D HRMM SECON CODA AMPLIT PERI AZIMU VELO SNR AR TRES W  DIS CAZ7
 BAR2 SZ IP        728 41.30                             171     0.110   23 202 
 BAR2 SZ ES   1    728 56.77                             171     0.2 7   23 202 
 BAR2 SZ I         728 58.07        36.0 0.30                            23 202 
 RUS  HZ EP   1    728 45.16                             144    -0.1 7   98 178 
 RUS  HZ I         728 45.77         4.5 0.22                            98 178 
 RUS  HN ES   1    729  3.46                             144    -0.2 7   98 178 
 GRA  SZ IP        728 47.10                             137     0.210  126  15 
 GRA  SZ ES   1    729  6.73                             137     0.1 7  126  15 
 GRA  SZ I         729  8.35         9.3 0.32                           126  15 
 OCA  SZ EP        728 49.81                             129    -0.4 9  163 352 
 OCA  SZ ES   1    729 12.40                             129     0.0 7  163 352 
 OCA  SZ I         729 18.05         9.1 0.26                           163 352 
 NOR  SZ EP   2    728 57.47                             118    -0.1 4  237 236 
 CHI  HZ EP   1    728 58.99                             117    -0.2 6  248 196 
 CHI  HN ES   2    729 27.80                             117    -0.8 4  248 196 
 CHI  HZ I         729 32.23         3.4 0.52                           248 196 
 HEL  HZ EP   2    729  2.67                             114     0.4 4  276 256 
 HEL  HE ES   1    729 33.23                             114    -0.7 6  276 256 
 HEL  HZ I         729 39.87         5.1 0.37                           276 256 
 RREF HZ EP   1    729  9.02                             111     1.0 5  324 230 
 RREF HE ES   1    729 44.83                             111     0.7 5  324 230 
 RREF HZ I         729 53.78         5.5 0.19                           324 230 
 PRA  HZ EP   2    729 15.33                             106     0.2 3  392 210 
 PRA  HN ES   2    729 56.67                             106    -0.3 3  392 210 
                                                                                
