 2017  9 3 0343 21.1 L   6.071 -73.747108.2  RSN  6 0.5 1.3LRSN                1
 GAP=113        0.90       4.2     4.2  7.6 -0.3202E+01  0.1524E+02 -0.1229E+02E
 Epicentro: EL PENON - SANTANDER                                               3
 ACTION:UPD 17-10-05 19:08 OP:rebc STATUS:               ID:20170903034321 L   I
 OLDACT:UP  17-09-03 15:00 OP:dani STATUS:               ID:20170903033739     3
 OLDACT:UP  17-09-03 14:59 OP:dani STATUS:               ID:20170903033739     3
 OLDACT:REG 17-09-03 13:14 OP:dani STATUS:               ID:20170903033739     3
 2017-09-03-0338-00M.COL___414                                                 6
 STAT SP IPHASW D HRMM SECON CODA AMPLIT PERI AZIMU VELO AIN AR TRES W  DIS CAZ7
 SPBC HZ EP        343 37.16                             150   -0.4510 58.6 218 
 SPBC HN ES        343 50.64                             150    0.1310 58.6 218 
 SPBC HZ I         343 53.58         5.6 0.08            151           58.6 218 
 RUS  HZ EP        343 38.99                             144   -0.3910 76.1 105 
 RUS  HN ES        343 53.94                             144    0.2910 76.1 105 
 BAR2 EZ EP        343 39.47                             140   -0.2410 85.0  47 
 BAR2 EZ ES        343 54.36                             140    0.1210 85.0  47 
 BAR2 EZ I         343 55.64         8.4 0.38            143           85.0  47 
 BRR  HZ EP        343 42.06                             130    0.0810  115   2 
 BRR  HN ES   3    343 55.63                             130   -2.65 2  115   2 
 BRR  HZ I         343 57.91         2.6 0.32            133            115   2 
 ZAR  HZ EP        343 51.43                             114    0.54 9  199 322 
 ZAR  HN ES        344 14.27                             114    0.14 9  199 322 
 GUY2CHZ EP        343 51.94                             114    0.16 9  202 242 
 GUY2CHZ I         344 20.27         1.9 0.64                           202 242 
                                                                                
