 2017  1 3 0850 48.6 L   6.798 -73.168144.0  RSN 23 0.4 2.5LRSN                1
 GAP= 70        0.85       2.5     2.4  3.9  0.4036E+00  0.2495E+01  0.3472E+00E
 Epicentro: LOS SANTOS - SANTANDER                                             3
 ACTION:UPD 17-05-22 15:54 OP:jn   STATUS:               ID:20170103085048 L   I
 OLDACT:REG 17-01-03 12:45 OP:lv   STATUS:               ID:20170103084741     3
 2017-01-03-0848-00M.COL___375                                                 6
 STAT SP IPHASW D HRMM SECON CODA AMPLIT PERI AZIMU VELO AIN AR TRES W  DIS CAZ7
 BAR2 EZ EP        851  8.01                             171    0.0510 22.8 184 
 BAR2 EZ ES        851 22.66                             171   -0.4410 22.8 184 
 BAR2 EZ I         851 24.27       156.6 0.30            169           22.8 184 
 BRR  HZ IP     C  851  9.80                             153    0.4010 69.2 300 
 BRR  HN ES        851 26.47                             153    0.8110 69.2 300 
 BRR  HZ I         851 30.07        85.3 0.26            150           69.2 300 
 PAM  EZ EP        851 10.87                             150    0.1810 79.1  41 
 PAM  EN ES        851 27.99                             150    0.0310 79.1  41 
 PAM  EZ I         851 30.49       101.3 0.51            149           79.1  41 
 RUS  HZ EP        851 12.00                             144   -0.1310  101 175 
 RUS  HN ES        851 30.03                             144   -0.4910  101 175 
 RUS  HZ I         851 31.65        25.8 0.29            140            101 175 
 PTB  HZ EP        851 14.86                             132   -0.30 9  145 259 
 PTB  HN ES        851 35.57                             132   -0.34 9  145 259 
 PTB  HZ I         851 43.02        58.0 0.46            128            145 259 
 TAM  HZ IP     D  851 16.47                             130    0.17 9  157 105 
 TAM  HZ I         851 37.35        12.6 0.40            128            157 105 
 TAM  HN ES        851 37.85                             130   -0.10 9  157 105 
 ZAR  HZ EP        851 20.60                             122   -0.06 9  202 292 
 ZAR  HE ES        851 45.64                             122   -0.07 9  202 292 
 ZAR  HZ I         851 52.08        44.8 0.36            119            202 292 
 CHI  HZ EP        851 26.33                             117    0.27 8  248 195 
 CHI  HN ES        851 55.32                             117    0.01 8  248 195 
 CHI  HZ I         851 58.45        13.6 0.32            114            248 195 
 ROSC BZ EP   9    851 28.59                             116    2.17 0  251 211 
 ROSC BN ES        851 58.34                                    0.22 8  251 211 
 ROSC BZ I         852  2.77        26.0 0.65            114            251 211 
 URE  HZ EP        851 28.54                             113   -0.75 7  282 292 
 URE  HN ES   4    851 59.01                             113   -2.06 0  282 292 
 URE  HZ I         852  9.91        21.7 0.18            111            282 292 
 GUY2CHZ EP   4    851 33.60                             112    1.76 0  299 235 
 GUY2CHE ES        852  5.65                             112    0.05 7  299 235 
 GUY2CHZ I         852 13.71        11.5 0.46                           299 235 
 VIL  EZ EP        851 31.97                             112    0.16 7  303 191 
 VIL  EN ES        852  5.99                             112    0.45 7  303 191 
 VIL  EZ I         852 11.50        26.5 0.40            109            303 191 
 PTGC HZ EP   4    851 31.17                             111   -1.23 0  309 158 
 PTGC HN ES   4    852  4.62                             111   -1.99 0  309 158 
 PTGC HZ I         852  7.26        22.4 0.36            109            309 158 
 ELA  HZ EP   4    851 38.80                             110    3.70 0  327 229 
 ELA  HE ES   4    852  6.91                             110   -4.49 0  327 229 
 ELA  HZ I         852 20.47         9.9 0.52            108            327 229 
 CBOC HZ EP   4    851 36.31                             110    1.19 0  331 252 
 CBOC HN ES        852 12.04                             110    0.60 7  331 252 
 CBOC HZ I         852 27.99         4.6 0.60            107            331 252 
 DBB  EZ EP        851 35.35                             109   -0.33 7  337 274 
 DBB  EN IS   4    852  9.55                             109   -2.89 0  337 274 
 DBB  EZ I         852 16.00        11.4 0.18            107            337 274 
 ANIL HZ EP   4    851 40.02                             108    1.95 0  355 224 
 ANIL HN ES   4    852 19.28                             108    2.59 0  355 224 
 ANIL HZ I         852 22.65        31.7 0.36            106            355 224 
 ARGC HZ EP        851 38.71                             108    0.64 6  359 341 
 ARGC HE ES   4    852 15.27                             108   -1.43 0  359 341 
 ARGC HZ I         852 16.15         5.8 0.38            106            359 341 
 APAC HZ EP        851 42.03                             106   -0.39 6  396 288 
 APAC HN ES        852 24.27                             106   -0.17 6  396 288 
 APAC HZ I         852 29.09         8.1 0.57            104            396 288 
 SJC  HZ EP   4    851 42.06                             105   -1.87 0  408 327 
 SJC  HN ES   4    852 23.27                             105   -3.85 0  408 327 
 SJC  HZ I         852 37.62         8.6 0.34            103            408 327 
 CRJC HZ EP   4    851 48.34                             103   -2.71 0  468   4 
 CRJC HN ES   4    852 35.87                             103   -3.93 0  468   4 
 CRJC HZ I         852 39.16        11.0 0.36            101            468   4 
 GUA  EN ES   4    852 37.70                             103   -3.19 0  474 173 
 SMAR HZ EP        851 53.72                             102   -0.62 4  497 347 
 SMAR HN ES   4    852 41.51                             102   -4.14 0  497 347 
 MACC HZ EP   4    851 55.36                             101   -1.78 0  520 188 
 MACC HE ES   4    852 47.08                             101   -3.57 0  520 188 
 MACC HZ I         852 58.43         4.6 0.51            100            520 188 
                                                                                
