 2012  5 3 0302 41.6 L   6.760 -73.172147.8  RSN  6 0.4 1.8LRSN                1
 GAP=135        0.82       5.6     5.2  7.6  0.5444E+00  0.7649E+01 -0.6128E+00E
 Epicentro: LOS SANTOS - SANTANDER                                             3
 ACTION:UP  12-07-05 12:01 OP:pat  STATUS:               ID:20120503030241 L   I
 2012-05-03-0300-00M.COL___186                                                 6
 STAT SP IPHASW D HRMM SECON CODA AMPLIT PERI AZIMU VELO SNR AR TRES W  DIS CAZ7
 BAR2 SZ EP   1    3 3  1.32                             172     0.0 7   19 183 
 BAR2 SZ ES   1    3 3 16.27                             172    -0.5 7   19 183 
 BAR2 SZ I         3 3 17.19        12.9 0.13                            19 183 
 BRR  HZ EP   1    3 3  3.24                             153     0.3 7   71 303 
 BRR  HN ES   1    3 3 20.34                             153     0.8 7   71 303 
 BRR  HZ I         3 3 22.40        11.3 0.27                            71 303 
 PAM  SZ EP   1    3 3  4.26                             149    -0.1 7   83  39 
 PAM  SN ES   1    3 3 21.81                             149    -0.3 7   83  39 
 RUS  HZ EP   1    3 3  5.26                             145     0.0 7   96 174 
 RUS  HN ES   1    3 3 24.06                             145     0.4 7   96 174 
 PTB  HZ EP   1    3 3  8.23                             133    -0.1 7  144 260 
 PTB  HN ES   1    3 3 28.80                             133    -0.5 7  144 260 
 PTB  HZ I         3 3 31.29         4.5 0.17                           144 260 
 ZAR  HZ EP   2    3 3 14.15                             123     0.1 4  203 294 
 ZAR  HN ES   2    3 3 39.12                             123    -0.3 4  203 294 
 ZAR  HZ I         3 3 45.85         8.3 0.22                           203 294 
                                                                                
