 2011 12 3 0249 53.3 L   6.786 -73.092146.8  RSN 19 0.4 2.9LRSN                1
 GAP=119        0.91       3.1     5.7  5.1 -0.5573E+01  0.6881E+01  0.2390E+01E
 Epicentro: LOS SANTOS - SANTANDER                                             3
 ACTION:UPD 12-07-13 16:13 OP:ep   STATUS:               ID:20111203024953 L   I
 2011-12-03-0250-00M.COL___182                                                 6
 STAT SP IPHASW D HRMM SECON CODA AMPLIT PERI AZIMU VELO AIN AR TRES W  DIS CAZ7
 BAR2 SZ IP        250 13.00                             170   -0.0510 23.6 205 
 BAR2 SZ ES   1    250 28.18                             170   -0.28 7 23.6 205 
 BAR2 SZ I         250 29.66       208.2 0.24                          23.6 205 
 GIR2 SZ EP        250 13.09                             166   -0.0810 34.2 341 
 GIR2 SZ ES   2    250 28.68                             166    0.01 5 34.2 341 
 PAM  SZ EP        250 15.76                             152    0.2810 75.0  35 
 PAM  SN ES   1    250 32.74                             152   -0.04 7 75.0  35 
 BRR  HZ IP     C  250 14.80                             151   -0.1010 77.1 297 
 BRR  HZ I         250 15.08       264.2 0.16                          77.1 297 
 BRR  HN ES   1    250 32.30                             151    0.56 7 77.1 297 
 RUS  HZ EP        250 16.79                             144   -0.2310 98.8 179 
 RUS  HE ES   1    250 35.50                             144   -0.02 7 98.8 179 
 BRI  SZ EP        250 17.59                             142    0.3510  108  18 
 OCA  SZ EP        250 21.52                             129   -0.38 9  163 351 
 OCA  SZ I         250 49.84        53.7 0.27                           163 351 
 YOP  SZ EP        250 23.26                             127    0.23 9  175 155 
 CTAU SZ EP        250 26.68                             123    0.18 9  204 211 
 CTAU SZ ES   1    250 51.91                             123   -0.49 6  204 211 
 CTAB SZ EP        250 30.20                             119    0.91 8  232 212 
 NOR  SZ EP        250 28.76                             118   -0.75 8  239 236 
 CHI  HZ EP        250 30.92                             117   -0.15 8  249 197 
 CHI  HN ES   1    250 59.98                             117   -0.55 6  249 197 
 CHI  HZ I         251  3.91        17.9 0.50                           249 197 
 ROSC BZ EP        250 32.40                             117    0.73 8  255 212 
 ROSC BZ I         251 11.16        38.8 0.45                           255 212 
 CVER SZ EP   3    250 34.53                             115    0.72 2  273 204 
 HEL  HZ EP        250 34.61                             114    0.46 7  277 256 
 HEL  HZ I         251 11.59        32.4 0.32                           277 256 
 VIL  SN ES   1    251 10.00                             112   -0.61 5  303 193 
 RREF HZ EP        250 39.92                             111    0.04 7  325 230 
 RREF HZ I         251 24.68        20.2 0.34                           325 230 
 COD  HZ EP        250 40.91                             109   -1.05 6  350 354 
 PRA  HZ EP        250 46.92                             107   -0.12 6  394 210 
 PRA  HZ I         251 32.21        60.1 0.28                           394 210 
                                                                                
