 2017  1 3 0011 58.0 L   6.808 -73.182141.7  RSN  4 0.3 1.3LRSN                1
 GAP=144        0.73       3.6     4.2  7.0 -0.3904E+01  0.6762E+01  0.5384E+01E
 Epicentro: ZAPATOCA - SANTANDER                                               3
 ACTION:UPD 17-05-22 15:54 OP:jn   STATUS:               ID:20170103001158 L   I
 OLDACT:DUP 17-01-03 13:05 OP:lv   STATUS:               ID:20170103000747d    3
 2017-01-03-0008-00M.COL___381                                                 6
 STAT SP IPHASW D HRMM SECON CODA AMPLIT PERI AZIMU VELO AIN AR TRES W  DIS CAZ7
 PAM  EZ EP        012 20.27                             149    0.4110 79.4  42 
 PAM  EN ES        012 36.54                             149   -0.4010 79.4  42 
 PAM  EZ I         012 39.30         6.2 0.50            154           79.4  42 
 RUS  HZ EP        012 21.63                             142    0.2410  102 174 
 RUS  HN ES        012 39.82                             142    0.1510  102 174 
 RUS  HZ I         012 40.99         3.0 0.32            144            102 174 
 PTB  HZ EP        012 24.02                             132   -0.23 9  144 258 
 PTB  HN ES        012 44.91                             132    0.15 9  144 258 
 PTB  HZ I         012 49.36         1.6 0.11            133            144 258 
 CHI  HZ EP        012 35.12                             116   -0.28 8  248 194 
 CHI  HN ES        013  4.35                             116   -0.26 8  248 194 
 CHI  HZ I         013 11.55         1.0 0.29            118            248 194 
                                                                                
