 2016  9 3 0315 50.0 L   6.705 -73.171143.6  RSN  4 0.3 1.2LRSN                1
 GAP=227        0.71       5.4     5.3  5.7  0.1417E+02  0.3819E+01  0.1168E+01E
 Epicentro: VILLANUEVA - SANTANDER                                             3
 ACTION:UPD 17-08-17 21:05 OP:lp   STATUS:               ID:20160903031550 L   I
 OLDACT:REG 16-09-03 12:41 OP:drio STATUS:               ID:20160903030737     3
 2016-09-03-0308-00M.COL___355                                                 6
 STAT SP IPHASW D HRMM SECON CODA AMPLIT PERI AZIMU VELO AIN AR TRES W  DIS CAZ7
 BAR2 EZ EP        316  9.03                             175   -0.1210 12.5 186 
 BAR2 EZ ES        316 23.82                             175   -0.3010 12.5 186 
 BAR2 EZ I         316 25.24         4.9 0.20            176           12.5 186 
 BRR  HZ EP        316 10.99                             151   -0.0710 74.5 307 
 BRR  HN ES        316 27.85                             151    0.3310 74.5 307 
 BRR  HZ I         316 33.10         4.1 0.48            151           74.5 307 
 RUS  HZ EP        316 13.21                             146    0.4410 90.4 174 
 RUS  HE ES        316 30.56                             146   -0.0110 90.4 174 
 RUS  HZ I         316 32.05         1.9 0.50            151           90.4 174 
 PTB  HZ EP        316 15.99                             132   -0.35 9  143 263 
 PTB  HE ES        316 36.97                             132    0.05 9  143 263 
 PTB  HZ I         316 39.06         2.4 0.14            134            143 263 
                                                                                
