 2013 10 3 0208 36.4 L   6.990 -73.138155.6  RSN  6 0.4 1.7LRSN                1
 GAP=126        1.14       4.8     6.0  7.7  0.1716E+01  0.7618E+01 -0.6617E+01E
 Epicentro: FLORIDABLANCA - SANTANDER                                          3
 ACTION:UPD 13-11-25 09:18 OP:ep   STATUS:               ID:20131003020836 L   I
 OLDACT:REG 13-10-03 05:35 OP:nd   STATUS:               ID:20131003015959     3
 2013-10-03-0159-59M.COL___273                                                 6
 STAT SP IPHASW D HRMM SECON CODA AMPLIT PERI AZIMU VELO AIN AR TRES W  DIS CAZ7
 BAR2 SZ EP        2 8 57.96                             163    0.1810 44.3 186 
 BAR2 SZ ES        2 9 14.34                             163   -0.1110 44.3 186 
 BAR2 SZ I         2 9 15.69        10.8 0.36            165           44.3 186 
 PAM  SZ EP        2 8 59.36                             157    0.4910 61.9  51 
 PAM  SN ES        2 9 16.06                             157   -0.3310 61.9  51 
 PAM  SZ I         2 9 17.56         6.0 0.44            159           61.9  51 
 BRR  HZ EP        2 8 58.68                             156    0.3910 64.8 282 
 BRR  HN ES        2 9 16.21                             156    0.8510 64.8 282 
 BRR  HZ I         2 9 18.12        14.6 0.10            156           64.8 282 
 RUS  HZ EP        2 9  2.47                             140   -0.2010  122 177 
 RUS  HN ES        2 9 22.71                             140   -0.4510  122 177 
 RUS  HZ I         2 9 23.54         2.6 0.18            143            122 177 
 PTB  HZ EP        2 9  4.68                             133   -0.07 9  154 251 
 PTB  HN ES        2 9 26.51                             133   -0.34 9  154 251 
 PTB  HZ I         2 9 28.90         5.9 0.16            134            154 251 
 SML  HZ EP        2 9 11.80                             122    0.15 8  225 333 
 SML  HN ES        2 9 38.25                             122   -0.89 8  225 333 
 SML  HZ I         2 9 40.81         4.4 0.10            123            225 333 
                                                                                
