 2016 10 3 0026 49.4 L   6.808 -73.173151.9  RSN 15 0.5 2.0LRSN                1
 GAP=133        1.25       4.2     4.8  7.4 -0.1406E+01  0.8247E+01  0.2332E+01E
 Epicentro: LOS SANTOS - SANTANDER                                             3
 ACTION:UPD 16-11-09 19:15 OP:rebc STATUS:               ID:20161003002649 L   I
 OLDACT:UP  16-10-03 16:43 OP:dani STATUS:               ID:20161003001743     3
 OLDACT:UP  16-10-03 16:39 OP:dani STATUS:               ID:20161003001743     3
 OLDACT:UP  16-10-03 16:39 OP:dani STATUS:               ID:20161003001743     3
 OLDACT:UP  16-10-03 16:38 OP:dani STATUS:               ID:20161003001743     3
 OLDACT:REG 16-10-03 14:44 OP:dani STATUS:               ID:20161003001743     3
 2016-10-03-0018-00M.COL___378                                                 6
 STAT SP IPHASW D HRMM SECON CODA AMPLIT PERI AZIMU VELO AIN AR TRES W  DIS CAZ7
 BRR  HZ EP     C  027 11.42                             154    0.4210 68.1 299 
 BRR  HN ES        027 28.09                             154    0.2010 68.1 299 
 BRR  HZ I         027 31.66        15.1 0.22            130           68.1 299 
 PAM  EZ EP        027 12.58                             151    0.2810 78.7  42 
 PAM  EN ES        027 29.90                             151   -0.3010 78.7  42 
 PAM  EZ I         027 31.82        11.6 0.44            126           78.7  42 
 RUS  HZ EP        027 13.59                             145   -0.2010  102 174 
 RUS  HN ES        027 32.48                             145   -0.3710  102 174 
 RUS  HZ I         027 33.38        14.0 0.26            123            102 174 
 PTB  HZ EP        027 16.16                             134   -0.42 9  145 258 
 PTB  HE ES        027 37.50                             134   -0.31 9  145 258 
 PTB  HZ I         027 44.41        12.8 0.46            110            145 258 
 SPBC HZ EP        027 18.58                             131    0.37 9  162 218 
 SPBC HN ES        027 41.39                             131    0.67 9  162 218 
 SPBC HZ I         027 47.66        18.1 0.25            109            162 218 
 ZAR  HZ EP        027 23.13                             124    1.24 9  201 292 
 ZAR  HN ES        027 47.28                             124    0.01 9  201 292 
 ZAR  HZ I         027 55.61         9.1 0.13            103            201 292 
 NOR  HZ EP        027 24.94                             120   -0.30 8  233 234 
 NOR  HN ES        027 53.58                             120    0.36 8  233 234 
 NOR  HZ I         027 58.29         7.4 0.32            102            233 234 
 CHI  HZ EP        027 27.96                             118    0.56 8  249 194 
 CHI  HN ES        027 56.45                             118   -0.63 8  249 194 
 CHI  HZ I         027 59.47         5.8 0.42            101            249 194 
 ROSC BZ EP   4    027 29.82                             118    2.09 0  252 210 
 ROSC BZ I         028  5.12         8.6 0.30            101            252 210 
 HEL  HZ EP   4    027 31.60                             116    2.01 0  269 255 
 HEL  HN ES        028  0.46                             116   -0.51 8  269 255 
 HEL  HZ I         028  9.87         4.6 0.20            100            269 255 
 URE  HZ EP        027 29.42                             115   -0.96 7  281 292 
 URE  HE ES   4    027 59.77                             115   -2.61 0  281 292 
 URE  HZ I         028 14.53         6.4 0.13             99            281 292 
 GUY2CHZ EP   4    027 35.69                             114    2.66 0  299 234 
 GUY2CHE ES   4    028 13.02                             114    5.93 0  299 234 
 GUY2CHZ I         028 15.64         4.6 0.29                           299 234 
 PTGC HZ EP   4    027 32.82                             112   -0.88 0  311 158 
 PTGC HN ES   4    028  6.05                             112   -2.25 0  311 158 
 PTGC HZ I         028 10.16         7.7 0.44             98            311 158 
 ELA  HZ EP   4    027 39.09                             111    2.82 0  327 229 
 ELA  HZ I         028 29.34         4.2 0.57             98            327 229 
 SJC  HZ EP        027 43.79                             107   -1.06 6  407 327 
 SJC  HZ I         028 33.75         1.7 0.31             96            407 327 
                                                                                
