 2010  4 3 0029 21.0 L   6.347 -73.523116.1  RSN  5 0.3 1.4LRSN                1
 GAP=133        0.53       4.9     6.7  5.7  0.5286E+01  0.1106E+02 -0.1220E+01E
 Epicentro: CONTRATACION - SANTANDER                                           3
 ACTION:UPD 10-08-24 09:57 OP:vdl  STATUS:               ID:20100403002921 L   I
 2010-04-03-0027-43S.COL___098                                                 6
 STAT SP IPHASW D HRMM SECON CODA AMPLIT PERI AZIMU VELO AIN AR TRES W  DIS CAZ7
 BAR2 SZ IP        029 38.17                             157     0.210   46  54 
 BAR2 SZ ES   1    029 50.78                             157    -0.4 7   46  54 
 BRR  HZ IP        029 40.19                             140     0.010   87 346 
 BRR  HN ES   1    029 55.41                             140     0.3 7   87 346 
 BRR  HZ I         030  1.78         7.8 0.16                            87 346 
 CHI  HE ES   3    030 14.14                             117     0.0 2  191 187 
 CHI  HZ I         030 20.38         1.5 0.40                           191 187 
 OCA  SZ EP        029 52.57                             114    -0.1 8  210   6 
 OCA  SZ ES   2    030 16.81                             114    -0.5 4  210   6 
 HEL  HZ EP   3    029 54.07                             113    -0.2 2  223 266 
 HEL  HN ES   3    030 19.76                             113    -0.4 2  223 266 
 HEL  HZ I         030 23.61         3.1 0.21                           223 266 
                                                                                
