 2014  1 3 0841 38.4 L   6.751 -73.178142.5  RSN  6 0.6 1.4LRSN                1
 GAP=273        1.36       8.6     7.7  9.5  0.2967E+01  0.2212E+02  0.1038E+02E
 Epicentro: VILLANUEVA - SANTANDER                                             3
 ACTION:UPD 14-03-13 09:50 OP:ep   STATUS:               ID:20140103084138 L   I
 OLDACT:REG 14-01-03 09:13 OP:stll STATUS:               ID:20140103083818     3
 2014-01-03-0838-18M.COL___234                                                 6
 STAT SP IPHASW D HRMM SECON CODA AMPLIT PERI AZIMU VELO AIN AR TRES W  DIS CAZ7
 BAR2 SZ EP        841 57.61                             173    0.1010 17.6 181 
 BAR2 SZ ES        842 12.32                             173   -0.1110 17.6 181 
 BAR2 SZ I         842 13.75        12.5 0.18            173           17.6 181 
 RUS  HZ EP        842  1.02                             145   -0.4210 95.5 174 
 RUS  HN ES        842 19.50                             145    0.0710 95.5 174 
 RUS  HZ I         842 21.12         3.4 0.28            145           95.5 174 
 PTB  HZ EP        842  4.35                             132   -0.31 9  143 261 
 PTB  HN ES        842 24.81                             132   -0.36 9  143 261 
 PTB  HZ I         842 29.50         3.9 0.10            132            143 261 
 SPBC HZ EP        842  7.00                             129    0.99 9  157 219 
 SPBC HN ES        842 28.63                             129    1.06 9  157 219 
 CHI  HZ EP        842 15.47                             117    0.25 8  242 195 
 CHI  HZ I         842 19.40         1.0 0.54            118            242 195 
 CHI  HN ES        842 42.90                             117   -1.07 8  242 195 
 GUY2CHZ EP        842 21.15                             112    0.00 7  295 235 
 GUY2CHN ES        842 54.01                             112   -0.50 7  295 235 
 GUY2CHZ I         843  3.81         1.8 0.62                           295 235 
                                                                                
