 2013  3 3 0029  6.3 L   6.734 -73.152140.0  RSN  5 0.5 1.5LRSN                1
 GAP=139        1.15       6.0     5.9  9.7 -0.3648E+01  0.6620E+01  0.4965E+01E
 Epicentro: JORDAN - SANTANDER                                                 3
 ACTION:UPD 13-04-09 13:59 OP:ep   STATUS:               ID:20130303002906 L   I
 2013-03-03-0028-39M.COL___193                                                 6
 STAT SP IPHASW D HRMM SECON CODA AMPLIT PERI AZIMU VELO AIN AR TRES W  DIS CAZ7
 BAR2 SZ ES   2    029 39.20                             173   -0.58 5 16.0 192 
 BAR2 SZ I         029 42.20         7.0 0.18            171           16.0 192 
 BRR  HZ EP        029 27.16                             150    0.1410 74.4 304 
 BRR  HE ES        029 44.01                             150    0.8310 74.4 304 
 BRR  HN I         029 48.38         9.2 0.20            150           74.4 304 
 PAM  SZ EP        029 28.23                             148   -0.0710 83.6  37 
 PAM  SE ES        029 45.03                             148   -0.4210 83.6  37 
 RUS  HE EP        029 29.53                             145    0.5710 93.3 175 
 RUS  HN ES        029 46.57                             145   -0.0710 93.3 175 
 RUS  HE I         029 48.37         5.8 0.22            148           93.3 175 
 PTB  HZ EP        029 32.24                             131   -0.39 9  146 262 
 PTB  HN ES        029 52.61                             131   -0.55 9  146 262 
 PTB  HE I         029 58.40         4.2 0.32            132            146 262 
                                                                                
