 2016  5 3 0418 53.3 L   6.794 -73.147150.9  RSN  7 0.4 1.8LRSN                1
 GAP=137        1.12       4.7     5.7  7.3 -0.6196E+01  0.3990E+01  0.7643E+01E
 Epicentro: LOS SANTOS - SANTANDER                                             3
 ACTION:UPD 16-08-18 17:41 OP:cam  STATUS:               ID:20160503041853 L   I
 OLDACT:UP  16-05-15 07:30 OP:ar   STATUS:               ID:20160503041853 L   3
 OLDACT:DUP 16-05-03 18:11 OP:edw  STATUS:               ID:20160503040750d    3
 2016-05-03-0407-49M.COL___306                                                 6
 STAT SP IPHASW D HRMM SECON CODA AMPLIT PERI AZIMU VELO AIN AR TRES W  DIS CAZ7
 BAR2 EZ EP        419 13.47                             171   -0.0810 22.6 190 
 BAR2 EZ ES        419 28.80                             171   -0.5410 22.6 190 
 BAR2 EZ I         419 29.87        23.5 0.46            169           22.6 190 
 BRR  HZ EP        419 15.26                             153    0.2310 71.4 299 
 BRR  HE ES        419 32.94                             153    0.9610 71.4 299 
 BRR  HZ I         419 33.62         7.7 0.16            151           71.4 299 
 PAM  EZ EP        419 16.19                             152    0.0710 78.0  39 
 PAM  EN ES        419 33.82                             152   -0.0910 78.0  39 
 PAM  EZ I         419 35.33         7.3 0.76            155           78.0  39 
 RUS  HZ EP        419 17.32                             145   -0.2110 99.9 176 
 RUS  HN ES        419 36.37                             145   -0.0510 99.9 176 
 RUS  HZ I         419 37.27         6.0 0.22            146           99.9 176 
 PTB  HZ EP        419 20.13                             133   -0.55 9  147 259 
 PTB  HN ES        419 41.29                             133   -0.74 9  147 259 
 PTB  HZ I         419 48.65         5.6 0.46            132            147 259 
 SPBC HZ EP        419 22.28                             130    0.13 9  163 219 
 SPBC HE ES        419 44.97                             130    0.32 9  163 219 
 SPBC HZ I         419 50.53        11.3 0.20            130            163 219 
 CHI  HZ EP   1    419 31.59                             118    0.36 6  248 195 
 CHI  HN ES        420  1.34                             118    0.54 8  248 195 
                                                                                
