 2017  4 3 0558  7.5 L   6.821 -73.140145.3  RSN  5 0.4 1.2LRSN                1
 GAP=240        0.55       6.5     6.8  6.5  0.1032E+02  0.1495E+02  0.6318E+01E
 Epicentro: LOS SANTOS - SANTANDER                                             3
 ACTION:UPD 17-05-30 21:07 OP:jn   STATUS:               ID:20170403055807 L   I
 OLDACT:UP  17-04-03 16:40 OP:and  STATUS:               ID:20170403054743d    3
 OLDACT:DUP 17-04-03 16:38 OP:and  STATUS:               ID:20170403054743d    3
 OLDACT:UP  17-04-03 16:37 OP:and  STATUS:               ID:20170403054742     3
 OLDACT:UP  17-04-03 16:37 OP:and  STATUS:               ID:20170403054742     3
 OLDACT:UP  17-04-03 16:37 OP:and  STATUS:               ID:20170403054742     3
 OLDACT:UP  17-04-03 16:36 OP:and  STATUS:               ID:20170403054742     3
 OLDACT:UP  17-04-03 16:33 OP:and  STATUS:               ID:20170403054742     3
 OLDACT:UP  17-04-03 16:33 OP:and  STATUS:               ID:20170403054742     3
 OLDACT:UP  17-04-03 16:32 OP:and  STATUS:               ID:20170403054742     3
 OLDACT:REG 17-04-03 12:45 OP:and  STATUS:               ID:20170403054742     3
 2017-04-03-0548-00M.COL___362                                                 6
 STAT SP IPHASW D HRMM SECON CODA AMPLIT PERI AZIMU VELO AIN AR TRES W  DIS CAZ7
 BAR2 EZ EP   2    558 27.11                             170   -0.01 5 25.7 191 
 BAR2 EZ ES        558 42.24                             170   -0.1910 25.7 191 
 BAR2 EZ I         558 43.65         3.7 0.18            161           25.7 191 
 BRR  HZ EP   2    558 28.76                             152    0.19 5 70.7 297 
 BRR  HN ES   2    558 45.76                             152    0.76 5 70.7 297 
 RUS  HZ EP   2    558 31.42                             143    0.05 5  103 177 
 RUS  HN ES   2    558 50.01                             143    0.02 5  103 177 
 RUS  HZ I         558 50.86         2.0 0.26            138            103 177 
 PTB  HZ EP   2    558 34.12                             131   -0.41 5  149 258 
 PTB  HN ES   2    558 55.05                             131   -0.56 5  149 258 
 PTB  HZ I         558 55.88         2.3 0.15            129            149 258 
 SPBC HZ EP   2    558 36.37                             128    0.20 5  165 219 
 SPBC HN ES   2    558 59.05                             128    0.51 5  165 219 
 SPBC HZ I         559  5.03         2.7 0.32            125            165 219 
                                                                                
