 2012  5 3 0038 52.0 L   6.777 -73.132144.6  RSN  5 0.4 1.5LRSN                1
 GAP=139        0.78       5.5     6.1  8.4 -0.2418E+01  0.7933E+01  0.3957E+01E
 Epicentro: LOS SANTOS - SANTANDER                                             3
 ACTION:UP  12-07-05 12:01 OP:pat  STATUS:               ID:20120503003852 L   I
 2012-05-03-0030-00M.COL___186                                                 6
 STAT SP IPHASW D HRMM SECON CODA AMPLIT PERI AZIMU VELO SNR AR TRES W  DIS CAZ7
 BAR2 SZ ES   2    039 26.27                             171    -0.3 5   21 195 
 BRR  HZ EP   1    039 13.34                             151     0.2 7   74 300 
 BRR  HN ES   1    039 30.13                             151     0.5 7   74 300 
 BRR  HZ I         039 33.99        10.0 0.39                            74 300 
 PAM  SZ EP   1    039 14.33                             150     0.2 7   78  38 
 PAM  SN ES   1    039 30.85                             150    -0.5 7   78  38 
 RUS  HZ EP   1    039 15.51                             144     0.1 7   98 177 
 RUS  HZ I         039 16.74         3.3 0.15                            98 177 
 RUS  HN ES   1    039 33.83                             144     0.1 7   98 177 
 PTB  HZ EP   1    039 18.59                             131    -0.3 7  149 260 
 PTB  HE ES   2    039 39.29                             131    -0.7 5  149 260 
 PTB  HZ I         039 42.53         3.2 0.18                           149 260 
                                                                                
