 2012  5 3 0058 14.5 L   7.012 -72.946  9.6  RSN  4 0.4 1.0LRSN                1
 GAP=150        0.83       3.0     3.4  9.7 -0.3249E+01  0.1198E+02  0.3906E+01E
 Epicentro: SANTA BARBARA - SANTANDER                                          3
 ACTION:UP  12-07-05 12:01 OP:pat  STATUS:               ID:20120503005814 L   I
 2012-05-03-0050-00M.COL___186                                                 6
 STAT SP IPHASW D HRMM SECON CODA AMPLIT PERI AZIMU VELO SNR AR TRES W  DIS CAZ7
 PAM  SZ EP        058 22.47                              97     0.010   45  37 
 PAM  SN ES   1    058 28.50                              97    -0.2 7   45  37 
 BRR  HZ EP   1    058 28.11                              93     0.1 7   85 277 
 BRR  HE ES   1    058 38.47                              93    -0.1 7   85 277 
 RUS  HZ EP   1    058 35.15                              92     0.7 7  125 187 
 RUS  HZ I         058 35.80         3.2 0.13                           125 187 
 RUS  HN ES   1    058 49.60                              92    -0.5 7  125 187 
 PTB  HZ EP   1    058 41.65                              56     0.5 7  175 253 
 PTB  HZ I         058 42.09         1.6 0.14                           175 253 
 PTB  HN ES   2    059  1.34                              56    -0.6 4  175 253 
                                                                                
