 2014  6 3 0546 41.5 L   6.697 -73.163136.5  RSN  4 0.4 1.0LRSN                1
 GAP=139        0.80       5.4     5.3 11.5 -0.5909E+01  0.4011E+02 -0.1044E+02E
 Epicentro: VILLANUEVA - SANTANDER                                             3
 ACTION:UPD 14-07-01 22:50 OP:nd   STATUS:               ID:20140603054641 L   I
 OLDACT:REG 14-06-03 13:00 OP:fm   STATUS:               ID:20140603053810     3
 2014-06-03-0538-10M.COL___247                                                 6
 STAT SP IPHASW D HRMM SECON CODA AMPLIT PERI AZIMU VELO AIN AR TRES W  DIS CAZ7
 PAM  SE ES        547 20.36                             145   -0.1210 87.6  36 
 PAM  SZ I         547 21.15         3.4 0.20            150           87.6  36 
 RUS  HN ES   1    547 21.02                             145    0.31 7 89.4 174 
 RUS  HZ I         547 23.61         0.8 0.40            146           89.4 174 
 PTB  HZ EP        547  7.48                             130    0.12 9  144 263 
 PTB  HN ES        547 27.08                             130   -0.47 9  144 263 
 PTB  HZ I         547 30.30         2.0 0.16            133            144 263 
 ZAR  HZ EP   1    547 13.30                             120   -0.33 6  207 295 
 ZAR  HN ES        547 39.26                             120    0.55 8  207 295 
                                                                                
