 2013  2 3 0935 38.5 L   6.672 -73.215150.8  RSN  4 0.1 1.2LRSN                1
 GAP=219        0.38       3.6     3.8  4.4  0.8498E+01  0.4402E+00  0.4871E+00E
 Epicentro: BARICHARA - SANTANDER                                              3
 ACTION:UPD 13-03-12 09:30 OP:ep   STATUS:               ID:20130203093538 L   I
 2013-02-03-0930-00M.COL___240                                                 6
 STAT SP IPHASW D HRMM SECON CODA AMPLIT PERI AZIMU VELO AIN AR TRES W  DIS CAZ7
 BRR  HZ EP        936  0.21                             153   -0.0510 73.0 311 
 BRR  HZ I         936  6.27         2.4 0.28            151           73.0 311 
 BRR  HE ES        936 17.22                             153   -0.0410 73.0 311 
 RUS  HZ EP   1    936  1.80                             149   -0.03 7 87.4 170 
 RUS  HE ES   1    936 20.20                             149    0.14 7 87.4 170 
 RUS  HE I         936 21.62         3.5 0.33            148           87.4 170 
 PTB  HZ EP   1    936  5.00                             135    0.00 7  138 264 
 PTB  HN ES   1    936 25.51                             135   -0.19 7  138 264 
 PTB  HZ I         936 26.80         1.7 0.10            135            138 264 
 ZAR  HE ES   1    936 36.92                             124    0.31 6  203 297 
                                                                                
