 2016  8 3 0429 49.6 L   6.839 -73.137147.7  RSN 18 0.5 2.3LRSN                1
 GAP= 70        1.01       2.9     2.8  4.7 -0.1123E+01  0.4494E+01  0.8890E+00E
 Epicentro: LOS SANTOS - SANTANDER                                             3
 ACTION:UPD 16-10-29 15:31 OP:rebc STATUS:               ID:20160803042949 L   I
 OLDACT:UP  16-08-03 15:58 OP:edw  STATUS:               ID:20160803042738     3
 OLDACT:REG 16-08-03 12:57 OP:edw  STATUS:               ID:20160803042738     3
 2016-08-03-0428-00M.COL___353                                                 6
 STAT SP IPHASW D HRMM SECON CODA AMPLIT PERI AZIMU VELO AIN AR TRES W  DIS CAZ7
 BAR2 EZ EP        430  9.34                             169   -0.2710 27.8 190 
 BAR2 EZ ES        430 25.24                             169    0.0610 27.8 190 
 BRR  HZ IP     C  430 10.97                             153    0.0310 70.0 295 
 BRR  HE ES        430 28.25                             153    0.7010 70.0 295 
 BRR  HZ I         430 31.99        39.1 0.32                          70.0 295 
 PAM  EZ EP        430 12.15                             152    0.3110 73.5  41 
 PAM  EN ES        430 29.45                             152    0.3010 73.5  41 
 PAM  EZ I         430 31.95        23.9 0.48                          73.5  41 
 RUS  HZ EP        430 13.40                             143   -0.5010  105 177 
 RUS  HN ES        430 32.18                             143   -0.6410  105 177 
 RUS  HZ I         430 32.96        22.2 0.29                           105 177 
 TAM  HZ EP        430 17.66                             131    0.15 9  155 107 
 TAM  HN ES        430 39.51                             131    0.27 9  155 107 
 SPBC HZ EP        430 18.10                             129   -0.57 9  167 218 
 SPBC HN ES        430 40.54                             129   -0.77 9  167 218 
 SPBC HZ I         430 43.37        31.7 0.14                           167 218 
 ZAR  HZ EP        430 22.54                             123    0.40 9  203 291 
 ZAR  HN ES        430 47.20                             123   -0.29 9  203 291 
 ZAR  HZ I         430 52.75        28.2 0.32                           203 291 
 NOR  HZ EP        430 25.40                             119   -0.44 8  238 234 
 NOR  HN ES        430 53.52                             119   -0.55 8  238 234 
 NOR  HZ I         430 59.58        13.2 0.24                           238 234 
 ROSC BZ EP        430 28.82                             117    0.49 8  257 211 
 ROSC BN ES        430 58.88                             117    0.38 8  257 211 
 ROSC BZ I         431  4.08        25.2 0.40                           257 211 
 HEL  HZ EP        430 30.65                             115    0.47 8  274 255 
 HEL  HN ES        431  1.80                             115    0.01 8  274 255 
 HEL  HZ I         431  8.82         8.7 0.30                           274 255 
 URE  HZ EP        430 31.14                             114    0.41 7  283 291 
 URE  HN ES        431  2.37                             114   -0.40 7  283 291 
 URE  HZ I         431 13.60        20.6 0.20                           283 291 
 SOCV BZ EP   4    430 32.12                             113   -0.31 0  298  57 
 SOCV BN ES   4    431  4.80                             113   -1.00 0  298  57 
 GUY2CHZ EP        430 34.07                             112    0.36 7  304 234 
 GUY2CHN ES        431  8.45                             112    0.36 7  304 234 
 GUY2CHZ I         431 17.08         8.1 0.24                           304 234 
 PTGC HZ EP   4    430 32.51                             112   -1.50 0  312 159 
 PTGC HN ES   4    431  6.07                             112   -2.55 0  312 159 
 PTGC HZ I         431 22.86         8.2 0.34                           312 159 
 ELA  HZ EP        430 37.16                             110    0.18 7  333 229 
 ELA  HN ES        431 14.75                             110    0.84 7  333 229 
 ELA  HZ I         431 20.47         5.9 0.36                           333 229 
 CBOC HZ EP        430 37.00                             110    0.10 7  336 251 
 CBOC HN ES        431 13.27                             110   -0.48 7  336 251 
 CBOC HZ I         431 19.88         2.9 0.56                           336 251 
 PRA  HZ EP        430 43.34                             107   -0.39 6  396 209 
 PRA  HE ES        431 26.71                             107    0.79 6  396 209 
 PRA  HZ I         431 29.83         9.1 0.62                           396 209 
 SJC  HZ EP   4    430 43.57                             106   -1.33 0  406 327 
 SJC  HN ES   4    431 24.58                             106   -3.42 0  406 327 
 SJC  HZ I         431 38.92         3.3 0.72                           406 327 
 CRJC HZ EP        430 51.18                             104   -0.50 5  463   3 
 CRJC HN ES        431 39.29                             104   -0.77 5  463   3 
                                                                                
