 2014  3 3 0717 20.9 L   7.439 -73.228129.1  RSN  8 0.5 1.6LRSN                1
 GAP=107        1.20       3.6     5.5  8.3  0.4321E+01  0.1450E+02  0.3255E+01E
 Epicentro: EL PLAYON - SANTANDER                                              3
 ACTION:UPD 14-04-09 23:14 OP:nd   STATUS:               ID:20140303071720 L   I
 OLDACT:DUP 14-03-03 14:00 OP:stll STATUS:               ID:20140303070815d    3
 2014-03-03-0708-14M.COL___232                                                 6
 STAT SP IPHASW D HRMM SECON CODA AMPLIT PERI AZIMU VELO AIN AR TRES W  DIS CAZ7
 PAM  SZ EP        717 40.38                             154    0.1210 59.4 101 
 PAM  SN ES        717 55.44                             154    0.0510 59.4 101 
 PAM  SZ I         717 58.22         9.0 0.78            159           59.4 101 
 OCA  HZ EP        717 42.48                             143    0.8210 89.0 354 
 OCA  HN ES        717 58.25                             143    0.3610 89.0 354 
 OCA  HZ I         718  1.70         5.6 0.20            139           89.0 354 
 BAR2 SZ EP        717 42.06                             142   -0.0710 93.8 177 
 BAR2 SZ ES        717 58.53                             142   -0.2010 93.8 177 
 BAR2 SZ I         717 59.86        19.3 0.26            140           93.8 177 
 PTB  HZ EP        717 48.61                             124    0.07 9  168 234 
 PTB  HN ES        718 10.22                             124    0.08 9  168 234 
 PTB  HZ I         718 13.95         4.4 0.18            119            168 234 
 RUS  HZ EP        717 49.43                             124   -0.10 9  172 175 
 RUS  HE ES        718 11.63                             124   -0.26 9  172 175 
 RUS  HZ I         718 12.54         1.2 0.38            121            172 175 
 SML  HZ EP        717 48.96                             122   -0.45 9  177 328 
 SML  HN ES        718 10.50                             122   -1.18 9  177 328 
 SML  HZ I         718 12.30        12.3 0.30            118            177 328 
 ZAR  HZ EP        717 50.52                             122    0.78 9  180 272 
 ZAR  HZ I         718 18.48         4.8 0.18            117            180 272 
 TAM  HZ EP        717 50.90                             120   -0.32 9  194 125 
 TAM  HZ I         717 51.55         3.4 0.22            119            194 125 
                                                                                
