 2017  1 3 0007 37.4 L   7.347 -73.076 18.6  RSN  4 0.2 1.2LRSN                1
 GAP=176        0.37       4.8     4.6  8.6  0.1973E+02  0.3934E+02  0.3796E+02E
 Epicentro: MATANZA - SANTANDER                                                3
 ACTION:UPD 17-05-22 15:54 OP:jn   STATUS:               ID:20170103000737 L   I
 OLDACT:REG 17-01-03 12:21 OP:lv   STATUS:               ID:20170103000001     3
 2017-01-03-0000-15M.COL___381                                                 6
 STAT SP IPHASW D HRMM SECON CODA AMPLIT PERI AZIMU VELO AIN AR TRES W  DIS CAZ7
 PAM  EZ IP     D  0 7 45.40                             113    0.1310 41.5  91 
 PAM  EN ES        0 7 51.29                             113   -0.1010 41.5  91 
 PAM  EZ I         0 7 52.58        10.8 0.14             47           41.5  91 
 RUS  HZ EP   3    0 8  3.00                              56    0.87 2  161 180 
 RUS  HN ES        0 8 21.38                              56   -0.01 9  161 180 
 RUS  HZ I         0 8 27.01         2.2 0.26             47            161 180 
 PTB  HZ EP        0 8  3.43                              56   -0.12 9  177 240 
 PTB  HN ES        0 8 23.97                              56    0.04 9  177 240 
 PTB  HZ I         0 8 24.96         4.5 0.14             47            177 240 
 ZAR  HZ EP        0 8  6.17                              56    0.04 9  197 275 
 ZAR  HN ES        0 8 28.48                              56   -0.03 9  197 275 
 ZAR  HZ I         0 8 34.32         2.3 0.28             37            197 275 
                                                                                
