 2016 12 3 0743  6.6 L   6.645 -73.171146.5  RSN  4 0.0 1.2LRSN                1
 GAP=242        0.29       3.4     2.1  2.7  0.2629E+01  0.1581E+01  0.8531E+00E
 Epicentro: VILLANUEVA - SANTANDER                                             3
 ACTION:UPD 17-01-11 20:12 OP:rebc STATUS:               ID:20161203074306 L   I
 OLDACT:REG 16-12-03 12:53 OP:dnl  STATUS:               ID:20161203073745     3
 2016-12-03-0738-00M.COL___349                                                 6
 STAT SP IPHASW D HRMM SECON CODA AMPLIT PERI AZIMU VELO AIN AR TRES W  DIS CAZ7
 BAR2 EZ EP        743 26.04                             178   -0.0410 5.97 192 
 BAR2 EZ ES        743 41.29                             178    0.0010 5.97 192 
 BAR2 EZ I         743 43.93         6.3 0.36            171           5.97 192 
 BRR  HZ EP        743 28.23                             150   -0.0210 78.7 311 
 BRR  HN ES        743 45.19                             150    0.0510 78.7 311 
 BRR  HZ I         743 48.30         3.1 0.43            152           78.7 311 
 PTB  HZ EP        743 33.24                             133    0.09 9  143 265 
 PTB  HN ES        743 53.84                             133   -0.03 9  143 265 
 PTB  HZ I         743 59.40         0.8 0.33            134            143 265 
 ZAR  HE ES        744  5.22                             122   -0.04 8  209 297 
                                                                                
