 2012  9 3 0624 34.6 L   6.772 -73.152145.4  RSN  5 0.3 1.4LRSN                1
 GAP=183        0.71       5.9     6.2  6.8  0.1034E+02  0.6813E+01  0.5952E+01E
 Epicentro: LOS SANTOS - SANTANDER                                             3
 ACTION:UPD 12-10-22 14:16 OP:ep   STATUS:               ID:20120903062434 L   I
 2012-09-03-0620-00M.COL___218                                                 6
 STAT SP IPHASW D HRMM SECON CODA AMPLIT PERI AZIMU VELO AIN AR TRES W  DIS CAZ7
 BAR2 SZ EP   1    624 54.18                             172    0.09 7 20.2 190 
 BAR2 SZ I         624 54.44         8.1 0.18                          20.2 190 
 BAR2 SZ ES   1    625  8.89                             172   -0.43 7 20.2 190 
 GIR2 SZ EP   1    624 54.14                             166   -0.14 7 34.2 352 
 GIR2 SZ ES   1    625  9.32                             166   -0.33 7 34.2 352 
 BRR  HZ EP   1    624 55.99                             152    0.27 7 72.1 301 
 BRR  HZ I         624 57.56         6.9 0.11                          72.1 301 
 BRR  HN ES   1    625 12.91                             152    0.68 7 72.1 301 
 RUS  HZ EP   1    624 58.24                             145    0.17 7 97.6 176 
 RUS  HZ I         624 59.04         2.1 0.17                          97.6 176 
 RUS  HN ES   1    625 16.66                             145    0.26 7 97.6 176 
 PTB  HZ EP   1    625  0.91                             132   -0.48 7  146 260 
 PTB  HN ES   1    625 22.12                             132   -0.19 7  146 260 
 PTB  HZ I         625 24.44         2.4 0.13                           146 260 
                                                                                
