 2015 11 3 0405 37.7 L   6.800 -73.128150.0  RSN  9 0.4 1.7LRSN                1
 GAP=139        0.96       3.5     4.4  5.7 -0.8220E+00  0.8249E+01  0.3872E+01E
 Epicentro: LOS SANTOS - SANTANDER                                             3
 ACTION:UPD 15-12-28 16:08 OP:cam  STATUS:               ID:20151103040537 L   I
 OLDACT:DUP 15-11-03 18:51 OP:cara STATUS:               ID:20151103035752d    3
 OLDACT:UP  15-11-03 17:57 OP:cara STATUS:               ID:20151103035750     3
 OLDACT:REG 15-11-03 13:51 OP:cara STATUS:               ID:20151103035750     3
 2015-11-03-0357-50M.COL___313                                                 6
 STAT SP IPHASW D HRMM SECON CODA AMPLIT PERI AZIMU VELO AIN AR TRES W  DIS CAZ7
 BAR2 EZ EP        4 5 57.42                             171   -0.3810 23.8 195 
 BAR2 EZ ES        4 6 12.86                             171   -0.6510 23.8 195 
 BAR2 EZ I         4 6 13.95        12.7 0.26            170           23.8 195 
 BRR  HZ EP        4 5 59.40                             153    0.0410 72.9 298 
 BRR  HN ES        4 6 16.97                             153    0.6810 72.9 298 
 BRR  HZ I         4 6 19.70         6.5 0.28            152           72.9 298 
 PAM  EZ EP        4 6  0.73                             152    0.4910 76.1  38 
 PAM  EE ES        4 6 17.92                             152    0.0510 76.1  38 
 PAM  EZ I         4 6 19.89         9.2 0.48            154           76.1  38 
 RUS  HZ EP        4 6  1.92                             145    0.1110  101 177 
 RUS  HN ES        4 6 20.54                             145   -0.1210  101 177 
 RUS  HZ I         4 6 21.48         5.7 0.28            146            101 177 
 SPBC HZ EP        4 6  6.53                             130   -0.07 9  164 220 
 SPBC HE ES        4 6 29.79                             130    0.61 9  164 220 
 SPBC HZ I         4 6 31.17         6.9 0.30            130            164 220 
 ZAR  HZ EP        4 6 10.41                             123   -0.15 8  206 292 
 ZAR  HN ES        4 6 35.57                             123   -0.67 8  206 292 
 ZAR  HZ I         4 6 41.26         4.4 0.52            123            206 292 
 CHI  HZ EP        4 6 15.21                             118   -0.44 8  249 196 
 CHI  HN ES        4 6 45.47                             118    0.18 8  249 196 
 CHI  HZ I         4 6 50.59         2.7 0.26            119            249 196 
 ROSC BN ES   4    4 6 48.93                             117    2.80 0  254 211 
 GUY2CHZ EP        4 6 21.61                             113   -0.03 7  303 235 
 GUY2CHE ES        4 6 56.08                             113    0.12 7  303 235 
 GUY2CHZ I         4 7  3.97         2.0 0.34                           303 235 
 CBOC HZ EP   2    4 6 25.72                             110    0.76 3  336 252 
 CBOC HN ES   2    4 7  1.45                             110   -0.42 3  336 252 
                                                                                
