 2014  5 3 0741 25.2 L   6.817 -73.199142.0  RSN  6 0.3 1.3LRSN                1
 GAP=129        0.51       2.6     2.8  5.7 -0.2114E+01  0.4435E+01  0.1717E+01E
 Epicentro: ZAPATOCA - SANTANDER                                               3
 OLDACT:REG 14-05-03 13:39 OP:fm   STATUS:               ID:20140503073813     3
 ACTION:UPD 15-03-16 16:54 OP:nd   STATUS:               ID:20140503074125 L   I
 OLDACT:UP  14-05-03 17:43 OP:fm   STATUS:               ID:20140503073813     3
 2014-05-03-0738-13M.COL___242                                                 6
 STAT SP IPHASW D HRMM SECON CODA AMPLIT PERI AZIMU VELO AIN AR TRES W  DIS CAZ7
 PAM  SZ EP        741 47.21                             149    0.0210 79.9  44 
 PAM  SN ES        742  4.39                             149    0.0710 79.9  44 
 PAM  SZ I         742  6.57         3.2 0.22            158           79.9  44 
 RUS  HZ EP   1    741 48.70                             142   -0.08 7  103 173 
 RUS  HN ES   1    742  7.15                             142   -0.01 7  103 173 
 RUS  SZ I         742  8.41         2.5 0.60            143            103 173 
 PTB  HZ EP        741 51.16                             132   -0.23 9  142 258 
 PTB  HN ES        742 11.66                             132   -0.13 9  142 258 
 PTB  SZ I         742 14.58         3.4 0.08            134            142 258 
 OCA  HE ES   1    742 14.54                             129   -0.14 7  158 355 
 SPBC HZ EP   1    741 53.72                             128    0.50 7  161 217 
 SPBC HN ES   2    742 14.91                             128   -0.15 5  161 217 
 SPBC SZ I         742 28.74         4.5 2.52            130            161 217 
 ZAR  HE ES   2    742 22.14                             122    0.75 4  198 292 
 GUY2CHZ EP   4    742 10.22                             112    1.99 0  297 234 
 SJC  HE ES   4    743  0.37                             105   -2.53 0  404 328 
                                                                                
