 2012 10 3 0908  5.1 L   6.782 -73.110147.8  RSN 12 0.5 2.4LRSN                1
 GAP= 74        0.72       4.3     4.0  6.8  0.3547E+00  0.7141E+01  0.8379E+01E
 Epicentro: LOS SANTOS - SANTANDER                                             3
 ACTION:UPD 12-11-22 17:01 OP:ep   STATUS:               ID:20121003090805 L   I
 2012-10-03-0900-00M.COL___223                                                 6
 STAT SP IPHASW D HRMM SECON CODA AMPLIT PERI AZIMU VELO AIN AR TRES W  DIS CAZ7
 BAR2 SZ IP        9 8 24.71                             171   -0.2510 22.5 201 
 BAR2 SZ ES   2    9 8 40.50                             171    0.05 5 22.5 201 
 BAR2 SZ I         9 8 43.02        49.3 0.21                          22.5 201 
 GIR2 SZ EP   1    9 8 25.00                             166   -0.10 7 34.1 344 
 BRR  HZ IP     C  9 8 26.68                             151   -0.0510 75.6 298 
 BRR  HZ I         9 8 28.23        61.2 0.16                          75.6 298 
 BRR  HN ES   2    9 8 44.34                             151    0.75 5 75.6 298 
 PAM  SZ EP   1    9 8 27.88                             151    0.39 7 76.5  36 
 PAM  SN ES   2    9 8 44.72                             151   -0.23 5 76.5  36 
 PAM  SN I         9 8 46.05        35.8 0.16                          76.5  36 
 RUS  HZ EP   1    9 8 28.56                             145   -0.34 7 98.4 178 
 RUS  HN ES   2    9 8 47.18                             145   -0.28 5 98.4 178 
 TAM  HZ EP   1    9 8 32.70                             132    0.15 7  151 105 
 TAM  HZ I         9 8 53.77        18.8 0.34                           151 105 
 TAM  HN ES   2    9 8 54.38                             132    0.43 5  151 105 
 ZAR  HZ EP   1    9 8 37.42                             122   -0.72 6  208 292 
 ZAR  HN ES   2    9 9  3.67                             122   -0.24 4  208 292 
 ZAR  HN I         9 9  8.58        51.0 0.27                           208 292 
 ZAR  HZ I         9 9  9.20        32.2 0.24                           208 292 
 NOR  SN ES   2    9 9  8.89                             119   -0.42 4  237 235 
 CHI  HZ EP   1    9 8 42.75                             118   -0.08 6  248 196 
 CHI  HZ I         9 8 45.38        10.2 0.31                           248 196 
 CHI  HN ES   2    9 9 11.88                             118   -0.37 4  248 196 
 ROSC BZ EP   1    9 8 44.40                             117    1.02 6  253 212 
 ROSC BZ I         9 9 22.44        26.3 0.40                           253 212 
 HEL  HZ EP   1    9 8 46.38                             115    0.58 6  275 256 
 HEL  HN ES   2    9 9 18.44                             115    0.91 4  275 256 
 HEL  HZ I         9 9 24.45        12.5 0.22                           275 256 
 PRA  HZ EP   1    9 8 58.07                             107   -0.66 4  392 210 
 PRA  HE ES   2    9 9 40.99                             107    0.44 3  392 210 
                                                                                
