 2016 11 3 0713 42.1 L   6.765 -73.159145.3  RSN  8 0.4 1.7LRSN                1
 GAP=136        0.84       3.5     4.0  5.1 -0.3082E+01  0.3957E+01  0.2621E+01E
 Epicentro: LOS SANTOS - SANTANDER                                             3
 ACTION:UPD 17-10-26 21:04 OP:lp   STATUS:               ID:20161103071342 L   I
 OLDACT:UP  16-11-03 16:04 OP:dani STATUS:               ID:20161103070644     3
 OLDACT:UP  16-11-03 16:03 OP:dani STATUS:               ID:20161103070644     3
 OLDACT:REG 16-11-03 12:37 OP:dani STATUS:               ID:20161103070644     3
 2016-11-03-0707-00M.COL___337                                                 6
 STAT SP IPHASW D HRMM SECON CODA AMPLIT PERI AZIMU VELO AIN AR TRES W  DIS CAZ7
 BAR2 EZ EP        714  1.47                             172   -0.1210 19.3 188 
 BAR2 EZ ES        714 16.78                             172   -0.0310 19.3 188 
 BAR2 EZ I         714 19.25        13.8 0.22            170           19.3 188 
 BRR  HZ EP        714  3.21                             152   -0.0210 71.8 302 
 BRR  HN ES        714 20.31                             152    0.5910 71.8 302 
 BRR  HZ I         714 20.84        10.4 0.34            150           71.8 302 
 PAM  EZ EP        714  4.26                             150   -0.2410 81.4  39 
 PAM  EN ES        714 21.82                             150   -0.1610 81.4  39 
 PAM  EZ I         714 23.87         4.2 0.66            154           81.4  39 
 RUS  HZ EP        714  5.66                             145    0.1310 96.8 175 
 RUS  HE ES        714 24.12                             145    0.3110 96.8 175 
 RUS  HZ I         714 25.31         4.9 0.28            146           96.8 175 
 PTB  HZ EP   3    714  7.90                             132   -0.92 2  146 260 
 PTB  HN ES        714 29.03                             132   -0.64 9  146 260 
 PTB  HZ I         714 34.64         5.3 0.42            131            146 260 
 SPBC HZ EP        714 10.07                             130   -0.11 9  159 219 
 SPBC HN ES        714 31.76                             130   -0.33 9  159 219 
 SPBC HZ I         714 38.22         6.2 0.26            129            159 219 
 ZAR  HZ EP        714 14.85                             122    0.33 9  204 293 
 ZAR  HN ES   3    714 41.61                             122    1.80 2  204 293 
 ZAR  HZ I         714 45.72         7.0 0.34            122            204 293 
 PRA  HZ EP        714 35.00                             107   -0.11 6  388 210 
 PRA  HE ES        715 17.17                             107    0.70 6  388 210 
 PRA  HZ I         715 23.05         2.4 0.29            107            388 210 
                                                                                
