 2013  4 3 0645  1.6 L   6.779 -73.151145.0  RSN  8 0.5 1.5LRSN                1
 GAP=137        0.87       4.1     5.0  7.2  0.1246E+01  0.9126E+01 -0.5422E+01E
 Epicentro: LOS SANTOS - SANTANDER                                             3
 ACTION:UPD 13-05-22 14:35 OP:EP   STATUS:               ID:20130403064501 L   I
 2013-04-03-0640-00M.COL___245                                                 6
 STAT SP IPHASW D HRMM SECON CODA AMPLIT PERI AZIMU VELO AIN AR TRES W  DIS CAZ7
 BAR2 SZ EP   1    645 21.02                             171   -0.09 7 21.0 190 
 BAR2 SZ ES   1    645 35.53                             171   -0.78 7 21.0 190 
 BAR2 SZ I         645 37.08        11.3 0.26            173           21.0 190 
 BRR  HZ EP   1    645 23.03                             152    0.31 7 71.8 300 
 BRR  HN ES   1    645 39.60                             152    0.42 7 71.8 300 
 BRR  HZ I         645 44.37         5.0 0.12            149           71.8 300 
 PAM  SZ EP   1    645 24.16                             150    0.28 7 79.5  39 
 PAM  SN ES   1    645 41.14                             150   -0.10 7 79.5  39 
 PAM  SZ I         645 43.23         4.7 0.62            151           79.5  39 
 RUS  HZ EP   1    645 25.13                             144    0.00 7 98.3 176 
 RUS  HN ES   1    645 43.79                             144    0.32 7 98.3 176 
 RUS  HZ I         645 44.53         2.3 0.22            150           98.3 176 
 PTB  HZ EP   1    645 28.71                             132    0.28 7  147 260 
 PTB  HN ES   1    645 48.85                             132   -0.49 7  147 260 
 PTB  HZ I         645 51.78         2.7 0.18            132            147 260 
 OCA  HN ES   1    645 52.77                             129    0.50 7  162 353 
 ZAR  HZ EP   1    645 34.28                             122    0.24 6  204 293 
 ZAR  HN ES   1    645 59.65                             122    0.31 6  204 293 
 ZAR  HZ I         646  5.87         2.9 0.24            123            204 293 
 SML  HZ EP   1    645 37.23                             117   -1.17 6  246 336 
 SML  HN ES   1    646  6.67                             117   -0.42 6  246 336 
 SML  HZ I         646 15.13         4.3 0.22            118            246 336 
                                                                                
