 2015  6 3 0805 15.6 L   6.797 -73.096144.4  RSN  8 0.6 1.6LRSN                1
 GAP=188        1.33       4.1     7.6  8.2 -0.4678E+00  0.1481E+02 -0.5524E+01E
 Epicentro: LOS SANTOS - SANTANDER                                             3
 ACTION:UPD 15-09-10 22:09 OP:cam  STATUS:               ID:20150603080515 L   I
 OLDACT:REG 15-06-03 13:16 OP:ak   STATUS:               ID:20150603075747     3
 2015-06-03-0757-47M.COL___288                                                 6
 STAT SP IPHASW D HRMM SECON CODA AMPLIT PERI AZIMU VELO AIN AR TRES W  DIS CAZ7
 BAR2 EZ IP     C  8 5 35.57                             170    0.4910 24.6 203 
 BAR2 EZ ES        8 5 50.06                             170   -0.2210 24.6 203 
 BAR2 EZ I         8 5 52.11         8.1 0.18            170           24.6 203 
 BRR  HZ EP        8 5 37.38                             151    0.5010 76.2 297 
 BRR  HN ES        8 5 54.45                             151    0.9610 76.2 297 
 BRR  HZ I         8 5 55.30         4.1 0.14            149           76.2 297 
 RUS  HZ EP   1    8 5 39.67                             144    0.50 7  100 179 
 RUS  HN ES        8 5 56.98                             144   -0.5710  100 179 
 RUS  HZ I         8 5 59.36         2.1 0.36            147            100 179 
 OCA  HZ EP        8 5 43.49                             129   -0.41 9  161 351 
 OCA  HN ES        8 6  5.22                             129   -0.75 9  161 351 
 OCA  HZ I         8 6 11.77         7.0 0.28            130            161 351 
 SPBC HZ EP        8 5 44.44                             128    0.14 9  166 221 
 SPBC HN ES        8 6  6.42                             128   -0.26 9  166 221 
 SPBC HZ I         8 6  9.29         7.8 0.30            130            166 221 
 ZAR  HZ EP   1    8 5 49.42                             121    0.93 6  209 292 
 ZAR  HN ES        8 6 13.36                             121   -0.79 8  209 292 
 ZAR  HZ I         8 6 20.35         2.9 0.30            122            209 292 
 SML  HZ EP        8 5 51.85                             117   -0.58 8  246 334 
 SML  HN ES        8 6 21.71                             117    0.55 8  246 334 
 SML  HZ I         8 6 23.53         3.7 0.10            118            246 334 
 GUY2CHZ EP        8 5 59.62                             112   -0.01 7  306 235 
 GUY2CHN ES        8 6 33.65                             112   -0.32 7  306 235 
 GUY2CHZ I         8 6 43.30         1.6 0.50                           306 235 
 MON  HZ EP   4    8 5 56.93                             108   -8.14 0  358 308 
 MON  HN ES   4    8 6 40.93                             108   -2.72 0  358 308 
                                                                                
