 2016 11 3 0408 22.1 L   6.797 -73.085143.1  RSN  4 0.3 0.9LRSN                1
 GAP=145        0.85       4.6     4.5  7.6 -0.2302E+01  0.3978E+01  0.5187E+01E
 Epicentro: LOS SANTOS - SANTANDER                                             3
 ACTION:UPD 17-10-26 21:04 OP:lp   STATUS:               ID:20161103040822 L   I
 OLDACT:REG 16-11-03 12:23 OP:dani STATUS:               ID:20161103040743     3
 2016-11-03-0408-00M.COL___337                                                 6
 STAT SP IPHASW D HRMM SECON CODA AMPLIT PERI AZIMU VELO AIN AR TRES W  DIS CAZ7
 PAM  EZ EP        4 8 44.10                             152    0.3010 73.6  35 
 PAM  EE ES        4 9  0.25                             152   -0.4810 73.6  35 
 PAM  EZ I         4 9  3.19         2.9 0.45            155           73.6  35 
 BRR  HZ EP        4 8 43.35                             150    0.0310 77.3 296 
 BRR  HN ES        4 9  0.39                             150    0.5210 77.3 296 
 BRR  HZ I         4 9  1.85         3.3 0.57            151           77.3 296 
 RUS  HZ EP        4 8 45.49                             143   -0.0510100.0 180 
 RUS  HN ES        4 9  3.96                             143    0.1310100.0 180 
 RUS  HZ I         4 9  5.56         0.4 0.18            146          100.0 180 
 PTB  HZ EP        4 8 49.39                             130   -0.06 9  154 259 
 PTB  HE ES        4 9 10.32                             130   -0.47 9  154 259 
 PTB  HZ I         4 9 14.83         0.9 0.35            132            154 259 
                                                                                
