 2017  5 3 0656 21.3 L   6.764 -73.109139.0  RSN  4 0.3 0.9LRSN                1
 GAP=143        0.72       4.0     4.1  8.1 -0.4529E+00 -0.5201E+01  0.2547E+01E
 Epicentro: LOS SANTOS - SANTANDER                                             3
 ACTION:UPD 17-06-16 13:32 OP:jn   STATUS:               ID:20170503065621 L   I
 OLDACT:UP  17-05-04 19:08 OP:nlst STATUS:               ID:20170503065621 L   3
 OLDACT:DUP 17-05-03 18:21 OP:edw  STATUS:               ID:20170503064739d    3
 OLDACT:UP  17-05-03 18:20 OP:edw  STATUS:               ID:20170503064738     3
 OLDACT:REG 17-05-03 12:00 OP:edw  STATUS:               ID:20170503064738     3
 2017-05-03-0648-00M.COL___365                                                 6
 STAT SP IPHASW D HRMM SECON CODA AMPLIT PERI AZIMU VELO AIN AR TRES W  DIS CAZ7
 BRR  HZ EP   1    656 42.06                             150   -0.01 7 76.6 300 
 BRR  HN ES        656 58.67                             150    0.4210 76.6 300 
 BRR  HZ I         657  3.20         1.9 0.14            154           76.6 300 
 PAM  EZ IP     D  656 42.95                             149    0.0910 78.0  35 
 PAM  EN ES   1    656 59.17                             149   -0.49 7 78.0  35 
 PAM  EZ I         657  5.57         1.5 0.42            150           78.0  35 
 RUS  HZ EP        656 44.22                             144    0.1110 96.5 178 
 RUS  HN ES        657  1.92                             144    0.0410 96.5 178 
 RUS  HZ I         657  3.15         1.4 0.26            152           96.5 178 
 PTB  HN ES        657  8.47                             130   -0.43 9  151 261 
                                                                                
