 2010 12 3 0338 24.9 L   6.743 -73.119136.0  RSN  4 0.1 1.7LRSN                1
 GAP=209        0.32       2.6     8.5  6.5 -0.4694E+01  0.2386E+02  0.2860E-01E
 Epicentro: JORDAN - SANTANDER                                                 3
 ACTION:UP  11-01-14 15:22 OP:pat  STATUS:               ID:20101203033824 L   I
 2010-12-03-0336-57S.COL___132                                                 6
 STAT SP IPHASW D HRMM SECON CODA AMPLIT PERI AZIMU VELO SNR AR TRES W  DIS CAZ7
 BAR2 SZ EP        338 43.31                             172     0.110   18 203 
 BAR2 SZ ES   2    338 57.50                             172    -0.1 5   18 203 
 GIR2 SZ EP        338 43.54                             163    -0.110   38 347 
 BRR  HZ EP        338 45.35                             149     0.010   77 302 
 BRR  HZ I         339  6.40        12.7 0.11                            77 302 
 CHI  HZ EP   3    339  1.30                             115    -0.2 2  243 196 
 CHI  HE ES   1    339 29.98                             115     0.0 6  243 196 
 CHI  HZ I         339 34.10         2.8 0.20                           243 196 
                                                                                
