 2017  2 3 0541 34.3 L   6.773 -73.162144.7  RSN  7 0.4 1.6LRSN                1
 GAP=136        1.02       4.2     4.6  7.5  0.8296E+00  0.7399E+01  0.2980E+01E
 Epicentro: LOS SANTOS - SANTANDER                                             3
 ACTION:UPD 17-05-24 15:32 OP:jn   STATUS:               ID:20170203054134 L   I
 OLDACT:REG 17-02-03 12:40 OP:dnl  STATUS:               ID:20170203053743     3
 2017-02-03-0538-00M.COL___325                                                 6
 STAT SP IPHASW D HRMM SECON CODA AMPLIT PERI AZIMU VELO AIN AR TRES W  DIS CAZ7
 BAR2 EZ EP        541 53.66                             172   -0.0810 20.1 186 
 BAR2 EZ ES        542  8.45                             172   -0.4610 20.1 186 
 BAR2 EZ I         542 10.45         8.7 0.56            169           20.1 186 
 BRR  HZ EP        541 55.64                             152    0.3110 71.1 301 
 BRR  HN ES        542 12.79                             152    1.0510 71.1 301 
 BRR  HZ I         542 14.21         7.4 0.32            150           71.1 301 
 PAM  EZ EP        541 56.66                             149    0.0410 80.9  39 
 PAM  EE ES        542 13.78                             149   -0.2410 80.9  39 
 PAM  EZ I         542 15.79        10.1 0.50            153           80.9  39 
 RUS  HZ EP   2    541 57.91                             144    0.17 5 97.7 175 
 RUS  HN ES        542 16.00                             144   -0.0310 97.7 175 
 RUS  HZ I         542 17.48         4.8 0.32            144           97.7 175 
 PTB  HZ EP   2    542  0.58                             132   -0.39 5  145 260 
 PTB  HN ES        542 21.31                             132   -0.46 9  145 260 
 PTB  HZ I         542 28.29         3.3 0.34            131            145 260 
 ZAR  HZ EP   2    542  6.21                             122   -0.41 4  204 293 
 ZAR  HN ES        542 31.40                             122   -0.44 9  204 293 
 ZAR  HZ I         542 37.68         3.9 0.30            122            204 293 
 CHI  HZ EP   2    542 11.79                             117    0.22 4  245 195 
 CHI  HN ES        542 40.97                             117    0.33 8  245 195 
 CHI  HZ I         542 46.70         2.0 0.30            117            245 195 
                                                                                
