 2011  2 3 0600 32.9 L   6.858 -73.310142.0  RSN  4 0.3 1.3LRSN                1
 GAP=195        0.45       6.5    25.8  9.0 -0.1416E+03  0.1433E+03 -0.2793E+02E
 Epicentro: ZAPATOCA - SANTANDER                                               3
 ACTION:UP  11-03-28 15:05 OP:jfem STATUS:               ID:20110203060032 L   I
 2011-02-03-0558-45S.COL___135                                                 6
 STAT SP IPHASW D HRMM SECON CODA AMPLIT PERI AZIMU VELO SNR AR TRES W  DIS CAZ7
 BAR2 SZ EP   2    6 0 52.06                             167    -0.3 5   33 155 
 BAR2 SZ ES   2    6 1  7.64                             167     0.2 5   33 155 
 BAR2 SZ I         6 1  9.13         4.1 0.22                            33 155 
 RUS  HZ EP   2    6 0 56.76                             141    -0.2 5  110 167 
 RUS  HE ES   2    6 1 15.84                             141     0.1 5  110 167 
 RUS  HZ I         6 1 17.64         2.1 0.96                           110 167 
 GRA  SZ EP   2    6 0 57.92                             136     0.0 5  127  26 
 GRA  SZ ES   2    6 1 17.36                             136     0.0 5  127  26 
 GRA  SZ I         6 1 19.11         3.2 0.54                           127  26 
 CHI  HZ EP   2    6 1 11.23                             116     0.6 4  251 191 
 CHI  HN ES   2    6 1 39.74                             116    -0.3 4  251 191 
 CHI  HZ I         6 1 44.19         1.3 0.26                           251 191 
                                                                                
