 2015  4 3 0208 12.8 L   6.815 -73.134139.7  RSN  5 0.5 1.4LRSN                1
 GAP=153        1.35       9.5     8.2 11.5 -0.4347E+02  0.1207E+02  0.4564E+01E
 Epicentro: LOS SANTOS - SANTANDER                                             3
 ACTION:UPD 15-06-03 16:52 OP:cam  STATUS:               ID:20150403020812 L   I
 OLDACT:UP  15-04-03 15:48 OP:mh   STATUS:               ID:20150403015746d    3
 OLDACT:UP  15-04-03 14:25 OP:mh   STATUS:               ID:20150403015746d    3
 OLDACT:UP  15-04-03 14:25 OP:mh   STATUS:               ID:20150403015746d    3
 OLDACT:DUP 15-04-03 14:18 OP:mh   STATUS:               ID:20150403015746d    3
 2015-04-03-0157-45M.COL___283                                                 6
 STAT SP IPHASW D HRMM SECON CODA AMPLIT PERI AZIMU VELO AIN AR TRES W  DIS CAZ7
 BAR2 EZ EP   1    2 8 31.40                             169   -0.31 7 25.2 192 
 BAR2 EZ ES        2 8 45.90                             169   -0.5910 25.2 192 
 BAR2 EZ I         2 8 47.42         6.0 0.22            173           25.2 192 
 BRR  HZ EP        2 8 33.34                             151    0.0510 71.6 297 
 BRR  HN ES        2 8 50.03                             151    0.7410 71.6 297 
 BRR  HZ I         2 8 53.80         5.8 0.42            150           71.6 297 
 PAM  SZ EP        2 8 34.30                             150    0.0910 75.3  40 
 PAM  SN ES        2 8 51.01                             150    0.0710 75.3  40 
 PAM  SZ I         2 8 53.68         3.2 0.22            151           75.3  40 
 PTB  HZ EP   1    2 8 39.15                             130   -0.25 7  149 258 
 PTB  HN ES        2 8 59.26                             130   -0.91 9  149 258 
 PTB  HZ I         2 9  1.51         3.6 0.14            132            149 258 
 SPBC HN ES        2 9  3.93                             127    0.88 9  165 219 
                                                                                
