 2011 11 3 0024 52.5 L   6.777 -73.067141.2  RSN  5 0.4 1.7LRSN                1
 GAP=148        0.79       4.7     8.4  7.8 -0.2242E+01  0.6333E+01 -0.4902E+01E
 Epicentro: LOS SANTOS - SANTANDER                                             3
 ACTION:UPD 12-07-13 16:07 OP:ep   STATUS:               ID:20111103002452 L   I
 2011-11-03-0022-24S.COL___175                                                 6
 STAT SP IPHASW D HRMM SECON CODA AMPLIT PERI AZIMU VELO AIN AR TRES W  DIS CAZ7
 BAR2 SZ EP   1    025 11.45                             170   -0.19 7 24.1 212 
 BAR2 SZ ES   1    025 26.24                             170   -0.30 7 24.1 212 
 BAR2 SZ I         025 28.16        10.7 0.25                          24.1 212 
 PAM  SZ EP        025 14.59                             151    0.5010 74.3  33 
 PAM  SN ES   1    025 30.70                             151   -0.19 7 74.3  33 
 BRR  HZ EP        025 13.45                             149   -0.2910 80.1 297 
 BRR  HZ I         025 13.72        15.2 0.17                          80.1 297 
 BRR  HN ES   2    025 31.10                             149    0.83 5 80.1 297 
 RUS  HZ EP   1    025 16.02                             143    0.38 7 97.8 181 
 RUS  HE ES   2    025 33.64                             143   -0.03 5 97.8 181 
 OCA  SZ EP   1    025 20.30                             128   -0.56 7  164 350 
 OCA  SZ ES   1    025 43.00                             128    0.04 7  164 350 
 OCA  SZ I         025 49.42         5.3 0.22                           164 350 
                                                                                
