 2014  3 3 0248 50.8 L   6.849 -73.151141.0  RSN  7 0.5 1.5LRSN                1
 GAP=133        1.26       4.7     5.6  9.3 -0.2704E+01  0.1997E+02 -0.1389E+02E
 Epicentro: LOS SANTOS - SANTANDER                                             3
 ACTION:UPD 14-04-09 23:14 OP:nd   STATUS:               ID:20140303024850 L   I
 OLDACT:REG 14-03-03 08:58 OP:stll STATUS:               ID:20140303024819     3
 2014-03-03-0248-19M.COL___232                                                 6
 STAT SP IPHASW D HRMM SECON CODA AMPLIT PERI AZIMU VELO AIN AR TRES W  DIS CAZ7
 BAR2 SZ EP        249 10.03                             168    0.0610 28.6 187 
 BAR2 SZ I         249 10.43        10.9 0.38            169           28.6 187 
 BAR2 SZ ES        249 25.24                             168    0.3210 28.6 187 
 PAM  SZ EP        249 12.57                             151    0.2910 73.7  43 
 PAM  SZ I         249 12.85         8.9 0.44            154           73.7  43 
 PAM  SN ES        249 29.10                             151    0.0710 73.7  43 
 RUS  HZ EP        249 14.68                             141    0.2010  106 176 
 RUS  HN ES        249 32.47                             141   -0.4910  106 176 
 RUS  HZ I         249 34.08         2.4 0.26            144            106 176 
 PTB  HZ EP        249 16.71                             131   -0.71 9  148 257 
 PTB  HN ES        249 37.89                             131   -0.31 9  148 257 
 PTB  HZ I         249 44.09         2.2 0.16            131            148 257 
 SPBC HN ES        249 41.52                             127   -0.02 9  167 218 
 ZAR  HZ EP        249 23.84                             122    1.18 9  202 291 
 ZAR  HN ES        249 48.11                             122    0.59 9  202 291 
 ZAR  HZ I         249 53.76         5.4 0.26            122            202 291 
 SML  HZ EP        249 26.14                             117   -0.45 8  239 335 
 SML  HE ES        249 53.66                             117   -0.85 8  239 335 
 SML  HZ I         249 58.26         4.2 0.28            118            239 335 
                                                                                
