 2015  5 3 0654 43.0 L   6.828 -73.191139.3  RSN 12 0.5 1.8LRSN                1
 GAP= 68        1.11       3.1     3.9  6.0  0.7231E+00  0.6291E+01  0.2095E+01E
 Epicentro: ZAPATOCA - SANTANDER                                               3
 ACTION:UPD 15-09-10 22:01 OP:cam  STATUS:               ID:20150503065443 L   I
 OLDACT:UP  15-05-07 06:55 OP:AK   STATUS:               ID:20150503065443 L   3
 OLDACT:REG 15-05-03 13:55 OP:stll STATUS:               ID:20150503064736     3
 2015-05-03-0647-36M.COL___273                                                 6
 STAT SP IPHASW D HRMM SECON CODA AMPLIT PERI AZIMU VELO AIN AR TRES W  DIS CAZ7
 BAR2 EZ EP        655  2.22                             169    0.2710 26.1 178 
 BAR2 EZ ES        655 16.32                             169   -0.3910 26.1 178 
 BAR2 EZ I         655 19.82        11.5 0.28            170           26.1 178 
 BRR  HZ EP        655  3.99                             153    0.8310 65.3 298 
 BRR  HN ES        655 18.95                             153    0.1010 65.3 298 
 PAM  SZ EP        655  5.10                             149    0.4710 78.4  44 
 PAM  SZ I         655  5.12        14.5 0.20            151           78.4  44 
 PAM  SN ES        655 21.90                             149    0.4310 78.4  44 
 RUS  HZ EP        655  6.21                             141   -0.2110  104 173 
 RUS  HN ES        655 24.70                             141    0.0310  104 173 
 RUS  HZ I         655 25.84         7.2 0.34            144            104 173 
 OCA  HN ES        655 31.15                             129   -0.78 9  157 355 
 OCA  HZ I         655 36.46        12.1 0.38            128            157 355 
 TAM  HZ EP        655 10.51                             128   -0.23 9  161 106 
 TAM  HZ I         655 10.74        16.0 0.38            131            161 106 
 ZAR  HZ EP        655 14.81                             122    0.35 9  198 292 
 ZAR  HN ES        655 39.33                             122    0.35 9  198 292 
 ZAR  HZ I         655 45.47         4.5 0.40            120            198 292 
 SML  HZ EP        655 18.48                             117   -0.29 8  239 336 
 SML  HE ES        655 45.69                             117   -0.96 8  239 336 
 SML  HZ I         655 51.50         9.7 0.10            116            239 336 
 CHI  HZ EP        655 20.49                             116   -0.08 8  250 194 
 CHI  HZ I         655 21.13         3.1 0.22            116            250 194 
 CHI  HN ES        655 49.27                             116   -0.59 8  250 194 
 HEL  HZ EP        655 22.66                             114    0.19 8  268 255 
 HEL  HN ES        655 53.48                             114    0.24 8  268 255 
 HEL  HZ I         656  1.54         2.6 0.46            113            268 255 
 GUY2CHZ EP   2    655 27.16                             111    1.07 4  299 234 
 GUY2CHN ES        655 58.98                             111   -0.70 7  299 234 
 GUY2CHZ I         656 12.29         3.1 0.46                           299 234 
 MON  HZ EP   9    655 28.73                             108   -2.38 0  348 308 
 MON  HE ES        656  6.47                                    0.24 6  348 308 
 MON  HZ I         656 23.97         1.2 0.32            107            348 308 
                                                                                
