 2010  8 3 0006  1.8 L   6.770 -73.085145.4  RSN  6 0.3 1.8LRSN                1
 GAP=242        0.39       4.4     7.7  5.3  0.1815E+02 -0.5486E+00  0.2554E+01E
 Epicentro: LOS SANTOS - SANTANDER                                             3
 ACTION:UP  10-09-07 10:51 OP:vdl  STATUS:               ID:20100803000601 L   I
 2010-08-03-0000-00S.COL___119                                                 6
 STAT SP IPHASW D HRMM SECON CODA AMPLIT PERI AZIMU VELO SNR AR TRES W  DIS CAZ7
 BAR2 SZ EP        0 6 21.33                             170    -0.110   23 209 
 BAR2 SZ ES   2    0 6 36.45                             170    -0.2 5   23 209 
 BAR2 SZ I         0 6 39.29        10.8 0.33                            23 209 
 BRR  HZ EP        0 6 23.38                             150     0.010   79 298 
 BRR  HE ES   2    0 6 40.29                             150     0.1 5   79 298 
 BRR  HZ I         0 6 44.05        14.1 0.18                            79 298 
 RUS  HZ EP        0 6 25.29                             145     0.010   97 180 
 RUS  HE ES   2    0 6 43.92                             145     0.3 5   97 180 
 RUS  HZ I         0 6 45.47         7.3 0.28                            97 180 
 CHI  HZ EP   2    0 6 39.47                             117     0.1 4  247 197 
 CHI  HE ES   3    0 7  7.49                             117    -1.1 2  247 197 
 CHI  HZ I         0 7 14.54         5.2 0.33                           247 197 
 RREF HN ES   3    0 7 24.88                             110     0.3 2  325 231 
 PRA  HN ES   3    0 7 37.39                             106     0.2 1  392 211 
                                                                                
