 2016  9 3 0427 19.7 L   6.753 -73.159145.9  RSN  5 0.5 1.0LRSN                1
 GAP=232        1.37       8.2     9.3 10.3  0.2192E+02  0.1881E+02  0.1154E+02E
 Epicentro: LOS SANTOS - SANTANDER                                             3
 ACTION:UPD 17-08-17 21:06 OP:lp   STATUS:               ID:20160903042719 L   I
 OLDACT:UP  16-09-03 14:40 OP:drio STATUS:               ID:20160903041738     3
 OLDACT:REG 16-09-03 12:45 OP:drio STATUS:               ID:20160903041738     3
 2016-09-03-0418-00M.COL___349                                                 6
 STAT SP IPHASW D HRMM SECON CODA AMPLIT PERI AZIMU VELO AIN AR TRES W  DIS CAZ7
 BAR2 EZ ES        427 53.65                             173   -0.8310 18.0 188 
 BAR2 EZ I         427 55.81         3.1 0.26            171           18.0 188 
 BRR  HZ EP        427 41.01                             152    0.0910 72.6 303 
 BRR  HN ES        427 58.39                             152    0.9010 72.6 303 
 RUS  HZ EP        427 43.23                             145    0.1510 95.5 175 
 RUS  HE ES        428  1.50                             145    0.1610 95.5 175 
 RUS  HZ I         428  2.37         1.0 0.52            145           95.5 175 
 PTB  HZ EP        427 45.94                             132   -0.50 9  145 261 
 PTB  HE ES        428  6.66                             132   -0.66 9  145 261 
 PTB  HZ I         428  8.06         1.2 0.30            133            145 261 
 SPBC HZ EP        427 47.80                             130    0.08 9  158 220 
 SPBC HE ES        428 10.14                             130    0.55 9  158 220 
 SPBC HZ I         428 12.02         1.7 0.26            130            158 220 
                                                                                
