 2017  2 3 0231 50.1 L   6.718 -73.122149.5  RSN  6 0.3 1.4LRSN                1
 GAP=143        0.73       4.2     3.9  6.8 -0.1871E+01  0.3069E+01 -0.3271E+01E
 Epicentro: JORDAN - SANTANDER                                                 3
 ACTION:UPD 17-05-24 15:32 OP:jn   STATUS:               ID:20170203023150 L   I
 OLDACT:REG 17-02-03 12:34 OP:dnl  STATUS:               ID:20170203022743     3
 2017-02-03-0228-00M.COL___328                                                 6
 STAT SP IPHASW D HRMM SECON CODA AMPLIT PERI AZIMU VELO AIN AR TRES W  DIS CAZ7
 BAR2 EZ EP   2    232 10.05                             174   -0.02 5 15.4 206 
 BAR2 EZ ES        232 25.68                             174    0.0510 15.4 206 
 BAR2 EZ I         232 27.99         7.1 0.40            170           15.4 206 
 BRR  HZ EP   2    232 12.26                             151    0.19 5 78.1 303 
 BRR  HN ES        232 29.77                             151    0.5810 78.1 303 
 BRR  HZ I         232 33.98         4.3 0.58            147           78.1 303 
 PAM  EZ IP     C  232 13.00                             150   -0.0710 83.0  34 
 PAM  EN ES        232 30.68                             150   -0.2910 83.0  34 
 PAM  EZ I         232 32.44         3.6 0.42            153           83.0  34 
 RUS  HZ EP   2    232 14.20                             147    0.59 5 91.4 177 
 RUS  HN ES        232 31.94                             147    0.0110 91.4 177 
 RUS  HZ I         232 33.76         2.0 0.64            150           91.4 177 
 PTB  HZ EP   2    232 17.32                             133   -0.18 5  149 262 
 PTB  HN ES        232 38.33                             133   -0.52 9  149 262 
 PTB  HZ I         232 45.66         4.1 0.42            131            149 262 
 ZAR  HE ES   2    232 49.52                             123    0.11 4  210 294 
 ZAR  HZ I         232 55.66         3.5 0.30            122            210 294 
                                                                                
