 2017  8 3 0254 59.2 L   6.809 -73.127149.9  RSN 20 0.6 2.2LRSN                1
 GAP= 67        1.25       3.5     3.3  5.6  0.1251E+01  0.2116E+01  0.3014E+01E
 Epicentro: LOS SANTOS - SANTANDER                                             3
 ACTION:UPD 17-09-04 20:15 OP:rebc STATUS:               ID:20170803025459 L   I
 OLDACT:UP  17-08-03 17:41 OP:osc  STATUS:               ID:20170803024739     3
 OLDACT:REG 17-08-03 14:39 OP:osc  STATUS:               ID:20170803024739     3
 2017-08-03-0248-00M.COL___398                                                 6
 STAT SP IPHASW D HRMM SECON CODA AMPLIT PERI AZIMU VELO AIN AR TRES W  DIS CAZ7
 BAR2 EZ IP     C  255 19.23                             170   -0.0910 24.7 194 
 BAR2 EZ ES        255 34.71                             170   -0.3310 24.7 194 
 BAR2 EZ I         255 38.61        16.0 0.10            169           24.7 194 
 BRR  HZ IP     C  255 20.99                             153    0.1610 72.5 297 
 BRR  HE ES        255 38.34                             153    0.6010 72.5 297 
 BRR  HZ I         255 42.28        27.8 0.22            152           72.5 297 
 PAM  EZ EP        255 22.12                             152    0.4210 75.4  39 
 PAM  EN ES        255 39.17                             152   -0.1210 75.4  39 
 PAM  EZ I         255 41.43        38.1 0.50            156           75.4  39 
 RUS  HZ EP        255 23.22                             144   -0.1610  101 177 
 RUS  HN ES        255 42.07                             144   -0.2010  101 177 
 RUS  HZ I         255 43.13        17.8 0.34            146            101 177 
 PTB  HZ EP        255 26.09                             132   -0.57 9  150 259 
 PTB  HE ES        255 47.82                             132   -0.30 9  150 259 
 PTB  HZ I         255 54.24         9.9 0.26            133            150 259 
 TAM  HZ IP     C  255 27.61                             132    0.59 9  153 106 
 TAM  HE ES        255 48.80                             132    0.06 9  153 106 
 SPBC HZ EP        255 28.20                             130    0.03 9  165 219 
 SPBC HN ES        255 50.26                             130   -0.53 9  165 219 
 SPBC HZ I         255 52.79        22.4 0.08            130            165 219 
 YPLC HZ EP        255 29.69                             128    0.44 9  177 152 
 YPLC HE ES        255 53.10                             128    0.39 9  177 152 
 YPLC HZ I         255 56.43        22.4 0.30            130            177 152 
 ZAR  HZ EP        255 32.97                             123    0.94 8  206 292 
 ZAR  HE ES        255 57.57                             123   -0.10 8  206 292 
 ZAR  HZ I         256  3.47        15.0 0.27            124            206 292 
 NOR  HZ EP        255 35.84                             119    0.47 8  237 235 
 NOR  HE ES        256  3.86                             119    0.25 8  237 235 
 NOR  HZ I         256 10.77         8.1 0.20            120            237 235 
 CHI  HZ EP        255 37.50                             118    0.25 8  250 196 
 CHI  HE ES        256  7.69                             118    0.73 8  250 196 
 CHI  HZ I         256  9.27         7.8 0.28            119            250 196 
 ROSC BZ EP   4    255 40.24                             117    2.53 0  255 211 
 ROSC BN ES   4    256 10.29                             117    2.51 0  255 211 
 ROSC BZ I         256 11.45        14.7 0.35            118            255 211 
 HEL  HZ EP   9    255 42.66                             115    2.83 0  274 256 
 HEL  HN ES        256 14.80                             114    0.42 8  274 256 
 URE  HZ EP        255 39.80                             114   -0.80 7  285 292 
 URE  HN ES   2    256 10.63                             114   -2.30 4  285 292 
 URE  HZ I         256 20.59        14.2 0.30            115            285 292 
 GUY2CHZ EP   4    255 45.26                             113    2.05 0  303 235 
 GUY2CHN ES   4    256 21.35                             113    3.78 0  303 235 
 GUY2CHZ I         256 24.35         2.9 0.30                           303 235 
 PTGC HZ EP        255 42.48                             112   -0.74 7  309 159 
 PTGC HE ES        256 15.78                             112   -1.81 7  309 159 
 PTGC HZ I         256 22.13         9.4 0.24            114            309 159 
 LL6C HZ EP        255 44.59                             111   -0.35 7  324 357 
 LL6C HN ES   4    256 18.67                             111   -1.98 0  324 357 
 CBOC HN ES   2    256 22.83                             110   -0.60 3  336 252 
 PRA  HZ EP        255 53.09                             107    0.05 6  394 210 
 PRA  HN ES        256 35.25                             107    0.19 6  394 210 
 PRA  HZ I         256 38.33         4.3 0.22            108            394 210 
 ORTC HN ES   2    256 37.57                             107    1.77 3  397 216 
                                                                                
