 2012  2 3 0607 46.7 L   7.178 -73.809 88.8  RSN  5 0.3 1.1LRSN                1
 GAP=172        0.53       4.8     3.1  6.2 -0.1532E+00  0.3594E+01  0.1129E+01E
 ACTION:UP  12-03-07 16:27 OP:epov STATUS:               ID:20120203060746 L   I
 2012-02-03-0600-00M.COL___188                                                 6
 STAT SP IPHASW D HRMM SECON CODA AMPLIT PERI AZIMU VELO SNR AR TRES W  DIS CAZ7
 BRR  HZ EP   1    6 7 58.82                             171   -0.06 7 13.3 126 
 BRR  HZ I         6 7 58.94         6.7 0.11                          13.3 126 
 BRR  HE ES   1    6 8  8.81                             171    0.42 7 13.3 126 
 GIR2 SZ EP   1    6 8  2.10                             140    0.03 7 68.9  99 
 GIR2 SZ ES   2    6 8 13.48                             140   -0.60 5 68.9  99 
 PTB  HZ EP   2    6 8  5.12                             128    0.37 5  101 225 
 PTB  HN ES   1    6 8 18.58                             128   -0.27 7  101 225 
 ZAR  HZ EP   2    6 8  7.00                             122    0.18 5  121 287 
 ZAR  HN ES   2    6 8 22.25                             122   -0.27 5  121 287 
 ZAR  HZ I         6 8 23.21         2.5 0.23                           121 287 
 RUS  HN ES   2    6 8 31.91                             114    0.05 5  163 150 
                                                                                
