 2014  2 3 0111 36.2 L   6.825 -73.173149.4  RSN  5 0.4 1.5LRSN                1
 GAP=132        1.13       4.8     5.8  8.6  0.2613E+00  0.7103E+01 -0.5976E+01E
 Epicentro: LOS SANTOS - SANTANDER                                             3
 ACTION:UPD 14-03-10 08:07 OP:ep   STATUS:               ID:20140203011136 L   I
 OLDACT:REG 14-02-03 07:35 OP:nd   STATUS:               ID:20140203011000     3
 2014-02-03-0110-00M.COL___288                                                 6
 STAT SP IPHASW D HRMM SECON CODA AMPLIT PERI AZIMU VELO AIN AR TRES W  DIS CAZ7
 BRR  HZ EP        111 58.03                             154    0.5310 67.2 298 
 BRR  HN ES        112 14.87                             154    0.7310 67.2 298 
 BRR  HZ I         112 39.76         6.8 0.44            152           67.2 298 
 PAM  SZ EP        111 59.14                             151    0.3710 77.2  43 
 PAM  SN ES        112 15.89                             151   -0.5010 77.2  43 
 PAM  SZ I         112 18.39         6.6 0.42            159           77.2  43 
 RUS  HZ EP        112  0.52                             144    0.0210  104 174 
 RUS  HN ES        112 19.24                             144   -0.2410  104 174 
 RUS  HZ I         112 20.11         4.3 0.30            155            104 174 
 PTB  HZ EP        112  3.33                             133    0.11 9  145 258 
 PTB  HN ES        112 23.72                             133   -0.61 9  145 258 
 PTB  HZ I         112 27.23         2.6 0.10            138            145 258 
 SML  HZ EP        112 12.20                             119   -0.39 8  240 336 
 SML  HN ES        112 40.65                             119   -0.36 8  240 336 
 SML  HZ I         112 44.42         4.4 0.30            125            240 336 
                                                                                
