 2015  5 3 0719 38.4 L   6.807 -73.103143.1  RSN  5 0.5 1.2LRSN                1
 GAP=142        1.29       7.1    14.7 14.7  0.4330E+02 -0.9468E+02 -0.4885E+02E
 Epicentro: LOS SANTOS - SANTANDER                                             3
 ACTION:UPD 15-09-10 22:01 OP:cam  STATUS:               ID:20150503071938 L   I
 OLDACT:REG 15-05-03 13:57 OP:stll STATUS:               ID:20150503071740     3
 2015-05-03-0717-40M.COL___273                                                 6
 STAT SP IPHASW D HRMM SECON CODA AMPLIT PERI AZIMU VELO AIN AR TRES W  DIS CAZ7
 BAR2 EZ EP        719 57.68                             170   -0.0410 25.3 200 
 BAR2 EZ ES        720 13.25                             170    0.4410 25.3 200 
 BAR2 EZ I         720 13.68         2.9 0.46            170           25.3 200 
 PAM  SZ EP        720  0.72                             151    0.6310 73.8  37 
 PAM  SZ I         720  0.88         8.0 0.20            151           73.8  37 
 BRR  HZ EP        719 59.58                             151    0.1310 75.0 296 
 BRR  HN ES        720 16.14                             151    0.2410 75.0 296 
 RUS  HE ES        720 19.56                             143   -0.6910  101 179 
 RUS  HZ I         720 20.69         1.4 0.20            144            101 179 
 OCA  HN ES        720 27.53                             129   -0.84 9  160 351 
                                                                                
