 2012 11 3 0428 15.4 L   6.179 -74.053 32.1  RSN  8 0.5 1.9LRSN                1
 GAP= 62        1.14       4.2     3.2 15.8 -0.2835E+01  0.3836E+01 -0.1337E+02E
 Epicentro: CIMITARRA - SANTANDER                                              3
 ACTION:UPD 12-12-05 15:31 OP:}ep  STATUS:               ID:20121103042815 L   I
 2012-11-03-0420-00M.COL___234                                                 6
 STAT SP IPHASW D HRMM SECON CODA AMPLIT PERI AZIMU VELO AIN AR TRES W  DIS CAZ7
 BAR2 SZ EP        428 32.34                              61    0.4010  107  65 
 BAR2 SZ ES   1    428 44.58                              61   -0.24 7  107  65 
 BAR2 SZ I         428 48.61        22.2 0.46                           107  65 
 BRR  HZ EP        428 32.24                              61    0.2410  109  20 
 BRR  HN ES   1    428 45.64                              61    0.72 7  109  20 
 BRR  HN I         428 51.65        12.3 0.14                           109  20 
 RUS  HZ EP        428 32.53                              61   -0.3810  112 106 
 RUS  HN ES   1    428 45.80                              61   -0.74 7  112 106 
 RUS  HN I         428 46.83       125.6 0.34                           112 106 
 GIR2 SZ EP   2    428 36.14                              61    0.44 5  138  44 
 HEL  HZ EP        428 38.68                              61   -0.51 9  163 271 
 HEL  HN ES   1    428 57.29                              61   -0.44 7  163 271 
 HEL  HN I         428 58.30         9.2 0.18                           163 271 
 ZAR  HN ES   1    428 57.65                              61   -0.86 7  170 329 
 CHI  HZ EP   2    428 40.66                              61   -0.03 5  175 168 
 RREF HZ EP        428 45.16                              61    0.90 9  201 225 
 RREF HE ES   1    429  7.11                              61    0.37 6  201 225 
 RREF HZ I         429  9.51         9.1 0.54                           201 225 
                                                                                
