 2011  8 3 0549 26.3 L   6.796 -73.078147.9  RSN 10 0.3 2.2LRSN                1
 GAP=145        0.57       2.9     4.0  4.5 -0.2804E+01  0.4956E+01  0.1016E+01E
 Epicentro: LOS SANTOS - SANTANDER                                             3
 ACTION:UPD 12-07-25 14:05 OP:epov STATUS:               ID:20110803054926 L   I
 2011-08-03-0548-35S.COL___119                                                 6
 STAT SP IPHASW D HRMM SECON CODA AMPLIT PERI AZIMU VELO AIN AR TRES W  DIS CAZ7
 BAR2 SZ IP        549 46.06                             170   -0.1510 25.3 207 
 BAR2 SZ I         549 46.48        27.7 0.35                          25.3 207 
 BAR2 SZ ES   1    550  1.57                             170   -0.18 7 25.3 207 
 PAM  SZ EP   1    549 49.03                             152    0.54 7 73.3  35 
 PAM  SN ES   2    550  6.16                             152    0.35 5 73.3  35 
 BRR  HZ EP   1    549 47.28                             151   -0.78 7 78.0 296 
 BRR  HZ I         549 49.62        37.9 0.15                          78.0 296 
 BRR  HE ES   1    550  5.04                             151    0.00 7 78.0 296 
 RUS  HZ EP   1    549 49.93                             144   -0.26 7 99.9 180 
 RUS  HN ES   1    550  9.00                             144    0.16 7 99.9 180 
 RUS  HZ I         550 12.27         8.1 0.51                          99.9 180 
 OCA  SZ EP   1    549 55.12                             130    0.22 7  162 351 
 OCA  SZ ES   2    550 17.32                             130    0.10 5  162 351 
 OCA  SZ I         550 22.51        17.3 0.39                           162 351 
 NOR  SE ES   2    550 31.67                             118    0.46 4  241 236 
 CHI  HZ EP   1    550  4.12                             117   -0.15 6  250 197 
 CHI  HN ES   2    550 34.32                             117    0.42 4  250 197 
 CHI  HZ I         550 37.62         6.6 0.49                           250 197 
 HEL  HZ EP   1    550  7.35                             114   -0.04 6  279 256 
 HEL  HN ES   2    550 39.79                             114    0.34 4  279 256 
 HEL  HZ I         550 46.69         6.6 0.28                           279 256 
 GUY  SZ EP   1    550 11.11                             112    0.20 5  309 236 
 GUY  SN ES   1    550 45.80                             112    0.07 5  309 236 
 GUY  SZ I         550 53.59        13.0 0.40                           309 236 
 RREF HZ EP   2    550 13.26                             111    0.13 3  327 230 
 RREF HE ES   2    550 49.88                             111    0.21 3  327 230 
 RREF HZ I         550 55.75         9.9 0.27                           327 230 
                                                                                
