 2016 11 3 0528 49.2 L   6.761 -73.157144.7  RSN  7 0.4 1.2LRSN                1
 GAP=137        0.97       4.8     4.7  6.9  0.4516E+01  0.1819E+01 -0.7678E+01E
 Epicentro: LOS SANTOS - SANTANDER                                             3
 ACTION:UPD 17-10-26 21:04 OP:lp   STATUS:               ID:20161103052849 L   I
 OLDACT:UP  16-11-03 15:26 OP:dani STATUS:               ID:20161103052744     3
 OLDACT:UP  16-11-03 15:25 OP:dani STATUS:               ID:20161103052744     3
 OLDACT:REG 16-11-03 12:29 OP:dani STATUS:               ID:20161103052744     3
 2016-11-03-0528-00M.COL___337                                                 6
 STAT SP IPHASW D HRMM SECON CODA AMPLIT PERI AZIMU VELO AIN AR TRES W  DIS CAZ7
 BAR2 EZ EP        529  8.33                             172   -0.2410 18.9 188 
 BAR2 EZ ES        529 23.48                             172   -0.2410 18.9 188 
 BAR2 EZ I         529 23.97         3.8 0.28            171           18.9 188 
 BRR  HZ EP        529 10.37                             152    0.1210 72.3 302 
 BRR  HN ES        529 27.09                             152    0.3910 72.3 302 
 BRR  HZ I         529 31.63         4.9 0.13            150           72.3 302 
 PAM  EZ EP     D  529 11.35                             149   -0.1510 81.5  38 
 RUS  HZ EP        529 13.04                             145    0.5410 96.4 175 
 RUS  HN ES        529 30.67                             145   -0.0410 96.4 175 
 RUS  HZ I         529 32.16         1.1 0.36            147           96.4 175 
 PTB  HZ EP        529 15.49                             132   -0.36 9  146 260 
 PTB  HN ES        529 35.94                             132   -0.73 9  146 260 
 PTB  HZ I         529 38.53         2.2 0.20            132            146 260 
 SPBC HN ES        529 39.42                             130    0.38 9  159 220 
 SPBC HZ I         529 42.98         2.5 0.09            130            159 220 
 ZAR  HZ EP        529 21.41                             122   -0.17 9  205 293 
 ZAR  HN ES        529 47.40                             122    0.53 9  205 293 
 ZAR  HZ I         529 53.05         1.9 0.27            122            205 293 
                                                                                
