 2011  6 3 0234 34.3 L   6.784 -73.074148.5  RSN  4 0.1 1.5LRSN                1
 GAP=147        0.34       2.7     4.2  4.4  0.1871E+01 -0.4116E+01 -0.9143E+00E
 Epicentro: LOS SANTOS - SANTANDER                                             3
 *DBB                                                                          3
 ACTION:UP  11-07-14 19:02 OP:ep   STATUS:               ID:20110603023434 L   I
 2011-06-03-0231-04S.COL___132                                                 6
 STAT SP IPHASW D HRMM SECON CODA AMPLIT PERI AZIMU VELO SNR AR TRES W  DIS CAZ7
 BAR2 SZ ES   2    235  9.98                             170     0.2 5   24 209 
 PAM  SZ EP   1    234 56.71                             152     0.1 7   74  34 
 PAM  SN ES   2    235 13.79                             152    -0.2 5   74  34 
 BRR  HZ EP   1    234 56.04                             150    -0.1 7   79 297 
 BRR  HE ES   1    235 13.24                             150     0.0 7   79 297 
 BRR  HZ I         235 13.78         7.8 0.16                            79 297 
 RUS  HZ EP   1    234 58.14                             145     0.0 7   99 181 
 RUS  HN ES   1    235 16.70                             145    -0.1 7   99 181 
 RUS  HZ I         235 17.93         4.1 0.27                            99 181 
                                                                                
