 2012  4 3 0010 21.5 L   6.796 -73.144140.8  RSN  5 0.3 1.6LRSN                1
 GAP=137        0.78       5.3     5.8  8.5  0.6242E+01  0.6949E+01 -0.1297E+01E
 Epicentro: LOS SANTOS - SANTANDER                                             3
 ACTION:UPD 12-07-05 11:49 OP:tino STATUS:               ID:20120403001021 L   I
 2012-04-03-0010-00M.COL___196                                                 6
 STAT SP IPHASW D HRMM SECON CODA AMPLIT PERI AZIMU VELO AIN AR TRES W  DIS CAZ7
 BAR2 SZ ES   1    010 55.14                             170    -0.3 7   23 191 
 BAR2 SZ I         010 56.51         9.1 0.22                            23 191 
 BRR  HZ EP   1    010 42.28                             151     0.1 7   72 299 
 BRR  HN ES   1    010 58.85                             151     0.6 7   72 299 
 BRR  HZ I         011  3.10        11.5 0.17                            72 299 
 PAM  SZ EP   1    010 43.43                             150     0.2 7   78  39 
 PAM  SN ES   1    010 59.91                             150    -0.3 7   78  39 
 PAM  SZ I         011  2.76         5.3 0.58                            78  39 
 RUS  HZ EP   1    010 44.77                             143     0.0 7  100 176 
 RUS  HN ES   1    011  2.90                             143     0.0 7  100 176 
 RUS  HZ I         011  4.57         3.9 0.46                           100 176 
 ZAR  HN ES   1    011 18.25                             121    -0.5 6  204 292 
 ZAR  HZ I         011 24.61         3.7 0.09                           204 292 
                                                                                
