 2017  5 3 0543 28.2 L   6.807 -73.168149.8  RSN 10 0.3 1.7LRSN                1
 GAP=109        0.82       2.8     3.0  4.9  0.1194E+01  0.2238E+01  0.3163E+01E
 Epicentro: LOS SANTOS - SANTANDER                                             3
 ACTION:UPD 17-06-16 13:32 OP:jn   STATUS:               ID:20170503054328 L   I
 OLDACT:UP  17-05-03 17:53 OP:edw  STATUS:               ID:20170503053738d    3
 OLDACT:DUP 17-05-03 17:48 OP:edw  STATUS:               ID:20170503053738d    3
 OLDACT:DUP 17-05-03 17:45 OP:edw  STATUS:               ID:20170503053737d    3
 2017-05-03-0538-00M.COL___371                                                 6
 STAT SP IPHASW D HRMM SECON CODA AMPLIT PERI AZIMU VELO AIN AR TRES W  DIS CAZ7
 BRR  HZ EP     C  543 49.90                             154    0.2110 68.7 299 
 BRR  HN ES        544  7.05                             154    0.6310 68.7 299 
 BRR  HZ I         544  8.87         5.6 0.32            154           68.7 299 
 PAM  EZ EP     C  543 51.11                             151    0.1710 78.3  41 
 PAM  EE ES        544  8.37                             151   -0.2710 78.3  41 
 PAM  EZ I         544 10.31         7.7 0.50            155           78.3  41 
 RUS  HZ EP        543 52.11                             144   -0.3510  102 175 
 RUS  HN ES        544 11.37                             144    0.0210  102 175 
 RUS  HZ I         544 11.89         9.3 0.24            145            102 175 
 PTB  HZ EP   9    543 54.97                             133   -0.37 0  146 258 
 PTB  HN ES        544 15.75                             133   -0.36 9  146 258 
 PTB  HZ I         544 22.88         4.9 0.40            134            146 258 
 SPBC HZ EP        543 56.54                             130   -0.43 9  162 218 
 SPBC HN ES        544 18.88                             130   -0.49 9  162 218 
 SPBC HZ I         544 21.55         9.2 0.26            131            162 218 
 YPLC HZ EP        543 58.46                             127   -0.05 9  179 151 
 YPLC HN ES        544 22.23                             127    0.11 9  179 151 
 YPLC HZ I         544 23.47         6.0 0.28            129            179 151 
 ZAR  HZ EP        544  0.73                             123    0.04 9  202 292 
 ZAR  HN ES        544 25.50                             123   -0.50 9  202 292 
 ZAR  HZ I         544 27.87         3.1 0.32            125            202 292 
 NOR  HZ EP        544  4.31                             119    0.26 8  233 234 
 NOR  HN ES   4    544 33.98                             119    2.01 0  233 234 
 NOR  HZ I         544 36.82         3.0 0.22            120            233 234 
 CHI  HZ EP        544  6.40                             118    0.22 8  249 195 
 CHI  HE ES        544 36.08                             118    0.31 8  249 195 
 CHI  HZ I         544 40.01         2.4 0.30            119            249 195 
 ROSC BZ EP   4    544  8.57                             117    2.05 0  252 210 
 PTGC HN ES   4    544 44.10                             112   -2.85 0  310 158 
 CBOC HE ES        544 51.91                             111    0.28 7  332 252 
                                                                                
