 2011  6 3 0142 36.2 L   6.816 -73.114146.0  RSN  4 0.2 1.4LRSN                1
 GAP=140        0.51       4.0     6.2  6.5  0.3850E+01 -0.9669E+01  0.3149E+00E
 Epicentro: LOS SANTOS - SANTANDER                                             3
 ACTION:UP  11-07-14 19:02 OP:ep   STATUS:               ID:20110603014236 L   I
 2011-06-03-0142-07S.COL___132                                                 6
 STAT SP IPHASW D HRMM SECON CODA AMPLIT PERI AZIMU VELO SNR AR TRES W  DIS CAZ7
 BTL  SZ EP   1    142 55.75                             172    -0.1 7   20 304 
 BTL  SZ ES   2    143 10.70                             172    -0.4 5   20 304 
 BRR  HZ EP   1    142 57.27                             152    -0.3 7   73 296 
 BRR  HE ES   1    143 14.44                             152     0.3 7   73 296 
 BRR  HZ I         143 19.08         6.2 0.16                            73 296 
 PAM  SZ EP   1    142 58.50                             152     0.2 7   74  38 
 PAM  SE ES   2    143 15.38                             152    -0.1 5   74  38 
 RUS  HZ EP   1    143  0.01                             144    -0.1 7  102 178 
 RUS  HN ES   1    143 18.90                             144     0.1 7  102 178 
 RUS  HZ I         143 20.10         3.5 0.29                           102 178 
                                                                                
