 2015  1 3 0342  8.9 L   6.798 -73.135142.7  RSN 12 0.6 1.8LRSN                1
 GAP= 72        1.60       4.3     4.8  8.5 -0.2225E+01  0.7035E+01  0.3482E+01E
 Epicentro: LOS SANTOS - SANTANDER                                             3
 ACTION:UPD 15-03-02 15:36 OP:nd   STATUS:               ID:20150103034208 L   I
 OLDACT:REG 15-01-03 14:56 OP:stll STATUS:               ID:20150103033748     3
 2015-01-03-0337-48M.COL___277                                                 6
 STAT SP IPHASW D HRMM SECON CODA AMPLIT PERI AZIMU VELO AIN AR TRES W  DIS CAZ7
 BAR2 EZ EP        342 28.77                             170    0.6110 23.3 193 
 BAR2 EZ ES        342 43.50                             170    0.3210 23.3 193 
 BAR2 EZ I         342 46.45        12.4 0.24            170           23.3 193 
 BRR  HZ EP        342 30.49                             152    0.7110 72.4 298 
 BRR  HN ES        342 47.05                             152    0.9810 72.4 298 
 BRR  HZ I         342 51.59        11.9 0.30            149           72.4 298 
 PAM  SZ EP        342 31.66                             150    0.9110 76.8  39 
 PAM  SZ I         342 31.90        22.4 0.18            153           76.8  39 
 PAM  SN ES        342 47.20                             150   -0.6010 76.8  39 
 RUS  HZ EP        342 32.13                             143   -0.1910  100 177 
 RUS  HN ES        342 50.15                             143   -0.4410  100 177 
 RUS  HZ I         342 52.91         3.9 0.24            146            100 177 
 PTB  HZ EP        342 35.58                             131   -0.14 9  149 259 
 PTB  HN ES        342 55.92                             131   -0.72 9  149 259 
 PTB  HZ I         342 58.29         6.6 0.12            130            149 259 
 TAM  HZ EP        342 37.00                             130    0.79 9  154 105 
 TAM  HZ I         342 37.24         5.5 0.20            134            154 105 
 TAM  HN ES        342 56.92                             130   -0.60 9  154 105 
 OCA  HN ES        342 58.38                             129   -0.56 9  161 353 
 OCA  HZ I         343  7.15         7.8 0.20            129            161 353 
 SPBC HZ EP        342 36.93                             128   -0.28 9  164 219 
 SPBC HN ES        342 59.46                             128    0.16 9  164 219 
 SPBC HZ I         343  6.61         8.8 0.40            129            164 219 
 NOR  HZ EP        342 44.81                             118    0.27 8  236 235 
 NOR  HN ES        343 11.42                             118   -0.92 8  236 235 
 NOR  HZ I         343 20.73         3.6 0.26            118            236 235 
 SML  HZ EP        342 44.70                             117   -0.73 8  244 335 
 SML  HN ES        343 13.00                             117   -0.93 8  244 335 
 SML  HZ I         343 23.35         9.4 0.10            117            244 335 
 CHI  HZ EP        342 46.62                             116    0.19 8  249 195 
 CHI  HE ES        343 15.00                             116   -0.71 8  249 195 
 CHI  HZ I         343 21.46         4.1 0.32            118            249 195 
 HEL  HE ES        343 21.58                             114    1.16 8  273 256 
 HEL  HZ I         343 27.34         3.2 0.26            114            273 256 
                                                                                
