 2017  2 3 0823  6.7 L   6.773 -73.157132.4  RSN  4 0.4 1.1LRSN                1
 GAP=247        0.61       7.0     4.6  6.2  0.1445E+02  0.9139E+01 -0.1650E+01E
 Epicentro: LOS SANTOS - SANTANDER                                             3
 ACTION:UPD 17-05-24 15:32 OP:jn   STATUS:               ID:20170203082306 L   I
 OLDACT:UP  17-02-03 17:19 OP:e    STATUS:               ID:20170203081741     3
 OLDACT:REG 17-02-03 12:47 OP:dnl  STATUS:               ID:20170203081741     3
 2017-02-03-0818-00M.COL___325                                                 6
 STAT SP IPHASW D HRMM SECON CODA AMPLIT PERI AZIMU VELO AIN AR TRES W  DIS CAZ7
 BAR2 EZ EP        823 24.62                             171   -0.0610 20.2 188 
 BAR2 EZ ES        823 38.80                             171    0.1210 20.2 188 
 BAR2 EZ I         823 41.86         1.9 0.34            170           20.2 188 
 BRR  HZ EP   2    823 26.35                             150   -0.11 5 71.6 301 
 BRR  HN ES        823 41.75                             150   -0.1110 71.6 301 
 BRR  HZ I         823 56.45         7.4 0.24            145           71.6 301 
 PTB  HZ EP   2    823 31.64                             129   -0.82 5  146 260 
 PTB  HN ES        823 52.59                             129    0.06 9  146 260 
 PTB  HZ I         823 58.41         1.2 0.16            134            146 260 
 ZAR  HZ EP   2    823 39.33                             119    1.01 4  204 293 
 ZAR  HN ES        824  2.99                             119    0.02 9  204 293 
 ZAR  HZ I         824  9.57         1.5 0.22            123            204 293 
                                                                                
