 2013  2 3 0013 36.6 L   6.770 -73.154147.5  RSN  4 0.2 1.3LRSN                1
 GAP=137        0.45       3.4     3.5  5.3  0.1748E+01 -0.6050E+01 -0.1673E+01E
 Epicentro: LOS SANTOS - SANTANDER                                             3
 ACTION:UPD 13-03-12 09:30 OP:ep   STATUS:               ID:20130203001336 L   I
 2013-02-03-0010-00M.COL___240                                                 6
 STAT SP IPHASW D HRMM SECON CODA AMPLIT PERI AZIMU VELO AIN AR TRES W  DIS CAZ7
 BRR  HZ EP        013 58.16                             152    0.1610 72.1 301 
 BRR  HE ES        014 14.60                             152   -0.0810 72.1 301 
 BRR  HE I         014 15.58         7.3 0.22            156           72.1 301 
 PAM  SZ EP        013 59.19                             150   -0.0210 80.6  39 
 PAM  SZ I         013 59.32         2.9 0.14            152           80.6  39 
 RUS  HZ EP   1    014  0.46                             145    0.15 7 97.3 175 
 RUS  HE ES   1    014 18.69                             145   -0.09 7 97.3 175 
 RUS  HE I         014 21.09         2.5 0.48            145           97.3 175 
 PTB  HZ EP   1    014  3.21                             133   -0.38 7  146 260 
 PTB  HE ES   1    014 24.82                             133    0.19 7  146 260 
                                                                                
