 2015 11 3 0716 52.7 L   6.844 -72.959138.6  RSN  4 0.2 1.1LRSN                1
 GAP=217        0.47       4.8    10.4  5.6  0.4420E+02 -0.4081E+02 -0.2053E+02E
 Epicentro: CEPITA - SANTANDER                                                 3
 ACTION:UPD 15-12-28 16:08 OP:cam  STATUS:               ID:20151103071652 L   I
 OLDACT:UP  15-11-03 19:50 OP:ak   STATUS:               ID:20151103070750     3
 OLDACT:REG 15-11-03 14:16 OP:cara STATUS:               ID:20151103070750     3
 2015-11-03-0707-50M.COL___310                                                 6
 STAT SP IPHASW D HRMM SECON CODA AMPLIT PERI AZIMU VELO AIN AR TRES W  DIS CAZ7
 BAR2 EZ EP        717 11.96                             164    0.1510 37.3 222 
 BAR2 EZ ES        717 26.71                             164   -0.0310 37.3 222 
 BRR  HZ EP        717 14.13                             146    0.0110 88.2 289 
 BRR  HN ES        717 30.90                             146    0.0410 88.2 289 
 RUS  HZ EP        717 16.32                             141    0.1910  106 187 
 RUS  HN ES        717 34.24                             141   -0.2010  106 187 
 RUS  HZ I         717 35.75         0.9 0.50            144            106 187 
 SML  HZ EP        717 29.10                             115   -0.35 8  249 331 
 SML  HE ES        717 58.25                             115    0.10 8  249 331 
 SML  HZ I         718  3.14         2.3 0.09            116            249 331 
                                                                                
