 2010  2 3 0350 14.6 L   6.764 -72.848150.6  RSN  7 0.3 1.9LRSN                1
 GAP=213        0.57       3.4    19.7  8.8 -0.1712E+02  0.6202E+02 -0.8940E+00E
 Epicentro: SAN ANDRES - SANTANDER                                             3
 ACTION:UP  10-08-24 09:47 OP:vdl  STATUS:               ID:20100203035014 L   I
 2010-02-03-0349-46S.COL___097                                                 6
 STAT SP IPHASW D HRMM SECON CODA AMPLIT PERI AZIMU VELO SNR AR TRES W  DIS CAZ7
 BAR2 SZ EP        350 35.02                             164    -0.310   42 243 
 GIR2 SZ EP   2    350 35.30                             160    -0.2 5   52 312 
 RUS  BZ EP   1    350 39.05                             145     0.3 7  100 195 
 RUS  BE ES   2    350 57.95                             145     0.3 5  100 195 
 RUS  BZ I         350 59.04         5.4 0.28                           100 195 
 OCA  SZ EP        350 44.28                             129     0.0 9  171 342 
 OCA  SZ ES   2    351  7.86                             129     0.4 4  171 342 
 CHI  HZ EP        350 53.41                             117     0.1 8  256 203 
 CHI  HE ES   2    351 22.84                             117    -0.7 4  256 203 
 CHI  HZ I         351 29.95         3.2 0.65                           256 203 
 RREF BZ EP   2    351  3.98                             110     0.4 3  345 233 
 RREF BZ I         351 49.02         4.1 0.55                           345 233 
 PRA  HZ EP   1    351 10.00                             106     0.1 4  406 214 
 PRA  HZ I         351 55.70         3.7 0.27                           406 214 
                                                                                
