 2012  5 3 0807  4.8 L   6.738 -73.230151.4  RSN  5 0.3 1.2LRSN                1
 GAP=215        0.74       7.8     7.2  8.8  0.3631E+02 -0.4355E+01 -0.1183E+02E
 Epicentro: VILLANUEVA - SANTANDER                                             3
 ACTION:UP  12-07-05 12:01 OP:pat  STATUS:               ID:20120503080704 L   I
 2012-05-03-0800-00M.COL___186                                                 6
 STAT SP IPHASW D HRMM SECON CODA AMPLIT PERI AZIMU VELO SNR AR TRES W  DIS CAZ7
 BAR2 SZ EP   1    8 7 24.51                             173    -0.5 7   17 162 
 BRR  HZ EP   1    8 7 26.29                             155    -0.1 7   67 307 
 BRR  HN ES   1    8 7 43.24                             155     0.1 7   67 307 
 BRR  HZ I         8 7 46.70         4.3 0.15                            67 307 
 RUS  HZ EP   1    8 7 28.80                             147     0.1 7   95 170 
 RUS  HZ I         8 7 29.63         1.3 0.07                            95 170 
 RUS  HE ES   1    8 7 47.75                             147     0.3 7   95 170 
 PTB  HZ EP   1    8 7 31.12                             135    -0.2 7  137 261 
 PTB  HN ES   1    8 7 51.75                             135    -0.3 7  137 261 
 PTB  HZ I         8 7 55.56         1.4 0.22                           137 261 
 ZAR  HZ EP   1    8 7 37.66                             124     0.6 6  198 295 
 ZAR  HN ES   1    8 8  2.34                             124     0.2 6  198 295 
 ZAR  HZ I         8 8  8.49         2.2 0.22                           198 295 
                                                                                
