 2010  8 3 0458 17.4 L   6.767 -73.079138.1  RSN  9 0.4 2.3LRSN                1
 GAP=242        0.73       5.1     7.5  7.6  0.4128E+01  0.2325E+02  0.1442E+02E
 Epicentro: LOS SANTOS - SANTANDER                                             3
 ACTION:UP  10-09-07 10:51 OP:vdl  STATUS:               ID:20100803045817 L   I
 2010-08-03-0456-40S.COL___122                                                 6
 STAT SP IPHASW D HRMM SECON CODA AMPLIT PERI AZIMU VELO SNR AR TRES W  DIS CAZ7
 BAR2 SZ IP        458 36.22                             170     0.110   23 211 
 BAR2 SZ ES   2    458 50.29                             170    -0.4 5   23 211 
 BAR2 SZ I         458 52.33        37.6 0.30                            23 211 
 BRR  HZ EP        458 37.98                             148    -0.310   80 298 
 BRR  HN ES   2    458 54.81                             148     0.3 5   80 298 
 BRR  HZ I         458 58.23        48.6 0.13                            80 298 
 RUS  HZ EP        458 40.23                             143     0.110   97 180 
 RUS  HZ I         458 41.44        16.0 0.25                            97 180 
 RUS  HN ES   2    458 57.92                             143     0.1 5   97 180 
 CHI  HZ EP   1    458 54.39                             116    -0.1 6  247 197 
 CHI  HE ES   2    459 23.79                             116     0.3 4  247 197 
 CHI  HZ I         459 31.85        11.6 0.41                           247 197 
 ROSC BN ES   2    459 24.40                                    -0.3 4  254 213 
 ROSC BZ I         459 30.33         9.6 0.32                           254 213 
 HEL  HZ EP   1    458 57.88                             113    -0.1 6  278 257 
 HEL  HN ES   3    459 30.03                             113     0.5 2  278 257 
 HEL  HZ I         459 36.16         9.4 0.27                           278 257 
 GUY  SZ EP   2    459  0.79                             111    -0.3 4  305 236 
 GUY  SN ES   2    459 35.25                             111     0.0 4  305 236 
 GUY  SZ I         459 43.20        29.0 0.60                           305 236 
 RREF HZ EP        459  4.42                             109     0.8 7  325 231 
 RREF HZ I         459 46.25        10.7 0.40                           325 231 
 PRA  HZ EP        459 10.09                             105    -0.6 6  393 211 
 PRA  HE ES   1    459 51.89                             105    -0.4 4  393 211 
 PRA  HZ I         459 57.14        13.6 0.58                           393 211 
                                                                                
