 2014  5 3 0745  4.3 L   7.251 -72.926292.7  RSN  4 0.3 2.2LRSN                1
 GAP=152        0.64      12.0    10.9  8.1  0.1002E+03  0.1705E+02  0.3683E+02E
 Epicentro: TONA - SANTANDER                                                   3
 OLDACT:REG 14-05-03 13:39 OP:fm   STATUS:               ID:20140503073814d    3
 ACTION:UPD 15-03-16 16:54 OP:nd   STATUS:               ID:20140503074504 L   I
 OLDACT:UP  14-05-03 17:47 OP:fm   STATUS:               ID:20140503073814d    3
 2014-05-03-0738-13M.COL___242                                                 6
 STAT SP IPHASW D HRMM SECON CODA AMPLIT PERI AZIMU VELO AIN AR TRES W  DIS CAZ7
 PAM  SZ EP        745 42.47                             175    0.3410 26.9  69 
 PAM  SN ES        746 11.41                             175   -0.2410 26.9  69 
 PAM  SZ I         746 15.49        10.2 0.44            174           26.9  69 
 OCA  HN ES        746 15.51                             157   -0.0310  118 338 
 TAM  HZ EP   1    745 45.65                             151   -0.45 7  155 126 
 TAM  HN ES   1    746 19.00                             151    0.29 7  155 126 
 TAM  SZ I         746 22.79         8.8 0.92            151            155 126 
 ZAR  HN ES   2    746 25.79                             143    0.02 4  215 277 
                                                                                
