 2016  2 3 0309 28.7 L   6.827 -73.227131.6  RSN 10 0.6 1.7LRSN                1
 GAP=123        0.83       4.0     6.1  8.2 -0.1268E+02  0.2508E+02 -0.6293E+01E
 Epicentro: ZAPATOCA - SANTANDER                                               3
 ACTION:UPD 16-03-04 21:22 OP:rebc STATUS:               ID:20160203030928 L   I
 OLDACT:DUP 16-02-03 15:41 OP:dnl  STATUS:               ID:20160203030742d    3
 2016-02-03-0307-41M.COL___313                                                 6
 STAT SP IPHASW D HRMM SECON CODA AMPLIT PERI AZIMU VELO AIN AR TRES W  DIS CAZ7
 BAR2 EZ EP   2    3 9 47.34                             168    0.59 5 26.4 169 
 BAR2 EZ ES   2    310  0.58                             168   -0.21 5 26.4 169 
 BAR2 EZ I         310  3.73        14.4 0.22            168           26.4 169 
 PAM  EZ EP        3 9 49.80                             147    0.0710 81.3  46 
 PAM  EN ES        310  6.19                             147    0.0910 81.3  46 
 PAM  EZ I         310  9.47        11.8 0.58            152           81.3  46 
 RUS  HZ EP   2    3 9 51.10                             140   -0.34 5  105 171 
 RUS  HE ES        310  8.88                             140   -0.2610  105 171 
 RUS  HZ I         310 10.82         3.5 0.20            142            105 171 
 PTB  HZ EP   2    3 9 53.76                             130   -0.06 5  140 257 
 PTB  HN ES   2    310 11.86                             130   -1.52 5  140 257 
 PTB  HZ I         310 17.46         3.5 0.09            130            140 257 
 SPBC HZ EP   2    3 9 55.94                             126    0.05 5  160 216 
 SPBC HN ES        310 17.87                             126    0.81 9  160 216 
 SPBC HZ I         310 22.72         7.1 0.11            127            160 216 
 SML  HZ EP   2    310  3.19                             115   -0.72 4  237 337 
 SML  HE ES   2    310 31.63                             115    0.29 4  237 337 
 SML  HZ I         310 33.09         5.7 0.08            117            237 337 
 CHI  HZ EP   2    310  5.18                             114   -0.59 4  249 193 
 CHI  HN ES   2    310 33.65                             114   -1.00 4  249 193 
 CHI  HZ I         310 38.03         2.6 0.68            116            249 193 
 GUY2CHZ EP   2    310 11.94                             110    0.84 4  296 233 
 GUY2CHE ES   2    310 44.37                             110    0.24 4  296 233 
 GUY2CHZ I         311  3.11         2.3 0.24                           296 233 
 PRA  HZ EP   2    310 21.58                             104   -0.02 3  390 208 
 PRA  HE ES   2    311  2.14                             104   -0.69 3  390 208 
 PRA  HZ I         311  8.27         2.9 0.34            106            390 208 
 ORTC HZ EP   2    310 21.70                             104   -0.18 3  393 215 
 ORTC HN ES   4    311  1.98                             104   -1.34 0  393 215 
 ORTC HZ I         311 10.35         1.4 0.14            105            393 215 
                                                                                
