 2015  1 3 0720 42.2 L   6.821 -73.133142.2  RSN 17 0.5 2.0LRSN                1
 GAP=113        1.20       2.9     3.3  5.6 -0.3108E+00  0.3920E+01  0.1470E+01E
 Epicentro: LOS SANTOS - SANTANDER                                             3
 ACTION:UPD 15-03-02 15:36 OP:nd   STATUS:               ID:20150103072042 L   I
 OLDACT:REG 15-01-03 15:02 OP:stll STATUS:               ID:20150103071737     3
 2015-01-03-0717-37M.COL___274                                                 6
 STAT SP IPHASW D HRMM SECON CODA AMPLIT PERI AZIMU VELO AIN AR TRES W  DIS CAZ7
 BAR2 EZ EP        721  1.79                             169    0.3410 25.9 192 
 BAR2 EZ ES        721 16.51                             169    0.0410 25.9 192 
 BAR2 EZ I         721 19.46        21.9 0.28            170           25.9 192 
 BRR  HZ EP        721  3.70                             152    0.7310 71.4 296 
 BRR  HN ES        721 20.06                             152    0.8910 71.4 296 
 BRR  HZ I         721 25.86        13.8 0.22            150           71.4 296 
 RUS  HZ EP        721  5.73                             142   -0.0310  103 177 
 RUS  HZ I         721  6.82         8.1 0.44            147            103 177 
 RUS  HE ES        721 24.01                             142   -0.1310  103 177 
 PTB  HZ EP        721  8.47                             131   -0.57 9  150 258 
 PTB  HN ES        721 29.55                             131   -0.43 9  150 258 
 PTB  HZ I         721 35.64        16.9 0.18            132            150 258 
 TAM  HZ EP        721  9.97                             130    0.45 9  154 106 
 TAM  HZ I         721 10.11        10.9 0.20            136            154 106 
 TAM  HE ES        721 30.48                             130   -0.35 9  154 106 
 OCA  HZ EP        721  9.97                             129   -0.06 9  158 353 
 OCA  HN ES        721 31.80                             129    0.06 9  158 353 
 OCA  HZ I         721 40.34         9.9 0.20            131            158 353 
 SPBC HZ EP        721 10.74                             128    0.06 9  166 219 
 SPBC HE ES        721 32.53                             128   -0.37 9  166 219 
 SPBC HZ I         721 38.49        29.6 0.18            130            166 219 
 ZAR  HZ EP        721 13.65                             122   -0.80 9  205 291 
 ZAR  HE ES        721 39.38                             122   -0.24 9  205 291 
 ZAR  HZ I         721 50.72        12.8 0.36            123            205 291 
 NOR  HZ EP        721 17.85                             118   -0.14 8  237 234 
 NOR  HE ES        721 45.62                             118   -0.29 8  237 234 
 NOR  HZ I         721 49.60         9.0 0.22            120            237 234 
 SML  HZ EP        721 17.99                             117   -0.47 8  242 335 
 SML  HN ES        721 46.34                             117   -0.40 8  242 335 
 SML  HZ I         721 50.40        20.0 0.10            119            242 335 
 CHI  HZ EP        721 19.82                             116   -0.16 8  251 195 
 CHI  HZ I         721 20.70         4.2 0.46            119            251 195 
 CHI  HN ES        721 48.47                             116   -0.98 8  251 195 
 HEL  HZ EP        721 23.24                             114    0.80 8  274 255 
 HEL  HE ES        721 53.48                             114   -0.36 8  274 255 
 HEL  HZ I         722  0.39         6.9 0.36            116            274 255 
 RREF HZ EP        721 29.16                             110    0.68 7  324 229 
 RREF HE ES        722  6.09                             110    1.51 7  324 229 
 RREF HZ I         722 13.50         6.6 0.52            112            324 229 
 CBOC HZ EP        721 29.68                             109    0.48 7  336 252 
 CBOC HZ I         721 30.52         2.6 0.20            111            336 252 
 CBOC HE ES        722  5.30                             109   -0.56 7  336 252 
 TOL  SZ EP        721 30.76                             109    0.15 6  346 225 
 TOL  SN ES        722  8.42                             109    0.04 6  346 225 
 MON  HZ EP   9    721 28.81                             108   -2.21 0  353 308 
 MON  HN ES        722  6.35                                   -0.55 6  353 308 
 MON  HZ I         722 10.12         2.4 0.40            110            353 308 
 ORTC HZ EP        721 35.76                             106   -0.55 6  398 216 
 ORTC HN ES        722 19.47                             106    0.95 6  398 216 
 ORTC HZ I         722 26.37         4.6 0.58            108            398 216 
                                                                                
