 2015 12 3 0915  0.2 L   6.829 -73.139145.6  RSN 20 0.5 2.2LRSN                1
 GAP=136        0.96       3.1     3.9  4.9 -0.4411E+01  0.4467E+01  0.3097E+00E
 Epicentro: LOS SANTOS - SANTANDER                                             3
 ACTION:UPD 16-02-04 15:02 OP:cam  STATUS:               ID:20151203091500 L   I
 OLDACT:UP  15-12-03 19:58 OP:mh   STATUS:               ID:20151203090736     3
 OLDACT:UP  15-12-03 19:57 OP:mh   STATUS:               ID:20151203090736     3
 OLDACT:UP  15-12-03 19:55 OP:mh   STATUS:               ID:20151203090736     3
 OLDACT:UP  15-12-03 19:54 OP:mh   STATUS:               ID:20151203090736     3
 OLDACT:REG 15-12-03 12:58 OP:mh   STATUS:               ID:20151203090736     3
 2015-12-03-0907-36M.COL___311                                                 6
 STAT SP IPHASW D HRMM SECON CODA AMPLIT PERI AZIMU VELO AIN AR TRES W  DIS CAZ7
 BAR2 EZ EP        915 19.82                             169   -0.0810 26.6 190 
 BAR2 EZ ES        915 34.80                             169   -0.4510 26.6 190 
 BAR2 EZ I         915 36.58        35.5 0.19            168           26.6 190 
 BRR  HZ EP   2    915 21.70                             153    0.40 5 70.4 296 
 BRR  HN ES        915 38.63                             153    0.8810 70.4 296 
 BRR  HZ I         915 42.99        29.2 0.19            149           70.4 296 
 PAM  EZ EP        915 22.90                             152    0.6610 74.5  41 
 PAM  EN ES        915 39.66                             152    0.2410 74.5  41 
 RUS  HZ EP   2    915 23.92                             143   -0.26 5  104 177 
 RUS  HE ES   2    915 42.55                             143   -0.32 5  104 177 
 RUS  HZ I         915 43.89        17.1 0.37            144            104 177 
 PTB  HZ EP        915 26.90                             132   -0.39 9  149 258 
 PTB  HN ES        915 47.73                             132   -0.68 9  149 258 
 PTB  HZ I         915 49.69        10.6 0.14            130            149 258 
 OCA  HZ EP        915 27.91                             130   -0.31 9  157 353 
 OCA  HN ES   2    915 49.43                             130   -0.64 5  157 353 
 OCA  HZ I         915 55.07        27.9 0.26            131            157 353 
 SPBC HZ EP        915 28.98                             128   -0.00 9  166 218 
 SPBC HN ES   2    915 50.66                             128   -0.76 5  166 218 
 SPBC HZ I         915 54.16        21.7 0.14            128            166 218 
 ZAR  HZ EP   1    915 32.32                             122   -0.28 6  204 291 
 ZAR  HE ES        915 57.86                             122    0.01 9  204 291 
 ZAR  HZ I         916  3.94        20.5 0.25            122            204 291 
 NOR  HZ EP   2    915 36.00                             118   -0.20 4  237 234 
 NOR  HN ES        916  4.29                             118    0.02 8  237 234 
 NOR  HZ I         916  9.79         9.0 0.18            118            237 234 
 SML  HZ EP        915 36.29                             118   -0.26 8  241 335 
 SML  HE ES   2    916  4.58                             118   -0.31 4  241 335 
 SML  HZ I         916  7.96        32.0 0.08            118            241 335 
 ROSC BZ EP   4    915 40.37                             116    1.70 0  256 211 
 ROSC BE ES   1    916  8.59                             116   -0.07 6  256 211 
 ROSC BZ I         916 13.57        20.8 0.36            117            256 211 
 HEL  HZ EP        915 41.70                             115    1.11 8  274 255 
 HEL  HN ES   1    916 12.05                             115   -0.02 6  274 255 
 HEL  HZ I         916 20.85         4.2 0.20            114            274 255 
 URE  HZ EP   4    915 40.55                             114   -0.67 0  283 291 
 URE  HN ES   4    916 15.86                             114    2.66 0  283 291 
 URE  HZ I         916 22.79        11.2 0.20            113            283 291 
 GUY2CHZ EP   2    915 45.16                             112    1.07 4  304 234 
 GUY2CHN ES   2    916 18.27                             112   -0.05 4  304 234 
 GUY2CHZ I         916 25.87         5.5 0.33                           304 234 
 PTGC HZ EP   4    915 43.11                             111   -1.26 0  311 159 
 PTGC HN ES   4    916 15.95                             111   -2.87 0  311 159 
 PTGC HZ I         916 21.49        13.5 0.15            113            311 159 
 LL6C HZ EP        915 45.10                             111   -0.45 7  322 357 
 LL6C HN ES   2    916 20.57                             111   -0.33 3  322 357 
 MON  HZ EP   4    915 48.43                             109   -0.62 0  352 308 
 MON  HN ES   4    916 24.19                             109   -2.94 0  352 308 
 MON  HZ I         916 27.39         4.3 0.22            109            352 308 
 ANIL HZ EP   4    915 53.37                             108    3.03 0  360 224 
 ANIL HE ES   4    916 31.25                             108    1.82 0  360 224 
 PRA  HZ EP        915 53.88                             106   -0.22 6  395 209 
 PRA  HN ES        916 35.88                             106   -0.25 6  395 209 
 PRA  HZ I         916 40.67         8.5 0.38            107            395 209 
 ORTC HZ EP   2    915 54.60                             106    0.12 3  398 216 
 ORTC HN ES        916 37.64                             106    0.83 6  398 216 
 ORTC HZ I         916 40.69         4.8 0.24            107            398 216 
 SJC  HZ EP   4    915 54.07                             106   -1.43 0  407 327 
 SJC  HE ES   4    916 35.40                             106   -3.23 0  407 327 
 SJC  HZ I         916 39.76         2.2 0.24            106            407 327 
                                                                                
