 2016 11 3 0201 28.4 L   6.848 -73.153143.5  RSN  6 0.3 1.5LRSN                1
 GAP=241        0.73       5.7     5.6  6.2  0.2087E+02  0.3250E+01  0.3698E+01E
 Epicentro: LOS SANTOS - SANTANDER                                             3
 ACTION:UPD 17-10-26 21:04 OP:lp   STATUS:               ID:20161103020128 L   I
 OLDACT:UP  16-11-03 13:30 OP:dani STATUS:               ID:20161103015746     3
 OLDACT:UP  16-11-03 13:30 OP:dani STATUS:               ID:20161103015746     3
 OLDACT:REG 16-11-03 12:12 OP:dani STATUS:               ID:20161103015746     3
 2016-11-03-0158-00M.COL___343                                                 6
 STAT SP IPHASW D HRMM SECON CODA AMPLIT PERI AZIMU VELO AIN AR TRES W  DIS CAZ7
 BAR2 EZ EP   2    2 1 47.55                             168   -0.32 5 28.4 187 
 BAR2 EZ ES   2    2 2  2.33                             168   -0.73 5 28.4 187 
 BRR  HZ EP        2 1 49.46                             153    0.3410 68.1 295 
 BRR  HN ES        2 2  5.22                             153   -0.0810 68.1 295 
 BRR  HZ I         2 2 12.91        10.2 0.84            153           68.1 295 
 RUS  HZ EP        2 1 52.09                             142   -0.2210  106 176 
 RUS  HE ES        2 2 11.46                             142    0.4810  106 176 
 RUS  HZ I         2 2 12.49         1.4 0.35            145            106 176 
 PTB  HZ EP        2 1 55.07                             132   -0.13 9  148 257 
 PTB  HN ES        2 2 15.83                             132   -0.29 9  148 257 
 PTB  HZ I         2 2 17.87         3.1 0.15            133            148 257 
 SPBC HZ EP        2 1 56.97                             128   -0.09 9  167 218 
 SPBC HN ES   4    2 2 21.06                             128    1.63 0  167 218 
 SPBC HZ I         2 2 25.43         3.3 0.21            131            167 218 
 ZAR  HZ EP   4    2 2  3.25                             122    2.84 0  201 291 
 ZAR  HN ES        2 2 25.65                             122    0.26 9  201 291 
 ZAR  HZ I         2 2 30.91         5.6 0.32            125            201 291 
                                                                                
