 2017  4 3 0447 25.2 L   7.387 -73.132  4.0  RSN  7 0.4 1.4LRSN                1
 GAP=183        0.67       4.7     1.8  6.2 -0.4055E+01  0.7054E+01 -0.1805E+02E
 Epicentro: EL PLAYON - SANTANDER                                              3
 ACTION:UPD 17-05-30 21:07 OP:jn   STATUS:               ID:20170403044725 L   I
 OLDACT:UP  17-04-03 16:22 OP:and  STATUS:               ID:20170403043741     3
 OLDACT:UP  17-04-03 16:21 OP:and  STATUS:               ID:20170403043741     3
 OLDACT:UP  17-04-03 16:20 OP:and  STATUS:               ID:20170403043741     3
 OLDACT:UP  17-04-03 16:19 OP:and  STATUS:               ID:20170403043741     3
 OLDACT:REG 17-04-03 12:43 OP:and  STATUS:               ID:20170403043741     3
 2017-04-03-0438-00M.COL___362                                                 6
 STAT SP IPHASW D HRMM SECON CODA AMPLIT PERI AZIMU VELO AIN AR TRES W  DIS CAZ7
 PAM  EZ EP        447 33.57                              93   -0.0310 48.0  96 
 PAM  EN ES        447 40.08                              93   -0.0510 48.0  96 
 PAM  EZ I         447 40.77        26.9 0.18             47           48.0  96 
 BRR  HZ EP        447 36.75                              92    0.1510 71.1 244 
 BRR  HN ES        447 45.49                              92    0.0210 71.1 244 
 BRR  HZ I         447 46.00         7.0 0.12             47           71.1 244 
 BAR2 EZ EP        447 39.39                              91   -0.0210 88.0 184 
 BAR2 EZ ES   3    447 49.39                              91   -1.08 2 88.0 184 
 BAR2 EZ I         447 49.77         7.4 0.22             47           88.0 184 
 RUS  HZ EP        447 51.53                              91    0.15 9  165 178 
 RUS  HN ES   4    448 10.29                              91   -1.48 0  165 178 
 RUS  HZ I         448 13.89         2.5 0.20             47            165 178 
 PTB  HZ EP        447 51.78                              56   -0.39 9  174 237 
 PTB  HN ES   4    448 11.03                              56   -2.15 0  174 237 
 PTB  HZ I         448 12.49         6.1 0.20             47            174 237 
 ZAR  HZ EP        447 54.81                              56    0.45 9  191 274 
 ZAR  HN ES        448 16.76                              56   -0.32 9  191 274 
 ZAR  HZ I         448 18.04         5.7 0.24             37            191 274 
 SPBC HZ EP   4    448  0.41                              56    2.54 0  218 209 
 SPBC HN ES   3    448 25.22                              56    1.89 2  218 209 
 SPBC HZ I         448 27.57         4.2 0.42             37            218 209 
                                                                                
