 2016 12 3 0012  4.4 L   6.834 -73.193144.0  RSN  6 0.6 1.5LRSN                1
 GAP=133        0.94       7.6     9.1  9.6 -0.3343E+02  0.5201E+02 -0.2182E+02E
 Epicentro: ZAPATOCA - SANTANDER                                               3
 ACTION:UPD 17-01-11 20:12 OP:rebc STATUS:               ID:20161203001204 L   I
 OLDACT:UP  16-12-03 13:35 OP:dani STATUS:               ID:20161203000746     3
 OLDACT:UP  16-12-03 13:33 OP:dani STATUS:               ID:20161203000746     3
 OLDACT:UP  16-12-03 13:33 OP:dani STATUS:               ID:20161203000746     3
 OLDACT:UP  16-12-03 13:33 OP:dani STATUS:               ID:20161203000746     3
 OLDACT:REG 16-12-03 12:29 OP:dnl  STATUS:               ID:20161203000746     3
 2016-12-03-0008-00M.COL___351                                                 6
 STAT SP IPHASW D HRMM SECON CODA AMPLIT PERI AZIMU VELO AIN AR TRES W  DIS CAZ7
 BAR2 EZ EP        012 23.80                             169   -0.1410 26.7 177 
 BAR2 EZ ES        012 38.66                             169   -0.4810 26.7 177 
 BAR2 EZ I         012 41.17         5.7 0.24            162           26.7 177 
 BRR  HZ EP        012 25.75                             154    0.6910 64.8 298 
 BRR  HN ES   3    012 42.70                             154    1.57 2 64.8 298 
 BRR  HZ I         012 47.26         8.3 0.22            129           64.8 298 
 PAM  EZ EP        012 26.81                             150    0.2910 78.1  44 
 PAM  EN ES        012 43.52                             150   -0.2110 78.1  44 
 PAM  EZ I         012 45.24         5.1 0.16            135           78.1  44 
 PTB  HZ EP        012 30.85                             132   -0.03 9  143 257 
 PTB  HE ES   3    012 50.51                             132   -0.98 2  143 257 
 PTB  HZ I         012 57.77         4.9 0.13            115            143 257 
 CHI  HN ES   2    013 12.05                             116    0.23 4  251 194 
 SJC  HZ EP   2    012 58.21                             106   -1.04 3  403 327 
 SJC  HZ I         013 40.46         1.1 0.48                           403 327 
 SJC  HE ES   2    013 40.57                             106   -1.43 3  403 327 
                                                                                
