 2013  6 3 0806 20.3 L   6.791 -73.133142.0  RSN 13 0.4 2.6LRSN                1
 GAP=115        0.90       2.6     3.3  6.0  0.8702E-01  0.6566E+01  0.1270E+01E
 Epicentro: LOS SANTOS - SANTANDER                                             3
 ACTION:UPD 14-01-08 09:52 OP:ep   STATUS:               ID:20130603080620 L   I
 2013-06-03-0800-00M.COL___257                                                 6
 STAT SP IPHASW D HRMM SECON CODA AMPLIT PERI AZIMU VELO AIN AR TRES W  DIS CAZ7
 BAR2 SZ EP        8 6 39.62                             171    0.2110 22.6 194 
 BAR2 SZ ES   1    8 6 54.06                             171   -0.30 7 22.6 194 
 BAR2 SZ I         8 6 56.48        33.8 0.18            169           22.6 194 
 BRR  HZ EP        8 6 41.54                             151    0.4510 72.9 299 
 BRR  HE ES   2    8 6 58.06                             151    0.71 5 72.9 299 
 BRR  HZ I         8 7  2.45        37.6 0.10            149           72.9 299 
 PAM  SZ EP     C  8 6 42.67                             150    0.6110 77.3  38 
 PAM  SN ES        8 6 59.23                             150    0.1610 77.3  38 
 RUS  HZ EP   1    8 6 43.64                             143    0.09 7 99.5 177 
 RUS  HN ES        8 7  1.66                             143   -0.0610 99.5 177 
 RUS  HN I         8 7  3.61        56.4 0.40            146           99.5 177 
 PTB  HZ EP   1    8 6 46.46                             131   -0.56 7  149 259 
 PTB  HE ES        8 7  8.14                             131    0.24 9  149 259 
 PTB  HE I         8 7  9.95        49.0 0.32            131            149 259 
 OCA  HZ EP        8 6 47.92                             128   -0.47 9  161 353 
 OCA  HN ES        8 7  9.62                             128   -0.71 9  161 353 
 OCA  HZ I         8 7 13.47        37.1 0.20            130            161 353 
 YOP  SN ES        8 7 12.53                             126   -0.44 9  177 154 
 ZAR  HZ EP   1    8 6 52.83                             121    0.20 6  206 292 
 ZAR  HN ES        8 7 17.83                             121   -0.05 8  206 292 
 ZAR  HN I         8 7 19.49        76.7 0.58            122            206 292 
 NOR  HZ EP   1    8 6 56.15                             118    0.33 6  235 235 
 NOR  HN ES        8 7 23.11                             118   -0.45 8  235 235 
 NOR  HN I         8 7 31.71        46.7 0.16            118            235 235 
 SML  HZ EP   4    8 6 55.93                             116   -0.91 0  245 335 
 SML  HN ES   4    8 7 23.32                             116   -2.05 0  245 335 
 SML  HN I         8 7 33.13        79.3 0.10            118            245 335 
 CHI  HZ EP        8 6 57.44                             116   -0.23 8  248 196 
 CHI  HN ES        8 7 27.09                             116    0.23 8  248 196 
 CHI  HN I         8 7 30.47        22.1 0.24            118            248 196 
 HEL  HZ EP   1    8 7  1.08                             114    0.68 6  273 256 
 HEL  HN ES   1    8 7 31.36                             114   -0.35 6  273 256 
 HEL  HN I         8 7 37.54        14.4 0.38            115            273 256 
 GUY2CHZ EP   4    8 7  5.23                             111    1.48 0  302 235 
 GUY2CHN ES   4    8 7 38.01                             111    0.34 0  302 235 
 GUY2CHN I         8 7 45.59        12.2 0.44                           302 235 
                                                                                
