 2015  9 3 0559 17.5 L   6.793 -73.169141.3  RSN  5 0.4 1.4LRSN                1
 GAP=234        1.10       6.4     6.9  8.1  0.1051E+02  0.7829E+01  0.5795E+01E
 Epicentro: LOS SANTOS - SANTANDER                                             3
 ACTION:UPD 15-10-28 16:23 OP:cam  STATUS:               ID:20150903055917 L   I
 OLDACT:REG 15-09-03 12:55 OP:stll STATUS:               ID:20150903055735     3
 2015-09-03-0557-35M.COL___352                                                 6
 STAT SP IPHASW D HRMM SECON CODA AMPLIT PERI AZIMU VELO AIN AR TRES W  DIS CAZ7
 BAR2 EZ EP        559 36.55                             171   -0.0010 22.3 184 
 BAR2 EZ ES        559 50.91                             171   -0.5210 22.3 184 
 BAR2 EZ I         559 52.62         4.5 0.52            171           22.3 184 
 BRR  HZ EP        559 38.25                             152    0.2110 69.3 300 
 BRR  HN ES        559 54.72                             152    0.6410 69.3 300 
 BRR  HZ I         559 58.71         5.5 0.14            152           69.3 300 
 RUS  HZ EP        559 40.90                             143    0.1410  100 175 
 RUS  HN ES        559 58.83                             143   -0.0810  100 175 
 RUS  HZ I         6 0  1.12         3.3 0.28            146            100 175 
 PTB  HZ EP        559 43.27                             131   -0.57 9  145 259 
 PTB  HN ES        6 0  3.81                             131   -0.59 9  145 259 
 PTB  HZ I         6 0  8.37         4.4 0.18            132            145 259 
 SPBC HZ EP        559 45.57                             128    0.14 9  161 218 
 SPBC HZ I         559 46.42         4.8 0.12            130            161 218 
 SPBC HE ES        6 0  7.86                             128    0.63 9  161 218 
                                                                                
