 2013  1 3 0740 11.8 L   6.792 -73.168143.7  RSN  8 0.5 2.2LRSN 2.9WRSN        1
 SPEC AVERAGE  MO 13.4 ST  4.5 OM  1.9 f0 4.03 R0.4048 AL 2.14 WI 21.8 MW  2.9 3
 SPEC SD       MO  0.3 ST  4.9 OM  0.6 f0 1.17 R0.1474 AL      WI      MW  0.2 3
 GAP=181        1.16       3.9     6.0  6.9  0.5327E+01  0.6741E+01  0.8662E+00E
 Epicentro: LOS SANTOS - SANTANDER                                             3
 SPEC ZAR HH N MO 13.8 ST 14.5 OM  2.0 f0 5.66 R0.2597 AL 2.62 WI 23.6 MW  3.1 3
 SPEC ZAR HH N T 741 7 K 0.000 GD  247 VS 4.20 DE 3.00 Q0230.0 QA 0.60 VS 4.20 3
 SPEC RUS HH E MO 12.9 ST0.598 OM  1.3 f0 3.76 R0.3910 AL 1.96 WI 14.0 MW  2.6 3
 SPEC RUS HH E T 74053 K 0.000 GD  175 VS 4.20 DE 3.00 Q0230.0 QA 0.60 VS 4.20 3
 SPEC HEL HH Z MO 13.2 ST  1.2 OM  0.6 f0 3.70 R0.3973 AL 1.57 WI 22.0 MW  2.8 3
 SPEC HEL HH Z T 74052 K 0.000 GD  304 VP 7.60 DE 3.00 Q0230.0 QA 0.60 VS 4.20 3
 SPEC OCA HH N MO 13.8 ST  4.7 OM  2.1 f0 3.76 R0.3910 AL 2.17 WI 26.8 MW  3.1 3
 SPEC OCA HH N T 741 0 K 0.000 GD  215 VS 4.20 DE 3.00 Q0230.0 QA 0.60 VS 4.20 3
 SPEC CHI HH N MO 13.4 ST0.325 OM  1.6 f0 2.07 R0.7101 AL 1.33 WI 15.8 MW  2.9 3
 SPEC CHI HH N T 74118 K 0.000 GD  285 VS 4.20 DE 3.00 Q0230.0 QA 0.60 VS 4.20 3
 SPEC BRR HH N MO 13.5 ST  5.9 OM  1.9 f0 5.26 R0.2795 AL 3.20 WI 28.8 MW  2.9 3
 SPEC BRR HH N T 74048 K 0.000 GD  159 VS 4.20 DE 3.00 Q0230.0 QA 0.60 VS 4.20 3
 ACTION:UPD 13-02-15 09:11 OP:ep   STATUS:               ID:20130103074011 L   I
 2013-01-03-0739-49M.COL___189                                                 6
 STAT SP IPHASW D HRMM SECON CODA AMPLIT PERI AZIMU VELO AIN AR TRES W  DIS CAZ7
 BAR2 SZ EP        740 31.01                             171   -0.1210 22.1 184 
 BAR2 SZ ES        740 46.37                             171    0.1410 22.1 184 
 BAR2 SZ I         740 48.10        22.2 0.30            164           22.1 184 
 BRR  HZ EP        740 33.06                             153    0.4610 69.5 300 
 BRR  HZ I         740 33.28        24.3 0.22            142           69.5 300 
 BRR  HN ES        740 49.39                             153    0.5410 69.5 300 
 RUS  HZ EP        740 35.22                             144   -0.0510 99.9 175 
 RUS  HN ES        740 53.62                             144    0.0210 99.9 175 
 PTB  HZ EP        740 37.71                             132   -0.63 9  145 259 
 PTB  HN ES        740 58.28                             132   -0.77 9  145 259 
 PTB  HZ I         741  2.52        12.6 0.14            121            145 259 
 OCA  HZ EP        740 40.12                             129    0.13 9  161 354 
 OCA  HN ES        741  1.47                             129   -0.52 9  161 354 
 OCA  HN I         741  5.23        84.3 0.24            122            161 354 
 ZAR  HZ EP        740 43.77                             122   -0.11 9  202 293 
 ZAR  HN ES        741  9.01                             122    0.08 9  202 293 
 CHI  HZ EP        740 48.79                             117   -0.40 8  247 195 
 CHI  HN ES        741 18.49                             117    0.11 8  247 195 
 CHI  HN I         741 22.81        11.2 0.52            109            247 195 
 HEL  HZ EP        740 52.90                             115    1.31 8  269 256 
 HEL  HN I         741 31.71         3.8 0.24            107            269 256 
                                                                                
