 2017  4 3 0350  9.1 L   6.760 -73.150148.4  RSN  5 0.3 1.2LRSN                1
 GAP=234        0.58       4.6     4.3  5.4  0.8624E+01 -0.6454E+01 -0.5162E+01E
 Epicentro: LOS SANTOS - SANTANDER                                             3
 ACTION:UPD 17-05-30 21:07 OP:jn   STATUS:               ID:20170403035009 L   I
 OLDACT:UP  17-04-03 15:59 OP:and  STATUS:               ID:20170403034320     3
 OLDACT:UP  17-04-03 15:59 OP:and  STATUS:               ID:20170403034320     3
 OLDACT:UP  17-04-03 15:58 OP:and  STATUS:               ID:20170403034320     3
 OLDACT:UP  17-04-03 15:58 OP:and  STATUS:               ID:20170403034320     3
 OLDACT:UP  17-04-03 15:57 OP:and  STATUS:               ID:20170403034320     3
 OLDACT:UP  17-04-03 15:57 OP:and  STATUS:               ID:20170403034320     3
 OLDACT:REG 17-04-03 12:40 OP:and  STATUS:               ID:20170403034320     3
 2017-04-03-0348-00M.COL___362                                                 6
 STAT SP IPHASW D HRMM SECON CODA AMPLIT PERI AZIMU VELO AIN AR TRES W  DIS CAZ7
 BAR2 EZ EP        350 28.73                             173   -0.2610 18.9 191 
 BAR2 EZ ES   3    350 43.31                             173   -1.17 2 18.9 191 
 BRR  HN ES        350 47.76                             153    0.3110 73.0 302 
 RUS  HZ EP        350 32.99                             146    0.1610 96.2 176 
 RUS  HN ES        350 51.42                             146    0.1110 96.2 176 
 RUS  HZ I         350 52.64         2.1 0.15            142           96.2 176 
 PTB  HZ EP        350 36.12                             133   -0.08 9  146 260 
 PTB  HN ES        350 57.11                             133   -0.20 9  146 260 
 PTB  HZ I         351  3.38         1.8 0.42            129            146 260 
 SPBC HZ EP   9    350 38.58                             131    1.10 0  159 220 
 SPBC HN ES        351  0.71                             127    0.02 9  159 220 
 SPBC HZ I         351  2.22         2.6 0.08            127            159 220 
                                                                                
