 2017  2 3 0801 15.6 L   6.821 -73.370123.9  RSN  4 0.2 1.1LRSN                1
 GAP=191        0.52       3.7     3.3  4.3  0.5992E+01  0.2722E+01  0.3074E+01E
 Epicentro: SAN VICENTE DE CHUCURI - SANTANDER                                 3
 ACTION:UPD 17-05-24 15:32 OP:jn   STATUS:               ID:20170203080115 L   I
 OLDACT:REG 17-02-03 12:46 OP:dnl  STATUS:               ID:20170203075742     3
 2017-02-03-0758-00M.COL___325                                                 6
 STAT SP IPHASW D HRMM SECON CODA AMPLIT PERI AZIMU VELO AIN AR TRES W  DIS CAZ7
 BAR2 EZ IP     D  8 1 32.61                             164   -0.2710 32.7 141 
 BAR2 EZ ES        8 1 46.25                             164   -0.1110 32.7 141 
 BAR2 EZ I         8 1 47.96         3.3 0.20            165           32.7 141 
 BRR  HZ EP        8 1 33.12                             157   -0.0810 49.3 310 
 BRR  HN ES        8 1 47.17                             157    0.2410 49.3 310 
 RUS  HZ EP        8 1 37.96                             137    0.1210  107 163 
 RUS  HN ES        8 1 55.31                             137    0.1210  107 163 
 PTB  HZ EP        8 1 38.84                             132    0.1910  124 256 
 PTB  HE ES        8 1 56.42                             132   -0.2110  124 256 
 PTB  HZ I         8 2  0.33         1.9 0.18            131            124 256 
                                                                                
