 2017  2 3 0940  2.6 L   6.806 -73.158149.6  RSN 12 0.4 2.0LRSN                1
 GAP=135        0.98       3.7     4.0  5.7  0.5271E+00  0.6761E+01  0.2706E+01E
 Epicentro: LOS SANTOS - SANTANDER                                             3
 ACTION:UPD 17-05-24 15:32 OP:jn   STATUS:               ID:20170203094002 L   I
 OLDACT:UP  17-02-03 18:00 OP:e    STATUS:               ID:20170203093741     3
 OLDACT:REG 17-02-03 12:53 OP:dnl  STATUS:               ID:20170203093741     3
 2017-02-03-0938-00M.COL___322                                                 6
 STAT SP IPHASW D HRMM SECON CODA AMPLIT PERI AZIMU VELO AIN AR TRES W  DIS CAZ7
 BAR2 EZ EP        940 22.51                             171   -0.1710 23.8 187 
 BAR2 EZ ES        940 37.87                             171   -0.5010 23.8 187 
 BAR2 EZ I         940 38.73        19.4 0.24            168           23.8 187 
 BRR  HZ EP        940 24.52                             154    0.4510 69.7 299 
 BRR  HN ES        940 41.62                             154    0.7910 69.7 299 
 BRR  HZ I         940 45.48        18.5 0.42            150           69.7 299 
 PAM  EZ EP        940 25.52                             151    0.2910 77.7  41 
 PAM  EN ES        940 42.60                             151   -0.2910 77.7  41 
 PAM  EZ I         940 44.63        21.2 0.52            153           77.7  41 
 RUS  HZ EP        940 26.90                             144    0.1310  101 175 
 RUS  HE ES        940 45.78                             144    0.1510  101 175 
 RUS  HZ I         940 46.39        11.4 0.30            142            101 175 
 PTB  HZ EP        940 29.37                             133   -0.39 9  147 258 
 PTB  HN ES        940 50.42                             133   -0.54 9  147 258 
 PTB  HZ I         940 55.40         8.4 0.16            130            147 258 
 ZAR  HZ EP        940 34.98                             123   -0.15 9  203 292 
 ZAR  HE ES        941  0.53                             123    0.01 9  203 292 
 ZAR  HZ I         941  7.43         6.9 0.10            121            203 292 
 NOR  HZ EP   2    940 39.12                             119    0.66 4  234 234 
 NOR  HN ES        941  6.93                             119    0.48 8  234 234 
 NOR  HZ I         941 12.10         6.0 0.20            117            234 234 
 CHI  HE EP        940 40.79                             118    0.26 8  249 195 
 CHI  HN ES        941  9.83                             118   -0.30 8  249 195 
 CHI  HE I         941 14.63         8.0 0.44            116            249 195 
 URE  HZ EP        940 43.01                             114   -0.67 7  282 292 
 URE  HE ES   4    941 13.93                             114   -1.80 0  282 292 
 URE  HZ I         941 27.27         4.0 0.38            113            282 292 
 PTGC HZ EP   4    940 45.97                             112   -0.76 0  310 158 
 PTGC HN ES   4    941 18.92                             112   -2.26 0  310 158 
 PTGC HZ I         941 33.81         7.7 0.44            111            310 158 
 ORTC HZ EP   2    940 56.86                             107    0.25 3  395 216 
 ORTC HN ES   4    941 40.35                             107    1.60 0  395 216 
 ORTC HZ I         941 45.46         2.2 0.38            106            395 216 
 SJC  HZ EP   4    940 56.82                             106   -1.30 0  408 327 
 SJC  HN ES   4    941 35.99                             106   -5.45 0  408 327 
 SJC  HZ I         941 44.15         1.5 0.72            105            408 327 
                                                                                
