 2011 12 3 0727 31.8 L   6.774 -73.104146.0  RSN 11 0.3 2.0LRSN                1
 GAP=143        0.58       2.6     4.7  4.4 -0.4371E+01  0.3443E+01  0.1178E+01E
 Epicentro: LOS SANTOS - SANTANDER                                             3
 ACTION:UPD 12-07-13 16:13 OP:ep   STATUS:               ID:20111203072731 L   I
 2011-12-03-0720-00M.COL___182                                                 6
 STAT SP IPHASW D HRMM SECON CODA AMPLIT PERI AZIMU VELO AIN AR TRES W  DIS CAZ7
 BAR2 SZ EP        727 51.40                             171   -0.0510 21.8 203 
 BAR2 SZ ES   3    728  6.15                             171   -0.61 2 21.8 203 
 BAR2 SZ I         728  8.05        32.2 0.32                          21.8 203 
 GIR2 SZ EP        727 51.38                             166   -0.2510 35.2 344 
 GIR2 SZ ES   2    728  6.54                             166   -0.54 5 35.2 344 
 BRR  HZ EP        727 53.29                             151   -0.0210 76.6 299 
 BRR  HN ES   1    728 10.38                             151    0.31 7 76.6 299 
 BRR  HZ I         728 13.19        22.7 0.16                          76.6 299 
 PAM  SZ EP        727 54.16                             151    0.1310 76.9  36 
 PAM  SN ES   1    728 11.38                             151    0.02 7 76.9  36 
 RUS  HZ EP        727 55.25                             145   -0.1210 97.5 179 
 RUS  HN ES   1    728 14.00                             145    0.26 7 97.5 179 
 RUS  HZ I         728 15.14         8.2 0.26                          97.5 179 
 BRI  SZ EP        727 55.90                             141    0.0710  110  18 
 OCA  SZ EP        728  0.62                             129    0.14 9  164 352 
 OCA  SZ I         728 29.26        10.9 0.23                           164 352 
 CTAU SZ EP        728  5.21                             123    0.43 9  202 211 
 CTAB SZ ES   2    728 35.97                             119    0.51 4  230 212 
 NOR  SZ EP        728  7.34                             118   -0.45 8  237 236 
 CHI  HZ EP   2    728  8.62                             117   -0.74 4  247 196 
 CHI  HN ES   2    728 38.59                             117   -0.05 4  247 196 
 CHI  HZ I         728 42.33         4.9 0.54                           247 196 
                                                                                
