 2012  6 3 0843 30.4 L   6.033 -73.702114.0  RSN 10 0.4 2.3LRSN                1
 GAP= 78        0.74       2.8     3.1  6.8 -0.1396E+01  0.7549E+01 -0.8755E+00E
 Epicentro: BOLIVAR - SANTANDER                                                3
 ACTION:UPD 12-08-06 17:46 OP:ep   STATUS:               ID:20120603084331 L   I
 2012-06-03-0840-00M.COL___201                                                 6
 STAT SP IPHASW D HRMM SECON CODA AMPLIT PERI AZIMU VELO AIN AR TRES W  DIS CAZ7
 RUS  HZ EP   1    843 48.99                             147    0.15 7 70.3 103 
 RUS  HN ES   1    844  3.18                             147   -0.06 7 70.3 103 
 RUS  HZ I         844  5.10        18.0 0.27            148           70.3 103 
 BAR2 SZ EP        843 49.78                             141    0.2710 84.4  43 
 BAR2 SZ ES   1    844  4.61                             141    0.19 7 84.4  43 
 BAR2 SZ I         844  5.98       166.1 0.32            139           84.4  43 
 PTB  HZ EP   1    843 49.59                             135   -0.92 7  101 304 
 PTB  HE ES   2    844  6.55                             135    0.35 5  101 304 
 PTB  HZ I         844  7.24        17.6 0.15            133            101 304 
 NOR  SZ EP   1    843 54.53                             125    0.36 7  139 248 
 NOR  SN ES   1    844 13.13                             125    0.41 7  139 248 
 CHI  HZ EP   1    843 55.90                             122   -0.36 7  155 181 
 CHI  HN ES   1    844 15.99                             122   -0.45 7  155 181 
 PAM  SZ EP   1    843 59.07                             118   -0.12 7  182  37 
 PAM  SN ES   2    844 21.02                             118   -0.64 4  182  37 
 HEL  HZ EP   1    844  1.74                             115    0.42 6  203 275 
 HEL  HN ES   2    844 25.32                             115   -0.13 4  203 275 
 HEL  HZ I         844 31.46         8.6 0.28            114            203 275 
 ZAR  HZ EP   1    844  0.92                             114   -0.26 6  206 322 
 ZAR  HE ES   1    844 24.71                             114   -0.49 6  206 322 
 ZAR  HZ I         844 26.81        31.1 0.28            113            206 322 
 OCA  HZ EP   2    844  6.42                             110    0.33 4  248  10 
 OCA  HN ES   2    844 34.80                             110    0.86 4  248  10 
 OCA  HZ I         844 43.33        21.2 0.24            109            248  10 
 PRA  HZ EP   1    844 11.14                             106    0.48 5  288 207 
 PRA  HE ES   2    844 42.08                             106    0.01 4  288 207 
                                                                                
