 2011 12 3 0436  6.6 L   6.773 -73.089136.0  RSN 10 0.4 2.2LRSN                1
 GAP=145        0.80       3.6     6.4  5.0 -0.7276E+01  0.4468E+01  0.1879E+01E
 Epicentro: LOS SANTOS - SANTANDER                                             3
 ACTION:UPD 12-07-13 16:13 OP:ep   STATUS:               ID:20111203043606 L   I
 2011-12-03-0430-00M.COL___182                                                 6
 STAT SP IPHASW D HRMM SECON CODA AMPLIT PERI AZIMU VELO AIN AR TRES W  DIS CAZ7
 BAR2 SZ IP        436 24.91                             170   -0.1610 22.5 207 
 BAR2 SZ ES   1    436 39.13                             170   -0.32 7 22.5 207 
 BAR2 SZ I         436 41.84        43.9 0.30                          22.5 207 
 GIR2 SZ EP        436 25.03                             165   -0.2510 35.7 341 
 GIR2 SZ ES   1    436 40.22                             165    0.39 7 35.7 341 
 PAM  SZ EP        436 27.92                             150    0.1910 76.0  34 
 PAM  SN ES   1    436 44.61                             150    0.43 7 76.0  34 
 BRR  HZ IP     C  436 26.81                             148   -0.3510 78.1 298 
 BRR  HZ I         436 27.20        58.3 0.10                          78.1 298 
 BRR  HE ES   1    436 43.34                             148    0.17 7 78.1 298 
 RUS  HZ EP        436 28.85                             143   -0.3510 97.4 180 
 RUS  HE ES   1    436 47.11                             143    0.31 7 97.4 180 
 RUS  HZ I         436 48.08         9.0 0.26                          97.4 180 
 BRI  SZ EP        436 29.80                             139    0.1310  109  17 
 BRI  SZ ES   2    436 47.64                             139    0.01 5  109  17 
 OCA  SZ EP        436 34.32                             127   -0.25 9  164 351 
 OCA  SZ I         436 59.45        26.6 0.33                           164 351 
 CTAU SZ EP        436 38.87                             121   -0.17 9  203 211 
 CTAB SZ EP   2    436 42.42                             117    0.52 4  231 212 
 RREF HZ EP        436 53.75                             109    1.05 7  325 230 
 RREF HZ I         437 35.72         5.0 0.22                           325 230 
                                                                                
