 2016 11 3 0623  8.0 L   6.807 -73.148147.7  RSN 11 0.4 1.7LRSN                1
 GAP=136        1.00       3.8     4.1  5.9 -0.1898E+01  0.6822E+01 -0.9051E+00E
 Epicentro: LOS SANTOS - SANTANDER                                             3
 ACTION:UPD 17-10-26 21:04 OP:lp   STATUS:               ID:20161103062308 L   I
 OLDACT:UP  16-11-03 15:54 OP:dani STATUS:               ID:20161103061746d    3
 OLDACT:UP  16-11-03 15:53 OP:dani STATUS:               ID:20161103061746d    3
 OLDACT:DUP 16-11-03 15:49 OP:dani STATUS:               ID:20161103061746d    3
 OLDACT:UP  16-11-03 15:48 OP:dani STATUS:               ID:20161103061745     3
 OLDACT:REG 16-11-03 12:33 OP:dani STATUS:               ID:20161103061745     3
 2016-11-03-0618-00M.COL___337                                                 6
 STAT SP IPHASW D HRMM SECON CODA AMPLIT PERI AZIMU VELO AIN AR TRES W  DIS CAZ7
 BAR2 EZ EP        623 27.96                             171    0.0610 24.0 189 
 BAR2 EZ ES        623 42.97                             171   -0.4310 24.0 189 
 BRR  HZ EP     D  623 29.74                             153    0.4010 70.6 298 
 BRR  HN ES        623 46.56                             153    0.5910 70.6 298 
 BRR  HZ I         623 50.90        12.3 0.12            150           70.6 298 
 PAM  EZ EP        623 30.76                             151    0.3410 77.0  40 
 PAM  EN ES        623 47.72                             151   -0.1610 77.0  40 
 PAM  EZ I         623 49.21        10.7 0.16            155           77.0  40 
 RUS  HZ EP        623 32.05                             144    0.0310  101 176 
 RUS  HN ES        623 50.65                             144   -0.0810  101 176 
 RUS  HZ I         623 52.14         3.6 0.32            147            101 176 
 PTB  HZ EP     C  623 34.59                             132   -0.54 9  148 259 
 PTB  HE ES        623 55.69                             132   -0.59 9  148 259 
 PTB  HZ I         623 59.33         6.3 0.18            132            148 259 
 SPBC HZ EP        623 36.84                             129    0.13 9  164 219 
 SPBC HN ES        623 59.28                             129    0.20 9  164 219 
 SPBC HZ I         624  5.25         9.5 0.24            131            164 219 
 ZAR  HZ EP   4    623 41.87                             123    1.34 0  203 292 
 ZAR  HN ES        624  6.18                             123    0.29 9  203 292 
 ZAR  HZ I         624 11.84         5.0 0.11            123            203 292 
 NOR  HN ES        624 11.53                             119   -0.33 8  235 234 
 CHI  HN ES   2    624 16.42                             117    0.98 4  249 195 
 URE  HZ EP        623 49.46                             114    0.34 7  283 292 
 URE  HN ES   4    624 19.21                             114   -1.97 0  283 292 
 URE  HZ I         624 29.47         3.0 0.20            115            283 292 
 SJC  HZ EP        624  2.34                             106   -1.21 6  408 327 
 SJC  HN ES   4    624 44.34                             106   -2.52 0  408 327 
 SJC  HZ I         624 48.20         1.0 0.37            107            408 327 
                                                                                
