 2017  7 3 0743 11.0 L   6.806 -73.138145.8  RSN 20 0.5 2.5LRSN                1
 GAP= 66        1.13       3.8     3.3  5.6  0.3039E+00  0.3269E+01  0.6405E+01E
 Epicentro: LOS SANTOS - SANTANDER                                             3
 ACTION:UPD 17-08-30 15:29 OP:rebc STATUS:               ID:20170703074311 L   I
 OLDACT:UP  17-07-03 17:12 OP:edw  STATUS:               ID:20170703073739     3
 OLDACT:REG 17-07-03 14:01 OP:edw  STATUS:               ID:20170703073739     3
 2017-07-03-0738-00M.COL___365                                                 6
 STAT SP IPHASW D HRMM SECON CODA AMPLIT PERI AZIMU VELO AIN AR TRES W  DIS CAZ7
 BAR2 EZ IP     D  743 30.42                             170   -0.1810 24.1 192 
 BAR2 EZ ES        743 45.69                             170   -0.2410 24.1 192 
 BAR2 EZ I         743 46.64        71.2 0.18            168           24.1 192 
 BRR  HZ IP     C  743 32.17                             152    0.0410 71.7 298 
 BRR  HN ES        743 49.29                             152    0.6410 71.7 298 
 BRR  HZ I         743 51.15        31.2 0.30            151           71.7 298 
 PAM  EZ EP     C  743 33.43                             151    0.3210 76.3  39 
 PAM  EN ES        743 50.63                             151    0.2410 76.3  39 
 PAM  EZ I         743 52.58        66.3 0.50            154           76.3  39 
 PTB  HZ EP   9    743 37.11                             132   -0.90 0  149 259 
 PTB  HN ES        743 58.16                             132   -0.06 9  149 259 
 PTB  HZ I         744  0.07        27.1 0.40            131            149 259 
 TAM  HZ IP     D  743 38.80                             131    0.24 9  154 105 
 TAM  HN ES        743 59.08                             131   -1.02 9  154 105 
 TAM  HZ I         743 59.39        10.6 0.38            133            154 105 
 SPBC HZ EP        743 39.33                             129   -0.22 9  164 219 
 SPBC HN ES        744  1.65                             129   -0.21 9  164 219 
 SPBC HZ I         744  3.81        62.6 0.26            128            164 219 
 YPLC HZ IP     D  743 40.84                             127    0.08 9  177 152 
 YPLC HN ES        744  4.95                             127    0.95 9  177 152 
 YPLC HZ I         744  5.73        41.3 0.26            127            177 152 
 ZAR  HZ EP        743 43.11                             122   -0.35 9  205 292 
 ZAR  HN ES        744  8.12                             122   -0.70 9  205 292 
 ZAR  HZ I         744 13.92        21.1 0.46            122            205 292 
 TABC EZ EP   4    743 48.00                             119    1.19 0  231 211 
 TABC EZ ES   4    744 11.81                             119   -2.96 0  231 211 
 TABC EZ I         744 18.66        21.8 0.40            119            231 211 
 NOR  HZ EP        743 46.49                             118   -0.31 8  236 234 
 NOR  HN ES        744 14.59                             118   -0.17 8  236 234 
 NOR  HZ I         744 19.07        24.6 0.26            118            236 234 
 ROSC BZ EP   4    743 50.53                             117    1.35 0  254 211 
 ROSC BN ES   4    744 21.92                             117    2.92 0  254 211 
 ROSC BZ I         744 24.98        29.8 0.40            116            254 211 
 HEL  HZ EP   4    743 52.56                             115    1.28 0  273 256 
 HEL  HN ES   4    744 21.72                             115   -1.01 0  273 256 
 HEL  HZ I         744 28.00        13.6 0.52            114            273 256 
 GUY2CHZ EP        743 55.32                             112    0.64 7  302 235 
 GUY2CHN ES   4    744 32.68                             112    3.89 0  302 235 
 GUY2CHZ I         744 36.65        14.6 0.36                           302 235 
 VIL  EZ EP        743 54.13                             112   -0.33 7  304 192 
 VIL  EN ES        744 27.81                             112   -0.58 7  304 192 
 VIL  EZ I         744 31.30        22.2 0.46            112            304 192 
 PTGC HZ IP   9 C  743 53.63                             111   -1.20 0  309 159 
 PTGC HN ES        744 27.18                             111   -0.68 7  309 159 
 PTGC HZ I         744 28.73        18.3 0.32            112            309 159 
 LL6C HZ EP   4    743 55.07                             110   -1.52 0  324 357 
 LL6C HN ES   4    744 29.45                             110   -2.73 0  324 357 
 CBOC HZ EP        743 58.80                             110    0.82 7  335 252 
 CBOC HN ES   4    744 33.30                             110   -1.37 0  335 252 
 CBOC HZ I         744 39.95         5.1 0.40            110            335 252 
 DBB  EZ EP   4    744  0.22                             109    1.70 0  340 274 
 DBB  EN ES   4    744 33.85                             109   -1.78 0  340 274 
 DBB  EZ I         744 36.94         6.4 0.20            109            340 274 
 ARGC HZ EP   4    744  1.49                             108    0.91 0  359 340 
 ARGC HN ES   4    744 42.02                             108    2.74 0  359 340 
 ORTC HZ EP        744  4.76                             106   -0.23 6  396 216 
 ORTC HN ES        744 48.11                             106    0.97 6  396 216 
 ORTC HZ I         744 51.78         8.9 0.22            106            396 216 
 PAL  HZ EP   4    744  5.23                             106   -1.01 0  407 239 
 PAL  HN ES   4    744 50.80                             106    1.44 0  407 239 
 CRJC HZ EP   4 C  744 10.88                             103   -2.49 0  467   3 
 CRJC HN ES   4    744 58.37                             103   -3.69 0  467   3 
 CRJC HZ I         745  5.51         9.7 0.44            104            467   3 
 SMAR HZ EP   2    744 15.95                             102   -0.83 2  497 346 
 SMAR HN ES   4    745  3.63                             102   -4.49 0  497 346 
 MACC HZ EP   4    744 17.15                             102   -2.60 0  521 189 
 MACC HN ES   4    745  9.88                             102   -3.53 0  521 189 
                                                                                
