 2012  3 3 0450 42.0 L   6.762 -73.121145.8  RSN  9 0.3 2.3LRSN                1
 GAP=141        0.81       3.3     4.3  4.9 -0.1017E+01  0.5787E+01  0.1808E+01E
 ACTION:UP  12-03-31 23:16 OP:EP   STATUS:               ID:20120303045042 L   I
 2012-03-03-0450-00M.COL___191                                                 6
 STAT SP IPHASW D HRMM SECON CODA AMPLIT PERI AZIMU VELO SNR AR TRES W  DIS CAZ7
 BAR2 SZ EP        451  1.57                             172     0.010   20 200 
 BAR2 SZ ES        451 16.61                             172    -0.210   20 200 
 BAR2 SZ I         451 18.82        47.4 0.40                            20 200 
 BRR  HZ EP        451  3.54                             151     0.110   76 300 
 BRR  HZ I         451  3.87        51.5 0.16                            76 300 
 BRR  HE ES        451 20.73                             151     0.610   76 300 
 PAM  SZ EP        451  4.42                             150     0.110   79  36 
 PAM  SN ES        451 21.51                             150    -0.210   79  36 
 RUS  HZ EP        451  5.73                             145     0.310   96 178 
 RUS  HE ES   1    451 23.49                             145    -0.3 7   96 178 
 RUS  HZ I         451 26.06        21.2 0.41                            96 178 
 OCA  SZ EP        451 10.70                             129     0.0 9  165 352 
 ZAR  HZ EP        451 14.43                             122    -0.5 8  208 293 
 ZAR  HE ES   1    451 40.01                             122    -0.5 6  208 293 
 ZAR  HZ I         451 46.50        30.4 0.34                           208 293 
 NOR  SZ EP   1    451 17.46                             118    -0.3 6  235 236 
 NOR  SE ES   1    451 45.58                             118     0.0 6  235 236 
 CHI  HZ EP        451 19.65                             117     0.3 8  245 196 
 CHI  HN ES   1    451 48.22                             117    -0.3 6  245 196 
 CHI  HZ I         451 58.32        10.1 0.60                           245 196 
 HEL  HZ EP   1    451 22.70                             115     0.3 6  274 257 
 HEL  HZ I         451 59.12         9.0 0.28                           274 257 
                                                                                
