 2013  4 3 0751 22.8 L   6.800 -73.163144.9  RSN  8 0.5 1.6LRSN                1
 GAP=134        0.94       4.6     5.2  8.0  0.5110E+00  0.8430E+01  0.7572E+00E
 Epicentro: LOS SANTOS - SANTANDER                                             3
 ACTION:UPD 13-05-22 14:35 OP:EP   STATUS:               ID:20130403075122 L   I
 2013-04-03-0750-00M.COL___245                                                 6
 STAT SP IPHASW D HRMM SECON CODA AMPLIT PERI AZIMU VELO AIN AR TRES W  DIS CAZ7
 BAR2 SZ EP        751 42.35                             171    0.0110 23.1 185 
 BAR2 SZ ES   1    751 57.50                             171   -0.07 7 23.1 185 
 BAR2 SZ I         751 58.22        17.9 0.36            170           23.1 185 
 BRR  HZ IP     C  751 44.10                             153    0.3210 69.6 299 
 BRR  HN ES   1    752  1.05                             153    0.92 7 69.6 299 
 BRR  HZ I         752  4.94         8.3 0.10            151           69.6 299 
 PAM  SZ EP        751 44.99                             150   -0.0310 78.6  41 
 PAM  SN ES   1    752  2.23                             150   -0.10 7 78.6  41 
 PAM  SZ I         752  3.68         8.7 0.40            155           78.6  41 
 RUS  HZ EP   1    751 46.44                             144   -0.06 7  101 175 
 RUS  HN ES   1    752  4.77                             144   -0.20 7  101 175 
 RUS  HZ I         752  5.89         2.9 0.28            147            101 175 
 PTB  HZ EP   1    751 48.88                             132   -0.67 7  146 259 
 PTB  HN ES   1    752  9.70                             132   -0.70 7  146 259 
 PTB  HZ I         752 15.97         5.6 0.14            133            146 259 
 OCA  HN ES   2    752 11.86                             129   -1.19 5  160 354 
 ZAR  HZ EP   1    751 55.78                             122    0.75 6  202 292 
 ZAR  HE ES   1    752 19.95                             122   -0.20 6  202 292 
 CHI  HN ES   1    752 30.13                             117    0.38 6  248 195 
                                                                                
