 2010  3 3 0048 45.7 L   6.790 -73.013146.1  RSN  8 0.3 2.4LRSN                1
 GAP=196        0.63       2.8     6.5  4.8  0.6111E+00  0.2578E+01  0.1454E+01E
 Epicentro: CEPITA - SANTANDER                                                 3
 ACTION:UP  10-08-24 09:51 OP:vdl  STATUS:               ID:20100303004846 L   I
 2010-03-03-0045-48S.COL___094                                                 6
 STAT SP IPHASW D HRMM SECON CODA AMPLIT PERI AZIMU VELO SNR AR TRES W  DIS CAZ7
 BAR2 SZ EP        049  5.72                             168     0.310   29 221 
 BAR2 SZ ES   1    049 20.61                             168    -0.3 7   29 221 
 BRR  HZ EP        049  7.58                             148    -0.110   85 294 
 BRR  HZ I         049  7.75        39.0 0.15                            85 294 
 BRR  HN ES   1    049 24.72                             148    -0.1 7   85 294 
 RUS  BZ EP        049  9.59                             144     0.210  100 185 
 RUS  BN ES   1    049 27.86                             144     0.0 7  100 185 
 RUS  BZ I         049 29.34        20.1 0.52                           100 185 
 OCA  SZ EP        049 14.09                             129    -0.2 9  164 348 
 OCA  SZ ES   2    049 37.05                             129     0.4 5  164 348 
 OCA  SZ I         049 40.17        43.9 0.20                           164 348 
 CHI  HZ EP        049 23.77                             117     0.1 8  252 198 
 CHI  HE ES   1    049 53.05                             117    -0.4 6  252 198 
 CHI  HZ I         050  1.46         9.6 0.57                           252 198 
 HEL  HZ EP   2    049 27.33                             113    -0.1 4  286 257 
 HEL  HN ES   3    049 59.85                             113    -0.2 2  286 257 
 HEL  HZ I         050  5.35         7.8 0.23                           286 257 
 RREF BZ EP   1    049 33.30                             110     0.3 5  332 231 
 RREF BN ES   2    050 11.09                             110     1.1 3  332 231 
 RREF BZ I         050 17.35        13.1 0.33                           332 231 
 PRA  HZ EP   1    049 39.30                             106    -0.6 4  398 212 
 PRA  HN ES   2    050 21.92                             106    -0.4 3  398 212 
 PRA  HZ I         050 27.25        13.8 0.36                           398 212 
                                                                                
