 2016  8 3 0419  4.2 L   6.801 -73.066150.5  RSN 21 0.5 2.3LRSN                1
 GAP= 72        1.12       2.9     3.1  5.0 -0.4170E+00  0.5280E+01  0.1332E+01E
 Epicentro: LOS SANTOS - SANTANDER                                             3
 ACTION:UPD 16-10-29 15:31 OP:rebc STATUS:               ID:20160803041904 L   I
 OLDACT:UP  16-08-03 15:41 OP:edw  STATUS:               ID:20160803041742     3
 OLDACT:REG 16-08-03 12:56 OP:edw  STATUS:               ID:20160803041742     3
 2016-08-03-0418-00M.COL___353                                                 6
 STAT SP IPHASW D HRMM SECON CODA AMPLIT PERI AZIMU VELO AIN AR TRES W  DIS CAZ7
 BAR2 EZ EP        419 24.48                             170    0.0610 26.4 209 
 BAR2 HN ES        419 40.09                             170   -0.1410 26.4 209 
 BAR2 EZ I         419 42.31        53.4 0.30                          26.4 209 
 PAM  EZ EP        419 27.23                             153    0.6510 72.0  34 
 PAM  EN ES        419 44.46                             153    0.3910 72.0  34 
 PAM  EZ I         419 46.77        28.0 0.18                          72.0  34 
 BRR  HZ IP     C  419 26.37                             151    0.1110 79.0 295 
 BRR  HN ES        419 43.61                             151    0.1010 79.0 295 
 BRR  HZ I         419 47.68        47.2 0.24                          79.0 295 
 RUS  HZ EP        419 28.34                             145   -0.0310  100 181 
 RUS  HN ES        419 47.28                             145    0.0310  100 181 
 RUS  HZ I         419 48.33        19.4 0.28                           100 181 
 TAM  HZ EP   4    419 32.68                             133    1.23 0  147 106 
 TAM  HN ES        419 53.12                             133    0.37 9  147 106 
 SPBC HZ EP        419 33.38                             129   -0.18 9  169 221 
 SPBC HN ES        419 55.71                             129   -0.79 9  169 221 
 SPBC HZ I         419 57.74        46.2 0.12                           169 221 
 ZAR  HZ EP        419 38.45                             122    0.70 8  212 291 
 ZAR  HN ES        420  3.51                             122   -0.44 8  212 291 
 ZAR  HZ I         420 10.44        19.2 0.10                           212 291 
 NOR  HZ EP        419 40.47                             119   -0.46 8  242 236 
 NOR  HN ES        420  9.14                             119   -0.49 8  242 236 
 NOR  HZ I         420 12.62        21.9 0.20                           242 236 
 ROSC BZ EP        419 43.41                             117    0.36 8  257 213 
 ROSC BN ES        420 13.57                             117    0.19 8  257 213 
 ROSC BZ I         420 20.72        25.4 0.50                           257 213 
 HEL  HZ EP        419 46.50                             115    0.95 7  281 256 
 HEL  HN ES        420 17.54                             115   -0.31 7  281 256 
 HEL  HZ I         420 22.82        10.2 0.32                           281 256 
 URE  HZ EP        419 46.78                             114    0.42 7  292 291 
 URE  HN ES        420 19.78                             114    0.49 7  292 291 
 SOCV BZ EP   4    419 47.08                             114    0.48 0  294  56 
 SOCV BN ES   4    420 18.99                             114   -0.71 0  294  56 
 PTGC HZ EP        419 47.26                             113   -0.63 7  306 160 
 PTGC HN ES        420 20.64                             113   -1.36 7  306 160 
 GUY2CHZ EP   2    419 49.04                             113    0.24 4  308 236 
 GUY2CHN ES   2    420 23.68                             113    0.05 4  308 236 
 GUY2CHZ I         420 31.05        11.7 0.26                           308 236 
 LL6C HZ EP        419 49.01                             111   -1.09 7  325 356 
 LL6C HN ES        420 25.03                             111   -0.92 7  325 356 
 ELA  HZ EP        419 52.45                             111    0.47 7  336 230 
 ELA  HN ES        420 29.85                             111    0.56 7  336 230 
 ELA  HZ I         420 37.18         7.2 0.30                           336 230 
 CBOC HZ EP        419 52.39                             110    0.16 7  342 253 
 CBOC HN ES        420 28.89                             110   -0.84 7  342 253 
 CBOC HZ I         420 31.16         2.4 0.62                           342 253 
 PRA  HZ EP        419 58.38                             107    0.02 6  396 211 
 PRA  HE ES        420 41.78                             107    1.13 6  396 211 
 PRA  HZ I         420 46.08        14.0 0.32                           396 211 
 PAL  HZ EP        420  0.35                             106   -0.01 6  413 240 
 PAL  HN ES        420 44.17                             106   -0.04 6  413 240 
 PAL  HZ I         420 54.00         3.3 0.38                           413 240 
 SJC  HZ EP   4    419 58.75                             106   -1.68 0  414 326 
 SJC  HN ES   4    420 39.64                             106   -4.69 0  414 326 
 SJC  HZ I         420 45.67         4.3 0.28                           414 326 
 CRJC HZ EP   9    420  4.89                             104   -1.83 0  467   2 
 CRJC HE ES        420 53.24                             104   -0.46 5  467   2 
 SMAR HZ EP        420  9.76                             103   -0.64 4  499 345 
 SMAR HN ES   4    420 57.80                             103   -4.27 0  499 345 
                                                                                
