 2011  1 3 0118 34.2 L   6.952 -72.991157.6  RSN  5 0.3 1.7LRSN                1
 GAP=174        0.68       3.4     8.7  9.4 -0.7705E+01  0.2341E+02  0.8037E+00E
 Epicentro: PIEDECUESTA - SANTANDER                                            3
 ACTION:UP  11-02-08 08:38 OP:pat  STATUS:               ID:20110103011834 L   I
 2011-01-03-0113-55S.COL___136                                                 6
 STAT SP IPHASW D HRMM SECON CODA AMPLIT PERI AZIMU VELO SNR AR TRES W  DIS CAZ7
 GRA  SZ IP        118 58.77                             145    -0.210  105  11 
 GRA  SZ ES   1    119 18.38                             145     0.1 7  105  11 
 GRA  SZ I         119 19.39        15.0 0.37                           105  11 
 RUS  HZ EP   1    119  0.57                             142     0.2 7  118 185 
 RUS  HE ES   1    119 20.91                             142     0.1 7  118 185 
 RUS  HZ I         119 21.82         7.7 0.41                           118 185 
 OCA  SZ EP   1    119  2.76                             135     0.5 7  147 346 
 OCA  SZ ES   1    119 23.96                             135    -0.2 7  147 346 
 OCA  SZ I         119 29.97         4.9 0.29                           147 346 
 CHI  HN ES   2    119 45.60                             117    -0.9 4  270 198 
 CHI  HZ I         119 48.10         1.3 0.22                           270 198 
 HEL  HZ EP   2    119 17.30                             115    -0.1 4  293 253 
 HEL  HE ES   2    119 51.16                             115     0.2 4  293 253 
 HEL  HZ I         119 55.10         3.3 0.23                           293 253 
                                                                                
