 2017  5 3 0652 58.0 L   6.794 -73.159146.5  RSN 18 0.4 2.3LRSN                1
 GAP=111        1.00       3.4     3.3  5.7  0.1410E+00  0.2525E+01  0.4332E+01E
 Epicentro: LOS SANTOS - SANTANDER                                             3
 ACTION:UPD 17-06-16 13:32 OP:jn   STATUS:               ID:20170503065258 L   I
 OLDACT:UP  17-05-03 18:20 OP:edw  STATUS:               ID:20170503064738     3
 OLDACT:REG 17-05-03 12:00 OP:edw  STATUS:               ID:20170503064738     3
 2017-05-03-0648-00M.COL___365                                                 6
 STAT SP IPHASW D HRMM SECON CODA AMPLIT PERI AZIMU VELO AIN AR TRES W  DIS CAZ7
 BRR  HZ EP        653 19.33                             153    0.1610 70.3 300 
 BRR  HN ES        653 36.52                             153    0.8410 70.3 300 
 BRR  HZ I         653 38.20        24.6 0.10            152           70.3 300 
 PAM  EZ EP        653 20.34                             150   -0.0310 78.8  40 
 PAM  EE ES        653 37.55                             150   -0.2710 78.8  40 
 PAM  EZ I         653 39.63        53.5 0.52            154           78.8  40 
 RUS  HZ EP        653 21.45                             144   -0.3210  100 175 
 RUS  HN ES        653 40.17                             144   -0.1510  100 175 
 RUS  HZ I         653 41.20        28.9 0.24            143            100 175 
 PTB  HZ EP        653 24.05                             132   -0.83 9  146 259 
 PTB  HN ES        653 45.18                             132   -0.67 9  146 259 
 PTB  HZ I         653 47.15        16.8 0.40            131            146 259 
 SPBC HZ EP        653 26.30                             129   -0.11 9  162 219 
 SPBC HN ES        653 48.67                             129    0.09 9  162 219 
 SPBC HZ I         653 51.00        44.6 0.40            128            162 219 
 YPLC HZ EP     D  653 27.85                             127    0.00 9  177 151 
 YPLC HE EP        653 28.00                             127    0.15 9  177 151 
 YPLC HN ES        653 51.53                             127    0.40 9  177 151 
 YPLC HZ I         653 54.66        25.0 0.28            127            177 151 
 YPLC HE I         653 55.51        39.5 0.48                           177 151 
 ZAR  HZ ES   4    653 52.91                             122   -2.72 0  203 292 
 TABC EZ EP        653 33.95                             119    0.30 8  229 210 
 TABC EZ ES   4    653 57.60                             119   -3.85 0  229 210 
 TABC EZ I         654  5.52        14.6 0.44            119            229 210 
 NOR  HZ EP        653 33.82                             119    0.22 8  233 234 
 NOR  HN ES        654  1.72                             119    0.35 8  233 234 
 NOR  HZ I         654  3.98        17.1 0.16            118            233 234 
 CHI  HZ EP   9    653 35.72                             117    0.10 0  248 195 
 CHI  HN ES        654  4.35                             117   -0.72 8  248 195 
 CHI  HZ I         654  8.42        13.3 0.56            117            248 195 
 ROSC BZ EP   4    653 37.28                             117    1.27 0  251 211 
 ROSC BN ES   4    654  8.41                             117    2.75 0  251 211 
 ROSC BZ I         654 11.27        19.2 0.45            116            251 211 
 HEL  HZ EP   4    653 39.64                             115    1.57 0  271 256 
 HEL  HN ES        654  9.17                             115   -0.16 8  271 256 
 HEL  HZ I         654 15.51        11.2 0.28            115            271 256 
 VIL  EN ES        654 15.08                             112   -0.06 7  302 191 
 PTGC HZ EP   9 D  653 40.58                             112   -1.29 0  309 158 
 PTGC HN ES        654 14.09                             111   -0.71 7  309 158 
 PTGC HZ I         654 18.89        15.0 0.30            112            309 158 
 ELA  HZ EP   4    653 46.71                             110    2.01 0  328 229 
 ELA  HN ES   4    654 23.41                             110    2.28 0  328 229 
 ELA  HZ I         654 30.17         6.4 0.24            110            328 229 
 CBOC HZ EP   4    653 45.79                             110    1.03 0  332 252 
 CBOC HN ES   4    654 19.70                             110   -1.53 0  332 252 
 CBOC HZ I         654 27.00         3.3 0.42            110            332 252 
 DBB  EZ EP        653 45.77                             110    0.43 7  338 274 
 DBB  EN ES   4    654 20.50                             110   -1.77 0  338 274 
 DBB  EZ I         654 22.12         5.1 0.40            110            338 274 
 ANIL HN ES   4    654 29.72                             109    3.33 0  356 224 
 ARGC HZ EP   4    653 48.56                             108    0.87 0  359 341 
 ARGC HN ES   4    654 26.80                             108    0.34 0  359 341 
 ORTC HZ EP        653 51.80                             106    0.03 6  394 216 
 ORTC HN ES   4    654 35.35                             106    1.63 0  394 216 
 ORTC HZ I         654 38.76         6.3 0.34            106            394 216 
 SJC  HZ EP   4    653 51.38                             106   -2.17 0  409 327 
 SJC  HN ES   4    654 32.14                             106   -4.75 0  409 327 
 SJC  HZ I         654 40.55         3.5 0.54            106            409 327 
                                                                                
