 2015  4 3 0647 36.7 L   6.795 -73.130138.6  RSN 17 0.5 2.2LRSN                1
 GAP= 72        1.13       3.1     3.3  5.6 -0.3520E+00  0.5996E+01  0.6090E+00E
 Epicentro: LOS SANTOS - SANTANDER                                             3
 ACTION:UPD 15-06-03 16:52 OP:cam  STATUS:               ID:20150403064736 L   I
 OLDACT:UP  15-04-03 15:26 OP:mh   STATUS:               ID:20150403063739     3
 OLDACT:UP  15-04-03 15:25 OP:mh   STATUS:               ID:20150403063739     3
 OLDACT:REG 15-04-03 12:58 OP:mh   STATUS:               ID:20150403063739     3
 2015-04-03-0637-39M.COL___283                                                 6
 STAT SP IPHASW D HRMM SECON CODA AMPLIT PERI AZIMU VELO AIN AR TRES W  DIS CAZ7
 BAR2 EZ EP        647 55.54                             170    0.1310 23.2 194 
 BAR2 EZ ES        648 10.20                             170    0.1610 23.2 194 
 BAR2 EZ I         648 11.30        40.7 0.16            170           23.2 194 
 BRR  HZ EP     C  647 57.50                             151    0.3710 73.0 298 
 BRR  HN ES   1    648 13.95                             151    0.85 7 73.0 298 
 BRR  HZ I         648 18.18        24.8 0.26            149           73.0 298 
 PAM  SZ EP        647 58.48                             150    0.4210 76.7  38 
 PAM  SN ES   1    648 15.17                             150    0.41 7 76.7  38 
 PAM  SZ I         648 17.86        33.8 0.56            152           76.7  38 
 RUS  HZ EP        647 59.59                             142   -0.0610100.0 177 
 RUS  HN ES        648 16.94                             142   -0.6610100.0 177 
 RUS  HZ I         648 18.47        16.4 0.22            145          100.0 177 
 PTB  HZ EP        648  2.43                             130   -0.76 9  149 259 
 PTB  HN ES        648 23.27                             130   -0.62 9  149 259 
 PTB  HZ I         648 25.32        34.1 0.18            130            149 259 
 TAM  HZ EP   1    648  3.57                             129   -0.03 7  153 105 
 TAM  HN ES        648 24.75                             129    0.14 9  153 105 
 OCA  HZ EP        648  4.05                             128   -0.43 9  161 353 
 OCA  HN ES        648 25.22                             128   -0.97 9  161 353 
 OCA  HZ I         648 29.30        34.4 0.45            129            161 353 
 SPBC HZ EP   1    648  4.52        26.0 0.22            127   -0.15 7  164 220 
 SPBC HN ES   1    648 26.47                             127   -0.06 7  164 220 
 ZAR  HZ EP        648  8.61                             120   -0.21 8  206 292 
 ZAR  HN ES        648 34.54                             120    0.62 8  206 292 
 ZAR  HZ I         648 42.31        19.1 0.50            121            206 292 
 SML  HZ EP        648 12.30                             116   -0.71 8  245 335 
 SML  HN ES        648 42.13                             116    0.76 8  245 335 
 SML  HZ I         648 49.40        11.5 0.26            117            245 335 
 ROSC BZ EP        648 15.14                             115    0.70 8  253 211 
 ROSC BN ES   4    648 45.52                             115    1.61 0  253 211 
 ROSC BZ I         648 51.27        15.0 0.45            117            253 211 
 HEL  HZ EP   1    648 17.50                             113    0.82 6  274 256 
 HEL  HN ES        648 47.80                             113   -0.10 8  274 256 
 HEL  HZ I         648 54.46        13.2 0.26            114            274 256 
 URE  HZ EP   4    648 19.36                             112    1.78 0  286 292 
 URE  HN ES   4    648 48.34                             112   -1.16 0  286 292 
 URE  HZ I         648 49.42        10.8 0.16            113            286 292 
 GUY2CHZ EP        648 19.77                             111   -0.29 7  302 235 
 GUY2CHN ES   4    648 57.01                             111    3.09 0  302 235 
 GUY2CHZ I         649  0.69         8.1 0.26                           302 235 
 CBOC HZ EP        648 23.85                             108    0.40 7  335 252 
 CBOC HN ES        648 59.75                             108   -0.20 7  335 252 
 CBOC HZ I         649  5.15         3.8 0.46            110            335 252 
 TOL  SZ EP        648 25.09                             108    0.37 7  344 225 
 TOL  SN ES   4    649  3.62                             108    1.40 0  344 225 
 ORTC HZ EP        648 30.58                             105    0.18 6  396 216 
 ORTC HN ES        649 12.83                             105    0.50 6  396 216 
 ORTC HZ I         649 16.97         3.9 0.60            106            396 216 
                                                                                
