 2013 10 3 0643 37.6 L   6.814 -73.290158.8  RSN  4 0.1 1.3LRSN                1
 GAP=235        0.43       2.1     6.0  4.2 -0.4079E+01 -0.1064E+02  0.3602E+00E
 Epicentro: ZAPATOCA - SANTANDER                                               3
 ACTION:UPD 13-11-25 09:18 OP:ep   STATUS:               ID:20131003064337 L   I
 OLDACT:REG 13-10-03 05:44 OP:nd   STATUS:               ID:20131003063959     3
 2013-10-03-0639-59M.COL___273                                                 6
 STAT SP IPHASW D HRMM SECON CODA AMPLIT PERI AZIMU VELO AIN AR TRES W  DIS CAZ7
 BRR  HZ EP        643 59.58                             159    0.1310 56.8 305 
 BRR  HN ES        644 16.54                             159    0.0210 56.8 305 
 BRR  HZ I         644 31.33         4.6 0.64            166           56.8 305 
 PTB  HZ EP        644  4.53                             138    0.1910  132 257 
 PTB  HN ES        644 25.24                             138    0.0210  132 257 
 PTB  HZ I         644 31.43         2.1 0.38            151            132 257 
 SPBC HZ EP        644  6.41                             133    0.06 9  155 214 
 SPBC HN ES        644 28.57                             133   -0.23 9  155 214 
 SPBC HZ I         644 30.71         1.9 0.24            147            155 214 
 SML  HZ EP        644 13.91                             121   -0.24 8  236 339 
 SML  HN ES        644 42.63                             121   -0.06 8  236 339 
 SML  HZ I         644 46.36         1.9 0.10            130            236 339 
                                                                                
