 2014  3 3 0755 32.8 L   6.810 -73.180146.9  RSN  6 0.2 1.2LRSN                1
 GAP=132        0.36       1.6     3.1  4.1 -0.1715E+00  0.6053E+01 -0.1316E+01E
 Epicentro: LOS SANTOS - SANTANDER                                             3
 ACTION:UPD 14-04-09 23:14 OP:nd   STATUS:               ID:20140303075532 L   I
 OLDACT:REG 14-03-03 09:21 OP:stll STATUS:               ID:20140303074814     3
 2014-03-03-0748-14M.COL___232                                                 6
 STAT SP IPHASW D HRMM SECON CODA AMPLIT PERI AZIMU VELO AIN AR TRES W  DIS CAZ7
 PAM  SZ EP        755 55.34                             150    0.0610 79.1  42 
 PAM  SN ES        756 12.76                             150   -0.0310 79.1  42 
 PAM  SZ I         756 14.87         4.0 0.66            153           79.1  42 
 RUS  HZ EP        755 56.87                             143    0.0610  102 174 
 RUS  HN ES        756 15.36                             143   -0.1410  102 174 
 RUS  HZ I         756 16.70         1.8 0.22            146            102 174 
 PTB  HZ EP   2    755 59.86                             133    0.27 5  144 258 
 PTB  HN ES   2    756 20.67                             133    0.22 5  144 258 
 PTB  HZ I         756 22.65         1.9 0.16            135            144 258 
 OCA  HE ES   2    756 23.42                             130    0.27 5  159 354 
 SML  HZ EP   1    756  9.24                             118   -0.02 6  241 336 
 SML  HN ES   1    756 37.51                             118   -0.15 6  241 336 
 SJC  HN ES   2 C  757 10.58                             106   -0.61 3  406 327 
                                                                                
