 2010  9 3 0346 39.2 L   6.785 -72.970124.7  RSN  5 0.6 1.2LRSN                1
 GAP=179        1.41      12.6    18.5 20.1  0.6333E+02 -0.1941E+03 -0.1381E+03E
 Epicentro: CEPITA - SANTANDER                                                 3
 ACTION:UP  11-02-18 10:59 OP:tino STATUS:               ID:20100903034639 L   I
 2010-09-03-0344-08S.COL___120                                                 6
 STAT SP IPHASW D HRMM SECON CODA AMPLIT PERI AZIMU VELO SNR AR TRES W  DIS CAZ7
 BAR2 SZ EP   1    346 56.96                             166     0.4 7   32 228 
 BAR2 SZ ES   1    347  9.31                             166    -0.8 7   32 228 
 BAR2 SZ I         347 13.63        10.8 0.18                            32 228 
 BRR  HZ EP        346 58.77                             143    -0.610   89 294 
 BRR  HN ES   1    347 15.85                             143     0.7 7   89 294 
 BRR  HZ I         347 19.68         5.2 0.44                            89 294 
 RUS  HZ EP   2    347  0.58                             140    -0.3 5  100 187 
 RUS  HE ES   2    347 18.75                             140     1.0 5  100 187 
 RUS  HZ I         347 20.74         1.9 0.43                           100 187 
 GUE  SZ EP   2    347  2.10                             135     0.1 5  116   2 
 GUE  SZ I         347  3.60         1.7 0.18                           116   2 
 GRA  SZ EP        347  2.66                             132     0.310  123   9 
 GRA  SZ I         347  4.07         2.5 0.10                           123   9 
                                                                                
