 2017  4 3 0535 10.7 L   6.730 -73.178152.8  RSN  6 0.3 1.3LRSN                1
 GAP=212        0.53       5.8     4.3  5.5  0.8681E+01 -0.8730E+01 -0.8740E+01E
 Epicentro: VILLANUEVA - SANTANDER                                             3
 ACTION:UPD 17-05-30 21:07 OP:jn   STATUS:               ID:20170403053510 L   I
 OLDACT:UP  17-04-03 16:26 OP:and  STATUS:               ID:20170403052742d    3
 OLDACT:UP  17-04-03 16:26 OP:and  STATUS:               ID:20170403052742d    3
 OLDACT:UP  17-04-03 16:26 OP:and  STATUS:               ID:20170403052742d    3
 OLDACT:DUP 17-04-03 16:24 OP:and  STATUS:               ID:20170403052742d    3
 2017-04-03-0528-00M.COL___362                                                 6
 STAT SP IPHASW D HRMM SECON CODA AMPLIT PERI AZIMU VELO AIN AR TRES W  DIS CAZ7
 BAR2 EZ EP   2    535 30.70                             174   -0.38 5 15.2 182 
 BAR2 EZ ES   2    535 46.68                             174   -0.27 5 15.2 182 
 BAR2 EZ I         535 47.70         4.8 0.34            173           15.2 182 
 BRR  HZ EP   2    535 32.66                             153   -0.04 5 72.3 305 
 BRR  HN ES   2    535 50.08                             153    0.23 5 72.3 305 
 BRR  HZ I         535 55.06         3.0 0.14            151           72.3 305 
 RUS  HZ EP        535 35.07                             147    0.3910 93.2 174 
 RUS  HN ES   2    535 53.10                             147   -0.26 5 93.2 174 
 RUS  HZ I         535 54.61         2.6 0.36            150           93.2 174 
 PTB  HZ EP        535 37.78                             135   -0.08 9  143 262 
 PTB  HN ES        535 58.97                             135   -0.05 9  143 262 
 PTB  HZ I         536  3.99         2.1 0.13            134            143 262 
 SPBC HZ EP   9    535 40.10                             132    1.08 0  155 220 
 SPBC HN ES        536  2.07                             131   -0.10 9  155 220 
 SPBC HZ I         536  5.09         3.3 0.16            133            155 220 
 PTGC HZ EP   2    535 53.48                             113   -0.77 4  303 157 
                                                                                
