 2012  7 3 0944 17.5 L   6.755 -73.161138.5  RSN 12 0.3 2.2LRSN                1
 GAP=114        0.71       2.5     3.2  4.1 -0.2052E+00  0.2294E+01  0.2578E+01E
 Epicentro: LOS SANTOS - SANTANDER                                             3
 ACTION:UPD 12-08-14 11:42 OP:ep   STATUS:               ID:20120703094417 L   I
 2012-07-03-0940-00M.COL___200                                                 6
 STAT SP IPHASW D HRMM SECON CODA AMPLIT PERI AZIMU VELO AIN AR TRES W  DIS CAZ7
 BAR2 SZ EP        944 36.45                             172     0.310   18 187 
 BAR2 SZ ES        944 50.24                             172    -0.410   18 187 
 BAR2 SZ I         944 53.22        99.8 0.50            166             18 187 
 BRR  HZ EP        944 38.18                             151     0.310   72 303 
 BRR  HE ES        944 54.23                             151     0.410   72 303 
 BRR  HZ I         944 57.66        36.8 0.20            142             72 303 
 PAM  SZ EP        944 39.17                             148     0.010   82  38 
 PAM  SE ES   1    944 56.15                             148     0.0 7   82  38 
 RUS  HZ EP        944 40.08                             144    -0.110   96 175 
 RUS  HE ES   1    944 57.88                             144     0.0 7   96 175 
 RUS  HZ I         945  0.38        21.1 0.26            139             96 175 
 PTB  HZ EP   1    944 43.43                             131    -0.2 7  145 261 
 PTB  HN ES   1    945  4.15                             131     0.1 7  145 261 
 PTB  HZ I         945  5.87        12.5 0.25            122            145 261 
 OCA  HZ EP   1    944 45.49                             127    -0.2 7  165 354 
 OCA  HN ES   1    945  7.29                             127    -0.4 7  165 354 
 OCA  HZ I         945 10.13        40.5 0.26            122            165 354 
 YOP  SZ EP   1    944 47.07                             125     0.4 7  175 152 
 ZAR  HZ EP   1    944 48.97                             121    -0.5 6  204 294 
 ZAR  HE ES   1    945 14.20                             121    -0.3 6  204 294 
 ZAR  HZ I         945 20.69        16.5 0.20            114            204 294 
 NOR  SZ EP        944 52.33                             117     0.0 8  230 235 
 NOR  SE ES   1    945 19.48                             117     0.0 6  230 235 
 CHI  HZ EP        944 54.22                             116     0.0 8  243 195 
 CHI  HN ES   1    945 22.73                             116    -0.1 6  243 195 
 CHI  HZ I         945 29.69         9.0 0.48            111            243 195 
 HEL  HZ EP   1    944 57.39                             113     0.4 6  269 257 
 HEL  HZ I         945 34.39         6.9 0.26            108            269 257 
 PRA  HZ EP   1    945  9.84                             105    -0.3 4  387 210 
 PRA  HE ES   1    945 50.54                             105    -0.7 4  387 210 
