 2011 10 3 0958 39.2 L   6.829 -72.995144.7  RSN  4 0.1 1.5LRSN                1
 GAP=198        0.35       4.1     8.4  5.4  0.2546E+02 -0.2950E+02 -0.1445E+02E
 Epicentro: CEPITA - SANTANDER                                                 3
 ACTION:UPD 12-07-13 16:01 OP:ep   STATUS:               ID:20111003095839 L   I
 2011-10-03-0956-53S.COL___168                                                 6
 STAT SP IPHASW D HRMM SECON CODA AMPLIT PERI AZIMU VELO AIN AR TRES W  DIS CAZ7
 BAR2 SZ EP   1    958 59.12                             166    0.18 7 33.4 218 
 BAR2 SZ ES   1    959 14.41                             166    0.07 7 33.4 218 
 BAR2 SZ I         959 17.11        10.0 0.35                          33.4 218 
 BRR  HZ EP   1    959  1.05                             148   -0.01 7 85.0 291 
 BRR  HE ES   1    959 18.12                             148   -0.01 7 85.0 291 
 BRR  HZ I         959 20.22         5.3 0.46                          85.0 291 
 RUS  HZ EP   1    959  3.16                             143    0.07 7  104 185 
 RUS  HN ES   1    959 21.54                             143   -0.19 7  104 185 
 RUS  HZ I         959 23.65         3.0 0.36                           104 185 
 OCA  SZ EP   1    959  7.25                             129   -0.14 7  160 347 
 OCA  SZ I         959 43.27         4.0 0.35                           160 347 
                                                                                
