 2012  1 3 0316 26.5 L   6.546 -73.560103.7  RSN  9 0.5 1.7LRSN                1
 GAP= 62        1.08       6.3     5.9  9.7  0.2854E+01  0.2052E+02  0.8237E+01E
 Epicentro: EL CARMEN DE CHUCURI - SANTANDER                                   3
 ACTION:UP  12-02-03 08:13 OP:REBC STATUS:               ID:20120103031626 L   I
 2012-01-03-0310-00M.COL___185                                                 6
 STAT SP IPHASW D HRMM SECON CODA AMPLIT PERI AZIMU VELO SNR AR TRES W  DIS CAZ7
 BAR2 SZ IP     C  316 42.11                             156     0.310   42  83 
 BAR2 SZ ES   1    316 53.86                             156     0.1 7   42  83 
 BAR2 SZ I         316 55.64        82.1 0.42                            42  83 
 BRR  HZ EP        316 42.90                             146     0.110   64 345 
 BRR  HZ I         316 43.09        17.8 0.10                            64 345 
 BRR  HN ES   2    316 56.25                             146     0.7 5   64 345 
 RUS  HZ EP   2    316 45.20                             136    -0.2 5   89 144 
 RUS  HN ES   2    317  0.43                             136     0.2 5   89 144 
 RUS  HZ I         317  2.24         4.8 0.22                            89 144 
 PTB  HZ EP        316 44.94                             133    -0.710   99 270 
 PTB  HN ES   2    316 59.79                             133    -0.8 5   99 270 
 PTB  HZ I         317  1.12         8.6 0.40                            99 270 
 PAM  SZ EP        316 48.62                             125    -0.510  129  47 
 PAM  SN ES   3    317  6.12                             125    -0.7 2  129  47 
 ZAR  HZ EP        316 54.25                             115     0.6 9  178 306 
 ZAR  HZ I         317 18.53        15.7 0.32                           178 306 
 NOR  SN ES   3    317 15.55                             115    -0.1 2  181 233 
 CHI  HZ EP        316 58.36                             110     0.3 8  213 185 
 CHI  HZ I         317 24.78         1.7 0.64                           213 185 
 HEL  HZ EP   2    316 59.57                             110     0.5 4  221 260 
                                                                                
