 2011 11 3 0443  5.3 L   6.796 -73.042143.6  RSN  4 0.3 1.4LRSN                1
 GAP=150        0.67       5.1     7.2  7.7  0.9717E+01 -0.1761E+02 -0.2643E+01E
 Epicentro: LOS SANTOS - SANTANDER                                             3
 ACTION:UPD 12-07-13 16:07 OP:ep   STATUS:               ID:20111103044305 L   I
 2011-11-03-0439-56S.COL___176                                                 6
 STAT SP IPHASW D HRMM SECON CODA AMPLIT PERI AZIMU VELO AIN AR TRES W  DIS CAZ7
 BAR2 SZ EP   1    443 24.34                             169   -0.44 7 27.4 214 
 BAR2 SZ ES   1    443 39.61                             169   -0.35 7 27.4 214 
 BAR2 SZ I         443 41.79         5.5 0.32                          27.4 214 
 PAM  SZ EP   1    443 27.16                             153    0.23 7 71.0  32 
 PAM  SN ES   2    443 43.84                             153    0.05 5 71.0  32 
 BRR  HZ EP   1    443 26.44                             149   -0.42 7 81.6 295 
 BRR  HZ I         443 26.86        10.7 0.17                          81.6 295 
 BRR  HE ES        443 43.91                             149    0.2510 81.6 295 
 RUS  HZ EP   1    443 29.22                             143    0.41 7  100 183 
 RUS  HE ES   1    443 47.25                             143    0.10 7  100 183 
 RUS  HZ I         443 48.56         2.1 0.29                           100 183 
                                                                                
