 2010  9 3 0135 45.4 L   7.203 -73.633 12.6  RSN  6 0.4 2.0LRSN                1
 GAP=157        0.99       3.2     5.6  8.1 -0.7477E+01 -0.2507E+02  0.5151E+01E
 Epicentro: SABANA DE TORRES - SANTANDER                                       3
 ACTION:UP  11-02-18 10:59 OP:tino STATUS:               ID:20100903013545 L   I
 2010-09-03-0132-32S.COL___120                                                 6
 STAT SP IPHASW D HRMM SECON CODA AMPLIT PERI AZIMU VELO SNR AR TRES W  DIS CAZ7
 BRR  HZ IP     C  135 48.34                             127    -0.210   14 220 
 BRR  HE ES   2    135 50.66                             127    -0.3 5   14 220 
 BRR  HZ I         135 52.48       252.9 0.28                            14 220 
 BAR2 SZ IP        135 59.26                              96     0.310   84 144 
 BAR2 SZ ES   1    136  9.43                              96    -0.2 7   84 144 
 BAR2 SZ I         136 10.99        39.1 0.48                            84 144 
 GUE  SZ EP        136  2.66                              95     0.510  104  48 
 GUE  SZ I         136  4.87        28.5 0.03                           104  48 
 GRA  SZ IP        136  4.26                              94     0.110  119  50 
 GRA  SZ ES   1    136 18.09                              94    -0.7 7  119  50 
 OCA  SZ EP   1    136  4.05                              94    -0.3 7  120  17 
 OCA  SZ I         136 23.50        43.9 0.33                           120  17 
 RUS  HZ EP   1    136 10.48                              56     0.4 7  157 157 
 RUS  HE ES   2    136 28.53                              56    -0.9 5  157 157 
 RUS  HZ I         136 33.48        16.5 0.30                           157 157 
                                                                                
