 2014  1 3 0820  4.1 L   6.814 -73.154141.6  RSN 12 0.6 1.9LRSN                1
 GAP= 77        1.27       3.5     4.5  7.0 -0.4039E+01  0.9852E+01  0.3598E+00E
 Epicentro: LOS SANTOS - SANTANDER                                             3
 ACTION:UPD 14-03-13 09:50 OP:ep   STATUS:               ID:20140103082004 L   I
 OLDACT:REG 14-01-03 09:13 OP:stll STATUS:               ID:20140103081810     3
 2014-01-03-0818-10M.COL___234                                                 6
 STAT SP IPHASW D HRMM SECON CODA AMPLIT PERI AZIMU VELO AIN AR TRES W  DIS CAZ7
 BAR2 SZ EP        820 23.36                             170    0.1310 24.8 187 
 BAR2 SZ ES        820 38.19                             170    0.0210 24.8 187 
 BAR2 SZ I         820 40.17        19.4 0.46            170           24.8 187 
 PAM  SZ EP        820 26.09                             150    0.2810 76.8  41 
 PAM  SN ES        820 42.91                             150    0.1510 76.8  41 
 PAM  SZ I         820 45.56        18.9 0.56            153           76.8  41 
 RUS  HZ EP        820 27.20                             142   -0.3410  102 176 
 RUS  HN ES        820 46.14                             142    0.3010  102 176 
 RUS  HZ I         820 48.60         7.7 0.48            145            102 176 
 PTB  HZ EP        820 30.27                             131   -0.38 9  147 258 
 PTB  HN ES        820 51.18                             131   -0.20 9  147 258 
 PTB  HZ I         820 54.62         7.6 0.30            132            147 258 
 TAM  HZ IP     D  820 31.52                             129   -0.03 9  156 105 
 TAM  HZ I         820 31.69        16.4 0.34            133            156 105 
 OCA  HN ES        820 53.70                             129    0.09 9  159 353 
 OCA  HZ I         820 58.22         8.4 0.30            131            159 353 
 SPBC HZ EP        820 32.32                             128    0.00 9  164 218 
 SPBC HN ES        820 53.89                             128   -0.46 9  164 218 
 SPBC HZ I         820 59.40        14.1 0.22            130            164 218 
 NOR  HZ EP        820 39.55                             118   -0.03 8  235 234 
 NOR  HE ES        821  6.44                             118   -0.84 8  235 234 
 NOR  HZ I         821  9.57         5.3 0.32            119            235 234 
 SML  HZ EP        820 39.48                             117   -0.79 8  242 335 
 SML  HN ES        821  8.60                             117    0.10 8  242 335 
 SML  HZ I         821 11.32        16.0 0.32            119            242 335 
 CHI  HZ EP        820 41.36                             116   -0.33 8  250 195 
 CHI  HN ES        821 10.86                             116   -0.16 8  250 195 
 CHI  HZ I         821 15.32         2.7 0.32            118            250 195 
 HEL  HZ EP        820 45.24                             114    1.22 8  272 255 
 HEL  HN ES        821 14.66                             114   -0.52 8  272 255 
 HEL  HZ I         821 21.52         4.1 0.30            116            272 255 
 GUY2CHZ EP        820 47.85                             111    0.34 7  301 234 
 GUY2CHE ES        821 23.40                             111    2.01 7  301 234 
 GUY2CHZ I         821 29.98         5.1 0.76                           301 234 
                                                                                
