 2013 10 3 0621 41.6 L   6.792 -73.144141.4  RSN  8 0.4 1.8LRSN                1
 GAP=137        0.94       3.2     3.9  5.8 -0.2424E+00  0.5301E+01 -0.2413E+01E
 Epicentro: LOS SANTOS - SANTANDER                                             3
 ACTION:UPD 13-11-25 09:18 OP:ep   STATUS:               ID:20131003062141 L   I
 OLDACT:REG 13-10-03 05:44 OP:nd   STATUS:               ID:20131003061959     3
 2013-10-03-0619-59M.COL___273                                                 6
 STAT SP IPHASW D HRMM SECON CODA AMPLIT PERI AZIMU VELO AIN AR TRES W  DIS CAZ7
 BAR2 SZ EP        622  0.88                             171    0.1710 22.5 191 
 BAR2 SZ ES        622 15.74                             171    0.1410 22.5 191 
 BAR2 SZ I         622 17.08        21.2 0.20            173           22.5 191 
 BRR  HZ EP        622  2.77                             152    0.4410 71.8 299 
 BRR  HN ES        622 18.83                             152    0.3410 71.8 299 
 BRR  HZ I         622 21.72         6.6 0.12            149           71.8 299 
 PAM  SZ EP        622  3.66                             150    0.2510 77.9  39 
 PAM  SN ES        622 20.29                             150   -0.1110 77.9  39 
 PAM  SZ I         622 22.84        10.4 0.50            150           77.9  39 
 RUS  HZ EP        622  5.05                             143    0.1710 99.7 176 
 RUS  HN ES        622 22.51                             143   -0.5210 99.7 176 
 RUS  HZ I         622 24.70         6.9 0.28            147           99.7 176 
 PTB  HZ EP        622  8.42                             131    0.18 9  148 259 
 PTB  HN ES        622 28.59                             131   -0.41 9  148 259 
 PTB  HZ I         622 31.34         5.6 0.18            131            148 259 
 SPBC HZ EP        622  9.86                             128    0.12 9  163 219 
 SPBC HN ES        622 31.36                             128   -0.31 9  163 219 
 SPBC HZ I         622 32.98         7.1 0.22            130            163 219 
 ZAR  HZ EP   2    622 14.32                             121    0.48 4  205 292 
 ZAR  HN ES        622 39.40                             121    0.44 9  205 292 
 ZAR  HZ I         622 45.36         7.7 0.28            121            205 292 
 SML  HZ EP        622 17.52                             116   -0.58 8  245 335 
 SML  HN ES        622 45.67                             116   -0.88 8  245 335 
 SML  HZ I         622 56.19         7.1 0.26            117            245 335 
                                                                                
