 2011  7 3 0256  2.3 L   6.480 -73.570118.4  RSN  5 0.2 1.4LRSN                1
 GAP=207        0.52       5.6    14.1  9.1  0.4402E+02  0.8080E+02  0.4892E+01E
 Epicentro: SANTA HELENA DEL OPON - SANTANDER                                  3
 ACTION:UPD 12-07-25 13:57 OP:epov STATUS:               ID:20110703025602 L   I
 2011-07-03-0252-44S.COL___140                                                 6
 STAT SP IPHASW D HRMM SECON CODA AMPLIT PERI AZIMU VELO AIN AR TRES W  DIS CAZ7
 BAR2 SZ EP   2    256 19.49                             157    0.06 5 44.6  74 
 BAR2 SZ ES   1    256 32.62                             157   -0.16 7 44.6  74 
 BAR2 SZ I         256 33.53        21.4 0.25                          44.6  74 
 BTL  SZ EP        256 20.52                             151    0.3510 58.9  35 
 BRR  HZ EP   1    256 20.34                             146   -0.24 7 71.1 347 
 BRR  HZ I         256 29.15         4.7 0.36                          71.1 347 
 RUS  HZ EP   1    256 22.21                             142   -0.02 7 84.4 140 
 RUS  HE ES   1    256 37.66                             142   -0.09 7 84.4 140 
 GRA  SZ EP   2    256 29.98                             119   -0.42 4  177  29 
 GRA  SZ I         256 48.21         1.5 0.50                           177  29 
                                                                                
