 2011  7 3 0433 30.1 L   6.820 -73.097149.0  RSN  5 0.1 1.7LRSN                1
 GAP=200        0.36       5.5     7.8  4.8  0.3086E+02 -0.1991E+02 -0.9957E+01E
 Epicentro: LOS SANTOS - SANTANDER                                             3
 ACTION:UPD 12-07-25 13:57 OP:epov STATUS:               ID:20110703043330 L   I
 2011-07-03-0429-27S.COL___140                                                 6
 STAT SP IPHASW D HRMM SECON CODA AMPLIT PERI AZIMU VELO AIN AR TRES W  DIS CAZ7
 BTL  SZ EP        433 50.31                             171    0.1710 21.8 300 
 BTL  SZ ES   2    434  5.75                             171    0.02 5 21.8 300 
 BAR2 SZ ES   2    434  5.64                             169   -0.27 5 26.9 201 
 BAR2 SZ I         434  6.35         6.3 0.23                          26.9 201 
 GIR2 SZ EP   1    433 50.11                             168   -0.07 7 30.6 339 
 BRR  HZ EP        433 51.81                             152   -0.0510 75.0 295 
 BRR  HZ I         433 53.37        13.1 0.15                          75.0 295 
 BRR  HN ES        434  8.80                             152    0.0010 75.0 295 
 RUS  HZ EP   2    433 54.14                             144   -0.22 5  103 179 
 RUS  HN ES   2    434 13.42                             144    0.18 5  103 179 
                                                                                
