 2011 10 3 0325 53.6 L   6.996 -73.145147.7  RSN 11 0.4 2.3LRSN                1
 GAP=125        0.70       3.2     4.5  5.3  0.1194E+01  0.7936E+01  0.3217E+01E
 Epicentro: FLORIDABLANCA - SANTANDER                                          3
 ACTION:UPD 12-07-13 16:01 OP:ep   STATUS:               ID:20111003032553 L   I
 2011-10-03-0323-19S.COL___168                                                 6
 STAT SP IPHASW D HRMM SECON CODA AMPLIT PERI AZIMU VELO AIN AR TRES W  DIS CAZ7
 BAR2 SZ EP        326 13.90                             162   -0.1410 44.8 185 
 BAR2 SZ ES   1    326 29.43                             162   -0.58 7 44.8 185 
 BAR2 SZ I         326 31.09        28.2 0.13                          44.8 185 
 PAM  SZ EP   1    326 15.43                             156    0.28 7 62.1  52 
 PAM  SN ES   1    326 32.20                             156    0.20 7 62.1  52 
 BRR  HZ EP        326 14.72                             155    0.1910 63.9 281 
 BRR  HZ I         326 15.72       189.6 0.11                          63.9 281 
 BRR  HE ES   1    326 31.67                             155    0.78 7 63.9 281 
 RUS  HZ EP   1    326 19.00                             139   -0.15 7  122 177 
 RUS  HN ES   1    326 39.02                             139   -0.09 7  122 177 
 RUS  HZ I         326 40.12         9.0 0.23                           122 177 
 OCA  SZ EP   1    326 20.05                             134   -0.03 7  139 352 
 OCA  SZ ES   1    326 40.45                             134   -0.32 7  139 352 
 OCA  SZ I         326 45.15        40.5 0.24                           139 352 
 ZAR  HZ EP   1    326 24.82                             124   -0.59 6  197 286 
 ZAR  HE ES   1    326 49.84                             124   -0.42 6  197 286 
 ZAR  HZ I         326 56.63        30.5 0.13                           197 286 
 NOR  SZ EP   2    326 30.71                             117   -0.12 4  248 230 
 CHI  HZ EP   1    326 33.87                             115    0.21 6  270 194 
 CHI  HZ I         327  9.85         4.8 0.33                           270 194 
 HEL  HZ EP   1    326 35.26                             115    0.70 6  278 251 
 HEL  HZ I         327 14.15         9.4 0.62                           278 251 
 RREF HN ES   2    327 18.74                             110   -0.06 3  336 227 
 RREF HZ I         327 28.63         8.4 0.35                           336 227 
 PRA  HZ EP   1    326 49.37                             106    0.00 4  411 208 
 PRA  HE ES   2    327 33.28                             106    0.37 3  411 208 
                                                                                
