 2011  6 3 0341 41.6 L   6.862 -72.940147.9  RSN  4 0.2 1.4LRSN                1
 GAP=162        0.47       3.5     8.1  7.8  0.7131E+01  0.1094E+02  0.3022E+01E
 Epicentro: GUACA - SANTANDER                                                  3
 ACTION:UP  11-07-14 19:02 OP:ep   STATUS:               ID:20110603034141 L   I
 2011-06-03-0340-00M.COL___122                                                 6
 STAT SP IPHASW D HRMM SECON CODA AMPLIT PERI AZIMU VELO SNR AR TRES W  DIS CAZ7
 PAM  SN ES   2    342 19.67                             157    -0.2 5   59  27 
 BRR  HZ EP   1    342  3.88                             147    -0.3 7   89 288 
 BRR  HN ES   2    342 21.79                             147     0.1 5   89 288 
 BRR  HZ I         342 24.76         7.0 0.19                            89 288 
 RUS  HZ EP   1    342  6.33                             142     0.2 7  108 188 
 RUS  HZ I         342 23.63         2.4 0.49                           108 188 
 RUS  HE ES   1    342 25.32                             142     0.0 7  108 188 
 OCA  SZ ES   2    342 32.35                             131     0.4 5  158 345 
                                                                                
