 2014  3 3 0512 16.5 L   6.777 -72.851  4.0  RSN  4 0.5 0.9LRSN                1
 GAP=180        1.21       4.2    10.4 10.7 -0.3161E+02 -0.4470E+02  0.1138E+02E
 Epicentro: SAN ANDRES - SANTANDER                                             3
 ACTION:UPD 14-04-09 23:14 OP:nd   STATUS:               ID:20140303051216 L   I
 OLDACT:UP  14-03-03 13:23 OP:stll STATUS:               ID:20140303050810d    3
 OLDACT:DUP 14-03-03 13:17 OP:stll STATUS:               ID:20140303050810d    3
 2014-03-03-0508-09M.COL___232                                                 6
 STAT SP IPHASW D HRMM SECON CODA AMPLIT PERI AZIMU VELO AIN AR TRES W  DIS CAZ7
 BAR2 SZ EP        512 23.01                              47   -0.6710 41.9 241 
 BAR2 SZ I         512 27.82        11.4 0.56             97           41.9 241 
 PAM  SZ EP        512 27.53                              47    0.1910 64.4  15 
 PAM  SN ES        512 35.52                              47   -0.2910 64.4  15 
 RUS  HZ EP        512 33.36                              47    0.4510  101 195 
 RUS  HN ES        512 45.44                              47   -0.2810  101 195 
 RUS  HZ I         512 46.14         2.3 0.20             94            101 195 
 PTB  HZ EP        512 44.96                              37    0.77 9  179 262 
 PTB  HZ I         512 45.25         1.6 0.54             56            179 262 
                                                                                
