 2017  4 3 0253 41.7 L   6.778 -73.175156.0  RSN  6 0.3 1.4LRSN                1
 GAP=216        0.57       4.7     6.8  6.5  0.1775E+02 -0.1627E+02 -0.4474E+01E
 Epicentro: LOS SANTOS - SANTANDER                                             3
 ACTION:UPD 17-05-30 21:07 OP:jn   STATUS:               ID:20170403025341 L   I
 OLDACT:UP  17-04-03 15:26 OP:and  STATUS:               ID:20170403024744     3
 OLDACT:UP  17-04-03 15:26 OP:and  STATUS:               ID:20170403024744     3
 OLDACT:UP  17-04-03 15:26 OP:and  STATUS:               ID:20170403024744     3
 OLDACT:UP  17-04-03 15:26 OP:and  STATUS:               ID:20170403024744     3
 OLDACT:UP  17-04-03 15:26 OP:and  STATUS:               ID:20170403024744     3
 OLDACT:UP  17-04-03 15:25 OP:and  STATUS:               ID:20170403024744     3
 OLDACT:UP  17-04-03 15:24 OP:and  STATUS:               ID:20170403024744     3
 OLDACT:UP  17-04-03 15:24 OP:and  STATUS:               ID:20170403024744     3
 OLDACT:UP  17-04-03 15:23 OP:and  STATUS:               ID:20170403024744     3
 OLDACT:UP  17-04-03 15:23 OP:and  STATUS:               ID:20170403024744     3
 OLDACT:REG 17-04-03 12:38 OP:and  STATUS:               ID:20170403024744     3
 2017-04-03-0248-00M.COL___368                                                 6
 STAT SP IPHASW D HRMM SECON CODA AMPLIT PERI AZIMU VELO AIN AR TRES W  DIS CAZ7
 BAR2 EZ EP        254  2.23                             172   -0.3210 20.6 182 
 BRR  HZ IP     D  254  4.08                             155    0.1710 69.6 302 
 BRR  HN ES        254 21.34                             155    0.1310 69.6 302 
 BRR  HZ I         254 23.16         4.5 0.12            151           69.6 302 
 RUS  HZ EP        254  6.32                             147   -0.0410 98.5 174 
 RUS  HN ES        254 25.74                             147    0.1710 98.5 174 
 RUS  HZ I         254 27.56         2.8 0.20            142           98.5 174 
 PTB  HZ EP   3    254  9.76                             136    0.52 2  144 260 
 PTB  HN ES   2    254 29.90                             136   -0.79 5  144 260 
 PTB  HZ I         254 32.62         3.9 0.12            131            144 260 
 SPBC HZ EP   3    254 11.55                             133    0.87 2  159 219 
 SPBC HN ES   2    254 33.42                             133    0.16 5  159 219 
 SPBC HZ I         254 40.19         4.1 0.24            128            159 219 
 PTGC HZ EP   2    254 25.55                             114   -0.40 4  308 158 
                                                                                
