 2011  7 3 0131 52.0 L   6.759 -73.082148.8  RSN 11 0.4 2.0LRSN                1
 GAP=147        0.76       3.4     5.9  5.7 -0.6534E+01  0.5515E+01 -0.1678E+00E
 Epicentro: LOS SANTOS - SANTANDER                                             3
 ACTION:UPD 12-07-25 13:57 OP:epov STATUS:               ID:20110703013152 L   I
 2011-07-03-0126-17S.COL___140                                                 6
 STAT SP IPHASW D HRMM SECON CODA AMPLIT PERI AZIMU VELO AIN AR TRES W  DIS CAZ7
 BAR2 SZ EP        132 11.87                             171   -0.1110 21.5 211 
 BAR2 SZ ES   1    132 27.07                             171   -0.48 7 21.5 211 
 BAR2 SZ I         132 28.53        27.9 0.24                          21.5 211 
 BTL  SZ EP        132 13.02                             169    0.9310 27.0 311 
 PAM  SZ EP   1    132 14.51                             152   -0.02 7 76.9  33 
 PAM  SN ES   1    132 32.06                             152   -0.03 7 76.9  33 
 BRR  HZ EP        132 13.65                             150   -0.3310 79.5 299 
 BRR  HE ES   1    132 31.16                             150    0.05 7 79.5 299 
 BRR  HZ I         132 34.19        24.2 0.15                          79.5 299 
 RUS  HZ EP        132 15.65                             146   -0.0810 95.8 180 
 RUS  HN ES   1    132 34.41                             146    0.17 7 95.8 180 
 RUS  HZ I         132 36.15        13.9 0.29                          95.8 180 
 BRI  SZ EP   2    132 16.51                             141    0.16 5  110  17 
 GRA  SZ EP        132 17.55                             137   -0.1910  128  14 
 GRA  SZ ES   1    132 37.82                             137    0.02 7  128  14 
 GRA  SZ I         132 42.17         8.2 0.28                           128  14 
 OCA  SZ EP   1    132 20.62                             129   -0.46 7  166 351 
 OCA  SZ ES   2    132 44.05                             129    0.30 5  166 351 
 OCA  SZ I         132 53.73        12.2 0.21                           166 351 
 NOR  SZ EP   2    132 27.85                             119   -0.41 4  238 236 
 NOR  SE ES   2    132 56.26                             119   -0.27 4  238 236 
 CHI  HZ EP   2    132 29.42                             118   -0.20 4  246 197 
 CHI  HE ES   2    132 59.12                             118    0.16 4  246 197 
 CHI  HZ I         133  5.11         8.1 0.39                           246 197 
 HEL  HZ EP   1    132 33.52                             115    0.50 6  278 257 
 HEL  HZ I         133 10.75         6.2 0.44                           278 257 
                                                                                
