 2010 10 3 0446  0.5 L   6.788 -73.108138.5  RSN  7 0.6 1.9LRSN                1
 GAP=187        1.23       6.0    11.2 11.1  0.1568E+02  0.2292E+01  0.1775E+02E
 Epicentro: LOS SANTOS - SANTANDER                                             3
 ACTION:UP  11-02-18 11:07 OP:tino STATUS:               ID:20101003044600 L   I
 2010-10-03-0444-21S.COL___123                                                 6
 STAT SP IPHASW D HRMM SECON CODA AMPLIT PERI AZIMU VELO SNR AR TRES W  DIS CAZ7
 BAR2 SZ EP        446 19.24                             170     0.010   23 201 
 BAR2 SZ ES   1    446 32.83                             170    -1.0 7   23 201 
 BAR2 SZ I         446 35.45        23.6 0.32                            23 201 
 BRR  HZ EP        446 21.03                             150    -0.110   76 298 
 BRR  HN ES        446 37.69                             150     0.510   76 298 
 BRR  HZ I         446 41.16        18.8 0.20                            76 298 
 RUS  HZ EP        446 23.38                             143     0.010   99 178 
 RUS  HZ I         446 24.55         9.8 0.16                            99 178 
 RUS  HN ES   1    446 41.77                             143     0.5 7   99 178 
 OCA  SZ ES   1    446 50.34                             128     0.1 7  162 352 
 CHI  HZ EP   1    446 37.69                             116    -0.1 6  249 196 
 CHI  HN ES   1    447  7.40                             116     0.5 6  249 196 
 CHI  HZ I         447 10.55         4.2 0.80                           249 196 
 HEL  HN ES   2    447 10.46                             113    -1.7 4  276 256 
 HEL  HZ I         447 18.81         2.8 0.13                           276 256 
 RREF HN ES   2    447 22.77                             109     0.2 3  324 230 
 RREF HZ I         447 32.61         5.6 1.15                           324 230 
                                                                                
