 2010  4 3 0040 52.1 L   6.815 -73.026144.5  RSN  5 0.3 1.8LRSN                1
 GAP=210        0.56       4.0     7.8  5.1  0.5447E+01  0.5183E+01  0.6029E+01E
 Epicentro: CEPITA - SANTANDER                                                 3
 ACTION:UPD 10-08-24 09:57 OP:vdl  STATUS:               ID:20100403004052 L   I
 2010-04-03-0038-19S.COL___098                                                 6
 STAT SP IPHASW D HRMM SECON CODA AMPLIT PERI AZIMU VELO AIN AR TRES W  DIS CAZ7
 BAR2 SZ EP        041 11.74                             167     0.010   30 215 
 BAR2 SZ ES   1    041 27.17                             167     0.1 7   30 215 
 BRR  HZ IP        041 13.75                             148    -0.110   82 293 
 BRR  HZ I         041 13.99        10.9 0.13                            82 293 
 BRR  HN ES   1    041 30.86                             148     0.1 7   82 293 
 OCA  SZ EP   2    041 20.88                             129     0.5 5  161 348 
 OCA  SZ I         041 24.54        19.7 0.05                           161 348 
 OCA  SZ ES   2    041 41.67                             129    -0.7 5  161 348 
 CHI  HZ EP        041 30.42                             116     0.1 8  254 198 
 CHI  HN ES   2    041 59.59                             116    -0.6 4  254 198 
 CHI  HZ I         042  4.97         2.8 0.39                           254 198 
 HEL  HZ EP        041 33.76                             113     0.0 7  285 256 
 HEL  HZ I         042 10.00         2.4 0.34                           285 256 
                                                                                
