 2011  7 3 0830 57.5 L   6.701 -73.041142.0  RSN  8 0.3 1.7LRSN                1
 GAP=221        0.70       4.5     6.5  6.2 -0.1190E+02 -0.7673E+01  0.1954E+01E
 Epicentro: ARATOCA - SANTANDER                                                3
 ACTION:UPD 12-07-25 13:57 OP:epov STATUS:               ID:20110703083057 L   I
 2011-07-03-0820-00M.COL___124                                                 6
 STAT SP IPHASW D HRMM SECON CODA AMPLIT PERI AZIMU VELO AIN AR TRES W  DIS CAZ7
 BAR2 SZ EP        831 17.02                             171    0.4310 19.7 232 
 BAR2 SZ ES   1    831 31.11                             171   -0.39 7 19.7 232 
 BAR2 SZ I         831 33.34         7.5 0.26                          19.7 232 
 BTL  SZ EP        831 17.26                             166    0.3110 34.7 314 
 GIR2 SZ EP   2    831 17.46                             162    0.29 5 45.0 338 
 BRR  HZ IP     C  831 18.95                             147   -0.2410 86.7 301 
 BRR  HZ I         831 19.28        22.0 0.16                          86.7 301 
 BRR  HE ES        831 36.38                             147    0.2610 86.7 301 
 GRA  SZ EP        831 22.79                             135   -0.2710  133  11 
 GRA  SZ ES   1    831 42.54                             135   -0.47 7  133  11 
 GRA  SZ I         831 44.87         5.6 0.42                           133  11 
 OCA  SZ EP   1    831 26.51                             127   -0.21 7  173 350 
 OCA  SZ ES   1    831 49.61                             127    0.09 7  173 350 
 OCA  SZ I         831 53.00         7.2 0.35                           173 350 
 NOR  SZ EP   2    831 33.00                             117   -0.38 4  238 238 
 NOR  SE ES   2    832  0.85                             117   -0.53 4  238 238 
 HEL  HZ EP   2    831 39.03                             113    0.54 4  281 259 
 HEL  HZ I         832 16.78         2.7 0.42                           281 259 
                                                                                
