 2017  1 3 0534 37.0 L   6.771 -73.162144.1  RSN  6 0.5 1.1LRSN                1
 GAP=136        1.29       6.4     5.7  8.7  0.3775E+01  0.1250E+02 -0.2519E+01E
 Epicentro: LOS SANTOS - SANTANDER                                             3
 ACTION:UPD 17-05-22 15:54 OP:jn   STATUS:               ID:20170103053437 L   I
 OLDACT:REG 17-01-03 12:37 OP:lv   STATUS:               ID:20170103052739     3
 2017-01-03-0528-00M.COL___381                                                 6
 STAT SP IPHASW D HRMM SECON CODA AMPLIT PERI AZIMU VELO AIN AR TRES W  DIS CAZ7
 BAR2 EZ EP        534 56.11                             172   -0.2210 19.9 186 
 BAR2 EZ ES        535 10.90                             172   -0.5410 19.9 186 
 BAR2 EZ I         535 14.87         5.1 0.51            173           19.9 186 
 BRR  HZ EP        534 58.11                             152    0.1710 71.2 301 
 BRR  HN ES        535 15.03                             152    0.7410 71.2 301 
 BRR  HZ I         535 19.40         2.3 0.18            151           71.2 301 
 PAM  EZ EP        534 59.10                             149   -0.1310 81.0  39 
 PAM  EN ES        535 16.30                             149   -0.2810 81.0  39 
 PAM  EZ I         535 18.24         4.7 0.78            153           81.0  39 
 RUS  HZ EP        535  0.67                             144    0.3310 97.6 175 
 RUS  HN ES        535 19.21                             144    0.6410 97.6 175 
 RUS  HZ I         535 19.86         0.8 0.23            149           97.6 175 
 PTB  HZ EP        535  2.99                             132   -0.60 9  145 260 
 PTB  HN ES        535 23.49                             132   -0.86 9  145 260 
 PTB  HZ I         535 26.58         2.0 0.15            134            145 260 
 ZAR  HZ EP        535  9.47                             122    0.21 9  204 293 
 ZAR  HN ES        535 35.02                             122    0.57 9  204 293 
 ZAR  HZ I         535 40.99         1.3 0.14            124            204 293 
                                                                                
