 2010  1 3 0959 46.9 L   6.576 -73.498115.0  RSN 12 0.4 3.3LRSN                1
 GAP=107        0.80       3.8     5.9  8.2 -0.7963E+01  0.2752E+02  0.1787E+01E
 Epicentro: EL CARMEN DE CHUCURI - SANTANDER                                   3
 ACTION:UP  10-08-24 09:42 OP:vdl  STATUS:               ID:20100103095946 L   I
 2010-01-03-0959-59S.COL___096                                                 6
 STAT SP IPHASW D HRMM SECON CODA AMPLIT PERI AZIMU VELO SNR AR TRES W  DIS CAZ7
 BAR2 SZ IP       10 0  3.44                             162     0.210   35  87 
 BAR2 SZ ES   2   10 0 15.43                             162    -0.5 5   35  87 
 GIR2 SZ IP       10 0  4.90                             148     0.310   65  31 
 GIR2 SZ ES   2   10 0 18.54                             148     0.1 5   65  31 
 RUS  BZ IP       10 0  6.49                             140    -0.310   88 149 
 RUS  BZ I        10 0  6.92       228.3 0.30                            88 149 
 RUS  BE ES   2   10 0 22.22                             140    -0.1 5   88 149 
 OCA  SZ EP   1   10 0 15.67                             117     0.0 7  185   6 
 OCA  SZ ES   2   10 0 37.89                             117    -0.2 4  185   6 
 ROSC BZ IP       10 0 19.85                             114     0.9 8  212 205 
 ROSC BZ I        10 0 50.42       271.5 0.50                           212 205 
 CHI  HZ EP   1   10 0 18.88                             113    -0.6 6  217 187 
 CHI  HN ES   2   10 0 45.02                             113     0.1 4  217 187 
 CHI  HZ I        10 0 49.76       100.3 0.31                           217 187 
 HEL  HZ EP   1   10 0 19.97                             112    -0.8 6  229 259 
 HEL  HN ES   2   10 0 47.04                             112    -0.2 4  229 259 
 HEL  HZ I        10 0 50.69       211.3 0.62                           229 259 
 RREF BZ EP   1   10 0 26.81                             108     0.2 6  276 228 
 RREF BN ES   2   10 0 57.62                             108     0.1 4  276 228 
 RREF BZ I        10 1  2.85       168.1 0.21                           276 228 
 TOL  SZ EP   1   10 0 28.76                             106    -0.1 5  299 223 
 ANIL BZ EP   1   10 0 30.40                             105     0.0 5  313 223 
 ANIL BE ES   2   10 1  4.33                             105     0.0 3  313 223 
 PRA  HZ EP   1   10 0 34.08                             103    -0.7 5  352 206 
 PRA  HE ES   2   10 1 12.22                             103     0.1 3  352 206 
 PRA  HZ I        10 1 16.75       177.2 0.26                           352 206 
 SDV  BZ EP   1   10 0 41.18                             100    -0.3 4  406  51 
                                                                                
