 2010  8 3 0712 44.2 L   6.796 -73.119138.4  RSN 13 0.4 2.8LRSN                1
 GAP=162        0.91       3.4     6.6  6.0 -0.5950E+01  0.1058E+02  0.1291E+01E
 Epicentro: LOS SANTOS - SANTANDER                                             3
 ACTION:UP  10-09-07 10:51 OP:vdl  STATUS:               ID:20100803071244 L   I
 2010-08-03-0709-44S.COL___123                                                 6
 STAT SP IPHASW D HRMM SECON CODA AMPLIT PERI AZIMU VELO SNR AR TRES W  DIS CAZ7
 BAR2 SZ IP        713  3.00                             170     0.010   24 198 
 BAR2 SZ ES   1    713 17.19                             170    -0.4 7   24 198 
 BAR2 SZ I         713 18.69       182.2 0.30                            24 198 
 GIR2 SZ EP        713  3.16                             166     0.110   32 345 
 BRR  HZ IP     C  713  4.96                             150     0.210   74 298 
 BRR  HE ES   1    713 21.10                             150     0.3 7   74 298 
 BRR  HZ I         713 23.14       144.8 0.08                            74 298 
 RUS  HZ EP        713  7.28                             143     0.110  100 178 
 RUS  HN ES   1    713 25.19                             143     0.1 7  100 178 
 RUS  HZ I         713 27.06        49.4 0.39                           100 178 
 GUE  SZ EP        713  8.07                             138    -0.210  116  11 
 GRA  SZ IP        713  9.03                             136     0.310  125  16 
 GRA  SZ ES   1    713 28.34                             136     0.4 7  125  16 
 GRA  SZ I         713 29.57       171.9 0.30                           125  16 
 OCA  SZ EP        713 11.22                             128    -0.8 9  161 352 
 OCA  SZ ES   2    713 33.40                             128    -0.4 5  161 352 
 OCA  SZ I         713 36.80       189.9 0.30                           161 352 
 CHI  HZ EP        713 21.41                             116    -0.2 8  249 196 
 CHI  HN ES   2    713 50.16                             116    -0.5 4  249 196 
 CVER SZ EP   1    713 24.61                             114     0.3 6  273 203 
 CVER SZ I         714  5.68        30.0 0.37                           273 203 
 HEL  HZ EP        713 24.63                             113     0.3 8  275 256 
 HEL  HN ES   3    713 54.58                             113    -1.1 2  275 256 
 HEL  HZ I         714  2.11        27.4 0.30                           275 256 
 RREF HZ EP   1    713 31.51                             110     1.2 5  324 230 
 RREF HN ES   3    714  6.55                             110     0.3 2  324 230 
 RREF HZ I         714 15.11        28.6 0.04                           324 230 
 DBB  SZ EP        713 31.56                             108    -0.2 7  342 274 
 DBB  SZ I         714 12.18        16.7 0.33                           342 274 
 PRA  HZ EP        713 37.21                             106    -0.4 6  393 210 
 PRA  HN ES   2    714 18.68                             106    -0.6 3  393 210 
 PRA  HZ I         714 23.80        20.8 0.58                           393 210 
                                                                                
