 2011  9 3 0130 46.0 L   6.798 -73.055147.0  RSN 21 0.3 3.1LRSN                1
 GAP=123        0.47       1.8     2.5  2.9 -0.2395E+00  0.2289E+01  0.1229E+01E
 Epicentro: LOS SANTOS - SANTANDER                                             3
 ACTION:UPD 12-07-13 15:55 OP:ep   STATUS:               ID:20110903013046 L   I
 2011-09-03-0129-12S.COL___171                                                 6
 STAT SP IPHASW D HRMM SECON CODA AMPLIT PERI AZIMU VELO AIN AR TRES W  DIS CAZ7
 SAN  SZ EP   2    131  6.20                             179    0.67 5 4.17 209 
 SAN  SZ ES   2    131 21.18                             179    0.44 5 4.17 209 
 BAR2 SZ IP        131  5.96                             169    0.0710 26.7 212 
 BAR2 SZ ES   1    131 20.93                             169   -0.44 7 26.7 212 
 BAR2 SZ I         131 22.75       389.0 0.30                          26.7 212 
 GIR2 SZ EP   1    131  6.06                             166    0.11 7 34.6 334 
 GIR2 SZ ES   2    131 21.75                             166    0.27 5 34.6 334 
 PAM  SZ EP   1    131  8.47                             153    0.42 7 71.6  33 
 PAM  SN ES   2    131 25.39                             153    0.16 5 71.6  33 
 BRR  HZ IP     C  131  7.83                             150   -0.0210 80.2 295 
 BRR  HE ES   1    131 25.00                             150    0.14 7 80.2 295 
 BRR  HZ I         131 28.87       251.9 0.30                          80.2 295 
 RUS  HZ IP     D  131  9.77                             144   -0.1110  100 182 
 RUS  HZ I         131 10.69        64.4 0.29                           100 182 
 RUS  HE ES   2    131 28.02                             144   -0.45 5  100 182 
 OCA  SZ EP   1    131 14.44                             129   -0.16 7  162 350 
 OCA  SZ ES   2    131 37.11                             129    0.22 5  162 350 
 OCA  SZ I         131 42.95       111.6 0.35                           162 350 
 YOP  SE ES   2    131 38.38                             127   -0.51 4  174 156 
 ZAR  HZ EP   2    131 19.42                             121   -0.11 4  213 291 
 ZAR  HN ES   1    131 45.12                             121   -0.54 6  213 291 
 ZAR  HZ I         131 50.90       107.2 0.25                           213 291 
 NOR  SZ EP   1    131 22.44                             118   -0.26 6  243 236 
 NOR  SN ES   2    131 51.39                             118    0.09 4  243 236 
 CHI  HZ EP   2    131 24.15                             117    0.07 4  251 197 
 CHI  HE ES   2    131 53.63                             117   -0.12 4  251 197 
 CHI  HZ I         132  2.85        56.9 0.62                           251 197 
 ROSC BZ EP   2    131 25.01                             116    0.23 4  258 213 
 ROSC BN ES   2    131 55.07                             116    0.07 4  258 213 
 ROSC BZ I         132  4.12        92.9 0.38                           258 213 
 HEL  HZ EP   1    131 27.25                             114   -0.13 6  282 256 
 HEL  HN ES   2    131 59.38                             114   -0.25 4  282 256 
 HEL  HZ I         132  4.58        46.8 0.37                           282 256 
 VIL  SZ EP   1    131 29.60                             112   -0.12 5  305 193 
 VIL  SN ES   2    132  3.25                             112   -0.55 4  305 193 
 VIL  SZ I         132  7.71        38.4 0.41                           305 193 
 GUY  SN ES   2    132  6.23                             112    0.37 3  312 236 
 GUY  SZ I         132 13.35        93.4 0.43                           312 236 
 RREF HZ EP   2    131 33.50                             110    0.42 3  329 231 
 RREF HE ES   2    132  9.74                             110   -0.04 3  329 231 
 RREF HZ I         132 18.50        88.0 0.32                           329 231 
 DBB  SZ EP   1    131 34.59                             109   -0.12 5  349 274 
 COD  HZ I         132 18.89        70.2 0.41                           350 353 
 TOL  SZ EP   1    131 35.59                             109    0.45 5  350 226 
 TOL  SZ ES   2    132 13.75                             109    0.31 3  350 226 
 COD  HZ EP   2    131 34.04                             109   -0.57 3  350 353 
 COD  HN ES   2    132 11.96                             109   -0.54 3  350 353 
 ANIL HZ EP   1    131 37.34                             108    0.65 5  364 226 
 ANIL HN ES   2    132 16.72                             108    0.53 3  364 226 
 ANIL HZ I         132 19.73       104.7 0.26                           364 226 
 PRA  HZ EP   1    131 40.11                             106   -0.05 4  397 211 
 PRA  HN ES   2    132 22.10                             106   -0.28 3  397 211 
                                                                                
