 2014  6 3 0455  4.0 L   6.915 -73.300130.0  RSN  5 0.5 1.2LRSN                1
 GAP=107        1.13       5.6     7.1 11.2 -0.1241E+02  0.3171E+02 -0.1029E+02E
 Epicentro: BETULIA - SANTANDER                                                3
 ACTION:UPD 14-07-01 22:50 OP:nd   STATUS:               ID:20140603045504 L   I
 OLDACT:DUP 14-06-03 17:06 OP:fm   STATUS:               ID:20140603044814d    3
 2014-06-03-0448-13M.COL___250                                                 6
 STAT SP IPHASW D HRMM SECON CODA AMPLIT PERI AZIMU VELO AIN AR TRES W  DIS CAZ7
 BAR2 SZ EP        455 22.82                             163    0.6410 38.0 160 
 BAR2 SZ ES   1    455 36.38                             163    0.03 7 38.0 160 
 BAR2 SZ I         455 37.03         9.4 0.24            169           38.0 160 
 PAM  SZ EP        455 24.12                             147   -0.7210 81.3  55 
 PAM  SE ES        455 41.30                             147    0.2210 81.3  55 
 PAM  SZ I         455 44.83         3.2 0.44            150           81.3  55 
 RUS  HZ EP   1    455 28.18                             136    0.71 7  116 168 
 RUS  HE ES   1    455 45.05                             136   -0.71 7  116 168 
 RUS  HZ I         455 46.33         1.5 0.30            143            116 168 
 PTB  HZ EP        455 28.06                             131   -0.4210  134 252 
 PTB  HN ES   1    455 47.81                             131    0.24 7  134 252 
 PTB  HZ I         455 51.10         3.4 0.40            134            134 252 
 OCA  HZ EP   1    455 30.14                             129    0.34 7  146 359 
 OCA  HN ES   1    455 49.79                             129   -0.13 7  146 359 
 OCA  HZ I         455 54.88         2.0 0.30            130            146 359 
                                                                                
