 2017  1 3 0059 23.5 L   6.797 -73.140143.6  RSN 10 0.5 1.8LRSN                1
 GAP=120        1.22       4.3     5.1  7.4  0.5762E+00  0.1252E+02  0.6738E+01E
 Epicentro: LOS SANTOS - SANTANDER                                             3
 ACTION:UPD 17-05-22 15:54 OP:jn   STATUS:               ID:20170103005923 L   I
 OLDACT:REG 17-01-03 12:25 OP:lv   STATUS:               ID:20170103005746     3
 2017-01-03-0058-00M.COL___381                                                 6
 STAT SP IPHASW D HRMM SECON CODA AMPLIT PERI AZIMU VELO AIN AR TRES W  DIS CAZ7
 BAR2 EZ ES        059 57.79                             170   -0.1510 23.2 192 
 BAR2 EZ I         1 0  0.65        19.2 0.30            170           23.2 192 
 BRR  HZ EP        059 44.82                             152    0.3910 71.9 298 
 BRR  HN ES        1 0  1.65                             152    0.8810 71.9 298 
 BRR  HZ I         1 0  4.23        10.8 0.14            152           71.9 298 
 PAM  EZ EP        059 45.73                             150    0.2810 77.2  39 
 PAM  EN ES        1 0  1.88                             150   -0.7010 77.2  39 
 PAM  EZ I         1 0  5.00        10.9 0.42            153           77.2  39 
 RUS  HZ EP        059 47.03                             143    0.0410  100 176 
 RUS  HE ES        1 0  5.65                             143    0.3310  100 176 
 RUS  HZ I         1 0  6.74         9.9 0.36            145            100 176 
 PTB  HZ EP        059 49.78                             131   -0.54 9  148 259 
 PTB  HN ES        1 0 10.33                             131   -0.92 9  148 259 
 PTB  HZ I         1 0 13.20         5.5 0.12            132            148 259 
 ZAR  HZ EP        059 55.59                             122   -0.26 9  205 292 
 ZAR  HN ES        1 0 21.20                             122    0.10 9  205 292 
 ZAR  HZ I         1 0 26.05         5.9 0.26            123            205 292 
 CHI  HZ EP        1 0  1.15                             117    0.11 8  249 195 
 CHI  HE ES        1 0 30.29                             117   -0.05 8  249 195 
 CHI  HZ I         1 0 36.61         3.2 0.34            118            249 195 
 GUY2CHZ EP   4    1 0  8.31                             112    1.29 0  302 235 
 GUY2CHE ES        1 0 41.26                             112    0.27 7  302 235 
 GUY2CHZ I         1 0 53.10         3.7 0.44                           302 235 
 PTGC HZ EP   9    1 0  6.06                             111   -1.12 0  308 159 
 PTGC HN ES        1 0 39.21                                   -0.94 7  308 159 
 ORTC HE ES        1 0 59.73                             106    0.38 6  396 216 
                                                                                
