 2012  9 3 0846 44.9 L   6.787 -73.146143.7  RSN 19 0.4 3.9LRSN 4.0WRSN        1
 SPEC AVERAGE  MO 15.0 ST 83.7 OM  3.8 f0 3.43 R0.5400 AL 2.82 WI 15.7 MW  4.0 3
 SPEC SD       MO  0.1 ST 59.4 OM  0.5 f0 1.13 R0.3661 AL      WI      MW  0.1 3
 GAP= 66        0.89       2.7     2.5  4.1  0.5678E-01  0.2711E+01  0.2891E+01E
 Epicentro: LOS SANTOS - SANTANDER                                             3
 SPEC TAM HH E MO 15.0 ST 68.9 OM  3.3 f0 3.70 R0.3973 AL 4.06 WI 12.8 MW  3.9 3
 SPEC TAM HH E T 84732 K 0.000 GD  211 VS 4.20 DE 3.00 Q0230.0 QA 0.60 VS 4.20 3
 SPEC OCA HH N MO 15.3 ST118.1 OM  3.6 f0 3.49 R0.4212 AL 2.59 WI 12.7 MW  4.1 3
 SPEC OCA HH N T 84734 K 0.000 GD  216 VS 4.20 DE 3.00 Q0230.0 QA 0.60 VS 4.20 3
 SPEC PTB HH E MO 14.8 ST 39.6 OM  3.1 f0 3.62 R0.4061 AL 2.12 WI 12.5 MW  3.8 3
 SPEC PTB HH E T 84732 K 0.000 GD  205 VS 4.20 DE 3.00 Q0230.0 QA 0.60 VS 4.20 3
 SPEC RUS HH E MO 15.1 ST144.5 OM  3.5 f0 4.33 R0.3395 AL 2.61 WI  8.6 MW  4.0 3
 SPEC RUS HH E T 84726 K 0.000 GD  174 VS 4.20 DE 3.00 Q0230.0 QA 0.60 VS 4.20 3
 SPEC HEL HH N MO 15.0 ST 18.1 OM  3.1 f0 2.44 R0.6025 AL 2.41 WI 23.9 MW  3.9 3
 SPEC HEL HH N T 84755 K 0.000 GD  307 VS 4.20 DE 3.00 Q0230.0 QA 0.60 VS 4.20 3
 SPEC CHI HH N MO 15.0 ST 95.6 OM  3.2 f0 4.03 R0.3648 AL 3.78 WI 14.8 MW  4.0 3
 SPEC CHI HH N T 84750 K 0.000 GD  285 VS 4.20 DE 3.00 Q0230.0 QA 0.60 VS 4.20 3
 SPEC BRR HH N MO 15.1 ST183.4 OM  3.5 f0 4.82 R0.3050 AL 3.68 WI 15.5 MW  4.0 3
 SPEC BRR HH N T 84722 K 0.000 GD  160 VS 4.20 DE 3.00 Q0230.0 QA 0.60 VS 4.20 3
 SPEC TAM HH Z MO 14.9 ST  1.1 OM  3.2 f00.991 R1.4834 AL 1.31 WI 24.7 MW  3.9 3
 SPEC TAM HH Z T 84729 K 0.000 GD  211 VS 4.20 DE 3.00 Q0230.0 QA 0.60 VS 4.20 3
 ACTION:UPD 12-10-22 14:16 OP:ep   STATUS:               ID:20120903084644 L   I
 2012-09-03-0844-46M.COL___205                                                 6
 STAT SP IPHASW D HRMM SECON CODA AMPLIT PERI AZIMU VELO AIN AR TRES W  DIS CAZ7
 BAR2 SZ EP        847  4.41                             171    0.1810 22.0 191 
 BAR2 SZ ES        847 19.08                             171   -0.2510 22.0 191 
 GIR2 SZ EP        847  4.48                             166    0.1410 32.6 351 
 GIR2 SZ ES   1    847 19.19                             166   -0.34 7 32.6 351 
 BRR  HZ EP        847  6.30                             152    0.4610 71.9 299 
 BRR  HN ES        847 23.06                             152    0.8710 71.9 299 
 BRR  HZ I         847 29.20       807.9 0.18                          71.9 299 
 PAM  SZ EP        847  7.22                             150    0.2810 78.5  39 
 PAM  SZ I         847  7.64      1221.6 0.28                          78.5  39 
 PAM  SN ES        847 23.90                             150   -0.2510 78.5  39 
 RUS  HZ EP        847  8.27                             144   -0.0510 99.2 176 
 RUS  HE ES        847 26.50                             144   -0.1210 99.2 176 
 RUS  HZ I         847 28.35       497.9 0.41                          99.2 176 
 PTB  HZ EP        847 11.27                             132   -0.38 9  147 259 
 PTB  HE ES        847 32.55                             132    0.01 9  147 259 
 PTB  HZ I         847 38.44       584.2 0.32                           147 259 
 TAM  HZ IP     C  847 12.63                             130    0.28 9  155 104 
 TAM  HE ES   1    847 33.54                             130   -0.25 7  155 104 
 TAM  HZ I         847 33.66       629.3 0.44                           155 104 
 OCA  HZ EP   1    847 12.72                             129   -0.43 7  162 353 
 OCA  HN ES   1    847 34.46                             129   -0.76 7  162 353 
 OCA  HZ I         847 37.89      1767.2 0.25                           162 353 
 YOP  SZ EP        847 14.96                             126    0.31 9  178 153 
 YOP  SZ I         847 15.87       808.0 0.79                           178 153 
 YOP  SN ES   1    847 37.24                             126   -0.63 7  178 153 
 ZAR  HZ EP        847 17.19                             122   -0.05 9  205 293 
 ZAR  HE ES   1    847 42.73                             122    0.24 6  205 293 
 ZAR  HZ I         847 48.40       895.0 0.59                           205 293 
 NOR  SZ EP        847 20.32                             118   -0.08 8  234 235 
 NOR  SN ES        847 47.67                             118   -0.44 8  234 235 
 NOR  SZ I         847 54.12       680.1 0.38                           234 235 
 CHI  HZ EP        847 22.18                             117   -0.13 8  247 195 
 CHI  HN ES   1    847 51.80                             117    0.29 6  247 195 
 CHI  HZ I         847 57.76       338.9 0.42                           247 195 
 ROSC BZ EP   1    847 24.05                             116    1.30 6  252 211 
 ROSC BZ I         848  2.50      1170.4 0.33                           252 211 
 HEL  HZ EP        847 24.51                             114   -0.43 8  272 256 
 HEL  HN ES   1    847 56.33                             114    0.13 6  272 256 
 HEL  HZ I         848  4.98       455.7 0.38                           272 256 
 GUY  SZ EP   1    847 29.04                             112    0.48 5  303 235 
 GUY  SN ES   1    848  2.86                             112    0.22 5  303 235 
 DBB  SZ EP        847 32.04                             109   -0.24 7  340 274 
 DBB  SZ ES   1    848  8.34                             109   -0.91 5  340 274 
 DBB  SZ I         848 10.83       213.8 0.37                           340 274 
 TOL  SZ EP   1    847 33.34                             109    0.41 5  343 225 
 TOL  SZ ES   1    848  9.46                             109   -0.96 5  343 225 
 TOL  SZ I         848 21.03       308.8 0.45                           343 225 
 PRA  HZ EP   1    847 37.72                             106   -0.46 4  391 210 
 PRA  HE ES   1    848 20.30                             106    0.54 4  391 210 
 PRA  HZ I         848 27.12       441.4 0.31                           391 210 
 HORQ SZ EP   2    847 54.27                             101   -0.88 2  531 227 
                                                                                
