 2014  7 3 0554 54.7 L   6.798 -73.144154.9  RSN  6 0.4 1.4LRSN                1
 GAP=201        0.96       5.2     7.5  9.4  0.1216E+02 -0.8979E+01 -0.8383E+01E
 Epicentro: LOS SANTOS - SANTANDER                                             3
 ACTION:UPD 15-03-16 20:40 OP:nd   STATUS:               ID:20140703055454 L   I
 OLDACT:UP  14-07-03 15:48 OP:cam  STATUS:               ID:20140703055000     3
 OLDACT:REG 14-07-03 13:00 OP:cam  STATUS:               ID:20140703055000     3
 2014-07-03-0550-00M.COL___279                                                 6
 STAT SP IPHASW D HRMM SECON CODA AMPLIT PERI AZIMU VELO AIN AR TRES W  DIS CAZ7
 BAR2 SZ EP   1    555 15.29                             171   -0.17 7 23.1 191 
 BRR  HZ EP   1    555 17.18                             154    0.29 7 71.5 299 
 BRR  HN ES        555 34.73                             154    0.5510 71.5 299 
 BRR  HZ I         555 38.38         3.7 0.40            151           71.5 299 
 RUS  HZ EP   1    555 19.70                             146    0.33 7  100 176 
 RUS  HN ES        555 38.14                             146   -0.4510  100 176 
 RUS  HZ I         555 40.47         2.3 0.48            147            100 176 
 PTB  HZ EP   1    555 22.22                             134   -0.25 7  148 259 
 PTB  HN ES        555 43.48                             134   -0.63 9  148 259 
 PTB  HZ I         555 50.73         3.8 0.42            133            148 259 
 SPBC HZ EP   1    555 24.35                             131    0.41 7  163 219 
 SPBC HN ES   1    555 47.39                             131    0.66 7  163 219 
 SPBC HZ I         555 51.24         4.4 0.20            131            163 219 
 SML  HZ EP   2    555 31.86                             119   -0.06 4  244 335 
 SML  HN ES   1    556  0.46                             119   -0.47 6  244 335 
                                                                                
