 2013 12 3 0437 33.0 L   6.871 -73.315120.4  RSN 17 0.5 2.3LRSN                1
 GAP= 53        1.20       2.6     3.0  5.3 -0.1696E+01  0.3513E+01  0.1574E+01E
 Epicentro: BETULIA - SANTANDER                                                3
 ACTION:UPD 14-01-13 10:15 OP:ep   STATUS:               ID:20131203043733 L   I
 OLDACT:REG 13-12-03 07:27 OP:carl STATUS:               ID:20131203043000     3
 2013-12-03-0430-00M.COL___282                                                 6
 STAT SP IPHASW D HRMM SECON CODA AMPLIT PERI AZIMU VELO AIN AR TRES W  DIS CAZ7
 BAR2 SZ IP     C  437 50.22                             163    0.2910 34.2 155 
 BAR2 SZ ES        438  3.00                             163   -0.1210 34.2 155 
 BRR  HZ IP     D  437 50.60                             156    0.3010 51.0 301 
 BRR  HN ES        438  4.40                             156    0.6210 51.0 301 
 BRR  HZ I         438 10.88        34.9 0.10            155           51.0 301 
 PAM  SZ EP        437 53.18                             143    0.0010 85.5  53 
 PAM  SN ES        438  9.68                             143    0.7710 85.5  53 
 PAM  SZ I         438 11.86        53.3 0.30            146           85.5  53 
 PTB  HZ EP        437 55.53                             129   -0.9210  131 254 
 PTB  HN ES        438 13.34                             129   -1.3910  131 254 
 OCA  HZ EP        437 58.25                             125   -0.32 9  151 360 
 OCA  HN ES        438 18.14                             125   -0.36 9  151 360 
 OCA  HZ I         438 21.08        50.9 0.44            127            151 360 
 SPBC HZ EP        437 59.11                             123   -0.13 9  159 212 
 SPBC HN ES        438 19.60                             123   -0.10 9  159 212 
 TAM  HZ IP     C  438  1.06                             120    0.17 9  175 106 
 TAM  HN ES        438 21.90                             120   -0.74 9  175 106 
 TAM  HZ I         438 22.07        27.1 0.14            124            175 106 
 ZAR  HZ EP        438  1.67                             119   -0.07 9  184 292 
 ZAR  HN ES        438 24.97                             119    0.82 9  184 292 
 ZAR  HZ I         438 30.28        36.7 0.24            121            184 292 
 NOR  HZ EP        438  6.16                             114   -0.12 8  225 230 
 NOR  HE ES        438 32.33                             114    0.10 8  225 230 
 NOR  HZ I         438 37.12        11.9 0.22            116            225 230 
 SML  HZ EP        438  6.10                             113   -0.60 8  229 339 
 SML  HE ES        438 32.71                             113   -0.27 8  229 339 
 CHI  HZ EP        438 10.05                             111    0.21 8  252 191 
 CHI  HN ES        438 38.52                             111   -0.04 8  252 191 
 CHI  HZ I         438 42.84         5.2 0.38            113            252 191 
 HEL  HZ EP        438 10.78                             111    0.55 8  256 253 
 HEL  HN ES        438 39.19                             111   -0.08 8  256 253 
 GUY2CHZ EP        438 14.84                             108    0.46 7  291 231 
 GUY2CHN ES        438 46.85                             108    0.20 7  291 231 
 GUY2CHZ I         438 54.14        10.3 0.28                           291 231 
 CBOC HZ EP        438 17.77                             106    0.55 7  318 250 
 CBOC HN ES        438 51.64                             106   -0.06 7  318 250 
 CBOC HZ I         438 54.90         6.1 0.32            107            318 250 
 COD  HZ EP        438 19.55                             104    0.12 7  339 358 
 COD  HN ES        438 55.88                             104    0.25 7  339 358 
 COD  HZ I         439  3.15         5.8 0.64            106            339 358 
 PRA  HZ EP        438 25.84                             102    0.29 6  390 207 
 PRA  HN ES        439  7.45                             102    0.92 6  390 207 
 PRA  HZ I         439 12.14         9.0 0.34            104            390 207 
 ORTC HZ EP        438 26.32                             102    0.64 6  391 213 
 ORTC HN ES        439  5.97                             102   -0.79 6  391 213 
 ORTC HZ I         439 13.99         4.8 0.44            104            391 213 
 SJC  HZ EP   4    438 24.31                             102   -1.55 0  393 329 
 SJC  HN ES   4    439  3.52                             102   -3.56 0  393 329 
                                                                                
