 2017  2 3 0859 12.2 L   6.794 -73.147148.7  RSN 12 0.2 1.8LRSN                1
 GAP=137        0.71       2.7     3.0  4.3 -0.4219E+00  0.3275E+01  0.4982E+00E
 Epicentro: LOS SANTOS - SANTANDER                                             3
 ACTION:UPD 17-05-24 15:32 OP:jn   STATUS:               ID:20170203085912 L   I
 OLDACT:UP  17-02-03 17:47 OP:e    STATUS:               ID:20170203085745     3
 OLDACT:REG 17-02-03 12:52 OP:dnl  STATUS:               ID:20170203085745     3
 2017-02-03-0858-00M.COL___322                                                 6
 STAT SP IPHASW D HRMM SECON CODA AMPLIT PERI AZIMU VELO AIN AR TRES W  DIS CAZ7
 BAR2 EZ EP        859 32.05                             171   -0.1510 22.7 190 
 BAR2 EZ ES        859 47.75                             171   -0.0310 22.7 190 
 BAR2 EZ I         859 49.88        25.0 0.30            167           22.7 190 
 BRR  HZ EP        859 34.02                             153    0.3210 71.4 299 
 BRR  HN ES        859 50.58                             153    0.1210 71.4 299 
 BRR  HZ I         859 52.21        13.0 0.32            151           71.4 299 
 PAM  EZ IP     C  859 35.07                             152    0.2810 78.0  39 
 PAM  EN ES        859 52.35                             152   -0.0410 78.0  39 
 PAM  EZ I         859 54.59         5.8 0.40            157           78.0  39 
 RUS  HZ EP        859 36.04                             145   -0.1810100.0 176 
 RUS  HN ES        859 54.84                             145   -0.1010100.0 176 
 RUS  HZ I         859 55.92         6.4 0.38            144          100.0 176 
 PTB  HZ EP        859 38.85                             133   -0.56 9  147 259 
 PTB  HE ES        9 0  0.73                             133    0.11 9  147 259 
 PTB  HZ I         9 0  6.93         6.1 0.24            131            147 259 
 ZAR  HZ EP   2    859 45.44                             123    0.57 4  204 292 
 ZAR  HN ES        9 0 10.40                             123    0.06 9  204 292 
 ZAR  HZ I         9 0 15.27         8.0 0.24            123            204 292 
 NOR  HZ EP   2    859 48.30                             119    0.23 4  234 235 
 NOR  HN ES        9 0 16.01                             119   -0.03 8  234 235 
 NOR  HZ I         9 0 23.92         4.9 0.18            119            234 235 
 CHI  HZ EP   2    859 50.34                             118    0.32 4  248 195 
 CHI  HN ES        9 0 19.69                             118    0.19 8  248 195 
 CHI  HZ I         9 0 23.12         3.4 0.58            118            248 195 
 ROSC BZ EP   9    859 52.29                             118    1.85 0  252 211 
 ROSC BN ES        9 0 22.98                                    0.88 8  252 211 
 ROSC BZ I         9 0 26.55         8.2 0.45            117            252 211 
 URE  HZ EP        859 53.14                             114   -0.31 7  284 292 
 URE  HE ES   4    9 0 23.42                             114   -2.19 0  284 292 
 URE  HZ I         9 0 32.41         3.2 0.36            115            284 292 
 PTGC HZ EP   4    859 55.29                             112   -0.86 0  308 159 
 PTGC HN ES   4    9 0 28.86                             112   -1.56 0  308 159 
 PTGC HZ I         9 0 31.51         4.5 0.42            114            308 159 
 SJC  HZ EP   4    9 0  6.23                             106   -1.71 0  410 327 
 SJC  HN ES   4    9 0 47.46                             106   -3.93 0  410 327 
 SJC  HZ I         9 0 47.72         1.4 0.72            107            410 327 
                                                                                
