 2015  9 3 0823 33.7 L   6.848 -73.098146.3  RSN  4 0.3 1.2LRSN                1
 GAP=207        0.81       4.2     6.9  7.7 -0.1058E+02  0.1362E+02 -0.4341E+00E
 Epicentro: LOS SANTOS - SANTANDER                                             3
 ACTION:UPD 15-10-28 16:23 OP:cam  STATUS:               ID:20150903082333 L   I
 OLDACT:REG 15-09-03 13:00 OP:stll STATUS:               ID:20150903081749     3
 2015-09-03-0817-49M.COL___349                                                 6
 STAT SP IPHASW D HRMM SECON CODA AMPLIT PERI AZIMU VELO AIN AR TRES W  DIS CAZ7
 BAR2 EZ EP        823 54.02                             168    0.4710 29.7 198 
 BAR2 EZ ES        824  8.80                             168   -0.2310 29.7 198 
 BAR2 EZ I         824 10.13         3.0 0.22            169           29.7 198 
 PTB  HZ EP        824  1.44                             131    0.14 9  154 257 
 PTB  HN ES        824 22.81                             131    0.00 9  154 257 
 PTB  HZ I         824 26.58         1.6 0.46            131            154 257 
 OCA  HN ES        824 23.36                             131   -0.07 9  156 351 
 OCA  HZ I         824 26.95         3.5 0.32            130            156 351 
 SPBC HZ EP        824  2.36                             128   -0.60 9  171 219 
 SPBC HN ES        824 26.00                             128    0.23 9  171 219 
                                                                                
