 2012 10 3 0738  6.0 L   6.667 -73.278155.7  RSN  5 0.5 1.2LRSN                1
 GAP=132        0.89      12.6    14.3 13.4  0.1465E+03 -0.3896E+02 -0.3630E+02E
 Epicentro: GALAN - SANTANDER                                                  3
 ACTION:UPD 12-11-22 17:01 OP:ep   STATUS:               ID:20121003073806 L   I
 2012-10-03-0730-00M.COL___223                                                 6
 STAT SP IPHASW D HRMM SECON CODA AMPLIT PERI AZIMU VELO AIN AR TRES W  DIS CAZ7
 BAR2 SZ EP   1    738 25.74                             175   -0.93 7 13.4 128 
 BAR2 SZ I         738 43.01         5.0 0.14                          13.4 128 
 GIR2 SZ EP   2    738 28.14                             163    0.82 5 46.5  12 
 BRR  HZ EP   1    738 28.01                             155   -0.07 7 68.3 315 
 BRR  HN ES   1    738 45.40                             155    0.10 7 68.3 315 
 BRR  HZ I         738 49.41         3.5 0.17                          68.3 315 
 RUS  HZ EP   1    738 30.34                             149    0.41 7 88.3 166 
 RUS  HE ES   1    738 48.72                             149    0.13 7 88.3 166 
 RUS  HZ I         738 51.53         1.0 0.56                          88.3 166 
 ZAR  HN ES   1    739  3.66                             126   -0.01 6  197 298 
                                                                                
