 2014  7 3 0808 11.8 L   6.792 -73.164146.0  RSN  8 0.3 2.0LRSN                1
 GAP=135        0.73       2.7     3.3  4.9 -0.5949E+00  0.6260E+01 -0.2877E+01E
 Epicentro: LOS SANTOS - SANTANDER                                             3
 ACTION:UPD 15-03-16 20:40 OP:nd   STATUS:               ID:20140703080811 L   I
 OLDACT:UP  14-07-03 16:00 OP:cam  STATUS:               ID:20140703080000     3
 OLDACT:REG 14-07-03 13:06 OP:cam  STATUS:               ID:20140703080000     3
 2014-07-03-0800-00M.COL___279                                                 6
 STAT SP IPHASW D HRMM SECON CODA AMPLIT PERI AZIMU VELO AIN AR TRES W  DIS CAZ7
 BAR2 SZ EP     C  8 8 31.47                             171    0.0510 22.1 185 
 BAR2 SZ ES        8 8 46.93                             171    0.2010 22.1 185 
 BAR2 SZ I         8 8 48.14        17.1 0.24            170           22.1 185 
 PAM  SZ IP     D  8 8 34.37                             150    0.2310 79.4  40 
 PAM  SN ES        8 8 51.64                             150    0.0510 79.4  40 
 PAM  SZ I         8 8 53.59        16.6 0.20            155           79.4  40 
 RUS  HZ EP   1    8 8 35.46                             144   -0.04 7 99.8 175 
 RUS  HN ES        8 8 53.72                             144   -0.2910 99.8 175 
 RUS  HZ I         8 8 55.24         6.8 0.44            148           99.8 175 
 PTB  HZ EP        8 8 38.37                             132   -0.20 9  146 259 
 PTB  HN ES        8 8 59.17                             132   -0.30 9  146 259 
 PTB  HZ I         8 9  5.28        12.9 0.20            133            146 259 
 SPBC HZ EP        8 8 40.32                             129    0.21 9  161 219 
 SPBC HN ES   1    8 9  2.09                             129   -0.12 7  161 219 
 SPBC HZ I         8 9  7.50        18.1 0.40            131            161 219 
 ZAR  HZ EP        8 8 44.16                             123    0.07 9  203 293 
 ZAR  HN ES        8 9 10.02                             123    0.74 9  203 293 
 ZAR  HZ I         8 9 15.76        14.4 0.30            123            203 293 
 SML  HZ EP        8 8 48.19                             117   -0.23 8  244 336 
 SML  HN ES        8 9 16.37                             117   -0.63 8  244 336 
 SML  HZ I         8 9 21.13        18.9 0.10            119            244 336 
 HEL  HZ EP   4    8 8 52.89                             115    1.12 0  270 256 
 GUY2CHZ EP   4    8 8 56.72                             113    1.56 0  299 235 
 PTGC HZ EP   4    8 8 54.33                             112   -1.31 0  309 158 
 PRA  HZ EP   1    8 9  5.43                             107    0.33 4  390 209 
                                                                                
