 2012  3 3 0729 57.3 L   6.739 -73.189154.5  RSN  4 0.3 1.1LRSN                1
 GAP=228        0.69       7.5     7.1  9.2  0.2535E+02 -0.1096E+02 -0.7240E+01E
 ACTION:UP  12-03-31 23:16 OP:EP   STATUS:               ID:20120303072957 L   I
 2012-03-03-0730-00M.COL___191                                                 6
 STAT SP IPHASW D HRMM SECON CODA AMPLIT PERI AZIMU VELO SNR AR TRES W  DIS CAZ7
 BAR2 SZ EP        730 17.42                             174    -0.410   16 177 
 BRR  HZ EP   1    730 19.46                             154     0.1 7   71 305 
 BRR  HN ES   1    730 36.80                             154     0.2 7   71 305 
 BRR  HZ I         730 39.24         3.8 0.09                            71 305 
 RUS  HZ EP   1    730 21.80                             147     0.3 7   94 173 
 RUS  HN ES   1    730 40.40                             147     0.1 7   94 173 
 RUS  HZ I         730 43.44         1.0 0.45                            94 173 
 PTB  HZ EP   1    730 24.65                             135     0.2 7  142 261 
 PTB  HE ES   1    730 45.37                             135    -0.3 7  142 261 
                                                                                
