 2010  1 3 0227 35.3 L   6.783 -73.158151.9  RSN  4 0.2 1.4LRSN                1
 GAP=181        0.44       3.5    16.8  8.9 -0.1389E+02  0.5474E+02  0.4446E+01E
 Epicentro: LOS SANTOS - SANTANDER                                             3
 ACTION:UP  10-08-24 09:42 OP:vdl  STATUS:               ID:20100103022735 L   I
 2010-01-03-0224-39S.COL___097                                                 6
 STAT SP IPHASW D HRMM SECON CODA AMPLIT PERI AZIMU VELO SNR AR TRES W  DIS CAZ7
 BAR2 SZ EP   2    227 55.69                             172     0.1 5   21 188 
 BAR2 SZ ES   3    228 11.13                             172    -0.4 2   21 188 
 RUS  BZ EP   1    227 59.71                             146     0.2 7   99 175 
 RUS  BE ES   2    228 18.23                             146    -0.2 5   99 175 
 RUS  BZ I         228 19.33         2.8 0.26                            99 175 
 OCA  SZ ES   2    228 26.86                             131     0.0 5  162 354 
 CHI  HZ EP   1    228 12.72                             119    -0.4 6  246 195 
 CHI  HN ES   1    228 42.80                             119     0.2 6  246 195 
 CHI  HZ I         228 45.50         2.4 0.18                           246 195 
                                                                                
