 2011  9 3 0402 45.7 L   6.788 -73.111142.8  RSN 16 0.3 2.7LRSN                1
 GAP=118        0.46       1.7     2.7  3.1 -0.3036E+00  0.2955E+01  0.5795E+00E
 Epicentro: LOS SANTOS - SANTANDER                                             3
 ACTION:UPD 12-07-13 15:55 OP:ep   STATUS:               ID:20110903040245 L   I
 2011-09-03-0401-10S.COL___170                                                 6
 STAT SP IPHASW D HRMM SECON CODA AMPLIT PERI AZIMU VELO AIN AR TRES W  DIS CAZ7
 BAR2 SZ IP        4 3  4.96                             170    0.0210 23.0 200 
 BAR2 SZ ES   1    4 3 19.35                             170   -0.62 7 23.0 200 
 BAR2 SZ I         4 3 20.65       204.0 0.29                          23.0 200 
 GIR2 SZ EP        4 3  5.09                             166    0.0310 33.5 344 
 GIR2 SZ ES   2    4 3 20.52                             166    0.34 5 33.5 344 
 BRR  HZ IP     C  4 3  6.89                             151    0.1510 75.3 298 
 BRR  HZ I         4 3  7.28       186.8 0.15                          75.3 298 
 BRR  HN ES   1    4 3 23.37                             151    0.20 7 75.3 298 
 PAM  SZ EP   1    4 3  7.89                             150    0.39 7 76.1  37 
 PAM  SN ES   1    4 3 24.60                             150    0.08 7 76.1  37 
 RUS  HZ EP   1    4 3  8.95                             143   -0.07 7 99.0 178 
 RUS  HN ES   1    4 3 27.05                             143   -0.18 7 99.0 178 
 RUS  HZ I         4 3 28.95        42.5 0.49                          99.0 178 
 OCA  SZ EP   1    4 3 13.69                             128   -0.25 7  162 352 
 OCA  SZ ES   1    4 3 35.93                             128   -0.05 7  162 352 
 OCA  SZ I         4 3 38.90       109.9 0.44                           162 352 
 YOP  SE ES   2    4 3 38.66                             126    0.40 4  176 154 
 ZAR  HZ EP   1    4 3 17.95                             121   -0.41 6  208 292 
 ZAR  HN ES   2    4 3 43.55                             121   -0.30 4  208 292 
 ZAR  HZ I         4 3 49.88        55.0 0.44                           208 292 
 NOR  SZ EP   2    4 3 21.01                             117   -0.48 4  237 235 
 NOR  SN ES   2    4 3 49.49                             117    0.06 4  237 235 
 CHI  HZ EP   2    4 3 22.95                             116   -0.23 4  248 196 
 CHI  HN ES   2    4 3 52.38                             116   -0.05 4  248 196 
 CHI  HZ I         4 3 55.98        11.6 0.33                           248 196 
 ROSC BZ EP   2    4 3 23.83                             116    0.10 4  254 212 
 ROSC BZ I         4 4  2.79        20.3 0.53                           254 212 
 HEL  HZ EP   1    4 3 26.64                             114    0.52 6  275 256 
 HEL  HN ES   2    4 3 57.97                             114    0.30 4  275 256 
 HEL  HZ I         4 4  4.03        28.9 0.64                           275 256 
 RREF HZ EP   2    4 3 31.92                             110   -0.01 3  324 230 
 RREF HN ES   2    4 4  8.22                             110    0.22 3  324 230 
 RREF HZ I         4 4 19.40        13.7 0.35                           324 230 
 COD  HZ EP   2    4 3 33.71                             108   -0.43 3  350 354 
 COD  HN ES   2    4 4 11.80                             108   -0.14 3  350 354 
 COD  HZ I         4 4 16.66        29.7 0.70                           350 354 
 PRA  HZ EP   1    4 3 39.28                             106    0.10 4  393 210 
 PRA  HN ES   2    4 4 21.30                             106    0.38 3  393 210 
 SJA  SZ EP   2    4 3 39.94                             106   -0.14 3  400 194 
                                                                                
