 2010  3 3 0241 38.7 L   6.818 -73.018139.6  RSN  4 0.1 1.5LRSN                1
 GAP=196        0.33       3.1     7.5  5.4  0.1072E+02 -0.1503E+02 -0.7893E+01E
 Epicentro: CEPITA - SANTANDER                                                 3
 ACTION:UP  10-08-24 09:51 OP:vdl  STATUS:               ID:20100303024138 L   I
 2010-03-03-0236-46S.COL___094                                                 6
 STAT SP IPHASW D HRMM SECON CODA AMPLIT PERI AZIMU VELO SNR AR TRES W  DIS CAZ7
 BAR2 SZ EP   1    241 57.86                             167     0.1 7   31 216 
 BAR2 SZ ES   2    242 12.48                             167    -0.2 5   31 216 
 BRR  HZ EP        241 59.79                             147    -0.110   83 293 
 BRR  HN ES   2    242 16.68                             147     0.2 5   83 293 
 BRR  HZ I         242 18.84        14.1 0.27                            83 293 
 RUS  BZ EP   2    242  2.08                             142     0.1 5  103 184 
 RUS  BN ES   2    242 20.10                             142    -0.1 5  103 184 
 RUS  BZ I         242 21.51         2.6 0.45                           103 184 
 OCA  SZ EP   1    242  6.59                             128     0.0 7  161 348 
 OCA  SZ ES   2    242 28.26                             128     0.0 5  161 348 
                                                                                
