 2010  5 3 0428 36.7 L   6.802 -73.071147.1  RSN  6 0.5 1.6LRSN                1
 GAP=191        0.98       7.2    12.2  9.4 -0.1837E+02 -0.2748E+02 -0.5701E+01E
 Epicentro: LOS SANTOS - SANTANDER                                             3
 ACTION:UP  10-08-24 10:02 OP:vdl  STATUS:               ID:20100503042836 L   I
 2010-05-03-0425-56S.COL___105                                                 6
 STAT SP IPHASW D HRMM SECON CODA AMPLIT PERI AZIMU VELO SNR AR TRES W  DIS CAZ7
 BAR2 SZ IP        428 56.17                             169    -0.410   26 208 
 BAR2 SZ ES   1    429 12.02                             169    -0.1 7   26 208 
 GIR2 SZ EP   2    428 56.32                             167    -0.3 5   33 336 
 GIR2 SZ ES   1    429 12.15                             167     0.0 7   33 336 
 BRR  HZ EP   1    428 58.64                             151     0.2 7   78 296 
 BRR  HE ES   1    429 15.83                             151     0.4 7   78 296 
 BRR  HZ I         429 18.54         9.0 0.08                            78 296 
 BRI  SZ EP   1    429  0.67                             143     0.1 7  106  17 
 BRI  SZ ES   1    429 19.30                             143     0.2 7  106  17 
 GUE  SZ EP   1    429  2.33                             140     0.9 7  115   8 
 OCA  SZ EP   2    429  4.88                             130    -0.4 5  161 350 
 OCA  SZ ES   1    429 26.54                             130    -0.9 7  161 350 
 OCA  SZ I         429 32.92         3.0 0.20                           161 350 
                                                                                
