 2015  7 3 0524  0.3 L   6.764 -73.232144.0  RSN  7 0.5 1.5LRSN                1
 GAP=230        1.14       5.6     6.4  8.3  0.1286E+02  0.2849E+02  0.1122E+02E
 Epicentro: ZAPATOCA - SANTANDER                                               3
 ACTION:UPD 15-09-08 21:46 OP:cam  STATUS:               ID:20150703052400 L   I
 OLDACT:DUP 15-07-03 19:38 OP:ak   STATUS:               ID:20150703051743d    3
 OLDACT:REG 15-07-03 14:21 OP:ar   STATUS:               ID:20150703051742     3
 2015-07-03-0517-42M.COL___325                                                 6
 STAT SP IPHASW D HRMM SECON CODA AMPLIT PERI AZIMU VELO AIN AR TRES W  DIS CAZ7
 BAR2 EZ EP        524 19.06                             172   -0.5910 19.8 164 
 BAR2 EZ ES        524 34.82                             172    0.0810 19.8 164 
 BAR2 EZ I         524 37.55         5.3 0.14            169           19.8 164 
 RUS  HZ EP        524 23.70                             144    0.0310 97.8 170 
 RUS  HN ES        524 42.52                             144    0.6110 97.8 170 
 RUS  HZ I         524 45.54         1.4 0.18            146           97.8 170 
 ZAR  HZ EP        524 32.55                             123    0.66 9  197 294 
 ZAR  HE ES        524 55.98                             123   -0.54 9  197 294 
 ZAR  HZ I         525  3.67         6.2 0.27            124            197 294 
 CHI  HZ EP        524 36.36                             117   -0.87 8  242 193 
 CHI  HN ES        525  5.33                             117   -0.70 8  242 193 
 HEL  HZ EP        524 39.76                             115    0.47 8  262 256 
 HEL  HN ES        525  9.51                             115   -0.19 8  262 256 
 HEL  HZ I         525 18.55         2.6 0.34            117            262 256 
 GUY2CHZ EP        524 43.28                             113    0.59 7  291 234 
 GUY2CHN ES        525 15.90                             113    0.15 7  291 234 
 GUY2CHZ I         525 29.28         1.9 0.42                           291 234 
 PRA  HZ EP        524 53.21                             107    0.40 6  384 209 
 PRA  HN ES        525 33.98                             107    0.22 6  384 209 
 PRA  HZ I         525 43.66         2.2 0.36            109            384 209 
                                                                                
