 2011 12 3 0803 14.1 L   6.459 -73.485117.0  RSN  5 0.2 0.8LRSN                1
 GAP=137        0.60       4.0     7.2  7.2  0.9885E+01  0.2436E+02  0.1342E+02E
 Epicentro: SIMACOTA - SANTANDER                                               3
 ACTION:UPD 12-07-13 16:13 OP:ep   STATUS:               ID:20111203080314 L   I
 2011-12-03-0800-00M.COL___182                                                 6
 STAT SP IPHASW D HRMM SECON CODA AMPLIT PERI AZIMU VELO AIN AR TRES W  DIS CAZ7
 BAR2 SZ EP        8 3 30.90                             162    0.1510 36.6  66 
 BAR2 SZ ES   1    8 3 43.88                             162    0.17 7 36.6  66 
 GIR2 SZ EP        8 3 33.01                             145    0.2310 75.7  25 
 BRR  HZ EP        8 3 32.34                             145   -0.2510 75.9 341 
 BRR  HZ I         8 3 40.13         2.6 0.28                          75.9 341 
 BRR  HN ES   1    8 3 46.90                             145   -0.09 7 75.9 341 
 RUS  HZ EP        8 3 32.98                             145   -0.3710 76.8 145 
 RUS  HE ES   2    8 3 48.25                             145   -0.09 5 76.8 145 
 RUS  HZ I         8 3 49.83         0.9 0.28                          76.8 145 
 CTAU SZ EP        8 3 40.29                             124    0.26 9  152 204 
                                                                                
