 2013  8 3 0304 51.7 L   6.851 -73.111145.5  RSN 12 0.5 1.9LRSN                1
 GAP=198        0.88       3.2     4.1  5.3  0.5463E+00  0.6133E+01  0.1505E+01E
 Epicentro: LOS SANTOS - SANTANDER                                             3
 ACTION:UPD 14-01-14 08:58 OP:ep   STATUS:               ID:20130803030451 L   I
 OLDACT:REG 13-08-03 07:38 OP:carl STATUS:               ID:20130803025959     3
 2013-08-03-0259-59M.COL___270                                                 6
 STAT SP IPHASW D HRMM SECON CODA AMPLIT PERI AZIMU VELO AIN AR TRES W  DIS CAZ7
 GIR2 SZ EP        3 5 11.50                             169    0.2510 26.8 340 
 GIR2 SZ ES   1    3 5 26.23                             169   -0.25 7 26.8 340 
 GIR2 SZ I         3 5 28.52        11.8 0.32            167           26.8 340 
 BAR2 SZ EP        3 5 11.62                             168    0.1610 29.7 196 
 BAR2 SZ ES   1    3 5 26.64                             168   -0.22 7 29.7 196 
 BAR2 SZ I         3 5 30.12         9.2 0.60            166           29.7 196 
 BRR  HZ IP     C  3 5 13.25                             152    0.3510 72.2 293 
 BRR  HN ES   1    3 5 30.18                             152    0.76 7 72.2 293 
 BRR  HZ I         3 5 35.71        12.3 0.16            150           72.2 293 
 RUS  HZ EP   1    3 5 15.68                             142   -0.16 7  106 178 
 RUS  HN ES        3 5 34.78                             142    0.1210  106 178 
 RUS  HZ I         3 5 36.27         5.3 0.36            145            106 178 
 PTB  HZ EP   4    3 5 18.24                             131   -0.88 0  153 257 
 PTB  HE ES        3 5 40.37                             131   -0.12 9  153 257 
 SPBC HZ EP        3 5 20.58                             128   -0.27 9  170 219 
 SPBC HN ES        3 5 43.08                             128   -0.49 9  170 219 
 SPBC HZ I         3 5 50.21        14.6 0.30            129            170 219 
 ZAR  HZ EP   1    3 5 24.02                             122   -0.29 6  206 290 
 ZAR  HN ES        3 5 49.15                             122   -0.58 8  206 290 
 ZAR  HZ I         3 5 55.14        12.0 0.38            123            206 290 
 SML  HZ EP   1    3 5 27.73                             118   -0.23 6  240 334 
 SML  HN ES   1    3 5 55.72                             118   -0.50 6  240 334 
 SML  HZ I         3 6  1.06        10.7 0.10            120            240 334 
 NOR  HZ EP   1    3 5 28.00                             118   -0.12 6  241 234 
 NOR  HN ES   1    3 5 56.85                             118    0.33 6  241 234 
 NOR  HZ I         3 5 58.19         6.8 0.32            119            241 234 
 HEL  HZ EP   1    3 5 34.00                             114    1.51 6  277 255 
 HEL  HN ES        3 6  4.61                             114    0.32 7  277 255 
 HEL  HZ I         3 6 10.20         6.8 0.64            115            277 255 
 GUY2CHZ EP   4    3 5 38.04                             112    2.00 0  308 234 
 GUY2CHE ES   4    3 6 10.93                             112    0.32 0  308 234 
 PRA  HZ EP        3 5 45.42                             106   -0.61 6  399 210 
 PRA  HN ES   1    3 6 27.81                             106   -0.58 4  399 210 
 PRA  HZ I         3 6 32.67         4.1 0.28            108            399 210 
 ORTC HZ EP   1    3 5 46.91                             106    0.48 4  402 216 
 ORTC HN ES        3 6 29.24                             106    0.14 6  402 216 
 ORTC HZ I         3 6 36.74         2.9 0.42            108            402 216 
                                                                                
