 2014  1 3 0025 12.9 L   6.781 -73.113146.3  RSN 16 0.6 2.2LRSN                1
 GAP= 73        1.42       3.4     4.0  6.6 -0.2302E+01  0.6111E+01  0.8536E+00E
 Epicentro: LOS SANTOS - SANTANDER                                             3
 ACTION:UPD 14-03-13 09:50 OP:ep   STATUS:               ID:20140103002512 L   I
 OLDACT:REG 14-01-03 08:57 OP:stll STATUS:               ID:20140103001818     3
 2014-01-03-0018-18M.COL___249                                                 6
 STAT SP IPHASW D HRMM SECON CODA AMPLIT PERI AZIMU VELO AIN AR TRES W  DIS CAZ7
 BAR2 SZ EP        025 32.80                             171    0.2410 22.3 200 
 BAR2 SZ ES        025 47.39                             171   -0.5210 22.3 200 
 BAR2 SZ I         025 48.93        35.5 0.38            170           22.3 200 
 BRR  HZ EP        025 34.78                             151    0.4510 75.4 299 
 BRR  HN ES        025 51.79                             151    0.7210 75.4 299 
 BRR  HZ I         025 56.62        26.1 0.30            151           75.4 299 
 PAM  SZ EP        025 35.73                             151    0.6110 76.8  36 
 PAM  SN ES        025 52.77                             151    0.3010 76.8  36 
 PAM  SZ I         025 55.07        15.6 0.20            155           76.8  36 
 RUS  HZ EP        025 36.73                             145    0.2010 98.3 178 
 RUS  HN ES        025 54.60                             145   -0.3810 98.3 178 
 RUS  HZ I         025 56.68         8.0 0.34            148           98.3 178 
 TAM  HN ES        026  1.13                             131   -0.44 9  151 105 
 PTB  HZ EP        025 39.78                             132   -0.41 9  151 260 
 PTB  HN ES        026  0.52                             132   -0.96 9  151 260 
 PTB  HZ I         026  8.29        31.4 0.42            133            151 260 
 OCA  HZ EP        025 42.06                             129    0.58 9  163 352 
 OCA  HN ES        026  3.93                             129    0.15 9  163 352 
 OCA  HZ I         026  8.61        19.0 0.40            132            163 352 
 SPBC HZ EP        025 41.63                             129    0.13 9  164 220 
 SPBC HN ES        026  4.27                             129    0.46 9  164 220 
 SPBC HZ I         026 10.95        38.6 0.32            131            164 220 
 ZAR  HZ EP        025 45.46                             122   -0.33 8  208 292 
 ZAR  HN ES        026 11.60                             122    0.14 8  208 292 
 NOR  HZ EP        025 48.76                             118   -0.08 8  236 235 
 NOR  HN ES        026 16.88                             118    0.00 8  236 235 
 NOR  HZ I         026 20.59        24.7 0.18            120            236 235 
 SML  HZ EP        025 48.63                             117   -1.28 8  247 335 
 SML  HE ES        026 18.59                             117   -0.20 8  247 335 
 CHI  HZ EP        025 50.79                             117    0.29 8  248 196 
 CHI  HZ I         025 51.78         6.6 0.46            120            248 196 
 CHI  HN ES        026 19.46                             117   -0.39 8  248 196 
 ROSC BZ EP        025 52.67                             117    1.62 8  253 212 
 ROSC BE ES        026 20.46                             117   -0.36 8  253 212 
 HEL  HZ EP        025 52.08                             115   -1.38 8  275 256 
 HEL  HE ES        026 25.00                             115   -0.11 8  275 256 
 HEL  HZ I         026 30.94         7.5 0.30            116            275 256 
 SOCV BZ EP        025 54.89                             112   -0.85 7  299  56 
 GUY2CHZ EP        025 57.46                             112    0.74 7  303 235 
 GUY2CHN ES        026 31.21                             112    0.30 7  303 235 
 GUY2CHZ I         026 39.50        10.3 0.28                           303 235 
                                                                                
