 2015  6 3 0503  8.9 L   6.810 -73.138146.1  RSN 24 0.5 2.6LRSN                1
 GAP=119        0.98       2.2     3.3  4.4 -0.9542E+00  0.4555E+01  0.1830E+01E
 Epicentro: LOS SANTOS - SANTANDER                                             3
 ACTION:UPD 15-09-10 22:09 OP:cam  STATUS:               ID:20150603050308 L   I
 OLDACT:DUP 15-06-03 16:20 OP:ak   STATUS:               ID:20150603045749d    3
 2015-06-03-0457-48M.COL___291                                                 6
 STAT SP IPHASW D HRMM SECON CODA AMPLIT PERI AZIMU VELO AIN AR TRES W  DIS CAZ7
 BAR2 EZ IP     D  5 3 28.75                             170    0.1310 24.5 191 
 BAR2 EZ ES        5 3 43.63                             170   -0.3610 24.5 191 
 BAR2 EZ I         5 3 44.97        90.0 0.22            168           24.5 191 
 BRR  HZ IP     C  5 3 30.57                             153    0.4410 71.4 297 
 BRR  HN ES        5 3 47.11                             153    0.4510 71.4 297 
 PAM  SZ IP     D  5 3 31.76                             151    0.6610 76.0  40 
 PAM  SN ES        5 3 48.31                             151   -0.0810 76.0  40 
 PAM  SZ I         5 3 49.53        53.9 0.18            154           76.0  40 
 RUS  HZ EP        5 3 32.78                             144   -0.0110  102 177 
 RUS  HE ES        5 3 51.55                             144    0.1510  102 177 
 RUS  HZ I         5 3 53.02        40.5 0.44            145            102 177 
 OCA  HZ EP        5 3 36.76                             130   -0.41 9  159 353 
 OCA  HN ES        5 3 58.71                             130   -0.49 9  159 353 
 OCA  HZ I         5 4  7.25        99.1 0.22            130            159 353 
 SPBC HZ EP        5 3 37.63                             129    0.05 9  165 219 
 SPBC HN ES        5 3 59.59                             129   -0.34 9  165 219 
 SPBC HZ I         5 4  4.27        68.7 0.18            128            165 219 
 ZAR  HZ EP        5 3 41.28                             122   -0.15 9  204 292 
 ZAR  HE ES        5 4  6.56                             122   -0.23 9  204 292 
 ZAR  HZ I         5 4 12.05        43.5 0.34            121            204 292 
 NOR  HZ EP        5 3 44.87                             118    0.05 8  236 234 
 NOR  HN ES        5 4 12.44                             118   -0.37 8  236 234 
 NOR  HZ I         5 4 20.77        24.7 0.14            118            236 234 
 SML  HZ EP        5 3 45.03                             118   -0.47 8  243 335 
 SML  HN ES        5 4 14.82                             118    0.79 8  243 335 
 SML  HZ I         5 4 22.37        46.3 0.10            117            243 335 
 CHI  HZ EP        5 3 46.90                             117    0.12 8  250 195 
 CHI  HN ES        5 4 16.25                             117   -0.06 8  250 195 
 CHI  HZ I         5 4 21.62        29.3 0.30            118            250 195 
 ROSC BZ EP   4    5 3 48.82                             117    1.61 0  254 211 
 ROSC BN ES   4    5 4 18.88                             117    1.80 0  254 211 
 ROSC BZ I         5 4 23.35        68.6 0.40            117            254 211 
 HEL  HZ EP        5 3 49.33                             115    0.05 8  273 256 
 HEL  HN ES        5 4 19.99                             115   -0.76 8  273 256 
 HEL  HZ I         5 4 26.81        24.2 0.28            114            273 256 
 URE  HZ EP        5 3 49.66                             114   -0.39 7  284 292 
 URE  HN ES   4    5 4 19.09                             114   -3.04 0  284 292 
 URE  HZ I         5 4 30.49        20.3 0.20            113            284 292 
 GUY2CHZ EP        5 3 52.58                             112   -0.12 7  302 235 
 GUY2CHN ES        5 4 27.55                             112    0.71 7  302 235 
 GUY2CHZ I         5 4 35.20        21.5 0.50                           302 235 
 VIL  SZ EP        5 3 52.57                             112    0.07 7  305 192 
 VIL  SN ES        5 4 26.14                             112   -0.35 7  305 192 
 VIL  SZ I         5 4 29.54        37.3 0.38            113            305 192 
 PTGC HZ IP     C  5 3 52.04                             112   -0.84 7  309 159 
 PTGC HE ES   4    5 4 25.45                             112   -1.71 0  309 159 
 PTGC HZ I         5 4 27.16        21.3 0.28            113            309 159 
 CBOC HZ EP        5 3 56.41                             110    0.43 7  335 252 
 CBOC HN ES        5 4 31.83                             110   -0.86 7  335 252 
 CBOC HZ I         5 4 38.73         5.8 0.24            110            335 252 
 TOL  SZ EP        5 3 58.13                             109    0.78 7  345 225 
 TOL  SN ES        5 4 36.16                             109    1.04 7  345 225 
 TOL  SZ I         5 4 42.65        13.1 0.33            109            345 225 
 MON  HZ EP   4    5 3 55.83                             109   -2.11 0  354 308 
 MON  HN ES   4    5 4 34.32                             109   -1.85 0  354 308 
 MON  HZ I         5 4 49.66        11.2 0.54            108            354 308 
 ANIL HZ EP   1    5 3 58.77                             108   -0.13 5  359 224 
 ANIL HN ES        5 4 38.31                             108    0.43 6  359 224 
 PRA  HZ EP        5 4  2.50                             106   -0.12 6  393 210 
 PRA  HN ES        5 4 43.84                             106   -0.66 6  393 210 
 PRA  HZ I         5 4 49.06        21.6 0.26            107            393 210 
 ORTC HZ EP        5 4  3.05                             106    0.03 6  397 216 
 ORTC HN ES        5 4 46.01                             106    0.80 6  397 216 
 ORTC HZ I         5 4 50.17        13.6 0.30            107            397 216 
 SJC  HZ EP   4    5 4  2.48                             106   -1.97 0  409 327 
 SJC  HN ES   4    5 4 44.58                             106   -3.17 0  409 327 
 SJC  HZ I         5 4 48.73         5.5 0.30            106            409 327 
 MACC HZ EP   4    5 4 16.23                             102   -1.56 0  522 189 
 MACC HE ES   4    5 5  7.11                             102   -4.39 0  522 189 
 MACC HZ I         5 5 32.27         3.9 0.38            102            522 189 
                                                                                
