 2012  2 3 0552 52.4 L   6.774 -73.159157.9  RSN  4 0.3 1.2LRSN                1
 GAP=181        0.46       5.5     5.1  6.7  0.3771E+01 -0.1610E+01  0.6771E+01E
 ACTION:UP  12-03-07 16:27 OP:epov STATUS:               ID:20120203055252 L   I
 2012-02-03-0550-00M.COL___188                                                 6
 STAT SP IPHASW D HRMM SECON CODA AMPLIT PERI AZIMU VELO SNR AR TRES W  DIS CAZ7
 GIR2 SZ EP   2    553 13.16                             167   -0.47 5 33.9 354 
 GIR2 SZ ES   2    553 29.84                             167   -0.31 5 33.9 354 
 BRR  HZ EP   1    553 15.06                             154    0.14 7 71.3 301 
 BRR  HZ I         553 15.30         6.8 0.16                          71.3 301 
 BRR  HE ES   1    553 32.72                             154    0.27 7 71.3 301 
 RUS  HZ EP   2    553 17.55                             147    0.33 5 97.9 175 
 RUS  HN ES   2    553 36.55                             147    0.00 5 97.9 175 
 RUS  HZ I         553 39.20         1.2 0.30                          97.9 175 
 PTB  HZ EP   2    553 20.14                             135   -0.11 5  146 260 
 PTB  HN ES   1    553 41.75                             135   -0.19 7  146 260 
                                                                                
