 2016  7 3 0937 42.1 L   6.785 -73.164151.1  RSN  6 0.3 1.7LRSN                1
 GAP=234        0.78       4.3     5.0  5.6  0.7411E+01  0.7163E+01 -0.1629E+01E
 Epicentro: LOS SANTOS - SANTANDER                                             3
 ACTION:UPD 17-03-29 16:46 OP:lp   STATUS:               ID:20160703093742 L   I
 OLDACT:UP  16-07-03 15:42 OP:cara STATUS:               ID:20160703092746     3
 OLDACT:UP  16-07-03 15:40 OP:cara STATUS:               ID:20160703092746     3
 OLDACT:REG 16-07-03 13:39 OP:edw  STATUS:               ID:20160703092746     3
 2016-07-03-0927-46M.COL___322                                                 6
 STAT SP IPHASW D HRMM SECON CODA AMPLIT PERI AZIMU VELO AIN AR TRES W  DIS CAZ7
 BAR2 EZ IP        938  2.14                             172   -0.1710 21.4 185 
 BAR2 EZ ES        938 18.06                             172   -0.0310 21.4 185 
 BAR2 EZ I         938 19.17         8.5 0.18            173           21.4 185 
 BRR  HZ IP     C  938  4.02                             154    0.2710 70.2 301 
 BRR  HN ES        938 21.03                             154    0.3710 70.2 301 
 BRR  HZ I         938 27.66         9.1 0.32            152           70.2 301 
 RUS  HE ES        938 24.76                             145   -0.3410 99.1 175 
 RUS  HZ I         938 25.77         4.4 0.24            150           99.1 175 
 PTB  HZ EP        938  8.89                             134   -0.38 9  145 259 
 PTB  HN ES        938 30.15                             134   -0.34 9  145 259 
 PTB  HZ I         938 31.78         6.4 0.14            135            145 259 
 SPBC HZ EP        938 11.04                             131    0.30 9  161 219 
 SPBC HN ES        938 33.55                             131    0.45 9  161 219 
 SPBC HZ I         938 36.00         8.8 0.28            133            161 219 
 ZAR  HZ EP        938 14.87                             124    0.13 9  203 293 
 ZAR  HE ES        938 39.95                             124   -0.27 9  203 293 
 ZAR  HZ I         938 47.21         9.0 0.30            125            203 293 
                                                                                
