 2014  1 3 0156 25.1 L   6.750 -73.145141.7  RSN  6 0.3 1.3LRSN                1
 GAP=139        0.67       2.8     3.4  4.5 -0.9620E+00  0.1706E+01  0.3339E+01E
 Epicentro: LOS SANTOS - SANTANDER                                             3
 ACTION:UPD 14-03-13 09:50 OP:ep   STATUS:               ID:20140103015625 L   I
 OLDACT:REG 14-01-03 09:00 OP:stll STATUS:               ID:20140103014816     3
 2014-01-03-0148-16M.COL___240                                                 6
 STAT SP IPHASW D HRMM SECON CODA AMPLIT PERI AZIMU VELO AIN AR TRES W  DIS CAZ7
 BAR2 SZ EP        156 44.18                             172    0.0710 17.9 193 
 BAR2 SZ ES        156 58.54                             172   -0.4310 17.9 193 
 BAR2 SZ I         157  0.60         8.1 0.14            169           17.9 193 
 BRR  HZ EP        156 45.94                             151   -0.0110 74.0 302 
 BRR  HN ES        157  2.74                             151    0.5110 74.0 302 
 BRR  HZ I         157  6.83         5.1 0.52            151           74.0 302 
 PAM  SZ EP        156 47.01                             149   -0.1110 81.7  37 
 PAM  SN ES        157  4.23                             149   -0.1010 81.7  37 
 RUS  HZ EP        156 48.16                             145    0.1410 95.0 176 
 RUS  HE ES        157  6.21                             145    0.2810 95.0 176 
 RUS  HZ I         157  7.77         2.0 0.30            144           95.0 176 
 PTB  HZ EP        156 51.41                             131   -0.21 9  147 261 
 PTB  HE ES        157 12.13                             131   -0.20 9  147 261 
 PTB  HZ I         157 14.15         4.1 0.46            131            147 261 
 CHI  HZ EP        157  2.19                             117    0.23 8  243 196 
 CHI  HN ES        157 30.53                             117   -0.21 8  243 196 
 CHI  HZ I         157 38.55         0.8 0.32            118            243 196 
                                                                                
