 2011  4 3 0235  7.1 L   6.774 -73.126134.2  RSN  6 0.2 1.5LRSN                1
 GAP=159        0.42       6.4     5.0  5.4 -0.1751E+02 -0.5253E+00  0.1970E+01E
 Epicentro: LOS SANTOS - SANTANDER                                             3
 ACTION:UP  11-06-22 15:28 OP:REBC STATUS:               ID:20110403023506 L   I
 2011-04-03-0234-10S.COL___138                                                 6
 STAT SP IPHASW D HRMM SECON CODA AMPLIT PERI AZIMU VELO SNR AR TRES W  DIS CAZ7
 BAR2 SZ ES   3    235 39.52                             171     0.1 2   21 197 
 BAR2 SZ I         235 41.40         4.5 0.21                            21 197 
 BTL  SZ EP        235 25.24                             170    -0.110   22 316 
 BTL  SZ ES   3    235 40.09                             170     0.6 2   22 316 
 BRR  HZ EP        235 27.12                             149    -0.110   74 300 
 BRR  HN ES   2    235 42.88                             149     0.0 5   74 300 
 BRR  HZ I         235 47.58         9.7 0.08                            74 300 
 PAM  SZ EP        235 28.03                             148    -0.110   78  37 
 PAM  SN ES   1    235 44.44                             148    -0.1 7   78  37 
 GRA  SZ EP        235 31.76                             133     0.310  128  16 
 CHI  HE ES   3    236 13.39                             115     0.7 2  246 196 
                                                                                
