 2013  2 3 0134 24.8 L   6.460 -73.609111.5  RSN  4 0.1 1.3LRSN                1
 GAP=138        0.39       2.7     2.0  4.1  0.1659E+01  0.1391E+01  0.2522E+01E
 Epicentro: SANTA HELENA DEL OPON - SANTANDER                                  3
 ACTION:UPD 13-03-12 09:30 OP:ep   STATUS:               ID:20130203013424 L   I
 2013-02-03-0130-00M.COL___240                                                 6
 STAT SP IPHASW D HRMM SECON CODA AMPLIT PERI AZIMU VELO AIN AR TRES W  DIS CAZ7
 BAR2 SZ EP        134 41.18                             154   -0.2010 49.5  73 
 BAR2 SZ ES   1    134 54.28                             154   -0.03 7 49.5  73 
 BAR2 SZ I         134 55.24         9.2 0.27            154           49.5  73 
 BRR  HZ IP     C  134 42.41                             144   -0.0510 72.5 351 
 BRR  HN ES        134 56.37                             144    0.1310 72.5 351 
 BRR  HN I         135 10.62         5.7 0.45                          72.5 351 
 RUS  HZ EP   1    134 44.40                             140    0.27 7 85.6 137 
 RUS  HE ES   1    134 59.21                             140   -0.01 7 85.6 137 
 RUS  HE I         135  3.20         2.0 0.31            151           85.6 137 
 PTB  HZ EP        134 44.23                             137    0.0710 94.1 275 
 PTB  HN ES        134 59.19                             137   -0.0810 94.1 275 
 PTB  HZ I         135  0.63         3.9 0.11                          94.1 275 
                                                                                
