 2015  9 3 0824 29.6 L   6.807 -73.174144.3  RSN  6 0.3 1.4LRSN                1
 GAP=180        0.69       2.4     4.2  5.5 -0.6765E+00  0.4498E+01 -0.3409E+01E
 Epicentro: LOS SANTOS - SANTANDER                                             3
 ACTION:UPD 15-10-28 16:23 OP:cam  STATUS:               ID:20150903082429 L   I
 OLDACT:DUP 15-09-03 18:58 OP:stll STATUS:               ID:20150903081750d    3
 2015-09-03-0817-49M.COL___349                                                 6
 STAT SP IPHASW D HRMM SECON CODA AMPLIT PERI AZIMU VELO AIN AR TRES W  DIS CAZ7
 BAR2 EZ EP        824 49.16                             170    0.0610 23.8 182 
 BAR2 EZ ES        825  4.24                             170   -0.0410 23.8 182 
 BAR2 EZ I         825  6.86         5.7 0.26            171           23.8 182 
 RUS  HZ EP        824 53.55                             143    0.2310  102 174 
 RUS  HZ I         824 54.20         1.8 0.10            148            102 174 
 RUS  HN ES        825 11.49                             143   -0.3010  102 174 
 PTB  HZ EP        824 56.27                             132    0.05 9  145 258 
 PTB  HN ES        825 16.80                             132   -0.15 9  145 258 
 PTB  HZ I         825 23.24         2.8 0.40            133            145 258 
 OCA  HZ EP        824 57.22                             129   -0.51 9  159 354 
 OCA  HN ES        825 20.15                             129    0.51 9  159 354 
 OCA  HZ I         825 27.55         7.3 0.22            131            159 354 
 SPBC HZ EP        824 58.00                             129    0.10 9  162 218 
 SPBC HN ES        825 20.15                             129    0.22 9  162 218 
 SPBC HZ I         825 26.95         4.4 0.34            131            162 218 
 SML  HN ES        825 34.09                             117   -0.21 8  242 336 
                                                                                
