 2014  3 3 0829 35.4 L   6.761 -73.152150.4  RSN  9 0.4 1.8LRSN                1
 GAP=137        0.89       3.4     4.5  6.8 -0.5641E+00  0.1101E+02 -0.4814E+01E
 Epicentro: LOS SANTOS - SANTANDER                                             3
 OLDACT:REG 14-03-03 09:23 OP:stll STATUS:               ID:20140303082819     3
 ACTION:UPD 14-04-09 23:14 OP:nd   STATUS:               ID:20140303082935 L   I
 OLDACT:UP  14-03-03 13:40 OP:fm   STATUS:               ID:20140303082819     3
 2014-03-03-0828-19M.COL___232                                                 6
 STAT SP IPHASW D HRMM SECON CODA AMPLIT PERI AZIMU VELO AIN AR TRES W  DIS CAZ7
 BAR2 SZ EP        829 54.72                             172   -0.7710 19.0 190 
 BAR2 SZ ES   1    830 11.48                             172    0.30 7 19.0 190 
 BAR2 SZ I         830 20.51        16.4 0.82            157           19.0 190 
 PAM  SZ EP        829 58.54                             150    0.2310 81.2  38 
 PAM  SN ES        830 15.79                             150   -0.4110 81.2  38 
 PAM  SZ I         830 17.65         7.2 0.28            155           81.2  38 
 RUS  HZ EP        829 59.60                             146    0.3110 96.3 175 
 RUS  HN ES        830 17.99                             146    0.0410 96.3 175 
 RUS  SZ I         830 19.24         4.1 0.38            139           96.3 175 
 PTB  HZ EP        830  2.66                             133    0.06 9  146 260 
 PTB  HN ES        830 24.00                             133    0.17 9  146 260 
 PTB  SZ I         830 29.22         7.9 0.56            121            146 260 
 OCA  HN ES   1    830 28.06                             130    0.95 7  164 354 
 ZAR  HZ EP   1    830  8.25                             123    0.02 6  205 293 
 ZAR  HE ES   1    830 33.27                             123   -0.59 6  205 293 
 ZAR  SZ I         830 58.32         6.2 0.16            114            205 293 
 SML  HZ EP        830 12.57                             118   -0.08 8  247 336 
 SML  HN ES        830 41.75                             118    0.02 8  247 336 
 GUY2CHZ EP   2    830 18.97                             113    0.11 4  298 235 
 GUY2CSZ I         831  1.42         3.2 1.54                           298 235 
 CBOC HZ EP   2    830 22.58                             111    0.32 3  332 253 
 CBOC SZ I         831 21.74         3.4 2.46            105            332 253 
                                                                                
