 2010  8 3 0331 14.9 L   6.804 -73.099138.6  RSN  5 0.2 1.7LRSN                1
 GAP=198        0.46       7.2    13.1  5.4  0.7435E+02 -0.5725E+01 -0.1524E+01E
 Epicentro: LOS SANTOS - SANTANDER                                             3
 ACTION:UP  10-09-07 10:51 OP:vdl  STATUS:               ID:20100803033115 L   I
 2010-08-03-0330-04S.COL___123                                                 6
 STAT SP IPHASW D HRMM SECON CODA AMPLIT PERI AZIMU VELO SNR AR TRES W  DIS CAZ7
 BAR2 SZ EP   1    331 33.61                             172    -0.1 7   25 202 
 BAR2 SZ ES   1    331 48.34                                     0.0 7   25 202 
 BAR2 SZ I         331 49.72        14.5 0.26                            25 202 
 GIR2 SZ ES   3    331 48.84                             164     0.4 2   32 341 
 BRR  HZ IP     D  331 35.41                             150    -0.110   76 296 
 BRR  HZ I         331 35.59        17.1 0.17                            76 296 
 BRR  HE ES   2    331 51.86                             150     0.2 5   76 296 
 RUS  HZ EP        331 38.20                             143     0.210  101 179 
 RUS  HN ES   2    331 55.61                             143    -0.4 5  101 179 
 RUS  HZ I         331 57.27         5.5 0.30                           101 179 
 CHI  HN ES   3    332 21.67                             116     0.0 2  250 196 
                                                                                
