 2010  8 3 0359 37.1 L   6.814 -73.101144.0  RSN  5 0.3 1.4LRSN                1
 GAP=169        0.47       3.5     7.6  7.6  0.3452E+01 -0.1380E+02  0.6683E+00E
 Epicentro: LOS SANTOS - SANTANDER                                             3
 ACTION:DUP 10-09-07 10:51 OP:vdl  STATUS:               ID:20100803035937 L   I
 2010-08-03-0356-39S.COL___123                                                 6
 STAT SP IPHASW D HRMM SECON CODA AMPLIT PERI AZIMU VELO SNR AR TRES W  DIS CAZ7
 BAR2 SZ EP   1    359 56.60                             169     0.0 7   26 200 
 BAR2 SZ ES   3    4 0 10.96                             169    -0.8 2   26 200 
 BAR2 SZ I         4 0 14.24         5.1 0.10                            26 200 
 GIR2 SZ EP   3    359 57.45                             167     0.9 2   31 341 
 BRR  HZ EP        359 58.13                             151    -0.210   75 296 
 BRR  HN ES   2    4 0 15.21                             151     0.4 5   75 296 
 BRR  HZ I         4 0 16.24         6.2 0.16                            75 296 
 RUS  HZ EP        4 0  0.85                             143     0.010  102 179 
 RUS  HE ES   2    4 0 19.31                             143     0.0 5  102 179 
 RUS  HZ I         4 0 20.12         4.2 0.23                           102 179 
 GUE  SZ EP   1    4 0  1.51                             139     0.0 7  114  10 
 GUE  SZ ES   2    4 0 20.49                             139     0.0 5  114  10 
                                                                                
