 2011 12 3 0803 34.3 L   6.789 -73.111146.2  RSN  7 0.3 1.8LRSN                1
 GAP=142        0.76       6.7     7.5  6.9 -0.1102E+02  0.2476E+01 -0.7997E+01E
 Epicentro: LOS SANTOS - SANTANDER                                             3
 ACTION:UPD 12-07-13 16:13 OP:ep   STATUS:               ID:20111203080334 L   I
 2011-12-03-0800-00M.COL___182                                                 6
 STAT SP IPHASW D HRMM SECON CODA AMPLIT PERI AZIMU VELO AIN AR TRES W  DIS CAZ7
 BAR2 SZ EP        8 3 54.04                             171    0.0910 23.2 200 
 BAR2 SZ ES   1    8 4  8.68                             171   -0.62 7 23.2 200 
 BAR2 SZ I         8 4  9.74        13.4 0.40                          23.2 200 
 GIR2 SZ EP        8 3 54.07                             167    0.0210 33.3 344 
 BRR  HZ EP        8 3 55.85                             151    0.1610 75.2 298 
 BRR  HZ I         8 3 56.13        12.3 0.26                          75.2 298 
 BRR  HN ES   1    8 4 12.74                             151    0.34 7 75.2 298 
 PAM  SZ EP        8 3 56.77                             151    0.3210 75.9  37 
 PAM  SN ES   1    8 4 13.90                             151    0.16 7 75.9  37 
 RUS  HN ES   3    8 4 16.00                             144   -0.45 2 99.2 178 
 OCA  SZ EP        8 4  2.15                             129   -0.62 9  162 352 
 CTAU SZ EP   2    8 4  7.52                             123    0.16 4  204 211 
                                                                                
