 2013  7 3 0237 25.1 L   6.782 -73.098142.6  RSN  5 0.2 1.5LRSN                1
 GAP=123        0.49       4.0     5.3  5.0  0.1316E+02 -0.1633E+02 -0.8635E+01E
 Epicentro: LOS SANTOS - SANTANDER                                             3
 ACTION:UPD 13-08-12 10:35 OP:ep   STATUS:               ID:20130703023725 L   I
 OLDACT:REG 13-07-03 08:23 OP:stll STATUS:               ID:20130703022841     3
 2013-07-03-0228-41M.COL___230                                                 6
 STAT SP IPHASW D HRMM SECON CODA AMPLIT PERI AZIMU VELO AIN AR TRES W  DIS CAZ7
 BAR2 SZ ES        237 59.12                             170   -0.2310 22.9 204 
 BAR2 SZ I         238  0.78         5.5 0.48            171           22.9 204 
 GIR2 SZ EP        237 44.42                             166   -0.0710 34.5 342 
 BRR  HZ EP        237 46.08                             150   -0.1610 76.8 298 
 BRR  HN ES        238  2.98                             150    0.2510 76.8 298 
 BRR  HN I         238  7.68        11.4 0.16            149           76.8 298 
 RUS  HZ EP        237 48.33                             144   -0.0410 98.3 179 
 RUS  HN ES        238  6.64                             144    0.1110 98.3 179 
 RUS  HN I         238  7.32         5.1 0.30            147           98.3 179 
 TAM  HZ EP        237 52.15                             131    0.15 9  149 105 
                                                                                
