 2017  5 3 0847 44.0 L   6.754 -73.176144.9  RSN  8 0.3 1.7LRSN                1
 GAP=110        0.72       2.6     2.9  6.8  0.8409E+00  0.1247E+01  0.3573E+01E
 Epicentro: LOS SANTOS - SANTANDER                                             3
 ACTION:UPD 17-06-16 13:32 OP:jn   STATUS:               ID:20170503084744 L   I
 OLDACT:UP  17-05-03 18:49 OP:edw  STATUS:               ID:20170503083740d    3
 OLDACT:DUP 17-05-03 18:47 OP:edw  STATUS:               ID:20170503083740d    3
 OLDACT:UP  17-05-03 18:46 OP:edw  STATUS:               ID:20170503083739     3
 OLDACT:REG 17-05-03 12:06 OP:edw  STATUS:               ID:20170503083739     3
 2017-05-03-0838-00M.COL___365                                                 6
 STAT SP IPHASW D HRMM SECON CODA AMPLIT PERI AZIMU VELO AIN AR TRES W  DIS CAZ7
 BRR  HZ EP        848  5.10                             152    0.0410 71.0 303 
 BRR  HN ES        848 21.57                             152    0.1010 71.0 303 
 PAM  EZ EP     C  848  6.29                             149   -0.2210 83.4  39 
 PAM  EN ES        848 23.86                             149   -0.1910 83.4  39 
 PAM  EZ I         848 26.02         5.9 0.56            149           83.4  39 
 RUS  HZ EP        848  7.44                             145    0.1010 95.8 174 
 RUS  HN ES        848 25.45                             145   -0.0910 95.8 174 
 RUS  HZ I         848 26.77        13.7 0.32            146           95.8 174 
 PTB  HN ES        848 31.05                             133   -0.17 9  144 261 
 SPBC HN ES        848 33.71                             130    0.09 9  157 219 
 YPLC HE ES        848 37.04                             127    0.59 9  174 150 
 ZAR  HE ES        848 41.82                             122    0.35 9  203 294 
 CHI  HN ES        848 49.31                             118   -0.61 8  243 195 
                                                                                
