 2010 10 3 0444 41.3 L   6.848 -72.895144.6  RSN  4 0.4 1.4LRSN                1
 GAP=263        0.79       5.4     9.4 10.0  0.1897E+02  0.2089E+02  0.1042E+02E
 Epicentro: SAN ANDRES - SANTANDER                                             3
 ACTION:UP  11-02-18 11:07 OP:tino STATUS:               ID:20101003044441 L   I
 2010-10-03-0444-21S.COL___123                                                 6
 STAT SP IPHASW D HRMM SECON CODA AMPLIT PERI AZIMU VELO SNR AR TRES W  DIS CAZ7
 BRR  HZ EP        445  3.73                             145    -0.110   95 288 
 BRR  HN ES        445 21.40                             145     0.010   95 288 
 BRR  HZ I         445 23.91         5.2 0.03                            95 288 
 RUS  HZ EP   2    445  6.18                             141     0.7 5  108 191 
 RUS  HN ES        445 24.34                             141     0.010  108 191 
 RUS  HZ I         445 25.83         2.1 0.71                           108 191 
 CHI  HN ES   2    445 49.87                             115    -1.1 4  262 201 
 RREF HN ES        446  8.71                             109     0.3 6  347 232 
 RREF HZ I         446  8.97         1.1 0.64                           347 232 
                                                                                
