 2013  9 3 0406 49.7 L   6.755 -73.122145.1  RSN  6 0.3 1.3LRSN                1
 GAP=142        0.63       3.3     3.0  5.6 -0.1768E+00  0.4529E+01 -0.2140E+01E
 Epicentro: LOS SANTOS - SANTANDER                                             3
 ACTION:UPD 13-10-22 09:19 OP:ep   STATUS:               ID:20130903040649 L   I
 OLDACT:UP  13-09-03 09:45 OP:cam  STATUS:               ID:20130903035959     3
 OLDACT:UP  13-09-03 09:45 OP:cam  STATUS:               ID:20130903035959     3
 OLDACT:REG 13-09-03 08:05 OP:cam  STATUS:               ID:20130903035959     3
 2013-09-03-0359-59M.COL___269                                                 6
 STAT SP IPHASW D HRMM SECON CODA AMPLIT PERI AZIMU VELO AIN AR TRES W  DIS CAZ7
 BAR2 SZ ES   1    4 7 24.76                             172    0.42 7 19.2 200 
 BRR  HZ EP        4 7 11.05                             151    0.0310 75.9 301 
 BRR  HN ES   1    4 7 28.13                             151    0.45 7 75.9 301 
 BRR  HZ I         4 7 32.17         5.2 0.64            152           75.9 301 
 PAM  SZ EP        4 7 12.05                             150    0.0910 79.7  36 
 PAM  SN ES        4 7 29.04                             150   -0.3110 79.7  36 
 PAM  SZ I         4 7 31.15         4.7 0.54            153           79.7  36 
 RUS  HZ EP   1    4 7 13.12                             145    0.13 7 95.4 177 
 RUS  HN ES        4 7 31.05                             145   -0.1310 95.4 177 
 RUS  HZ I         4 7 32.52         1.4 0.38            149           95.4 177 
 PTB  HZ EP   1    4 7 16.95                             131    0.21 7  149 261 
 PTB  HN ES        4 7 37.46                             131   -0.39 9  149 261 
 PTB  HZ I         4 7 40.03         2.3 0.14            134            149 261 
 ZAR  HN ES        4 7 48.13                             122   -0.01 8  208 293 
                                                                                
