 2012 12 3 0845 55.7 L   7.333 -73.400115.2  RSN 15 0.5 2.5LRSN 2.8WRSN        1
 SPEC AVERAGE  MO 13.3 ST  5.9 OM  2.0 f0 5.20 R0.2882 AL 1.88 WI 17.9 MW  2.8 3
 SPEC SD       MO  0.4 ST  7.0 OM  0.7 f00.697 R0.0428 AL      WI      MW  0.3 3
 GAP= 84        0.95       2.6     3.4  6.5  0.6317E-01  0.1085E+02  0.4469E+00E
 Epicentro: SABANA DE TORRES - SANTANDER                                       3
 SPEC ZAR HH Z MO 13.4 ST  3.6 OM  1.7 f0 4.70 R0.3128 AL 0.43 WI 15.9 MW  2.9 3
 SPEC ZAR HH Z T 84642 K 0.000 GD  198 VS 4.20 DE 3.20 Q0300.0 QA 0.60 VS 4.20 3
 SPEC RUS HH Z MO 13.0 ST  2.3 OM  1.3 f0 5.51 R0.2668 AL 1.09 WI 24.1 MW  2.6 3
 SPEC RUS HH Z T 84637 K 0.000 GD  199 VS 4.20 DE 3.20 Q0300.0 QA 0.60 VS 4.20 3
 SPEC PTB HH Z MO 13.4 ST  6.6 OM  1.7 f0 5.91 R0.2487 AL 2.14 WI 20.4 MW  2.9 3
 SPEC PTB HH Z T 84637 K 0.000 GD  185 VS 4.20 DE 3.20 Q0300.0 QA 0.60 VS 4.20 3
 SPEC PRA HH Z MO 13.4 ST  2.3 OM  1.4 f0 3.93 R0.3740 AL 1.03 WI 17.4 MW  2.9 3
 SPEC PRA HH Z T 84738 K 0.000 GD  448 VS 4.20 DE 3.20 Q0300.0 QA 0.60 VS 4.20 3
 SPEC HEL HH Z MO 13.4 ST  3.4 OM  1.5 f0 4.77 R0.3082 AL 2.85 WI 32.8 MW  2.9 3
 SPEC HEL HH Z T 847 2 K 0.000 GD  290 VS 4.20 DE 3.20 Q0300.0 QA 0.60 VS 4.20 3
 SPEC OCA HH Z MO 12.4 ST0.690 OM  0.8 f0 5.92 R0.2483 AL 2.64 WI 10.2 MW  2.2 3
 SPEC OCA HH Z T 84631 K 0.000 GD  153 VS 4.20 DE 3.20 Q0300.0 QA 0.60 VS 4.20 3
 SPEC BAR2SH Z MO 14.0 ST 22.7 OM  2.4 f0 5.68 R0.2588 AL 2.98 WI  4.2 MW  3.2 3
 SPEC BAR2SH Z T 84629 K 0.000 GD  143 VS 4.20 DE 3.20 Q0300.0 QA 0.60 VS 4.20 3
 ACTION:UPD 13-01-04 14:25 OP:ep   STATUS:               ID:20121203084555 L   I
 2012-12-03-0840-00M.COL___236                                                 6
 STAT SP IPHASW D HRMM SECON CODA AMPLIT PERI AZIMU VELO AIN AR TRES W  DIS CAZ7
 GIR2 SZ EP        846 12.01                             162    0.1110 36.2 141 
 GIR2 SZ ES   1    846 24.35                             162   -0.22 7 36.2 141 
 GIR2 SZ I         846 26.19       198.0 0.38                          36.2 141 
 PAM  SZ EP        846 14.78                             144    0.0610 77.3  89 
 PAM  SN ES   1    846 29.86                             144    0.26 7 77.3  89 
 PAM  SZ I         846 33.50        50.5 0.36                          77.3  89 
 BAR2 SZ EP        846 15.00                             141    0.0310 85.4 164 
 BAR2 SZ ES   1    846 30.24                             141    0.21 7 85.4 164 
 OCA  HZ EP        846 15.99                             136   -0.0910  101   5 
 OCA  HN ES   1    846 32.18                             136    0.16 7  101   5 
 OCA  HZ I         846 33.34        99.9 0.28                           101   5 
 PTB  HZ EP        846 19.79                             124   -0.37 9  146 233 
 PTB  HN ES   1    846 39.77                             124    0.50 7  146 233 
 PTB  HZ I         846 41.27        49.5 0.20                           146 233 
 ZAR  HZ EP        846 22.10                             121    0.32 9  162 276 
 ZAR  HN ES   1    846 43.33                             121    1.18 7  162 276 
 ZAR  HZ I         846 51.83        43.3 0.10                           162 276 
 RUS  HZ EP   1    846 21.64                             122   -0.89 7  163 168 
 RUS  HN ES   1    846 42.42                             122   -1.06 7  163 168 
 RUS  HZ I         846 49.56        12.1 0.18                           163 168 
 SML  HZ EP   1    846 23.20                             119   -0.31 7  178 336 
 SML  HE ES   1    846 44.62                             119   -0.61 7  178 336 
 SML  HZ I         846 51.03       125.3 0.10                           178 336 
 URE  HZ EP   1    846 30.67                             111    0.31 6  240 281 
 URE  HN ES   1    846 56.72                             111   -0.71 6  240 281 
 URE  HZ I         847  7.61        40.7 0.18                           240 281 
 HEL  HZ EP   1    846 34.44                             108    0.50 6  267 242 
 HEL  HN ES   1    847  3.08                             108   -0.72 6  267 242 
 HEL  HZ I         847 15.68        10.5 0.26                           267 242 
 COD  HZ EP   1    846 36.55                             107    0.67 5  288 359 
 COD  HN ES   1    847  6.98                             107   -0.27 5  288 359 
 CHI  HZ EP   1    846 37.95                             106   -0.02 5  301 187 
 CHI  HN ES   1    847 11.57                             106    0.60 5  301 187 
 CHI  HZ I         847 20.26         7.9 0.40                           301 187 
 DBB  SZ ES   1    847 11.95                             105   -0.62 5  312 264 
 RREF HZ EP   1    846 43.64                             103    0.26 5  345 219 
 RREF HN ES   1    847 20.43                             103   -0.17 5  345 219 
 RREF HZ I         847 29.41        10.3 0.26                           345 219 
 PRA  HZ EP   1    846 54.06                              99    0.87 4  433 202 
 PRA  HN ES   1    847 39.27                              99    1.20 4  433 202 
 PRA  HZ I         847 48.04         6.1 0.32                           433 202 
                                                                                
