 2010 11 3 0208  3.6 L   6.911 -73.348110.2  RSN 11 0.3 2.2LRSN                1
 GAP= 68        0.60       3.1     5.2  5.7 -0.2139E+01  0.7446E+01 -0.1432E+01E
 Epicentro: BETULIA - SANTANDER                                                3
 ACTION:UP  10-12-17 16:50 OP:REBC STATUS:               ID:20101103020803 L   I
 2010-11-03-0205-22S.COL___128                                                 6
 STAT SP IPHASW D HRMM SECON CODA AMPLIT PERI AZIMU VELO SNR AR TRES W  DIS CAZ7
 BTL  SZ IP        2 8 18.82                             175     0.110    9  84 
 GIR2 SZ EP        2 8 19.02                             166     0.110   25  43 
 BAR2 SZ IP        2 8 19.80                             159     0.210   40 153 
 BAR2 SZ ES   1    2 8 32.03                             159     0.0 7   40 153 
 BAR2 SZ I         2 8 33.34        36.8 0.07                            40 153 
 BRR  HZ IP     D  2 8 19.34                             156    -0.210   46 298 
 BRR  HZ I         2 8 19.82        80.6 0.13                            46 298 
 BRR  HE ES   2    2 8 32.33                             156     0.4 5   46 298 
 GUE  SZ EP   1    2 8 24.69                             131    -0.2 7  112  25 
 RUS  HZ EP   1    2 8 25.45                             130    -0.1 7  116 165 
 RUS  HN ES   2    2 8 41.83                             130    -0.7 5  116 165 
 GRA  SZ EP   2    2 8 26.35                             128     0.6 5  123  29 
 GRA  SZ I         2 8 48.57        17.3 0.52                           123  29 
 OCA  SZ EP   2    2 8 27.86                             123    -0.2 5  147   1 
 OCA  SZ ES   2    2 8 46.60                             123    -0.5 5  147   1 
 OCA  SZ I         2 8 48.38        31.0 0.20                           147   1 
 NOR  SZ EP   2    2 8 35.97                             111    -0.5 4  225 229 
 NOR  SE ES   2    2 9  1.99                             111    -0.1 4  225 229 
 HEL  HZ EP   2    2 8 40.44                             108     0.2 4  254 252 
 HEL  HZ I         2 9 12.05         9.4 0.32                           254 252 
 PRA  HZ EP   1    2 8 56.78                              99     0.6 4  392 206 
                                                                                
