 2010  6 3 0711  4.3 L   6.822 -73.032143.4  RSN  7 0.4 2.2LRSN                1
 GAP=201        0.89       6.1    14.1  9.1 -0.6218E+02  0.3809E+02 -0.5197E+01E
 Epicentro: CEPITA - SANTANDER                                                 3
 ACTION:UP  10-08-24 10:08 OP:vdl  STATUS:               ID:20100603071104 L   I
 2010-06-03-0707-39S.COL___109                                                 6
 STAT SP IPHASW D HRMM SECON CODA AMPLIT PERI AZIMU VELO SNR AR TRES W  DIS CAZ7
 BAR2 SZ EP   1    711 23.39                             167    -0.5 8   31 213 
 BAR2 SZ ES   1    711 38.73                             167    -0.3 8   31 213 
 GIR2 SZ EP   2    711 23.46                             166    -0.3 5   34 328 
 GRA  SZ IP        711 29.13                             138     0.210  120  12 
 GRA  SZ ES   1    711 48.58                             138     0.5 7  120  12 
 OCA  SZ EP   1    711 31.78                             129    -0.7 7  160 349 
 OCA  SZ ES   1    711 54.54                             129     0.2 7  160 349 
 OCA  SZ I         711 59.61        20.7 0.23                           160 349 
 ROSC BZ EP   1    711 43.44                             115     0.1 6  262 213 
 ROSC BN ES   1    712 14.64                             115     1.0 6  262 213 
 ROSC BZ I         712 17.95        10.7 0.34                           262 213 
 HEL  HZ EP   2    711 45.54                             113    -0.3 4  285 256 
 HEL  HZ I         712 23.82         4.6 0.45                           285 256 
 RREF BZ EP   2    711 51.47                             110    -0.2 3  333 230 
 RREF BE ES   2    712 28.40                             110    -0.2 3  333 230 
 RREF BZ I         712 35.00         9.1 0.37                           333 230 
                                                                                
