 2013  7 3 0438 52.7 L   6.545 -73.536107.3  RSN 21 0.6 2.5LRSN                1
 GAP= 43        1.47       2.7     2.9  6.5 -0.1517E+01  0.2644E+01  0.3320E+01E
 Epicentro: EL CARMEN DE CHUCURI - SANTANDER                                   3
 ACTION:UPD 13-08-12 10:35 OP:ep   STATUS:               ID:20130703043852 L   I
 OLDACT:UP  13-07-04 10:50 OP:ep   STATUS:               ID:20130703043852 L   3
 OLDACT:UP  13-07-04 04:28 OP:CF   STATUS:               ID:20130703043852 L   3
 OLDACT:REG 13-07-03 08:46 OP:stll STATUS:               ID:20130703043842     3
 2013-07-03-0438-42M.COL___230                                                 6
 STAT SP IPHASW D HRMM SECON CODA AMPLIT PERI AZIMU VELO AIN AR TRES W  DIS CAZ7
 BAR2 SZ IP     C  439  8.53                             158    0.2710 39.4  82 
 BAR2 SZ ES        439 20.82                             158    0.3810 39.4  82 
 BAR2 SZ I         439 22.37        89.4 0.40            162           39.4  82 
 BRR  HZ EP        439  9.34                             146   -0.0410 65.1 343 
 BRR  HN ES        439 23.46                             146    1.0310 65.1 343 
 BRR  HN I         439 32.57        95.8 0.18            148           65.1 343 
 GIR2 SZ EP        439 10.07                             144    0.1510 70.1  33 
 RUS  HZ EP        439 11.58                             138   -0.1910 87.8 145 
 RUS  HE ES        439 26.61                             138   -0.0810 87.8 145 
 RUS  HE I         439 29.67        30.4 0.48            142           87.8 145 
 PTB  HZ IP     D  439 11.32                             133   -1.0010  102 270 
 PTB  HE ES        439 26.13                             133   -1.5310  102 270 
 PTB  HE I         439 27.31        91.7 0.32            135            102 270 
 PAM  SZ EP        439 15.37                             126    0.0010  127  46 
 PAM  SN ES        439 32.85                             126   -0.2410  127  46 
 PAM  SN I         439 33.83        58.7 0.20            130            127  46 
 GRA  SZ EP        439 19.03                             118   -0.18 9  169  29 
 GRA  SZ ES   4    439 41.41                             118    1.49 0  169  29 
 ZAR  HZ EP        439 20.63                             116    0.41 9  180 306 
 ZAR  HE ES        439 42.57                             116    0.85 9  180 306 
 YOP  SZ EP        439 20.47                             116    0.04 9  181 137 
 YOP  SN ES        439 42.43                             116    0.33 9  181 137 
 NOR  HZ EP        439 19.96                             115   -0.70 9  183 234 
 NOR  HE ES        439 41.42                             115   -1.08 9  183 234 
 NOR  HE I         439 45.05        46.0 0.52            118            183 234 
 OCA  HZ EP        439 22.20                             115    0.80 9  189   7 
 OCA  HN ES        439 43.62                             115   -0.21 9  189   7 
 OCA  HN I         439 48.95       147.1 0.22            117            189   7 
 TAM  HZ EP        439 21.48                             114   -0.28 9  193  93 
 TAM  HN ES        439 43.76                             114   -0.71 9  193  93 
 CAPV BZ EP        439 22.63                             113    0.03 9  199  43 
 CAPV BZ ES        439 45.73                             113   -0.23 9  199  43 
 ROSC BZ EP        439 24.92                             112    1.11 8  208 205 
 ROSC BN ES        439 49.31                             112    1.20 8  208 205 
 CHI  HZ EP        439 24.38                             112   -0.06 8  213 186 
 CHI  HE ES        439 49.53                             112    0.29 8  213 186 
 CHI  HE I         439 55.08        16.7 0.56            115            213 186 
 HEL  HZ EP        439 25.89                             110    0.25 8  224 260 
 HEL  HN ES        439 51.09                             110   -0.28 8  224 260 
 HEL  HN I         439 56.55        16.2 0.28            113            224 260 
 GUY2CHZ EP        439 29.27                             108    0.52 8  250 234 
 GUY2CHN ES        439 57.83                             108    0.93 8  250 234 
 GUY2CHN I         440  2.43        21.3 0.46                           250 234 
 SML  HN EP        439 28.57                             107   -0.35 8  256 347 
 SML  HE ES   4    439 58.42                             107    1.21 0  256 347 
 SML  HE I         440  5.01        62.1 0.10            109            256 347 
 VIL  SZ EP        439 30.65                             106    0.01 8  270 184 
 VIL  SE ES        439 59.70                             106   -0.57 8  270 184 
 VIL  SE I         440  4.73        45.1 0.44            109            270 184 
 PRA  HZ EP        439 39.09                             101   -0.63 6  347 206 
 PRA  HE ES        440 16.52                             101    0.09 6  347 206 
 PRA  HE I         440 21.88         8.0 0.36            103            347 206 
 ORTC HZ EP        439 39.91                             101    0.11 6  348 213 
 ORTC HN ES        440 16.46                             101   -0.12 6  348 213 
 SOCV BZ EP   4    439 39.10                             100   -1.29 0  353  57 
                                                                                
