 2011  4 3 0404 42.6 L   6.352 -73.811113.0  RSN  7 0.4 1.8LRSN                1
 GAP=190        0.62       4.9    11.4  8.8 -0.3273E+01 -0.6506E+01  0.4632E+01E
 Epicentro: LANDAZURI - SANTANDER                                              3
 ACTION:UP  11-06-22 15:28 OP:REBC STATUS:               ID:20110403040442 L   I
 2011-04-03-0403-13S.COL___138                                                 6
 STAT SP IPHASW D HRMM SECON CODA AMPLIT PERI AZIMU VELO SNR AR TRES W  DIS CAZ7
 BAR2 SZ EP        4 5  0.81                             143    -0.110   74  69 
 BAR2 SZ ES   3    4 5 14.57                             143    -0.6 2   74  69 
 BAR2 SZ I         4 5 18.45        11.9 0.51                            74  69 
 BRR  HN ES   1    4 5 15.91                             139     0.1 7   84   7 
 BRR  HZ I         4 5 16.83        14.7 0.04                            84   7 
 BTL  SZ EP        4 5  1.62                             138    -0.210   87  44 
 GIR2 SZ EP   3    4 5  3.67                                     0.4 2  105  40 
 CHI  HZ EP   3    4 5 12.93                                     0.7 2  191 177 
 CHI  HE ES   3    4 5 37.01                                     1.7 2  191 177 
 GRA  SZ ES   1    4 5 37.51                             114     0.5 6  203  33 
 GRA  SZ I         4 5 40.48         7.6 0.35                           203  33 
 OCA  SZ EP        4 5 14.53                             112    -0.1 8  216  15 
 OCA  SZ ES   2    4 5 39.78                             112     0.2 4  216  15 
 OCA  SZ I         4 5 40.78         5.0 0.29                           216  15 
                                                                                
