 2013  4 3 0726 36.2 L   6.787 -73.144143.5  RSN  8 0.4 1.5LRSN                1
 GAP=137        0.75       3.4     4.1  6.0  0.1279E+01  0.4426E+01 -0.2771E+01E
 Epicentro: LOS SANTOS - SANTANDER                                             3
 ACTION:UPD 13-05-22 14:35 OP:EP   STATUS:               ID:20130403072636 L   I
 2013-04-03-0720-00M.COL___245                                                 6
 STAT SP IPHASW D HRMM SECON CODA AMPLIT PERI AZIMU VELO AIN AR TRES W  DIS CAZ7
 BAR2 SZ EP   1    726 55.53                             171   -0.01 7 21.9 191 
 BAR2 SZ ES   1    727 10.55                             171   -0.07 7 21.9 191 
 BAR2 SZ I         727 11.50        13.8 0.22            172           21.9 191 
 BRR  HZ EP   1    726 57.55                             152    0.39 7 72.0 299 
 BRR  HN ES   1    727 14.29                             152    0.79 7 72.0 299 
 BRR  HZ I         727 19.52         4.5 0.14            150           72.0 299 
 PAM  SZ EP        726 58.54                             150    0.3010 78.4  39 
 PAM  SN ES   1    727 15.17                             150   -0.26 7 78.4  39 
 PAM  SZ I         727 17.48         5.1 0.42            153           78.4  39 
 RUS  HZ EP        726 59.50                             144   -0.1310 99.1 176 
 RUS  HN ES   1    727 17.74                             144   -0.16 7 99.1 176 
 RUS  HZ I         727 19.43         2.4 0.26            149           99.1 176 
 PTB  HZ EP   1    727  3.10                             131    0.12 7  148 259 
 PTB  HN ES   1    727 23.13                             131   -0.73 7  148 259 
 PTB  HZ I         727 25.97         4.9 0.12            133            148 259 
 OCA  HN ES   1    727 26.19                             129   -0.34 7  162 353 
 OCA  HZ I         727 30.01         3.5 0.30            130            162 353 
 ZAR  HZ EP   1    727  8.96                             122    0.39 6  205 293 
 ZAR  HN ES   1    727 33.90                             122    0.08 6  205 293 
 ZAR  HZ I         727 40.04         2.8 0.24            123            205 293 
 SML  HZ EP   1    727 12.47                             117   -0.38 6  245 335 
 SML  HN ES   1    727 41.02                             117   -0.42 6  245 335 
 SML  HZ I         727 45.06         5.0 0.28            119            245 335 
                                                                                
