 2010 10 3 0537  4.1 L   6.821 -73.038143.3  RSN  5 0.1 1.8LRSN                1
 GAP=194        0.38       2.3     5.3  3.3  0.4859E+01 -0.5204E+01 -0.2108E-01E
 Epicentro: CEPITA - SANTANDER                                                 3
 ACTION:UP  11-02-18 11:07 OP:tino STATUS:               ID:20101003053704 L   I
 2010-10-03-0532-50S.COL___123                                                 6
 STAT SP IPHASW D HRMM SECON CODA AMPLIT PERI AZIMU VELO SNR AR TRES W  DIS CAZ7
 BAR2 SZ EP        537 23.70                             168     0.110   30 212 
 BAR2 SZ ES   1    537 38.57                             168    -0.2 7   30 212 
 BAR2 SZ I         537 40.91        16.3 0.56                            30 212 
 BRR  HZ EP        537 25.44                             149    -0.110   81 293 
 BRR  HN ES        537 42.39                             149     0.110   81 293 
 BRR  HZ I         537 43.50        13.9 0.15                            81 293 
 RUS  HZ EP   1    537 27.67                             143    -0.1 7  103 183 
 RUS  HN ES   1    537 46.37                             143     0.1 7  103 183 
 RUS  HZ I         537 47.92         9.4 1.16                           103 183 
 OCA  SZ EP   1    537 32.22                             129     0.0 7  160 349 
 OCA  SZ I         537 58.70         8.3 0.24                           160 349 
 CHI  HZ EP        537 42.30                             116     0.0 8  254 198 
 CHI  HN ES   1    538 11.99                             116    -0.1 6  254 198 
                                                                                
