 2010  1 3 0530  4.5 L   6.780 -73.154146.0  RSN  4 0.2 1.7LRSN                1
 GAP=293        0.36       5.0     4.5  6.8  0.4767E+01  0.1199E+02  0.1703E+02E
 Epicentro: LOS SANTOS - SANTANDER                                             3
 ACTION:UP  10-08-24 09:42 OP:vdl  STATUS:               ID:20100103053004 L   I
 2010-01-03-0520-00S.COL___096                                                 6
 STAT SP IPHASW D HRMM SECON CODA AMPLIT PERI AZIMU VELO SNR AR TRES W  DIS CAZ7
 BAR2 SZ EP   2    530 23.96                             172    -0.1 5   21 189 
 BAR2 SZ ES   2    530 39.52                             172     0.1 5   21 189 
 CHI  HZ EP   1    530 42.02                             117     0.1 6  246 195 
 CHI  HE ES   1    531 10.96                             117    -0.2 6  246 195 
 CHI  HZ I         531 16.98         2.9 0.15                           246 195 
 HEL  HN ES   1    531 15.73                             115     0.0 6  271 256 
 HEL  HZ I         531 22.56         3.2 0.33                           271 256 
 PRA  HE ES   2    531 39.56                             107     0.3 3  390 210 
                                                                                
