 2015  3 3 0915 16.7 L   6.745 -73.070150.5  RSN  4 0.1 1.4LRSN                1
 GAP=241        0.40       3.0     4.6  4.7  0.3364E+01 -0.5006E+01  0.2893E+01E
 Epicentro: JORDAN - SANTANDER                                                 3
 ACTION:UPD 15-04-30 16:22 OP:nd   STATUS:               ID:20150303091516 L   I
 OLDACT:DUP 15-03-03 13:58 OP:spq  STATUS:               ID:20150303090737d    3
 2015-03-03-0907-36M.COL___287                                                 6
 STAT SP IPHASW D HRMM SECON CODA AMPLIT PERI AZIMU VELO AIN AR TRES W  DIS CAZ7
 BAR2 EZ EP        915 36.72                             172   -0.1310 20.9 216 
 BRR  HZ EP   1    915 38.74                             150   -0.21 7 81.4 299 
 BRR  HN ES        915 56.41                             150    0.1010 81.4 299 
 RUS  HZ EP        915 40.65                             147    0.1710 94.3 181 
 RUS  HE ES   1    915 58.96                             147   -0.07 7 94.3 181 
 SPBC HZ EP        915 45.70                             130    0.07 9  164 223 
 SPBC HN ES   1    916  8.10                             130   -0.11 7  164 223 
 SPBC HZ I         916 14.82         3.0 0.28            124            164 223 
                                                                                
