 2013 10 3 0100 39.0 L   6.052 -73.738109.5  RSN  8 0.5 1.5LRSN                1
 GAP=140        1.25       5.0     5.0 11.2 -0.2380E+01  0.3008E+02  0.6716E+00E
 Epicentro: BOLIVAR - SANTANDER                                                3
 ACTION:UPD 13-11-25 09:18 OP:ep   STATUS:               ID:20131003010039 L   I
 OLDACT:REG 13-10-03 05:31 OP:nd   STATUS:               ID:20131003005959     3
 2013-10-03-0059-59M.COL___273                                                 6
 STAT SP IPHASW D HRMM SECON CODA AMPLIT PERI AZIMU VELO AIN AR TRES W  DIS CAZ7
 RUS  HZ EP        1 0 57.00                             144   -0.3310 74.6 104 
 RUS  HN ES        1 1 11.31                             144   -0.3110 74.6 104 
 RUS  HZ I         1 1 12.99         2.7 0.38            151           74.6 104 
 BAR2 SZ EP        1 0 57.41                             139   -0.4210 85.8  46 
 BAR2 SZ ES        1 1 12.70                             139    0.2110 85.8  46 
 BAR2 SZ I         1 1 14.37        38.7 0.46            145           85.8  46 
 PTB  HZ EP        1 0 58.71                             136    0.3410 96.0 304 
 PTB  HN ES   2    1 1 12.10                             136   -1.36 5 96.0 304 
 PTB  HZ I         1 1 17.06         5.3 0.10            138           96.0 304 
 BRR  HZ EP        1 1  0.36                             130    0.1510  117   1 
 BRR  HN ES        1 1 17.67                             130    0.9310  117   1 
 BRR  HZ I         1 1 20.73         7.0 0.20            133            117   1 
 NOR  HZ EP        1 1  2.34                             125    0.14 9  136 247 
 NOR  HN ES        1 1 20.55                             125    0.27 9  136 247 
 NOR  HZ I         1 1 22.70         5.6 0.28            129            136 247 
 ZAR  HZ EP        1 1  9.07                             114   -0.07 9  202 322 
 ZAR  HN ES        1 1 31.59                             114   -1.04 9  202 322 
 ZAR  HZ I         1 1 36.05         4.1 0.30            117            202 322 
 GUY2CHZ EP        1 1 10.13                             114    0.36 9  202 243 
 GUY2CHN ES   4    1 1 29.69                             114   -4.07 0  202 243 
 GUY2CHZ I         1 1 41.33         1.5 0.44                           202 243 
 SML  HZ EP   4    1 1 27.78                             104    6.55 0  306 353 
 SML  HN ES   4    1 1 54.51                             104    0.36 0  306 353 
 SML  HZ I         1 1 57.67         4.2 0.10            108            306 353 
                                                                                
