 2017  7 3 0909 56.0 L   6.810 -73.158139.1  RSN  6 0.4 1.3LRSN                1
 GAP=248        0.93       5.7     6.0  7.4  0.2414E+01  0.1295E+02 -0.3756E+01E
 Epicentro: LOS SANTOS - SANTANDER                                             3
 ACTION:UPD 17-08-30 15:29 OP:rebc STATUS:               ID:20170703090956 L   I
 OLDACT:REG 17-07-03 14:06 OP:edw  STATUS:               ID:20170703090744     3
 2017-07-03-0908-00M.COL___365                                                 6
 STAT SP IPHASW D HRMM SECON CODA AMPLIT PERI AZIMU VELO AIN AR TRES W  DIS CAZ7
 BAR2 EZ EP        910 14.76                             170   -0.1110 24.2 186 
 BAR2 EZ ES        910 29.36                             170   -0.2110 24.2 186 
 BAR2 EZ I         910 31.07         3.8 0.16            167           24.2 186 
 BRR  HZ EP        910 16.50                             152    0.1410 69.5 298 
 BRR  HN ES        910 32.65                             152    0.4410 69.5 298 
 PTB  HZ EP        910 21.77                             131   -0.58 9  147 258 
 PTB  HN ES        910 42.43                             131   -0.45 9  147 258 
 PTB  HZ I         910 46.65         1.7 0.16            129            147 258 
 SPBC HN ES        910 46.31                             128    0.46 9  163 218 
 SPBC HZ I         910 49.48         3.5 0.10            127            163 218 
 ZAR  HZ EP        910 28.41                             121    0.54 9  202 292 
 ZAR  HN ES        910 52.46                             121   -0.24 9  202 292 
 ZAR  HZ I         911  0.06         2.9 0.30            121            202 292 
 NOR  HN ES   2    910 59.17                             117    0.32 4  234 234 
                                                                                
