 2017  9 3 0719 41.9 L   7.148 -73.361111.3  RSN  5 0.3 1.0LRSN                1
 GAP=151        0.78       4.7     3.9  9.3  0.1515E+01  0.1964E+02 -0.9922E+01E
 Epicentro: LEBRIJA - SANTANDER                                                3
 ACTION:UPD 17-10-05 19:08 OP:rebc STATUS:               ID:20170903071941 L   I
 OLDACT:REG 17-09-03 13:27 OP:dani STATUS:               ID:20170903071740     3
 2017-09-03-0718-00M.COL___393                                                 6
 STAT SP IPHASW D HRMM SECON CODA AMPLIT PERI AZIMU VELO AIN AR TRES W  DIS CAZ7
 BRR  HZ EP        719 57.08                             159   -0.5310 39.0 263 
 BAR2 HZ EP        719 59.24                             148   -0.1110 64.6 162 
 BAR2 HZ ES        720 13.26                             148    0.3010 64.6 162 
 BAR2 HZ I         720 14.06         4.4 0.26            156           64.6 162 
 PAM  EZ EP        720  0.50                             144   -0.0010 76.1  74 
 PAM  EN ES        720 15.05                             144    0.0510 76.1  74 
 PAM  EZ I         720 17.78         1.4 0.14            149           76.1  74 
 RUS  HN ES   1    720 25.30                             124   -0.16 7  142 167 
 ZAR  HZ EP        720  9.15                             119    0.55 9  170 283 
 ZAR  HE ES        720 29.33                             119   -0.08 9  170 283 
 ZAR  HZ I         720 33.47         1.2 0.20            122            170 283 
                                                                                
