 2013  4 3 0215 35.6 L   6.522 -73.577112.0  RSN  7 0.5 1.4LRSN                1
 GAP= 92        1.04       4.9     4.8  9.3  0.4720E+01  0.1547E+02  0.7869E+00E
 Epicentro: EL CARMEN DE CHUCURI - SANTANDER                                   3
 ACTION:UPD 13-05-22 14:35 OP:EP   STATUS:               ID:20130403021535 L   I
 2013-04-03-0210-00M.COL___245                                                 6
 STAT SP IPHASW D HRMM SECON CODA AMPLIT PERI AZIMU VELO AIN AR TRES W  DIS CAZ7
 BAR2 SZ EP        215 51.98                             157   -0.0210 44.4  80 
 BAR2 SZ ES   1    216  4.58                             157   -0.20 7 44.4  80 
 BAR2 SZ I         216  6.22        13.5 0.18            161           44.4  80 
 BRR  HZ EP        215 52.80                             147   -0.1210 66.4 347 
 BRR  HE ES   1    216  6.68                             147    0.27 7 66.4 347 
 BRR  HZ I         216 16.19         4.5 0.60            145           66.4 347 
 RUS  HZ EP   1    215 55.06                             139   -0.17 7 88.5 142 
 RUS  HE ES   1    216 11.06                             139    0.53 7 88.5 142 
 RUS  HZ I         216 12.16         2.6 0.40            150           88.5 142 
 PTB  HZ IP     C  215 54.81                             136   -0.4910 97.2 271 
 PTB  HN ES   1    216  9.72                             136   -0.92 7 97.2 271 
 PTB  HZ I         216 13.30         4.3 0.20            138           97.2 271 
 NOR  HZ EP   1    216  3.80                             118    0.48 7  178 234 
 NOR  HN ES   1    216 25.20                             118    0.29 7  178 234 
 NOR  HZ I         216 29.09         3.9 0.18            123            178 234 
 ZAR  HN ES        216 25.70                             118    0.96 9  178 307 
 ZAR  HZ I         216 30.35         4.3 0.32            120            178 307 
 SML  HZ EP   1    216 11.93                             108   -0.32 6  258 348 
 SML  HE ES   2    216 40.23                             108   -0.58 4  258 348 
 SML  HZ I         216 50.93         3.2 0.24            111            258 348 
                                                                                
