 2013  1 3 0700 10.3 L   6.692 -73.187149.9  RSN  6 0.3 1.5LRSN                1
 GAP=136        0.79       5.4     4.3  6.0  0.7037E+01  0.1786E+01 -0.1121E+02E
 Epicentro: VILLANUEVA - SANTANDER                                             3
 ACTION:UPD 13-02-15 09:11 OP:ep   STATUS:               ID:20130103070010 L   I
 2013-01-03-0659-46M.COL___183                                                 6
 STAT SP IPHASW D HRMM SECON CODA AMPLIT PERI AZIMU VELO AIN AR TRES W  DIS CAZ7
 BAR2 SZ EP        7 0 29.96                             176   -0.2510 11.1 177 
 BAR2 SZ ES        7 0 45.55                             176   -0.2210 11.1 177 
 BAR2 SZ I         7 0 46.22         6.5 0.26            174           11.1 177 
 BRR  HZ EP        7 0 32.33                             152    0.3110 74.0 308 
 BRR  HN ES        7 0 49.34                             152    0.3610 74.0 308 
 BRR  HN I         7 0 49.85         6.1 0.18            151           74.0 308 
 RUS  HN ES        7 0 52.21                             148    0.3210 89.2 173 
 RUS  HN I         7 0 53.93         5.5 0.28            148           89.2 173 
 PAM  SZ EP        7 0 33.36                             148   -0.3110 89.5  37 
 PTB  HZ EP        7 0 37.02                             134    0.01 9  141 263 
 PTB  HN ES        7 0 57.41                             134   -0.46 9  141 263 
 PTB  HN I         7 0 59.97         3.8 0.24            133            141 263 
 ZAR  HZ EP        7 0 43.40                             123    0.35 9  205 296 
 ZAR  HE ES        7 1  8.53                             123   -0.09 9  205 296 
 ZAR  HN I         7 1 13.81         3.2 0.14            123            205 296 
                                                                                
