 2017  4 3 0550 15.1 L   7.579 -73.220131.7  RSN 18 0.5 1.9LRSN                1
 GAP=116        0.86       2.6     3.5  4.7  0.1045E+01  0.3386E+01 -0.1893E+01E
 Epicentro: EL PLAYON - SANTANDER                                              3
 ACTION:UPD 17-05-30 21:07 OP:jn   STATUS:               ID:20170403055015 L   I
 OLDACT:UP  17-04-03 16:37 OP:and  STATUS:               ID:20170403054742     3
 OLDACT:UP  17-04-03 16:37 OP:and  STATUS:               ID:20170403054742     3
 OLDACT:UP  17-04-03 16:37 OP:and  STATUS:               ID:20170403054742     3
 OLDACT:UP  17-04-03 16:36 OP:and  STATUS:               ID:20170403054742     3
 OLDACT:UP  17-04-03 16:33 OP:and  STATUS:               ID:20170403054742     3
 OLDACT:UP  17-04-03 16:33 OP:and  STATUS:               ID:20170403054742     3
 OLDACT:UP  17-04-03 16:32 OP:and  STATUS:               ID:20170403054742     3
 OLDACT:REG 17-04-03 12:45 OP:and  STATUS:               ID:20170403054742     3
 2017-04-03-0548-00M.COL___362                                                 6
 STAT SP IPHASW D HRMM SECON CODA AMPLIT PERI AZIMU VELO AIN AR TRES W  DIS CAZ7
 PAM  EZ EP   2    550 35.01                             153   -0.02 5 63.3 115 
 PAM  EN ES        550 50.42                             153   -0.1310 63.3 115 
 PAM  EZ I         550 52.36        30.2 0.18            154           63.3 115 
 BRR  HZ IP     D  550 34.93                             148   -0.1110 75.3 226 
 BRR  HN ES        550 50.64                             148    0.0810 75.3 226 
 BRR  HZ I         550 52.10        28.2 0.14            144           75.3 226 
 BAR2 EZ EP        550 37.81                             138   -0.0510  109 178 
 BAR2 EZ ES        550 55.38                             138   -0.2110  109 178 
 BAR2 EZ I         550 56.60        19.5 0.32            135            109 178 
 PTB  HZ EP        550 43.54                             123   -0.50 9  178 230 
 PTB  HN ES        551  6.83                             123    0.24 9  178 230 
 PTB  HZ I         551  8.42        18.5 0.32            120            178 230 
 ZAR  HZ EP        550 44.03                             122   -0.25 9  181 267 
 ZAR  HN ES        551  7.36                             122    0.34 9  181 267 
 ZAR  HZ I         551  9.37        17.8 0.12            120            181 267 
 RUS  HZ EP        550 45.49                             122   -0.06 9  187 175 
 RUS  HN ES        551  9.61                             122    0.33 9  187 175 
 RUS  HZ I         551 15.98         2.2 0.30            120            187 175 
 SPBC HZ EP        550 50.00                             115    0.06 8  233 204 
 SPBC HN ES   4    551 20.43                             115    3.33 0  233 204 
 SPBC HZ I         551 24.26         7.8 0.22            113            233 204 
 LL6C HN EP   9    550 31.38                             115   -19.1 0  239 359 
 LL6C HE ES        550 58.00                             115   -0.92 8  239 359 
 LL5C HZ EP        550 51.68                             114    0.39 8  246 347 
 LL5C HN ES        551 19.40                             114   -0.09 8  246 347 
 URE  HZ EP   2    550 50.91                             113   -1.48 4  256 274 
 ARGC HZ EP        550 55.54                             111    0.87 7  276 336 
 ARGC HE ES   4    551 27.04                             111    1.54 0  276 336 
 ARGC HZ I         551 34.04         3.1 0.28            110            276 336 
 NOR  HZ EP        550 56.32                             110    0.24 7  288 219 
 HEL  HZ EP        550 57.20                             109   -0.40 7  298 239 
 HEL  HN ES   3    551 28.95                             109   -1.77 2  298 239 
 HEL  HZ I         551 38.54         4.8 0.28            108            298 239 
 CHI  HZ EP        551  1.88                             107    0.38 7  331 190 
 CHI  HN ES   4    551 40.93                             107    3.26 0  331 190 
 CHI  HZ I         551 47.46         1.6 0.26            106            331 190 
 SJC  HZ EP   4    551  0.23                             107   -1.28 0  335 320 
 SJC  HN ES   4    551 34.72                             107   -2.97 0  335 320 
 SJC  HZ I         551 42.45         2.4 0.38            106            335 320 
 CBOC HZ EP   3    551  5.98                             105    1.13 2  362 239 
 CBOC HN ES   3    551 42.23                             105   -1.40 2  362 239 
 CBOC HZ I         551 48.51         1.9 0.36            104            362 239 
 PTGC HZ EP        551  7.74                             104   -0.49 6  393 162 
 PTGC HN ES   4    551 48.22                             104   -1.42 0  393 162 
 PRA  HZ EP   4    551 18.86                             101    1.91 0  466 203 
 PRA  HN ES   4    552  8.87                             101    3.69 0  466 203 
 PRA  HZ I         552 13.79         1.7 0.42            100            466 203 
                                                                                
