 2013  2 3 0627 39.0 L   5.938 -73.781104.9  RSN  6 0.3 1.6LRSN                1
 GAP=134        0.67       2.6     3.3  6.9  0.1890E+01  0.3781E+01  0.6723E+01E
 Epicentro: GUAVATA - SANTANDER                                                3
 ACTION:UPD 13-03-12 09:30 OP:ep   STATUS:               ID:20130203062739 L   I
 2013-02-03-0620-00M.COL___240                                                 6
 STAT SP IPHASW D HRMM SECON CODA AMPLIT PERI AZIMU VELO AIN AR TRES W  DIS CAZ7
 RUS  HZ EP        627 57.11                             141   -0.0110 77.4  94 
 RUS  HN ES   1    628 10.97                             141   -0.25 7 77.4  94 
 BAR2 SZ EP        627 58.65                             134    0.1610 98.1  42 
 BAR2 SZ ES   1    628 13.89                             134    0.24 7 98.1  42 
 BAR2 SZ I         628 15.88        17.6 0.28            135           98.1  42 
 PTB  HZ EP        627 58.05                             133   -0.3110  100 312 
 PTB  HN ES        628 13.67                             133    0.2410  100 312 
 PTB  HZ I         628 15.42         2.9 0.12            134            100 312 
 BRR  HZ EP        628  0.85                             125   -0.3010  130   3 
 BRR  HN ES   1    628 18.42                             125    0.03 7  130   3 
 BRR  HN I         628 22.40        10.6 0.17            126            130   3 
 CHI  HZ EP   1    628  2.96                             122   -0.29 7  145 178 
 CHI  HE ES   1    628 21.97                             122   -0.16 7  145 178 
 VIL  SZ EP        628  9.72                             112    0.57 9  202 177 
                                                                                
