 2015  5 3 0446 56.9 L   6.399 -73.241 14.8  RSN  7 0.5 1.8LRSN                1
 GAP=133        1.25       2.6     5.2  7.0  0.3345E+01  0.2863E+02  0.6010E+01E
 Epicentro: CONFINES - SANTANDER                                               3
 ACTION:UPD 15-09-10 22:01 OP:cam  STATUS:               ID:20150503044657 L   I
 OLDACT:UP  15-05-07 15:43 OP:cam  STATUS:               ID:20150503044657 L   3
 OLDACT:UP  15-05-07 15:43 OP:cam  STATUS:               ID:20150503044657 L   3
 OLDACT:UP  15-05-07 06:55 OP:AK   STATUS:               ID:20150503044657 L   3
 OLDACT:REG 15-05-03 13:52 OP:stll STATUS:               ID:20150503043747     3
 2015-05-03-0437-47M.COL___273                                                 6
 STAT SP IPHASW D HRMM SECON CODA AMPLIT PERI AZIMU VELO AIN AR TRES W  DIS CAZ7
 BAR2 EZ IP     C  447  1.96                             121    0.3310 22.3  17 
 BAR2 EZ ES        447  5.25                             121   -0.0410 22.3  17 
 BAR2 EZ I         447  6.29       187.2 0.14            110           22.3  17 
 RUS  HZ IP     D  447  7.29                             102    0.1810 58.7 163 
 RUS  HZ I         447  7.81        39.2 0.20             98           58.7 163 
 RUS  HN ES        447 14.57                             102   -0.4710 58.7 163 
 BRR  HZ IP     D  447 12.02                              97    0.1610 94.0 326 
 BRR  HZ I         447 12.31        47.4 0.14             94           94.0 326 
 BRR  HN ES        447 23.21                              97   -0.3010 94.0 326 
 PAM  SZ EP        447 17.13                              96    0.8410  120  30 
 PAM  SN ES        447 30.52                              95   -0.8710  120  30 
 PAM  SZ I         447 32.91        19.0 0.58             93            120  30 
 ZAR  HZ EP        447 28.92                              56    0.68 8  216 304 
 ZAR  HN ES        447 52.53                              56   -0.13 8  216 304 
 ZAR  HZ I         447 55.69         5.4 0.34             56            216 304 
 HEL  HZ EP        447 33.66                              56    0.18 8  254 265 
 HEL  HE ES        448  1.09                              56   -0.90 8  254 265 
 HEL  HZ I         448  1.50         6.1 0.26             56            254 265 
 GUY2CHZ EP   4    447 37.07                              56    1.64 0  269 241 
 GUY2CHN ES        448  5.82                              56    0.37 8  269 241 
 GUY2CHZ I         448 15.31         2.9 0.60                           269 241 
                                                                                
