 2017  6 3 0738 26.9 L   6.743 -73.203151.6  RSN  6 0.4 1.3LRSN                1
 GAP=226        1.14       6.4     7.7  9.3  0.2391E+02 -0.1743E+01 -0.6883E+01E
 Epicentro: VILLANUEVA - SANTANDER                                             3
 ACTION:UPD 17-09-14 16:49 OP:jn   STATUS:               ID:20170603073826 L   I
 OLDACT:REG 17-06-03 13:39 OP:ar   STATUS:               ID:20170603072738     3
 2017-06-03-0728-00M.COL___350                                                 6
 STAT SP IPHASW D HRMM SECON CODA AMPLIT PERI AZIMU VELO AIN AR TRES W  DIS CAZ7
 BRR  HZ EP        738 48.74                             154    0.1510 69.1 306 
 BRR  HN ES        739  5.82                             154    0.3210 69.1 306 
 BRR  HZ I         739 10.60         2.0 0.12            153           69.1 306 
 RUS  HZ EP        738 51.54                             146    0.6710 95.0 172 
 RUS  HE ES        739  8.77                             146   -0.7810 95.0 172 
 RUS  HZ I         739 12.46         2.3 0.60            149           95.0 172 
 PTB  HZ EP        738 53.59                             135   -0.13 9  140 261 
 PTB  HN ES        739 14.38                             135   -0.25 9  140 261 
 PTB  HZ I         739 21.17         2.7 0.48            135            140 261 
 SPBC HZ EP        738 55.04                             132   -0.02 9  154 219 
 SPBC HN ES        739 17.55                             132    0.54 9  154 219 
 SPBC HZ I         739 21.16         4.9 0.20            133            154 219 
 ZAR  HZ EP        738 58.76                             124   -0.65 9  201 294 
 ZAR  HN ES        739 24.77                             124    0.02 9  201 294 
 ZAR  HZ I         739 29.96         2.4 0.22            126            201 294 
 NOR  HN ES   4    739 33.44                             121    3.96 0  226 235 
 NOR  HZ I         739 33.55         2.1 0.32            123            226 235 
                                                                                
