 2010  7 3 0904 42.7 L   6.791 -73.106148.8  RSN  7 0.3 1.7LRSN                1
 GAP=160        0.55       3.5     6.1  6.0 -0.6625E+01 -0.4436E+01  0.8477E+00E
 Epicentro: LOS SANTOS - SANTANDER                                             3
 ACTION:UPD 10-12-01 15:14 OP:pat  STATUS:               ID:20100703090442 L   I
 2010-07-03-0903-10S.COL___118                                                 6
 STAT SP IPHASW D HRMM SECON CODA AMPLIT PERI AZIMU VELO AIN AR TRES W  DIS CAZ7
 BAR2 SZ EP   1    9 5  2.55                             171    -0.2 7   24 201 
 BAR2 SZ ES   2    9 5 17.82                             171    -0.5 5   24 201 
 BRR  HZ EP        9 5  4.44                             152     0.010   76 298 
 BRR  HZ I         9 5  4.61        22.7 0.19                            76 298 
 BRR  HE ES   1    9 5 21.60                             152     0.2 7   76 298 
 RUS  HZ EP   2    9 5  7.21                             145     0.5 5   99 179 
 RUS  HE ES   2    9 5 25.45                             145     0.1 5   99 179 
 RUS  HZ I         9 5 26.71         2.9 0.22                            99 179 
 BRI  SZ EP   1    9 5  7.15                             142     0.3 7  108  18 
 BRI  SZ ES   1    9 5 25.79                             142     0.1 7  108  18 
 GUE  SZ EP   2    9 5  6.95                             140    -0.8 5  117  10 
 GRA  SZ EP   2    9 5  8.24                             138     0.0 5  125  15 
 GRA  SZ ES   1    9 5 28.20                             138     0.1 7  125  15 
 OCA  SZ EP   2    9 5 11.36                             130    -0.1 5  162 352 
 OCA  SZ ES   2    9 5 33.57                             130    -0.2 5  162 352 
 OCA  SZ I         9 5 38.69         7.6 0.31                           162 352 
                                                                                
