 2015  9 3 0749 30.8 L   6.796 -73.145148.0  RSN 11 0.5 1.8LRSN                1
 GAP=112        1.30       3.8     4.8  7.1 -0.2931E+00  0.3262E+01 -0.3043E+01E
 Epicentro: LOS SANTOS - SANTANDER                                             3
 ACTION:UPD 15-10-28 16:23 OP:cam  STATUS:               ID:20150903074930 L   I
 OLDACT:REG 15-09-03 12:59 OP:stll STATUS:               ID:20150903074748     3
 2015-09-03-0747-48M.COL___346                                                 6
 STAT SP IPHASW D HRMM SECON CODA AMPLIT PERI AZIMU VELO AIN AR TRES W  DIS CAZ7
 BAR2 EZ EP        749 50.77                             171    0.0910 22.9 190 
 BAR2 EZ ES        750  6.00                             171   -0.1910 22.9 190 
 BAR2 EZ I         750  7.64        10.2 0.24            171           22.9 190 
 BRR  HZ EP     C  749 52.64                             153    0.4410 71.4 299 
 BRR  HN ES        750  9.89                             153    1.0010 71.4 299 
 BRR  HZ I         750 12.47         7.9 0.14            151           71.4 299 
 RUS  HZ EP        749 55.29                             144    0.5610  100 176 
 RUS  HN ES        750 13.06                             144   -0.3410  100 176 
 RUS  HZ I         750 14.18         6.6 0.30            147            100 176 
 PTB  HZ EP        749 57.66                             132   -0.28 9  148 259 
 PTB  HE ES        750 18.73                             132   -0.38 9  148 259 
 PTB  HZ I         750 20.71         9.9 0.32            133            148 259 
 TAM  HZ EP        749 57.69                             131   -0.94 9  155 105 
 OCA  HZ EP        750  0.05                             130    0.73 9  161 353 
 OCA  HN ES        750 21.17                             130   -0.40 9  161 353 
 OCA  HZ I         750 27.00        13.1 0.26            131            161 353 
 SPBC HZ EP        749 59.56                             130    0.13 9  163 219 
 SPBC HN ES        750 21.88                             130    0.11 9  163 219 
 SPBC HZ I         750 26.57        11.3 0.20            131            163 219 
 ZAR  HZ EP        750  3.32                             123   -0.08 9  204 292 
 ZAR  HN ES        750 28.62                             123   -0.22 9  204 292 
 ZAR  HZ I         750 35.60         7.2 0.32            123            204 292 
 SML  HZ EP        750  7.28                             118   -0.31 8  244 335 
 SML  HN ES        750 35.84                             118   -0.45 8  244 335 
 HEL  HZ EP   1    750 11.95                             115    0.84 6  272 256 
 HEL  HN ES        750 41.60                             115   -0.96 8  272 256 
 HEL  HZ I         750 48.85         3.6 0.32            116            272 256 
 GUY2CHZ EP        750 15.44                             113    0.96 7  301 235 
 GUY2CHE ES        750 48.19                             113   -0.36 7  301 235 
 GUY2CHZ I         750 56.15         3.3 0.56                           301 235 
                                                                                
