 2014  8 3 0119 11.7 L   6.772 -73.145144.4  RSN  8 0.4 1.7LRSN                1
 GAP=138        0.97       3.5     4.1  5.8 -0.1119E+00  0.5813E+01  0.2942E+01E
 Epicentro: LOS SANTOS - SANTANDER                                             3
 ACTION:UPD 14-09-15 21:46 OP:nd   STATUS:               ID:20140803011911 L   I
 OLDACT:REG 14-08-03 12:51 OP:carl STATUS:               ID:20140803011815     3
 2014-08-03-0118-15M.COL___242                                                 6
 STAT SP IPHASW D HRMM SECON CODA AMPLIT PERI AZIMU VELO AIN AR TRES W  DIS CAZ7
 BAR2 SZ EP        119 31.18                             172    0.0810 20.3 192 
 BAR2 SZ ES        119 46.47                             172    0.2410 20.3 192 
 BAR2 SZ I         119 47.67        11.0 0.14            170           20.3 192 
 BRR  HZ EP        119 32.99                             152    0.2010 72.9 301 
 BRR  HN ES        119 49.40                             152    0.1610 72.9 301 
 BRR  HZ I         119 53.02        16.9 0.40            151           72.9 301 
 PAM  SZ EP        119 34.18                             150    0.2810 79.8  38 
 PAM  SN ES        119 51.04                             150   -0.1910 79.8  38 
 PAM  SZ I         119 53.20         8.0 0.50            154           79.8  38 
 RUS  HZ EP   1    119 34.30                             144   -0.78 7 97.4 176 
 RUS  HN ES        119 53.03                             144   -0.2910 97.4 176 
 RUS  HZ I         119 55.81         3.3 0.34            146           97.4 176 
 PTB  HZ EP        119 37.92                             132   -0.59 9  147 260 
 PTB  HN ES        119 58.60                             132   -0.82 9  147 260 
 PTB  HZ I         120  0.98         8.6 0.56            132            147 260 
 SPBC HZ EP        119 40.14                             129    0.28 9  161 220 
 SPBC HN ES        120  2.41                             129    0.58 9  161 220 
 SPBC HZ I         120  9.06         9.7 0.28            130            161 220 
 ZAR  HZ EP        119 44.26                             122    0.08 8  205 293 
 ZAR  HE ES        120  9.83                             122    0.30 8  205 293 
 ZAR  HZ I         120 16.77         6.9 0.24            123            205 293 
 CHI  HZ EP        119 49.03                             117    0.04 8  246 195 
 CHI  HN ES        120 18.33                             117    0.25 8  246 195 
 CHI  HZ I         120 22.41         3.3 0.32            119            246 195 
                                                                                
