 2010  5 3 0546 45.4 L   6.766 -73.077143.3  RSN  5 0.5 1.5LRSN                1
 GAP=195        1.11       9.9    16.5 13.4  0.1260E+02 -0.7349E+02 -0.4788E+02E
 Epicentro: LOS SANTOS - SANTANDER                                             3
 ACTION:UP  10-08-24 10:02 OP:vdl  STATUS:               ID:20100503054645 L   I
 2010-05-03-0544-37S.COL___105                                                 6
 STAT SP IPHASW D HRMM SECON CODA AMPLIT PERI AZIMU VELO SNR AR TRES W  DIS CAZ7
 BAR2 SZ EP   1    547  4.50                             171    -0.2 7   23 211 
 BAR2 SZ ES   1    547 19.54                             171    -0.2 7   23 211 
 BRR  HZ EP        547  6.93                             149     0.110   80 298 
 BRR  HE ES   1    547 23.70                             149     0.2 7   80 298 
 BRR  HZ I         547 27.18         5.4 0.17                            80 298 
 BRI  SZ EP   1    547 10.04                             141     0.9 7  110  16 
 OCA  SZ EP   1    547 12.96                             128    -1.0 7  165 351 
 OCA  SZ ES   1    547 36.17                             128    -0.1 7  165 351 
 OCA  SZ I         547 39.87         4.5 0.38                           165 351 
 HEL  HZ EP   3    547 26.46                             114     0.2 2  279 257 
 HEL  HZ I         548  5.72         1.2 0.24                           279 257 
                                                                                
