 2013  1 3 0246 43.6 L   6.809 -73.135144.8  RSN 12 0.5 2.4LRSN                1
 GAP=127        1.21       3.9     4.7  6.2  0.1076E+00  0.7120E+01  0.1352E+01E
 Epicentro: LOS SANTOS - SANTANDER                                             3
 ACTION:UPD 13-02-15 09:11 OP:ep   STATUS:               ID:20130103024643 L   I
 2013-01-03-0239-43M.COL___205                                                 6
 STAT SP IPHASW D HRMM SECON CODA AMPLIT PERI AZIMU VELO AIN AR TRES W  DIS CAZ7
 BAR2 SZ IP        247  3.20                             170    0.1010 24.5 192 
 BAR2 SZ ES        247 17.75                             170   -0.5910 24.5 192 
 BAR2 SZ I         247 19.69        55.9 0.40            161           24.5 192 
 BRR  HZ IP     C  247  5.07                             152    0.4310 71.8 297 
 BRR  HZ I         247  5.37        45.5 0.24            135           71.8 297 
 BRR  HE ES        247 21.64                             152    0.5610 71.8 297 
 PAM  SZ EP        247  6.00                             151    0.4210 75.9  39 
 PAM  SZ I         247  6.36        28.7 0.24            144           75.9  39 
 PAM  SN ES        247 23.09                             151    0.3310 75.9  39 
 RUS  HZ EP        247  7.13                             143   -0.1510  101 177 
 RUS  HN ES        247 25.71                             143   -0.0710  101 177 
 RUS  HN I         247 26.44        28.5 0.22            133            101 177 
 PTB  HZ EP        247  9.79                             131   -0.79 9  149 259 
 PTB  HN ES        247 30.84                             131   -0.81 9  149 259 
 PTB  HN I         247 34.99        36.9 0.20            116            149 259 
 OCA  HN ES        247 33.16                             129   -0.52 9  159 353 
 OCA  HN I         247 37.60        68.3 0.20            117            159 353 
 ZAR  HZ EP        247 16.06                             122    0.04 9  205 292 
 ZAR  HE ES        247 42.12                             122    0.78 9  205 292 
 ZAR  HN I         247 50.32        34.2 0.12            109            205 292 
 CHI  HZ EP        247 21.88                             117    0.54 8  250 195 
 CHI  HE ES        247 51.21                             117    0.40 8  250 195 
 CHI  HN I         247 54.93        11.4 0.20            106            250 195 
 HEL  HZ EP        247 24.22                             114    0.34 8  273 256 
 HEL  HN I         248  2.77        14.5 0.28            103            273 256 
 URE  HZ EP        247 23.95                             113   -0.72 7  285 292 
 URE  HN I         248  7.55        23.5 0.26            102            285 292 
 DBB  SZ EP        247 31.26                             109    0.13 7  341 274 
 SDV  BZ EP        247 32.78                             108   -0.60 6  359  50 
                                                                                
