 2017  1 3 0655 50.7 L   6.773 -73.164143.6  RSN 15 0.3 2.0LRSN                1
 GAP= 98        0.85       3.1     2.6  4.5  0.4050E+00  0.9178E+00  0.1339E+01E
 Epicentro: LOS SANTOS - SANTANDER                                             3
 ACTION:UPD 17-05-22 15:54 OP:jn   STATUS:               ID:20170103065550 L   I
 OLDACT:DUP 17-01-03 16:10 OP:lv   STATUS:               ID:20170103064745d    3
 2017-01-03-0648-00M.COL___381                                                 6
 STAT SP IPHASW D HRMM SECON CODA AMPLIT PERI AZIMU VELO AIN AR TRES W  DIS CAZ7
 BAR2 EZ EP        656 10.04                             172    0.0610 20.1 186 
 BAR2 EZ ES        656 25.15                             172    0.1110 20.1 186 
 BAR2 EZ I         656 26.93        23.3 0.38            169           20.1 186 
 BRR  HZ EP        656 11.84                             152    0.2710 70.9 301 
 BRR  HE ES        656 28.37                             152    0.5010 70.9 301 
 BRR  HZ I         656 32.65        20.1 0.10            155           70.9 301 
 PAM  EZ EP        656 12.82                             149   -0.0610 81.0  39 
 PAM  EN ES        656 30.09                             149   -0.1110 81.0  39 
 PAM  EZ I         656 31.69         9.0 0.25            148           81.0  39 
 RUS  HZ EP        656 14.02                             144    0.0110 97.8 175 
 RUS  HN ES        656 31.72                             144   -0.4910 97.8 175 
 RUS  HZ I         656 33.69        13.3 0.24            142           97.8 175 
 PTB  HZ EP        656 16.63                             132   -0.60 9  145 260 
 PTB  HN ES        656 37.66                             132   -0.28 9  145 260 
 PTB  HZ I         656 45.14        17.0 0.32            133            145 260 
 TAM  HZ IP     D  656 18.26                             130   -0.04 9  156 104 
 TAM  HN ES        656 39.88                             130    0.03 9  156 104 
 TAM  HZ I         657  8.26        14.7 0.48            128            156 104 
 ZAR  HZ EP        656 22.64                             122   -0.26 9  203 293 
 ZAR  HN ES        656 48.14                             122    0.11 9  203 293 
 ZAR  HZ I         656 54.97        13.1 0.17            122            203 293 
 CHI  HZ EP        656 28.40                             117    0.51 8  245 195 
 CHI  HE ES        656 57.23                             117    0.32 8  245 195 
 CHI  HZ I         657  2.05         3.8 0.29            116            245 195 
 ROSC BZ EP   9    656 30.52                             117    2.24 0  249 211 
 ROSC BN ES        657  0.44                                    0.59 8  249 211 
 ROSC BZ I         657  3.27         9.5 0.40            116            249 211 
 URE  HN ES   4    657  1.20                             113   -2.23 0  283 293 
 GUY2CHZ EP   9    656 35.58                             112    1.78 0  298 235 
 GUY2CHN ES        657  9.65                                    0.43 7  298 235 
 GUY2CHZ I         657 18.54         6.8 0.48                           298 235 
 PTGC HZ EP   4    656 33.17                             111   -1.04 0  307 158 
 PTGC HN ES   4    657  5.79                             111   -2.38 0  307 158 
 PTGC HZ I         657  9.71         7.4 0.37            110            307 158 
 CBOC HZ EP   9    656 39.04                             110    1.87 0  331 252 
 CBOC HN ES        657 14.50                                   -0.81 7  331 252 
 CBOC HZ I         657 18.88         1.5 0.17            109            331 252 
 ANIL HN ES   4    657 22.86                             108    4.42 0  354 225 
 ANIL HZ I         657 27.30        12.5 0.40            108            354 225 
 PAL  HZ EP        656 45.63                             106    0.25 6  402 239 
 PAL  HN ES   4    657 26.51                             106   -1.53 0  402 239 
 PAL  HZ I         657 32.81         2.9 0.24            105            402 239 
 SJC  HZ EP   4    656 43.87                             105   -2.46 0  411 327 
 SJC  HN ES   4    657 25.50                             105   -4.23 0  411 327 
 SJC  HZ I         657 33.66         1.3 0.32            105            411 327 
                                                                                
