 2017  9 3 0250 50.7 L   6.828 -73.128148.1  RSN 19 0.5 2.3LRSN                1
 GAP= 66        1.10       3.1     2.9  5.3 -0.1319E+00  0.4011E+01  0.2758E+01E
 Epicentro: LOS SANTOS - SANTANDER                                             3
 ACTION:UPD 17-10-05 19:08 OP:rebc STATUS:               ID:20170903025050 L   I
 OLDACT:UP  17-09-03 14:39 OP:dani STATUS:               ID:20170903024748     3
 OLDACT:UP  17-09-03 14:38 OP:dani STATUS:               ID:20170903024748     3
 OLDACT:REG 17-09-03 13:12 OP:dani STATUS:               ID:20170903024748     3
 2017-09-03-0248-00M.COL___414                                                 6
 STAT SP IPHASW D HRMM SECON CODA AMPLIT PERI AZIMU VELO AIN AR TRES W  DIS CAZ7
 BAR2 EZ EP     D  251 10.50                             169   -0.1710 26.8 193 
 BAR2 EZ ES        251 25.59                             169   -0.6710 26.8 193 
 BAR2 EZ I         251 26.79        51.6 0.74            167           26.8 193 
 BRR  HZ EP        251 12.23                             153    0.1210 71.5 296 
 BRR  HN ES        251 29.75                             153    0.9310 71.5 296 
 BRR  HZ I         251 32.89        24.1 0.14            152           71.5 296 
 PAM  EZ EP        251 13.34                             152    0.4010 73.7  40 
 PAM  EN ES        251 30.32                             152    0.0210 73.7  40 
 PAM  EZ I         251 32.61        54.2 0.54            156           73.7  40 
 RUS  HZ EP        251 14.45                             144   -0.4410  104 177 
 RUS  HN ES        251 33.31                             144   -0.4510  104 177 
 RUS  HZ I         251 36.05        15.9 0.36            143            104 177 
 TAM  HZ EP        251 18.68                             131    0.22 9  154 106 
 TAM  HN ES        251 40.44                             131    0.32 9  154 106 
 SPBC HZ EP     D  251 19.54                             129   -0.17 9  167 219 
 SPBC HN ES        251 41.82                             129   -0.53 9  167 219 
 SPBC HZ I         251 44.01        37.4 0.12            129            167 219 
 YPLC HZ EP     D  251 20.73                             127   -0.10 9  179 152 
 YPLC HE ES        251 44.78                             127    0.43 9  179 152 
 YPLC HZ I         251 48.97        18.1 0.28            128            179 152 
 ZAR  HZ EP        251 23.27                             123   -0.09 9  205 291 
 ZAR  HE ES        251 49.02                             123    0.19 9  205 291 
 ZAR  HZ I         251 55.01        22.5 0.40            123            205 291 
 NOR  HZ EP        251 26.64                             119   -0.28 8  238 234 
 NOR  HN ES        251 54.44                             119   -0.74 8  238 234 
 NOR  HZ I         252  1.32        16.8 0.32            119            238 234 
 CHI  HZ EP        251 28.70                             117   -0.20 8  252 195 
 CHI  HN ES        251 58.18                             117   -0.52 8  252 195 
 CHI  HZ I         252  4.35         7.4 0.66            118            252 195 
 ROSC BZ EP   3    251 30.70                             117    1.36 2  256 211 
 ROSC BE ES        252  0.48                             117    1.00 8  256 211 
 ROSC BZ I         252  4.65        23.0 0.75            117            256 211 
 HEL  HZ EP   3    251 32.79                             115    1.47 2  275 255 
 HEL  HN ES        252  3.33                             115    0.32 8  275 255 
 HEL  HZ I         252  8.98        11.2 0.38            115            275 255 
 URE  HE ES   4    252  1.56                             114   -2.57 0  284 291 
 GUY2CHZ EP        251 35.52                             112    0.73 7  305 235 
 GUY2CHN ES   4    252 13.16                             112    3.97 0  305 235 
 GUY2CHZ I         252 17.22        14.4 0.42                           305 235 
 PTGC HZ EP   3    251 33.43                             112   -1.47 2  311 159 
 PTGC HN ES   4    252  7.02                             112   -2.37 0  311 159 
 PTGC HZ I         252 11.62         9.6 0.38            113            311 159 
 LL6C HZ EP        251 35.63                             111   -0.51 7  322 357 
 ELA  HZ EP   4    251 40.25                             110    2.21 0  333 229 
 ELA  HN ES        252 15.84                             110    0.87 7  333 229 
 ELA  HZ I         252 22.44        11.2 0.34            111            333 229 
 DBB  EN ES        252 14.96                             110   -0.76 7  341 274 
 PRA  HZ EP        251 44.55                             107   -0.17 6  396 210 
 PRA  HN ES        252 27.46                             107    0.59 6  396 210 
 PRA  HZ I         252 32.94         9.6 0.28            107            396 210 
 SJC  HZ EP   3    251 44.75                             106   -1.40 1  408 326 
 SJC  HN ES   4    252 26.49                             106   -2.91 0  408 326 
 SJC  HZ I         252 30.93         4.0 0.26            107            408 326 
                                                                                
