 2011 12 3 0407 52.4 L   6.803 -73.449109.0  RSN  6 0.1 1.5LRSN                1
 GAP=161        0.42       2.3     3.9  3.7  0.2733E+01 -0.2566E+01 -0.2068E+01E
 Epicentro: SAN VICENTE DE CHUCURI - SANTANDER                                 3
 ACTION:UPD 12-07-13 16:13 OP:ep   STATUS:               ID:20111203040752 L   I
 2011-12-03-0400-00M.COL___182                                                 6
 STAT SP IPHASW D HRMM SECON CODA AMPLIT PERI AZIMU VELO AIN AR TRES W  DIS CAZ7
 BAR2 SZ IP        4 8  8.39                             160    0.2510 37.6 128 
 BAR2 SZ ES   1    4 8 20.47                             160    0.06 7 37.6 128 
 BAR2 SZ I         4 8 22.05        26.4 0.24                          37.6 128 
 GIR2 SZ IP        4 8  8.20                             158    0.0210 41.6  43 
 BRR  HZ IP     C  4 8  7.88                             156   -0.2310 44.5 319 
 BRR  HN ES   1    4 8 20.40                             156    0.05 7 44.5 319 
 BRR  HZ I         4 8 21.33        10.4 0.12                          44.5 319 
 PAM  SZ EP        4 8 12.72                             134   -0.1610  102  54 
 PAM  SN ES   2    4 8 28.76                             134   -0.07 5  102  54 
 RUS  HZ EP        4 8 13.50                             132    0.0310  108 158 
 RUS  HE ES   1    4 8 29.73                             132   -0.16 7  108 158 
 RUS  HZ I         4 8 33.38         3.0 0.60                           108 158 
 OCA  SZ EP        4 8 18.23                             120    0.15 9  159   5 
 OCA  SZ I         4 8 39.56         4.3 0.30                           159   5 
                                                                                
