 2017  6 3 0450 41.4 L   6.573 -73.552104.7  RSN 19 0.6 2.4LRSN                1
 GAP=127        1.45       3.8     3.8  7.4  0.4182E+01  0.6210E+01  0.6035E+01E
 Epicentro: EL CARMEN - SANTANDER                                              3
 ACTION:UPD 17-09-14 16:49 OP:jn   STATUS:               ID:20170603045041 L   I
 OLDACT:UP  17-06-03 18:49 OP:ar   STATUS:               ID:20170603044728     3
 OLDACT:REG 17-06-03 13:31 OP:ar   STATUS:               ID:20170603044728     3
 2017-06-03-0448-00M.COL___359                                                 6
 STAT SP IPHASW D HRMM SECON CODA AMPLIT PERI AZIMU VELO AIN AR TRES W  DIS CAZ7
 BRR  HZ EP        450 57.85                             147    0.2310 61.7 343 
 BRR  HN ES        451 11.63                             147    1.3510 61.7 343 
 BRR  HZ I         451 21.58        47.1 0.14            152           61.7 343 
 RUS  HZ EP        450 59.99                             136   -0.5810 91.4 145 
 RUS  HN ES        451 15.51                             136   -0.0310 91.4 145 
 RUS  HZ I         451 16.68        46.8 0.44            142           91.4 145 
 PTB  HZ IP     D  450 59.85                             132   -0.8310  100 268 
 PTB  HN ES        451 14.61                             132   -1.1310  100 268 
 SPBC HZ EP        451  1.83                             128   -0.5210  117 210 
 SPBC HN ES        451 18.50                             128   -0.2110  117 210 
 SPBC HZ I         451 24.50        67.4 0.32            132            117 210 
 YPLC HZ IP     D  451  8.95                             114   -0.38 9  184 135 
 YPLC HE ES        451 31.61                             114    0.47 9  184 135 
 YPLC HZ I         451 32.58        80.1 0.34            121            184 135 
 NOR  HZ EP        451  8.57                             114   -0.73 9  184 233 
 NOR  HN ES        451 30.43                             114   -0.65 9  184 233 
 NOR  HZ I         451 34.30        23.8 0.18            119            184 233 
 ROSC BZ EP        451 13.47                             111    0.81 8  210 204 
 ROSC BN ES   4    451 40.54                             111    3.49 0  210 204 
 ROSC BZ I         451 43.78        21.9 0.45            116            210 204 
 CHI  HZ EP        451 13.04                             110   -0.34 8  216 185 
 CHI  HN ES        451 38.16                             110   -0.19 8  216 185 
 CHI  HZ I         451 47.59        11.3 0.34            116            216 185 
 HEL  HZ EP        451 14.57                             109    0.44 8  223 259 
 HEL  HN ES        451 40.16                             109    0.49 8  223 259 
 HEL  HZ I         451 42.83        13.4 0.44            114            223 259 
 URE  HZ EP   4    451 16.00                             106   -1.39 0  255 301 
 URE  HN ES        451 45.08                             106   -0.39 8  255 301 
 URE  HZ I         451 53.39        25.4 0.34            111            255 301 
 VIL  EZ EP        451 19.36                             105   -0.27 8  273 183 
 VIL  EE ES        451 50.65                             105    1.18 8  273 183 
 VIL  EZ I         451 57.38        24.9 0.46            110            273 183 
 CBOC HZ EP        451 21.29                             104    0.33 7  283 254 
 CBOC HN ES        451 52.12                             104    0.30 7  283 254 
 CBOC HZ I         451 55.87         9.0 0.32            109            283 254 
 DBB  EZ EP        451 22.75                             103    0.18 7  298 280 
 DBB  EN ES        451 55.59                             103    0.89 7  298 280 
 DBB  EZ I         451 57.77         7.5 0.32            108            298 280 
 PTGC HZ EP   4    451 21.40                             102   -2.03 0  306 149 
 PTGC HN ES   4    451 53.56                             102   -2.66 0  306 149 
 PTGC HZ I         451 56.48        10.6 0.30            108            306 149 
 ANIL HZ EP   4    451 27.61                             102    3.54 0  308 222 
 ANIL HN ES   4    451 59.77                             102    2.40 0  308 222 
 ANIL HZ I         452  1.53        22.4 0.32            107            308 222 
 ORTC HZ EP        451 28.96                             100    0.30 6  349 213 
 ORTC HN ES        452  6.66                             100    1.11 6  349 213 
 ORTC HZ I         452 10.42         7.7 0.38            104            349 213 
 PAL  HZ EP        451 29.55                              99    0.25 6  354 239 
 PAL  HE ES        452  6.82                              99    0.15 6  354 239 
 PAL  HZ I         452 10.40         9.5 0.24            104            354 239 
 MACC HZ EP        451 46.13                              94    0.38 4  491 184 
 MACC HN ES   4    452 31.77                              94   -4.19 0  491 184 
 MACC HZ I         452 34.07         2.9 0.54             99            491 184 
 CRJC HZ EP        451 45.88                              93   -0.78 4  497   8 
 CRJC HN ES        452 37.53                              93   -0.04 4  497   8 
 CRJC HZ I         452 39.31        14.0 0.38             99            497   8 
                                                                                
