 2017  2 3 0911 52.4 L   6.785 -73.129139.3  RSN  7 0.3 1.6LRSN                1
 GAP=139        0.71       2.9     3.8  5.1  0.1453E+01  0.4591E+01  0.2504E+01E
 Epicentro: LOS SANTOS - SANTANDER                                             3
 ACTION:UPD 17-05-24 15:32 OP:jn   STATUS:               ID:20170203091152 L   I
 OLDACT:REG 17-02-03 12:53 OP:dnl  STATUS:               ID:20170203090739     3
 2017-02-03-0908-00M.COL___322                                                 6
 STAT SP IPHASW D HRMM SECON CODA AMPLIT PERI AZIMU VELO AIN AR TRES W  DIS CAZ7
 BAR2 EZ EP        912 10.88                             171   -0.3910 22.1 196 
 BAR2 EZ ES        912 25.53                             171   -0.4310 22.1 196 
 BAR2 EZ I         912 27.72         9.8 0.30            169           22.1 196 
 BRR  HZ EP        912 12.91                             150   -0.1310 73.6 299 
 BRR  HE ES        912 29.53                             150    0.4210 73.6 299 
 BRR  HZ I         912 33.89        10.6 0.28            149           73.6 299 
 PAM  EZ EP        912 13.88                             150   -0.1110 77.5  38 
 PAM  EN ES        912 31.09                             150    0.3010 77.5  38 
 PAM  EZ I         912 32.78        14.7 0.50            153           77.5  38 
 RUS  HZ EP        912 15.76                             143    0.3210 98.8 177 
 RUS  HE ES        912 33.32                             143   -0.0510 98.8 177 
 RUS  HZ I         912 34.56         3.9 0.22            145           98.8 177 
 PTB  HZ EP   2    912 18.85                             130   -0.18 5  149 260 
 ZAR  HZ EP   2    912 24.41                             121   -0.31 4  206 292 
 ZAR  HE ES        912 49.82                             121   -0.08 8  206 292 
 ZAR  HZ I         912 55.15         5.8 0.28            121            206 292 
 CHI  HZ EP   2    912 30.08                             116    0.41 4  248 196 
 CHI  HN IS        912 58.97                             116    0.26 8  248 196 
 CHI  HZ I         913  2.94         1.4 0.36            117            248 196 
                                                                                
