 2013 11 3 0418  4.0 L   6.824 -73.182144.3  RSN  5 0.4 1.3LRSN                1
 GAP=198        0.87       4.6     7.0  8.0  0.1282E+02 -0.3456E+01 -0.1141E+02E
 Epicentro: ZAPATOCA - SANTANDER                                               3
 ACTION:UPD 14-01-09 16:25 OP:ep   STATUS:               ID:20131103041804 L   I
 OLDACT:DUP 13-11-03 09:46 OP:jn   STATUS:               ID:20131103041001d    3
 OLDACT:REG 13-11-03 07:31 OP:jn   STATUS:               ID:20131103041000     3
 2013-11-03-0410-00M.COL___273                                                 6
 STAT SP IPHASW D HRMM SECON CODA AMPLIT PERI AZIMU VELO AIN AR TRES W  DIS CAZ7
 BAR2 SZ ES   2    418 39.37                             169    0.68 5 25.7 180 
 BRR  HZ EP   1    418 25.29                             154    0.60 7 66.4 298 
 BRR  HN ES        418 40.98                             154    0.1310 66.4 298 
 BRR  HZ I         418 45.67         6.8 0.88            154           66.4 298 
 RUS  HZ EP   1    418 27.63                             142   -0.16 7  104 174 
 RUS  HN ES        418 46.04                             142   -0.3410  104 174 
 RUS  HZ I         418 47.57         1.7 0.26            146            104 174 
 PTB  HZ EP        418 30.74                             132    0.24 9  144 257 
 PTB  HN ES        418 51.04                             132   -0.17 9  144 257 
 PTB  HZ I         418 53.73         2.3 0.36            135            144 257 
 SML  HZ EP   1    418 40.54                             117    0.48 6  240 336 
 SML  HE ES        419  7.53                             117   -0.69 8  240 336 
                                                                                
