 2010 11 3 0503 40.0 L   6.768 -73.127149.4  RSN 10 0.4 1.8LRSN                1
 GAP=161        0.74       4.6     8.7  8.4 -0.1581E+02  0.8394E+01 -0.2961E+01E
 Epicentro: LOS SANTOS - SANTANDER                                             3
 ACTION:UP  10-12-17 16:50 OP:REBC STATUS:               ID:20101103050340 L   I
 2010-11-03-0500-52S.COL___128                                                 6
 STAT SP IPHASW D HRMM SECON CODA AMPLIT PERI AZIMU VELO SNR AR TRES W  DIS CAZ7
 BAR2 SZ EP        5 3 59.91                             172    -0.110   20 198 
 BAR2 SZ ES   2    5 4 15.21                             172    -0.4 5   20 198 
 BAR2 SZ I         5 4 16.64        22.8 0.23                            20 198 
 BTL  SZ EP   1    5 4  0.17                             171     0.1 7   23 317 
 GIR2 SZ EP   2    5 4  0.09                             166    -0.1 5   35 348 
 BRR  HZ EP   1    5 4  1.66                             152    -0.1 7   75 300 
 BRR  HZ I         5 4  3.28        14.8 0.10                            75 300 
 BRR  HE ES   2    5 4 18.91                             152     0.2 5   75 300 
 RUS  HZ EP   2    5 4  3.55                             145    -0.3 5   97 177 
 RUS  HN ES   2    5 4 22.47                             145     0.0 5   97 177 
 RUS  HZ I         5 4 24.13         5.0 0.24                            97 177 
 GUE  SZ EP   1    5 4  6.16                             139     0.9 7  120  11 
 GRA  SZ EP   2    5 4  5.71                             137    -0.1 5  129  16 
 GRA  SZ ES   2    5 4 26.11                             137     0.2 5  129  16 
 GRA  SZ I         5 4 27.55         5.7 0.50                           129  16 
 OCA  SZ EP   1    5 4  8.53                             130    -0.4 7  164 353 
 OCA  SZ ES   2    5 4 30.69                             130    -0.8 5  164 353 
 OCA  SZ I         5 4 34.16         6.5 0.24                           164 353 
 NOR  SZ EP   2    5 4 15.47                             119    -0.4 4  235 236 
 NOR  SN ES   2    5 4 44.36                             119     0.4 4  235 236 
 PRA  HZ EP   2    5 4 32.43                             107    -1.0 3  390 210 
 PRA  HN ES   2    5 5 15.88                             107     0.8 3  390 210 
                                                                                
