 2015  3 3 0642  6.3 L   7.339 -73.758 29.6  RSN  4 0.2 0.9LRSN                1
 GAP=229        0.55       3.6     2.6  2.0 -0.5227E+01 -0.2217E+00 -0.1870E+01E
 Epicentro: PUERTO WILCHES - SANTANDER                                         3
 ACTION:UPD 15-04-30 16:22 OP:nd   STATUS:               ID:20150303064206 L   I
 OLDACT:REG 15-03-03 13:00 OP:spq  STATUS:               ID:20150303063748     3
 2015-03-03-0637-48M.COL___285                                                 6
 STAT SP IPHASW D HRMM SECON CODA AMPLIT PERI AZIMU VELO AIN AR TRES W  DIS CAZ7
 BRR  HZ EP     C  642 12.52                             134   -0.0310 26.1 169 
 BRR  HN ES        642 17.37                             134   -0.0310 26.1 169 
 BRR  HZ I         642 17.91        13.7 0.14            161           26.1 169 
 PTB  HZ EP   1    642 24.67                              61    0.51 7  117 221 
 PTB  HE ES   1    642 37.64                              61   -0.43 7  117 221 
 PTB  HZ I         642 39.15         1.8 0.20             56            117 221 
 PAM  SZ EP        642 24.70                              61    0.0410  117  90 
 PAM  SN ES        642 38.85                              61   -0.1110  117  90 
 PAM  SZ I         642 40.27         2.4 0.24             56            117  90 
 RUS  HZ EP   1    642 31.99                              61   -0.13 7  177 155 
 RUS  HN ES        642 52.41                              61    0.17 9  177 155 
 RUS  HZ I         642 53.84         1.4 0.62             56            177 155 
                                                                                
