 2015  9 3 0747 13.6 L   6.809 -73.156142.9  RSN 17 0.5 2.0LRSN                1
 GAP=182        1.16       2.8     4.4  5.4 -0.8658E+00  0.3717E+01  0.1013E+01E
 Epicentro: LOS SANTOS - SANTANDER                                             3
 ACTION:UPD 15-10-28 16:23 OP:cam  STATUS:               ID:20150903074713 L   I
 OLDACT:DUP 15-09-03 18:31 OP:stll STATUS:               ID:20150903073748d    3
 2015-09-03-0737-47M.COL___349                                                 6
 STAT SP IPHASW D HRMM SECON CODA AMPLIT PERI AZIMU VELO AIN AR TRES W  DIS CAZ7
 BAR2 EZ EP     D  747 33.29                             170    0.3710 24.1 187 
 BAR2 EZ ES        747 47.96                             170   -0.0210 24.1 187 
 BAR2 EZ I         747 50.94        17.0 0.26            169           24.1 187 
 BRR  HZ IP     D  747 35.27                             152    0.8910 69.8 298 
 BRR  HN ES        747 51.53                             152    0.9610 69.8 298 
 BRR  HZ I         747 56.17        13.8 0.30            152           69.8 298 
 RUS  HZ EP        747 36.98                             143   -0.1910  102 175 
 RUS  HN ES        747 55.44                             143   -0.0910  102 175 
 RUS  HZ I         747 57.30         6.7 0.38            146            102 175 
 PTB  HZ EP        747 40.02                             131   -0.26 9  147 258 
 PTB  HN ES        748  0.70                             131   -0.36 9  147 258 
 PTB  HZ I         748  6.18         9.0 0.44            133            147 258 
 CPBEREZ EP        747 39.31                             131   -0.97 9  147 258 
 CPBEREN ES        748  0.77                             131   -0.30 9  147 258 
 OCA  HZ EP        747 41.49                             129   -0.12 9  159 353 
 OCA  HN ES        748  3.07                             129   -0.36 9  159 353 
 OCA  HZ I         748 11.73        21.6 0.22            132            159 353 
 SPBC HZ EP        747 42.41                             128    0.50 9  163 218 
 SPBC HN ES        748  3.88                             128   -0.09 9  163 218 
 SPBC HZ I         748 11.20        12.3 0.34            130            163 218 
 ZAR  HZ EP        747 46.20                             122    0.46 9  203 292 
 ZAR  HN ES        748 10.54                             122   -0.25 9  203 292 
 ZAR  HZ I         748 16.37        10.4 0.34            124            203 292 
 NOR  HZ EP        747 49.53                             118    0.38 8  234 234 
 NOR  HE ES        748 16.82                             118   -0.04 8  234 234 
 NOR  HZ I         748 22.78         6.5 0.22            120            234 234 
 SML  HZ EP        747 49.58                             117   -0.36 8  242 335 
 SML  HN ES        748 17.45                             117   -0.82 8  242 335 
 CHI  HZ EP        747 51.12                             116   -0.12 8  249 195 
 CHI  HE ES        748 19.82                             116   -0.75 8  249 195 
 CHI  HZ I         748 26.06         6.7 0.32            119            249 195 
 ROSC BZ EP        747 51.40                             116   -0.22 8  253 211 
 ROSC BE ES        748 21.02                             116   -0.23 8  253 211 
 ROSC BZ I         748 27.79        16.5 0.40            118            253 211 
 HEL  HZ EP        747 53.92                             114    0.32 8  271 256 
 HEL  HN ES        748 24.62                             114   -0.16 8  271 256 
 HEL  HZ I         748 29.38         3.9 0.30            116            271 256 
 GUY2CHZ EP        747 57.54                             112    0.48 7  301 234 
 GUY2CHE ES        748 31.53                             112    0.59 7  301 234 
 GUY2CHZ I         748 39.63         5.8 0.58                           301 234 
 PTGC HZ EP   4    747 56.60                             111   -0.90 0  310 159 
 PTGC HZ I         747 56.95        14.1 0.22            114            310 159 
 CBOC HZ EP        748  1.42                             109    1.08 7  333 252 
 CBOC HZ I         748  4.10         2.1 0.18            111            333 252 
 CBOC HN ES   4    748 38.35                             109    1.58 0  333 252 
 ORTC HZ EP        748  7.54                             106    0.08 6  396 216 
 ORTC HN ES        748 48.99                             106   -0.47 6  396 216 
 ORTC HZ I         748 54.75         2.9 0.22            108            396 216 
                                                                                
