 2010  4 3 0639 25.4 L   6.802 -73.276127.1  RSN  4 0.2 1.9LRSN                1
 GAP=158        0.41       2.9     6.2  4.4  0.4517E+01 -0.6331E+01 -0.4630E+01E
 Epicentro: ZAPATOCA - SANTANDER                                               3
 ACTION:UPD 10-08-24 09:57 OP:vdl  STATUS:               ID:20100403063925 L   I
 2010-04-03-0637-51S.COL___098                                                 6
 STAT SP IPHASW D HRMM SECON CODA AMPLIT PERI AZIMU VELO AIN AR TRES W  DIS CAZ7
 BAR2 SZ EP        639 42.94                             168     0.110   25 156 
 BAR2 SZ ES   1    639 56.31                             168    -0.1 7   25 156 
 BRR  HZ EP        639 43.87                             153     0.010   59 305 
 BRR  HZ I         639 44.62        10.6 0.11                            59 305 
 BRR  HE ES   1    639 58.24                             153     0.0 7   59 305 
 OCA  SZ EP        639 52.26                             125     0.1 9  159 358 
 OCA  SZ ES   1    640 12.86                             125    -0.2 7  159 358 
 OCA  SZ I         640 18.03        16.1 0.35                           159 358 
 CHI  HZ EP   3    640  2.25                             113     0.5 2  246 192 
 CHI  HE ES   3    640 29.20                             113    -1.0 2  246 192 
                                                                                
