 2016  5 3 0834  0.0 L   6.791 -73.128149.9  RSN  8 0.4 1.1LRSN                1
 GAP=139        1.03       3.7     4.5  6.6 -0.1190E+01  0.7344E+01  0.3426E+00E
 Epicentro: LOS SANTOS - SANTANDER                                             3
 ACTION:UPD 16-08-18 17:41 OP:cam  STATUS:               ID:20160503083400 L   I
 OLDACT:DUP 16-05-03 17:23 OP:ak   STATUS:               ID:20160503082747d    3
 OLDACT:UP  16-05-03 17:20 OP:ak   STATUS:               ID:20160503082746     3
 OLDACT:REG 16-05-03 13:51 OP:ak   STATUS:               ID:20160503082746     3
 2016-05-03-0827-46M.COL___295                                                 6
 STAT SP IPHASW D HRMM SECON CODA AMPLIT PERI AZIMU VELO AIN AR TRES W  DIS CAZ7
 BAR2 EZ EP        834 20.31                             171    0.1810 22.8 195 
 BAR2 EZ ES        834 35.28                             171   -0.5510 22.8 195 
 BAR2 EZ I         834 36.48         2.1 0.31            169           22.8 195 
 BRR  HZ EP        834 22.03                             152    0.3010 73.4 298 
 BRR  HN ES        834 39.33                             152    0.6510 73.4 298 
 BRR  HZ I         834 42.04         4.1 0.34            150           73.4 298 
 PAM  EZ EP        834 22.97                             152    0.3310 76.9  38 
 PAM  EN ES        834 40.37                             152    0.0810 76.9  38 
 PAM  EZ I         834 40.60         0.9 0.16            156           76.9  38 
 RUS  HZ EP        834 24.27                             145    0.1710 99.5 177 
 RUS  HE ES        834 42.76                             145   -0.1310 99.5 177 
 RUS  HZ I         834 44.21         1.5 0.26            146           99.5 177 
 PTB  HZ EP        834 27.00                             133   -0.48 9  150 259 
 PTB  HN ES        834 48.35                             133   -0.55 9  150 259 
 PTB  HZ I         834 52.81         1.7 0.17            132            150 259 
 OCA  HN ES        834 50.60                             130   -0.58 9  161 352 
 SPBC HZ EP        834 28.67                             130   -0.21 9  164 220 
 SPBC HE ES        834 51.84                             130    0.44 9  164 220 
 SPBC HZ I         834 56.14         1.6 0.12            130            164 220 
 ZAR  HZ EP        834 32.69                             123   -0.26 8  206 292 
 ZAR  HN ES        834 59.13                             123    0.48 8  206 292 
 ZAR  HZ I         835  5.17         2.1 0.28            123            206 292 
                                                                                
