 2015  9 3 0616  8.3 L   6.841 -73.157144.0  RSN  9 0.5 1.6LRSN                1
 GAP=128        1.30       5.3     5.3  7.3 -0.4737E+01  0.4077E+01 -0.4640E+01E
 Epicentro: LOS SANTOS - SANTANDER                                             3
 ACTION:UPD 15-10-28 16:23 OP:cam  STATUS:               ID:20150903061608 L   I
 OLDACT:REG 15-09-03 12:55 OP:stll STATUS:               ID:20150903060741     3
 2015-09-03-0607-41M.COL___355                                                 6
 STAT SP IPHASW D HRMM SECON CODA AMPLIT PERI AZIMU VELO AIN AR TRES W  DIS CAZ7
 BAR2 EZ EP        616 27.81                             169    0.0110 27.6 186 
 BAR2 EZ ES        616 42.71                             169   -0.3110 27.6 186 
 BAR2 EZ I         616 47.86         3.7 0.18            160           27.6 186 
 BRR  HZ EP        616 29.80                             153    0.7310 68.0 296 
 BRR  HN ES        616 45.78                             153    0.5110 68.0 296 
 BRR  HZ I         616 50.88         7.9 0.12            152           68.0 296 
 PAM  EZ EP        616 30.76                             151    0.6010 74.8  43 
 PAM  EZ I         616 30.97         6.5 0.20            156           74.8  43 
 PAM  EN ES        616 46.91                             151   -0.3210 74.8  43 
 PTB  HZ EP        616 34.78                             132   -0.30 9  147 257 
 PTB  HN ES        616 55.15                             132   -0.83 9  147 257 
 PTB  HZ I         616 58.41         6.1 0.16            127            147 257 
 OCA  HZ EP        616 36.48                             130    0.45 9  156 353 
 OCA  HN ES        616 57.80                             130    0.14 9  156 353 
 OCA  HZ I         617  1.19        11.8 0.40            132            156 353 
 SPBC HZ EP        616 37.10                             128    0.19 9  166 218 
 SPBC HZ I         617  0.82         3.9 0.24            123            166 218 
 ZAR  HZ EP        616 40.64                             122    0.32 9  201 291 
 ZAR  HE ES        617  5.40                             122    0.09 9  201 291 
 ZAR  HZ I         617 11.71         6.6 0.42            120            201 291 
 SML  HZ EP        616 44.41                             118    0.10 8  239 335 
 SML  HN ES        617 11.42                             118   -0.99 8  239 335 
 SOCV BZ EP        616 49.90                             112   -1.20 7  300  58 
                                                                                
