 2012  6 3 0543 29.8 L   6.727 -73.201144.9  RSN  4 0.3 1.0LRSN                1
 GAP=237        0.47       8.5     7.9  8.2  0.4774E+02  0.3084E+02  0.1322E+02E
 Epicentro: VILLANUEVA - SANTANDER                                             3
 ACTION:UPD 12-08-06 17:46 OP:ep   STATUS:               ID:20120603054325 L   I
 2012-06-03-0540-00M.COL___201                                                 6
 STAT SP IPHASW D HRMM SECON CODA AMPLIT PERI AZIMU VELO AIN AR TRES W  DIS CAZ7
 BAR2 SZ ES   1    544  4.12                             174   -0.14 7 15.1 172 
 RUS  HZ EP   2    543 52.82                             146   -0.08 5 93.2 172 
 RUS  HN ES   1    544 11.15                             146    0.20 7 93.2 172 
 RUS  HZ I         544 12.52         1.6 0.56            140           93.2 172 
 PTB  HZ EP   2    543 55.74                             133   -0.24 5  140 262 
 PTB  HN ES   2    544 16.14                             133   -0.30 5  140 262 
 PTB  HZ I         544 23.76         1.3 0.37            127            140 262 
 ZAR  HE ES   2    544 27.54                             122    0.58 4  202 295 
                                                                                
