 2011  7 3 0853  4.5 L   6.804 -73.135143.7  RSN  7 0.3 1.4LRSN                1
 GAP=156        0.57       3.3     7.0  6.8 -0.1784E+01 -0.1668E+02 -0.3117E+01E
 Epicentro: LOS SANTOS - SANTANDER                                             3
 ACTION:UPD 12-07-25 13:57 OP:epov STATUS:               ID:20110703085304 L   I
 2011-07-03-0850-35S.COL___140                                                 6
 STAT SP IPHASW D HRMM SECON CODA AMPLIT PERI AZIMU VELO AIN AR TRES W  DIS CAZ7
 BTL  SZ EP        853 24.00                             172    0.1810 19.4 311 
 BAR2 SZ EP        853 24.07                             170    0.1610 24.0 193 
 BAR2 SZ I         853 24.54         5.4 0.11                          24.0 193 
 BAR2 SZ ES   2    853 39.34                             170    0.31 5 24.0 193 
 GIR2 SZ EP        853 23.95                             167    0.0210 31.1 348 
 BRR  HZ EP   1    853 25.75                             152    0.27 7 72.0 298 
 BRR  HZ I         853 26.09        14.2 0.08                          72.0 298 
 BRR  HE ES   1    853 41.52                             152   -0.32 7 72.0 298 
 RUS  HZ EP   1    853 27.46                             143   -0.63 7  101 177 
 RUS  HN ES   1    853 46.52                             143    0.05 7  101 177 
 RUS  HZ I         853 48.00         2.3 0.23                           101 177 
 BRI  SZ EP   2    853 28.36                             141    0.22 5  108  20 
 GRA  SZ EP        853 29.50                             137   -0.0110  125  17 
 GRA  SZ I         853 30.82         3.7 0.36                           125  17 
 GRA  SZ ES   1    853 48.77                             137   -0.24 7  125  17 
                                                                                
