 2016  2 3 0135  5.3 L   6.825 -73.099121.6  RSN  7 0.5 1.5LRSN                1
 GAP=248        0.76       9.8     7.1  8.7  0.3191E+02 -0.1544E+01  0.1360E+01E
 Epicentro: LOS SANTOS - SANTANDER                                             3
 ACTION:UPD 16-03-04 21:22 OP:rebc STATUS:               ID:20160203013505 L   I
 OLDACT:REG 16-02-03 12:31 OP:dnl  STATUS:               ID:20160203012750     3
 2016-02-03-0127-50M.COL___310                                                 6
 STAT SP IPHASW D HRMM SECON CODA AMPLIT PERI AZIMU VELO AIN AR TRES W  DIS CAZ7
 BAR2 EZ ES   2    135 34.49                             167   -0.80 5 27.4 200 
 BAR2 EZ I         135 40.85         6.3 0.19            165           27.4 200 
 RUS  HZ EP   2    135 28.01                             137    1.02 5  103 179 
 RUS  HN ES   2    135 44.26                             137    0.37 5  103 179 
 RUS  HZ I         135 47.45         3.9 0.29            141            103 179 
 PTB  HZ EP   2    135 30.42                             125   -0.57 5  153 258 
 PTB  HN ES        135 51.14                             125    0.1310  153 258 
 PTB  HZ I         135 56.46         4.4 0.11            128            153 258 
 SPBC HZ EP   2    135 32.72                             122    0.08 5  169 220 
 SPBC HE ES   2    135 54.49                             122    0.53 5  169 220 
 SPBC HZ I         135 57.97         5.0 0.10            126            169 220 
 ZAR  HZ EP   2    135 37.41                             116    0.69 5  208 291 
 ZAR  HE ES   4    135 58.94                             116   -2.28 0  208 291 
 ZAR  HZ I         136  7.36         4.3 0.31            120            208 291 
 NOR  HZ EP   2    135 39.92                             112   -0.50 4  241 235 
 NOR  HE ES   2    136  7.23                             112   -0.58 4  241 235 
 NOR  HZ I         136 12.02         3.5 0.14            116            241 235 
 CHI  HZ EP        135 41.92                             111   -0.34 8  253 196 
 CHI  HN ES   4    136  8.50                             111   -2.58 0  253 196 
 CHI  HZ I         136 16.99         1.8 0.26            116            253 196 
                                                                                
