 2013  1 3 0644 44.0 L   6.717 -73.200137.5  RSN  5 0.1 1.4LRSN                1
 GAP=224        0.44       3.2     3.0  3.6  0.6042E+01  0.2192E+01  0.5308E+00E
 Epicentro: VILLANUEVA - SANTANDER                                             3
 ACTION:UPD 13-02-15 09:11 OP:ep   STATUS:               ID:20130103064444 L   I
 2013-01-03-0639-40M.COL___184                                                 6
 STAT SP IPHASW D HRMM SECON CODA AMPLIT PERI AZIMU VELO AIN AR TRES W  DIS CAZ7
 BAR2 SZ EP        645  2.30                             174   -0.1610 14.0 172 
 BAR2 SZ ES        645 16.84                             174   -0.0310 14.0 172 
 BAR2 SZ I         645 18.65         4.8 0.16            170           14.0 172 
 BRR  HZ EP        645  4.15                             151   -0.0910 71.1 307 
 BRR  HN ES        645 20.21                             151    0.1810 71.1 307 
 RUS  HZ EP        645  6.61                             144    0.3010 92.1 172 
 RUS  HE ES        645 23.59                             144   -0.1410 92.1 172 
 RUS  HN I         645 25.64         7.6 0.36            144           92.1 172 
 PTB  HZ EP        645  9.57                             132   -0.03 9  140 262 
 PTB  HN ES        645 29.61                             132    0.03 9  140 262 
 PTB  HN I         645 33.04         2.4 0.20            131            140 262 
 ZAR  HE ES        645 40.34                             121   -0.11 9  202 295 
                                                                                
