 2016  4 3 0824 39.4 L   6.781 -73.177142.8  RSN  6 0.3 1.6LRSN                1
 GAP=133        0.80       3.6     3.6  5.8 -0.1662E+01  0.7716E+01 -0.2450E+01E
 Epicentro: LOS SANTOS - SANTANDER                                             3
 ACTION:UPD 16-05-05 14:18 OP:rebc STATUS:               ID:20160403082439 L   I
 OLDACT:DUP 16-04-03 15:46 OP:drio STATUS:               ID:20160403081748d    3
 2016-04-03-0817-47M.COL___309                                                 6
 STAT SP IPHASW D HRMM SECON CODA AMPLIT PERI AZIMU VELO AIN AR TRES W  DIS CAZ7
 BAR2 EZ EP        824 58.25                             171   -0.3710 20.9 182 
 BAR2 EZ ES        825 13.85                             171    0.2410 20.9 182 
 BAR2 EZ I         825 16.36         7.0 0.28            172           20.9 182 
 PAM  EZ EP        825  1.41                             149   -0.1210 81.2  41 
 PAM  EE ES        825 18.62                             149   -0.1710 81.2  41 
 PAM  EZ I         825 20.76         8.4 0.46            153           81.2  41 
 RUS  HZ EP        825  2.86                             144    0.1410 98.8 174 
 RUS  HE ES        825 21.27                             144    0.3510 98.8 174 
 RUS  HZ I         825 22.40         5.7 0.36            148           98.8 174 
 PTB  HZ EP        825  5.36                             132   -0.41 9  144 259 
 PTB  HE ES        825 26.07                             132   -0.27 9  144 259 
 PTB  HZ I         825 29.45         2.5 0.24            133            144 259 
 SPBC HZ EP        825  7.54                             129    0.24 9  159 218 
 SPBC HN ES        825 28.73                             129   -0.34 9  159 218 
 SPBC HZ I         825 32.13         8.4 0.34            132            159 218 
 ZAR  HZ EP        825 11.97                             122    0.58 9  202 293 
 ZAR  HE ES        825 36.61                             122    0.26 9  202 293 
 ZAR  HZ I         825 42.27         3.9 0.24            124            202 293 
                                                                                
