 2010  5 3 0449  0.9 L   6.737 -73.039140.0  RSN  5 0.3 1.5LRSN                1
 GAP=211        0.53       7.6     7.7  5.3  0.1336E+02 -0.2430E+00  0.2510E+01E
 Epicentro: ARATOCA - SANTANDER                                                3
 ACTION:UP  10-08-24 10:02 OP:vdl  STATUS:               ID:20100503044900 L   I
 2010-05-03-0447-20S.COL___105                                                 6
 STAT SP IPHASW D HRMM SECON CODA AMPLIT PERI AZIMU VELO SNR AR TRES W  DIS CAZ7
 BAR2 SZ EP        449 19.76                             170    -0.110   23 225 
 BAR2 SZ ES   1    449 34.66                             170     0.1 7   23 225 
 GIR2 SZ EP   2    449 19.81                             163    -0.4 5   41 336 
 GIR2 SZ ES   1    449 35.53                             163     0.3 7   41 336 
 BRR  HZ EP        449 22.10                             147    -0.210   85 299 
 BRR  HE ES   1    449 38.92                             147     0.0 7   85 299 
 BRR  HZ I         449 42.83         6.1 0.10                            85 299 
 BRI  SZ EP   2    449 24.75                             140     0.3 5  112  14 
 HEL  HZ EP   2    449 42.68                             113     0.8 4  282 258 
 HEL  HZ I         450 17.39         1.5 0.40                           282 258 
                                                                                
