 2010  9 3 0916 20.5 L   6.843 -73.322128.1  RSN  7 0.4 1.9LRSN                1
 GAP=138        0.94       3.9     7.1  8.7  0.5078E+01 -0.7175E+00 -0.1240E+02E
 Epicentro: ZAPATOCA - SANTANDER                                               3
 ACTION:UP  11-02-18 10:59 OP:tino STATUS:               ID:20100903091620 L   I
 2010-09-03-0914-32S.COL___120                                                 6
 STAT SP IPHASW D HRMM SECON CODA AMPLIT PERI AZIMU VELO SNR AR TRES W  DIS CAZ7
 BAR2 SZ EP        916 38.45                             165     0.210   32 151 
 BAR2 SZ ES   2    916 51.35                             165    -0.8 5   32 151 
 BAR2 SZ I         916 52.93        48.8 0.74                            32 151 
 BRR  HZ EP        916 39.03                             156     0.310   52 304 
 BRR  HZ I         916 39.28        24.2 0.09                            52 304 
 BRR  HN ES   1    916 53.33                             156     0.4 7   52 304 
 RUS  HZ EP   1    916 43.45                             137     0.2 7  108 166 
 RUS  HN ES        917  0.51                             137    -0.410  108 166 
 GUE  SZ EP   1    916 43.18                             135    -0.6 7  118  22 
 GUE  SZ I         916 44.08        13.2 0.11                           118  22 
 GRA  SZ EP        916 44.92                             132     0.410  129  26 
 GRA  SZ ES   1    917  3.11                             132    -0.1 7  129  26 
 GRA  SZ I         917  6.50         9.3 0.37                           129  26 
 OCA  SZ EP        916 47.05                             126     0.1 9  154   0 
 OCA  SZ ES   1    917  7.38                             126    -0.2 7  154   0 
 OCA  SZ I         917  8.40        12.7 0.34                           154   0 
 MON  HZ EP   2    917  5.81                             106    -0.9 3  335 310 
 MON  HE ES   1    917 42.28                             106    -0.5 5  335 310 
 MON  HZ I         917 55.18         1.6 0.54                           335 310 
                                                                                
