 2014  6 3 0916 41.3 L   5.754 -74.027103.0  RSN  4 0.5 1.3LRSN                1
 GAP=159        1.12       7.7     8.6 11.0  0.1551E+02  0.4413E+01 -0.4557E+02E
 Epicentro: FLORIAN - SANTANDER                                                3
 ACTION:UPD 14-07-01 22:50 OP:nd   STATUS:               ID:20140603091641 L   I
 OLDACT:DUP 14-06-03 18:03 OP:fm   STATUS:               ID:20140603090812d    3
 OLDACT:REG 14-06-03 13:18 OP:fm   STATUS:               ID:20140603090811     3
 2014-06-03-0908-11M.COL___247                                                 6
 STAT SP IPHASW D HRMM SECON CODA AMPLIT PERI AZIMU VELO AIN AR TRES W  DIS CAZ7
 SPBC HZ EP        916 55.51                             172    0.1210 12.3 204 
 SPBC HN ES        917  6.67                             172    0.3210 12.3 204 
 SPBC HZ I         917  7.91         6.3 0.40            176           12.3 204 
 PTB  HZ EP        916 59.79                             132   -0.6110 99.0 331 
 PTB  HN ES        917 14.76                             132   -0.5110 99.0 331 
 PTB  HZ I         917 15.09         3.1 0.12            131           99.0 331 
 BAR2 SZ ES   1    917 21.38                             124   -0.02 7  132  45 
 BAR2 SZ I         917 23.12         3.3 0.28            123            132  45 
 ZAR  HZ EP   1    917 12.78                             110    0.33 6  213 335 
 ZAR  HE ES        917 37.54                             110    0.82 8  213 335 
 ZAR  HZ I         917 42.43         3.3 0.40            110            213 335 
                                                                                
