 2014 11 3 0331 41.0 L   6.801 -73.164142.0  RSN 15 0.5 2.1LRSN                1
 GAP= 70        1.21       3.3     3.7  6.1 -0.1553E+01  0.7296E+01  0.4008E+01E
 Epicentro: LOS SANTOS - SANTANDER                                             3
 ACTION:UPD 14-12-19 15:39 OP:nd   STATUS:               ID:20141103033141 L   I
 OLDACT:REG 14-11-03 13:08 OP:carl STATUS:               ID:20141103032746     3
 2014-11-03-0327-46M.COL___253                                                 6
 STAT SP IPHASW D HRMM SECON CODA AMPLIT PERI AZIMU VELO AIN AR TRES W  DIS CAZ7
 BAR2 SZ IP     D  332  0.11                             170   -0.0510 23.2 185 
 BAR2 SZ ES        332 15.31                             170    0.1910 23.2 185 
 BAR2 SZ I         332 16.96        19.4 0.20            168           23.2 185 
 BRR  HZ IP     C  332  2.04                             153    0.4110 69.3 299 
 BRR  HN ES        332 18.84                             153    1.1210 69.3 299 
 BRR  HZ I         332 22.04        22.4 0.16            152           69.3 299 
 PAM  SZ EP        332  3.01                             150    0.1310 78.6  41 
 PAM  SN ES        332 20.02                             150    0.0610 78.6  41 
 PAM  SZ I         332 21.50        21.1 0.22            154           78.6  41 
 RUS  HZ EP        332  4.10                             143   -0.2910  101 175 
 RUS  HN ES        332 22.44                             143   -0.2010  101 175 
 RUS  HZ I         332 23.76        12.5 0.28            143            101 175 
 PTB  HZ EP        332  6.73                             132   -0.74 9  146 259 
 PTB  HN ES        332 27.48                             132   -0.64 9  146 259 
 PTB  HZ I         332 30.15        27.2 0.14            131            146 259 
 TAM  HE ES        332 30.05                             129   -0.02 9  157 105 
 TAM  HZ I         332 30.53        19.4 0.24            132            157 105 
 OCA  HZ EP        332  8.68                             129   -0.30 9  160 354 
 OCA  HN ES        332 30.23                             129   -0.58 9  160 354 
 OCA  HZ I         332 32.19        16.5 0.20            131            160 354 
 SPBC HZ EP        332  9.06                             128   -0.03 9  162 218 
 SPBC HE ES        332 30.87                             128   -0.13 9  162 218 
 SPBC HZ I         332 34.30        15.2 0.20            128            162 218 
 CHI  HZ EP        332 18.46                             116    0.03 8  248 195 
 CHI  HN ES        332 47.05                             116   -0.59 8  248 195 
 CHI  HZ I         332 54.96         3.3 0.52            117            248 195 
 HEL  HZ EP        332 21.60                             114    0.81 8  270 256 
 HEL  HN ES        332 52.01                             114    0.17 8  270 256 
 HEL  HZ I         332 59.19         9.6 0.44            115            270 256 
 URE  HN ES        332 52.39                             113   -0.99 7  282 292 
 GUY2CHZ EP        332 24.72                             112    0.48 7  300 235 
 GUY2CHE ES        332 58.19                             112    0.21 7  300 235 
 GUY2CHZ I         333  7.20         6.6 0.54                           300 235 
 CBOC HZ EP   1    332 28.03                             109    0.50 5  332 252 
 CBOC HN ES   4    333  2.67                             109   -1.16 0  332 252 
 CBOC HZ I         333  9.55         3.2 0.10            110            332 252 
 TOL  SZ EP        332 30.34                             109    1.40 7  342 224 
 TOL  SN ES        333  6.72                             109    0.38 7  342 224 
 TOL  SZ I         333 14.27         8.5 0.28            109            342 224 
 PRA  HZ EP        332 34.31                             106    0.04 6  391 209 
 PRA  HN ES        333 15.22                             106   -0.61 6  391 209 
 PRA  HZ I         333 23.48         4.0 0.54            107            391 209 
                                                                                
