 2011  7 3 0558  3.2 L   6.787 -73.171145.9  RSN  4 0.3 1.2LRSN                1
 GAP=156        0.52       4.1     9.0  7.8 -0.9652E+01 -0.1483E+02 -0.2592E+01E
 Epicentro: LOS SANTOS - SANTANDER                                             3
 ACTION:UPD 12-07-25 13:57 OP:epov STATUS:               ID:20110703055803 L   I
 2011-07-03-0555-29S.COL___140                                                 6
 STAT SP IPHASW D HRMM SECON CODA AMPLIT PERI AZIMU VELO AIN AR TRES W  DIS CAZ7
 BAR2 SZ EP   2    558 22.79                             171   -0.07 5 21.5 183 
 BAR2 SZ ES   2    558 38.28                             171    0.13 5 21.5 183 
 BAR2 SZ I         558 39.57         4.5 0.22                          21.5 183 
 BRR  HZ EP   2    558 24.94                             153    0.63 5 69.5 301 
 BRR  HZ I         558 37.72         6.2 0.65                          69.5 301 
 BRR  HE ES   2    558 40.35                             153   -0.39 5 69.5 301 
 RUS  HZ EP   2    558 27.11                             144    0.19 5 99.4 174 
 RUS  HN ES   2    558 45.24                             144   -0.15 5 99.4 174 
 RUS  HZ I         558 47.22         1.8 0.47                          99.4 174 
 GRA  SZ EP   1    558 28.32                             136   -0.37 7  128  18 
 GRA  SZ ES   1    558 48.74                             136    0.21 7  128  18 
 GRA  SZ I         558 49.85         1.8 0.40                           128  18 
                                                                                
