 2016  6 3 0715 28.1 L   6.760 -73.193154.1  RSN  4 0.3 1.3LRSN                1
 GAP=178        0.85       3.6     5.8  9.0 -0.2854E+01 -0.6630E+00 -0.8568E+01E
 Epicentro: VILLANUEVA - SANTANDER                                             3
 ACTION:UPD 16-07-21 22:14 OP:rebc STATUS:               ID:20160603071528 L   I
 OLDACT:UP  16-06-03 17:56 OP:edw  STATUS:               ID:20160603070742d    3
 OLDACT:DUP 16-06-03 17:29 OP:edw  STATUS:               ID:20160603070742d    3
 2016-06-03-0707-41M.COL___319                                                 6
 STAT SP IPHASW D HRMM SECON CODA AMPLIT PERI AZIMU VELO AIN AR TRES W  DIS CAZ7
 RUS  HZ EP        715 52.50                             146    0.0910 96.7 173 
 RUS  HN ES        716 11.11                             146   -0.2710 96.7 173 
 RUS  HZ I         716 11.84         2.4 0.40                          96.7 173 
 PTB  HZ EP        715 54.87                             135   -0.37 9  142 260 
 PTB  HN ES        716 16.22                             135   -0.20 9  142 260 
 PTB  HZ I         716 19.41         3.0 0.30                           142 260 
 SPBC HZ EP        715 57.13                             132    0.49 9  157 219 
 SPBC HN ES        716 19.20                             132    0.30 9  157 219 
 SPBC HZ I         716 21.65         3.2 0.14                           157 219 
 OCA  HZ EP        715 57.02                             131   -0.40 9  164 355 
 OCA  HE ES        716 20.71                             131    0.42 9  164 355 
                                                                                
