 2013  8 3 0511 30.0 L   6.714 -73.140153.1  RSN  4 0.2 1.2LRSN                1
 GAP=208        0.47       7.9     4.1  5.1 -0.7064E+01  0.6117E+00  0.2251E+01E
 Epicentro: JORDAN - SANTANDER                                                 3
 ACTION:UPD 14-01-14 08:58 OP:ep   STATUS:               ID:20130803051130 L   I
 OLDACT:REG 13-08-03 07:47 OP:carl STATUS:               ID:20130803050959     3
 2013-08-03-0509-59M.COL___270                                                 6
 STAT SP IPHASW D HRMM SECON CODA AMPLIT PERI AZIMU VELO AIN AR TRES W  DIS CAZ7
 BAR2 SZ EP   1    511 50.61                             174    0.28 8 14.2 199 
 BAR2 SZ ES   1    512  6.12                             174   -0.09 8 14.2 199 
 BAR2 SZ I         512  7.82         3.3 0.16            173           14.2 199 
 GIR2 SZ EP   1    511 50.59                             164   -0.19 8 40.8 352 
 BRR  HZ EP   1    511 52.45                             152    0.24 8 76.7 305 
 BRR  HN ES   1    512  9.55                             152   -0.02 8 76.7 305 
 PTB  HZ EP        511 57.22                             134   -0.2310  147 263 
 PTB  HN ES        512 18.99                             134    0.1010  147 263 
                                                                                
