 2012  1 3 0947 16.7 L   5.968 -73.770102.0  RSN 13 0.3 2.1LRSN                1
 GAP= 82        0.64       2.0     2.1  5.5 -0.1547E+01  0.3887E+01  0.1793E+01E
 Epicentro: GUAVATA - SANTANDER                                                3
 ACTION:UP  12-02-03 08:13 OP:REBC STATUS:               ID:20120103094716 L   I
 2012-01-03-0940-00M.COL___184                                                 6
 STAT SP IPHASW D HRMM SECON CODA AMPLIT PERI AZIMU VELO SNR AR TRES W  DIS CAZ7
 RUS  HZ EP        947 34.65                             141     0.210   76  96 
 RUS  HN ES   1    947 48.06                             141    -0.2 7   76  96 
 BAR2 SZ EP        947 35.88                             134     0.310   95  43 
 BAR2 SZ ES        947 50.41                             134     0.110   95  43 
 BAR2 SZ I         947 52.42        83.8 0.52                            95  43 
 PTB  HN ES   2    947 49.92                             132    -0.5 5   99 310 
 BRR  HZ EP        947 37.88                             125    -0.410  126   3 
 BRR  HN ES        947 55.36                             125     0.310  126   3 
 BRR  HZ I         947 59.59        19.1 0.06                           126   3 
 NOR  SZ EP        947 38.87                             124     0.210  130 250 
 NOR  SN ES   1    947 56.16                             124     0.3 7  130 250 
 CHI  HZ EP   1    947 41.22                             120     0.2 7  148 178 
 CHI  HN ES   1    947 59.55                             120    -0.5 7  148 178 
 PAM  SZ EP   1    947 45.59                             113    -0.4 7  192  38 
 PAM  SN ES        948  8.60                             113    -0.3 9  192  38 
 HEL  HZ EP        947 46.45                             112     0.2 9  196 277 
 HEL  HE ES   1    948  9.31                             112    -0.1 6  196 277 
 HEL  HZ I         948 14.30         6.7 0.18                           196 277 
 GUY  SZ EP   1    947 46.60                             112     0.0 6  197 245 
 GUY  SE ES   1    948  9.77                             112    -0.1 6  197 245 
 GUY  SZ I         948 13.42        23.4 0.49                           197 245 
 ZAR  HN ES   2    948 10.42                             111    -0.3 4  207 325 
 RREF HZ EP   1    947 48.00                             110    -0.3 6  211 236 
 RREF HN ES   1    948 12.55                             110    -0.4 6  211 236 
 RREF HZ I         948 18.96         8.2 0.24                           211 236 
 TOL  SZ EP   1    947 50.00                             108    -0.1 6  230 228 
 PRA  HZ EP   1    947 55.48                             104     0.1 6  278 206 
 PRA  HN ES   1    948 25.99                             104     0.4 6  278 206 
                                                                                
