 2011 10 3 0125 26.9 L   6.797 -73.098148.8  RSN  5 0.3 1.5LRSN                1
 GAP=242        0.52       5.3     6.4  6.2  0.1892E+02  0.2812E+01  0.7191E+00E
 Epicentro: LOS SANTOS - SANTANDER                                             3
 ACTION:UPD 12-07-13 16:01 OP:ep   STATUS:               ID:20111003012526 L   I
 2011-10-03-0123-10S.COL___167                                                 6
 STAT SP IPHASW D HRMM SECON CODA AMPLIT PERI AZIMU VELO AIN AR TRES W  DIS CAZ7
 BAR2 SZ EP   1    125 46.93                             170    0.01 7 24.5 202 
 BAR2 SZ ES   1    126  2.10                             170   -0.43 7 24.5 202 
 BRR  HZ EP   1    125 48.77                             151    0.11 7 76.1 297 
 BRR  HZ I         125 48.99         9.6 0.12                          76.1 297 
 BRR  HE ES   1    126  5.93                             151    0.31 7 76.1 297 
 RUS  HZ EP   1    125 50.81                             144   -0.11 7  100 179 
 RUS  HE ES   1    126  9.91                             144    0.27 7  100 179 
 RUS  HZ I         126 10.79         2.8 0.38                           100 179 
 ZAR  HN ES   2    126 25.52                             122   -0.41 4  209 292 
 ZAR  HZ I         126 31.23         2.7 0.24                           209 292 
 NOR  SE ES   2    126 31.52                             119   -0.09 4  239 235 
                                                                                
