 2015  5 3 0910 21.3 L   6.826 -73.140144.2  RSN 18 0.5 2.3LRSN                1
 GAP=118        1.15       2.6     4.4  5.4 -0.2102E+01  0.7611E+01 -0.3224E+00E
 Epicentro: LOS SANTOS - SANTANDER                                             3
 ACTION:UPD 15-09-10 22:01 OP:cam  STATUS:               ID:20150503091021 L   I
 OLDACT:UP  15-05-07 16:22 OP:cam  STATUS:               ID:20150503091021 L   3
 OLDACT:UP  15-05-07 06:55 OP:AK   STATUS:               ID:20150503091021 L   3
 OLDACT:UP  15-05-03 18:46 OP:stll STATUS:               ID:20150503090746     3
 OLDACT:REG 15-05-03 14:01 OP:stll STATUS:               ID:20150503090746     3
 2015-05-03-0907-46M.COL___273                                                 6
 STAT SP IPHASW D HRMM SECON CODA AMPLIT PERI AZIMU VELO AIN AR TRES W  DIS CAZ7
 BAR2 EZ EP        910 40.57                             169   -0.1910 26.3 190 
 BAR2 EZ ES        910 56.16                             169    0.1910 26.3 190 
 BAR2 EZ I         910 57.47        31.7 0.32            164           26.3 190 
 BRR  HZ IP     C  910 42.61                             152    0.4210 70.5 296 
 BRR  HZ I         910 42.79        71.5 0.26            143           70.5 296 
 BRR  HN ES        910 59.41                             152    0.8910 70.5 296 
 PAM  SZ EP     C  910 43.47                             151    0.3310 74.8  41 
 PAM  SZ I         910 43.71        44.1 0.24            153           74.8  41 
 PAM  SN ES        911  0.64                             151    0.4210 74.8  41 
 RUS  HZ EP        910 44.93                             143   -0.1210  103 177 
 RUS  HN ES        911  2.68                             143   -0.9410  103 177 
 RUS  HZ I         911  4.51        18.8 0.26            140            103 177 
 OCA  HZ EP        910 48.84                             130   -0.34 9  158 353 
 OCA  HN ES        911 10.50                             130   -0.46 9  158 353 
 OCA  HZ I         911 16.62        54.5 0.20            126            158 353 
 ZAR  HZ EP        910 53.42                             122   -0.13 9  204 291 
 ZAR  HN ES        911 18.17                             122   -0.57 9  204 291 
 ZAR  HZ I         911 25.83        28.5 0.34            116            204 291 
 NOR  HZ EP        910 56.89                             118   -0.24 8  237 234 
 NOR  HN ES        911 24.59                             118   -0.52 8  237 234 
 NOR  HZ I         911 29.72        10.5 0.48            113            237 234 
 SML  HZ EP        910 57.66                             117    0.12 8  241 335 
 SML  HN ES        911 25.23                             117   -0.61 8  241 335 
 SML  HZ I         911 28.69        29.2 0.30            113            241 335 
 CHI  HZ EP        910 58.79                             116   -0.39 8  252 195 
 CHI  HZ I         911  1.30         6.4 0.30            113            252 195 
 CHI  HE ES        911 28.53                             116   -0.24 8  252 195 
 ROSC BZ EP        911  0.74                             116    1.15 8  256 211 
 ROSC BN ES        911 30.01                             116    0.51 8  256 211 
 ROSC BZ I         911 38.41        12.8 0.40            112            256 211 
 HEL  HZ EP   1    911  1.28                             114   -0.26 6  273 255 
 HEL  HN ES   1    911 33.27                             114    0.31 6  273 255 
 HEL  HZ I         911 39.16        10.1 0.30            110            273 255 
 GUY2CHZ EP        911  5.39                             112    0.35 7  303 234 
 GUY2CHN ES        911 38.85                             112   -0.34 7  303 234 
 GUY2CHZ I         911 48.10         7.3 0.34                           303 234 
 LL2C HZ EP        911  4.81                             112    0.36 7  304 354 
 LL2C HN ES   1    911 37.55                             112   -0.59 5  304 354 
 PTGC HZ EP   9    911  3.54                             111   -1.77 0  311 159 
 PTGC HZ I         911  3.99        28.4 0.12            109            311 159 
 PTGC HN ES   1    911 37.22                                   -0.69 5  311 159 
 LL3C HZ EP        911  6.34                             110   -0.22 7  322 355 
 CBOC HZ EP        911  9.24                             109    0.96 7  335 252 
 CBOC HZ I         912  0.94         3.1 0.62            106            335 252 
 MON  HZ EP   9    911  8.09                             108   -1.96 0  352 308 
 MON  HN ES        911 46.34                                    0.19 6  352 308 
 MON  HZ I         912  1.91         7.4 0.46            105            352 308 
 SJC  HZ EP   4    911 14.65                             106   -1.87 0  407 327 
 SJC  HN ES   4    911 55.71                             106   -3.92 0  407 327 
 SJC  HZ I         912  1.36         2.6 0.26            103            407 327 
 CRJC HZ EP   4    911 20.92                             103   -2.44 0  465   3 
 CRJC HN ES   4    912  7.21                             103   -4.60 0  465   3 
                                                                                
