 2012  5 3 0016 11.4 L   6.568 -73.581108.6  RSN  8 0.4 1.8LRSN                1
 GAP= 98        0.68       4.1     3.4  6.8 -0.3763E+01  0.3879E+01  0.6570E+01E
 Epicentro: EL CARMEN DE CHUCURI - SANTANDER                                   3
 ACTION:UP  12-07-05 12:01 OP:pat  STATUS:               ID:20120503001611 L   I
 2012-05-03-0010-00M.COL___186                                                 6
 STAT SP IPHASW D HRMM SECON CODA AMPLIT PERI AZIMU VELO SNR AR TRES W  DIS CAZ7
 BAR2 SZ EP        016 27.44                             156     0.110   44  87 
 BAR2 SZ ES   1    016 40.03                             156     0.2 7   44  87 
 BRR  HZ EP        016 28.26                             148     0.310   61 346 
 BRR  HE ES   2    016 41.32                             148     0.4 5   61 346 
 BRR  HZ I         016 43.26        19.5 0.17                            61 346 
 PTB  HZ EP   1    016 30.27                             135    -0.5 7   97 268 
 PTB  HN ES   1    016 45.36                             135    -0.5 7   97 268 
 PTB  HZ I         016 50.11        10.0 0.12                            97 268 
 PAM  SZ EP   1    016 34.09                             126    -0.3 7  129  49 
 PAM  SN ES   1    016 52.01                             126    -0.3 7  129  49 
 ZAR  HZ EP   2    016 38.88                             117     0.5 4  174 306 
 ZAR  HE ES   2    017  0.15                             117     0.6 4  174 306 
 ZAR  HZ I         017  4.09        12.6 0.32                           174 306 
 CHI  HN ES   2    017  8.94                             112     0.4 4  215 184 
 RREF HZ EP   2    016 50.38                             107     0.4 4  269 227 
 RREF HN ES   2    017 19.54                             107    -0.5 4  269 227 
 RREF HZ I         017 26.90         5.4 0.29                           269 227 
 PRA  HZ EP   2    016 58.31                             101    -0.2 3  347 205 
 PRA  HN ES   2    017 35.65                             101     0.4 3  347 205 
                                                                                
