 2010 11 3 0155  6.3 L   6.782 -73.048135.2  RSN 11 0.4 2.3LRSN                1
 GAP=144        0.63       3.2     6.0  5.4 -0.3153E+01 -0.4418E+01  0.6842E+00E
 Epicentro: LOS SANTOS - SANTANDER                                             3
 ACTION:UP  10-12-17 16:50 OP:REBC STATUS:               ID:20101103015506 L   I
 2010-11-03-0153-22S.COL___128                                                 6
 STAT SP IPHASW D HRMM SECON CODA AMPLIT PERI AZIMU VELO SNR AR TRES W  DIS CAZ7
 BAR2 SZ EP   1    155 24.64                             169    -0.1 7   26 215 
 BAR2 SZ ES   1    155 38.94                             169    -0.1 7   26 215 
 BAR2 SZ I         155 41.01        69.9 0.34                            26 215 
 BRR  HZ IP     C  155 26.74                             147    -0.210   82 296 
 BRR  HZ I         155 27.11        94.5 0.08                            82 296 
 BRR  HN ES   1    155 43.58                             147     0.5 7   82 296 
 RUS  HZ EP   1    155 28.83                             142     0.0 7   98 182 
 RUS  HN ES   2    155 46.19                             142    -0.3 5   98 182 
 RUS  HZ I         155 48.70        18.4 0.29                            98 182 
 GUE  SZ EP        155 30.00                             137    -0.110  117   7 
 GRA  SZ EP   1    155 30.85                             135     0.3 7  125  12 
 GRA  SZ ES   2    155 49.71                             135     0.3 5  125  12 
 GRA  SZ I         155 52.53        33.6 0.19                           125  12 
 OCA  SZ EP   2    155 33.78                             126    -0.4 5  164 349 
 OCA  SZ ES   2    155 55.37                             126    -0.5 5  164 349 
 OCA  SZ I         155 59.15        38.5 0.41                           164 349 
 YOP  SZ EP   2    155 35.60                             125     0.6 4  173 156 
 NOR  SZ EP   2    155 42.84                             115     0.5 4  243 236 
 ROSC BZ EP   2    155 44.96                             114     0.6 4  257 213 
 ROSC BZ I         156 23.01         6.9 0.86                           257 213 
 HEL  HZ EP   2    155 46.98                             112    -0.1 4  282 257 
 HEL  HZ I         156 24.14         9.5 0.29                           282 257 
 PRA  HZ EP   2    155 59.44                             104    -0.5 3  396 211 
 PRA  HE ES   2    156 41.14                             104    -0.6 3  396 211 
                                                                                
