 2013  3 3 0255  8.8 L   6.788 -73.164151.7  RSN  9 0.4 2.2LRSN                1
 GAP= 71        1.03       3.5     4.6  6.0  0.5864E+00  0.6294E+00 -0.7008E-01E
 Epicentro: LOS SANTOS - SANTANDER                                             3
 ACTION:UPD 13-04-09 13:59 OP:ep   STATUS:               ID:20130303025508 L   I
 2013-03-03-0248-39M.COL___193                                                 6
 STAT SP IPHASW D HRMM SECON CODA AMPLIT PERI AZIMU VELO AIN AR TRES W  DIS CAZ7
 BAR2 SZ EP        255 29.04                             171   -0.0310 21.7 185 
 BAR2 SZ ES        255 44.72                             171   -0.2010 21.7 185 
 BAR2 SZ I         255 46.43        23.7 0.18            171           21.7 185 
 BRR  HZ EP        255 31.07                             154    0.5810 70.1 300 
 BRR  HN ES        255 48.42                             154    0.9710 70.1 300 
 BRR  HN I         255 49.06        40.3 0.24            150           70.1 300 
 PAM  SZ EP        255 31.96                             151    0.2210 79.7  40 
 PAM  SE ES        255 49.25                             151   -0.4210 79.7  40 
 PAM  SN I         255 50.56        33.1 0.42            152           79.7  40 
 RUS  HZ EP        255 32.87                             145   -0.1510 99.4 175 
 RUS  HN ES        255 51.97                             145    0.0310 99.4 175 
 PTB  HZ EP        255 35.94                             134   -0.08 9  146 259 
 PTB  HN ES        255 56.64                             134   -0.65 9  146 259 
 PTB  HE I         256  2.92        19.1 0.30            132            146 259 
 TAM  HZ IP     D  255 37.16                             132    0.10 9  157 104 
 OCA  HN ES   2    255 59.66                             131   -0.50 5  161 354 
 SML  HZ EP        255 45.45                             119   -0.31 8  244 336 
 SML  HN ES        256 14.32                             119   -0.31 8  244 336 
 SML  HE I         256 24.16        27.2 0.10            118            244 336 
 CHI  HZ EP   1    255 47.22                             119    0.62 6  247 195 
 CHI  HE ES        256 15.87                             119   -0.25 8  247 195 
 CHI  HN I         256 18.95         6.6 0.30            119            247 195 
                                                                                
