 2016  7 3 0053 40.1 L   6.613 -73.255146.1  RSN  6 0.3 1.4LRSN                1
 GAP=149        0.68       3.7     3.8  5.5  0.4734E+01  0.3984E+01 -0.5786E+00E
 Epicentro: CABRERA - SANTANDER                                                3
 ACTION:UPD 17-03-29 16:45 OP:lp   STATUS:               ID:20160703005340 L   I
 OLDACT:DUP 16-07-03 14:53 OP:edw  STATUS:               ID:20160703004745d    3
 2016-07-03-0047-44M.COL___334                                                 6
 STAT SP IPHASW D HRMM SECON CODA AMPLIT PERI AZIMU VELO AIN AR TRES W  DIS CAZ7
 BAR2 EZ EP        053 59.31                             177   -0.2110 8.31 106 
 BAR2 EZ ES        054 14.50                             177   -0.2010 8.31 106 
 BAR2 EZ I         054 15.52         6.5 0.26            177           8.31 106 
 BRR  HZ EP        054  1.15                             151   -0.2810 74.4 317 
 BRR  HE ES        054 18.32                             151    0.2210 74.4 317 
 BRR  HZ I         054 21.42         7.6 0.40            154           74.4 317 
 RUS  HZ EP        054  2.95                             149    0.3610 81.9 167 
 RUS  HN ES        054 20.34                             149    0.1810 81.9 167 
 RUS  HZ I         054 24.65         2.1 0.34            151           81.9 167 
 PTB  HZ EP        054  5.88                             135    0.1110  133 267 
 PTB  HN ES        054 26.09                             135    0.2710  133 267 
 PTB  HZ I         054 28.97         3.0 0.12            137            133 267 
 SPBC HN ES        054 26.59                             134   -0.40 9  140 220 
 ZAR  HZ EP   4    054 16.34                             123    4.02 0  202 299 
 ZAR  HN ES        054 37.41                             123   -0.08 9  202 299 
                                                                                
