 2014 10 3 0015 33.9 L   6.795 -73.027 31.8  RSN  5 0.2 1.6LRSN                1
 GAP=153        0.67       1.9     2.2  2.3 -0.8220E+00 -0.9093E-02 -0.1651E+01E
 Epicentro: CEPITA - SANTANDER                                                 3
 ACTION:UPD 14-11-29 23:46 OP:nd   STATUS:               ID:20141003001533 L   I
 OLDACT:REG 14-10-03 11:35 OP:stll STATUS:               ID:20141003000748     3
 2014-10-03-0007-48M.COL___289                                                 6
 STAT SP IPHASW D HRMM SECON CODA AMPLIT PERI AZIMU VELO AIN AR TRES W  DIS CAZ7
 BAR2 SZ EP        015 40.85                             136   -0.0710 28.2 217 
 BAR2 SZ ES        015 46.26                             136   -0.1010 28.2 217 
 BAR2 SZ I         015 47.33       117.0 0.42            130           28.2 217 
 PAM  SZ EP        015 46.20                              61   -0.1010 70.2  31 
 PAM  SN ES        015 55.78                              61   -0.1610 70.2  31 
 PAM  SZ I         015 56.65        25.9 0.24            104           70.2  31 
 BRR  HZ EP        015 47.62                              61    0.3010 83.1 295 
 BRR  HN ES        015 57.79                              61    0.0410 83.1 295 
 BRR  HZ I         016  0.93        27.9 0.14             61           83.1 295 
 RUS  HZ EP        015 50.45                              61    0.4310  100 184 
 RUS  HE ES        016  2.35                              61   -0.2110  100 184 
 RUS  HZ I         016  5.38         5.5 0.16             61            100 184 
 PTB  HZ EP        015 57.26                              61    0.25 9  161 260 
 PTB  HN ES        016 14.59                              61   -0.41 9  161 260 
 PTB  HZ I         016 17.84         3.6 0.10             61            161 260 
                                                                                
