 2010  5 3 0942 48.0 L   6.820 -72.927148.3  RSN  6 0.4 2.0LRSN                1
 GAP=220        0.74       5.7     9.1  7.3 -0.1473E+02 -0.1288E+02  0.4373E+01E
 Epicentro: CEPITA - SANTANDER                                                 3
 ACTION:UP  10-08-24 10:02 OP:vdl  STATUS:               ID:20100503094248 L   I
 2010-05-03-0937-18S.COL___105                                                 6
 STAT SP IPHASW D HRMM SECON CODA AMPLIT PERI AZIMU VELO SNR AR TRES W  DIS CAZ7
 BAR2 SZ EP        943  8.33                             165     0.010   38 228 
 BAR2 SZ ES   2    943 23.40                             165    -0.7 5   38 228 
 GIR2 SZ EP   2    943  8.41                             164     0.2 5   41 314 
 GIR2 SZ ES   1    943 24.81                             164     0.8 7   41 314 
 BRR  HZ EP        943 10.80                             146     0.110   92 290 
 BRR  HE ES   1    943 28.12                             146    -0.3 7   92 290 
 BRR  HZ I         943 30.48        24.9 0.11                            92 290 
 BRI  SZ EP   1    943 11.30                             144    -0.2 7  100   8 
 BRI  SZ ES   1    943 29.62                             144    -0.2 7  100   8 
 OCA  SZ EP   1    943 16.94                             130     0.2 7  163 345 
 OCA  SZ ES   1    943 39.01                             130    -0.1 7  163 345 
 OCA  SZ I         943 44.63        14.0 0.34                           163 345 
 HEL  HZ EP   3    943 30.53                             113    -0.5 2  296 257 
 HEL  HZ I         944  7.34         3.7 0.55                           296 257 
                                                                                
