 2015  9 3 0834 12.2 L   6.791 -73.166150.2  RSN  5 0.4 1.4LRSN                1
 GAP=181        0.93       4.2     6.8  8.8 -0.4943E+01  0.2271E+02 -0.5539E+01E
 Epicentro: LOS SANTOS - SANTANDER                                             3
 ACTION:UPD 15-10-28 16:23 OP:cam  STATUS:               ID:20150903083412 L   I
 OLDACT:REG 15-09-03 13:00 OP:stll STATUS:               ID:20150903082748     3
 2015-09-03-0827-48M.COL___346                                                 6
 STAT SP IPHASW D HRMM SECON CODA AMPLIT PERI AZIMU VELO AIN AR TRES W  DIS CAZ7
 BAR2 EZ EP        834 32.46                             171    0.1410 22.1 185 
 BAR2 EZ ES        834 47.87                             171   -0.1610 22.1 185 
 BAR2 EZ I         834 49.88         3.5 0.22            174           22.1 185 
 RUS  HN ES        834 54.92                             145   -0.2210 99.8 175 
 RUS  HZ I         834 55.84         2.8 0.22            146           99.8 175 
 PTB  HZ EP        834 38.63                             133   -0.67 9  145 259 
 PTB  HZ I         834 41.79         2.7 0.30            133            145 259 
 PTB  HN ES        835  0.29                             133   -0.17 9  145 259 
 SPBC HZ EP        834 41.03                             130    0.21 9  161 219 
 SPBC HZ I         834 43.11         3.1 0.18            131            161 219 
 SPBC HN ES        835  3.82                             130    0.66 9  161 219 
 OCA  HN ES        835  3.59                             130    0.29 9  161 354 
 OCA  HZ I         835  8.45         6.6 0.24            128            161 354 
                                                                                
