 2015  2 3 0312  0.7 L   6.746 -73.170143.9  RSN  6 0.6 1.3LRSN                1
 GAP=136        1.39       6.9     8.2 10.7  0.1643E+02 -0.6035E+01 -0.2008E+02E
 Epicentro: LOS SANTOS - SANTANDER                                             3
 ACTION:UPD 15-04-30 21:21 OP:nd   STATUS:               ID:20150203031200 L   I
 OLDACT:REG 15-02-03 13:32 OP:stll STATUS:               ID:20150203030744     3
 2015-02-03-0307-44M.COL___265                                                 6
 STAT SP IPHASW D HRMM SECON CODA AMPLIT PERI AZIMU VELO AIN AR TRES W  DIS CAZ7
 BAR2 EZ EP        312 20.53                             173    0.5010 17.0 185 
 BAR2 EZ ES        312 34.56                             173   -0.5210 17.0 185 
 BAR2 EZ I         312 36.37         6.0 0.22            172           17.0 185 
 BRR  HZ EP        312 22.48                             152    0.7510 72.0 304 
 BRR  HN ES        312 38.82                             152    0.7210 72.0 304 
 PAM  SZ EP        312 23.25                             148    0.1110 83.7  38 
 PAM  SZ I         312 23.59         4.7 0.24            149           83.7  38 
 RUS  HZ EP        312 23.44                             145   -0.4510 94.8 174 
 RUS  HN ES        312 41.81                             145   -0.1410 94.8 174 
 RUS  HZ I         312 43.92         1.9 0.34            144           94.8 174 
 PTB  HZ EP        312 27.26                             132    0.05 9  144 261 
 PTB  HZ I         312 29.25         2.3 0.16            132            144 261 
 PTB  HN ES        312 47.53                             132   -0.34 9  144 261 
 SML  HN ES        313  5.45                             117   -1.14 8  248 336 
                                                                                
