 2014  1 3 0044  4.8 L   6.753 -73.166142.2  RSN  5 0.6 1.4LRSN                1
 GAP=136        1.61       8.4     8.1 11.8 -0.6132E+01  0.1214E+02  0.3627E+01E
 Epicentro: LOS SANTOS - SANTANDER                                             3
 ACTION:UPD 14-03-13 09:50 OP:ep   STATUS:               ID:20140103004404 L   I
 OLDACT:REG 14-01-03 08:58 OP:stll STATUS:               ID:20140103003807     3
 2014-01-03-0038-07M.COL___249                                                 6
 STAT SP IPHASW D HRMM SECON CODA AMPLIT PERI AZIMU VELO AIN AR TRES W  DIS CAZ7
 BAR2 SZ EP        044 23.61                             172   -0.2910 17.9 186 
 BAR2 SZ ES        044 38.49                             172   -0.3110 17.9 186 
 BAR2 SZ I         044 39.91         9.4 0.26            171           17.9 186 
 BRR  HZ EP        044 25.80                             152    0.1910 71.9 303 
 BRR  HZ I         044 25.90         8.1 0.16            151           71.9 303 
 BRR  HE ES        044 42.84                             152    1.0110 71.9 303 
 PAM  SZ EP        044 26.93                             148   -0.0510 82.8  38 
 PAM  SZ I         044 27.09         5.7 0.18            151           82.8  38 
 PAM  SN ES        044 43.84                             148   -0.4310 82.8  38 
 RUS  HZ EP        044 29.04                             144    1.2010 95.6 174 
 RUS  HN ES        044 45.58                             144   -0.2310 95.6 174 
 RUS  HZ I         044 47.30         1.5 0.58            144           95.6 174 
 PTB  HZ EP        044 30.30                             132   -0.89 9  145 261 
 PTB  HN ES        044 51.43                             132   -0.35 9  145 261 
 PTB  HZ I         044 55.33         2.3 0.18            131            145 261 
                                                                                
