 2016 12 3 0813  3.7 L   6.824 -73.154153.0  RSN 15 0.6 2.1LRSN                1
 GAP= 65        1.21       4.4     4.1  6.4 -0.1815E+01  0.2855E+01  0.7220E+01E
 Epicentro: LOS SANTOS - SANTANDER                                             3
 ACTION:UPD 17-01-11 20:12 OP:rebc STATUS:               ID:20161203081303 L   I
 OLDACT:UP  16-12-03 15:49 OP:dani STATUS:               ID:20161203080740     3
 OLDACT:UP  16-12-03 15:48 OP:dani STATUS:               ID:20161203080740     3
 OLDACT:UP  16-12-03 15:47 OP:dani STATUS:               ID:20161203080740     3
 OLDACT:UP  16-12-03 15:47 OP:dani STATUS:               ID:20161203080740     3
 OLDACT:REG 16-12-03 12:54 OP:dnl  STATUS:               ID:20161203080740     3
 2016-12-03-0808-00M.COL___346                                                 6
 STAT SP IPHASW D HRMM SECON CODA AMPLIT PERI AZIMU VELO AIN AR TRES W  DIS CAZ7
 BAR2 EZ EP        813 24.12                             170   -0.1010 25.8 187 
 BAR2 EZ ES        813 39.73                             170   -0.5210 25.8 187 
 BAR2 EZ I         813 40.30        49.1 0.24            167           25.8 187 
 BRR  HZ EP        813 25.95                             154    0.4510 69.2 297 
 BRR  HN ES        813 43.14                             154    0.6210 69.2 297 
 BRR  HZ I         813 46.37        32.3 0.28            152           69.2 297 
 PAM  EZ EP        813 27.05                             153    0.4710 75.9  41 
 PAM  EN ES        813 44.23                             153   -0.2210 75.9  41 
 PAM  EZ I         813 46.39        37.9 0.46            158           75.9  41 
 PTB  HZ EP        813 30.81                             134   -0.40 9  147 258 
 PTB  HE ES        813 52.18                             134   -0.51 9  147 258 
 PTB  HZ I         813 54.25         7.3 0.11            132            147 258 
 TAM  HZ EP        813 32.41                             132    0.34 9  157 106 
 ZAR  HZ EP        813 37.17                             124    0.76 9  202 292 
 ZAR  HN ES        814  1.76                             124   -0.19 9  202 292 
 ZAR  HZ I         814  8.09        12.8 0.11            124            202 292 
 NOR  HZ EP        813 40.70                             120    0.78 8  236 234 
 NOR  HN ES        814  7.75                             120   -0.44 8  236 234 
 NOR  HZ I         814 13.83         7.7 0.14            120            236 234 
 CHI  HZ EP        813 42.23                             118    0.20 8  251 195 
 CHI  HN ES        814 11.70                             118   -0.25 8  251 195 
 CHI  HZ I         814 15.08         6.5 0.23            119            251 195 
 ROSC BZ EP   4    813 44.61                             118    2.22 0  255 211 
 ROSC BN ES        814 12.73                             118    0.14 8  255 211 
 ROSC BZ I         814 17.90        16.8 0.37            118            255 211 
 URE  HZ EP        813 44.35                             115   -0.55 7  282 291 
 URE  HN ES   3    814 15.42                             115   -1.64 2  282 291 
 URE  HZ I         814 25.72        10.4 0.18            115            282 291 
 PTGC HZ EP        813 47.12                             113   -1.05 7  311 159 
 PTGC HE ES   4    814 20.25                             113   -2.64 0  311 159 
 PTGC HZ I         814 23.48         4.7 0.27            114            311 159 
 LL6C HZ EP   9    813 29.29                             112   -20.1 0  322 358 
 LL6C HN ES        814  3.72                             118   -1.23 7  322 358 
 LL6C HZ I         814 11.03         3.8 0.38            113            322 358 
 CBOC HZ EP   3    813 52.43                             111    1.54 2  334 252 
 CBOC HN ES        814 28.28                             111    0.56 7  334 252 
 CBOC HZ I         814 34.36         2.1 0.25            111            334 252 
 SJC  HZ EP        813 58.24                             107   -0.92 6  407 327 
 SJC  HN ES   4    814 39.55                             107   -2.89 0  407 327 
 SJC  HZ I         814 46.76         2.9 0.19            108            407 327 
 CRJC HZ EP   3    814  4.38                             104   -1.69 1  465   4 
 CRJC HN ES   4    814 51.88                             104   -2.86 0  465   4 
 CRJC HZ I         815  0.31         2.9 0.14            106            465   4 
                                                                                
