 2014  1 3 0717 55.7 L   6.850 -73.165140.7  RSN  7 0.3 1.2LRSN                1
 GAP=181        0.72       2.1     4.5  5.0  0.4009E+00  0.4467E+01 -0.8970E+00E
 Epicentro: LOS SANTOS - SANTANDER                                             3
 ACTION:UPD 14-03-13 09:50 OP:ep   STATUS:               ID:20140103071755 L   I
 OLDACT:REG 14-01-03 09:11 OP:stll STATUS:               ID:20140103070805     3
 2014-01-03-0708-05M.COL___237                                                 6
 STAT SP IPHASW D HRMM SECON CODA AMPLIT PERI AZIMU VELO AIN AR TRES W  DIS CAZ7
 BAR2 SZ EP        718 14.53                             168   -0.3410 28.6 184 
 BAR2 SZ ES        718 29.92                             168    0.1210 28.6 184 
 BAR2 SZ I         718 31.71         4.3 0.38            168           28.6 184 
 RUS  HZ EP        718 19.79                             141    0.3710  106 175 
 RUS  HN ES        718 37.83                             141   -0.0610  106 175 
 RUS  HZ I         718 39.74         1.5 0.18            142            106 175 
 PTB  HZ EP        718 22.58                             131    0.37 9  147 257 
 PTB  HN ES        718 42.76                             131   -0.10 9  147 257 
 PTB  HZ I         718 45.31         3.4 0.14            132            147 257 
 OCA  HN ES        718 44.35                             129   -0.11 9  155 354 
 SPBC HZ EP        718 24.01                             127   -0.13 9  166 217 
 SPBC HN ES        718 45.97                             127   -0.33 9  166 217 
 SML  HZ EP        718 31.07                             117   -0.36 8  238 335 
 SML  HN ES        718 59.69                             117    0.42 8  238 335 
 CHI  HZ EP        718 33.40                             115   -0.28 8  253 194 
 CHI  HZ I         718 34.24         0.7 0.44            117            253 194 
 CHI  HN ES        719  3.74                             115    0.45 8  253 194 
                                                                                
