 2017  7 3 0237 52.9 L   6.581 -74.065  2.0  RSN  6 0.4 1.2LRSN                1
 GAP=135        0.99       3.2     2.2  6.2 -0.2546E+01 -0.8409E+00  0.5642E+00E
 Epicentro: PUERTO PARRA - SANTANDER                                           3
 ACTION:UPD 17-08-30 15:29 OP:rebc STATUS:               ID:20170703023752 L   I
 OLDACT:UP  17-07-03 15:35 OP:edw  STATUS:               ID:20170703022742     3
 OLDACT:UP  17-07-03 15:34 OP:edw  STATUS:               ID:20170703022742     3
 OLDACT:REG 17-07-03 13:31 OP:edw  STATUS:               ID:20170703022742     3
 2017-07-03-0228-00M.COL___377                                                 6
 STAT SP IPHASW D HRMM SECON CODA AMPLIT PERI AZIMU VELO AIN AR TRES W  DIS CAZ7
 PTB  HZ IP        238  0.06                              47   -0.2910 43.5 264 
 PTB  HN ES        238  5.82                              47   -0.3710 43.5 264 
 PTB  HZ I         238  5.94        10.9 0.28             47           43.5 264 
 BRR  HZ IP     D  238  4.48                              47    0.1210 70.1  34 
 BRR  HN ES        238 13.78                              47    0.4510 70.1  34 
 BRR  HZ I         238 14.91         5.4 0.42             47           70.1  34 
 BAR2 EZ ES        238 20.69                              47   -0.5010 97.6  89 
 ZAR  HZ EP   4    238 16.83                              47    2.85 0  134 319 
 ZAR  HE ES        238 30.27                              47   -0.1910  134 319 
 ZAR  HZ I         238 31.59         5.1 0.44             47            134 319 
 HEL  HZ EP        238 19.91                              47    0.40 9  168 255 
 HEL  HN ES   4    238 39.11                              47   -1.19 0  168 255 
 HEL  HZ I         238 40.20         3.4 0.38             47            168 255 
 GUY2CHZ EP   4    238 26.32                              37    1.31 0  208 224 
 GUY2CHN ES        238 50.69                              37    0.61 8  208 224 
 GUY2CHZ I         238 52.88         2.6 0.44                           208 224 
                                                                                
