 2012  1 3 0435 57.5 L   6.805 -73.111141.0  RSN  5 0.4 1.3LRSN                1
 GAP=141        0.63       5.0     6.3  7.6  0.2919E+01 -0.1006E+02  0.3691E+01E
 Epicentro: LOS SANTOS - SANTANDER                                             3
 ACTION:UP  12-02-03 08:13 OP:REBC STATUS:               ID:20120103043557 L   I
 2012-01-03-0430-00M.COL___184                                                 6
 STAT SP IPHASW D HRMM SECON CODA AMPLIT PERI AZIMU VELO SNR AR TRES W  DIS CAZ7
 BAR2 SZ ES   2    436 30.82                             170    -0.7 5   25 199 
 BRR  HZ EP        436 18.27                             150    -0.110   74 297 
 BRR  HZ I         436 33.94         6.7 0.36                            74 297 
 BRR  HN ES   1    436 34.96                             150     0.4 7   74 297 
 PAM  SZ EP        436 19.04                             151     0.010   75  37 
 PAM  SN ES   2    436 35.95                             151     0.1 5   75  37 
 RUS  HZ EP        436 20.97                             143     0.110  101 178 
 RUS  HE ES   2    436 39.00                             143     0.0 5  101 178 
 RUS  HZ I         436 40.15         1.7 0.50                           101 178 
 ZAR  HE ES   3    436 53.85                             121    -1.5 2  207 292 
                                                                                
