 2012  9 3 0519 37.9 L   6.771 -73.142147.8  RSN  5 0.3 1.8LRSN                1
 GAP=186        0.70       6.7    10.7  7.3  0.3177E+02  0.2489E+02  0.5315E+01E
 Epicentro: LOS SANTOS - SANTANDER                                             3
 ACTION:UPD 12-10-22 14:16 OP:ep   STATUS:               ID:20120903051937 L   I
 2012-09-03-0517-35M.COL___208                                                 6
 STAT SP IPHASW D HRMM SECON CODA AMPLIT PERI AZIMU VELO AIN AR TRES W  DIS CAZ7
 BAR2 SZ EP   1    519 57.74                             172    0.02 7 20.3 193 
 BAR2 SZ ES   1    520 12.59                             172   -0.59 7 20.3 193 
 BAR2 SZ I         520 13.93        17.4 0.26                          20.3 193 
 GIR2 SZ EP   1    519 57.88                             166   -0.03 7 34.5 350 
 GIR2 SZ ES   1    520 13.47                             166   -0.04 7 34.5 350 
 BRR  HZ EP   1    519 59.71                             152    0.33 7 73.2 301 
 BRR  HZ I         520  0.18         9.8 0.11                          73.2 301 
 BRR  HN ES   1    520 16.46                             152    0.32 7 73.2 301 
 RUS  HN ES   1    520 20.51                             145    0.38 7 97.3 176 
 PTB  HZ EP   1    520  4.55                             132   -0.47 7  148 260 
                                                                                
