 2012  1 3 0427 37.9 L   6.799 -73.176144.0  RSN  7 0.3 1.6LRSN                1
 GAP=133        0.70       4.2     4.4  6.0  0.3241E+01  0.4913E+01  0.3021E+01E
 Epicentro: LOS SANTOS - SANTANDER                                             3
 ACTION:UP  12-02-03 08:13 OP:REBC STATUS:               ID:20120103042737 L   I
 2012-01-03-0420-00M.COL___184                                                 6
 STAT SP IPHASW D HRMM SECON CODA AMPLIT PERI AZIMU VELO SNR AR TRES W  DIS CAZ7
 BAR2 SZ EP        427 57.27                             171    -0.110   23 182 
 BAR2 SZ ES   1    428 12.19                             171    -0.3 7   23 182 
 BAR2 SZ I         428 14.72         9.2 0.36                            23 182 
 BRR  HZ EP        427 59.05                             153     0.310   68 300 
 BRR  HE ES   2    428 15.71                             153     0.8 5   68 300 
 BRR  HZ I         428 19.11         8.8 0.30                            68 300 
 PAM  SZ EP        428  0.08                             150     0.010   80  41 
 PAM  SN ES   2    428 16.97                             150    -0.4 5   80  41 
 RUS  HZ EP        428  1.78                             143     0.310  101 174 
 RUS  HN ES   1    428 19.77                             143    -0.1 7  101 174 
 RUS  HZ I         428 21.84         4.1 0.34                           101 174 
 PTB  HZ EP        428  4.11                             132    -0.3 9  144 259 
 PTB  HN ES   2    428 25.31                             132     0.2 5  144 259 
 PTB  HZ I         428 27.26         4.7 0.30                           144 259 
 ZAR  HN ES   1    428 34.55                             122    -0.3 6  201 293 
 ZAR  HZ I         428 41.44         6.1 0.46                           201 293 
 CHI  HZ EP        428 15.37                             117     0.0 8  248 194 
 CHI  HE ES   3    428 44.59                             117    -0.1 2  248 194 
                                                                                
