 2010 10 3 0332 20.2 L   5.820 -73.860105.5  RSN 10 0.3 1.9LRSN                1
 GAP= 84        0.77       3.1     2.7  7.4 -0.3113E+01  0.5528E+01  0.7853E+00E
 Epicentro: ALBANIA - SANTANDER                                                3
 ACTION:UP  11-02-18 11:07 OP:tino STATUS:               ID:20101003033220 L   I
 2010-10-03-0329-48S.COL___124                                                 6
 STAT SP IPHASW D HRMM SECON CODA AMPLIT PERI AZIMU VELO SNR AR TRES W  DIS CAZ7
 RUS  HZ EP        332 38.93                             138    -0.110   86  85 
 RUS  HN ES        332 53.60                             138    -0.110   86  85 
 RUS  HZ I         332 54.89        11.6 0.18                            86  85 
 BAR2 SZ EP        332 41.08                             129     0.010  114  41 
 BAR2 SZ ES        332 57.53                             129     0.210  114  41 
 BAR2 SZ I         332 58.71        66.3 0.74                           114  41 
 NOR  SZ EP        332 40.80                             128    -0.210  116 256 
 NOR  SN ES        332 56.95                             128    -0.310  116 256 
 ROSC BN ES   2    332 59.68                             128     0.9 5  120 205 
 ROSC BZ I         333  6.56         5.4 0.05                           120 205 
 CHI  HZ EP   1    332 43.16                             124     0.0 7  132 174 
 CHI  HZ I         333  7.21         5.1 0.33                           132 174 
 BRR  HZ EP        332 43.33                             122    -0.4 9  143   7 
 BRR  HZ I         332 44.71        10.5 0.04                           143   7 
 BRR  HN ES        333  2.39                             122     0.3 9  143   7 
 YOP  SZ EP   2    332 46.74                             117     0.3 5  168 108 
 HEL  HZ EP   1    332 49.45                             114     0.3 7  189 283 
 HEL  HN ES   1    333 12.09                             114     0.3 7  189 283 
 HEL  HZ I         333 17.56         8.6 1.17                           189 283 
 RREF HZ EP   1    332 50.30                             113     0.3 6  194 238 
 RREF HZ I         333 18.48        15.6 1.35                           194 238 
 PRA  HN ES   2    333 25.72                             106     0.4 4  259 206 
 PRA  HZ I         333 31.91        13.7 0.83                           259 206 
                                                                                
