 2013  8 3 0240  6.7 L   6.776 -73.133139.7  RSN  7 0.4 1.7LRSN                1
 GAP=188        0.79       4.7     4.7  7.4  0.1073E+01  0.1156E+02 -0.2555E-01E
 Epicentro: LOS SANTOS - SANTANDER                                             3
 ACTION:UPD 14-01-14 08:58 OP:ep   STATUS:               ID:20130803024006 L   I
 OLDACT:REG 13-08-03 07:38 OP:carl STATUS:               ID:20130803023959     3
 2013-08-03-0239-59M.COL___270                                                 6
 STAT SP IPHASW D HRMM SECON CODA AMPLIT PERI AZIMU VELO AIN AR TRES W  DIS CAZ7
 BAR2 SZ EP        240 25.64                             171    0.0510 21.0 195 
 GIR2 SZ EP        240 25.64                             166   -0.1210 34.1 349 
 GIR2 SZ ES   1    240 40.13                             166   -0.48 7 34.1 349 
 BRR  HZ EP        240 27.39                             150    0.0210 73.7 300 
 BRR  HN ES   1    240 43.84                             150    0.37 7 73.7 300 
 BRR  HN I         240 45.83        16.2 0.38            146           73.7 300 
 RUS  HN ES   1    240 48.02                             143    0.42 7 97.9 177 
 PTB  HZ EP   1    240 32.43                             130   -0.86 7  149 260 
 PTB  HN ES   1    240 53.74                             130   -0.26 7  149 260 
 PTB  HZ I         240 58.93         3.8 0.16            129            149 260 
 ZAR  HZ EP        240 39.52                             121    0.50 8  206 293 
 ZAR  HN ES        241  4.35                             121    0.14 8  206 293 
 ZAR  HZ I         241 12.29         4.7 0.24            120            206 293 
 NOR  HN ES        241  9.58                             117   -0.05 8  234 235 
                                                                                
