 2014  1 3 0048 11.5 L   6.804 -73.189143.9  RSN 10 0.3 1.9LRSN                1
 GAP=131        0.80       2.4     3.3  4.3 -0.1801E+01  0.4003E+01  0.6632E+00E
 Epicentro: ZAPATOCA - SANTANDER                                               3
 ACTION:UPD 14-03-13 09:50 OP:ep   STATUS:               ID:20140103004811 L   I
 OLDACT:DUP 14-01-03 10:17 OP:stll STATUS:               ID:20140103003809d    3
 2014-01-03-0038-07M.COL___249                                                 6
 STAT SP IPHASW D HRMM SECON CODA AMPLIT PERI AZIMU VELO AIN AR TRES W  DIS CAZ7
 BAR2 SZ EP        048 30.91                             170    0.0310 23.5 178 
 BAR2 SZ ES        048 46.24                             170    0.2210 23.5 178 
 BAR2 SZ I         048 48.62        28.5 0.32            169           23.5 178 
 BRR  HZ EP        048 32.49                             154    0.3210 66.8 300 
 BRR  HN ES        048 48.99                             154    0.6710 66.8 300 
 BRR  HZ I         048 53.61        11.6 0.26            154           66.8 300 
 PAM  SZ EP        048 33.75                             150    0.0910 80.2  42 
 PAM  SZ I         048 33.99        22.3 0.20            154           80.2  42 
 PAM  SN ES        048 50.75                             150   -0.2210 80.2  42 
 RUS  HZ EP        048 35.01                             143   -0.1010  102 173 
 RUS  HN ES        048 53.18                             143   -0.3610  102 173 
 RUS  HZ I         048 54.86         6.6 0.30            145            102 173 
 PTB  HZ EP        048 37.54                             133   -0.33 9  143 258 
 PTB  HN ES        048 58.10                             133   -0.36 9  143 258 
 PTB  HZ I         049  1.15         7.8 0.14            134            143 258 
 SPBC HZ EP        048 39.94                             129    0.36 9  161 218 
 SPBC HN ES        049  1.35                             129   -0.15 9  161 218 
 SPBC HZ I         049  8.70        10.6 0.22            130            161 218 
 NOR  HZ EP        048 46.97                             119    0.27 8  231 234 
 NOR  HN ES        049 14.34                             119    0.16 8  231 234 
 SML  HZ EP        048 47.91                             117    0.18 8  241 336 
 SML  HN ES        049 15.26                             117   -0.75 8  241 336 
 CHI  HZ EP        048 49.00                             117    0.02 8  248 194 
 CHI  HN ES        049 18.03                             117   -0.21 8  248 194 
 CHI  HZ I         049 24.51         3.4 0.34            119            248 194 
 GUY2CHZ EP        048 54.85                             112    0.27 7  298 234 
 GUY2CHN ES        049 27.93                             112   -0.28 7  298 234 
 GUY2CHZ I         049 36.98         3.6 0.38                           298 234 
                                                                                
