 2012  1 3 0850 19.8 L   6.775 -73.107145.4  RSN  4 0.1 1.1LRSN                1
 GAP=143        0.33       2.8     4.1  4.4  0.2636E+01 -0.7287E+01 -0.8214E+00E
 Epicentro: LOS SANTOS - SANTANDER                                             3
 ACTION:UP  12-02-03 08:13 OP:REBC STATUS:               ID:20120103085019 L   I
 2012-01-03-0850-00M.COL___184                                                 6
 STAT SP IPHASW D HRMM SECON CODA AMPLIT PERI AZIMU VELO SNR AR TRES W  DIS CAZ7
 BAR2 SZ ES   2    850 54.64                             171     0.0 5   22 202 
 BRR  HZ EP        850 41.10                             151    -0.110   76 299 
 BRR  HE ES   1    850 57.90                             151     0.0 7   76 299 
 BRR  HZ I         851  0.94         3.6 0.70                            76 299 
 PAM  SZ EP        850 42.04                             151     0.110   77  36 
 PAM  SE ES   3    850 58.84                             151    -0.4 2   77  36 
 RUS  HZ EP        850 43.28                             145     0.010   98 178 
 RUS  HN ES   2    851  1.60                             145     0.0 5   98 178 
 RUS  HZ I         851  2.86         1.3 0.38                            98 178 
                                                                                
