 2010  8 3 0055  7.0 L   6.811 -73.142144.9  RSN  8 0.4 1.9LRSN                1
 GAP=159        0.91       6.1    10.4 10.7 -0.1432E+02 -0.3835E+02 -0.3185E+01E
 Epicentro: LOS SANTOS - SANTANDER                                             3
 ACTION:UP  10-09-07 10:51 OP:vdl  STATUS:               ID:20100803005507 L   I
 2010-08-03-0052-22S.COL___123                                                 6
 STAT SP IPHASW D HRMM SECON CODA AMPLIT PERI AZIMU VELO SNR AR TRES W  DIS CAZ7
 GIR2 SZ EP        055 27.24                             168     0.710   30 349 
 GIR2 SZ ES   3    055 41.59                             168    -0.2 2   30 349 
 BRR  HZ EP        055 28.09                             152     0.110   71 297 
 BRR  HE ES   1    055 44.58                             152     0.1 7   71 297 
 BRR  HZ I         055 45.89        21.8 0.08                            71 297 
 RUS  HZ EP   2    055 30.49                             143    -0.2 5  102 176 
 RUS  HN ES   2    055 48.41                             143    -0.8 5  102 176 
 RUS  HZ I         055 50.31         5.1 0.30                           102 176 
 GUE  SZ EP        055 31.17                             140    -0.310  115  12 
 GUE  SZ I         055 33.18        10.4 0.12                           115  12 
 GRA  SZ IP        055 32.15                             137     0.110  124  17 
 GRA  SZ I         055 33.46        16.7 0.20                           124  17 
 GRA  SZ ES   2    055 51.61                             137     0.0 5  124  17 
 OCA  SZ EP        055 34.87                             130    -0.2 9  159 353 
 OCA  SZ ES   2    055 56.25                             130    -0.8 5  159 353 
 OCA  SZ I         056  0.50        17.2 0.24                           159 353 
 HEL  HE ES   3    056 18.26                             114    -0.4 2  273 256 
 PRA  HZ EP   2    056  0.68                             106     0.1 3  393 210 
 PRA  HN ES   3    056 41.20                             106    -1.3 1  393 210 
 PRA  HZ I         056 47.33         2.8 0.27                           393 210 
                                                                                
