 2010 12 3 0127 28.1 L   6.791 -73.089151.3  RSN  7 0.3 2.0LRSN                1
 GAP=182        0.74       5.6     9.0  7.0 -0.2118E+02  0.1234E+01  0.1510E+01E
 Epicentro: LOS SANTOS - SANTANDER                                             3
 ACTION:UP  11-01-14 15:22 OP:pat  STATUS:               ID:20101203012728 L   I
 2010-12-03-0125-55S.COL___132                                                 6
 STAT SP IPHASW D HRMM SECON CODA AMPLIT PERI AZIMU VELO SNR AR TRES W  DIS CAZ7
 BAR2 SZ EP        127 48.49                             170     0.110   24 206 
 BAR2 SZ ES   1    128  3.88                             170    -0.4 7   24 206 
 BAR2 SZ I         128  6.15        19.4 0.48                            24 206 
 GIR2 SZ EP        127 48.76                             166     0.210   34 340 
 BRR  HZ IP     C  127 50.41                             151     0.210   77 297 
 BRR  HZ I         127 50.72        30.6 0.22                            77 297 
 BRR  HN ES   1    128  7.67                             151     0.2 7   77 297 
 GRA  SZ ES   1    128 13.53                             138    -0.3 7  125  15 
 GRA  SZ I         128 15.56        16.7 0.09                           125  15 
 OCA  SZ EP        127 56.89                             130    -0.2 9  162 351 
 OCA  SZ I         128 24.27        12.6 0.35                           162 351 
 CHI  HZ EP   2    128  6.66                             118     0.5 4  249 197 
 CHI  HZ I         128 41.77         4.9 0.06                           249 197 
 RREF HZ EP   2    128 14.62                             111    -0.4 3  326 230 
 RREF HN ES   2    128 50.49                             111    -1.0 3  326 230 
 RREF HZ I         128 57.99         3.9 0.36                           326 230 
                                                                                
