 2016  2 3 0846 25.7 L   6.828 -73.166145.1  RSN 19 0.3 2.2LRSN                1
 GAP=133        0.61       1.6     2.3  3.5 -0.7377E+00  0.3277E+01 -0.5059E+00E
 Epicentro: LOS SANTOS - SANTANDER                                             3
 ACTION:UPD 16-03-04 21:22 OP:rebc STATUS:               ID:20160203084625 L   I
 OLDACT:REG 16-02-03 12:55 OP:dnl  STATUS:               ID:20160203083750     3
 2016-02-03-0837-50M.COL___301                                                 6
 STAT SP IPHASW D HRMM SECON CODA AMPLIT PERI AZIMU VELO AIN AR TRES W  DIS CAZ7
 BAR2 EZ IP     C  846 45.36                             169    0.1010 26.1 184 
 BAR2 EZ ES        847  0.31                             169   -0.2410 26.1 184 
 BAR2 EZ I         847  3.26        20.8 0.21            166           26.1 184 
 PAM  EZ IP     C  846 48.07                             151    0.3310 76.5  42 
 PAM  EE ES        847  5.12                             151    0.1510 76.5  42 
 PAM  EZ I         847  7.56        11.4 0.23            149           76.5  42 
 RUS  HZ EP     C  846 49.23                             143   -0.3410  104 175 
 RUS  HE ES        847  7.91                             143   -0.3210  104 175 
 RUS  HZ I         847 11.48        10.9 0.32            139            104 175 
 PTB  HZ EP        846 51.96                             132   -0.46 9  146 257 
 PTB  HN ES        847 13.69                             132    0.39 9  146 257 
 PTB  HZ I         847 14.74        23.5 0.11            125            146 257 
 OCA  HZ EP        846 53.87                             130    0.27 9  157 354 
 OCA  HN ES        847 15.32                             130   -0.08 9  157 354 
 OCA  HZ I         847 19.61        41.6 0.20            124            157 354 
 SPBC HZ EP        846 54.24                             129    0.04 9  164 218 
 SPBC HN ES        847 16.79                             129    0.33 9  164 218 
 SPBC HZ I         847 23.98        34.2 0.17            122            164 218 
 ZAR  HZ EP        846 57.76                             123    0.04 9  201 292 
 ZAR  HN ES        847 22.76                             123    0.02 9  201 292 
 ZAR  HZ I         847 29.50        20.9 0.23            116            201 292 
 NOR  HZ EP   2    847  1.27                             118   -0.07 4  235 234 
 NOR  HN ES        847 29.34                             118    0.16 8  235 234 
 NOR  HZ I         847 35.47        17.3 0.10            113            235 234 
 SML  HZ EP        847  1.80                             118   -0.04 8  240 335 
 SML  HN ES        847 30.00                             118   -0.06 8  240 335 
 SML  HZ I         847 34.03        19.2 0.09            112            240 335 
 CHI  HZ EP        847  3.65                             117    0.08 8  251 194 
 CHI  HE ES   4    847 32.03                             117   -1.12 0  251 194 
 CHI  HZ I         847 42.67         5.7 0.26            112            251 194 
 HEL  HZ EP   2    847  6.04                             115    0.36 4  271 255 
 HEL  HN ES   2    847 36.28                             115   -0.62 4  271 255 
 HEL  HZ I         847 44.81        10.6 0.41            109            271 255 
 URE  HZ EP   4    847  5.15                             114   -1.18 0  281 291 
 URE  HN ES   4    847 35.96                             114   -2.10 0  281 291 
 URE  HZ I         847 49.42        13.4 0.23            108            281 291 
 GUY2CHZ EP   4    847 10.43                             112    1.20 0  301 234 
 GUY2CHE ES        847 43.76                             112    0.54 7  301 234 
 GUY2CHZ I         847 52.03         8.4 0.28                           301 234 
 SOCV BZ EP   4    847  6.95                             112   -1.74 0  301  58 
 SOCV BN ES   4    847 37.21                             112   -5.05 0  301  58 
 CBOC HZ EP   4    847 13.20                             110    0.79 0  332 251 
 CBOC HE ES   2    847 48.06                             110   -0.81 3  332 251 
 CBOC HZ I         847 54.26         2.9 0.57            105            332 251 
 DBB  SZ EP   2    847 12.58                             109   -0.24 3  337 274 
 DBB  SZ I         848  8.55        20.4 0.61            105            337 274 
 MON  HZ EP   4    847 12.49                             109   -1.71 0  350 308 
 MON  HE ES        847 51.50                             109   -0.57 6  350 308 
 MON  HZ I         848  6.66         3.5 0.25            104            350 308 
 ANIL HZ EP   2    847 15.95                             108    0.44 3  358 224 
 ANIL HE ES        847 54.10                             108   -0.29 6  358 224 
 ORTC HZ EP   2    847 19.73                             106    0.04 3  397 216 
 ORTC HE ES   2    848  2.00                             106    0.17 3  397 216 
 ORTC HZ I         848  9.28         3.6 0.68            102            397 216 
 PAL  HZ EP   2    847 20.39                             106   -0.36 3  405 239 
 PAL  HN ES   4    847 57.25                             106   -6.48 0  405 239 
 PAL  HZ I         848  7.31         2.5 0.18            102            405 239 
                                                                                
