 2013  2 3 0928 34.1 L   6.715 -73.213151.7  RSN  4 0.1 1.1LRSN                1
 GAP=223        0.38       3.4     3.8  3.8  0.8583E+01  0.3112E+00 -0.6494E-01E
 Epicentro: VILLANUEVA - SANTANDER                                             3
 ACTION:UPD 13-03-12 09:30 OP:ep   STATUS:               ID:20130203092834 L   I
 2013-02-03-0920-00M.COL___240                                                 6
 STAT SP IPHASW D HRMM SECON CODA AMPLIT PERI AZIMU VELO AIN AR TRES W  DIS CAZ7
 BRR  HZ EP        928 55.75                             154   -0.0610 70.1 308 
 BRR  HE ES        929 12.81                             154    0.0510 70.1 308 
 BRR  HZ I         929 16.47         3.2 0.44            151           70.1 308 
 RUS  HZ EP        928 58.03                             147    0.1910 92.1 171 
 RUS  HN ES        929 16.26                             147   -0.1110 92.1 171 
 RUS  HN I         929 16.82         1.6 0.34            151           92.1 171 
 PTB  HZ EP        929  0.64                             135   -0.12 9  139 262 
 PTB  HN ES   1    929 21.68                             135    0.11 7  139 262 
 PTB  HZ I         929 24.29         0.9 0.10            135            139 262 
 ZAR  HN ES   2    929 31.94                             124   -0.04 4  201 295 
 ZAR  HN I         929 37.40         2.4 0.56            124            201 295 
                                                                                
