 2014 11 3 0459 21.2 L   6.711 -73.186148.7  RSN  5 0.4 1.5LRSN                1
 GAP=226        0.95       5.5     6.0  7.0  0.6543E+01  0.5818E+01  0.3608E+01E
 Epicentro: VILLANUEVA - SANTANDER                                             3
 ACTION:UPD 14-12-19 15:39 OP:nd   STATUS:               ID:20141103045921 L   I
 OLDACT:DUP 14-11-03 18:36 OP:carl STATUS:               ID:20141103045748d    3
 2014-11-03-0457-47M.COL___259                                                 6
 STAT SP IPHASW D HRMM SECON CODA AMPLIT PERI AZIMU VELO AIN AR TRES W  DIS CAZ7
 BAR2 SZ EP        459 40.72                             175   -0.3010 13.2 178 
 BAR2 SZ ES        459 56.19                             175   -0.2910 13.2 178 
 BAR2 SZ I         459 56.88         7.7 0.20            172           13.2 178 
 BRR  HZ EP        459 42.99                             152    0.2410 72.7 307 
 BRR  HN ES        5 0  0.10                             152    0.5410 72.7 307 
 RUS  HZ EP        459 44.47                             147   -0.1310 91.3 173 
 RUS  HN ES        5 0  2.91                             147    0.0610 91.3 173 
 RUS  HZ I         5 0  4.58         2.7 0.60            146           91.3 173 
 PTB  HZ EP        459 47.62                             134   -0.25 9  142 262 
 PTB  HN ES        5 0  8.02                             134   -0.65 9  142 262 
 PTB  HZ I         5 0  9.43         4.2 0.12            134            142 262 
 SPBC HZ EP        459 49.35                             132    0.39 9  153 220 
 SPBC HN ES        5 0 11.00                             132    0.39 9  153 220 
 SPBC HZ I         5 0 13.62         4.1 0.32            131            153 220 
                                                                                
