 2014  1 3 0422 45.5 L   6.806 -73.144144.6  RSN 16 0.6 1.9LRSN                1
 GAP= 71        1.40       3.3     3.7  6.4 -0.2024E+01  0.3669E+01  0.1705E+01E
 Epicentro: LOS SANTOS - SANTANDER                                             3
 ACTION:UPD 14-03-13 09:50 OP:ep   STATUS:               ID:20140103042245 L   I
 OLDACT:REG 14-01-03 09:05 OP:stll STATUS:               ID:20140103041818     3
 2014-01-03-0418-18M.COL___246                                                 6
 STAT SP IPHASW D HRMM SECON CODA AMPLIT PERI AZIMU VELO AIN AR TRES W  DIS CAZ7
 BAR2 SZ EP        423  5.16                             170    0.1310 24.0 190 
 BAR2 SZ ES        423 19.83                             170   -0.4110 24.0 190 
 BAR2 SZ I         423 21.94        24.7 0.46            170           24.0 190 
 BRR  HZ IP     C  423  7.10                             152    0.5610 71.1 298 
 BRR  HN ES        423 24.18                             152    1.2510 71.1 298 
 PAM  SZ EP        423  7.98                             151    0.4010 76.8  40 
 PAM  SN ES        423 24.77                             151   -0.0110 76.8  40 
 PAM  SZ I         423 27.35         6.0 0.58            154           76.8  40 
 RUS  HZ EP        423  9.16                             143   -0.0410  101 176 
 RUS  HN ES        423 27.78                             143    0.1010  101 176 
 PTB  HZ EP        423 12.01                             132   -0.42 9  148 259 
 PTB  HN ES        423 33.08                             132   -0.33 9  148 259 
 PTB  HZ I         423 40.64        13.6 0.48            132            148 259 
 TAM  HZ EP        423 13.28                             130    0.18 9  155 105 
 TAM  HN ES        423 33.96                             130   -0.66 9  155 105 
 OCA  HZ EP        423 14.17                             129    0.48 9  160 353 
 OCA  HE ES        423 35.52                             129   -0.13 9  160 353 
 OCA  HZ I         423 40.11         6.3 0.48            131            160 353 
 SPBC HZ EP        423 14.07                             129    0.08 9  164 219 
 SPBC HN ES        423 36.18                             129   -0.02 9  164 219 
 ZAR  HN ES        423 42.86                             122   -0.27 9  204 292 
 NOR  HZ EP        423 21.24                             118   -0.00 8  235 234 
 NOR  HE ES        423 48.52                             118   -0.58 8  235 234 
 NOR  HZ I         423 53.39         7.4 0.18            119            235 234 
 SML  HZ EP        423 21.68                             117   -0.35 8  243 335 
 SML  HN ES        423 49.71                             117   -0.79 8  243 335 
 CHI  HZ EP        423 23.17                             117   -0.06 8  249 195 
 CHI  HN ES        423 51.92                             117   -0.72 8  249 195 
 CHI  HZ I         423 58.43         4.1 0.28            118            249 195 
 ROSC BZ EP        423 25.27                             116    1.62 8  253 211 
 ROSC BN ES        423 53.98                             116    0.59 8  253 211 
 HEL  HZ EP        423 26.38                             114    0.66 8  272 256 
 HEL  HE ES        423 56.03                             114   -1.04 8  272 256 
 HEL  HZ I         424  3.41         5.2 0.30            115            272 256 
 SOCV BZ EP        423 27.38                             112   -1.08 7  301  57 
 GUY2CHZ EP        423 29.63                             112    0.49 7  302 235 
 GUY2CHE ES        424  2.51                             112   -0.65 7  302 235 
 GUY2CHZ I         424 10.98         4.1 0.50                           302 235 
                                                                                
