 2014  1 3 0809 23.5 L   6.819 -73.147143.2  RSN 12 0.6 1.8LRSN                1
 GAP=135        1.33       3.4     4.9  7.4 -0.3624E+01  0.1426E+02 -0.1375E+01E
 Epicentro: LOS SANTOS - SANTANDER                                             3
 ACTION:UPD 14-03-13 09:50 OP:ep   STATUS:               ID:20140103080923 L   I
 OLDACT:REG 14-01-03 09:13 OP:stll STATUS:               ID:20140103080809     3
 2014-01-03-0808-09M.COL___234                                                 6
 STAT SP IPHASW D HRMM SECON CODA AMPLIT PERI AZIMU VELO AIN AR TRES W  DIS CAZ7
 BAR2 SZ EP        8 9 43.06                             169    0.2410 25.3 189 
 BAR2 SZ ES        8 9 57.87                             169   -0.0510 25.3 189 
 BAR2 SZ I         810  0.73        20.2 0.34            168           25.3 189 
 PAM  SZ EP        8 9 45.89                             151    0.5810 75.9  41 
 PAM  SZ I         8 9 46.15         8.5 0.22            155           75.9  41 
 PAM  SN ES        810  2.69                             151    0.3410 75.9  41 
 RUS  HZ EP        8 9 47.29                             143    0.1810  103 176 
 RUS  HN ES        810  5.39                             143   -0.1610  103 176 
 RUS  HZ I         810  6.57         6.1 0.30            144            103 176 
 PTB  HZ EP        8 9 49.48                             131   -0.76 9  148 258 
 PTB  HN ES        810 10.54                             131   -0.58 9  148 258 
 PTB  HZ I         810 13.21        13.4 0.10            132            148 258 
 OCA  HZ EP        8 9 50.95                             129   -0.42 9  158 353 
 OCA  HN ES        810 13.48                             129    0.34 9  158 353 
 OCA  HZ I         810 17.11         6.9 0.18            132            158 353 
 SPBC HZ EP        8 9 51.95                             128    0.05 9  165 218 
 SPBC HE ES        810 13.28                             128   -0.81 9  165 218 
 SPBC HZ I         810 18.54        12.7 0.18            129            165 218 
 ZAR  HZ EP        8 9 55.87                             122    0.23 9  203 292 
 ZAR  HN ES        810 20.85                             122    0.11 9  203 292 
 ZAR  HZ I         810 23.58         9.1 0.10            123            203 292 
 NOR  HZ EP        8 9 58.95                             118   -0.20 8  236 234 
 NOR  HE ES        810 27.33                             118    0.34 8  236 234 
 NOR  HZ I         810 31.52         5.9 0.20            119            236 234 
 SML  HZ EP        8 9 59.36                             117   -0.37 8  242 335 
 SML  HN ES        810 27.65                             117   -0.37 8  242 335 
 CHI  HZ EP        810  1.07                             116   -0.16 8  251 195 
 CHI  HE ES        810 30.36                             116   -0.32 8  251 195 
 CHI  HZ I         810 40.32         3.3 0.32            117            251 195 
 HEL  HZ EP        810  3.26                             114   -0.32 8  272 255 
 HEL  HE ES        810 34.85                             114   -0.02 8  272 255 
 HEL  HZ I         810 42.72         4.5 0.52            115            272 255 
 GUY2CHZ EP        810  7.23                             112    0.17 7  302 234 
 GUY2CHN ES        810 43.54                             112    2.46 7  302 234 
 GUY2CHZ I         810 49.20         2.9 0.32                           302 234 
                                                                                
