 2014 11 3 0746  1.5 L   6.788 -73.110149.2  RSN  4 0.2 1.3LRSN                1
 GAP=262        0.64       5.0     5.1  5.8 -0.4322E+01  0.3934E+01  0.1111E+01E
 Epicentro: LOS SANTOS - SANTANDER                                             3
 ACTION:UPD 14-12-19 15:39 OP:nd   STATUS:               ID:20141103074601 L   I
 OLDACT:DUP 14-11-03 20:33 OP:carl STATUS:               ID:20141103073745d    3
 2014-11-03-0737-44M.COL___262                                                 6
 STAT SP IPHASW D HRMM SECON CODA AMPLIT PERI AZIMU VELO AIN AR TRES W  DIS CAZ7
 BAR2 SZ EP        746 21.71                             171    0.2210 23.0 200 
 BAR2 SZ ES        746 36.82                             171   -0.3010 23.0 200 
 BAR2 SZ I         746 37.64         4.0 0.20            165           23.0 200 
 BRR  HZ EP        746 23.31                             152    0.1010 75.3 298 
 BRR  HN ES        746 40.38                             152    0.2110 75.3 298 
 BRR  HZ I         746 43.52         4.2 0.14            151           75.3 298 
 PTB  HZ EP        746 28.66                             132   -0.37 9  151 260 
 PTB  HN ES        746 50.43                             132   -0.11 9  151 260 
 PTB  HZ I         746 52.01         2.1 0.26            131            151 260 
 SPBC HN ES        746 53.12                             130    0.22 9  165 220 
 SPBC HZ I         747  0.94         1.9 0.24            128            165 220 
                                                                                
