 2014  7 3 0504 34.1 L   6.783 -73.142152.5  RSN  6 0.4 1.3LRSN                1
 GAP=201        1.06       5.3     7.5  9.7  0.8816E+01 -0.5490E+01 -0.4887E+01E
 Epicentro: LOS SANTOS - SANTANDER                                             3
 ACTION:UPD 15-03-16 20:40 OP:nd   STATUS:               ID:20140703050434 L   I
 OLDACT:REG 14-07-03 12:58 OP:cam  STATUS:               ID:20140703050000     3
 2014-07-03-0500-00M.COL___279                                                 6
 STAT SP IPHASW D HRMM SECON CODA AMPLIT PERI AZIMU VELO AIN AR TRES W  DIS CAZ7
 BAR2 SZ EP        5 4 54.45                             172   -0.1110 21.5 192 
 BRR  HZ EP        5 4 56.30                             153    0.2010 72.5 300 
 BRR  HN ES        5 5 13.72                             153    0.4910 72.5 300 
 BRR  HZ I         5 5 17.51         3.7 0.44            150           72.5 300 
 RUS  HZ EP   1    5 4 58.63                             146    0.20 7 98.6 176 
 RUS  HN ES        5 5 16.87                             146   -0.5110 98.6 176 
 RUS  HZ I         5 5 17.70         0.9 0.16            146           98.6 176 
 PTB  HZ EP        5 5  1.37                             133   -0.31 9  148 260 
 PTB  HN ES        5 5 22.43                             133   -0.72 9  148 260 
 PTB  HZ I         5 5 28.19         2.5 0.18            132            148 260 
 SPBC HZ EP        5 5  3.32                             131    0.26 9  162 220 
 SPBC HE ES        5 5 26.29                             131    0.68 9  162 220 
 SPBC HN I         5 5 32.91         6.7 0.12            130            162 220 
 SML  HN ES   1    5 5 40.17                             119   -0.23 6  246 335 
                                                                                
