 2011  8 3 0339  2.2 L   6.773 -73.088142.1  RSN  5 0.2 1.5LRSN                1
 GAP=145        0.46       3.2     6.3  5.1  0.1264E+01 -0.2163E+01 -0.3732E+01E
 Epicentro: LOS SANTOS - SANTANDER                                             3
 ACTION:UPD 12-07-25 14:05 OP:epov STATUS:               ID:20110803033902 L   I
 2011-08-03-0337-50S.COL___119                                                 6
 STAT SP IPHASW D HRMM SECON CODA AMPLIT PERI AZIMU VELO AIN AR TRES W  DIS CAZ7
 BAR2 SZ EP   1    339 21.44                             171    0.06 7 22.6 208 
 BAR2 SZ ES   1    339 36.39                             171    0.05 7 22.6 208 
 BAR2 SZ I         339 37.56         8.7 0.45                          22.6 208 
 PAM  SZ EP   1    339 24.38                             150    0.43 7 75.9  34 
 PAM  SE ES   2    339 40.67                             150   -0.23 5 75.9  34 
 BRR  HZ EP   1    339 23.17                             150   -0.22 7 78.3 298 
 BRR  HZ I         339 23.34        11.3 0.15                          78.3 298 
 BRR  HN ES   2    339 40.24                             150    0.34 5 78.3 298 
 RUS  HZ EP   1    339 25.28                             144   -0.09 7 97.4 180 
 RUS  HN ES   2    339 43.15                             144   -0.28 5 97.4 180 
 RUS  HZ I         339 45.51         2.4 0.30                          97.4 180 
 OCA  SZ EP   1    339 30.59                             128   -0.01 7  164 351 
 OCA  SZ ES   2    339 52.36                             128   -0.39 5  164 351 
 OCA  SZ I         339 57.87         4.9 0.36                           164 351 
                                                                                
