 2015 11 3 0052 48.6 L   6.810 -73.051144.0  RSN  9 0.5 1.7LRSN                1
 GAP=148        1.23       3.8     5.9  7.1 -0.3958E+01  0.1338E+02  0.1673E+01E
 Epicentro: LOS SANTOS - SANTANDER                                             3
 ACTION:UPD 15-12-28 16:08 OP:cam  STATUS:               ID:20151103005248 L   I
 OLDACT:UP  15-11-03 15:52 OP:cara STATUS:               ID:20151103004747     3
 OLDACT:REG 15-11-03 13:22 OP:cara STATUS:               ID:20151103004747     3
 2015-11-03-0047-47M.COL___313                                                 6
 STAT SP IPHASW D HRMM SECON CODA AMPLIT PERI AZIMU VELO AIN AR TRES W  DIS CAZ7
 BAR2 EZ EP        053  8.07                             169   -0.0810 28.1 211 
 BAR2 EZ ES        053 22.95                             169   -0.4310 28.1 211 
 BAR2 EZ I         053 24.96        13.6 0.14            168           28.1 211 
 PAM  EZ EP        053 10.96                             153    0.7210 70.2  34 
 PAM  EN ES        053 27.31                             153    0.2210 70.2  34 
 PAM  EZ I         053 30.40        10.5 0.48            155           70.2  34 
 BRR  HZ EP        053 10.02                             149   -0.0910 80.1 294 
 BRR  HN ES        053 27.15                             149    0.2810 80.1 294 
 BRR  HZ I         053 30.93         6.1 0.38            149           80.1 294 
 RUS  HZ EP        053 12.58                             143    0.3110  102 182 
 RUS  HN ES        053 30.99                             143    0.2710  102 182 
 RUS  HZ I         053 32.59         7.7 0.42            146            102 182 
 SPBC HZ EP        053 17.85                             127    0.13 9  171 221 
 SPBC HN ES        053 39.47                             127   -0.95 9  171 221 
 SPBC HZ I         053 43.71        12.8 0.34            129            171 221 
 ZAR  HE ES   4    053 46.58                             121   -1.32 0  213 291 
 SML  HZ EP        053 24.88                             117   -0.65 8  247 333 
 SML  HE ES        053 53.55                             117   -0.77 8  247 333 
 SML  HZ I         053 57.27         7.7 0.26            118            247 333 
 CHI  HZ EP        053 26.33                             116   -0.33 8  253 197 
 CHI  HN ES        053 55.60                             116   -0.73 8  253 197 
 CHI  HZ I         053 56.77         1.8 0.32            119            253 197 
 HEL  HN ES        054  2.95                             113    0.84 7  282 256 
 HEL  HZ I         054  7.16         2.9 0.24            115            282 256 
 GUY2CHZ EP        053 33.75                             111    0.55 7  310 236 
 GUY2CHE ES        054  8.50                             111    0.54 7  310 236 
 GUY2CHZ I         054 18.36         2.1 0.38                           310 236 
 MON  HN ES   4    054 13.94                             108   -3.34 0  361 307 
                                                                                
