 2016  4 3 0606 26.5 L   6.818 -73.143145.4  RSN 12 0.4 1.9LRSN                1
 GAP=136        1.00       3.2     3.9  5.7 -0.3485E+01  0.9477E+01 -0.1174E+01E
 Epicentro: LOS SANTOS - SANTANDER                                             3
 ACTION:UPD 16-05-05 14:18 OP:rebc STATUS:               ID:20160403060626 L   I
 OLDACT:UP  16-04-03 15:01 OP:drio STATUS:               ID:20160403055743     3
 OLDACT:REG 16-04-03 12:33 OP:drio STATUS:               ID:20160403055743     3
 2016-04-03-0557-43M.COL___309                                                 6
 STAT SP IPHASW D HRMM SECON CODA AMPLIT PERI AZIMU VELO AIN AR TRES W  DIS CAZ7
 BAR2 EZ EP        6 6 46.18                             170    0.0210 25.3 190 
 BAR2 EZ ES        6 7  1.33                             170   -0.1410 25.3 190 
 BAR2 EZ I         6 7  3.98        14.1 0.28            168           25.3 190 
 PAM  EZ EP        6 6 49.01                             151    0.4010 75.7  40 
 PAM  EE ES        6 7  6.31                             151    0.4810 75.7  40 
 PAM  EZ I         6 7  8.40        10.9 0.48            157           75.7  40 
 RUS  HZ EP        6 6 50.11                             143   -0.2810  103 176 
 RUS  HE ES        6 7  8.34                             143   -0.6610  103 176 
 RUS  HZ I         6 7 10.30         4.8 0.38            146            103 176 
 PTB  HZ EP        6 6 53.33                             132   -0.20 9  148 258 
 PTB  HE ES        6 7 14.34                             132   -0.25 9  148 258 
 PTB  HZ I         6 7 20.22         9.5 0.56            133            148 258 
 OCA  HZ EP        6 6 54.38                             130   -0.25 9  158 353 
 OCA  HN ES        6 7 16.56                             130    0.01 9  158 353 
 OCA  HZ I         6 7 21.63        13.2 0.46            133            158 353 
 SPBC HZ EP        6 6 55.31                             129    0.14 9  165 219 
 SPBC HE ES        6 7 18.10                             129    0.60 9  165 219 
 SPBC HZ I         6 7 25.18        14.4 0.30            131            165 219 
 ZAR  HZ EP        6 6 58.49                             122   -0.42 9  204 292 
 ZAR  HE ES        6 7 24.35                             122    0.19 9  204 292 
 ZAR  HZ I         6 7 29.88         7.6 0.30            124            204 292 
 NOR  HZ EP        6 7  2.19                             118   -0.20 8  236 234 
 NOR  HE ES        6 7 29.86                             118   -0.50 8  236 234 
 NOR  HZ I         6 7 33.95         6.2 0.36            120            236 234 
 ROSC BZ EP        6 7  5.89                             116    1.05 8  255 211 
 ROSC BN ES   4    6 7 37.37                             116    2.66 0  255 211 
 ROSC BZ I         6 7 44.28         8.9 0.40            119            255 211 
 HEL  HZ EP        6 7  6.64                             115   -0.18 8  273 255 
 HEL  HN ES        6 7 38.72                             115    0.49 8  273 255 
 HEL  HZ I         6 7 44.92         3.8 0.24            117            273 255 
 URE  HZ EP        6 7  6.95                             113   -0.59 7  283 292 
 URE  HE ES   4    6 7 37.09                             113   -2.43 0  283 292 
 URE  HZ I         6 7 40.03         5.2 0.16            116            283 292 
 GUY2CHZ EP        6 7 10.28                             112   -0.00 7  303 234 
 GUY2CHN ES        6 7 44.99                             112    0.58 7  303 234 
 GUY2CHZ I         6 7 53.17         6.6 0.74                           303 234 
                                                                                
