 2013  9 3 0950 21.3 L   6.823 -73.140144.6  RSN 14 0.5 2.0LRSN                1
 GAP= 71        1.22       3.4     3.9  6.3  0.1238E+01  0.4257E+01  0.2517E+01E
 Epicentro: LOS SANTOS - SANTANDER                                             3
 ACTION:UPD 13-10-22 09:19 OP:ep   STATUS:               ID:20130903095021 L   I
 OLDACT:UP  13-09-03 11:37 OP:cam  STATUS:               ID:20130903094959     3
 OLDACT:REG 13-09-03 08:33 OP:cam  STATUS:               ID:20130903094959     3
 2013-09-03-0949-59M.COL___269                                                 6
 STAT SP IPHASW D HRMM SECON CODA AMPLIT PERI AZIMU VELO AIN AR TRES W  DIS CAZ7
 BAR2 SZ EP        950 40.78                             169   -0.1010 26.0 190 
 BAR2 SZ ES        950 55.90                             169   -0.2210 26.0 190 
 BAR2 SZ I         950 57.88        14.3 0.26            168           26.0 190 
 BRR  HZ EP        950 42.67                             152    0.3510 70.6 296 
 BRR  HE ES        950 59.59                             152    0.9010 70.6 296 
 BRR  HZ I         951  3.51        14.7 0.42            156           70.6 296 
 PAM  SZ EP        950 43.70                             151    0.4210 75.0  40 
 PAM  SN ES        951  0.60                             151    0.2010 75.0  40 
 PAM  SZ I         951  2.70        24.4 0.62            157           75.0  40 
 RUS  HZ EP        950 44.89                             143   -0.2610  103 177 
 RUS  HN ES        951  3.00                             143   -0.7310  103 177 
 RUS  HZ I         951  4.02         8.7 0.38            145            103 177 
 PTB  HZ EP        950 47.82                             131   -0.49 9  149 258 
 PTB  HN ES        951  8.65                             131   -0.70 9  149 258 
 PTB  HZ I         951 11.55        11.4 0.16            136            149 258 
 TAM  HZ EP        950 49.08                             130    0.16 9  155 106 
 TAM  HZ I         950 49.46        15.0 0.44            135            155 106 
 TAM  HN ES        951 10.51                             130    0.07 9  155 106 
 OCA  HZ EP   1    950 49.16                             130   -0.16 7  158 353 
 OCA  HN ES        951 10.73                             130   -0.42 9  158 353 
 OCA  HZ I         951 14.31        12.8 0.36            136            158 353 
 SPBC HZ EP        950 49.86                             128   -0.11 9  166 219 
 ZAR  HZ EP   4    950 55.40                             122    1.73 0  204 291 
 ZAR  HN ES        951 19.55                             122    0.66 9  204 291 
 ZAR  HZ I         951 24.71        13.0 0.34            127            204 291 
 SML  HZ EP        950 57.28                             117   -0.39 8  242 335 
 SML  HE ES        951 25.49                             117   -0.52 8  242 335 
 SML  HZ I         951 33.93        11.6 0.26            123            242 335 
 CHI  HZ EP   1    950 59.58                             117    0.33 6  251 195 
 CHI  HN ES   1    951 30.57                             117    1.74 6  251 195 
 HEL  HZ EP   1    951  2.40                             114    0.77 6  273 255 
 URE  HN ES   4    951 32.84                             113   -1.43 0  283 291 
 PRA  HZ EP        951 15.24                             106    0.13 6  395 209 
 PRA  HN ES        951 56.75                             106   -0.31 6  395 209 
 PRA  HZ I         952  3.52         3.4 0.26            109            395 209 
 SJC  HZ I         951 15.62         2.5 0.20            109            407 327 
 SJC  HZ EP   4    951 15.63                             106   -1.02 0  407 327 
 SJC  HN ES   4    951 57.72                             106   -2.07 0  407 327 
                                                                                
