 2010 12 3 0915 22.6 L   6.783 -73.230140.0  RSN  6 0.5 1.7LRSN                1
 GAP=150        1.09       7.5    21.8 13.0 -0.4924E+02  0.4678E+02 -0.1958E+02E
 Epicentro: ZAPATOCA - SANTANDER                                               3
 ACTION:UP  11-01-14 15:22 OP:pat  STATUS:               ID:20101203091522 L   I
 2010-12-03-0913-24S.COL___133                                                 6
 STAT SP IPHASW D HRMM SECON CODA AMPLIT PERI AZIMU VELO SNR AR TRES W  DIS CAZ7
 BAR2 SZ EP        915 41.28                             171    -0.210   22 166 
 BAR2 SZ I         915 48.15        14.3 0.24                            22 166 
 BAR2 SZ ES   2    915 55.57                             171    -0.7 5   22 166 
 GIR2 SZ EP        915 42.29                             166     0.610   33   7 
 GIR2 SZ ES   2    915 56.91                             166     0.4 5   33   7 
 BRR  HZ EP        915 43.06                             154     0.310   64 304 
 BRR  HZ I         916  2.22        14.7 0.16                            64 304 
 GUE  SZ EP        915 47.34                             137     0.210  121  16 
 OCA  SZ EP        915 49.89                             128    -0.7 9  161 357 
 OCA  SZ ES   2    916 11.85                             128    -0.6 5  161 357 
 CHI  HZ EP   2    915 59.52                             117     0.0 4  244 193 
 CHI  HE ES   2    916 27.77                             117    -0.6 4  244 193 
 CHI  HZ I         916 34.20         2.7 0.28                           244 193 
                                                                                
