 2015  3 3 0250 41.2 L   6.824 -73.133145.4  RSN 11 0.4 1.6LRSN                1
 GAP= 71        0.83       2.6     3.4  4.8 -0.2135E+01  0.7272E+00  0.9064E+00E
 Epicentro: LOS SANTOS - SANTANDER                                             3
 ACTION:UPD 15-04-30 16:22 OP:nd   STATUS:               ID:20150303025041 L   I
 OLDACT:REG 15-03-03 12:38 OP:spq  STATUS:               ID:20150303024747     3
 2015-03-03-0247-47M.COL___284                                                 6
 STAT SP IPHASW D HRMM SECON CODA AMPLIT PERI AZIMU VELO AIN AR TRES W  DIS CAZ7
 BAR2 EZ EP   1    251  0.52                             169   -0.29 7 26.1 192 
 BAR2 EZ ES   1    251 15.53                             169   -0.61 7 26.1 192 
 BAR2 EZ I         251 16.94        10.1 0.16            169           26.1 192 
 BRR  HZ EP     C  251  2.52                             153    0.2510 71.2 296 
 BRR  HN ES        251 19.29                             153    0.5510 71.2 296 
 BRR  HZ I         251 21.34         7.0 0.58            151           71.2 296 
 PAM  SZ EP     C  251  3.62                             152    0.4510 74.5  40 
 PAM  SN ES        251 20.39                             152    0.0510 74.5  40 
 PAM  SZ I         251 22.42        13.1 0.48            154           74.5  40 
 RUS  HZ EP   1    251  5.22                             143    0.16 7  103 177 
 RUS  HN ES   1    251 23.36                             143   -0.34 7  103 177 
 RUS  HZ I         251 24.74         2.8 0.30            144            103 177 
 PTB  HZ EP        251  7.79                             132   -0.48 9  150 258 
 PTB  HN ES        251 29.48                             132    0.06 9  150 258 
 PTB  HZ I         251 31.13         6.1 0.46            131            150 258 
 TAM  HZ EP        251  9.05                             131    0.29 9  154 106 
 OCA  HZ EP        251  9.16                             130   -0.06 9  158 353 
 OCA  HN ES        251 30.61                             130   -0.49 9  158 353 
 OCA  HZ I         251 33.95         5.3 0.39            131            158 353 
 SPBC HN ES   1    251 32.52                             128    0.19 7  166 219 
 SPBC HZ I         251 37.16         5.3 0.16            129            166 219 
 NOR  HZ EP        251 17.56                             118    0.41 8  237 234 
 NOR  HN ES        251 45.10                             118   -0.13 8  237 234 
 NOR  HZ I         251 49.52         2.4 0.14            118            237 234 
 SML  HZ EP        251 16.96                             118   -0.62 8  242 335 
 SML  HE ES   1    251 46.27                             118    0.29 6  242 335 
 SML  HZ I         251 50.67         5.5 0.24            118            242 335 
 CHI  HZ EP   1    251 19.09                             117   -0.06 6  252 195 
 CHI  HN ES   1    251 48.59                             117   -0.20 6  252 195 
 CHI  HZ I         251 52.52         1.2 0.22            117            252 195 
                                                                                
