 2016  8 3 0956 14.7 L   7.435 -73.175131.7  RSN  5 0.2 1.5LRSN                1
 GAP=189        0.48       3.0     2.4  3.7  0.1346E+00  0.3098E+01 -0.1325E+00E
 Epicentro: EL PLAYON - SANTANDER                                              3
 ACTION:UPD 16-10-29 15:31 OP:rebc STATUS:               ID:20160803095614 L   I
 OLDACT:UP  16-08-03 18:38 OP:edw  STATUS:               ID:20160803094736     3
 OLDACT:REG 16-08-03 13:39 OP:edw  STATUS:               ID:20160803094736     3
 2016-08-03-0948-00M.COL___341                                                 6
 STAT SP IPHASW D HRMM SECON CODA AMPLIT PERI AZIMU VELO AIN AR TRES W  DIS CAZ7
 PAM  EZ EP        956 34.17                             157    0.0610 53.6 101 
 PAM  EE ES        956 49.41                             157    0.1810 53.6 101 
 PAM  EZ I         956 50.28         6.1 0.14                          53.6 101 
 BRR  HZ EP        956 34.10                             150   -0.1610 69.5 239 
 BRR  HN ES        956 49.44                             150   -0.0610 69.5 239 
 BAR2 EZ EP        956 35.94                             143   -0.2610 93.3 180 
 BAR2 EZ ES        956 52.85                             143   -0.1110 93.3 180 
 ZAR  HZ EP        956 44.24                             122   -0.13 9  186 272 
 ZAR  HN ES        957  7.69                             122    0.19 9  186 272 
 ZAR  HZ I         957  8.63         4.6 0.20                           186 272 
 SPBC HZ EP        956 48.49                             117    0.30 8  221 207 
 SPBC HN ES        957 14.45                             117    0.15 8  221 207 
 SPBC HZ I         957 21.43         2.6 0.36                           221 207 
                                                                                
