 2014  3 3 0309 56.0 L   6.849 -73.184138.2  RSN 13 0.4 2.3LRSN                1
 GAP= 67        0.93       2.4     3.0  5.0 -0.1670E+01  0.5072E+01 -0.4851E+00E
 Epicentro: ZAPATOCA - SANTANDER                                               3
 OLDACT:REG 14-03-03 08:59 OP:stll STATUS:               ID:20140303030811     3
 ACTION:UPD 14-04-09 23:14 OP:nd   STATUS:               ID:20140303030956 L   I
 OLDACT:UP  14-03-03 12:45 OP:stll STATUS:               ID:20140303030811     3
 2014-03-03-0308-11M.COL___232                                                 6
 STAT SP IPHASW D HRMM SECON CODA AMPLIT PERI AZIMU VELO AIN AR TRES W  DIS CAZ7
 BAR2 SZ EP        310 14.94                             168    0.0610 28.4 180 
 BAR2 SZ ES        310 29.44                             168   -0.1310 28.4 180 
 BAR2 SZ I         310 31.95        33.0 0.18            168           28.4 180 
 PAM  SZ IP     D  310 17.89                             150    0.5110 76.2  45 
 PAM  SN ES        310 34.70                             150    0.6710 76.2  45 
 RUS  HZ EP        310 19.05                             140   -0.4510  106 174 
 RUS  HE ES        310 37.75                             140   -0.0410  106 174 
 PTB  HZ EP        310 21.57                             131   -0.55 9  145 256 
 PTB  HN ES        310 41.72                             131   -0.74 9  145 256 
 PTB  SZ I         310 44.98        32.3 0.12            131            145 256 
 OCA  HZ EP        310 23.11                             129   -0.10 9  154 354 
 OCA  HN ES        310 44.34                             129   -0.06 9  154 354 
 OCA  SZ I         310 49.23        23.0 0.20            131            154 354 
 TAM  HZ EP        310 23.42                             128   -0.24 9  161 106 
 SPBC HZ EP        310 24.07                             127   -0.06 9  165 217 
 SPBC HN ES        310 45.98                             127   -0.06 9  165 217 
 SPBC SZ I         310 52.95        24.7 0.34            129            165 217 
 ZAR  HZ EP        310 27.27                             121   -0.11 9  198 291 
 ZAR  HE ES        310 52.20                             121    0.38 9  198 291 
 ZAR  SZ I         311  2.04        17.9 0.12            122            198 291 
 NOR  HZ EP        310 31.34                             117    0.02 8  234 233 
 NOR  HN ES        310 58.52                             117   -0.31 8  234 233 
 NOR  SZ I         311  3.87         9.3 0.16            118            234 233 
 SML  HZ EP        310 31.23                             116   -0.28 8  237 336 
 SML  HN ES        310 58.92                             116   -0.26 8  237 336 
 SML  SZ I         311  1.39        19.2 0.22            118            237 336 
 HEL  HZ EP        310 35.83                             113    0.26 8  269 254 
 HEL  HN ES        311  6.62                             113    0.22 8  269 254 
 HEL  SZ I         311 12.95        12.8 0.42            115            269 254 
 GUY2CHZ EP        310 39.75                             111    0.47 7  301 233 
 GUY2CHE ES        311 13.96                             111    0.96 7  301 233 
 GUY2CSZ I         311 23.05        10.5 0.58                           301 233 
 ORTC HZ EP        310 50.11                             105    0.17 6  397 215 
 ORTC HN ES        311 32.61                             105    0.63 6  397 215 
 ORTC SZ I         311 37.37         4.6 0.42            107            397 215 
                                                                                
