 2011  5 3 0907 53.2 L   6.742 -73.107144.0  RSN  7 0.3 1.4LRSN                1
 GAP=161        0.69       4.6    11.0 11.5  0.6334E+00 -0.4374E+02 -0.1077E+02E
 Epicentro: JORDAN - SANTANDER                                                 3
 ACTION:UP  11-06-29 08:50 OP:tino STATUS:               ID:20110503090753 L   I
 2011-05-03-0905-51S.COL___133                                                 6
 STAT SP IPHASW D HRMM SECON CODA AMPLIT PERI AZIMU VELO SNR AR TRES W  DIS CAZ7
 BAR2 SZ EP   1    9 8 12.54                             172     0.0 7   19 207 
 BAR2 SZ I         9 8 31.57         6.6 0.54                            19 207 
 BTL  SZ EP   1    9 8 12.85                             169     0.1 7   26 318 
 BRR  HZ EP   1    9 8 14.60                             150     0.0 7   78 301 
 BRR  HZ I         9 8 16.77         7.1 0.15                            78 301 
 BRR  HN ES   2    9 8 31.78                             150     0.5 5   78 301 
 RUS  HZ EP   1    9 8 16.47                             145     0.1 7   94 178 
 RUS  HE ES   2    9 8 33.78                             145    -0.6 5   94 178 
 RUS  HZ I         9 8 35.76         2.6 0.27                            94 178 
 BRI  SZ EP   1    9 8 17.65                             140     0.3 7  113  18 
 BRI  SZ I         9 8 19.44         3.9 0.42                           113  18 
 GRA  SZ EP   1    9 8 18.89                             135     0.1 7  131  15 
 GRA  SZ ES   2    9 8 38.79                             135     0.1 5  131  15 
 GRA  SZ I         9 8 43.93         2.9 0.23                           131  15 
 OCA  SZ EP   1    9 8 21.62                             128    -0.5 7  167 352 
 OCA  SZ ES   2    9 8 43.84                             128    -0.7 5  167 352 
 OCA  SZ I         9 8 46.47         4.3 0.41                           167 352 
                                                                                
