 2017  8 3 0547 11.2 L   6.714 -73.205137.5  RSN  6 0.4 1.0LRSN                1
 GAP=222        0.95       5.0     5.3  7.0  0.1049E+02  0.8786E+01  0.3660E+01E
 Epicentro: VILLANUEVA - SANTANDER                                             3
 ACTION:UPD 17-09-04 20:15 OP:rebc STATUS:               ID:20170803054711 L   I
 OLDACT:UP  17-08-03 19:12 OP:edw  STATUS:               ID:20170803053744d    3
 OLDACT:DUP 17-08-03 19:08 OP:edw  STATUS:               ID:20170803053744d    3
 2017-08-03-0538-00M.COL___398                                                 6
 STAT SP IPHASW D HRMM SECON CODA AMPLIT PERI AZIMU VELO AIN AR TRES W  DIS CAZ7
 BAR2 EZ EP        547 29.15                             174   -0.5210 13.7 170 
 BAR2 EZ ES        547 43.82                             174   -0.2610 13.7 170 
 BAR2 EZ I         547 44.72         2.5 0.28            170           13.7 170 
 BRR  HZ EP        547 32.13                             151    0.6910 71.0 308 
 BRR  HN ES        547 47.48                             151    0.2410 71.0 308 
 RUS  HZ EP        547 33.43                             145   -0.0710 91.8 172 
 RUS  HN ES        547 51.12                             145    0.2210 91.8 172 
 RUS  HZ I         547 53.69         1.5 0.34            143           91.8 172 
 PTB  HZ EP        547 36.34                             132   -0.42 9  140 262 
 PTB  HN ES        547 56.27                             132   -0.44 9  140 262 
 PTB  HZ I         547 59.91         1.0 0.16            131            140 262 
 SPBC HZ EP        547 38.14                             129    0.17 9  152 219 
 SPBC HN ES        547 59.18                             129    0.33 9  152 219 
 SPBC HZ I         548  2.46         1.7 0.22            128            152 219 
 ZAR  HN ES        548  7.67                             121    0.06 9  202 295 
                                                                                
