 2016  9 3 0508 45.8 L   6.796 -73.119148.3  RSN 14 0.5 2.1LRSN                1
 GAP=121        1.17       3.7     4.5  6.4 -0.3429E+01  0.7867E+01  0.2987E+01E
 Epicentro: LOS SANTOS - SANTANDER                                             3
 ACTION:UPD 17-08-17 21:06 OP:lp   STATUS:               ID:20160903050845 L   I
 OLDACT:UP  16-09-03 15:25 OP:drio STATUS:               ID:20160903050734     3
 OLDACT:REG 16-09-03 12:48 OP:drio STATUS:               ID:20160903050734     3
 2016-09-03-0508-00M.COL___349                                                 6
 STAT SP IPHASW D HRMM SECON CODA AMPLIT PERI AZIMU VELO AIN AR TRES W  DIS CAZ7
 BAR2 EZ EP        5 9  5.65                             171   -0.0610 23.6 197 
 BAR2 EZ ES        5 9 20.75                             171   -0.5210 23.6 197 
 BAR2 EZ I         5 9 25.12        15.0 0.32            170           23.6 197 
 BRR  HZ EP        5 9  7.54                             152    0.1910 74.0 298 
 BRR  HE ES        5 9 24.95                             152    0.7610 74.0 298 
 BRR  HZ I         5 9 28.48        23.4 0.16            151           74.0 298 
 PAM  EZ EP        5 9  8.65                             152    0.4810 75.9  38 
 PAM  EE ES        5 9 26.02                             152    0.3710 75.9  38 
 PAM  EZ I         5 9 27.59        28.5 0.54            155           75.9  38 
 RUS  HZ EP        5 9  9.85                             144    0.1210  100 178 
 RUS  HN ES        5 9 28.52                             144    0.1010  100 178 
 RUS  HZ I         5 9 29.57        17.3 0.32            147            100 178 
 PTB  HZ EP        5 9 12.58                             132   -0.62 9  151 259 
 PTB  HE ES   4    5 9 33.07                             132   -1.52 0  151 259 
 PTB  HZ I         5 9 35.91         7.5 0.40            133            151 259 
 OCA  HZ EP        5 9 14.44                             130    0.09 9  161 352 
 OCA  HE ES        5 9 35.90                             130   -0.75 9  161 352 
 OCA  HZ I         5 9 39.23        22.4 0.18            132            161 352 
 SPBC HZ EP        5 9 14.43                             129   -0.18 9  165 220 
 SPBC HE ES        5 9 36.70                             129   -0.40 9  165 220 
 SPBC HZ I         5 9 38.44        23.0 0.20            131            165 220 
 ZAR  HZ EP   4    5 9 20.70                             123    2.03 0  207 292 
 ZAR  HN ES        5 9 43.71                             123   -0.63 8  207 292 
 ZAR  HZ I         5 9 49.89         9.4 0.32            124            207 292 
 NOR  HZ EP        5 9 22.15                             119    0.27 8  237 235 
 NOR  HE ES        5 9 49.78                             119   -0.26 8  237 235 
 NOR  HZ I         5 9 55.10         9.4 0.18            120            237 235 
 ROSC BZ EP   4    5 9 25.64                             117    1.49 0  254 212 
 ROSC BN ES   4    5 9 56.44                             117    2.34 0  254 212 
 ROSC BZ I         5 9 57.81        10.5 0.30            119            254 212 
 GUY2CHZ EP   4    5 9 31.31                             113    1.57 0  303 235 
 GUY2CHN ES        510  4.97                             113    0.94 7  303 235 
 GUY2CHZ I         510 11.80         5.5 0.34                           303 235 
 PTGC HZ EP        5 9 28.87                             112   -0.71 7  307 159 
 PTGC HN ES   4    510  2.31                             112   -1.44 0  307 159 
 PTGC HZ I         510  4.79         8.0 0.46            114            307 159 
 CBOC HZ EP        5 9 33.91                             110    0.82 7  336 252 
 CBOC HN ES        510 10.22                             110    0.21 7  336 252 
 CBOC HZ I         510 13.69         1.4 0.46            111            336 252 
 SJC  HZ EP   4    5 9 40.07                             106   -1.57 0  411 327 
 SJC  HE ES   4    510 18.51                             106   -6.71 0  411 327 
 SJC  HZ I         510 27.47         2.2 0.78            107            411 327 
                                                                                
