 2013  3 3 0422 45.4 L   6.783 -73.140139.9  RSN  5 0.4 1.5LRSN                1
 GAP=138        0.91       5.0     4.7  8.3 -0.3394E+01  0.5184E+01  0.3661E+01E
 Epicentro: LOS SANTOS - SANTANDER                                             3
 ACTION:UPD 13-04-09 13:59 OP:ep   STATUS:               ID:20130303042245 L   I
 2013-03-03-0418-50M.COL___193                                                 6
 STAT SP IPHASW D HRMM SECON CODA AMPLIT PERI AZIMU VELO AIN AR TRES W  DIS CAZ7
 BAR2 SZ EP   2    423  4.00                             171   -0.30 5 21.6 192 
 BRR  HZ EP        423  6.36                             151    0.3410 72.7 300 
 BRR  HN ES        423 22.51                             151    0.4210 72.7 300 
 BRR  HN I         423 27.49        10.8 0.18            151           72.7 300 
 PAM  SZ EP        423  7.25                             149    0.1710 78.5  38 
 PAM  SZ I         423  7.81         3.8 0.48            152           78.5  38 
 PAM  SN ES        423 23.54                             149   -0.4310 78.5  38 
 RUS  HZ EP   1    423  9.00                             143    0.55 7 98.6 176 
 RUS  HN ES        423 26.33                             143   -0.0810 98.6 176 
 RUS  HE I         423 27.95         4.5 0.54            147           98.6 176 
 PTB  HZ EP        423 11.36                             130   -0.57 9  148 260 
 PTB  HN ES        423 32.43                             130   -0.18 9  148 260 
 PTB  HN I         423 34.51         5.7 0.20            133            148 260 
                                                                                
