 2012  1 3 0753 49.4 L   6.770 -73.147135.8  RSN  4 0.3 1.0LRSN                1
 GAP=138        0.60       5.1     7.9  8.5  0.1294E+02 -0.3147E+02 -0.6083E+01E
 Epicentro: LOS SANTOS - SANTANDER                                             3
 ACTION:UP  12-02-03 08:13 OP:REBC STATUS:               ID:20120103075349 L   I
 2012-01-03-0750-00M.COL___184                                                 6
 STAT SP IPHASW D HRMM SECON CODA AMPLIT PERI AZIMU VELO SNR AR TRES W  DIS CAZ7
 BAR2 SZ EP        754  7.65                             171    -0.110   20 191 
 BAR2 SZ ES   2    754 21.66                             171    -0.4 5   20 191 
 BRR  HZ EP        754  9.64                             150     0.110   73 301 
 BRR  HZ I         754 10.00         4.6 0.14                            73 301 
 BRR  HN ES   1    754 25.32                             150     0.0 7   73 301 
 PAM  SZ EP        754 10.89                             148     0.110   80  38 
 RUS  HZ EP        754 11.80                             143    -0.110   97 176 
 RUS  HN ES   2    754 30.26                             143     0.7 5   97 176 
 RUS  HZ I         754 32.06         0.8 0.36                            97 176 
                                                                                
