 2015 12 3 0923 18.9 L   6.776 -73.181152.0  RSN  5 0.5 1.5LRSN                1
 GAP=240        1.03       6.6     7.4  9.5  0.2563E+02 -0.3986E+01 -0.1298E+02E
 Epicentro: LOS SANTOS - SANTANDER                                             3
 ACTION:UPD 16-02-04 15:02 OP:cam  STATUS:               ID:20151203092318 L   I
 OLDACT:UP  15-12-03 19:40 OP:mh   STATUS:               ID:20151203091740     3
 OLDACT:REG 15-12-03 12:58 OP:mh   STATUS:               ID:20151203091740     3
 2015-12-03-0917-40M.COL___311                                                 6
 STAT SP IPHASW D HRMM SECON CODA AMPLIT PERI AZIMU VELO AIN AR TRES W  DIS CAZ7
 RUS  HZ EP        923 43.02                             146   -0.1210 98.3 174 
 RUS  HN ES        924  2.26                             146    0.2310 98.3 174 
 RUS  HZ I         924  3.17         2.1 0.46            144           98.3 174 
 PTB  HZ EP   1    923 45.69                             134   -0.35 7  143 260 
 PTB  HN ES        924  6.66                             134   -0.52 9  143 260 
 PTB  HZ I         924  8.80         3.2 0.40            131            143 260 
 SPBC HZ EP        923 46.68                             131   -0.82 9  159 218 
 SPBC HN ES        924 10.18                             131    0.39 9  159 218 
 SPBC HZ I         924 14.50         4.8 0.44            128            159 218 
 ZAR  HZ EP        923 52.05                             124    0.52 9  202 293 
 ZAR  HN ES        924 17.28                             124    0.32 9  202 293 
 ZAR  HZ I         924 22.21         3.2 0.36            123            202 293 
 PRA  HZ EP        924 12.73                             108    0.54 6  388 209 
 PRA  HN ES        924 53.99                             108    0.26 6  388 209 
 PRA  HZ I         925  1.39         2.0 0.28            107            388 209 
                                                                                
