 2016  6 3 0421 42.2 L   6.811 -73.143148.9  RSN 21 0.5 2.5LRSN                1
 GAP= 71        1.05       2.7     2.9  4.5 -0.2035E+01  0.3437E+01  0.1417E+01E
 Epicentro: LOS SANTOS - SANTANDER                                             3
 ACTION:UPD 16-07-21 22:14 OP:rebc STATUS:               ID:20160603042142 L   I
 OLDACT:UP  16-06-03 16:04 OP:edw  STATUS:               ID:20160603041745     3
 OLDACT:UP  16-06-03 15:57 OP:edw  STATUS:               ID:20160603041745     3
 OLDACT:REG 16-06-03 11:57 OP:edw  STATUS:               ID:20160603041745     3
 2016-06-03-0417-45M.COL___319                                                 6
 STAT SP IPHASW D HRMM SECON CODA AMPLIT PERI AZIMU VELO AIN AR TRES W  DIS CAZ7
 BAR2 EZ EP     C  422  2.12                             170   -0.0810 24.6 190 
 BAR2 EZ ES        422 17.38                             170   -0.4510 24.6 190 
 BAR2 EZ I         422 20.15        68.2 0.30                          24.6 190 
 BRR  HZ EP     C  422  4.05                             153    0.4110 70.8 298 
 BRR  HN ES        422 21.27                             153    0.8810 70.8 298 
 BRR  HZ I         422 22.02        53.6 0.32                          70.8 298 
 PAM  EZ EP     D  422  4.95                             152    0.2910 76.3  40 
 PAM  EN ES        422 22.13                             152   -0.0710 76.3  40 
 PAM  EZ I         422 24.41        38.2 0.44                          76.3  40 
 RUS  HZ EP        422  5.91                             144   -0.4110  102 176 
 RUS  HE ES        422 24.97                             144   -0.1810  102 176 
 RUS  HZ I         422 26.32        23.6 0.44                           102 176 
 PTB  HZ EP        422  9.01                             133   -0.43 9  148 258 
 PTB  HN ES        422 30.11                             133   -0.60 9  148 258 
 TAM  HZ EP     D  422 10.13                             131    0.03 9  155 105 
 TAM  HE ES        422 32.18                             131    0.29 9  155 105 
 OCA  HZ EP        422 10.41                             130   -0.21 9  159 353 
 OCA  HN ES        422 33.01                             130    0.21 9  159 353 
 OCA  HZ I         422 37.22        67.7 0.24                           159 353 
 SPBC HZ EP        422 10.99                             130   -0.02 9  164 219 
 SPBC HE ES        422 33.29                             130   -0.23 9  164 219 
 SPBC HZ I         422 37.47        60.1 0.10                           164 219 
 NOR  HZ EP        422 17.99                             119   -0.19 8  236 234 
 NOR  HN ES        422 45.95                             119   -0.32 8  236 234 
 NOR  HZ I         422 51.42        31.0 0.50                           236 234 
 CHI  HZ EP        422 19.98                             118   -0.20 8  250 195 
 CHI  HE ES        422 49.17                             118   -0.65 8  250 195 
 CHI  HZ I         422 55.12        11.1 0.74                           250 195 
 ROSC BZ EP        422 21.27                             117    0.68 8  254 211 
 ROSC BN ES        422 51.51                             117    0.95 8  254 211 
 ROSC BZ I         422 59.80        34.1 0.45                           254 211 
 HEL  HZ EP        422 23.57                             115    0.97 8  273 256 
 HEL  HE ES        422 54.43                             115    0.29 8  273 256 
 HEL  HZ I         423  0.75        16.4 0.32                           273 256 
 URE  HZ EP   4    422 22.11                             114   -1.26 0  284 292 
 URE  HE ES   4    422 53.45                             114   -2.05 0  284 292 
 PTGC HZ EP   4    422 24.90                             112   -1.38 0  310 159 
 PTGC HN ES   4    422 55.69                             112   -5.01 0  310 159 
 LL6C HZ EP        422 27.51                             111   -0.36 7  324 358 
 LL6C HN ES   4    423  2.48                             111   -1.03 0  324 358 
 ELA  HZ EP        422 28.48                             111   -0.79 7  330 229 
 ELA  HN ES        423  5.44                             111   -0.56 7  330 229 
 ELA  HZ I         423 14.77        11.5 0.70                           330 229 
 CBOC HZ EP        422 29.83                             110    0.54 7  334 252 
 CBOC HN ES        423  6.13                             110    0.09 7  334 252 
 CBOC HZ I         423 11.30         5.9 0.22                           334 252 
 DBB  SZ EP        422 29.68                             110   -0.11 7  340 274 
 DBB  SZ ES        423  6.04                             110   -0.90 7  340 274 
 DBB  SZ I         423  8.69        42.8 0.46                           340 274 
 ANIL HZ EP        422 32.94                             109    0.72 6  358 224 
 ANIL HN ES        423 11.92                             109    0.67 6  358 224 
 ANIL HZ I         423 22.06        31.9 0.32                           358 224 
 PRA  HZ EP        422 35.60                             107   -0.34 6  393 210 
 PRA  HE ES        423 17.98                             107    0.10 6  393 210 
 PRA  HZ I         423 24.39        10.5 0.26                           393 210 
 ORTC HZ EP        422 36.47                             107    0.14 6  397 216 
 ORTC HN ES        423 19.00                             107    0.43 6  397 216 
 ORTC HZ I         423 25.81         9.5 0.50                           397 216 
 SJC  HZ EP   4    422 36.46                             106   -1.27 0  408 327 
 SJC  HN ES   4    423 17.59                             106   -3.48 0  408 327 
 SJC  HZ I         423 22.18         4.1 0.42                           408 327 
 CRJC HZ EP        422 43.95                             104   -0.66 5  466   4 
 CRJC HE ES   4    423 30.97                             104   -2.34 0  466   4 
                                                                                
