 2014  5 3 0723 44.3 L   7.392 -73.470114.0  RSN  5 0.7 1.3LRSN                1
 GAP=135        1.26       5.9     6.1 17.4 -0.5651E+01  0.5516E+02 -0.1561E+02E
 Epicentro: SABANA DE TORRES - SANTANDER                                       3
 OLDACT:REG 14-05-03 13:36 OP:fm   STATUS:               ID:20140503071814     3
 ACTION:UPD 15-03-16 16:54 OP:nd   STATUS:               ID:20140503072344 L   I
 OLDACT:UP  14-05-03 17:37 OP:fm   STATUS:               ID:20140503071814     3
 2014-05-03-0718-14M.COL___242                                                 6
 STAT SP IPHASW D HRMM SECON CODA AMPLIT PERI AZIMU VELO AIN AR TRES W  DIS CAZ7
 PAM  SZ EP   1    724  4.15                             141    0.28 7 85.3  94 
 PAM  SN ES        724 19.31                             141    0.2010 85.3  94 
 PAM  SZ I         724 21.76         3.2 0.58            152           85.3  94 
 OCA  HN ES   2    724 18.47                             137   -1.21 5 95.1  10 
 PTB  HZ EP   1    724  8.49                             125   -0.06 7  144 229 
 PTB  HN ES        724 27.02                             125   -0.42 9  144 229 
 PTB  SZ I         724 33.40         4.5 3.82            130            144 229 
 ZAR  HZ EP   1    724 10.37                             123    0.86 7  154 274 
 ZAR  HN ES   1    724 29.64                             123    0.49 7  154 274 
 ZAR  SZ I         724 34.33         3.1 0.20            128            154 274 
 SML  HZ EP   1    724  9.79                             120   -1.35 7  169 337 
 SML  HN ES        724 32.43                             120    0.39 9  169 337 
 SML  SZ I         724 35.78         3.1 0.06            127            169 337 
                                                                                
