 2010 11 3 0337 47.4 L   6.784 -73.087142.4  RSN 10 0.4 2.0LRSN                1
 GAP=165        0.76       4.8     9.2  8.4 -0.1089E+02  0.7324E+01 -0.5928E+01E
 Epicentro: LOS SANTOS - SANTANDER                                             3
 ACTION:UP  10-12-17 16:50 OP:REBC STATUS:               ID:20101103033747 L   I
 2010-11-03-0333-48S.COL___128                                                 6
 STAT SP IPHASW D HRMM SECON CODA AMPLIT PERI AZIMU VELO SNR AR TRES W  DIS CAZ7
 BAR2 SZ EP        338  6.53                             170    -0.110   24 207 
 BAR2 SZ ES   2    338 21.96                             170     0.3 5   24 207 
 BAR2 SZ I         338 22.44        30.6 0.22                            24 207 
 BTL  SZ EP   1    338  7.23                             170     0.6 7   25 307 
 GIR2 SZ EP   1    338  6.75                             166     0.0 7   35 340 
 BRR  HZ EP        338  8.47                             150    -0.110   78 297 
 BRR  HZ I         338 10.53        35.9 0.18                            78 297 
 BRR  HE ES   2    338 25.27                             150     0.2 5   78 297 
 RUS  HZ EP   2    338 10.41                             144    -0.3 5   99 180 
 RUS  HE ES   2    338 28.25                             144    -0.6 5   99 180 
 RUS  HZ I         338 30.51        11.6 0.36                            99 180 
 GRA  SZ EP        338 12.57                             136     0.210  126  14 
 GRA  SZ ES   2    338 32.25                             136     0.5 5  126  14 
 GRA  SZ I         338 37.10        10.0 0.30                           126  14 
 OCA  SZ EP   1    338 15.19                             128    -0.5 7  163 351 
 OCA  SZ ES   2    338 36.93                             128    -0.8 5  163 351 
 OCA  SZ I         338 44.56        13.2 0.22                           163 351 
 NOR  SZ EP   2    338 23.34                             117    -0.1 4  239 236 
 HEL  HZ EP   2    338 28.90                             114     0.8 4  278 256 
 HEL  HZ I         339  6.11         6.4 0.34                           278 256 
 PRA  HZ EP   2    338 41.29                             106     0.3 3  394 211 
                                                                                
