 2016 11 3 0413 18.7 L   6.831 -73.118150.8  RSN  5 0.3 1.1LRSN                1
 GAP=138        0.76       4.2     4.1  5.6 -0.1777E+01  0.2685E+01  0.1238E+01E
 Epicentro: LOS SANTOS - SANTANDER                                             3
 ACTION:UPD 17-10-26 21:04 OP:lp   STATUS:               ID:20161103041318 L   I
 OLDACT:UP  16-11-03 14:19 OP:dani STATUS:               ID:20161103040744d    3
 OLDACT:UP  16-11-03 14:17 OP:dani STATUS:               ID:20161103040744d    3
 OLDACT:UP  16-11-03 14:16 OP:dani STATUS:               ID:20161103040744d    3
 OLDACT:UP  16-11-03 14:15 OP:dani STATUS:               ID:20161103040744d    3
 OLDACT:DUP 16-11-03 14:13 OP:dani STATUS:               ID:20161103040744d    3
 OLDACT:REG 16-11-03 12:23 OP:dani STATUS:               ID:20161103040743     3
 2016-11-03-0408-00M.COL___337                                                 6
 STAT SP IPHASW D HRMM SECON CODA AMPLIT PERI AZIMU VELO AIN AR TRES W  DIS CAZ7
 BAR2 EZ EP        413 38.93                             169   -0.1010 27.4 195 
 BAR2 EZ ES        413 54.64                             169   -0.2310 27.4 195 
 BAR2 EZ I         413 55.24         2.5 0.21            171           27.4 195 
 BRR  HZ EP        413 40.63                             153    0.1710 72.3 295 
 BRR  HN ES        413 57.87                             153    0.4410 72.3 295 
 BRR  HZ I         414  5.10         2.2 0.33            152           72.3 295 
 PAM  EZ EP        413 41.47                             153    0.2710 72.8  39 
 PAM  EN ES        413 58.41                             153   -0.3310 72.8  39 
 PAM  EZ I         414  0.64         3.2 0.56            155           72.8  39 
 RUS  HZ EP        413 43.39                             144    0.2010  104 178 
 RUS  HN ES        414  2.42                             144    0.1410  104 178 
 RUS  HZ I         414  3.40         2.1 0.32            149            104 178 
 PTB  HZ EP        413 45.89                             132   -0.53 9  151 258 
 PTB  HN ES        414  7.92                             132   -0.11 9  151 258 
 PTB  HZ I         414  9.57         1.3 0.18            134            151 258 
                                                                                
