 2014 12 3 0616 56.8 L   6.810 -73.157144.4  RSN 27 0.5 2.5LRSN                1
 GAP= 70        1.08       2.3     2.6  4.4 -0.8397E+00  0.3059E+01  0.9111E+00E
 Epicentro: LOS SANTOS - SANTANDER                                             3
 ACTION:UPD 15-02-10 17:00 OP:nd   STATUS:               ID:20141203061656 L   I
 OLDACT:REG 14-12-03 12:54 OP:fm   STATUS:               ID:20141203060744     3
 2014-12-03-0607-44M.COL___303                                                 6
 STAT SP IPHASW D HRMM SECON CODA AMPLIT PERI AZIMU VELO AIN AR TRES W  DIS CAZ7
 BAR2 SZ EP     C  617 16.60                             170    0.3010 24.2 187 
 BAR2 SZ ES        617 31.64                             170    0.1510 24.2 187 
 BAR2 SZ I         617 33.21       183.2 0.30            169           24.2 187 
 BRR  HZ IP     C  617 18.43                             153    0.7110 69.6 298 
 BRR  HE ES        617 34.34                             153    0.3110 69.6 298 
 BRR  HZ I         617 39.50        56.3 0.18            151           69.6 298 
 PAM  SZ EP        617 19.36                             150    0.4810 77.4  41 
 PAM  SN ES        617 36.34                             150    0.2410 77.4  41 
 PAM  SZ I         617 38.84        56.1 0.44            153           77.4  41 
 RUS  HZ EP        617 20.54                             143    0.0310  102 175 
 RUS  HE ES        617 38.30                             143   -0.7010  102 175 
 RUS  HZ I         617 40.36        37.1 0.42            145            102 175 
 PTB  HZ EP        617 23.38                             132   -0.20 9  147 258 
 PTB  HE ES        617 44.12                             132   -0.33 9  147 258 
 PTB  HZ I         617 46.27        35.1 0.24            131            147 258 
 TAM  HZ IP     D  617 24.89                             130    0.37 9  157 105 
 TAM  HE ES        617 45.81                             130   -0.32 9  157 105 
 TAM  HZ I         617 47.18        17.2 0.26            133            157 105 
 OCA  HZ EP        617 24.63                             129   -0.27 9  159 354 
 OCA  HN ES        617 46.72                             129   -0.09 9  159 354 
 OCA  HZ I         617 53.55        36.7 0.40            130            159 354 
 SPBC HZ EP        617 25.49                             129    0.28 9  163 218 
 SPBC HN ES        617 46.97                             129   -0.39 9  163 218 
 SPBC HZ I         617 52.17        75.0 0.40            129            163 218 
 ZAR  HZ EP        617 29.01                             122    0.00 9  202 292 
 ZAR  HN ES        617 54.13                             122    0.01 9  202 292 
 ZAR  HZ I         618  1.01        33.5 0.26            122            202 292 
 NOR  HZ EP        617 32.43                             118    0.01 8  234 234 
 NOR  HE ES        618  0.18                             118   -0.01 8  234 234 
 NOR  HZ I         618  5.08        23.3 0.18            119            234 234 
 CHI  HZ EP        617 34.63                             117    0.12 8  249 195 
 CHI  HN ES        618  3.59                             117   -0.33 8  249 195 
 CHI  HZ I         618  7.46        20.1 0.54            118            249 195 
 ROSC BZ EP        617 35.09                             116    0.20 8  253 211 
 ROSC BN ES        618  3.82                             116   -0.77 8  253 211 
 ROSC BZ I         618 14.28        54.7 0.35            117            253 211 
 HEL  HZ EP        617 37.67                             114    0.82 8  271 256 
 HEL  HE ES        618  7.21                             114   -0.87 8  271 256 
 HEL  HZ I         618 14.58        15.8 0.32            115            271 256 
 URE  HZ EP   4    617 35.77                             113   -1.87 0  282 292 
 URE  HN ES   4    618  5.96                             113   -3.53 0  282 292 
 URE  HZ I         618 19.02        20.9 0.22            114            282 292 
 GUY2CHZ EP        617 41.42                             112    1.11 7  301 234 
 GUY2CHN ES        618 15.20                             112    0.96 7  301 234 
 GUY2CHZ I         618 19.68        15.6 0.26                           301 234 
 VIL  SZ EP        617 40.01                             112   -0.25 7  304 191 
 VIL  SE ES        618 13.64                             112   -0.51 7  304 191 
 VIL  SZ I         618 24.10        32.5 0.48            113            304 191 
 PTGC HZ EP   4 D  617 39.56                             111   -1.21 0  310 159 
 PTGC HN ES   4    618 12.59                             111   -2.47 0  310 159 
 PTGC HZ I         618 17.40        10.1 0.30            113            310 159 
 CBOC HZ EP        617 44.36                             110    0.79 7  333 252 
 CBOC HE ES        618 21.00                             110    0.96 7  333 252 
 CBOC HZ I         618 24.82         4.0 0.60            110            333 252 
 DBB  SZ ES   1    618 20.63                             109   -0.32 5  338 274 
 DBB  SZ I         618 22.23        35.8 0.30            110            338 274 
 TOL  SZ EP        617 45.06                             109    0.06 7  343 224 
 TOL  SN ES        618 22.72                             109    0.13 7  343 224 
 TOL  SZ I         618 31.43        35.0 0.54            110            343 224 
 MON  HZ EP        617 45.33                             108   -0.24 6  352 308 
 MON  HE ES        618 22.62                             108   -0.98 6  352 308 
 MON  HZ I         618 26.14         5.0 0.30            109            352 308 
 ANIL HN ES        618 25.83                             108    0.48 6  357 224 
 ANIL HZ I         618 30.37         6.0 0.38            109            357 224 
 ARGC HZ EP        617 45.72                             108   -0.53 6  358 340 
 ARGC HN ES        618 23.94                             108   -0.87 6  358 340 
 ARGC HZ I         618 35.06        10.4 0.40            109            358 340 
 SDV  BZ EP        617 46.03                             108   -0.80 6  361  50 
 SDV  BE ES   4    618 22.99                             108   -2.86 0  361  50 
 SDV  BZ I         618 26.55         3.9 0.30            109            361  50 
 ORTC HZ EP        617 50.08                             106   -0.62 6  396 216 
 ORTC HN ES        618 32.38                             106   -0.35 6  396 216 
 ORTC HZ I         618 39.77         9.1 0.40            107            396 216 
 PAL  HZ EP        617 51.47                             106   -0.40 6  405 239 
 PAL  HE ES   4    618 33.08                             106   -1.73 0  405 239 
 PAL  HZ I         618 43.41         5.6 0.44            106            405 239 
 SJC  HZ EP   4    617 50.46                             105   -1.68 0  408 327 
 SJC  HN ES   4    618 30.78                             105   -4.52 0  408 327 
 SJC  HZ I         618 39.08         7.8 0.24            106            408 327 
 MACC HE ES   4    618 54.24                             101   -5.00 0  521 188 
                                                                                
