 2011 12 3 0426 42.6 L   6.786 -73.096150.1  RSN  4 0.1 1.5LRSN                1
 GAP=144        0.34       3.6     6.5  4.0  0.1486E+02  0.1742E+01  0.3584E+01E
 Epicentro: LOS SANTOS - SANTANDER                                             3
 ACTION:UPD 12-07-13 16:13 OP:ep   STATUS:               ID:20111203042642 L   I
 2011-12-03-0420-00M.COL___182                                                 6
 STAT SP IPHASW D HRMM SECON CODA AMPLIT PERI AZIMU VELO AIN AR TRES W  DIS CAZ7
 GIR2 SZ ES   1    427 18.75                             166    0.12 7 34.1 342 
 PAM  SE ES   3    427 22.22                             152   -0.49 2 75.3  36 
 BRR  HZ EP        427  4.49                             151    0.0010 76.7 298 
 BRR  HN ES   1    427 21.53                             151   -0.06 7 76.7 298 
 BRR  HZ I         427 29.69         5.5 0.34                          76.7 298 
 RUS  HZ EP        427  6.66                             145    0.0410 98.8 179 
 RUS  HE ES   1    427 25.30                             145   -0.08 7 98.8 179 
                                                                                
