 2011  9 3 0227 30.7 L   6.770 -73.137145.4  RSN 12 0.3 2.1LRSN                1
 GAP=139        0.55       2.8     3.8  4.1 -0.5096E+00  0.3707E+01  0.2096E+01E
 Epicentro: LOS SANTOS - SANTANDER                                             3
 ACTION:UPD 12-07-13 15:55 OP:ep   STATUS:               ID:20110903022730 L   I
 2011-09-03-0222-10S.COL___171                                                 6
 STAT SP IPHASW D HRMM SECON CODA AMPLIT PERI AZIMU VELO AIN AR TRES W  DIS CAZ7
 BAR2 SZ IP        227 50.26                             172    0.0010 20.3 194 
 BAR2 SZ I         227 50.84        32.9 0.43                          20.3 194 
 BAR2 SZ ES   1    228  4.93                             172   -0.56 7 20.3 194 
 GIR2 SZ EP   1    227 50.35                             166   -0.10 7 34.7 350 
 GIR2 SZ ES   2    228  6.52                             166    0.68 5 34.7 350 
 BRR  HZ IP     C  227 52.04                             152    0.0610 73.6 300 
 BRR  HE ES   1    228  9.13                             152    0.58 7 73.6 300 
 BRR  HZ I         228 12.86        41.0 0.22                          73.6 300 
 PAM  SZ EP   1    227 53.11                             150    0.08 7 79.4  38 
 PAM  SN ES   2    228 10.03                             150   -0.39 5 79.4  38 
 RUS  HZ EP   1    227 54.28                             145    0.08 7 97.2 176 
 RUS  HN ES   2    228 12.60                             145    0.09 5 97.2 176 
 RUS  HZ I         228 13.83         8.8 0.22                          97.2 176 
 OCA  SZ EP   1    227 59.22                             129   -0.11 7  164 353 
 OCA  SZ ES   2    228 21.49                             129   -0.15 5  164 353 
 OCA  SZ I         228 29.09        16.4 0.34                           164 353 
 ZAR  HZ EP   1    228  2.92                             122   -0.45 6  206 293 
 ZAR  HN ES   2    228 28.63                             122   -0.20 4  206 293 
 ZAR  HZ I         228 33.46        21.9 0.58                           206 293 
 NOR  SZ EP   2    228  6.64                             118    0.33 4  234 235 
 NOR  SN ES   2    228 33.55                             118   -0.52 4  234 235 
 CHI  HZ EP   1    228  8.49                             117    0.41 6  246 196 
 CHI  HN ES   2    228 36.86                             117   -0.36 4  246 196 
 CHI  HZ I         228 40.30         9.9 0.42                           246 196 
 HEL  HZ EP   2    228 10.69                             115   -0.24 4  272 257 
 HEL  HN ES   2    228 42.20                             115   -0.09 4  272 257 
 HEL  HZ I         228 49.83         6.7 0.57                           272 257 
 RREF HZ EP   2    228 16.70                             111    0.01 3  320 230 
 RREF HZ I         228 59.74         5.8 0.40                           320 230 
 PRA  HZ EP   1    228 24.39                             107    0.44 4  390 210 
                                                                                
