 2010  2 3 0916 11.3 L   6.820 -73.136153.4  RSN 11 0.4 3.1LRSN                1
 GAP=126        0.92       4.4     5.7  6.7 -0.5048E+01  0.1400E+02 -0.3507E+01E
 Epicentro: LOS SANTOS - SANTANDER                                             3
 ACTION:UP  10-08-24 09:47 OP:vdl  STATUS:               ID:20100203091611 L   I
 2010-02-03-0914-31S.COL___097                                                 6
 STAT SP IPHASW D HRMM SECON CODA AMPLIT PERI AZIMU VELO SNR AR TRES W  DIS CAZ7
 BAR2 SZ IP        916 31.89                             170     0.010   26 192 
 BAR2 SZ ES   1    916 47.98                             170     0.1 7   26 192 
 GIR2 SZ IP        916 31.99                             168     0.210   29 347 
 GIR2 SZ ES   2    916 47.61                             168    -0.2 5   29 347 
 RUS  BZ IP        916 35.73                             145    -0.210  103 177 
 RUS  BE ES   2    916 54.93                             145    -0.2 5  103 177 
 RUS  BZ I         916 55.72       111.6 0.33                           103 177 
 OCA  SZ EP        916 40.34                             132     0.4 9  158 353 
 OCA  SZ I         917 10.23       179.8 0.16                           158 353 
 CHI  HZ EP        916 49.73                             118     0.1 8  251 195 
 CHI  HE ES   1    917 19.04                             118    -0.6 6  251 195 
 CHI  HZ I         917 25.21        60.1 0.35                           251 195 
 HEL  HZ EP        916 52.61                             116     0.6 8  274 255 
 HEL  HE ES   2    917 24.09                             116     0.2 4  274 255 
 HEL  HZ I         917 30.42        85.8 0.40                           274 255 
 RREF BZ EP        916 57.88                             112    -0.1 7  324 229 
 RREF BE ES   2    917 35.18                             112     0.7 3  324 229 
 RREF BZ I         917 43.63       131.3 0.34                           324 229 
 DBB  SZ IP        916 59.64                             111     0.5 7  340 274 
 DBB  SZ ES   1    917 36.09                             111    -0.4 5  340 274 
 MON  HZ EP        916 59.09                             110    -1.4 6  352 308 
 MON  HZ I         917 44.05        21.0 0.55                           352 308 
 SDV  BZ IP        917  1.29                             110    -0.1 6  358  50 
 SDV  BZ I         917  2.25        50.7 0.16                           358  50 
 PRA  HZ EP        917  5.20                             108    -0.1 6  394 210 
 PRA  HE ES   2    917 47.62                             108     0.1 3  394 210 
 PRA  HZ I         917 53.06        79.1 0.26                           394 210 
                                                                                
