 2010 10 3 0519 13.9 L   6.776 -73.033147.5  RSN  4 0.1 1.7LRSN                1
 GAP=247        0.44       4.5     8.3  5.3  0.2545E+02 -0.1104E+02 -0.4878E+01E
 Epicentro: CEPITA - SANTANDER                                                 3
 ACTION:UP  11-02-18 11:07 OP:tino STATUS:               ID:20101003051913 L   I
 2010-10-03-0516-44S.COL___123                                                 6
 STAT SP IPHASW D HRMM SECON CODA AMPLIT PERI AZIMU VELO SNR AR TRES W  DIS CAZ7
 BAR2 SZ EP        519 33.90                             169     0.110   26 219 
 BAR2 SZ ES   1    519 49.12                             169    -0.2 7   26 219 
 BAR2 SZ I         519 50.87        14.4 0.76                            26 219 
 BRR  HZ IP     C  519 35.79                             149    -0.110   84 296 
 BRR  HZ I         519 36.07        24.8 0.90                            84 296 
 BRR  HN ES        519 53.23                             149     0.110   84 296 
 RUS  HN ES   1    519 56.11                             145     0.0 7   98 183 
 RUS  HZ I         519 58.01         4.8 0.31                            98 183 
 CHI  HZ I         519 52.91         2.2 0.53                           250 198 
 CHI  HE ES   2    520 21.29                             117     0.0 4  250 198 
                                                                                
