 2016  6 3 0726  2.8 L   6.794 -73.078150.0  RSN  8 0.2 1.8LRSN                1
 GAP=146        0.63       2.1     4.2  3.7 -0.3065E+01  0.2305E+01 -0.9990E-02E
 Epicentro: LOS SANTOS - SANTANDER                                             3
 ACTION:UPD 16-07-21 22:14 OP:rebc STATUS:               ID:20160603072602 L   I
 OLDACT:REG 16-06-03 12:32 OP:edw  STATUS:               ID:20160603071740     3
 2016-06-03-0717-40M.COL___319                                                 6
 STAT SP IPHASW D HRMM SECON CODA AMPLIT PERI AZIMU VELO AIN AR TRES W  DIS CAZ7
 BAR2 EZ EP     C  726 22.98                             170    0.0510 25.1 207 
 BAR2 EZ ES        726 38.04                             170   -0.6310 25.1 207 
 BAR2 EZ I         726 39.32        13.5 0.20                          25.1 207 
 PAM  EZ EP        726 25.26                             153    0.0610 73.4  35 
 PAM  EN ES        726 42.99                             153    0.2910 73.4  35 
 PAM  EZ I         726 43.92         7.4 0.18                          73.4  35 
 BRR  HZ EP        726 24.74                             151   -0.0210 78.1 296 
 BRR  HN ES        726 42.25                             151    0.3310 78.1 296 
 RUS  HZ EP        726 26.89                             145    0.0310 99.7 180 
 RUS  HN ES        726 45.82                             145    0.1610 99.7 180 
 RUS  HZ I         726 46.77         3.9 0.22                          99.7 180 
 PTB  HZ EP   4    726 30.00                             131   -0.72 0  155 260 
 PTB  HN ES   4    726 51.18                             131   -1.36 0  155 260 
 PTB  HZ I         726 52.95         9.5 0.38                           155 260 
 OCA  HZ IPg       726 31.58                             130    0.02 9  162 351 
 OCA  HZ EP        726 31.59                             130    0.03 9  162 351 
 OCA  HN ES        726 53.75                             130   -0.27 9  162 351 
 SPBC HZ EP        726 31.80                             129   -0.19 9  167 221 
 SPBC HN ES        726 54.88                             129    0.09 9  167 221 
 SPBC HZ I         727  0.25        12.0 0.16                           167 221 
 PRA  HZ EP        726 56.54                             107   -0.26 6  395 211 
 PRA  HN ES        727 39.19                             107    0.24 6  395 211 
 PRA  HZ I         727 43.09         2.2 0.32                           395 211 
                                                                                
