 2016 11 3 0008  9.3 L   6.792 -73.116151.7  RSN  9 0.7 1.7LRSN                1
 GAP=141        1.56       5.9     6.8  8.8 -0.2381E+01  0.1551E+02  0.3093E+01E
 Epicentro: LOS SANTOS - SANTANDER                                             3
 ACTION:UPD 17-10-26 21:04 OP:lp   STATUS:               ID:20161103000809 L   I
 OLDACT:REG 16-11-03 12:05 OP:dani STATUS:               ID:20161103000004     3
 2016-11-03-0000-15M.COL___346                                                 6
 STAT SP IPHASW D HRMM SECON CODA AMPLIT PERI AZIMU VELO AIN AR TRES W  DIS CAZ7
 BAR2 EZ EP        0 8 29.84                             171    0.1510 23.3 198 
 BAR2 EZ ES        0 8 45.06                             171   -0.5010 23.3 198 
 BAR2 EZ I         0 8 47.50        15.0 0.24            169           23.3 198 
 BRR  HZ EP        0 8 31.78                             152    0.4610 74.5 298 
 BRR  HE ES        0 8 48.77                             152    0.3110 74.5 298 
 BRR  HZ I         0 8 52.29        11.7 0.35            151           74.5 298 
 PAM  EZ EP        0 8 32.72                             152    0.6010 76.0  37 
 PAM  EN ES        0 8 49.68                             152   -0.2010 76.0  37 
 PAM  EZ I         0 8 52.55         5.5 0.44            156           76.0  37 
 RUS  HZ EP        0 8 33.76                             145    0.1410 99.6 178 
 RUS  HN ES        0 8 52.81                             145    0.2710 99.6 178 
 RUS  HZ I         0 8 53.68         6.0 0.32            147           99.6 178 
 PTB  HZ EP        0 8 36.62                             133   -0.46 9  151 259 
 PTB  HN ES        0 8 58.66                             133   -0.05 9  151 259 
 PTB  HZ I         0 9  4.20         4.1 0.32            133            151 259 
 SPBC HZ EP        0 8 36.75                             130   -1.69 9  165 220 
 SPBC HN ES        0 9  1.06                             130   -0.07 9  165 220 
 SPBC HZ I         0 9  5.71         7.4 0.17            131            165 220 
 ZAR  HZ EP        0 8 43.67                             123    1.14 8  207 292 
 ZAR  HN ES        0 9  8.19                             123   -0.22 8  207 292 
 ZAR  HZ I         0 9 13.02         4.2 0.28            124            207 292 
 PRA  HZ EP        0 9  3.75                             107    0.57 6  393 210 
 PRA  HN ES        0 9 45.96                             107    0.78 6  393 210 
 PRA  HZ I         0 9 51.98         3.4 0.42            109            393 210 
 SJC  HZ EP        0 9  3.86                             106   -1.54 6  412 327 
                                                                                
