 2010 12 3 0027 21.9 L   6.769 -73.074143.3  RSN 17 0.4 3.3LRSN                1
 GAP=125        0.91       3.5     5.1  5.7 -0.8874E+01 -0.6845E+00  0.7141E+01E
 Epicentro: LOS SANTOS - SANTANDER                                             3
 ACTION:UP  11-01-14 15:22 OP:pat  STATUS:               ID:20101203002721 L   I
 2010-12-03-0025-48S.COL___132                                                 6
 STAT SP IPHASW D HRMM SECON CODA AMPLIT PERI AZIMU VELO SNR AR TRES W  DIS CAZ7
 BAR2 SZ IP        027 41.31                             170     0.110   23 212 
 BAR2 SZ ES   1    027 55.92                             170    -0.3 7   23 212 
 BAR2 SZ I         027 58.32       353.8 0.23                            23 212 
 GIR2 SZ IP        027 41.46                             165     0.110   37 339 
 BRR  HZ IP     C  027 43.27                             149     0.010   80 298 
 BRR  HN ES   1    028  0.15                             149     0.2 7   80 298 
 BRR  HZ I         028  1.41       505.2 0.13                            80 298 
 GUE  SZ EP        027 46.67                             138     0.210  119   8 
 GRA  SZ IP        027 47.37                             136     0.410  127  14 
 GRA  SZ ES   1    028  7.17                             136     0.6 7  127  14 
 GRA  SZ I         028  7.89       476.4 0.33                           127  14 
 OCA  SZ IP     C  027 50.00                             128    -0.4 9  165 351 
 OCA  SZ ES   1    028 11.80                             128    -0.9 7  165 351 
 OCA  SZ I         028 15.19       510.8 0.35                           165 351 
 NOR  SZ EP        027 57.90                             117    -0.1 8  239 236 
 NOR  SE ES   2    028 25.35                             117    -0.8 4  239 236 
 CHI  HZ EP        027 59.54                             117     0.2 8  248 197 
 CHI  HE ES   1    028 28.12                             117    -0.4 6  248 197 
 CHI  HZ I         028 32.98        45.8 0.30                           248 197 
 HEL  HZ EP        028  2.63                             114    -0.1 7  279 257 
 HEL  HN ES   2    028 34.06                             114    -0.5 4  279 257 
 HEL  HZ I         028 40.34        69.3 0.16                           279 257 
 VIL  SZ EP        028  4.96                             112     0.2 7  300 191 
 VIL  SE ES   2    028 38.42                             112     0.2 4  300 191 
 VIL  SZ I         028 44.69        48.6 0.60                           300 191 
 GUY  SZ EP        028  6.55                             111     0.7 7  306 236 
 GUY  SE ES   1    028 40.68                             111     0.4 5  306 236 
 GUY  SZ I         028 51.23        88.1 0.39                           306 236 
 RREF HZ EP        028  8.48                             110     0.1 7  326 231 
 RREF HE ES   1    028 44.34                             110    -0.3 5  326 231 
 RREF HZ I         028 48.46        47.6 0.33                           326 231 
 TOL  SZ EP        028 11.02                             109     0.6 6  347 226 
 DBB  SZ EP        028 10.09                             108    -0.1 6  348 275 
 SDV  BZ EP        028 10.93                             108    -0.4 6  357  49 
 SDV  BZ I         028 12.00        41.9 0.18                           357  49 
 PRA  HZ EP        028 14.77                             106    -0.7 6  393 211 
 PRA  HZ I         029  0.17       184.3 0.25                           393 211 
 GUA  SZ EP        028 23.44                             103    -1.0 5  470 174 
                                                                                
