 2013  2 3 0607 36.1 L   6.745 -73.148148.0  RSN  4 0.2 1.2LRSN                1
 GAP=233        0.46       4.3     5.2  5.2  0.1207E+02 -0.2165E+01  0.2369E+01E
 Epicentro: JORDAN - SANTANDER                                                 3
 ACTION:UPD 13-03-12 09:30 OP:ep   STATUS:               ID:20130203060736 L   I
 2013-02-03-0600-00M.COL___240                                                 6
 STAT SP IPHASW D HRMM SECON CODA AMPLIT PERI AZIMU VELO AIN AR TRES W  DIS CAZ7
 BRR  HZ EP        6 7 57.67                             152    0.0510 74.1 303 
 BRR  HN ES        6 8 14.50                             152    0.0710 74.1 303 
 BRR  HN I         6 8 18.21         6.7 0.17            152           74.1 303 
 RUS  HZ EP   1    6 7 59.42                             146   -0.19 7 94.5 176 
 RUS  HN ES   1    6 8 18.04                             146    0.06 7 94.5 176 
 RUS  HN I         6 8 18.88         1.8 0.39            149           94.5 176 
 PTB  HZ EP   1    6 8  2.76                             133   -0.34 7  146 261 
 PTB  HE ES   1    6 8 24.23                             133    0.04 7  146 261 
 PTB  HZ I         6 8 26.75         1.7 0.16            134            146 261 
 CHI  HZ EP   2    6 8 13.85                             118    0.61 4  243 195 
                                                                                
