 2010  4 3 0852  4.1 L   6.792 -73.012144.7  RSN  5 0.3 2.0LRSN                1
 GAP=210        0.55       3.4     8.7  6.4 -0.6714E+01 -0.6804E+01  0.4800E+01E
 Epicentro: CEPITA - SANTANDER                                                 3
 ACTION:UPD 10-08-24 09:57 OP:vdl  STATUS:               ID:20100403085204 L   I
 2010-04-03-0850-02S.COL___098                                                 6
 STAT SP IPHASW D HRMM SECON CODA AMPLIT PERI AZIMU VELO AIN AR TRES W  DIS CAZ7
 BAR2 SZ EP        852 23.99                             168     0.310   29 221 
 BAR2 SZ ES   2    852 38.90                             168    -0.2 5   29 221 
 BRR  HZ EP        852 26.03                             148     0.110   85 294 
 BRR  HZ I         852 26.30        25.1 0.14                            85 294 
 BRR  HN ES   2    852 43.33                             148     0.3 5   85 294 
 OCA  SZ EP        852 32.44                             129    -0.2 9  164 348 
 OCA  SZ ES   2    852 54.49                             129    -0.4 5  164 348 
 OCA  SZ I         852 59.80        11.3 0.26                           164 348 
 CHI  HZ EP        852 42.15                             117     0.0 8  252 198 
 CHI  HE ES   2    853 11.00                             117    -0.8 4  252 198 
 RREF BZ EP   2    852 51.67                             110     0.2 3  333 231 
 RREF BE ES   2    853 28.00                             110    -0.3 3  333 231 
 RREF BZ I         853 32.30         2.7 0.49                           333 231 
                                                                                
