 2010 12 3 0804 15.5 L   6.761 -73.095140.0  RSN 21 0.4 3.6LRSN                1
 GAP=159        0.80       3.1     4.7  4.9 -0.6912E+01  0.1263E+01  0.5485E+01E
 Epicentro: LOS SANTOS - SANTANDER                                             3
 ACTION:UP  11-01-14 15:22 OP:pat  STATUS:               ID:20101203080415 L   I
 2010-12-03-0802-34S.COL___133                                                 6
 STAT SP IPHASW D HRMM SECON CODA AMPLIT PERI AZIMU VELO SNR AR TRES W  DIS CAZ7
 BAR2 SZ IP        8 4 34.57                             171     0.210   21 208 
 BAR2 SZ ES   1    8 4 49.16                             171     0.0 7   21 208 
 BAR2 SZ I         8 4 50.63      1987.4 0.35                            21 208 
 GIR2 SZ IP        8 4 34.73                             165     0.110   37 343 
 GIR2 SZ ES   2    8 4 49.29                             165    -0.3 5   37 343 
 BRR  HZ IP     D  8 4 36.55                             149     0.110   78 299 
 BRR  HZ I         8 4 36.96      1150.7 0.07                            78 299 
 BRR  HE ES   1    8 4 53.01                             149     0.2 7   78 299 
 GUE  SZ EP        8 4 40.55                             137     0.610  120   9 
 GRA  SZ IP        8 4 40.61                             135     0.110  128  14 
 GRA  SZ I         8 4 41.95       656.5 0.26                           128  14 
 GRA  SZ ES   1    8 4 59.39                             135    -0.5 7  128  14 
 OCA  SZ IP        8 4 43.27                             127    -0.6 9  165 351 
 OCA  SZ ES   2    8 5  5.56                             127    -0.4 5  165 351 
 OCA  SZ I         8 5  9.14       764.0 0.19                           165 351 
 NOR  SZ EP        8 4 51.14                             117     0.0 8  237 236 
 NOR  SE ES   1    8 5 18.85                             117    -0.1 6  237 236 
 CHI  HZ EP        8 4 52.56                             116     0.0 8  246 197 
 CHI  HZ I         8 4 55.51       117.1 0.78                           246 197 
 CHI  HE ES   1    8 5 21.64                             116     0.1 6  246 197 
 HEL  HZ EP   1    8 4 56.58                             113     0.6 6  277 257 
 HEL  HN ES   1    8 5 26.59                             113    -0.9 6  277 257 
 HEL  HZ I         8 5 34.53       168.8 0.58                           277 257 
 VIL  SZ EP   2    8 4 58.19                             111     0.1 4  298 191 
 GUY  SZ EP   1    8 4 59.93                             111     0.8 5  304 236 
 GUY  SN ES   2    8 5 34.01                             111     0.9 4  304 236 
 GUY  SZ I         8 5 39.38       211.8 0.23                           304 236 
 RREF HZ EP        8 5  1.44                             110    -0.1 7  323 231 
 RREF HN ES   2    8 5 37.67                             110     0.1 3  323 231 
 RREF HZ I         8 5 47.51       150.0 0.15                           323 231 
 TOL  SZ EP   1    8 5  4.20                             108     0.5 5  344 226 
 DBB  SZ IP        8 5  3.13                             108    -0.3 6  345 275 
 PRA  HZ EP   1    8 5  8.19                             106    -0.5 4  391 211 
 PRA  HE ES   1    8 5 50.12                             106    -0.1 4  391 211 
 PRA  HZ I         8 5 56.00       435.8 0.16                           391 211 
 SJA  SZ EP        8 5  9.66                             105     0.1 6  397 194 
 SJA  SZ ES   2    8 5 50.96                             105    -0.7 3  397 194 
 GUA  SZ EP        8 5 16.98                             102    -0.9 5  469 174 
 HORQ SZ EP   1    8 5 26.42                             100     0.5 3  533 227 
 HORQ SZ I         8 6 26.35        13.7 0.80                           533 227 
 PCON HZ EP        8 5 35.55                              99    -0.2 3  612 217 
 PCON HZ I         8 6 49.70        14.6 0.21                           612 217 
 POP2 HZ EP   1    8 5 34.93                              99    -0.5 2  613 221 
 POP2 HZ I         8 5 39.85        18.3 0.18                           613 221 
 POP2 HN ES   1    8 6 38.20                              99     0.4 2  613 221 
 FLO2 HZ EP   1    8 5 37.75                              98    -0.6 2  639 206 
                                                                                
