 2015  1 3 0416  0.7 L   6.870 -73.345127.2  RSN  6 0.4 1.4LRSN                1
 GAP=149        0.94       3.7     8.1  7.0  0.9696E+01  0.9950E+01 -0.8561E+01E
 Epicentro: SAN VICENTE DE CHUCURI - SANTANDER                                 3
 ACTION:UPD 15-03-02 15:36 OP:nd   STATUS:               ID:20150103041600 L   I
 OLDACT:DUP 15-01-03 17:01 OP:stll STATUS:               ID:20150103040749d    3
 2015-01-03-0407-48M.COL___277                                                 6
 STAT SP IPHASW D HRMM SECON CODA AMPLIT PERI AZIMU VELO AIN AR TRES W  DIS CAZ7
 BAR2 EZ EP        416 18.60                             164    0.1610 35.6 150 
 BAR2 EZ ES        416 32.22                             164   -0.0710 35.6 150 
 BAR2 EZ I         416 32.99         5.9 0.20            151           35.6 150 
 BRR  HZ EP        416 18.99                             158    0.4010 48.3 303 
 BRR  HN ES        416 32.94                             158    0.3710 48.3 303 
 BRR  HZ I         416 34.08         4.7 0.40            135           48.3 303 
 RUS  HN ES        416 41.25                             136   -0.1910  112 165 
 PTB  HZ EP        416 23.77                             132   -0.5810  128 254 
 PTB  HZ I         416 45.59         2.7 0.42            114            128 254 
 OCA  HZ EP        416 26.91                             127    0.17 9  151   1 
 OCA  HN ES        416 46.52                             127   -0.55 9  151   1 
 OCA  HZ I         416 50.47         4.4 0.30            118            151   1 
 SML  HZ EP        416 35.14                             115    0.55 8  228 339 
 SML  HN ES        417  0.78                             115   -0.27 8  228 339 
 SML  HZ I         417 10.82         4.3 0.10            107            228 339 
                                                                                
