 2015 11 3 0446 39.1 L   6.805 -73.108148.0  RSN 11 0.4 1.7LRSN                1
 GAP=141        1.00       2.8     4.2  5.8 -0.7286E+00  0.7914E+01  0.1460E+01E
 Epicentro: LOS SANTOS - SANTANDER                                             3
 ACTION:UPD 15-12-28 16:08 OP:cam  STATUS:               ID:20151103044639 L   I
 OLDACT:UP  15-11-03 19:10 OP:ak   STATUS:               ID:20151103043739     3
 OLDACT:REG 15-11-03 13:58 OP:cara STATUS:               ID:20151103043739     3
 2015-11-03-0437-39M.COL___313                                                 6
 STAT SP IPHASW D HRMM SECON CODA AMPLIT PERI AZIMU VELO AIN AR TRES W  DIS CAZ7
 BAR2 EZ EP     D  446 59.15                             170    0.1110 24.9 199 
 BAR2 EZ ES        447 14.00                             170   -0.5810 24.9 199 
 BAR2 EZ I         447 17.58         6.6 0.26            169           24.9 199 
 PAM  EZ EP        447  1.89                             152    0.5010 74.4  37 
 PAM  EN ES        447 18.36                             152   -0.4110 74.4  37 
 PAM  EZ I         447 21.27         8.5 0.54            156           74.4  37 
 BRR  HZ EP        447  1.05                             152    0.3610 74.6 297 
 BRR  HN ES        447 18.33                             152    0.8010 74.6 297 
 BRR  HZ I         447 21.08         5.9 0.32            150           74.6 297 
 RUS  HZ EP        447  3.10                             144   -0.0010  101 178 
 RUS  HN ES        447 21.89                             144    0.0710  101 178 
 RUS  HZ I         447 23.43         3.2 0.36            147            101 178 
 OCA  HN ES   1    447 30.01                             130    0.19 7  160 352 
 SPBC HZ EP        447  8.17                             129    0.10 9  166 220 
 SPBC HN ES        447 30.02                             129   -0.63 9  166 220 
 ZAR  HZ EP   1    447 11.32                             122   -0.76 6  208 292 
 ZAR  HN ES        447 38.08                             122    0.29 8  208 292 
 ZAR  HZ I         447 43.54         8.0 0.34            123            208 292 
 NOR  HZ EP   1    447 14.89                             118   -0.47 6  238 235 
 NOR  HE ES        447 43.90                             118    0.26 8  238 235 
 NOR  HZ I         447 49.42         5.4 0.20            120            238 235 
 SML  HZ EP   1    447 15.68                             118   -0.32 6  245 334 
 SML  HN ES        447 44.17                             118   -0.61 8  245 334 
 CHI  HZ EP        447 17.14                             117    0.04 8  250 196 
 CHI  HN ES        447 47.13                             117    0.39 8  250 196 
 HEL  HZ EP   1    447 20.11                             115    0.22 6  276 256 
 HEL  HE ES        447 51.29                             115   -0.42 7  276 256 
 HEL  HZ I         447 57.88         3.1 0.30            116            276 256 
                                                                                
