 2017  8 3 0933 58.0 L   6.776 -73.111142.5  RSN 12 0.6 1.6LRSN                1
 GAP=116        1.21       4.1     4.1  6.5  0.4340E+00  0.6107E+01  0.6043E+01E
 Epicentro: LOS SANTOS - SANTANDER                                             3
 ACTION:UPD 17-09-04 20:15 OP:rebc STATUS:               ID:20170803093358 L   I
 OLDACT:UP  17-08-03 19:16 OP:dhb  STATUS:               ID:20170803092743     3
 OLDACT:REG 17-08-03 15:16 OP:osc  STATUS:               ID:20170803092743     3
 2017-08-03-0928-00M.COL___395                                                 6
 STAT SP IPHASW D HRMM SECON CODA AMPLIT PERI AZIMU VELO AIN AR TRES W  DIS CAZ7
 BAR2 EZ IP     C  934 17.02                             171   -0.2010 21.8 201 
 BAR2 EZ ES        934 32.03                             171   -0.1710 21.8 201 
 BAR2 EZ I         934 34.43         7.8 0.26            171           21.8 201 
 BRR  HZ EP        934 19.20                             151    0.1210 75.8 299 
 BRR  HN ES        934 35.68                             151    0.1610 75.8 299 
 BRR  HZ I         934 42.63         9.4 0.14            151           75.8 299 
 PAM  EZ EP        934 20.34                             150    0.4710 77.2  36 
 PAM  EE ES        934 36.87                             150   -0.0510 77.2  36 
 PAM  EZ I         934 38.94         9.1 0.54            153           77.2  36 
 RUS  HZ IP     D  934 21.93                             144    0.6910 97.7 178 
 RUS  HE ES        934 39.93                             144    0.5810 97.7 178 
 RUS  HZ I         934 40.54         8.3 0.20            146           97.7 178 
 PTB  HZ EP   2    934 23.99                             131   -1.03 5  151 260 
 PTB  HN ES        934 46.31                             131    0.23 9  151 260 
 PTB  HZ I         934 47.15         3.7 0.08            132            151 260 
 SPBC HZ EP        934 25.96                             128   -0.34 9  164 221 
 SPBC HE ES        934 48.00                             128   -0.36 9  164 221 
 SPBC HZ I         934 50.51         8.8 0.19            130            164 221 
 YPLC HZ EP        934 26.64                             127   -0.52 9  173 152 
 YPLC HE ES   2    934 48.72                             127   -1.18 4  173 152 
 YPLC HZ I         934 54.74         4.9 0.44            130            173 152 
 ZAR  HZ EP        934 29.84                             121   -0.88 8  209 292 
 ZAR  HN ES        934 55.62                             121   -0.61 8  209 292 
 ZAR  HZ I         935  2.03         3.7 0.37            123            209 292 
 NOR  HZ EP        934 33.49                             118   -0.23 8  236 236 
 NOR  HN ES        935  2.15                             118    0.57 8  236 236 
 NOR  HZ I         935  2.38         4.7 0.16            120            236 236 
 CHI  HZ EP        934 35.75                             117    0.39 8  247 196 
 CHI  HN ES        935  3.87                             117   -0.62 8  247 196 
 CHI  HZ I         935  6.70         1.9 0.36            119            247 196 
 HEL  HZ EP        934 39.59                             114    1.19 8  275 257 
 HEL  HN ES        935  9.77                             114   -0.14 8  275 257 
 HEL  HZ I         935 15.55         2.7 0.28            116            275 257 
 GUY2CHZ EP   3    934 43.59                             112    1.94 2  303 236 
 GUY2CHE ES   4    935 18.53                             112    2.84 0  303 236 
 GUY2CHZ I         935 23.22         2.0 0.24                           303 236 
                                                                                
