 2016  9 3 0327 56.1 L   6.564 -74.135 21.9  RSN  5 0.3 1.1LRSN                1
 GAP=143        0.77       2.6     1.6  2.8  0.2276E+00 -0.8483E+00  0.8481E+00E
 Epicentro: PUERTO PARRA - SANTANDER                                           3
 ACTION:UPD 17-08-17 21:06 OP:lp   STATUS:               ID:20160903032756 L   I
 OLDACT:DUP 16-09-03 14:02 OP:drio STATUS:               ID:20160903031735d    3
 2016-09-03-0318-00M.COL___355                                                 6
 STAT SP IPHASW D HRMM SECON CODA AMPLIT PERI AZIMU VELO AIN AR TRES W  DIS CAZ7
 PTB  HZ EP        328  2.81                             119   -0.0410 35.6 266 
 PTB  HE ES        328  8.15                             119    0.0610 35.6 266 
 PTB  HZ I         328  8.31        40.5 0.14            125           35.6 266 
 BRR  HZ EP        328  8.75                             104    0.1710 76.1  38 
 BRR  HN ES        328 18.55                             104    0.2510 76.1  38 
 BRR  HZ I         328 21.16         5.6 0.38            105           76.1  38 
 BAR2 EZ EP        328 12.63                             100   -0.5510  105  88 
 BAR2 EZ ES        328 26.32                             100   -0.1610  105  88 
 BAR2 EZ I         328 28.88         3.5 0.34             56            105  88 
 ZAR  HE ES        328 31.48                              56   -0.2210  130 322 
 RUS  HZ EP        328 18.23                              56    0.53 9  138 122 
 RUS  HE ES        328 34.50                              56   -0.02 9  138 122 
 RUS  HZ I         328 36.10         1.8 0.16             56            138 122 
                                                                                
