 2017  2 3 0023 48.3 L   6.798 -73.144148.9  RSN 15 0.5 2.4LRSN                1
 GAP=101        1.11       4.0     3.5  5.6  0.6838E+00  0.3839E+01  0.4591E+01E
 Epicentro: LOS SANTOS - SANTANDER                                             3
 ACTION:UPD 17-05-24 15:32 OP:jn   STATUS:               ID:20170203002348 L   I
 OLDACT:UP  17-02-03 13:16 OP:dnl  STATUS:               ID:20170203001745     3
 OLDACT:UP  17-02-03 13:16 OP:dnl  STATUS:               ID:20170203001745     3
 OLDACT:UP  17-02-03 13:14 OP:dnl  STATUS:               ID:20170203001745     3
 OLDACT:REG 17-02-03 12:28 OP:dnl  STATUS:               ID:20170203001745     3
 2017-02-03-0018-00M.COL___325                                                 6
 STAT SP IPHASW D HRMM SECON CODA AMPLIT PERI AZIMU VELO AIN AR TRES W  DIS CAZ7
 BAR2 EZ EP        024  8.19                             171   -0.0710 23.2 191 
 BAR2 EZ ES        024 22.85                             171   -1.0210 23.2 191 
 BAR2 EZ I         024 24.46        66.5 0.18            170           23.2 191 
 BRR  HZ IP     C  024  9.98                             153    0.2210 71.4 299 
 BRR  HN ES        024 27.25                             153    0.7210 71.4 299 
 BRR  HZ I         024 30.21        41.9 0.28            152           71.4 299 
 PAM  EZ EP        024 11.09                             151    0.2810 77.4  39 
 PAM  EE ES        024 28.26                             151   -0.1410 77.4  39 
 PAM  EZ I         024 30.39        54.8 0.52            148           77.4  39 
 RUS  HZ EP        024 12.18                             144   -0.1210  100 176 
 RUS  HE ES        024 31.46                             144    0.4010  100 176 
 RUS  HZ I         024 31.96        34.0 0.28            142            100 176 
 PTB  HZ EP        024 14.76                             133   -0.74 9  148 259 
 PTB  HE ES        024 36.60                             133   -0.14 9  148 259 
 PTB  HZ I         024 42.70        24.8 0.48            131            148 259 
 TAM  HZ IP     D  024 16.63                             131    0.47 9  155 105 
 TAM  HZ I         024 37.54        12.4 0.26            127            155 105 
 TAM  HE ES   2    024 38.18                             131    0.25 5  155 105 
 ZAR  HZ EP        024 21.52                             123    0.59 9  204 292 
 ZAR  HN ES        024 46.27                             123   -0.15 9  204 292 
 ZAR  HZ I         024 48.58        22.7 0.26            121            204 292 
 NOR  HZ EP        024 24.28                             119    0.10 8  235 235 
 NOR  HN ES        024 52.76                             119    0.57 8  235 235 
 NOR  HZ I         024 54.75        11.8 0.14            117            235 235 
 CHI  HZ EP        024 26.30                             118    0.18 8  248 195 
 CHI  HN ES        024 55.64                             118   -0.01 8  248 195 
 CHI  HZ I         024 59.77        17.1 0.72            115            248 195 
 ROSC BZ EP   4    024 28.53                             117    1.99 0  253 211 
 ROSC BN ES   4    024 59.04                             117    2.63 0  253 211 
 ROSC BZ I         025  2.68        31.2 0.40            115            253 211 
 URE  HZ EP        024 28.59                             114   -0.92 7  284 292 
 URE  HE ES   4    024 58.47                             114   -3.21 0  284 292 
 URE  HZ I         025  7.35        13.9 0.14            112            284 292 
 PTGC HZ EP        024 31.49                             112   -0.74 7  308 159 
 PTGC HN ES   4    025  5.02                             112   -1.50 0  308 159 
 PTGC HZ I         025  7.46        16.9 0.32            109            308 159 
 CBOC HZ EP   2    024 36.06                             110    0.74 3  334 252 
 CBOC HE ES        025 11.99                             110   -0.03 7  334 252 
 CBOC HZ I         025 17.78         4.1 0.38            108            334 252 
 DBB  EZ EP   2    024 35.33                             110   -0.56 3  340 274 
 DBB  EN ES   4    025  9.34                             110   -3.70 0  340 274 
 DBB  EZ I         025 13.08         5.6 0.18            108            340 274 
 ORTC HZ EP   2    024 42.76                             107    0.48 3  395 216 
 ORTC HN ES   4    025 25.75                             107    1.33 0  395 216 
 ORTC HZ I         025 29.60         9.7 0.24            105            395 216 
                                                                                
