 2015  3 3 0941 27.7 L   6.809 -73.137149.9  RSN 19 0.4 2.2LRSN                1
 GAP= 71        0.91       2.6     2.9  4.5 -0.1115E+01  0.2617E+01  0.1797E+01E
 Epicentro: LOS SANTOS - SANTANDER                                             3
 ACTION:UPD 15-04-30 16:22 OP:nd   STATUS:               ID:20150303094127 L   I
 OLDACT:REG 15-03-03 13:14 OP:spq  STATUS:               ID:20150303093740     3
 2015-03-03-0937-40M.COL___287                                                 6
 STAT SP IPHASW D HRMM SECON CODA AMPLIT PERI AZIMU VELO AIN AR TRES W  DIS CAZ7
 BAR2 EZ EP     D  941 47.66                             170   -0.1610 24.5 192 
 BAR2 EZ ES   1    942  3.26                             170   -0.27 7 24.5 192 
 BAR2 EZ I         942  5.40        33.0 0.26            168           24.5 192 
 BRR  HZ EP        941 49.53                             153    0.2510 71.5 297 
 BRR  HE ES        942  6.98                             153    0.8410 71.5 297 
 BRR  HZ I         942 10.53        17.9 0.54            152           71.5 297 
 PAM  SZ EP     C  941 50.40                             152    0.1610 76.0  39 
 PAM  SN ES        942  7.81                             152   -0.0410 76.0  39 
 PAM  SZ I         942  9.82        23.7 0.20            151           76.0  39 
 RUS  HZ EP        941 51.54                             144   -0.3510  102 177 
 RUS  HE ES        942 10.53                             144   -0.2610  102 177 
 RUS  HZ I         942 11.49        12.0 0.42            142            102 177 
 PTB  HZ EP   1    941 54.46                             133   -0.62 7  149 259 
 PTB  HE ES        942 15.77                             133   -0.68 9  149 259 
 PTB  HZ I         942 21.55        23.1 0.20            131            149 259 
 TAM  HZ EP        941 55.82                             132    0.20 9  154 105 
 TAM  HZ I         942 16.61        12.7 0.38            129            154 105 
 TAM  HN ES        942 17.54                             132    0.12 9  154 105 
 OCA  HZ EP   1    941 55.83                             131   -0.39 7  159 353 
 OCA  HN ES        942 18.38                             131   -0.11 9  159 353 
 OCA  HZ I         942 26.27        16.9 0.18            129            159 353 
 SPBC HZ EP        941 56.58                             130   -0.04 9  165 219 
 SPBC HE ES        942 19.51                             130    0.32 9  165 219 
 SPBC HZ I         942 24.51        38.6 0.16            127            165 219 
 NOR  HZ EP        942  3.57                             119   -0.21 8  236 234 
 NOR  HN ES        942 32.03                             119    0.08 8  236 234 
 NOR  HZ I         942 35.50        12.7 0.20            117            236 234 
 SML  HZ EP        942  3.87                             118   -0.60 8  243 335 
 SML  HN ES   1    942 33.35                             118    0.17 6  243 335 
 SML  HZ I         942 36.54        26.7 0.10            117            243 335 
 CHI  HZ EP        942  5.61                             118   -0.12 8  250 195 
 CHI  HN ES   1    942 35.35                             118   -0.07 6  250 195 
 CHI  HZ I         942 41.05         4.9 0.36            116            250 195 
 ROSC BZ EP   4    942  7.90                             117    1.74 0  254 211 
 ROSC BE ES   4    942 38.01                             117    1.82 0  254 211 
 ROSC BZ I         942 45.28        19.1 0.45            115            254 211 
 GUY2CHZ EP        942 12.20                             113    0.58 7  303 235 
 GUY2CHE ES   4    942 48.17                             113    2.27 0  303 235 
 GUY2CHZ I         942 54.57        14.7 0.76                           303 235 
 PTGC HZ EP   4    942 10.52                             112   -1.26 0  309 159 
 RREF HZ EP   4    942 15.71                             111    1.56 0  323 229 
 RREF HN ES   4    942 53.25                             111    2.85 0  323 229 
 RREF HZ I         942 56.35         8.6 0.24            110            323 229 
 CBOC HZ EP        942 15.55                             110    0.66 7  335 252 
 CBOC HE ES   1    942 51.23                             110   -0.50 5  335 252 
 CBOC HZ I         943  0.78         2.5 0.41            109            335 252 
 TOL  SZ EP        942 17.14                             110    0.89 7  345 225 
 TOL  SN ES   4    942 56.52                             110    2.38 0  345 225 
 TOL  SZ I         943  1.67         8.3 0.38            108            345 225 
 MON  HZ EP   4    942 14.87                             109   -1.98 0  354 308 
 MON  HN ES   4    942 53.55                             109   -1.65 0  354 308 
 MON  HZ I         942 56.28         3.6 0.47            108            354 308 
 PRA  HZ EP   1    942 22.16                             107    0.67 4  393 210 
 PRA  HN ES   4    943  5.30                             107    1.83 0  393 210 
 PRA  HZ I         943  9.48         8.7 0.34            105            393 210 
 ORTC HZ EP        942 21.61                             107   -0.28 6  397 216 
 ORTC HN ES   4    943  5.30                             107    1.12 0  397 216 
 ORTC HZ I         943 10.93         5.4 0.62            105            397 216 
                                                                                
