 2013  4 3 0319 51.7 L   6.790 -73.117147.9  RSN 10 0.5 1.7LRSN                1
 GAP=141        0.92       4.0     4.9  7.2 -0.2331E+01  0.7505E+01 -0.4531E+01E
 Epicentro: LOS SANTOS - SANTANDER                                             3
 ACTION:UPD 13-05-22 14:35 OP:EP   STATUS:               ID:20130403031951 L   I
 2013-04-03-0320-00M.COL___245                                                 6
 STAT SP IPHASW D HRMM SECON CODA AMPLIT PERI AZIMU VELO AIN AR TRES W  DIS CAZ7
 BAR2 SZ EP        320 11.59                             171   -0.0410 23.0 198 
 BAR2 SZ ES   1    320 26.92                             171   -0.21 7 23.0 198 
 BAR2 SZ I         320 29.02        12.4 0.24            173           23.0 198 
 BRR  HZ IP     C  320 13.54                             152    0.2310 74.5 298 
 BRR  HN ES   1    320 31.15                             152    1.02 7 74.5 298 
 BRR  HZ I         320 33.87         8.4 0.18            152           74.5 298 
 PAM  SZ EP        320 14.36                             151    0.2410 76.3  37 
 PAM  SN ES   1    320 31.74                             151    0.16 7 76.3  37 
 PAM  SZ I         320 33.60        10.0 0.48            154           76.3  37 
 RUS  HZ EP   1    320 15.40                             145   -0.22 7 99.3 178 
 RUS  HN ES   1    320 33.86                             145   -0.37 7 99.3 178 
 RUS  HZ I         320 36.81         4.1 0.52            149           99.3 178 
 PTB  HZ EP   1    320 18.97                             132   -0.18 7  151 259 
 PTB  HN ES   1    320 39.72                             132   -0.80 7  151 259 
 PTB  HZ I         320 42.51         5.5 0.14            135            151 259 
 OCA  HZ EP   1    320 20.36                             130    0.00 7  162 352 
 OCA  HN ES   1    320 42.02                             130   -0.66 7  162 352 
 OCA  HZ I         320 47.53         7.8 0.28            132            162 352 
 ZAR  HZ EP   1    320 25.65                             122    0.98 6  207 292 
 ZAR  HN ES   1    320 50.01                             122   -0.34 6  207 292 
 ZAR  HZ I         320 53.67         4.2 0.28            125            207 292 
 NOR  HE ES   1    320 56.41                             119    0.48 6  237 235 
 SML  HZ EP   1    320 28.17                             118   -0.57 6  246 335 
 SML  HN ES   2    320 57.18                             118   -0.42 4  246 335 
 CHI  HN ES   2    320 58.83                             118   -0.19 4  248 196 
                                                                                
