 2013 11 3 0705 27.3 L   6.821 -73.100150.2  RSN 11 0.5 2.0LRSN                1
 GAP=188        1.09       3.6     5.4  6.5  0.1325E+01  0.6915E+01 -0.1298E+01E
 Epicentro: LOS SANTOS - SANTANDER                                             3
 ACTION:UPD 14-01-09 16:25 OP:ep   STATUS:               ID:20131103070527 L   I
 OLDACT:UP  13-11-03 10:23 OP:jn   STATUS:               ID:20131103070000     3
 OLDACT:REG 13-11-03 07:35 OP:jn   STATUS:               ID:20131103070000     3
 2013-11-03-0700-00M.COL___273                                                 6
 STAT SP IPHASW D HRMM SECON CODA AMPLIT PERI AZIMU VELO AIN AR TRES W  DIS CAZ7
 BAR2 SZ EP        7 5 47.77                             170    0.2410 26.9 200 
 BAR2 SZ ES        7 6  3.51                             170    0.1910 26.9 200 
 BAR2 SZ I         7 6  4.44        24.4 0.38            168           26.9 200 
 BRR  HZ EP        7 5 49.66                             152    0.5510 74.7 295 
 BRR  HN ES        7 6  6.94                             152    0.8010 74.7 295 
 BRR  HZ I         7 6 11.45        12.5 0.18            150           74.7 295 
 RUS  HZ EP        7 5 51.64                             144    0.0110  103 179 
 RUS  HN ES        7 6 10.07                             144   -0.5510  103 179 
 RUS  HZ I         7 6 11.83         5.1 0.18            148            103 179 
 PTB  HZ EP        7 5 54.51                             132   -0.60 9  153 258 
 PTB  HN ES        7 6 15.95                             132   -0.86 9  153 258 
 PTB  HZ I         7 6 21.64        16.4 0.26            132            153 258 
 OCA  HN ES   1    7 6 17.93                             131   -0.10 7  159 351 
 OCA  HZ I         7 6 23.76        10.7 0.24            133            159 351 
 SPBC HZ EP        7 5 56.78                             129    0.17 9  168 220 
 SPBC HN ES        7 6 19.33                             129   -0.15 9  168 220 
 SPBC HZ I         7 6 25.94        26.7 0.30            131            168 220 
 ZAR  HN ES        7 6 26.31                             123    0.04 8  208 291 
 ZAR  HZ I         7 6 32.33        15.5 0.62            123            208 291 
 NOR  HZ EP        7 6  3.96                             119    0.09 8  240 235 
 NOR  HN ES        7 6 32.24                             119   -0.16 8  240 235 
 NOR  HZ I         7 6 35.49        11.6 0.20            120            240 235 
 SML  HZ EP        7 6  4.05                             118   -0.12 8  244 334 
 SML  HN ES        7 6 32.30                             118   -0.64 8  244 334 
 HEL  HZ EP   1    7 6  8.88                             115    0.54 6  278 256 
 HEL  HE ES   2    7 6 41.10                             115    0.74 4  278 256 
 HEL  HZ I         7 6 45.18         4.4 0.42            116            278 256 
 GUY2CHZ EP   1    7 6 12.65                             113    0.93 5  307 235 
 GUY2CHZ I         7 6 55.01         6.4 0.32                           307 235 
                                                                                
