 2015  3 3 0127 23.3 L   6.806 -73.139149.0  RSN 23 0.4 2.8LRSN                1
 GAP= 71        0.96       2.5     2.8  4.5 -0.1184E+01  0.3451E+01  0.1872E+01E
 Epicentro: LOS SANTOS - SANTANDER                                             3
 ACTION:UPD 15-04-30 16:22 OP:nd   STATUS:               ID:20150303012723 L   I
 OLDACT:DUP 15-03-03 15:02 OP:spq  STATUS:               ID:20150303011750d    3
 2015-03-03-0117-49M.COL___294                                                 6
 STAT SP IPHASW D HRMM SECON CODA AMPLIT PERI AZIMU VELO AIN AR TRES W  DIS CAZ7
 BAR2 EZ EP     D  127 43.34                             170   -0.0410 24.2 192 
 BAR2 EZ ES   1    127 58.41                             170   -0.60 7 24.2 192 
 BAR2 EZ I         128  1.04       157.9 0.30            168           24.2 192 
 BRR  HZ EP     C  127 45.21                             153    0.3510 71.5 298 
 BRR  HN ES        128  2.40                             153    0.7510 71.5 298 
 BRR  HZ I         128  5.47        58.3 0.28            153           71.5 298 
 PAM  SZ IP     C  127 46.07                             152    0.2310 76.4  39 
 PAM  SE ES        128  3.33                             152   -0.0710 76.4  39 
 PAM  SZ I         128  5.47       112.5 0.48            152           76.4  39 
 RUS  HZ EP     D  127 47.17                             144   -0.2910  101 177 
 RUS  HE ES        128  6.04                             144   -0.2310  101 177 
 RUS  HZ I         128  7.17        49.6 0.40            142            101 177 
 PTB  HZ EP        127 49.79                             133   -0.86 9  149 259 
 PTB  HN ES        128 11.41                             133   -0.55 9  149 259 
 PTB  HZ I         128 18.72       117.1 0.46            132            149 259 
 TAM  HZ EP     D  127 51.49                             131    0.26 9  155 105 
 TAM  HZ I         128 12.28        57.7 0.38            130            155 105 
 TAM  HN ES        128 13.24                             131    0.26 9  155 105 
 OCA  HZ EP        127 51.35                             130   -0.50 9  160 353 
 OCA  HN ES        128 14.10                             130    0.01 9  160 353 
 OCA  HZ I         128 21.92        70.3 0.22            130            160 353 
 SPBC HZ EP        127 52.11                             130   -0.08 9  164 219 
 SPBC HN ES        128 14.88                             130    0.19 9  164 219 
 SPBC HZ I         128 20.18       143.6 0.16            128            164 219 
 NOR  HZ EP        127 59.18                             119   -0.19 8  236 234 
 NOR  HN ES        128 27.72                             119    0.25 8  236 234 
 NOR  HZ I         128 31.04        63.3 0.32            118            236 234 
 SML  HZ EP   1    127 59.78                             118   -0.34 6  243 335 
 SML  HN ES   1    128 29.16                             118    0.36 6  243 335 
 SML  HZ I         128 31.84        77.8 0.06            118            243 335 
 CHI  HZ EP        128  1.00                             118   -0.32 8  250 195 
 CHI  HN ES        128 30.85                             118   -0.09 8  250 195 
 CHI  HZ I         128 39.40        26.2 0.62            116            250 195 
 ROSC BZ EP   4    128  2.83                             117    1.08 0  254 211 
 ROSC BN ES   4    128 33.97                             117    2.27 0  254 211 
 ROSC BZ I         128 40.98        88.9 0.45            116            254 211 
 GUY2CHZ EP        128  7.31                             113    0.09 7  302 235 
 GUY2CHE ES   4    128 43.87                             113    2.43 0  302 235 
 GUY2CHZ I         128 50.22        70.2 0.76                           302 235 
 PTGC HZ EP   4    128  6.24                             112   -1.15 0  309 159 
 PTGC HN ES   4    128 39.64                             112   -2.10 0  309 159 
 PTGC HZ I         128 47.13        18.1 0.54            111            309 159 
 RREF HZ EP        128 10.62                             111    0.88 7  323 229 
 RREF HN ES   4    128 48.87                             111    2.93 0  323 229 
 RREF HZ I         128 55.07        36.2 0.50            110            323 229 
 CBOC HZ EP        128 11.08                             110    0.58 7  335 252 
 CBOC HE ES        128 47.59                             110    0.31 7  335 252 
 CBOC HZ I         128 56.46        13.1 0.50            110            335 252 
 DBB  SZ EP        128 10.80                             110   -0.23 7  340 274 
 DBB  SZ ES   1    128 47.66                             110   -0.57 5  340 274 
 TOL  SZ EP        128 12.79                             110    0.94 7  345 225 
 TOL  SE ES   4    128 51.61                             110    1.93 0  345 225 
 TOL  SZ I         128 55.81        31.8 0.26            109            345 225 
 MON  HZ EP   4    128 10.58                             109   -1.91 0  354 308 
 MON  HN ES   4    128 49.23                             109   -1.59 0  354 308 
 MON  HZ I         128 51.73        14.0 0.40            109            354 308 
 ANIL HZ EP   4    128 14.88                             109    1.49 0  358 225 
 ANIL HE ES   4    128 53.93                             109    1.50 0  358 225 
 ANIL HZ I         128 57.44        10.8 0.42            108            358 225 
 PRA  HZ EP        128 16.71                             107   -0.38 6  393 210 
 PRA  HE ES        128 58.69                             107   -0.32 6  393 210 
 PRA  HZ I         129  5.17        35.8 0.36            106            393 210 
 ORTC HZ EP        128 17.10                             107   -0.39 6  396 216 
 ORTC HN ES        129  0.71                             107    0.98 6  396 216 
 ORTC HZ I         129  7.16        25.0 0.38            106            396 216 
 SMAR HZ EP   1    128 28.80                             103   -0.44 3  497 346 
 SMAR HE ES   4    129 16.43                             103   -4.21 0  497 346 
                                                                                
