 2015  8 3 0649 46.5 L   6.825 -73.103146.6  RSN  8 0.4 1.8LRSN                1
 GAP=187        0.87       3.2     5.6  5.9  0.3116E+01  0.6151E+01 -0.4691E+01E
 Epicentro: LOS SANTOS - SANTANDER                                             3
 ACTION:UPD 15-09-15 22:59 OP:cam  STATUS:               ID:20150803064946 L   I
 OLDACT:REG 15-08-03 13:11 OP:mh   STATUS:               ID:20150803064738     3
 2015-08-03-0647-38M.COL___349                                                 6
 STAT SP IPHASW D HRMM SECON CODA AMPLIT PERI AZIMU VELO AIN AR TRES W  DIS CAZ7
 BAR2 EZ EP        650  6.63                             169    0.2910 27.2 199 
 BAR2 EZ ES        650 21.38                             169   -0.4110 27.2 199 
 BAR2 EZ I         650 22.35         9.4 0.30            168           27.2 199 
 BRR  HZ EP        650  8.41                             152    0.4810 74.2 295 
 BRR  HN ES        650 25.29                             152    0.6610 74.2 295 
 BRR  HZ I         650 29.16         7.4 0.36            149           74.2 295 
 RUS  HZ EP   1    650 10.78                             143    0.24 7  103 179 
 RUS  HN ES        650 28.99                             143   -0.2910  103 179 
 RUS  HZ I         650 30.23         6.1 0.24            146            103 179 
 OCA  HZ EP        650 14.63                             130   -0.07 9  158 351 
 OCA  HN ES        650 36.34                             130   -0.34 9  158 351 
 OCA  HZ I         650 40.74        10.0 0.20            131            158 351 
 ZAR  HZ EP        650 19.39                             122    0.02 8  207 291 
 ZAR  HN ES        650 44.73                             122   -0.26 8  207 291 
 ZAR  HZ I         650 50.22         7.7 0.40            122            207 291 
 SML  HZ EP        650 23.20                             118    0.06 8  243 334 
 SML  HN ES        650 51.36                             118   -0.34 8  243 334 
 SML  HZ I         650 54.73         6.1 0.10            118            243 334 
 TOL  SN ES        651 13.16                             109   -0.41 6  349 225 
 TOL  SZ I         651 16.99         1.7 0.58            110            349 225 
 SJC  HZ EP   4    650 40.88                             106   -1.27 0  409 326 
 SJC  HN ES   4    651 21.10                             106   -4.43 0  409 326 
 SJC  HZ I         651 26.48         1.5 0.64            107            409 326 
                                                                                
