 2010  4 3 0049 33.6 L   6.771 -73.041143.7  RSN  9 0.6 2.3LRSN                1
 GAP=209        1.05       4.9    10.7  9.3 -0.1858E+02 -0.4825E+01  0.1869E+02E
 Epicentro: LOS SANTOS - SANTANDER                                             3
 ACTION:UPD 10-08-24 09:57 OP:vdl  STATUS:               ID:20100403004933 L   I
 2010-04-03-0046-53S.COL___098                                                 6
 STAT SP IPHASW D HRMM SECON CODA AMPLIT PERI AZIMU VELO AIN AR TRES W  DIS CAZ7
 BAR2 SZ IP        049 53.31                             170     0.310   25 218 
 BAR2 SZ ES   2    050  7.73                             170    -0.4 5   25 218 
 BRR  HZ IP        049 55.37                             149     0.210   83 297 
 BRR  HN ES   1    050 12.83                             149     0.8 7   83 297 
 BRR  HZ I         050 15.22        61.6 0.13                            83 297 
 OCA  SZ EP        050  1.69                             129    -0.5 9  165 349 
 OCA  SZ ES   1    050 23.85                             129    -0.7 7  165 349 
 CHI  HZ IP        050 11.38                             117     0.2 8  249 198 
 CHI  HE ES   1    050 40.03                             117    -0.5 6  249 198 
 CHI  HZ I         050 44.15        11.9 0.49                           249 198 
 ROSC BZ EP   2    050 12.05                             116     0.1 4  256 214 
 ROSC BE ES   1    050 41.13                             116    -0.8 6  256 214 
 HEL  HZ EP   2    050 14.91                             114     0.1 4  283 257 
 HEL  HE ES   2    050 45.81                             114    -1.2 4  283 257 
 HEL  HZ I         050 51.25         9.1 0.29                           283 257 
 RREF BZ EP        050 20.69                             110     0.3 7  329 231 
 RREF BE ES   2    050 56.47                             110    -0.4 3  329 231 
 TOL  SZ EP        050 23.44                             109     1.0 6  349 226 
 PRA  HZ EP        050 26.95                             106    -0.4 6  395 211 
 PRA  HN ES   2    051  8.38                             106    -1.0 3  395 211 
 PRA  HZ I         051 16.70         6.5 0.23                           395 211 
                                                                                
