 2017  2 3 0715 53.4 L   6.777 -73.087144.9  RSN  5 0.2 1.3LRSN                1
 GAP=145        0.57       4.1     6.8  6.4  0.1158E+02 -0.2940E+02 -0.9556E+01E
 Epicentro: LOS SANTOS - SANTANDER                                             3
 ACTION:UPD 17-05-24 15:32 OP:jn   STATUS:               ID:20170203071553 L   I
 OLDACT:UP  17-02-03 16:54 OP:dnl  STATUS:               ID:20170203070642d    3
 OLDACT:DUP 17-02-03 16:50 OP:dnl  STATUS:               ID:20170203070642d    3
 2017-02-03-0707-00M.COL___325                                                 6
 STAT SP IPHASW D HRMM SECON CODA AMPLIT PERI AZIMU VELO AIN AR TRES W  DIS CAZ7
 BAR2 EZ EP        716 12.62                             170   -0.2810 22.9 207 
 BAR2 EZ ES        716 27.87                             170   -0.2610 22.9 207 
 BAR2 EZ I         716 28.90         8.1 0.21            164           22.9 207 
 PAM  EZ IP     D  716 15.55                             151    0.1510 75.5  34 
 BRR  HZ EP   2    716 14.44                             150   -0.41 5 78.1 298 
 BRR  HN ES        716 31.81                             150    0.2210 78.1 298 
 RUS  HZ EP        716 16.98                             144    0.1310 97.8 180 
 RUS  HN ES        716 35.29                             144    0.1410 97.8 180 
 RUS  HZ I         716 36.78         2.4 0.39            141           97.8 180 
 PTB  HZ EP   9    716 19.60                             130   -1.23 0  154 260 
 PTB  HN ES        716 40.84                             132   -0.16 9  154 260 
 PTB  HZ I         716 46.20         1.6 0.28            126            154 260 
                                                                                
