 2016  4 3 0935  6.7 L   6.817 -73.176138.9  RSN 14 0.5 2.0LRSN                1
 GAP=132        1.07       3.1     3.9  6.1 -0.2520E+01  0.9858E+01  0.1928E+00E
 Epicentro: ZAPATOCA - SANTANDER                                               3
 ACTION:UPD 16-05-05 14:18 OP:rebc STATUS:               ID:20160403093506 L   I
 OLDACT:UP  16-04-03 16:21 OP:dri  STATUS:               ID:20160403092744     3
 OLDACT:UP  16-04-03 16:20 OP:dri  STATUS:               ID:20160403092744     3
 OLDACT:REG 16-04-03 12:40 OP:drio STATUS:               ID:20160403092744     3
 2016-04-03-0927-44M.COL___309                                                 6
 STAT SP IPHASW D HRMM SECON CODA AMPLIT PERI AZIMU VELO AIN AR TRES W  DIS CAZ7
 BAR2 EZ EP        935 25.66                             169    0.0910 24.9 182 
 BAR2 EZ ES        935 40.34                             169    0.0810 24.9 182 
 BAR2 EZ I         935 41.95        24.0 0.22            168           24.9 182 
 PAM  EZ EP        935 28.46                             149    0.1910 78.1  42 
 PAM  EE ES        935 45.43                             149    0.3710 78.1  42 
 PAM  EZ I         935 46.05        11.1 0.18            155           78.1  42 
 RUS  HZ EP        935 29.71                             142   -0.2610  103 174 
 RUS  HE ES        935 47.96                             142   -0.1410  103 174 
 RUS  HZ I         935 49.62        10.6 0.26            144            103 174 
 PTB  HZ EP        935 32.30                             131   -0.58 9  145 258 
 PTB  HN ES        935 52.61                             131   -0.66 9  145 258 
 PTB  HZ I         935 56.02        14.3 0.22            131            145 258 
 OCA  HZ EP        935 33.90                             128   -0.40 9  158 354 
 OCA  HE ES        935 55.24                             128   -0.57 9  158 354 
 OCA  HZ I         935 59.60        37.7 0.16            131            158 354 
 SPBC HZ EP        935 34.73                             127    0.08 9  163 218 
 SPBC HE ES        935 57.15                             127    0.72 9  163 218 
 SPBC HZ I         936  2.62        19.9 0.20            128            163 218 
 ZAR  HZ EP        935 38.56                             121    0.22 9  200 292 
 ZAR  HE ES        936  3.94                             121    0.95 9  200 292 
 ZAR  HZ I         936  9.18        19.8 0.58            122            200 292 
 NOR  HZ EP        935 41.99                             117    0.09 8  233 234 
 NOR  HE ES        936  9.48                             117    0.16 8  233 234 
 NOR  HZ I         936 15.69         9.4 0.16            118            233 234 
 CHI  HZ EP        935 43.98                             115   -0.18 8  250 194 
 CHI  HN ES        936 12.93                             115   -0.43 8  250 194 
 CHI  HZ I         936 20.47         5.8 0.52            117            250 194 
 HEL  HZ EP        935 46.82                             114    0.53 8  269 255 
 HEL  HE ES        936 16.38                             114   -0.77 8  269 255 
 HEL  HZ I         936 24.66         5.1 0.36            115            269 255 
 GUY2CHZ EP        935 50.32                             111    0.47 7  300 234 
 GUY2CHN ES   4    936 24.84                             111    1.37 0  300 234 
 GUY2CHZ I         936 33.68         3.8 0.26                           300 234 
 PTGC HZ EP   4    935 48.77                             110   -1.86 0  312 158 
 PTGC HE ES   4    936 22.38                             110   -2.49 0  312 158 
 CBOC HZ EP        935 53.75                             109    0.68 7  331 252 
 CBOC HE ES        936 28.89                             109   -0.32 7  331 252 
 CBOC HZ I         936 39.07         1.8 0.24            110            331 252 
 MON  HZ EP   4    935 53.02                             107   -2.02 0  350 308 
 MON  HE ES   4    936 31.24                             107   -1.47 0  350 308 
 MON  HZ I         936 33.82         3.6 0.50            109            350 308 
 SJC  HZ EP   4    935 59.47                             105   -2.21 0  406 327 
 SJC  HN ES   4    936 41.10                             105   -3.43 0  406 327 
 SJC  HZ I         936 45.25         2.2 0.48            106            406 327 
                                                                                
