 2017  5 3 0847 15.4 L   6.779 -73.141147.4  RSN  9 0.6 1.8LRSN                1
 GAP=113        1.42       4.9     5.3  8.9  0.5355E+01  0.3125E+01  0.1076E+02E
 Epicentro: LOS SANTOS - SANTANDER                                             3
 ACTION:UPD 17-06-16 13:32 OP:jn   STATUS:               ID:20170503084715 L   I
 OLDACT:UP  17-05-03 18:46 OP:edw  STATUS:               ID:20170503083739     3
 OLDACT:REG 17-05-03 12:06 OP:edw  STATUS:               ID:20170503083739     3
 2017-05-03-0838-00M.COL___365                                                 6
 STAT SP IPHASW D HRMM SECON CODA AMPLIT PERI AZIMU VELO AIN AR TRES W  DIS CAZ7
 BRR  HZ EP        847 37.00                             152    0.1810 72.8 300 
 BRR  HN ES        847 54.16                             152    0.6510 72.8 300 
 BRR  HZ I         847 55.44         9.1 0.14            149           72.8 300 
 PAM  EZ EP     C  847 38.04                             150    0.1610 78.8  38 
 PAM  EN ES        847 54.95                             150   -0.4610 78.8  38 
 PAM  EZ I         847 57.44        13.1 0.56            147           78.8  38 
 RUS  HZ EP        847 39.43                             145    0.2810 98.2 176 
 RUS  HN ES        847 57.91                             145    0.2410 98.2 176 
 RUS  HZ I         847 58.88         8.0 0.26            139           98.2 176 
 PTB  HZ EP        847 43.35                             132    0.84 9  148 260 
 PTB  HN ES        848  2.77                             132   -0.88 9  148 260 
 PTB  HZ I         848  9.16         4.7 0.32            127            148 260 
 SPBC HZ EP        847 44.03                             130    0.14 9  162 220 
 SPBC HN ES        848  6.23                             130    0.12 9  162 220 
 SPBC HZ I         848 11.07        11.2 0.24            124            162 220 
 YPLC HZ EP        847 45.62                             127    0.53 9  175 151 
 YPLC HN ES        848  7.72                             127   -0.53 9  175 151 
 YPLC HZ I         848 12.37         5.1 0.32            122            175 151 
 ZAR  HZ EP        847 47.69                             122   -0.40 8  205 293 
 ZAR  HE ES        848 12.95                             122   -0.64 8  205 293 
 ZAR  HZ I         848 19.90         7.5 0.28            118            205 293 
 CHI  HZ EP        847 53.79                             118    0.82 8  247 195 
 CHI  HN ES        848 21.88                             118   -0.38 8  247 195 
 CHI  HZ I         848 26.54         4.0 0.50            113            247 195 
 PTGC HZ EP        847 57.54                             112   -1.53 7  306 159 
 PTGC HZ I         848 26.47         7.5 0.16            107            306 159 
 CBOC HZ EP   4    848  3.38                             110    1.02 0  333 252 
 CBOC HE ES   4    848 32.96                             110   -6.03 0  333 252 
 SJC  HZ EP   4    848  8.77                             106   -2.51 0  411 327 
 SJC  HN ES   4    848 52.83                             106   -2.03 0  411 327 
                                                                                
