 2013  6 3 0105 23.3 L   6.845 -73.158138.1  RSN  8 0.3 1.8LRSN                1
 GAP=133        0.73       2.7     3.9  5.5 -0.2094E+01  0.8139E+01 -0.2097E+01E
 Epicentro: LOS SANTOS - SANTANDER                                             3
 ACTION:UPD 14-01-08 09:52 OP:ep   STATUS:               ID:20130603010523 L   I
 2013-06-03-0100-00M.COL___257                                                 6
 STAT SP IPHASW D HRMM SECON CODA AMPLIT PERI AZIMU VELO AIN AR TRES W  DIS CAZ7
 BAR2 SZ ES        1 5 57.10                             168    0.2710 28.0 186 
 BAR2 SZ I         1 5 58.61         5.1 0.26            170           28.0 186 
 BRR  HN ES   1    1 5 59.78                             152    0.62 7 67.8 295 
 BRR  HN I         1 6  5.19        16.3 0.16            150           67.8 295 
 PAM  SZ EP   1    1 5 45.00                             150    0.44 7 74.6  43 
 PAM  SE ES        1 6  0.78                             150   -0.3410 74.6  43 
 PAM  SE I         1 6  5.11        10.2 0.48            154           74.6  43 
 RUS  HZ EP   1    1 5 46.63                             141   -0.09 7  106 176 
 RUS  HN ES        1 6  4.82                             141   -0.1410  106 176 
 RUS  HN I         1 6  6.13         7.5 0.24            145            106 176 
 PTB  HZ EP   1    1 5 49.42                             130   -0.24 7  147 257 
 PTB  HN ES        1 6  9.85                             130   -0.34 9  147 257 
 PTB  HZ I         1 6 14.37         4.0 0.16            131            147 257 
 OCA  HE ES        1 6 11.71                             129   -0.11 9  155 353 
 OCA  HE I         1 6 14.71        20.7 0.28            130            155 353 
 NOR  HZ EP   1    1 5 58.77                             117   -0.06 6  237 233 
 NOR  HN ES   1    1 6 26.75                             117    0.24 6  237 233 
 NOR  HN I         1 6 31.29         7.9 0.16            119            237 233 
 SML  HZ EP   1    1 5 59.62                             116    0.63 6  239 335 
 SML  HN ES   1    1 6 26.46                             116   -0.34 6  239 335 
 SML  HN I         1 6 31.61        12.2 0.10            118            239 335 
                                                                                
