 2012  1 3 0937 43.9 L   6.761 -73.147135.5  RSN  6 0.4 1.7LRSN                1
 GAP=138        0.62       4.3     5.5  8.1  0.2461E+01  0.1994E+02  0.5307E+01E
 Epicentro: LOS SANTOS - SANTANDER                                             3
 ACTION:UP  12-02-03 08:13 OP:REBC STATUS:               ID:20120103093743 L   I
 2012-01-03-0930-00M.COL___184                                                 6
 STAT SP IPHASW D HRMM SECON CODA AMPLIT PERI AZIMU VELO SNR AR TRES W  DIS CAZ7
 BAR2 SZ EP        938  2.18                             171     0.010   19 192 
 BAR2 SZ I         938 17.86        12.5 0.28                            19 192 
 BRR  HZ EP        938  4.01                             150     0.010   73 302 
 BRR  HZ I         938  4.36        19.6 0.12                            73 302 
 BRR  HE ES   2    938 20.37                             150     0.6 5   73 302 
 PAM  SZ EP        938  5.16                             148    -0.110   81  38 
 PAM  SN ES   1    938 21.71                             148    -0.2 7   81  38 
 RUS  HZ EP        938  6.26                             143    -0.110   96 176 
 RUS  HN ES   2    938 24.11                             143     0.3 5   96 176 
 RUS  HZ I         938 26.81         4.3 0.28                            96 176 
 OCA  SZ ES   3    938 33.84                             127     0.2 2  165 353 
 ZAR  HZ EP        938 16.10                             120     0.3 8  206 293 
 ZAR  HN ES   3    938 38.72                             120    -2.1 2  206 293 
                                                                                
