 2014  1 3 0543  2.2 L   6.858 -73.338120.7  RSN 13 0.8 1.6LRSN                1
 GAP= 97        1.76       4.2     5.5  9.6 -0.2823E+01  0.1881E+02  0.8487E+00E
 Epicentro: ZAPATOCA - SANTANDER                                               3
 ACTION:UPD 14-03-13 09:50 OP:ep   STATUS:               ID:20140103054302 L   I
 OLDACT:REG 14-01-03 09:09 OP:stll STATUS:               ID:20140103053813     3
 2014-01-03-0538-13M.COL___240                                                 6
 STAT SP IPHASW D HRMM SECON CODA AMPLIT PERI AZIMU VELO AIN AR TRES W  DIS CAZ7
 BAR2 SZ IP     C  543 19.38                             163    0.1910 34.0 150 
 BAR2 SZ I         543 19.50        62.0 0.12            161           34.0 150 
 BAR2 SZ ES        543 32.28                             163   -0.1210 34.0 150 
 BRR  HZ IP     C  543 19.75                             156    0.2510 49.7 304 
 BRR  HN ES        543 33.52                             156    0.5610 49.7 304 
 BRR  HZ I         543 34.10        10.9 0.14            155           49.7 304 
 PAM  SZ EP        543 22.61                             142   -0.0410 88.3  53 
 PAM  SN ES        543 38.40                             142   -0.1710 88.3  53 
 RUS  HZ EP        543 24.61                             135    0.1610  110 165 
 RUS  HZ I         543 25.12         2.9 0.10            133            110 165 
 RUS  HN ES        543 41.66                             135   -0.1110  110 165 
 PTB  HZ EP        543 24.68                             130   -0.7610  129 254 
 PTB  HZ I         543 27.33        11.5 0.16            128            129 254 
 PTB  HE ES        543 42.81                             130   -0.7310  129 254 
 OCA  HN ES        543 47.40                             125   -0.65 9  153   1 
 OCA  HZ I         543 48.55         9.7 0.30            125            153   1 
 SPBC HN ES        543 49.02                             124    0.51 9  156 211 
 SPBC HZ I         543 50.45         7.5 0.20            122            156 211 
 ZAR  HZ EP        543 31.23                             119    0.42 9  182 293 
 ZAR  HN ES        543 54.59                             119    1.49 9  182 293 
 NOR  HE ES        544  0.74                             114   -0.19 8  222 230 
 NOR  HZ I         544  6.30         3.1 0.22            112            222 230 
 SML  HZ EP        543 35.82                             113   -0.19 8  230 339 
 SML  HN ES        544  1.78                             113   -0.57 8  230 339 
 CHI  HZ EP        543 39.57                             111    0.70 8  250 190 
 CHI  HE ES        544  7.79                             111    0.36 8  250 190 
 CHI  HZ I         544 18.10         1.2 0.50            110            250 190 
 HEL  HZ EP        543 40.11                             111    0.95 8  253 253 
 HEL  HN ES        544  8.19                             111    0.23 8  253 253 
 HEL  HZ I         544 14.53         2.2 0.58            110            253 253 
 GUY2CHN ES        544 12.59                             108   -2.72 7  288 231 
 GUY2CHZ I         544 23.24         2.1 0.50                           288 231 
                                                                                
