 2013  4 3 0837 27.2 L   6.834 -73.158154.0  RSN  8 0.4 1.4LRSN                1
 GAP=133        0.83       4.3     5.6  7.4  0.5549E+01  0.1177E+01 -0.8366E+01E
 Epicentro: LOS SANTOS - SANTANDER                                             3
 ACTION:UPD 13-05-22 14:35 OP:EP   STATUS:               ID:20130403083727 L   I
 2013-04-03-0830-00M.COL___245                                                 6
 STAT SP IPHASW D HRMM SECON CODA AMPLIT PERI AZIMU VELO AIN AR TRES W  DIS CAZ7
 BAR2 SZ EP   1    837 47.96                             170    0.02 7 26.9 186 
 BAR2 SZ ES   1    838  4.12                             170    0.04 7 26.9 186 
 BAR2 SZ I         838  5.61         6.1 0.16            170           26.9 186 
 BRR  HZ EP        837 49.58                             155    0.4510 68.2 296 
 BRR  HN ES   1    838  6.77                             155    0.56 7 68.2 296 
 BRR  HZ I         838 10.55         4.9 0.44            153           68.2 296 
 PAM  SZ EP   1    837 50.52                             153    0.29 7 75.4  42 
 RUS  HZ EP   1    837 52.04                             144   -0.05 7  104 175 
 RUS  HN ES   1    838 11.04                             144   -0.42 7  104 175 
 RUS  HZ I         838 12.54         2.8 0.34            148            104 175 
 PTB  HZ EP   1    837 54.74                             134   -0.11 7  147 257 
 PTB  HN ES   1    838 15.61                             134   -0.77 7  147 257 
 PTB  HZ I         838 17.55         2.4 0.16            134            147 257 
 OCA  HE ES   1    838 17.63                             132   -0.53 7  156 353 
 ZAR  HZ EP   1    838  0.49                             124    0.52 6  201 291 
 ZAR  HN ES   1    838 25.77                             124    0.27 6  201 291 
 ZAR  HZ I         838 32.26         3.9 0.54            125            201 291 
 SML  HZ EP   1    838  3.28                             119   -0.64 6  240 335 
 SML  HN ES   1    838 32.22                             119   -0.30 6  240 335 
                                                                                
