 2013  3 3 0403 23.4 L   6.800 -73.161144.5  RSN  5 0.4 1.9LRSN                1
 GAP=135        0.94       5.0     4.8  6.9 -0.2293E+01  0.4104E+01  0.1675E+01E
 Epicentro: LOS SANTOS - SANTANDER                                             3
 ACTION:UPD 13-04-09 13:59 OP:ep   STATUS:               ID:20130303040323 L   I
 2013-03-03-0358-44M.COL___193                                                 6
 STAT SP IPHASW D HRMM SECON CODA AMPLIT PERI AZIMU VELO AIN AR TRES W  DIS CAZ7
 BAR2 SZ IP        4 3 42.87                             170    0.0010 23.1 186 
 BAR2 SZ I         4 3 42.98        15.8 0.38            170           23.1 186 
 BAR2 SZ ES        4 3 57.68                             170   -0.3810 23.1 186 
 BRR  HZ IP     C  4 3 44.67                             153    0.3410 69.7 299 
 BRR  HN ES        4 4  1.24                             153    0.5910 69.7 299 
 BRR  HN I         4 4  2.10        21.5 0.36            153           69.7 299 
 PAM  SZ IP     D  4 3 45.76                             150    0.2210 78.5  40 
 PAM  SZ I         4 3 45.97        10.6 0.22            152           78.5  40 
 PAM  SN ES        4 4  2.40                             150   -0.4210 78.5  40 
 RUS  HZ EP        4 3 46.94                             143   -0.0910  101 175 
 RUS  HN ES        4 4  5.85                             143    0.3810  101 175 
 RUS  HE I         4 4  7.48        10.4 0.20            144            101 175 
 PTB  HZ EP        4 3 49.75                             132   -0.36 9  146 259 
 PTB  HN ES        4 4 10.57                             132   -0.37 9  146 259 
 PTB  HN I         4 4 12.10        10.7 0.32            133            146 259 
                                                                                
