 2016  5 3 0234 59.8 L   6.336 -73.686106.5  RSN 12 0.5 2.0LRSN                1
 GAP= 63        1.19       3.1     3.6  6.7 -0.2204E+01  0.3349E+01  0.2730E+01E
 Epicentro: SANTA HELENA DEL OPON - SANTANDER                                  3
 ACTION:UPD 16-08-18 17:41 OP:cam  STATUS:               ID:20160503023459 L   I
 OLDACT:REG 16-05-03 13:22 OP:edw  STATUS:               ID:20160503022745     3
 2016-05-03-0227-45M.COL___309                                                 6
 STAT SP IPHASW D HRMM SECON CODA AMPLIT PERI AZIMU VELO AIN AR TRES W  DIS CAZ7
 BAR2 EZ IP     D  235 16.67                             147    0.1010 62.5  63 
 BAR2 EZ ES        235 29.72                             147    0.0310 62.5  63 
 BAR2 EZ I         235 30.68        63.9 0.18            148           62.5  63 
 RUS  HZ EP        235 18.15                             139   -0.2610 82.9 126 
 RUS  HZ I         235 35.27        15.8 0.36            138           82.9 126 
 BRR  HZ EP        235 17.95                             138    0.0310 85.3 358 
 BRR  HE ES        235 32.56                             138    0.4710 85.3 358 
 BRR  HZ I         235 33.31        22.6 0.46            142           85.3 358 
 SPBC HZ EP        235 17.96                             138   -0.2110 86.9 209 
 SPBC HE ES        235 32.35                             138   -0.1910 86.9 209 
 SPBC HZ I         235 37.91        26.5 0.10            137           86.9 209 
 PTB  HZ EP        235 17.36                             137   -0.8110 88.1 285 
 PTB  HE ES        235 31.81                             137   -0.7310 88.1 285 
 PTB  HZ I         235 35.26        14.5 0.10            140           88.1 285 
 PAM  EZ EP        235 25.77                             120    0.48 9  156  44 
 PAM  EN ES        235 45.07                             120   -0.14 9  156  44 
 PAM  EZ I         235 45.81        16.3 0.46            122            156  44 
 NOR  HZ EP        235 24.74                             119   -0.07 9  156 237 
 NOR  HN ES        235 45.15                             119    0.80 9  156 237 
 NOR  HZ I         235 47.03        18.2 0.16            121            156 237 
 ZAR  HZ EP        235 27.27                             115   -0.25 9  182 315 
 ZAR  HE ES        235 49.99                             115    0.81 9  182 315 
 ZAR  HZ I         235 53.64        17.0 0.50            118            182 315 
 CHI  HZ EP        235 28.45                             114   -0.35 9  189 182 
 CHI  HE ES        235 52.08                             114    0.63 9  189 182 
 CHI  HZ I         235 55.24         4.4 0.24            115            189 182 
 URE  HZ EP        235 35.54                             107   -0.57 8  257 308 
 CBOC HZ EP        235 37.65                             106    0.70 8  263 259 
 ORTC HZ EP        235 43.34                             102   -0.14 7  319 213 
                                                                                
