 2017  2 3 0125 37.3 L   6.753 -73.153150.0  RSN  6 0.4 1.4LRSN                1
 GAP=138        0.82       4.7     4.4  7.6  0.1964E+01  0.1363E+02  0.5134E+00E
 Epicentro: LOS SANTOS - SANTANDER                                             3
 ACTION:UPD 17-05-24 15:32 OP:jn   STATUS:               ID:20170203012537 L   I
 OLDACT:REG 17-02-03 12:31 OP:dnl  STATUS:               ID:20170203011743     3
 2017-02-03-0118-00M.COL___325                                                 6
 STAT SP IPHASW D HRMM SECON CODA AMPLIT PERI AZIMU VELO AIN AR TRES W  DIS CAZ7
 BAR2 EZ EP   2    125 57.67                             173    0.37 5 18.0 190 
 BAR2 EZ ES        126 12.90                             173   -0.0410 18.0 190 
 BAR2 EZ I         126 14.09         5.3 0.32            174           18.0 190 
 BRR  HZ EP   2    125 59.36                             153    0.39 5 73.2 302 
 BRR  HN ES        126 16.66                             153    0.7510 73.2 302 
 BRR  HZ I         126 16.85        13.3 0.40            150           73.2 302 
 PAM  EZ EP   2    126  0.07                             150   -0.12 5 82.0  38 
 PAM  EN ES        126 17.74                             150   -0.3510 82.0  38 
 PAM  EZ I         126 21.47         1.9 0.58            149           82.0  38 
 RUS  HZ EP   2    126  1.56                             146    0.50 5 95.4 175 
 RUS  HN ES        126 19.61                             146   -0.0310 95.4 175 
 RUS  HZ I         126 20.74         2.5 0.48            148           95.4 175 
 PTB  HZ EP        126  4.28                             134   -0.14 9  146 261 
 PTB  HN ES        126 25.27                             134   -0.34 9  146 261 
 PTB  HZ I         126 28.86         3.0 0.14            132            146 261 
 ZAR  HZ EP   4    126 12.12                             123    2.01 0  205 294 
 ZAR  HE ES        126 35.45                             123   -0.29 8  205 294 
 ZAR  HZ I         126 44.01         4.0 0.26            122            205 294 
                                                                                
