 2013 11 3 0955 15.8 L   6.526 -73.762 79.0  RSN  9 0.5 1.1LRSN                1
 GAP= 79        1.20       4.0     3.4 10.0  0.7715E+00  0.1110E+02  0.6992E+01E
 Epicentro: SANTA HELENA DEL OPON - SANTANDER                                  3
 ACTION:UPD 14-01-09 16:25 OP:ep   STATUS:               ID:20131103095515 L   I
 OLDACT:DUP 13-11-03 10:49 OP:jn   STATUS:               ID:20131103095001d    3
 2013-11-03-0950-00M.COL___273                                                 6
 STAT SP IPHASW D HRMM SECON CODA AMPLIT PERI AZIMU VELO AIN AR TRES W  DIS CAZ7
 BRR  HZ EP        955 29.79                             137    0.0810 64.5   5 
 BAR2 SZ EP        955 30.12                             137    0.0810 64.5  83 
 BAR2 SZ ES   1    955 41.59                             137    0.42 7 64.5  83 
 BRR  HN ES   1    955 40.94                             137    0.36 7 64.5   5 
 PTB  HZ EP        955 30.06                             132   -0.7610 76.8 271 
 PTB  HN ES        955 42.07                             132   -0.4810 76.8 271 
 PTB  HZ I         955 43.32         4.9 0.24            117           76.8 271 
 SPBC HN ES        955 47.33                             123    0.0910  103 200 
 SPBC HZ I         955 48.73         4.3 0.32            108            103 200 
 RUS  HZ EP        955 33.29                             123   -0.7110  103 133 
 RUS  HN ES        955 48.29                             123    0.0810  103 133 
 RUS  HZ I         955 50.58         1.2 0.42            109            103 133 
 ZAR  HN ES   1    955 59.47                             110    0.77 7  161 311 
 ZAR  HZ I         956  2.53         3.4 0.24            100            161 311 
 NOR  HE ES        955 59.83                             110    0.86 9  162 229 
 HEL  HZ EP        955 44.69                             106   -0.04 9  199 259 
 HEL  HE ES        956  6.96                             106   -0.35 9  199 259 
 HEL  HZ I         956 11.27         2.4 0.40             97            199 259 
 GUY2CHZ EP        955 48.99                             104    0.60 8  228 231 
 GUY2CHZ I         956 21.43         1.7 0.62                           228 231 
 SML  HN ES   4    956 20.57                             102    2.36 0  254 352 
                                                                                
