 2011  4 3 0139 17.6 L   6.803 -73.155143.6  RSN  7 0.5 1.7LRSN                1
 GAP=147        1.03       6.1     9.8  9.1 -0.2188E+02 -0.6794E+01  0.1343E+02E
 Epicentro: LOS SANTOS - SANTANDER                                             3
 ACTION:UP  11-06-22 15:28 OP:REBC STATUS:               ID:20110403013917 L   I
 2011-04-03-0135-47S.COL___138                                                 6
 STAT SP IPHASW D HRMM SECON CODA AMPLIT PERI AZIMU VELO SNR AR TRES W  DIS CAZ7
 BTL  SZ EP        139 36.81                             173    -0.110   18 316 
 BAR2 SZ EP   2    139 37.43                             170     0.4 5   23 187 
 BAR2 SZ ES   2    139 51.32                             170    -0.8 5   23 187 
 BAR2 SZ I         139 54.48         9.3 0.25                            23 187 
 BRR  HZ EP        139 38.38                             152    -0.110   70 299 
 BRR  HZ I         139 39.77        10.6 0.14                            70 299 
 BRR  HN ES   1    139 55.17                             152     0.4 7   70 299 
 PAM  SZ EP        139 39.54                             150    -0.110   78  40 
 PAM  SZ I         139 39.73         5.5 0.18                            78  40 
 PAM  SN ES   1    139 56.58                             150    -0.2 7   78  40 
 GRA  SZ EP        139 43.35                             136     0.710  126  18 
 GRA  SZ ES   2    140  2.76                             136     0.6 5  126  18 
 GRA  SZ I         140  4.20         7.5 0.19                           126  18 
 OCA  SZ EP        139 45.26                             129    -0.5 9  160 354 
 OCA  SZ ES   2    140  6.87                             129    -0.8 5  160 354 
 OCA  SZ I         140 11.76         8.3 0.39                           160 354 
 CHI  HZ EP        139 54.93                             117    -0.3 8  249 195 
 CHI  HN ES   2    140 25.30                             117     0.8 4  249 195 
 CHI  HZ I         140 27.74         3.5 0.30                           249 195 
                                                                                
