 2013  2 3 0858 30.8 L   6.747 -73.128146.0  RSN  6 0.3 1.3LRSN                1
 GAP=141        0.67       4.2     3.7  5.8  0.1276E+01  0.1223E+01  0.1036E+00E
 Epicentro: LOS SANTOS - SANTANDER                                             3
 ACTION:UPD 13-03-12 09:30 OP:ep   STATUS:               ID:20130203085830 L   I
 2013-02-03-0850-00M.COL___240                                                 6
 STAT SP IPHASW D HRMM SECON CODA AMPLIT PERI AZIMU VELO AIN AR TRES W  DIS CAZ7
 BAR2 SZ EP        858 50.33                             173   -0.0410 18.2 199 
 BAR2 SZ ES   1    859  5.42                             173   -0.21 7 18.2 199 
 BAR2 SZ I         859  6.92         8.0 0.21            173           18.2 199 
 BRR  HZ EP        858 52.41                             151    0.1610 75.8 302 
 BRR  HE ES        859  9.47                             151    0.5010 75.8 302 
 BRR  HZ I         859 12.36         4.3 0.41            150           75.8 302 
 PAM  SZ EP        858 53.32                             150    0.0710 80.8  36 
 PAM  SN ES   1    859 10.28                             150   -0.48 7 80.8  36 
 PAM  SZ I         859 12.76         3.1 0.39            152           80.8  36 
 RUS  HZ EP   1    858 54.24                             146    0.08 7 94.6 177 
 RUS  HN ES   1    859 12.54                             146    0.16 7 94.6 177 
 RUS  HN I         859 14.72         2.2 0.08            149           94.6 177 
 PTB  HZ EP   1    858 57.74                             132   -0.14 7  149 261 
 PTB  HE ES   1    859 18.48                             132   -0.51 7  149 261 
 PTB  HZ I         859 20.68         2.8 0.19            133            149 261 
 ZAR  HE ES   1    859 29.05                             122   -0.29 6  208 293 
 ZAR  HZ I         859 35.05         2.2 0.34            123            208 293 
                                                                                
