 2014  6 3 0846 56.3 L   6.840 -73.129146.9  RSN 27 0.5 2.8LRSN                1
 GAP= 70        1.04       2.6     3.0  5.1 -0.1052E+01  0.5314E+01  0.1738E+01E
 Epicentro: LOS SANTOS - SANTANDER                                             3
 OLDACT:REG 14-06-03 13:14 OP:fm   STATUS:               ID:20140603083811     3
 ACTION:UPD 14-07-01 22:50 OP:nd   STATUS:               ID:20140603084656 L   I
 OLDACT:UP  14-06-03 16:13 OP:fm   STATUS:               ID:20140603083811     3
 2014-06-03-0838-11M.COL___247                                                 6
 STAT SP IPHASW D HRMM SECON CODA AMPLIT PERI AZIMU VELO AIN AR TRES W  DIS CAZ7
 BAR2 SZ IP     C  847 16.13                             169   -0.0310 28.0 192 
 BAR2 SZ ES   1    847 31.13                             169   -0.53 7 28.0 192 
 BAR2 SZ I         847 33.78        93.2 0.28            168           28.0 192 
 PAM  SZ IP     C  847 18.87                             152    0.5110 72.8  41 
 PAM  SN ES        847 35.82                             152    0.2410 72.8  41 
 PAM  SZ I         847 38.08        88.7 0.28            153           72.8  41 
 RUS  HZ IP     D  847 20.01                             143   -0.4610  105 177 
 RUS  HE ES        847 38.99                             143   -0.3310  105 177 
 PTB  HZ EP        847 22.75                             132   -0.85 9  150 257 
 PTB  HN ES        847 44.38                             132   -0.52 9  150 257 
 PTB  SZ I         847 49.68        79.9 0.52            131            150 257 
 TAM  HZ IP     D  847 24.32                             131    0.31 9  155 107 
 TAM  SZ I         847 44.90        39.1 0.26            131            155 107 
 TAM  HN ES        847 45.92                             131    0.30 9  155 107 
 OCA  HZ EP        847 24.24                             131   -0.07 9  156 352 
 OCA  HN ES        847 46.32                             131    0.17 9  156 352 
 OCA  SZ I         847 52.19        54.3 0.38            131            156 352 
 SPBC HZ EP        847 24.99                             128   -0.33 9  168 219 
 SPBC HN ES        847 47.98                             128    0.03 9  168 219 
 SPBC SZ I         847 52.03        83.4 0.24            128            168 219 
 ZAR  HZ EP        847 28.64                             123   -0.19 9  204 291 
 ZAR  HN ES        847 54.80                             123    0.60 9  204 291 
 ZAR  SZ I         848  4.77        47.7 0.46            122            204 291 
 NOR  HZ EP        847 32.03                             118   -0.50 8  239 234 
 NOR  HN ES        848  0.34                             118   -0.45 8  239 234 
 NOR  SZ I         848  3.76        40.7 0.36            118            239 234 
 SML  HZ EP        847 32.14                             118   -0.50 8  241 334 
 SML  HE ES   4    848  2.16                             118    1.18 0  241 334 
 SML  SZ I         848  8.07        53.4 0.10            118            241 334 
 CHI  HZ EP        847 34.22                             117   -0.35 8  253 195 
 CHI  HN ES        848  4.84                             117    0.42 8  253 195 
 CHI  SZ I         848 11.80        19.9 0.36            117            253 195 
 ROSC BZ EP        847 35.63                             116    0.64 8  257 211 
 ROSC BN ES        848  6.23                             116    1.05 8  257 211 
 ROSC SZ I         848 13.93        60.3 0.45            116            257 211 
 HEL  HZ EP        847 37.38                             115    0.49 8  275 255 
 HEL  HN ES   4    848  9.02                             115    0.47 0  275 255 
 HEL  SZ I         848 14.78        30.9 0.38            114            275 255 
 URE  HZ EP   4    847 36.01                             114   -1.42 0  284 291 
 URE  HE ES   4    848  7.57                             114   -1.95 0  284 291 
 URE  SZ I         848 16.75        24.7 0.24            113            284 291 
 GUY2CHZ EP        847 40.30                             112   -0.12 7  305 234 
 GUY2CHE ES   4    848 16.54                             112    1.71 0  305 234 
 GUY2CSZ I         848 22.65        36.9 0.38                           305 234 
 VIL  SZ EP        847 39.77                             112   -0.53 7  308 192 
 VIL  SN ES        848 14.90                             112    0.29 7  308 192 
 VIL  SZ I         848 19.28        29.2 0.56            112            308 192 
 PTGC HZ EP   4    847 39.06                             111   -1.53 0  312 159 
 PTGC HN ES   4    848 12.35                             111   -2.79 0  312 159 
 PTGC SZ I         848 21.83        12.2 0.20            111            312 159 
 RREF HZ EP   4    847 44.12                             111    1.15 0  326 229 
 RREF HE ES   4    848 23.25                             111    3.87 0  326 229 
 RREF SZ I         848 28.78        31.0 0.42            110            326 229 
 CBOC HZ EP        847 43.83                             110    0.21 7  337 251 
 CBOC HN ES        848 21.63                             110    1.10 7  337 251 
 CBOC SZ I         848 28.77        10.8 0.66            110            337 251 
 DBB  SZ EP        847 44.11                             109    0.11 7  341 273 
 DBB  SZ ES   4    848 22.25                             109    1.05 0  341 273 
 DBB  SZ I         848 24.61        59.2 0.26            109            341 273 
 TOL  SZ EP        847 45.53                             109    0.42 6  348 224 
 TOL  SE ES   4    848 24.54                             109    1.36 0  348 224 
 TOL  SZ I         848 29.57        77.4 0.78            109            348 224 
 ANIL HZ EP        847 47.39                             108    0.73 6  362 224 
 ANIL HN ES   4    848 28.81                             108    2.87 0  362 224 
 ANIL SZ I         848 34.24        61.1 0.36            108            362 224 
 PRA  HZ EP        847 49.55                             106   -0.86 6  397 209 
 PRA  HN ES        848 32.66                             106    0.04 6  397 209 
 PRA  SZ I         848 37.30        22.7 0.28            106            397 209 
 ORTC HZ EP        847 50.33                             106   -0.47 6  400 216 
 ORTC HE ES        848 33.27                             106   -0.04 6  400 216 
 ORTC SZ I         848 39.72        18.5 0.36            106            400 216 
 SJC  HZ EP   4    847 50.27                             106   -1.31 0  407 326 
 SJC  HN ES   4    848 31.57                             106   -3.13 0  407 326 
 SJC  SZ I         848 33.69        11.7 2.52            106            407 326 
 PAL  HZ EP        847 51.91                             106   -0.04 6  410 239 
 PAL  HN ES   4    848 32.47                             106   -2.88 0  410 239 
 PAL  SZ I         848 40.44        19.1 0.22            106            410 239 
 MACC HZ EP   4    848  2.81                             102   -2.78 0  525 189 
 MACC HN ES   4    848 54.50                             102   -5.13 0  525 189 
 MACC SZ I         848 57.55         5.8 1.36            102            525 189 
                                                                                
