 2012  8 3 1726 46.7 L   6.769 -73.150142.6  RSN  5 0.4 1.7LRSN                1
 GAP=137        0.86       5.6     6.8  7.6 -0.1353E+01  0.1069E+02  0.2067E+01E
 Epicentro: LOS SANTOS - SANTANDER                                             3
 ACTION:UPD 12-09-10 11:54 OP:ep   STATUS:               ID:20120803172646 L   I
 2012-08-03-1720-00M.COL___215                                                 6
 STAT SP IPHASW D HRMM SECON CODA AMPLIT PERI AZIMU VELO AIN AR TRES W  DIS CAZ7
 BAR2 SZ EP       1727  5.88                             172    0.0210 19.9 190 
 BAR2 SZ ES   1   1727 20.15                             172   -0.67 7 19.9 190 
 BAR2 SZ I        1727 22.98        10.2 0.28                          19.9 190 
 BRR  HZ EP       1727  7.98                             152    0.4210 72.4 301 
 BRR  HN ES   1   1727 24.20                             152    0.36 7 72.4 301 
 BRR  HZ I        1727 28.76        13.1 0.32                          72.4 301 
 PAM  SZ EP       1727  8.77                             149    0.0310 80.3  38 
 PAM  SN ES   1   1727 25.76                             149   -0.18 7 80.3  38 
 PAM  SZ I        1727 27.92         6.9 0.56                          80.3  38 
 RUS  HZ EP       1727  9.84                             144   -0.0410 97.2 176 
 RUS  HN ES   1   1727 28.49                             144    0.52 7 97.2 176 
 RUS  HZ I        1727 29.98         7.7 0.44                          97.2 176 
 PTB  HZ EP       1727 12.77                             131   -0.52 9  147 260 
 PTB  HZ I        1727 38.99         4.7 0.18                           147 260 
                                                                                
