 2014 12 3 1006 21.8 L   6.734 -73.116139.1  RSN  7 0.3 1.4LRSN                1
 GAP=263        0.79       5.8     6.5  7.5  0.1010E+02  0.9330E+01  0.1105E+02E
 Epicentro: JORDAN - SANTANDER                                                 3
 ACTION:UPD 15-02-10 17:00 OP:nd   STATUS:               ID:20141203100621 L   I
 OLDACT:REG 14-12-03 20:21 OP:spq  STATUS:               ID:20141203095746     3
 2014-12-03-0957-46M.COL___306                                                 6
 STAT SP IPHASW D HRMM SECON CODA AMPLIT PERI AZIMU VELO AIN AR TRES W  DIS CAZ7
 BAR2 SZ EP   1   10 6 40.30                             173   -0.23 7 17.3 205 
 BAR2 SZ ES   1   10 6 54.65                             173   -0.48 7 17.3 205 
 BAR2 SZ I        10 6 57.71         4.3 0.20            169           17.3 205 
 BRR  HZ EP       10 6 42.59                             149   -0.0510 77.8 302 
 BRR  HN ES       10 6 59.44                             149    0.5510 77.8 302 
 BRR  HZ I        10 7  2.09         6.1 0.24            148           77.8 302 
 PTB  HZ EP   1   10 6 48.35                             130   -0.08 7  150 262 
 PTB  HN ES   1   10 7  9.16                             130   -0.04 7  150 262 
 PTB  HZ I        10 7 13.55         2.1 0.28            131            150 262 
 SPBC HZ EP       10 6 49.87                             128    0.40 9  160 222 
 SPBC HN ES   1   10 7 10.94                             128   -0.11 7  160 222 
 SPBC HZ I        10 7 12.50         2.8 0.10            130            160 222 
 ZAR  HN ES       10 7 19.44                             120   -0.47 8  210 294 
 ZAR  HZ I        10 7 25.22         2.3 0.32            122            210 294 
 MON  HN ES   4   10 7 47.66                             107   -2.41 0  361 309 
 MON  HZ I        10 7 49.96         1.0 0.22            109            361 309 
 SJC  HZ EP   4   10 7 15.73                             104   -2.36 0  417 327 
 SJC  HN ES   4   10 7 59.03                             104   -2.97 0  417 327 
 SJC  HZ I        10 8  1.90         1.0 0.60            106            417 327 
                                                                                
