 2011  8 3 1108 55.5 L   6.769 -73.076147.3  RSN  5 0.4 1.9LRSN                1
 GAP=147        0.74       4.4     8.2  7.0 -0.2784E+00 -0.8536E+00  0.5577E+01E
 Epicentro: LOS SANTOS - SANTANDER                                             3
 ACTION:UPD 12-07-25 14:05 OP:epov STATUS:               ID:20110803110855 L   I
 2011-08-03-1100-00M.COL___121                                                 6
 STAT SP IPHASW D HRMM SECON CODA AMPLIT PERI AZIMU VELO AIN AR TRES W  DIS CAZ7
 BAR2 SZ EP   1   11 9 15.08                             171   -0.21 7 22.8 211 
 BAR2 SZ ES   1   11 9 30.03                             171   -0.71 7 22.8 211 
 BAR2 SZ I        11 9 31.59        15.1 0.26                          22.8 211 
 PAM  SZ EP   1   11 9 18.07                             152    0.31 7 75.6  33 
 PAM  SZ I        11 9 18.37         8.0 0.17                          75.6  33 
 PAM  SN ES   2   11 9 35.23                             152    0.10 5 75.6  33 
 BRR  HZ EP       11 9 17.19                             150   -0.1010 79.6 298 
 BRR  HZ I        11 9 17.48        42.8 0.15                          79.6 298 
 BRR  HN ES   1   11 9 34.66                             150    0.36 7 79.6 298 
 RUS  HZ EP   1   11 9 19.35                             145    0.22 7 96.9 180 
 RUS  HN ES   1   11 9 37.91                             145    0.34 7 96.9 180 
 RUS  HZ I        11 9 39.17         8.9 0.28                          96.9 180 
 CHI  HZ EP   1   11 9 32.52                             117   -0.63 6  247 197 
 CHI  HN ES   1   1110  2.90                             117    0.38 6  247 197 
                                                                                
