 2014  8 3 1637 41.8 L   6.785 -73.143151.2  RSN  7 0.4 1.5LRSN                1
 GAP=201        0.98       4.5     6.0  8.5  0.9733E+01 -0.7041E+01 -0.7920E+01E
 Epicentro: LOS SANTOS - SANTANDER                                             3
 ACTION:UPD 14-09-15 21:46 OP:nd   STATUS:               ID:20140803163741 L   I
 OLDACT:UP  14-08-03 22:58 OP:mh   STATUS:               ID:20140803162819     3
 OLDACT:REG 14-08-03 21:39 OP:mh   STATUS:               ID:20140803162819     3
 2014-08-03-1628-19M.COL___254                                                 6
 STAT SP IPHASW D HRMM SECON CODA AMPLIT PERI AZIMU VELO AIN AR TRES W  DIS CAZ7
 BAR2 SZ EP       1638  1.98                             171   -0.1110 21.8 191 
 BAR2 SZ I        1638 24.27         2.9 0.17            170           21.8 191 
 BRR  HZ EP       1638  3.88                             153    0.2510 72.2 300 
 BRR  HN ES       1638 20.99                             153    0.3710 72.2 300 
 BRR  HZ I        1638 24.76         5.0 0.13            159           72.2 300 
 RUS  HZ EP       1638  6.15                             145    0.1410 99.0 176 
 RUS  HN ES       1638 24.30                             145   -0.5610 99.0 176 
 RUS  HZ I        1638 26.10         3.7 0.36            145           99.0 176 
 PTB  HZ EP       1638  8.80                             133   -0.44 9  148 259 
 PTB  HN ES       1638 30.20                             133   -0.43 9  148 259 
 PTB  HZ I        1638 32.56         5.9 0.16            138            148 259 
 SPBC HZ EP       1638 11.13                             130    0.48 9  162 219 
 SPBC HN ES       1638 33.75                             130    0.62 9  162 219 
 SPBC HZ I        1638 39.63         5.0 0.21            134            162 219 
 ZAR  HN ES       1638 40.08                             123   -0.30 9  205 293 
 SML  HZ EP   1   1638 18.46                             118   -0.48 6  245 335 
 SML  HN ES   1   1638 48.25                             118    0.37 6  245 335 
 SML  HZ I        1638 48.85         6.6 0.27            120            245 335 
                                                                                
