 2014  6 3 1911 39.3 L   6.793 -73.157140.2  RSN 14 0.5 2.2LRSN                1
 GAP=118        1.19       3.8     3.9  5.7 -0.3204E+01  0.4774E+01  0.4004E+01E
 Epicentro: LOS SANTOS - SANTANDER                                             3
 ACTION:UPD 14-07-01 22:50 OP:nd   STATUS:               ID:20140603191139 L   I
 OLDACT:REG 14-06-03 21:09 OP:stll STATUS:               ID:20140603190817     3
 2014-06-03-1908-17M.COL___259                                                 6
 STAT SP IPHASW D HRMM SECON CODA AMPLIT PERI AZIMU VELO AIN AR TRES W  DIS CAZ7
 BAR2 SZ EP       1911 58.38                             171    0.1110 22.4 187 
 BAR2 SZ ES       1912 13.17                             171    0.1210 22.4 187 
 BAR2 SZ I        1912 14.83        32.3 0.22            167           22.4 187 
 BRR  HZ IP     C 1912  0.39                             152    0.5510 70.5 300 
 BRR  HN ES       1912 16.59                             152    0.7510 70.5 300 
 BRR  HZ I        1912 17.58        49.2 0.34            150           70.5 300 
 PAM  SZ EP       1912  1.22                             149    0.1810 78.8  40 
 PAM  SZ I        1912  1.53        67.1 0.18            155           78.8  40 
 PAM  SN ES       1912 17.73                             149   -0.2510 78.8  40 
 RUS  HZ EP       1912  2.55                             143    0.0610 99.9 175 
 RUS  HN ES       1912 20.33                             143   -0.2210 99.9 175 
 RUS  HZ I        1912 23.22        11.4 0.30            142           99.9 175 
 PTB  HZ EP       1912  5.11                             131   -0.61 9  146 259 
 PTB  HN ES       1912 25.52                             131   -0.79 9  146 259 
 PTB  HZ I        1912 31.12        18.5 0.20            130            146 259 
 SPBC HZ EP       1912  7.28                             128    0.01 9  162 219 
 SPBC HZ I        1912  7.98        24.2 0.10            127            162 219 
 SPBC HN ES       1912 29.17                             128    0.10 9  162 219 
 ZAR  HZ EP       1912 11.66                             121    0.33 9  203 292 
 ZAR  HN ES       1912 35.87                             121   -0.42 9  203 292 
 ZAR  HZ I        1912 42.68        15.0 0.42            121            203 292 
 NOR  HZ EP       1912 14.87                             117    0.29 8  233 234 
 NOR  HN ES       1912 41.50                             117   -0.58 8  233 234 
 NOR  HZ I        1912 48.95         8.0 0.18            117            233 234 
 CHI  HZ EP       1912 16.90                             116    0.29 8  248 195 
 CHI  HN ES       1912 45.93                             116    0.25 8  248 195 
 CHI  HZ I        1912 55.32         6.3 0.42            116            248 195 
 HEL  HZ EP       1912 20.41                             114    1.30 8  271 256 
 HEL  HN ES       1912 49.54                             114   -0.60 8  271 256 
 HEL  HZ I        1912 57.12         8.2 0.32            114            271 256 
 GUY2CHZ EP       1912 23.16                             111    0.64 7  300 235 
 GUY2CHE ES       1912 55.94                             111   -0.27 7  300 235 
 GUY2CHZ I        1913  4.80         5.5 0.30                           300 235 
 SOCV BZ EP       1912 21.00                             111   -1.29 7  303  57 
 SOCV BN ES   4   1912 49.87                             111   -5.93 0  303  57 
 RREF HZ EP       1912 24.50                             110   -0.57 7  320 229 
 RREF HE ES       1913  1.22                             110    0.47 7  320 229 
 RREF HZ I        1913 10.28         7.6 0.26            110            320 229 
 PRA  HZ EP       1912 32.41                             106   -0.10 6  391 209 
 PRA  HN ES       1913 13.69                             106   -0.30 6  391 209 
 PRA  HZ I        1913 22.09         8.4 0.46            106            391 209 
                                                                                
