 2013  5 3 1424 12.3 L   6.738 -73.134142.9  RSN  5 0.5 1.7LRSN                1
 GAP=141        0.96       5.8     5.5 10.9 -0.3878E+01  0.1027E+02 -0.2328E+01E
 Epicentro: JORDAN - SANTANDER                                                 3
 ACTION:UPD 13-06-20 09:47 OP:ep   STATUS:               ID:20130503142412 L   I
 2013-05-03-1420-00M.COL___253                                                 6
 STAT SP IPHASW D HRMM SECON CODA AMPLIT PERI AZIMU VELO AIN AR TRES W  DIS CAZ7
 BRR  HZ EP   1   1424 33.90                             150    0.44 7 75.8 303 
 BRR  HN ES   1   1424 50.47                             150    0.55 7 75.8 303 
 BRR  HN I        1424 55.46        11.4 0.34            153           75.8 303 
 PAM  SZ EP   1   1424 34.75                             149    0.20 7 82.0  36 
 PAM  SN ES   2   1424 51.36                             149   -0.50 5 82.0  36 
 PAM  SN I        1424 52.83         7.6 0.20            155           82.0  36 
 RUS  HZ EP   1   1424 35.43                             145    0.11 7 93.7 177 
 RUS  HE ES       1424 53.13                             145   -0.1210 93.7 177 
 RUS  HE I        1424 57.71         4.5 0.56            148           93.7 177 
 PTB  HZ EP   1   1424 38.33                             131   -0.76 7  148 262 
 PTB  HN ES       1424 59.39                             131   -0.56 9  148 262 
 PTB  HN I        1425  1.50         5.8 0.22            134            148 262 
 NOR  HN ES       1425 15.66                             118    0.56 8  232 236 
 NOR  HN I        1425 21.76         5.7 0.18            121            232 236 
                                                                                
