 2013  9 3 1122 57.2 L   6.768 -73.114144.0  RSN 15 0.5 2.5LRSN                1
 GAP=142        1.03       3.9     4.7  5.8 -0.3822E+01  0.7491E+01  0.2184E+01E
 Epicentro: LOS SANTOS - SANTANDER                                             3
 ACTION:UPD 13-10-22 09:19 OP:ep   STATUS:               ID:20130903112257 L   I
 OLDACT:UP  13-09-03 19:11 OP:mh   STATUS:               ID:20130903112000     3
 OLDACT:REG 13-09-03 17:32 OP:mh   STATUS:               ID:20130903112000     3
 2013-09-03-1120-00M.COL___268                                                 6
 STAT SP IPHASW D HRMM SECON CODA AMPLIT PERI AZIMU VELO AIN AR TRES W  DIS CAZ7
 BAR2 SZ IP     C 1123 16.65                             171    0.0710 20.8 201 
 BAR2 SZ ES       1123 31.47                             171   -0.2110 20.8 201 
 BAR2 SZ I        1123 32.10        67.4 0.34            170           20.8 201 
 BRR  HZ IP     D 1123 18.57                             151    0.1310 76.0 300 
 BRR  HN ES       1123 35.42                             151    0.4110 76.0 300 
 BRR  HZ I        1123 39.42        45.7 0.12            150           76.0 300 
 PAM  SZ EP     D 1123 19.55                             150    0.2710 78.1  36 
 PAM  SN ES       1123 36.28                             150   -0.2110 78.1  36 
 PAM  SZ I        1123 38.84        64.7 0.24            153           78.1  36 
 RUS  HZ EP   1   1123 20.64                             144    0.12 7 96.8 178 
 RUS  HN ES   1   1123 38.66                             144   -0.04 7 96.8 178 
 RUS  HN I        1123 39.85        22.6 0.18            145           96.8 178 
 PTB  HZ EP       1123 23.49                             131   -0.80 9  151 260 
 PTB  HN ES       1123 44.90                             131   -0.51 9  151 260 
 PTB  HZ I        1123 46.52        39.8 0.16            131            151 260 
 OCA  HZ EP   1   1123 25.09                             128   -0.67 7  164 352 
 OCA  HE ES   1   1123 49.00                             128    0.97 7  164 352 
 OCA  HZ I        1123 51.61        42.0 0.26            130            164 352 
 ZAR  HZ EP   1   1123 30.02                             121    0.01 6  209 293 
 ZAR  HN ES   2   1123 54.99                             121   -0.61 4  209 293 
 ZAR  HN I        1123 57.02        67.0 0.12            122            209 293 
 NOR  HZ EP   1   1123 33.42                             118    0.50 6  235 236 
 NOR  HN ES   1   1124  1.63                             118    0.85 6  235 236 
 NOR  HZ I        1124  8.43        11.1 0.16            118            235 236 
 CHI  HZ EP   1   1123 33.58                             117   -0.96 6  246 196 
 CHI  HN ES   2   1124  4.11                             117    0.46 4  246 196 
 CHI  HZ I        1124  8.33         4.8 0.46            118            246 196 
 SML  HZ EP   1   1123 33.50                             116   -0.75 6  248 335 
 SML  HN ES   2   1124  2.91                             116   -0.22 4  248 335 
 SML  HZ I        1124  8.88        42.4 0.22            117            248 335 
 HEL  HZ EP   1   1123 38.49                             114    0.88 6  275 257 
 HEL  HE ES   2   1124  8.43                             114   -0.70 4  275 257 
 URE  HZ EP   4   1123 37.13                             113   -1.57 0  288 292 
 URE  HN ES   4   1124  7.76                             113   -3.31 0  288 292 
 URE  HZ I        1124 10.61        20.1 0.12            113            288 292 
 GUY2CHZ EP       1123 41.76                             112    0.93 7  302 236 
 GUY2CHE ES   4   1124 17.99                             112    3.14 0  302 236 
 GUY2CHN I        1124 22.54        12.1 0.44                           302 236 
 PRA  HZ EP   1   1123 50.69                             106    0.18 4  391 210 
 PRA  HN ES   2   1124 31.66                             106   -0.42 3  391 210 
 PRA  HN I        1124 37.98         7.0 0.28            107            391 210 
 SJC  HZ EP   4   1123 51.42                             105   -1.87 0  414 327 
 SJC  HN ES   4   1124 32.09                             105   -4.94 0  414 327 
 SJC  HN I        1124 35.49        13.3 0.18            106            414 327 
                                                                                
