 2011  4 3 1535 37.4 L   5.960 -74.207  0.0  RSN 10 0.5 1.6LRSN                1
 GAP=103        0.90       4.9     3.6  6.1 -0.1339E+02 -0.1247E+01 -0.1920E+01E
 Epicentro: LA BELLEZA - SANTANDER                                             3
 ACTION:UP  11-06-22 15:28 OP:REBC STATUS:               ID:20110403153537 L   I
 2011-04-03-1532-16S.COL___138                                                 6
 STAT SP IPHASW D HRMM SECON CODA AMPLIT PERI AZIMU VELO SNR AR TRES W  DIS CAZ7
 NOR  SZ EP   1   1535 51.74                              47     0.1 8   85 239 
 NOR  SN ES   1   1536  2.37                              47    -0.3 8   85 239 
 BAR2 SZ EP   2   1535 57.86                              47    -1.2 5  133  58 
 BAR2 SZ I        1536 22.54         7.0 0.41                           133  58 
 BRR  HZ EP   1   1535 59.28                              47    -0.3 8  138  23 
 BRR  HZ I        1536 18.40        15.2 0.15                           138  23 
 BTL  SZ EP   2   1536  0.73                              47    -0.6 5  148  44 
 BTL  SZ ES   1   1536 19.81                                    -0.2 8  148  44 
 HEL  HZ IP     C 1536  1.89                              47     0.410  149 280 
 HEL  HN ES   1   1536 20.10                              47    -0.1 7  149 280 
 HEL  HZ I        1536 21.72        13.3 0.35                           149 280 
 CHI  HN ES   3   1536 23.14                                     0.7 2  156 160 
 CHI  HZ I        1536 27.99         3.9 0.34                           156 160 
 GIR2 SZ EP   2   1536  4.25                                     0.2 5  167  42 
 GIR2 SZ ES   3   1536 24.09                                    -0.7 2  167  42 
 RREF HZ EP   1   1536  5.80                              47     0.4 7  172 227 
 RREF HN ES   2   1536 26.28                              47    -0.9 5  172 227 
 RREF HZ I        1536 31.03         4.8 0.22                           172 227 
 PAM  SN ES       1536 39.80                              37     0.5 9  226  47 
 PAM  SZ I        1536 40.98         8.5 0.29                           226  47 
 GRA  SZ ES   3   1536 47.85                                     0.9 2  263  36 
                                                                                
