 2017  7 3 1721 30.3 L   6.815 -73.144148.5  RSN  8 0.3 1.9LRSN                1
 GAP=111        0.72       3.4     3.1  5.3  0.1567E+01  0.6198E+01  0.6788E+01E
 Epicentro: LOS SANTOS - SANTANDER                                             3
 ACTION:UPD 17-08-30 15:29 OP:rebc STATUS:               ID:20170703172130 L   I
 OLDACT:REG 17-07-03 21:05 OP:ar   STATUS:               ID:20170703171741     3
 2017-07-03-1718-00M.COL___374                                                 6
 STAT SP IPHASW D HRMM SECON CODA AMPLIT PERI AZIMU VELO AIN AR TRES W  DIS CAZ7
 BAR2 EZ EP       1721 50.09                             170   -0.1610 25.0 190 
 BAR2 EZ ES       1722  5.56                             170   -0.2910 25.0 190 
 BAR2 EZ I        1722  7.90        15.6 0.34            168           25.0 190 
 BRR  HZ EP     D 1721 51.86                             153    0.1910 70.6 297 
 BRR  HE ES       1722  8.60                             153    0.2210 70.6 297 
 BRR  HZ I        1722 12.13        13.7 0.26            151           70.6 297 
 PAM  EE ES       1722 10.36                             152    0.1810 76.0  40 
 PTB  HZ EP       1721 56.93                             132   -0.57 9  148 258 
 PTB  HE ES       1722 18.47                             132   -0.28 9  148 258 
 PTB  HZ I        1722 22.94         6.3 0.22            132            148 258 
 SPBC HZ EP       1721 58.91                             129   -0.19 9  165 219 
 SPBC HE ES       1722 21.95                             129    0.35 9  165 219 
 SPBC HZ I        1722 27.34        10.6 0.26            130            165 219 
 YPLC HE ES       1722 23.94                             127    0.06 9  178 152 
 ZAR  HZ EP   4   1721 50.36                             123   -12.5 0  204 292 
 ZAR  HE ES       1722 28.31                             123    0.06 9  204 292 
 ZAR  HZ I        1722 36.14         6.1 0.16            124            204 292 
 GUY2CHZ EP       1722 14.65                             113    0.53 7  302 235 
 GUY2CHE ES       1722 48.56                             113    0.23 7  302 235 
 GUY2CHZ I        1722 56.81         3.4 0.26                           302 235 
                                                                                
