 2010 10 3 1801 56.9 L   6.772 -73.121146.8  RSN  6 0.2 2.0LRSN                1
 GAP=238        0.41       3.6     5.3  5.6  0.6333E+01  0.5520E+01  0.1181E+01E
 Epicentro: LOS SANTOS - SANTANDER                                             3
 ACTION:UP  11-02-18 11:07 OP:tino STATUS:               ID:20101003180156 L   I
 2010-10-03-1758-05S.COL___124                                                 6
 STAT SP IPHASW D HRMM SECON CODA AMPLIT PERI AZIMU VELO SNR AR TRES W  DIS CAZ7
 BAR2 SZ EP   1   18 2 16.51                             171    -0.1 7   21 199 
 BAR2 SZ I        18 2 33.81        19.9 0.24                            21 199 
 BRR  HZ EP       18 2 18.45                             151     0.110   75 300 
 BRR  HN ES   2   18 2 35.08                             151    -0.1 5   75 300 
 BRR  HZ I        18 2 37.97        23.6 0.12                            75 300 
 RUS  HZ IP     C 18 2 20.49                             145     0.010   97 178 
 RUS  HN ES   1   18 2 39.07                             145     0.1 7   97 178 
 RUS  HZ I        18 2 40.64        11.9 0.43                            97 178 
 NOR  SZ EP   2   18 2 32.74                             119     0.0 4  235 236 
 NOR  SN ES   2   18 3  0.53                             119    -0.2 4  235 236 
 CHI  HZ EP   2   18 2 33.97                             118    -0.4 4  246 196 
 CHI  HE ES   3   18 3  3.74                             118     0.1 2  246 196 
 CHI  HZ I        18 3 11.96         4.2 0.61                           246 196 
 RREF HZ EP   2   18 2 43.79                             111     0.7 3  322 230 
 RREF HZ I        18 3 29.61         6.6 0.25                           322 230 
                                                                                
