 2012 10 3 1634 15.3 L   6.750 -73.113144.3  RSN 10 0.5 2.6LRSN                1
 GAP=117        1.05       5.3     4.9  6.9  0.2778E+01  0.7359E+01  0.1157E+02E
 Epicentro: LOS SANTOS - SANTANDER                                             3
 ACTION:UPD 12-11-22 17:01 OP:ep   STATUS:               ID:20121003163415 L   I
 2012-10-03-1630-00M.COL___223                                                 6
 STAT SP IPHASW D HRMM SECON CODA AMPLIT PERI AZIMU VELO AIN AR TRES W  DIS CAZ7
 BAR2 SZ EP       1634 34.48                             172   -0.1810 19.0 204 
 BAR2 SZ ES   1   1634 49.12                             172   -0.65 7 19.0 204 
 BAR2 SZ I        1634 51.53        82.9 0.46                          19.0 204 
 GIR2 SZ EP       1634 35.09                             165    0.1210 37.4 346 
 GIR2 SZ ES   1   1634 50.01                             165   -0.31 7 37.4 346 
 BRR  HZ EP       1634 36.66                             150    0.0410 77.1 301 
 BRR  HN ES   1   1634 53.69                             150    0.43 7 77.1 301 
 BRR  HN I        1634 54.38       234.9 0.18                          77.1 301 
 RUS  HZ EP       1634 38.26                             145   -0.2310 94.9 178 
 RUS  HZ I        1634 39.45        12.6 0.44                          94.9 178 
 RUS  HE ES   1   1634 56.71                             145    0.13 7 94.9 178 
 TAM  HZ EP       1634 42.76                             131    0.36 9  150 103 
 TAM  HZ I        1634 42.93        54.7 0.20                           150 103 
 TAM  HN ES   1   1635  4.25                             131    0.70 7  150 103 
 ZAR  HZ EP       1634 47.58                             121   -0.62 8  209 293 
 ZAR  HN I        1635 18.29        50.5 0.30                           209 293 
 NOR  SZ EP       1634 50.90                             118   -0.01 8  234 236 
 NOR  SN I        1635 25.01       104.3 0.16                           234 236 
 CHI  HZ EP       1634 52.25                             117   -0.18 8  244 196 
 CHI  HZ I        1634 53.06         7.2 0.24                           244 196 
 CHI  HN ES   1   1635 20.98                             117   -0.42 6  244 196 
 HEL  HE ES   1   1635 29.03                             114    1.87 6  274 257 
 HEL  HN I        1635 34.81        16.4 0.20                           274 257 
 PRA  HZ EP       1635  7.82                             106   -0.58 6  389 210 
 PRA  HN ES   1   1635 50.53                             106    0.69 4  389 210 
 PRA  HN I        1635 55.81        14.3 0.56                           389 210 
                                                                                
