 2010  1 3 1923 51.2 L   6.804 -73.053149.8  RSN 14 0.6 3.6LRSN                1
 GAP=133        0.88       4.8     6.6  7.1 -0.1503E+02  0.1194E+02  0.2062E+01E
 Epicentro: LOS SANTOS - SANTANDER                                             3
 ACTION:UP  10-08-24 09:42 OP:vdl  STATUS:               ID:20100103192351 L   I
 2010-01-03-1922-11S.COL___097                                                 6
 STAT SP IPHASW D HRMM SECON CODA AMPLIT PERI AZIMU VELO SNR AR TRES W  DIS CAZ7
 BAR2 SZ IP       1924 11.32                             169    -0.110   28 211 
 BAR2 SZ ES   2   1924 26.68                             169    -0.5 5   28 211 
 GIR2 SZ EP   1   1924 12.38                             167     1.0 7   34 333 
 GIR2 SZ ES   2   1924 27.23                             167     0.0 5   34 333 
 RUS  BZ EP   1   1924 15.22                             145    -0.1 7  101 182 
 RUS  BN ES   2   1924 33.90                             145    -0.3 5  101 182 
 RUS  BZ I        1924 35.70       411.6 0.47                           101 182 
 OCA  SZ EP   1   1924 19.70                             130    -0.2 7  161 350 
 OCA  SZ ES   2   1924 42.57                             130     0.2 5  161 350 
 CHI  HZ EP   1   1924 29.11                             118    -0.4 6  252 197 
 CHI  HE ES   2   1924 58.46                             118    -0.9 4  252 197 
 CHI  HZ I        1925  4.60       166.2 0.26                           252 197 
 ROSC BZ IP       1924 30.91                             117     0.7 8  259 213 
 ROSC BE ES   2   1925  1.21                             117     0.6 4  259 213 
 ROSC BZ I        1925  5.06       258.3 0.46                           259 213 
 HEL  HZ EP   1   1924 32.01                             115    -0.7 6  282 256 
 HEL  HE ES   2   1925  4.20                             115    -0.9 4  282 256 
 HEL  HZ I        1925 10.29       179.7 0.39                           282 256 
 GUY  HZ EP   1   1924 35.73                             112    -0.3 5  310 236 
 GUY  HN ES   2   1925 11.50                             112     0.6 4  310 236 
 RREF BZ EP   1   1924 38.37                             111    -0.1 5  330 230 
 RREF BN ES   2   1925 16.17                             111     0.9 3  330 230 
 RREF BZ I        1925 22.56       200.6 0.35                           330 230 
 DBB  SZ EP   1   1924 39.04                             110    -1.0 5  350 274 
 TOL  SZ EP   1   1924 40.92                             110     0.4 5  351 226 
 TOL  SZ ES   2   1925 19.13                             110     0.2 3  351 226 
 SDV  BZ EP   1   1924 40.67                             109     0.2 5  352  49 
 SDV  BN ES   2   1925 18.47                             109    -0.4 3  352  49 
 ANIL BZ EP   1   1924 42.51                             109     0.5 5  365 226 
 ANIL BN ES   2   1925 22.30                             109     0.6 3  365 226 
 PRA  HZ EP   1   1924 44.57                             107    -0.9 4  398 211 
 PRA  HE ES   2   1925 27.13                             107    -0.7 3  398 211 
 PRA  HZ I        1925 31.11       191.1 0.42                           398 211 
                                                                                
