 2016 10 3 1011 57.1 L   6.775 -73.430126.0  RSN  4 0.1 0.8LRSN                1
 GAP=199        0.40       2.8     2.7  4.0  0.4230E+01  0.6061E+00  0.2046E+01E
 Epicentro: SAN VICENTE DE CHUCURI - SANTANDER                                 3
 ACTION:UPD 16-11-09 19:15 OP:rebc STATUS:               ID:20161003101157 L   I
 OLDACT:REG 16-10-03 20:35 OP:lv   STATUS:               ID:20161003100743     3
 2016-10-03-1008-00M.COL___378                                                 6
 STAT SP IPHASW D HRMM SECON CODA AMPLIT PERI AZIMU VELO AIN AR TRES W  DIS CAZ7
 BRR  HZ EP       1012 14.91                             158    0.0510 48.1 320 
 BRR  HN ES       1012 28.63                             158   -0.1010 48.1 320 
 RUS  HZ EP       1012 19.20                             138   -0.1010  105 159 
 RUS  HE ES       1012 36.78                             138    0.1610  105 159 
 RUS  HZ I        1012 38.22         1.1 0.26            137            105 159 
 PTB  HZ EP       1012 19.67                             134    0.0510  116 257 
 PTB  HN ES       1012 37.07                             134   -0.1310  116 257 
 PTB  HZ I        1012 41.97         1.4 0.10            132            116 257 
 ZAR  HN ES   2   1012 47.87                             122    0.37 4  177 297 
                                                                                
