 2013  7 3 1025 41.7 L   6.740 -73.201142.3  RSN  4 0.2 1.2LRSN                1
 GAP=226        0.51       5.1     5.0  5.4  0.9359E+01  0.7710E+01 -0.3142E+01E
 Epicentro: VILLANUEVA - SANTANDER                                             3
 ACTION:UPD 13-08-12 10:35 OP:ep   STATUS:               ID:20130703102541 L   I
 OLDACT:REG 13-07-03 14:07 OP:jn   STATUS:               ID:20130703101959     3
 2013-07-03-1019-59M.COL___267                                                 6
 STAT SP IPHASW D HRMM SECON CODA AMPLIT PERI AZIMU VELO AIN AR TRES W  DIS CAZ7
 BAR2 SZ EP   1   1026  0.60                             173   -0.24 7 16.5 173 
 BAR2 SZ ES       1026 15.56                             173   -0.1810 16.5 173 
 BAR2 SZ I        1026 17.85         3.3 0.30            172           16.5 173 
 BRR  HZ EP       1026  2.68                             152    0.2510 69.5 306 
 BRR  HN ES   1   1026 18.65                             152    0.09 7 69.5 306 
 RUS  HN ES   1   1026 22.94                             145    0.28 7 94.6 172 
 PTB  HZ EP   1   1026  7.55                             133   -0.23 7  141 261 
 PTB  HN ES   1   1026 28.03                             133   -0.06 7  141 261 
 PTB  HZ I        1026 30.14         2.1 0.30            133            141 261 
                                                                                
