 2017  5 3 1329  9.5 L   6.764 -73.128144.3  RSN  6 0.3 1.6LRSN                1
 GAP=140        0.56       2.7     2.7  5.2 -0.1291E+00  0.4224E+01  0.2643E+01E
 Epicentro: LOS SANTOS - SANTANDER                                             3
 ACTION:UPD 17-06-16 13:32 OP:jn   STATUS:               ID:20170503132909 L   I
 OLDACT:UP  17-05-03 22:46 OP:and  STATUS:               ID:20170503132746     3
 OLDACT:UP  17-05-03 22:46 OP:and  STATUS:               ID:20170503132746     3
 OLDACT:UP  17-05-03 22:46 OP:and  STATUS:               ID:20170503132746     3
 OLDACT:REG 17-05-03 20:43 OP:and  STATUS:               ID:20170503132746     3
 2017-05-03-1328-00M.COL___383                                                 6
 STAT SP IPHASW D HRMM SECON CODA AMPLIT PERI AZIMU VELO AIN AR TRES W  DIS CAZ7
 BRR  HZ EP   2   1329 30.77                             151    0.09 5 74.9 301 
 BRR  HN ES       1329 47.45                             151    0.2310 74.9 301 
 PAM  EZ EP       1329 31.70                             150    0.0510 79.3  37 
 PAM  EN ES       1329 48.60                             150   -0.3510 79.3  37 
 PAM  EZ I        1329 50.84         4.6 0.17            153           79.3  37 
 RUS  HZ EP       1329 32.84                             145    0.0510 96.5 177 
 RUS  HN ES       1329 51.17                             145    0.2010 96.5 177 
 RUS  HZ I        1329 52.70         7.2 0.48            146           96.5 177 
 PTB  HZ EP       1329 36.44                             131    0.01 9  149 260 
 PTB  HN ES   3   1329 56.17                             131   -1.29 2  149 260 
 PTB  HZ I        1330  0.02         3.7 0.26            131            149 260 
 ZAR  HN ES       1330  7.78                             122    0.11 8  207 293 
 ZAR  HZ I        1330 12.07         4.6 0.21            122            207 293 
 NOR  HE ES       1330 12.48                             118   -0.31 8  234 236 
 NOR  HZ I        1330 17.61         3.2 0.16            119            234 236 
                                                                                
