 2012  9 3 1237  6.3 L   6.866 -73.316126.4  RSN  7 0.4 2.2LRSN                1
 GAP=124        0.92       5.7     6.6  8.1  0.1497E+02  0.2031E+02  0.1058E+02E
 Epicentro: BETULIA - SANTANDER                                                3
 ACTION:UPD 12-10-22 14:16 OP:ep   STATUS:               ID:20120903123706 L   I
 2012-09-03-1230-00M.COL___218                                                 6
 STAT SP IPHASW D HRMM SECON CODA AMPLIT PERI AZIMU VELO AIN AR TRES W  DIS CAZ7
 GIR2 SZ IP       1237 23.80                             167    0.2110 27.1  30 
 GIR2 SZ ES   2   1237 36.91                             167   -0.13 5 27.1  30 
 BAR2 SZ IP       1237 24.25                             164    0.3210 33.7 154 
 BAR2 SZ ES   1   1237 37.22                             164   -0.43 7 33.7 154 
 BAR2 SZ I        1237 38.40       114.3 0.48                          33.7 154 
 BRR  HZ IP     D 1237 24.55                             157    0.2610 51.2 301 
 BRR  HZ I        1237 24.85        34.8 0.46                          51.2 301 
 BRR  HN ES   1   1237 38.86                             157    0.56 7 51.2 301 
 RUS  HZ EP       1237 29.09                             136    0.0310  111 167 
 RUS  HN ES   3   1237 46.25                             136   -0.53 2  111 167 
 PTB  HZ EP       1237 29.44                             131   -0.7710  131 254 
 OCA  HN ES   1   1237 51.99                             126   -0.69 7  152 360 
 OCA  HZ I        1237 53.50        27.1 0.28                           152 360 
 ZAR  HZ EP       1237 35.75                             121    0.31 9  184 292 
 ZAR  HN ES   1   1237 58.08                             121   -0.06 7  184 292 
 ZAR  HZ I        1238  4.36         8.4 0.42                           184 292 
                                                                                
