 2013  5 3 1644 46.3 L   6.773 -73.115143.0  RSN  4 0.1 1.6LRSN                1
 GAP=142        0.34       2.6     3.9  4.7  0.2176E+01 -0.3058E+01 -0.7339E+00E
 Epicentro: LOS SANTOS - SANTANDER                                             3
 ACTION:UPD 13-06-20 09:47 OP:ep   STATUS:               ID:20130503164446 L   I
 2013-05-03-1640-00M.COL___253                                                 6
 STAT SP IPHASW D HRMM SECON CODA AMPLIT PERI AZIMU VELO AIN AR TRES W  DIS CAZ7
 BAR2 SZ EP   1   1645  5.53                             171   -0.05 7 21.4 200 
 BRR  HZ EP       1645  7.34                             151   -0.0910 75.6 299 
 BRR  HN ES   1   1645 23.98                             151    0.08 7 75.6 299 
 BRR  HN I        1645 25.57        10.8 0.14            155           75.6 299 
 PAM  SZ EP   1   1645  8.46                             150    0.20 7 77.6  36 
 PAM  SN ES   2   1645 25.20                             150   -0.17 5 77.6  36 
 PAM  SN I        1645 27.72         6.6 0.50            152           77.6  36 
 RUS  HZ EP   1   1645  9.57                             144   -0.01 7 97.5 178 
 RUS  HN ES   1   1645 27.74                             144    0.03 7 97.5 178 
 RUS  HN I        1645 29.96         6.0 0.22            147           97.5 178 
                                                                                
