 2011  7 3 1728  2.6 L   6.761 -73.094142.2  RSN 10 0.4 2.0LRSN                1
 GAP=173        0.74       6.1     6.5  5.8 -0.2352E+02  0.9154E+00  0.3466E+01E
 Epicentro: LOS SANTOS - SANTANDER                                             3
 ACTION:UPD 12-07-25 13:58 OP:epov STATUS:               ID:20110703172802 L   I
 2011-07-03-1720-00M.COL___124                                                 6
 STAT SP IPHASW D HRMM SECON CODA AMPLIT PERI AZIMU VELO AIN AR TRES W  DIS CAZ7
 BAR2 SZ EP       1728 21.63                             171   -0.0810 21.1 208 
 BAR2 SZ ES   3   1728 36.52                             171   -0.14 2 21.1 208 
 BAR2 SZ I        1728 37.84        28.2 0.22                          21.1 208 
 BTL  SZ EP       1728 22.06                             169    0.2410 25.9 312 
 BTL  SZ ES   1   1728 36.71                             169   -0.13 7 25.9 312 
 GIR2 SZ EP       1728 21.97                             165    0.0010 36.8 343 
 PAM  SZ EP       1728 24.85                             150    0.4610 77.4  34 
 PAM  SN ES   1   1728 41.38                             150   -0.05 7 77.4  34 
 BRR  HZ EP       1728 23.70                             150   -0.0410 78.3 299 
 BRR  HZ I        1728 24.19        35.4 0.10                          78.3 299 
 BRR  HN ES   1   1728 40.81                             150    0.54 7 78.3 299 
 BRI  SZ ES   2   1728 44.59                             140   -0.20 5  111  17 
 GRA  SZ EP       1728 27.44                             136   -0.2610  128  14 
 GRA  SZ ES   1   1728 46.78                             136   -0.54 7  128  14 
 GRA  SZ I        1728 48.18        12.4 0.40                           128  14 
 OCA  SZ EP       1728 31.01                             128   -0.06 9  165 351 
 OCA  SZ I        1729  0.85         9.2 0.23                           165 351 
 NOR  SN ES   2   1729  4.73                             117   -1.49 4  237 236 
 HEL  HZ EP   1   1728 43.37                             114    0.28 6  277 257 
 HEL  HZ I        1729 22.69         4.1 0.21                           277 257 
                                                                                
