 2015  2 3 1023 41.9 L   6.849 -73.080138.5  RSN  4 0.5 1.4LRSN                1
 GAP=228        1.19       5.7     9.8 10.7  0.4700E+01  0.3074E+02 -0.2046E+02E
 Epicentro: LOS SANTOS - SANTANDER                                             3
 ACTION:UPD 15-04-30 21:21 OP:nd   STATUS:               ID:20150203102341 L   I
 OLDACT:REG 15-02-03 19:25 OP:cam  STATUS:               ID:20150203101816     3
 2015-02-03-1018-16M.COL___265                                                 6
 STAT SP IPHASW D HRMM SECON CODA AMPLIT PERI AZIMU VELO AIN AR TRES W  DIS CAZ7
 BAR2 EZ EP       1024  1.14                             167    0.2910 30.5 202 
 BAR2 EZ ES       1024 15.80                             167    0.1810 30.5 202 
 BAR2 EZ I        1024 17.55         5.5 0.22            164           30.5 202 
 SPBC HZ EP       1024 10.36                             126   -0.37 9  172 220 
 SPBC HN ES       1024 32.67                             126   -0.53 9  172 220 
 SPBC HZ I        1024 38.31         2.1 0.10            126            172 220 
 ZAR  HZ EP       1024 15.33                             120    0.92 8  209 290 
 ZAR  HN ES       1024 40.08                             120    0.34 8  209 290 
 ZAR  HN I        1024 44.92         2.8 0.44            120            209 290 
 SML  HZ EP       1024 17.81                             116   -0.15 8  242 333 
 SML  HN ES       1024 45.21                             116   -0.86 8  242 333 
 SML  HZ I        1024 49.82         2.2 0.26            117            242 333 
                                                                                
