 2010  3 3 1253  1.4 L   6.788 -73.076145.1  RSN 10 0.3 2.9LRSN                1
 GAP=131        0.74       2.9     4.4  4.6 -0.1812E+01  0.6585E+00  0.2521E+01E
 Epicentro: LOS SANTOS - SANTANDER                                             3
 ACTION:UP  10-08-24 09:51 OP:vdl  STATUS:               ID:20100303125301 L   I
 2010-03-03-1249-18S.COL___096                                                 6
 STAT SP IPHASW D HRMM SECON CODA AMPLIT PERI AZIMU VELO SNR AR TRES W  DIS CAZ7
 BAR2 SZ IP       1253 21.03                             170     0.110   25 209 
 BAR2 SZ ES   1   1253 35.88                             170    -0.3 7   25 209 
 BRR  HZ IP       1253 22.88                             150     0.010   79 297 
 BRR  HZ I        1253 23.22       206.7 0.10                            79 297 
 BRR  HN ES       1253 39.86                             150     0.210   79 297 
 RUS  BZ EP       1253 25.03                             144     0.110   99 180 
 RUS  BE ES   1   1253 43.02                             144    -0.3 7   99 180 
 RUS  BZ I        1253 44.39        69.2 0.24                            99 180 
 OCA  SZ EP   1   1253 29.45                             129    -0.4 7  163 351 
 OCA  SZ ES   1   1253 52.48                             129     0.4 7  163 351 
 OCA  SZ I        1253 55.96       254.0 0.13                           163 351 
 CHI  HZ EP       1253 39.37                             117     0.2 8  249 197 
 CHI  HN ES   1   1254  8.92                             117     0.3 6  249 197 
 CHI  HZ I        1254 11.62        26.9 0.29                           249 197 
 HEL  HZ EP   2   1253 42.97                             114     0.6 4  279 256 
 HEL  HE ES   1   1254 13.84                             114    -0.5 6  279 256 
 HEL  HZ I        1254 19.48        38.0 0.56                           279 256 
 RREF BZ EP       1253 48.62                             110     0.6 7  327 230 
 RREF BN ES   1   1254 24.58                             110     0.1 5  327 230 
 RREF BZ I        1254 32.58        33.4 0.26                           327 230 
 DBB  SZ EP       1253 49.03                             109    -0.7 6  347 274 
 SDV  BZ EP       1253 50.65                             108    -0.2 6  355  49 
 PRA  HZ EP       1253 54.83                             106    -0.4 6  395 211 
 PRA  HN ES       1254 37.03                             106    -0.1 6  395 211 
 PRA  HZ I        1254 41.89        40.4 0.29                           395 211 
                                                                                
