 2013  8 3 1015  9.0 L   6.867 -73.339124.5  RSN 12 0.5 2.2LRSN                1
 GAP=116        1.08       3.8     5.9  6.1  0.4725E+01  0.1481E+02 -0.3070E+01E
 Epicentro: BETULIA - SANTANDER                                                3
 ACTION:UPD 14-01-14 08:58 OP:ep   STATUS:               ID:20130803101509 L   I
 OLDACT:UP  13-08-03 15:42 OP:cam  STATUS:               ID:20130803100959     3
 OLDACT:REG 13-08-03 14:44 OP:cam  STATUS:               ID:20130803100959     3
 2013-08-03-1009-59M.COL___268                                                 6
 STAT SP IPHASW D HRMM SECON CODA AMPLIT PERI AZIMU VELO AIN AR TRES W  DIS CAZ7
 GIR2 SZ EP     C 1015 26.27                             166    0.2110 28.4  34 
 GIR2 SZ ES       1015 39.03                             166   -0.3410 28.4  34 
 GIR2 SZ I        1015 41.32        40.8 0.23            169           28.4  34 
 BAR2 SZ IP     D 1015 26.67                             164    0.2610 34.9 150 
 BAR2 SZ ES       1015 39.55                             164   -0.4510 34.9 150 
 BAR2 SZ I        1015 41.18        84.4 0.26            167           34.9 150 
 BRR  HZ EP       1015 26.94                             157    0.3010 49.1 303 
 BRR  HN ES       1015 41.26                             157    0.8510 49.1 303 
 BRR  HZ I        1015 42.02        31.4 0.14            153           49.1 303 
 RUS  HZ EP       1015 31.40                             136   -0.2010  111 165 
 RUS  HN ES   1   1015 49.22                             136   -0.03 7  111 165 
 RUS  HZ I        1015 51.13         9.6 0.28            139            111 165 
 PTB  HZ EP       1015 31.96                             131   -0.5410  129 254 
 PTB  HN ES   4   1015 49.46                             131   -1.39 0  129 254 
 PTB  HZ I        1015 55.47        14.2 0.24            130            129 254 
 OCA  HZ EP   1   1015 34.84                             126   -0.05 7  152   1 
 OCA  HE ES       1015 54.77                             126   -0.33 9  152   1 
 OCA  HZ I        1015 59.69        25.6 0.24            128            152   1 
 SPBC HE ES   2   1015 56.33                             125    0.47 5  157 211 
 ZAR  HZ EP       1015 38.48                             121    0.74 9  182 293 
 ZAR  HN ES   4   1016  1.84                             121    1.68 0  182 293 
 ZAR  HZ I        1016  6.37        15.9 0.52            121            182 293 
 SML  HZ IPg      1015 42.58                             114   -0.25 8  229 339 
 SML  HZ EP       1015 43.34                             114    0.51 8  229 339 
 SML  HN ES   1   1016  9.10                             114   -0.13 6  229 339 
 SML  HZ I        1016 12.95        35.9 0.26            116            229 339 
 HEL  HZ I        1016 21.87         7.2 0.24            113            254 253 
 URE  HZ EP   1   1015 46.21                             111   -0.32 6  261 292 
 URE  HN ES       1016 14.96                             111   -0.86 8  261 292 
 URE  HZ I        1016 17.12        10.5 0.16            112            261 292 
 PCON HZ E        1012  6.13                                            606 214 
                                                                                
