 2016  1 3 1703 48.6 L   6.780 -73.140137.5  RSN  8 0.5 1.6LRSN                1
 GAP=138        0.76       3.6     3.9  5.7  0.5065E-01  0.7055E+01  0.5553E-02E
 Epicentro: LOS SANTOS - SANTANDER                                             3
 ACTION:UPD 16-03-09 23:22 OP:cam  STATUS:               ID:20160103170348 L   I
 OLDACT:REG 16-01-03 20:32 OP:dnl  STATUS:               ID:20160103165747     3
 2016-01-03-1657-47M.COL___317                                                 6
 STAT SP IPHASW D HRMM SECON CODA AMPLIT PERI AZIMU VELO AIN AR TRES W  DIS CAZ7
 BAR2 EZ EP       17 4  7.13                             171   -0.0510 21.3 193 
 BAR2 EZ ES       17 4 21.21                             171   -0.4710 21.3 193 
 BAR2 EZ I        17 4 24.32        11.8 0.27            171           21.3 193 
 BRR  HZ EP   2   17 4  9.17                             150    0.23 5 72.8 300 
 BRR  HE ES       17 4 25.47                             150    0.6510 72.8 300 
 BRR  HZ I        17 4 26.90         8.0 0.27            149           72.8 300 
 PAM  EZ EP       17 4 10.05                             149    0.0410 78.7  38 
 PAM  EE ES       17 4 26.66                             149   -0.0610 78.7  38 
 PAM  EZ I        17 4 29.29         8.2 0.60            150           78.7  38 
 RUS  HZ EP   2   17 4 11.32                             143   -0.04 5 98.3 176 
 RUS  HE ES       17 4 29.31                             143    0.1810 98.3 176 
 RUS  HZ I        17 4 31.26         6.1 0.33            144           98.3 176 
 ZAR  HZ EP   3   17 4 21.86                             120    1.21 2  205 293 
 ZAR  HE ES       17 4 45.32                             120   -0.34 8  205 293 
 ZAR  HZ I        17 4 47.27         3.9 0.09            120            205 293 
 NOR  HZ EP   1   17 4 23.78                             117    0.02 6  234 235 
 NOR  HE ES   2   17 4 50.21                             117   -0.98 4  234 235 
 NOR  HZ I        17 4 56.85         3.1 0.07            117            234 235 
 SML  HZ EP   2   17 4 24.37                             115   -0.64 4  246 335 
 SML  HE ES   3   17 4 52.29                             115   -1.13 2  246 335 
 SML  HZ I        17 5  0.28         4.8 0.08            115            246 335 
 GUY2CHZ EP   2   17 4 32.52                             111    0.79 4  300 235 
 GUY2CHE ES   2   17 5  5.73                             111    0.34 4  300 235 
 GUY2CHZ I        17 5 12.43         1.6 0.32                           300 235 
                                                                                
