 2011  8 3 1353  5.9 L   6.793 -72.950139.8  RSN  3 0.1 1.6LRSN                1
 GAP=256        0.39       7.6    13.3  6.3  0.8856E+02 -0.5188E+02 -0.2751E+02E
 Epicentro: CEPITA - SANTANDER                                                 3
 ACTION:UPD 12-07-25 14:05 OP:epov STATUS:               ID:20110803135305 L   I
 2011-08-03-1352-02S.COL___123                                                 6
 STAT SP IPHASW D HRMM SECON CODA AMPLIT PERI AZIMU VELO AIN AR TRES W  DIS CAZ7
 BAR2 SZ EP   1   1353 25.28                             166    0.25 7 33.9 229 
 BAR2 SZ ES   1   1353 39.85                             166   -0.14 7 33.9 229 
 BAR2 SZ I        1353 42.11        10.4 0.25                          33.9 229 
 BRR  HZ EP   1   1353 27.49                             145   -0.14 7 91.0 292 
 BRR  HZ I        1353 33.02         7.7 0.28                          91.0 292 
 BRR  HN ES   1   1353 44.70                             145    0.08 7 91.0 292 
 RUS  HZ EP   1   1353 28.91                             142   -0.11 7  101 188 
 RUS  HN ES   1   1353 47.15                             142    0.06 7  101 188 
                                                                                
