 2012  2 3 1032  0.6 L   6.463 -74.002 75.6  RSN 11 0.3 2.2LRSN                1
 GAP= 64        0.58       1.8     1.5  4.5 -0.3208E+00  0.9060E+00  0.2803E+01E
 ACTION:UP  12-03-07 16:27 OP:epov STATUS:               ID:20120203103200 L   I
 2012-02-03-1030-00M.COL___188                                                 6
 STAT SP IPHASW D HRMM SECON CODA AMPLIT PERI AZIMU VELO SNR AR TRES W  DIS CAZ7
 PTB  HZ EP       1032 12.86                             143   -0.3110 51.0 280 
 PTB  HE ES   1   1032 22.70                             143   -0.27 7 51.0 280 
 BRR  HZ IP     D 1032 15.37                             129   -0.1110 78.1  24 
 BRR  HN ES       1032 27.33                             129    0.2510 78.1  24 
 BAR2 SZ IP       1032 17.30                             125    0.1610 91.7  81 
 BAR2 SZ ES       1032 30.38                             125    0.3410 91.7  81 
 BAR2 SZ I        1032 31.74        83.9 0.32                          91.7  81 
 GIR2 SZ EP       1032 18.99                             119   -0.1910  112  53 
 RUS  HZ EP       1032 20.28                             117   -0.1510  120 122 
 RUS  HE ES   1   1032 35.61                             117   -0.29 7  120 122 
 NOR  SZ EP       1032 22.00                             113    0.04 9  138 224 
 NOR  SE ES   1   1032 38.61                             113    0.00 7  138 224 
 ZAR  HZ EP       1032 22.93                             111   -0.09 9  148 320 
 ZAR  HN ES   1   1032 40.67                             111    0.18 7  148 320 
 ZAR  HZ I        1032 45.49        29.4 0.22                           148 320 
 HEL  HZ EP       1032 26.43                             108    0.21 9  172 260 
 HEL  HN ES   1   1032 46.13                             108   -0.06 7  172 260 
 HEL  HZ I        1032 49.38        28.1 0.27                           172 260 
 PAM  SZ EP   1   1032 26.08                             108   -0.51 7  174  56 
 CHI  HZ EP   1   1032 30.34                             105    0.12 6  205 172 
 CHI  HE ES   1   1032 53.22                             105   -0.10 6  205 172 
 CHI  HZ I        1033  0.59         9.6 0.40                           205 172 
 RREF HZ EP   1   1032 33.96                             103    0.68 6  228 221 
 RREF HN ES   1   1032 58.98                             103    0.22 6  228 221 
 RREF HZ I        1033  4.40        13.6 0.18                           228 221 
                                                                                
