 2011  1 3 1441 30.2 L   6.784 -73.082145.7  RSN 17 0.5 2.8LRSN                1
 GAP=141        0.87       3.5     5.6  6.4 -0.4325E+01  0.1055E+02  0.5430E+01E
 Epicentro: LOS SANTOS - SANTANDER                                             3
 ACTION:UP  11-02-08 08:38 OP:pat  STATUS:               ID:20110103144130 L   I
 2011-01-03-1440-00M.COL___137                                                 6
 STAT SP IPHASW D HRMM SECON CODA AMPLIT PERI AZIMU VELO SNR AR TRES W  DIS CAZ7
 BAR2 SZ IP       1441 49.77                             170    -0.110   24 208 
 BAR2 SZ ES   2   1442  4.55                             170    -0.6 5   24 208 
 BAR2 SZ I        1442  6.04       166.8 0.41                            24 208 
 BTL  SZ IP       1441 49.88                             170     0.010   25 306 
 BTL  SZ ES   2   1442  5.48                             170     0.3 5   25 306 
 GIR2 SZ IP       1441 49.88                             166    -0.110   35 339 
 GIR2 SZ ES   2   1442  6.00                             166     0.6 5   35 339 
 RUS  HZ IP     D 1441 53.61                             144    -0.210   99 180 
 RUS  HE ES   2   1442 12.01                             144    -0.2 5   99 180 
 RUS  HZ I        1442 13.67        74.1 0.26                            99 180 
 GRA  SZ IP       1441 55.55                             137     0.110  126  14 
 GRA  SZ I        1441 56.68       107.5 0.33                           126  14 
 GRA  SZ ES   2   1442 13.99                             137    -1.1 5  126  14 
 OCA  SZ EP   1   1441 58.44                             129    -0.3 7  163 351 
 OCA  SZ ES   2   1442 22.00                             129     1.0 5  163 351 
 OCA  SZ I        1442 26.95        85.1 0.39                           163 351 
 YOP  SZ EP   1   1442  0.19                             127     0.4 7  174 155 
 YOP  SN ES   2   1442 23.54                             127     0.7 4  174 155 
 YOP  SZ I        1442 25.29        26.6 0.66                           174 155 
 NOR  SZ EP   1   1442  5.41                             118    -1.0 6  240 236 
 NOR  SN ES   2   1442 33.70                             118    -1.0 4  240 236 
 CHI  HZ EP   1   1442  7.66                             117    -0.3 6  249 197 
 CHI  HZ I        1442 10.46        27.0 0.40                           249 197 
 CHI  HE ES   2   1442 37.55                             117     0.2 4  249 197 
 ROSC BZ EP   1   1442  9.43                             116     0.9 6  255 213 
 ROSC BN ES   2   1442 38.72                             116     0.2 4  255 213 
 ROSC BZ I        1442 47.45        64.6 0.50                           255 213 
 HEL  HZ EP   1   1442 11.87                             114     0.8 6  279 257 
 HEL  HN ES   2   1442 43.96                             114     0.9 4  279 257 
 HEL  HZ I        1442 48.47        38.8 0.28                           279 257 
 VIL  SZ EP   1   1442 13.46                             112     0.1 5  301 191 
 GUY  SZ EP   1   1442 14.64                             112     0.3 5  306 236 
 GUY  SE ES   2   1442 49.33                             112     0.5 4  306 236 
 GUY  SZ I        1442 57.61        45.0 0.40                           306 236 
 RREF HZ EP   1   1442 16.89                             110     0.1 5  326 230 
 RREF HE ES   2   1442 52.41                             110    -0.8 3  326 230 
 RREF HZ I        1442 58.22        31.0 0.33                           326 230 
 DBB  SZ EP   1   1442 18.36                                    -0.1 5  347 274 
 PRA  HZ EP   1   1442 23.39                             106    -0.6 4  394 211 
 PRA  HN ES   2   1443  6.03                             106     0.2 3  394 211 
 SJA  SZ EP   1   1442 24.59                             106    -0.1 4  400 194 
 SJA  SZ ES   2   1443  7.02                             106    -0.3 3  400 194 
 SJA  SZ I        1443 17.60        44.0 0.48                           400 194 
                                                                                
