 2011  9 3 1143  7.4 L   6.848 -72.992133.1  RSN  4 0.3 1.3LRSN                1
 GAP=227        0.58       7.9    13.7  9.5  0.8237E+02 -0.7313E+02 -0.4117E+02E
 Epicentro: CEPITA - SANTANDER                                                 3
 ACTION:UPD 12-07-13 15:55 OP:ep   STATUS:               ID:20110903114307 L   I
 2011-09-03-1138-46S.COL___170                                                 6
 STAT SP IPHASW D HRMM SECON CODA AMPLIT PERI AZIMU VELO AIN AR TRES W  DIS CAZ7
 GIR2 SZ EP   1   1143 26.00                             165    0.38 7 33.9 319 
 BAR2 SZ EP   1   1143 25.59                             164   -0.21 7 35.3 217 
 BAR2 SZ ES   1   1143 39.90                             164   -0.29 7 35.3 217 
 BAR2 SZ I        1143 43.46         5.2 0.47                          35.3 217 
 BRR  HZ EP   1   1143 27.67                             146   -0.36 7 84.6 290 
 BRR  HE ES   1   1143 44.39                             146    0.24 7 84.6 290 
 BRR  HZ I        1143 45.84         6.3 0.12                          84.6 290 
 RUS  HZ EP   2   1143 30.51                             139    0.19 5  106 185 
 RUS  HN ES   1   1143 48.40                             139    0.17 7  106 185 
 RUS  HZ I        1143 49.86         2.2 0.49                           106 185 
                                                                                
