 2013  4 3 1841  8.9 L   6.781 -73.149142.3  RSN  8 0.4 1.5LRSN                1
 GAP=137        0.85       5.0     4.6  7.4 -0.1949E+01  0.8582E+01  0.4781E+01E
 Epicentro: LOS SANTOS - SANTANDER                                             3
 ACTION:UPD 13-05-22 14:35 OP:EP   STATUS:               ID:20130403184108 L   I
 2013-04-03-1840-00M.COL___245                                                 6
 STAT SP IPHASW D HRMM SECON CODA AMPLIT PERI AZIMU VELO AIN AR TRES W  DIS CAZ7
 BAR2 SZ EP   1   1841 28.09                             171   -0.03 7 21.1 190 
 BAR2 SZ ES   1   1841 43.28                             171    0.21 7 21.1 190 
 BAR2 SZ I        1841 44.34        12.5 0.17            173           21.1 190 
 GIR2 SZ EP   1   1841 28.37                             166    0.11 7 33.3 352 
 GIR2 SZ ES   1   1841 43.58                             166    0.25 7 33.3 352 
 GIR2 SZ I        1841 45.41         5.1 0.32            164           33.3 352 
 BRR  HZ EP   1   1841 30.07                             152    0.31 7 71.9 300 
 BRR  HN ES   1   1841 46.25                             152    0.25 7 71.9 300 
 PAM  SZ EP   1   1841 31.21                             150    0.30 7 79.3  39 
 PAM  SN ES   1   1841 47.20                             150   -0.84 7 79.3  39 
 PAM  SZ I        1841 50.50         4.7 0.70            151           79.3  39 
 RUS  HZ EP   1   1841 32.29                             144    0.09 7 98.5 176 
 RUS  HN ES   1   1841 50.51                             144    0.17 7 98.5 176 
 RUS  HZ I        1841 52.00         3.1 0.32            147           98.5 176 
 PTB  HZ EP   1   1841 34.94                             131   -0.62 7  147 260 
 PTB  HN ES   1   1841 55.43                             131   -0.89 7  147 260 
 PTB  HZ I        1841 58.38         4.8 0.10            132            147 260 
 ZAR  HE ES   1   1842  6.97                             122    0.59 6  204 293 
 ZAR  HZ I        1842 12.15         4.7 0.36            122            204 293 
 NOR  HN ES   1   1842 12.00                             118    0.11 6  233 235 
                                                                                
