 2014  1 3 1402 21.7 L   6.789 -73.130148.6  RSN 10 0.5 1.9LRSN                1
 GAP=202        0.92       3.7     5.9  6.6  0.2628E+01  0.7570E+01 -0.8920E+00E
 Epicentro: LOS SANTOS - SANTANDER                                             3
 ACTION:UPD 14-03-13 09:51 OP:ep   STATUS:               ID:20140103140221 L   I
 OLDACT:UP  14-01-03 19:09 OP:mher STATUS:               ID:20140103140001d    3
 OLDACT:UP  14-01-03 19:08 OP:mher STATUS:               ID:20140103140001d    3
 OLDACT:DUP 14-01-03 19:01 OP:mher STATUS:               ID:20140103140001d    3
 2014-01-03-1400-00M.COL___285                                                 6
 STAT SP IPHASW D HRMM SECON CODA AMPLIT PERI AZIMU VELO AIN AR TRES W  DIS CAZ7
 BAR2 SZ EP       14 2 41.83                             171    0.1710 22.5 195 
 BAR2 SZ ES   1   14 2 57.32                             171    0.10 7 22.5 195 
 BAR2 SZ I        14 2 58.50        18.4 0.21            169           22.5 195 
 BRR  HZ EP   1   14 2 43.56                             152    0.28 7 73.3 299 
 BRR  HN ES   1   14 3  1.08                             152    0.97 7 73.3 299 
 BRR  HZ I        14 3  3.64        14.0 0.22            149           73.3 299 
 RUS  HZ EP   1   14 2 45.56                             145   -0.09 7 99.3 177 
 RUS  HN ES   1   14 3  3.99                             145   -0.32 7 99.3 177 
 RUS  HZ I        14 3  6.05         3.8 0.35            148           99.3 177 
 PTB  HZ EP   1   14 2 48.65                             132   -0.39 7  149 259 
 PTB  HN ES   1   14 3  9.71                             132   -0.65 7  149 259 
 PTB  HZ I        14 3 15.61         7.2 0.21            132            149 259 
 SPBC HZ EP   1   14 2 50.40                             130   -0.04 7  163 220 
 SPBC HN ES       14 3 12.74                             130   -0.11 9  163 220 
 ZAR  HZ EP   1   14 2 54.10                             123   -0.46 6  206 292 
 ZAR  HN ES   1   14 3 19.94                             123   -0.23 6  206 292 
 ZAR  HZ I        14 3 26.62         4.9 0.09            123            206 292 
 NOR  HZ EP       14 2 57.89                             119    0.21 8  235 235 
 NOR  HN ES   1   14 3 26.11                             119    0.37 6  235 235 
 NOR  HZ I        14 3 29.48         3.5 0.19            120            235 235 
 SML  HZ EP   1   14 2 58.53                             118   -0.17 6  246 335 
 SML  HN ES   1   14 3 26.83                             118   -0.71 6  246 335 
 SML  HZ I        14 3 31.50        37.0 0.04            119            246 335 
 CHI  HN ES       14 3 28.49                             118   -0.47 8  248 196 
 GUY2CHZ EP       14 3  6.59                             113    1.06 7  302 235 
 GUY2CHN ES   4   14 3 42.68                             113    2.97 0  302 235 
 GUY2CHZ I        14 3 49.16         2.5 0.30                           302 235 
 SJC  HZ EP   4   14 3 15.83                             106   -1.77 0  411 327 
 SJC  HN ES   4   14 3 57.33                             106   -3.86 0  411 327 
                                                                                
