 2013 11 3 1343 40.9 L   5.749 -73.926104.2  RSN  9 0.5 1.7LRSN                1
 GAP=156        1.21       4.5     3.5  7.5 -0.5393E+01  0.7398E+01 -0.8367E+01E
 Epicentro: ALBANIA - SANTANDER                                                3
 ACTION:UPD 14-01-09 16:25 OP:ep   STATUS:               ID:20131103134340 L   I
 OLDACT:REG 13-11-03 16:28 OP:carl STATUS:               ID:20131103133847     3
 2013-11-03-1338-47M.COL___202                                                 6
 STAT SP IPHASW D HRMM SECON CODA AMPLIT PERI AZIMU VELO AIN AR TRES W  DIS CAZ7
 SPBC HZ EP       1343 55.28                             169    0.0310 19.4 237 
 SPBC HN ES       1344  6.76                             169    0.3310 19.4 237 
 SPBC HZ I        1344  8.83        45.2 0.36            169           19.4 237 
 RUS  HZ EP       1344  0.06                             135   -0.2910 94.7  80 
 RUS  HN ES       1344 15.48                             135   -0.0210 94.7  80 
 RUS  HZ I        1344 18.88         3.5 0.20            139           94.7  80 
 PTB  HZ EP       1343 59.70                             131   -0.9410  105 326 
 PTB  HN ES       1344 15.22                             131   -0.8110  105 326 
 PTB  HZ I        1344 19.22        18.6 0.16            133            105 326 
 NOR  HZ EP       1344  0.53                             130   -0.2710  106 259 
 NOR  HN ES       1344 16.06                             130   -0.2510  106 259 
 NOR  HZ I        1344 18.38        18.7 0.16            134            106 259 
 BAR2 SZ ES       1344 20.01                             126    0.1910  124  41 
 BRR  HZ EP       1344  5.26                             119   -0.04 9  152   9 
 BRR  HN ES       1344 25.17                             119    0.85 9  152   9 
 GUY2CHZ EP       1344  8.23                             117    0.42 9  170 250 
 GUY2CHN ES       1344 29.22                             117    0.44 9  170 250 
 GUY2CHZ I        1344 33.62         5.1 0.50                           170 250 
 HEL  HZ EP       1344  9.84                             114    0.59 9  184 285 
 HEL  HN ES       1344 31.48                             114    0.12 9  184 285 
 HEL  HZ I        1344 36.86         3.5 0.20            117            184 285 
 ZAR  HZ EP       1344 12.33                             110   -0.38 8  219 332 
 ZAR  HE ES       1344 38.01                             110    0.51 8  219 332 
 ZAR  HZ I        1344 38.87         9.9 0.36            113            219 332 
                                                                                
