 2011  9 3 1559 23.5 L   6.790 -73.125148.8  RSN  6 0.4 1.8LRSN                1
 GAP=191        0.85       6.1     6.8  8.4  0.1228E+02  0.1330E+02  0.9024E+01E
 Epicentro: LOS SANTOS - SANTANDER                                             3
 ACTION:UPD 12-07-13 15:55 OP:ep   STATUS:               ID:20110903155923 L   I
 2011-09-03-1555-15S.COL___170                                                 6
 STAT SP IPHASW D HRMM SECON CODA AMPLIT PERI AZIMU VELO AIN AR TRES W  DIS CAZ7
 BAR2 SZ EP       1559 43.48                             171   -0.0210 22.8 196 
 BAR2 SZ ES   1   1559 58.27                             171   -0.82 7 22.8 196 
 BAR2 SZ I        16 0  0.01        21.4 0.17                          22.8 196 
 GIR2 SZ EP   1   1559 43.65                             167    0.06 7 32.8 347 
 GIR2 SZ ES   1   1559 59.50                             167    0.25 7 32.8 347 
 BRR  HZ EP   1   1559 45.38                             152    0.24 7 73.8 298 
 BRR  HE ES   1   16 0  2.63                             152    0.63 7 73.8 298 
 BRR  HZ I        16 0  5.28        13.2 0.27                          73.8 298 
 RUS  HZ EP   1   1559 47.34                             145   -0.14 7 99.4 177 
 RUS  HN ES   1   16 0  6.34                             145    0.17 7 99.4 177 
 RUS  HZ I        16 0  7.28         5.6 0.38                          99.4 177 
 ZAR  HN ES   1   16 0 21.32                             123   -0.77 6  207 292 
 ZAR  HZ I        16 0 26.87         6.9 0.25                           207 292 
 NOR  SN ES   1   16 0 27.98                             119    0.31 6  236 235 
                                                                                
