 2014  6 3 1508 27.8 L   7.343 -73.323115.1  RSN  6 0.4 1.6LRSN                1
 GAP=175        0.99       5.1     3.6  7.0  0.2796E+01  0.6647E+01 -0.2232E+00E
 Epicentro: EL PLAYON - SANTANDER                                              3
 ACTION:UPD 14-07-01 22:50 OP:nd   STATUS:               ID:20140603150827 L   I
 OLDACT:REG 14-06-03 20:59 OP:stll STATUS:               ID:20140603145818     3
 2014-06-03-1458-18M.COL___259                                                 6
 STAT SP IPHASW D HRMM SECON CODA AMPLIT PERI AZIMU VELO AIN AR TRES W  DIS CAZ7
 BRR  HZ EP       15 8 44.43                             155    0.0110 50.3 239 
 BRR  HN ES       15 8 57.53                             155    0.1110 50.3 239 
 BRR  HZ I        15 8 59.00        24.7 0.14            152           50.3 239 
 PAM  SZ EP       15 8 45.93                             147   -0.3010 68.8  90 
 PAM  SN ES       15 9  0.30                             147   -0.3310 68.8  90 
 PAM  SZ I        15 9  1.59         7.5 0.16            151           68.8  90 
 BAR2 SZ EP       15 8 47.32                             141    0.3310 84.4 169 
 BAR2 SZ ES       15 9  2.73                             141    0.7510 84.4 169 
 PTB  HZ EP       15 8 52.92                             123   -0.10 9  154 235 
 PTB  HN ES       15 9 12.19                             123   -0.52 9  154 235 
 PTB  HZ I        15 9 16.42         4.8 0.46            123            154 235 
 RUS  HZ EP       15 8 54.76                             121    0.20 9  163 171 
 RUS  HN ES       15 9 14.90                             121   -0.57 9  163 171 
 RUS  HZ I        15 9 19.48         1.9 0.20            122            163 171 
 ZAR  HZ EP       15 8 55.20                             120    0.45 9  170 276 
 ZAR  HN ES       15 9 15.68                             120   -0.12 9  170 276 
 ZAR  HZ I        15 9 20.51         6.4 0.10            120            170 276 
                                                                                
