 2012 10 3 1328  8.8 L   6.797 -73.118146.9  RSN  4 0.2 1.8LRSN                1
 GAP=193        0.37      11.8    13.9  5.9  0.1435E+03 -0.3385E+02 -0.2259E+02E
 Epicentro: LOS SANTOS - SANTANDER                                             3
 ACTION:UPD 12-11-22 17:01 OP:ep   STATUS:               ID:20121003132808 L   I
 2012-10-03-1320-00M.COL___223                                                 6
 STAT SP IPHASW D HRMM SECON CODA AMPLIT PERI AZIMU VELO AIN AR TRES W  DIS CAZ7
 BAR2 SZ EP       1328 28.42                             170   -0.1410 23.8 197 
 BAR2 SZ ES   2   1328 44.14                             170    0.15 5 23.8 197 
 BAR2 SZ I        1328 44.69         7.3 0.24                          23.8 197 
 GIR2 SZ ES   3   1328 44.39                             167    0.30 2 32.2 345 
 BRR  HZ EP       1328 30.35                             152    0.1310 74.0 298 
 BRR  HN ES   1   1328 46.80                             152   -0.13 7 74.0 298 
 BRR  HN I        1328 47.62        17.9 0.28                          74.0 298 
 RUS  HZ EP   3   1328 32.96                             144    0.34 2  100 178 
 RUS  HN ES   3   1328 51.28                             144    0.07 2  100 178 
                                                                                
