 2016 12 3 1636 18.2 L   6.789 -73.156140.9  RSN  7 0.5 1.9LRSN                1
 GAP=148        1.21       5.4     5.2  7.8 -0.3771E+01  0.9492E+01  0.1276E+02E
 Epicentro: LOS SANTOS - SANTANDER                                             3
 ACTION:UPD 17-01-11 20:12 OP:rebc STATUS:               ID:20161203163618 L   I
 OLDACT:REG 16-12-03 21:05 OP:lv   STATUS:               ID:20161203162745     3
 2016-12-03-1628-00M.COL___348                                                 6
 STAT SP IPHASW D HRMM SECON CODA AMPLIT PERI AZIMU VELO AIN AR TRES W  DIS CAZ7
 BAR2 EZ EP       1636 37.07                             171   -0.1110 21.9 188 
 BAR2 EZ ES       1636 51.61                             171   -0.4110 21.9 188 
 BAR2 EZ I        1636 53.25        22.4 0.24            168           21.9 188 
 BRR  HZ EP       1636 38.86                             152    0.0910 70.9 300 
 BRR  HN ES       1636 55.60                             152    0.7610 70.9 300 
 PAM  EZ EP       1636 39.93                             149   -0.0410 79.1  40 
 PAM  EN ES       1636 57.02                             149    0.0510 79.1  40 
 PAM  EZ I        1636 57.75         9.3 0.24            153           79.1  40 
 PTB  HZ EP       1636 43.72                             131   -0.90 9  146 259 
 PTB  HN ES       1637  4.83                             131   -0.42 9  146 259 
 PTB  HZ I        1637  6.69        12.6 0.15            130            146 259 
 ZAR  HZ EP       1636 51.14                             121    0.90 9  204 293 
 ZAR  HN ES       1637 14.77                             121   -0.49 9  204 293 
 ZAR  HZ I        1637 20.17        12.7 0.36            121            204 293 
 NOR  HZ EP       1636 53.11                             118   -0.33 8  233 235 
 NOR  HN ES       1637 21.59                             118    0.64 8  233 235 
 NOR  HZ I        1637 30.43         5.4 0.17            117            233 235 
 CHI  HZ EP       1636 55.59                             116    0.16 8  247 195 
 CHI  HN ES       1637 24.85                             116    0.35 8  247 195 
 CHI  HZ I        1637 26.66         6.4 0.44            117            247 195 
 URE  HN ES   4   1637 27.92                             113   -2.83 0  283 292 
 SJC  HZ EP   4   1637 10.94                             105   -2.68 0  410 327 
 SJC  HN ES   4   1637 52.37                             105   -4.51 0  410 327 
                                                                                
