 2011  7 3 1904  8.3 L   6.769 -73.106148.0  RSN 11 0.4 2.5LRSN                1
 GAP=161        0.77       4.0     6.0  4.8 -0.1365E+02  0.1256E+01  0.4202E+01E
 Epicentro: LOS SANTOS - SANTANDER                                             3
 ACTION:UPD 12-07-25 13:58 OP:epov STATUS:               ID:20110703190408 L   I
 2011-07-03-1900-00M.COL___124                                                 6
 STAT SP IPHASW D HRMM SECON CODA AMPLIT PERI AZIMU VELO AIN AR TRES W  DIS CAZ7
 BAR2 SZ EP       19 4 28.01                             171   -0.1210 21.3 203 
 BAR2 SZ ES   1   19 4 43.15                             171   -0.47 7 21.3 203 
 BAR2 SZ I        19 4 44.78        59.2 0.36                          21.3 203 
 BTL  SZ EP       19 4 28.18                             170   -0.0210 24.4 313 
 BTL  SZ ES   1   19 4 43.67                             170   -0.06 7 24.4 313 
 BRR  HZ EP       19 4 29.80                             151   -0.1810 76.7 299 
 BRR  HZ I        19 4 30.15       144.1 0.16                          76.7 299 
 BRR  HN ES   1   19 4 47.82                             151    0.91 7 76.7 299 
 PAM  SZ EP       19 4 30.87                             151    0.1410 77.5  35 
 BRI  SZ EP       19 4 32.61                             141    0.0910  110  18 
 BRI  SZ ES   1   19 4 51.64                             141    0.22 7  110  18 
 GRA  SZ EP       19 4 33.80                             137   -0.0910  128  15 
 GRA  SZ ES   1   19 4 53.63                             137   -0.24 7  128  15 
 GRA  SZ I        19 4 56.27        34.1 0.36                           128  15 
 OCA  SZ EP       19 4 37.06                             129   -0.08 9  164 352 
 OCA  SZ I        19 5  4.91        46.2 0.27                           164 352 
 NOR  SZ EP       19 4 43.87                             119   -0.44 8  236 236 
 NOR  SN ES   2   19 5 10.99                             119   -1.42 4  236 236 
 CHI  HZ EP       19 4 46.05                             118    0.18 8  246 196 
 CHI  HZ I        19 4 48.71         9.1 0.32                           246 196 
 CHI  HN ES   2   19 5 15.95                             118    0.76 4  246 196 
 DBB  SZ EP       19 4 56.54                             109    0.16 7  344 275 
 PRA  HZ EP       19 5  2.42                             107    0.64 6  391 210 
 PRA  HN ES   2   19 5 43.81                             107    0.30 3  391 210 
                                                                                
