 2010  7 3 1424 16.9 L   6.783 -73.415118.0  RSN 12 0.5 2.6LRSN                1
 GAP= 77        1.13       4.5     6.3  7.5 -0.9343E+01  0.1027E+02 -0.3081E+01E
 Epicentro: SAN VICENTE DE CHUCURI - SANTANDER                                 3
 ACTION:UPD 10-12-01 15:14 OP:pat  STATUS:               ID:20100703142416 L   I
 2010-07-03-1422-36S.COL___118                                                 6
 STAT SP IPHASW D HRMM SECON CODA AMPLIT PERI AZIMU VELO AIN AR TRES W  DIS CAZ7
 BAR2 SZ IP       1424 33.62                             163     0.110   33 130 
 BAR2 SZ ES   1   1424 46.21                             163    -0.3 7   33 130 
 BRR  HZ IP       1424 33.68                             156    -0.210   49 318 
 BRR  HZ I        1424 33.92       269.0 0.11                            49 318 
 BRR  HE ES   1   1424 47.13                             156     0.1 7   49 318 
 RUS  HZ EP       1424 38.21                             136    -0.210  105 160 
 RUS  HE ES   2   1424 55.42                             136     0.2 5  105 160 
 RUS  HZ I        1424 57.83        36.9 0.31                           105 160 
 BRI  SZ EP       1424 39.86                             130     0.210  124  33 
 BRI  SZ ES   2   1424 57.56                             130     0.1 5  124  33 
 GUE  SZ EP       1424 39.71                             129    -0.510  128  25 
 GUE  SZ ES   2   1424 57.65                             129    -0.8 5  128  25 
 GRA  SZ EP       1424 42.12                             127     1.0 9  139  29 
 GRA  SZ ES   2   1425  1.67                             127     1.7 5  139  29 
 OCA  SZ EP       1424 42.93                             122    -0.4 9  161   4 
 OCA  SZ ES   1   1425  3.55                             122    -0.4 7  161   4 
 OCA  SZ I        1425  5.01       107.7 0.24                           161   4 
 HEL  HZ EP       1424 53.01                             111     0.5 8  243 254 
 HEL  HZ I        1425 25.72        20.0 0.30                           243 254 
 RREF HN ES   2   1425 32.69                             107     0.4 4  298 226 
 RREF HZ I        1425 39.98        17.0 0.26                           298 226 
 DBB  SZ EP       1424 59.79                             106    -0.2 7  310 275 
 PRA  HZ EP   2   1425  8.09                             102     0.3 3  376 206 
 PRA  HE ES   2   1425 46.85                             102    -0.6 3  376 206 
 PRA  HZ I        1425 56.84        11.2 0.24                           376 206 
 SDV  BZ EP       1425  8.64                             102    -0.3 6  385  53 
 SDV  BZ I        1425 51.60        17.3 0.38                           385  53 
                                                                                
