 2017  8 3 1013 21.9 L   6.578 -73.535143.6  RSN  4 0.4 1.0LRSN                1
 GAP=121        0.93       6.8     5.8  8.0  0.1640E+02  0.5185E+01  0.8048E+01E
 Epicentro: EL CARMEN - SANTANDER                                              3
 ACTION:UPD 17-09-04 20:15 OP:rebc STATUS:               ID:20170803101321 L   I
 OLDACT:DUP 17-08-03 22:18 OP:dhb  STATUS:               ID:20170803100740d    3
 2017-08-03-1008-00M.COL___386                                                 6
 STAT SP IPHASW D HRMM SECON CODA AMPLIT PERI AZIMU VELO AIN AR TRES W  DIS CAZ7
 BAR2 EZ IP     C 1013 41.02                             164   -0.6210 39.1  88 
 BAR2 EZ ES       1013 56.85                             164   -0.2310 39.1  88 
 BAR2 EZ I        1014  1.52         1.5 0.18            175           39.1  88 
 BRR  HZ EP       1013 42.21                             155   -0.0410 61.7 342 
 BRR  HE ES       1013 58.62                             155    0.4610 61.7 342 
 BRR  HZ I        1014  3.20         6.3 0.35            157           61.7 342 
 RUS  HZ EP       1013 45.18                             146    0.4810 90.8 147 
 RUS  HN ES       1014  2.62                             146    0.1010 90.8 147 
 RUS  HZ I        1014  4.88         1.6 0.40            152           90.8 147 
 PTB  HZ EP   1   1013 44.95                             143    0.13 7  102 268 
 PTB  HN ES       1014  2.50                             143   -0.2310  102 268 
 PTB  HZ I        1014 14.54         1.0 0.31            141            102 268 
                                                                                
