 2010  7 3 1756 49.5 L   6.784 -73.102145.9  RSN  8 0.3 2.1LRSN                1
 GAP=161        0.73       3.6     6.5  6.5 -0.1584E+01 -0.3285E+01 -0.5008E+01E
 Epicentro: LOS SANTOS - SANTANDER                                             3
 ACTION:UPD 10-12-01 15:14 OP:pat  STATUS:               ID:20100703175649 L   I
 2010-07-03-1754-12S.COL___118                                                 6
 STAT SP IPHASW D HRMM SECON CODA AMPLIT PERI AZIMU VELO AIN AR TRES W  DIS CAZ7
 BAR2 SZ EP       1757  9.17                             171     0.110   23 203 
 BAR2 SZ ES   1   1757 23.91                             171    -0.5 7   23 203 
 BRR  HZ EP       1757 11.01                             151     0.110   76 298 
 BRR  HN ES   1   1757 28.01                             151     0.4 7   76 298 
 BRR  HZ I        1757 31.18        39.3 0.26                            76 298 
 RUS  HZ EP       1757 12.87                             144    -0.210   99 179 
 RUS  HN ES   1   1757 31.73                             144     0.2 7   99 179 
 RUS  HZ I        1757 33.39        11.4 0.48                            99 179 
 BRI  SZ EP       1757 13.79                             141     0.410  108  18 
 BRI  SZ ES   2   1757 31.98                             141     0.0 5  108  18 
 BRI  SZ I        1757 39.28        22.6 0.69                           108  18 
 GUE  SZ EP   2   1757 14.16                             139    -0.1 5  117  10 
 GRA  SZ ES   2   1757 34.58                             137     0.1 5  126  15 
 OCA  SZ EP       1757 17.57                             129    -0.4 9  163 352 
 OCA  SZ ES   2   1757 39.82                             129    -0.4 5  163 352 
 OCA  SZ I        1757 42.79        20.3 0.21                           163 352 
 HEL  HZ EP   3   1757 30.89                             114     0.7 2  276 256 
 HEL  HE ES   2   1758  1.54                             114    -0.3 4  276 256 
 HEL  HZ I        1758  7.40         6.1 0.45                           276 256 
                                                                                
