 2010 11 3 1339 58.1 L   6.744 -73.136133.9  RSN  5 0.3 1.2LRSN                1
 GAP=160        0.80      10.2    13.3 13.9 -0.8453E+02 -0.6711E+02  0.2620E+02E
 Epicentro: JORDAN - SANTANDER                                                 3
 ACTION:UP  10-12-17 16:50 OP:REBC STATUS:               ID:20101103133958 L   I
 2010-11-03-1337-11S.COL___129                                                 6
 STAT SP IPHASW D HRMM SECON CODA AMPLIT PERI AZIMU VELO SNR AR TRES W  DIS CAZ7
 BTL  SZ EP       1340 16.71                             171     0.410   24 323 
 BRR  HZ EP       1340 18.05                             151    -0.210   75 302 
 BRR  HN ES   2   1340 33.71                             151    -0.2 5   75 302 
 RUS  HE ES   3   1340 37.09                             143    -0.4 2   94 176 
 RUS  HZ I        1340 39.95         1.8 0.25                            94 176 
 GUE  SZ EP       1340 21.74                             136    -0.510  122  11 
 GRA  SZ EP       1340 23.02                             134     0.210  131  16 
 GRA  SZ ES   1   1340 42.21                             134     0.2 7  131  16 
 GRA  SZ I        1340 43.47         4.6 0.45                           131  16 
                                                                                
