 2010  7 3 1453 11.8 L   6.777 -73.085144.0  RSN  6 0.3 1.6LRSN                1
 GAP=163        0.53       3.9     6.9  7.0 -0.1085E+02 -0.6563E+01 -0.4974E+00E
 Epicentro: LOS SANTOS - SANTANDER                                             3
 ACTION:UPD 10-12-01 15:14 OP:pat  STATUS:               ID:20100703145312 L   I
 2010-07-03-1450-36S.COL___118                                                 6
 STAT SP IPHASW D HRMM SECON CODA AMPLIT PERI AZIMU VELO AIN AR TRES W  DIS CAZ7
 BAR2 SZ EP   1   1453 30.87                             171    -0.3 7   23 208 
 BAR2 SZ ES   3   1453 45.32                             171    -1.0 2   23 208 
 BRR  HZ EP       1453 33.13                             149    -0.110   78 298 
 BRR  HE ES   2   1453 50.15                             149     0.3 5   78 298 
 BRR  HZ I        1453 54.21        14.3 0.07                            78 298 
 RUS  HZ EP   2   1453 35.11                             144    -0.1 5   98 180 
 RUS  HE ES   2   1453 53.91                             144     0.5 5   98 180 
 RUS  HZ I        1453 55.37         2.9 0.41                            98 180 
 BRI  SZ EP       1453 35.64                             141     0.110  109  17 
 BRI  SZ ES   2   1453 54.35                             141     0.3 5  109  17 
 BRI  SZ I        1453 59.21         9.0 0.24                           109  17 
 GUE  SZ EP   2   1453 36.35                             138    -0.1 5  118   9 
 GRA  SZ EP       1453 37.07                             136     0.110  126  14 
 GRA  SZ ES   1   1453 56.36                             136    -0.2 7  126  14 
                                                                                
