 2012 11 3 1304 44.1 L   6.776 -73.096151.7  RSN  6 0.2 2.1LRSN                1
 GAP=144        0.58       3.2     4.0  5.4  0.2995E+01 -0.1588E+00  0.2294E+01E
 Epicentro: LOS SANTOS - SANTANDER                                             3
 ACTION:UPD 12-12-05 15:31 OP:}ep  STATUS:               ID:20121103130444 L   I
 2012-11-03-1300-00M.COL___234                                                 6
 STAT SP IPHASW D HRMM SECON CODA AMPLIT PERI AZIMU VELO AIN AR TRES W  DIS CAZ7
 BAR2 SZ IP       13 5  4.28                             171   -0.1510 22.4 205 
 BAR2 SZ I        13 5 21.13        23.3 0.42                          22.4 205 
 PAM  SZ IP     C 13 5  7.20                             152    0.3110 76.2  35 
 PAM  SN ES   1   13 5 24.31                             152   -0.34 7 76.2  35 
 PAM  SN I        13 5 25.93        14.8 0.18                          76.2  35 
 BRR  HZ EP       13 5  6.13                             152   -0.1110 77.3 298 
 BRR  HN ES       13 5 23.79                             152    0.2910 77.3 298 
 BRR  HN I        13 5 24.74        27.1 0.18                          77.3 298 
 RUS  HZ EP       13 5  8.12                             146   -0.1210 97.7 179 
 RUS  HN ES       13 5 27.08                             146    0.0210 97.7 179 
 RUS  HN I        13 5 28.47        22.9 0.42                          97.7 179 
 ZAR  HN ES   1   13 5 43.31                             123   -0.35 6  210 292 
 CHI  HZ EP   1   13 5 22.29                             118    0.27 6  248 197 
 CHI  HN I        13 5 55.93        13.8 0.58                           248 197 
                                                                                
