 2013  4 3 1533 35.0 L   6.810 -73.171142.0  RSN  8 0.5 1.7LRSN                1
 GAP=133        0.97       4.8     5.0  7.3  0.2425E+00  0.8547E+01 -0.3109E+01E
 Epicentro: LOS SANTOS - SANTANDER                                             3
 ACTION:UPD 13-05-22 14:35 OP:EP   STATUS:               ID:20130403153335 L   I
 2013-04-03-1530-00M.COL___245                                                 6
 STAT SP IPHASW D HRMM SECON CODA AMPLIT PERI AZIMU VELO AIN AR TRES W  DIS CAZ7
 BAR2 SZ EP       1533 54.26                             170    0.1010 24.1 183 
 BAR2 SZ ES   1   1534  8.11                             170   -1.02 7 24.1 183 
 BAR2 SZ I        1534 10.23        24.0 0.28            170           24.1 183 
 GIR2 SZ EP   1   1533 54.25                             167    0.10 7 29.8 355 
 GIR2 SZ ES   1   1534  8.82                             167   -0.30 7 29.8 355 
 GIR2 SZ I        1534 10.91         8.8 0.54            167           29.8 355 
 BRR  HZ EP   1   1533 56.03                             153    0.49 7 68.2 299 
 BRR  HN ES   1   1534 12.48                             153    0.90 7 68.2 299 
 BRR  HZ I        1534 16.95        12.1 0.42            152           68.2 299 
 PAM  SZ EP       1533 57.17                             150    0.3310 78.4  42 
 PAM  SN ES       1534 13.99                             150    0.0810 78.4  42 
 PAM  SZ I        1534 16.34        12.4 0.44            155           78.4  42 
 RUS  HZ EP   1   1533 58.40                             142   -0.05 7  102 175 
 RUS  HN ES   1   1534 16.83                             142    0.07 7  102 175 
 RUS  HZ I        1534 18.01         3.5 0.28            146            102 175 
 PTB  HZ EP   1   1534  1.07                             132   -0.33 7  145 258 
 PTB  HN ES   1   1534 21.88                             132   -0.13 7  145 258 
 PTB  HZ I        1534 27.67         3.1 0.12            133            145 258 
 ZAR  HN ES   1   1534 32.07                             122    0.34 6  201 292 
 SML  HZ EP   1   1534 10.60                             117   -0.55 6  242 336 
 SML  HN ES   1   1534 38.43                             117   -0.94 6  242 336 
                                                                                
