 2016  7 3 1212 32.0 L   6.811 -73.144143.1  RSN  7 0.4 1.7LRSN                1
 GAP=239        1.03       5.3     5.9  7.0  0.1039E+02  0.1175E+02  0.5501E+01E
 Epicentro: LOS SANTOS - SANTANDER                                             3
 ACTION:UPD 17-03-29 16:46 OP:lp   STATUS:               ID:20160703121232 L   I
 OLDACT:REG 16-07-03 22:26 OP:ak   STATUS:               ID:20160703120741     3
 2016-07-03-1207-41M.COL___334                                                 6
 STAT SP IPHASW D HRMM SECON CODA AMPLIT PERI AZIMU VELO AIN AR TRES W  DIS CAZ7
 BAR2 EZ ES       1213  5.89                             170   -0.5210 24.6 190 
 BRR  HZ EP       1212 53.09                             152    0.2510 70.8 298 
 BRR  HN ES       1213  9.56                             152    0.4710 70.8 298 
 BRR  HZ I        1213 14.91         6.9 0.21            149           70.8 298 
 RUS  HZ EP       1212 55.65                             143    0.0710  102 176 
 RUS  HN ES       1213 14.19                             143    0.2210  102 176 
 PTB  HZ EP       1212 58.23                             131   -0.56 9  148 258 
 PTB  HN ES       1213 19.26                             131   -0.43 9  148 258 
 PTB  HZ I        1213 22.09         6.0 0.12            131            148 258 
 SPBC HZ EP       1212 59.81                             128   -0.59 9  164 219 
 SPBC HN ES       1213 23.12                             128    0.57 9  164 219 
 ZAR  HZ EP   2   1213  4.95                             122    0.70 4  204 292 
 ZAR  HN ES       1213 29.39                             122   -0.01 9  204 292 
 ZAR  HZ I        1213 34.48         4.6 0.21            122            204 292 
 NOR  HZ EP       1213  8.19                             118    0.52 8  236 234 
 NOR  HE ES       1213 35.40                             118   -0.10 8  236 234 
 NOR  HZ I        1213 42.25         4.1 0.30            119            236 234 
                                                                                
