 2012  2 3 1933 45.7 L   6.775 -73.134143.7  RSN  8 0.3 2.0LRSN                1
 GAP=139        0.66       3.6     3.2  5.4 -0.6904E+00  0.2234E+01  0.1711E+01E
 ACTION:UP  12-03-07 16:27 OP:epov STATUS:               ID:20120203193345 L   I
 2012-02-03-1930-00M.COL___188                                                 6
 STAT SP IPHASW D HRMM SECON CODA AMPLIT PERI AZIMU VELO SNR AR TRES W  DIS CAZ7
 BAR2 SZ EP   1   1934  4.96                             171   -0.08 7 20.9 195 
 BAR2 SZ ES   2   1934 19.95                             171   -0.17 5 20.9 195 
 BAR2 SZ I        1934 22.68        12.3 0.08                          20.9 195 
 GIR2 SZ IP       1934  5.24                             166    0.0210 34.2 349 
 GIR2 SZ EP   1   1934  5.24                             166    0.02 7 34.2 349 
 BRR  HZ EP       1934  7.00                             151    0.2210 73.7 300 
 BRR  HZ I        1934  8.63        19.8 0.10                          73.7 300 
 BRR  HN ES       1934 23.52                             151    0.3110 73.7 300 
 PAM  SZ EP       1934  8.03                             150    0.2410 78.8  38 
 PAM  SE ES   1   1934 24.32                             150   -0.69 7 78.8  38 
 RUS  HZ EP       1934  9.31                             144    0.2610 97.7 177 
 RUS  HN ES   1   1934 27.28                             144    0.02 7 97.7 177 
 PTB  HZ EP       1934 12.15                             131   -0.42 9  148 260 
 PTB  HE ES   1   1934 33.28                             131   -0.25 7  148 260 
 ZAR  HZ EP   1   1934 17.90                             122   -0.35 6  206 293 
 ZAR  HE ES   1   1934 43.88                             122    0.25 6  206 293 
 ZAR  HZ I        1934 48.83        12.6 0.25                           206 293 
 NOR  SN ES   1   1934 48.82                             118   -0.16 6  234 235 
                                                                                
