 2010 10 3 1833 30.9 L   6.826 -73.143148.2  RSN 16 0.5 3.4LRSN                1
 GAP=136        1.06       3.6     6.1  6.8 -0.3126E+01  0.1063E+02  0.2762E+01E
 Epicentro: LOS SANTOS - SANTANDER                                             3
 ACTION:UP  11-02-18 11:07 OP:tino STATUS:               ID:20101003183330 L   I
 2010-10-03-1830-32S.COL___122                                                 6
 STAT SP IPHASW D HRMM SECON CODA AMPLIT PERI AZIMU VELO SNR AR TRES W  DIS CAZ7
 BAR2 SZ IP       1833 50.78                             169    -0.110   26 190 
 BAR2 SZ ES   1   1834  6.34                             169    -0.1 7   26 190 
 BRR  HZ IP     C 1833 52.57                             153     0.310   70 296 
 BRR  HZ I        1833 52.85       798.0 0.17                            70 296 
 BRR  HE ES   1   1834  9.43                             153     0.5 7   70 296 
 RUS  HZ EP       1833 54.74                             143    -0.310  103 176 
 RUS  HN ES   1   1834 13.45                             143    -0.5 7  103 176 
 RUS  HZ I        1834 15.05       260.8 0.31                           103 176 
 GUE  SZ EP       1833 54.68                             141    -0.910  114  12 
 GRA  SZ IP       1833 56.52                             138     0.410  123  18 
 GRA  SZ ES   1   1834 15.79                             138     0.0 7  123  18 
 GRA  SZ I        1834 17.32       386.4 0.17                           123  18 
 OCA  SZ EP       1833 59.01                             131    -0.1 9  157 353 
 OCA  SZ I        1834 25.66       297.3 0.44                           157 353 
 YOP  SZ IP     C 1834  1.59                             126     0.2 9  181 154 
 YOP  SE ES   1   1834 25.75                             126     0.6 7  181 154 
 NOR  SZ EP       1834  6.82                             119    -0.1 8  237 234 
 NOR  SE ES   2   1834 34.95                             119    -0.2 4  237 234 
 CHI  HZ EP   1   1834  8.91                             117    -0.1 6  252 195 
 CHI  HN ES   1   1834 38.30                             117    -0.5 6  252 195 
 CHI  HZ I        1834 43.07       126.7 0.84                           252 195 
 ROSC BZ EP       1834 10.60                             117     1.2 8  255 211 
 ROSC BZ I        1834 44.79       196.5 0.48                           255 211 
 HEL  HZ EP   1   1834 10.94                             115    -0.4 6  273 255 
 HEL  HZ I        1834 49.21       197.1 0.18                           273 255 
 RREF HZ EP   1   1834 17.59                             111     0.2 5  324 229 
 RREF HN ES   2   1834 53.18                             111    -0.4 3  324 229 
 RREF HZ I        1834 59.12       116.1 0.41                           324 229 
 DBB  SZ EP   1   1834 18.41                             110     0.0 5  340 274 
 TOL  SZ EP   1   1834 19.52                             109     0.0 5  346 224 
 ANIL HZ EP   2   1834 21.11                             109     0.1 3  360 224 
 PRA  HZ EP   1   1834 24.57                             107    -0.2 4  395 209 
 PRA  HE ES   2   1835  6.10                             107    -0.7 3  395 209 
                                                                                
