 2017  5 3 1930 33.4 L   7.599 -73.119144.8  RSN  5 0.3 1.5LRSN                1
 GAP=250        0.51       4.4     3.9  6.1 -0.5384E+01  0.1358E+02 -0.1842E+01E
 Epicentro: EL PLAYON - SANTANDER                                              3
 ACTION:UPD 17-06-16 13:32 OP:jn   STATUS:               ID:20170503193033 L   I
 OLDACT:UP  17-05-04 01:04 OP:and  STATUS:               ID:20170503192738     3
 OLDACT:UP  17-05-04 01:03 OP:and  STATUS:               ID:20170503192738     3
 OLDACT:UP  17-05-04 01:03 OP:and  STATUS:               ID:20170503192738     3
 OLDACT:UP  17-05-04 01:03 OP:and  STATUS:               ID:20170503192738     3
 OLDACT:REG 17-05-03 21:01 OP:and  STATUS:               ID:20170503192738     3
 2017-05-03-1928-00M.COL___371                                                 6
 STAT SP IPHASW D HRMM SECON CODA AMPLIT PERI AZIMU VELO AIN AR TRES W  DIS CAZ7
 PAM  EZ IP     C 1930 54.45                             158    0.1010 54.5 122 
 PAM  EN ES       1931 10.47                             158   -0.2010 54.5 122 
 PAM  EZ I        1931 11.46         6.6 0.16            161           54.5 122 
 BRR  HZ IP     C 1930 55.59                             148    0.2610 85.1 230 
 BRR  HN ES   3   1931 13.31                             148    0.90 2 85.1 230 
 BRR  HZ I        1931 14.05        12.4 0.14            145           85.1 230 
 RUS  HZ EP   2   1931  4.63                             124   -0.27 4  189 179 
 RUS  HN ES       1931 29.56                             124    0.13 9  189 179 
 RUS  HZ I        1931 30.32         1.7 0.36            125            189 179 
 PTB  HZ EP       1931  4.01                             124   -0.24 9  189 232 
 PTB  HN ES       1931 28.13                             124   -0.15 9  189 232 
 PTB  HZ I        1931 32.20         2.1 0.34            124            189 232 
 NOR  HZ EP   2   1931 16.51                             112    0.54 4  297 221 
 NOR  HN ES   2   1931 48.84                             112   -0.31 4  297 221 
 NOR  HZ I        1931 55.97         1.9 0.14            113            297 221 
                                                                                
