 2011  4 3 1144  3.6 L   6.178 -73.756101.3  RSN  7 0.3 1.6LRSN                1
 GAP=125        0.49       3.2     3.5  7.9 -0.4086E+01  0.1285E+02  0.5540E+01E
 Epicentro: LANDAZURI - SANTANDER                                              3
 ACTION:UP  11-06-22 15:28 OP:REBC STATUS:               ID:20110403114403 L   I
 2011-04-03-1142-12S.COL___138                                                 6
 STAT SP IPHASW D HRMM SECON CODA AMPLIT PERI AZIMU VELO SNR AR TRES W  DIS CAZ7
 BAR2 SZ EP   2   1144 21.16                             139     0.1 5   78  54 
 BAR2 SZ ES   1   1144 34.41                             139    -0.2 7   78  54 
 BAR2 SZ I        1144 36.35        42.8 0.25                            78  54 
 BTL  SZ EP   1   1144 22.97                             132     0.3 7   98  33 
 BRR  HZ EP   1   1144 22.69                             130    -0.1 7  103   3 
 BRR  HN ES   2   1144 38.07                             130     0.2 5  103   3 
 BRR  HZ I        1144 43.85         9.7 0.46                           103   3 
 NOR  SZ EP   2   1144 26.17                             121    -0.5 5  141 241 
 NOR  SN ES   2   1144 44.73                             121     0.1 5  141 241 
 CHI  HZ EP   2   1144 30.03                             115    -0.4 4  171 179 
 CHI  HN ES   2   1144 51.74                             115     0.4 4  171 179 
 CHI  HZ I        1145  2.67         2.8 0.69                           171 179 
 HEL  HZ EP   1   1144 33.07                             111    -0.1 6  196 271 
 HEL  HN ES   2   1144 56.41                             111     0.2 4  196 271 
 HEL  HZ I        1145  1.01         2.4 0.67                           196 271 
 RREF HZ EP   1   1144 37.16                             108     0.3 6  226 231 
 RREF HN ES   2   1145  2.62                             108    -0.2 4  226 231 
 RREF HZ I        1145  8.99         4.2 0.34                           226 231 
                                                                                
