 2012 10 3 1102 50.9 L   6.779 -73.114145.2  RSN 13 0.5 2.3LRSN 2.7WRSN        1
 SPEC AVERAGE  MO 13.2 ST0.361 OM  2.2 f0 2.24 R0.6727 AL 1.82 WI  9.9 MW  2.7 3
 SPEC SD       MO  0.4 ST0.351 OM  0.8 f00.333 R0.1113 AL      WI      MW  0.3 3
 GAP= 74        0.72       3.9     4.8  5.3 -0.1068E+01  0.1605E+01  0.7965E+01E
 Epicentro: LOS SANTOS - SANTANDER                                             3
 SPEC RUS HH E MO 12.7 ST0.100 OM  1.1 f0 2.41 R0.6100 AL 1.62 WI  8.8 MW  2.4 3
 SPEC RUS HH E T11 332 K 0.000 GD  175 VS 4.20 DE 3.00 Q0230.0 QA 0.60 VS 4.20 3
 SPEC RUS HH N MO 12.8 ST0.097 OM  1.2 f0 2.21 R0.6652 AL 1.75 WI  9.8 MW  2.5 3
 SPEC RUS HH N T11 332 K 0.000 GD  175 VS 4.20 DE 3.00 Q0230.0 QA 0.60 VS 4.20 3
 SPEC PAM SH E MO 13.6 ST0.953 OM  2.0 f0 2.62 R0.5611 AL 2.56 WI  6.5 MW  3.0 3
 SPEC PAM SH E T11 330 K 0.000 GD  164 VS 4.20 DE 3.00 Q0230.0 QA 0.60 VS 4.20 3
 SPEC CHI HH N MO 13.6 ST0.297 OM  1.8 f0 1.72 R0.8547 AL 1.36 WI 14.5 MW  3.0 3
 SPEC CHI HH N T11 356 K 0.000 GD  286 VS 4.20 DE 3.00 Q0230.0 QA 0.60 VS 4.20 3
 ACTION:UPD 12-11-22 17:01 OP:ep   STATUS:               ID:20121003110250 L   I
 2012-10-03-1100-00M.COL___223                                                 6
 STAT SP IPHASW D HRMM SECON CODA AMPLIT PERI AZIMU VELO AIN AR TRES W  DIS CAZ7
 BAR2 SZ EP       11 3 10.44                             171    0.0310 22.0 200 
 BAR2 SZ I        11 3 10.60        53.7 0.34                          22.0 200 
 BAR2 SZ ES   1   11 3 25.40                             171   -0.24 7 22.0 200 
 GIR2 SZ EP       11 3 10.30                             166   -0.2610 34.3 345 
 BRR  HZ EP       11 3 12.17                             151   -0.0310 75.4 299 
 BRR  HZ I        11 3 12.56        35.4 0.12                          75.4 299 
 BRR  HN ES   1   11 3 29.34                             151    0.50 7 75.4 299 
 PAM  SE ES   1   11 3 30.16                             150   -0.11 7 77.0  36 
 RUS  HZ EP       11 3 14.20                             144   -0.1910 98.1 178 
 RUS  HN ES   1   11 3 32.79                             144    0.06 7 98.1 178 
 RUS  HZ I        11 3 34.58         5.0 0.22                          98.1 178 
 TAM  HZ IP     D 11 3 18.44                             131    0.31 9  151 104 
 TAM  HZ I        11 3 18.56        42.1 0.34                           151 104 
 ZAR  HN ES   3   11 3 48.07                             121   -1.25 2  208 292 
 CHI  HZ EP       11 3 28.43                             117    0.03 8  247 196 
 CHI  HN ES   1   11 3 56.97                             117   -0.70 6  247 196 
 CHI  HN I        11 4  1.43        12.4 0.20                           247 196 
 CHI  HE I        11 4  2.41        13.1 0.28                           247 196 
 RREF HZ EP       11 3 37.91                             110    0.78 7  323 230 
 RREF HZ I        11 3 39.71        25.3 0.20                           323 230 
 MON  HN ES   3   11 4 16.09                             108   -2.83 2  358 308 
 MON  HN I        11 4 32.05         8.1 0.36                           358 308 
 ANIL HN ES   3   11 4 19.35                             108   -0.31 2  358 225 
 PRA  HZ EP   1   11 3 44.32                             106   -0.03 4  392 210 
 SJA  SZ EP   2   11 3 46.05                             106    0.81 3  399 194 
 SJA  SZ I        11 4 35.54        11.8 0.36                           399 194 
                                                                                
