 2016 10 3 1754 19.5 L   6.802 -73.146147.0  RSN 21 0.3 2.7LRSN                1
 GAP=119        0.90       2.3     3.0  4.3 -0.1105E+01  0.3137E+01  0.1752E+01E
 Epicentro: LOS SANTOS - SANTANDER                                             3
 ACTION:UPD 16-11-09 19:15 OP:rebc STATUS:               ID:20161003175419 L   I
 OLDACT:REG 16-10-03 21:09 OP:lv   STATUS:               ID:20161003174739     3
 2016-10-03-1748-00M.COL___369                                                 6
 STAT SP IPHASW D HRMM SECON CODA AMPLIT PERI AZIMU VELO AIN AR TRES W  DIS CAZ7
 BAR2 EZ EP       1754 39.24                             170   -0.0310 23.6 190 
 BAR2 EZ ES       1754 54.53                             170   -0.1810 23.6 190 
 BAR2 EZ I        1754 55.92       267.8 0.18            168           23.6 190 
 BRR  HZ IP     C 1754 41.09                             153    0.3310 71.1 298 
 BRR  HN ES       1754 58.00                             153    0.6410 71.1 298 
 BRR  HZ I        1755  2.24        78.8 0.34            150           71.1 298 
 PAM  EZ EP       1754 42.20                             151    0.3810 77.2  40 
 PAM  EN ES       1754 59.20                             151   -0.0510 77.2  40 
 PAM  EZ I        1755  1.55        51.1 0.32            155           77.2  40 
 RUS  HZ EP       1754 43.20                             144   -0.1810  101 176 
 RUS  HN ES       1755  1.93                             144   -0.0910  101 176 
 RUS  HZ I        1755  3.14        60.3 0.22            145            101 176 
 PTB  HZ EP       1754 46.67                             132    0.11 9  148 259 
 PTB  HN ES       1755  7.30                             132   -0.38 9  148 259 
 PTB  HZ I        1755  8.95        49.1 0.24            131            148 259 
 OCA  HZ EP       1754 47.02                             130   -0.85 9  160 353 
 OCA  HN ES       1755  9.93                             130   -0.08 9  160 353 
 OCA  HZ I        1755 12.67        97.7 0.24            131            160 353 
 SPBC HZ EP       1754 48.28                             129    0.18 9  163 219 
 SPBC HN ES       1755 10.16                             129   -0.26 9  163 219 
 SPBC HZ I        1755 15.17        82.3 0.11            129            163 219 
 ZAR  HZ EP       1754 51.85                             123   -0.15 9  204 292 
 ZAR  HN ES       1755 17.40                             123    0.04 9  204 292 
 ZAR  HZ I        1755 23.69        45.0 0.21            122            204 292 
 NOR  HZ EP       1754 55.29                             119   -0.01 8  235 234 
 NOR  HN ES       1755 22.89                             119   -0.35 8  235 234 
 NOR  HZ I        1755 27.88        39.0 0.18            118            235 234 
 CHI  HZ EP       1754 57.30                             117    0.02 8  249 195 
 CHI  HN ES       1755 26.67                             117   -0.09 8  249 195 
 CHI  HZ I        1755 30.12        25.7 0.56            118            249 195 
 ROSC BZ EP   9   1754 58.94                             117    1.24 0  253 211 
 ROSC BN ES       1755 29.81                                    1.06 8  253 211 
 ROSC BZ I        1755 36.96        76.1 0.40            117            253 211 
 HEL  HZ EP   4   1755  1.47                             115    1.70 0  272 256 
 HEL  HN ES       1755 31.50                             115    0.31 8  272 256 
 HEL  HZ I        1755 38.21        23.6 0.42            115            272 256 
 URE  HZ EP   4   1755  3.72                             114    3.12 0  284 292 
 URE  HN ES   4   1755 30.38                             114   -2.29 0  284 292 
 URE  HZ I        1755 41.69        24.3 0.18            114            284 292 
 GUY2CHZ EP   4   1755  4.30                             113    1.13 0  301 235 
 GUY2CHN ES       1755 36.96                             113   -0.28 7  301 235 
 GUY2CHZ I        1755 51.49        23.3 0.54                           301 235 
 VIL  EZ EP       1755  3.02                             112    0.03 7  304 192 
 VIL  EE ES       1755 37.79                             112    0.87 7  304 192 
 VIL  EZ I        1755 39.60        42.1 0.42            113            304 192 
 PTGC HZ EP   9   1755  2.26                             112   -1.17 0  309 159 
 PTGC HE ES     C 1755 35.77                                   -0.76 7  309 159 
 PTGC HZ I        1755 38.36         8.0 0.25            113            309 159 
 ELA  HZ EP   4   1755  8.20                             111    1.79 0  329 229 
 ELA  HE ES   4   1755 46.59                             111    3.58 0  329 229 
 ELA  HZ I        1755 52.53        23.9 0.50            111            329 229 
 CBOC HZ EP       1755  6.90                             110    0.44 7  334 252 
 CBOC HN ES       1755 43.01                             110   -0.09 7  334 252 
 PRA  HZ EP       1755 12.87                             107   -0.21 6  392 210 
 PRA  HN ES       1755 54.98                             107    0.10 6  392 210 
 PRA  HZ I        1756  1.71        27.0 0.32            107            392 210 
 SJC  HZ EP   4   1755 13.41                             106   -1.65 0  409 327 
 SJC  HN ES   4   1755 54.63                             106   -3.78 0  409 327 
 SJC  HZ I        1756  1.76        10.7 0.28            106            409 327 
 CRJC HZ EP   9   1755 18.27                             104   -3.72 0  467   4 
 CRJC HE ES       1756  7.37                                    0.35 5  467   4 
 CRJC HZ I        1756 13.50        13.6 0.14            104            467   4 
                                                                                
