 2013  5 3 1311 15.1 L   6.773 -73.142146.4  RSN  5 0.4 2.0LRSN                1
 GAP=138        0.78       5.7     4.8  9.1 -0.3929E+01  0.1083E+01  0.7137E+01E
 Epicentro: LOS SANTOS - SANTANDER                                             3
 ACTION:UPD 13-06-20 09:47 OP:ep   STATUS:               ID:20130503131115 L   I
 2013-05-03-1310-00M.COL___253                                                 6
 STAT SP IPHASW D HRMM SECON CODA AMPLIT PERI AZIMU VELO AIN AR TRES W  DIS CAZ7
 BAR2 SZ EP   1   1311 34.67                             172   -0.08 8 20.4 193 
 BAR2 SZ I        1312  0.54         9.8 0.48            167           20.4 193 
 BRR  HZ EP   1   1311 36.77                             152    0.36 8 73.0 300 
 BRR  HN ES   1   1311 53.68                             152    0.64 8 73.0 300 
 BRR  HN I        1311 54.62        28.1 0.30            150           73.0 300 
 PAM  SZ EP   1   1311 37.78                             150    0.28 8 79.5  38 
 PAM  SN ES   1   1311 54.37                             150   -0.61 8 79.5  38 
 PAM  SN I        1311 55.84        19.8 0.24            145           79.5  38 
 RUS  HZ EP   1   1311 38.82                             145    0.13 8 97.5 176 
 RUS  HN ES   1   1311 57.23                             145    0.14 8 97.5 176 
 RUS  HN I        1311 58.92         7.2 0.28            137           97.5 176 
 PTB  HZ EP   1   1311 41.76                             132   -0.34 7  148 260 
 PTB  HN ES       1312  2.80                             132   -0.3610  148 260 
 PTB  HN I        1312  8.27        26.0 0.38            127            148 260 
                                                                                
