 2016  3 3 1455 10.5 L   5.941 -73.762106.3  RSN 10 0.5 1.9LRSN                1
 GAP= 85        1.14       3.1     3.2  6.4 -0.1912E+01  0.4440E+01  0.6746E-01E
 Epicentro: SUCRE - SANTANDER                                                  3
 ACTION:UPD 16-05-13 21:21 OP:cam  STATUS:               ID:20160303145510 L   I
 OLDACT:UP  16-03-04 00:38 OP:ar   STATUS:               ID:20160303144750     3
 OLDACT:REG 16-03-03 23:28 OP:ar   STATUS:               ID:20160303144750     3
 2016-03-03-1447-50M.COL___316                                                 6
 STAT SP IPHASW D HRMM SECON CODA AMPLIT PERI AZIMU VELO AIN AR TRES W  DIS CAZ7
 SPBC HZ EP       1455 26.02                             154   -0.1610 46.9 227 
 SPBC HN ES       1455 38.08                             154   -0.3110 46.9 227 
 SPBC HZ I        1455 46.88        14.3 0.20            156           46.9 227 
 RUS  HZ EP       1455 28.77                             142    0.1910 75.3  94 
 RUS  HN ES       1455 42.80                             142    0.1410 75.3  94 
 RUS  HZ I        1455 44.54        13.9 0.34            145           75.3  94 
 BAR2 EZ EP       1455 30.15                             134    0.2110 96.4  42 
 BAR2 EZ ES       1455 45.55                             134    0.4710 96.4  42 
 BAR2 EZ I        1455 47.26        40.2 0.30            139           96.4  42 
 PTB  HZ EP       1455 29.11                             133   -0.9710  101 311 
 PTB  HN ES       1455 45.22                             133   -0.1110  101 311 
 PTB  HZ I        1455 45.76        16.6 0.16            137            101 311 
 NOR  HZ E        1449 37.81                                            130 251 
 NOR  HZ EP       1455 32.50                             125   -0.3010  130 251 
 NOR  HN ES       1455 50.57                             125    0.4010  130 251 
 NOR  HZ I        1455 51.73        31.0 0.58            129            130 251 
 CHI  HZ EP       1455 34.44                             122   -0.41 9  145 179 
 CHI  HN ES       1455 53.56                             122   -0.26 9  145 179 
 CHI  HZ I        1455 59.31         4.7 0.36            125            145 179 
 GUY2CHZ EP       1455 40.09                             114   -0.18 9  194 246 
 GUY2CHN ES       1456  4.19                             114    0.72 9  194 246 
 GUY2CHZ I        1456  8.19         5.0 0.26                           194 246 
 PAM  EZ EP       1455 40.04                             114   -0.22 9  194  37 
 PAM  EN ES   4   1456  6.02                             114    2.57 0  194  37 
 PAM  EZ I        1456  9.08         5.9 0.16            118            194  37 
 ZAR  HZ IP       1455 42.44                             111    1.01 8  210 325 
 ZAR  HZ EP       1455 42.45                                            210 325 
 ZAR  HN ES       1456  5.17                             111   -0.37 8  210 325 
 ZAR  HZ I        1456  8.67        11.1 0.28            115            210 325 
 ORTC HZ EP       1455 49.41                             105   -0.01 7  279 216 
 ORTC HN ES       1456 20.36                             105    0.61 7  279 216 
 ORTC HZ I        1456 25.40         7.6 0.36            108            279 216 
                                                                                
