 2013  2 3 1358  4.8 L   6.758 -73.151143.2  RSN  6 0.3 1.9LRSN                1
 GAP=138        0.80       4.4     4.0  6.2 -0.1827E+01  0.5096E+01 -0.2128E+01E
 Epicentro: LOS SANTOS - SANTANDER                                             3
 ACTION:UPD 13-03-12 09:30 OP:ep   STATUS:               ID:20130203135804 L   I
 2013-02-03-1348-48M.COL___197                                                 6
 STAT SP IPHASW D HRMM SECON CODA AMPLIT PERI AZIMU VELO AIN AR TRES W  DIS CAZ7
 BAR2 SZ EP       1358 24.21                             172    0.1910 18.7 191 
 BAR2 SZ ES       1358 38.67                             172   -0.3610 18.7 191 
 BAR2 SZ I        1358 40.57        24.1 0.18            171           18.7 191 
 BRR  HZ EP       1358 25.97                             151    0.2110 73.0 302 
 BRR  HN ES       1358 42.77                             151    0.6410 73.0 302 
 BRR  HN I        1358 46.34        25.3 0.16            152           73.0 302 
 PAM  SZ EP       1358 26.99                             149    0.0210 81.4  38 
 PAM  SZ I        1358 27.28        14.0 0.20            153           81.4  38 
 PAM  SN ES       1358 43.97                             149   -0.3110 81.4  38 
 RUS  HZ EP   2   1358 27.89                             145   -0.07 5 96.0 176 
 RUS  HN ES       1358 46.24                             145    0.2110 96.0 176 
 RUS  HN I        1358 49.30         6.6 0.20            146           96.0 176 
 PTB  HZ EP       1358 31.17                             132   -0.25 9  146 261 
 PTB  HN ES       1358 51.89                             132   -0.30 9  146 261 
 PTB  HN I        1358 54.39        11.1 0.36            133            146 261 
 ZAR  HN ES   2   1359  2.02                             122   -0.46 4  205 293 
                                                                                
