 2014 10 3 1602 35.7 L   6.805 -73.150144.4  RSN 22 0.4 2.9LRSN                1
 GAP= 71        1.01       2.4     2.7  4.5 -0.5691E+00  0.2861E+01  0.9313E+00E
 Epicentro: LOS SANTOS - SANTANDER                                             3
 ACTION:UPD 14-11-29 23:46 OP:nd   STATUS:               ID:20141003160235 L   I
 OLDACT:REG 14-10-03 20:56 OP:carl STATUS:               ID:20141003155750     3
 2014-10-03-1557-50M.COL___292                                                 6
 STAT SP IPHASW D HRMM SECON CODA AMPLIT PERI AZIMU VELO AIN AR TRES W  DIS CAZ7
 BAR2 SZ IP     D 16 2 55.32                             170    0.1910 23.8 189 
 BAR2 SZ ES       16 3 10.18                             170   -0.1410 23.8 189 
 BAR2 SZ I        16 3 11.39       279.4 0.30            167           23.8 189 
 BRR  HZ EP       16 2 57.12                             153    0.5010 70.5 298 
 BRR  HE ES       16 3 13.44                             153    0.4710 70.5 298 
 BRR  HZ I        16 3 18.25        97.6 0.14            154           70.5 298 
 PAM  SZ EP       16 2 58.23                             151    0.5110 77.3  40 
 PAM  SN ES       16 3 15.24                             151    0.3110 77.3  40 
 PAM  SZ I        16 3 17.30       185.1 0.54            155           77.3  40 
 RUS  HZ EP       16 2 59.24                             143   -0.0710  101 176 
 RUS  HN ES       16 3 17.90                             143    0.1310  101 176 
 RUS  HZ I        16 3 18.69       118.9 0.20            143            101 176 
 PTB  HZ EP       16 3  2.20                             132   -0.28 9  147 259 
 PTB  HN ES       16 3 23.03                             132   -0.37 9  147 259 
 PTB  HZ I        16 3 28.41       105.0 0.22            132            147 259 
 TAM  HZ IP     C 16 3  3.49                             130    0.21 9  156 105 
 TAM  HN ES       16 3 24.41                             130   -0.42 9  156 105 
 TAM  HZ I        16 3 31.83        32.4 0.34            132            156 105 
 OCA  HZ EP       16 3  3.35                             129   -0.45 9  160 353 
 OCA  HN ES       16 3 25.23                             129   -0.53 9  160 353 
 SPBC HZ EP       16 3  4.14                             129    0.08 9  163 219 
 SPBC HN ES       16 3 25.60                             129   -0.61 9  163 219 
 SPBC HZ I        16 3 30.27       133.1 0.20            129            163 219 
 ZAR  HZ EP       16 3  8.23                             122    0.29 9  203 292 
 ZAR  HN ES       16 3 33.88                             122    0.75 9  203 292 
 ZAR  HZ I        16 3 39.72        93.5 0.52            124            203 292 
 SML  HZ EP       16 3 11.71                             117   -0.42 8  243 335 
 SML  HE ES       16 3 40.21                             117   -0.37 8  243 335 
 CHI  HZ EP       16 3 13.44                             117    0.12 8  249 195 
 CHI  HN ES       16 3 42.56                             117   -0.14 8  249 195 
 CHI  HZ I        16 3 50.78        40.7 0.58            117            249 195 
 ROSC BZ EP   4   16 3 15.24                             116    1.52 0  253 211 
 ROSC BN ES   4   16 3 45.61                             116    2.20 0  253 211 
 ROSC BZ I        16 3 52.95        86.7 0.40            117            253 211 
 URE  HZ EP   4   16 3 15.55                             113   -1.04 0  283 292 
 URE  HE ES   4   16 3 46.87                             113   -1.64 0  283 292 
 URE  HZ I        16 3 49.85        47.7 0.14            115            283 292 
 GUY2CHZ EP       16 3 19.95                             112    0.76 7  301 235 
 GUY2CHN ES       16 3 51.97                             112   -1.18 7  301 235 
 GUY2CHZ I        16 4  2.84        46.1 0.40                           301 235 
 PTGC HZ EP   4   16 3 18.29                             111   -1.23 0  309 159 
 PTGC HN ES   4   16 3 50.87                             111   -2.87 0  309 159 
 PTGC HZ I        16 3 56.34        38.7 0.32            112            309 159 
 RREF HZ EP   4   16 3 18.05                             111   -3.68 0  322 229 
 RREF HN ES   4   16 3 54.17                             111   -3.51 0  322 229 
 CBOC HZ EP       16 3 23.14                             110    0.66 7  333 252 
 CBOC HN ES       16 3 59.04                             110    0.04 7  333 252 
 CBOC HZ I        16 4  3.04        22.2 0.56            111            333 252 
 DBB  SZ EP       16 3 23.20                             109    0.19 7  339 274 
 DBB  SZ ES       16 3 59.36                             109   -0.60 7  339 274 
 ANIL HZ EP   4   16 3 26.84                             108    1.43 0  357 224 
 ANIL HE ES   4   16 4  6.19                             108    1.97 0  357 224 
 ANIL HZ I        16 4 11.48        10.5 0.34            109            357 224 
 SDV  BZ EP       16 3 24.81                             108   -0.84 6  360  50 
 SDV  BN ES   4   16 4  2.38                             108   -2.26 0  360  50 
 PRA  HZ EP       16 3 29.20                             106    0.05 6  392 209 
 PRA  HN ES       16 4 10.85                             106   -0.03 6  392 209 
 PRA  HZ I        16 4 18.40        39.2 0.36            107            392 209 
 ORTC HZ EP       16 3 29.91                             106    0.37 6  396 216 
 ORTC HN ES       16 4 11.99                             106    0.41 6  396 216 
 ORTC HZ I        16 4 19.39        30.3 0.36            107            396 216 
 SJC  HZ EP   4   16 3 29.33                             105   -1.76 0  409 327 
 SJC  HN ES   4   16 4 11.13                             105   -3.20 0  409 327 
 SJC  HZ I        16 4 15.44        32.1 0.48            107            409 327 
                                                                                
