 2012  7 3 1624  8.2 L   6.692 -73.222145.5  RSN  6 0.4 1.8LRSN                1
 GAP=208        0.87       6.1     7.7  8.8  0.2433E+02  0.2338E+02  0.1622E+02E
 Epicentro: VILLANUEVA - SANTANDER                                             3
 ACTION:UPD 12-08-14 11:42 OP:ep   STATUS:               ID:20120703162408 L   I
 2012-07-03-1620-00M.COL___200                                                 6
 STAT SP IPHASW D HRMM SECON CODA AMPLIT PERI AZIMU VELO AIN AR TRES W  DIS CAZ7
 BAR2 SZ EP   1   1624 27.13                             175    -0.5 7   12 158 
 BAR2 SZ ES   1   1624 42.62                             175    -0.1 7   12 158 
 BAR2 SZ I        1624 43.89        18.0 0.27            172             12 158 
 BRR  HZ EP   1   1624 29.44                             153     0.2 7   71 310 
 BRR  HN ES   1   1624 46.31                             153     0.6 7   71 310 
 RUS  HN ES   1   1624 48.98                             147    -0.1 7   90 170 
 RUS  HZ I        1624 50.92        13.1 0.39            146             90 170 
 PTB  HZ EP   1   1624 33.92                             134    -0.3 7  137 263 
 PTB  HN ES   1   1624 53.92                             134    -0.6 7  137 263 
 PTB  HZ I        1624 56.24         4.5 0.14            131            137 263 
 ZAR  HN ES   1   1625  5.57                             123     0.2 6  201 296 
 ZAR  HZ I        1625 12.99         6.7 0.24            121            201 296 
 CHI  HZ EP   1   1624 44.63                             119     0.3 6  235 194 
 CHI  HN ES   1   1625 13.12                             119     0.5 6  235 194 
 CHI  HZ I        1625 17.25         3.1 0.41            118            235 194 
