 2011  7 3 1706 30.3 L   6.764 -73.182144.0  RSN  4 0.3 1.4LRSN                1
 GAP=203        0.56       8.1    13.2  5.9  0.8139E+02 -0.8690E+01  0.3938E+01E
 Epicentro: VILLANUEVA - SANTANDER                                             3
 ACTION:UPD 12-07-25 13:58 OP:epov STATUS:               ID:20110703170630 L   I
 2011-07-03-1703-16S.COL___140                                                 6
 STAT SP IPHASW D HRMM SECON CODA AMPLIT PERI AZIMU VELO AIN AR TRES W  DIS CAZ7
 BAR2 SZ EP       17 6 49.34                             172   -0.2710 19.0 180 
 BAR2 SZ I        17 6 49.58         5.3 0.38                          19.0 180 
 BAR2 SZ ES   2   17 7  4.12                             172   -0.58 5 19.0 180 
 BTL  SZ EP       17 6 49.64                             172    0.0210 19.5 331 
 BTL  SZ ES   1   17 7  5.11                             172    0.40 7 19.5 331 
 BRR  HZ EP       17 6 51.13                             153   -0.0210 69.8 303 
 BRR  HN ES   1   17 7  7.42                             153   -0.02 7 69.8 303 
 BRR  HZ I        17 7  8.57         7.4 0.36                          69.8 303 
 RUS  HZ EP       17 6 53.82                             144    0.2310 97.0 174 
 RUS  HN ES   2   17 7 11.72                             144   -0.06 5 97.0 174 
 RUS  HZ I        17 7 13.33         3.2 0.26                          97.0 174 
                                                                                
