 2013 10 3 1043 26.7 L   6.192 -73.787 94.5  RSN  7 0.3 1.4LRSN                1
 GAP= 96        0.74       2.6     2.3  5.3 -0.6437E+00  0.1726E+01  0.1145E+01E
 Epicentro: LANDAZURI - SANTANDER                                              3
 ACTION:UPD 13-11-25 09:18 OP:ep   STATUS:               ID:20131003104326 L   I
 OLDACT:REG 13-10-03 13:48 OP:stll STATUS:               ID:20131003103839     3
 2013-10-03-1038-39M.COL___234                                                 6
 STAT SP IPHASW D HRMM SECON CODA AMPLIT PERI AZIMU VELO AIN AR TRES W  DIS CAZ7
 SPBC HZ EP       1043 42.49                             142   -0.0110 67.5 208 
 SPBC HN ES       1043 55.05                             142    0.2610 67.5 208 
 BAR2 SZ EP       1043 43.46                             137   -0.2710 80.2  56 
 BAR2 SZ ES       1043 57.39                             137    0.4010 80.2  56 
 BAR2 SZ I        1043 59.15        16.3 0.34            139           80.2  56 
 PTB  HN ES       1043 56.69                             135   -0.2310 83.4 297 
 PTB  HZ I        1043 57.32         6.3 0.12            137           83.4 297 
 RUS  HZ EP       1043 44.09                             136   -0.3710 84.7 113 
 RUS  HZ I        1043 44.37         7.3 0.34            137           84.7 113 
 RUS  HN ES       1043 58.18                             136   -0.1010 84.7 113 
 NOR  HZ EP       1043 49.34                             120    0.18 9  138 240 
 NOR  HN ES       1044  6.56                             120   -0.09 9  138 240 
 NOR  HZ I        1044  9.67         3.7 0.44            121            138 240 
 CHI  HZ EP       1043 53.93                             115    0.53 9  173 178 
 CHI  HN ES       1044 13.89                             115   -0.30 9  173 178 
 CHI  HZ I        1044 16.28         2.6 0.42            116            173 178 
 ZAR  HZ EP       1043 54.50                             112    0.10 9  186 321 
                                                                                
