 2017  8 3 1648 53.6 L   6.804 -73.135147.4  RSN  8 0.4 1.7LRSN                1
 GAP=138        0.94       4.3     4.1  6.0 -0.1322E+01  0.9754E+01  0.2281E+01E
 Epicentro: LOS SANTOS - SANTANDER                                             3
 ACTION:UPD 17-09-04 20:16 OP:rebc STATUS:               ID:20170803164853 L   I
 OLDACT:REG 17-08-03 21:50 OP:dhb  STATUS:               ID:20170803164739     3
 2017-08-03-1648-00M.COL___398                                                 6
 STAT SP IPHASW D HRMM SECON CODA AMPLIT PERI AZIMU VELO AIN AR TRES W  DIS CAZ7
 BAR2 EZ EP       1649 13.01                             170   -0.4110 23.9 193 
 BAR2 EZ ES       1649 29.16                             170    0.2710 23.9 193 
 BAR2 EZ I        1649 30.41         6.8 0.24            162           23.9 193 
 PAM  EZ IP     C 1649 16.08                             151    0.1710 76.3  39 
 PAM  EE ES       1649 33.40                             151    0.0810 76.3  39 
 PAM  EZ I        1649 35.37        10.4 0.66            145           76.3  39 
 RUS  HZ EP       1649 17.54                             144    0.0210  101 177 
 RUS  HN ES       1649 36.13                             144   -0.0510  101 177 
 RUS  HZ I        1649 38.11         9.2 0.46            132            101 177 
 PTB  HZ EP       1649 20.05                             132   -0.74 9  149 259 
 PTB  HN ES       1649 41.40                             132   -0.62 9  149 259 
 PTB  HZ I        1649 43.18         4.3 0.15            125            149 259 
 ZAR  HZ EP       1649 26.20                             123   -0.03 9  205 292 
 ZAR  HE ES       1649 52.12                             123    0.43 9  205 292 
 ZAR  HZ I        1649 55.94         3.5 0.15            116            205 292 
 NOR  HZ EP       1649 29.98                             119    0.45 8  236 235 
 NOR  HE ES       1649 58.15                             119    0.58 8  236 235 
 NOR  HZ I        1650  2.32         4.6 0.32            111            236 235 
 CHI  HZ EP       1649 31.32                             117   -0.12 8  249 195 
 CHI  HZ I        1650  3.53         1.7 0.15            109            249 195 
 GUY2CHZ EP       1649 37.84                             112    0.44 7  302 235 
 GUY2CHN ES   4   1650 15.16                             112    3.58 0  302 235 
 GUY2CHZ I        1650 19.87         3.4 0.70                           302 235 
                                                                                
