 2016  5 3 1847  6.7 L   6.810 -73.183149.2  RSN  9 0.4 1.7LRSN                1
 GAP=131        1.12       4.0     4.5  6.7 -0.1258E+01  0.7548E+01  0.3928E+01E
 Epicentro: ZAPATOCA - SANTANDER                                               3
 ACTION:UPD 16-08-18 17:41 OP:cam  STATUS:               ID:20160503184706 L   I
 OLDACT:UP  16-05-15 07:30 OP:ar   STATUS:               ID:20160503184706 L   3
 OLDACT:UP  16-05-03 22:32 OP:mh   STATUS:               ID:20160503183744     3
 OLDACT:UP  16-05-03 22:32 OP:mh   STATUS:               ID:20160503183744     3
 OLDACT:REG 16-05-03 21:51 OP:dani STATUS:               ID:20160503183744     3
 2016-05-03-1837-44M.COL___304                                                 6
 STAT SP IPHASW D HRMM SECON CODA AMPLIT PERI AZIMU VELO AIN AR TRES W  DIS CAZ7
 BAR2 EZ EP       1847 27.01                             170    0.2310 24.1 180 
 BAR2 EZ ES       1847 41.70                             170   -0.7210 24.1 180 
 BAR2 EZ I        1847 44.98        11.4 0.34            169           24.1 180 
 BRR  HZ EP       1847 27.43                             154   -0.5910 67.1 299 
 BRR  HN ES       1847 45.55                             154    0.9210 67.1 299 
 BRR  HZ I        1847 49.14        15.3 0.60            155           67.1 299 
 PAM  EZ EP       1847 29.94                             151    0.5310 79.2  42 
 PAM  EN ES       1847 47.04                             151   -0.0710 79.2  42 
 PAM  EZ I        1847 50.11         7.7 0.48            156           79.2  42 
 RUS  HZ EP       1847 31.06                             144    0.1410  102 174 
 RUS  HN ES       1847 49.51                             144   -0.2710  102 174 
 RUS  HZ I        1847 51.19         3.8 0.12            146            102 174 
 PTB  HZ EP       1847 33.73                             134    0.10 9  144 258 
 PTB  HN ES       1847 54.24                             134   -0.38 9  144 258 
 PTB  HZ I        1847 59.79         6.4 0.28            135            144 258 
 SPBC HZ EP       1847 35.21                             130   -0.12 9  161 218 
 SPBC HN ES       1847 58.25                             130    0.61 9  161 218 
 SPBC HZ I        1848  2.13        11.6 0.12            132            161 218 
 ZAR  HZ EP       1847 38.31                             124   -0.66 9  200 292 
 ZAR  HN ES       1848  4.14                             124    0.03 9  200 292 
 NOR  HZ EP   1   1847 42.82                             119    0.45 6  232 234 
 NOR  HN ES       1848 10.00                             119   -0.17 8  232 234 
 NOR  HZ I        1848 16.42         4.4 0.13            121            232 234 
 CHI  HZ EP   1   1847 44.46                             118   -0.16 6  249 194 
 CHI  HN ES       1848 14.40                             118    0.23 8  249 194 
 CHI  HZ I        1848 18.75         3.4 0.08            120            249 194 
                                                                                
