 2013 11 3 1959 46.4 L   6.822 -73.144147.2  RSN 14 0.4 2.4LRSN                1
 GAP=136        0.93       2.3     3.4  4.6 -0.2337E+01  0.4624E+01 -0.1196E+01E
 Epicentro: LOS SANTOS - SANTANDER                                             3
 ACTION:UPD 14-01-09 16:25 OP:ep   STATUS:               ID:20131103195946 L   I
 OLDACT:UP  13-11-03 19:12 OP:carl STATUS:               ID:20131103195749     3
 OLDACT:REG 13-11-03 18:52 OP:carl STATUS:               ID:20131103195749     3
 2013-11-03-1957-49M.COL___217                                                 6
 STAT SP IPHASW D HRMM SECON CODA AMPLIT PERI AZIMU VELO AIN AR TRES W  DIS CAZ7
 BAR2 SZ EP       20 0  6.31                             170    0.0610 25.8 189 
 BAR2 SZ ES       20 0 21.25                             170   -0.4910 25.8 189 
 BRR  HZ EP       20 0  8.21                             153    0.5610 70.2 297 
 BRR  HN ES       20 0 24.66                             153    0.4410 70.2 297 
 BRR  HZ I        20 0 28.62        28.0 0.32            150           70.2 297 
 PAM  SZ IP     D 20 0  9.09                             152    0.4410 75.4  41 
 PAM  SN ES       20 0 26.49                             152    0.4910 75.4  41 
 RUS  HZ EP       20 0 10.23                             143   -0.2410  103 176 
 RUS  HN ES       20 0 29.27                             143    0.0310  103 176 
 RUS  HZ I        20 0 31.58        24.7 0.46            147            103 176 
 PTB  HZ EP       20 0 13.32                             132   -0.23 9  148 258 
 PTB  HN ES       20 0 34.39                             132   -0.33 9  148 258 
 PTB  HZ I        20 0 41.77        31.8 0.40            132            148 258 
 OCA  HZ EP       20 0 14.45                             130   -0.15 9  158 353 
 OCA  HE ES       20 0 36.14                             130   -0.45 9  158 353 
 OCA  HZ I        20 0 41.02        27.3 0.42            132            158 353 
 SPBC HZ EP       20 0 15.23                             129    0.03 9  165 219 
 SPBC HN ES       20 0 36.96                             129   -0.71 9  165 219 
 SPBC HZ I        20 0 42.29        47.3 0.22            131            165 219 
 ZAR  HZ EP       20 0 18.89                             123    0.02 9  203 291 
 ZAR  HN ES       20 0 44.44                             123    0.26 9  203 291 
 ZAR  HZ I        20 0 51.60        26.9 0.60            123            203 291 
 NOR  HZ EP       20 0 22.59                             119    0.20 8  236 234 
 NOR  HE ES       20 0 50.06                             119   -0.39 8  236 234 
 NOR  HZ I        20 0 54.61        21.4 0.18            120            236 234 
 SML  HZ EP       20 0 22.13                             118   -0.75 8  242 335 
 SML  HN ES       20 0 51.31                             118   -0.01 8  242 335 
 SML  HZ I        20 0 54.19        44.2 0.10            120            242 335 
 ROSC BZ EP   1   20 0 25.39                             117    0.55 6  255 211 
 ROSC BE ES       20 0 54.99                             117    0.17 8  255 211 
 HEL  HZ EP   1   20 0 26.81                             115    0.03 6  273 255 
 HEL  HN ES       20 0 58.65                             115    0.38 8  273 255 
 HEL  HZ I        20 1  4.59        14.1 0.30            116            273 255 
 GUY2CHZ EP       20 0 30.84                             112    0.58 7  303 234 
 GUY2CHN ES       20 1  4.71                             112    0.25 7  303 234 
 GUY2CHZ I        20 1 12.95        18.1 0.82                           303 234 
 COD  HZ EP       20 0 33.75                             109   -0.80 6  346 355 
 COD  HN ES       20 1 12.26                             109    0.15 6  346 355 
 COD  HZ I        20 1 15.95         4.7 0.28            111            346 355 
                                                                                
