 2016 10 3 1413 25.9 L   6.846 -73.153139.7  RSN  4 0.1 1.3LRSN                1
 GAP=146        0.44       2.6     2.6  3.7 -0.2171E+01  0.2805E+01 -0.7972E+00E
 Epicentro: LOS SANTOS - SANTANDER                                             3
 ACTION:UPD 16-11-09 19:15 OP:rebc STATUS:               ID:20161003141325 L   I
 OLDACT:REG 16-10-03 20:55 OP:lv   STATUS:               ID:20161003140746     3
 2016-10-03-1408-00M.COL___369                                                 6
 STAT SP IPHASW D HRMM SECON CODA AMPLIT PERI AZIMU VELO AIN AR TRES W  DIS CAZ7
 BAR2 EZ EP       1413 44.75                             168   -0.2110 28.2 187 
 BAR2 EZ ES       1413 59.70                             168   -0.0910 28.2 187 
 BAR2 EZ I        1414  3.15         4.5 0.28            170           28.2 187 
 PAM  EZ EP       1413 47.55                             151    0.2310 74.1  43 
 PAM  EN ES       1414  3.95                             151   -0.0410 74.1  43 
 PAM  EZ I        1414  6.73         4.8 0.56            154           74.1  43 
 RUS  HZ EP       1413 49.38                             141   -0.1110  106 176 
 RUS  HN ES       1414  8.02                             141    0.1710  106 176 
 RUS  HZ I        1414  9.22         2.8 0.34            145            106 176 
 PTB  HZ EP       1413 52.42                             130   -0.03 9  148 257 
 PTB  HN ES       1414 13.20                             130    0.08 9  148 257 
 PTB  HZ I        1414 16.40         1.8 0.14            133            148 257 
                                                                                
