 2013  9 3 1637 34.3 L   6.771 -73.168147.0  RSN  5 0.3 1.9LRSN                1
 GAP=135        0.47       3.5     3.5  4.7  0.3145E+01  0.1079E+01  0.6432E+00E
 Epicentro: LOS SANTOS - SANTANDER                                             3
 ACTION:UPD 13-10-22 09:19 OP:ep   STATUS:               ID:20130903163734 L   I
 OLDACT:DUP 13-09-03 20:20 OP:mh   STATUS:               ID:20130903162960d    3
 2013-09-03-1629-59M.COL___269                                                 6
 STAT SP IPHASW D HRMM SECON CODA AMPLIT PERI AZIMU VELO AIN AR TRES W  DIS CAZ7
 BRR  HZ EP   1   1637 55.72                             153    0.22 7 70.7 302 
 BRR  HN ES       1638 12.18                             153    0.1010 70.7 302 
 BRR  HN I        1638 15.56        24.0 0.20            148           70.7 302 
 PAM  SZ EP   1   1637 56.99                             150    0.15 7 81.4  39 
 PAM  SN ES   2   1638 13.87                             150   -0.58 5 81.4  39 
 RUS  HZ EP   1   1637 57.98                             145    0.06 7 97.6 174 
 RUS  HN ES   1   1638 16.44                             145    0.07 7 97.6 174 
 PTB  HZ EP   1   1638  0.70                             133   -0.35 7  145 260 
 PTB  HN ES   2   1638 21.56                             133   -0.39 5  145 260 
 PTB  HZ I        1638 27.37         4.9 0.32            130            145 260 
 ZAR  HZ EP   1   1638  6.61                             123   -0.06 6  203 293 
 ZAR  HN ES   2   1638 32.22                             123    0.26 4  203 293 
 ZAR  HN I        1638 37.60        11.4 0.12            122            203 293 
                                                                                
