 2011  3 3 1218 49.9 L   6.783 -72.960140.5  RSN  4 0.2 1.7LRSN                1
 GAP=180        0.40       4.1    11.8  6.1 -0.3427E+02 -0.1480E+00  0.3674E+01E
 Epicentro: CEPITA - SANTANDER                                                 3
 ACTION:UP  11-06-16 14:31 OP:jfem STATUS:               ID:20110303121850 L   I
 2011-03-03-1214-50S.COL___135                                                 6
 STAT SP IPHASW D HRMM SECON CODA AMPLIT PERI AZIMU VELO SNR AR TRES W  DIS CAZ7
 BAR2 SZ EP   1   1219  8.90                             166    -0.3 7   33 229 
 BAR2 SZ ES   2   1219 24.19                             166     0.0 5   33 229 
 BAR2 SZ I        1219 26.88        16.1 0.84                            33 229 
 RUS  HZ EP   1   1219 13.16                             143     0.1 7   99 188 
 RUS  HE ES   3   1219 31.56                             143     0.4 2   99 188 
 RUS  HZ I        1219 33.72         4.1 0.47                            99 188 
 GRA  SZ EP   1   1219 14.50                             136     0.0 7  123   8 
 GRA  SZ ES   1   1219 33.71                             136     0.1 7  123   8 
 GRA  SZ I        1219 35.06         8.7 0.34                           123   8 
 RREF HZ EP   2   1219 37.96                             109     0.4 3  336 232 
 RREF HE ES   3   1220 14.49                             109    -0.2 2  336 232 
 RREF HZ I        1220 19.85         2.1 0.48                           336 232 
                                                                                
