 2010  7 3 1211  7.7 L   6.787 -73.093153.9  RSN 20 0.5 4.8LRSN                1
 GAP=124        0.91       3.1     5.6  5.2 -0.7361E+01  0.4220E+01  0.3998E+01E
 Epicentro: LOS SANTOS - SANTANDER                                             3
 Epicentro: LOS SANTOS - SANTANDER                                             3
 Evento sentido                                                                2
 Reportado como sentido:                                                       3
 BUCARAMANGA, FLORIDABLANCA, (SANTANDER). CUCUTA, PAMPLONA (NTE SANTANDER).    3
 ACTION:UPD 10-12-01 15:14 OP:pat  STATUS:               ID:20100703121107 L   I
 2010-07-03-1209-35S.COL___118                                                 6
 STAT SP IPHASW D HRMM SECON CODA AMPLIT PERI AZIMU VELO AIN AR TRES W  DIS CAZ7
 BAR2 SZ IP       1211 28.24                             171    -0.110   24 205 
 BAR2 SZ ES   1   1211 43.96                             171    -0.4 7   24 205 
 BRR  HZ IP     D 1211 30.07                             152     0.010   77 297 
 BRR  HZ I        1211 30.61     11208.8 0.34                            77 297 
 BRR  HE ES   1   1211 47.57                             152     0.1 7   77 297 
 RUS  HZ IP     C 1211 32.06                             146    -0.110   99 179 
 RUS  HE ES   1   1211 51.15                             146     0.0 7   99 179 
 RUS  HZ I        1211 52.59      9882.7 0.51                            99 179 
 BRI  SZ IP   2   1211 33.70                             143     1.4 5  108  18 
 BRI  SZ ES   2   1211 51.30                             143    -0.2 5  108  18 
 BRI  SZ I        1211 58.23     10961.9 0.65                           108  18 
 GUE  SZ IP       1211 33.19                             141     0.010  117   9 
 GUE  SZ ES   1   1211 52.88                             141    -0.2 7  117   9 
 GRA  SZ IP       1211 33.96                             139     0.310  126  15 
 GRA  SZ ES   1   1211 53.80                             139    -0.1 7  126  15 
 OCA  SZ EP   1   1211 36.53                             131    -0.3 7  163 351 
 OCA  SZ ES   1   1211 59.69                             131     0.1 7  163 351 
 OCA  SZ I        1212  4.54     12193.8 0.32                           163 351 
 CHI  HZ IP     C 1211 46.02                             119     0.1 8  249 197 
 CHI  HN ES   1   1212 15.83                             119     0.2 6  249 197 
 CHI  HZ I        1212 24.80      2544.2 0.80                           249 197 
 ROSC BZ IP     C 1211 47.68                             118     1.2 8  255 212 
 ROSC BN ES   2   1212 16.65                             118    -0.1 4  255 212 
 ROSC BZ I        1212 25.39      3060.8 0.38                           255 212 
 CVER SZ EP   2   1211 48.92                             116     0.3 4  273 204 
 HEL  HZ EP   1   1211 47.98                             116    -0.9 6  277 256 
 HEL  HZ I        1212 27.18      4216.0 0.50                           277 256 
 GUY  HZ EP       1211 52.05                             113    -0.1 7  305 236 
 RREF HZ EP   1   1211 54.55                             112     0.0 5  325 230 
 RREF HE ES   1   1212 31.95                             112     0.8 5  325 230 
 RREF HZ I        1212 38.32      4007.7 0.56                           325 230 
 DBB  SZ IP       1211 55.96                             110    -0.2 6  345 274 
 TOL  SZ EP       1211 56.72                             110     0.1 6  347 226 
 SDV  BZ IP     D 1211 57.38                             110    -0.3 6  357  49 
 SDV  BZ I        1212 36.87      1505.6 0.48                           357  49 
 ANIL HZ EP   1   1211 58.28                             110     0.1 5  360 225 
 ANIL HZ I        1212 45.55      4464.0 0.53                           360 225 
 PRA  HZ EP       1212  0.89                             108    -0.8 6  394 210 
 PRA  HE ES   1   1212 43.38                             108    -0.4 4  394 210 
 PRA  HZ I        1212 47.94      1839.3 0.33                           394 210 
 GUA  SZ EP       1212 10.12                             104    -0.7 5  472 174 
 GUA  SZ ES   2   1212 59.55                             104    -0.5 2  472 174 
 HORQ SZ EP   2   1212 17.89                             102    -0.8 2  535 227 
                                                                                
