 2015  2 3 1508 34.5 L   6.631 -73.687 97.4  RSN  4 0.4 1.6LRSN                1
 GAP=148        0.99       6.9     4.5  9.3  0.1912E+02  0.6773E+01 -0.8314E+01E
 Epicentro: EL CARMEN - SANTANDER                                              3
 ACTION:UPD 15-04-30 21:21 OP:nd   STATUS:               ID:20150203150834 L   I
 OLDACT:REG 15-02-03 19:38 OP:cam  STATUS:               ID:20150203150820     3
 2015-02-03-1508-20M.COL___271                                                 6
 STAT SP IPHASW D HRMM SECON CODA AMPLIT PERI AZIMU VELO AIN AR TRES W  DIS CAZ7
 BAR2 EZ EP     C 15 8 49.49                             148   -0.4710 56.0  94 
 BAR2 EZ ES       15 9  1.95                             148   -0.0610 56.0  94 
 BAR2 EZ I        15 9  2.90        20.1 0.46            150           56.0  94 
 PTB  HZ EP     D 15 8 51.47                             136   -0.4610 85.7 263 
 PTB  HN ES       15 9  5.36                             136   -0.1410 85.7 263 
 PTB  HZ I        15 9  7.08         6.7 0.24            136           85.7 263 
 RUS  HZ EP       15 8 54.24                             130   -0.1410  106 141 
 RUS  HN ES       15 9 10.48                             130    0.6210  106 141 
 RUS  HZ I        15 9 11.64         7.2 0.16            132            106 141 
 ZAR  HZ EP       15 8 59.89                             117    0.44 9  161 306 
 ZAR  HN ES       15 9 19.25                             117    0.35 9  161 306 
 ZAR  HN I        15 9 23.20        11.9 0.54            117            161 306 
                                                                                
