 2012  1 3 1540 51.0 L   6.772 -73.138147.9  RSN  9 0.3 2.5LRSN                1
 GAP=156        0.79       3.9     4.2  4.9 -0.5141E+01  0.3060E+01  0.4002E+01E
 Epicentro: LOS SANTOS - SANTANDER                                             3
 ACTION:UP  12-02-03 08:13 OP:REBC STATUS:               ID:20120103154051 L   I
 2012-01-03-1540-00M.COL___184                                                 6
 STAT SP IPHASW D HRMM SECON CODA AMPLIT PERI AZIMU VELO SNR AR TRES W  DIS CAZ7
 BAR2 SZ EP       1541 10.79                             172     0.010   21 194 
 BAR2 SZ ES       1541 26.12                             172    -0.210   21 194 
 BAR2 SZ I        1541 27.57        91.0 0.25                            21 194 
 BRR  HZ IP     C 1541 12.66                             152     0.210   74 300 
 BRR  HN ES       1541 29.86                             152     0.610   74 300 
 BRR  HN I        1541 33.67       186.4 0.14                            74 300 
 PAM  SZ EP       1541 13.62                             151     0.110   79  38 
 PAM  SN ES       1541 31.04                             151    -0.110   79  38 
 PTB  HZ EP       1541 17.87                             132    -0.3 9  148 260 
 PTB  HN ES   1   1541 38.73                             132    -0.6 7  148 260 
 OCA  SZ EP       1541 19.43                             129    -0.3 9  163 353 
 OCA  SZ I        1541 47.26        24.5 0.40                           163 353 
 ZAR  HZ EP   1   1541 24.12                             123     0.3 6  206 293 
 ZAR  HN ES   2   1541 48.80                             123    -0.6 4  206 293 
 ZAR  HZ I        1541 55.79        22.1 0.15                           206 293 
 NOR  SZ EP   1   1541 27.03                             119     0.3 6  234 235 
 NOR  SN ES   1   1541 54.62                             119     0.0 6  234 235 
 CHI  HZ EP       1541 28.68                             118     0.2 8  246 196 
 CHI  HZ I        1541 31.51         7.9 0.52                           246 196 
 CHI  HN ES   1   1541 57.63                             118    -0.1 6  246 196 
 PRA  HZ EP   1   1541 44.91                             107     0.6 4  390 210 
                                                                                
