 2015  3 3 1006 56.4 L   6.565 -73.564112.0  RSN  6 0.7 2.1LRSN                1
 GAP= 89        1.64       6.9     5.8 11.3 -0.7770E+01  0.1438E+02  0.1472E+02E
 Epicentro: EL CARMEN - SANTANDER                                              3
 ACTION:UPD 15-04-30 16:22 OP:nd   STATUS:               ID:20150303100656 L   I
 OLDACT:REG 15-03-03 21:15 OP:carl STATUS:               ID:20150303095741     3
 2015-03-03-0957-41M.COL___290                                                 6
 STAT SP IPHASW D HRMM SECON CODA AMPLIT PERI AZIMU VELO AIN AR TRES W  DIS CAZ7
 BAR2 EZ IP     D 10 7 12.73                             158    0.1010 42.3  86 
 BAR2 EZ ES       10 7 26.01                             158    0.6810 42.3  86 
 BAR2 EZ I        10 7 26.48        56.5 0.24            161           42.3  86 
 BRR  HZ IP       10 7 13.55                             149    0.1810 62.2 345 
 BRR  HE ES       10 7 27.52                             149    0.8710 62.2 345 
 BRR  HZ I        10 7 35.66        20.4 0.30            148           62.2 345 
 RUS  HZ EP       10 7 15.82                             138   -0.3810 91.4 144 
 RUS  HN ES       10 7 31.42                             138   -0.2610 91.4 144 
 PTB  HZ EP       10 7 15.57                             136   -0.5810 98.7 268 
 PTB  HN ES       10 7 30.49                             136   -1.1010 98.7 268 
 PTB  HZ I        10 7 31.88        39.8 0.18            138           98.7 268 
 PAM  SZ EP       10 7 19.33                             128   -0.1710  128  48 
 PAM  SN ES       10 7 37.09                             128   -0.4710  128  48 
 PAM  SZ I        10 7 38.27        15.1 0.40            131            128  48 
 GUY2CHZ EP       10 7 33.89                             109    1.41 8  248 233 
 GUY2CHN ES       10 8  1.00                             109    0.34 8  248 233 
 GUY2CHZ I        10 8  8.25         6.3 0.54                           248 233 
                                                                                
