 2011  3 3 1311 47.8 L   6.128 -73.355142.8  RSN 19 0.5 3.6LRSN                1
 GAP= 85        1.05       3.2     5.6  7.2 -0.6118E+01  0.1665E+02 -0.2952E+01E
 Epicentro: SUAITA - SANTANDER                                                 3
 ACTION:UP  11-06-16 14:31 OP:jfem STATUS:               ID:20110303131147 L   I
 2011-03-03-1308-50S.COL___135                                                 6
 STAT SP IPHASW D HRMM SECON CODA AMPLIT PERI AZIMU VELO SNR AR TRES W  DIS CAZ7
 RUS  HZ IP     D 1312  8.08                             164     0.210   40 131 
 RUS  HE ES   1   1312 23.50                             164    -0.1 7   40 131 
 RUS  HZ I        1312 27.06       665.1 0.33                            40 131 
 BAR2 SZ IP       1312  8.32                             158     0.210   55  20 
 BAR2 SZ ES   1   1312 23.96                             158     0.0 7   55  20 
 BAR2 SZ I        1312 25.81      1194.6 0.46                            55  20 
 YOP  SZ IP       1312 13.80                             134     0.310  134 130 
 YOP  SN ES   2   1312 32.96                             134    -0.5 5  134 130 
 YOP  SZ I        1312 35.57       582.7 0.29                           134 130 
 CHI  HZ IP     D 1312 17.38                             127     0.1 9  171 194 
 CHI  HZ I        1312 18.13       502.7 0.42                           171 194 
 CHI  HN ES   1   1312 39.99                             127    -0.2 7  171 194 
 ROSC BZ IP     D 1312 19.01                             126     1.1 9  178 217 
 GUE  SZ EP       1312 18.43                             123    -1.0 9  194  14 
 GRA  SZ IP       1312 20.60                             122     0.4 9  204  17 
 GRA  SZ I        1312 54.60       188.3 0.38                           204  17 
 VIL  SZ IP       1312 22.10                             119    -0.5 8  226 190 
 VIL  SE ES   1   1312 48.91                             119    -0.7 6  226 190 
 VIL  SZ I        1312 52.72       140.0 0.27                           226 190 
 OCA  SZ EP       1312 23.10                             118    -0.3 8  233   1 
 OCA  SZ ES       1312 51.56                             118     0.5 8  233   1 
 OCA  SZ I        1312 55.28       435.9 0.43                           233   1 
 HEL  HE ES   2   1312 52.71                             117    -0.3 4  241 272 
 GUY  SZ EP   4   1312 26.20                             117     1.2 0  244 246 
 GUY  SZ I        1313  2.20       250.8 0.32                           244 246 
 RREF HZ EP       1312 26.72                             116    -0.1 8  259 239 
 RREF HN ES   2   1312 56.99                             116    -0.2 4  259 239 
 RREF HZ I        1313  3.44       338.9 0.44                           259 239 
 TOL  SZ EP       1312 28.45                             114     0.1 7  277 232 
 PRA  HZ EP       1312 32.17                             110    -0.3 7  316 213 
 PRA  HN ES   1   1313  7.17                             110    -0.1 5  316 213 
 DBB  SZ EP       1312 34.41                             109     0.3 7  331 287 
 MON  HZ EP   3   1312 39.67                             106    -1.1 1  388 319 
 MON  HE ES   2   1313 20.60                             106    -1.4 3  388 319 
 SDV  BZ EP       1312 45.30                             104    -0.4 5  428  45 
 SDV  BZ I        1312 46.36        55.8 0.21                           428  45 
 MARA HZ EP   2   1312 50.04                             103     0.0 2  464 219 
 HORQ SZ EP   3   1312 51.03                             103     0.8 1  466 231 
 HORQ SN ES   2   1313 39.47                             103     0.5 2  466 231 
                                                                                
