 2017  1 3 1902 34.7 L   6.762 -73.138142.9  RSN  6 0.3 1.9LRSN                1
 GAP=139        0.89       4.4     3.9  6.0  0.1671E+01  0.6106E+01 -0.1243E+01E
 Epicentro: LOS SANTOS - SANTANDER                                             3
 ACTION:UPD 17-05-22 15:55 OP:jn   STATUS:               ID:20170103190234 L   I
 OLDACT:REG 17-01-03 20:56 OP:dnl  STATUS:               ID:20170103185744     3
 2017-01-03-1858-00M.COL___369                                                 6
 STAT SP IPHASW D HRMM SECON CODA AMPLIT PERI AZIMU VELO AIN AR TRES W  DIS CAZ7
 BAR2 EZ IP     C 19 2 53.93                             172    0.0410 19.4 195 
 BAR2 EZ ES       19 3  8.59                             172   -0.2810 19.4 195 
 BAR2 EZ I        19 3  9.75        14.8 0.14            170           19.4 195 
 BRR  HZ IP     C 19 2 55.81                             151    0.1310 74.0 301 
 BRR  HE ES       19 3 12.62                             151    0.5610 74.0 301 
 BRR  HZ I        19 3 17.11        20.2 0.14            148           74.0 301 
 PAM  EZ IP     C 19 2 56.82                             149    0.0610 80.2  37 
 PAM  EN ES       19 3 13.61                             149   -0.3710 80.2  37 
 PAM  EZ I        19 3 15.88        26.2 0.44            153           80.2  37 
 RUS  HZ EP       19 2 57.97                             144    0.1310 96.3 176 
 RUS  HE ES       19 3 16.24                             144    0.3310 96.3 176 
 RUS  HZ I        19 3 17.62        11.3 0.26            148           96.3 176 
 PTB  HZ EP       19 3  0.81                             131   -0.61 9  148 260 
 PTB  HE ES       19 3 21.81                             131   -0.46 9  148 260 
 PTB  HZ I        19 3 28.88         5.1 0.12            131            148 260 
 ZAR  HZ EP       19 3  7.47                             121    0.29 8  206 293 
 ZAR  HN ES       19 3 32.71                             121    0.17 8  206 293 
 ZAR  HZ I        19 3 40.20         8.3 0.30            122            206 293 
                                                                                
