 2014  6 3 1442  3.9 L   6.780 -73.166143.2  RSN 11 0.4 2.0LRSN                1
 GAP=135        1.10       3.1     4.2  5.7 -0.1285E+01  0.7104E+01  0.9564E+00E
 Epicentro: LOS SANTOS - SANTANDER                                             3
 ACTION:UPD 14-07-01 22:50 OP:nd   STATUS:               ID:20140603144203 L   I
 OLDACT:REG 14-06-03 20:58 OP:stll STATUS:               ID:20140603143814     3
 2014-06-03-1438-14M.COL___259                                                 6
 STAT SP IPHASW D HRMM SECON CODA AMPLIT PERI AZIMU VELO AIN AR TRES W  DIS CAZ7
 BAR2 SZ EP       1442 23.37                             171    0.2110 20.9 185 
 BAR2 SZ ES       1442 37.75                             171   -0.4410 20.9 185 
 BAR2 SZ I        1442 40.39        20.4 0.16            171           20.9 185 
 BRR  HZ EP       1442 25.25                             152    0.5410 70.3 301 
 BRR  HZ I        1442 25.54        23.0 0.24            151           70.3 301 
 BRR  HN ES       1442 42.00                             152    1.0510 70.3 301 
 PAM  SZ EP       1442 26.16                             149    0.1410 80.5  40 
 PAM  SN ES       1442 43.16                             149   -0.1110 80.5  40 
 PAM  SZ I        1442 47.42         7.3 0.48            153           80.5  40 
 RUS  HZ EP       1442 27.37                             144    0.1310 98.6 175 
 RUS  HN ES       1442 45.04                             144   -0.4110 98.6 175 
 RUS  HZ I        1442 46.92        11.4 0.26            146           98.6 175 
 PTB  HZ EP       1442 29.98                             132   -0.43 9  145 259 
 PTB  HN ES       1442 50.65                             132   -0.44 9  145 259 
 PTB  HZ I        1442 55.94        15.7 0.30            132            145 259 
 SPBC HZ EP       1442 31.70                             129   -0.20 9  160 219 
 SPBC HE ES       1442 54.22                             129    0.48 9  160 219 
 SPBC HZ I        1442 59.52        13.4 0.52            130            160 219 
 ZAR  HZ EP       1442 35.92                             122   -0.12 9  203 293 
 ZAR  HN ES       1443  0.56                             122   -0.56 9  203 293 
 ZAR  HZ I        1443  7.43        14.6 0.32            123            203 293 
 NOR  HZ EP       1442 39.02                             118   -0.12 8  232 235 
 NOR  HN ES       1443  6.46                             118   -0.17 8  232 235 
 NOR  HZ I        1443 11.56         9.7 0.18            120            232 235 
 SML  HZ EP       1442 40.12                             117   -0.36 8  245 336 
 SML  HE ES       1443  8.78                             117   -0.25 8  245 336 
 SML  HZ I        1443 15.58        15.3 0.28            118            245 336 
 CHI  HZ EP       1442 40.99                             117   -0.16 8  246 195 
 CHI  HN ES       1443 10.11                             117   -0.11 8  246 195 
 CHI  HZ I        1443 16.58         6.3 0.32            119            246 195 
 GUY2CHZ EP       1442 48.19                             112    1.16 7  298 235 
 GUY2CHN ES       1443 20.79                             112    0.11 7  298 235 
 GUY2CHZ I        1443 29.11         4.5 0.52                           298 235 
                                                                                
