 2015 12 3 1643  5.3 L   5.935 -73.681111.5  RSN  4 0.3 1.5LRSN                1
 GAP=150        0.65       2.7     6.6  9.3 -0.1239E+01  0.4732E+02  0.5047E+01E
 Epicentro: GUAVATA - SANTANDER                                                3
 ACTION:UPD 16-02-04 15:02 OP:cam  STATUS:               ID:20151203164305 L   I
 OLDACT:REG 15-12-03 20:39 OP:drio STATUS:               ID:20151203163748     3
 2015-12-03-1637-48M.COL___312                                                 6
 STAT SP IPHASW D HRMM SECON CODA AMPLIT PERI AZIMU VELO AIN AR TRES W  DIS CAZ7
 RUS  HZ EP       1643 22.81                             147   -0.3910 66.4  94 
 RUS  HN ES       1643 37.36                             147    0.1610 66.4  94 
 RUS  HZ I        1643 39.18         4.9 0.22            155           66.4  94 
 BAR2 EZ EP       1643 24.65                             138   -0.0410 91.2  37 
 BAR2 EZ ES       1643 39.95                             138    0.1110 91.2  37 
 BAR2 EZ I        1643 41.38         9.1 0.10            146           91.2  37 
 BRR  HZ EP       1643 27.93                             127    0.0910  130 359 
 BRR  HN ES       1643 45.36                             127   -0.0910  130 359 
 PRA  HZ EP       1643 45.01                             106    0.56 7  280 209 
 PRA  HE ES       1644 14.74                             106   -0.28 7  280 209 
 PRA  HZ I        1644 19.44         2.5 0.44            109            280 209 
                                                                                
