 2015  9 3 1015 12.0 L   6.799 -73.170146.3  RSN 13 0.4 1.8LRSN                1
 GAP=199        0.96       2.8     4.2  5.0  0.9068E+00  0.4545E+01  0.2071E+01E
 Epicentro: LOS SANTOS - SANTANDER                                             3
 ACTION:UPD 15-10-28 16:23 OP:cam  STATUS:               ID:20150903101512 L   I
 OLDACT:REG 15-09-03 20:32 OP:ak   STATUS:               ID:20150903100748     3
 2015-09-03-1007-48M.COL___349                                                 6
 STAT SP IPHASW D HRMM SECON CODA AMPLIT PERI AZIMU VELO AIN AR TRES W  DIS CAZ7
 BAR2 EZ IP     C 1015 31.77                             171    0.0810 22.9 183 
 BAR2 EZ ES       1015 46.57                             171   -0.4710 22.9 183 
 BAR2 EZ I        1015 47.91        13.1 0.16            166           22.9 183 
 BRR  HZ EP       1015 33.61                             153    0.5310 68.9 300 
 BRR  HN ES       1015 50.19                             153    0.6710 68.9 300 
 RUS  HZ EP       1015 35.61                             144   -0.2010  101 174 
 RUS  HN ES       1015 54.65                             144    0.2710  101 174 
 RUS  HZ I        1015 55.30         5.0 0.28            143            101 174 
 PTB  HZ EP       1015 38.29                             133   -0.48 9  145 259 
 PTB  HN ES       1015 59.53                             133   -0.12 9  145 259 
 PTB  HZ I        1016  6.79         6.9 0.30            129            145 259 
 SPBC HZ EP       1015 40.90                             129    0.53 9  161 218 
 SPBC HN ES       1016  1.74                             129   -0.76 9  161 218 
 SPBC HZ I        1016  5.30        13.7 0.10            127            161 218 
 ZAR  HE ES       1016  9.20                             123   -0.17 9  202 292 
 ZAR  HZ I        1016 16.74         8.5 0.42            121            202 292 
 NOR  HZ EP       1015 46.97                             119   -0.55 8  232 234 
 NOR  HE ES       1016 15.58                             119    0.36 8  232 234 
 NOR  HZ I        1016 22.70         5.5 0.21            118            232 234 
 SML  HZ EP       1015 48.38                             118   -0.17 8  243 336 
 SML  HN ES       1016 16.90                             118   -0.16 8  243 336 
 SML  HZ I        1016 21.25         6.5 0.10            118            243 336 
 CHI  HZ EP       1015 49.13                             117   -0.51 8  248 195 
 CHI  HN ES       1016 19.18                             117    0.18 8  248 195 
 CHI  HZ I        1016 25.90         2.4 0.28            117            248 195 
 HEL  HZ EP   4   1015 50.48                             115   -1.47 0  269 256 
 HEL  HN ES   1   1016 23.14                             115    0.04 6  269 256 
 GUY2CHZ EP       1015 55.70                             113    0.32 7  299 234 
 GUY2CHN ES       1016 28.96                             113   -0.25 7  299 234 
 GUY2CHZ I        1016 38.41         3.2 0.40                           299 234 
 TOL  SZ EP       1016  0.32                             109    0.27 7  341 224 
 TOL  SN ES       1016 37.33                             109   -0.19 7  341 224 
 TOL  SZ I        1016 48.23         2.4 0.16            109            341 224 
 PRA  HZ EP       1016  5.91                             107    0.54 6  391 209 
 PRA  HN ES       1016 47.71                             107    0.71 6  391 209 
 PRA  HZ I        1016 54.61         3.3 0.28            107            391 209 
                                                                                
