 2013  9 3 1537 31.1 L   6.757 -73.178140.0  RSN  9 0.4 2.0LRSN                1
 GAP=134        0.79       4.4     4.4  6.4 -0.3454E+01  0.6955E+01 -0.2322E+01E
 Epicentro: VILLANUEVA - SANTANDER                                             3
 ACTION:UPD 13-10-22 09:19 OP:ep   STATUS:               ID:20130903153731 L   I
 OLDACT:REG 13-09-03 17:54 OP:mh   STATUS:               ID:20130903152959     3
 2013-09-03-1529-59M.COL___269                                                 6
 STAT SP IPHASW D HRMM SECON CODA AMPLIT PERI AZIMU VELO AIN AR TRES W  DIS CAZ7
 BAR2 SZ EP   1   1537 49.59                             172   -0.39 8 18.3 182 
 BAR2 SZ ES   1   1538  4.99                             172    0.32 8 18.3 182 
 BAR2 SZ I        1538  6.37        21.7 0.26            170           18.3 182 
 BRR  HZ EP   1   1537 52.01                             152    0.38 8 70.6 303 
 BRR  HN ES   2   1538  7.96                             152    0.35 5 70.6 303 
 BRR  HZ I        1538 10.47        14.8 0.14            149           70.6 303 
 PAM  SZ EP   1   1537 52.98                             148   -0.13 8 83.3  39 
 PAM  SN ES   2   1538 10.07                             148   -0.18 5 83.3  39 
 PAM  SN I        1538 11.57        21.2 0.44            153           83.3  39 
 RUS  HZ EP   1   1537 53.66                             144   -0.34 8 96.2 174 
 RUS  HN ES   1   1538 11.97                             144    0.13 8 96.2 174 
 RUS  HZ I        1538 13.46        15.7 0.34            146           96.2 174 
 PTB  HZ EP   1   1537 56.55                             131   -0.69 7  143 260 
 PTB  HN ES       1538 17.04                             131   -0.5610  143 260 
 PTB  HZ I        1538 19.63         9.8 0.16            131            143 260 
 SPBC HZ EP   1   1537 58.54                             129   -0.09 7  157 219 
 SPBC HN ES       1538 20.37                             129    0.2910  157 219 
 SPBC HN I        1538 25.74        25.5 0.20            129            157 219 
 ZAR  HZ EP   1   1538  3.65                             121    0.59 7  203 294 
 ZAR  HN ES   2   1538 28.50                             121    0.54 5  203 294 
 ZAR  HN I        1538 35.15        22.5 0.24            122            203 294 
 NOR  HZ EP   1   1538  6.14                             118    0.21 7  229 235 
 NOR  HN ES   2   1538 32.61                             118   -0.45 4  229 235 
 NOR  HZ I        1538 40.52         6.9 0.16            119            229 235 
 GUY2CHZ EP   1   1538 14.72                             112    0.87 6  296 235 
                                                                                
