 2017  1 3 1039 31.4 L   6.797 -73.155144.8  RSN  6 0.2 1.4LRSN                1
 GAP=135        0.51       2.7     2.3  3.9 -0.7002E-01  0.2598E+01 -0.1542E+01E
 Epicentro: LOS SANTOS - SANTANDER                                             3
 ACTION:UPD 17-05-22 15:55 OP:jn   STATUS:               ID:20170103103931 L   I
 OLDACT:REG 17-01-03 20:24 OP:dnl  STATUS:               ID:20170103103741     3
 2017-01-03-1038-00M.COL___378                                                 6
 STAT SP IPHASW D HRMM SECON CODA AMPLIT PERI AZIMU VELO AIN AR TRES W  DIS CAZ7
 BAR2 EZ EP       1039 50.71                             171   -0.1510 22.8 188 
 BAR2 EZ ES       1040  5.77                             171   -0.2910 22.8 188 
 BRR  HZ EP       1039 52.51                             153    0.1510 70.5 299 
 BRR  HE ES       1040  8.88                             153    0.1510 70.5 299 
 BRR  HZ I        1040 16.64         7.2 0.40            151           70.5 299 
 PAM  EZ EP       1039 53.58                             150    0.0610 78.3  40 
 PAM  EN ES       1040 10.89                             150    0.0810 78.3  40 
 PAM  EZ I        1040 12.81         5.2 0.52            153           78.3  40 
 RUS  HN ES       1040 13.48                             144    0.0610  100 175 
 RUS  HZ I        1040 14.52         3.2 0.36            150            100 175 
 PTB  HZ EP       1039 58.07                             132   -0.08 9  147 259 
 PTB  HE ES       1040 19.33                             132    0.29 9  147 259 
 PTB  HZ I        1040 21.59         1.8 0.24            134            147 259 
 ZAR  HZ EP   2   1040  3.65                             122   -0.00 4  203 292 
 ZAR  HE ES       1040 28.51                             122   -0.33 9  203 292 
 ZAR  HZ I        1040 33.72         2.1 0.52            124            203 292 
                                                                                
