 2010 12 3 1630 35.1 L   6.694 -73.129138.0  RSN  4 0.2 1.9LRSN                1
 GAP=193        0.46       7.0     9.1 11.4 -0.2731E+02 -0.7317E+02  0.3164E+02E
 Epicentro: JORDAN - SANTANDER                                                 3
 ACTION:UP  11-01-14 15:22 OP:pat  STATUS:               ID:20101203163035 L   I
 2010-12-03-1627-32S.COL___133                                                 6
 STAT SP IPHASW D HRMM SECON CODA AMPLIT PERI AZIMU VELO SNR AR TRES W  DIS CAZ7
 BAR2 SZ EP   1   1630 53.80                             174     0.1 7   13 208 
 BAR2 SZ I        1631  9.68        14.4 0.30                            13 208 
 GIR2 SZ EP   1   1630 54.03                             162    -0.3 7   43 350 
 BRR  HZ EP   1   1630 55.82                             149    -0.1 7   79 305 
 BRR  HN ES   1   1631 12.26                             149     0.1 7   79 305 
 BRR  HZ I        1631 13.84        17.2 0.12                            79 305 
 GRA  SZ EP   1   1631  0.84                             133     0.2 7  136  15 
 GRA  SZ ES   2   1631 20.43                             133    -0.1 5  136  15 
 GRA  SZ I        1631 22.49        12.8 0.35                           136  15 
                                                                                
