 2016  8 3 1849  7.2 L   6.818 -73.129146.3  RSN 16 0.5 2.5LRSN                1
 GAP=103        1.12       3.8     2.9  5.1 -0.3158E+01  0.1799E+01  0.3792E+00E
 Epicentro: LOS SANTOS - SANTANDER                                             3
 ACTION:UPD 16-10-29 15:31 OP:rebc STATUS:               ID:20160803184907 L   I
 OLDACT:UP  16-08-03 23:28 OP:dani STATUS:               ID:20160803184759     3
 OLDACT:UP  16-08-03 23:28 OP:dani STATUS:               ID:20160803184759     3
 OLDACT:UP  16-08-03 23:28 OP:dani STATUS:               ID:20160803184759     3
 OLDACT:REG 16-08-03 21:20 OP:dani STATUS:               ID:20160803184759     3
 2016-08-03-1847-59S.COL___340                                                 6
 STAT SP IPHASW D HRMM SECON CODA AMPLIT PERI AZIMU VELO AIN AR TRES W  DIS CAZ7
 BAR2 EZ EP     C 1849 26.93                             170   -0.0510 25.6 193 
 BAR2 EZ ES       1849 41.93                             170   -0.4510 25.6 193 
 BAR2 EZ I        1849 43.36        63.1 0.18                          25.6 193 
 BRR  HZ IP     C 1849 28.72                             152    0.2310 71.9 296 
 BRR  HN ES       1849 45.63                             152    0.5710 71.9 296 
 BRR  HZ I        1849 46.41        49.8 0.14                          71.9 296 
 PAM  EZ EP       1849 29.70                             152    0.3510 74.7  39 
 PAM  EE ES       1849 46.90                             152    0.3010 74.7  39 
 PAM  EZ I        1849 47.45        42.4 0.20                          74.7  39 
 RUS  HZ EP       1849 30.98                             143   -0.2010  102 177 
 RUS  HE ES       1849 49.46                             143   -0.3910  102 177 
 RUS  HZ I        1849 51.80        16.9 0.18                           102 177 
 PTB  HZ EP       1849 33.53                             132   -0.92 9  150 258 
 PTB  HE ES       1849 55.31                             132   -0.36 9  150 258 
 PTB  HZ I        1849 57.80        69.7 0.84                           150 258 
 TAM  HZ EP       1849 35.43                             131    0.59 9  154 106 
 TAM  HE ES       1849 57.03                             131    0.66 9  154 106 
 TAM  HZ I        1849 57.60        20.5 0.24                           154 106 
 SPBC HZ EP       1849 35.90                             129   -0.13 9  166 219 
 SPBC HN ES       1849 58.24                             129   -0.25 9  166 219 
 SPBC HZ I        1850  5.54        35.8 0.20                           166 219 
 ZAR  HZ EP       1849 39.55                             122   -0.27 9  205 291 
 ZAR  HE ES       1850  5.09                             122   -0.14 9  205 291 
 ZAR  HZ I        1850 10.72        38.9 0.58                           205 291 
 NOR  HZ EP       1849 43.29                             118    0.01 8  237 234 
 NOR  HE ES       1850 11.07                             118   -0.33 8  237 234 
 NOR  HZ I        1850 16.99        27.5 0.18                           237 234 
 ROSC BZ EP   9   1849 47.37                             116    1.70 0  255 211 
 ROSC BN ES       1850 17.70                             116    0.35 8  255 211 
 ROSC BZ I        1850 21.08        23.4 0.45                           255 211 
 HEL  HZ EP       1849 48.20                             115    0.47 8  274 255 
 HEL  HE ES       1850 20.24                             115    0.93 8  274 255 
 HEL  HZ I        1850 25.34        13.1 0.36                           274 255 
 URE  HE ES   4   1850 18.79                             114   -1.79 0  285 291 
 SOCV BZ EP       1849 49.90                             112   -0.11 7  299  57 
 SOCV BE ES       1850 22.00                             112   -1.38 7  299  57 
 GUY2CHZ EP       1849 51.43                             112    0.26 7  304 235 
 GUY2CHN ES   4   1850 28.92                             112    3.48 0  304 235 
 GUY2CHZ I        1850 35.12        19.3 0.78                           304 235 
 PTGC HZ EP   4   1849 50.33                             112   -0.92 0  310 159 
 ELA  HZ EP   4   1849 58.17                             110    3.75 0  332 229 
 CBOC HZ EP       1849 54.96                             110    0.51 7  336 252 
 CBOC HE ES   4   1850 29.55                             110   -1.72 0  336 252 
 CBOC HZ I        1850 40.31         5.1 0.32                           336 252 
 ANIL HZ EP   9   1849 59.32                             108    1.94 0  360 225 
 ANIL HN ES       1850 38.25                             108   -0.18 6  360 225 
 ANIL HZ I        1850 45.15        37.0 0.30                           360 225 
 PRA  HZ EP       1850  0.96                             106   -0.12 6  395 210 
 PRA  HN ES       1850 43.58                             106    0.50 6  395 210 
 PRA  HZ I        1850 47.59        11.2 0.28                           395 210 
                                                                                
