 2012  4 3 1334 54.1 L   6.792 -73.119146.4  RSN 12 0.4 2.5LRSN                1
 GAP=128        1.04       4.5     5.1  6.3 -0.2457E+01  0.8478E+01  0.3745E+01E
 Epicentro: LOS SANTOS - SANTANDER                                             3
 ACTION:UPD 12-07-05 11:50 OP:tino STATUS:               ID:20120403133454 L   I
 2012-04-03-1330-00M.COL___196                                                 6
 STAT SP IPHASW D HRMM SECON CODA AMPLIT PERI AZIMU VELO AIN AR TRES W  DIS CAZ7
 BAR2 SZ IP       1335 13.84                             171     0.010   23 198 
 BAR2 SZ ES   1   1335 28.54                             171    -0.6 7   23 198 
 BAR2 SZ I        1335 31.44        85.2 0.34                            23 198 
 BRR  HZ IP     C 1335 15.75                             152     0.310   74 298 
 BRR  HN ES   1   1335 32.89                             152     0.7 7   74 298 
 BRR  HZ I        1335 35.27        72.1 0.16                            74 298 
 PAM  SZ IP       1335 16.76                             151     0.510   76  37 
 PAM  SN ES   1   1335 33.48                             151    -0.2 7   76  37 
 RUS  HZ EP       1335 17.77                             144    -0.110  100 178 
 RUS  HN ES   1   1335 36.36                             144     0.0 7  100 178 
 RUS  HZ I        1335 39.75        21.7 0.22                           100 178 
 ZAR  HZ EP       1335 26.34                             122    -0.5 8  207 292 
 ZAR  HE ES   1   1335 52.33                             122    -0.1 6  207 292 
 ZAR  HZ I        1335 58.66        38.6 0.52                           207 292 
 NOR  SZ EP       1335 29.69                             118    -0.4 8  237 235 
 NOR  SE ES   1   1335 57.05                             118    -1.1 6  237 235 
 CHI  HZ EP       1335 32.02                             117     0.2 8  249 196 
 CHI  HN ES   1   1336  1.63                             117     0.4 6  249 196 
 CHI  HZ I        1336  6.60        15.6 0.24                           249 196 
 HEL  HZ EP   1   1335 34.47                             115    -0.2 6  275 256 
 HEL  HN ES   3   1336  6.44                             115     0.2 2  275 256 
 HEL  HZ I        1336 12.61        22.0 0.30                           275 256 
 RREF HZ EP       1335 41.03                             111     0.6 7  323 230 
 RREF HZ I        1336 21.12        13.1 0.68                           323 230 
 DBB  SZ EP       1335 42.36                             109     0.4 7  342 274 
 SDV  BZ EP       1335 43.17                             108    -0.8 6  359  50 
 PRA  HZ EP       1335 47.86                             107     0.1 6  393 210 
                                                                                
