 2013 12 3 1943  4.7 L   6.770 -73.142151.1  RSN  5 0.3 1.8LRSN                1
 GAP=155        0.64       7.2     6.2  5.9 -0.3003E+02  0.1198E+02 -0.5963E+01E
 Epicentro: LOS SANTOS - SANTANDER                                             3
 ACTION:UPD 14-01-13 10:15 OP:ep   STATUS:               ID:20131203194304 L   I
 OLDACT:UP  13-12-03 16:13 OP:cam  STATUS:               ID:20131203194000     3
 OLDACT:REG 13-12-03 15:15 OP:cam  STATUS:               ID:20131203194000     3
 2013-12-03-1940-00M.COL___282                                                 6
 STAT SP IPHASW D HRMM SECON CODA AMPLIT PERI AZIMU VELO AIN AR TRES W  DIS CAZ7
 BAR2 SZ EP     C 1943 24.96                             172    0.0410 20.2 193 
 BAR2 SZ ES       1943 40.68                             172   -0.0110 20.2 193 
 BAR2 SZ I        1943 41.47        13.7 0.26            170           20.2 193 
 BRR  HZ EP   2   1943 26.89                             153    0.35 5 73.2 301 
 BRR  HN ES   2   1943 44.36                             153    0.79 5 73.2 301 
 PAM  SZ EP       1943 27.86                             151    0.2410 79.7  38 
 PAM  SN ES       1943 45.23                             151   -0.2710 79.7  38 
 PAM  SZ I        1943 47.09        12.7 0.56            151           79.7  38 
 PTB  HZ EP       1943 31.83                             133   -0.26 9  148 260 
 PTB  HN ES   2   1943 52.89                             133   -0.57 5  148 260 
 PTB  HZ I        1943 58.79         9.0 0.38            131            148 260 
 SPBC HN ES   2   1943 56.12                             131    0.33 5  161 220 
 SJC  HZ EP   4   1943 58.98                             106   -1.81 0  412 327 
                                                                                
