 2012  7 3 1622 39.7 L   6.728 -73.118142.6  RSN  4 0.3 1.4LRSN                1
 GAP=235        0.65       9.4    11.0  7.8  0.8556E+02  0.1685E+01 -0.4977E+01E
 Epicentro: JORDAN - SANTANDER                                                 3
 ACTION:UPD 12-08-14 11:42 OP:ep   STATUS:               ID:20120703162239 L   I
 2012-07-03-1620-00M.COL___200                                                 6
 STAT SP IPHASW D HRMM SECON CODA AMPLIT PERI AZIMU VELO AIN AR TRES W  DIS CAZ7
 BAR2 SZ EP   1   1622 58.74                             173    -0.1 7   17 205 
 BAR2 SZ I        1622 59.00         5.9 0.19            173             17 205 
 BAR2 SZ ES   1   1623 13.32                             173    -0.4 7   17 205 
 BRR  HZ EP   1   1623  0.83                             150     0.0 7   78 303 
 BRR  HZ I        1623  1.62         9.9 0.16            149             78 303 
 BRR  HN ES   1   1623 17.88                             150     0.5 7   78 303 
 RUS  HZ EP   1   1623  2.65                             145     0.1 7   92 178 
 RUS  HZ I        1623  3.30         2.1 0.25            145             92 178 
 RUS  HN ES   1   1623 20.46                             145     0.1 7   92 178 
 ZAR  HN ES   1   1623 37.85                             121    -0.3 6  210 294 
