 2012  9 3 1350 17.1 L   6.748 -73.153142.7  RSN  7 0.3 2.1LRSN                1
 GAP=182        0.60       5.1     4.9  5.9  0.6076E+01 -0.5323E+00  0.4063E+01E
 Epicentro: VILLANUEVA - SANTANDER                                             3
 ACTION:UPD 12-10-22 14:16 OP:ep   STATUS:               ID:20120903135017 L   I
 2012-09-03-1350-00M.COL___218                                                 6
 STAT SP IPHASW D HRMM SECON CODA AMPLIT PERI AZIMU VELO AIN AR TRES W  DIS CAZ7
 BAR2 SZ IP       1350 36.31                             173    0.0910 17.5 191 
 BAR2 SZ I        1350 36.41        46.1 0.40                          17.5 191 
 BAR2 SZ ES   1   1350 50.77                             173   -0.40 7 17.5 191 
 GIR2 SZ IP       1350 36.41                             164   -0.1310 36.9 353 
 GIR2 SZ ES   2   1350 51.31                             164   -0.42 5 36.9 353 
 BRR  HZ EP       1350 38.19                             151    0.1810 73.5 303 
 BRR  HE ES   1   1350 54.98                             151    0.62 7 73.5 303 
 BRR  HZ I        1350 56.04        30.5 0.12                          73.5 303 
 RUS  HZ EP       1350 40.13                             145    0.0210 94.9 175 
 RUS  HN ES   2   1350 58.49                             145    0.41 5 94.9 175 
 RUS  HZ I        1350 59.75        17.8 0.34                          94.9 175 
 PTB  HZ EP   2   1350 43.33                             132   -0.29 5  146 261 
 PTB  HN ES   1   1351  3.91                             132   -0.42 7  146 261 
 PTB  HZ I        1351  6.11         8.5 0.10                           146 261 
 ZAR  HE ES   3   1351 13.98                             121   -0.76 2  206 294 
 NOR  SZ EP   3   1350 52.35                             118    0.16 2  231 236 
 NOR  SN ES   3   1351 20.03                             118    0.44 2  231 236 
 NOR  SZ I        1351 25.45         9.0 0.22                           231 236 
                                                                                
