 2012  1 3 1132  5.7 L   6.746 -73.141137.8  RSN  6 0.3 1.4LRSN                1
 GAP=140        0.74       5.7     4.8  7.6 -0.2759E+01  0.8185E+01  0.8987E+00E
 Epicentro: JORDAN - SANTANDER                                                 3
 ACTION:UP  12-02-03 08:13 OP:REBC STATUS:               ID:20120103113205 L   I
 2012-01-03-1130-00M.COL___184                                                 6
 STAT SP IPHASW D HRMM SECON CODA AMPLIT PERI AZIMU VELO SNR AR TRES W  DIS CAZ7
 BAR2 SZ EP       1132 24.38                             172     0.110   18 195 
 BAR2 SZ ES   1   1132 38.65                             172    -0.1 7   18 195 
 BAR2 SZ I        1132 40.09         5.6 0.26                            18 195 
 BRR  HZ EP       1132 26.36                             150     0.210   75 302 
 BRR  HZ I        1132 26.76        13.1 0.00                            75 302 
 BRR  HE ES   2   1132 42.99                             150     0.8 5   75 302 
 PAM  SZ EP   1   1132 27.40                             148     0.1 7   82  37 
 PAM  SN ES   1   1132 43.78                             148    -0.4 7   82  37 
 RUS  HZ EP   1   1132 28.50                             144     0.3 7   95 176 
 RUS  HE ES   2   1132 45.82                             144     0.0 5   95 176 
 RUS  HZ I        1132 50.19         2.2 0.50                            95 176 
 PTB  HZ EP   1   1132 31.33                             130    -0.6 7  147 261 
 PTB  HE ES   1   1132 52.15                             130    -0.3 7  147 261 
 ZAR  HN ES   2   1133  3.23                             120     0.2 4  207 294 
                                                                                
