 2015  8 3 1153 42.9 L   6.788 -73.099151.1  RSN  7 0.4 2.0LRSN                1
 GAP=241        0.92       5.4     5.4  7.2  0.9740E+01  0.1302E+02  0.2952E+00E
 Epicentro: LOS SANTOS - SANTANDER                                             3
 ACTION:UPD 15-09-15 22:59 OP:cam  STATUS:               ID:20150803115342 L   I
 OLDACT:DUP 15-08-03 22:25 OP:drio STATUS:               ID:20150803114749d    3
 2015-08-03-1147-48M.COL___355                                                 6
 STAT SP IPHASW D HRMM SECON CODA AMPLIT PERI AZIMU VELO AIN AR TRES W  DIS CAZ7
 BAR2 EZ EP       1154  3.44                             171    0.2510 23.5 203 
 BAR2 EZ ES       1154 18.59                             171   -0.4110 23.5 203 
 BAR2 EZ I        1154 19.85        24.4 0.20            165           23.5 203 
 BRR  HZ EP       1154  5.37                             152    0.4310 76.4 298 
 BRR  HN ES       1154 22.59                             152    0.4810 76.4 298 
 RUS  HZ EP       1154  6.92                             145   -0.1710 99.0 179 
 RUS  HN ES       1154 25.82                             145   -0.1110 99.0 179 
 RUS  HZ I        1154 27.96         8.2 0.20            145           99.0 179 
 ZAR  HZ EP       1154 15.88                             123   -0.38 8  209 292 
 ZAR  HN ES       1154 41.70                             123   -0.57 8  209 292 
 ZAR  HZ I        1154 52.17         8.7 0.22            121            209 292 
 NOR  HN ES       1154 48.18                             119    0.44 8  238 235 
 NOR  HZ I        1154 52.42        11.4 0.16            118            238 235 
 HEL  HN ES       1154 55.78                             115   -0.13 7  277 256 
 HEL  HZ I        1155  1.87         7.6 0.36            114            277 256 
 GUY2CHN ES   4   1155  4.48                             113    2.79 0  305 236 
 GUY2CHZ I        1155  9.74         5.9 0.30                           305 236 
                                                                                
