 2017  3 3 1627 24.0 L   6.757 -73.149134.5  RSN  8 0.4 1.9LRSN                1
 GAP=138        0.91       3.6     3.7  5.7 -0.4591E+00  0.6815E+01  0.3698E+01E
 Epicentro: LOS SANTOS - SANTANDER                                             3
 ACTION:UPD 17-05-25 18:35 OP:jn   STATUS:               ID:20170303162724 L   I
 OLDACT:REG 17-03-03 20:49 OP:lv   STATUS:               ID:20170303161744     3
 2017-03-03-1618-00M.COL___384                                                 6
 STAT SP IPHASW D HRMM SECON CODA AMPLIT PERI AZIMU VELO AIN AR TRES W  DIS CAZ7
 BAR2 EZ EP       1627 41.89                             172   -0.3510 18.6 191 
 BAR2 EZ ES       1627 56.44                             172    0.0210 18.6 191 
 BAR2 EZ I        1627 57.73        18.1 0.15            171           18.6 191 
 BRR  HZ EP   4   1627 45.50                             150    1.38 0 73.2 302 
 BRR  HE ES       1627 59.99                             150    0.2210 73.2 302 
 PAM  EZ EP       1627 44.92                             147   -0.4210 81.4  38 
 PAM  EN ES       1628  2.26                             147    0.3110 81.4  38 
 PAM  EZ I        1628  3.84        24.0 0.44            149           81.4  38 
 RUS  HZ EP       1627 46.46                             143    0.1010 95.8 176 
 RUS  HN ES       1628  3.78                             143    0.0210 95.8 176 
 RUS  HZ I        1628  5.39         9.7 0.38            143           95.8 176 
 PTB  HZ EP       1627 49.93                             130   -0.08 9  146 261 
 PTB  HN ES       1628  9.70                             130   -0.55 9  146 261 
 PTB  HZ I        1628 12.92         6.5 0.16            130            146 261 
 ZAR  HZ EP       1627 56.69                             120    0.75 8  206 293 
 ZAR  HN ES       1628 20.47                             120   -0.35 8  206 293 
 NOR  HE ES       1628 26.63                             116    0.70 8  232 235 
 NOR  HN I        1628 28.35        11.4 0.22            117            232 235 
 PRA  HZ EP       1628 16.60                             105   -0.09 6  388 210 
 PRA  HN ES       1628 57.53                             105   -0.22 6  388 210 
 PRA  HZ I        1629  0.88         3.0 0.38            105            388 210 
                                                                                
