 2013  3 3 1737 37.7 L   6.786 -73.054143.4  RSN  4 0.3 1.3LRSN                1
 GAP=149        0.60       4.6     6.1  6.9 -0.1609E+01  0.3247E+01 -0.5879E+01E
 Epicentro: LOS SANTOS - SANTANDER                                             3
 ACTION:UPD 13-04-09 13:59 OP:ep   STATUS:               ID:20130303173737 L   I
 2013-03-03-1730-00M.COL___228                                                 6
 STAT SP IPHASW D HRMM SECON CODA AMPLIT PERI AZIMU VELO AIN AR TRES W  DIS CAZ7
 BAR2 SZ EP   1   1737 57.07                             169   -0.03 7 25.7 213 
 BAR2 SZ ES   1   1738 12.30                             169    0.07 7 25.7 213 
 BAR2 SZ I        1738 14.85         7.4 0.26            172           25.7 213 
 PAM  SZ EP   1   1737 59.91                             152    0.52 7 72.7  33 
 PAM  SN ES   1   1738 16.00                             152   -0.30 7 72.7  33 
 PAM  SZ I        1738 19.33         3.2 0.60            154           72.7  33 
 BRR  HZ EP     C 1737 58.92                             149   -0.2610 80.8 296 
 BRR  HN ES   1   1738 16.17                             149    0.24 7 80.8 296 
 BRR  HZ I        1738 18.67         5.6 0.44            152           80.8 296 
 RUS  HN ES   1   1738 19.32                             144   -0.03 7 98.9 182 
 RUS  HZ I        1738 20.75         2.2 0.34            149           98.9 182 
                                                                                
