 2013  6 3 1114 27.5 L   7.435 -73.191132.5  RSN  9 0.4 1.9LRSN                1
 GAP=110        0.93       3.5     4.9  6.2 -0.3382E+01  0.1053E+02 -0.1712E+01E
 Epicentro: EL PLAYON - SANTANDER                                              3
 ACTION:UPD 14-01-08 09:52 OP:ep   STATUS:               ID:20130603111427 L   I
 2013-06-03-1110-00M.COL___257                                                 6
 STAT SP IPHASW D HRMM SECON CODA AMPLIT PERI AZIMU VELO AIN AR TRES W  DIS CAZ7
 PAM  SZ EP     C 1114 47.53                             156    0.4210 55.3 101 
 PAM  SN ES       1115  2.35                             156   -0.0110 55.3 101 
 PAM  SZ I        1115  4.19         5.0 0.40            161           55.3 101 
 BRR  HZ IP     C 1114 47.18                             151    0.1010 68.0 238 
 BRR  HN ES       1115  2.22                             151   -0.0910 68.0 238 
 BRR  HZ I        1115  2.97        21.3 0.12            148           68.0 238 
 OCA  HZ EP       1114 49.18                             144    0.4210 90.1 351 
 OCA  HN ES       1115  5.44                             144    0.1410 90.1 351 
 OCA  HZ I        1115  8.01        10.0 0.28            144           90.1 351 
 BAR2 SZ EP       1114 49.08                             143   -0.0210 93.1 179 
 BAR2 SZ ES       1115  5.27                             143   -0.6410 93.1 179 
 BAR2 SZ I        1115  6.66        42.2 0.14            143           93.1 179 
 PTB  HZ EP       1114 55.42                             124   -0.35 9  171 235 
 PTB  HN ES       1115 18.36                             124    0.57 9  171 235 
 PTB  HZ I        1115 21.68         8.2 0.12            123            171 235 
 SML  HZ EP       1114 55.95                             123   -0.64 9  180 327 
 SML  HN ES   2   1115 18.52                             123   -0.72 4  180 327 
 SML  HZ I        1115 19.48        31.5 0.10            123            180 327 
 URE  HZ EP   4   1115  5.61                             113    0.22 0  261 278 
 URE  HN ES   4   1115 32.39                             113   -2.52 0  261 278 
 URE  HZ I        1115 38.05         5.4 0.14            113            261 278 
 NOR  HZ IP     D 1115  7.56                             111    0.18 7  278 222 
 NOR  HN ES   2   1115 38.70                             111    0.24 4  278 222 
 NOR  HZ I        1115 43.71         5.8 0.20            111            278 222 
 HEL  HZ EP   4   1115 11.19                             110    1.72 0  293 242 
 HEL  HN ES   4   1115 46.78                             110    4.62 0  293 242 
 HEL  HZ I        1115 49.95         3.2 0.24            110            293 242 
                                                                                
