 2010  2 3 1137 15.8 L   6.863 -73.123143.7  RSN  4 0.2 1.5LRSN                1
 GAP=328        0.39       8.1    19.5  6.5 -0.8131E+02  0.5974E+02  0.7305E+00E
 Epicentro: LOS SANTOS - SANTANDER                                             3
 ACTION:UP  10-08-24 09:47 OP:vdl  STATUS:               ID:20100203113715 L   I
 2010-02-03-1119-50S.COL___089                                                 6
 STAT SP IPHASW D HRMM SECON CODA AMPLIT PERI AZIMU VELO SNR AR TRES W  DIS CAZ7
 BAR2 SZ ES   2   1137 50.65                             167     0.0 5   31 193 
 RUS  HZ EP   2   1137 40.18                             141     0.3 5  107 178 
 RUS  HE ES   2   1137 58.53                             141    -0.1 5  107 178 
 RUS  HZ I        1137 59.61         2.1 0.76                           107 178 
 CHI  HZ EP   1   1137 54.02                             116    -0.2 6  256 195 
 CHI  HN ES   1   1138 24.29                             116     0.1 6  256 195 
 CHI  HZ I        1138 28.56         2.0 1.11                           256 195 
 PRA  HZ EP   2   1138 10.22                             106     0.1 3  399 209 
 PRA  HZ I        1138 56.79         2.3 0.71                           399 209 
                                                                                
