 2011  7 3 1801 47.8 L   6.769 -73.078146.4  RSN  7 0.3 1.8LRSN                1
 GAP=164        0.57       2.5     5.9  5.0 -0.1077E+01 -0.6949E+01 -0.2320E+01E
 Epicentro: LOS SANTOS - SANTANDER                                             3
 ACTION:UPD 12-07-25 13:58 OP:epov STATUS:               ID:20110703180147 L   I
 2011-07-03-1759-05S.COL___140                                                 6
 STAT SP IPHASW D HRMM SECON CODA AMPLIT PERI AZIMU VELO AIN AR TRES W  DIS CAZ7
 BAR2 SZ EP       18 2  7.43                             171   -0.0710 22.7 211 
 BAR2 SZ ES   1   18 2 23.00                             171    0.13 7 22.7 211 
 BAR2 SZ I        18 2 25.40        11.0 0.24                          22.7 211 
 BTL  SZ EP   3   18 2  7.86                             169    0.27 2 26.7 308 
 BRR  HZ EP       18 2  9.56                             150    0.0510 79.4 298 
 BRR  HN ES   1   18 2 26.70                             150    0.27 7 79.4 298 
 BRR  HZ I        18 2 29.09        23.5 0.14                          79.4 298 
 RUS  HZ EP       18 2 11.28                             145   -0.0810 96.9 180 
 RUS  HN ES   1   18 2 29.48                             145   -0.25 7 96.9 180 
 RUS  HZ I        18 2 31.00         3.7 0.30                          96.9 180 
 BRI  SZ EP       18 2 12.06                             141    0.2410  109  16 
 BRI  SZ ES   2   18 2 31.01                             141    0.45 5  109  16 
 GRA  SZ EP       18 2 13.33                             137    0.1210  127  14 
 GRA  SZ ES   1   18 2 32.85                             137   -0.19 7  127  14 
 GRA  SZ I        18 2 34.17         8.9 0.58                           127  14 
 OCA  SZ EP       18 2 16.59                             129    0.00 9  165 351 
 OCA  SZ ES   1   18 2 38.27                             129   -0.77 7  165 351 
 OCA  SZ I        18 2 43.02         8.2 0.23                           165 351 
                                                                                
