 2011  7 3 1151  2.1 L   6.940 -72.884132.8  RSN  5 0.2 1.4LRSN                1
 GAP=184        0.37       3.2     4.6  4.9 -0.6431E+00 -0.3586E+01 -0.3949E+01E
 Epicentro: GUACA - SANTANDER                                                  3
 ACTION:UPD 12-07-25 13:57 OP:epov STATUS:               ID:20110703115101 L   I
 2011-07-03-1145-36S.COL___140                                                 6
 STAT SP IPHASW D HRMM SECON CODA AMPLIT PERI AZIMU VELO AIN AR TRES W  DIS CAZ7
 BAR2 SZ EP   1   1151 21.31                             158    0.22 7 50.6 221 
 BAR2 SZ ES   1   1151 36.01                             158    0.09 7 50.6 221 
 BAR2 SZ I        1151 39.55         4.4 0.72                          50.6 221 
 BRI  SZ EP   1   1151 23.04                             145   -0.06 7 86.4   6 
 BRR  HZ EP       1151 23.40                             143    0.0610 93.3 281 
 BRR  HN ES   2   1151 39.62                             143   -0.30 5 93.3 281 
 BRR  HZ I        1151 44.07        11.5 0.50                          93.3 281 
 RUS  HZ EP   1   1151 25.78                             136   -0.21 7  118 191 
 RUS  HZ I        1151 42.77         1.7 0.70                           118 191 
 RUS  HN ES   2   1151 44.54                             136   -0.08 5  118 191 
 NOR  SN ES   2   1152 10.91                             112    0.05 4  267 235 
                                                                                
