 2013  3 3 1831 44.2 L   6.273 -74.233  4.0  RSN  5 0.5 1.2LRSN                1
 GAP=158        0.92       4.8     3.1  8.8  0.7081E+01  0.1575E+01 -0.8365E+01E
 Epicentro: CIMITARRA - SANTANDER                                              3
 ACTION:UPD 13-04-09 13:59 OP:ep   STATUS:               ID:20130303183144 L   I
 2013-03-03-1830-00M.COL___228                                                 6
 STAT SP IPHASW D HRMM SECON CODA AMPLIT PERI AZIMU VELO AIN AR TRES W  DIS CAZ7
 PTB  HZ EP   1   1831 50.13                              47   -0.50 7 38.4 320 
 PTB  HN ES   1   1831 55.62                              47   -0.02 7 38.4 320 
 PTB  HZ I        1831 56.38        10.0 0.64             47           38.4 320 
 RUS  HZ EP   1   1832  5.45                              47   -0.17 7  134 108 
 RUS  HN ES   1   1832 21.91                              47   -0.41 7  134 108 
 RUS  HZ I        1832 27.40         2.3 0.28             47            134 108 
 HEL  HZ EP   1   1832  7.46                              47    0.52 7  144 266 
 HEL  HN ES   1   1832 24.56                              47   -0.12 7  144 266 
 HEL  HZ I        1832 33.27         3.5 0.46             47            144 266 
 ZAR  HE ES   1   1832 25.95                              47   -0.17 7  151 333 
 ZAR  HZ I        1832 28.59         5.3 0.28             47            151 333 
 PAM  SZ EP   1   1832 17.02                              37    1.17 6  206  55 
 PAM  SE ES   4   1832 42.25                              37    1.70 0  206  55 
 PAM  SZ I        1832 43.16         4.4 0.30             37            206  55 
                                                                                
