 2017  1 3 1552 57.3 L   6.776 -73.118139.7  RSN  5 0.3 1.7LRSN                1
 GAP=141        0.77       3.9     4.2  6.2  0.3209E+01  0.3680E+01 -0.7630E+00E
 Epicentro: LOS SANTOS - SANTANDER                                             3
 ACTION:UPD 17-05-22 15:55 OP:jn   STATUS:               ID:20170103155257 L   I
 OLDACT:DUP 17-01-03 23:09 OP:dnl  STATUS:               ID:20170103154752d    3
 OLDACT:UP  17-01-03 23:04 OP:dnl  STATUS:               ID:20170103154751d    3
 OLDACT:DUP 17-01-03 23:02 OP:dnl  STATUS:               ID:20170103154751d    3
 OLDACT:REG 17-01-03 20:44 OP:dnl  STATUS:               ID:20170103154750     3
 2017-01-03-1548-00M.COL___375                                                 6
 STAT SP IPHASW D HRMM SECON CODA AMPLIT PERI AZIMU VELO AIN AR TRES W  DIS CAZ7
 BAR2 EZ EP   2   1553 16.13                             171   -0.08 5 21.5 199 
 BAR2 EZ ES       1553 30.32                             171   -0.6010 21.5 199 
 BAR2 EZ I        1553 34.13        13.6 0.64            171           21.5 199 
 BRR  HZ EP       1553 18.00                             150   -0.0810 75.2 299 
 BRR  HN ES       1553 34.66                             150    0.4110 75.2 299 
 BRR  HZ I        1553 35.24        13.3 0.30            150           75.2 299 
 PAM  EZ EP       1553 18.98                             150    0.0510 77.6  37 
 PAM  EE ES       1553 35.85                             150    0.0810 77.6  37 
 PAM  EZ I        1553 38.30         7.7 0.54            151           77.6  37 
 RUS  HZ EP       1553 20.21                             143   -0.0910 97.7 178 
 RUS  HN ES       1553 38.56                             143    0.3610 97.7 178 
 RUS  HZ I        1553 39.51         4.4 0.34            146           97.7 178 
 ZAR  HZ EP   4   1553 32.31                             120    2.50 0  208 293 
 ZAR  HN ES       1553 54.97                             120   -0.15 8  208 293 
 ZAR  HZ I        1554  0.47         4.6 0.26            121            208 293 
                                                                                
