 2015  9 3 1413  5.8 L   6.536 -73.590100.4  RSN  5 0.5 1.5LRSN                1
 GAP=152        1.08       4.9     4.9  9.0 -0.3722E+01  0.2169E+02 -0.6482E+01E
 Epicentro: EL CARMEN - SANTANDER                                              3
 ACTION:UPD 15-10-28 16:23 OP:cam  STATUS:               ID:20150903141305 L   I
 OLDACT:UP  15-09-03 23:03 OP:ak   STATUS:               ID:20150903140748     3
 OLDACT:REG 15-09-03 21:25 OP:ak   STATUS:               ID:20150903140748     3
 2015-09-03-1407-48M.COL___343                                                 6
 STAT SP IPHASW D HRMM SECON CODA AMPLIT PERI AZIMU VELO AIN AR TRES W  DIS CAZ7
 BAR2 EZ IP     D 1413 20.66                             154   -0.2610 45.5  82 
 BAR2 EZ ES       1413 33.14                             154    0.4110 45.5  82 
 BAR2 EZ I        1413 34.27        23.0 0.44            162           45.5  82 
 PTB  HZ EP     C 1413 23.51                             132   -0.8410 95.9 270 
 PTB  HN ES       1413 38.50                             132   -0.3210 95.9 270 
 PTB  HZ I        1413 43.60         6.4 0.14            135           95.9 270 
 ZAR  HZ EP       1413 32.68                             114    0.15 9  176 307 
 ZAR  HN ES       1413 53.99                             114    0.59 9  176 307 
 ZAR  HZ I        1413 57.63         3.5 0.27            118            176 307 
 GUY2CHZ EP       1413 41.58                             106    0.58 8  244 234 
 GUY2CHN ES       1414  8.76                             106    0.29 8  244 234 
 GUY2CHZ I        1414 16.04         1.5 0.54                           244 234 
 SML  HZ EP   2   1413 41.48                             105   -0.31 4  256 348 
 SML  HN ES       1414  9.76                             105   -0.11 8  256 348 
                                                                                
