 2017  3 3 1826 51.1 L   6.802 -73.156144.7  RSN  9 0.3 1.9LRSN                1
 GAP=135        0.84       3.1     3.4  5.1 -0.8761E+00  0.3569E+01  0.3997E+01E
 Epicentro: LOS SANTOS - SANTANDER                                             3
 ACTION:UPD 17-05-25 18:35 OP:jn   STATUS:               ID:20170303182651 L   I
 OLDACT:REG 17-03-03 20:54 OP:lv   STATUS:               ID:20170303181744     3
 2017-03-03-1818-00M.COL___396                                                 6
 STAT SP IPHASW D HRMM SECON CODA AMPLIT PERI AZIMU VELO AIN AR TRES W  DIS CAZ7
 BAR2 EZ EP       1827 10.55                             170   -0.0910 23.4 187 
 BAR2 EZ ES       1827 25.66                             170   -0.1910 23.4 187 
 BAR2 EZ I        1827 26.70        27.3 0.23            170           23.4 187 
 BRR  HZ EP       1827 12.28                             153    0.1810 70.1 299 
 BRR  HN ES       1827 29.20                             153    0.7410 70.1 299 
 BRR  HZ I        1827 32.46        20.4 0.21            152           70.1 299 
 PAM  EZ EP       1827 13.45                             150    0.1810 78.0  40 
 PAM  EN ES       1827 30.13                             150   -0.4010 78.0  40 
 PAM  EZ I        1827 32.54        17.3 0.56            154           78.0  40 
 RUS  HZ EP       1827 14.42                             143   -0.3810  101 175 
 RUS  HN ES       1827 33.62                             143    0.3610  101 175 
 RUS  HZ I        1827 34.19         7.0 0.23            145            101 175 
 PTB  HZ EP       1827 17.67                             132   -0.25 9  147 259 
 PTB  HN ES       1827 38.28                             132   -0.52 9  147 259 
 PTB  HZ I        1827 41.15         7.6 0.08            133            147 259 
 SPBC HZ EP       1827 19.61                             129    0.11 9  163 219 
 SPBC HN ES       1827 41.58                             129   -0.04 9  163 219 
 SPBC HZ I        1827 44.69        12.6 0.10            130            163 219 
 ZAR  HZ EP   4   1827 25.65                             122    2.26 0  203 292 
 ZAR  HE ES       1827 48.44                             122   -0.11 9  203 292 
 NOR  HZ EP       1827 26.94                             118    0.22 8  234 234 
 NOR  HN ES       1827 54.42                             118   -0.05 8  234 234 
 NOR  HZ I        1827 59.94         4.1 0.12            120            234 234 
 CHI  HZ EP       1827 29.21                             117    0.44 8  249 195 
 CHI  HN ES       1827 57.96                             117   -0.15 8  249 195 
 CHI  HZ I        1827 59.89         5.6 0.36            118            249 195 
                                                                                
