 2012 10 3 1312 29.7 L   6.801 -73.110144.0  RSN 12 0.5 2.6LRSN                1
 GAP=141        0.78       3.7     5.2  5.7 -0.2100E+01  0.1185E+02  0.6791E+01E
 Epicentro: LOS SANTOS - SANTANDER                                             3
 ACTION:UPD 12-11-22 17:01 OP:ep   STATUS:               ID:20121003131229 L   I
 2012-10-03-1310-00M.COL___223                                                 6
 STAT SP IPHASW D HRMM SECON CODA AMPLIT PERI AZIMU VELO AIN AR TRES W  DIS CAZ7
 BAR2 SZ EP       1312 49.07                             170   -0.0510 24.4 199 
 BAR2 SZ I        1312 49.66        71.4 0.14                          24.4 199 
 BAR2 SZ ES   2   1313  4.69                             170    0.40 5 24.4 199 
 GIR2 SZ EP       1312 49.12                             167   -0.0510 32.1 343 
 GIR2 SZ ES   1   1313  3.85                             167   -0.52 7 32.1 343 
 BRR  HZ EP       1312 50.92                             151    0.0810 74.7 297 
 BRR  HZ I        1312 51.21        67.7 0.30                          74.7 297 
 BRR  HN ES   1   1313  7.72                             151    0.38 7 74.7 297 
 PAM  SZ EP   2   1312 52.04                             151    0.48 5 74.9  37 
 PAM  SN ES   1   1313  8.85                             151    0.22 7 74.9  37 
 PAM  SN I        1313 11.12        65.2 0.42                          74.9  37 
 RUS  HZ EP       1312 53.14                             143   -0.1110  100 178 
 RUS  HN ES   1   1313 11.58                             143   -0.05 7  100 178 
 ZAR  HZ EP   1   1313  1.98                             121   -0.41 6  208 292 
 ZAR  HN I        1313 34.59        35.9 0.38                           208 292 
 NOR  SZ EP   3   1313  5.79                             118    0.13 2  238 235 
 NOR  SN ES   1   1313 32.84                             118   -0.88 6  238 235 
 NOR  SN I        1313 37.66        29.6 0.14                           238 235 
 CHI  HZ EP       1313  7.40                             117    0.00 8  250 196 
 CHI  HN ES   1   1313 36.44                             117   -0.39 6  250 196 
 CHI  HN I        1313 39.54        25.8 0.38                           250 196 
 RREF HZ EP       1313 16.79                             110    0.70 7  325 230 
 RREF HN ES   1   1313 53.76                             110    1.46 5  325 230 
 DBB  SZ EP       1313 17.09                             109   -0.45 7  343 274 
 ANIL HE ES   3   1313 58.61                             108   -0.18 2  360 225 
 PRA  HZ EP   2   1313 23.22                             106   -0.16 3  394 210 
 PRA  HN ES   1   1314  5.33                             106    0.07 4  394 210 
 PRA  HN I        1314  9.63        12.6 0.34                           394 210 
                                                                                
