 2017  7 3 1819 31.9 L   6.738 -73.114145.3  RSN  8 0.3 1.7LRSN                1
 GAP=171        0.87       4.3     4.1  5.4 -0.6157E+01  0.4911E+01  0.4157E+01E
 Epicentro: JORDAN - SANTANDER                                                 3
 ACTION:UPD 17-08-30 15:29 OP:rebc STATUS:               ID:20170703181931 L   I
 OLDACT:REG 17-07-03 21:08 OP:ar   STATUS:               ID:20170703181744     3
 2017-07-03-1818-00M.COL___374                                                 6
 STAT SP IPHASW D HRMM SECON CODA AMPLIT PERI AZIMU VELO AIN AR TRES W  DIS CAZ7
 BAR2 EZ EP       1819 51.56                             173    0.2210 17.8 205 
 BAR2 EZ ES       1820  6.29                             173   -0.2410 17.8 205 
 BAR2 EZ I        1820  9.26        15.7 0.34            170           17.8 205 
 BRR  HZ EP       1819 53.25                             150   -0.0910 77.7 302 
 BRR  HE ES       1820 10.61                             150    0.5110 77.7 302 
 BRR  HZ I        1820 20.26         5.6 0.33            150           77.7 302 
 PAM  EZ IP     C 1819 54.13                             150   -0.1010 80.7  35 
 PAM  EE ES       1820 11.64                             150   -0.0410 80.7  35 
 PAM  EZ I        1820 13.51         4.3 0.17            155           80.7  35 
 PTB  HZ EP       1819 58.38                             131   -0.62 9  150 262 
 PTB  HE ES       1820 19.68                             131   -0.49 9  150 262 
 PTB  HZ I        1820 26.57         7.8 0.38            133            150 262 
 SPBC HZ EP       1820  0.41                             129    0.36 9  160 222 
 SPBC HE ES       1820 22.07                             129    0.04 9  160 222 
 SPBC HZ I        1820 26.39         9.1 0.34            133            160 222 
 ZAR  HZ EP       1820  5.43                             121    0.54 8  210 294 
 ZAR  HN ES       1820 30.49                             121   -0.16 8  210 294 
 NOR  HZ EP       1820  7.47                             118    0.01 8  234 236 
 NOR  HE ES       1820 35.68                             118    0.46 8  234 236 
 NOR  HZ I        1820 39.12         3.5 0.18            122            234 236 
 GUY2CHZ EP       1820 14.93                             112   -0.41 7  300 236 
 GUY2CHE ES   4   1820 50.58                             112    1.33 0  300 236 
                                                                                
