 2017  1 3 1059 20.0 L   6.758 -73.118141.2  RSN  7 0.4 1.5LRSN                1
 GAP=142        0.80       4.1     3.7  5.9  0.4642E-01  0.6225E+01 -0.1898E+01E
 Epicentro: LOS SANTOS - SANTANDER                                             3
 ACTION:UPD 17-05-22 15:55 OP:jn   STATUS:               ID:20170103105920 L   I
 OLDACT:REG 17-01-03 20:25 OP:dnl  STATUS:               ID:20170103105746     3
 2017-01-03-1058-00M.COL___378                                                 6
 STAT SP IPHASW D HRMM SECON CODA AMPLIT PERI AZIMU VELO AIN AR TRES W  DIS CAZ7
 BAR2 EZ EP       1059 39.02                             172    0.0410 19.7 201 
 BAR2 EZ ES       1059 53.57                             172   -0.2410 19.7 201 
 BAR2 EZ I        1059 54.79         9.1 0.18            172           19.7 201 
 BRR  HZ EP       1059 41.06                             150    0.1410 76.2 300 
 BRR  HN ES       1059 57.42                             150    0.1610 76.2 300 
 BRR  HZ I        1059 58.78         9.8 0.22            149           76.2 300 
 PAM  EZ EP       1059 41.93                             149    0.1210 79.2  36 
 PAM  EN ES       1059 58.80                             149   -0.0410 79.2  36 
 PAM  EZ I        11 0  1.18         6.0 0.54            150           79.2  36 
 RUS  HZ EP   2   1059 43.53                             144    0.61 5 95.8 178 
 RUS  HN ES       11 0  0.95                             144    0.1210 95.8 178 
 RUS  HZ I        11 0  2.39         2.1 0.34            147           95.8 178 
 PTB  HZ EP       1059 45.86                             131   -0.91 9  150 261 
 PTB  HE ES       11 0  7.81                             131    0.13 9  150 261 
 PTB  HZ I        11 0  9.45         4.4 0.14            131            150 261 
 ZAR  HZ EP   2   1059 52.18                             121   -0.42 4  209 293 
 ZAR  HE ES       11 0 18.34                             121    0.28 8  209 293 
 ZAR  HZ I        11 0 23.77         2.6 0.22            121            209 293 
 GUY2CHZ EP   2   11 0  4.07                             112    0.71 4  301 236 
 GUY2CHN ES   4   11 0 38.73                             112    1.53 0  301 236 
 GUY2CHZ  IAML    11 0 44.42         1.9 0.22                           301 236 
                                                                                
