 2016 10 3 1108 14.4 L   6.814 -73.165144.5  RSN 13 0.4 2.0LRSN                1
 GAP=133        0.97       3.3     3.6  5.2 -0.1766E+01  0.3930E+01  0.4917E+01E
 Epicentro: LOS SANTOS - SANTANDER                                             3
 ACTION:UPD 16-11-09 19:15 OP:rebc STATUS:               ID:20161003110814 L   I
 OLDACT:REG 16-10-03 22:41 OP:lv   STATUS:               ID:20161003110340     3
 2016-10-03-1104-00M.COL___375                                                 6
 STAT SP IPHASW D HRMM SECON CODA AMPLIT PERI AZIMU VELO AIN AR TRES W  DIS CAZ7
 BAR2 EZ EP       11 8 33.65                             170   -0.2710 24.7 185 
 BAR2 EZ ES       11 8 48.95                             170   -0.1810 24.7 185 
 BAR2 EZ I        11 8 50.29        34.1 0.16            169           24.7 185 
 BRR  HZ EP       11 8 35.64                             153    0.3610 68.6 298 
 BRR  HE ES       11 8 52.20                             153    0.6510 68.6 298 
 BRR  HZ I        11 8 54.33        17.3 0.16            150           68.6 298 
 PAM  EZ EP       11 8 36.61                             151    0.1110 77.5  41 
 PAM  EN ES       11 8 53.71                             151   -0.0210 77.5  41 
 PAM  EZ I        11 8 55.82        18.9 0.54            154           77.5  41 
 RUS  HZ EP       11 8 37.70                             143   -0.4710  102 175 
 RUS  HN ES       11 8 56.68                             143   -0.0210  102 175 
 RUS  HZ I        11 8 57.29         6.9 0.26            144            102 175 
 PTB  HZ EP       11 8 40.79                             132   -0.33 9  146 258 
 PTB  HN ES       11 9  1.52                             132   -0.43 9  146 258 
 PTB  HZ I        11 9  8.08         8.6 0.14            131            146 258 
 SPBC HZ EP       11 8 42.42                             129   -0.39 9  163 218 
 SPBC HE ES       11 9  5.80                             129    0.84 9  163 218 
 SPBC HZ I        11 9  9.49        20.3 0.22            128            163 218 
 ZAR  HZ EP   4   11 8 47.77                             123    1.26 0  201 292 
 ZAR  HN ES       11 9 11.26                             123   -0.29 9  201 292 
 ZAR  HZ I        11 9 16.99         8.1 0.13            122            201 292 
 NOR  HZ EP       11 8 50.50                             118    0.51 8  234 234 
 NOR  HN ES       11 9 17.23                             118   -0.50 8  234 234 
 NOR  HZ I        11 9 23.09         6.4 0.14            118            234 234 
 CHI  HZ EP       11 8 52.30                             117    0.15 8  250 195 
 CHI  HN ES       11 9 21.31                             117   -0.28 8  250 195 
 CHI  HZ I        11 9 24.94         6.5 0.48            117            250 195 
 ROSC BZ EP   9   11 8 54.10                             116    1.60 0  253 210 
 ROSC BN ES       11 9 24.17                                    0.37 8  253 210 
 ROSC BZ I        11 9 27.71        14.2 0.42            117            253 210 
 GUY2CHZ EP       11 8 58.29                             112    0.42 7  300 234 
 GUY2CHE ES       11 9 31.56                             112   -0.21 7  300 234 
 GUY2CHZ I        11 9 39.90         5.7 0.34                           300 234 
 PRA  HZ EP       11 9  8.17                             106    0.24 6  392 209 
 PRA  HE ES       11 9 50.35                             106    0.67 6  392 209 
 PRA  HZ I        11 9 54.86         6.1 0.29            107            392 209 
 SJC  HZ EP   9   11 9  7.91                             106   -1.73 0  407 327 
 SJC  HN ES       11 9 50.31                                   -0.68 6  407 327 
 SJC  HZ I        1110  1.12         2.2 0.30            106            407 327 
                                                                                
