 2012  2 3 1533 40.4 L   6.763 -73.135140.4  RSN  8 0.3 1.9LRSN                1
 GAP=140        0.63       3.5     3.2  4.7 -0.1728E+01  0.3719E+01  0.2041E+01E
 ACTION:UP  12-03-07 16:27 OP:epov STATUS:               ID:20120203153340 L   I
 2012-02-03-1530-00M.COL___187                                                 6
 STAT SP IPHASW D HRMM SECON CODA AMPLIT PERI AZIMU VELO SNR AR TRES W  DIS CAZ7
 BAR2 SZ IP       1533 59.60                             172    0.2510 19.6 196 
 BAR2 SZ ES   1   1534 13.90                             172   -0.20 7 19.6 196 
 BAR2 SZ I        1534 16.81        18.9 0.35                          19.6 196 
 GIR2 SZ EP       1533 59.66                             165    0.0610 35.5 349 
 GIR2 SZ ES   1   1534 14.53                             165   -0.01 7 35.5 349 
 BRR  HZ EP       1534  1.53                             150    0.3410 74.2 301 
 BRR  HZ I        1534  1.90        34.6 0.11                          74.2 301 
 BRR  HE ES   1   1534 17.69                             150    0.31 7 74.2 301 
 PAM  SZ EP       1534  2.31                             149    0.0710 79.8  37 
 PAM  SN ES   1   1534 18.71                             149   -0.53 7 79.8  37 
 RUS  HZ EP   1   1534  3.51                             144    0.14 7 96.4 177 
 RUS  HN ES   1   1534 21.31                             144    0.07 7 96.4 177 
 RUS  HZ I        1534 24.18         7.0 0.35                          96.4 177 
 PTB  HZ EP       1534  6.43                             131   -0.59 9  148 260 
 PTB  HE ES   1   1534 27.66                             131   -0.08 7  148 260 
 ZAR  HN ES   1   1534 38.10                             121    0.02 6  207 293 
 ZAR  HZ I        1534 41.87         9.6 0.22                           207 293 
 NOR  SZ EP   1   1534 15.57                             117   -0.15 6  233 235 
 NOR  SE ES   1   1534 43.26                             117    0.03 6  233 235 
                                                                                
