 2016  8 3 1151 28.5 L   6.800 -73.143140.8  RSN  8 0.5 2.0LRSN                1
 GAP=137        1.26       5.0     5.1  7.9 -0.3275E+01  0.1289E+02  0.5883E+00E
 Epicentro: LOS SANTOS - SANTANDER                                             3
 ACTION:UPD 16-10-29 15:31 OP:rebc STATUS:               ID:20160803115128 L   I
 OLDACT:REG 16-08-03 20:10 OP:dani STATUS:               ID:20160803114759     3
 2016-08-03-1147-59S.COL___340                                                 6
 STAT SP IPHASW D HRMM SECON CODA AMPLIT PERI AZIMU VELO AIN AR TRES W  DIS CAZ7
 BAR2 EZ IP     D 1151 47.49                             170   -0.0610 23.4 191 
 BAR2 EZ ES       1152  1.31                             170   -1.0910 23.4 191 
 BAR2 EZ I        1152  4.96        16.8 0.42                          23.4 191 
 BRR  HZ EP       1151 49.34                             152    0.1910 71.4 298 
 BRR  HE ES       1152  6.15                             152    0.9110 71.4 298 
 BRR  HZ I        1152  6.78        21.3 0.32                          71.4 298 
 PAM  EZ EP       1151 50.48                             150    0.2910 77.2  39 
 PAM  EE ES       1152  7.02                             150   -0.0810 77.2  39 
 PAM  EZ I        1152  9.34        18.4 0.40                          77.2  39 
 RUS  HZ EP       1151 51.75                             143   -0.0410  101 176 
 RUS  HN ES       1152 10.50                             143    0.5610  101 176 
 RUS  HZ I        1152 11.86        14.5 0.30                           101 176 
 PTB  HZ EP       1151 54.36                             131   -0.75 9  148 259 
 PTB  HE ES       1152 15.56                             131   -0.30 9  148 259 
 PTB  HZ I        1152 17.74        11.3 0.12                           148 259 
 SPBC HE ES       1152 18.79                             128    0.18 9  163 219 
 ZAR  HZ EP       1152  0.86                             121    0.19 9  204 292 
 ZAR  HE ES       1152 25.51                             121   -0.24 9  204 292 
 ZAR  HZ I        1152 31.34        10.7 0.46                           204 292 
 NOR  HZ EP       1152  3.84                             117   -0.15 8  235 234 
 NOR  HE ES       1152 32.00                             117    0.34 8  235 234 
 NOR  HZ I        1152 34.18         6.8 0.20                           235 234 
                                                                                
