 2011  8 3 1113 18.1 L   6.758 -73.062150.6  RSN  4 0.1 1.4LRSN                1
 GAP=150        0.38       2.8     4.2  4.1 -0.3226E+00 -0.1287E+01  0.3372E+00E
 Epicentro: LOS SANTOS - SANTANDER                                             3
 ACTION:UPD 12-07-25 14:05 OP:epov STATUS:               ID:20110803111318 L   I
 2011-08-03-1110-50S.COL___122                                                 6
 STAT SP IPHASW D HRMM SECON CODA AMPLIT PERI AZIMU VELO AIN AR TRES W  DIS CAZ7
 BAR2 SZ EP   1   1113 38.13                             171   -0.14 7 22.6 216 
 BAR2 SZ ES   1   1113 54.28                             171    0.26 7 22.6 216 
 BAR2 SZ I        1113 54.81        12.6 0.18                          22.6 216 
 PAM  SZ EP   1   1113 40.90                             152    0.19 7 75.8  32 
 PAM  SN ES   1   1113 58.21                             152   -0.16 7 75.8  32 
 PAM  SZ I        1113 58.81         1.4 0.33                          75.8  32 
 BRR  HZ EP   1   1113 40.42                             150    0.08 7 81.6 298 
 BRR  HN ES   1   1113 57.61                             150   -0.11 7 81.6 298 
 BRR  HZ I        1113 58.41         8.5 0.21                          81.6 298 
 RUS  HZ EP   1   1113 41.89                             146   -0.07 7 95.7 181 
 RUS  HN ES   1   1114  0.53                             146   -0.06 7 95.7 181 
 RUS  HZ I        1114  2.09         3.0 0.26                          95.7 181 
                                                                                
