 2012  5 3 1334 31.6 L   6.724 -73.177153.6  RSN  5 0.2 1.6LRSN                1
 GAP=228        0.63       6.4     5.8  6.5  0.2177E+02  0.3053E+01 -0.3125E+01E
 Epicentro: VILLANUEVA - SANTANDER                                             3
 ACTION:UP  12-07-05 12:01 OP:pat  STATUS:               ID:20120503133431 L   I
 2012-05-03-1330-00M.COL___186                                                 6
 STAT SP IPHASW D HRMM SECON CODA AMPLIT PERI AZIMU VELO SNR AR TRES W  DIS CAZ7
 BAR2 SZ EP   1   1334 51.73                             174    -0.3 7   15 182 
 BAR2 SZ ES   1   1335  7.80                             174    -0.2 7   15 182 
 BAR2 SZ I        1335  8.89         8.7 0.36                            15 182 
 BRR  HZ EP       1334 53.70                             153     0.010   73 306 
 BRR  HE ES   1   1335 11.04                             153     0.1 7   73 306 
 BRR  HZ I        1335 13.34         8.9 0.12                            73 306 
 RUS  HZ EP   1   1334 56.00                             148     0.4 7   93 174 
 RUS  HN ES   1   1335 14.42                             148     0.1 7   93 174 
 RUS  HZ I        1335 15.66         3.3 0.46                            93 174 
 PTB  HZ EP   1   1334 58.46                             135    -0.3 7  143 262 
 PTB  HN ES   1   1335 19.86                             135    -0.1 7  143 262 
 PTB  HZ I        1335 21.78         2.2 0.11                           143 262 
 ZAR  HN ES   1   1335 30.61                             124     0.3 6  204 295 
 ZAR  HZ I        1335 35.90         6.6 0.09                           204 295 
                                                                                
