 2017  8 3 1648 54.4 L   6.801 -73.170140.7  RSN  7 0.4 1.6LRSN                1
 GAP=133        1.02       4.7     4.4  7.0 -0.2789E+01  0.1402E+02 -0.8705E+00E
 Epicentro: LOS SANTOS - SANTANDER                                             3
 ACTION:UPD 17-09-04 20:16 OP:rebc STATUS:               ID:20170803164854 L   I
 OLDACT:DUP 17-08-03 23:26 OP:dhb  STATUS:               ID:20170803163740d    3
 OLDACT:REG 17-08-03 21:49 OP:dhb  STATUS:               ID:20170803163739     3
 2017-08-03-1638-00M.COL___398                                                 6
 STAT SP IPHASW D HRMM SECON CODA AMPLIT PERI AZIMU VELO AIN AR TRES W  DIS CAZ7
 BAR2 EZ IP     C 1649 13.11                             170   -0.3310 23.1 183 
 BAR2 EZ ES       1649 28.03                             170   -0.2410 23.1 183 
 BAR2 EZ I        1649 31.56         5.7 0.14            171           23.1 183 
 PAM  EZ IP       1649 16.06                             149   -0.1410 79.1  41 
 PAM  EE ES       1649 33.34                             149    0.1410 79.1  41 
 PAM  EZ I        1649 35.38        10.3 0.66            153           79.1  41 
 RUS  HZ EP       1649 18.40                             143    0.7010  101 175 
 RUS  HN ES       1649 35.95                             143    0.0910  101 175 
 RUS  HZ I        1649 38.11         9.2 0.46            146            101 175 
 PTB  HZ EP       1649 20.13                             131   -0.60 9  145 259 
 PTB  HN ES       1649 41.23                             131   -0.03 9  145 259 
 PTB  HZ I        1649 43.16         4.1 0.11            133            145 259 
 ZAR  HZ EP       1649 26.64                             122    0.37 9  202 292 
 ZAR  HN ES       1649 51.46                             122    0.34 9  202 292 
 ZAR  HZ I        1649 56.00         3.8 0.13            124            202 292 
 NOR  HZ EP       1649 28.76                             118   -0.86 8  233 234 
 NOR  HE ES       1649 57.31                             118    0.22 8  233 234 
 NOR  HZ I        1650  2.31         4.6 0.32            120            233 234 
 GUY2CHZ EP       1649 37.99                             111    0.44 7  299 234 
 GUY2CHN ES   4   1650 15.18                             111    3.99 0  299 234 
 GUY2CHZ I        1650 19.90         2.9 0.44                           299 234 
                                                                                
