 2016  1 3 1351 34.6 L   6.093 -73.894 92.0  RSN  6 0.5 1.2LRSN                1
 GAP= 89        0.64       3.9     2.7  8.7  0.1668E+01  0.5256E+01  0.2910E+01E
 Epicentro: EL PENON - SANTANDER                                               3
 ACTION:UPD 16-03-09 23:22 OP:cam  STATUS:               ID:20160103135135dL   I
 OLDACT:DUP 16-01-03 22:00 OP:dnl  STATUS:               ID:20160103134746d    3
 OLDACT:REG 16-01-03 20:22 OP:dnl  STATUS:               ID:20160103134745     3
 2016-01-03-1347-45M.COL___317                                                 6
 STAT SP IPHASW D HRMM SECON CODA AMPLIT PERI AZIMU VELO AIN AR TRES W  DIS CAZ7
 PTB  HZ EP   2   1351 50.87                             135   -0.13 5 79.4 308 
 PTB  HE ES   1   1352  3.48                             135   -0.31 7 79.4 308 
 PTB  HZ I        1352  5.60         8.1 0.17            132           79.4 308 
 RUS  HZ EP   2   1351 53.04                             131    0.23 5 92.5 104 
 RUS  HN ES   2   1352  6.46                             131   -0.55 5 92.5 104 
 RUS  HZ I        1352  9.07         1.6 0.21            130           92.5 104 
 BAR2 EZ EP       1351 53.04                             129    0.2210 96.2  55 
 BAR2 EZ ES       1352  7.13                             129    0.1210 96.2  55 
 BAR2 EZ I        1352  8.26         4.8 0.09            130           96.2  55 
 NOR  HZ EP   2   1351 55.78                             122    0.56 5  123 242 
 NOR  HE ES   2   1352 11.84                             122    0.54 5  123 242 
 NOR  HZ I        1352 15.39         5.5 0.24            118            123 242 
 CHI  HZ EP   3   1351 58.25                             114   -1.76 2  163 174 
 CHI  HN ES   3   1352 19.09                             114   -0.73 2  163 174 
 CHI  HZ I        1352 24.11         0.9 0.14            112            163 174 
 ZAR  HZ EP   2   1352  2.64                             111    0.29 4  188 326 
 ZAR  HE ES       1352 23.66                             111   -0.31 9  188 326 
 ZAR  HZ I        1352 31.61         3.2 0.13            109            188 326 
                                                                                
