 2014  9 3 1819 57.7 L   6.534 -73.571 99.5  RSN  8 0.4 1.6LRSN                1
 GAP=100        0.87       3.7     3.1  8.5 -0.9033E+00  0.7572E+01  0.7541E+01E
 Epicentro: EL CARMEN - SANTANDER                                              3
 ACTION:UPD 14-10-03 23:02 OP:nd   STATUS:               ID:20140903181957 L   I
 OLDACT:REG 14-09-03 21:18 OP:fm   STATUS:               ID:20140903181817     3
 2014-09-03-1818-17M.COL___269                                                 6
 STAT SP IPHASW D HRMM SECON CODA AMPLIT PERI AZIMU VELO AIN AR TRES W  DIS CAZ7
 BAR2 SZ ES   1   1820 25.14                             155    0.83 7 43.4  82 
 BAR2 SZ I        1820 27.19        43.2 0.50            156           43.4  82 
 RUS  HZ EP   1   1820 16.01                             136   -0.26 7 89.2 143 
 RUS  HE ES   1   1820 30.03                             136   -0.70 7 89.2 143 
 RUS  HZ I        1820 32.09         3.4 0.16            136           89.2 143 
 PTB  HZ EP     D 1820 16.04                             132   -0.3610 97.9 270 
 PTB  HN ES       1820 30.91                             132   -0.0610 97.9 270 
 PTB  HZ I        1820 32.23        14.6 0.32            132           97.9 270 
 PAM  SN ES       1820 37.85                             124   -0.0010  131  47 
 PAM  SZ I        1820 39.39        10.9 0.24            124            131  47 
 ZAR  HN ES   1   1820 45.54                             115   -0.07 7  177 307 
 ZAR  HZ I        1820 52.02         7.6 0.48            115            177 307 
 NOR  HE ES       1820 46.17                             115    0.05 9  179 233 
 NOR  HZ I        1820 48.73         5.2 0.18            115            179 233 
 CHI  HZ EP   1   1820 29.24                             111    0.24 6  211 185 
 CHI  HN ES   1   1820 53.64                             111    0.24 6  211 185 
 CHI  HZ I        1820 58.96         2.1 0.46            111            211 185 
 GUY2CHZ EP   1   1820 33.92                             108    0.83 6  246 234 
 GUY2CHN ES   4   1821  3.16                             108    2.48 0  246 234 
 GUY2CHZ I        1821  5.72         4.1 0.34                           246 234 
                                                                                
