 2014  2 3 1018 31.4 L   6.847 -73.133141.1  RSN 20 0.6 2.5LRSN                1
 GAP= 70        1.03       3.2     3.6  6.6  0.1724E+00  0.8491E+01 -0.3769E+00E
 Epicentro: LOS SANTOS - SANTANDER                                             3
 ACTION:UPD 14-03-10 08:07 OP:ep   STATUS:               ID:20140203101831 L   I
 OLDACT:UP  14-02-03 18:12 OP:mh   STATUS:               ID:20140203101745     3
 OLDACT:UP  14-02-03 18:09 OP:mh   STATUS:               ID:20140203101745     3
 OLDACT:UP  14-02-03 17:56 OP:mh   STATUS:               ID:20140203101745     3
 OLDACT:REG 14-02-03 17:17 OP:mh   STATUS:               ID:20140203101745     3
 2014-02-03-1017-45M.COL___231                                                 6
 STAT SP IPHASW D HRMM SECON CODA AMPLIT PERI AZIMU VELO AIN AR TRES W  DIS CAZ7
 BAR2 SZ IP     D 1018 50.84                             168    0.2910 28.6 191 
 BAR2 SZ ES   1   1019  5.19                             168   -0.33 7 28.6 191 
 BAR2 SZ I        1019  7.28       111.8 0.28            166           28.6 191 
 PAM  SZ EP   1   1018 53.48                             152    0.69 7 72.6  41 
 PAM  SN ES   1   1019 10.52                             152    1.01 7 72.6  41 
 PAM  SZ I        1019 12.86        40.2 0.48            151           72.6  41 
 RUS  HZ EP   1   1018 54.95                             141   -0.08 7  106 177 
 RUS  HN ES   1   1019 13.21                             141   -0.29 7  106 177 
 RUS  HZ I        1019 14.98        43.5 0.26            140            106 177 
 PTB  HZ EP   1   1018 57.45                             130   -0.73 7  150 257 
 PTB  HZ I        1019 23.94        53.5 0.17            125            150 257 
 TAM  HZ EP       1018 59.21                             129    0.53 9  155 107 
 TAM  HE ES       1019 19.27                             129   -0.72 9  155 107 
 TAM  HZ I        1019 19.83        32.4 0.36            130            155 107 
 OCA  HZ EP       1018 58.82                             129   -0.02 9  155 352 
 OCA  HZ I        1019 25.44        53.0 0.26            125            155 352 
 SPBC HZ EP       1018 59.86                             127   -0.12 9  168 218 
 SPBC HZ I        1019 24.62        55.1 0.22            123            168 218 
 ZAR  HZ EP   1   1019  3.64                             121    0.20 6  203 291 
 ZAR  HN ES       1019 28.50                             121    0.03 9  203 291 
 ZAR  HZ I        1019 35.02        72.1 0.28            117            203 291 
 NOR  HZ EP   2   1019  8.38                             117    1.11 4  239 234 
 NOR  HN ES   4   1019 33.95                             117   -1.33 0  239 234 
 NOR  HZ I        1019 40.76        24.0 0.28            113            239 234 
 SML  HZ EP   1   1019  6.60                             117   -0.68 6  240 334 
 SML  HN ES       1019 34.47                             117   -0.83 8  240 334 
 CHI  HZ EP     C 1019  9.29                             116   -0.10 8  254 195 
 CHI  HN ES   1   1019 39.08                             116    0.03 6  254 195 
 CHI  HZ I        1019 49.97        10.3 0.59            113            254 195 
 ROSC BZ EP   4   1019 11.66                             115    1.87 0  258 211 
 ROSC BN ES   2   1019 39.88                             115    0.11 4  258 211 
 HEL  HZ EP   1   1019 12.73                             114    1.10 6  275 255 
 HEL  HE ES   4   1019 45.52                             114    2.47 0  275 255 
 HEL  HZ I        1019 50.45        16.6 0.40            110            275 255 
 URE  HZ EP   4   1019 10.79                             113   -1.35 0  283 291 
 URE  HN ES   4   1019 41.86                             113   -2.09 0  283 291 
 GUY2CHZ EP   1   1019 16.20                             111    0.98 5  305 234 
 GUY2CHE ES   1   1019 50.02                             111    0.58 5  305 234 
 CBOC HZ EP   2   1019 17.99                             109   -0.43 3  337 251 
 CBOC HN ES   2   1019 54.93                             109   -0.20 3  337 251 
 DBB  SZ EP   2   1019 18.33                             108   -0.44 3  341 273 
 COD  HZ EP   1   1019 18.54                             108   -0.44 5  343 354 
 COD  HE ES   4   1019 53.54                             108   -2.58 0  343 354 
 COD  HZ I        1020  7.10         5.0 0.28            106            343 354 
 ARGC HZ EP   1   1019 21.15                             108    0.82 5  355 340 
 ARGC HN ES   4   1019 56.56                             108   -1.97 0  355 340 
 SDV  BZ EP   1   1019 20.19                             108   -0.53 5  356  51 
 PRA  HZ EP       1019 25.00                             105   -0.33 6  397 209 
 PRA  HN ES   1   1020  6.28                             105   -1.14 4  397 209 
 PRA  HZ I        1020 13.67        12.7 0.38            103            397 209 
 SJC  HZ EP   4   1019 24.48                             105   -1.88 0  406 326 
                                                                                
