 2013  2 3 1526  2.9 L   6.833 -73.117151.1  RSN  4 0.4 1.6LRSN                1
 GAP=138        0.75       7.3     6.3  6.9 -0.9978E+01 -0.2029E+01  0.1701E+00E
 Epicentro: LOS SANTOS - SANTANDER                                             3
 ACTION:UPD 13-03-12 09:30 OP:ep   STATUS:               ID:20130203152602 L   I
 2013-02-03-1518-49M.COL___197                                                 6
 STAT SP IPHASW D HRMM SECON CODA AMPLIT PERI AZIMU VELO AIN AR TRES W  DIS CAZ7
 BAR2 SZ EP       1526 23.02                             169   -0.2010 27.6 195 
 BAR2 SZ ES       1526 39.42                             169    0.3210 27.6 195 
 BRR  HZ EP       1526 24.59                             153   -0.0510 72.3 295 
 BRR  HN ES       1526 41.52                             153   -0.1210 72.3 295 
 BRR  HN I        1526 45.37        10.3 0.18            149           72.3 295 
 PAM  SZ IP       1526 25.86                             153    0.4910 72.6  39 
 PAM  SZ I        1526 26.02         5.7 0.18            154           72.6  39 
 PAM  SN ES       1526 42.56                             153   -0.3710 72.6  39 
 RUS  HZ EP   3   1526 27.14                             143   -0.24 2  104 178 
 RUS  HN ES   3   1526 45.46                             143   -1.05 2  104 178 
                                                                                
