 2015 10 3 1026 58.9 L   6.825 -73.143142.0  RSN  9 0.4 1.6LRSN                1
 GAP=136        0.56       3.1     4.2  4.6  0.2883E+01  0.7595E+01 -0.1776E+01E
 Epicentro: LOS SANTOS - SANTANDER                                             3
 ACTION:UPD 15-12-22 20:37 OP:cam  STATUS:               ID:20151003102659dL   I
 OLDACT:REG 15-10-03 21:57 OP:ar   STATUS:               ID:20151003101746     3
 2015-10-03-1017-46M.COL___355                                                 6
 STAT SP IPHASW D HRMM SECON CODA AMPLIT PERI AZIMU VELO AIN AR TRES W  DIS CAZ7
 BAR2 EZ EP       1027 17.95                             169   -0.1410 26.1 190 
 BAR2 EZ ES       1027 33.08                             169   -0.0210 26.1 190 
 BAR2 EZ I        1027 35.79         6.3 0.34            170           26.1 190 
 BRR  HZ EP   2   1027 19.95                             152    0.41 5 70.2 296 
 BRR  HN ES   2   1027 36.49                             152    0.82 5 70.2 296 
 BRR  HZ I        1027 42.49         7.3 0.62            150           70.2 296 
 PAM  EN ES   2   1027 37.54                             151    0.10 5 75.1  41 
 PAM  EZ I        1027 40.06         4.9 0.52            156           75.1  41 
 RUS  HZ EP       1027 22.38                             142   -0.0610  103 176 
 RUS  HN ES       1027 40.90                             142    0.0610  103 176 
 RUS  HZ I        1027 41.45         4.9 0.30            148            103 176 
 PTB  HZ EP   2   1027 26.19                             131    0.59 5  149 258 
 PTB  HN ES   2   1027 45.88                             131   -0.57 5  149 258 
 PTB  HZ I        1027 47.83         6.2 0.16            133            149 258 
 SPBC HZ EP   2   1027 27.43                             128    0.14 5  166 218 
 SPBC HN ES   2   1027 48.82                             128   -0.65 5  166 218 
 SPBC HZ I        1027 55.06         9.4 0.28            131            166 218 
 ZAR  HZ EP       1027 30.84                             122   -0.14 9  203 291 
 ZAR  HN ES   2   1027 56.03                             122   -0.00 4  203 291 
 ZAR  HZ I        1028  1.29         5.4 0.32            124            203 291 
 SML  HZ EP   2   1027 34.63                             117   -0.38 4  241 335 
 SML  HN ES   2   1028  2.86                             117   -0.35 4  241 335 
 GUY2CHZ EP   2   1027 43.42                             111    0.92 4  303 234 
 GUY2CHN ES   2   1028 16.86                             111    0.32 4  303 234 
 GUY2CHZ I        1028 23.06         2.5 0.26                           303 234 
                                                                                
