 2012  5 3 1232 29.3 L   6.751 -73.140149.7  RSN  5 0.3 1.7LRSN                1
 GAP=139        0.81       5.7     5.6  7.7 -0.2619E+01  0.6039E+01 -0.1324E+00E
 Epicentro: LOS SANTOS - SANTANDER                                             3
 ACTION:UP  12-07-05 12:01 OP:pat  STATUS:               ID:20120503123229 L   I
 2012-05-03-1230-00M.COL___186                                                 6
 STAT SP IPHASW D HRMM SECON CODA AMPLIT PERI AZIMU VELO SNR AR TRES W  DIS CAZ7
 BAR2 SZ EP   1   1232 49.35                             173     0.0 7   18 195 
 BAR2 SZ ES   1   1233  4.76                             173    -0.2 7   18 195 
 BAR2 SZ I        1233  6.49        15.2 0.31                            18 195 
 BRR  HZ EP       1232 51.28                             152     0.210   74 302 
 BRR  HN ES   1   1233  8.64                             152     0.6 7   74 302 
 BRR  HZ I        1233 11.70        13.2 0.12                            74 302 
 PAM  SZ EP   1   1232 52.19                             150     0.0 7   81  37 
 PAM  SN ES   1   1233  9.56                             150    -0.4 7   81  37 
 RUS  HZ EP   1   1232 53.35                             146     0.3 7   95 176 
 RUS  HN ES   1   1233 11.62                             146     0.0 7   95 176 
 RUS  HZ I        1233 13.28         6.5 0.37                            95 176 
 PTB  HZ EP   1   1232 56.07                             133    -0.5 7  147 261 
 PTB  HN ES   1   1233 17.44                             133    -0.4 7  147 261 
 PTB  HZ I        1233 22.85         4.1 0.18                           147 261 
                                                                                
