 2013  3 3 1422  6.7 L   6.760 -73.152143.3  RSN  7 0.4 1.8LRSN                1
 GAP=138        0.83       4.5     4.8  7.0  0.2313E+01  0.7961E+01 -0.6797E+01E
 Epicentro: LOS SANTOS - SANTANDER                                             3
 ACTION:UPD 13-04-09 13:59 OP:ep   STATUS:               ID:20130303142206 L   I
 2013-03-03-1420-00M.COL___228                                                 6
 STAT SP IPHASW D HRMM SECON CODA AMPLIT PERI AZIMU VELO AIN AR TRES W  DIS CAZ7
 BAR2 SZ EP   1   1422 26.31                             172    0.33 7 18.8 190 
 BAR2 SZ ES   1   1422 40.29                             172   -0.71 7 18.8 190 
 BAR2 SZ I        1422 42.04        22.3 0.28            172           18.8 190 
 BRR  HZ EP   1   1422 27.97                             151    0.27 7 72.9 302 
 BRR  HN ES   1   1422 45.02                             151    0.95 7 72.9 302 
 BRR  HZ I        1422 48.76        10.6 0.26            151           72.9 302 
 PAM  SZ EP   1   1422 29.08                             149    0.16 7 81.3  38 
 PAM  SN ES   1   1422 45.96                             149   -0.28 7 81.3  38 
 PAM  SZ I        1422 47.68        11.8 0.64            153           81.3  38 
 RUS  HZ EP   1   1422 30.14                             145    0.22 7 96.2 175 
 RUS  HN ES   1   1422 48.07                             145    0.06 7 96.2 175 
 RUS  HZ I        1422 50.58         4.4 0.34            148           96.2 175 
 PTB  HZ EP   1   1422 32.76                             132   -0.60 7  146 261 
 PTB  HN ES   1   1422 53.81                             132   -0.32 7  146 261 
 PTB  HZ I        1422 57.51         5.2 0.28            133            146 261 
 ZAR  HZ EP   1   1422 39.25                             122    0.13 6  205 293 
 ZAR  HN ES   1   1423  4.44                             122    0.04 6  205 293 
 ZAR  HZ I        1423  6.40         5.3 0.22            124            205 293 
 SML  HZ EP   1   1422 43.49                             116   -0.14 6  247 336 
 SML  HE ES   1   1423 12.02                             116   -0.39 6  247 336 
 SML  HZ I        1423 14.63         6.6 0.26            119            247 336 
                                                                                
