 2012  1 3 1926 47.6 L   6.041 -73.847 95.0  RSN  6 0.4 1.7LRSN                1
 GAP=125        0.79       4.6     4.7 12.9 -0.5156E+01 -0.1967E+02  0.1926E+02E
 Epicentro: EL PEON - SANTANDER                                                3
 ACTION:UP  12-02-03 08:13 OP:REBC STATUS:               ID:20120103192647 L   I
 2012-01-03-1920-00M.COL___183                                                 6
 STAT SP IPHASW D HRMM SECON CODA AMPLIT PERI AZIMU VELO SNR AR TRES W  DIS CAZ7
 PTB  HZ EP   1   1927  4.28                             134    -0.7 7   87 309 
 PTB  HN ES   1   1927 18.24                             134    -0.2 7   87 309 
 BAR2 SZ EP   1   1927  6.05                             132     0.0 7   96  50 
 BAR2 SZ ES   2   1927 20.75                             132     0.4 5   96  50 
 BAR2 SZ I        1927 21.69        13.1 0.21                            96  50 
 BRR  HZ EP   1   1927  7.99                             125     0.0 7  119   7 
 NOR  SZ EP   1   1927  9.29                             123     0.6 7  125 245 
 NOR  SE ES   1   1927 25.17                             123     0.1 7  125 245 
 CHI  HZ EP   1   1927 12.16                             117    -0.3 7  157 175 
 ZAR  HE ES   1   1927 39.04                             111     0.3 6  196 325 
 ZAR  HZ I        1927 43.38         4.7 0.25                           196 325 
                                                                                
