 2016  8 3 1746 28.4 L   6.801 -73.148146.0  RSN 15 0.4 2.5LRSN                1
 GAP=102        1.00       3.8     3.8  5.0 -0.4449E+01  0.1881E+01  0.2751E+01E
 Epicentro: LOS SANTOS - SANTANDER                                             3
 ACTION:UPD 16-10-29 15:31 OP:rebc STATUS:               ID:20160803174628 L   I
 OLDACT:UP  16-08-03 23:13 OP:dani STATUS:               ID:20160803173759     3
 OLDACT:UP  16-08-03 23:11 OP:dani STATUS:               ID:20160803173759     3
 OLDACT:REG 16-08-03 21:15 OP:dani STATUS:               ID:20160803173759     3
 2016-08-03-1737-59S.COL___334                                                 6
 STAT SP IPHASW D HRMM SECON CODA AMPLIT PERI AZIMU VELO AIN AR TRES W  DIS CAZ7
 BAR2 EZ EP       1746 48.16                             170    0.0710 23.4 189 
 BAR2 HN ES       1747  3.39                             170   -0.0410 23.4 189 
 BAR2 EZ I        1747  4.03       134.6 0.32                          23.4 189 
 BRR  HZ IP     C 1746 49.75                             153    0.1610 70.9 299 
 BRR  HN ES       1747  6.84                             153    0.7410 70.9 299 
 BRR  HZ I        1747  9.97        51.0 0.30                          70.9 299 
 PAM  EZ EP       1746 50.79                             151    0.1110 77.4  40 
 PAM  EE ES       1747  8.09                             151    0.0710 77.4  40 
 PAM  EZ I        1747 10.14        60.6 0.56                          77.4  40 
 RUS  HZ EP       1746 51.93                             144   -0.2910  101 176 
 RUS  HE ES   2   1747 10.64                             144   -0.13 5  101 176 
 RUS  HZ I        1747 11.61        28.4 0.22                           101 176 
 PTB  HZ EP   4   1746 54.50                             132   -0.90 0  148 259 
 PTB  HE ES       1747 15.88                             132   -0.56 9  148 259 
 PTB  HZ I        1747 21.32        38.5 0.14                           148 259 
 SPBC HZ EP       1746 57.07                             129    0.12 9  163 219 
 SPBC HE ES       1747 19.01                             129   -0.17 9  163 219 
 SPBC HZ I        1747 23.83        43.5 0.32                           163 219 
 ZAR  HZ EP       1747  0.24                             123   -0.63 9  204 292 
 ZAR  HE ES       1747 25.66                             123   -0.50 9  204 292 
 ZAR  HZ I        1747 32.61        29.6 0.24                           204 292 
 NOR  HZ EP       1747  4.28                             119    0.12 8  235 234 
 NOR  HE ES       1747 31.84                             119   -0.19 8  235 234 
 NOR  HZ I        1747 36.93        21.3 0.18                           235 234 
 ROSC BZ EP   9   1747  8.00                             117    1.44 0  253 211 
 ROSC BE ES       1747 38.38                             116    0.64 8  253 211 
 ROSC BZ I        1747 42.79        33.3 0.40                           253 211 
 HEL  HZ EP   4   1747  9.95                             115    1.31 0  272 256 
 HEL  HZ I        1747 48.26        15.8 0.26                           272 256 
 SOCV BZ EP       1747 10.96                             112   -0.54 7  301  57 
 GUY2CHZ EP       1747 13.03                             112    0.99 7  301 235 
 GUY2CHN ES   4 D 1747 50.28                             112    4.23 0  301 235 
 GUY2CHZ I        1747 53.64        10.5 0.46                           301 235 
 PTGC HZ EP   9   1747 11.07                             112   -1.25 0  309 159 
 PTGC HE ES       1747 44.85                             112   -0.45 7  309 159 
 CBOC HZ EP       1747 16.27                             110    0.93 7  333 252 
 CBOC HE ES   4   1747 49.86                             110   -2.06 0  333 252 
 PRA  HZ EP       1747 21.94                             107   -0.02 6  392 210 
 PRA  HE ES       1748  3.62                             107   -0.09 6  392 210 
 PRA  HZ I        1748  9.19        15.5 0.30                           392 210 
                                                                                
