 2016  7 3 1804 31.2 L   6.504 -73.770 89.4  RSN  9 0.5 1.7LRSN                1
 GAP= 76        1.31       3.9     3.9  9.1  0.6827E+00  0.1577E+02  0.5603E+01E
 Epicentro: SANTA HELENA DEL OPON - SANTANDER                                  3
 ACTION:UPD 17-03-29 16:46 OP:lp   STATUS:               ID:20160703180431 L   I
 OLDACT:DUP 16-07-04 00:40 OP:ak   STATUS:               ID:20160703175749d    3
 2016-07-03-1757-48M.COL___334                                                 6
 STAT SP IPHASW D HRMM SECON CODA AMPLIT PERI AZIMU VELO AIN AR TRES W  DIS CAZ7
 BAR2 EZ EP       18 4 46.51                             141   -0.0410 65.7  81 
 BAR2 EZ ES       18 4 58.27                             141   -0.2410 65.7  81 
 BAR2 EZ I        18 5  0.25         9.2 0.14            147           65.7  81 
 BRR  HZ EP       18 4 46.14                             140   -0.1810 67.0   6 
 BRR  HN ES       18 4 58.54                             140    0.4410 67.0   6 
 BRR  HZ I        18 4 59.43        21.5 0.12            143           67.0   6 
 PTB  HZ IP     D 18 4 46.33                             136   -0.7510 76.0 273 
 PTB  HN ES       18 4 58.65                             136   -0.8010 76.0 273 
 SPBC HZ EP       18 4 49.23                             128   -0.1510 99.9 200 
 SPBC HN ES       18 5  3.79                             128    0.2510 99.9 200 
 SPBC HZ I        18 5  6.06        12.9 0.21            131           99.9 200 
 RUS  HZ EP   2   18 4 49.48                             128   -0.61 5  102 132 
 RUS  HE ES       18 5  5.51                             128    0.7110  102 132 
 NOR  HZ EP       18 4 55.26                             114   -0.45 9  160 230 
 NOR  HN ES       18 5 14.56                             114   -0.26 9  160 230 
 NOR  HZ I        18 5 18.45         8.6 0.12            117            160 230 
 ZAR  HZ EP       18 4 55.51                             114   -0.42 9  162 312 
 ZAR  HN ES       18 5 15.89                             114    0.69 9  162 312 
 ZAR  HZ I        18 5 20.65         7.9 0.20            116            162 312 
 HEL  HZ EP       18 5  1.07                             110    0.66 9  198 260 
 HEL  HN ES       18 5 24.15                             110    0.96 9  198 260 
 HEL  HZ I        18 5 27.66         6.3 0.24            112            198 260 
 GUY2CHZ EP       18 5  4.04                             107    0.13 8  226 231 
 GUY2CHN ES   4   18 5 31.42                             107    2.02 0  226 231 
 GUY2CHZ I        18 5 36.08         4.2 0.42                           226 231 
                                                                                
