 2010  8 3 1004  2.7 L   6.717 -73.124150.9  RSN  5 0.2 1.3LRSN                1
 GAP=167        0.49       5.3    11.5 10.1  0.2785E+02 -0.6096E+02 -0.2188E+02E
 Epicentro: JORDAN - SANTANDER                                                 3
 ACTION:UP  10-09-07 10:51 OP:vdl  STATUS:               ID:20100803100403 L   I
 2010-08-03-1000-22S.COL___126                                                 6
 STAT SP IPHASW D HRMM SECON CODA AMPLIT PERI AZIMU VELO SNR AR TRES W  DIS CAZ7
 BAR2 SZ EP   1   10 4 22.68                             172    -0.1 7   15 206 
 GIR2 SZ EP   2   10 4 22.66                             165    -0.6 5   41 349 
 GIR2 SZ ES   3   10 4 39.36                             165     0.1 2   41 349 
 BRR  HZ EP   1   10 4 24.71                             150    -0.1 7   78 304 
 BRR  HZ I        10 4 24.96         7.1 0.17                            78 304 
 BRR  HE ES   2   10 4 42.23                             150     0.2 5   78 304 
 RUS  HZ EP   1   10 4 26.54                             146     0.2 7   91 177 
 RUS  HE ES   2   10 4 44.66                             146    -0.1 5   91 177 
 RUS  HZ I        10 4 50.06         1.5 0.48                            91 177 
 GUE  SZ EP   1   10 4 28.77                             139     0.2 7  125  10 
                                                                                
