 2012  7 3 1844  0.8 L   6.674 -73.218149.9  RSN  5 0.4 1.4LRSN                1
 GAP=205        0.99      10.3     9.3 11.7  0.5950E+02  0.6730E+01 -0.6365E+01E
 Epicentro: BARICHARA - SANTANDER                                              3
 ACTION:UPD 12-08-14 11:42 OP:ep   STATUS:               ID:20120703184400 L   I
 2012-07-03-1840-00M.COL___200                                                 6
 STAT SP IPHASW D HRMM SECON CODA AMPLIT PERI AZIMU VELO AIN AR TRES W  DIS CAZ7
 BAR2 SZ EP   1   1844 20.14                             176    -0.6 7   10 156 
 BAR2 SZ ES   1   1844 35.85                             176    -0.4 7   10 156 
 BAR2 SZ I        1844 37.15         9.3 0.38            171             10 156 
 BRR  HZ EP   1   1844 22.32                             153    -0.1 7   73 311 
 BRR  HN ES   1   1844 40.04                             153     0.7 7   73 311 
 RUS  HZ EP   1   1844 24.68                             148     0.6 7   88 170 
 RUS  HN ES   1   1844 42.24                             148     0.0 7   88 170 
 RUS  HZ I        1844 44.70         3.2 0.42            146             88 170 
 PTB  HN ES   1   1844 47.64                             135    -0.2 7  138 264 
 PTB  HZ I        1844 50.53         2.9 0.15            134            138 264 
 ZAR  HN ES   1   1844 58.53                             123    -0.2 6  203 297 
