 2012  8 3 1742 40.3 L   6.777 -73.155142.0  RSN  5 0.3 1.4LRSN                1
 GAP=136        0.64       4.2     4.0  6.7 -0.1628E+01  0.1973E+01  0.3888E+01E
 Epicentro: LOS SANTOS - SANTANDER                                             3
 ACTION:UPD 12-09-10 11:54 OP:ep   STATUS:               ID:20120803174240 L   I
 2012-08-03-1740-00M.COL___215                                                 6
 STAT SP IPHASW D HRMM SECON CODA AMPLIT PERI AZIMU VELO AIN AR TRES W  DIS CAZ7
 BAR2 SZ EP       1742 59.43                             171    0.0510 20.6 189 
 BAR2 SZ I        1743 16.78         6.8 0.26                          20.6 189 
 BRR  HZ EP       1743  1.40                             152    0.3710 71.6 301 
 BRR  HN ES   1   1743 17.51                             152    0.29 7 71.6 301 
 BRR  HZ I        1743 18.41        19.1 0.44                          71.6 301 
 PAM  SZ EP       1743  2.31                             149    0.0710 80.0  39 
 PAM  SN ES   1   1743 18.90                             149   -0.48 7 80.0  39 
 PAM  SZ I        1743 21.75         2.1 0.46                          80.0  39 
 RUS  HZ EP       1743  3.44                             144   -0.0210 98.1 175 
 RUS  HN ES   1   1743 21.67                             144    0.11 7 98.1 175 
 RUS  HZ I        1743 23.02         3.7 0.24                          98.1 175 
 PTB  HZ EP       1743  6.45                             131   -0.34 9  146 260 
 PTB  HN ES   1   1743 27.22                             131   -0.26 7  146 260 
 PTB  HZ I        1743 32.13         3.0 0.34                           146 260 
                                                                                
