 2010  8 3 1129 31.1 L   6.767 -73.042146.8  RSN  7 0.3 1.7LRSN                1
 GAP=171        0.48       3.4     6.0  5.0 -0.7834E+01  0.5905E+00  0.6912E+00E
 Epicentro: LOS SANTOS - SANTANDER                                             3
 ACTION:UP  10-09-07 10:51 OP:vdl  STATUS:               ID:20100803112931 L   I
 2010-08-03-1126-23S.COL___126                                                 6
 STAT SP IPHASW D HRMM SECON CODA AMPLIT PERI AZIMU VELO SNR AR TRES W  DIS CAZ7
 BAR2 SZ EP   1   1129 50.89                             170     0.0 7   25 219 
 BAR2 SZ I        1129 51.29        13.7 0.11                            25 219 
 BAR2 SZ ES   2   1130  6.22                             170    -0.2 5   25 219 
 GIR2 SZ EP   1   1129 51.10                             165    -0.1 7   38 334 
 GIR2 SZ ES   2   1130  6.96                             165     0.2 5   38 334 
 BRR  HZ EP   1   1129 52.83                             149    -0.3 7   83 297 
 BRR  HE ES   2   1130 10.10                             149    -0.2 5   83 297 
 BRR  HZ I        1130 12.68        13.3 0.14                            83 297 
 RUS  HZ EP   1   1129 54.80                             145     0.1 7   97 183 
 RUS  HN ES   2   1130 13.14                             145     0.0 5   97 183 
 RUS  HZ I        1130 14.99         2.8 0.34                            97 183 
 GUE  SZ EP   1   1129 55.90                             139    -0.2 7  118   6 
 GRA  SZ EP   1   1129 56.74                             137     0.2 7  126  12 
 GRA  SZ ES   2   1130 16.79                             137     0.5 5  126  12 
 GRA  SZ I        1130 17.97         7.0 0.27                           126  12 
 RREF HZ EP   1   1130 18.05                             111     0.0 5  328 231 
 RREF HE ES   2   1130 55.55                             111     0.9 3  328 231 
 RREF HZ I        1131  3.42         3.6 0.23                           328 231 
                                                                                
