 2017  9 3 1025 52.6 L   6.780 -73.089145.2  RSN  4 0.2 1.3LRSN                1
 GAP=242        0.67       4.4     5.2  5.3  0.5229E+01  0.7463E+01  0.4640E+01E
 Epicentro: LOS SANTOS - SANTANDER                                             3
 ACTION:UPD 17-10-05 19:08 OP:rebc STATUS:               ID:20170903102552 L   I
 OLDACT:DUP 17-09-03 21:29 OP:dhb  STATUS:               ID:20170903101742d    3
 OLDACT:REG 17-09-03 20:27 OP:dhb  STATUS:               ID:20170903101741     3
 2017-09-03-1018-00M.COL___399                                                 6
 STAT SP IPHASW D HRMM SECON CODA AMPLIT PERI AZIMU VELO AIN AR TRES W  DIS CAZ7
 BAR2 EZ EP       1026 11.62                             170   -0.5110 23.2 206 
 BAR2 EZ ES       1026 27.22                             170   -0.1610 23.2 206 
 BAR2 EZ I        1026 28.64         4.4 0.14            160           23.2 206 
 BRR  HZ IP     D 1026 14.22                             150    0.1710 77.8 298 
 BRR  HE ES       1026 30.96                             150    0.1710 77.8 298 
 BRR  HZ I        1026 32.42         3.7 0.34            146           77.8 298 
 RUS  HZ EP       1026 16.34                             144    0.2510 98.1 180 
 RUS  HN ES       1026 34.61                             144    0.1810 98.1 180 
 RUS  HZ I        1026 36.63         2.6 0.21            140           98.1 180 
 NOR  HZ EP       1026 28.73                             118    0.04 8  239 236 
 NOR  HN ES       1026 56.67                             118   -0.18 8  239 236 
 NOR  HZ I        1027  6.37         1.6 0.09            116            239 236 
                                                                                
