 2015  2 3 1336 39.6 L   6.810 -73.129143.2  RSN  6 0.5 1.8LRSN                1
 GAP=202        1.15       5.0     6.6  8.9  0.8373E+01  0.8119E+01 -0.1659E+02E
 Epicentro: LOS SANTOS - SANTANDER                                             3
 ACTION:UPD 15-04-30 21:21 OP:nd   STATUS:               ID:20150203133639 L   I
 OLDACT:REG 15-02-03 19:34 OP:cam  STATUS:               ID:20150203132817     3
 2015-02-03-1328-17M.COL___271                                                 6
 STAT SP IPHASW D HRMM SECON CODA AMPLIT PERI AZIMU VELO AIN AR TRES W  DIS CAZ7
 BAR2 EZ EP     C 1336 59.49                             170    0.5010 24.8 194 
 BAR2 EZ ES       1337 14.15                             170    0.0610 24.8 194 
 BAR2 EZ I        1337 15.40        14.0 0.12            168           24.8 194 
 RUS  HZ EP       1337  3.88                             143    0.6710  102 177 
 RUS  HN ES       1337 21.00                             143   -0.6010  102 177 
 RUS  HZ I        1337 23.05         4.6 0.38            145            102 177 
 PTB  HZ EP       1337  6.10                             131   -0.48 9  150 259 
 PTB  HN ES       1337 27.28                             131   -0.32 9  150 259 
 PTB  HZ I        1337 29.44         9.0 0.14            130            150 259 
 SPBC HZ EP       1337  7.74                             128   -0.40 9  165 219 
 SPBC HN ES       1337 30.61                             128    0.24 9  165 219 
 SPBC HZ I        1337 37.23         6.9 0.28            128            165 219 
 ZAR  HZ EP       1337 11.99                             122   -0.06 8  205 292 
 ZAR  HE ES       1337 38.17                             122    0.84 8  205 292 
 ZAR  HZ I        1337 44.16         6.4 0.26            122            205 292 
 SML  HZ EP       1337 16.03                             117   -0.06 8  243 335 
 SML  HN ES       1337 44.02                             117   -0.51 8  243 335 
 SML  HZ I        1337 48.99         6.5 0.10            118            243 335 
                                                                                
