 2016  6 3 1934 25.7 L   6.792 -73.133149.4  RSN 13 0.5 2.2LRSN                1
 GAP=138        1.05       4.1     4.5  5.8  0.5270E+00  0.9587E+01  0.6018E+01E
 Epicentro: LOS SANTOS - SANTANDER                                             3
 ACTION:UPD 16-07-21 22:15 OP:rebc STATUS:               ID:20160603193425 L   I
 OLDACT:UP  16-06-04 00:40 OP:ak   STATUS:               ID:20160603192744     3
 OLDACT:REG 16-06-03 21:07 OP:ar   STATUS:               ID:20160603192744     3
 2016-06-03-1927-44M.COL___322                                                 6
 STAT SP IPHASW D HRMM SECON CODA AMPLIT PERI AZIMU VELO AIN AR TRES W  DIS CAZ7
 BAR2 EZ EP       1934 45.60                             171   -0.1310 22.8 194 
 BAR2 EZ ES       1935  1.56                             171    0.1910 22.8 194 
 BAR2 EZ I        1935  2.56        21.2 0.20                          22.8 194 
 BRR  HZ EP       1934 47.47                             153    0.1610 72.8 299 
 BRR  HN ES       1935  4.97                             153    0.7910 72.8 299 
 BRR  HZ I        1935  8.25        16.4 0.23                          72.8 299 
 PAM  EN ES   1   1935  5.86                             152   -0.03 7 77.2  38 
 RUS  HZ EP       1934 49.44                             145   -0.2810 99.6 177 
 RUS  HN ES       1935  8.34                             145   -0.1310 99.6 177 
 PTB  HZ EP       1934 52.22                             133   -0.83 9  149 259 
 PTB  HN ES       1935 13.66                             133   -0.74 9  149 259 
 PTB  HZ I        1935 18.45        12.9 0.21                           149 259 
 SPBC HZ EP   1   1934 54.27                             130   -0.20 7  163 220 
 SPBC HE ES       1935 17.10                             130    0.16 9  163 220 
 SPBC HZ I        1935 19.86        20.8 0.22                           163 220 
 NOR  HZ EP       1935  1.58                             119   -0.11 8  235 235 
 NOR  HN ES       1935 29.20                             119   -0.57 8  235 235 
 NOR  HZ I        1935 37.47        10.8 0.34                           235 235 
 CHI  HZ EP       1935  3.36                             118   -0.17 8  248 196 
 CHI  HN ES       1935 32.96                             118   -0.09 8  248 196 
 CHI  HZ I        1935 38.98         5.9 0.30                           248 196 
 HEL  HZ EP   1   1935  7.22                             115    1.02 6  273 256 
 HEL  HN ES       1935 38.30                             115    0.49 8  273 256 
 HEL  HZ I        1935 44.97         6.3 0.28                           273 256 
 URE  HZ EP   1   1935  6.71                             114   -0.40 6  285 292 
 URE  HE ES   4   1935 37.61                             114   -1.81 0  285 292 
 URE  HZ I        1935 49.73        14.3 0.26                           285 292 
 DBB  SZ EP   1   1935 13.81                             110    0.34 5  341 274 
 DBB  SZ ES       1935 50.27                             110   -0.48 7  341 274 
 ANIL HZ EP   1   1935 16.26                             109    0.60 5  358 225 
 ANIL HN ES       1935 55.55                             109    0.90 6  358 225 
 ANIL HZ I        1936  2.32        16.9 0.30                           358 225 
 PRA  HZ EP       1935 20.07                             107    0.75 6  392 210 
 PRA  HE ES       1936  1.81                             107    0.66 6  392 210 
 PRA  HZ I        1936  5.43         5.7 0.52                           392 210 
                                                                                
