 2017  5 3 1025 18.8 L   6.692 -73.453111.7  RSN  7 0.5 1.6LRSN                1
 GAP=106        0.82       3.1     3.8  6.3 -0.1889E+01 -0.1570E+01  0.2697E+00E
 Epicentro: EL CARMEN - SANTANDER                                              3
 ACTION:UPD 17-06-16 13:32 OP:jn   STATUS:               ID:20170503102518 L   I
 OLDACT:UP  17-05-03 21:12 OP:and  STATUS:               ID:20170503101738     3
 OLDACT:UP  17-05-03 21:12 OP:and  STATUS:               ID:20170503101738     3
 OLDACT:UP  17-05-03 21:11 OP:and  STATUS:               ID:20170503101738     3
 OLDACT:UP  17-05-03 21:11 OP:and  STATUS:               ID:20170503101738     3
 OLDACT:UP  17-05-03 21:11 OP:and  STATUS:               ID:20170503101738     3
 OLDACT:UP  17-05-03 21:11 OP:and  STATUS:               ID:20170503101738     3
 OLDACT:UP  17-05-03 21:08 OP:and  STATUS:               ID:20170503101738     3
 OLDACT:UP  17-05-03 21:07 OP:and  STATUS:               ID:20170503101738     3
 OLDACT:UP  17-05-03 21:07 OP:and  STATUS:               ID:20170503101738     3
 OLDACT:REG 17-05-03 20:30 OP:and  STATUS:               ID:20170503101738     3
 2017-05-03-1018-00M.COL___374                                                 6
 STAT SP IPHASW D HRMM SECON CODA AMPLIT PERI AZIMU VELO AIN AR TRES W  DIS CAZ7
 BRR  HZ EP   2   1025 34.62                             152   -0.71 5 54.1 328 
 BRR  HN ES       1025 48.15                             152   -0.0410 54.1 328 
 BRR  HZ I        1025 48.45        15.8 0.12            152           54.1 328 
 RUS  HZ EP       1025 39.22                             136    0.0810 97.4 155 
 RUS  HN ES       1025 55.25                             136    0.2710 97.4 155 
 RUS  HZ I        1025 56.69         6.9 0.30            136           97.4 155 
 PAM  EZ EP       1025 39.76                             132   -0.4610  110  49 
 PAM  EN ES       1025 56.96                             132    0.0610  110  49 
 PAM  EZ I        1026  0.65         3.2 0.30            133            110  49 
 PTB  HZ IP   9 C 1025 38.39                             131   -1.40 0  112 261 
 PTB  HN ES       1025 54.24                             132   -0.5010  112 261 
 SPBC HN ES       1025 59.93                             125   -0.0710  134 211 
 SPBC HZ I        1026  5.49         6.0 0.09            125            134 211 
 ZAR  HZ EP       1025 46.92                             117    0.41 9  179 300 
 ZAR  HN ES   3   1026  9.43                             117    1.32 2  179 300 
 ZAR  HZ I        1026 11.29         5.4 0.18            117            179 300 
 NOR  HN ES   3   1026 10.92                             114   -1.53 2  200 232 
 NOR  HZ I        1026 13.80         5.4 0.28            114            200 232 
                                                                                
