 2011 11 3 1213 38.7 L   7.399 -73.437115.1  RSN  5 0.2 2.0LRSN                1
 GAP=181        0.43       4.3     2.6  5.0  0.4540E+00  0.7324E+00 -0.5734E+01E
 Epicentro: SABANA DE TORRES - SANTANDER                                       3
 ACTION:UPD 12-07-13 16:07 OP:ep   STATUS:               ID:20111103121338 L   I
 2011-11-03-1211-52S.COL___175                                                 6
 STAT SP IPHASW D HRMM SECON CODA AMPLIT PERI AZIMU VELO AIN AR TRES W  DIS CAZ7
 BRR  HZ EP       1213 54.75                             157   -0.2810 44.3 223 
 BRR  HZ I        1213 55.01        35.1 0.38                          44.3 223 
 BRR  HN ES   1   1214  7.80                             157    0.00 7 44.3 223 
 PAM  SZ EP       1213 58.15                             142    0.1110 81.7  95 
 PAM  SN ES   1   1214 13.06                             142   -0.08 7 81.7  95 
 BAR2 SZ EP       1213 58.83                             137    0.2210 93.6 162 
 BAR2 SZ ES   1   1214 14.21                             137    0.04 7 93.6 162 
 BAR2 SZ I        1214 15.37        19.5 0.48                          93.6 162 
 ZAR  HZ EP   2   1214  4.04                             122   -0.24 5  157 274 
 ZAR  HE ES   2   1214 24.44                             122    0.17 5  157 274 
 ZAR  HZ I        1214 28.31        12.7 0.18                           157 274 
 RUS  HE ES   3   1214 27.81                             119   -0.17 2  171 167 
                                                                                
