 2015  5 3 1725 48.1 L   6.534 -73.649 17.3  RSN 11 0.5 2.0LRSN                1
 GAP= 67        1.11       2.0     2.4  3.9 -0.1187E+01  0.4911E+01 -0.1762E+01E
 Epicentro: SANTA HELENA DEL OPON - SANTANDER                                  3
 ACTION:UPD 15-09-10 22:01 OP:cam  STATUS:               ID:20150503172548 L   I
 OLDACT:UP  15-05-07 06:55 OP:AK   STATUS:               ID:20150503172548 L   3
 OLDACT:REG 15-05-03 21:16 OP:ak   STATUS:               ID:20150503171750     3
 2015-05-03-1717-50M.COL___274                                                 6
 STAT SP IPHASW D HRMM SECON CODA AMPLIT PERI AZIMU VELO AIN AR TRES W  DIS CAZ7
 BAR2 EZ IP     D 1725 57.11                             106   -0.0010 52.1  83 
 BAR2 EZ ES       1726  4.00                             106   -0.1410 52.1  83 
 BAR2 EZ I        1726  4.53        44.0 0.20             90           52.1  83 
 BRR  HZ IP     D 1725 58.73                             103    0.1510 63.8 354 
 BRR  HN ES       1726  6.49                             103   -0.2710 63.8 354 
 BRR  HZ I        1726  7.71        64.8 0.10             90           63.8 354 
 RUS  HZ IP     D 1726  3.55                              99   -0.1410 94.6 138 
 RUS  HN ES       1726 15.06                              99   -0.7910 94.6 138 
 RUS  HZ I        1726 16.63        25.2 0.09             90           94.6 138 
 SPBC HZ EP       1726  5.46                              97    0.1610  108 206 
 SPBC HN ES       1726 19.62                              97    0.9010  108 206 
 SPBC HZ I        1726 22.24        47.8 0.12             90            108 206 
 PAM  SZ IP     C 1726 10.58                              56    0.56 9  138  50 
 PAM  SN ES       1726 27.31                              56    0.19 9  138  50 
 PAM  SZ I        1726 33.41        29.5 0.29             90            138  50 
 ZAR  HZ EP       1726 13.62                              56    0.07 9  171 309 
 ZAR  HN ES       1726 32.96                              56   -0.43 9  171 309 
 ZAR  HZ I        1726 35.90        18.0 0.16             90            171 309 
 NOR  HZ EP       1726 13.85                              56    0.01 9  172 232 
 NOR  HN ES       1726 33.64                              56   -0.28 9  172 232 
 NOR  HZ I        1726 34.78        17.3 0.13             90            172 232 
 OCA  HZ EP   2   1726 17.10                              56    0.68 4  192  11 
 OCA  HN ES   1   1726 39.09                              56    0.59 7  192  11 
 OCA  HZ I        1726 45.82        29.7 0.47             56            192  11 
 HEL  HZ IP     C 1726 19.00                              56   -0.09 8  211 260 
 HEL  HN ES       1726 42.37                              56   -0.89 8  211 260 
 HEL  HZ I        1726 44.11        10.6 0.14             56            211 260 
 CHI  HZ EP   4   1726 22.06                              56    3.00 0  211 182 
 CHI  HN ES   4   1726 49.61                              56    6.40 0  211 182 
 CHI  HZ I        1726 51.99        10.0 0.46             56            211 182 
 GUY2CHZ EP   2   1726 24.10                              56    1.45 4  239 233 
 GUY2CHN ES       1726 49.75                              56    0.15 8  239 233 
 GUY2CHZ I    2   1726 57.79         5.8 0.40                           239 233 
                                                                                
