 2011 12 3 1913 48.3 L   6.766 -73.103144.3  RSN  4 0.3 1.5LRSN                1
 GAP=144        0.72       5.0     7.2  7.4  0.8461E+00  0.1006E+01 -0.4545E+00E
 Epicentro: LOS SANTOS - SANTANDER                                             3
 ACTION:UPD 12-07-13 16:14 OP:ep   STATUS:               ID:20111203191348 L   I
 2011-12-03-1910-00M.COL___182                                                 6
 STAT SP IPHASW D HRMM SECON CODA AMPLIT PERI AZIMU VELO AIN AR TRES W  DIS CAZ7
 BAR2 SZ EP   1   1914  7.67                             171   -0.05 7 21.1 205 
 BAR2 SZ ES   1   1914 23.50                             171    0.65 7 21.1 205 
 BAR2 SZ I        1914 24.36         7.7 0.21                          21.1 205 
 BRR  HZ EP       1914  9.84                             150    0.2010 77.2 299 
 BRR  HZ I        1914 20.14        16.2 0.22                          77.2 299 
 BRR  HE ES   1   1914 25.88                             150   -0.41 7 77.2 299 
 PAM  SZ EP   1   1914 10.65                             150    0.28 7 77.5  35 
 PAM  SE ES   1   1914 27.25                             150   -0.33 7 77.5  35 
 RUS  HZ EP   1   1914 11.35                             145   -0.28 7 96.6 179 
 RUS  HE ES   1   1914 29.60                             145   -0.22 7 96.6 179 
 RUS  HZ I        1914 31.41         2.1 0.28                          96.6 179 
                                                                                
