 2015  5 3 1710 40.1 L   6.789 -73.118140.8  RSN 12 0.4 2.1LRSN                1
 GAP=141        0.92       2.4     3.8  4.8 -0.1619E+01  0.6182E+01  0.2761E+00E
 Epicentro: LOS SANTOS - SANTANDER                                             3
 ACTION:UPD 15-09-10 22:01 OP:cam  STATUS:               ID:20150503171040 L   I
 OLDACT:UP  15-05-07 06:55 OP:AK   STATUS:               ID:20150503171040 L   3
 OLDACT:REG 15-05-03 21:15 OP:ak   STATUS:               ID:20150503170749     3
 2015-05-03-1707-49M.COL___274                                                 6
 STAT SP IPHASW D HRMM SECON CODA AMPLIT PERI AZIMU VELO AIN AR TRES W  DIS CAZ7
 BAR2 EZ IP     C 1710 59.16                             170    0.0710 22.9 198 
 BAR2 EZ ES       1711 13.62                             170   -0.3110 22.9 198 
 BAR2 EZ I        1711 15.31        24.7 0.18            169           22.9 198 
 BRR  HZ IP     C 1711  1.16                             151    0.2910 74.4 298 
 BRR  HN ES       1711 17.66                             151    0.5610 74.4 298 
 BRR  HZ I        1711 22.56        20.7 0.19            149           74.4 298 
 PAM  SZ IP     D 1711  2.34                             150    0.6410 76.5  37 
 PAM  SN ES       1711 18.64                             150    0.0710 76.5  37 
 PAM  SZ I        1711 21.78        17.9 0.24            155           76.5  37 
 RUS  HZ EP       1711  3.03                             143   -0.2010 99.2 178 
 RUS  HE ES       1711 21.35                             143    0.0510 99.2 178 
 RUS  HZ I        1711 22.68        13.4 0.34            146           99.2 178 
 OCA  HZ EP       1711  7.98                             128   -0.16 9  162 352 
 OCA  HN ES       1711 29.49                             128   -0.56 9  162 352 
 OCA  HZ I        1711 33.21        34.4 0.25            130            162 352 
 SPBC HZ IP     C 1711  8.14                             128   -0.14 9  164 220 
 SPBC HN ES       1711 30.55                             128    0.26 9  164 220 
 SPBC HZ I        1711 33.10        21.9 0.07            129            164 220 
 ZAR  HZ EP   2   1711 12.66                             121    0.13 4  207 292 
 ZAR  HN ES       1711 37.55                             121   -0.30 8  207 292 
 ZAR  HZ I        1711 44.84        15.5 0.19            122            207 292 
 NOR  HZ EP       1711 15.76                             117    0.06 8  236 235 
 NOR  HN ES       1711 43.17                             117   -0.33 8  236 235 
 NOR  HZ I        1711 48.61        16.2 0.18            119            236 235 
 SML  HZ EP       1711 16.19                             116   -0.48 8  246 335 
 SML  HN ES       1711 44.95                             116   -0.28 8  246 335 
 CHI  HZ EP       1711 17.22                             116   -0.23 8  248 196 
 CHI  HN ES   1   1711 45.74                             116   -0.87 6  248 196 
 CHI  HZ I        1711 52.30         4.5 0.24            118            248 196 
 HEL  HZ EP       1711 21.18                             114    0.86 8  275 256 
 HEL  HN ES   2   1711 52.31                             114    0.59 4  275 256 
 HEL  HZ I        1711 57.65         9.0 0.26            115            275 256 
 GUY2CHZ EP       1711 24.17                             111    0.52 7  303 235 
 GUY2CHE ES       1711 57.20                             111   -0.44 7  303 235 
 GUY2CHZ I        1712  6.52         8.8 0.36                           303 235 
                                                                                
