 2011  1 3 1447 26.7 L   6.805 -73.163143.3  RSN  6 0.4 2.0LRSN                1
 GAP=157        0.60       4.6     8.9  7.9 -0.2264E+02  0.2544E+02 -0.2771E+01E
 Epicentro: LOS SANTOS - SANTANDER                                             3
 ACTION:UP  11-02-08 08:38 OP:pat  STATUS:               ID:20110103144726 L   I
 2011-01-03-1440-00M.COL___137                                                 6
 STAT SP IPHASW D HRMM SECON CODA AMPLIT PERI AZIMU VELO SNR AR TRES W  DIS CAZ7
 BTL  SZ EP   1   1447 46.10                             173     0.2 7   17 317 
 BAR2 SZ EP   1   1447 45.93                             170    -0.1 7   24 185 
 BAR2 SZ ES   2   1448  1.00                             170    -0.1 5   24 185 
 BAR2 SZ I        1448  2.14        22.1 0.49                            24 185 
 RUS  HZ EP   1   1447 50.12                             143    -0.1 7  101 175 
 RUS  HN ES   2   1448  8.23                             143    -0.4 5  101 175 
 RUS  HZ I        1448  9.38        11.1 0.41                           101 175 
 GRA  SZ EP   1   1447 51.65                             136    -0.1 7  126  18 
 GRA  SZ ES   2   1448 11.51                             136     0.3 5  126  18 
 GRA  SZ I        1448 14.28        30.1 0.34                           126  18 
 NOR  SZ EP   1   1448  1.91                             118    -0.2 6  234 234 
 NOR  SN ES   2   1448 29.83                             118     0.0 4  234 234 
 CHI  HZ EP   1   1448  4.15                             117    -0.1 6  249 195 
 CHI  HZ I        1448  6.07         5.9 0.14                           249 195 
 CHI  HN ES   2   1448 34.81                             117     1.3 4  249 195 
                                                                                
