 2017  1 3 1954 22.5 L   6.825 -73.118143.3  RSN  8 0.6 1.9LRSN                1
 GAP=139        1.44       5.7     6.3  8.6  0.4198E+01  0.1546E+02  0.1014E+02E
 Epicentro: LOS SANTOS - SANTANDER                                             3
 ACTION:UPD 17-05-22 15:55 OP:jn   STATUS:               ID:20170103195422 L   I
 OLDACT:UP  17-01-04 00:32 OP:dnl  STATUS:               ID:20170103194746     3
 OLDACT:REG 17-01-03 21:05 OP:ndl  STATUS:               ID:20170103194746     3
 2017-01-03-1948-00M.COL___369                                                 6
 STAT SP IPHASW D HRMM SECON CODA AMPLIT PERI AZIMU VELO AIN AR TRES W  DIS CAZ7
 BAR2 EZ EP       1954 41.81                             169   -0.0610 26.7 196 
 BAR2 EZ ES       1954 56.02                             169   -0.9810 26.7 196 
 BAR2 EZ I        1955  6.39        22.4 0.72            166           26.7 196 
 BRR  HZ IP     C 1954 43.51                             152    0.0810 72.7 295 
 BRR  HN ES       1955  0.56                             152    0.7810 72.7 295 
 BRR  HZ I        1955  5.16        18.5 0.46            154           72.7 295 
 PAM  EZ IP     C 1954 44.65                             152    0.4810 73.3  39 
 PAM  EE ES       1955  1.42                             152    0.3210 73.3  39 
 PAM  EZ I        1955  2.05         9.5 0.20            160           73.3  39 
 RUS  HZ EP       1954 45.92                             142   -0.2410  103 178 
 RUS  HN ES       1955  4.38                             142   -0.2610  103 178 
 RUS  HZ I        1955  7.22         5.5 0.44            145            103 178 
 PTB  HZ EP       1954 48.56                             131   -1.00 9  151 258 
 PTB  HE ES       1955 11.19                             131    0.50 9  151 258 
 PTB  HZ I        1955 15.16        13.5 0.28            134            151 258 
 ZAR  HZ EP       1954 54.44                             121   -0.50 8  206 291 
 ZAR  HE ES       1955 19.85                             121   -0.42 8  206 291 
 ZAR  HZ I        1955 22.73        12.1 0.24            126            206 291 
 CHI  HZ EP       1955  0.47                             116    0.07 8  252 196 
 CHI  HE ES       1955 30.98                             116    0.98 8  252 196 
 CHI  HZ I        1955 37.52         5.6 0.38            120            252 196 
 GUY2CHZ EP       1955  7.11                             111    0.69 7  305 235 
 GUY2CHE ES   4   1955 42.84                             111    2.13 0  305 235 
 GUY2CHZ  IAML    1955 50.21         6.4 0.40                           305 235 
                                                                                
