 2013  7 3 1734 27.5 L   6.768 -73.151141.8  RSN  7 0.5 1.8LRSN                1
 GAP=137        1.22       5.8     5.3  7.4  0.2286E+01  0.1070E+02  0.1576E+01E
 Epicentro: LOS SANTOS - SANTANDER                                             3
 ACTION:UPD 13-08-12 10:35 OP:ep   STATUS:               ID:20130703173427 L   I
 OLDACT:REG 13-07-03 14:18 OP:jn   STATUS:               ID:20130703172960d    3
 2013-07-03-1729-59M.COL___266                                                 6
 STAT SP IPHASW D HRMM SECON CODA AMPLIT PERI AZIMU VELO AIN AR TRES W  DIS CAZ7
 BAR2 SZ EP       1734 46.41                             172   -0.1810 19.7 190 
 BAR2 SZ ES       1735  1.60                             172    0.1310 19.7 190 
 BAR2 SZ I        1735  3.09        12.3 0.26            174           19.7 190 
 GIR2 SZ EP       1734 46.61                             166   -0.2010 34.7 352 
 GIR2 SZ ES       1735  2.04                             166    0.1810 34.7 352 
 GIR2 SZ I        1735  3.97        13.6 0.10            164           34.7 352 
 BRR  HZ IP     D 1734 48.41                             151    0.1110 72.5 301 
 BRR  HN ES       1735  4.73                             151    0.2110 72.5 301 
 BRR  HZ I        1735  8.06        21.7 0.30            150           72.5 301 
 PAM  SZ IP     D 1734 49.32                             149   -0.1810 80.6  38 
 PAM  SN ES       1735  6.44                             149   -0.2110 80.6  38 
 PAM  SZ I        1735 10.50         5.6 0.48            150           80.6  38 
 RUS  HZ EP       1734 50.58                             144   -0.0410 97.0 176 
 RUS  HN ES       1735  8.90                             144    0.2710 97.0 176 
 RUS  HZ I        1735 10.00         7.4 0.34            148           97.0 176 
 PTB  HZ EP       1734 53.23                             131   -0.81 9  147 260 
 PTB  HN ES       1735 14.52                             131   -0.21 9  147 260 
 PTB  HZ I        1735 16.51        12.6 0.12            133            147 260 
 ZAR  HZ EP       1735  1.35                             121    1.57 9  205 293 
 ZAR  HE ES       1735 24.49                             121   -0.47 9  205 293 
 ZAR  HZ I        1735 31.50        11.3 0.34            123            205 293 
                                                                                
