 2012  2 3 1314 23.9 L   6.733 -73.106149.9  RSN  5 0.3 1.6LRSN                1
 GAP=193        0.64       5.4     5.6  6.1  0.1159E+02 -0.4200E+01 -0.3436E+01E
 ACTION:UP  12-03-07 16:27 OP:epov STATUS:               ID:20120203131423 L   I
 2012-02-03-1310-00M.COL___187                                                 6
 STAT SP IPHASW D HRMM SECON CODA AMPLIT PERI AZIMU VELO SNR AR TRES W  DIS CAZ7
 BAR2 SZ EP       1314 43.86                             173   -0.1210 17.7 208 
 BAR2 SZ ES   1   1314 59.12                             173   -0.48 7 17.7 208 
 BAR2 SZ I        1315  0.92         7.4 0.19                          17.7 208 
 GIR2 SZ EP       1314 44.24                             165   -0.1110 39.5 346 
 BRR  HZ EP       1314 46.10                             151    0.1210 78.7 302 
 BRR  HE ES       1315  3.44                             151    0.2810 78.7 302 
 BRR  HZ I        1315  5.73        14.1 0.76                          78.7 302 
 RUS  HZ EP   1   1314 48.02                             147    0.44 7 92.9 178 
 RUS  HN ES   1   1315  6.18                             147    0.17 7 92.9 178 
 RUS  HZ I        1315  8.04         4.0 0.42                          92.9 178 
 PTB  HZ EP   1   1314 51.12                             132   -0.41 7  151 262 
 PTB  HE ES   1   1315 12.94                             132   -0.10 7  151 262 
                                                                                
