 2012  7 3 1141  3.7 L   6.791 -73.163142.0  RSN 12 0.4 2.5LRSN                1
 GAP= 64        1.06       4.2     4.5  7.1  0.2599E+01  0.4975E+01  0.4542E+01E
 Epicentro: LOS SANTOS - SANTANDER                                             3
 ACTION:UPD 12-08-14 11:42 OP:ep   STATUS:               ID:20120703114103 L   I
 2012-07-03-1140-00S.COL___215                                                 6
 STAT SP IPHASW D HRMM SECON CODA AMPLIT PERI AZIMU VELO AIN AR TRES W  DIS CAZ7
 BAR2 SZ EP       1141 22.79                             171     0.010   22 186 
 BAR2 SZ ES   1   1141 37.06                             171    -0.7 7   22 186 
 BAR2 SZ I        1141 40.55        62.8 0.26            157             22 186 
 BRR  HZ EP       1141 24.51                             152     0.210   70 300 
 BRR  HZ I        1141 24.88        81.2 0.14            139             70 300 
 BRR  HN ES   1   1141 41.32                             152     0.9 7   70 300 
 PAM  SZ EP   1   1141 25.68                             149     0.1 7   79  40 
 PAM  SN ES   1   1141 42.51                             149    -0.2 7   79  40 
 PAM  SZ I        1141 44.30        24.6 0.38            145             79  40 
 RUS  HZ EP       1141 26.84                             143    -0.110  100 175 
 RUS  HN ES   1   1141 45.15                             143     0.0 7  100 175 
 RUS  HZ I        1141 47.27        37.5 0.29            127            100 175 
 PTB  HZ EP       1141 29.41                             132    -0.7 9  146 259 
 PTB  HN ES   1   1141 50.32                             132    -0.5 7  146 259 
 PTB  HZ I        1141 53.07        60.3 0.19            117            146 259 
 TAM  HZ EP   1   1141 31.18                             129     0.0 7  157 104 
 TAM  HZ I        1141 31.63        55.5 0.23            118            157 104 
 OCA  HZ EP   1   1141 31.08                             129    -0.7 7  161 354 
 OCA  HN ES   1   1141 54.33                             129     0.7 7  161 354 
 YOP  SZ EP   1   1141 33.73                             125     0.3 7  179 153 
 YOP  SN ES   1   1141 57.20                             125     0.6 7  179 153 
 ZAR  HZ EP   1   1141 35.45                             122    -0.3 6  203 293 
 ZAR  HN ES   1   1142  0.87                             122     0.1 6  203 293 
 ZAR  HZ I        1142  7.28        39.2 0.27            110            203 293 
 NOR  SZ EP   1   1141 39.14                             118     0.2 6  233 234 
 NOR  SN ES   1   1142  7.01                             118     0.6 6  233 234 
 CHI  HZ EP   1   1141 41.10                             116     0.1 6  247 195 
 CHI  HZ I        1142 19.76        10.8 0.33            106            247 195 
 HEL  HZ EP   1   1141 44.04                             114     0.6 6  270 256 
 HEL  HZ I        1142 21.61        22.2 0.61            105            270 256 
