 2011 12 3 1327 13.9 L   6.275 -73.836 89.2  RSN  4 0.3 1.9LRSN                1
 GAP=133        0.55       4.9     7.7 14.2  0.2581E+02  0.8636E+02  0.4766E+02E
 Epicentro: LANDAZURI - SANTANDER                                              3
 ACTION:UPD 12-07-13 16:13 OP:ep   STATUS:               ID:20111203132713 L   I
 2011-12-03-1320-00M.COL___179                                                 6
 STAT SP IPHASW D HRMM SECON CODA AMPLIT PERI AZIMU VELO AIN AR TRES W  DIS CAZ7
 BAR2 SZ ES   1   1327 42.92                             135   -0.46 7 80.4  64 
 BAR2 SZ I        1327 44.08        21.8 0.13                          80.4  64 
 BRR  HZ EP   1   1327 31.38                             130    0.06 7 93.1   8 
 BRR  HZ I        1327 33.75        19.8 0.35                          93.1   8 
 BRR  HN ES   1   1327 45.08                             130    0.21 7 93.1   8 
 RUS  HZ EP       1327 32.02                             131    0.0110 93.4 117 
 RUS  HN ES   1   1327 46.38                             131    0.28 7 93.4 117 
 NOR  SZ EP   2   1327 35.81                             118   -0.27 5  139 236 
                                                                                
