 2011  9 3 1457 14.5 L   6.855 -72.984141.9  RSN  4 0.1 1.6LRSN                1
 GAP=229        0.36       5.1     9.1  4.5  0.3548E+02 -0.1465E+02 -0.5485E+01E
 Epicentro: CEPITA - SANTANDER                                                 3
 ACTION:UPD 12-07-13 15:55 OP:ep   STATUS:               ID:20110903145714 L   I
 2011-09-03-1456-41S.COL___171                                                 6
 STAT SP IPHASW D HRMM SECON CODA AMPLIT PERI AZIMU VELO AIN AR TRES W  DIS CAZ7
 GIR2 SZ ES   2   1457 49.09                             166    0.21 5 33.9 317 
 BAR2 SZ EP   1   1457 33.98                             165   -0.07 7 36.4 217 
 BAR2 SZ ES   1   1457 49.06                             165   -0.21 7 36.4 217 
 BAR2 SZ I        1457 50.79         6.7 0.18                          36.4 217 
 BRR  HZ EP   1   1457 36.22                             147    0.09 7 85.1 289 
 BRR  HZ I        1457 39.23        17.0 0.26                          85.1 289 
 BRR  HE ES   1   1457 52.97                             147   -0.01 7 85.1 289 
 RUS  HZ EP   1   1457 38.34                             141   -0.05 7  107 186 
 RUS  HN ES   1   1457 57.17                             141    0.17 7  107 186 
 RUS  HZ I        1457 57.99         3.5 0.31                           107 186 
                                                                                
