 2011  6 3 1035 14.0 L   6.779 -73.120145.6  RSN 10 0.3 2.0LRSN                1
 GAP=141        0.87       4.3     6.7  6.5 -0.1242E+02  0.1460E+02 -0.3104E+01E
 Epicentro: LOS SANTOS - SANTANDER                                             3
 ACTION:UP  11-07-14 19:02 OP:ep   STATUS:               ID:20110603103514 L   I
 2011-06-03-1030-30S.COL___132                                                 6
 STAT SP IPHASW D HRMM SECON CODA AMPLIT PERI AZIMU VELO SNR AR TRES W  DIS CAZ7
 BAR2 SZ EP   1   1035 33.29                             171    -0.3 7   22 199 
 BAR2 SZ ES   1   1035 48.66                             171    -0.2 7   22 199 
 BAR2 SZ I        1035 49.56        28.8 0.35                            22 199 
 GIR2 SZ EP       1035 34.49                             166     0.810   34 346 
 BRR  HZ EP   1   1035 35.12                             151    -0.2 7   75 299 
 BRR  HZ I        1035 35.50        57.3 0.13                            75 299 
 BRR  HE ES   1   1035 52.23                             151     0.3 7   75 299 
 PAM  SZ EP   1   1035 36.27                             151     0.1 7   77  37 
 PAM  SZ I        1035 36.78         3.7 0.18                            77  37 
 PAM  SN ES   1   1035 53.36                             151    -0.1 7   77  37 
 RUS  HZ EP   1   1035 37.44                             144    -0.1 7   98 178 
 RUS  HN ES   1   1035 55.97                             144     0.1 7   98 178 
 RUS  HZ I        1035 57.01         7.9 0.35                            98 178 
 GRA  SZ ES   1   1035 58.79                             137    -0.3 7  127  16 
 GRA  SZ I        1036  1.78         7.7 0.32                           127  16 
 OCA  SZ EP   1   1035 42.31                             129    -0.2 7  163 352 
 OCA  SZ IPg      1035 42.32                             129    -0.2 9  163 352 
 NOR  SZ EP   1   1035 49.55                             118    -0.3 6  236 235 
 NOR  SN ES   1   1036 17.21                             118    -0.5 6  236 235 
 HEL  HZ EP   1   1035 55.06                             114     0.6 6  274 256 
 HEL  HZ I        1036 33.05         4.7 0.27                           274 256 
 PRA  HZ EP   1   1036  7.42                             106     0.0 4  391 210 
 PRA  HZ I        1036 52.44         8.5 0.24                           391 210 
                                                                                
