 2012 11 3 1012 39.2 L   6.780 -73.109145.7  RSN  6 0.3 1.9LRSN                1
 GAP=142        0.69       2.9     4.3  5.1 -0.1218E-02  0.2019E+01  0.3825E+01E
 Epicentro: LOS SANTOS - SANTANDER                                             3
 ACTION:UPD 12-12-05 15:31 OP:}ep  STATUS:               ID:20121103101206 L   I
 2012-11-03-1010-00M.COL___234                                                 6
 STAT SP IPHASW D HRMM SECON CODA AMPLIT PERI AZIMU VELO AIN AR TRES W  DIS CAZ7
 BAR2 SZ EP       1012 58.47                             171   -0.3810 22.3 201 
 BAR2 SZ ES       1013 13.77                             171   -0.3810 22.3 201 
 BAR2 SZ I        1013 15.14        14.6 0.36                          22.3 201 
 BRR  HZ EP   1   1013  0.80                             151    0.14 7 75.8 299 
 BRR  HE ES       1013 17.67                             151    0.3110 75.8 299 
 BRR  HN I        1013 18.35        30.4 0.28                          75.8 299 
 PAM  SZ IP     C 1013  1.68                             151    0.2710 76.6  36 
 PAM  SN ES       1013 18.67                             151   -0.0310 76.6  36 
 PAM  SN I        1013 19.11         9.1 0.36                          76.6  36 
 RUS  HZ EP       1013  2.64                             144   -0.1810 98.2 178 
 RUS  HE ES       1013 21.58                             144    0.3710 98.2 178 
 RUS  HN I        1013 22.94         5.9 0.40                          98.2 178 
 ZAR  HE ES   1   1013 37.58                             122   -0.26 6  209 292 
 ZAR  HN I        1013 42.37        11.3 0.24                           209 292 
 CHI  HZ EP   1   1013 16.98                             117    0.15 6  248 196 
 CHI  HN ES       1013 46.17                             117    0.02 8  248 196 
 CHI  HN I        1013 48.49         6.1 0.30                           248 196 
                                                                                
