 2011  9 3 1320 39.7 L   6.749 -73.160137.3  RSN  7 0.3 1.9LRSN                1
 GAP=137        0.70       4.3     4.7  6.0  0.3526E+01  0.6046E+01  0.2439E+00E
 Epicentro: LOS SANTOS - SANTANDER                                             3
 ACTION:UPD 12-07-13 15:55 OP:ep   STATUS:               ID:20110903132039 L   I
 2011-09-03-1317-33S.COL___169                                                 6
 STAT SP IPHASW D HRMM SECON CODA AMPLIT PERI AZIMU VELO AIN AR TRES W  DIS CAZ7
 BAR2 SZ EP       1320 58.16                             172   -0.0710 17.6 188 
 BAR2 SZ ES   1   1321 12.21                             172   -0.46 7 17.6 188 
 BAR2 SZ I        1321 15.43        23.6 0.26                          17.6 188 
 GIR2 SZ EP   1   1320 58.20                             164   -0.36 7 36.6 354 
 GIR2 SZ ES   1   1321 13.40                             164    0.15 7 36.6 354 
 BRR  HZ EP   1   1320 59.98                             150   -0.08 7 72.7 303 
 BRR  HE ES   1   1321 16.21                             150    0.29 7 72.7 303 
 BRR  HZ I        1321 19.87        17.4 0.12                          72.7 303 
 PAM  SZ EP   1   1321  1.11                             147   -0.28 7 82.7  38 
 RUS  HZ EP   1   1321  2.58                             143    0.33 7 95.1 175 
 RUS  HE ES   1   1321 20.27                             143    0.45 7 95.1 175 
 RUS  HZ I        1321 22.32        13.8 0.26                          95.1 175 
 ZAR  HZ EP   1   1321 12.35                             120    0.64 6  205 294 
 ZAR  HN ES   1   1321 36.61                             120   -0.05 6  205 294 
 ZAR  HZ I        1321 41.38         6.1 0.29                           205 294 
 NOR  SN ES   1   1321 41.06                             117   -0.54 6  230 235 
                                                                                
