 2012  4 3 1029 38.5 L   6.787 -73.131142.4  RSN  9 0.3 2.3LRSN                1
 GAP=116        0.84       3.6     5.0  5.6  0.4612E+01  0.4932E+01  0.3458E+01E
 Epicentro: LOS SANTOS - SANTANDER                                             3
 ACTION:UPD 12-07-05 11:50 OP:tino STATUS:               ID:20120403102938 L   I
 2012-04-03-1028-12M.COL___172                                                 6
 STAT SP IPHASW D HRMM SECON CODA AMPLIT PERI AZIMU VELO AIN AR TRES W  DIS CAZ7
 BAR2 SZ IP     D 1029 57.62                             171     0.010   22 195 
 BAR2 SZ ES   1   1030 12.50                             171    -0.1 7   22 195 
 BAR2 SZ I        1030 13.97        47.1 0.20                            22 195 
 BRR  HZ IP     D 1029 59.32                             151     0.010   73 299 
 BRR  HZ I        1029 59.49        50.5 0.16                            73 299 
 BRR  HN ES   1   1030 16.22                             151     0.5 7   73 299 
 PAM  SZ EP       1030  0.27                             150     0.010   77  38 
 PAM  SE ES   1   1030 16.88                             150    -0.5 7   77  38 
 RUS  HZ EP       1030  1.50                             143    -0.310   99 177 
 RUS  HN ES   1   1030 20.07                             143     0.1 7   99 177 
 RUS  HZ I        1030 21.47        27.3 0.40                            99 177 
 OCA  SZ EP       1030  7.32                             128     0.7 9  162 353 
 YOP  SZ EP       1030  8.30                             126     0.2 9  177 154 
 YOP  SN ES   2   1030 31.13                             126     0.0 4  177 154 
 YOP  SZ I        1030 33.76        13.2 0.32                           177 154 
 ZAR  HZ EP       1030 10.46                             121    -0.4 8  206 292 
 ZAR  HN ES   1   1030 35.94                             121    -0.3 6  206 292 
 ZAR  HZ I        1030 41.27        25.1 0.32                           206 292 
 CHI  HZ EP       1030 15.94                             116     0.1 8  248 196 
 CHI  HN ES   2   1030 45.79                             116     0.7 4  248 196 
 CHI  HZ I        1030 51.36        10.1 0.30                           248 196 
 PRA  HZ EP       1030 31.54                             106    -0.3 6  392 210 
                                                                                
