 2016  3 3 1559  6.2 L   6.311 -73.187178.3  RSN 12 0.5 2.4LRSN                1
 GAP=141        1.20       3.9     4.6  6.6 -0.3493E+01  0.7598E+01 -0.3309E+01E
 Epicentro: CHARALA - SANTANDER                                                3
 ACTION:UPD 16-05-13 21:21 OP:cam  STATUS:               ID:20160303155906 L   I
 OLDACT:UP  16-03-04 01:36 OP:ar   STATUS:               ID:20160303155748     3
 OLDACT:REG 16-03-03 23:29 OP:ar   STATUS:               ID:20160303155748     3
 2016-03-03-1557-48M.COL___322                                                 6
 STAT SP IPHASW D HRMM SECON CODA AMPLIT PERI AZIMU VELO AIN AR TRES W  DIS CAZ7
 BAR2 EZ EP       1559 29.82                             170   -0.1210 31.1   1 
 BAR2 EZ ES       1559 47.95                             170   -0.4710 31.1   1 
 BAR2 EZ I        1559 49.70        83.4 0.28            168           31.1   1 
 RUS  HZ EP       1559 30.58                             165   -0.1810 47.6 166 
 RUS  HN ES       1559 50.25                             165    0.3510 47.6 166 
 RUS  HZ I        1559 51.80        35.8 0.32            168           47.6 166 
 SPBC HZ EP       1559 34.39                             144    0.2210  122 233 
 SPBC HN ES       1559 55.99                             144    0.0310  122 233 
 SPBC HZ I        16 0  0.04        41.6 0.10            144            122 233 
 PAM  EZ EP       1559 35.11                             143    0.1110  126  25 
 PAM  EN ES       1559 57.67                             143    0.2310  126  25 
 PAM  EZ I        16 0  0.62        11.5 0.22            146            126  25 
 PTB  HZ EP       1559 35.52                             140   -0.10 9  143 280 
 PTB  HN ES       1559 59.11                             140    0.57 9  143 280 
 PTB  HZ I        16 0  2.95        33.8 0.16            139            143 280 
 CHI  HZ EP       1559 40.29                             130   -0.44 9  195 198 
 CHI  HN ES       16 0  7.16                             130   -0.48 9  195 198 
 CHI  HZ I        16 0  9.09         6.1 0.58            133            195 198 
 NOR  HZ EP       1559 42.10                             129    1.07 9  204 246 
 NOR  HN ES       16 0  8.01                             129   -0.16 9  204 246 
 NOR  HZ I        16 0 15.49        12.1 0.22            130            204 246 
 OCA  HZ EP       1559 42.36                             128    0.25 8  214 356 
 OCA  HN ES       16 0  9.75                             128   -0.35 8  214 356 
 OCA  HZ I        16 0 16.96        36.5 0.44            129            214 356 
 ZAR  HZ EP       1559 42.74                             126   -0.40 8  226 305 
 ZAR  HN ES       16 0 12.70                             126    0.76 8  226 305 
 ZAR  HZ I        16 0 20.86        32.8 0.38            126            226 305 
 HEL  HZ EP       1559 47.97                             122    0.98 8  260 267 
 HEL  HN ES       16 0 18.06                             122   -0.72 8  260 267 
 HEL  HZ I        16 0 27.88         8.1 0.22            123            260 267 
 GUY2CHZ EP   4   1559 49.89                             121    1.72 0  269 244 
 GUY2CHN ES   4   16 0 23.08                             121    2.21 0  269 244 
 GUY2CHZ I        16 0 26.96         9.3 0.60                           269 244 
 URE  HZ EP       1559 50.55                             118   -0.71 7  304 302 
 URE  HN ES       16 0 25.42                             118   -0.97 7  304 302 
 URE  HZ I        16 0 27.94        16.0 0.12            119            304 302 
                                                                                
