 2015 11 3 1114 51.2 L   6.510 -73.482116.0  RSN  8 0.4 1.6LRSN                1
 GAP= 72        0.69       3.2     5.4  8.3  0.5875E+00  0.2323E+02 -0.1151E+02E
 Epicentro: SIMACOTA - SANTANDER                                               3
 ACTION:UPD 15-12-28 16:08 OP:cam  STATUS:               ID:20151103111451 L   I
 OLDACT:UP  15-12-17 20:42 OP:cam  STATUS:               ID:20151103111451 L   3
 OLDACT:UP  15-11-19 06:49 OP:CARA STATUS:               ID:20151103111451 L   3
 OLDACT:REG 15-11-03 20:55 OP:ar   STATUS:               ID:20151103110749     3
 2015-11-03-1107-49M.COL___310                                                 6
 STAT SP IPHASW D HRMM SECON CODA AMPLIT PERI AZIMU VELO AIN AR TRES W  DIS CAZ7
 BAR2 EZ EP   2   1115  7.50                             163   -0.06 5 34.4  75 
 BAR2 EZ ES   2   1115 20.49                             163    0.13 5 34.4  75 
 BAR2 EZ I        1115 21.37        29.0 0.48            167           34.4  75 
 BRR  HZ EP       1115  8.81                             147   -0.3310 70.7 339 
 RUS  HZ EP       1115 10.29                             144   -0.3010 81.3 147 
 RUS  HN ES       1115 26.16                             144    0.4110 81.3 147 
 RUS  HZ I        1115 27.70         3.8 0.38            149           81.3 147 
 SPBC HZ EP   1   1115 12.93                             133    0.09 7  115 215 
 SPBC HN ES   2   1115 28.97                             133   -0.78 5  115 215 
 SPBC HZ I        1115 32.46         8.7 0.28            135            115 215 
 PAM  EZ EP   2   1115 14.75                             130    0.36 5  126  43 
 PAM  EE ES   2   1115 32.30                             130   -0.21 5  126  43 
 PAM  EZ I        1115 33.70         3.7 0.42            134            126  43 
 ZAR  HZ EP   2   1115 20.31                             118    0.35 4  187 306 
 ZAR  HN ES   2   1115 43.13                             118    0.69 4  187 306 
 ZAR  HZ I        1115 44.24         5.2 0.56            120            187 306 
 GUY2CHZ EP   2   1115 28.65                             110    0.76 4  252 236 
 GUY2CHN ES   4   1115 58.10                             110    1.55 0  252 236 
 GUY2CHZ I        1116  1.13         2.2 0.64                           252 236 
 SML  HZ EP       1115 28.06                             109   -0.29 8  262 346 
 SML  HE ES       1115 57.64                             109    0.28 8  262 346 
 SML  HZ I        1116  3.81         5.2 0.44            111            262 346 
                                                                                
