 2017  8 3 1355 47.9 L   6.752 -73.121146.1  RSN  7 0.5 1.5LRSN                1
 GAP=142        0.87       4.3     3.9  5.9  0.9833E+00  0.6464E+01  0.4837E+00E
 Epicentro: LOS SANTOS - SANTANDER                                             3
 ACTION:UPD 17-09-04 20:15 OP:rebc STATUS:               ID:20170803135547 L   I
 OLDACT:REG 17-08-03 21:25 OP:dhb  STATUS:               ID:20170803134239     3
 2017-08-03-1348-00M.COL___383                                                 6
 STAT SP IPHASW D HRMM SECON CODA AMPLIT PERI AZIMU VELO AIN AR TRES W  DIS CAZ7
 BAR2 EZ IP     D 1356  7.55                             172    0.0610 18.9 201 
 BAR2 EZ ES       1356 22.57                             172   -0.2010 18.9 201 
 BAR2 EZ I        1356 26.82         5.2 0.23            173           18.9 201 
 BRR  HE ES       1356 26.14                             151    0.0210 76.2 301 
 PAM  EZ IP     C 1356 10.51                             150    0.2110 79.9  36 
 PAM  EN ES       1356 27.66                             150   -0.1210 79.9  36 
 PAM  EZ I        1356 29.90         6.6 0.20            152           79.9  36 
 RUS  HZ EP       1356 11.78                             145    0.4810 95.2 177 
 RUS  HN ES       1356 29.48                             145   -0.0710 95.2 177 
 RUS  HZ I        1356 30.72         4.5 0.38            149           95.2 177 
 PTB  HZ EP       1356 14.45                             132   -0.60 9  149 261 
 PTB  HE ES       1356 36.31                             132    0.08 9  149 261 
 PTB  HZ I        1356 37.85         2.7 0.16            133            149 261 
 ZAR  HZ EP       1356 20.81                             122   -0.02 8  209 293 
 ZAR  HN ES       1356 46.76                             122    0.24 8  209 293 
 ZAR  HZ I        1356 52.56         4.1 0.13            123            209 293 
 GUY2CHZ EP   2   1356 29.53                             112   -1.90 4  300 236 
 GUY2CHE ES   2   1357  6.51                             112    1.12 4  300 236 
 GUY2CHZ I        1357 12.79         1.2 0.35                           300 236 
                                                                                
