 2016 11 3 1121 47.3 L   6.780 -73.179142.0  RSN  7 0.4 1.8LRSN                1
 GAP=133        0.98       4.0     4.1  6.3 -0.4489E+00  0.6713E+01  0.2584E+00E
 Epicentro: LOS SANTOS - SANTANDER                                             3
 ACTION:UPD 17-10-26 21:04 OP:lp   STATUS:               ID:20161103112147 L   I
 OLDACT:REG 16-11-03 19:53 OP:cog  STATUS:               ID:20161103111745     3
 2016-11-03-1118-00M.COL___337                                                 6
 STAT SP IPHASW D HRMM SECON CODA AMPLIT PERI AZIMU VELO AIN AR TRES W  DIS CAZ7
 BAR2 HZ EP       1122  6.50                             171    0.0710 20.8 181 
 BAR2 HZ ES       1122 20.92                             171   -0.4310 20.8 181 
 BAR2 HZ I        1122 22.89        23.5 0.38            173           20.8 181 
 BRR  HZ EP       1122  8.38                             153    0.4510 69.1 302 
 BRR  HN ES       1122 24.68                             153    0.6610 69.1 302 
 BRR  HZ I        1122 29.03        11.3 0.18            153           69.1 302 
 PAM  EZ EP       1122  8.86                             149   -0.5110 81.4  41 
 PAM  EN ES       1122 26.64                             149    0.0510 81.4  41 
 PAM  EZ I        1122 28.87        10.1 0.53            152           81.4  41 
 RUS  HZ EP       1122 10.48                             144   -0.0710 98.7 174 
 RUS  HE ES       1122 28.88                             144    0.2010 98.7 174 
 RUS  HZ I        1122 29.95         8.8 0.20            147           98.7 174 
 PTB  HZ EP       1122 13.15                             132   -0.45 9  144 259 
 PTB  HN ES       1122 33.67                             132   -0.44 9  144 259 
 PTB  HZ I        1122 36.75         8.9 0.12            134            144 259 
 SPBC HZ EP       1122 15.49                             129    0.36 9  159 218 
 SPBC HE ES       1122 36.91                             129    0.07 9  159 218 
 SPBC HZ I        1122 38.75        10.3 0.17            132            159 218 
 ZAR  HZ EP       1122 19.64                             122    0.40 9  202 293 
 ZAR  HN ES       1122 43.77                             122   -0.38 9  202 293 
                                                                                
