 2015  9 3 1858 56.6 L   6.777 -73.137143.2  RSN 10 0.5 1.9LRSN                1
 GAP=139        1.14       3.5     4.6  6.3 -0.1066E+01  0.9474E+01  0.1039E+01E
 Epicentro: LOS SANTOS - SANTANDER                                             3
 ACTION:UPD 15-10-28 16:23 OP:cam  STATUS:               ID:20150903185856 L   I
 OLDACT:REG 15-09-03 21:51 OP:ak   STATUS:               ID:20150903185750     3
 2015-09-03-1857-50M.COL___337                                                 6
 STAT SP IPHASW D HRMM SECON CODA AMPLIT PERI AZIMU VELO AIN AR TRES W  DIS CAZ7
 BAR2 EZ EP       1859 16.02                             171    0.0910 21.1 194 
 BAR2 EZ ES       1859 30.92                             171   -0.0410 21.1 194 
 BAR2 EZ I        1859 32.29        34.6 0.16            163           21.1 194 
 BRR  HZ EP       1859 17.69                             151    0.0510 73.3 300 
 BRR  HN ES       1859 34.66                             151    0.6410 73.3 300 
 PAM  EZ EP       1859 18.78                             150    0.1110 78.7  38 
 PAM  EN ES       1859 36.04                             150    0.1910 78.7  38 
 PAM  EZ I        1859 38.02         9.0 0.46            143           78.7  38 
 RUS  HZ EP   1   1859 20.25                             144    0.29 7 98.0 177 
 RUS  HN ES       1859 37.54                             144   -0.6110 98.0 177 
 RUS  HZ I        1859 39.70        14.0 0.32            133           98.0 177 
 PTB  HZ EP       1859 23.15                             131   -0.30 9  148 260 
 PTB  HN ES       1859 43.53                             131   -0.83 9  148 260 
 PTB  HZ I        1859 46.17         9.1 0.22            126            148 260 
 ZAR  HZ EP       1859 30.02                             121    0.90 8  206 293 
 ZAR  HN ES       1859 55.04                             121    0.59 8  206 293 
 NOR  HZ EP       1859 31.92                             118   -0.24 8  234 235 
 NOR  HN ES       1859 59.90                             118    0.04 8  234 235 
 NOR  HZ I        19 0  1.96         5.3 0.11            111            234 235 
 SML  HZ EP       1859 32.75                             117   -0.67 8  246 335 
 SML  HN ES       19 0  1.25                             117   -0.86 8  246 335 
 CHI  HZ EP       1859 33.88                             117   -0.09 8  246 196 
 CHI  HN ES       19 0  3.60                             117    0.52 8  246 196 
 CHI  HZ I        19 0  9.23         3.7 0.24            109            246 196 
 GUY2CHZ EP   1   1859 40.74                             112    0.67 5  301 235 
 GUY2CHN ES       19 0 13.83                             112   -0.10 7  301 235 
 GUY2CHZ I        19 0 20.85         2.8 0.30                           301 235 
                                                                                
