 2017  3 3 1121 55.5 L   6.696 -73.173141.8  RSN  5 0.4 1.7LRSN                1
 GAP=226        0.99       7.3     6.9  7.2  0.3107E+02  0.8839E+01 -0.3060E+01E
 Epicentro: VILLANUEVA - SANTANDER                                             3
 ACTION:UPD 17-05-25 18:35 OP:jn   STATUS:               ID:20170303112155 L   I
 OLDACT:REG 17-03-03 20:29 OP:lv   STATUS:               ID:20170303111709     3
 2017-03-03-1118-00M.COL___384                                                 6
 STAT SP IPHASW D HRMM SECON CODA AMPLIT PERI AZIMU VELO AIN AR TRES W  DIS CAZ7
 BAR2 EZ IP     C 1122 14.22                             175   -0.2710 11.5 185 
 BAR2 EZ ES       1122 29.02                             175   -0.2710 11.5 185 
 BAR2 EZ I        1122 30.60        11.6 0.35            173           11.5 185 
 BRR  HZ EP       1122 16.12                             151   -0.3510 75.0 307 
 BRR  HN ES       1122 33.13                             151    0.3310 75.0 307 
 BRR  HZ I        1122 35.21        12.6 0.31            150           75.0 307 
 RUS  HZ EP       1122 18.07                             146   -0.0210 89.4 174 
 RUS  HN ES       1122 36.21                             146    0.5110 89.4 174 
 RUS  HZ I        1122 37.98         4.2 0.33            148           89.4 174 
 PTB  HZ EP       1122 21.37                             132   -0.37 9  143 263 
 PTB  HN ES       1122 41.84                             132   -0.34 9  143 263 
 PTB  HZ I        1122 44.25         7.3 0.10            132            143 263 
 ZAR  HZ EP       1122 28.74                             121    0.83 8  206 295 
 ZAR  HN ES       1122 53.32                             121    0.14 8  206 295 
 ZAR  HZ I        1122 58.71         6.9 0.27            122            206 295 
                                                                                
