 2013  4 3 1051 13.1 L   6.352 -73.363127.2  RSN  6 0.4 1.3LRSN                1
 GAP=131        0.75       5.8     5.9  9.4  0.1161E+02  0.3033E+02  0.5125E+01E
 Epicentro: CHIMA - SANTANDER                                                  3
 ACTION:UPD 13-05-22 14:35 OP:EP   STATUS:               ID:20130403105113 L   I
 2013-04-03-1050-00M.COL___245                                                 6
 STAT SP IPHASW D HRMM SECON CODA AMPLIT PERI AZIMU VELO AIN AR TRES W  DIS CAZ7
 BAR2 SZ ES   1   1051 44.97                             164    0.42 7 33.3  37 
 BAR2 SZ I        1051 46.52        11.5 0.12            170           33.3  37 
 RUS  HZ EP   1   1051 32.89                             154    0.61 7 59.5 149 
 RUS  HE ES   1   1051 46.83                             154   -0.42 7 59.5 149 
 RUS  HZ I        1051 50.67         1.7 0.46            154           59.5 149 
 GIR2 SZ ES   1   1051 48.71                             145   -0.21 7 82.6  13 
 BRR  HZ EP   1   1051 33.32                             142   -0.39 7 92.0 335 
 PTB  HZ EP   1   1051 36.00                             133   -0.27 7  123 280 
 PTB  HE ES   1   1051 54.33                             133   -0.02 7  123 280 
 PTB  HZ I        1051 56.39         3.5 0.14            136            123 280 
 ZAR  HN ES   1   1052  9.89                             117    0.35 6  208 307 
                                                                                
