 2016  4 3 1604 15.6 L   6.814 -73.172145.4  RSN 13 0.5 2.3LRSN                1
 GAP=133        1.06       3.7     4.2  6.3 -0.4620E+01  0.1159E+02 -0.4726E+00E
 Epicentro: LOS SANTOS - SANTANDER                                             3
 ACTION:UPD 16-05-05 14:18 OP:rebc STATUS:               ID:20160403160416dL   I
 OLDACT:UP  16-04-04 01:17 OP:mh   STATUS:               ID:20160403155742d    3
 OLDACT:DUP 16-04-04 01:17 OP:mh   STATUS:               ID:20160403155742d    3
 OLDACT:REG 16-04-03 23:01 OP:mh   STATUS:               ID:20160403155741     3
 2016-04-03-1557-41M.COL___319                                                 6
 STAT SP IPHASW D HRMM SECON CODA AMPLIT PERI AZIMU VELO AIN AR TRES W  DIS CAZ7
 BAR2 EZ EP     D 16 4 35.04                             170   -0.1310 24.5 183 
 BAR2 EZ ES       16 4 50.32                             170   -0.1410 24.5 183 
 BAR2 EZ I        16 4 51.78        38.2 0.31            167           24.5 183 
 PAM  EZ EP       16 4 37.98                             151    0.2010 78.1  42 
 PAM  EN ES       16 4 55.29                             151    0.1810 78.1  42 
 PAM  EZ I        16 4 57.76        20.2 0.56            156           78.1  42 
 RUS  HZ EP     D 16 4 38.95                             143   -0.4510  102 174 
 RUS  HN ES       16 4 57.90                             143   -0.0910  102 174 
 RUS  HZ I        16 4 59.25        16.1 0.28            147            102 174 
 PTB  HZ EP       16 4 41.54                             132   -0.73 9  145 258 
 PTB  HN ES       16 5  2.69                             132   -0.41 9  145 258 
 PTB  HZ I        16 5  9.69        26.4 0.32            131            145 258 
 OCA  HZ EP   1   16 4 43.07                             130   -0.60 7  158 354 
 OCA  HN ES       16 5  6.16                             130    0.56 9  158 354 
 OCA  HZ I        16 5  9.91        40.5 0.46            132            158 354 
 SPBC HZ EP       16 4 43.70                             129   -0.27 9  163 218 
 SPBC HN ES       16 5  6.82                             129    0.69 9  163 218 
 SPBC HZ I        16 5 11.47        34.2 0.52            130            163 218 
 ZAR  HZ EP   1   16 4 47.30                             123   -0.35 6  201 292 
 ZAR  HE ES   1   16 5 12.35                             123   -0.32 6  201 292 
 ZAR  HZ I        16 5 22.60        20.5 0.28            122            201 292 
 NOR  HZ EP   1   16 4 50.93                             119   -0.18 6  233 234 
 NOR  HN ES       16 5 19.16                             119    0.32 8  233 234 
 NOR  HZ I        16 5 25.27        15.4 0.18            120            233 234 
 ROSC BZ EP       16 4 53.79                             117    0.15 8  253 210 
 ROSC BN ES   4   16 5 26.34                             117    3.00 0  253 210 
 ROSC BZ I        16 5 30.64        16.8 0.35            119            253 210 
 HEL  HZ EP       16 4 56.04                             115    0.56 8  270 255 
 HEL  HN ES       16 5 27.18                             115    0.56 8  270 255 
 HEL  HZ I        16 5 34.31        11.6 0.46            116            270 255 
 URE  HZ EP   4   16 4 54.52                             114   -1.73 0  281 292 
 URE  HN ES   4   16 5 26.54                             114   -1.44 0  281 292 
 GUY2CHZ EP       16 5  0.20                             112    1.22 7  300 234 
 GUY2CHN ES   4   16 5 36.69                             112    3.84 0  300 234 
 GUY2CHZ I        16 5 42.64        13.2 0.74                           300 234 
 CBOC HZ EP   1   16 5  1.95                             110   -0.25 5  331 252 
 CBOC HN ES       16 5 37.95                             110   -0.62 7  331 252 
 CBOC HZ I        16 5 55.61         4.7 0.50            111            331 252 
 ANIL HN ES   4   16 5 47.04                             108    3.05 0  356 224 
 SJC  HZ EP   4   16 5  8.25                             106   -2.53 0  406 327 
 SJC  HN ES   4   16 5 49.58                             106   -4.26 0  406 327 
 SJC  HZ I        16 5 57.48         3.3 0.68            107            406 327 
                                                                                
