 2010  7 3 1421 36.5 L   6.775 -73.118143.0  RSN  4 0.2 1.6LRSN                1
 GAP=159        0.49       3.9     6.9  7.1 -0.3632E+01 -0.1348E+02  0.3809E+01E
 Epicentro: LOS SANTOS - SANTANDER                                             3
 ACTION:UPD 10-12-01 15:14 OP:pat  STATUS:               ID:20100703142136 L   I
 2010-07-03-1418-36S.COL___118                                                 6
 STAT SP IPHASW D HRMM SECON CODA AMPLIT PERI AZIMU VELO AIN AR TRES W  DIS CAZ7
 BAR2 SZ EP       1421 55.61                             171    -0.210   22 200 
 BAR2 SZ ES   2   1422 10.53                             171    -0.3 5   22 200 
 BRR  HZ EP       1421 57.58                             151     0.010   75 299 
 BRR  HE ES   2   1422 14.24                             151     0.2 5   75 299 
 BRR  HZ I        1422 18.22         9.2 0.18                            75 299 
 RUS  HZ EP       1422  0.00                             144     0.210   98 178 
 RUS  HZ I        1422 19.44         5.5 0.21                            98 178 
 BRI  SZ EP       1422  0.20                             140    -0.110  110  19 
 BRI  SZ ES   2   1422 19.08                             140     0.3 5  110  19 
 BRI  SZ I        1422 23.63         6.7 0.40                           110  19 
                                                                                
