 2017  1 3 1957 33.5 L   6.719 -73.150140.6  RSN  5 0.4 1.4LRSN                1
 GAP=139        0.85       4.5     3.9  8.7 -0.3149E+00  0.6722E+01 -0.4310E+01E
 Epicentro: VILLANUEVA - SANTANDER                                             3
 ACTION:UPD 17-05-22 15:55 OP:jn   STATUS:               ID:20170103195733 L   I
 OLDACT:DUP 17-01-04 00:33 OP:dnl  STATUS:               ID:20170103194747d    3
 OLDACT:UP  17-01-04 00:32 OP:dnl  STATUS:               ID:20170103194746     3
 OLDACT:REG 17-01-03 21:05 OP:ndl  STATUS:               ID:20170103194746     3
 2017-01-03-1948-00M.COL___369                                                 6
 STAT SP IPHASW D HRMM SECON CODA AMPLIT PERI AZIMU VELO AIN AR TRES W  DIS CAZ7
 BRR  HZ EP       1957 54.47                             150    0.1010 75.5 305 
 BRR  HN ES       1958 10.97                             150    0.3410 75.5 305 
 BRR  HZ I        1958 15.56         5.5 0.12            149           75.5 305 
 PAM  EZ EP       1957 55.57                             148   -0.1010 84.8  36 
 PAM  EE ES       1958 12.64                             148   -0.2910 84.8  36 
 PAM  EZ I        1958 14.51         4.0 0.42            151           84.8  36 
 RUS  HZ EP   2   1957 56.77                             145    0.64 5 91.7 175 
 RUS  HN ES       1958 13.92                             145    0.1610 91.7 175 
 RUS  HZ I        1958 15.79         2.5 0.24            149           91.7 175 
 PTB  HZ EP   2   1957 59.30                             131   -0.60 5  146 262 
 PTB  HE ES       1958 19.85                             131   -0.61 9  146 262 
 PTB  HZ I        1958 23.22         3.3 0.46            133            146 262 
 ZAR  HZ EP   4   1958  2.94                             121   -3.03 0  207 294 
 ZAR  HE ES       1958 31.69                             121    0.42 8  207 294 
 ZAR  HZ I        1958 37.64         2.7 0.42            123            207 294 
                                                                                
