 2010  8 3 1436 41.8 L   6.766 -73.025147.8  RSN  8 0.4 2.4LRSN                1
 GAP=195        0.73       4.1     9.0  7.5 -0.1514E+01  0.1905E+02  0.5272E+01E
 Epicentro: CEPITA - SANTANDER                                                 3
 ACTION:UP  10-09-07 10:51 OP:vdl  STATUS:               ID:20100803143641 L   I
 2010-08-03-1434-18S.COL___125                                                 6
 STAT SP IPHASW D HRMM SECON CODA AMPLIT PERI AZIMU VELO SNR AR TRES W  DIS CAZ7
 BAR2 SZ IP       1437  1.78                             170     0.010   26 222 
 BAR2 SZ ES   2   1437 16.82                             170    -0.5 5   26 222 
 BRR  HZ EP       1437  3.74                             149    -0.310   85 296 
 BRR  HZ I        1437  5.27        76.4 0.09                            85 296 
 BRR  HE ES   2   1437 21.24                             149    -0.1 5   85 296 
 RUS  HZ EP   1   1437  5.64                             145     0.1 7   97 184 
 RUS  HN ES   2   1437 24.47                             145     0.5 5   97 184 
 RUS  HZ I        1437 26.15        16.3 0.66                            97 184 
 OCA  SZ EP   1   1437 10.85                             129     0.0 7  166 349 
 OCA  SZ ES   2   1437 34.19                             129     0.7 5  166 349 
 OCA  SZ I        1437 38.06        40.4 0.29                           166 349 
 CHI  HZ EP   1   1437 19.79                             117     0.1 6  249 198 
 CHI  HE ES   2   1437 49.03                             117    -0.2 4  249 198 
 CHI  HZ I        1437 53.26         8.8 0.47                           249 198 
 HEL  HZ EP   1   1437 23.09                             114    -0.4 6  284 257 
 HEL  HZ I        1438  1.50        11.3 0.24                           284 257 
 RREF HZ EP   1   1437 29.91                             111     0.9 5  330 231 
 RREF HN ES   2   1438  6.18                             111     0.5 3  330 231 
 RREF HZ I        1438 10.25        12.8 0.31                           330 231 
 PRA  HZ EP   1   1437 35.18                             107    -0.7 4  396 212 
 PRA  HN ES   2   1438 18.22                             107     0.3 3  396 212 
 PRA  HZ I        1438 23.50        10.3 0.47                           396 212 
                                                                                
