 2013  7 3 1215 39.3 L   6.662 -73.244137.8  RSN  7 0.4 1.7LRSN                1
 GAP=132        0.82       3.8     4.3  5.3  0.5285E+01  0.9118E+01  0.4947E+01E
 Epicentro: BARICHARA - SANTANDER                                              3
 ACTION:UPD 13-08-12 10:35 OP:ep   STATUS:               ID:20130703121539 L   I
 OLDACT:REG 13-07-03 14:09 OP:jn   STATUS:               ID:20130703120959     3
 2013-07-03-1209-59M.COL___267                                                 6
 STAT SP IPHASW D HRMM SECON CODA AMPLIT PERI AZIMU VELO AIN AR TRES W  DIS CAZ7
 BAR2 SZ EP       1215 57.64                             176   -0.1010 10.3 139 
 BAR2 SZ ES       1216 11.92                             176   -0.2310 10.3 139 
 BAR2 SZ I        1216 13.26        16.0 0.18            174           10.3 139 
 GIR2 SZ EP       1215 58.38                             160   -0.1410 46.4   7 
 GIR2 SZ ES       1216 13.50                             160   -0.0410 46.4   7 
 GIR2 SZ I        1216 14.44         8.3 0.22            163           46.4   7 
 BRR  HZ IP     D 1215 59.91                             151    0.3410 71.4 314 
 BRR  HN ES       1216 15.40                             151   -0.0110 71.4 314 
 RUS  HZ EP       1216  1.33                             146    0.0610 87.0 168 
 RUS  HN ES       1216 18.84                             146    0.4110 87.0 168 
 RUS  HZ I        1216 20.63         5.2 0.24            146           87.0 168 
 PTB  HZ EP       1216  3.83                             133   -0.5810  135 264 
 PTB  HN ES       1216 23.80                             133   -0.2310  135 264 
 PTB  HZ I        1216 24.97         6.2 0.16            132            135 264 
 ZAR  HZ EP     D 1216 10.69                             121   -0.15 9  201 297 
 ZAR  HE ES       1216 36.16                             121    0.69 9  201 297 
 ZAR  HZ I        1216 41.14         5.7 0.26            121            201 297 
 PRA  HZ EP   2   1216 31.55                             106    1.21 3  373 209 
 PRA  HN ES       1217 10.04                             106   -0.14 6  373 209 
 PRA  HZ I        1217 16.82         2.4 0.48            106            373 209 
                                                                                
