 2011  4 3 1326 31.9 L   6.788 -73.106144.0  RSN  7 0.2 2.0LRSN                1
 GAP=181        0.55       3.7     6.9  6.4 -0.7831E+01 -0.1446E+02  0.3723E+01E
 Epicentro: LOS SANTOS - SANTANDER                                             3
 ACTION:UP  11-06-22 15:28 OP:REBC STATUS:               ID:20110403132631 L   I
 2011-04-03-1324-58S.COL___138                                                 6
 STAT SP IPHASW D HRMM SECON CODA AMPLIT PERI AZIMU VELO SNR AR TRES W  DIS CAZ7
 BTL  SZ EP   1   1326 51.45                             171     0.2 7   23 309 
 BAR2 SZ EP       1326 51.29                             170     0.010   23 201 
 BAR2 SZ ES   2   1327  5.93                             170    -0.5 5   23 201 
 BAR2 SZ I        1327  7.49        26.4 0.31                            23 201 
 GIR2 SZ EP   1   1326 51.28                             166    -0.1 7   34 343 
 BRR  HZ IP     D 1326 53.03                             151    -0.110   76 298 
 BRR  HZ I        1326 53.23        43.6 0.11                            76 298 
 BRR  HE ES   1   1327  9.98                             151     0.3 7   76 298 
 GRA  SZ EP       1326 57.05                             137     0.110  126  15 
 GRA  SZ ES   1   1327 16.83                             137     0.3 7  126  15 
 GRA  SZ I        1327 19.68         9.2 0.31                           126  15 
 OCA  SZ EP   1   1327  0.02                             129    -0.2 7  162 352 
 OCA  SZ ES   1   1327 21.97                             129    -0.4 7  162 352 
 OCA  SZ I        1327 27.09         8.4 0.28                           162 352 
 CHI  HZ EP   2   1327  9.61                                     0.1 4  249 196 
                                                                                
