 2016 11 3 1818  3.2 L   6.466 -73.802 81.5  RSN  4 0.4 0.9LRSN                1
 GAP=148        1.03       6.0     3.8 12.8  0.6896E+01  0.4446E+01  0.3693E+02E
 Epicentro: CIMITARRA - SANTANDER                                              3
 ACTION:UPD 17-10-26 21:04 OP:lp   STATUS:               ID:20161103181803 L   I
 OLDACT:DUP 16-11-04 01:01 OP:lv   STATUS:               ID:20161103180746d    3
 2016-11-03-1808-00M.COL___340                                                 6
 STAT SP IPHASW D HRMM SECON CODA AMPLIT PERI AZIMU VELO AIN AR TRES W  DIS CAZ7
 BAR2 EZ EP       1818 18.08                             136   -0.1110 69.9  78 
 BAR2 EZ ES       1818 30.36                             136    0.5110 69.9  78 
 BAR2 EZ I        1818 31.58         3.5 0.15            142           69.9  78 
 BRR  HN ES       1818 29.21                             135   -0.3210 71.6   8 
 PTB  HZ EP       1818 17.92                             134   -0.2310 72.9 276 
 PTB  HN ES       1818 30.01                             134    0.2410 72.9 276 
 PTB  HZ I        1818 33.41         2.8 0.12            142           72.9 276 
 RUS  HZ EP       1818 22.03                             125    0.4910  102 129 
 RUS  HN ES       1818 35.22                             125   -0.5810  102 129 
 RUS  HZ I        1818 57.82         1.6 0.45            125            102 129 
                                                                                
