 2014  5 3 1014 14.8 L   6.759 -73.305116.4  RSN  4 0.3 1.1LRSN                1
 GAP=186        0.78       4.9     5.2 14.0  0.1069E+02 -0.1052E+02 -0.4233E+02E
 Epicentro: ZAPATOCA - SANTANDER                                               3
 ACTION:UPD 15-03-16 16:54 OP:nd   STATUS:               ID:20140503101414 L   I
 OLDACT:UP  14-05-03 21:40 OP:mher STATUS:               ID:20140503101001d    3
 OLDACT:UP  14-05-03 21:40 OP:mher STATUS:               ID:20140503101001d    3
 OLDACT:UP  14-05-03 21:39 OP:mher STATUS:               ID:20140503101001d    3
 OLDACT:UP  14-05-03 21:37 OP:mher STATUS:               ID:20140503101001d    3
 OLDACT:DUP 14-05-03 21:32 OP:mher STATUS:               ID:20140503101001d    3
 2014-05-03-1010-00M.COL___273                                                 6
 STAT SP IPHASW D HRMM SECON CODA AMPLIT PERI AZIMU VELO AIN AR TRES W  DIS CAZ7
 RUS  HZ EP       1014 36.08                             137    0.3910 98.9 166 
 RUS  HN ES       1014 51.70                             137   -0.2510 98.9 166 
 RUS  HZ I        1014 52.84         2.4 0.09            143           98.9 166 
 PTB  HZ EP       1014 37.31                             128   -0.4910  130 259 
 PTB  HN ES       1014 55.88                             128    0.1710  130 259 
 PTB  HZ I        1015  1.99         2.2 0.31            130            130 259 
 PTB  HZ I        1015  2.02         2.1 0.25                           130 259 
 SPBC HE ES   2   1014 59.71                             124    0.43 5  149 215 
 SML  HZ EP   4   1014 44.72                             111   -4.98 0  241 340 
 SML  HN ES       1015 16.97                             111    0.08 8  241 340 
 SJC  HZ EP   4   1014 57.68                             100   -11.2 0  404 329 
                                                                                
