 2013  1 3 1310 46.0 L   6.783 -73.140145.3  RSN  8 0.5 2.0LRSN                1
 GAP=183        0.91       4.1     5.5  7.1  0.3369E+01  0.8102E+01  0.9076E+00E
 Epicentro: LOS SANTOS - SANTANDER                                             3
 ACTION:UPD 13-02-15 09:11 OP:ep   STATUS:               ID:20130103131046 L   I
 2013-01-03-1310-00M.COL___242                                                 6
 STAT SP IPHASW D HRMM SECON CODA AMPLIT PERI AZIMU VELO AIN AR TRES W  DIS CAZ7
 BAR2 SZ EP       1311  5.56                             171   -0.0110 21.6 193 
 BAR2 SZ ES   1   1311 20.62                             171   -0.20 7 21.6 193 
 BAR2 SZ I        1311 21.44        35.8 0.18            167           21.6 193 
 BRR  HZ EP       1311  7.49                             152    0.2710 72.7 300 
 BRR  HN ES   1   1311 24.63                             152    0.89 7 72.7 300 
 BRR  HZ I        1311 28.59        20.7 0.12            148           72.7 300 
 RUS  HZ EP   1   1311  9.50                             144   -0.10 7 98.7 176 
 RUS  HE ES   1   1311 28.11                             144    0.13 7 98.7 176 
 RUS  HZ I        1311 28.71        10.8 0.46            145           98.7 176 
 PTB  HZ EP       1311 12.26                             132   -0.73 9  148 260 
 PTB  HN ES   1   1311 33.35                             132   -0.67 7  148 260 
 PTB  HZ I        1311 38.37        12.0 0.16            130            148 260 
 OCA  HZ EP   1   1311 15.02                             129    0.53 7  162 353 
 OCA  HE ES   1   1311 36.12                             129   -0.57 7  162 353 
 OCA  HZ I        1311 39.22        14.2 0.40            131            162 353 
 ZAR  HZ EP   1   1311 18.42                             122   -0.17 6  205 293 
 ZAR  HN ES   1   1311 43.79                             122   -0.19 6  205 293 
 ZAR  HZ I        1311 49.67        12.9 0.26            122            205 293 
 CHI  HZ EP   1   1311 23.80                             117    0.27 6  247 195 
 CHI  HN ES   1   1311 52.79                             117    0.02 6  247 195 
 CHI  HZ I        1311 58.78         4.7 0.26            118            247 195 
 HEL  HZ EP   1   1311 26.73                             115    0.49 6  272 256 
 HEL  HN ES   1   1311 58.23                             115    0.62 6  272 256 
 HEL  HZ I        1312  4.34         9.2 0.28            115            272 256 
 MON  HZ EP   4   1311 33.30                             108   -1.91 0  355 309 
 MON  HN ES   4   1312 12.44                             108   -1.13 0  355 309 
 SJC  HN ES   4   1312 22.60                             106   -2.71 0  411 327 
                                                                                
