 2012  9 3 1506  0.0 L   6.742 -73.155146.9  RSN  6 0.3 1.7LRSN                1
 GAP=182        0.38       4.7     6.6  4.4  0.1660E+02 -0.8298E+00  0.5826E+00E
 Epicentro: VILLANUEVA - SANTANDER                                             3
 ACTION:UP  12-10-22 14:16 OP:ep   STATUS:               ID:20120903150600 L   I
 2012-09-03-1500-00M.COL___218                                                 6
 STAT SP IPHASW D HRMM SECON CODA AMPLIT PERI AZIMU VELO AIN AR TRES W  DIS CAZ7
 BAR2 SZ IP       15 6 19.75                             173    0.0610 16.8 191 
 BAR2 SZ I        15 6 20.05        12.8 0.11            173           16.8 191 
 BAR2 SZ ES   1   15 6 35.00                             173   -0.02 7 16.8 191 
 GIR2 SZ EP       15 6 19.95                             165   -0.0810 37.5 353 
 GIR2 SZ ES   3   15 6 35.09                             165   -0.52 2 37.5 353 
 BRR  HZ EP       15 6 21.55                             152    0.1010 73.7 303 
 BRR  HN ES   2   15 6 38.19                             152    0.04 5 73.7 303 
 BRR  HZ I        15 6 38.39        16.6 0.44                          73.7 303 
 RUS  HZ EP       15 6 23.40                             146   -0.0510 94.2 175 
 RUS  HZ I        15 6 24.31         3.3 0.22                          94.2 175 
 RUS  HN ES   3   15 6 42.42                             146    0.70 2 94.2 175 
 PTB  HZ EP   3   15 6 25.90                             133   -1.01 2  146 261 
 PTB  HN ES   3   15 6 47.53                             133   -0.34 2  146 261 
 PTB  HZ I        15 6 55.10         5.5 0.44                           146 261 
 ZAR  HZ EP   3   15 6 33.36                             122    0.64 2  206 294 
                                                                                
