 2017  1 3 1849 58.9 L   6.749 -73.409113.0  RSN  8 0.2 2.1LRSN                1
 GAP= 90        0.61       2.5     2.9  4.2 -0.4177E+00  0.4203E+01  0.9811E+00E
 Epicentro: EL CARMEN - SANTANDER                                              3
 ACTION:UPD 17-05-22 15:55 OP:jn   STATUS:               ID:20170103184958 L   I
 OLDACT:UP  17-01-04 00:13 OP:dnl  STATUS:               ID:20170103184743     3
 OLDACT:UP  17-01-04 00:13 OP:dnl  STATUS:               ID:20170103184743     3
 OLDACT:UP  17-01-04 00:13 OP:dnl  STATUS:               ID:20170103184743     3
 OLDACT:REG 17-01-03 20:56 OP:dnl  STATUS:               ID:20170103184743     3
 2017-01-03-1848-00M.COL___369                                                 6
 STAT SP IPHASW D HRMM SECON CODA AMPLIT PERI AZIMU VELO AIN AR TRES W  DIS CAZ7
 BAR2 EZ IP     C 1850 14.70                             164   -0.0810 30.4 125 
 BAR2 EZ ES       1850 26.95                             164   -0.2410 30.4 125 
 BRR  HZ IP     D 1850 15.13                             154   -0.2510 51.9 320 
 BRR  HE ES       1850 28.35                             154    0.0910 51.9 320 
 BRR  HZ I        1850 29.05        54.2 0.14            154           51.9 320 
 RUS  HZ EP       1850 19.27                             135   -0.3510  101 159 
 RUS  HE ES       1850 36.16                             135    0.3610  101 159 
 RUS  HZ I        1850 37.58        12.1 0.32            132            101 159 
 PAM  EZ IP     C 1850 19.63                             135   -0.0510  102  50 
 PAM  EN ES       1850 36.16                             135    0.2510  102  50 
 PAM  EZ I        1850 39.78        61.0 1.06            132            102  50 
 PTB  HZ IP   4 C 1850 18.89                             130   -1.59 0  118 259 
 PTB  HE ES   4   1850 34.68                             130   -2.65 0  118 259 
 PTB  HZ I        1850 35.73        24.7 0.48            128            118 259 
 ZAR  HZ EP       1850 26.98                             118    0.21 9  180 297 
 ZAR  HE ES   4   1850 49.62                             118    1.09 0  180 297 
 ZAR  HZ I        1850 51.76        18.5 0.26            116            180 297 
 CHI  HZ EP   2   1850 33.96                             111    0.31 4  237 189 
 CHI  HN ES   4   1851  2.08                             111    1.30 0  237 189 
 CHI  HZ I        1851  9.23         6.5 0.30            108            237 189 
 GUY2CHZ EP   4   1850 38.85                             107    0.81 0  274 232 
 GUY2CHN ES       1851  8.70                             107    0.10 8  274 232 
 GUY2CHZ  IAML    1851 14.01         3.7 0.38                           274 232 
                                                                                
