 2014  4 3 1522 45.3 L   6.824 -73.185145.6  RSN  4 0.3 1.4LRSN                1
 GAP=146        0.84       4.8     4.9  8.2 -0.1013E+02  0.1097E+02 -0.7799E+00E
 Epicentro: ZAPATOCA - SANTANDER                                               3
 ACTION:UPD 14-05-13 23:06 OP:nd   STATUS:               ID:20140403152245 L   I
 OLDACT:REG 14-04-03 22:27 OP:stll STATUS:               ID:20140403151830     3
 2014-04-03-1518-30M.COL___240                                                 6
 STAT SP IPHASW D HRMM SECON CODA AMPLIT PERI AZIMU VELO AIN AR TRES W  DIS CAZ7
 PAM  SZ EP       1523  8.20                             150    0.6210 78.3  43 
 PAM  SN ES       1523 24.61                             150   -0.3310 78.3  43 
 PAM  SZ I        1523 26.94         6.3 0.54            155           78.3  43 
 RUS  HZ EP       1523  8.95                             143   -0.3310  104 174 
 RUS  HN ES       1523 28.11                             143    0.1410  104 174 
 RUS  HZ I        1523 29.52         1.5 0.30            148            104 174 
 PTB  HZ EP       1523 11.56                             133   -0.38 9  144 257 
 PTB  HN ES       1523 32.88                             133    0.18 9  144 257 
 PTB  HZ I        1523 40.16         6.0 0.42            134            144 257 
 SPBC HZ EP       1523 13.81                             129    0.06 9  163 217 
 SPBC HE ES       1523 35.96                             129    0.04 9  163 217 
 SPBC HZ I        1523 38.62         4.0 0.22            132            163 217 
                                                                                
