 2010  2 3 1628  7.5 L   6.851 -73.110142.1  RSN  9 0.5 2.3LRSN                1
 GAP=128        0.98       7.0    11.1 10.4  0.2036E+02  0.4989E+02 -0.1187E+02E
 Epicentro: LOS SANTOS - SANTANDER                                             3
 ACTION:UP  10-08-24 09:47 OP:vdl  STATUS:               ID:20100203162807 L   I
 2010-02-03-1626-00S.COL___097                                                 6
 STAT SP IPHASW D HRMM SECON CODA AMPLIT PERI AZIMU VELO SNR AR TRES W  DIS CAZ7
 GIR2 SZ IP       1628 27.02                             168     0.410   27 340 
 GIR2 SZ ES   2   1628 42.08                             168     0.6 5   27 340 
 BAR2 SZ IP       1628 26.88                             168     0.110   30 196 
 BAR2 SZ ES   2   1628 41.23                             168    -0.7 5   30 196 
 RUS  BZ EP   1   1628 30.79                             142    -0.5 7  106 178 
 RUS  BN ES       1628 49.57                             142    -0.210  106 178 
 RUS  BZ I        1628 50.31        15.1 0.29                           106 178 
 HEL  HZ EP   1   1628 48.78                             113     0.7 6  277 255 
 HEL  HZ I        1629 26.59        16.0 0.45                           277 255 
 RREF BZ EP   2   1628 54.99                             110     0.8 3  328 229 
 RREF BZ I        1629 40.64        12.8 0.52                           328 229 
 DBB  SZ EP   2   1628 55.24                             108     0.0 3  343 273 
 MON  HE ES   1   1629 33.27                             108    -1.0 5  352 307 
 MON  HZ I        1629 49.23         6.8 0.55                           352 307 
 SDV  BZ EP   2   1628 56.16                             108    -0.4 3  354  50 
 PRA  HZ EP   2   1629  0.99                             105    -0.7 3  399 210 
 PRA  HZ I        1629 49.01         8.8 0.45                           399 210 
                                                                                
