 2014  6 3 1935  5.9 L   6.740 -73.197131.5  RSN  4 0.6 1.4LRSN                1
 GAP=227        1.62      12.3    12.5 13.5  0.8604E+02  0.4212E+02  0.2388E+02E
 Epicentro: VILLANUEVA - SANTANDER                                             3
 ACTION:UPD 14-07-01 22:50 OP:nd   STATUS:               ID:20140603193505 L   I
 OLDACT:REG 14-06-03 21:09 OP:stll STATUS:               ID:20140603192817     3
 2014-06-03-1928-17M.COL___259                                                 6
 STAT SP IPHASW D HRMM SECON CODA AMPLIT PERI AZIMU VELO AIN AR TRES W  DIS CAZ7
 BAR2 SZ ES       1935 36.76                             173   -0.8310 16.4 174 
 BAR2 SZ I        1935 40.55         6.2 0.36            169           16.4 174 
 BRR  HZ EP       1935 25.96                             150    0.4810 69.9 306 
 BRR  HN ES       1935 41.12                             150    0.4010 69.9 306 
 RUS  HZ EP       1935 28.30                             142    0.4410 94.5 172 
 RUS  HN ES       1935 45.24                             142    0.2910 94.5 172 
 RUS  HZ I        1935 47.60         2.9 0.42            142           94.5 172 
 PTB  HZ EP       1935 29.93                             130   -1.21 9  141 261 
 PTB  HN ES       1935 51.13                             130    0.33 9  141 261 
 PTB  HZ I        1935 53.98         5.2 0.12            131            141 261 
                                                                                
