 2014  9 3 1800 43.3 L   6.536 -73.551105.8  RSN 14 0.5 2.0LRSN                1
 GAP= 63        1.16       2.8     3.4  7.5 -0.1335E+01  0.7278E+01 -0.1298E+01E
 Epicentro: EL CARMEN - SANTANDER                                              3
 ACTION:UPD 14-10-03 23:02 OP:nd   STATUS:               ID:20140903180043 L   I
 OLDACT:REG 14-09-03 21:18 OP:fm   STATUS:               ID:20140903175816     3
 2014-09-03-1758-16M.COL___269                                                 6
 STAT SP IPHASW D HRMM SECON CODA AMPLIT PERI AZIMU VELO AIN AR TRES W  DIS CAZ7
 BAR2 SZ IP     D 18 0 59.25                             157    0.4310 41.2  81 
 BAR2 SZ ES   1   18 1 11.89                             157    0.96 7 41.2  81 
 RUS  HZ EP       18 1  2.15                             137   -0.1510 88.0 144 
 RUS  HE ES       18 1 17.15                             137    0.0310 88.0 144 
 RUS  HZ I        18 1 19.17        25.8 0.42            139           88.0 144 
 PTB  HZ EP     D 18 1  2.02                             133   -0.6710  100 270 
 PTB  HN ES       18 1 16.77                             133   -1.0510  100 270 
 PTB  HZ I        18 1 18.17        30.0 0.44            132            100 270 
 SPBC HZ EP   1   18 1  3.63                             129   -0.39 7  114 211 
 SPBC HN ES   1   18 1 20.51                             129    0.32 7  114 211 
 SPBC HZ I        18 1 25.21        19.2 0.32            129            114 211 
 PAM  SZ EP       18 1  5.80                             125   -0.2910  129  47 
 PAM  SN ES   1   18 1 23.44                             125   -0.43 7  129  47 
 PAM  SZ I        18 1 24.76        11.4 0.46            126            129  47 
 ZAR  HZ EP   1   18 1 11.64                             115    0.94 7  179 306 
 ZAR  HE ES       18 1 32.45                             115    0.38 9  179 306 
 ZAR  HZ I        18 1 38.16        13.1 0.28            115            179 306 
 NOR  HZ EP       18 1 10.72                             115   -0.29 9  181 234 
 NOR  HN ES       18 1 32.82                             115    0.19 9  181 234 
 NOR  HZ I        18 1 36.68        15.8 0.20            115            181 234 
 OCA  HN ES       18 1 34.78                             114    0.20 9  190   8 
 OCA  HZ I        18 1 40.32        21.1 0.38            114            190   8 
 CHI  HZ EP       18 1 14.58                             111   -0.31 8  212 185 
 CHI  HN ES       18 1 39.60                             111    0.07 8  212 185 
 CHI  HZ I        18 1 44.03         4.0 0.62            111            212 185 
 GUY2CHZ EP   4   18 1 20.59                             107    1.48 0  248 234 
 GUY2CHN ES   4   18 1 49.23                             107    2.18 0  248 234 
 GUY2CHZ I        18 1 53.98         6.9 0.32                           248 234 
 SML  HZ EP       18 1 19.33                             106   -0.25 8  257 347 
 SML  HN ES   1   18 1 48.45                             106    0.57 6  257 347 
 SML  HZ I        18 1 52.81        19.1 0.10            106            257 347 
 CBOC HZ EP   4   18 1 24.69                             104    1.91 0  282 255 
 CBOC HE ES       18 1 54.21                             104    0.62 7  282 255 
 CBOC HZ I        18 1 58.10         5.0 0.36            104            282 255 
 MON  HZ EP   4   18 1 26.39                             101   -3.09 0  340 317 
 MON  HN ES   4   18 2  3.68                             101   -1.82 0  340 317 
 MON  HZ I        18 2  7.14         3.2 0.42            100            340 317 
 PRA  HZ EP   1   18 1 30.28                             100    0.15 5  345 205 
 PRA  HN ES       18 2  7.50                             100    0.83 6  345 205 
 PRA  HZ I        18 2 12.02         7.9 0.24            100            345 205 
                                                                                
