 2010  9 3 1032 23.2 L   6.791 -73.056144.0  RSN  5 0.2 1.5LRSN                1
 GAP=175        0.45       3.5     6.6  5.5  0.7487E+01 -0.2258E+02 -0.7431E+01E
 Epicentro: LOS SANTOS - SANTANDER                                             3
 ACTION:UP  11-02-18 10:59 OP:tino STATUS:               ID:20100903103223 L   I
 2010-09-03-1030-42S.COL___120                                                 6
 STAT SP IPHASW D HRMM SECON CODA AMPLIT PERI AZIMU VELO SNR AR TRES W  DIS CAZ7
 BAR2 SZ EP       1032 42.74                             169     0.010   26 213 
 BAR2 SZ ES   1   1032 57.93                             169     0.0 7   26 213 
 BAR2 SZ I        1032 59.37         6.1 0.10                            26 213 
 BRR  HZ EP       1032 44.56                             149    -0.210   81 296 
 BRR  HN ES       1033  1.68                             149     0.110   81 296 
 BRR  HZ I        1033  4.80        11.1 0.35                            81 296 
 RUS  HZ EP   1   1032 46.71                             144     0.0 7   99 182 
 RUS  HZ I        1032 47.61         2.6 0.22                            99 182 
 GUE  SZ EP       1032 47.83                             139     0.110  116   7 
 OCA  SZ EP       1032 51.75                             129     0.1 9  163 350 
 OCA  SZ I        1033  6.19         6.7 0.47                           163 350 
 OCA  SZ ES   2   1033 13.39                             129    -0.4 5  163 350 
                                                                                
