 2017  5 3 1407 23.0 L   6.787 -73.142149.4  RSN  7 0.3 1.8LRSN                1
 GAP=138        0.78       3.2     3.4  6.0 -0.2973E+00  0.4557E+01  0.4926E+01E
 Epicentro: LOS SANTOS - SANTANDER                                             3
 ACTION:UPD 17-06-16 13:32 OP:jn   STATUS:               ID:20170503140723 L   I
 OLDACT:UP  17-05-03 22:50 OP:and  STATUS:               ID:20170503135739     3
 OLDACT:REG 17-05-03 20:45 OP:and  STATUS:               ID:20170503135739     3
 2017-05-03-1358-00M.COL___383                                                 6
 STAT SP IPHASW D HRMM SECON CODA AMPLIT PERI AZIMU VELO AIN AR TRES W  DIS CAZ7
 BRR  HZ EP       14 7 44.72                             153    0.1410 72.2 299 
 BRR  HN ES       14 8  1.96                             153    0.5310 72.2 299 
 PAM  EZ IP     C 14 7 45.72                             151    0.0910 78.3  39 
 PAM  EN ES       14 8  3.10                             151   -0.2110 78.3  39 
 PAM  EZ I        14 8  5.03         8.6 0.52            155           78.3  39 
 RUS  HZ EP       14 7 46.88                             145   -0.1010 99.1 176 
 RUS  HN ES       14 8  5.74                             145    0.0310 99.1 176 
 RUS  HZ I        14 8  6.56        14.2 0.22            146           99.1 176 
 PTB  HZ EP       14 7 50.04                             133   -0.21 9  148 259 
 PTB  HN ES       14 8 10.80                             133   -0.72 9  148 259 
 PTB  HZ I        14 8 18.10         8.0 0.44            133            148 259 
 ZAR  HZ EP   2   14 7 55.60                             123   -0.15 4  205 292 
 ZAR  HN ES       14 8 21.20                             123   -0.12 9  205 292 
 ZAR  HZ I        14 8 23.45         3.7 0.18            124            205 292 
 NOR  HZ EP       14 7 59.18                             119    0.32 8  234 235 
 NOR  HN ES       14 8 27.35                             119    0.50 8  234 235 
 NOR  HZ I        14 8 30.01         4.3 0.14            120            234 235 
 CHI  HZ EP   2   14 8  0.79                             118    0.05 4  247 195 
 CHI  HN ES       14 8 30.01                             118   -0.18 8  247 195 
 CHI  HZ I        14 8 34.39         3.0 0.52            119            247 195 
                                                                                
