 2014  1 3 1721 40.8 L   7.262 -73.337124.0  RSN  4 0.4 1.6LRSN                1
 GAP=279        0.90       9.5     7.2  9.2 -0.1662E+02  0.1096E+02  0.1675E+02E
 Epicentro: RIONEGRO - SANTANDER                                               3
 ACTION:UPD 14-03-13 09:51 OP:ep   STATUS:               ID:20140103172140 L   I
 OLDACT:REG 14-01-03 17:25 OP:mh   STATUS:               ID:20140103172000     3
 2014-01-03-1720-00M.COL___285                                                 6
 STAT SP IPHASW D HRMM SECON CODA AMPLIT PERI AZIMU VELO AIN AR TRES W  DIS CAZ7
 BRR  HZ EP       1721 57.97                             159   -0.2710 44.8 248 
 BRR  HN ES       1722 12.23                             159    0.4210 44.8 248 
 BRR  HZ I        1722 13.22        14.2 0.09            158           44.8 248 
 BAR2 SZ EP   1   1722  0.87                             147    0.53 7 76.0 167 
 BAR2 SZ ES   1   1722 15.09                             147   -0.45 7 76.0 167 
 BAR2 SZ I        1722 16.34        14.4 0.20            148           76.0 167 
 PTB  HZ EP   1   1722  5.75                             127   -0.33 7  147 237 
 PTB  HN ES       1722 25.42                             127   -0.34 9  147 237 
 PTB  HZ I        1722 27.75         2.4 0.13            128            147 237 
 NOR  HE ES       1722 46.46                             112    0.42 8  253 222 
                                                                                
