 2010 11 3 1655  6.2 L   6.880 -73.462109.8  RSN  4 0.3 1.7LRSN                1
 GAP=176        0.82       6.7     9.2  9.8 -0.1331E+02 -0.3692E+02 -0.1223E+02E
 Epicentro: SAN VICENTE DE CHUCURI - SANTANDER                                 3
 ACTION:UP  10-12-17 16:50 OP:REBC STATUS:               ID:20101103165506 L   I
 2010-11-03-1651-37S.COL___128                                                 6
 STAT SP IPHASW D HRMM SECON CODA AMPLIT PERI AZIMU VELO SNR AR TRES W  DIS CAZ7
 BRR  HZ EP       1655 21.76                             160     0.110   37 312 
 BRR  HZ I        1655 22.00        20.6 0.12                            37 312 
 BRR  HN ES   1   1655 33.64                             160    -0.1 7   37 312 
 BAR2 SZ EP       1655 22.45                             157     0.110   44 136 
 BAR2 SZ I        1655 22.59        15.8 0.10                            44 136 
 BAR2 SZ ES   2   1655 34.55                             157    -0.3 5   44 136 
 GUE  SZ EP       1655 27.64                             129    -0.610  121  29 
 GRA  SZ EP       1655 29.44                             126     0.310  133  33 
 GRA  SZ ES   1   1655 47.32                             126     0.2 7  133  33 
 GRA  SZ I        1655 48.81         4.8 0.27                           133  33 
                                                                                
