 2017  3 3 1154 48.5 L   6.661 -73.202140.2  RSN  5 0.3 1.7LRSN                1
 GAP=213        0.89       6.6     6.1  7.2  0.2434E+02  0.9537E+01  0.2154E+01E
 Epicentro: VILLANUEVA - SANTANDER                                             3
 ACTION:UPD 17-05-25 18:35 OP:jn   STATUS:               ID:20170303115448 L   I
 OLDACT:REG 17-03-03 20:31 OP:lv   STATUS:               ID:20170303114741     3
 2017-03-03-1148-00M.COL___384                                                 6
 STAT SP IPHASW D HRMM SECON CODA AMPLIT PERI AZIMU VELO AIN AR TRES W  DIS CAZ7
 BAR2 EZ EP       1155  6.89                             177   -0.3910 7.94 164 
 BAR2 EZ ES       1155 21.72                             177   -0.1710 7.94 164 
 BAR2 EZ I        1155 23.42        14.5 0.24            174           7.94 164 
 BRR  HZ EP       1155  9.00                             150   -0.3010 74.9 311 
 BRR  HN ES       1155 25.98                             150    0.4810 74.9 311 
 BRR  HZ I        1155 26.59        11.1 0.40            150           74.9 311 
 RUS  HZ EP       1155 11.39                             147    0.6810 86.0 171 
 RUS  HN ES       1155 27.89                             147   -0.1310 86.0 171 
 RUS  HZ I        1155 30.02         7.3 0.16            147           86.0 171 
 PTB  HZ EP       1155 14.21                             132   -0.08 9  139 265 
 PTB  HN ES       1155 34.26                             132   -0.12 9  139 265 
 PTB  HZ I        1155 37.28         3.4 0.19            132            139 265 
 ZAR  HN ES       1155 45.79                             121    0.01 9  205 297 
 ZAR  HZ I        1155 48.54         5.6 0.09            122            205 297 
                                                                                
