 2011  4 3 1630  5.1 L   6.752 -73.058147.0  RSN  6 0.3 1.6LRSN                1
 GAP=187        0.71       5.6     8.1  6.4 -0.8034E+01 -0.7138E+01 -0.7776E+01E
 Epicentro: LOS SANTOS - SANTANDER                                             3
 ACTION:UP  11-06-22 15:28 OP:REBC STATUS:               ID:20110403163005 L   I
 2011-04-03-1628-32S.COL___138                                                 6
 STAT SP IPHASW D HRMM SECON CODA AMPLIT PERI AZIMU VELO SNR AR TRES W  DIS CAZ7
 BAR2 SZ EP   1   1630 25.03                             171     0.2 7   22 218 
 BAR2 SZ ES   1   1630 39.79                             171    -0.4 7   22 218 
 BAR2 SZ I        1630 41.89         9.7 0.30                            22 218 
 BTL  SZ EP   1   1630 25.24                             168     0.3 7   30 308 
 BTL  SZ ES   1   1630 40.80                             168     0.3 7   30 308 
 PAM  SZ EP   2   1630 26.61                             151    -0.7 5   76  31 
 PAM  SN ES   2   1630 44.59                             151    -0.1 5   76  31 
 PAM  SZ I        1630 47.25         3.4 0.58                            76  31 
 BRR  HZ IP     C 1630 26.95                             149     0.010   82 299 
 BRR  HZ I        1630 27.25        14.1 0.19                            82 299 
 BRR  HN ES   1   1630 44.18                             149     0.1 7   82 299 
 GRA  SZ EP   1   1630 30.87                             137     0.2 7  128  13 
 GRA  SZ ES   2   1630 51.26                             137     0.7 5  128  13 
 GRA  SZ I        1630 52.80         6.1 0.26                           128  13 
 OCA  SZ EP   1   1630 33.98                             129    -0.1 7  167 350 
 OCA  SZ ES   1   1630 56.32                             129    -0.4 7  167 350 
                                                                                
