 2010  2 3 1656 36.6 L   6.813 -73.145138.5  RSN 10 0.7 2.5LRSN                1
 GAP=126        1.09       5.1     8.6 10.3 -0.1897E+01  0.4536E+02 -0.8295E+01E
 Epicentro: LOS SANTOS - SANTANDER                                             3
 ACTION:UP  10-08-24 09:47 OP:vdl  STATUS:               ID:20100203165636 L   I
 2010-02-03-1654-32S.COL___097                                                 6
 STAT SP IPHASW D HRMM SECON CODA AMPLIT PERI AZIMU VELO SNR AR TRES W  DIS CAZ7
 BAR2 SZ IP       1656 55.45                             169     0.010   25 190 
 BAR2 SZ ES   1   1657 10.08                             169     0.0 7   25 190 
 RUS  BZ EP   1   1656 59.67                             142    -0.1 7  102 176 
 RUS  BN ES   1   1657 17.59                             142    -0.2 7  102 176 
 RUS  BZ I        1657 20.11        49.8 0.43                           102 176 
 OCA  SZ EP   1   1657  4.13                             128    -0.1 7  159 353 
 OCA  SZ ES   1   1657 26.36                             128     0.6 7  159 353 
 HEL  HZ EP   1   1657 17.87                             113     1.3 6  273 256 
 HEL  HE ES   1   1657 47.13                             113    -0.5 6  273 256 
 HEL  HZ I        1657 54.50        19.0 0.32                           273 256 
 RREF BZ EP   2   1657 24.09                             109     1.5 3  323 229 
 RREF BZ I        1658  4.45        17.0 0.44                           323 229 
 DBB  SZ EP   1   1657 24.00                             108     0.2 5  339 274 
 TOL  SZ EP   2   1657 25.52                             108     0.8 3  345 224 
 MON  HZ EP   2   1657 23.40                             107    -1.8 3  352 308 
 MON  HE ES   1   1658  2.07                             107    -1.1 5  352 308 
 MON  HZ I        1658  5.97        11.1 0.53                           352 308 
 SDV  BZ EP   2   1657 25.25                             107    -1.0 3  359  50 
 PRA  HZ EP   2   1657 29.93                             105    -0.1 3  393 209 
 PRA  HE ES   1   1658 11.24                             105    -0.5 4  393 209 
 PRA  HZ I        1658 17.19        13.6 0.62                           393 209 
                                                                                
