 2017  9 3 1753  0.9 L   6.769 -73.166135.1  RSN  8 0.4 1.5LRSN                1
 GAP=135        0.94       4.2     4.5  7.5 -0.3335E+01  0.1859E+02 -0.3501E+01E
 Epicentro: LOS SANTOS - SANTANDER                                             3
 ACTION:UPD 17-10-05 19:08 OP:rebc STATUS:               ID:20170903175300 L   I
 OLDACT:REG 17-09-03 21:14 OP:dhb  STATUS:               ID:20170903174742     3
 2017-09-03-1748-00M.COL___414                                                 6
 STAT SP IPHASW D HRMM SECON CODA AMPLIT PERI AZIMU VELO AIN AR TRES W  DIS CAZ7
 BAR2 EZ IP     D 1753 19.04                             171   -0.0810 19.6 185 
 BAR2 EZ ES       1753 33.57                             171    0.2010 19.6 185 
 BAR2 EZ I        1753 37.38         4.7 0.19            171           19.6 185 
 BRR  HZ IP     D 1753 21.02                             151    0.1810 71.0 302 
 BRR  HZ I        1753 42.47         6.4 0.16            144           71.0 302 
 PAM  EZ EP       1753 22.23                             147    0.0310 81.4  39 
 PAM  EN ES       1753 38.88                             147    0.0310 81.4  39 
 PAM  EZ I        1753 39.77         3.9 0.32            147           81.4  39 
 RUS  HZ EP       1753 23.09                             142   -0.2310 97.4 175 
 RUS  HN ES       1753 40.70                             142   -0.1510 97.4 175 
 RUS  HZ I        1753 42.35         3.2 0.27            145           97.4 175 
 ZAR  HZ EP       1753 33.29                             120    0.75 9  203 293 
 ZAR  HN ES       1753 56.39                             120   -0.87 9  203 293 
 ZAR  HZ I        1754  3.80         3.5 0.17            117            203 293 
 NOR  HZ EP       1753 35.05                             117   -0.51 8  231 235 
 NOR  HN ES       1754  3.05                             117    0.41 8  231 235 
 NOR  HZ I        1754  9.51         3.1 0.06            115            231 235 
 HEL  HE ES       1754 11.19                             113    0.30 8  269 256 
 HEL  HZ I        1754 18.76         3.3 0.14            111            269 256 
 GUY2CHN ES   4   1754 19.52                             110    2.67 0  297 235 
 GUY2CHZ I        1754 24.19         2.8 0.21                           297 235 
                                                                                
