 2010  2 3 1202 29.2 L   6.853 -73.167143.1  RSN  5 0.4 1.7LRSN                1
 GAP=227        0.68       5.5    11.1 10.5  0.2653E+02  0.7003E+02  0.1777E+02E
 Epicentro: LOS SANTOS - SANTANDER                                             3
 ACTION:UP  10-08-24 09:47 OP:vdl  STATUS:               ID:20100203120228 L   I
 2010-02-03-1159-50S.COL___089                                                 6
 STAT SP IPHASW D HRMM SECON CODA AMPLIT PERI AZIMU VELO SNR AR TRES W  DIS CAZ7
 BAR2 SZ EP   1   12 2 48.74                             168     0.1 7   29 184 
 BAR2 SZ ES   2   12 3  4.16                             168     0.4 5   29 184 
 RUS  HZ EP   2   12 2 53.12                             142     0.0 5  107 175 
 RUS  HN ES   2   12 3 10.83                             142    -0.9 5  107 175 
 RUS  HZ I        12 3 12.66         3.5 0.49                           107 175 
 CHI  HZ EP   1   12 3  7.02                             116    -0.2 6  254 194 
 CHI  HZ I        12 3  8.45         3.5 0.99                           254 194 
 CHI  HE ES   1   12 3 37.49                             116     0.5 6  254 194 
 MON  HE ES   1   12 3 54.84                             108    -0.2 5  347 308 
 PRA  HZ EP   1   12 3 23.29                             106     0.2 4  396 209 
 PRA  HE ES   1   12 4  4.83                             106    -0.3 4  396 209 
 PRA  HZ I        12 4  9.54         2.6 0.37                           396 209 
                                                                                
