 2014  4 3 1646 38.4 L   6.869 -73.201127.7  RSN  5 0.4 1.5LRSN                1
 GAP=242        0.85       7.2     5.9  9.4  0.2624E+02  0.1913E+01 -0.1149E+02E
 Epicentro: ZAPATOCA - SANTANDER                                               3
 ACTION:UPD 14-05-13 23:06 OP:nd   STATUS:               ID:20140403164638 L   I
 OLDACT:UP  14-04-04 11:03 OP:Mher STATUS:               ID:20140403164638 L   3
 OLDACT:REG 14-04-03 22:30 OP:stll STATUS:               ID:20140403163830     3
 2014-04-03-1638-30M.COL___240                                                 6
 STAT SP IPHASW D HRMM SECON CODA AMPLIT PERI AZIMU VELO AIN AR TRES W  DIS CAZ7
 RUS  HZ EP       1647  0.91                             137   -0.1610  109 173 
 RUS  HN ES       1647 18.98                             137    0.2310  109 173 
 RUS  HZ I        1647 20.14         3.8 0.26            134            109 173 
 PTB  HZ EP       1647  3.15                             128   -0.39 9  144 255 
 PTB  HN ES       1647 22.86                             128   -0.30 9  144 255 
 PTB  HZ I        1647 26.89         5.5 0.12            125            144 255 
 ZAR  HN ES       1647 32.95                             119    0.39 9  196 291 
 NOR  HZ EP       1647 12.79                             114   -0.31 8  234 232 
 NOR  HN ES       1647 40.23                             114    0.06 8  234 232 
 NOR  HZ I        1647 46.23         3.1 0.34            113            234 232 
 GUY2CHZ EP       1647 21.98                             109    0.80 7  301 233 
 GUY2CHN ES   4   1647 56.00                             109    1.45 0  301 233 
                                                                                
