 2013 10 3 1219 43.5 L   6.243 -73.696100.5  RSN 15 0.5 2.2LRSN 2.7WRSN        1
 SPEC AVERAGE  MO 13.2 ST181.1 OM  1.5 f0 18.8 R0.1801 AL 0.00 WI 20.0 MW  2.7 3
 SPEC SD       MO  0.2 ST258.4 OM  0.3 f0 12.9 R0.1330 AL      WI      MW  0.1 3
 GAP= 64        1.21       2.8     3.1  6.6 -0.1594E+01  0.7801E+01  0.3740E+01E
 Epicentro: LANDAZURI - SANTANDER                                              3
 SPEC BAR2SH Z MO 13.6 ST 41.6 OM  1.8 f0 12.3 R0.1564 AL-0.00 WI 20.0 MW  3.0 3
 SPEC BAR2SH Z T122011 K 0.050 GD  121 VS 5.20 DE 3.20 Q0750.0 QA 1.50 VS 5.20 3
 SPEC RUS HH Z MO 12.9 ST 49.0 OM  1.1 f0 21.9 R0.0879 AL-0.00 WI 20.0 MW  2.5 3
 SPEC RUS HH Z T122013 K 0.050 GD  127 VS 5.20 DE 3.20 Q0750.0 QA 1.50 VS 5.20 3
 SPEC PTB HH Z MO 13.2 ST632.3 OM  1.4 f0 40.0 R0.0481 AL-0.00 WI 20.0 MW  2.7 3
 SPEC PTB HH Z T122013 K 0.050 GD  135 VS 5.20 DE 3.20 Q0750.0 QA 1.50 VS 5.20 3
 SPEC BRR HH Z MO 13.2 ST 12.4 OM  1.4 f0 10.7 R0.1798 AL-0.00 WI 20.0 MW  2.8 3
 SPEC BRR HH Z T122015 K 0.050 GD  138 VS 5.20 DE 3.20 Q0750.0 QA 1.50 VS 5.20 3
 SPEC NOR HH Z MO 13.2 ST671.1 OM  1.3 f0 40.0 R0.0481 AL-0.00 WI 20.0 MW  2.8 3
 SPEC NOR HH Z T122024 K 0.050 GD  180 VS 5.20 DE 3.20 Q0750.0 QA 1.50 VS 5.20 3
 SPEC ZAR HH Z MO 13.3 ST218.5 OM  1.3 f0 26.0 R0.0740 AL-0.00 WI 20.0 MW  2.8 3
 SPEC ZAR HH Z T122031 K 0.050 GD  214 VS 5.20 DE 3.20 Q0750.0 QA 1.50 VS 5.20 3
 SPEC HEL HH Z MO 13.1 ST  1.5 OM  1.1 f0 5.69 R0.3381 AL-0.00 WI 20.0 MW  2.7 3
 SPEC HEL HH Z T122036 K 0.050 GD  226 VS 5.20 DE 3.20 Q0750.0 QA 1.50 VS 5.20 3
 SPECGUY2CHH Z MO 13.4 ST  0.4 OM  1.4 f0 2.90 R 0.663 AL-0.00 WI 20.0 MW  2.9 3
 SPECGUY2CHH Z T122039 K 0.050 GD238.2 VS 5.20 DE 3.20 Q0750.0 QA 1.50 VS 5.20 3
 SPEC RREFHH Z MO 13.2 ST0.711 OM  1.1 f0 4.23 R0.4548 AL-0.00 WI 20.0 MW  2.7 3
 SPEC RREFHH Z T122043 K 0.050 GD  256 VS 5.20 DE 3.20 Q0750.0 QA 1.50 VS 5.20 3
 SPEC ORTCHH Z MO 12.9 ST  2.7 OM  0.7 f0 8.25 R0.2332 AL-0.00 WI 20.0 MW  2.5 3
 SPEC ORTCHH Z T122057 K 0.050 GD  325 VS 5.20 DE 3.20 Q0750.0 QA 1.50 VS 5.20 3
 OLDACT:REG 13-10-03 13:49 OP:stll STATUS:               ID:20131003121842     3
 ACTION:UPD 13-11-25 09:19 OP:ep   STATUS:               ID:20131003121943 L   I
 OLDACT:UP  13-10-03 20:24 OP:stll STATUS:               ID:20131003121842     3
 2013-10-03-1218-42M.COL___234                                                 6
 STAT SP IPHASW D HRMM SECON CODA AMPLIT PERI AZIMU VELO AIN AR TRES W  DIS CAZ7
 BAR2 SZ IP     C 1220  0.57                             143    0.4710 68.7  56 
 BAR2 SZ ES       1220 13.43                             143    0.3510 68.7  56 
 BAR2 SZ I        1220 15.24       232.3 0.28            143           68.7  56 
 SPBC HZ EP       1220  0.77                             139    0.2010 77.5 213 
 SPBC HN ES       1220 13.98                             139    0.0610 77.5 213 
 SPBC SZ I        1220 17.99        33.9 0.24            137           77.5 213 
 RUS  HZ EP       1220  1.34                             139    0.1610 78.1 120 
 RUS  HN ES       1220 15.07                             139    0.0710 78.1 120 
 RUS  SZ I        1220 16.85        34.6 0.28            140           78.1 120 
 PTB  HZ IP     C 1220  0.75                             134   -0.7810 90.3 291 
 PTB  HN ES       1220 14.97                             134   -0.6610 90.3 291 
 PTB  SZ I        1220 20.87        26.0 0.12            132           90.3 291 
 BRR  HZ EP       1220  1.90                             133   -0.0810 95.5 359 
 BRR  HN ES       1220 16.92                             133    0.5010 95.5 359 
 BRR  SZ I        1220 25.37        18.2 0.14            131           95.5 359 
 NOR  HZ EP       1220  7.07                             119   -0.42 9  150 240 
 NOR  HN ES       1220 26.28                             119    0.05 9  150 240 
 NOR  SZ I        1220 29.79        29.5 0.16            117            150 240 
 PAM  SN ES       1220 29.41                             116   -0.45 9  164  42 
 CHI  HN ES       1220 31.57                             114   -1.00 9  178 181 
 ZAR  HZ EP       1220 11.53                             112   -0.14 9  189 317 
 ZAR  HN ES       1220 33.25                             112   -0.43 9  189 317 
 ZAR  SZ I        1220 36.53        40.2 0.14            112            189 317 
 HEL  HZ EP       1220 13.92                             111    0.17 9  203 268 
 HEL  HN ES       1220 37.64                             111    0.25 9  203 268 
 HEL  SZ I        1220 42.00        14.1 0.24            110            203 268 
 GUY2CHZ EP       1220 15.56                             109    0.11 8  216 239 
 GUY2CHN ES       1220 41.46                             109    1.06 8  216 239 
 GUY2CSZ I        1220 47.09        12.5 0.72                           216 239 
 RREF HZ EP       1220 18.05                             107    0.19 8  236 231 
 RREF HN ES       1220 45.29                             107    0.60 8  236 231 
 RREF SZ I        1220 52.62         9.9 0.80            107            236 231 
 ANIL HZ EP       1220 22.63                             104    1.06 8  271 224 
 ANIL SZ I        1220 59.72        24.8 0.28            105            271 224 
 PRA  HZ EP       1220 25.75                             101   -0.10 7  309 205 
 PRA  HN ES       1220 58.12                             101   -0.79 7  309 205 
 PRA  SZ I        1221  3.56         4.9 0.34            103            309 205 
 ORTC HZ EP       1220 26.10                             101    0.16 7  310 214 
 ORTC HN ES       1220 58.56                             101   -0.52 7  310 214 
 ORTC SZ I        1221  3.94         6.1 1.34            103            310 214 
                                                                                
