 2012  8 3 1735 39.7 L   6.687 -73.218150.0  RSN  4 0.1 1.3LRSN                1
 GAP=209        0.42       4.8     4.8  5.6  0.1180E+02  0.5879E+00  0.5332E+01E
 Epicentro: VILLANUEVA - SANTANDER                                             3
 ACTION:UPD 12-09-10 11:54 OP:ep   STATUS:               ID:20120803173539 L   I
 2012-08-03-1730-00M.COL___215                                                 6
 STAT SP IPHASW D HRMM SECON CODA AMPLIT PERI AZIMU VELO AIN AR TRES W  DIS CAZ7
 BAR2 SZ EP       1735 59.45                             176   -0.2210 11.2 160 
 BAR2 SZ I        1736 15.57         4.6 0.16                          11.2 160 
 BRR  HZ EP       1736  1.50                             153    0.1610 71.7 310 
 BRR  HN ES   1   1736 18.23                             153    0.01 7 71.7 310 
 RUS  HZ EP       1736  3.25                             148    0.1510 89.1 170 
 RUS  HZ I        1736  4.31         2.6 0.40                          89.1 170 
 RUS  HN ES   2   1736 21.33                             148   -0.02 5 89.1 170 
 PTB  HZ EP       1736  6.05                             135   -0.11 9  138 263 
 PTB  HN ES   2   1736 26.84                             135    0.04 5  138 263 
 PTB  HZ I        1736 33.10         3.0 0.14                           138 263 
                                                                                
