 2013  2 3 1717  4.0 L   7.088 -73.992 93.0  RSN  6 0.4 1.7LRSN                1
 GAP=144        0.97       4.7     3.3  7.5 -0.3210E+01 -0.8683E+00  0.1307E+02E
 Epicentro: BARRANCABERMEJA - SANTANDER                                        3
 ACTION:UPD 13-03-12 09:30 OP:ep   STATUS:               ID:20130203171704 L   I
 2013-02-03-1708-50M.COL___197                                                 6
 STAT SP IPHASW D HRMM SECON CODA AMPLIT PERI AZIMU VELO AIN AR TRES W  DIS CAZ7
 BRR  HZ EP       1717 17.40                             160    0.0910 31.0  86 
 BRR  HZ I        1717 17.67        20.4 0.22            158           31.0  86 
 BRR  HN ES       1717 28.01                             160    0.3610 31.0  86 
 PTB  HZ EP       1717 20.31                             136   -0.2210 79.4 220 
 PTB  HN ES       1717 32.98                             136   -0.4110 79.4 220 
 PTB  HN I        1717 34.85        27.0 0.18            135           79.4 220 
 ZAR  HZ EP   2   1717 21.68                             127   -1.24 5  106 295 
 ZAR  HN ES   1   1717 38.26                             127    0.61 7  106 295 
 PAM  SN ES       1717 45.69                             119   -0.43 9  145  79 
 RUS  HZ EP       1717 30.42                             115    0.46 9  166 143 
 RUS  HN ES       1717 50.07                             115   -0.10 9  166 143 
 RUS  HN I        1717 56.02         3.0 0.32            114            166 143 
 NOR  HZ EP       1717 33.05                             111    0.41 9  194 210 
 NOR  HE ES       1717 54.83                             111   -0.12 9  194 210 
 NOR  HN I        1717 58.65         9.8 0.14            111            194 210 
                                                                                
