 2013 10 3 1914 28.2 L   6.774 -73.140149.8  RSN  6 0.4 1.9LRSN                1
 GAP=138        1.10       5.3     5.6  8.0 -0.7402E+01  0.5065E+01  0.1250E+01E
 Epicentro: LOS SANTOS - SANTANDER                                             3
 ACTION:UPD 13-11-25 09:19 OP:ep   STATUS:               ID:20131003191428 L   I
 OLDACT:REG 13-10-03 17:59 OP:stll STATUS:               ID:20131003190842     3
 2013-10-03-1908-42M.COL___241                                                 6
 STAT SP IPHASW D HRMM SECON CODA AMPLIT PERI AZIMU VELO AIN AR TRES W  DIS CAZ7
 BAR2 SZ EP       1914 48.30                             172   -0.0110 20.6 193 
 BAR2 SZ ES       1915  4.20                             172    0.2410 20.6 193 
 BAR2 SZ I        1915  4.38        18.2 0.18            173           20.6 193 
 BRR  HZ EP       1914 50.31                             153    0.3810 73.1 300 
 BRR  HN ES       1915  7.41                             153    0.5510 73.1 300 
 PAM  SZ EP       1914 51.30                             151    0.3010 79.3  38 
 PAM  SN ES       1915  7.97                             151   -0.7810 79.3  38 
 PAM  SZ I        1915 10.80        12.3 0.60            151           79.3  38 
 RUS  HZ EP       1914 52.57                             145    0.3910 97.6 176 
 RUS  HN ES       1915 10.74                             145   -0.1210 97.6 176 
 PTB  HZ EP       1914 54.89                             133   -0.65 9  148 260 
 PTB  HN ES       1915 16.54                             133   -0.30 9  148 260 
 PTB  HZ I        1915 18.21         7.7 0.16            134            148 260 
 SPBC HN ES       1915 19.07                             130   -0.14 9  161 220 
                                                                                
