 2013  9 3 1529 53.9 L   6.801 -73.109147.4  RSN  6 0.4 1.7LRSN                1
 GAP=141        0.66       5.9     5.1  9.8 -0.1400E+01  0.2679E+01  0.5268E+01E
 Epicentro: LOS SANTOS - SANTANDER                                             3
 ACTION:UPD 13-10-22 09:19 OP:ep   STATUS:               ID:20130903152953 L   I
 OLDACT:REG 13-09-03 21:06 OP:mh   STATUS:               ID:20130903152850     3
 2013-09-03-1528-50M.COL___202                                                 6
 STAT SP IPHASW D HRMM SECON CODA AMPLIT PERI AZIMU VELO AIN AR TRES W  DIS CAZ7
 BAR2 SZ EP   1   1530 14.23                             170    0.48 7 24.5 199 
 PAM  SZ EP       1530 16.02                             152   -0.1110 74.8  37 
 PAM  SN ES   2   1530 33.19                             152   -0.28 5 74.8  37 
 BRR  HZ EP   1   1530 15.14                             152   -0.28 7 74.8 297 
 BRR  HN ES   2   1530 32.68                             152    0.47 5 74.8 297 
 RUS  HZ EP   1   1530 18.19                             144    0.39 7  101 178 
 RUS  HN ES   2   1530 36.17                             144   -0.28 5  101 178 
 RUS  HZ I        1530 39.82         2.1 0.42            146            101 178 
 PTB  HZ EP   1   1530 21.04                             132   -0.32 7  152 259 
 PTB  HN ES   2   1530 42.13                             132   -0.65 5  152 259 
 PTB  HN I        1530 44.17        10.6 0.24            133            152 259 
 ZAR  HN ES   2   1530 53.08                             122    0.56 4  208 292 
 ZAR  HN I        1530 56.38         7.2 0.28            125            208 292 
                                                                                
