 2014  1 3 1058 17.7 L   6.806 -73.121140.1  RSN  5 0.4 1.3LRSN                1
 GAP=246        0.87       7.3     6.2 11.7  0.2596E+02 -0.1285E+02 -0.3697E+02E
 Epicentro: LOS SANTOS - SANTANDER                                             3
 ACTION:UPD 14-03-13 09:51 OP:ep   STATUS:               ID:20140103105817 L   I
 OLDACT:REG 14-01-03 20:55 OP:mh   STATUS:               ID:20140103105737     3
 2014-01-03-1057-37M.COL___234                                                 6
 STAT SP IPHASW D HRMM SECON CODA AMPLIT PERI AZIMU VELO AIN AR TRES W  DIS CAZ7
 BAR2 SZ EP   1   1058 37.27                             170    0.62 8 24.6 196 
 BAR2 SZ I        1058 53.76         5.0 0.26            175           24.6 196 
 RUS  HN EP       1058 41.06                             142    0.1510  101 178 
 RUS  HZ ES       1058 58.65                             142   -0.3810  101 178 
 RUS  HN I        1059  0.77         2.3 0.17            152            101 178 
 PTB  HZ EP       1058 43.88                             130   -0.56 9  151 259 
 PTB  HN ES       1059  5.24                             130   -0.08 9  151 259 
 PTB  HZ I        1059 10.10         1.9 0.07            139            151 259 
 SPBC HZ EP       1058 45.94                             127   -0.01 9  165 220 
 SPBC HN ES       1059  8.46                             127    0.44 9  165 220 
 SPBC HZ I        1059 13.49         4.1 0.15            138            165 220 
 ZAR  HE ES       1059 15.30                             121    0.10 8  206 292 
                                                                                
