 2011 11 3 1910 18.3 L   7.162 -73.002159.9  RSN  6 0.3 2.1LRSN                1
 GAP=154        0.53       4.3     5.0  5.3 -0.3825E+01  0.1234E+00  0.3882E+01E
 Epicentro: TONA - SANTANDER                                                   3
 ACTION:UPD 12-07-13 16:07 OP:ep   STATUS:               ID:20111103191018 L   I
 2011-11-03-1909-27S.COL___176                                                 6
 STAT SP IPHASW D HRMM SECON CODA AMPLIT PERI AZIMU VELO AIN AR TRES W  DIS CAZ7
 PAM  SZ EP       1910 40.53                             166    0.1210 38.7  60 
 PAM  SN ES   1   1910 57.26                             166   -0.38 7 38.7  60 
 BTL  SZ EP       1910 40.29                             165    0.2210 39.8 227 
 BAR2 SZ EP       1910 41.16                             156    0.0410 66.1 198 
 BAR2 SZ I        1910 41.46        25.5 0.28                          66.1 198 
 BAR2 SZ ES   2   1910 58.79                             156   -0.10 5 66.1 198 
 BRR  HZ EP       1910 41.24                             152   -0.1910 78.7 266 
 BRR  HZ I        1910 42.33        25.3 0.10                          78.7 266 
 BRR  HE ES   1   1910 59.72                             152    0.27 7 78.7 266 
 RUS  HZ EP       1910 46.46                             137   -0.08 9  141 184 
 RUS  HE ES   1   1911  8.72                             137    0.18 7  141 184 
 RUS  HZ I        1911 10.23         9.1 0.34                           141 184 
 NOR  SE ES   2   1911 29.72                             117   -0.78 4  272 230 
                                                                                
