 2014 12 3 1656 26.6 L   6.919 -73.081159.9  RSN  4 0.1 1.5LRSN                1
 GAP=252        0.33       4.3     2.9  4.0  0.8135E+01 -0.1402E+01 -0.5775E+01E
 Epicentro: PIEDECUESTA - SANTANDER                                            3
 ACTION:UPD 15-02-10 17:00 OP:nd   STATUS:               ID:20141203165626 L   I
 OLDACT:REG 14-12-03 21:01 OP:spq  STATUS:               ID:20141203164749     3
 2014-12-03-1647-49M.COL___303                                                 6
 STAT SP IPHASW D HRMM SECON CODA AMPLIT PERI AZIMU VELO AIN AR TRES W  DIS CAZ7
 BAR2 SZ EP       1656 48.31                             166   -0.0010 37.8 197 
 BAR2 SZ ES   1   1657  5.14                             166   -0.08 7 37.8 197 
 BAR2 SZ I        1657  6.57         5.0 0.35            166           37.8 197 
 RUS  HZ EP   1   1656 52.65                             143   -0.05 7  113 180 
 RUS  HN ES   1   1657 13.21                             143    0.17 7  113 180 
 RUS  HZ I        1657 15.41         2.6 0.36            144            113 180 
 PTB  HZ EP     D 1656 55.64                             133   -0.02 9  158 255 
 PTB  HN ES       1657 18.21                             133   -0.09 9  158 255 
 PTB  HZ I        1657 19.22         3.8 0.30            134            158 255 
 ZAR  HN ES       1657 26.59                             125    0.11 8  206 288 
 ZAR  HZ I        1657 28.37         3.2 0.05            127            206 288 
                                                                                
