 2017  3 3 1450 17.8 L   6.758 -73.175138.0  RSN  9 0.5 1.7LRSN                1
 GAP=135        1.20       4.5     4.8  7.6 -0.1091E+00  0.9293E+01  0.9450E+01E
 Epicentro: LOS SANTOS - SANTANDER                                             3
 ACTION:UPD 17-05-25 18:35 OP:jn   STATUS:               ID:20170303145017 L   I
 OLDACT:REG 17-03-03 20:42 OP:lv   STATUS:               ID:20170303144749     3
 2017-03-03-1448-00M.COL___390                                                 6
 STAT SP IPHASW D HRMM SECON CODA AMPLIT PERI AZIMU VELO AIN AR TRES W  DIS CAZ7
 BAR2 EZ EP       1450 36.29                             172   -0.1110 18.4 183 
 BAR2 EZ ES       1450 51.24                             172    0.3310 18.4 183 
 BAR2 EZ I        1450 52.33        13.4 0.18            170           18.4 183 
 BRR  HZ EP       1450 38.15                             151    0.0610 70.8 303 
 BRR  HN ES       1450 54.60                             151    0.6810 70.8 303 
 PAM  EZ EP       1450 39.29                             147   -0.2610 83.0  39 
 PAM  EN ES       1450 56.20                             147   -0.3210 83.0  39 
 PAM  EZ I        1450 58.63         5.3 0.19            151           83.0  39 
 RUS  HZ EP       1450 40.80                             143    0.3210 96.3 174 
 RUS  HN ES       1450 57.74                             143   -0.4210 96.3 174 
 RUS  HZ I        1451  0.04         4.0 0.32            143           96.3 174 
 PTB  HZ EP       1450 43.14                             131   -0.64 9  144 260 
 PTB  HN ES       1451  3.23                             131   -0.80 9  144 260 
 PTB  HZ I        1451  6.32         6.9 0.14            131            144 260 
 SPBC HN ES   4   1451  8.06                             128    1.54 0  158 219 
 SPBC HZ I        1451  9.97        11.1 0.07            128            158 219 
 ZAR  HN ES       1451 15.08                             121    0.63 9  203 294 
 ZAR  HZ I        1451 20.39         7.9 0.21            121            203 294 
 NOR  HZ EP       1450 52.78                             117    0.26 8  229 235 
 NOR  HN ES       1451 19.03                             117   -0.56 8  229 235 
 NOR  HZ I        1451 22.05         3.4 0.21            118            229 235 
 CHI  HZ EP       1450 54.98                             116    0.48 8  243 195 
 CHI  HN ES       1451 23.81                             116    0.69 8  243 195 
 CHI  HZ I        1451 30.65         2.1 0.43            116            243 195 
                                                                                
