 2012  5 3 1600 39.5 L   6.871 -73.117147.4  RSN  5 0.3 1.4LRSN                1
 GAP=136        0.64       5.3     5.7  8.6  0.2441E+01  0.9069E+01  0.1495E+02E
 Epicentro: LOS SANTOS - SANTANDER                                             3
 ACTION:UP  12-07-05 12:01 OP:pat  STATUS:               ID:20120503160039 L   I
 2012-05-03-1600-00M.COL___186                                                 6
 STAT SP IPHASW D HRMM SECON CODA AMPLIT PERI AZIMU VELO SNR AR TRES W  DIS CAZ7
 BAR2 SZ EP   1   16 0 59.51                             167     0.0 7   32 193 
 BAR2 SZ I        16 1 18.76         6.5 0.29                            32 193 
 PAM  SN ES   1   16 1 18.29                             154    -0.3 7   69  42 
 BRR  HZ EP   1   16 1  1.12                             153     0.3 7   71 292 
 BRR  HN ES   1   16 1 17.70                             153     0.3 7   71 292 
 BRR  HZ I        16 1 20.81         7.8 0.23                            71 292 
 RUS  HZ EP   1   16 1  4.14                             142     0.1 7  108 178 
 RUS  HN ES   1   16 1 23.15                             142     0.1 7  108 178 
 RUS  HZ I        16 1 24.61         1.4 0.25                           108 178 
 PTB  HZ EP   2   16 1  6.61                             131    -0.5 5  153 256 
 PTB  HN ES   2   16 1 27.90                             131    -0.6 5  153 256 
 PTB  HZ I        16 1 34.46         3.7 0.35                           153 256 
                                                                                
