 2013  3 3 1112 41.7 L   6.745 -73.141152.4  RSN  5 0.4 1.2LRSN                1
 GAP=200        0.64       6.3     7.5 10.5  0.2190E+02 -0.2672E+02 -0.3883E+02E
 Epicentro: JORDAN - SANTANDER                                                 3
 ACTION:UPD 13-04-09 13:59 OP:ep   STATUS:               ID:20130303111241 L   I
 2013-03-03-1110-00M.COL___228                                                 6
 STAT SP IPHASW D HRMM SECON CODA AMPLIT PERI AZIMU VELO AIN AR TRES W  DIS CAZ7
 BAR2 SZ EP   1   1113  2.40                             174    0.41 7 17.5 195 
 BRR  HZ EP   2   1113  4.16                             153    0.43 5 74.8 302 
 BRR  HN ES   1   1113 21.15                             153    0.21 7 74.8 302 
 RUS  HE ES   1   1113 23.97                             147   -0.39 7 94.5 176 
 RUS  HZ I        1113 26.23         1.7 0.44            139           94.5 176 
 PTB  HN ES   1   1113 30.42                             134   -0.14 7  147 261 
 PTB  HZ I        1113 36.32         2.5 0.68            125            147 261 
 SML  HZ EP   1   1113 19.12                             118   -0.16 6  249 336 
 SML  HE ES   2   1113 47.89                             118   -0.74 4  249 336 
                                                                                
