 2012  1 3 1226 55.9 L   7.114 -73.326117.1  RSN  4 0.4 1.4LRSN                1
 GAP=187        0.73       9.1     7.4 10.4 -0.1398E+02  0.4126E+02 -0.2389E+02E
 Epicentro: LEBRIJA - SANTANDER                                                3
 ACTION:UP  12-02-03 08:13 OP:REBC STATUS:               ID:20120103122655 L   I
 2012-01-03-1220-00M.COL___184                                                 6
 STAT SP IPHASW D HRMM SECON CODA AMPLIT PERI AZIMU VELO SNR AR TRES W  DIS CAZ7
 BAR2 SZ EP       1227 13.96                             151     0.310   60 165 
 BAR2 SZ ES       1227 27.62                             151     0.110   60 165 
 BAR2 SZ I        1227 29.07         8.8 0.24                            60 165 
 PAM  SE ES   2   1227 29.20                             146    -0.5 5   74  70 
 RUS  HZ EP   2   1227 20.39                             127     0.1 5  138 169 
 RUS  HE ES   2   1227 38.63                             127    -0.7 5  138 169 
 RUS  HZ I        1227 42.20         2.5 0.35                           138 169 
 PTB  HZ EP   1   1227 19.52                             126    -0.4 7  140 243 
 PTB  HN ES   2   1227 38.59                             126    -0.1 5  140 243 
                                                                                
