 2010  6 3 1624 30.5 L   6.862 -73.148146.0  RSN 14 0.5 3.6LRSN                1
 GAP=136        1.22       3.6     6.5  6.3 -0.8964E+01  0.1365E+02  0.2706E+01E
 Epicentro: LOS SANTOS - SANTANDER                                             3
 ACTION:UP  10-08-24 10:08 OP:vdl  STATUS:               ID:20100603162430 L   I
 2010-06-03-1619-14S.COL___109                                                 6
 STAT SP IPHASW D HRMM SECON CODA AMPLIT PERI AZIMU VELO SNR AR TRES W  DIS CAZ7
 GIR2 SZ EP       1624 50.02                             170     0.010   24 348 
 GIR2 SZ ES       1625  5.07                             170    -0.210   24 348 
 BAR2 SZ IP       1624 49.92                             168    -0.410   30 187 
 BAR2 SZ ES       1625  4.89                             168    -0.910   30 187 
 GUE  SZ EP       1624 54.85                             141     0.210  110  13 
 GUE  SZ ES   1   1625 14.06                             141     0.5 7  110  13 
 GRA  SZ IP       1624 55.83                             138     0.610  119  19 
 GRA  SZ ES   1   1625 14.91                             138     0.4 7  119  19 
 OCA  SZ EP       1624 58.36                             131     0.2 9  153 353 
 OCA  SZ ES       1625 19.93                             131     0.2 9  153 353 
 OCA  SZ I        1625 24.86       493.5 0.35                           153 353 
 CHI  HZ EP       1625  8.27                             116    -0.6 8  255 195 
 CHI  HN ES   1   1625 39.49                             116     0.6 6  255 195 
 CHI  HZ I        1625 43.60       195.7 0.20                           255 195 
 ROSC BZ EP       1625  9.91                             116     0.7 8  259 210 
 ROSC BN ES       1625 40.38                             116     0.9 8  259 210 
 ROSC BZ I        1625 43.82       315.1 0.10                           259 210 
 HEL  HZ EP       1625 11.42                             114     0.5 8  274 254 
 HEL  HN ES   1   1625 42.45                             114     0.1 6  274 254 
 HEL  HZ I        1625 49.17       223.3 0.53                           274 254 
 CVER SZ EP       1625 11.47                             114    -0.1 7  278 202 
 CVER SZ ES   1   1625 43.24                             114    -0.3 6  278 202 
 RREF BZ EP       1625 16.93                             110    -0.2 7  326 228 
 RREF BN ES   2   1625 54.08                             110     0.6 3  326 228 
 RREF BZ I        1625 58.35       195.1 0.46                           326 228 
 DBB  SZ EP       1625 17.92                             109     0.0 7  339 273 
 MON  HN ES       1625 55.92                             109    -0.8 6  348 308 
 TOL  SZ EP       1625 19.18                             109    -0.1 6  348 224 
 MON  HZ EP   1   1625 17.50                             109    -1.4 5  348 308 
 MON  HZ I        1625 56.83        81.3 1.23                           348 308 
 SDV  BZ EP       1625 19.41                             108    -0.6 6  356  51 
 SDV  BZ I        1625 20.38       124.5 0.06                           356  51 
                                                                                
