 2012  3 3 1750 36.5 L   6.753 -73.131144.8  RSN  6 0.4 2.1LRSN                1
 GAP=235        0.84       6.7     7.6  8.3  0.2268E+02  0.2093E+02  0.1969E+01E
 ACTION:UP  12-03-31 23:16 OP:EP   STATUS:               ID:20120303175036 L   I
 2012-03-03-1750-00M.COL___191                                                 6
 STAT SP IPHASW D HRMM SECON CODA AMPLIT PERI AZIMU VELO SNR AR TRES W  DIS CAZ7
 BAR2 SZ EP   1   1750 55.77                             172    -0.2 7   19 198 
 BAR2 SZ ES   1   1751 10.79                             172    -0.3 7   19 198 
 BAR2 SZ I        1751 12.00        40.0 0.28                            19 198 
 BRR  HZ EP   1   1750 57.83                             151     0.0 7   75 301 
 BRR  HE ES   1   1751 14.61                             151     0.2 7   75 301 
 BRR  HZ I        1751 15.47        24.4 0.14                            75 301 
 RUS  HZ EP   1   1750 59.79                             145     0.0 7   95 177 
 RUS  HZ I        1751  0.89         8.5 0.23                            95 177 
 RUS  HN ES   1   1751 18.42                             145     0.4 7   95 177 
 PTB  HZ EP   1   1751  2.82                             132    -0.7 7  148 261 
 ZAR  HZ EP   1   1751 10.05                             122     0.8 6  208 293 
 ZAR  HN ES   1   1751 34.75                             122    -0.1 6  208 293 
 ZAR  HZ I        1751 40.19        13.2 0.33                           208 293 
 NOR  SN ES   1   1751 39.71                             118     0.0 6  233 236 
                                                                                
