 2014  7 3 1056 35.0 L   6.859 -73.183137.3  RSN 15 0.3 1.9LRSN                1
 GAP=129        0.79       2.0     2.9  5.8 -0.5974E+00  0.8308E+01  0.6901E+00E
 Epicentro: ZAPATOCA - SANTANDER                                               3
 ACTION:UPD 15-03-16 20:40 OP:nd   STATUS:               ID:20140703105635 L   I
 OLDACT:UP  14-07-03 22:21 OP:spq  STATUS:               ID:20140703104818     3
 OLDACT:REG 14-07-03 20:25 OP:spq  STATUS:               ID:20140703104818     3
 2014-07-03-1048-18M.COL___256                                                 6
 STAT SP IPHASW D HRMM SECON CODA AMPLIT PERI AZIMU VELO AIN AR TRES W  DIS CAZ7
 BAR2 SZ IP     D 1056 53.80                             167    0.0810 29.5 180 
 BAR2 SZ ES   1   1057  7.74                             167   -0.61 7 29.5 180 
 BAR2 SZ I        1057  9.78        19.7 0.24            167           29.5 180 
 PAM  SZ IP     D 1056 56.46                             150    0.3110 75.4  45 
 PAM  SE ES       1057 12.93                             150    0.2510 75.4  45 
 PAM  SZ I        1057 15.29        40.1 0.44            154           75.4  45 
 RUS  HZ EP       1056 57.98                             140   -0.4310  107 174 
 RUS  HN ES       1057 16.81                             140    0.1110  107 174 
 RUS  HZ I        1057 18.49         5.4 0.36            142            107 174 
 PTB  HZ EP       1057  0.68                             131   -0.32 9  145 256 
 PTB  HN ES       1057 21.42                             131    0.11 9  145 256 
 PTB  HZ I        1057 24.27        10.9 0.16            130            145 256 
 OCA  HN ES       1057 22.87                             129   -0.15 9  153 354 
 OCA  HZ I        1057 25.06         8.1 0.31            130            153 354 
 SPBC HN ES       1057 24.74                             127   -0.26 9  166 216 
 SPBC HZ I        1057 33.28         9.9 0.22            127            166 216 
 ZAR  HN ES       1057 31.22                             121    0.63 9  198 291 
 ZAR  HZ I        1057 36.67        10.0 0.13            121            198 291 
 SML  HZ EP   1   1057 10.30                             116    0.02 6  236 336 
 SML  HN ES       1057 37.58                             116   -0.26 8  236 336 
 SML  HZ I        1057 43.24        11.1 0.10            117            236 336 
 CHI  HN ES       1057 42.89                             115    0.61 8  254 194 
 CHI  HZ I        1057 45.24         2.7 0.18            116            254 194 
 HEL  HN ES       1057 45.55                             113    0.23 8  270 254 
 HEL  HZ I        1057 52.80         3.4 0.40            114            270 254 
 URE  HN ES       1057 45.74                             112   -0.35 7  278 291 
 URE  HZ I        1057 54.79         7.2 0.36            113            278 291 
 GUY2CHZ EP       1057 18.23                             111   -0.01 7  302 233 
 GUY2CHE ES       1057 52.38                             111    0.38 7  302 233 
 GUY2CHZ I        1058  1.93         2.9 0.32                           302 233 
 RREF HN ES       1057 56.14                             109   -0.56 7  323 228 
 RREF HZ I        1058  4.67         2.7 0.26            110            323 228 
 PRA  HN ES       1058 10.50                             105    0.01 6  396 209 
 PRA  HZ I        1058 17.85         2.7 0.28            106            396 209 
 SJC  HN ES   4   1058  7.85                             105   -3.91 0  402 327 
 SJC  HZ I        1058 12.41         1.4 0.29            106            402 327 
                                                                                
