 2014  6 3 1010  4.9 L   6.757 -73.166133.9  RSN  5 0.5 1.3LRSN                1
 GAP=136        1.23       6.1     5.6  9.6 -0.1002E+01  0.2124E+02 -0.1029E+02E
 Epicentro: LOS SANTOS - SANTANDER                                             3
 ACTION:UPD 14-07-01 22:50 OP:nd   STATUS:               ID:20140603101004 L   I
 OLDACT:DUP 14-06-03 21:22 OP:stll STATUS:               ID:20140603100819d    3
 2014-06-03-1008-18M.COL___253                                                 6
 STAT SP IPHASW D HRMM SECON CODA AMPLIT PERI AZIMU VELO AIN AR TRES W  DIS CAZ7
 BAR2 SZ EP       1010 23.22                             172    0.1710 18.3 186 
 BAR2 SZ ES       1010 38.00                             172    0.8310 18.3 186 
 BAR2 SZ I        1010 39.63         5.0 0.42            175           18.3 186 
 PAM  SZ EP       1010 26.36                             147    0.1210 82.5  39 
 PAM  SN ES       1010 42.24                             147   -0.6210 82.5  39 
 PAM  SZ I        1010 47.71         3.2 0.34            148           82.5  39 
 RUS  HZ EP       1010 27.39                             143    0.1910 96.0 175 
 RUS  HN ES       1010 44.23                             143   -0.3410 96.0 175 
 RUS  HZ I        1010 46.46         2.3 0.22            148           96.0 175 
 PTB  HZ EP       1010 30.03                             130   -0.65 9  145 261 
 PTB  HN ES       1010 50.36                             130   -0.40 9  145 261 
 PTB  HZ I        1010 52.83         3.5 0.22            133            145 261 
 ZAR  HZ EP       1010 37.31                             120    0.69 9  204 294 
 ZAR  HN ES       1011  1.42                             120    0.09 9  204 294 
 ZAR  HZ I        1011  4.07         3.1 0.14            122            204 294 
                                                                                
