 2013  9 3 1458 11.7 L   6.796 -73.149146.5  RSN  8 0.4 2.0LRSN                1
 GAP=136        0.73       4.4     4.4  6.4 -0.1158E+01  0.3916E+01 -0.5890E+01E
 Epicentro: LOS SANTOS - SANTANDER                                             3
 ACTION:UPD 13-10-22 09:19 OP:ep   STATUS:               ID:20130903145811 L   I
 OLDACT:UP  13-09-03 21:14 OP:mh   STATUS:               ID:20130903145738     3
 OLDACT:REG 13-09-03 21:06 OP:mh   STATUS:               ID:20130903145738     3
 2013-09-03-1457-38M.COL___202                                                 6
 STAT SP IPHASW D HRMM SECON CODA AMPLIT PERI AZIMU VELO AIN AR TRES W  DIS CAZ7
 BAR2 SZ EP   1   1458 31.54                             171    0.17 8 22.8 189 
 BAR2 SZ ES   1   1458 46.44                             171   -0.30 8 22.8 189 
 BAR2 SZ I        1458 48.75         9.8 0.24            169           22.8 189 
 BRR  HZ EP   1   1458 33.35                             153    0.47 8 71.1 299 
 BRR  HN ES   2   1458 50.60                             153    1.17 5 71.1 299 
 BRR  HZ I        1458 54.58        17.6 0.34            149           71.1 299 
 PAM  SZ EP   1   1458 34.22                             150    0.24 8 78.0  40 
 PAM  SN ES   2   1458 51.10                             150   -0.30 5 78.0  40 
 PAM  SN I        1458 52.74        13.8 0.44            156           78.0  40 
 RUS  HZ EP   1   1458 35.52                             144    0.07 8  100 176 
 RUS  HN ES   2   1458 53.95                             144   -0.06 5  100 176 
 RUS  HZ I        1458 56.84         6.3 0.40            149            100 176 
 PTB  HZ EP   1   1458 38.16                             132   -0.48 7  147 259 
 PTB  HN ES       1458 59.35                             132   -0.3410  147 259 
 PTB  HZ I        1459  6.60        15.5 0.28            132            147 259 
 SPBC HZ EP   1   1458 40.43                             129    0.27 7  163 219 
 SPBC HN ES   2   1459  2.11                             129   -0.28 5  163 219 
 SPBC HZ I        1459  6.45        14.0 0.18            132            163 219 
 ZAR  HZ EP   1   1458 44.24                             123    0.11 7  204 292 
 ZAR  HN ES   2   1459 10.13                             123    0.67 5  204 292 
 ZAR  HZ I        1459 17.56         9.3 0.40            123            204 292 
 SML  HZ EP   1   1458 47.88                             118   -0.47 6  244 335 
 SML  HN ES   2   1459 16.30                             118   -0.67 4  244 335 
 SML  HN I        1459 23.19        21.1 0.10            120            244 335 
 GUY2CHZ EP   4   1458 57.15                             112    1.92 0  301 235 
 GUY2CHN ES   4   1459 31.59                             112    2.36 0  301 235 
                                                                                
