 2015 12 3 1204  2.3 L   6.366 -73.545109.1  RSN 10 0.4 1.8LRSN                1
 GAP= 78        1.08       3.2     3.9  6.2 -0.8376E-01  0.9592E+01  0.1919E+01E
 Epicentro: SANTA HELENA DEL OPON - SANTANDER                                  3
 ACTION:UPD 16-02-04 15:02 OP:cam  STATUS:               ID:20151203120402 L   I
 OLDACT:REG 15-12-03 20:28 OP:drio STATUS:               ID:20151203115750     3
 2015-12-03-1157-50M.COL___321                                                 6
 STAT SP IPHASW D HRMM SECON CODA AMPLIT PERI AZIMU VELO AIN AR TRES W  DIS CAZ7
 BAR2 EZ EP     D 12 4 18.63                             155    0.1010 47.3  58 
 BAR2 EZ ES       12 4 31.23                             155    0.0710 47.3  58 
 BAR2 EZ I        12 4 33.58        16.7 0.30            160           47.3  58 
 RUS  HZ EP       12 4 20.39                             144   -0.1110 73.1 136 
 RUS  HE ES       12 4 34.45                             144   -0.2110 73.1 136 
 RUS  HZ I        12 4 36.96         8.2 0.28            149           73.1 136 
 BRR  HZ EP       12 4 20.54                             139   -0.0910 84.1 347 
 BRR  HN ES       12 4 35.42                             139    0.5110 84.1 347 
 BRR  HZ I        12 4 41.49        15.9 0.50            142           84.1 347 
 SPBC HZ EP       12 4 21.73                             135   -0.2010 98.1 217 
 SPBC HE ES       12 4 37.61                             135    0.4010 98.1 217 
 SPBC HZ I        12 4 43.03        19.2 0.40            137           98.1 217 
 PTB  HZ EP       12 4 21.43                             133   -0.7910  103 281 
 PTB  HN ES       12 4 37.35                             133   -0.3910  103 281 
 PTB  HZ I        12 4 38.97         8.0 0.24            135            103 281 
 NOR  HZ EP       12 4 29.94                             118    0.80 9  171 239 
 NOR  HN ES       12 4 49.54                             118   -0.51 9  171 239 
 NOR  HZ I        12 4 53.15         5.7 0.58            121            171 239 
 ZAR  HZ EP       12 4 31.61                             115    0.34 9  191 311 
 ZAR  HE ES       12 4 53.94                             115    0.11 9  191 311 
 ZAR  HZ I        12 4 59.87        10.3 0.36            118            191 311 
 GUY2CHZ EP       12 4 37.97                             109    0.84 8  238 238 
 GUY2CHN ES   4   12 5  5.48                             109    1.22 0  238 238 
 GUY2CHZ I        12 5 17.32         2.1 0.74                           238 238 
 SML  HZ EP       12 4 40.30                             106   -0.61 7  276 348 
 SML  HN ES   4   12 5  9.64                             106   -1.35 0  276 348 
 SML  HZ I        12 5 13.58         9.1 0.24            109            276 348 
 PRA  HZ EP       12 4 47.05                             102   -0.22 7  329 207 
 PRA  HN ES       12 5 22.37                             102    0.06 7  329 207 
 PRA  HZ I        12 5 28.98         3.3 0.20            105            329 207 
                                                                                
