 2011  7 3 1248 29.4 L   6.780 -73.133147.5  RSN 16 0.3 2.2LRSN                1
 GAP=139        0.60       2.2     3.9  3.4 -0.3605E+01  0.2123E+01  0.1090E+01E
 Epicentro: LOS SANTOS - SANTANDER                                             3
 ACTION:UPD 12-07-25 13:58 OP:epov STATUS:               ID:20110703124829 L   I
 2011-07-03-1246-08S.COL___140                                                 6
 STAT SP IPHASW D HRMM SECON CODA AMPLIT PERI AZIMU VELO AIN AR TRES W  DIS CAZ7
 BTL  SZ IP       1248 49.40                             171    0.1910 21.4 316 
 BTL  SZ ES   1   1249  4.91                             171    0.25 7 21.4 316 
 BAR2 SZ IP       1248 49.11                             171   -0.1010 21.5 195 
 BAR2 SZ ES   1   1249  3.90                             171   -0.76 7 21.5 195 
 BAR2 SZ I        1249  6.90        49.0 0.28                          21.5 195 
 GIR2 SZ ES   2   1249  4.77                             166   -0.14 5 33.7 348 
 BRR  HZ EP       1248 51.01                             152    0.1310 73.5 299 
 BRR  HN ES   1   1249  8.21                             152    0.59 7 73.5 299 
 BRR  HZ I        1249 10.30        34.6 0.14                          73.5 299 
 PAM  SZ EP   2   1248 52.09                             151    0.23 5 78.2  38 
 PAM  SN ES   3   1249  8.63                             151   -0.73 2 78.2  38 
 RUS  HZ EP       1248 53.12                             145   -0.0510 98.3 177 
 RUS  HN ES   1   1249 11.76                             145    0.06 7 98.3 177 
 BRI  SZ EP       1248 53.66                             141    0.0810  110  20 
 BRI  SZ ES   1   1249 12.62                             141    0.19 7  110  20 
 GRA  SZ EP       1248 54.90                             137   -0.0510  127  17 
 GRA  SZ ES   1   1249 15.01                             137    0.15 7  127  17 
 GRA  SZ I        1249 15.73        11.5 0.46                           127  17 
 OCA  SZ EP       1248 57.94                             130   -0.13 9  163 353 
 OCA  SZ ES   1   1249 19.90                             130   -0.53 7  163 353 
 OCA  SZ I        1249 24.19        14.2 0.27                           163 353 
 NOR  SZ EP       1249  4.71                             119   -0.52 8  235 235 
 NOR  SN ES   2   1249 32.64                             119   -0.53 4  235 235 
 CHI  HZ EP       1249  7.32                             118    0.30 8  247 196 
 CHI  HZ I        1249  7.82         9.6 0.38                           247 196 
 CHI  HN ES   2   1249 36.64                             118    0.29 4  247 196 
 ROSC BN ES   2   1249 37.22                             117    0.00 4  252 212 
 ROSC BZ I        1249 44.35        15.1 0.55                           252 212 
 HEL  HZ EP   1   1249  9.45                             115   -0.36 6  273 256 
 HEL  HN ES   2   1249 41.85                             115    0.53 4  273 256 
 HEL  HZ I        1249 48.07         9.0 0.39                           273 256 
 RREF HZ EP   3   1249 16.69                             111    1.10 2  321 230 
 RREF HN ES   2   1249 51.69                             111    0.08 3  321 230 
 RREF HZ I        1250  1.13         8.4 0.30                           321 230 
 DBB  SZ EP   3   1249 17.00                             110   -0.14 2  341 275 
 PRA  HZ EP       1249 23.22                             107    0.37 6  391 210 
 PRA  HN ES   3   1250  4.50                             107   -0.04 1  391 210 
                                                                                
