 2014  7 3 1459  0.0 L   6.793 -73.193128.0  RSN  7 0.3 1.5LRSN                1
 GAP=131        0.82       3.0     3.5  7.7 -0.1264E+01  0.1034E+02 -0.5026E+01E
 Epicentro: ZAPATOCA - SANTANDER                                               3
 ACTION:UPD 15-03-16 20:40 OP:nd   STATUS:               ID:20140703145900 L   I
 OLDACT:REG 14-07-03 21:10 OP:spq  STATUS:               ID:20140703145819     3
 2014-07-03-1458-19M.COL___259                                                 6
 STAT SP IPHASW D HRMM SECON CODA AMPLIT PERI AZIMU VELO AIN AR TRES W  DIS CAZ7
 BAR2 SZ IP     D 1459 17.73                             170    0.2510 22.3 177 
 BAR2 SZ ES   1   1459 30.66                             170   -0.44 7 22.3 177 
 BAR2 SZ I        1459 34.04         6.6 0.20            172           22.3 177 
 PAM  SZ EP       1459 20.52                             146   -0.1110 81.3  42 
 PAM  SN ES       1459 36.54                             146   -0.1710 81.3  42 
 PAM  SZ I        1459 39.55         5.6 0.52            151           81.3  42 
 RUS  HZ EP       1459 21.89                             140   -0.1410  100 173 
 RUS  HN ES       1459 39.83                             140    0.6210  100 173 
 RUS  HZ I        1459 41.46         2.6 0.32            146            100 173 
 PTB  HZ EP       1459 24.64                             129   -0.44 9  143 259 
 PTB  HN ES       1459 44.80                             129    0.16 9  143 259 
 PTB  HZ I        1459 48.12         3.2 0.20            131            143 259 
 SPBC HN ES       1459 47.41                             126   -0.33 9  159 218 
 SPBC HZ I        1459 50.61         6.0 0.06            129            159 218 
 ZAR  HN ES       1459 55.05                             119    0.10 9  200 293 
 ZAR  HZ I        15 0  1.68         4.0 0.26            122            200 293 
 SML  HN ES       15 0  3.63                             114    0.38 8  242 336 
 SML  HZ I        15 0  6.20         4.4 0.09            117            242 336 
                                                                                
