 2013  5 3 1803 27.6 L   6.035 -73.592 95.2  RSN  4 0.3 1.6LRSN                1
 GAP=144        0.58       5.3     5.2 10.8 -0.5963E+01  0.4138E+02 -0.1457E+02E
 Epicentro: GUEPSA - SANTANDER                                                 3
 ACTION:UPD 13-06-20 09:47 OP:ep   STATUS:               ID:20130503180327 L   I
 2013-05-03-1800-00M.COL___253                                                 6
 STAT SP IPHASW D HRMM SECON CODA AMPLIT PERI AZIMU VELO AIN AR TRES W  DIS CAZ7
 RUS  HZ EP   1   18 3 43.60                             146    0.31 7 58.5 106 
 RUS  HE ES       18 3 55.46                             146   -0.1110 58.5 106 
 RUS  HE I        18 4  2.74         3.7 0.42             99           58.5 106 
 BAR2 SZ EP   1   18 3 44.43                             138    0.14 7 76.5  36 
 BAR2 SZ I        18 4  0.17         9.3 0.48             61           76.5  36 
 BRR  HE ES   2   18 4  3.67                             124   -0.17 5  119 354 
 BRR  HE I        18 4  7.82        21.8 0.18             61            119 354 
 NOR  HZ EP   1   18 3 50.88                             118   -0.45 7  151 250 
 NOR  HE ES   2   18 4 10.42                             118    0.54 5  151 250 
 NOR  HN I        18 4 14.12        16.7 0.14             61            151 250 
                                                                                
