 2011  5 3 1138 23.4 L   6.787 -73.104146.9  RSN  4 0.2 1.9LRSN                1
 GAP=241        0.48       3.8     4.6  4.6  0.4804E+01  0.3176E+01  0.3717E+01E
 Epicentro: LOS SANTOS - SANTANDER                                             3
 ACTION:UP  11-06-29 08:50 OP:tino STATUS:               ID:20110503113823 L   I
 2011-05-03-1134-38S.COL___133                                                 6
 STAT SP IPHASW D HRMM SECON CODA AMPLIT PERI AZIMU VELO SNR AR TRES W  DIS CAZ7
 BAR2 SZ EP       1138 43.26                             171     0.110   23 202 
 BAR2 SZ ES   1   1138 58.59                             171     0.0 7   23 202 
 BAR2 SZ I        1138 59.97        19.3 0.27                            23 202 
 BRR  HZ EP       1138 44.81                             151    -0.110   76 298 
 BRR  HN ES       1139  1.81                             151     0.110   76 298 
 BRR  HZ I        1139  5.17        26.3 0.39                            76 298 
 RUS  HZ EP   1   1138 47.45                             145     0.3 7   99 179 
 RUS  HN ES   1   1139  5.46                             145    -0.2 7   99 179 
 RUS  HZ I        1139  7.04         8.8 0.27                            99 179 
 NOR  SZ EP   1   1138 59.23                             118    -0.3 6  238 235 
 NOR  SE ES   1   1139 27.85                             118     0.2 6  238 235 
                                                                                
