 2014 12 3 1826 26.4 L   6.801 -73.147141.0  RSN  5 0.3 1.5LRSN                1
 GAP=141        0.62       4.0     4.3  5.7 -0.5744E+01  0.9028E+01 -0.2289E+01E
 Epicentro: LOS SANTOS - SANTANDER                                             3
 ACTION:UPD 15-02-10 17:00 OP:nd   STATUS:               ID:20141203182626 L   I
 OLDACT:REG 14-12-03 21:17 OP:spq  STATUS:               ID:20141203181744     3
 2014-12-03-1817-44M.COL___306                                                 6
 STAT SP IPHASW D HRMM SECON CODA AMPLIT PERI AZIMU VELO AIN AR TRES W  DIS CAZ7
 BAR2 SZ EP       1826 45.61                             170    0.1610 23.4 190 
 BAR2 SZ ES   1   1826 59.88                             170   -0.43 7 23.4 190 
 BAR2 SZ I        1827  1.97         9.6 0.22            167           23.4 190 
 PAM  SZ EP   1   1826 48.45                             150    0.35 7 77.4  40 
 PAM  SN ES   1   1827  5.08                             150    0.05 7 77.4  40 
 RUS  HZ EP       1826 49.59                             143   -0.0910  101 176 
 RUS  HN ES       1827  7.85                             143   -0.0010  101 176 
 RUS  HZ I        1827  9.57         2.0 0.18            143            101 176 
 PTB  HZ EP       1826 52.60                             131   -0.36 9  148 259 
 PTB  HN ES   1   1827 13.90                             131    0.21 7  148 259 
 PTB  HZ I        1827 15.87         4.4 0.14            131            148 259 
 SPBC HZ EP       1826 54.42                             128   -0.11 9  163 219 
 SPBC HE ES   1   1827 17.01                             128    0.54 7  163 219 
 SPBC HZ I        1827 21.43        10.3 0.06            128            163 219 
                                                                                
