 2010  7 3 1214 22.1 L   6.785 -73.071147.7  RSN 16 0.4 3.2LRSN                1
 GAP=132        0.72       2.5     4.7  4.5 -0.4991E+01  0.2677E+01  0.1642E+01E
 Epicentro: LOS SANTOS - SANTANDER                                             3
 ACTION:UPD 10-12-01 15:14 OP:pat  STATUS:               ID:20100703121422 L   I
 2010-07-03-1213-35S.COL___118                                                 6
 STAT SP IPHASW D HRMM SECON CODA AMPLIT PERI AZIMU VELO AIN AR TRES W  DIS CAZ7
 BAR2 SZ EP       1214 42.05                             170     0.110   25 210 
 BAR2 SZ ES   1   1214 56.94                             170    -0.6 7   25 210 
 BRR  HZ IP     C 1214 43.95                             150     0.010   79 297 
 BRR  HN ES   1   1215  1.17                             150     0.2 7   79 297 
 BRR  HZ I        1215  3.62       424.2 0.13                            79 297 
 RUS  HZ EP       1214 46.04                             145     0.110   99 181 
 RUS  HN ES   1   1215  4.66                             145     0.2 7   99 181 
 RUS  HZ I        1215  6.46       138.5 0.49                            99 181 
 BRI  SZ EP   3   1214 47.67                             142     1.6 2  107  16 
 BRI  SZ ES   1   1215  5.67                             142     0.9 7  107  16 
 BRI  SZ I        1215 13.44       232.5 0.47                           107  16 
 GUE  SZ EP       1214 46.65                             140    -0.410  117   8 
 GUE  SZ ES   1   1215  6.52                             140     0.1 7  117   8 
 GRA  SZ ES   1   1215  7.28                             138     0.0 7  125  14 
 OCA  SZ EP       1214 50.80                             130     0.0 9  163 350 
 OCA  SZ ES   1   1215 12.49                             130    -0.7 7  163 350 
 OCA  SZ I        1215 15.93       209.0 0.22                           163 350 
 CHI  HZ EP   1   1215  0.11                             117     0.1 6  249 197 
 CHI  HE ES   1   1215 29.13                             117    -0.4 6  249 197 
 CHI  HZ I        1215 39.37        64.5 0.58                           249 197 
 ROSC BZ EP   3   1215  0.47                             117    -0.2 2  256 213 
 ROSC BE ES   2   1215 30.55                             117    -0.2 4  256 213 
 ROSC BZ I        1215 38.31       113.8 0.47                           256 213 
 HEL  HZ EP   2   1215  3.27                             115     0.0 4  280 257 
 HEL  HZ I        1215 40.35        80.1 0.41                           280 257 
 GUY  HZ EP   2   1215  6.99                             112     0.5 4  307 236 
 GUY  HN ES   2   1215 41.73                             112     0.6 4  307 236 
 RREF HZ EP   3   1215  9.21                             111     0.3 2  327 231 
 RREF HN ES   2   1215 45.39                             111    -0.1 3  327 231 
 RREF HZ I        1215 51.46        99.4 0.40                           327 231 
 DBB  SZ EP       1215 10.57                             109     0.0 6  348 274 
 SDV  BZ EP       1215 11.28                             109    -0.3 6  355  49 
 ANIL HZ EP   3   1215 12.09                             109    -0.4 2  362 226 
 ANIL HE ES   2   1215 51.75                             109    -0.1 3  362 226 
 PRA  HZ EP       1215 16.18                             107     0.2 6  395 211 
 PRA  HE ES   3   1215 57.85                             107    -0.2 1  395 211 
 PRA  HZ I        1216  4.59        59.1 0.90                           395 211 
                                                                                
