 2016  5 3 1957  7.9 L   6.802 -73.138145.4  RSN 17 0.6 2.4LRSN                1
 GAP=120        1.32       3.7     5.1  7.3 -0.2202E+01  0.6818E+01  0.8293E+01E
 Epicentro: LOS SANTOS - SANTANDER                                             3
 ACTION:UPD 16-08-18 17:41 OP:cam  STATUS:               ID:20160503195707 L   I
 OLDACT:UP  16-05-04 00:03 OP:dnl  STATUS:               ID:20160503194750     3
 OLDACT:REG 16-05-03 22:00 OP:dani STATUS:               ID:20160503194750     3
 2016-05-03-1947-50M.COL___301                                                 6
 STAT SP IPHASW D HRMM SECON CODA AMPLIT PERI AZIMU VELO AIN AR TRES W  DIS CAZ7
 BAR2 EZ EP       1957 27.34                             170   -0.1910 23.7 192 
 BAR2 EZ I        1957 43.89        95.2 0.28            168           23.7 192 
 BRR  HZ EP     C 1957 29.12                             152    0.0410 71.8 298 
 BRR  HN ES       1957 46.17                             152    0.6010 71.8 298 
 BRR  HZ I        1957 50.17        58.2 0.28            153           71.8 298 
 PAM  EZ EP     C 1957 30.08                             151    0.0110 76.7  39 
 PAM  EN ES       1957 47.34                             151    0.0010 76.7  39 
 PAM  EZ I        1957 50.07        19.5 0.48            155           76.7  39 
 RUS  HZ EP     D 1957 31.26                             144   -0.4110  101 177 
 RUS  HE ES       1957 50.06                             144   -0.1110  101 177 
 RUS  HZ I        1957 51.39        35.1 0.26            144            101 177 
 PTB  HZ EP       1957 34.10                             132   -0.85 9  149 259 
 PTB  HN ES       1957 55.11                             132   -0.91 9  149 259 
 PTB  HZ I        1957 57.69        23.7 0.14            133            149 259 
 OCA  HN ES       1957 58.94                             129    0.68 9  160 353 
 SPBC HZ EP       1957 36.27                             129   -0.20 9  164 219 
 SPBC HN ES       1957 58.59                             129   -0.14 9  164 219 
 SPBC HZ I        1958  3.27        49.3 0.21            130            164 219 
 ZAR  HZ EP       1957 40.01                             122   -0.42 9  205 292 
 ZAR  HE ES       1958  5.38                             122   -0.39 9  205 292 
 ZAR  HZ I        1958 10.55        32.2 0.30            124            205 292 
 NOR  HZ EP     D 1957 43.47                             118   -0.26 8  235 235 
 NOR  HE ES       1958 11.18                             118   -0.47 8  235 235 
 NOR  HZ I        1958 16.98        17.7 0.18            119            235 235 
 CHI  HZ IP     C 1957 45.63                             117   -0.03 8  249 195 
 CHI  HN ES       1958 15.14                             117    0.05 8  249 195 
 CHI  HZ I        1958 24.94        12.9 0.40            118            249 195 
 ROSC BZ EP       1957 47.51                             116    1.40 8  253 211 
 ROSC BE ES       1958 17.16                             116    1.29 8  253 211 
 ROSC BZ I        1958 22.02        43.3 0.40            118            253 211 
 HEL  HZ EP       1957 49.22                             114    1.00 8  273 256 
 VIL  SZ EP       1957 50.99                             112   -0.39 7  304 192 
 VIL  SN ES   2   1958 24.79                             112   -0.48 4  304 192 
 PTGC HZ EP   2   1957 50.46                             111   -1.31 4  309 159 
 LL6C HZ EP   2   1957 52.76                             110   -0.84 3  325 357 
 CBOC HZ EP       1957 55.67                             110    0.74 7  334 252 
 CBOC HN ES   4   1958 30.10                             110   -1.49 0  334 252 
 CBOC HZ I        1958 42.06         4.0 0.50            111            334 252 
 ORTC HZ EP       1958  1.97                             106    0.05 6  396 216 
 ORTC HE ES       1958 44.99                             106    0.96 6  396 216 
 ORTC HZ I        1958 51.37         7.4 0.27            107            396 216 
 CRJC HZ EP   4   1958  6.89                             103   -3.50 0  467   3 
 CRJC HE ES   4   1958 55.90                             103   -3.21 0  467   3 
                                                                                
