 2014  5 3 1835 31.3 L   6.823 -73.111151.2  RSN  8 0.4 2.0LRSN                1
 GAP=140        0.90       3.3     4.5  6.4  0.2569E+01  0.5933E+01  0.2590E+01E
 Epicentro: LOS SANTOS - SANTANDER                                             3
 ACTION:UPD 15-03-16 16:54 OP:nd   STATUS:               ID:20140503183531 L   I
 OLDACT:UP  14-05-04 00:52 OP:mh   STATUS:               ID:20140503183000     3
 OLDACT:UP  14-05-04 00:51 OP:mh   STATUS:               ID:20140503183000     3
 OLDACT:UP  14-05-04 00:51 OP:mh   STATUS:               ID:20140503183000     3
 OLDACT:UP  14-05-04 00:51 OP:mh   STATUS:               ID:20140503183000     3
 OLDACT:REG 14-05-03 19:35 OP:mh   STATUS:               ID:20140503183000     3
 2014-05-03-1830-00M.COL___273                                                 6
 STAT SP IPHASW D HRMM SECON CODA AMPLIT PERI AZIMU VELO AIN AR TRES W  DIS CAZ7
 PAM  SZ EP     C 1835 54.40                             153    0.5210 73.0  38 
 PAM  SN ES       1836 11.40                             153   -0.0710 73.0  38 
 PAM  SZ I        1836 14.37        16.2 0.54            157           73.0  38 
 BRR  HZ EP       1835 53.16                             153   -0.0410 73.5 295 
 BRR  HN ES       1836 10.59                             153    0.3410 73.5 295 
 BRR  HZ I        1836 14.88        17.7 0.24            154           73.5 295 
 RUS  HZ EP       1835 55.84                             144    0.0510  103 178 
 RUS  HN ES       1836 14.65                             144   -0.2110  103 178 
 PTB  HN ES   1   1836 20.82                             132    0.01 7  152 258 
 ZAR  HZ EP   1   1836  4.57                             123    0.16 6  207 291 
 ZAR  HN ES       1836 30.00                             123   -0.20 8  207 291 
 ZAR  HZ I        1836 32.34        18.3 0.08            126            207 291 
 SML  HZ EP   1   1836  7.77                             119   -0.43 6  243 334 
 SML  HN ES       1836 36.43                             119   -0.53 8  243 334 
 CHI  HZ EP       1836  9.24                             118   -0.47 8  252 196 
 CHI  HN ES   1   1836 39.18                             118   -0.46 6  252 196 
 CHI  HZ I        1836 45.29         2.8 0.28            120            252 196 
 URE  HN ES   4   1836 42.79                             114   -2.65 0  286 291 
 GUY2CHZ EP   1   1836 17.18                             113    1.47 5  306 235 
 GUY2CHN ES   4   1836 53.51                             113    3.18 0  306 235 
 SJC  HZ EP   4   1836 25.94                             107   -1.14 0  409 326 
 SJC  HN ES   4   1837  7.47                             107   -3.09 0  409 326 
                                                                                
