 2016  2 3 1759 52.6 L   6.821 -73.155143.5  RSN 10 0.3 2.0LRSN                1
 GAP=134        0.67       2.1     2.8  4.6 -0.1120E+01  0.4989E+01 -0.1053E+01E
 Epicentro: LOS SANTOS - SANTANDER                                             3
 ACTION:UPD 16-03-04 21:23 OP:rebc STATUS:               ID:20160203175952 L   I
 OLDACT:REG 16-02-03 21:59 OP:cara STATUS:               ID:20160203175750     3
 2016-02-03-1757-50M.COL___303                                                 6
 STAT SP IPHASW D HRMM SECON CODA AMPLIT PERI AZIMU VELO AIN AR TRES W  DIS CAZ7
 BAR2 EZ IP     C 18 0 11.92                             169   -0.1210 25.4 187 
 BAR2 EZ ES       18 0 27.15                             169   -0.0210 25.4 187 
 BAR2 EZ I        18 0 28.24        21.5 0.26            170           25.4 187 
 PAM  EZ EP     C 18 0 14.78                             151    0.2310 76.3  41 
 PAM  EN ES       18 0 31.73                             151    0.0910 76.3  41 
 PAM  EZ I        18 0 34.50         6.0 0.44            152           76.3  41 
 RUS  HZ EP       18 0 16.20                             143   -0.1410  103 176 
 RUS  HN ES       18 0 34.68                             143   -0.1510  103 176 
 RUS  HZ I        18 0 35.08         9.4 0.42            145            103 176 
 PTB  HZ EP       18 0 18.77                             132   -0.60 9  147 258 
 PTB  HN ES       18 0 39.81                             132   -0.41 9  147 258 
 PTB  HZ I        18 0 42.27        11.6 0.14            130            147 258 
 SPBC HZ EP       18 0 21.03                             128   -0.04 9  164 218 
 SPBC HN ES       18 0 43.53                             128    0.28 9  164 218 
 SPBC HZ I        18 0 44.04        12.7 0.18            128            164 218 
 ZAR  HZ EP   4   18 0 25.88                             122    1.13 0  202 292 
 ZAR  HE ES       18 0 50.08                             122    0.29 9  202 292 
 ZAR  HZ I        18 0 56.28        14.0 0.62            121            202 292 
 NOR  HN ES       18 0 56.45                             118    0.35 8  235 234 
 NOR  HZ I        18 1  2.88         7.5 0.14            118            235 234 
 SML  HZ EP       18 0 28.85                             117   -0.02 8  241 335 
 SML  HN ES       18 0 57.30                             117    0.18 8  241 335 
 SML  HZ I        18 1  4.42        17.1 0.26            117            241 335 
 CHI  HN ES       18 1  0.32                             116    0.42 8  251 195 
 CHI  HZ I        18 1  5.29         5.7 0.68            117            251 195 
 GUY2CHN ES       18 1 10.17                             112   -0.00 7  302 234 
 GUY2CHZ I        18 1 16.14         3.5 0.48                           302 234 
                                                                                
