 2012  3 3 1039 30.0 L   6.759 -73.178140.1  RSN  6 0.3 1.9LRSN                1
 GAP=231        0.81       5.8     5.5  7.6  0.1100E+02  0.9568E+01 -0.2577E+01E
 ACTION:UP  12-03-31 23:16 OP:EP   STATUS:               ID:20120303103930 L   I
 2012-03-03-1037-59S.COL___194                                                 6
 STAT SP IPHASW D HRMM SECON CODA AMPLIT PERI AZIMU VELO SNR AR TRES W  DIS CAZ7
 BAR2 SZ EP       1039 48.60                             172    -0.310   18 182 
 BAR2 SZ ES   1   1040  3.12                             172    -0.4 7   18 182 
 BAR2 SZ I        1040  5.87        17.6 0.30                            18 182 
 BRR  HZ EP       1039 50.51                             152     0.010   70 303 
 BRR  HE ES   1   1040  6.92                             152     0.4 7   70 303 
 BRR  HZ I        1040  8.77        25.9 0.15                            70 303 
 RUS  HZ EP   1   1039 53.05                             144     0.2 7   96 174 
 RUS  HE ES   1   1040 11.21                             144     0.5 7   96 174 
 RUS  HZ I        1040 12.71         9.5 0.44                            96 174 
 PTB  HZ EP   1   1039 55.63                             131    -0.5 7  143 260 
 PTB  HN ES   1   1040 16.30                             131    -0.2 7  143 260 
 ZAR  HZ EP   1   1040  2.52                             121     0.6 6  203 294 
 ZAR  HN ES   1   1040 26.77                             121    -0.1 6  203 294 
 ZAR  HZ I        1040 33.65         8.3 0.18                           203 294 
 NOR  SE ES   1   1040 32.01                             118     0.0 6  229 235 
                                                                                
