 2015 12 3 1846  7.9 L   6.598 -73.609108.8  RSN  8 0.3 1.8LRSN                1
 GAP=102        0.70       3.5     3.1  5.6 -0.2152E+01  0.3221E+01  0.7598E+01E
 Epicentro: EL CARMEN - SANTANDER                                              3
 ACTION:UPD 16-02-04 15:02 OP:cam  STATUS:               ID:20151203184607 L   I
 OLDACT:REG 15-12-03 20:43 OP:drio STATUS:               ID:20151203183748     3
 2015-12-03-1837-48M.COL___317                                                 6
 STAT SP IPHASW D HRMM SECON CODA AMPLIT PERI AZIMU VELO AIN AR TRES W  DIS CAZ7
 BAR2 EZ EP       1846 24.09                             155    0.0610 47.2  91 
 BAR2 EZ ES       1846 36.76                             155    0.1310 47.2  91 
 BAR2 EZ I        1846 38.48        24.1 0.30            159           47.2  91 
 BRR  HZ EP       1846 24.67                             150    0.4110 57.5 349 
 BRR  HN ES       1846 36.89                             150   -0.1510 57.5 349 
 PTB  HZ EP       1846 26.83                             136   -0.1510 93.9 266 
 PTB  HN ES       1846 41.70                             136   -0.1810 93.9 266 
 PTB  HZ I        1846 43.14         8.1 0.10            135           93.9 266 
 RUS  HZ EP       1846 27.42                             135   -0.5010 97.3 143 
 SPBC HE ES       1846 45.93                             129    0.2710  116 206 
 SPBC HZ I        1846 49.56        14.9 0.26            131            116 206 
 PAM  EZ EP   4   1846 33.53                             126    2.61 0  130  51 
 PAM  EN ES   4   1846 48.42                             126   -0.47 0  130  51 
 PAM  EZ I        1846 49.48        10.1 0.18            128            130  51 
 ZAR  HE ES   4   1846 57.83                             118    2.67 0  170 306 
 ZAR  HZ I        1847  1.43         7.6 0.26            118            170 306 
 GUY2CHZ EP       1846 43.97                             108    0.29 8  247 232 
 GUY2CHN ES       1847 11.53                             108   -0.07 8  247 232 
 GUY2CHZ I        1847 20.19         3.8 0.34                           247 232 
                                                                                
