 2014 10 3 2248 21.7 L   6.798 -73.126150.7  RSN 14 0.4 2.1LRSN                1
 GAP=139        0.94       3.0     4.0  5.2 -0.7217E+00  0.4604E+01  0.9954E+00E
 Epicentro: LOS SANTOS - SANTANDER                                             3
 ACTION:UPD 14-11-29 23:46 OP:nd   STATUS:               ID:20141003224821 L   I
 OLDACT:REG 14-10-04 09:13 OP:spq  STATUS:               ID:20141003223749     3
 2014-10-03-2237-49M.COL___289                                                 6
 STAT SP IPHASW D HRMM SECON CODA AMPLIT PERI AZIMU VELO AIN AR TRES W  DIS CAZ7
 BAR2 SZ EP       2248 41.83                             171   -0.1110 23.5 195 
 BAR2 SZ ES   1   2248 56.94                             171   -0.78 7 23.5 195 
 BAR2 SZ I        2249  0.04        25.0 0.28            168           23.5 195 
 BRR  HZ EP     C 2248 43.79                             153    0.2810 73.2 298 
 BRR  HN ES       2249  1.24                             153    0.7310 73.2 298 
 BRR  HZ I        2249  5.61        17.5 0.26            150           73.2 298 
 PAM  SZ EP       2248 44.75                             152    0.3610 76.2  38 
 PAM  SN ES       2249  2.08                             152   -0.0010 76.2  38 
 PAM  SZ I        2249  4.08        13.0 0.20            157           76.2  38 
 RUS  HZ EP       2248 45.72                             145   -0.2110  100 177 
 RUS  HN ES       2249  4.93                             145    0.1110  100 177 
 RUS  HZ I        2249  6.43         6.7 0.32            146            100 177 
 PTB  HZ EP       2248 48.96                             133   -0.31 9  150 259 
 PTB  HN ES       2249 10.08                             133   -0.69 9  150 259 
 PTB  HZ I        2249 12.26        11.1 0.05            132            150 259 
 SPBC HZ EP       2248 50.62                             130   -0.09 9  164 220 
 SPBC HN ES       2249 13.86                             130    0.54 9  164 220 
 SPBC HZ I        2249 18.67        18.7 0.26            130            164 220 
 ZAR  HZ EP   1   2248 54.02                             123   -0.68 6  206 292 
 ZAR  HE ES       2249 20.58                             123    0.16 8  206 292 
 ZAR  HZ I        2249 30.83        15.6 0.34            123            206 292 
 SML  HZ EP       2248 58.38                             118   -0.36 8  245 335 
 SML  HE ES   1   2249 27.43                             118   -0.19 6  245 335 
 SML  HZ I        2249 30.43        11.8 0.10            120            245 335 
 CHI  HZ EP   1   2248 59.23                             118   -0.50 6  249 196 
 CHI  HE ES   1   2249 29.53                             118    0.15 6  249 196 
 GUY2CHZ EP   1   2249  5.90                             113    0.16 5  303 235 
 GUY2CHE ES   4   2249 42.52                             113    2.45 0  303 235 
 GUY2CHZ I        2249 48.77         8.1 0.74                           303 235 
 RREF HZ EP   4   2249  5.08                             112   -3.16 0  323 230 
 RREF HN ES   1   2249 44.00                             112   -0.53 5  323 230 
 RREF HZ I        2249 50.47         5.7 0.34            113            323 230 
 TOL  SN ES   4   2249 50.41                             110    2.17 0  345 225 
 TOL  SZ I        2249 54.50        10.0 0.25            111            345 225 
 PRA  HZ EP       2249 16.11                             107    0.60 6  393 210 
 PRA  HN ES   1   2249 58.04                             107    0.57 4  393 210 
 PRA  HZ I        2250  6.46         3.9 0.38            108            393 210 
 SJC  HZ EP   1   2249 18.33                             107    0.73 4  411 327 
 SJC  HE ES   4   2249 55.84                             107   -5.36 0  411 327 
 SJC  HZ I        2250  1.50         1.5 0.30            108            411 327 
                                                                                
