 2015  4 3 2010 52.4 L   6.804 -73.153142.1  RSN  8 0.6 1.8LRSN                1
 GAP=135        1.46       5.0     6.2  8.8  0.9216E+00  0.1183E+02 -0.1045E+02E
 Epicentro: LOS SANTOS - SANTANDER                                             3
 ACTION:UPD 15-06-03 16:52 OP:cam  STATUS:               ID:20150403201052 L   I
 OLDACT:REG 15-04-04 02:57 OP:stll STATUS:               ID:20150403200747     3
 2015-04-03-2007-47M.COL___288                                                 6
 STAT SP IPHASW D HRMM SECON CODA AMPLIT PERI AZIMU VELO AIN AR TRES W  DIS CAZ7
 BAR2 EZ EP       2011 11.79                             170    0.2310 23.7 188 
 BAR2 EZ ES       2011 26.23                             170   -0.3110 23.7 188 
 BAR2 EZ I        2011 27.60         8.4 0.24            171           23.7 188 
 BRR  HZ IP     C 2011 13.59                             152    0.5210 70.3 298 
 BRR  HZ I        2011 13.79        17.3 0.32            151           70.3 298 
 BRR  HN ES       2011 30.29                             152    1.0710 70.3 298 
 PAM  SZ EP     C 2011 14.76                             150    0.5610 77.5  40 
 PAM  SZ I        2011 14.91        23.1 0.18            151           77.5  40 
 PAM  SN ES       2011 31.34                             150    0.1110 77.5  40 
 RUS  HZ EP       2011 16.04                             143    0.2410  101 176 
 RUS  HN ES       2011 33.25                             143   -0.8210  101 176 
 RUS  HZ I        2011 35.83         3.0 0.32            145            101 176 
 PTB  HZ EP       2011 19.46                             131    0.48 9  147 259 
 PTB  HZ I        2011 19.73         5.0 0.22            131            147 259 
 PTB  HN ES       2011 38.86                             131   -0.87 9  147 259 
 OCA  HZ EP       2011 19.97                             129   -0.37 9  160 353 
 OCA  HN ES       2011 41.56                             129   -0.60 9  160 353 
 OCA  HZ I        2011 46.54        13.1 0.28            129            160 353 
 ZAR  HZ EP       2011 24.82                             122    0.34 9  203 292 
 ZAR  HE ES       2011 49.75                             122    0.22 9  203 292 
 ZAR  HZ I        2011 56.51         7.3 0.34            122            203 292 
 SML  HZ EP       2011 27.87                             117   -0.84 8  243 335 
 SML  HE ES       2011 56.54                             117   -0.51 8  243 335 
                                                                                
