 2010  4 3 2044 11.8 L   6.099 -73.492126.0  RSN  4 0.3 2.0LRSN                1
 GAP=157        0.58       3.9     9.4  9.5 -0.4976E+01  0.3777E+02  0.1817E+02E
 Epicentro: SAN BENITO - SANTANDER                                             3
 ACTION:UPD 10-08-24 09:57 OP:vdl  STATUS:               ID:20100403204413dL   I
 2010-04-03-2041-40S.COL___098                                                 6
 STAT SP IPHASW D HRMM SECON CODA AMPLIT PERI AZIMU VELO AIN AR TRES W  DIS CAZ7
 BAR2 SZ IP       2044 30.55                             152    -0.210   64  32 
 BAR2 SZ ES   1   2044 45.83                             152     0.3 7   64  32 
 BRR  HZ EP   1   2044 33.84                             136    -0.2 7  114 348 
 BRR  HN ES   1   2044 51.53                             136     0.1 7  114 348 
 BRR  HZ I        2044 53.50        26.3 0.13                           114 348 
 CHI  HZ EP   1   2044 39.65                             125     0.3 7  165 189 
 CHI  HN ES   2   2045  0.34                             125    -0.6 5  165 189 
 CHI  HZ I        2045  7.23         6.1 0.25                           165 189 
 PRA  HZ EP   1   2044 54.72                             108     0.2 5  306 210 
 PRA  HN ES   2   2045 28.12                             108     0.3 4  306 210 
 PRA  HZ I        2045 34.68         8.1 0.55                           306 210 
                                                                                
