 2011  2 3 2345 19.4 L   6.794 -73.139148.4  RSN  7 0.3 1.6LRSN                1
 GAP=159        0.70       3.7    13.8  7.2 -0.2856E+02  0.2307E+02 -0.6502E+01E
 Epicentro: LOS SANTOS - SANTANDER                                             3
 ACTION:UP  11-03-28 15:05 OP:jfem STATUS:               ID:20110203234519 L   I
 2011-02-03-2342-46S.COL___137                                                 6
 STAT SP IPHASW D HRMM SECON CODA AMPLIT PERI AZIMU VELO SNR AR TRES W  DIS CAZ7
 BTL  SZ EP       2345 39.81                             171     0.610   20 314 
 BAR2 SZ ES   1   2345 54.58                             171    -0.3 7   23 192 
 BAR2 SZ I        2345 56.79        13.2 0.26                            23 192 
 RUS  HZ EP   1   2345 43.07                             145    -0.2 7  100 176 
 RUS  HE ES   1   2346  1.82                             145    -0.2 7  100 176 
 RUS  HZ I        2346  2.74         4.7 0.24                           100 176 
 GRA  SZ EP       2345 44.76                             137    -0.110  126  17 
 GRA  SZ ES   1   2346  4.89                             137     0.1 7  126  17 
 GRA  SZ I        2346 14.46         6.1 0.30                           126  17 
 OCA  SZ EP   1   2345 47.70                             130    -0.2 7  161 353 
 OCA  SZ ES   2   2346 10.05                             130    -0.2 5  161 353 
 OCA  SZ I        2346 15.74         7.7 0.35                           161 353 
 NOR  SN ES   3   2346 22.88                             119    -0.4 2  235 235 
 CHI  HZ EP   2   2345 57.06                             118    -0.1 4  248 195 
 CHI  HE ES   1   2346 26.78                             118     0.1 6  248 195 
 CHI  HZ I        2346 34.49         1.7 0.38                           248 195 
                                                                                
