 2017  9 3 2058 38.9 L   6.919 -72.706106.0  RSN  4 0.1 1.1LRSN                1
 GAP=199        0.47       2.8     3.8  5.9  0.9323E-01  0.1387E+01  0.9029E+01E
 Epicentro: CERRITO - SANTANDER                                                3
 ACTION:UPD 17-10-05 19:08 OP:rebc STATUS:               ID:20170903205838 L   I
 OLDACT:UP  17-09-04 05:12 OP:mg   STATUS:               ID:20170903205741     3
 OLDACT:UP  17-09-04 05:12 OP:mg   STATUS:               ID:20170903205741     3
 OLDACT:REG 17-09-04 03:49 OP:mg   STATUS:               ID:20170903205741     3
 2017-09-03-2058-00M.COL___417                                                 6
 STAT SP IPHASW D HRMM SECON CODA AMPLIT PERI AZIMU VELO AIN AR TRES W  DIS CAZ7
 PAM  EN ES       2059  7.75                             155    0.0510 46.5   1 
 PAM  EZ I        2059  8.07         2.1 0.18            155           46.5   1 
 BAR2 EZ ES       2059  8.69                             147   -0.2110 63.9 236 
 BAR2 EZ I        2059  9.37         8.2 0.07            145           63.9 236 
 BRR  HZ EP   4   2058 57.89                             129   -1.60 0  113 281 
 BRR  HN ES       2059 15.62                             129    0.0810  113 281 
 BRR  HZ I        2059 17.20         4.8 0.41            128            113 281 
 RUS  HZ EP       2059  0.77                             128   -0.1210  121 200 
 RUS  HN ES       2059 18.24                             128    0.2110  121 200 
 RUS  HZ I        2059 19.34         0.9 0.36            127            121 200 
                                                                                
