 2010 10 3 2139 21.9 L   6.827 -73.029147.6  RSN  4 0.2 1.4LRSN                1
 GAP=251        0.47       6.7    10.5  5.3  0.4905E+02 -0.7131E+01  0.6095E+01E
 Epicentro: CEPITA - SANTANDER                                                 3
 ACTION:UP  11-02-18 11:07 OP:tino STATUS:               ID:20101003213921 L   I
 2010-10-03-2136-07S.COL___119                                                 6
 STAT SP IPHASW D HRMM SECON CODA AMPLIT PERI AZIMU VELO SNR AR TRES W  DIS CAZ7
 BAR2 SZ EP       2139 41.85                             168     0.010   31 213 
 BAR2 SZ ES   1   2139 57.40                             168    -0.1 7   31 213 
 BAR2 SZ I        2139 58.41         8.5 0.14                            31 213 
 BRR  HZ EP       2139 43.76                             150    -0.110   82 292 
 BRR  HZ I        2139 52.04         6.6 0.47                            82 292 
 BRR  HE ES   1   2140  1.04                             150     0.1 7   82 292 
 RUS  HZ EP       2139 46.26                             143     0.310  104 183 
 RUS  HE ES   3   2140  4.67                             143    -0.2 2  104 183 
 RUS  HZ I        2140  5.90         2.2 0.33                           104 183 
 CHI  HZ EP   1   2140  0.03                             117    -0.4 6  255 198 
 CHI  HE ES   3   2140 30.74                             117     0.3 2  255 198 
 CHI  HZ I        2140 37.93         1.5 0.35                           255 198 
                                                                                
