 2011  1 3 2040 20.3 L   6.802 -73.151141.0  RSN  9 0.3 2.1LRSN                1
 GAP=135        0.66       2.5     6.8  5.3 -0.4936E+01  0.8947E+01  0.2781E+00E
 Epicentro: LOS SANTOS - SANTANDER                                             3
 ACTION:UP  11-02-08 08:38 OP:pat  STATUS:               ID:20110103204020 L   I
 2011-01-03-2040-00M.COL___137                                                 6
 STAT SP IPHASW D HRMM SECON CODA AMPLIT PERI AZIMU VELO SNR AR TRES W  DIS CAZ7
 BTL  SZ IP       2040 39.71                             172     0.410   18 315 
 BAR2 SZ EP       2040 39.60                             170     0.210   24 189 
 BAR2 SZ ES   1   2040 54.03                             170    -0.3 7   24 189 
 BAR2 SZ I        2040 56.43        42.6 0.31                            24 189 
 RUS  HZ EP       2040 43.51                             143    -0.110  101 176 
 RUS  HN ES   1   2041  1.90                             143     0.1 7  101 176 
 RUS  HZ I        2041  3.46        11.7 0.30                           101 176 
 GRA  SZ IP       2040 45.42                             136     0.310  126  18 
 GRA  SZ I        2040 46.45        24.9 0.44                           126  18 
 GRA  SZ ES   1   2041  4.14                             136    -0.4 7  126  18 
 OCA  SZ EP       2040 47.97                             129    -0.3 9  160 353 
 OCA  SZ ES   2   2041 10.29                             129     0.3 5  160 353 
 OCA  SZ I        2041 13.47        16.4 0.51                           160 353 
 YOP  SZ EP       2040 50.05                             125    -0.1 9  179 153 
 NOR  SZ EP       2040 55.54                             117    -0.3 8  235 234 
 CHI  HZ EP       2040 57.87                             116     0.1 8  249 195 
 CHI  HN ES   1   2041 26.91                             116    -0.1 6  249 195 
 CHI  HZ I        2041 30.55         5.9 0.55                           249 195 
 GUY  SN ES   3   2041 38.70                             111     1.1 2  301 235 
                                                                                
