 2016 10 3 2348 38.4 L   6.789 -73.120145.8  RSN 15 0.4 2.5LRSN                1
 GAP= 68        0.86       2.3     2.4  4.2 -0.1331E+00  0.2029E+01  0.1907E+01E
 Epicentro: LOS SANTOS - SANTANDER                                             3
 ACTION:UPD 16-11-09 19:16 OP:rebc STATUS:               ID:20161003234838 L   I
 OLDACT:REG 16-10-04 04:17 OP:cara STATUS:               ID:20161003234741     3
 2016-10-03-2348-00M.COL___369                                                 6
 STAT SP IPHASW D HRMM SECON CODA AMPLIT PERI AZIMU VELO AIN AR TRES W  DIS CAZ7
 BAR2 EZ IP     C 2348 57.98                             171   -0.0910 22.8 198 
 BAR2 EZ ES       2349 13.23                             171   -0.1510 22.8 198 
 BAR2 EZ I        2349 16.71        38.7 0.14            169           22.8 198 
 BRR  HZ IP     C 2348 59.78                             151    0.0110 74.3 298 
 BRR  HN ES       2349 16.26                             151   -0.1510 74.3 298 
 BRR  HZ I        2349 20.06        37.8 0.16            151           74.3 298 
 PAM  EZ EP       2349  0.75                             151    0.1410 76.6  37 
 PAM  EN ES       2349 17.76                             151   -0.1510 76.6  37 
 PAM  EZ I        2349 19.76        56.4 0.44            155           76.6  37 
 RUS  HZ EP       2349  2.04                             144   -0.0610 99.2 178 
 RUS  HN ES       2349 20.58                             144    0.0310 99.2 178 
 RUS  HZ I        2349 22.49        35.5 0.32            146           99.2 178 
 PTB  HZ EP       2349  5.45                             131   -0.20 9  150 260 
 PTB  HN ES   4   2349 25.79                             131   -1.08 0  150 260 
 PTB  HZ I        2349 31.04        37.8 0.46            132            150 260 
 TAM  HZ EP       2349  6.22                             131    0.38 9  152 105 
 TAM  HE ES       2349 27.94                             131    0.73 9  152 105 
 OCA  HZ EP       2349  6.86                             129   -0.04 9  162 352 
 OCA  HN ES       2349 29.10                             129   -0.00 9  162 352 
 OCA  HZ I        2349 31.61        44.3 0.30            132            162 352 
 SPBC HZ EP       2349  7.06                             129    0.03 9  164 220 
 SPBC HN ES       2349 29.21                             129   -0.11 9  164 220 
 SPBC HZ I        2349 31.67        55.5 0.22            130            164 220 
 ZAR  HZ EP       2349 10.52                             122   -0.69 8  207 292 
 ZAR  HE ES       2349 36.82                             122    0.05 8  207 292 
 ZAR  HZ I        2349 41.52        54.1 0.48            123            207 292 
 NOR  HZ EP       2349 14.54                             118    0.19 8  236 235 
 NOR  HE ES       2349 42.86                             118    0.51 8  236 235 
 NOR  HZ I        2349 44.03        20.2 0.20            120            236 235 
 CHI  HZ EP       2349 16.52                             117    0.42 8  248 196 
 CHI  HN ES       2349 45.20                             117   -0.27 8  248 196 
 CHI  HZ I        2349 50.94        10.7 0.28            119            248 196 
 HEL  HZ EP       2349 19.06                             114    0.13 8  275 256 
 HEL  HN ES       2349 50.34                             114   -0.17 8  275 256 
 HEL  HZ I        2349 56.24        18.3 0.32            116            275 256 
 GUY2CHZ EP       2349 22.72                             112    0.48 7  303 235 
 GUY2CHE ES       2349 57.06                             112    0.66 7  303 235 
 GUY2CHZ I        2350  4.91        13.3 0.40                           303 235 
 PTGC HZ EP       2349 21.39                             112   -0.66 7  307 159 
 PTGC HE ES       2349 54.88                             112   -1.19 7  307 159 
 PTGC HZ I        2349 57.12        10.2 0.44            114            307 159 
 ELA  HZ EP   9   2349 26.90                             110    1.45 0  331 230 
 ELA  HN ES       2350  3.73                                    0.16 7  331 230 
 ELA  HZ I        2350 10.63        10.9 0.46            112            331 230 
                                                                                
