 2012  6 3 2328 32.2 L   6.812 -73.136147.0  RSN 17 0.5 3.9LRSN                1
 GAP=126        0.95       4.6     5.5  6.1 -0.7909E+01  0.1209E+02  0.1235E+01E
 Epicentro: LOS SANTOS - SANTANDER                                             3
 ACTION:UP  12-08-06 17:47 OP:ep   STATUS:               ID:20120603232848 L   I
 2012-06-03-2326-36M.COL___176                                                 6
 STAT SP IPHASW D HRMM SECON CODA AMPLIT PERI AZIMU VELO AIN AR TRES W  DIS CAZ7
 BAR2 SZ IP       2328 52.13                             170    0.1610 24.9 192 
 BAR2 SZ I        2328 52.36      1684.5 0.34             47           24.9 192 
 BAR2 SZ ES   1   2329  7.31                             170   -0.11 7 24.9 192 
 PAM  SZ IP       2328 54.83                             151    0.4310 75.6  40 
 PAM  SE ES   1   2329 12.00                             151    0.24 7 75.6  40 
 RUS  HZ IP     C 2328 55.94                             144   -0.1910  102 177 
 RUS  HN ES   1   2329 14.36                             144   -0.46 7  102 177 
 RUS  HZ I        2329 16.44       586.7 0.56             47            102 177 
 PTB  HN ES   1   2329 20.18                             132   -0.37 7  149 258 
 OCA  HZ EP   3   2328 59.91                             130   -0.54 2  159 353 
 OCA  HE ES   2   2329 22.97                             130    0.45 5  159 353 
 ZAR  HZ EP       2329  4.50                             123   -0.23 9  205 292 
 ZAR  HZ I        2329 35.89      1657.2 0.48             37            205 292 
 NOR  SZ EP       2329  7.82                             118   -0.32 8  236 234 
 CHI  HZ EP       2329  9.85                             117   -0.25 8  250 195 
 CHI  HZ I        2329 49.24       301.4 0.50             37            250 195 
 ROSC BZ IP     C 2329 11.73                             117    1.20 8  254 211 
 ROSC BZ I        2329 49.63       800.1 0.40             37            254 211 
 HEL  HZ EP       2329 11.92                             115   -0.66 8  273 256 
 HEL  HZ I        2329 53.19       460.4 0.22             37            273 256 
 VIL  SZ EP   2   2329 14.86                             112   -0.95 4  305 192 
 RREF HZ EP       2329 19.39                             111    0.84 7  323 229 
 RREF HZ I        2330  4.78       542.2 0.60             36            323 229 
 COD  HZ EP   2   2329 19.80                             109   -0.64 3  347 354 
 COD  HZ I        2330  4.77       216.4 0.40             36            347 354 
 ANIL HZ EP       2329 22.54                             108    0.33 6  359 224 
 ANIL HZ I        2330  9.53      1039.3 0.46             36            359 224 
 SDV  BZ EP       2329 21.40                             108   -0.65 6  359  50 
 SDV  BZ I        2330  0.73       138.3 0.45             36            359  50 
 PAL  HZ EP       2329 27.66                             106    0.11 6  407 239 
 YOT  HZ EP   2   2329 34.64                             103   -0.80 2  474 229 
 YOT  HZ I        2329 37.43        67.7 0.54             36            474 229 
                                                                                
