 2012  1 3 2220 17.9 L   6.778 -73.135143.3  RSN  4 0.3 1.5LRSN                1
 GAP=139        0.60       3.5     5.9  6.9 -0.2191E+01  0.3333E+01  0.8115E+01E
 Epicentro: LOS SANTOS - SANTANDER                                             3
 ACTION:UP  12-02-03 08:13 OP:REBC STATUS:               ID:20120103222017 L   I
 2012-01-03-2220-00M.COL___183                                                 6
 STAT SP IPHASW D HRMM SECON CODA AMPLIT PERI AZIMU VELO SNR AR TRES W  DIS CAZ7
 BRR  HZ EP       2220 39.01                             151     0.110   73 300 
 BRR  HE ES   1   2220 55.21                             151    -0.1 7   73 300 
 BRR  HZ I        2220 56.75        11.5 0.18                            73 300 
 PAM  SZ EP   1   2220 39.89                             150     0.0 7   79  38 
 PAM  SE ES   1   2220 56.79                             150    -0.3 7   79  38 
 RUS  HZ EP   1   2220 41.46                             144     0.2 7   98 177 
 RUS  HE ES   1   2220 59.75                             144     0.3 7   98 177 
 CHI  HZ EP   1   2220 55.10                             117    -0.1 6  247 196 
 CHI  HZ I        2220 56.00         1.3 0.23                           247 196 
 CHI  HN ES   1   2221 23.77                             117    -0.6 6  247 196 
                                                                                
