 2017  9 3 2032 60.0 L   6.819 -73.163146.0  RSN  4 0.3 1.4LRSN                1
 GAP=133        0.61       3.8     5.4  5.2 -0.3076E+01  0.9596E+00  0.1023E+01E
 Epicentro: LOS SANTOS - SANTANDER                                             3
 ACTION:UPD 17-10-05 19:08 OP:rebc STATUS:               ID:20170903203260 L   I
 OLDACT:UP  17-09-04 04:55 OP:mg   STATUS:               ID:20170903202743     3
 OLDACT:REG 17-09-04 03:23 OP:mg   STATUS:               ID:20170903202743     3
 2017-09-03-2028-00M.COL___417                                                 6
 STAT SP IPHASW D HRMM SECON CODA AMPLIT PERI AZIMU VELO AIN AR TRES W  DIS CAZ7
 BAR2 EZ EP   2   2033 18.59                             170   -1.08 5 25.1 185 
 BAR2 EZ ES       2033 35.12                             170    0.0910 25.1 185 
 BAR2 EZ I        2033 35.41         3.9 0.09            171           25.1 185 
 BRR  HZ EP       2033 21.08                             153    0.0810 68.5 298 
 BRR  HN ES   1   2033 37.31                             153   -0.09 7 68.5 298 
 BRR  HZ I        2033 41.27         9.8 0.30            151           68.5 298 
 PAM  EZ IP     C 2033 22.19                             151   -0.0010 77.1  42 
 PAM  EN ES       2033 39.51                             151   -0.0110 77.1  42 
 PAM  EZ I        2033 40.54         2.5 0.38            153           77.1  42 
 RUS  HZ EP       2033 24.13                             143    0.2310  103 175 
 RUS  HN ES   1   2033 42.45                             143   -0.12 7  103 175 
 RUS  HZ I        2033 42.95         3.6 0.26            146            103 175 
                                                                                
