 2012  5 3 2236 53.1 L   6.745 -73.143137.9  RSN  5 0.4 1.8LRSN                1
 GAP=158        0.89       9.5     5.6  8.7 -0.1193E+02  0.1471E+02 -0.4882E+01E
 Epicentro: JORDAN - SANTANDER                                                 3
 ACTION:UP  12-07-05 12:02 OP:pat  STATUS:               ID:20120503223652 L   I
 2012-05-03-2230-00M.COL___189                                                 6
 STAT SP IPHASW D HRMM SECON CODA AMPLIT PERI AZIMU VELO SNR AR TRES W  DIS CAZ7
 BAR2 SZ EP   1   2237 11.88                             172     0.2 7   17 195 
 BAR2 SZ ES   1   2237 26.38                             172     0.2 7   17 195 
 BAR2 SZ I        2237 29.24        19.5 0.23                            17 195 
 BRR  HZ EP   1   2237 13.76                             150     0.2 7   75 303 
 BRR  HN ES   1   2237 29.99                             150     0.4 7   75 303 
 BRR  HZ I        2237 34.49        22.2 0.20                            75 303 
 PAM  SZ EP   1   2237 14.78                             148     0.0 7   82  37 
 PAM  SN ES   1   2237 31.16                             148    -0.5 7   82  37 
 PAM  SZ I        2237 34.25         8.0 0.34                            82  37 
 PTB  HZ EP   1   2237 18.78                             130    -0.6 7  147 261 
 PTB  HN ES   1   2237 39.43                             130    -0.4 7  147 261 
 PTB  HZ I        2237 42.53         6.5 0.10                           147 261 
 ZAR  HZ EP   1   2237 25.93                             120     0.6 6  207 294 
 ZAR  HN ES   1   2237 50.26                             120    -0.2 6  207 294 
 ZAR  HZ I        2237 55.05         7.4 0.12                           207 294 
                                                                                
