 2017  2 3 2338 36.1 L   7.215 -74.113  3.3  RSN  4 0.4 0.9LRSN                1
 GAP=154        0.94       5.6     2.6  6.5  0.8810E+01 -0.1777E+01  0.3739E+01E
 Epicentro: PUERTO WILCHES - SANTANDER                                         3
 ACTION:UPD 17-05-24 15:32 OP:jn   STATUS:               ID:20170203233836 L   I
 OLDACT:UP  17-02-04 04:55 OP:dani STATUS:               ID:20170203233744     3
 OLDACT:UP  17-02-04 04:54 OP:dani STATUS:               ID:20170203233744     3
 OLDACT:REG 17-02-04 02:59 OP:dani STATUS:               ID:20170203233744     3
 2017-02-03-2338-00M.COL___340                                                 6
 STAT SP IPHASW D HRMM SECON CODA AMPLIT PERI AZIMU VELO AIN AR TRES W  DIS CAZ7
 BRR  HZ EP       2338 43.23                              47   -0.4610 45.9 105 
 BRR  HN ES       2338 49.24                              47   -0.4210 45.9 105 
 BRR  HZ I        2338 51.06         7.3 0.30             47           45.9 105 
 ZAR  HZ EP       2338 50.23                              47    0.1810 87.8 291 
 ZAR  HN ES       2339  0.79                              47   -0.1810 87.8 291 
 ZAR  HZ I        2339  2.47         2.6 0.10             47           87.8 291 
 PAM  EN ES       2339 20.95                              47    0.50 9  157  85 
 RUS  HZ EP       2339  5.69                              37    0.51 9  185 142 
 RUS  HN ES       2339 27.99                              37    0.08 9  185 142 
 RUS  HZ I        2339 29.59         2.0 0.28             37            185 142 
                                                                                
