 2015  6 3 2320 33.6 L   5.863 -73.740117.7  RSN  5 0.1 1.2LRSN                1
 GAP=192        0.38       4.6     2.0  3.2 -0.5166E+01  0.9432E+00  0.1062E+01E
 Epicentro: JESUS MARIA - SANTANDER                                            3
 ACTION:UPD 15-09-10 22:09 OP:cam  STATUS:               ID:20150603232033 L   I
 OLDACT:REG 15-06-04 03:55 OP:spq  STATUS:               ID:20150603231749     3
 2015-06-03-2317-49M.COL___303                                                 6
 STAT SP IPHASW D HRMM SECON CODA AMPLIT PERI AZIMU VELO AIN AR TRES W  DIS CAZ7
 SPBC HZ EP       2320 50.27                             158   -0.1110 43.6 238 
 SPBC HN ES       2321  3.62                             158    0.1610 43.6 238 
 SPBC HZ I        2321  4.55         7.2 0.32            155           43.6 238 
 RUS  HZ EP       2320 52.75                             146    0.1310 72.8  87 
 RUS  HN ES   1   2321  7.28                             146   -0.17 7 72.8  87 
 RUS  HZ I        2321  8.25         1.3 0.32            146           72.8  87 
 NOR  HZ EP       2320 56.68                             129   -0.0310  129 255 
 NOR  HN ES       2321 14.56                             129   -0.1610  129 255 
 NOR  HZ I        2321 16.23         4.5 0.16            129            129 255 
 GUY2CHZ EP       2321  3.94                             117    0.10 9  193 249 
 GUY2CHN ES   1   2321 27.52                             117    0.11 7  193 249 
 GUY2CHZ I        2321 34.04         1.5 0.32                           193 249 
 PRA  HN ES   1   2321 41.61                             109   -0.09 6  270 208 
 PRA  HZ I        2321 45.78         1.6 0.24            108            270 208 
                                                                                
