 2012  6 3 2024 31.2 L   6.795 -73.175132.0  RSN  7 0.3 1.8LRSN                1
 GAP=133        0.54       3.3     2.9  5.7 -0.3270E+01  0.7118E+01 -0.1638E+01E
 Epicentro: LOS SANTOS - SANTANDER                                             3
 ACTION:UPD 12-08-06 17:47 OP:ep   STATUS:               ID:20120603202431 L   I
 2012-06-03-2020-00M.COL___201                                                 6
 STAT SP IPHASW D HRMM SECON CODA AMPLIT PERI AZIMU VELO AIN AR TRES W  DIS CAZ7
 BAR2 SZ EP   2   2024 49.04                             170   -0.13 5 22.5 182 
 BAR2 SZ ES   2   2025  3.09                             170   -0.09 5 22.5 182 
 BAR2 SZ I        2025  4.73        22.2 0.36            164           22.5 182 
 PAM  SZ EP       2024 51.92                             147   -0.2210 79.9  41 
 PAM  SN ES   1   2025  8.82                             147    0.35 7 79.9  41 
 RUS  HZ EP       2024 53.53                             141   -0.0910  100 174 
 RUS  HN ES   1   2025 11.31                             141    0.22 7  100 174 
 PTB  HZ EP   1   2024 56.61                             129   -0.17 7  144 259 
 PTB  HE ES   1   2025 16.39                             129   -0.34 7  144 259 
 PTB  HZ I        2025 19.85         6.8 0.09                           144 259 
 ZAR  HZ EP   2   2025  2.58                             120    0.08 4  201 293 
 ZAR  HE ES   2   2025 26.98                             120    0.07 4  201 293 
 ZAR  HZ I        2025 30.32         6.1 0.26            118            201 293 
 NOR  SN ES       2025 32.82                             116   -0.06 8  232 234 
 HEL  HZ EP   1   2025 10.99                             112    0.60 6  269 256 
 HEL  HN ES   2   2025 41.79                             112    0.84 4  269 256 
 HEL  HZ I        2025 47.79         2.6 0.44            111            269 256 
                                                                                
