 2014  1 3 2134  7.2 L   6.761 -73.137143.9  RSN  7 0.5 1.6LRSN                1
 GAP=139        1.18       4.9     5.5  7.5 -0.5102E+01  0.7385E+01  0.1017E+02E
 Epicentro: LOS SANTOS - SANTANDER                                             3
 ACTION:UPD 14-03-13 09:51 OP:ep   STATUS:               ID:20140103213407 L   I
 OLDACT:REG 14-01-03 21:06 OP:nd   STATUS:               ID:20140103213000     3
 2014-01-03-2130-00M.COL___285                                                 6
 STAT SP IPHASW D HRMM SECON CODA AMPLIT PERI AZIMU VELO AIN AR TRES W  DIS CAZ7
 BAR2 SZ EP       2134 26.60                             172    0.0510 19.3 195 
 BAR2 SZ ES       2134 41.34                             172   -0.2910 19.3 195 
 BAR2 SZ I        2134 42.98        15.6 0.10            169           19.3 195 
 BRR  HZ EP       2134 28.58                             151    0.2510 74.2 301 
 BRR  HN ES       2134 45.69                             151    0.8810 74.2 301 
 BRR  HZ I        2134 54.20         6.6 0.20            150           74.2 301 
 PAM  SZ EP       2134 29.39                             150   -0.0110 80.2  37 
 PAM  SN ES       2134 46.30                             150   -0.4210 80.2  37 
 PAM  SZ I        2134 48.81         9.2 0.48            156           80.2  37 
 RUS  HZ EP       2134 30.56                             145    0.0910 96.2 176 
 RUS  HN ES       2134 48.95                             145    0.3410 96.2 176 
 RUS  HZ I        2134 50.68         3.4 0.40            147           96.2 176 
 PTB  HZ EP       2134 33.59                             132   -0.45 9  148 261 
 PTB  HN ES       2134 54.01                             132   -0.96 9  148 261 
 PTB  HZ I        2135  2.27         7.4 0.32            132            148 261 
 NOR  HZ EP       2134 42.76                             118    0.11 8  233 235 
 NOR  HN ES       2135 10.86                             118    0.57 8  233 235 
 NOR  HZ I        2135 14.51         4.4 0.26            120            233 235 
 CHI  HZ EP       2134 44.69                             117    0.31 8  245 196 
 CHI  HN ES       2135 12.85                             117   -0.52 8  245 196 
 CHI  HZ I        2135 22.71         1.7 0.58            120            245 196 
                                                                                
