 2016  8 3 2306 11.8 L   6.779 -73.114143.5  RSN 14 0.4 2.0LRSN                1
 GAP= 98        0.91       3.5     3.0  4.8 -0.2646E+01  0.1806E+01  0.1459E+01E
 Epicentro: LOS SANTOS - SANTANDER                                             3
 ACTION:UPD 16-10-29 15:31 OP:rebc STATUS:               ID:20160803230611 L   I
 OLDACT:UP  16-08-04 06:19 OP:ar   STATUS:               ID:20160803225746     3
 OLDACT:REG 16-08-04 03:41 OP:ar   STATUS:               ID:20160803225746     3
 2016-08-03-2258-00M.COL___356                                                 6
 STAT SP IPHASW D HRMM SECON CODA AMPLIT PERI AZIMU VELO AIN AR TRES W  DIS CAZ7
 BAR2 EZ EP       23 6 31.09                             171   -0.0810 22.0 200 
 BAR2 EZ ES       23 6 46.09                             171   -0.1610 22.0 200 
 BAR2 EZ I        23 6 47.07        37.3 0.14                          22.0 200 
 BRR  HZ EP       23 6 32.95                             151   -0.0410 75.4 299 
 BRR  HN ES       23 6 49.92                             151    0.4310 75.4 299 
 BRR  HZ I        23 6 51.70        26.0 0.20                          75.4 299 
 PAM  EZ EP       23 6 33.92                             150    0.1210 77.1  36 
 PAM  EE ES       23 6 50.87                             150   -0.0510 77.1  36 
 PAM  EZ I        23 6 53.30        19.3 0.49                          77.1  36 
 RUS  HZ EP       23 6 35.11                             144   -0.0810 98.0 178 
 RUS  HN ES       23 6 53.62                             144    0.2210 98.0 178 
 RUS  HZ I        23 6 55.38         8.3 0.28                          98.0 178 
 TAM  HZ EP       23 6 39.11                             131    0.14 9  151 104 
 SPBC HZ EP       23 6 40.01                             128   -0.20 9  164 220 
 SPBC HN ES       23 7  2.23                             128   -0.11 9  164 220 
 SPBC HZ I        23 7  9.01        16.1 0.28                           164 220 
 ZAR  HZ EP       23 6 45.14                             121    0.57 8  208 292 
 ZAR  HN ES       23 7  9.36                             121   -0.74 8  208 292 
 ZAR  HZ I        23 7 14.48        10.9 0.11                           208 292 
 NOR  HN ES       23 7 15.16                             118   -0.34 8  236 235 
 NOR  HZ I        23 7 21.27        11.0 0.22                           236 235 
 HEL  HZ EP   4   23 6 53.95                             114    1.69 0  275 256 
 HEL  HN ES       23 7 24.40                             114    0.62 8  275 256 
 HEL  HZ I        23 7 27.61         5.0 0.22                           275 256 
 SOCV BZ EP       23 6 53.98                             112   -0.62 7  300  56 
 SOCV BN ES   4   23 7 25.11                             112   -2.84 0  300  56 
 GUY2CHZ EP       23 6 56.30                             112    0.78 7  303 236 
 GUY2CHE ES       23 7 28.83                             112   -0.76 7  303 236 
 GUY2CHZ I        23 7 37.67         7.5 0.54                           303 236 
 CBOC HZ EP   4   23 7  0.00                             109    1.03 0  336 253 
 CBOC HE ES   4   23 7 33.68                             109   -2.05 0  336 253 
 CBOC HZ I        23 7 48.07         2.3 0.50                           336 253 
 PRA  HZ EP       23 7  5.47                             106    0.22 6  392 210 
 PRA  HN ES   4   23 7 45.88                             106   -1.03 0  392 210 
 PRA  HZ I        23 7 53.88         5.0 0.24                           392 210 
 SJC  HZ EP   4   23 7  5.81                             105   -1.98 0  413 327 
 SJC  HN ES   4   23 7 47.07                             105   -4.36 0  413 327 
 SJC  HZ I        23 7 50.08         1.8 0.28                           413 327 
                                                                                
