 2011 10 3 2015 34.4 L   6.715 -73.181146.3  RSN  6 0.3 1.9LRSN                1
 GAP=175        0.70       3.3     5.8  6.1  0.2091E+00 -0.1746E+01 -0.2560E+00E
 Epicentro: VILLANUEVA - SANTANDER                                             3
 ACTION:UPD 12-07-13 16:01 OP:ep   STATUS:               ID:20111003201534 L   I
 2011-10-03-2000-00M.COL___169                                                 6
 STAT SP IPHASW D HRMM SECON CODA AMPLIT PERI AZIMU VELO AIN AR TRES W  DIS CAZ7
 BAR2 SZ EP       2015 53.63                             174   -0.2910 13.5 181 
 BAR2 SZ ES   2   2016  9.35                             174    0.20 5 13.5 181 
 BAR2 SZ I        2016 11.54        20.8 0.30                          13.5 181 
 GIR2 SZ EP   2   2015 53.65                             164   -0.74 5 40.3 358 
 BRR  HZ EP       2015 55.44                             152   -0.2510 73.0 307 
 BRR  HE ES       2016 12.33                             152    0.0210 73.0 307 
 BRR  HZ I        2016 14.73        16.4 0.15                          73.0 307 
 RUS  HZ EP       2015 57.50                             146   -0.0510 91.5 173 
 RUS  HE ES   1   2016 16.00                             146    0.37 7 91.5 173 
 RUS  HZ I        2016 17.68         6.6 0.23                          91.5 173 
 OCA  SZ EP       2016  4.18                             128    0.59 9  169 355 
 OCA  SZ ES   1   2016 26.27                             128   -0.10 7  169 355 
 OCA  SZ I        2016 32.48        11.5 0.39                           169 355 
 NOR  SZ EP   1   2016  9.49                             120    0.26 6  226 236 
 NOR  SE ES   1   2016 36.32                             120   -0.09 6  226 236 
                                                                                
