 2013  5 3 2035 45.2 L   6.797 -73.148148.6  RSN 10 0.4 2.2LRSN 2.5WRSN        1
 SPEC AVERAGE  MO 12.8 ST0.360 OM  1.4 f0 3.41 R0.4689 AL 1.93 WI  8.9 MW  2.5 3
 SPEC SD       MO  0.2 ST0.303 OM  0.3 f00.581 R0.0739 AL      WI      MW  0.1 3
 GAP=136        0.80       3.4     4.4  5.2 -0.3301E+01  0.7347E+01  0.1312E+01E
 Epicentro: LOS SANTOS - SANTANDER                                             3
 SPEC PRA HH Z MO 13.0 ST0.957 OM  1.0 f0 4.28 R0.3631 AL 2.82 WI  9.6 MW  2.6 3
 SPEC PRA HH Z T203720 K 0.000 GD  419 VS 4.20 DE 3.20 Q0300.0 QA 0.60 VS 4.20 3
 SPEC NOR HH Z MO 12.9 ST0.261 OM  1.1 f0 2.95 R0.5268 AL 1.27 WI 12.4 MW  2.6 3
 SPEC NOR HH Z T203648 K 0.000 GD  277 VS 4.20 DE 3.20 Q0300.0 QA 0.60 VS 4.20 3
 SPEC PAM SH Z MO 12.8 ST0.193 OM  1.2 f0 2.92 R0.5322 AL 2.46 WI  8.4 MW  2.5 3
 SPEC PAM SH Z T203624 K 0.000 GD  167 VS 4.20 DE 3.20 Q0300.0 QA 0.60 VS 4.20 3
 SPEC BRR HH Z MO 12.6 ST0.123 OM  1.0 f0 2.95 R0.5268 AL 1.16 WI  7.9 MW  2.4 3
 SPEC BRR HH Z T203624 K 0.000 GD  164 VS 4.20 DE 3.20 Q0300.0 QA 0.60 VS 4.20 3
 SPEC BAR2SH Z MO 12.6 ST0.266 OM  1.0 f0 3.93 R0.3954 AL 1.93 WI  6.2 MW  2.3 3
 SPEC BAR2SH Z T203619 K 0.000 GD  150 VS 4.20 DE 3.20 Q0300.0 QA 0.60 VS 4.20 3
 ACTION:UPD 13-06-20 09:47 OP:ep   STATUS:               ID:20130503203545 L   I
 2013-05-03-2030-00M.COL___253                                                 6
 STAT SP IPHASW D HRMM SECON CODA AMPLIT PERI AZIMU VELO AIN AR TRES W  DIS CAZ7
 BAR2 SZ IP     C 2036  5.19                             171    0.0210 22.9 190 
 BAR2 SZ ES   1   2036 20.44                             171   -0.30 7 22.9 190 
 BAR2 SZ I        2036 21.53        22.1 0.36            169           22.9 190 
 GIR2 SZ EP       2036  5.23                             167    0.0010 31.6 351 
 GIR2 SZ ES   2   2036 20.63                             167   -0.21 5 31.6 351 
 GIR2 SZ I        2036 21.58        13.4 0.38            163           31.6 351 
 BRR  HZ EP     D 2036  7.05                             153    0.3910 71.2 299 
 BRR  HN ES   1   2036 24.47                             153    1.08 7 71.2 299 
 BRR  HZ I        2036 29.46        21.6 0.16            148           71.2 299 
 PAM  SZ EP       2036  7.94                             151    0.1910 77.8  40 
 PAM  SN ES       2036 25.21                             151   -0.1210 77.8  40 
 PAM  SZ I        2036 27.37        42.7 0.54            154           77.8  40 
 RUS  HZ EP       2036  9.24                             144    0.0310  100 176 
 RUS  HN ES   1   2036 27.60                             144   -0.34 7  100 176 
 RUS  HZ I        2036 29.51        16.9 0.22            148            100 176 
 PTB  HZ EP       2036 11.92                             133   -0.46 9  147 259 
 PTB  HN ES   1   2036 33.24                             133   -0.33 7  147 259 
 PTB  HZ I        2036 35.45        21.5 0.14            131            147 259 
 NOR  HZ EP       2036 21.17                             119    0.11 8  234 234 
 NOR  HN ES   1   2036 49.03                             119    0.01 6  234 234 
 NOR  HZ I        2036 56.75        17.3 0.18            119            234 234 
 SML  HZ EP       2036 21.96                             118   -0.06 8  244 335 
 SML  HN ES   1   2036 49.90                             118   -0.83 6  244 335 
 SML  HZ I        2037  1.59        30.8 0.24            118            244 335 
 PRA  HZ EP       2036 39.09                             107    0.31 6  392 210 
 PRA  HN ES   1   2037 20.63                             107    0.07 4  392 210 
 PRA  HZ I        2037 26.44         7.7 0.28            108            392 210 
 SJC  HZ EP   4   2036 39.48                             106   -1.40 0  409 327 
 SJC  HN ES   4   2037 16.98                             106   -7.33 0  409 327 
 SJC  HZ I        2037 24.89         4.3 0.48            107            409 327 
                                                                                
