 2016  7 3 2149 23.2 L   6.785 -73.147147.4  RSN 13 0.3 2.3LRSN                1
 GAP=137        0.75       2.8     2.8  4.3 -0.6239E+00  0.3821E+01  0.1721E+01E
 Epicentro: LOS SANTOS - SANTANDER                                             3
 ACTION:UPD 17-03-29 16:46 OP:lp   STATUS:               ID:20160703214923 L   I
 OLDACT:REG 16-07-04 03:51 OP:lv   STATUS:               ID:20160703214743     3
 2016-07-03-2147-43M.COL___337                                                 6
 STAT SP IPHASW D HRMM SECON CODA AMPLIT PERI AZIMU VELO AIN AR TRES W  DIS CAZ7
 BAR2 EZ EP       2149 42.77                             171   -0.2510 21.7 190 
 BAR2 EZ ES       2149 58.61                             171    0.1510 21.7 190 
 BAR2 EZ I        2149 59.49        57.5 0.26            168           21.7 190 
 BRR  HZ IP     C 2149 44.55                             153   -0.0310 71.9 300 
 BRR  HN ES       2150  1.64                             153    0.3910 71.9 300 
 BRR  HZ I        2150  4.83        42.2 0.24            149           71.9 300 
 PAM  EZ EP       2149 45.81                             151    0.1210 78.7  39 
 PAM  EE ES       2150  3.23                             151    0.0110 78.7  39 
 PAM  EZ I        2150  5.28        47.0 0.58            156           78.7  39 
 RUS  HZ EP       2149 46.76                             145   -0.2610 99.0 176 
 RUS  HN ES       2150  5.78                             145    0.2010 99.0 176 
 RUS  HZ I        2150  6.52        11.1 0.30            146           99.0 176 
 PTB  HZ EP       2149 49.53                             133   -0.75 9  147 259 
 PTB  HN ES       2150 10.71                             133   -0.68 9  147 259 
 PTB  HZ I        2150 18.00        21.9 0.20            131            147 259 
 SPBC HZ EP     C 2149 51.83                             130    0.11 9  162 219 
 SPBC HE ES       2150 13.86                             130   -0.09 9  162 219 
 SPBC HZ I        2150 21.72        64.4 0.06            129            162 219 
 ZAR  HZ EP       2149 55.79                             123   -0.03 9  205 293 
 ZAR  HN ES       2150 21.38                             123    0.12 9  205 293 
 ZAR  HZ I        2150 27.01        22.5 0.32            123            205 293 
 NOR  HZ EP   2   2149 59.16                             119    0.23 4  234 235 
 NOR  HE ES   2   2150 26.65                             119   -0.14 4  234 235 
 NOR  HZ I        2150 31.01         9.6 0.14            119            234 235 
 CHI  HZ EP   2   2150  1.54                             118    0.71 4  247 195 
 CHI  HN ES   2   2150 30.55                             118    0.37 4  247 195 
 CHI  HZ I        2150 34.00         8.1 0.11            119            247 195 
 HEL  HZ EP   4   2150  4.83                             115    1.37 0  272 256 
 HEL  HN ES       2150 35.24                             115    0.39 8  272 256 
 HEL  HZ I        2150 43.24         9.3 0.36            115            272 256 
 URE  HZ EP   4   2150  7.16                             114    2.74 0  284 292 
 URE  HE ES   2   2150 37.07                             114    0.50 4  284 292 
 URE  HZ I        2150 44.75        14.3 0.20            114            284 292 
 GUY2CHZ EP   2   2150  7.19                             113    0.40 4  300 235 
 GUY2CHN ES       2150 41.21                             113    0.44 7  300 235 
 GUY2CHZ I        2150 51.08         6.2 0.36                           300 235 
 PRA  HZ EP       2150 16.85                             107    0.23 6  391 210 
 PRA  HN ES   4   2150 56.97                             107   -1.31 0  391 210 
 PRA  HZ I        2151  3.76        10.6 0.52            108            391 210 
                                                                                
