 2016 11 3 2330 20.9 L   6.756 -73.560103.4  RSN  5 0.2 1.5LRSN                1
 GAP=137        0.56       3.3     2.7  4.8  0.5328E+01  0.4557E+01  0.4843E+01E
 Epicentro: EL CARMEN - SANTANDER                                              3
 ACTION:UPD 17-10-26 21:04 OP:lp   STATUS:               ID:20161103233020 L   I
 OLDACT:REG 16-11-04 03:01 OP:edw  STATUS:               ID:20161103231659     3
 2016-11-03-2328-00M.COL___343                                                 6
 STAT SP IPHASW D HRMM SECON CODA AMPLIT PERI AZIMU VELO AIN AR TRES W  DIS CAZ7
 BRR  HZ IP       2330 35.79                             156   -0.0910 42.3 337 
 BRR  HN ES       2330 47.24                             156   -0.3110 42.3 337 
 BRR  HZ I        2330 49.68         9.8 0.20            156           42.3 337 
 BAR2 HZ EP       2330 36.45                             155    0.0610 45.5 113 
 BAR2 HZ ES       2330 48.85                             155    0.3910 45.5 113 
 BAR2 HZ I        2330 50.12        10.5 0.16            158           45.5 113 
 PTB  HZ EP     C 2330 40.36                             132    0.0810  102 256 
 PTB  HN ES       2330 55.42                             132    0.0410  102 256 
 PTB  HZ I        2330 57.22         4.5 0.18            133            102 256 
 RUS  HZ EP       2330 41.54                             130   -0.0410  109 151 
 RUS  HN ES       2330 57.44                             130   -0.2510  109 151 
 ZAR  HN ES       2331  6.84                             117    0.12 9  165 300 
 ZAR  HZ I        2331  9.91         5.7 0.46            118            165 300 
                                                                                
