 2016  5 3 2219 19.4 L   5.958 -73.764112.0  RSN  5 0.2 1.4LRSN                1
 GAP= 92        0.64       2.6     2.3  6.6 -0.4563E+00  0.4070E+01  0.2324E+01E
 Epicentro: BOLIVAR - SANTANDER                                                3
 ACTION:UPD 16-08-18 17:41 OP:cam  STATUS:               ID:20160503221919 L   I
 OLDACT:REG 16-05-04 03:40 OP:cara STATUS:               ID:20160503221747     3
 2016-05-03-2217-47M.COL___304                                                 6
 STAT SP IPHASW D HRMM SECON CODA AMPLIT PERI AZIMU VELO AIN AR TRES W  DIS CAZ7
 RUS  HZ EP       2219 38.22                             144    0.1710 75.7  95 
 RUS  HN ES       2219 52.67                             144    0.0910 75.7  95 
 RUS  HZ I        2219 54.12         2.1 0.22            148           75.7  95 
 BAR2 EZ EP       2219 39.41                             137    0.2010 95.2  43 
 BAR2 EZ ES       2219 54.53                             137   -0.1310 95.2  43 
 BAR2 EZ I        2219 56.70        14.7 0.34            140           95.2  43 
 PTB  HZ EP       2219 38.85                             135   -0.4710  100 310 
 PTB  HN ES       2219 54.86                             135    0.0210  100 310 
 PTB  HZ I        2219 57.08         2.5 0.10            138            100 310 
 NOR  HZ EP       2219 42.33                             127    0.2010  130 250 
 NOR  HN ES       2220  0.06                             127    0.2110  130 250 
 NOR  HZ I        2220  1.34         8.6 0.14            130            130 250 
 CHI  HE ES       2220  3.42                             123   -0.29 9  147 179 
                                                                                
