 2014 11 3 2254 43.8 L   6.760 -73.064156.9  RSN  4 0.3 1.0LRSN                1
 GAP=149        0.76       5.6     5.4  7.6 -0.1646E+01  0.3204E+01  0.7303E+01E
 Epicentro: LOS SANTOS - SANTANDER                                             3
 ACTION:UPD 14-12-19 15:39 OP:nd   STATUS:               ID:20141103225443 L   I
 OLDACT:REG 14-11-04 03:09 OP:spq  STATUS:               ID:20141103224746     3
 2014-11-03-2247-46M.COL___265                                                 6
 STAT SP IPHASW D HRMM SECON CODA AMPLIT PERI AZIMU VELO AIN AR TRES W  DIS CAZ7
 PAM  SZ EP   1   2255  7.15                             153    0.03 7 75.7  32 
 PAM  SE ES   1   2255 25.12                             153   -0.18 7 75.7  32 
 PAM  SZ I        2255 27.61         1.7 0.22            157           75.7  32 
 BRR  HZ EP       2255  7.00                             151    0.2810 81.2 298 
 BRR  HN ES       2255 24.63                             151    0.0310 81.2 298 
 BRR  HZ I        2255 32.07         2.3 0.46            151           81.2 298 
 RUS  HZ EP   1   2255  8.85                             147    0.50 7 96.0 181 
 RUS  HN ES   1   2255 27.25                             147   -0.25 7 96.0 181 
 RUS  HZ I        2255 29.36         0.7 0.29            152           96.0 181 
 PTB  HZ EP       2255 11.82                             133   -0.60 9  156 261 
 PTB  HE ES   1   2255 35.04                             133    0.31 7  156 261 
 PTB  HZ I        2255 39.17         1.7 0.52            135            156 261 
                                                                                
