 2010  8 3 2015 35.9 L   6.822 -73.070144.0  RSN  5 0.3 1.5LRSN                1
 GAP=173        0.71       7.0    14.1 11.8  0.5856E+02 -0.1056E+03 -0.4441E+02E
 Epicentro: LOS SANTOS - SANTANDER                                             3
 ACTION:UP  10-09-07 10:51 OP:vdl  STATUS:               ID:20100803201535 L   I
 2010-08-03-2012-28S.COL___125                                                 6
 STAT SP IPHASW D HRMM SECON CODA AMPLIT PERI AZIMU VELO SNR AR TRES W  DIS CAZ7
 BTL  SZ EP       2015 55.33                             170     0.010   24 296 
 BAR2 SZ EP       2015 55.29                                    -0.210   28 206 
 BAR2 SZ I        2015 55.62         5.5 0.08                            28 206 
 BAR2 SZ ES   2   2016 10.06                             169    -0.6 5   28 206 
 BRR  HZ EP   1   2015 57.24                             151     0.0 7   78 294 
 BRR  HN ES   1   2016 14.06                             151     0.1 7   78 294 
 BRR  HZ I        2016 22.81        18.8 0.31                            78 294 
 RUS  HZ EP   1   2015 59.40                             143    -0.3 7  103 181 
 RUS  HE ES   1   2016 18.70                             143     0.5 7  103 181 
 RUS  HZ I        2016 19.00         2.9 0.53                           103 181 
 GUE  SZ EP   1   2016  0.49                             140     0.3 7  113   8 
                                                                                
