 2011  2 3 2217 22.0 L   6.792 -73.139131.0  RSN  4 0.4 1.7LRSN                1
 GAP=176        0.72       8.9    13.6 11.0 -0.8714E+02  0.5980E+02 -0.2407E+02E
 Epicentro: LOS SANTOS - SANTANDER                                             3
 *SOL                                                                          3
 ACTION:UP  11-03-28 15:05 OP:jfem STATUS:               ID:20110203221722 L   I
 2011-02-03-2212-14S.COL___138                                                 6
 STAT SP IPHASW D HRMM SECON CODA AMPLIT PERI AZIMU VELO SNR AR TRES W  DIS CAZ7
 BAR2 SZ EP       2217 40.23                             169     0.410   23 193 
 BAR2 SZ ES   2   2217 53.16                             169    -0.6 5   23 193 
 BAR2 SZ I        2217 57.54        11.8 0.22                            23 193 
 GRA  SZ EP   1   2217 45.89                             133    -0.2 7  126  17 
 GRA  SZ I        2217 47.28         9.0 0.21                           126  17 
 NOR  SZ EP   1   2217 56.58                             115    -0.4 6  235 235 
 NOR  SN ES   2   2218 24.64                             115     0.4 4  235 235 
 CHI  HZ EP   2   2217 58.66                             114    -0.2 4  248 195 
 CHI  HN ES   2   2218 27.56                             114    -0.1 4  248 195 
 CHI  HZ I        2218 32.30         3.8 0.67                           248 195 
                                                                                
