 2012  7 3 2032 17.7 L   6.806 -73.147141.7  RSN 13 0.4 2.1LRSN                1
 GAP=136        0.87       3.5     4.3  5.7 -0.2082E+01  0.5082E+01  0.3533E+01E
 Epicentro: LOS SANTOS - SANTANDER                                             3
 ACTION:UPD 12-08-14 11:42 OP:ep   STATUS:               ID:20120703203217 L   I
 2012-07-03-2030-00M.COL___201                                                 6
 STAT SP IPHASW D HRMM SECON CODA AMPLIT PERI AZIMU VELO AIN AR TRES W  DIS CAZ7
 BAR2 SZ IP       2032 36.89                             170     0.010   24 189 
 BAR2 SZ I        2032 37.16        22.6 0.36            160             24 189 
 BAR2 SZ ES   1   2032 51.22                             170    -0.6 7   24 189 
 BRR  HZ IP     C 2032 38.58                             152     0.210   71 298 
 BRR  HE ES   1   2032 55.00                             152     0.5 7   71 298 
 BRR  HZ I        2033  0.22        31.3 0.44            134             71 298 
 PAM  SZ EP       2032 39.65                             150     0.210   77  40 
 PAM  SN ES   1   2032 56.55                             150     0.1 7   77  40 
 PAM  SZ I        2032 57.99        10.6 0.30            146             77  40 
 RUS  HZ EP       2032 40.96                             143    -0.210  101 176 
 RUS  HN ES   1   2032 59.88                             143     0.5 7  101 176 
 RUS  HZ I        2033  1.69        13.7 0.28            133            101 176 
 PTB  HZ EP   2   2032 43.66                             131    -0.7 5  148 259 
 PTB  HN ES   1   2033  4.80                             131    -0.3 7  148 259 
 PTB  HZ I        2033 12.75        14.5 0.30            116            148 259 
 OCA  HZ EP       2032 45.65                             129     0.0 9  160 353 
 OCA  HE ES   2   2033  6.90                             129    -0.5 5  160 353 
 ZAR  HZ EP   2   2032 49.02                             121    -0.8 4  204 292 
 ZAR  HN ES   1   2033 14.79                             121    -0.1 6  204 292 
 ZAR  HZ I        2033 20.89        18.7 0.34            109            204 292 
 NOR  SZ EP       2032 53.36                             118     0.1 8  235 234 
 NOR  SN ES   1   2033 21.08                             118     0.1 6  235 234 
 CHI  HZ EP       2032 54.62                             116    -0.6 8  249 195 
 CHI  HZ I        2032 56.45         7.4 0.46            107            249 195 
 CHI  HN ES   2   2033 23.96                             116    -0.6 4  249 195 
 HEL  HZ EP   2   2032 58.43                             114     0.7 4  272 256 
 HEL  HZ I        2033 37.36         8.6 0.48            103            272 256 
 GUY  SZ EP   1   2033  2.27                             111     0.8 5  304 235 
 GUY  SZ I        2033 37.49         5.3 0.42            102            304 235 
 TOL  SZ EP   2   2033  6.26                             108     0.4 3  344 225 
 PRA  HZ EP   2   2033 11.24                             106     0.1 3  392 209 
 PRA  HE ES   1   2033 53.39                             106     0.6 4  392 209 
 PRA  HZ I        2033 57.92        24.5 0.24             98            392 209 
