 2012  1 3 2347  1.8 L   6.138 -73.786105.6  RSN  4 0.4 1.3LRSN                1
 GAP=133        0.86       7.0     3.8 11.8 -0.4417E-01  0.8726E+01  0.1690E+02E
 Epicentro: LANDAZURI - SANTANDER                                              3
 ACTION:UP  12-02-03 08:13 OP:REBC STATUS:               ID:20120103234701 L   I
 2012-01-03-2340-00M.COL___184                                                 6
 STAT SP IPHASW D HRMM SECON CODA AMPLIT PERI AZIMU VELO SNR AR TRES W  DIS CAZ7
 RUS  HZ EP       2347 20.22                             139    -0.110   82 109 
 RUS  HN ES   1   2347 34.30                             139    -0.5 7   82 109 
 RUS  HZ I        2347 35.66         3.0 0.21                            82 109 
 BAR2 SZ EP   1   2347 20.23                             139     0.2 7   84  53 
 BAR2 SZ ES   1   2347 34.94                             139     0.6 7   84  53 
 BAR2 SZ I        2347 35.95        10.2 0.19                            84  53 
 PTB  HZ EP       2347 19.73                             137    -0.310   87 301 
 PTB  HE ES   1   2347 33.85                             137    -0.3 7   87 301 
 NOR  SZ EP   2   2347 24.90                             123     0.3 5  136 242 
 NOR  SE ES   1   2347 42.98                             123     0.5 7  136 242 
                                                                                
