 2017  2 3 2316 49.2 L   7.305 -74.015 18.4  RSN  5 0.5 1.3LRSN                1
 GAP=166        1.37       5.0     3.2  5.9  0.3985E+01 -0.8017E+01 -0.5839E+01E
 Epicentro: PUERTO WILCHES - SANTANDER                                         3
 ACTION:UPD 17-05-24 15:32 OP:jn   STATUS:               ID:20170203231649 L   I
 OLDACT:UP  17-02-04 04:38 OP:dani STATUS:               ID:20170203230743     3
 OLDACT:REG 17-02-04 02:57 OP:dani STATUS:               ID:20170203230743     3
 2017-02-03-2308-00M.COL___340                                                 6
 STAT SP IPHASW D HRMM SECON CODA AMPLIT PERI AZIMU VELO AIN AR TRES W  DIS CAZ7
 BRR  HZ EP     D 2316 56.06                             112   -0.1810 40.0 123 
 BRR  HE ES       2317  2.15                             112    0.4010 40.0 123 
 BRR  HZ I        2317  2.88        20.0 0.22            111           40.0 123 
 ZAR  HZ EP       2317  4.60                              99    0.2110 95.3 283 
 ZAR  HN ES       2317 16.53                              99    0.2710 95.3 283 
 ZAR  HZ I        2317 19.32         5.8 0.06             98           95.3 283 
 PTB  HZ EP       2317  4.32                              99   -0.4310 97.7 210 
 PTB  HE ES       2317 16.29                              99   -0.6210 97.7 210 
 PTB  HZ I        2317 16.87         6.0 0.28             98           97.7 210 
 PAM  EZ EP     C 2317 11.71                              56   -0.23 9  145  88 
 PAM  EE ES       2317 28.87                              56   -0.83 9  145  88 
 PAM  EZ I        2317 30.69         7.8 0.40             56            145  88 
 RUS  HZ EP     D 2317 18.24                              56    1.07 9  187 147 
 RUS  HE ES       2317 39.62                              56    0.60 9  187 147 
 RUS  HZ I        2317 41.42         3.9 0.42             56            187 147 
                                                                                
