 2012  8 3 2343 14.6 L   6.803 -73.151146.2  RSN 11 0.4 2.5LRSN                1
 GAP=136        0.83       3.1     4.3  5.6 -0.9599E+00  0.5514E+01  0.2522E+01E
 Epicentro: LOS SANTOS - SANTANDER                                             3
 ACTION:UPD 12-09-10 11:54 OP:ep   STATUS:               ID:20120803234314 L   I
 2012-08-03-2340-00M.COL___215                                                 6
 STAT SP IPHASW D HRMM SECON CODA AMPLIT PERI AZIMU VELO AIN AR TRES W  DIS CAZ7
 BAR2 SZ IP       2343 34.35                             170    0.1010 23.6 189 
 BAR2 SZ ES   1   2343 49.28                             170   -0.32 7 23.6 189 
 BAR2 SZ I        2343 52.29        66.2 0.42                          23.6 189 
 BRR  HZ IP     D 2343 36.23                             153    0.5110 70.5 299 
 BRR  HN ES   1   2343 52.93                             153    0.71 7 70.5 299 
 BRR  HZ I        2343 57.37        91.2 0.25                          70.5 299 
 PAM  SZ EP       2343 37.11                             151    0.2810 77.5  40 
 PAM  SN ES   1   2343 54.16                             151   -0.03 7 77.5  40 
 RUS  HZ EP       2343 38.47                             144    0.0910  101 176 
 RUS  HN ES   1   2343 56.79                             144   -0.17 7  101 176 
 RUS  HZ I        2343 59.68        17.0 0.33                           101 176 
 PTB  HZ EP       2343 40.84                             132   -0.68 9  147 259 
 PTB  HN ES   1   2344  2.00                             132   -0.54 7  147 259 
 PTB  HZ I        2344  8.16        32.6 0.26                           147 259 
 OCA  HZ EP       2343 42.44                             130   -0.43 9  160 353 
 OCA  HN ES   1   2344  4.29                             130   -0.65 7  160 353 
 OCA  HZ I        2344  8.47        82.8 0.18                           160 353 
 ZAR  HZ EP   1   2343 47.14                             123    0.17 6  203 292 
 ZAR  HE ES   1   2344 12.69                             123    0.45 6  203 292 
 ZAR  HZ I        2344 18.67        39.3 0.35                           203 292 
 CHI  HZ EP   1   2343 52.38                             117    0.08 6  249 195 
 CHI  HN ES   1   2344 21.78                             117    0.04 6  249 195 
 CHI  HZ I        2344 31.55        13.0 0.26                           249 195 
 HEL  HZ EP   1   2343 55.22                             115    0.48 6  272 256 
 HEL  HZ I        2344 35.73        15.5 0.27                           272 256 
 TOL  SZ ES   2   2344 40.22                             109   -0.23 3  343 225 
 PRA  HZ EP       2344  8.17                             107    0.07 6  392 209 
 PRA  HN ES   1   2344 49.70                             107   -0.15 4  392 209 
                                                                                
