 2011 10 3 2203 31.4 L   6.778 -73.156135.8  RSN  6 0.2 1.4LRSN                1
 GAP=136        0.43       3.2     5.1  6.0 -0.4541E+01  0.1219E+02 -0.3959E+01E
 Epicentro: LOS SANTOS - SANTANDER                                             3
 ACTION:UPD 12-07-13 16:01 OP:ep   STATUS:               ID:20111003220331 L   I
 2011-10-03-2202-30S.COL___171                                                 6
 STAT SP IPHASW D HRMM SECON CODA AMPLIT PERI AZIMU VELO AIN AR TRES W  DIS CAZ7
 BAR2 SZ EP   1   22 3 49.58                             171   -0.19 7 20.7 188 
 BAR2 SZ ES   2   22 4  3.66                             171   -0.45 5 20.7 188 
 BAR2 SZ I        22 4  6.60         4.7 0.19                          20.7 188 
 BRR  HZ EP       22 3 51.67                             150    0.1910 71.4 301 
 BRR  HZ I        22 4  3.27         9.7 0.68                          71.4 301 
 PAM  SZ EP   1   22 3 52.57                             148   -0.15 7 80.0  39 
 PAM  SE ES   2   22 4  9.57                             148    0.21 5 80.0  39 
 RUS  HZ EP   1   22 3 54.01                             142    0.01 7 98.2 175 
 RUS  HE ES   1   22 4 11.85                             142    0.22 7 98.2 175 
 RUS  HZ I        22 4 14.20         2.7 0.36                          98.2 175 
 NOR  SN ES   2   22 4 33.39                             117   -0.15 4  232 235 
 CHI  HZ EP   2   22 4  8.00                             115   -0.26 4  246 195 
                                                                                
