 2012  5 3 2351  4.5 L   6.752 -73.172131.3  RSN  6 0.2 1.4LRSN                1
 GAP=135        0.48       3.2     3.0  6.2  0.2200E+01  0.6299E+01  0.4543E+01E
 Epicentro: VILLANUEVA - SANTANDER                                             3
 ACTION:UP  12-07-05 12:02 OP:pat  STATUS:               ID:20120503235104 L   I
 2012-05-03-2350-00M.COL___189                                                 6
 STAT SP IPHASW D HRMM SECON CODA AMPLIT PERI AZIMU VELO SNR AR TRES W  DIS CAZ7
 BAR2 SZ EP   1   2351 22.08                             172    -0.2 7   18 184 
 BAR2 SZ I        2351 39.21         6.3 0.36                            18 184 
 BRR  HZ EP   1   2351 24.25                             150     0.1 7   71 303 
 BRR  HZ I        2351 26.11         7.6 0.16                            71 303 
 BRR  HE ES   1   2351 39.22                             150    -0.2 7   71 303 
 PAM  SN ES   1   2351 42.15                             146     0.1 7   83  39 
 RUS  HZ EP   1   2351 26.67                             142     0.2 7   96 174 
 RUS  HN ES   1   2351 43.62                             142     0.0 7   96 174 
 RUS  HZ I        2351 45.92         3.2 0.40                            96 174 
 PTB  HZ EP   1   2351 29.66                             129    -0.3 7  144 261 
 PTB  HN ES   1   2351 50.01                             129     0.2 7  144 261 
 PTB  HZ I        2351 52.43         3.4 0.18                           144 261 
 ZAR  HN ES   1   2352  0.68                             119     0.1 6  203 294 
                                                                                
