 2012 11 3 2347 29.6 L   6.771 -73.134148.0  RSN 11 0.3 2.7LRSN                1
 GAP= 73        0.62       2.4     2.8  3.6 -0.6286E+00  0.1052E+01  0.2279E+01E
 Epicentro: LOS SANTOS - SANTANDER                                             3
 ACTION:UPD 12-12-05 15:31 OP:}ep  STATUS:               ID:20121103234729 L   I
 2012-11-03-2340-00M.COL___228                                                 6
 STAT SP IPHASW D HRMM SECON CODA AMPLIT PERI AZIMU VELO AIN AR TRES W  DIS CAZ7
 BAR2 SZ EP       2347 49.37                             172   -0.1110 20.5 195 
 BAR2 SZ ES       2348  4.61                             172   -0.3410 20.5 195 
 BAR2 SZ I        2348  6.50       122.7 0.42                          20.5 195 
 BRR  HZ EP       2347 51.23                             152    0.0510 73.9 300 
 BRR  HN ES       2348  8.54                             152    0.5610 73.9 300 
 BRR  HN I        2348  9.36       150.2 0.35                          73.9 300 
 PAM  SZ EP       2347 52.21                             151    0.0210 79.1  37 
 PAM  SN ES       2348  9.63                             151   -0.1510 79.1  37 
 PAM  SZ I        2348 11.99        33.9 0.53                          79.1  37 
 RUS  HZ EP       2347 53.43                             145    0.0610 97.3 177 
 RUS  HN ES       2348 11.81                             145   -0.0710 97.3 177 
 RUS  HN I        2348 13.77        98.8 0.47                          97.3 177 
 TAM  HZ EP       2347 57.51                             131    0.21 9  153 104 
 TAM  HZ I        2347 58.00        58.7 0.25                           153 104 
 TAM  HE ES   1   2348 18.89                             131    0.02 7  153 104 
 OCA  HZ EP   1   2347 57.97                             129   -0.46 7  164 353 
 ZAR  HE ES   2   2348 27.33                             122   -0.76 4  206 293 
 ZAR  HZ I        2348 34.53        44.4 0.31                           206 293 
 CHI  HZ EP       2348  7.38                             118    0.22 8  246 196 
 CHI  HE ES   1   2348 35.98                             118   -0.44 6  246 196 
 ROSC BZ EP   1   2348  8.02                             117    0.37 6  251 212 
 ROSC BZ I        2348 44.23        33.6 0.39                           251 212 
 HEL  HZ EP   1   2348 10.15                             115    0.13 6  273 257 
 HEL  HZ I        2348 47.88        20.7 0.19                           273 257 
 PRA  HZ EP   1   2348 22.87                             107   -0.11 4  390 210 
 PRA  HN ES       2349  4.59                             107    0.00 6  390 210 
 PRA  HZ I        2349  9.58        18.2 0.33                           390 210 
                                                                                
