 2015  1 3 2014  7.1 L   6.360 -73.562 61.1  RSN  8 0.3 1.5LRSN                1
 GAP= 82        0.72       2.2     3.4  8.8 -0.8485E+00  0.1845E+02  0.1351E+01E
 Epicentro: SANTA HELENA DEL OPON - SANTANDER                                  3
 ACTION:UPD 15-03-02 15:36 OP:nd   STATUS:               ID:20150103201407 L   I
 OLDACT:REG 15-01-04 03:58 OP:spq  STATUS:               ID:20150103200750     3
 2015-01-03-2007-50M.COL___277                                                 6
 STAT SP IPHASW D HRMM SECON CODA AMPLIT PERI AZIMU VELO AIN AR TRES W  DIS CAZ7
 BAR2 EZ EP     D 2014 18.49                             136    0.0310 49.2  59 
 BAR2 EZ ES   1   2014 27.03                             136   -0.29 7 49.2  59 
 BAR2 EZ I        2014 27.62        47.9 0.34            142           49.2  59 
 RUS  HZ EP       2014 21.21                             123    0.0710 74.0 134 
 RUS  HE ES   1   2014 31.75                             123   -0.35 7 74.0 134 
 RUS  HZ I        2014 32.87         6.9 0.22            127           74.0 134 
 BRR  HZ EP       2014 21.73                             118    0.1410 84.3 349 
 BRR  HE ES       2014 32.92                             118    0.0310 84.3 349 
 BRR  HZ I        2014 33.85        21.1 0.12            124           84.3 349 
 SPBC HZ EP       2014 23.55                             115    0.5010 96.5 216 
 SPBC HN ES       2014 35.73                             115    0.2410 96.5 216 
 SPBC HZ I        2014 39.39        17.3 0.22            118           96.5 216 
 PTB  HN ES   4   2014 33.56                             113   -2.65 0  101 281 
 PTB  HZ I        2014 34.39        14.5 0.20            117            101 281 
 NOR  HZ EP   1   2014 31.11                             102   -0.47 7  169 239 
 NOR  HN ES   1   2014 50.00                             102   -0.67 7  169 239 
 NOR  HZ I        2014 53.10         1.9 0.12            105            169 239 
 ZAR  HZ EP   1   2014 34.11                             100    0.06 7  190 311 
 HEL  HZ EP   1   2014 37.53                              99   -0.39 6  218 265 
 HEL  HN ES   4   2014 59.69                              99   -2.27 0  218 265 
 HEL  HZ I        2015  1.06         2.8 0.29            101            218 265 
                                                                                
