 2011  9 3 2224 38.8 L   6.085 -73.731104.9  RSN  6 0.4 1.7LRSN                1
 GAP=127        0.90       4.1     4.4 10.8 -0.3677E+01  0.2790E+02  0.2791E+01E
 Epicentro: BOLIVAR - SANTANDER                                                3
 ACTION:UPD 12-07-13 15:55 OP:ep   STATUS:               ID:20110903222438 L   I
 2011-09-03-2223-06S.COL___171                                                 6
 STAT SP IPHASW D HRMM SECON CODA AMPLIT PERI AZIMU VELO AIN AR TRES W  DIS CAZ7
 RUS  HZ EP       2224 56.45                             142   -0.2810 74.8 106 
 RUS  HN ES   1   2225 10.15                             142   -0.52 7 74.8 106 
 RUS  HZ I        2225 14.42         6.2 0.30                          74.8 106 
 BAR2 SZ EP       2224 57.58                             139    0.6010 82.7  47 
 BAR2 SZ ES   1   2225 11.51                             139    0.39 7 82.7  47 
 BAR2 SZ I        2225 12.94        66.4 0.51                          82.7  47 
 BRR  HZ EP   1   2224 59.22                             129   -0.11 7  113   1 
 BRR  HZ I        2225 10.91        16.2 0.37                           113   1 
 BRR  HN ES   1   2225 15.38                             129    0.07 7  113   1 
 NOR  SZ EP       2225  1.69                             122   -0.25 9  139 245 
 NOR  SN ES   1   2225 19.89                             122   -0.06 7  139 245 
 NOR  SZ I        2225 23.18         2.9 0.15                           139 245 
 ZAR  HZ EP   1   2225  8.54                             112    0.07 6  199 321 
 ZAR  HN ES   1   2225 30.92                             112   -0.66 6  199 321 
 ZAR  HZ I        2225 35.27         4.5 0.11                           199 321 
 RREF HZ EP       2225 11.69                             110   -0.14 8  222 234 
 RREF HN ES   1   2225 38.52                             110    0.97 6  222 234 
 RREF HZ I        2225 41.76         4.5 0.22                           222 234 
                                                                                
