 2016  9 3 2215 16.9 L   6.781 -73.118146.7  RSN 10 0.5 2.0LRSN                1
 GAP=141        1.16       4.2     5.2  6.9  0.3658E+00  0.1320E+02  0.4587E+01E
 Epicentro: LOS SANTOS - SANTANDER                                             3
 ACTION:UPD 17-08-17 21:06 OP:lp   STATUS:               ID:20160903221516 L   I
 OLDACT:UP  16-09-04 10:56 OP:ar   STATUS:               ID:20160903220734     3
 OLDACT:REG 16-09-04 03:55 OP:and  STATUS:               ID:20160903220734     3
 2016-09-03-2208-00M.COL___355                                                 6
 STAT SP IPHASW D HRMM SECON CODA AMPLIT PERI AZIMU VELO AIN AR TRES W  DIS CAZ7
 BAR2 EZ ES       2215 51.43                             171   -0.5410 22.1 199 
 BAR2 EZ I        2215 53.24        22.5 0.44            167           22.1 199 
 BRR  HZ EP       2215 38.29                             151   -0.0510 74.9 299 
 BRR  HN ES       2215 55.82                             151    0.7510 74.9 299 
 BRR  HZ I        2216  0.53        14.9 0.16            150           74.9 299 
 PAM  EZ EP       2215 39.27                             151    0.1010 77.1  37 
 PAM  EN ES       2215 56.62                             151    0.0510 77.1  37 
 PAM  EZ I        2215 58.53         6.9 0.58            158           77.1  37 
 RUS  HZ EP       2215 40.35                             145   -0.2110 98.3 178 
 RUS  HN ES       2215 59.38                             145    0.3510 98.3 178 
 RUS  HZ I        2216  1.68        12.1 0.48            146           98.3 178 
 PTB  HZ EP       2215 43.36                             132   -0.80 9  150 260 
 PTB  HN ES   4   2216  4.41                             132   -1.03 0  150 260 
 PTB  HZ I        2216 11.91        18.0 0.48            132            150 260 
 SPBC HZ EP       2215 45.03                             129   -0.45 9  164 220 
 SPBC HN ES       2216  7.58                             129   -0.21 9  164 220 
 SPBC HZ I        2216 14.58        20.3 0.20            130            164 220 
 ZAR  HZ EP       2215 49.64                             122   -0.12 8  208 292 
 ZAR  HN ES       2216 14.92                             122   -0.48 8  208 292 
 ZAR  HZ I        2216 20.21        16.6 0.64            124            208 292 
 CHI  HZ EP       2215 54.92                             117    0.42 8  247 196 
 CHI  HN ES       2216 23.98                             117    0.14 8  247 196 
 CHI  HZ I        2216 29.70         6.9 0.28            120            247 196 
 HEL  HZ EP       2215 58.57                             115    1.16 8  275 256 
 HEL  HN ES       2216 29.39                             115    0.36 8  275 256 
 HEL  HZ I        2216 35.31         5.5 0.40            116            275 256 
 GUY2CHZ EP   4   2216  2.66                             112    1.98 0  303 235 
 GUY2CHN ES   4   2216 39.26                             112    4.42 0  303 235 
 GUY2CHZ I        2216 45.25         5.3 0.46                           303 235 
                                                                                
