 2015  6 3 2242  3.9 L   6.766 -73.093145.8  RSN  9 0.3 1.7LRSN                1
 GAP=145        0.67       2.9     3.1  5.2 -0.2104E+01  0.3366E+01  0.4150E+01E
 Epicentro: LOS SANTOS - SANTANDER                                             3
 ACTION:UPD 15-09-10 22:09 OP:cam  STATUS:               ID:20150603224203 L   I
 OLDACT:REG 15-06-04 03:52 OP:spq  STATUS:               ID:20150603223750     3
 2015-06-03-2237-50M.COL___303                                                 6
 STAT SP IPHASW D HRMM SECON CODA AMPLIT PERI AZIMU VELO AIN AR TRES W  DIS CAZ7
 BAR2 EZ EP       2242 23.34                             171   -0.1710 21.6 207 
 BAR2 EZ ES   1   2242 38.73                             171   -0.06 7 21.6 207 
 BAR2 EZ I        2242 39.41         7.4 0.12            169           21.6 207 
 PAM  SZ EP       2242 26.32                             151    0.2210 76.9  34 
 PAM  SN ES       2242 43.35                             151   -0.0510 76.9  34 
 PAM  SZ I        2242 43.94         5.8 0.32            154           76.9  34 
 BRR  HZ EP       2242 25.31                             150   -0.1510 78.1 299 
 BRR  HN ES       2242 42.42                             150    0.1410 78.1 299 
 BRR  HZ I        2242 44.22        15.1 0.40            149           78.1 299 
 RUS  HZ EP       2242 27.27                             145   -0.1110 96.6 179 
 RUS  HN ES   1   2242 46.17                             145    0.49 7 96.6 179 
 RUS  HZ I        2242 48.06         2.8 0.30            145           96.6 179 
 SPBC HZ EP       2242 32.36                             129   -0.13 9  164 221 
 SPBC HN ES       2242 54.25                             129   -0.54 9  164 221 
 SPBC HZ I        2242 56.85         7.5 0.34            128            164 221 
 ZAR  HN ES       2243  3.00                             121    0.08 8  211 293 
 ZAR  HZ I        2243  7.53         7.6 0.29            121            211 293 
 NOR  HE ES       2243  8.09                             118    0.08 8  237 236 
 NOR  HZ I        2243 11.61         3.4 0.18            118            237 236 
 GUY2CHN ES   1   2243 22.45                             112    0.38 5  304 236 
 GUY2CHZ I        2243 29.91         2.9 0.38                           304 236 
 PRA  HN ES   1   2243 40.17                             106    1.07 4  392 211 
 PRA  HZ I        2243 46.59         1.9 0.27            107            392 211 
                                                                                
