 2015  6 3 2139  5.9 L   6.909 -72.984172.5  RSN 11 0.4 1.9LRSN                1
 GAP=152        0.81       3.6     4.4  6.2 -0.5000E+00  0.4365E+01  0.1149E+01E
 Epicentro: PIEDECUESTA - SANTANDER                                            3
 ACTION:UPD 15-09-10 22:09 OP:cam  STATUS:               ID:20150603213905 L   I
 OLDACT:REG 15-06-04 03:49 OP:spq  STATUS:               ID:20150603213745     3
 2015-06-03-2137-45M.COL___295                                                 6
 STAT SP IPHASW D HRMM SECON CODA AMPLIT PERI AZIMU VELO AIN AR TRES W  DIS CAZ7
 BAR2 EZ EP       2139 28.90                             166   -0.3010 41.3 212 
 BAR2 EZ ES   1   2139 47.29                             166   -0.06 7 41.3 212 
 BAR2 EZ I        2139 52.12         5.8 0.19            162           41.3 212 
 PAM  SZ EP       2139 30.31                             161    0.1910 57.1  33 
 PAM  SE ES       2139 48.41                             161   -0.5810 57.1  33 
 PAM  SZ I        2139 49.19        10.1 0.20            167           57.1  33 
 BRR  HZ EP       2139 30.95                             153    0.2910 83.4 285 
 BRR  HE ES       2139 50.35                             153    0.4010 83.4 285 
 BRR  HZ I        2139 53.85        14.6 0.10            152           83.4 285 
 RUS  HZ EP       2139 33.67                             145    0.4610  113 186 
 RUS  HE ES   1   2139 54.63                             145    0.14 7  113 186 
 RUS  HZ I        2139 55.46         5.1 0.36            145            113 186 
 SPBC HE ES   1   2140  4.04                             131    0.21 7  184 221 
 SPBC HZ I        2140  8.31         9.6 0.26            131            184 221 
 ZAR  HN ES       2140  9.15                             126   -0.09 8  217 287 
 ZAR  HZ I        2140 10.42        10.1 0.18            127            217 287 
 SML  HZ EP   1   2139 43.66                             123   -0.27 6  241 330 
 SML  HE ES   1   2140 13.26                             123   -0.31 6  241 330 
 SML  HZ I        2140 14.94         7.7 0.05            125            241 330 
 NOR  HE ES   1   2140 15.81                             121   -0.66 6  256 235 
 NOR  HZ I        2140 23.65         4.7 0.17            122            256 235 
 GUY2CHZ EP   4   2139 54.59                             115    1.33 0  323 235 
 GUY2CHE ES   4   2140 32.92                             115    2.75 0  323 235 
 GUY2CHZ I        2140 39.01         2.2 0.42                           323 235 
 MON  HN ES   4   2140 34.65                             112   -1.99 0  361 305 
 MON  HZ I        2140 35.51         1.8 0.60            114            361 305 
 PRA  HN ES   1   2140 46.51                             109   -0.49 4  411 211 
 PRA  HZ I        2140 50.56         2.0 0.64            111            411 211 
                                                                                
