 2017  2 3 2055 39.9 L   6.770 -73.144142.7  RSN  9 0.5 2.1LRSN                1
 GAP=138        1.09       4.0     4.4  6.5  0.2380E+00  0.8266E+01  0.5074E+01E
 Epicentro: LOS SANTOS - SANTANDER                                             3
 ACTION:UPD 17-05-24 15:32 OP:jn   STATUS:               ID:20170203205539 L   I
 OLDACT:UP  17-02-04 03:34 OP:dani STATUS:               ID:20170203204744     3
 OLDACT:UP  17-02-04 03:34 OP:dani STATUS:               ID:20170203204744     3
 OLDACT:REG 17-02-04 02:47 OP:dani STATUS:               ID:20170203204744     3
 2017-02-03-2048-00M.COL___346                                                 6
 STAT SP IPHASW D HRMM SECON CODA AMPLIT PERI AZIMU VELO AIN AR TRES W  DIS CAZ7
 BAR2 EZ EP     C 2055 59.05                             172   -0.0510 20.1 192 
 BAR2 EZ ES       2056 13.71                             172   -0.3610 20.1 192 
 BAR2 EZ I        2056 15.05        25.8 0.20            168           20.1 192 
 BRR  HZ EP       2056  0.98                             151    0.1610 73.0 301 
 BRR  HN ES       2056 17.92                             151    0.7810 73.0 301 
 BRR  HZ I        2056 21.26        32.3 0.14            150           73.0 301 
 PAM  EZ EP       2056  1.99                             149    0.0510 79.9  38 
 PAM  EN ES       2056 18.93                             149   -0.2010 79.9  38 
 PAM  EZ I        2056 19.65        19.7 0.30            155           79.9  38 
 RUS  HZ EP     C 2056  3.03                             144   -0.0810 97.2 176 
 RUS  HN ES       2056 21.36                             144    0.1510 97.2 176 
 RUS  HZ I        2056 22.84        13.7 0.30            145           97.2 176 
 PTB  HZ EP       2056  5.93                             131   -0.65 9  147 260 
 PTB  HN ES       2056 26.50                             131   -0.89 9  147 260 
 PTB  HZ I        2056 34.16        15.1 0.18            130            147 260 
 ZAR  HZ EP       2056 12.23                             121   -0.07 8  206 293 
 ZAR  HN ES       2056 38.08                             121    0.52 8  206 293 
 ZAR  HZ I        2056 43.79        18.5 0.25            122            206 293 
 NOR  HZ EP       2056 14.98                             118   -0.28 8  233 235 
 NOR  HN ES       2056 43.04                             118    0.20 8  233 235 
 NOR  HZ I        2056 47.01        12.5 0.41            118            233 235 
 CHI  HZ EP       2056 17.92                             117    0.84 8  245 195 
 CHI  HE ES       2056 46.24                             117    0.15 8  245 195 
 CHI  HZ I        2056 54.41         3.7 0.32            118            245 195 
 SJC  HZ EP   3   2056 33.77                             105   -1.93 1  412 327 
                                                                                
