 2016  3 3 2113  2.9 L   6.768 -73.163136.0  RSN  7 0.3 1.7LRSN                1
 GAP=139        0.47       3.8     3.1  4.7 -0.6961E+01  0.3097E+01  0.3257E+01E
 Epicentro: LOS SANTOS - SANTANDER                                             3
 ACTION:UPD 16-05-13 21:21 OP:cam  STATUS:               ID:20160303211302 L   I
 OLDACT:REG 16-03-04 04:01 OP:dnl  STATUS:               ID:20160303210747     3
 2016-03-03-2107-47M.COL___331                                                 6
 STAT SP IPHASW D HRMM SECON CODA AMPLIT PERI AZIMU VELO AIN AR TRES W  DIS CAZ7
 BAR2 EZ EP   3   2113 21.24                             171   -0.04 2 19.6 186 
 BAR2 EZ ES   2   2113 35.40                             171   -0.21 5 19.6 186 
 BAR2 EZ I        2113 39.08         6.5 0.12            167           19.6 186 
 PAM  EZ EP       2113 24.27                             148   -0.0610 81.3  39 
 PAM  EN ES       2113 41.18                             148    0.1310 81.3  39 
 PAM  EZ I        2113 43.70         7.2 0.21            158           81.3  39 
 RUS  HZ EP   2   2113 25.38                             143   -0.07 5 97.2 175 
 RUS  HE ES   2   2113 42.83                             143   -0.21 5 97.2 175 
 RUS  HZ I        2113 45.08         4.2 0.38            146           97.2 175 
 PTB  HZ EP       2113 28.53                             130   -0.32 9  145 260 
 PTB  HN ES       2113 49.23                             130    0.14 9  145 260 
 PTB  HZ I        2113 56.86         7.9 0.36            132            145 260 
 SPBC HZ EP       2113 30.48                             128    0.20 9  159 219 
 SPBC HN ES   2   2113 52.10                             128    0.46 5  159 219 
 SPBC HZ I        2114  0.48         9.7 0.21            130            159 219 
 NOR  HZ EP   2   2113 37.19                             117   -0.50 4  231 235 
 NOR  HN ES   2   2114  4.87                             117    0.05 4  231 235 
 NOR  HZ I        2114 13.23         6.1 0.16            120            231 235 
 GUY2CHZ EP   2   2113 46.35                             111    0.69 4  298 235 
 GUY2CHN ES   2   2114 18.52                             111   -0.50 4  298 235 
 GUY2CHZ I        2114 28.15         4.6 0.49                           298 235 
                                                                                
