 2010  7 3 2105 28.4 L   6.767 -73.051147.3  RSN  8 0.3 2.1LRSN                1
 GAP=167        0.62       2.8     6.1  5.6 -0.2046E+01  0.4459E+01  0.6920E-01E
 Epicentro: LOS SANTOS - SANTANDER                                             3
 ACTION:UPD 10-12-01 15:14 OP:pat  STATUS:               ID:20100703210528 L   I
 2010-07-03-2103-16S.COL___118                                                 6
 STAT SP IPHASW D HRMM SECON CODA AMPLIT PERI AZIMU VELO AIN AR TRES W  DIS CAZ7
 BAR2 SZ EP       21 5 48.07                             170    -0.110   24 217 
 BAR2 SZ ES   2   21 6  3.85                             170     0.2 5   24 217 
 BRR  HZ EP       21 5 49.98                             149    -0.310   82 297 
 BRR  HZ I        21 5 50.21        47.4 0.07                            82 297 
 BRR  HN ES   1   21 6  7.51                             149     0.1 7   82 297 
 RUS  HZ EP       21 5 52.19                             145     0.210   97 182 
 RUS  HN ES   1   21 6 10.55                             145     0.1 7   97 182 
 RUS  HZ I        21 6 14.06        10.5 0.42                            97 182 
 BRI  SZ EP   2   21 5 52.65                             142     0.2 5  109  15 
 BRI  SZ ES   1   21 6 10.89                             142    -0.3 7  109  15 
 GRA  SZ ES   2   21 6 13.54                             137    -0.1 5  127  12 
 OCA  SZ EP       21 5 57.36                             129     0.1 9  165 350 
 OCA  SZ ES   2   21 6 20.58                             129     0.8 5  165 350 
 OCA  SZ I        21 6 24.33        20.4 0.34                           165 350 
 CHI  HN ES   2   21 6 34.96                             117    -0.6 4  248 198 
 CHI  HZ I        21 6 41.26         5.3 0.35                           248 198 
 HEL  HZ EP   1   21 6  9.95                             114     0.3 6  281 257 
 HEL  HZ I        21 6 46.56         5.2 0.28                           281 257 
                                                                                
