 2015  5 3 2155 38.0 L   6.809 -73.533 11.3  RSN  6 0.4 1.3LRSN                1
 GAP= 99        0.91       3.1     2.9  6.0  0.3508E+01  0.1084E+02  0.7077E+01E
 Epicentro: EL CARMEN - SANTANDER                                              3
 ACTION:UPD 15-09-10 22:01 OP:cam  STATUS:               ID:20150503215538 L   I
 OLDACT:DUP 15-05-04 06:15 OP:spq  STATUS:               ID:20150503214750d    3
 2015-05-03-2147-49M.COL___274                                                 6
 STAT SP IPHASW D HRMM SECON CODA AMPLIT PERI AZIMU VELO AIN AR TRES W  DIS CAZ7
 BRR  HZ EP       2155 44.50                             102   -0.0210 38.4 329 
 BRR  HN ES       2155 49.50                             102   -0.1110 38.4 329 
 BRR  HZ I        2155 52.07        18.0 0.48            108           38.4 329 
 BAR2 EZ EP       2155 45.52                             100   -0.3310 45.6 122 
 PAM  SZ EP       2155 56.27                              94    0.5910  109  57 
 PAM  SE ES       2156  9.13                              94   -0.3410  109  57 
 PAM  SZ I        2156 10.71         4.4 0.42             96            109  57 
 RUS  HZ EP       2155 56.33                              94    0.0910  113 154 
 RUS  HN ES   4   2156  8.25                              94   -2.23 0  113 154 
 RUS  HZ I        2156 12.98         2.2 0.31             96            113 154 
 ZAR  HZ EP   1   2156  3.70                              56    0.49 7  165 297 
 ZAR  HN ES       2156 22.77                              56   -0.11 9  165 297 
 ZAR  HZ I        2156 23.58         6.1 0.66             56            165 297 
 SML  HE ES   4   2156 39.24                              56    2.26 0  228 345 
 HEL  HZ EP   1   2156 12.70                              56    0.75 6  231 253 
 HEL  HE ES   1   2156 37.67                              56   -0.76 6  231 253 
 HEL  HZ I        2156 39.80         4.4 0.30             56            231 253 
                                                                                
