 2013  6 3 2253  9.1 L   6.433 -73.799 88.6  RSN  7 0.5 1.9LRSN                1
 GAP=104        1.42       5.0     4.0 11.1  0.2391E+01  0.1820E+02  0.1334E+02E
 Epicentro: SANTA HELENA DEL OPON - SANTANDER                                  3
 ACTION:UPD 14-01-08 09:52 OP:ep   STATUS:               ID:20130603225309 L   I
 2013-06-03-2248-55M.COL___221                                                 6
 STAT SP IPHASW D HRMM SECON CODA AMPLIT PERI AZIMU VELO AIN AR TRES W  DIS CAZ7
 BAR2 SZ EP       2253 26.20                             139    1.4610 70.4  75 
 BAR2 SZ ES       2253 36.55                             139   -0.3910 70.4  75 
 BAR2 SZ I        2253 38.09        31.6 0.16            147           70.4  75 
 PTB  HZ EP       2253 24.13                             137   -0.5710 73.6 279 
 PTB  HN ES       2253 36.63                             137   -0.2410 73.6 279 
 PTB  HE I        2253 40.99        13.0 0.16            138           73.6 279 
 BRR  HZ EP       2253 24.40                             136   -0.4110 75.2   7 
 BRR  HN ES       2253 37.14                             136    0.0810 75.2   7 
 BRR  HE I        2253 38.14        26.8 0.18            142           75.2   7 
 RUS  HZ EP       2253 27.13                             128   -0.5410 99.2 127 
 RUS  HN ES       2253 42.25                             128    0.0910 99.2 127 
 RUS  HE I        2253 44.04        14.3 0.52            134           99.2 127 
 NOR  HZ EP       2253 32.55                             115   -0.18 9  153 231 
 NOR  HE ES       2253 51.80                             115    0.65 9  153 231 
 NOR  HN I        2253 55.41        21.8 0.16            117            153 231 
 ZAR  HZ EP       2253 34.18                             113    0.05 9  166 315 
 ZAR  HN ES       2253 54.08                             113    0.43 9  166 315 
 ZAR  HE I        2253 58.72        22.8 0.14            116            166 315 
 HEL  HZ EP       2253 37.23                             110   -0.53 9  193 262 
 HEL  HN ES       2254  0.27                             110    0.16 9  193 262 
 HEL  HN I        2254  7.60         5.0 0.42            111            193 262 
                                                                                
