 2012  1 3 2210 37.4 L   6.799 -73.138141.7  RSN  8 0.3 1.8LRSN                1
 GAP=138        0.63       3.2     4.5  5.8 -0.3009E+01  0.1022E+02 -0.2483E+01E
 Epicentro: LOS SANTOS - SANTANDER                                             3
 ACTION:UP  12-02-03 08:13 OP:REBC STATUS:               ID:20120103221037 L   I
 2012-01-03-2210-00M.COL___183                                                 6
 STAT SP IPHASW D HRMM SECON CODA AMPLIT PERI AZIMU VELO SNR AR TRES W  DIS CAZ7
 BAR2 SZ ES   1   2211 11.32                             170    -0.1 7   23 192 
 BRR  HZ EP       2210 58.28                             151     0.210   72 298 
 BRR  HN ES   2   2211 14.81                             151     0.5 5   72 298 
 BRR  HZ I        2211 19.51        20.6 0.16                            72 298 
 PAM  SZ EP       2210 59.48                             150     0.310   77  39 
 PAM  SN ES       2211 16.11                             150     0.010   77  39 
 RUS  HZ EP   1   2211  0.55                             143    -0.2 7  100 177 
 RUS  HN ES   1   2211 18.76                             143    -0.2 7  100 177 
 RUS  HZ I        2211 20.69         6.0 0.32                           100 177 
 PTB  HZ EP   1   2211  3.90                             131    -0.2 7  149 259 
 OCA  SZ EP   1   2211  5.35                             128     0.0 7  160 353 
 OCA  SZ ES   1   2211 26.58                             128    -0.7 7  160 353 
 OCA  SZ I        2211 30.05        10.2 0.22                           160 353 
 ZAR  HE ES   2   2211 35.06                             121     0.3 4  205 292 
 NOR  SE ES   2   2211 40.69                             117     0.0 4  235 235 
                                                                                
