 2017  2 3 2207 58.9 L   6.792 -73.170148.3  RSN  7 0.5 1.5LRSN                1
 GAP=134        1.22       4.9     5.5  7.7  0.3315E+01  0.1069E+02  0.6409E+01E
 Epicentro: LOS SANTOS - SANTANDER                                             3
 ACTION:UPD 17-05-24 15:32 OP:jn   STATUS:               ID:20170203220758 L   I
 OLDACT:UP  17-02-04 04:07 OP:dani STATUS:               ID:20170203215747     3
 OLDACT:REG 17-02-04 02:52 OP:dani STATUS:               ID:20170203215747     3
 2017-02-03-2158-00M.COL___340                                                 6
 STAT SP IPHASW D HRMM SECON CODA AMPLIT PERI AZIMU VELO AIN AR TRES W  DIS CAZ7
 BAR2 EZ ES       22 8 33.99                             171   -0.3110 22.1 183 
 BRR  HZ EP       22 8 20.41                             154    0.2310 69.3 300 
 BRR  HE ES       22 8 37.85                             154    1.0510 69.3 300 
 BRR  HZ I        22 8 38.06        15.8 0.30            152           69.3 300 
 PAM  EZ EP     D 22 8 21.54                             150    0.0510 79.8  41 
 PAM  EN ES       22 8 38.92                             150   -0.2210 79.8  41 
 PAM  EZ I        22 8 40.86         7.0 0.44            152           79.8  41 
 RUS  HZ EP       22 8 22.59                             145   -0.2210 99.9 174 
 RUS  HE ES       22 8 41.31                             145   -0.1810 99.9 174 
 RUS  HZ I        22 8 42.35         3.6 0.42            145           99.9 174 
 PTB  HZ EP       22 8 25.73                             133   -0.05 9  145 259 
 PTB  HN ES       22 8 46.82                             133    0.04 9  145 259 
 PTB  HZ I        22 8 48.47         2.5 0.10            132            145 259 
 ZAR  HZ EP       22 8 31.67                             123    0.42 9  202 293 
 ZAR  HE ES       22 8 55.27                             123   -1.24 9  202 293 
 ZAR  HZ I        22 9  3.40         2.6 0.29            123            202 293 
 CHI  HZ EP       22 8 36.68                             118    0.15 8  247 195 
 CHI  HN ES       22 9  6.10                             118    0.19 8  247 195 
 CHI  HZ I        22 9  9.54         1.9 0.33            118            247 195 
                                                                                
