 2017  5 3 2104 11.3 L   6.809 -73.150143.1  RSN 18 0.5 2.7LRSN                1
 GAP=111        1.15       3.6     3.6  6.2  0.1436E+01  0.5418E+01  0.6360E+01E
 Epicentro: LOS SANTOS - SANTANDER                                             3
 ACTION:UPD 17-06-16 13:32 OP:jn   STATUS:               ID:20170503210411 L   I
 OLDACT:UP  17-05-04 06:56 OP:dnl  STATUS:               ID:20170503204931     3
 OLDACT:REG 17-05-04 06:03 OP:dnl  STATUS:               ID:20170503204931     3
 2017-05-03-2058-00M.COL___383                                                 6
 STAT SP IPHASW D HRMM SECON CODA AMPLIT PERI AZIMU VELO AIN AR TRES W  DIS CAZ7
 BRR  HZ IP     C 21 4 32.22                             152    0.0810 70.4 298 
 BRR  HE ES       21 4 49.23                             152    0.8610 70.4 298 
 BRR  HZ I        21 4 50.65        65.2 0.16            149           70.4 298 
 PAM  EZ IP     C 21 4 33.25                             150    0.0210 76.9  40 
 PAM  EN ES       21 4 50.31                             150   -0.0010 76.9  40 
 PAM  EZ I        21 4 52.66        92.0 0.50            152           76.9  40 
 RUS  HZ EP     D 21 4 34.33                             143   -0.5610  102 176 
 RUS  HN ES       21 4 53.19                             143   -0.0710  102 176 
 RUS  HZ I        21 4 54.11        39.2 0.28            141            102 176 
 PTB  HZ EP       21 4 37.53                             131   -0.53 9  148 258 
 PTB  HN ES       21 4 58.03                             131   -0.87 9  148 258 
 PTB  HZ I        21 5  4.70        45.4 0.40            128            148 258 
 SPBC HZ EP       21 4 39.58                             128   -0.09 9  164 219 
 SPBC HN ES       21 5  1.71                             128   -0.06 9  164 219 
 SPBC HZ I        21 5  6.30        91.5 0.24            125            164 219 
 YPLC HZ IP     D 21 4 40.85                             126   -0.18 9  178 151 
 YPLC HE ES       21 5  4.39                             126    0.19 9  178 151 
 YPLC HZ I        21 5  7.58        39.8 0.30            125            178 151 
 ZAR  HZ EP       21 4 43.23                             122   -0.29 9  203 292 
 ZAR  HN ES       21 5  8.42                             122   -0.21 9  203 292 
 ZAR  HZ I        21 5 13.82        67.5 0.42            120            203 292 
 NOR  HZ EP       21 4 46.47                             118   -0.46 8  235 234 
 NOR  HE ES       21 5 14.26                             118   -0.43 8  235 234 
 NOR  HZ I        21 5 22.03        24.8 0.22            116            235 234 
 CHI  HZ EP       21 4 49.07                             116    0.10 8  249 195 
 CHI  HN ES       21 5 17.86                             116   -0.47 8  249 195 
 CHI  HZ I        21 5 21.44        38.8 0.58            115            249 195 
 ROSC BZ EP       21 4 50.46                             116    1.09 8  253 211 
 ROSC BN ES       21 5 19.98                             116    0.94 8  253 211 
 ROSC BZ I        21 5 25.09        83.8 0.45            114            253 211 
 HEL  HZ EP       21 4 52.48                             114    1.10 8  272 256 
 HEL  HN ES       21 5 22.50                             114   -0.13 8  272 256 
 HEL  HZ I        21 5 28.55        22.7 0.28            112            272 256 
 VIL  EZ EP       21 4 54.76                             111    0.04 7  304 191 
 VIL  EE ES   4   21 5 26.83                             111   -1.74 0  304 191 
 VIL  EZ I        21 5 33.95        57.8 0.36            110            304 191 
 ELA  HZ EP   4   21 4 59.66                             110    1.56 0  329 229 
 ELA  HN ES   4   21 5 38.11                             110    3.53 0  329 229 
 CBOC HZ EP       21 4 58.62                             109    0.50 7  333 252 
 CBOC HN ES       21 5 35.28                             109    0.67 7  333 252 
 CBOC HZ I        21 5 40.27         9.6 0.74            108            333 252 
 DBB  EZ EP   2   21 4 57.84                             109   -0.80 3  339 274 
 DBB  EN ES   4   21 5 34.18                             109   -1.36 0  339 274 
 DBB  EZ I        21 5 35.21        14.1 0.24            107            339 274 
 ANIL HZ EP       21 5  1.01                             108   -0.07 6  358 224 
 ANIL HN ES   4   21 5 42.88                             108    3.00 0  358 224 
 ORTC HZ EP       21 5  5.05                             106   -0.17 6  396 216 
 ORTC HE ES   4   21 5 48.96                             106    1.71 0  396 216 
 ORTC HZ I        21 5 51.79        16.2 0.26            105            396 216 
 PAL  HZ EP   4   21 5  4.14                             105   -2.27 0  406 239 
 PAL  HZ I        21 5 50.34        12.4 0.44            104            406 239 
 SJC  HZ EP   4   21 5  4.51                             105   -2.17 0  408 327 
 SJC  HN ES   4   21 5 46.00                             105   -3.85 0  408 327 
 SJC  HZ I        21 5 53.61        11.6 0.44            104            408 327 
                                                                                
