 2011 10 3 2034 19.7 L   6.766 -73.109144.6  RSN 15 0.4 3.1LRSN                1
 GAP=118        0.81       2.4     3.5  4.4  0.9700E-01  0.3707E+01  0.3233E+01E
 Epicentro: LOS SANTOS - SANTANDER                                             3
 ACTION:UPD 12-07-13 16:01 OP:ep   STATUS:               ID:20111003203419 L   I
 2011-10-03-2032-27S.COL___171                                                 6
 STAT SP IPHASW D HRMM SECON CODA AMPLIT PERI AZIMU VELO AIN AR TRES W  DIS CAZ7
 BAR2 SZ EP       2034 39.32                             171    0.2010 20.9 203 
 BAR2 SZ ES       2034 53.98                             171   -0.3010 20.9 203 
 BAR2 SZ I        2034 57.46       323.8 0.49                          20.9 203 
 BRR  HZ IP     C 2034 41.24                             150    0.2310 76.5 300 
 BRR  HZ I        2034 41.54       321.8 0.14                          76.5 300 
 BRR  HE ES       2034 58.39                             150    0.7410 76.5 300 
 PAM  SZ EP       2034 42.13                             150    0.3310 77.9  35 
 PAM  SN ES   1   2034 58.63                             150   -0.42 7 77.9  35 
 RUS  HZ EP       2034 43.16                             145    0.1310 96.6 178 
 RUS  HE ES   1   2035  0.65                             145   -0.59 7 96.6 178 
 RUS  HZ I        2035  3.29       144.5 0.31                          96.6 178 
 OCA  SZ EP       2034 47.72                             129   -0.58 9  165 352 
 OCA  SZ ES       2035 10.69                             129    0.07 9  165 352 
 OCA  SZ I        2035 15.79       155.0 0.23                           165 352 
 YOP  SZ EP       2034 49.58                             127    0.45 9  174 154 
 YOP  SE ES   1   2035 11.82                             127   -0.28 7  174 154 
 ZAR  HZ EP   1   2034 51.87                             121   -0.71 6  209 293 
 ZAR  HN ES   1   2035 17.64                             121   -0.61 6  209 293 
 ZAR  HZ I        2035 24.00       135.6 0.54                           209 293 
 NOR  SZ EP   1   2034 55.29                             118   -0.18 6  236 236 
 NOR  SN ES   1   2035 23.27                             118   -0.11 6  236 236 
 CHI  HZ EP       2034 56.93                             117   -0.11 8  246 196 
 CHI  HN ES   1   2035 26.27                             117    0.09 6  246 196 
 CHI  HZ I        2035 34.53        71.1 0.46                           246 196 
 HEL  HZ EP   1   2034 59.63                             114   -0.54 6  275 257 
 HEL  HZ I        2035 38.04        69.7 0.18                           275 257 
 VIL  SZ EP   1   2035  2.68                             112   -0.04 5  301 192 
 VIL  SN ES   2   2035 36.25                             112   -0.05 4  301 192 
 VIL  SZ I        2035 47.82        47.8 0.61                           301 192 
 GUY  SZ EP   1   2035  4.35                             112    0.72 5  305 236 
 GUY  SN ES   1   2035 38.02                             112    0.10 5  305 236 
 GUY  SZ I        2035 49.72       137.7 0.46                           305 236 
 RREF HZ EP       2035  5.94                             111    0.09 7  322 230 
 RREF HE ES   1   2035 41.72                             111   -0.14 5  322 230 
 RREF HZ I        2035 46.61        76.6 0.64                           322 230 
 TOL  SZ EP   1   2035  8.43                             109    0.52 5  344 226 
 PRA  HZ EP       2035 12.63                             106   -0.38 6  391 210 
 PRA  HN ES   1   2035 54.87                             106    0.25 4  391 210 
                                                                                
