 2012  5 3 2126 22.7 L   6.695 -73.206143.8  RSN  5 0.2 1.5LRSN                1
 GAP=218        0.55       5.5     5.0  5.9  0.1695E+02  0.5603E+01  0.1161E+01E
 Epicentro: VILLANUEVA - SANTANDER                                             3
 ACTION:UP  12-07-05 12:02 OP:pat  STATUS:               ID:20120503212622 L   I
 2012-05-03-2120-00M.COL___189                                                 6
 STAT SP IPHASW D HRMM SECON CODA AMPLIT PERI AZIMU VELO SNR AR TRES W  DIS CAZ7
 BAR2 SZ EP   1   2126 41.70                             175    -0.2 7   12 167 
 BAR2 SZ I        2126 42.06        10.1 0.10                            12 167 
 BAR2 SZ ES   1   2126 56.51                             175    -0.4 7   12 167 
 BRR  HZ EP   1   2126 43.72                             152     0.1 7   72 309 
 BRR  HZ I        2126 47.93         9.8 0.14                            72 309 
 BRR  HN ES   1   2127  0.41                             152     0.4 7   72 309 
 RUS  HZ EP   1   2126 45.68                             147     0.2 7   90 171 
 RUS  HZ I        2126 46.77         3.2 0.08                            90 171 
 RUS  HN ES   1   2127  3.38                             147     0.1 7   90 171 
 PTB  HZ EP   1   2126 48.58                             133    -0.1 7  139 263 
 PTB  HN ES   1   2127  9.00                             133     0.0 7  139 263 
 PTB  HZ I        2127 15.31         2.7 0.14                           139 263 
 ZAR  HN ES   1   2127 19.82                             122    -0.1 6  203 296 
                                                                                
