 2016  3 3 2305 37.8 L   6.913 -73.208136.4  RSN  4 0.1 1.3LRSN                1
 GAP=125        0.30       6.9     2.7  8.8 -0.7238E+01  0.3825E+01 -0.2663E+02E
 Epicentro: BETULIA - SANTANDER                                                3
 ACTION:UPD 16-05-13 21:21 OP:cam  STATUS:               ID:20160303230537 L   I
 OLDACT:REG 16-03-04 04:58 OP:dnl  STATUS:               ID:20160303225748     3
 2016-03-03-2257-48M.COL___331                                                 6
 STAT SP IPHASW D HRMM SECON CODA AMPLIT PERI AZIMU VELO AIN AR TRES W  DIS CAZ7
 BAR2 EZ EP   3   23 5 56.70                             165    0.11 2 35.6 175 
 BAR2 EZ ES   3   23 6 11.36                             165    0.09 2 35.6 175 
 PAM  EZ EP       23 5 58.71                             150   -0.0210 73.3  50 
 PAM  EN ES   4   23 6 12.70                             150   -2.38 0 73.3  50 
 PAM  EZ I        23 6 18.88         3.1 0.31            154           73.3  50 
 PTB  HZ EP   2   23 6  3.78                             130    0.15 5  144 253 
 PTB  HN ES   2   23 6 23.65                             130   -0.16 5  144 253 
 PTB  HZ I        23 6 29.90         3.1 0.20            135            144 253 
 ZAR  HZ EP   2   23 6  8.36                             122   -0.10 4  193 289 
 ZAR  HE ES   2   23 6 32.54                             122    0.12 4  193 289 
 ZAR  HZ I        23 6 40.81         1.9 0.19            125            193 289 
                                                                                
