 2011  5 3 2137 46.7 L   6.827 -73.091145.3  RSN  5 0.1 1.2LRSN                1
 GAP=142        0.34       2.7     4.5  4.0  0.3025E+00  0.2944E+01  0.2166E+01E
 Epicentro: LOS SANTOS - SANTANDER                                             3
 ACTION:UP  11-06-29 08:50 OP:tino STATUS:               ID:20110503213746 L   I
 2011-05-03-2135-53S.COL___133                                                 6
 STAT SP IPHASW D HRMM SECON CODA AMPLIT PERI AZIMU VELO SNR AR TRES W  DIS CAZ7
 BTL  SZ EP   1   2138  6.18                             171     0.0 7   22 297 
 BTL  SZ ES   1   2138 21.51                             171     0.0 7   22 297 
 BAR2 SZ ES   2   2138 21.63                             169    -0.1 5   28 201 
 BAR2 SZ I        2138 21.92         5.5 0.30                            28 201 
 PAM  SE ES   1   2138 25.49                             153     0.0 7   71  37 
 PAM  SZ I        2138 27.60         1.3 0.24                            71  37 
 BRR  HZ EP   1   2138  7.86                             151    -0.1 7   75 294 
 BRR  HZ I        2138  9.18         9.8 0.32                            75 294 
 BRR  HE ES   2   2138 24.79                             151     0.2 5   75 294 
 RUS  HZ EP   1   2138 10.75                             143     0.2 7  103 179 
 RUS  HE ES   1   2138 29.12                             143    -0.1 7  103 179 
 RUS  HZ I        2138 29.92         1.3 0.15                           103 179 
                                                                                
