 2011 11 3 2212 37.4 L   6.800 -73.105142.7  RSN 17 0.2 2.7LRSN                1
 GAP=118        0.35       1.5     2.1  2.9 -0.3636E+00  0.1748E+01  0.1080E+01E
 Epicentro: LOS SANTOS - SANTANDER                                             3
 ACTION:UPD 12-07-13 16:07 OP:ep   STATUS:               ID:20111103221237 L   I
 2011-11-03-2205-00M.COL___178                                                 6
 STAT SP IPHASW D HRMM SECON CODA AMPLIT PERI AZIMU VELO AIN AR TRES W  DIS CAZ7
 BAR2 SZ IP       2212 56.66                             170    0.0010 24.6 200 
 BAR2 SZ I        2212 57.20       121.3 0.43                          24.6 200 
 BAR2 SZ ES   2   2213 11.25                             170   -0.45 5 24.6 200 
 GIR2 SZ EP   1   2212 56.58                             167   -0.13 7 32.3 342 
 GIR2 SZ ES   2   2213 11.65                             167   -0.14 5 32.3 342 
 PAM  SZ IP       2212 59.26                             151    0.1710 74.6  37 
 PAM  SN ES   2   2213 16.35                             151    0.32 5 74.6  37 
 BRR  HZ IP     C 2212 58.36                             151   -0.0610 75.2 297 
 BRR  HZ I        2212 58.61       195.2 0.17                          75.2 297 
 BRR  HE ES   2   2213 15.26                             151    0.42 5 75.2 297 
 RUS  HZ EP       2213  0.80                             143   -0.0110  100 179 
 RUS  HN ES   2   2213 18.82                             143   -0.27 5  100 179 
 RUS  HZ I        2213 21.83        51.5 0.30                           100 179 
 BRI  SZ EP   2   2213  0.34                             141   -0.51 5  107  19 
 OCA  SZ EP   1   2213  5.61                             129    0.11 7  161 352 
 OCA  SZ ES   2   2213 27.38                             129   -0.06 5  161 352 
 OCA  SZ I        2213 34.56        48.8 0.35                           161 352 
 YOP  SZ EP   2   2213  7.27                             126    0.27 4  177 155 
 YOP  SN ES   2   2213 30.47                             126    0.36 4  177 155 
 YOP  SZ I        2213 33.42        38.6 0.62                           177 155 
 ZAR  HZ EP   2   2213 10.10                             121    0.04 4  208 292 
 ZAR  HN ES   2   2213 35.54                             121   -0.01 4  208 292 
 ZAR  HZ I        2213 40.36       105.5 0.27                           208 292 
 NOR  SZ EP   1   2213 13.00                             117   -0.33 6  238 235 
 NOR  SN ES   2   2213 41.13                             117   -0.24 4  238 235 
 ROSC BZ EP   2   2213 15.65                             116    0.06 4  255 212 
 ROSC BN ES   2   2213 45.49                             116    0.09 4  255 212 
 ROSC BZ I        2213 55.18        33.2 0.39                           255 212 
 HEL  HZ EP   2   2213 18.12                             114    0.20 4  276 256 
 HEL  HN ES   2   2213 50.04                             114    0.49 4  276 256 
 HEL  HZ I        2213 55.02        30.4 0.38                           276 256 
 VIL  SZ EP   2   2213 21.07                             111    0.31 4  304 192 
 VIL  SN ES   2   2213 54.60                             111   -0.01 4  304 192 
 VIL  SZ I        2214  0.42        15.7 0.28                           304 192 
 RREF HZ EP   2   2213 23.95                             110    0.17 3  325 230 
 RREF HN ES   2   2214  0.17                             110    0.19 3  325 230 
 RREF HZ I        2214  7.07        32.6 0.36                           325 230 
 DBB  SZ EP   2   2213 24.86                             109   -0.39 3  344 274 
 TOL  SZ EP   1   2213 26.00                             108    0.12 5  347 225 
 TOL  SZ ES   2   2214  3.75                             108    0.04 3  347 225 
 PRA  HZ EP   1   2213 30.71                             106   -0.35 4  394 210 
 PRA  HN ES   2   2214 12.96                             106    0.03 3  394 210 
                                                                                
