 2011  5 3 2210 35.4 L   7.132 -73.142140.0  RSN  6 0.2 1.9LRSN                1
 GAP=117        0.53       3.3     5.4  5.0 -0.5010E+01 -0.4531E+01  0.2026E+01E
 Epicentro: BUCARAMANGA - SANTANDER                                            3
 ACTION:UP  11-06-29 08:50 OP:tino STATUS:               ID:20110503221035 L   I
 2011-05-03-2208-13S.COL___133                                                 6
 STAT SP IPHASW D HRMM SECON CODA AMPLIT PERI AZIMU VELO SNR AR TRES W  DIS CAZ7
 BTL  SZ EP   1   2210 54.58                             168     0.2 7   27 210 
 BTL  SZ ES   1   2211  9.27                             168     0.0 7   27 210 
 PAM  SZ EP   1   2210 56.03                             158     0.3 7   54  65 
 PAM  SN ES   2   2211 11.52                             158    -0.1 5   54  65 
 BAR2 SZ EP   1   2210 55.78                             156     0.2 7   60 184 
 BAR2 SZ ES   1   2211 11.68                             156     0.3 7   60 184 
 BAR2 SZ I        2211 12.57        40.3 0.34                            60 184 
 BRR  HZ EP   1   2210 55.30                             154    -0.1 7   63 268 
 BRR  HZ I        2210 55.69        29.9 0.14                            63 268 
 BRR  HN ES   1   2211 11.05                             154     0.0 7   63 268 
 GRA  SZ EP   2   2210 57.65                             145     0.2 5   91  24 
 GRA  SZ ES   1   2211 14.27                             145    -0.3 7   91  24 
 GRA  SZ I        2211 19.57         8.9 0.37                            91  24 
 RUS  HZ EP   1   2211  1.20                             133    -0.4 7  137 177 
 RUS  HZ I        2211  2.44         3.7 0.25                           137 177 
 RUS  HN ES   1   2211 21.77                             133    -0.2 7  137 177 
                                                                                
