 2010  7 3 2217 14.5 L   6.799 -73.102149.9  RSN 13 0.3 2.6LRSN                1
 GAP=160        0.78       2.7     4.7  6.0 -0.5431E+01  0.5618E+01  0.3377E+01E
 Epicentro: LOS SANTOS - SANTANDER                                             3
 ACTION:UPD 10-12-01 15:14 OP:pat  STATUS:               ID:20100703221714 L   I
 2010-07-03-2213-57S.COL___118                                                 6
 STAT SP IPHASW D HRMM SECON CODA AMPLIT PERI AZIMU VELO AIN AR TRES W  DIS CAZ7
 BAR2 SZ IP       2217 34.43                             170    -0.210   25 201 
 BRR  HZ IP     C 2217 36.29                             152     0.010   76 297 
 BRR  HN ES   1   2217 53.63                             152     0.3 7   76 297 
 BRR  HZ I        2217 54.60        99.2 0.11                            76 297 
 RUS  HZ IP     D 2217 38.33                             145    -0.310  100 179 
 RUS  HN ES   1   2217 57.16                             145    -0.3 7  100 179 
 RUS  HZ I        2217 58.09        40.5 0.24                           100 179 
 BRI  SZ EP       2217 38.97                             143     0.310  107  18 
 BRI  SZ ES   1   2217 57.44                             143    -0.1 7  107  18 
 GUE  SZ EP       2217 39.44                             140    -0.110  116  10 
 GRA  SZ IP       2217 40.28                             138     0.310  124  15 
 GRA  SZ ES   1   2218  0.41                             138     0.5 7  124  15 
 OCA  SZ EP   1   2217 42.87                             130    -0.3 7  161 351 
 OCA  SZ ES   1   2218  4.88                             130    -0.7 7  161 351 
 OCA  SZ I        2218 11.69        37.8 0.14                           161 351 
 CHI  HZ EP       2217 52.52                             118     0.0 8  250 196 
 CHI  HE ES   1   2218 22.76                             118     0.5 6  250 196 
 CHI  HZ I        2218 31.36        23.8 0.47                           250 196 
 ROSC BZ EP   1   2217 53.64                             117     0.5 6  255 212 
 ROSC BE ES   1   2218 23.04                             117    -0.2 6  255 212 
 ROSC BZ I        2218 30.32        23.7 0.29                           255 212 
 HEL  HZ EP   1   2217 56.09                             115     0.7 6  277 256 
 HEL  HN ES   1   2218 27.27                             115    -0.1 6  277 256 
 HEL  HZ I        2218 32.95        21.7 0.46                           277 256 
 RREF HZ EP   1   2218  1.44                             111     0.2 5  325 230 
 RREF HN ES   1   2218 38.04                             111     0.4 5  325 230 
 RREF HZ I        2218 43.53        24.8 0.40                           325 230 
 DBB  SZ EP       2218  2.16                             110    -0.5 7  344 274 
 PRA  HZ EP   1   2218  7.98                             107    -0.4 4  394 210 
 PRA  HN ES   1   2218 50.49                             107     0.0 4  394 210 
 PRA  HZ I        2218 56.32        23.1 0.41                           394 210 
                                                                                
