 2016 10 3 2314  8.1 L   6.754 -73.099147.6  RSN  9 0.3 1.8LRSN                1
 GAP=145        0.80       2.9     3.3  4.9 -0.5966E+00  0.4115E+01  0.1964E+01E
 Epicentro: LOS SANTOS - SANTANDER                                             3
 ACTION:UPD 16-11-09 19:16 OP:rebc STATUS:               ID:20161003231408 L   I
 OLDACT:DUP 16-10-04 05:08 OP:cara STATUS:               ID:20161003230744d    3
 OLDACT:DUP 16-10-04 04:56 OP:cara STATUS:               ID:20161003230743d    3
 OLDACT:REG 16-10-04 04:06 OP:cara STATUS:               ID:20161003230742     3
 2016-10-03-2308-00M.COL___369                                                 6
 STAT SP IPHASW D HRMM SECON CODA AMPLIT PERI AZIMU VELO AIN AR TRES W  DIS CAZ7
 BAR2 EZ IP       2314 28.02                             172    0.1410 20.1 207 
 BAR2 EZ ES       2314 43.54                             172    0.2310 20.1 207 
 BAR2 EZ I        2314 45.53         7.7 0.20            171           20.1 207 
 BRR  HZ EP       2314 29.96                             151    0.1210 78.2 300 
 BRR  HE ES       2314 46.79                             151   -0.0110 78.2 300 
 PAM  EZ EP       2314 30.75                             151    0.1910 78.4  34 
 PAM  EN ES       2314 47.75                             151   -0.3310 78.4  34 
 PAM  EZ I        2314 49.84        14.8 0.48            153           78.4  34 
 RUS  HZ EP       2314 32.18                             146    0.5310 95.3 179 
 RUS  HE ES       2314 49.91                             146   -0.1110 95.3 179 
 RUS  HZ I        2314 52.49         9.9 0.34            146           95.3 179 
 PTB  HZ EP       2314 35.17                             132   -0.41 9  152 261 
 PTB  HN ES       2314 56.74                             132   -0.29 9  152 261 
 PTB  HZ I        2314 57.29         7.5 0.30            132            152 261 
 SPBC HN ES       2314 59.14                             130    0.17 9  163 222 
 SPBC HZ I        2315  1.63        17.7 0.24            130            163 222 
 ZAR  HZ EP       2314 41.53                             122    0.18 8  211 293 
 ZAR  HN ES       2315  7.21                             122   -0.07 8  211 293 
 ZAR  HZ I        2315 12.62         7.9 0.44            123            211 293 
 CHI  HZ EP       2314 44.78                             118   -0.73 8  245 197 
 CHI  HN ES       2315 14.37                             118   -0.33 8  245 197 
 CHI  HZ I        2315 18.95         2.8 0.32            119            245 197 
 GUY2CHN ES       2315 26.68                             113    0.55 7  303 236 
 GUY2CHZ I        2315 38.51         3.1 0.30                           303 236 
                                                                                
