 2011  3 3 2108 48.0 L   6.754 -72.940144.9  RSN  7 0.4 2.1LRSN                1
 GAP=183        0.59       4.0    11.8  8.6 -0.3167E+02  0.3098E+02  0.1206E+01E
 Epicentro: CEPITA - SANTANDER                                                 3
 ACTION:UP  11-06-16 14:31 OP:jfem STATUS:               ID:20110303210847 L   I
 2011-03-03-2107-20S.COL___135                                                 6
 STAT SP IPHASW D HRMM SECON CODA AMPLIT PERI AZIMU VELO SNR AR TRES W  DIS CAZ7
 BAR2 SZ EP       21 9  7.66                             167    -0.110   32 236 
 BAR2 SZ I        21 9 24.34        53.2 0.17                            32 236 
 RUS  HZ EP       21 9 11.45                             145     0.110   97 189 
 RUS  HN ES   2   21 9 30.00                             145     0.4 5   97 189 
 RUS  HZ I        21 9 31.49        10.7 0.32                            97 189 
 GRA  SZ IP       21 9 13.38                             137     0.210  126   7 
 GRA  SZ I        21 9 14.54        15.5 0.29                           126   7 
 GRA  SZ ES   1   21 9 32.51                             137    -0.3 7  126   7 
 CHI  HZ EP       21 9 25.56                             117    -0.3 8  251 201 
 CHI  HN ES   1   21 9 55.40                             117     0.0 6  251 201 
 CHI  HZ I        2110  4.47         5.8 0.58                           251 201 
 RREF HZ EP   2   21 9 35.77                             110     0.0 3  336 233 
 RREF HE ES   2   2110 12.90                             110    -0.1 3  336 233 
 RREF HZ I        2110 20.08         6.6 0.38                           336 233 
 MON  HZ EP   3   21 9 41.62                             107     2.2 2  374 307 
 PRA  HZ EP   2   21 9 42.69                             106     0.3 3  399 213 
                                                                                
