 2014 10 3 2157 42.5 L   6.802 -73.135147.2  RSN 15 0.4 2.1LRSN                1
 GAP=138        0.83       2.5     3.5  4.6 -0.9203E+00  0.2711E+01  0.1541E+01E
 Epicentro: LOS SANTOS - SANTANDER                                             3
 ACTION:UPD 14-11-29 23:46 OP:nd   STATUS:               ID:20141003215742 L   I
 OLDACT:REG 14-10-04 09:01 OP:spq  STATUS:               ID:20141003214750     3
 2014-10-03-2147-50M.COL___292                                                 6
 STAT SP IPHASW D HRMM SECON CODA AMPLIT PERI AZIMU VELO AIN AR TRES W  DIS CAZ7
 BAR2 SZ EP     C 2158  2.27                             170   -0.0210 23.7 193 
 BAR2 SZ ES   1   2158 17.53                             170   -0.22 7 23.7 193 
 BAR2 SZ I        2158 19.38        17.1 0.29            168           23.7 193 
 BRR  HZ EP     D 2158  4.04                             152    0.2110 72.1 298 
 BRR  HN ES       2158 21.16                             152    0.6710 72.1 298 
 BRR  HZ I        2158 21.89        28.2 0.14            150           72.1 298 
 PAM  SZ EP       2158  5.17                             151    0.3710 76.5  39 
 PAM  SE ES       2158 22.04                             151   -0.1710 76.5  39 
 PAM  SZ I        2158 24.17        23.7 0.48            155           76.5  39 
 RUS  HZ EP       2158  6.39                             144    0.0110  101 177 
 RUS  HN ES   1   2158 25.04                             144    0.01 7  101 177 
 RUS  HZ I        2158 26.45        14.2 0.24            145            101 177 
 PTB  HZ EP       2158  9.10                             132   -0.57 9  149 259 
 PTB  HE ES       2158 30.71                             132   -0.17 9  149 259 
 PTB  HZ I        2158 35.08        10.4 0.14            131            149 259 
 OCA  HZ EP   1   2158 10.90                             130    0.00 7  160 353 
 OCA  HE ES   1   2158 32.40                             130   -0.66 7  160 353 
 OCA  HZ I        2158 35.76        14.7 0.18            131            160 353 
 SPBC HZ EP       2158 11.55                             129    0.38 9  164 219 
 SPBC HN ES       2158 33.33                             129   -0.22 9  164 219 
 SPBC HZ I        2158 40.48        14.3 0.17            129            164 219 
 ZAR  HZ EP   1   2158 15.04                             123   -0.08 6  205 292 
 ZAR  HN ES       2158 40.57                             123   -0.01 9  205 292 
 ZAR  HZ I        2158 45.86        19.9 0.22            122            205 292 
 SML  HZ EP       2158 18.87                             118   -0.35 8  244 335 
 SML  HN ES   1   2158 47.79                             118   -0.08 6  244 335 
 SML  HZ I        2158 52.94        19.2 0.10            118            244 335 
 CHI  HZ EP   1   2158 19.89                             117   -0.42 6  249 195 
 CHI  HN ES   1   2158 49.51                             117   -0.31 6  249 195 
 CHI  HZ I        2158 53.01         6.1 0.22            118            249 195 
 GUY2CHZ EP   1   2158 27.33                             112    1.06 5  302 235 
 GUY2CHE ES   4   2159  3.14                             112    2.71 0  302 235 
 GUY2CHZ I        2159  9.95         3.6 0.40                           302 235 
 TOL  SN ES   4   2159 10.20                             109    1.53 0  344 225 
 TOL  SZ I        2159 11.85        10.2 0.46            110            344 225 
 PRA  HZ EP       2158 36.46                             107    0.33 6  393 210 
 PRA  HE ES   1   2159 17.11                             107   -0.88 4  393 210 
 PRA  HZ I        2159 23.25         4.2 0.40            107            393 210 
 ORTC HZ EP   1   2158 37.38                             107    0.84 4  396 216 
 ORTC HE ES   4   2159 21.03                             107    2.31 0  396 216 
 ORTC HZ I        2159 25.34         2.9 0.44            107            396 216 
 SJC  HZ EP   4   2158 36.51                             106   -1.63 0  410 327 
 SJC  HN ES   4   2159 18.65                             106   -2.91 0  410 327 
 SJC  HZ I        2159 22.86         2.3 0.42            107            410 327 
                                                                                
