 2012  2 3 2015  8.4 L   6.815 -73.150142.5  RSN 14 0.4 2.7LRSN                1
 GAP=135        0.82       3.5     4.0  6.0 -0.2343E+01  0.6980E+01  0.2389E+01E
 ACTION:UP  12-03-07 16:27 OP:epov STATUS:               ID:20120203201508 L   I
 2012-02-03-2010-00M.COL___188                                                 6
 STAT SP IPHASW D HRMM SECON CODA AMPLIT PERI AZIMU VELO SNR AR TRES W  DIS CAZ7
 BAR2 SZ IP       2015 27.79                             170    0.1010 24.8 188 
 BAR2 SZ I        2015 28.13       114.3 0.36                          24.8 188 
 GIR2 SZ IP       2015 27.74                             168    0.0810 29.6 351 
 BRR  HZ IP     C 2015 29.53                             152    0.3910 70.0 298 
 BRR  HZ I        2015 29.83       186.2 0.30                          70.0 298 
 BRR  HE ES   1   2015 45.86                             152    0.55 7 70.0 298 
 PAM  SZ IP       2015 30.51                             150    0.2810 76.5  41 
 PAM  SN ES   1   2015 47.26                             150    0.02 7 76.5  41 
 RUS  HZ IP     C 2015 31.88                             143   -0.0910  102 176 
 RUS  HN ES   1   2015 49.79                             143   -0.55 7  102 176 
 RUS  HZ I        2015 51.86        40.8 0.28                           102 176 
 PTB  HZ EP       2015 34.29                             131   -0.81 9  148 258 
 PTB  HN ES   1   2015 55.45                             131   -0.47 7  148 258 
 PTB  HZ I        2015 58.73        43.4 0.18                           148 258 
 OCA  SZ EP       2015 35.76                             129   -0.56 9  159 353 
 ZAR  HZ EP       2015 40.38                             122   -0.16 9  203 292 
 ZAR  HE ES   2   2016  5.97                             122    0.37 4  203 292 
 ZAR  HZ I        2016 11.27        71.6 0.26                           203 292 
 NOR  SZ EP       2015 44.01                             118   -0.01 8  235 234 
 NOR  SN ES   1   2016 11.79                             118    0.00 6  235 234 
 CHI  HZ EP       2015 46.55                             116    0.46 8  250 195 
 CHI  HN ES   2   2016 15.63                             116    0.15 4  250 195 
 CHI  HZ I        2016 22.85        16.1 0.38                           250 195 
 HEL  HZ EP   2   2015 48.49                             114    0.04 4  272 255 
 HEL  HZ I        2016 26.03        21.1 0.34                           272 255 
 RREF HN ES   2   2016 30.78                             110    0.34 3  322 229 
 RREF HZ I        2016 42.12        13.1 0.60                           322 229 
 DBB  SZ EP       2015 56.35                             109    0.66 7  339 274 
 PRA  HZ EP   2   2016  2.18                             106    0.22 3  393 209 
 PRA  HN ES   2   2016 43.99                             106    0.26 3  393 209 
 PRA  HZ I        2016 48.93        51.7 0.22                           393 209 
                                                                                
