 2010 10 3 2232 43.7 L   6.708 -73.190140.1  RSN  4 0.3 1.3LRSN                1
 GAP=225        0.64      10.7    18.6  7.4  0.1687E+03  0.2710E+02  0.2151E+02E
 Epicentro: VILLANUEVA - SANTANDER                                             3
 ACTION:UP  11-02-18 11:07 OP:tino STATUS:               ID:20101003223243 L   I
 2010-10-03-2229-18S.COL___122                                                 6
 STAT SP IPHASW D HRMM SECON CODA AMPLIT PERI AZIMU VELO SNR AR TRES W  DIS CAZ7
 BAR2 SZ ES   1   2233 17.36                             174     0.3 7   13 177 
 BAR2 SZ I        2233 19.05         7.8 0.17                            13 177 
 BRR  HZ EP       2233  4.35                             151     0.110   73 307 
 BRR  HE ES   1   2233 20.16                             151    -0.2 7   73 307 
 RUS  HZ EP       2233  6.21                             145     0.010   91 173 
 RUS  HE ES   2   2233 22.92                             145    -0.8 5   91 173 
 RUS  HZ I        2233 26.22         2.5 0.50                            91 173 
 CHI  HZ EP   3   2233 20.33                             117     0.5 2  238 195 
 CHI  HZ I        2233 21.24         1.0 0.26                           238 195 
 CHI  HE ES   3   2233 48.62                             117     0.6 2  238 195 
                                                                                
