 2010  3 3 2109 39.1 L   6.615 -73.619107.0  RSN  5 0.5 1.6LRSN                1
 GAP=104        0.92       7.9    11.2 15.9  0.5166E+02  0.1252E+03  0.8722E+02E
 Epicentro: EL CARMEN DE CHUCURI - SANTANDER                                   3
 ACTION:UP  10-08-24 09:51 OP:vdl  STATUS:               ID:20100303210939 L   I
 2010-03-03-2108-21S.COL___096                                                 6
 STAT SP IPHASW D HRMM SECON CODA AMPLIT PERI AZIMU VELO SNR AR TRES W  DIS CAZ7
 BAR2 SZ EP       21 9 55.40                             154     0.310   48  93 
 BAR2 SZ ES   2   2110  7.32                             154    -0.3 5   48  93 
 BRR  HZ EP       21 9 55.07                             150    -0.110   55 349 
 BRR  HZ I        2110  0.69        11.6 0.16                            55 349 
 BRR  HN ES   2   2110  8.42                             150     0.7 5   55 349 
 RUS  BZ EP       21 9 59.01                             134    -0.210  100 143 
 RUS  BE ES   2   2110 14.07                             134    -0.8 5  100 143 
 RUS  BZ I        2110 14.89         4.7 0.21                           100 143 
 HEL  HZ EP   1   2110 10.62                             111    -0.6 6  216 258 
 HEL  HZ I        2110 37.13         6.3 0.34                           216 258 
 CHI  HZ EP       2110 12.16                             110     0.5 8  220 183 
 CHI  HN ES   2   2110 37.69                             110     0.6 4  220 183 
                                                                                
