 2010  7 3 2205 12.5 L   6.777 -73.118154.0  RSN  4 0.3 1.5LRSN                1
 GAP=159        0.69       4.0     8.2  7.8 -0.9242E+01 -0.1735E+02  0.5452E+00E
 Epicentro: LOS SANTOS - SANTANDER                                             3
 ACTION:UPD 10-12-01 15:14 OP:pat  STATUS:               ID:20100703220512 L   I
 2010-07-03-2201-11S.COL___118                                                 6
 STAT SP IPHASW D HRMM SECON CODA AMPLIT PERI AZIMU VELO AIN AR TRES W  DIS CAZ7
 BRR  HZ EP   1   22 5 34.76                             153     0.0 8   75 299 
 BRR  HE ES   1   22 5 52.09                             153     0.0 8   75 299 
 BRR  HZ I        22 5 56.10        11.7 0.31                            75 299 
 RUS  HZ EP   1   22 5 36.80                             146     0.0 8   98 178 
 RUS  HN ES   1   22 5 55.83                             146     0.0 8   98 178 
 RUS  HZ I        22 5 56.73         2.6 0.21                            98 178 
 BRI  SZ EP       22 5 37.45                             143     0.210  110  19 
 BRI  SZ ES   1   22 5 57.08                             143     0.5 7  110  19 
 GRA  SZ EP       22 5 38.42                             138    -0.210  127  16 
 GRA  SZ ES   1   22 5 58.34                             138    -0.6 7  127  16 
                                                                                
