 2013  7 3 2357  8.8 L   6.797 -73.164153.0  RSN  8 0.4 1.8LRSN                1
 GAP=134        0.83       3.0     5.0  5.9 -0.1645E+00  0.6351E+01  0.2380E+01E
 Epicentro: LOS SANTOS - SANTANDER                                             3
 ACTION:UPD 13-08-12 10:35 OP:ep   STATUS:               ID:20130703235708 L   I
 OLDACT:DUP 13-07-03 22:30 OP:carl STATUS:               ID:20130703234960d    3
 OLDACT:REG 13-07-03 22:19 OP:carl STATUS:               ID:20130703234959     3
 2013-07-03-2349-59M.COL___267                                                 6
 STAT SP IPHASW D HRMM SECON CODA AMPLIT PERI AZIMU VELO AIN AR TRES W  DIS CAZ7
 BAR2 SZ EP   1   2357 28.76                             171   -0.54 7 22.7 185 
 BAR2 SZ ES   1   2357 45.34                             171    0.06 7 22.7 185 
 BAR2 SZ I        2357 45.49        18.6 0.24            168           22.7 185 
 GIR2 SZ EP   1   2357 29.51                             168    0.16 7 31.4 354 
 GIR2 SZ ES   1   2357 45.60                             168    0.23 7 31.4 354 
 BRR  HZ EP   1   2357 31.26                             154    0.60 7 69.6 300 
 BRR  HN ES   1   2357 48.49                             154    0.78 7 69.6 300 
 BRR  HZ I        2357 51.59        11.2 0.40            153           69.6 300 
 PAM  SZ EP       2357 32.11                             152    0.2210 79.0  41 
 PAM  SN ES       2357 49.67                             152   -0.2310 79.0  41 
 PAM  SZ I        2357 51.43         8.8 0.56            156           79.0  41 
 RUS  HZ EP       2357 33.22                             145   -0.0510  100 175 
 RUS  HN ES       2357 52.06                             145   -0.2810  100 175 
 RUS  HZ I        2357 52.87         7.8 0.26            144            100 175 
 PTB  HZ EP   1   2357 35.85                             134   -0.35 7  146 259 
 PTB  HN ES   1   2357 57.12                             134   -0.44 7  146 259 
 PTB  HZ I        2358  0.53         9.7 0.18            132            146 259 
 SML  HN ES       2358 14.20                             119   -0.45 8  243 336 
 CHI  HZ EP   1   2357 47.46                             119    0.63 6  248 195 
 CHI  HN ES       2358 16.57                             119    0.09 8  248 195 
 CHI  HZ I        2358 26.41         3.5 0.80            118            248 195 
                                                                                
