 2017  1 3 2339  2.0 L   6.820 -73.151139.0  RSN  6 0.5 1.3LRSN                1
 GAP=135        1.17       5.0     5.4  8.6  0.2960E+00  0.1397E+02  0.7776E+01E
 Epicentro: LOS SANTOS - SANTANDER                                             3
 ACTION:UPD 17-05-22 15:55 OP:jn   STATUS:               ID:20170103233902 L   I
 OLDACT:REG 17-01-04 02:55 OP:cog  STATUS:               ID:20170103232749     3
 2017-01-03-2328-00M.COL___369                                                 6
 STAT SP IPHASW D HRMM SECON CODA AMPLIT PERI AZIMU VELO AIN AR TRES W  DIS CAZ7
 BAR2 EZ EP       2339 20.52                             169   -0.3310 25.4 188 
 BAR2 EZ ES       2339 35.54                             169   -0.0210 25.4 188 
 PAM  EZ EP       2339 23.52                             150    0.1210 76.1  41 
 PAM  EN ES       2339 40.33                             150    0.2210 76.1  41 
 PAM  EZ I        2339 40.87         5.0 0.30            151           76.1  41 
 RUS  HZ EP       2339 24.73                             142   -0.5210  103 176 
 RUS  HN ES       2339 43.47                             142    0.0810  103 176 
 RUS  HZ I        2339 44.04         2.0 0.40            143            103 176 
 PTB  HZ EP       2339 28.08                             130   -0.32 9  148 258 
 PTB  HN ES       2339 48.33                             130   -0.67 9  148 258 
 PTB  HZ I        2339 50.95         4.8 0.16            131            148 258 
 ZAR  HN ES       2339 59.55                             121    0.84 9  203 292 
 CHI  HZ EP       2339 39.65                             115    0.11 8  251 195 
 CHI  HN ES       2340  9.86                             115    1.03 8  251 195 
                                                                                
