 2015  8 3 2031 38.4 L   6.837 -73.165145.0  RSN  4 0.3 1.8LRSN                1
 GAP=239        0.83       6.7     6.3  6.7  0.2122E+02  0.2587E+01  0.2937E+00E
 Epicentro: LOS SANTOS - SANTANDER                                             3
 ACTION:UPD 15-09-15 22:59 OP:cam  STATUS:               ID:20150803203138 L   I
 OLDACT:REG 15-08-04 03:33 OP:stll STATUS:               ID:20150803202750     3
 2015-08-03-2027-50M.COL___358                                                 6
 STAT SP IPHASW D HRMM SECON CODA AMPLIT PERI AZIMU VELO AIN AR TRES W  DIS CAZ7
 BAR2 EZ EP       2031 58.51                             169    0.4510 27.1 184 
 BAR2 EZ ES       2032 13.31                             169   -0.0510 27.1 184 
 BAR2 EZ I        2032 15.11        18.3 0.16            168           27.1 184 
 BRR  HZ EP       2031 58.76                             154   -0.5410 67.4 296 
 BRR  HE ES       2032 15.71                             154    0.1510 67.4 296 
 RUS  HZ EP       2032  2.18                             142   -0.2510  105 175 
 RUS  HN ES       2032 21.15                             142    0.0110  105 175 
 RUS  HZ I        2032 22.81         9.2 0.42            143            105 175 
 CPBEREZ EP       2032  5.67                             132    0.43 9  146 257 
 CPBEREE ES       2032 25.97                             132   -0.16 9  146 257 
                                                                                
