 2013  4 3 2050 54.3 L   6.784 -73.142148.3  RSN  5 0.4 1.9LRSN                1
 GAP=138        0.92       5.0     4.8  8.5  0.2716E+01  0.1049E+02  0.3681E+01E
 Epicentro: LOS SANTOS - SANTANDER                                             3
 ACTION:UPD 13-05-22 14:35 OP:EP   STATUS:               ID:20130403205054 L   I
 2013-04-03-2050-50M.COL___206                                                 6
 STAT SP IPHASW D HRMM SECON CODA AMPLIT PERI AZIMU VELO AIN AR TRES W  DIS CAZ7
 BRR  HZ EP   1   2051 15.95                             152    0.14 7 72.4 300 
 BRR  HE ES       2051 33.08                             152    0.5110 72.4 300 
 BRR  HE I        2051 40.63        22.4 0.40            152           72.4 300 
 PAM  SZ EP       2051 17.10                             151    0.2310 78.5  38 
 PAM  SN ES       2051 33.94                             151   -0.5110 78.5  38 
 PAM  SN I        2051 34.85        13.2 0.46            157           78.5  38 
 RUS  HZ EP   1   2051 18.64                             145    0.45 7 98.8 176 
 RUS  HN ES       2051 36.80                             145   -0.0210 98.8 176 
 PTB  HZ EP       2051 21.08                             132   -0.42 9  148 260 
 PTB  HN ES   2   2051 41.77                             132   -0.93 5  148 260 
 PTB  HN I        2051 46.73         6.3 0.38            134            148 260 
 ZAR  HN ES       2051 52.60                             123    0.04 9  205 293 
                                                                                
