 2011  5 3 2332 55.5 L   6.767 -73.114140.0  RSN  6 0.3 1.7LRSN                1
 GAP=142        0.71       3.9     7.0  6.7 -0.6561E+01 -0.6341E+01 -0.2566E+01E
 Epicentro: LOS SANTOS - SANTANDER                                             3
 ACTION:UP  11-06-29 08:50 OP:tino STATUS:               ID:20110503233255 L   I
 2011-05-03-2331-12S.COL___133                                                 6
 STAT SP IPHASW D HRMM SECON CODA AMPLIT PERI AZIMU VELO SNR AR TRES W  DIS CAZ7
 BAR2 SZ EP   1   2333 14.11                             171    -0.3 7   21 201 
 BAR2 SZ ES   1   2333 29.17                             171     0.1 7   21 201 
 BAR2 SZ I        2333 29.91        12.9 0.21                            21 201 
 BRR  HZ EP   1   2333 15.92                             150    -0.4 7   76 300 
 BRR  HE ES   1   2333 32.80                             150     0.2 7   76 300 
 BRR  HZ I        2333 33.50        21.8 0.12                            76 300 
 PAM  SZ EP   1   2333 17.00                             149    -0.2 7   78  36 
 PAM  SZ I        2333 17.12         5.8 0.13                            78  36 
 PAM  SE ES   1   2333 34.05                             149     0.0 7   78  36 
 RUS  HZ EP   1   2333 18.43                             144     0.0 7   97 178 
 RUS  HZ I        2333 19.30         4.9 0.12                            97 178 
 RUS  HN ES   1   2333 36.37                             144     0.1 7   97 178 
 BRI  SZ EP   1   2333 19.17                             140     0.1 7  111  18 
 BRI  SZ I        2333 45.68         8.3 0.50                           111  18 
 GRA  SZ EP   1   2333 21.08                             135     0.6 7  128  15 
 GRA  SZ ES   1   2333 39.57                             135    -0.3 7  128  15 
 GRA  SZ I        2333 40.54         8.2 0.29                           128  15 
                                                                                
