 2011  2 3 2050 53.9 L   6.811 -73.145142.5  RSN 12 0.4 2.2LRSN                1
 GAP=103        0.81       4.2     4.9  6.5 -0.6733E+01  0.7196E+01 -0.5461E+01E
 Epicentro: LOS SANTOS - SANTANDER                                             3
 ACTION:UP  11-03-28 15:05 OP:jfem STATUS:               ID:20110203205053 L   I
 2011-02-03-2046-17S.COL___138                                                 6
 STAT SP IPHASW D HRMM SECON CODA AMPLIT PERI AZIMU VELO SNR AR TRES W  DIS CAZ7
 BTL  SZ ES   2   2051 28.62                             172     0.7 5   18 311 
 BAR2 SZ EP   2   2051 13.00                             170    -0.2 5   25 190 
 BAR2 SZ ES   2   2051 27.76                             170    -0.4 5   25 190 
 BAR2 SZ I        2051 29.91        41.9 0.19                            25 190 
 RUS  HZ EP       2051 17.26                             143    -0.210  102 176 
 RUS  HE ES   1   2051 35.56                             143    -0.2 7  102 176 
 RUS  HZ I        2051 37.71        18.4 0.45                           102 176 
 GRA  SZ EP       2051 19.25                             136     0.510  125  18 
 GRA  SZ I        2051 43.35        14.6 0.29                           125  18 
 YOP  SZ EP   1   2051 23.75                             126    -0.1 7  180 154 
 YOP  SN ES   2   2051 47.66                             126     0.5 4  180 154 
 NOR  SZ EP   1   2051 29.50                             118     0.0 6  236 234 
 NOR  SN ES   1   2051 56.76                             118    -0.6 6  236 234 
 CHI  HZ EP       2051 31.47                             116    -0.1 8  250 195 
 CHI  HZ I        2051 32.02         8.8 0.13                           250 195 
 CHI  HE ES   1   2052  1.16                             116     0.2 6  250 195 
 HEL  HZ EP   1   2051 33.87                             114    -0.1 6  272 256 
 HEL  HE ES   2   2052  5.15                             114    -0.1 4  272 256 
 HEL  HZ I        2052 13.80        12.5 0.46                           272 256 
 RREF HN ES   2   2052 16.04                             110     0.1 3  323 229 
 RREF HZ I        2052 25.40         9.5 0.34                           323 229 
 DBB  SZ EP   1   2051 41.16                             109    -0.1 5  340 274 
 TOL  SZ EP       2051 42.88                             109     0.7 7  344 225 
 SDV  BZ EP       2051 42.87                             108    -0.8 6  360  50 
                                                                                
