 2011  8 3 2145 37.9 L   6.741 -73.147136.2  RSN  7 0.3 2.1LRSN                1
 GAP=140        0.55       3.4     5.0  6.9 -0.4645E+01  0.2150E+02  0.1155E+01E
 Epicentro: JORDAN - SANTANDER                                                 3
 ACTION:UPD 12-07-25 14:05 OP:epov STATUS:               ID:20110803214537 L   I
 2011-08-03-2140-43S.COL___125                                                 6
 STAT SP IPHASW D HRMM SECON CODA AMPLIT PERI AZIMU VELO AIN AR TRES W  DIS CAZ7
 PAM  SZ EP   1   2145 59.26                             147   -0.17 7 82.6  37 
 PAM  SN ES   1   2146 16.34                             147    0.10 7 82.6  37 
 RUS  HZ EP       2146  0.36                             144    0.1310 94.1 176 
 RUS  HN ES   1   2146 17.44                             144   -0.21 7 94.1 176 
 RUS  HZ I        2146 20.55        13.0 0.24                          94.1 176 
 NOR  SZ EP   1   2146 12.32                             117   -0.34 6  231 236 
 CHI  HZ EP   1   2146 14.30                             116   -0.08 6  242 196 
 CHI  HN ES   1   2146 43.21                             116    0.38 6  242 196 
 CHI  HZ I        2146 52.35         8.1 0.47                           242 196 
 HEL  HZ EP   1   2146 18.12                             113    0.68 6  270 257 
 HEL  HE ES   1   2146 48.06                             113   -0.23 6  270 257 
 HEL  HZ I        2146 54.79         8.4 0.30                           270 257 
 GUY  SZ EP   1   2146 20.98                             110    0.08 5  300 236 
 GUY  SZ I        2147  4.14        17.7 0.39                           300 236 
 PRA  HZ EP   1   2146 29.82                             105   -0.60 4  386 210 
                                                                                
