 2011  9 3 2308 58.7 L   6.858 -73.314126.0  RSN  7 0.3 1.7LRSN                1
 GAP=126        0.52       3.2     3.6  4.9  0.4433E+01  0.3914E+01  0.1091E+01E
 Epicentro: ZAPATOCA - SANTANDER                                               3
 ACTION:UPD 12-07-13 15:55 OP:ep   STATUS:               ID:20110903230858 L   I
 2011-09-03-2307-43S.COL___170                                                 6
 STAT SP IPHASW D HRMM SECON CODA AMPLIT PERI AZIMU VELO AIN AR TRES W  DIS CAZ7
 GIR2 SZ EP       23 9 16.02                             167    0.1010 27.8  29 
 BAR2 SZ EP       23 9 16.31                             165    0.0910 32.8 154 
 BAR2 SZ ES   1   23 9 29.52                             165   -0.37 7 32.8 154 
 BAR2 SZ I        23 9 30.78        38.9 0.24                          32.8 154 
 BRR  HZ EP       23 9 16.78                             156    0.1310 51.9 302 
 BRR  HZ I        23 9 17.18        14.8 0.12                          51.9 302 
 BRR  HN ES   1   23 9 30.94                             156    0.29 7 51.9 302 
 PAM  SN ES   1   23 9 35.58                             144   -0.08 7 86.2  52 
 RUS  HZ EP       23 9 21.42                             137    0.1110  110 167 
 RUS  HN ES   1   23 9 38.76                             137   -0.19 7  110 167 
 RUS  HZ I        23 9 40.15         4.5 0.27                           110 167 
 ZAR  HE ES   1   23 9 50.35                             120   -0.22 7  184 292 
 ZAR  HZ I        23 9 53.85         3.9 0.08                           184 292 
 SJC  HZ EP   1   23 9 51.10                             103   -0.74 4  394 329 
                                                                                
