 2010  4 3 2139 52.6 L   6.780 -73.087143.5  RSN  7 0.3 2.4LRSN                1
 GAP=206        0.54       3.5     7.1  5.2 -0.1527E+01  0.2993E+01  0.5967E+01E
 Epicentro: LOS SANTOS - SANTANDER                                             3
 ACTION:UPD 10-08-24 09:57 OP:vdl  STATUS:               ID:20100403213952 L   I
 2010-04-03-2138-42S.COL___098                                                 6
 STAT SP IPHASW D HRMM SECON CODA AMPLIT PERI AZIMU VELO AIN AR TRES W  DIS CAZ7
 BAR2 SZ IP       2140 11.99                             171     0.110   23 207 
 BAR2 SZ ES   1   2140 26.74                             171    -0.3 7   23 207 
 BRR  HZ IP       2140 14.02                             152     0.210   78 298 
 BRR  HE ES   1   2140 30.67                             152     0.2 7   78 298 
 BRR  HZ I        2140 34.60        25.1 0.12                            78 298 
 OCA  SZ EP   2   2140 20.77                             129    -0.2 5  163 351 
 OCA  SZ ES   2   2140 42.55                                    -0.6 5  163 351 
 OCA  SZ I        2140 50.73        44.1 0.37                           163 351 
 CHI  HZ EP   1   2140 30.24                             117     0.1 6  248 197 
 CHI  HN ES   2   2140 59.51                             117     0.1 4  248 197 
 CHI  HZ I        2141  3.20        14.4 0.59                           248 197 
 HEL  HZ EP   2   2140 33.56                                     0.3 4  278 257 
 HEL  HZ I        2141 10.29        10.1 0.38                           278 257 
 RREF BN ES   2   2141 14.47                             111    -0.8 3  325 230 
 RREF BZ I        2141 24.07        11.7 0.30                           325 230 
 PRA  HZ EP   1   2140 46.11                             106     0.0 4  393 211 
 PRA  HE ES   2   2141 27.55                             106    -0.4 3  393 211 
 PRA  HZ I        2141 32.20        12.3 0.30                           393 211 
                                                                                
