 2014 11 3 2110 52.6 L   7.144 -73.022161.1  RSN  5 0.3 1.5LRSN                1
 GAP=152        0.78       6.3     5.1  6.7 -0.6396E+01  0.2545E+01  0.8365E+00E
 Epicentro: TONA - SANTANDER                                                   3
 ACTION:UPD 14-12-19 15:39 OP:nd   STATUS:               ID:20141103211052 L   I
 OLDACT:DUP 14-11-04 05:39 OP:spq  STATUS:               ID:20141103210750d    3
 2014-11-03-2107-49M.COL___268                                                 6
 STAT SP IPHASW D HRMM SECON CODA AMPLIT PERI AZIMU VELO AIN AR TRES W  DIS CAZ7
 PAM  SZ EP       2111 14.70                             165   -0.2210 41.7  59 
 PAM  SN ES   1   2111 32.30                             165   -0.03 7 41.7  59 
 PAM  SZ I        2111 33.50         6.7 0.24            168           41.7  59 
 BAR2 SZ ES   1   2111 33.43                             157    0.23 7 63.6 196 
 BAR2 SZ I        2111 36.51         7.5 0.40            158           63.6 196 
 BRR  HZ EP     D 2111 16.17                             153    0.4610 76.3 267 
 BRR  HE ES       2111 33.61                             153   -0.1210 76.3 267 
 BRR  HZ I        2111 38.47         5.6 0.44            155           76.3 267 
 RUS  HZ EP   1   2111 20.14                             137   -0.62 7  139 183 
 RUS  HE ES   1   2111 42.96                             137    0.25 7  139 183 
 RUS  HZ I        2111 45.04         1.4 0.37            140            139 183 
 PTB  HZ EP       2111 23.37                             131    0.33 9  172 247 
 PTB  HE ES       2111 46.39                             131   -0.38 9  172 247 
 PTB  HZ I        2111 47.52         6.3 0.18            133            172 247 
                                                                                
