 2014  1 3 2359 28.9 L   6.794 -73.189136.7  RSN  4 0.4 1.3LRSN                1
 GAP=131        0.91       5.0     4.9  9.4 -0.4958E+01  0.1179E+02 -0.4797E-01E
 Epicentro: ZAPATOCA - SANTANDER                                               3
 ACTION:UPD 14-03-13 09:51 OP:ep   STATUS:               ID:20140103235928 L   I
 OLDACT:UP  14-01-04 00:21 OP:nd   STATUS:               ID:20140103235735     3
 OLDACT:REG 14-01-03 21:40 OP:nd   STATUS:               ID:20140103235735     3
 2014-01-03-2357-35M.COL___243                                                 6
 STAT SP IPHASW D HRMM SECON CODA AMPLIT PERI AZIMU VELO AIN AR TRES W  DIS CAZ7
 BRR  HZ EP       2359 49.48                             152    0.6610 67.4 301 
 BRR  HN ES   2   24 0  4.96                             152    0.58 5 67.4 301 
 BRR  HZ I        24 0 10.61         5.9 0.30            152           67.4 301 
 PAM  SZ EP       2359 50.51                             148    0.1510 81.1  42 
 PAM  SN ES       24 0  6.72                             148   -0.4110 81.1  42 
 PAM  SZ I        24 0  9.81         4.7 0.54            153           81.1  42 
 RUS  HZ EP       2359 51.66                             142   -0.0610  100 173 
 RUS  HN ES       24 0  9.66                             142    0.1210  100 173 
 RUS  HZ I        24 0 10.95         1.1 0.16            149            100 173 
 PTB  HZ EP       2359 54.25                             131   -0.41 9  143 259 
 PTB  HN ES       24 0 14.51                             131   -0.27 9  143 259 
 PTB  HZ I        24 0 18.13         4.6 0.12            135            143 259 
                                                                                
