 2015  5 3 2150 51.4 L   6.799 -73.109145.1  RSN  7 0.4 1.6LRSN                1
 GAP=141        0.86       3.8     4.8  6.9  0.2051E+01  0.3859E+01 -0.6120E+01E
 Epicentro: LOS SANTOS - SANTANDER                                             3
 ACTION:UPD 15-09-10 22:01 OP:cam  STATUS:               ID:20150503215051 L   I
 OLDACT:REG 15-05-04 04:26 OP:spq  STATUS:               ID:20150503214749     3
 2015-05-03-2147-49M.COL___274                                                 6
 STAT SP IPHASW D HRMM SECON CODA AMPLIT PERI AZIMU VELO AIN AR TRES W  DIS CAZ7
 BAR2 EZ ES   1   2151 25.91                             170   -0.31 7 24.3 200 
 BAR2 EZ I        2151 27.00         6.4 0.14            170           24.3 200 
 BRR  HZ EP   1   2151 12.83                             151    0.16 7 74.8 297 
 BRR  HN ES       2151 29.70                             151    0.4310 74.8 297 
 BRR  HZ I        2151 34.14         7.3 0.10            149           74.8 297 
 PAM  SZ EP       2151 13.82                             151    0.4410 74.9  37 
 PAM  SN ES       2151 30.76                             151    0.2210 74.9  37 
 PAM  SZ I        2151 33.09         7.2 0.58            154           74.9  37 
 RUS  HZ EP   1   2151 15.11                             144    0.07 7  100 178 
 RUS  HE ES       2151 33.14                             144   -0.3610  100 178 
 RUS  HZ I        2151 34.82         2.6 0.34            148            100 178 
 OCA  HZ EP   1   2151 19.74                             129    0.04 7  161 352 
 OCA  HN ES       2151 41.07                             129   -0.72 9  161 352 
 OCA  HZ I        2151 45.66        13.4 0.26            130            161 352 
 ZAR  HN ES       2151 49.80                             122    0.05 8  208 292 
 ZAR  HZ I        2151 55.01         5.2 0.28            123            208 292 
 SML  HZ EP   1   2151 27.80                             117   -0.36 6  246 334 
                                                                                
