 2014  6 3 2222 14.8 L   6.804 -73.138149.1  RSN  8 0.4 1.7LRSN                1
 GAP=137        1.02       3.7     4.5  7.3 -0.2938E+00  0.6199E+01 -0.1466E+01E
 Epicentro: LOS SANTOS - SANTANDER                                             3
 ACTION:UPD 14-07-01 22:50 OP:nd   STATUS:               ID:20140603222214 L   I
 OLDACT:UP  14-06-04 03:29 OP:cam  STATUS:               ID:20140603222000     3
 OLDACT:UP  14-06-04 03:29 OP:cam  STATUS:               ID:20140603222000     3
 OLDACT:REG 14-06-04 02:39 OP:cam  STATUS:               ID:20140603222000     3
 2014-06-03-2220-00M.COL___276                                                 6
 STAT SP IPHASW D HRMM SECON CODA AMPLIT PERI AZIMU VELO AIN AR TRES W  DIS CAZ7
 BRR  HZ EP       2222 36.68                             153    0.3410 71.7 298 
 BRR  HN ES       2222 53.76                             153    0.6210 71.7 298 
 BRR  HN I        2222 57.51        20.9 0.16            152           71.7 298 
 PAM  SZ EP     D 2222 37.68                             152    0.3610 76.5  39 
 PAM  SE ES       2222 54.55                             152   -0.3310 76.5  39 
 PAM  SZ I        2222 56.61         6.1 0.60            158           76.5  39 
 RUS  HZ EP       2222 38.78                             144   -0.1310  101 177 
 RUS  HN ES       2222 57.74                             144    0.0310  101 177 
 RUS  HZ I        2223  0.30         3.1 0.44            147            101 177 
 PTB  HZ EP       2222 41.71                             133   -0.42 9  149 259 
 PTB  HN ES       2223  3.02                             133   -0.42 9  149 259 
 PTB  HZ I        2223 10.03         8.4 0.34            133            149 259 
 SPBC HZ EP       2222 43.83                             130    0.19 9  164 219 
 SPBC HN ES       2223  5.75                             130   -0.38 9  164 219 
 SPBC HZ I        2223 13.40         6.1 0.14            131            164 219 
 ZAR  HZ EP   1   2222 48.47                             123    0.94 6  205 292 
 ZAR  HN ES       2223 13.32                             123    0.26 9  205 292 
 ZAR  HZ I        2223 18.99         7.3 0.30            125            205 292 
 SML  HZ EP   1   2222 51.30                             118   -0.32 6  244 335 
 SML  HE ES       2223 19.62                             118   -0.71 8  244 335 
 GUY2CHZ EP   4   2223  0.55                             113    1.87 0  302 235 
 GUY2CHN ES   4   2223 36.20                             113    3.31 0  302 235 
 GUY2CHZ I        2223 43.57         2.8 0.50                           302 235 
                                                                                
