 2011  9 3 2311 10.5 L   6.788 -73.113143.8  RSN  6 0.4 1.7LRSN                1
 GAP=141        0.92       6.5     7.3  8.9  0.1480E+02  0.1969E+02  0.5925E+00E
 Epicentro: LOS SANTOS - SANTANDER                                             3
 ACTION:UPD 12-07-13 15:55 OP:ep   STATUS:               ID:20110903231110 L   I
 2011-09-03-2307-43S.COL___170                                                 6
 STAT SP IPHASW D HRMM SECON CODA AMPLIT PERI AZIMU VELO AIN AR TRES W  DIS CAZ7
 BAR2 SZ EP       2311 29.37                             170   -0.5410 23.0 199 
 BAR2 SZ ES   1   2311 44.44                             170   -0.59 7 23.0 199 
 BAR2 SZ I        2311 45.78         9.2 0.26                          23.0 199 
 GIR2 SZ EP       2311 30.13                             166    0.1110 33.3 345 
 BRR  HZ EP       2311 31.92                             151    0.2310 75.0 298 
 BRR  HZ I        2311 33.09        15.3 0.19                          75.0 298 
 BRR  HN ES   1   2311 48.74                             151    0.56 7 75.0 298 
 PAM  SN ES   1   2311 49.61                             151    0.04 7 76.2  37 
 RUS  HZ EP   1   2311 34.70                             144    0.72 7 99.1 178 
 RUS  HN ES   1   2311 52.37                             144    0.11 7 99.1 178 
 RUS  HZ I        2311 52.45         7.2 0.60                          99.1 178 
 ZAR  HZ EP   1   2311 42.68                             121   -0.57 6  208 292 
 ZAR  HN ES   1   2312  8.66                             121   -0.10 6  208 292 
 ZAR  HZ I        2312 11.13         5.6 0.09                           208 292 
                                                                                
