 2015  3 3 2032 58.5 L   6.863 -73.229140.0  RSN  9 0.3 1.9LRSN                1
 GAP=122        0.73       2.9     3.6  4.9 -0.4079E+01  0.8152E+01 -0.1936E+01E
 Epicentro: ZAPATOCA - SANTANDER                                               3
 ACTION:UPD 15-04-30 16:22 OP:nd   STATUS:               ID:20150303203258 L   I
 OLDACT:UP  15-03-04 05:48 OP:mh   STATUS:               ID:20150303202750     3
 OLDACT:REG 15-03-04 05:36 OP:mh   STATUS:               ID:20150303202750     3
 2015-03-03-2027-50M.COL___287                                                 6
 STAT SP IPHASW D HRMM SECON CODA AMPLIT PERI AZIMU VELO AIN AR TRES W  DIS CAZ7
 BAR2 EZ EP   1   2033 17.04                             167   -0.61 7 30.4 170 
 BAR2 EZ ES       2033 32.74                             167    0.1910 30.4 170 
 BAR2 EZ I        2033 34.93        11.5 0.45            170           30.4 170 
 PAM  SZ EP       2033 20.47                             149    0.2410 78.7  48 
 PAM  SN ES       2033 37.36                             149    0.2210 78.7  48 
 PAM  SZ I        2033 39.63        12.1 0.58            154           78.7  48 
 RUS  HZ EP       2033 22.32                             141   -0.0110  109 171 
 RUS  HN ES       2033 40.61                             141   -0.2810  109 171 
 RUS  HZ I        2033 42.28         7.4 0.26            145            109 171 
 PTB  HZ EP       2033 23.80                             132   -0.57 9  140 255 
 PTB  HN ES       2033 44.64                             132    0.13 9  140 255 
 PTB  HZ I        2033 47.39        18.8 0.14            133            140 255 
 SPBC HZ EP       2033 26.56                             128   -0.05 9  163 215 
 SPBC HN ES       2033 48.58                             128    0.08 9  163 215 
 SPBC HZ I        2033 56.37        16.4 0.68            130            163 215 
 NOR  HZ EP   1   2033 33.49                             118   -0.11 6  232 232 
 NOR  HN ES   1   2034  0.94                             118   -0.01 6  232 232 
 NOR  HZ I        2034  6.98         5.3 0.16            120            232 232 
 SML  HZ EP   1   2033 33.26                             117   -0.48 6  234 337 
 SML  HN ES   1   2034  1.26                             117    0.06 6  234 337 
 SML  HZ I        2034  8.76        12.8 0.24            119            234 337 
 GUY2CHZ EP   1   2033 42.08                             112    0.56 5  298 233 
 GUY2CHN ES   4   2034 17.41                             112    2.37 0  298 233 
 GUY2CHZ I        2034 25.67         3.1 0.56                           298 233 
 TOL  SZ EP   1   2033 47.25                             108    0.83 5  342 223 
 TOL  SN ES       2034 24.18                             108    0.41 7  342 223 
                                                                                
