 2017  2 3 2122  4.7 L   6.510 -73.391 34.5  RSN  7 0.5 1.8LRSN                1
 GAP= 85        0.77       2.1     2.3  5.7  0.7359E+00  0.6167E+01  0.1237E+01E
 Epicentro: SIMACOTA - SANTANDER                                               3
 ACTION:UPD 17-05-24 15:32 OP:jn   STATUS:               ID:20170203212204 L   I
 OLDACT:UP  17-02-04 04:00 OP:dani STATUS:               ID:20170203211744     3
 OLDACT:UP  17-02-04 03:59 OP:dani STATUS:               ID:20170203211744     3
 OLDACT:UP  17-02-04 03:58 OP:dani STATUS:               ID:20170203211744     3
 OLDACT:UP  17-02-04 03:58 OP:dani STATUS:               ID:20170203211744     3
 OLDACT:UP  17-02-04 03:58 OP:dani STATUS:               ID:20170203211744     3
 OLDACT:REG 17-02-04 02:49 OP:dani STATUS:               ID:20170203211744     3
 2017-02-03-2118-00M.COL___346                                                 6
 STAT SP IPHASW D HRMM SECON CODA AMPLIT PERI AZIMU VELO AIN AR TRES W  DIS CAZ7
 BAR2 EZ EP       2122 11.43                             136   -0.1410 24.8  68 
 BAR2 EZ ES       2122 17.04                             136    0.0910 24.8  68 
 BAR2 EZ I        2122 18.92        75.7 0.28            148           24.8  68 
 BRR  HZ EP       2122 16.99                              95   -0.0510 75.0 332 
 BRR  HE ES       2122 26.46                              95   -0.2210 75.0 332 
 BRR  HZ I        2122 28.57        46.2 0.14             97           75.0 332 
 RUS  HZ EP       2122 17.71                              95   -0.0910 76.3 153 
 RUS  HN ES       2122 27.89                              95   -0.1410 76.3 153 
 RUS  HZ I        2122 28.69        31.2 0.22             97           76.3 153 
 PTB  HZ EP       2122 21.99                              92   -0.4310  118 272 
 PTB  HE ES       2122 36.65                              92    0.4010  118 272 
 PTB  HZ I        2122 39.05        25.0 0.34             93            118 272 
 PAM  EZ EP     C 2122 23.30                              92    0.1310  119  40 
 PAM  EN ES       2122 37.87                              92    0.2710  119  40 
 PAM  EZ I        2122 38.30        33.7 0.14             93            119  40 
 NOR  HN ES   3   2122 55.19                              91    1.87 2  194 237 
 NOR  HZ I        2123  1.94         3.9 0.13             81            194 237 
 CHI  HZ EP   3   2122 37.01                              91    2.44 2  211 190 
                                                                                
