 2011 12 3 2301  6.0 L   6.803 -73.111146.5  RSN  4 0.3 1.3LRSN                1
 GAP=141        0.64       4.8    10.3  7.9 -0.1030E+02  0.1911E+02  0.3888E+01E
 Epicentro: LOS SANTOS - SANTANDER                                             3
 ACTION:UPD 12-07-13 16:14 OP:ep   STATUS:               ID:20111203230106 L   I
 2011-12-03-2300-00M.COL___181                                                 6
 STAT SP IPHASW D HRMM SECON CODA AMPLIT PERI AZIMU VELO AIN AR TRES W  DIS CAZ7
 GIR2 SZ EP   2   23 1 25.35                             167   -0.41 5 31.9 343 
 GIR2 SZ ES   1   23 1 41.58                             167    0.40 7 31.9 343 
 BRR  HZ EP   1   23 1 27.15                             151   -0.24 7 74.5 297 
 BRR  HZ I        23 1 52.41         7.9 0.55                          74.5 297 
 PAM  SZ EP   1   23 1 28.17                             152    0.05 7 74.8  37 
 PAM  SZ I        23 1 28.30         3.7 0.18                          74.8  37 
 PAM  SN ES   1   23 1 45.21                             152   -0.18 7 74.8  37 
 RUS  HZ EP   1   23 1 30.28                             144    0.47 7  101 178 
 RUS  HN ES   1   23 1 48.08                             144   -0.32 7  101 178 
 RUS  HZ I        23 1 48.88         1.8 0.28                           101 178 
                                                                                
