 2016 11 3 2341 57.0 L   6.784 -73.172143.1  RSN 19 0.3 2.7LRSN                1
 GAP=134        0.69       2.2     2.6  3.5 -0.3904E+00  0.2969E+01  0.1675E+01E
 Epicentro: LOS SANTOS - SANTANDER                                             3
 ACTION:UPD 17-10-26 21:04 OP:lp   STATUS:               ID:20161103234157 L   I
 OLDACT:REG 16-11-04 03:02 OP:edw  STATUS:               ID:20161103233744     3
 2016-11-03-2338-00M.COL___343                                                 6
 STAT SP IPHASW D HRMM SECON CODA AMPLIT PERI AZIMU VELO AIN AR TRES W  DIS CAZ7
 BAR2 EZ EP       2342 16.23                             171   -0.0610 21.2 183 
 BAR2 EZ ES       2342 31.23                             171   -0.0910 21.2 183 
 BAR2 EZ I        2342 32.71       230.7 0.18            167           21.2 183 
 BRR  HZ IP       2342 18.15                             153    0.3610 69.6 301 
 BRR  HN ES       2342 34.46                             153    0.4710 69.6 301 
 BRR  HZ I        2342 39.05        85.6 0.66            149           69.6 301 
 PAM  EZ EP     D 2342 19.08                             149   -0.0710 80.6  40 
 PAM  EN ES       2342 36.10                             149   -0.3110 80.6  40 
 PAM  EZ I        2342 38.35        89.6 0.52            154           80.6  40 
 RUS  HZ EP     C 2342 20.27                             144   -0.1310 99.0 174 
 RUS  HN ES       2342 38.74                             144    0.1110 99.0 174 
 RUS  HZ I        2342 40.11        72.1 0.34            143           99.0 174 
 PTB  HZ EP       2342 22.94                             132   -0.54 9  145 259 
 PTB  HN ES       2342 44.07                             132   -0.05 9  145 259 
 PTB  HZ I        2342 45.94        52.9 0.42            129            145 259 
 SPBC HZ IP     C 2342 25.26                             129    0.25 9  160 219 
 SPBC HN ES       2342 46.61                             129   -0.23 9  160 219 
 SPBC HZ I        2342 49.92       109.4 0.22            127            160 219 
 ZAR  HZ EP       2342 29.59                             122    0.51 9  202 293 
 ZAR  HN ES       2342 54.01                             122   -0.08 9  202 293 
 ZAR  HZ I        2343  1.21        41.0 0.40            121            202 293 
 NOR  HZ EP       2342 32.40                             118    0.17 8  231 234 
 NOR  HE ES       2342 59.44                             118   -0.25 8  231 234 
 NOR  HZ I        2343  6.97        43.6 0.24            117            231 234 
 CHI  HZ EP       2342 34.51                             117    0.21 8  246 195 
 CHI  HE ES       2343  3.54                             117    0.16 8  246 195 
 CHI  HZ I        2343 13.92        17.3 0.36            116            246 195 
 ROSC BZ EP   4   2342 35.97                             116    1.31 0  250 211 
 ROSC BN ES   4   2343  6.17                             116    2.15 0  250 211 
 HEL  HZ IP   4   2342 38.61                             114    1.88 0  269 256 
 HEL  HN ES   4   2343 10.71                             114    3.00 0  269 256 
 HEL  HZ I        2343 15.96        23.5 0.48            114            269 256 
 URE  HZ IP       2342 37.14                             113   -0.59 7  282 292 
 URE  HN ES   4   2343  6.06                             113   -3.43 0  282 292 
 URE  HZ I        2343 18.54        26.5 0.16            113            282 292 
 PTGC HZ EP   4   2342 39.55                             111   -1.14 0  308 158 
 PTGC HN ES   4   2343  9.71                             111   -5.04 0  308 158 
 PTGC HZ I        2343 17.62        26.9 0.32            112            308 158 
 ELA  HZ EP   4   2342 45.78                             110    2.41 0  326 229 
 ELA  HN ES   4   2343 22.44                             110    2.92 0  326 229 
 ELA  HZ I        2343 27.82        21.4 0.44            110            326 229 
 LL6C HZ EP   4   2342 21.55                             110   -21.2 0  327 358 
 LL6C HN ES   4   2342 57.46                             110   -21.0 0  327 358 
 ANIL HZ EP   4   2342 47.73                             108    1.40 0  354 224 
 ANIL HN ES   4   2343 25.86                             108    1.06 0  354 224 
 ANIL HZ I        2343 31.53        46.3 0.34            108            354 224 
 PRA  HZ EP       2342 49.82                             106   -0.28 6  389 209 
 PRA  HN ES       2343 31.69                             106    0.19 6  389 209 
 PRA  HZ I        2343 38.75        23.4 0.36            106            389 209 
 ORTC HZ EP       2342 50.69                             106    0.22 6  392 216 
 ORTC HE ES   4   2343 33.60                             106    1.43 0  392 216 
 ORTC HZ I        2343 40.42        17.1 0.46            106            392 216 
 PAL  HZ EP       2342 52.02                             106    0.33 6  402 239 
 PAL  HN ES       2343 33.95                             106   -0.38 6  402 239 
 PAL  HZ I        2343 40.63         9.6 0.68            105            402 239 
 SJC  HZ EP   4   2342 50.60                             105   -1.88 0  409 327 
 SJC  HN ES   4   2343 31.08                             105   -4.67 0  409 327 
 SJC  HZ I        2343 34.97         7.5 0.48            105            409 327 
 CRJC HZ EP   4   2342 56.77                             103   -2.91 0  470   4 
 CRJC HN ES   4   2343 41.29                             103   -7.26 0  470   4 
 CRJC HZ I        2343 53.12         8.3 0.36            103            470   4 
 URI  HZ EP   4   2343  6.92                             100   -3.33 0  559  13 
                                                                                
