 2011  6 3 2249 21.6 L   6.808 -73.145143.7  RSN  4 0.2 1.5LRSN                1
 GAP=136        0.51       3.7     7.7  7.5 -0.2766E+01 -0.1147E+02 -0.8489E+01E
 Epicentro: LOS SANTOS - SANTANDER                                             3
 ACTION:UP  11-07-14 19:03 OP:ep   STATUS:               ID:20110603224921 L   I
 2011-06-03-2246-52S.COL___132                                                 6
 STAT SP IPHASW D HRMM SECON CODA AMPLIT PERI AZIMU VELO SNR AR TRES W  DIS CAZ7
 BRR  HZ EP   2   2249 42.78                             152     0.2 5   71 298 
 BRR  HE ES   2   2249 58.68                             152    -0.2 5   71 298 
 BRR  HZ I        2250  0.26        13.1 0.28                            71 298 
 PAM  SZ EP   1   2249 43.75                             151     0.2 8   77  40 
 PAM  SZ I        2249 44.02         2.6 0.25                            77  40 
 PAM  SE ES   2   2250  0.54                             151    -0.2 5   77  40 
 RUS  HZ EP   1   2249 44.90                             143    -0.3 8  102 176 
 RUS  HZ I        2249 45.80         3.9 0.17                           102 176 
 RUS  HE ES   1   2250  3.85                             143     0.2 8  102 176 
 GRA  SZ EP       2249 46.63                             137     0.010  125  18 
 GRA  SZ I        2250  7.22         5.5 0.43                           125  18 
                                                                                
