 2012  6 3 2054  1.7 L   6.777 -73.174141.5  RSN  5 0.2 1.5LRSN                1
 GAP=141        0.53       3.8     3.5  5.0 -0.5641E+01  0.5939E+01 -0.1393E+01E
 Epicentro: LOS SANTOS - SANTANDER                                             3
 ACTION:UPD 12-08-06 17:47 OP:ep   STATUS:               ID:20120603205359 L   I
 2012-06-03-2050-00M.COL___201                                                 6
 STAT SP IPHASW D HRMM SECON CODA AMPLIT PERI AZIMU VELO AIN AR TRES W  DIS CAZ7
 BAR2 SZ EP       2054 20.86                             171    0.1510 20.4 183 
 BAR2 SZ ES   1   2054 35.34                             171   -0.24 7 20.4 183 
 BAR2 SZ I        2054 38.77        13.8 0.36            169           20.4 183 
 PAM  SZ EP       2054 23.81                             149    0.1410 81.4  40 
 PAM  SN ES   1   2054 40.84                             149    0.01 7 81.4  40 
 RUS  HZ EP       2054 24.92                             143    0.1010 98.3 174 
 RUS  HN ES   1   2054 42.78                             143   -0.11 7 98.3 174 
 RUS  HZ I        2054 44.62         3.9 0.42            148           98.3 174 
 PTB  HZ EP       2054 27.51                             132   -0.44 9  144 260 
 PTB  HN ES   1   2054 48.64                             132    0.18 7  144 260 
 PTB  HZ I        2054 56.40         3.8 0.22            132            144 260 
 NOR  SZ EP   1   2054 36.61                             118   -0.09 6  231 235 
 NOR  SN ES   1   2055  4.40                             118    0.36 6  231 235 
                                                                                
