 2016  7 3 2316 31.4 L   6.771 -73.183150.8  RSN  4 0.2 1.3LRSN                1
 GAP=231        0.57       4.6     4.3  4.6  0.9648E+01  0.1549E+01  0.2985E+00E
 Epicentro: LOS SANTOS - SANTANDER                                             3
 ACTION:UPD 17-03-29 16:46 OP:lp   STATUS:               ID:20160703231631 L   I
 OLDACT:REG 16-07-04 03:59 OP:lv   STATUS:               ID:20160703230743     3
 2016-07-03-2307-43M.COL___331                                                 6
 STAT SP IPHASW D HRMM SECON CODA AMPLIT PERI AZIMU VELO AIN AR TRES W  DIS CAZ7
 BAR2 EZ EP       2316 51.43                             172   -0.1110 19.7 180 
 BAR2 EZ ES       2317  6.99                             172   -0.2910 19.7 180 
 BAR2 EZ I        2317  8.78         6.7 0.18            174           19.7 180 
 BRR  HZ EP       2316 52.94                             154   -0.0210 69.3 302 
 BRR  HN ES       2317 10.09                             154    0.2810 69.3 302 
 BRR  HZ I        2317 14.07         4.1 0.14            154           69.3 302 
 RUS  HZ EP       2316 55.36                             146   -0.0610 97.7 174 
 RUS  HE ES       2317 14.44                             146    0.2610 97.7 174 
 RUS  HZ I        2317 15.10         2.3 0.34            149           97.7 174 
 PTB  HZ EP       2316 58.49                             134    0.15 9  143 260 
 PTB  HN ES       2317 19.16                             134   -0.22 9  143 260 
 PTB  HZ I        2317 21.45         2.4 0.16            136            143 260 
                                                                                
