 2013  9 3 2034 52.7 L   6.819 -73.156147.7  RSN 17 0.5 2.6LRSN 2.9WRSN        1
 SPEC AVERAGE  MO 13.4 ST  9.9 OM  1.9 f0 5.97 R0.3471 AL 0.00 WI 13.4 MW  2.9 3
 SPEC SD       MO  0.3 ST  9.8 OM  0.3 f0 3.02 R0.1911 AL      WI      MW  0.2 3
 GAP=134        1.14       3.1     4.2  5.6 -0.8273E+00  0.7059E+01  0.3290E+00E
 Epicentro: LOS SANTOS - SANTANDER                                             3
 SPEC RREFHH Z MO 13.9 ST  2.3 OM  2.0 f0 2.83 R0.5491 AL 0.00 WI 15.7 MW  3.2 3
 SPEC RREFHH Z T203615 K 0.000 GD  354 VS 4.20 DE 3.20 Q0300.0 QA 0.60 VS 4.20 3
 SPECGUY2CHH Z MO 13.9 ST0.594 OM 1.95 f0 1.90 R0.8176 AL 0.00 WI 17.0 MW  3.2 3
 SPECGUY2CHH Z T203611 K 0.000 GD  336 VS 4.20 DE 3.20 Q0300.0 QA 0.60 VS 4.20 3
 SPEC URE HH Z MO 13.4 ST 29.3 OM  1.5 f0 10.0 R0.1554 AL 0.00 WI 15.4 MW  2.9 3
 SPEC URE HH Z T2036 3 K 0.000 GD  318 VS 4.20 DE 3.20 Q0300.0 QA 0.60 VS 4.20 3
 SPEC HEL HH Z MO 13.8 ST0.741 OM  1.9 f0 2.18 R0.7128 AL 0.00 WI 14.2 MW  3.1 3
 SPEC HEL HH Z T2036 6 K 0.000 GD  309 VS 4.20 DE 3.20 Q0300.0 QA 0.60 VS 4.20 3
 SPEC NOR HH Z MO 13.3 ST 25.5 OM  1.5 f0 10.0 R0.1554 AL 0.00 WI 15.9 MW  2.8 3
 SPEC NOR HH Z T203557 K 0.000 GD  277 VS 4.20 DE 3.20 Q0300.0 QA 0.60 VS 4.20 3
 SPEC ZAR HH Z MO 13.5 ST  6.0 OM  1.7 f0 5.48 R0.2836 AL 0.00 WI 14.3 MW  2.9 3
 SPEC ZAR HH Z T203550 K 0.000 GD  250 VS 4.20 DE 3.20 Q0300.0 QA 0.60 VS 4.20 3
 SPEC SPBCHH Z MO 13.4 ST 11.6 OM  1.7 f0 7.11 R0.2186 AL 0.00 WI 13.5 MW  2.9 3
 SPEC SPBCHH Z T203542 K 0.000 GD  220 VS 4.20 DE 3.20 Q0300.0 QA 0.60 VS 4.20 3
 SPEC PTB HH Z MO 13.2 ST 19.2 OM  1.5 f0 10.0 R0.1554 AL 0.00 WI 11.8 MW  2.8 3
 SPEC PTB HH Z T203540 K 0.000 GD  208 VS 4.20 DE 3.20 Q0300.0 QA 0.60 VS 4.20 3
 SPEC RUS HH Z MO 13.3 ST0.397 OM  1.6 f0 2.67 R0.5820 AL 0.00 WI 12.8 MW  2.8 3
 SPEC RUS HH Z T203533 K 0.000 GD  180 VS 4.20 DE 3.20 Q0300.0 QA 0.60 VS 4.20 3
 SPEC PAM SH Z MO 13.2 ST0.945 OM  1.6 f0 3.66 R0.4246 AL 0.00 WI  5.8 MW  2.8 3
 SPEC PAM SH Z T203531 K 0.000 GD  166 VS 4.20 DE 3.20 Q0300.0 QA 0.60 VS 4.20 3
 SPEC BRR HH Z MO 13.3 ST 10.7 OM  1.7 f0 7.67 R0.2026 AL 0.00 WI 10.9 MW  2.8 3
 SPEC BRR HH Z T203530 K 0.000 GD  163 VS 4.20 DE 3.20 Q0300.0 QA 0.60 VS 4.20 3
 SPEC BAR2SH Z MO 13.4 ST  1.9 OM  1.8 f0 4.11 R0.3781 AL 0.00 WI 16.6 MW  2.9 3
 SPEC BAR2SH Z T203527 K 0.000 GD  149 VS 4.20 DE 3.20 Q0300.0 QA 0.60 VS 4.20 3
 ACTION:UPD 13-10-22 09:19 OP:ep   STATUS:               ID:20130903203452 L   I
 OLDACT:UP  13-09-03 23:57 OP:nd   STATUS:               ID:20130903202959     3
 OLDACT:REG 13-09-03 22:53 OP:nd   STATUS:               ID:20130903202959     3
 2013-09-03-2029-59M.COL___269                                                 6
 STAT SP IPHASW D HRMM SECON CODA AMPLIT PERI AZIMU VELO AIN AR TRES W  DIS CAZ7
 BAR2 SZ EP       2035 12.72                             170    0.1410 25.2 187 
 BAR2 SZ ES       2035 27.81                             170   -0.2910 25.2 187 
 BAR2 SZ I        2035 30.48        71.4 0.28            168           25.2 187 
 BRR  HZ EP       2035 14.43                             153    0.5010 69.2 297 
 BRR  HN ES       2035 31.19                             153    0.6910 69.2 297 
 BRR  HZ I        2035 35.64        68.1 0.32            149           69.2 297 
 PAM  SZ IP     D 2035 15.66                             151    0.6110 76.5  41 
 PAM  SN ES       2035 31.97                             151   -0.5210 76.5  41 
 PAM  SZ I        2035 33.44        43.1 0.22            154           76.5  41 
 RUS  HZ IP     D 2035 16.68                             143   -0.0910  103 176 
 RUS  HN ES       2035 35.24                             143   -0.3310  103 176 
 RUS  HZ I        2035 36.33        30.7 0.24            145            103 176 
 PTB  HZ EP       2035 19.47                             132   -0.27 9  147 258 
 PTB  HN ES       2035 40.06                             132   -0.79 9  147 258 
 PTB  HZ I        2035 42.54        45.5 0.14            130            147 258 
 SPBC HZ EP       2035 21.69                             129    0.28 9  164 218 
 SPBC HN ES       2035 44.58                             129    0.75 9  164 218 
 SPBC HZ I        2035 48.01        62.8 0.44            128            164 218 
 ZAR  HZ EP       2035 25.58                             123    0.52 9  202 292 
 ZAR  HN ES       2035 50.49                             123    0.16 9  202 292 
 ZAR  HZ I        2035 56.06        48.2 0.40            122            202 292 
 NOR  HZ IP     D 2035 28.88                             119    0.33 8  235 234 
 NOR  HN ES       2035 55.71                             119   -0.83 8  235 234 
 NOR  HZ I        2036  2.25        25.0 0.22            118            235 234 
 SML  HZ EP       2035 28.83                             118   -0.33 8  241 335 
 SML  HE ES       2035 57.25                             118   -0.36 8  241 335 
 SML  HZ I        2035 59.87        42.2 0.33            118            241 335 
 CHI  HZ EP       2035 30.88                             117    0.21 8  250 195 
 CHI  HN ES       2036  0.16                             117   -0.15 8  250 195 
 CHI  HZ I        2036  5.57        28.8 0.32            118            250 195 
 ROSC BZ EP   4   2035 32.90                             117    1.86 0  254 211 
 ROSC BN ES   4   2036  3.09                             117    2.13 0  254 211 
 HEL  HZ EP   2   2035 33.33                             115    0.40 4  272 255 
 HEL  HN ES       2036  4.87                             115    0.55 8  272 255 
 HEL  HZ I        2036 11.15        21.5 0.40            114            272 255 
 URE  HZ EP       2035 33.22                             114   -0.42 7  282 292 
 URE  HN ES   4   2036  3.23                             114   -2.36 0  282 292 
 URE  HZ I        2036 11.88        24.7 0.16            113            282 292 
 GUY2CHZ EP   4   2035 37.27                             113    0.86 0  302 234 
 GUY2CHN ES   4   2036 12.86                             113    2.34 0  302 234 
 GUY2CHZ I        2036 19.16        24.4 0.56                           302 234 
 RREF HZ EP   4   2035 40.38                             111    1.42 0  322 229 
 RREF HN ES   4   2036 17.95                             111    2.88 0  322 229 
 RREF HZ I        2036 24.50        28.0 0.46            111            322 229 
 COD  HZ EP   4   2035 40.20                             109   -0.68 0  346 355 
 COD  HN ES   4   2036 17.96                             109   -0.51 0  346 355 
 COD  HZ I        2036 24.77         8.9 0.50            110            346 355 
 PRA  HZ EP       2035 46.50                             107    0.09 6  393 209 
 PRA  HN ES       2036 27.70                             107   -0.63 6  393 209 
 PRA  HZ I        2036 35.22        26.6 0.24            107            393 209 
 SJC  HZ IP     C 2035 46.91                             106   -1.12 6  407 327 
 SJC  HN ES   4   2036 27.80                             106   -3.40 0  407 327 
 SJC  HZ I        2036 42.60         6.6 0.42            106            407 327 
                                                                                
