 2014  9 4 0211 34.4 L   6.772 -73.123149.0  RSN  9 0.4 1.8LRSN                1
 GAP=141        1.01       4.4     4.2  6.8 -0.1218E+01  0.7008E+01  0.2366E+01E
 Epicentro: LOS SANTOS - SANTANDER                                             3
 ACTION:UPD 14-10-03 23:02 OP:nd   STATUS:               ID:20140904021134 L   I
 OLDACT:UP  14-09-04 15:19 OP:mh   STATUS:               ID:20140904020817     3
 OLDACT:REG 14-09-04 12:46 OP:mh   STATUS:               ID:20140904020817     3
 2014-09-04-0208-17M.COL___275                                                 6
 STAT SP IPHASW D HRMM SECON CODA AMPLIT PERI AZIMU VELO AIN AR TRES W  DIS CAZ7
 BAR2 SZ EP     C  211 54.72                             172    0.3110 20.9 198 
 BAR2 SZ ES        212 10.01                             172    0.0210 20.9 198 
 BAR2 SZ I         212 12.67         9.7 0.23            168           20.9 198 
 BRR  HZ EP   1    211 56.48                             152    0.34 7 74.9 300 
 BRR  HN ES        212 13.35                             152    0.2810 74.9 300 
 BRR  HZ I         212 18.69         7.9 0.12            150           74.9 300 
 PAM  SZ EP        211 57.53                             151    0.4810 78.3  37 
 PAM  SN ES        212 14.53                             151   -0.1610 78.3  37 
 PAM  SZ I         212 16.67         8.7 0.52            157           78.3  37 
 RUS  HZ EP        211 57.57                             145   -0.7110 97.3 177 
 RUS  HN ES        212 16.58                             145   -0.2910 97.3 177 
 RUS  HZ I         212 18.36         3.9 0.37            148           97.3 177 
 PTB  HZ EP        212  1.36                             132   -0.47 9  150 260 
 PTB  HN ES        212 23.14                             132   -0.07 9  150 260 
 PTB  HZ I         212 29.68        13.3 0.38            132            150 260 
 SPBC HZ EP        212  3.55                             130    0.44 9  162 220 
 SPBC HN ES        212 25.86                             130    0.39 9  162 220 
 SPBC HZ I         212 32.94         9.4 0.54            131            162 220 
 ZAR  HZ EP   2    212  7.34                             123   -0.11 4  208 293 
 ZAR  HN ES        212 32.48                             123   -0.72 8  208 293 
 ZAR  HZ I         212 38.57        11.9 0.28            124            208 293 
 HEL  HZ EP   4    212 17.14                             115    2.14 0  274 257 
 HEL  HN ES   1    212 47.22                             115    0.59 6  274 257 
 HEL  HZ I         212 53.20         4.6 0.28            117            274 257 
 SJC  HZ EP   4    212 27.82                             106   -2.75 0  413 327 
 SJC  HN ES   4    213 10.57                             106   -3.78 0  413 327 
 SJC  HZ I         213 14.07         1.4 0.44            108            413 327 
                                                                                
