 2013  2 4 0542 21.7 L   6.793 -73.150146.0  RSN  6 0.3 1.4LRSN                1
 GAP=136        0.74       4.4     4.4  7.1 -0.2107E+01  0.1631E+01  0.5275E+01E
 Epicentro: LOS SANTOS - SANTANDER                                             3
 ACTION:UPD 13-03-12 09:30 OP:ep   STATUS:               ID:20130204054222 L   I
 2013-02-04-0540-00M.COL___241                                                 6
 STAT SP IPHASW D HRMM SECON CODA AMPLIT PERI AZIMU VELO AIN AR TRES W  DIS CAZ7
 BAR2 SZ EP        542 41.30                             171   -0.0410 22.5 189 
 BAR2 SZ I         542 57.62         5.1 0.30            166           22.5 189 
 BRR  HZ EP        542 43.00                             152    0.1310 71.1 299 
 BRR  HN ES        542 59.89                             152    0.5110 71.1 299 
 BRR  HZ I         543  0.32         4.3 0.12            154           71.1 299 
 PAM  SZ EP        542 44.20                             151    0.2110 78.3  39 
 PAM  SZ I         542 44.49         8.2 0.19            150           78.3  39 
 PAM  SN ES        543  1.02                             151   -0.3610 78.3  39 
 RUS  HZ EP   1    542 45.52                             144    0.10 7 99.9 176 
 RUS  HN ES   1    543  3.84                             144   -0.08 7 99.9 176 
 RUS  HN I         543  5.68         2.0 0.50            139           99.9 176 
 PTB  HZ EP   1    542 48.52                             132   -0.11 7  147 259 
 PTB  HN ES   1    543  9.00                             132   -0.63 7  147 259 
 SML  HN ES   2    543 26.39                             117   -0.62 4  244 335 
                                                                                
