 2016 11 4 0856 31.8 L   6.794 -73.157151.1  RSN  7 0.5 1.1LRSN                1
 GAP=135        1.33       6.8     6.6  9.6  0.8389E+01  0.1598E+01 -0.1319E+01E
 Epicentro: LOS SANTOS - SANTANDER                                             3
 ACTION:UPD 17-10-26 21:04 OP:lp   STATUS:               ID:20161104085631 L   I
 OLDACT:UP  16-11-04 17:26 OP:dani STATUS:               ID:20161104084745     3
 OLDACT:UP  16-11-04 17:25 OP:dani STATUS:               ID:20161104084745     3
 OLDACT:REG 16-11-04 13:17 OP:dani STATUS:               ID:20161104084745     3
 2016-11-04-0848-00M.COL___343                                                 6
 STAT SP IPHASW D HRMM SECON CODA AMPLIT PERI AZIMU VELO AIN AR TRES W  DIS CAZ7
 BAR2 EZ EP        856 51.41                             171   -0.6210 22.4 187 
 BAR2 EZ ES        857  7.53                             171   -0.3010 22.4 187 
 BAR2 EZ I         857 12.02         4.0 0.66            171           22.4 187 
 BRR  HE ES        857 11.06                             154    0.6710 70.5 300 
 PAM  EZ EP        856 55.07                             151    0.4310 78.7  40 
 PAM  EZ I         857 16.68         1.4 0.39            138           78.7  40 
 RUS  HZ EP        856 56.35                             145    0.3410100.0 175 
 RUS  HN ES        857 14.51                             145   -0.4110100.0 175 
 RUS  HZ I         857 15.85         1.4 0.20            145          100.0 175 
 PTB  HZ EP        856 58.77                             133   -0.30 9  146 259 
 PTB  HN ES        857 19.70                             133   -0.65 9  146 259 
 PTB  HZ I         857 22.73         1.8 0.16            134            146 259 
 SPBC HZ EP        857  0.54                             130   -0.03 9  162 219 
 SPBC HN ES        857 24.04                             130    1.02 9  162 219 
 SPBC HZ I         857 27.36         2.5 0.09            131            162 219 
 ZAR  HN ES        857 29.86                             124   -0.14 9  203 292 
                                                                                
