 2013 12 4 0509 48.7 L   6.818 -73.112147.3  RSN 13 0.5 2.0LRSN 2.6WRSN        1
 SPEC AVERAGE  MO 13.0 ST  6.9 OM  1.5 f0 7.01 R0.3376 AL 0.00 WI 20.0 MW  2.6 3
 SPEC SD       MO  0.2 ST 12.8 OM  0.4 f0 5.08 R0.1837 AL      WI      MW  0.2 3
 GAP= 72        1.26       3.3     4.1  6.3 -0.1346E+01  0.8224E+01  0.2909E+01E
 Epicentro: LOS SANTOS - SANTANDER                                             3
 SPEC BRR HH Z MO 12.9 ST  1.1 OM  1.3 f0 4.83 R0.3217 AL-0.00 WI 20.0 MW  2.6 3
 SPEC BRR HH Z T 51025 K 0.000 GD  164 VS 4.20 DE 3.20 Q0300.0 QA 0.60 VS 4.20 3
 SPEC PTB HH Z MO 12.7 ST  8.0 OM  1.0 f0 10.9 R0.1426 AL-0.00 WI 20.0 MW  2.4 3
 SPEC PTB HH Z T 51034 K 0.000 GD  211 VS 4.20 DE 3.20 Q0300.0 QA 0.60 VS 4.20 3
 SPEC OCA HH Z MO 13.3 ST0.720 OM  1.6 f0 3.06 R0.5078 AL-0.00 WI 20.0 MW  2.8 3
 SPEC OCA HH Z T 51037 K 0.000 GD  216 VS 4.20 DE 3.20 Q0300.0 QA 0.60 VS 4.20 3
 SPEC NOR HH Z MO 12.8 ST  1.6 OM  1.0 f0 5.81 R0.2675 AL-0.00 WI 20.0 MW  2.5 3
 SPEC NOR HH Z T 51051 K 0.000 GD  280 VS 4.20 DE 3.20 Q0300.0 QA 0.60 VS 4.20 3
 SPEC SML HH Z MO 12.7 ST 42.4 OM  0.9 f0 18.6 R0.0835 AL-0.00 WI 20.0 MW  2.4 3
 SPEC SML HH Z T 51051 K 0.000 GD  285 VS 4.20 DE 3.20 Q0300.0 QA 0.60 VS 4.20 3
 SPEC CHI HH Z MO 12.7 ST  6.6 OM  0.8 f0 10.7 R0.1452 AL-0.00 WI 20.0 MW  2.4 3
 SPEC CHI HH Z T 51054 K 0.000 GD  291 VS 4.20 DE 3.20 Q0300.0 QA 0.60 VS 4.20 3
 SPEC HEL HH Z MO 13.0 ST0.483 OM  1.1 f0 3.48 R0.4466 AL-0.00 WI 20.0 MW  2.6 3
 SPEC HEL HH Z T 511 0 K 0.000 GD  312 VS 4.20 DE 3.20 Q0300.0 QA 0.60 VS 4.20 3
 SPEC RREFHH Z MO 13.2 ST0.277 OM  1.3 f0 2.37 R0.6557 AL-0.00 WI 20.0 MW  2.8 3
 SPEC RREFHH Z T 51110 K 0.000 GD  357 VS 4.20 DE 3.20 Q0300.0 QA 0.60 VS 4.20 3
 SPEC PRA HH Z MO 13.3 ST0.898 OM  1.3 f0 3.32 R0.4681 AL-0.00 WI 20.0 MW  2.8 3
 SPEC PRA HH Z T 51123 K 0.000 GD  422 VS 4.20 DE 3.20 Q0300.0 QA 0.60 VS 4.20 3
 OLDACT:REG 13-12-04 07:42 OP:carl STATUS:               ID:20131204051000     3
 ACTION:UPD 14-01-13 10:15 OP:ep   STATUS:               ID:20131204050948 L   I
 OLDACT:UP  13-12-04 10:23 OP:carl STATUS:               ID:20131204051000     3
 2013-12-04-0510-00M.COL___285                                                 6
 STAT SP IPHASW D HRMM SECON CODA AMPLIT PERI AZIMU VELO AIN AR TRES W  DIS CAZ7
 BAR2 SZ EP        510  8.65                             169    0.0510 26.1 197 
 BAR2 SZ ES        510 24.08                             169   -0.0210 26.1 197 
 BAR2 SZ I         510 25.12        48.6 0.30            169           26.1 197 
 PAM  SZ IP     C  510 11.61                             152    0.7310 73.5  38 
 PAM  SN ES        510 28.75                             152    0.5810 73.5  38 
 PAM  SZ I         510 31.09        11.0 0.46            144           73.5  38 
 BRR  HZ IP        510 10.44                             152    0.2610 73.6 296 
 BRR  HN ES        510 27.12                             152    0.2110 73.6 296 
 BRR  HZ I         510 29.97        17.0 0.16            149           73.6 296 
 BRR  SZ I         510 30.74        19.7 0.66                          73.6 296 
 RUS  HZ EP     C  510 12.61                             144   -0.1410  102 178 
 RUS  HN ES        510 31.17                             144   -0.3310  102 178 
 RUS  HZ I         510 32.22         5.6 0.30            138            102 178 
 RUS  SZ I         510 32.35         7.4 0.68                           102 178 
 PTB  HZ EP        510 15.24                             132   -0.94 9  152 258 
 PTB  HN ES   4    510 36.10                             132   -1.50 0  152 258 
 PTB  SZ I         510 37.40        10.2 0.18            127            152 258 
 PTB  HZ I         510 38.96         9.7 0.20            127            152 258 
 TAM  HZ EP        510 16.93                             131    0.68 9  152 106 
 TAM  HE ES        510 36.95                             131   -0.76 9  152 106 
 TAM  SZ I         510 47.88         7.3 0.74            123            152 106 
 OCA  HZ EP        510 16.74                             130   -0.28 9  159 352 
 OCA  HN ES        510 38.93                             130   -0.16 9  159 352 
 OCA  HZ I         510 46.83         9.6 0.32            123            159 352 
 OCA  SZ I         510 46.92         9.6 0.30                           159 352 
 NOR  HZ EP        510 24.79                             118   -0.20 8  239 235 
 NOR  HE ES        510 52.65                             118   -0.62 8  239 235 
 NOR  SZ I         510 57.68         8.0 0.70            113            239 235 
 NOR  HZ I         511  2.22         6.8 0.14                           239 235 
 SML  HZ EP        510 24.88                             118   -0.53 8  244 334 
 SML  HN ES        510 53.10                             118   -0.93 8  244 334 
 SML  SZ I         510 57.72        18.9 0.08            112            244 334 
 CHI  HZ EP        510 27.07                             117    0.25 8  252 196 
 CHI  HN ES        510 56.35                             117   -0.18 8  252 196 
 CHI  SZ I         510 59.55         7.2 0.46            112            252 196 
 CHI  HZ I         510 59.73         6.6 0.50                           252 196 
 HEL  HZ EP        510 30.32                             115    0.86 7  276 256 
 HEL  HE ES        511  2.36                             115    1.12 7  276 256 
 HEL  SZ I         511  6.90         6.6 0.36            110            276 256 
 HEL  HZ I         511  7.08         5.4 0.38                           276 256 
 RREF HZ EP        510 35.98                             111    0.58 7  326 230 
 RREF HE ES        511 12.00                             111    0.20 7  326 230 
 RREF SZ I         511 17.48         5.3 0.30            106            326 230 
 PRA  HZ EP        510 42.55                             107   -0.16 6  396 210 
 PRA  HN ES        511 24.50                             107   -0.32 6  396 210 
 PRA  SZ I         511 28.76         6.3 0.30            102            396 210 
                                                                                
