 2014  3 4 0756 57.1 L   6.823 -73.153146.0  RSN 21 0.3 2.5LRSN                1
 GAP= 70        0.71       1.7     2.0  3.6 -0.4527E+00  0.2025E+01 -0.5372E+00E
 Epicentro: LOS SANTOS - SANTANDER                                             3
 ACTION:UPD 14-04-09 23:14 OP:nd   STATUS:               ID:20140304075657 L   I
 OLDACT:REG 14-03-04 10:36 OP:nd   STATUS:               ID:20140304075044     3
 2014-03-04-0750-44M.COL___226                                                 6
 STAT SP IPHASW D HRMM SECON CODA AMPLIT PERI AZIMU VELO AIN AR TRES W  DIS CAZ7
 BAR2 SZ IP     C  757 17.02                             170    0.2410 25.7 187 
 BAR2 SZ ES        757 31.82                             170   -0.3310 25.7 187 
 BAR2 SZ I         757 33.86        84.6 0.44            169           25.7 187 
 PAM  SZ EP        757 19.90                             151    0.6710 76.0  41 
 PAM  SN ES        757 36.66                             151    0.1510 76.0  41 
 PAM  SZ I         757 39.19        89.8 0.58            154           76.0  41 
 RUS  HZ EP     D  757 20.79                             143   -0.2510  103 176 
 RUS  HN ES        757 39.68                             143   -0.0410  103 176 
 RUS  HZ I         757 42.27        32.6 0.46            144            103 176 
 PTB  HZ EP        757 23.78                             132   -0.26 9  147 258 
 PTB  HN ES        757 44.79                             132   -0.28 9  147 258 
 PTB  HZ I         757 50.84        34.4 0.30            132            147 258 
 TAM  HZ EP     D  757 25.14                             130    0.24 9  157 106 
 TAM  HN ES        757 46.50                             130   -0.11 9  157 106 
 TAM  HZ I         757 54.16        11.9 0.62            133            157 106 
 OCA  HZ EP        757 25.20                             130    0.04 9  158 353 
 OCA  HN ES        757 47.08                             130    0.01 9  158 353 
 OCA  HZ I         757 51.95        39.0 0.30            132            158 353 
 SPBC HZ EP        757 25.65                             129   -0.08 9  165 218 
 SPBC HN ES        757 48.15                             129    0.07 9  165 218 
 SPBC HZ I         757 56.40        59.0 0.28            129            165 218 
 ZAR  HZ EP        757 29.56                             123    0.20 9  202 292 
 ZAR  HN ES        757 54.97                             123    0.42 9  202 292 
 ZAR  HZ I         757 57.74        22.4 0.32            123            202 292 
 NOR  HZ EP        757 33.04                             118    0.13 8  236 234 
 NOR  HN ES        758  1.09                             118    0.24 8  236 234 
 NOR  HZ I         758  3.25        23.3 0.30            119            236 234 
 SML  HZ EP        757 33.05                             118   -0.38 8  241 335 
 SML  HN ES        758  1.71                             118   -0.08 8  241 335 
 SML  HZ I         758  7.91        10.8 0.19            119            241 335 
 CHI  HZ EP        757 34.96                             117   -0.07 8  251 195 
 CHI  HN ES        758  4.37                             117   -0.26 8  251 195 
 CHI  HZ I         758  9.08        11.5 0.32            118            251 195 
 ROSC BZ EP   2    757 35.56                             116    0.16 4  255 211 
 ROSC BN ES   2    758  5.51                             116    0.22 4  255 211 
 ROSC BZ I         758 11.60        30.4 0.35            117            255 211 
 HEL  HE ES        758  8.24                             115   -0.41 8  272 255 
 URE  HZ EP   4    757 36.89                             114   -1.08 0  282 291 
 URE  HN ES   4    758  7.60                             114   -2.27 0  282 291 
 URE  HZ I         758 23.28        13.1 0.38            114            282 291 
 PTGC HZ EP   4    757 39.73                             111   -1.51 0  311 159 
 PTGC HN ES   4    758 13.02                             111   -2.67 0  311 159 
 PTGC HZ I         758 18.09        20.3 0.30            113            311 159 
 CBOC HZ EP        757 44.72                             110    0.72 7  334 252 
 CBOC HN ES   2    758 20.90                             110    0.29 3  334 252 
 CBOC HZ I         758 27.51         8.2 0.42            111            334 252 
 COD  HZ EP        757 44.30                             109   -0.86 6  346 355 
 COD  HN ES        758 22.43                             109   -0.24 6  346 355 
 COD  HZ I         758 27.80         6.7 0.28            110            346 355 
 ARGC HZ EP   4    757 47.28                             108    0.84 0  357 340 
 ARGC HN ES   4    758 25.37                             108    0.44 0  357 340 
 SDV  BZ EP   4    757 46.09                             108   -0.92 0  359  51 
 SDV  BN ES   4    758 22.77                             108   -3.19 0  359  51 
 SDV  BZ I         758 25.63         7.6 0.40            110            359  51 
 ORTC HZ EP        757 51.13                             106   -0.06 6  397 216 
 ORTC HN ES   4    758 36.20                             106    2.81 0  397 216 
 ORTC HZ I         758 41.72        12.0 0.24            107            397 216 
 PAL  HZ EP   4    757 52.64                             106    0.32 0  406 239 
 PAL  HN ES   4    758 34.20                             106   -1.20 0  406 239 
 PAL  HZ I         758 41.08        13.6 0.20            107            406 239 
 SJC  HZ EP   4    757 50.64                             106   -1.71 0  407 327 
 SJC  HN ES   4    758 31.31                             106   -4.15 0  407 327 
 SJC  HZ I         758 36.68         8.2 0.58            107            407 327 
                                                                                
