 2017  1 4 0528 27.6 L   6.773 -73.142142.0  RSN 18 0.4 2.3LRSN                1
 GAP= 97        0.80       2.8     2.4  4.1  0.4688E+00  0.3717E+01  0.2639E+01E
 Epicentro: LOS SANTOS - SANTANDER                                             3
 ACTION:UPD 17-05-22 15:55 OP:jn   STATUS:               ID:20170104052827 L   I
 OLDACT:DUP 17-01-04 14:56 OP:lv   STATUS:               ID:20170104051744d    3
 2017-01-04-0518-00M.COL___369                                                 6
 STAT SP IPHASW D HRMM SECON CODA AMPLIT PERI AZIMU VELO AIN AR TRES W  DIS CAZ7
 BAR2 EZ IP     C  528 46.61                             171   -0.1310 20.4 193 
 BAR2 EZ ES        529  2.02                             171    0.3710 20.4 193 
 BAR2 EZ I         529  6.82        24.7 0.24            169           20.4 193 
 BRR  HZ EP        528 48.54                             151    0.0710 73.1 300 
 BRR  HN ES        529  5.26                             151    0.5310 73.1 300 
 BRR  HZ I         529  9.52        52.3 0.12            151           73.1 300 
 PAM  EZ EP        528 49.65                             150    0.0910 79.5  38 
 PAM  EN ES        529  6.33                             150   -0.3510 79.5  38 
 PAM  EZ I         529  8.79        66.8 0.64            150           79.5  38 
 RUS  HZ EP        528 50.87                             144    0.0910 97.5 176 
 RUS  HE ES        529  8.56                             144   -0.2810 97.5 176 
 RUS  HZ I         529  9.85        28.8 0.22            141           97.5 176 
 PTB  HZ EP        528 53.53                             131   -0.74 9  148 260 
 PTB  HN ES   4    529 14.01                             131   -1.05 0  148 260 
 PTB  HZ I         529 16.61        32.9 0.14            130            148 260 
 TAM  HZ IP     C  528 54.97                             130    0.08 9  154 104 
 TAM  HZ I         529 15.45        12.7 0.42            128            154 104 
 TAM  HE ES        529 16.11                             130   -0.05 9  154 104 
 ZAR  HZ EP        528 59.75                             121   -0.23 8  206 293 
 ZAR  HN ES        529 25.45                             121    0.22 8  206 293 
 ZAR  HZ I         529 30.71        50.7 0.41            120            206 293 
 CHI  HZ EP        529  4.94                             117    0.14 8  246 195 
 CHI  HN ES        529 33.64                             117   -0.17 8  246 195 
 CHI  HZ I         529 38.26         7.3 0.30            115            246 195 
 ROSC BZ EP   4    529  6.55                             116    1.28 0  250 211 
 ROSC BN ES   4    529 37.90                             116    3.25 0  250 211 
 ROSC BZ I         529 42.92        21.5 0.50            114            250 211 
 URE  HZ EP   4    529  7.10                             113   -1.58 0  285 292 
 URE  HN ES   4    529 37.55                             113   -3.16 0  285 292 
 URE  HZ I         529 40.90        21.0 0.12            112            285 292 
 GUY2CHZ EP   9    529 12.61                             112    1.71 0  300 235 
 GUY2CHE ES        529 46.24                                   -0.13 7  300 235 
 GUY2CHZ I         529 54.03        11.0 0.48                           300 235 
 PTGC HZ EP   4    529  9.91                             111   -1.06 0  306 159 
 PTGC HN ES   4    529 42.76                             111   -2.02 0  306 159 
 PTGC HZ I         529 45.42        11.8 0.36            109            306 159 
 ELA  HZ EP   4    529 17.29                             110    3.17 0  327 230 
 ELA  HN ES   4    529 48.96                             110   -1.44 0  327 230 
 ELA  HZ I         530  0.74         8.6 0.24            108            327 230 
 CBOC HZ EP        529 15.09                             109    0.77 7  333 253 
 CBOC HN ES        529 50.41                             109   -0.34 7  333 253 
 CBOC HZ I         530  1.91         4.3 0.48            108            333 253 
 DBB  EZ EP        529 14.92                             109   -0.10 7  340 275 
 DBB  EN ES        529 51.34                             109   -0.66 7  340 275 
 DBB  EZ I         529 53.61         9.1 0.19            108            340 275 
 ORTC HZ EP        529 21.63                             106    0.48 6  393 216 
 ORTC HN ES        530  3.43                             106    0.52 6  393 216 
 ORTC HZ I         530 11.50         7.9 0.40            105            393 216 
 PAL  HZ EP        529 22.89                             105    0.37 6  405 239 
 PAL  HE ES        530  5.13                             105   -0.21 6  405 239 
 PAL  HZ I         530 11.33         4.9 0.41            104            405 239 
 SJC  HN EP   4    529 21.41                             105   -1.98 0  412 327 
 SJC  HE ES   4    530  2.65                             105   -4.24 0  412 327 
 CRJC HZ EP   4    529 27.40                             103   -2.97 0  471   3 
 CRJC HN ES   4    530 14.68                             103   -4.64 0  471   3 
 CRJC HZ I         530 19.42         5.5 0.14            102            471   3 
 MACC HZ EP   4    529 33.51                             101   -2.38 0  518 189 
 MACC HN ES   4    530 24.77                             101   -4.36 0  518 189 
                                                                                
