 2010  4 4 0602 35.1 L   6.558 -72.704178.0  RSN  4 0.5 1.7LRSN                1
 GAP=335        0.53      42.7    27.0 44.8 -0.1464E+03 -0.2474E+03 -0.1582E+04E
 Epicentro: BOAVITA - BOYACA                                                   3
 ACTION:UP  10-08-24 09:57 OP:vdl  STATUS:               ID:20100404060238 L   I
 2010-04-04-0601-22S.COL___098                                                 6
 STAT SP IPHASW D HRMM SECON CODA AMPLIT PERI AZIMU VELO AIN AR TRES W  DIS CAZ7
 CHI  HZ EP   2    6 3 14.02                             126     0.0 4  242 208 
 CHI  HZ I         6 3 14.46         1.8 0.15                           242 208 
 CHI  HE ES   3    6 3 43.49                             126    -1.0 2  242 208 
 ROSC BZ EP   2    6 3 16.67                             124     0.7 4  261 223 
 ROSC BN ES   2    6 3 48.11                             124     0.2 4  261 223 
 ROSC BZ I         6 3 51.29         2.4 0.57                           261 223 
 TOL  SZ EP   1    6 3 26.52                             115    -0.4 5  363 233 
 PRA  HZ EP   2    6 3 30.37                             113     0.0 3  397 218 
 PRA  HE ES   3    6 4 14.02                             113     0.4 1  397 218 
 PRA  HZ I         6 4 17.70         2.0 0.83                           397 218 
                                                                                
