 2013 11 4 0709 17.1 L   6.835 -73.125138.3  RSN 10 0.6 1.7LRSN                1
 GAP=137        1.62       5.5     5.9  8.9 -0.7494E+01  0.1172E+02 -0.7889E+01E
 Epicentro: LOS SANTOS - SANTANDER                                             3
 ACTION:UPD 14-01-09 16:25 OP:ep   STATUS:               ID:20131104070917 L   I
 OLDACT:REG 13-11-04 08:45 OP:stll STATUS:               ID:20131104070837     3
 2013-11-04-0708-37M.COL___214                                                 6
 STAT SP IPHASW D HRMM SECON CODA AMPLIT PERI AZIMU VELO AIN AR TRES W  DIS CAZ7
 BAR2 SZ EP        7 9 35.63                             168   -0.3210 27.5 193 
 BAR2 SZ ES        7 9 50.25                             168   -0.3810 27.5 193 
 BAR2 SZ I         7 9 51.88        12.1 0.16            170           27.5 193 
 BRR  HZ IP     D  7 9 37.91                             151    0.4310 71.5 295 
 BRR  HN ES        7 9 54.27                             151    0.9110 71.5 295 
 BRR  HZ I         7 9 59.03         8.3 0.12            143           71.5 295 
 PAM  SZ IP     C  7 9 38.94                             151    0.6610 73.0  40 
 PAM  SZ I         7 9 39.11        13.5 0.20            146           73.0  40 
 PAM  SN ES        7 9 55.52                             151    0.7410 73.0  40 
 RUS  HZ EP        7 9 40.31                             141   -0.1110  104 177 
 RUS  HE ES        7 9 58.34                             141   -0.2510  104 177 
 RUS  HZ I         7 9 59.07         3.5 0.52            141            104 177 
 CAPV BZ EP        7 9 43.52                             131    0.01 9  145  38 
 CAPV BZ ES        710  3.84                             131   -0.25 9  145  38 
 PTB  HZ EP        7 9 43.68                             130   -0.09 9  151 258 
 PTB  HN ES        710  3.61                             130   -0.94 9  151 258 
 PTB  HZ I         710  6.68         5.6 0.16            124            151 258 
 OCA  HZ EP        7 9 43.88                             129   -0.64 9  157 352 
 OCA  HN ES        710  4.79                             129   -1.11 9  157 352 
 OCA  HZ I         710 10.59         6.8 0.36            122            157 352 
 ZAR  HZ EP        7 9 50.66                             121    1.50 9  205 291 
 ZAR  HN ES        710 14.31                             121    0.16 9  205 291 
 ZAR  HZ I         710 19.92         6.8 0.32            115            205 291 
 SML  HZ EP        7 9 52.41                             116   -0.65 8  241 334 
 SML  HZ I         710 26.06         7.0 0.26            111            241 334 
 GUY2CHZ EP        710  1.06                             111    0.20 7  305 234 
                                                                                
