 2017  8 4 0532 52.7 L   6.780 -73.113151.5  RSN  8 0.6 1.3LRSN                1
 GAP=142        1.18       5.7     5.7  7.9 -0.1022E+02  0.8981E+01  0.5593E+01E
 Epicentro: LOS SANTOS - SANTANDER                                             3
 ACTION:UPD 17-09-04 20:16 OP:rebc STATUS:               ID:20170804053252 L   I
 OLDACT:DUP 17-08-04 16:43 OP:osc  STATUS:               ID:20170804052543d    3
 2017-08-04-0528-00M.COL___374                                                 6
 STAT SP IPHASW D HRMM SECON CODA AMPLIT PERI AZIMU VELO AIN AR TRES W  DIS CAZ7
 BAR2 EZ EP        533 12.79                             171   -0.1810 22.1 200 
 BAR2 EZ ES        533 28.68                             171   -0.1310 22.1 200 
 BAR2 EZ I         533 30.81         4.1 0.18            170           22.1 200 
 BRR  HZ EP     D  533 14.82                             152    0.1410 75.5 299 
 BRR  HN ES        533 32.63                             152    0.7810 75.5 299 
 PAM  EZ EP        533 15.60                             152    0.1210 76.9  36 
 PAM  EN ES        533 32.89                             152   -0.3710 76.9  36 
 PAM  EZ I         533 35.04         2.2 0.54            156           76.9  36 
 RUS  HZ EP        533 16.99                             146    0.1610 98.2 178 
 RUS  HE ES        533 36.00                             146    0.3410 98.2 178 
 RUS  HZ I         533 38.93         1.3 0.16            147           98.2 178 
 PTB  HZ EP        533 20.04                             133   -0.36 9  151 260 
 PTB  HN ES        533 41.18                             133   -0.84 9  151 260 
 PTB  HZ I         533 48.09         3.2 0.48            134            151 260 
 SPBC HZ EP        533 21.82                             130    0.15 9  164 220 
 SPBC HE ES        533 44.29                             130   -0.00 9  164 220 
 SPBC HZ I         533 47.24         5.6 0.12            132            164 220 
 HEL  HE ES   2    534  7.77                             116    2.40 4  275 256 
 GUY2CHZ EP   4    533 35.39                             113   -1.35 0  303 236 
 GUY2CHE ES        534 10.56                             113   -0.56 7  303 236 
 GUY2CHZ I         534 18.66         1.2 0.38                           303 236 
                                                                                
