 2015  3 4 0244 58.2 L   6.770 -73.196132.9  RSN  6 0.4 1.5LRSN                1
 GAP=132        1.03       4.2     4.9  6.9 -0.1873E+01  0.4072E+01  0.7967E+01E
 Epicentro: ZAPATOCA - SANTANDER                                               3
 ACTION:UPD 15-04-30 16:22 OP:nd   STATUS:               ID:20150304024458 L   I
 OLDACT:DUP 15-03-04 16:57 OP:fm   STATUS:               ID:20150304023738d    3
 2015-03-04-0237-37M.COL___287                                                 6
 STAT SP IPHASW D HRMM SECON CODA AMPLIT PERI AZIMU VELO AIN AR TRES W  DIS CAZ7
 BAR2 EZ EP        245 15.41                             171   -0.7610 19.7 176 
 BAR2 EZ ES        245 30.54                             171    0.3210 19.7 176 
 BAR2 EZ I         245 32.31         6.4 0.12            171           19.7 176 
 BRR  HZ EP        245 18.00                             151    0.2510 68.1 303 
 BRR  HN ES        245 33.39                             151    0.3610 68.1 303 
 BRR  HZ I         245 40.59        12.0 0.36            151           68.1 303 
 PAM  SZ EP        245 19.59                             146    0.1710 83.5  41 
 PAM  SE ES        245 35.59                             146   -0.4210 83.5  41 
 PAM  SZ I         245 38.16         4.4 0.64            152           83.5  41 
 RUS  HZ EP        245 21.11                             142    0.6610 97.8 173 
 RUS  HN ES        245 37.74                             142   -0.1110 97.8 173 
 RUS  HZ I         245 40.66         4.7 0.40            145           97.8 173 
 PTB  HZ EP        245 23.30                             130   -0.23 9  142 260 
 PTB  HN ES        245 43.05                             130   -0.28 9  142 260 
 PTB  HZ I         245 47.28         5.6 0.48            132            142 260 
 CHI  HZ EP        245 34.93                             115    0.27 8  244 194 
 CHI  HN ES        246  2.84                             115   -0.29 8  244 194 
 CHI  HZ I         246  7.45         1.3 0.50            118            244 194 
                                                                                
