 2017  8 4 0206 52.3 L   7.497 -73.205129.9  RSN 16 0.6 2.2LRSN                1
 GAP=146        1.26       4.1     4.2  6.6  0.2196E+01  0.9841E+01  0.5433E+00E
 Epicentro: EL PLAYON - SANTANDER                                              3
 ACTION:UPD 17-09-04 20:16 OP:rebc STATUS:               ID:20170804020652 L   I
 OLDACT:REG 17-08-04 12:44 OP:osc  STATUS:               ID:20170804015744     3
 2017-08-04-0158-00M.COL___371                                                 6
 STAT SP IPHASW D HRMM SECON CODA AMPLIT PERI AZIMU VELO AIN AR TRES W  DIS CAZ7
 PAM  EZ EP        2 7 12.35                             155    0.6010 58.4 107 
 PAM  EE ES        2 7 27.27                             155    0.3610 58.4 107 
 PAM  EZ I         2 7 28.48        51.8 0.14            158           58.4 107 
 BRR  HZ IP     D  2 7 12.09                             150    0.3410 70.7 232 
 BRR  HN ES        2 7 27.31                             150    0.4210 70.7 232 
 BRR  HZ I         2 7 31.44        33.7 0.38            144           70.7 232 
 BAR2 EZ EP        2 7 14.04                             140   -0.1110  100 179 
 BAR2 EZ ES        2 7 30.42                             140   -0.7610  100 179 
 BAR2 EZ I         2 7 31.64        37.5 0.09            138            100 179 
 PTB  HZ EP        2 7 20.61                             123   -0.05 9  174 233 
 PTB  HE ES        2 7 42.53                             123   -0.24 9  174 233 
 PTB  HZ I         2 7 45.88        14.3 0.38            120            174 233 
 RUS  HZ EP        2 7 21.30                             123   -0.37 9  178 176 
 RUS  HN ES   4    2 7 41.78                             123   -2.78 0  178 176 
 ZAR  HZ EP        2 7 22.43                             122    0.92 9  183 270 
 ZAR  HZ I         2 7 46.72        40.7 0.15            119            183 270 
 SPBC HZ EP        2 7 26.57                             116    0.36 8  225 205 
 SPBC HE ES        2 7 52.92                             116    0.28 8  225 205 
 SPBC HZ I         2 7 59.76        14.0 0.46            114            225 205 
 YPLC HZ EP        2 7 28.09                             113   -0.77 8  249 159 
 YPLC HN ES        2 7 56.46                             113   -0.89 8  249 159 
 YPLC HZ I         2 8  0.19        11.7 0.34            112            249 159 
 URE  HZ EP        2 7 29.11                             113   -0.68 8  258 276 
 URE  HE ES        2 7 57.85                             113   -1.15 8  258 276 
 URE  HZ I         2 8  2.33        13.3 0.34            110            258 276 
 NOR  HZ EP        2 7 32.41                             110   -0.11 7  282 221 
 NOR  HE ES        2 8  3.31                             110   -0.57 7  282 221 
 NOR  HZ I         2 8 11.06         7.8 0.34            109            282 221 
 HEL  HZ EP        2 7 34.72                             110    0.36 7  295 241 
 HEL  HN ES        2 8  7.29                             110    0.14 7  295 241 
 HEL  HZ I         2 8 15.35         7.8 0.44            108            295 241 
 CHI  HZ EP        2 7 37.99                             108    0.37 7  322 190 
 CHI  HN ES        2 8 13.52                             108    0.57 7  322 190 
 CHI  HZ I         2 8 29.32         2.7 0.28            106            322 190 
 SJC  HZ EP        2 7 39.85                             106    0.26 7  343 321 
 SJC  HN ES        2 8 15.40                             106   -1.07 7  343 321 
 SJC  HZ I         2 8 18.78         4.0 0.46            105            343 321 
 GUY2CHZ EP   4    2 7 43.04                             106    2.49 0  347 224 
 GUY2CHE ES        2 8 18.48                             106    0.32 6  347 224 
 GUY2CHZ I         2 8 29.97         6.2 0.42                           347 224 
 CBOC HZ EP        2 7 42.57                             105    0.95 6  359 240 
 CBOC HN ES        2 8 20.81                             105    0.75 6  359 240 
 CBOC HZ I         2 8 32.62         2.8 0.38            104            359 240 
 ORTC HZ EP        2 7 53.39                             101    0.36 5  457 210 
 ORTC HN ES        2 8 39.46                             101   -0.93 5  457 210 
 ORTC HZ I         2 8 48.46         2.6 0.46            100            457 210 
                                                                                
