 2016  6 4 0331 57.1 L   6.830 -73.168149.6  RSN 22 0.5 2.2LRSN                1
 GAP= 69        1.05       2.6     2.9  4.6 -0.1730E+01  0.3600E+01  0.2556E+00E
 Epicentro: LOS SANTOS - SANTANDER                                             3
 ACTION:UPD 16-07-21 22:15 OP:rebc STATUS:               ID:20160604033157 L   I
 OLDACT:REG 16-06-04 13:01 OP:ak   STATUS:               ID:20160604032743     3
 2016-06-04-0327-43M.COL___319                                                 6
 STAT SP IPHASW D HRMM SECON CODA AMPLIT PERI AZIMU VELO AIN AR TRES W  DIS CAZ7
 BAR2 EZ EP        332 17.27                             170   -0.0210 26.3 184 
 BAR2 EZ ES        332 32.91                             170   -0.1010 26.3 184 
 BAR2 EZ I         332 33.80        38.0 0.22                          26.3 184 
 BRR  HZ IP     C  332 19.07                             154    0.5710 67.5 297 
 BRR  HN ES        332 36.06                             154    0.8910 67.5 297 
 BRR  HZ I         332 40.19        25.2 0.24                          67.5 297 
 PAM  EZ EP        332 20.18                             152    0.4710 76.5  43 
 PAM  EN ES        332 37.35                             152    0.0410 76.5  43 
 PAM  EZ I         332 39.65        18.8 0.62                          76.5  43 
 RUS  HZ EP        332 21.33                             144   -0.1910  104 175 
 RUS  HN ES        332 39.71                             144   -0.8210  104 175 
 RUS  HZ I         332 41.26        16.5 0.34                           104 175 
 PTB  HZ EP        332 24.00                             133   -0.27 9  146 257 
 PTB  HN ES        332 44.83                             133   -0.60 9  146 257 
 PTB  HZ I         332 47.59        15.8 0.16                           146 257 
 OCA  HZ EP        332 24.86                             131   -0.56 9  157 354 
 OCA  HN ES        332 48.04                             131    0.56 9  157 354 
 OCA  HZ I         332 50.82        33.3 0.14                           157 354 
 TAM  HZ EP        332 25.57                             131    0.16 9  158 106 
 TAM  HE ES        332 47.45                             131   -0.02 9  158 106 
 SPBC HZ EP        332 26.02                             130   -0.01 9  164 218 
 SPBC HN ES        332 48.05                             130   -0.53 9  164 218 
 SPBC HZ I         332 50.65        16.6 0.13                           164 218 
 NOR  HZ EP        332 33.44                             119    0.35 8  235 233 
 NOR  HN ES        333  1.46                             119    0.33 8  235 233 
 NOR  HZ I         333  6.87         8.7 0.14                           235 233 
 CHI  HZ EP        332 35.56                             118    0.23 8  251 194 
 CHI  HN ES        333  4.75                             118   -0.37 8  251 194 
 CHI  HZ I         333 10.09         8.2 0.30                           251 194 
 ROSC BZ EP   9    332 37.10                             117    1.46 0  254 210 
 ROSC BN ES        333  7.54                                    0.40 8  254 210 
 ROSC BZ I         333 11.93        26.9 0.40                           254 210 
 HEL  HZ EP   4    332 35.91                             116   -1.47 0  271 255 
 HEL  HE ES        333  8.27                             116   -0.50 8  271 255 
 HEL  HZ I         333 15.85         6.4 0.26                           271 255 
 URE  HZ EP        332 37.52                             115   -0.49 7  280 291 
 URE  HN ES   4    333  8.64                             115   -1.25 0  280 291 
 URE  HZ I         333 18.55         7.4 0.18                           280 291 
 LL6C HZ EP        332 42.57                             111   -0.04 7  321 358 
 LL6C HN ES        333 17.65                             111   -0.44 7  321 358 
 CBOC HZ EP        332 44.82                             111    0.75 7  332 251 
 CBOC HE ES        333 21.23                             111    0.56 7  332 251 
 DBB  SZ EP        332 43.67                             110   -0.80 7  337 274 
 DBB  SZ ES        333 20.76                             110   -0.63 7  337 274 
 DBB  SZ I         333 24.82        20.9 0.48                           337 274 
 ANIL HZ EP   2    332 47.89                             109    0.72 3  358 224 
 ANIL HN ES   4    333 29.32                             109    3.13 0  358 224 
 PRA  HZ EP        332 51.22                             107    0.23 6  394 209 
 PRA  HN ES        333 33.58                             107    0.59 6  394 209 
 PRA  HZ I         333 39.50         9.5 0.36                           394 209 
 ORTC HZ EP        332 51.49                             107    0.15 6  397 216 
 ORTC HN ES        333 34.62                             107    1.01 6  397 216 
 ORTC HZ I         333 40.97         4.8 0.66                           397 216 
 SJC  HN ES   4    333 31.99                             106   -3.42 0  405 327 
 SJC  HZ I         333 37.03         2.1 0.28                           405 327 
 PAL  HZ EP   2    332 52.94                             106    0.56 3  405 238 
 PAL  HE ES        333 35.48                             106    0.00 6  405 238 
 SJC  HZ EP   2    332 51.33                             106   -1.02 3  405 327 
 CRJC HZ EP   9    332 57.82                             104   -1.55 0  464   4 
 CRJC HN ES        333 46.16                                   -0.20 5  464   4 
 CRJC HZ I         333 53.32         3.9 0.17                           464   4 
                                                                                
