 2011  6 4 0003 12.5 L   6.821 -73.086138.3  RSN  5 0.3 1.6LRSN                1
 GAP=143        0.64       3.6     6.7  6.7 -0.4168E+01 -0.9458E+01 -0.1549E+01E
 Epicentro: LOS SANTOS - SANTANDER                                             3
 ACTION:UP  11-07-14 19:03 OP:ep   STATUS:               ID:20110604000312 L   I
 2011-06-04-0001-04S.COL___132                                                 6
 STAT SP IPHASW D HRMM SECON CODA AMPLIT PERI AZIMU VELO SNR AR TRES W  DIS CAZ7
 BAR2 SZ EP   1    0 3 31.15                             168    -0.2 7   27 203 
 BAR2 SZ ES   1    0 3 46.02                             168     0.0 7   27 203 
 BAR2 SZ I         0 3 47.45        12.9 0.18                            27 203 
 PAM  SZ EP   1    0 3 34.09                             151     0.5 7   71  37 
 PAM  SE ES   2    0 3 50.01                             151     0.0 5   71  37 
 BRR  HZ EP   1    0 3 33.18                             149     0.0 7   76 295 
 BRR  HE ES   1    0 3 49.37                             149     0.1 7   76 295 
 BRR  HZ I         0 3 59.87        18.9 0.30                            76 295 
 RUS  HZ EP   1    0 3 35.31                             142    -0.4 7  103 180 
 RUS  HZ I         0 3 36.41         3.9 0.14                           103 180 
 RUS  HE ES   1    0 3 54.04                             142     0.2 7  103 180 
 GRA  SZ EP   1    0 3 36.96                             136     0.2 7  122  15 
 GRA  SZ I         0 3 38.21         3.8 0.25                           122  15 
 GRA  SZ ES   1    0 3 55.34                             136    -0.3 7  122  15 
                                                                                
