 2016 12 4 0403 34.0 L   6.774 -73.138146.1  RSN 10 0.5 1.8LRSN                1
 GAP=121        1.04       4.2     4.0  6.3  0.1220E+01  0.3911E+01  0.1161E+02E
 Epicentro: LOS SANTOS - SANTANDER                                             3
 ACTION:UPD 17-01-11 20:12 OP:rebc STATUS:               ID:20161204040334 L   I
 OLDACT:UP  16-12-04 15:14 OP:dani STATUS:               ID:20161204035743     3
 OLDACT:REG 16-12-04 12:38 OP:dani STATUS:               ID:20161204035743     3
 2016-12-04-0358-00M.COL___349                                                 6
 STAT SP IPHASW D HRMM SECON CODA AMPLIT PERI AZIMU VELO AIN AR TRES W  DIS CAZ7
 BAR2 EZ EP        4 3 53.77                             172    0.1210 20.7 194 
 BAR2 EZ ES        4 4  8.94                             172   -0.0210 20.7 194 
 BAR2 EZ I         4 4 16.54        16.9 0.54            169           20.7 194 
 BRR  HZ EP        4 3 55.55                             152    0.2110 73.4 300 
 BRR  HN ES        4 4 12.18                             152    0.2210 73.4 300 
 BRR  HZ I         4 4 15.80        13.5 0.33            154           73.4 300 
 PAM  EZ EP        4 3 56.82                             150    0.4410 79.0  38 
 PAM  EN ES        4 4 13.76                             150   -0.0510 79.0  38 
 PAM  EZ I         4 4 14.38         5.5 0.19            157           79.0  38 
 PTB  HZ EP        4 4  0.37                             132   -0.69 9  148 260 
 PTB  HN ES        4 4 21.52                             132   -0.62 9  148 260 
 PTB  HZ I         4 4 23.16         7.0 0.22            134            148 260 
 ZAR  HZ EP        4 4  6.52                             122   -0.18 8  206 293 
 ZAR  HE ES        4 4 31.76                             122   -0.41 8  206 293 
 ZAR  HZ I         4 4 37.23         8.6 0.29            126            206 293 
 NOR  HZ EP        4 4 10.39                             119    0.71 8  234 235 
 NOR  HE ES        4 4 37.78                             119    0.29 8  234 235 
 NOR  HZ I         4 4 41.16         5.2 0.31            121            234 235 
 CHI  HZ EP   3    4 4 10.05                             117   -1.43 2  246 196 
 CHI  HN ES        4 4 41.43                             117    0.75 8  246 196 
 CHI  HZ I         4 4 44.65         4.1 0.34            120            246 196 
 PTGC HZ EP        4 4 17.19                             112   -0.37 7  306 159 
 PTGC HE ES        4 4 50.58                             112   -0.94 7  306 159 
 PTGC HZ I         4 4 50.98         4.2 0.24            115            306 159 
 PRA  HZ EP        4 4 27.84                             107    0.51 6  390 210 
 PRA  HE ES   4    4 5 11.19                             107    2.29 0  390 210 
 PRA  HZ I         4 5 15.15         2.0 0.34            109            390 210 
 ORTC HZ EP        4 4 27.94                             106    0.18 6  394 217 
                                                                                
