 2017  3 4 0343 48.5 L   6.768 -73.157150.9  RSN  5 0.2 1.0LRSN                1
 GAP=234        0.53       3.3     3.4  4.3  0.2431E+01  0.1179E+01 -0.4759E-01E
 Epicentro: LOS SANTOS - SANTANDER                                             3
 ACTION:UPD 17-05-25 18:35 OP:jn   STATUS:               ID:20170304034348 L   I
 OLDACT:REG 17-03-04 12:20 OP:lv   STATUS:               ID:20170304033750     3
 2017-03-04-0338-00M.COL___397                                                 6
 STAT SP IPHASW D HRMM SECON CODA AMPLIT PERI AZIMU VELO AIN AR TRES W  DIS CAZ7
 BAR2 EZ EP        344  8.52                             172   -0.1910 19.6 188 
 BAR2 EZ ES        344 24.35                             172   -0.1110 19.6 188 
 BAR2 EZ I         344 25.49         2.9 0.30            172           19.6 188 
 BRR  HZ EP        344 10.53                             153    0.2510 71.9 302 
 BRR  HN ES        344 27.35                             153    0.1110 71.9 302 
 RUS  HZ EP        344 12.76                             146    0.2110 97.1 175 
 RUS  HN ES        344 31.23                             146   -0.0610 97.1 175 
 RUS  HZ I         344 32.83         0.8 0.37            146           97.1 175 
 PTB  HZ EP        344 15.42                             134   -0.33 9  146 260 
 PTB  HE ES        344 36.92                             134   -0.07 9  146 260 
 PTB  HZ I         344 37.72         1.3 0.10            134            146 260 
 SPBC HN ES        344 39.55                             131    0.17 9  160 219 
                                                                                
