 2015  4 4 0323 42.5 L   6.825 -73.152142.8  RSN 10 0.4 2.0LRSN                1
 GAP=146        0.95       4.0     4.1  5.8 -0.6798E+01  0.7081E+01 -0.2215E+00E
 Epicentro: LOS SANTOS - SANTANDER                                             3
 ACTION:UPD 15-06-03 16:52 OP:cam  STATUS:               ID:20150404032342 L   I
 OLDACT:UP  15-04-04 15:45 OP:mh   STATUS:               ID:20150404031742     3
 OLDACT:REG 15-04-04 13:21 OP:mh   STATUS:               ID:20150404031742     3
 2015-04-04-0317-42M.COL___279                                                 6
 STAT SP IPHASW D HRMM SECON CODA AMPLIT PERI AZIMU VELO AIN AR TRES W  DIS CAZ7
 BAR2 EZ EP        324  1.81                             169   -0.0510 26.0 187 
 BAR2 EZ ES        324 16.44                             169   -0.5010 26.0 187 
 BAR2 EZ I         324 19.66        12.8 0.36            169           26.0 187 
 BRR  HZ EP        324  3.69                             153    0.4410 69.3 297 
 BRR  HN ES        324 19.79                             153    0.3710 69.3 297 
 PAM  SZ EP        324  4.70                             151    0.3710 75.7  41 
 PAM  SN ES        324 21.59                             151    0.2510 75.7  41 
 PTB  HZ EP        324  8.64                             131   -0.61 9  148 258 
 PTB  HN ES        324 29.70                             131   -0.39 9  148 258 
 PTB  HZ I         324 37.61        11.7 0.52            131            148 258 
 OCA  HZ EP        324 10.33                             129   -0.02 9  157 353 
 OCA  HN ES        324 31.57                             129   -0.47 9  157 353 
 OCA  HZ I         324 36.82        12.9 0.46            131            157 353 
 SPBC HZ EP   1    324 10.70                             128   -0.27 7  165 218 
 SPBC HN ES   1    324 33.80                             128    0.64 7  165 218 
 ZAR  HZ EP        324 14.29                             122   -0.32 9  202 291 
 ZAR  HN ES        324 39.82                             122    0.18 9  202 291 
 ZAR  HZ I         324 46.11         8.4 0.41            122            202 291 
 NOR  HN ES        324 45.77                             118   -0.26 8  236 234 
 NOR  HZ I         324 51.73        16.7 0.86            119            236 234 
 HEL  HZ EP   1    324 22.57                             114   -0.03 6  272 255 
 HEL  HN ES        324 54.61                             114    0.76 8  272 255 
 HEL  HZ I         325  0.11         4.5 0.28            115            272 255 
 GUY2CHZ EP   1    324 26.46                             112    0.34 5  302 234 
 GUY2CHN ES   4    325  2.07                             112    1.94 0  302 234 
 GUY2CHZ I         325  8.14         5.9 0.68                           302 234 
                                                                                
