 2016  7 4 0851 36.2 L   5.947 -73.756106.0  RSN 21 0.5 2.1LRSN                1
 GAP= 42        1.27       3.2     2.6  5.9 -0.1713E+01 -0.7896E+00  0.2351E+01E
 Epicentro: BOLIVAR - SANTANDER                                                3
 ACTION:UPD 17-03-29 16:46 OP:lp   STATUS:               ID:20160704085136 L   I
 OLDACT:UP  16-07-04 21:32 OP:dani STATUS:               ID:20160704084741     3
 OLDACT:UP  16-07-04 21:31 OP:dani STATUS:               ID:20160704084741     3
 OLDACT:UP  16-07-04 21:29 OP:dani STATUS:               ID:20160704084741     3
 OLDACT:UP  16-07-04 21:27 OP:dani STATUS:               ID:20160704084741     3
 OLDACT:UP  16-07-04 21:27 OP:dani STATUS:               ID:20160704084741     3
 OLDACT:UP  16-07-04 21:26 OP:dani STATUS:               ID:20160704084741     3
 OLDACT:UP  16-07-04 21:17 OP:dani STATUS:               ID:20160704084741     3
 OLDACT:UP  16-07-04 21:16 OP:dani STATUS:               ID:20160704084741     3
 OLDACT:UP  16-07-04 21:16 OP:dani STATUS:               ID:20160704084741     3
 OLDACT:UP  16-07-04 21:16 OP:dani STATUS:               ID:20160704084741     3
 OLDACT:REG 16-07-04 13:43 OP:dani STATUS:               ID:20160704084741     3
 2016-07-04-0847-41M.COL___313                                                 6
 STAT SP IPHASW D HRMM SECON CODA AMPLIT PERI AZIMU VELO AIN AR TRES W  DIS CAZ7
 SPBC HZ EP        851 52.06                             154    0.2110 47.9 227 
 SPBC HN ES        852  4.44                             154    0.3710 47.9 227 
 SPBC HZ I         852  6.21        59.7 0.20            153           47.9 227 
 RUS  HZ EP        851 54.69                             142    0.5210 74.8  95 
 RUS  HN ES        852  7.17                             142   -1.0210 74.8  95 
 RUS  HZ I         852 10.59        31.0 0.32            145           74.8  95 
 BAR2 EZ IP     D  851 56.18                             135    0.6910 95.5  42 
 BAR2 EZ ES        852 11.44                             135    0.9010 95.5  42 
 BAR2 EZ I         852 13.94        56.9 0.36            138           95.5  42 
 PTB  HZ EP   4    851 54.63                             133   -1.08 0  101 310 
 PTB  HN ES        852 10.60                             133   -0.3410  101 310 
 PTB  HZ I         852 13.13        21.2 0.10            135            101 310 
 BRR  HZ EP        851 58.40                             125    0.1510  128   2 
 BRR  HE ES   4    852 16.68                             125    1.23 0  128   2 
 BRR  HZ I         852 20.97        31.2 0.32            128            128   2 
 NOR  HZ EP        851 57.96                             125   -0.5610  130 251 
 NOR  HE ES        852 15.14                             125   -0.8010  130 251 
 NOR  HZ I         852 17.70        66.7 0.22            126            130 251 
 ROSC BZ EP        852  0.42                             124    0.74 9  137 207 
 ROSC BN ES   4    852 20.76                             124    2.75 0  137 207 
 ROSC BZ I         852 24.03        17.9 0.35            124            137 207 
 CHI  HZ EP        852  0.56                             122   -0.00 9  146 179 
 CHI  HE ES   4    852 18.62                             122   -0.95 0  146 179 
 CHI  HZ I         852 24.24         9.2 0.32            123            146 179 
 PAM  EZ EP        852  6.12                             114    0.32 9  193  37 
 PAM  EN ES   4    852 30.80                             114    1.91 0  193  37 
 PAM  EZ I         852 38.31        10.7 0.42            116            193  37 
 GUY2CHZ EP        852  5.96                             113   -0.05 9  195 246 
 GUY2CHN ES        852 29.74                             113    0.46 9  195 246 
 GUY2CHZ I         852 33.55         9.4 0.30                           195 246 
 HEL  HZ EP        852  6.47                             113    0.29 9  198 278 
 HEL  HN ES        852 29.37                             113   -0.21 9  198 278 
 HEL  HZ I         852 35.92        10.5 0.42            115            198 278 
 ZAR  HZ EP        852  6.84                             111   -0.22 8  210 325 
 ZAR  HN ES        852 30.72                             111   -0.41 8  210 325 
 ZAR  HZ I         852 31.73        16.7 0.30            113            210 325 
 ELA  HZ EP   9    852 10.02                             111    1.35 0  218 237 
 ELA  HN ES        852 35.38                             110    0.02 8  218 237 
 ELA  HZ I         852 59.66         7.1 0.46            112            218 237 
 TAM  HZ EP        852  9.05                             110    0.33 8  224  76 
 TAM  HE ES        852 33.13                             110   -0.97 8  224  76 
 TAM  HZ I         852 40.39        11.2 0.46            112            224  76 
 ANIL HZ EP        852 11.53                             108    0.25 8  243 229 
 ANIL HN ES   4    852 40.53                             108    1.88 0  243 229 
 ANIL HZ I         852 43.35        25.6 0.28            109            243 229 
 PTGC HZ EP        852 12.89                             106   -0.43 8  264 137 
 PTGC HE ES        852 42.07                             106   -0.21 8  264 137 
 PTGC HZ I         852 48.13         6.0 0.30            107            264 137 
 PRA  HZ EP        852 14.12                             105   -0.77 7  277 207 
 PRA  HN ES        852 45.78                             105    0.71 7  277 207 
 PRA  HZ I         852 50.83        14.3 0.20            106            277 207 
 ORTC HZ EP        852 14.81                             105   -0.37 7  279 216 
 ORTC HN ES   4    852 47.31                             105    1.72 0  279 216 
 ORTC HZ I         852 49.80         9.7 0.22            106            279 216 
 URE  HZ EP   4    852 13.54                             105   -1.67 0  280 316 
 URE  HN ES   4    852 42.96                             105   -2.68 0  280 316 
 URE  HZ I         852 44.51         7.6 0.34            106            280 316 
 SOCV BZ EP        852 30.66                              97   -0.32 6  412  51 
 SOCV BN ES        853 13.61                              97   -0.12 6  412  51 
 MACC HZ EP   4    852 30.20                              97   -1.86 0  421 181 
 MACC HE ES   4    853 11.91                              97   -3.72 0  421 181 
 MACC HZ I         853 16.26         3.1 0.26             98            421 181 
 LL6C HZ EP   4    852 33.00                              97    0.74 0  422   7 
                                                                                
