 2013  4 4 0733 26.8 L   6.812 -73.159143.8  RSN 13 0.4 2.3LRSN                1
 GAP=112        0.80       2.8     3.1  4.8  0.1019E+01  0.2394E+01  0.2314E+01E
 Epicentro: LOS SANTOS - SANTANDER                                             3
 ACTION:UPD 13-05-22 14:35 OP:EP   STATUS:               ID:20130404073326 L   I
 2013-04-04-0730-00M.COL___245                                                 6
 STAT SP IPHASW D HRMM SECON CODA AMPLIT PERI AZIMU VELO AIN AR TRES W  DIS CAZ7
 BAR2 SZ EP        733 46.24                             170   -0.0110 24.4 186 
 BAR2 SZ ES   1    734  0.95                             170   -0.44 7 24.4 186 
 BAR2 SZ I         734  2.41        60.1 0.12            169           24.4 186 
 GIR2 SZ EP        733 46.24                             168    0.0110 29.8 353 
 GIR2 SZ ES   1    734  1.77                             168    0.41 7 29.8 353 
 GIR2 SZ I         734  2.72        34.2 0.12            167           29.8 353 
 BRR  HZ IP     D  733 47.99                             153    0.3310 69.2 298 
 BRR  HN ES   1    734  4.50                             153    0.60 7 69.2 298 
 BRR  HZ I         734  5.85        41.4 0.12            151           69.2 298 
 RUS  HZ EP   1    733 50.44                             143   -0.05 7  102 175 
 RUS  HN ES   1    734  8.73                             143   -0.22 7  102 175 
 RUS  HZ I         734 11.17        22.0 0.28            144            102 175 
 PTB  HZ EP        733 52.84                             132   -0.68 9  147 258 
 PTB  HN ES   1    734 13.78                             132   -0.57 7  147 258 
 PTB  HZ I         734 16.37        32.8 0.12            131            147 258 
 TAM  HZ IP     C  733 54.71                             130    0.19 9  157 105 
 TAM  HN ES   1    734 15.91                             130   -0.21 7  157 105 
 TAM  HZ I         734 17.04        13.9 0.24            132            157 105 
 OCA  HZ EP        733 54.51                             129   -0.34 9  159 354 
 OCA  HN ES   1    734 16.49                             129   -0.21 7  159 354 
 OCA  HZ I         734 20.77        26.6 0.38            130            159 354 
 ZAR  HZ EP   1    733 58.46                             122   -0.49 6  202 292 
 ZAR  HE ES   1    734 24.24                             122    0.24 6  202 292 
 ZAR  HZ I         734 30.80        24.2 0.16            122            202 292 
 SML  HN ES   1    734 31.78                             117    0.30 6  242 335 
 CHI  HZ EP        734  4.67                             117    0.16 8  249 195 
 CHI  HN ES   1    734 34.48                             117    0.57 6  249 195 
 CHI  HZ I         734 36.47        12.8 0.34            117            249 195 
 ROSC BZ EP   1    734  5.68                             116    0.80 6  253 211 
 HEL  HZ EP        734  7.32                             114    0.51 8  271 255 
 HEL  HN ES   1    734 37.90                             114   -0.10 6  271 255 
 HEL  HZ I         734 45.12        16.6 0.24            114            271 255 
 URE  HZ EP   4    734  5.98                             113   -1.61 0  282 292 
 PRA  HZ EP   1    734 19.88                             106   -0.45 4  392 209 
 PRA  HN ES   1    735  1.71                             106   -0.34 4  392 209 
 PRA  HZ I         735  8.88         8.2 0.38            107            392 209 
                                                                                
