 2011  6 4 0244 13.7 L   6.781 -73.098150.1  RSN 21 0.3 3.6LRSN                1
 GAP=130        0.63       2.3     3.8  3.4 -0.4468E+01  0.2347E+01  0.1463E+01E
 Epicentro: LOS SANTOS - SANTANDER                                             3
 ACTION:UP  11-07-14 19:03 OP:ep   STATUS:               ID:20110604024413 L   I
 2011-06-04-0242-40S.COL___132                                                 6
 STAT SP IPHASW D HRMM SECON CODA AMPLIT PERI AZIMU VELO SNR AR TRES W  DIS CAZ7
 BAR2 SZ EP   1    244 33.79                             171    -0.1 7   23 204 
 BAR2 SZ ES   1    244 49.23                             171    -0.4 7   23 204 
 BAR2 SZ I         244 50.00       823.6 0.35                            23 204 
 BTL  SZ EP   1    244 33.90                             170     0.0 7   24 309 
 BTL  SZ ES   2    244 50.02                             170     0.4 5   24 309 
 GIR2 SZ ES   2    244 49.91                             166     0.1 5   35 342 
 PAM  SZ EP        244 36.60                             152     0.310   76  36 
 PAM  SE ES   1    244 53.87                             152    -0.1 7   76  36 
 PAM  SZ I         244 56.02       285.1 0.48                            76  36 
 BRR  HZ IP     C  244 35.63                             151    -0.110   77 298 
 BRR  HZ I         244 36.00      1205.6 0.27                            77 298 
 BRR  HE ES   1    244 52.93                             151     0.1 7   77 298 
 RUS  HZ EP   1    244 37.49                             145    -0.3 7   98 179 
 RUS  HE ES   1    244 56.48                             145     0.0 7   98 179 
 RUS  HZ I         244 58.75       432.5 0.20                            98 179 
 BRI  SZ IP        244 38.31                             142     0.210  109  18 
 BRI  SZ ES   1    244 57.16                             142     0.1 7  109  18 
 BRI  SZ I         245  2.73       738.5 0.85                           109  18 
 GUE  SZ EP   2    244 38.98                             140     0.0 5  118   9 
 GRA  SZ IP        244 39.58                             137     0.210  126  15 
 GRA  SZ ES   1    244 59.55                             137     0.1 7  126  15 
 GRA  SZ I         245  0.58       801.2 0.36                           126  15 
 OCA  SZ EP   1    244 42.27                             130    -0.4 7  163 351 
 OCA  SZ ES   1    245  4.84                             130    -0.4 7  163 351 
 OCA  SZ I         245 13.52       576.9 0.43                           163 351 
 NOR  SZ EP   1    244 49.81                             119    -0.3 6  238 236 
 NOR  SN ES   2    245 18.68                             119     0.3 4  238 236 
 CHI  HZ EP   1    244 51.79                             118     0.2 6  248 196 
 CHI  HE ES   2    245 20.98                             118    -0.2 4  248 196 
 CHI  HZ I         245 26.72       125.4 0.40                           248 196 
 ROSC BZ EP   1    244 53.03                             117     0.8 6  254 212 
 ROSC BN ES   2    245 21.35                             117    -0.9 4  254 212 
 ROSC BZ I         245 29.52       307.2 0.42                           254 212 
 HEL  HZ EP   1    244 54.45                             115    -0.2 6  277 256 
 HEL  HZ I         245 32.08       333.0 0.30                           277 256 
 VIL  SZ EP   1    244 57.26                             113     0.0 5  302 193 
 VIL  SN ES   2    245 30.81                             113    -0.4 4  302 193 
 VIL  SZ I         245 37.61       102.8 0.36                           302 193 
 GUY  SZ EP   1    244 57.90                             113    -0.3 5  307 236 
 GUY  SE ES   2    245 32.67                             113    -0.2 4  307 236 
 GUY  SZ I         245 38.62       304.2 0.66                           307 236 
 DBB  SZ EP   1    245  1.67                             110    -0.3 5  345 275 
 TOL  SZ EP   1    245  3.02                             110     0.6 5  346 226 
 TOL  SZ ES   2    245 41.19                             110     0.8 3  346 226 
 SDV  BZ EP   1    245  2.97                                    -0.7 5  358  49 
 SDV  BZ I         245  4.47        78.1 0.40                           358  49 
 ANIL HZ EP   1    245  4.67                             109     0.7 5  360 225 
 PRA  HZ EP   1    245  7.32                             107    -0.2 4  393 210 
 PRA  HE ES   2    245 49.15                             107    -0.3 3  393 210 
                                                                                
