 2017  2 4 0741 14.9 L   5.935 -73.784114.8  RSN  4 0.3 1.1LRSN                1
 GAP=218        0.61       4.9     3.5  7.7  0.7465E+01  0.3518E+01 -0.8799E+00E
 Epicentro: SUCRE - SANTANDER                                                  3
 ACTION:UPD 17-05-24 15:32 OP:jn   STATUS:               ID:20170204074114 L   I
 OLDACT:REG 17-02-04 12:44 OP:dnl  STATUS:               ID:20170204073739     3
 2017-02-04-0738-00M.COL___328                                                 6
 STAT SP IPHASW D HRMM SECON CODA AMPLIT PERI AZIMU VELO AIN AR TRES W  DIS CAZ7
 RUS  HZ EP   2    741 34.29                             143    0.38 5 77.7  93 
 RUS  HE ES        741 48.66                             143   -0.1110 77.7  93 
 RUS  HZ I         741 49.62         1.4 0.34            144           77.7  93 
 BAR2 EZ IP     D  741 35.46                             136    0.2810 98.5  42 
 BAR2 EZ ES        741 50.93                             136   -0.1010 98.5  42 
 BAR2 EZ I         741 51.81         5.3 0.50            136           98.5  42 
 PTB  HZ EP   2    741 34.07                             135   -0.93 5100.0 312 
 PTB  HN ES        741 50.83                             135    0.1210100.0 312 
 PTB  HZ I         741 51.51         2.7 0.14            136          100.0 312 
 BRR  HZ EP   2    741 37.67                             127   -0.02 5  130   4 
 BRR  HE ES        741 55.45                             127   -0.0510  130   4 
 BRR  HZ I         741 58.29         3.4 0.14            127            130   4 
                                                                                
