 2014 11 4 0105 48.3 L   6.785 -73.112142.0  RSN  9 0.4 1.8LRSN                1
 GAP=142        0.99       3.9     4.3  5.9 -0.2798E+01  0.5869E+01  0.5156E+01E
 Epicentro: LOS SANTOS - SANTANDER                                             3
 ACTION:UPD 14-12-19 15:39 OP:nd   STATUS:               ID:20141104010548 L   I
 OLDACT:REG 14-11-04 12:28 OP:carl STATUS:               ID:20141104005748     3
 2014-11-04-0057-48M.COL___274                                                 6
 STAT SP IPHASW D HRMM SECON CODA AMPLIT PERI AZIMU VELO AIN AR TRES W  DIS CAZ7
 BAR2 SZ EP        1 6  7.39                             170   -0.1110 22.7 200 
 BAR2 SZ ES        1 6 22.99                             170    0.5410 22.7 200 
 BAR2 SZ I         1 6 23.53        15.9 0.16            170           22.7 200 
 BRR  HZ EP        1 6  9.33                             151    0.0110 75.3 298 
 BRR  HN ES        1 6 25.95                             151    0.2710 75.3 298 
 BRR  HZ I         1 6 30.42        13.7 0.10            149           75.3 298 
 PAM  SZ IP     C  1 6 10.35                             151    0.2610 76.4  37 
 PAM  SE ES        1 6 26.89                             151   -0.1710 76.4  37 
 PAM  SZ I         1 6 29.18        16.5 0.46            153           76.4  37 
 RUS  HZ EP        1 6 11.43                             144   -0.1510 98.7 178 
 RUS  HE ES        1 6 29.31                             144   -0.4010 98.7 178 
 RUS  HZ I         1 6 31.52         9.3 0.24            146           98.7 178 
 PTB  HZ EP        1 6 14.42                             130   -0.89 9  151 260 
 PTB  HE ES        1 6 35.87                             130   -0.48 9  151 260 
 PTB  HZ I         1 6 38.17        11.5 0.22            131            151 260 
 OCA  HN ES   4    1 6 36.92                             128   -1.65 0  162 352 
 OCA  HZ I         1 6 42.02         7.0 0.28            130            162 352 
 SPBC HZ EP        1 6 16.63                             128   -0.02 9  164 220 
 SPBC HN ES        1 6 38.61                             128   -0.13 9  164 220 
 SPBC HZ I         1 6 43.00         7.5 0.12            129            164 220 
 CHI  HZ EP        1 6 25.91                             116    0.15 8  248 196 
 CHI  HN ES        1 6 55.53                             116    0.58 8  248 196 
 CHI  HZ I         1 6 59.32         2.5 0.36            118            248 196 
 HEL  HZ EP        1 6 29.24                             114    0.52 7  275 256 
 HEL  HN ES        1 7  0.78                             114    0.56 7  275 256 
 HEL  HZ I         1 7  6.87         5.0 0.38            114            275 256 
                                                                                
