 2014  7 4 0150  4.1 L   6.334 -73.868 27.7  RSN 11 0.5 2.4LRSN                1
 GAP= 77        1.21       2.6     2.2  4.9 -0.1492E+01 -0.8137E+00  0.3087E+01E
 Epicentro: CIMITARRA - SANTANDER                                              3
 ACTION:UPD 15-03-16 20:40 OP:nd   STATUS:               ID:20140704015004 L   I
 OLDACT:UP  14-07-04 17:40 OP:cam  STATUS:               ID:20140704014849     3
 OLDACT:REG 14-07-04 17:24 OP:cam  STATUS:               ID:20140704014849     3
 2014-07-04-0148-49M.COL___262                                                 6
 STAT SP IPHASW D HRMM SECON CODA AMPLIT PERI AZIMU VELO AIN AR TRES W  DIS CAZ7
 PTB  HZ IP     D  150 15.39                             101   -0.3610 68.9 289 
 PTB  HN ES        150 24.70                             101   -0.1010 68.9 289 
 SPBC HZ IP     C  150 17.42                              98    0.2010 78.7 197 
 SPBC HE ES        150 27.79                              98    0.3810 78.7 197 
 SPBC HZ I         150 28.61       261.2 0.18            101           78.7 197 
 BAR2 SZ EP     C  150 17.38                              98   -0.3210 81.0  69 
 BAR2 SZ ES        150 28.06                              98   -0.2110 81.0  69 
 BAR2 SZ I         150 29.49       107.5 0.38            101           81.0  69 
 BRR  HZ EP     C  150 18.27                              96   -0.0510 87.2  11 
 BRR  HN ES        150 30.08                              96    0.7210 87.2  11 
 BRR  HZ I         150 30.63       128.4 0.16             99           87.2  11 
 RUS  HZ IP     D  150 20.07                              61   -0.4010 99.6 119 
 RUS  HE ES        150 32.61                              61   -0.5810 99.6 119 
 RUS  HZ I         150 32.97       135.2 0.38             99           99.6 119 
 ZAR  HZ EP        150 27.72                              61   -0.76 9  168 320 
 ZAR  HZ I         150 42.70        51.1 0.24             56            168 320 
 PAM  SZ EP        150 29.59                              61    0.28 9  170  49 
 PAM  SN ES        150 49.61                              61    0.68 9  170  49 
 PAM  SZ I         150 51.33        96.7 0.18             56            170  49 
 HEL  HZ IP     D  150 30.59                              61   -0.33 9  184 265 
 HEL  HN ES        150 51.00                              61   -0.81 9  184 265 
 HEL  HZ I         150 52.04        38.6 0.32             56            184 265 
 CHI  HZ EP   4    150 34.16                              61    2.61 0  189 175 
 GUY2CHZ EP        150 34.34                              61    0.56 8  206 234 
 GUY2CHN ES   1    150 57.07                              61    0.18 6  206 234 
 GUY2CHZ I         150 59.29        12.0 0.32                           206 234 
 RREF HZ EP        150 37.59                              61    0.91 8  228 226 
 RREF HN ES        151  2.44                              61    0.38 8  228 226 
 RREF HZ I         151 11.39        11.6 0.30             56            228 226 
 URE  HZ EP   4    150 38.40                              61    0.76 0  242 311 
 CBOC HZ EP   4    150 39.59                              61    1.59 0  243 258 
 TOL  SZ EP   4    150 40.52                              61    1.25 0  252 220 
 ORTC HZ EP   4    150 46.16                              60    0.20 0  309 210 
 PRA  HZ EP   4    150 47.45                              60    1.20 0  311 201 
 SJC  HZ EP   1    151  0.34                              60    0.64 4  420 340 
                                                                                
