 2014 11 4 0428 22.4 L   6.820 -73.148144.6  RSN 20 0.5 2.7LRSN                1
 GAP= 65        1.06       2.9     2.8  4.8 -0.1458E+01  0.3440E+01  0.3302E+01E
 Epicentro: LOS SANTOS - SANTANDER                                             3
 ACTION:UPD 14-12-19 15:39 OP:nd   STATUS:               ID:20141104042822 L   I
 OLDACT:REG 14-11-04 12:35 OP:carl STATUS:               ID:20141104042742     3
 2014-11-04-0427-42M.COL___271                                                 6
 STAT SP IPHASW D HRMM SECON CODA AMPLIT PERI AZIMU VELO AIN AR TRES W  DIS CAZ7
 BAR2 SZ IP     D  428 42.00                             170    0.0710 25.5 189 
 BAR2 SZ ES        428 57.04                             170   -0.1310 25.5 189 
 BAR2 SZ I         428 59.49       119.3 0.24            168           25.5 189 
 BRR  HZ IP     C  428 43.81                             153    0.4710 69.9 297 
 BRR  HN ES        429  0.33                             153    0.6510 69.9 297 
 BRR  HZ I         429  4.13        78.8 0.38            150           69.9 297 
 PAM  SZ EP        428 44.82                             151    0.4310 75.9  41 
 PAM  SN ES        429  1.86                             151    0.3110 75.9  41 
 PAM  SZ I         429  3.92        82.5 0.50            155           75.9  41 
 RUS  HZ IP     C  428 45.94                             143   -0.2510  103 176 
 RUS  HN ES        429  4.61                             143   -0.1410  103 176 
 RUS  HZ I         429  5.66        44.4 0.36            145            103 176 
 PTB  HZ EP        428 48.83                             132   -0.45 9  148 258 
 PTB  HN ES        429  9.58                             132   -0.67 9  148 258 
 PTB  HZ I         429 17.05        61.0 0.48            131            148 258 
 TAM  HZ IP     C  428 50.32                             130    0.26 9  156 106 
 TAM  HN ES        429 11.78                             130    0.15 9  156 106 
 TAM  HZ I         429 12.44        28.3 0.30            135            156 106 
 OCA  HZ EP        428 49.84                             130   -0.56 9  158 353 
 OCA  HN ES        429 11.48                             130   -0.77 9  158 353 
 OCA  HZ I         429 15.20        81.5 0.22            131            158 353 
 SPBC HZ EP        428 50.97                             128    0.02 9  165 218 
 SPBC HN ES        429 13.09                             128   -0.13 9  165 218 
 SPBC HZ I         429 17.83        71.3 0.40            129            165 218 
 NOR  HZ EP        428 58.31                             118    0.14 8  236 234 
 NOR  HN ES        429 26.35                             118    0.28 8  236 234 
 NOR  HZ I         429 31.91        41.8 0.46            118            236 234 
 CHI  HZ EP        429  0.28                             117    0.03 8  251 195 
 CHI  HN ES        429 29.25                             117   -0.53 8  251 195 
 CHI  HZ I         429 36.59        30.8 0.54            118            251 195 
 HEL  HZ EP        429  3.69                             114    1.11 8  272 255 
 HEL  HN ES        429 33.99                             114    0.07 8  272 255 
 HEL  HZ I         429 41.20        32.1 0.58            115            272 255 
 GUY2CHZ EP        429  6.46                             112    0.39 7  302 234 
 GUY2CHN ES        429 39.58                             112   -0.55 7  302 234 
 GUY2CHZ I         429 48.61        36.4 0.54                           302 234 
 PTGC HZ EP        429  5.18                             111   -1.26 7  311 159 
 PTGC HN ES   4    429 38.39                             111   -2.41 0  311 159 
 CBOC HZ EP        429  9.93                             110    0.62 7  334 252 
 CBOC HE ES        429 45.94                             110    0.04 7  334 252 
 CBOC HZ I         429 58.30         9.6 0.72            110            334 252 
 DBB  SZ EP        429  9.33                             109   -0.44 7  339 274 
 DBB  SZ ES        429 46.22                             109   -0.50 7  339 274 
 TOL  SZ EP        429 11.43                             109    0.67 7  345 224 
 TOL  SN ES        429 48.78                             109    0.29 7  345 224 
 MON  HZ EP   4    429  9.29                             108   -1.87 0  352 308 
 MON  HN ES   4    429 47.77                             108   -1.43 0  352 308 
 MON  HZ I         430  3.01        12.3 0.48            109            352 308 
 ANIL HZ EP   4    429 14.41                             108    2.10 0  359 224 
 ANIL HN ES   4    429 52.57                             108    1.32 0  359 224 
 ANIL HZ I         430  2.29         6.6 0.38            109            359 224 
 SDV  BZ EP   4    429 11.38                             108   -0.87 0  359  50 
 SDV  BN ES   4    429 47.77                             108   -3.36 0  359  50 
 PRA  HZ EP        429 15.70                             106   -0.38 6  394 209 
 PRA  HN ES        429 58.19                             106    0.23 6  394 209 
 PRA  HZ I         430  2.70        37.7 0.70            107            394 209 
 ORTC HZ EP        429 16.57                             106    0.11 6  397 216 
 ORTC HN ES        429 59.26                             106    0.62 6  397 216 
 ORTC HZ I         430  6.39        20.2 0.48            107            397 216 
                                                                                
