 2013  1 4 0352 35.1 L   6.754 -73.128144.1  RSN  4 0.2 1.3LRSN                1
 GAP=236        0.47       3.7     3.6  3.8  0.6674E+01  0.1183E+01  0.7545E-01E
 Epicentro: LOS SANTOS - SANTANDER                                             3
 ACTION:UPD 13-02-15 09:12 OP:ep   STATUS:               ID:20130104035235 L   I
 2013-01-04-0348-13M.COL___208                                                 6
 STAT SP IPHASW D HRMM SECON CODA AMPLIT PERI AZIMU VELO AIN AR TRES W  DIS CAZ7
 BAR2 SZ EP        352 54.66                             172    0.2210 18.8 199 
 BAR2 SZ ES        353  9.59                             172    0.0610 18.8 199 
 BAR2 SZ I         353 10.74         6.9 0.46            173           18.8 199 
 BRR  HZ EP        352 56.32                             151    0.0110 75.5 301 
 BRR  HN ES        353 12.70                             151   -0.1610 75.5 301 
 BRR  HN I         353 17.25         5.9 0.14            152           75.5 301 
 RUS  HZ EP        352 58.33                             145    0.0310 95.3 177 
 RUS  HN ES        353 16.27                             145   -0.1410 95.3 177 
 RUS  HN I         353 18.75         1.7 0.26            148           95.3 177 
 PTB  HZ EP        353  1.78                             131   -0.24 9  149 261 
 PTB  HE ES        353 23.23                             131    0.21 9  149 261 
 PTB  HE I         353 24.54         2.7 0.18            133            149 261 
                                                                                
