 2017  6 4 0935 15.6 L   7.101 -73.878 76.3  RSN  4 0.2 1.5LRSN                1
 GAP=207        0.63       5.3     8.3  5.2 -0.2737E+02  0.8178E+01  0.6989E+01E
 Epicentro: BARRANCABERMEJA - SANTANDER                                        3
 ACTION:UPD 17-09-14 16:49 OP:jn   STATUS:               ID:20170604093515 L   I
 OLDACT:UP  17-06-15 16:19 OP:jn   STATUS:               ID:20170604093515 L   3
 OLDACT:UP  17-06-15 16:06 OP:nlst STATUS:               ID:20170604093515 L   3
 OLDACT:UP  17-06-04 16:59 OP:and  STATUS:               ID:20170604092745     3
 OLDACT:UP  17-06-04 16:59 OP:and  STATUS:               ID:20170604092745     3
 OLDACT:UP  17-06-04 16:59 OP:and  STATUS:               ID:20170604092745     3
 OLDACT:REG 17-06-04 13:59 OP:osc  STATUS:               ID:20170604092745     3
 2017-06-04-0928-00M.COL___338                                                 6
 STAT SP IPHASW D HRMM SECON CODA AMPLIT PERI AZIMU VELO AIN AR TRES W  DIS CAZ7
 BRR  HZ IP     D  935 26.20                             163   -0.2110 18.3  88 
 BRR  HN ES        935 34.88                             163    0.0210 18.3  88 
 BRR  HZ I         935 36.64        11.7 0.10            163           18.3  88 
 PTB  HZ IP   9 C  935 30.49                             125   -1.13 0 89.2 226 
 PTB  HN ES        935 42.49                             125   -0.5010 89.2 226 
 PTB  HZ I         935 43.34        11.7 0.18            123           89.2 226 
 SPBC HZ EP        935 39.79                             108    0.07 9  162 188 
 SPBC HN ES        935 58.58                             108    0.04 9  162 188 
 SPBC HZ I         936  2.81         4.4 0.16            108            162 188 
 HEL  HZ EP   2    935 45.96                             104    0.37 4  208 241 
 HEL  HN ES   3    936  9.69                             104    0.69 2  208 241 
 HEL  HZ I         936 12.11         6.9 0.22            104            208 241 
                                                                                
