 2012 10 4 0611 20.2 L   6.785 -73.129150.4  RSN  5 0.2 1.9LRSN                1
 GAP=139        0.44       4.1     3.4  7.3  0.5710E+01  0.2949E+01  0.3112E+01E
 Epicentro: LOS SANTOS - SANTANDER                                             3
 ACTION:UPD 12-11-22 17:01 OP:ep   STATUS:               ID:20121004061120 L   I
 2012-10-04-0610-00M.COL___220                                                 6
 STAT SP IPHASW D HRMM SECON CODA AMPLIT PERI AZIMU VELO AIN AR TRES W  DIS CAZ7
 BAR2 SZ EP   1    611 40.23                             171   -0.09 9 22.1 195 
 BAR2 SZ I         611 56.29        12.9 0.31                          22.1 195 
 BRR  HZ EP   1    611 42.08                             153    0.14 9 73.6 299 
 BRR  HN ES   2    611 59.38                             153    0.45 6 73.6 299 
 BRR  HN I         611 59.86        22.9 0.24                          73.6 299 
 PAM  SZ EP   1    611 43.06                             151    0.19 9 77.5  38 
 PAM  SN ES   2    612  0.21                             151   -0.39 6 77.5  38 
 PAM  SN I         612  1.37         8.5 0.43                          77.5  38 
 RUS  HZ EP   1    611 44.23                             145   -0.01 9 98.8 177 
 RUS  HN ES   2    612  3.02                             145   -0.01 6 98.8 177 
 ZAR  HN ES        612 18.67                             123   -0.2010  206 292 
 ZAR  HN I         612 25.09         8.1 0.14                           206 292 
                                                                                
