 2015  3 4 0509 18.8 L   6.798 -73.136151.5  RSN 10 0.4 1.4LRSN                1
 GAP=138        0.90       3.2     4.5  5.9 -0.2827E+01  0.2498E+01  0.2467E+01E
 Epicentro: LOS SANTOS - SANTANDER                                             3
 ACTION:UPD 15-04-30 16:22 OP:nd   STATUS:               ID:20150304050918 L   I
 OLDACT:REG 15-03-04 12:41 OP:spq  STATUS:               ID:20150304050745     3
 2015-03-04-0507-45M.COL___287                                                 6
 STAT SP IPHASW D HRMM SECON CODA AMPLIT PERI AZIMU VELO AIN AR TRES W  DIS CAZ7
 BAR2 EZ EP        5 9 39.13                             171   -0.0310 23.3 193 
 BAR2 EZ ES   1    5 9 54.48                             171   -0.53 7 23.3 193 
 BAR2 EZ I         5 9 57.00         5.5 0.28            171           23.3 193 
 BRR  HZ EP        5 9 41.10                             153    0.4310 72.2 298 
 BRR  HN ES        5 9 58.41                             153    0.7210 72.2 298 
 BRR  HZ I         510  3.33         4.4 0.24            151           72.2 298 
 PAM  SZ EP        5 9 41.98                             152    0.3310 76.9  39 
 PAM  SE ES        5 9 59.11                             152   -0.3210 76.9  39 
 PAM  SZ I         510  1.23         4.5 0.20            154           76.9  39 
 RUS  HZ EP        5 9 43.04                             145   -0.1010  100 177 
 RUS  HE ES   1    510  2.07                             145   -0.02 7  100 177 
 RUS  HZ I         510  3.74         1.3 0.16            148            100 177 
 PTB  HZ EP        5 9 46.16                             133   -0.21 9  149 259 
 PTB  HN ES        510  7.23                             133   -0.61 9  149 259 
 PTB  HZ I         510  9.36         3.7 0.26            133            149 259 
 OCA  HN ES   1    510 10.10                             131    0.00 7  161 353 
 OCA  HZ I         510 15.57         2.9 0.44            132            161 353 
 SPBC HZ EP        5 9 48.06                             130    0.23 9  164 219 
 SPBC HE ES        510 10.78                             130    0.34 9  164 219 
 SPBC HZ I         510 16.74         5.2 0.10            132            164 219 
 SML  HZ EP   1    5 9 55.46                             118   -0.41 6  244 335 
 SML  HE ES   1    510 24.19                             118   -0.56 6  244 335 
 SML  HZ I         510 30.79         5.3 0.18            120            244 335 
 CHI  HZ EP   1    5 9 56.91                             118    0.04 6  249 195 
 CHI  HE ES   1    510 26.13                             118   -0.40 6  249 195 
 CHI  HZ I         510 30.28         1.2 0.62            120            249 195 
 GUY2CHZ EP   4    510  4.20                             113    1.40 0  302 235 
 GUY2CHE ES   4    510 39.68                             113    2.59 0  302 235 
 GUY2CHZ I         510 46.33         1.5 0.10                           302 235 
                                                                                
