 2011 12 4 0433 23.2 L   6.791 -73.112144.0  RSN  5 0.2 1.3LRSN                1
 GAP=141        0.47       3.8     4.6  4.9 -0.1247E+01 -0.2382E+01  0.6244E+01E
 Epicentro: LOS SANTOS - SANTANDER                                             3
 ACTION:UPD 12-07-13 16:14 OP:ep   STATUS:               ID:20111204043323 L   I
 2011-12-04-0430-00M.COL___183                                                 6
 STAT SP IPHASW D HRMM SECON CODA AMPLIT PERI AZIMU VELO AIN AR TRES W  DIS CAZ7
 BAR2 SZ ES   3    433 56.85                             170   -0.94 2 23.3 200 
 GIR2 SZ EP        433 42.52                             167   -0.2210 33.1 344 
 GIR2 SZ ES   1    433 57.97                             167    0.01 7 33.1 344 
 BRR  HZ EP        433 44.25                             151   -0.1510 75.0 298 
 BRR  HN ES   1    434  1.24                             151    0.32 7 75.0 298 
 BRR  HZ I         434  3.36         5.1 0.12                          75.0 298 
 PAM  SZ EP        433 45.21                             151    0.0410 75.9  37 
 PAM  SN ES   1    434  2.40                             151    0.12 7 75.9  37 
 RUS  HZ EP        433 46.87                             144    0.1510 99.4 178 
 RUS  HN ES   2    434  4.96                             144   -0.08 5 99.4 178 
 RUS  HZ I         434  6.24         2.5 0.28                          99.4 178 
                                                                                
