 2014  2 4 0604 26.8 L   6.799 -73.119138.1  RSN 14 0.4 1.8LRSN                1
 GAP=140        0.79       2.8     3.9  6.0 -0.8512E+00  0.1114E+02  0.8634E+00E
 Epicentro: LOS SANTOS - SANTANDER                                             3
 ACTION:UPD 14-03-10 08:07 OP:ep   STATUS:               ID:20140204060426 L   I
 OLDACT:UP  14-02-04 13:54 OP:mh   STATUS:               ID:20140204060000     3
 OLDACT:UP  14-02-04 12:11 OP:mh   STATUS:               ID:20140204060000     3
 OLDACT:UP  14-02-04 12:11 OP:mh   STATUS:               ID:20140204060000     3
 OLDACT:REG 14-02-04 08:20 OP:mh   STATUS:               ID:20140204060000     3
 2014-02-04-0600-00M.COL___288                                                 6
 STAT SP IPHASW D HRMM SECON CODA AMPLIT PERI AZIMU VELO AIN AR TRES W  DIS CAZ7
 BAR2 SZ EP        6 4 45.16                             170   -0.3210 23.9 197 
 BAR2 SZ ES   1    6 4 59.76                             170   -0.33 7 23.9 197 
 BAR2 SZ I         6 5  1.87        15.8 0.18            160           23.9 197 
 PAM  SZ EP     C  6 4 48.87                             150    0.8110 75.6  38 
 PAM  SE ES   1    6 5  4.98                             150    0.31 7 75.6  38 
 PAM  SZ  AMP      6 5  6.17        27.7 0.17                          75.6  38 
 RUS  HZ EP   1    6 4 49.83                             142    0.08 7  100 178 
 RUS  HN ES   1    6 5  7.48                             142   -0.20 7  100 178 
 RUS  HZ I         6 5  9.54         6.2 0.41            129            100 178 
 PTB  HZ EP   2    6 4 53.17                             130   -0.22 5  151 259 
 PTB  HZ I         6 5 16.97         9.0 0.13            119            151 259 
 OCA  HZ EP   1    6 4 54.16                             128   -0.38 7  161 352 
 OCA  HN ES   1    6 5 15.73                             128   -0.47 7  161 352 
 OCA  HZ I         6 5 19.62         7.3 0.15            119            161 352 
 SPBC HZ EP   1    6 4 54.98                             127    0.12 7  165 220 
 ZAR  HZ EP   2    6 4 58.51                             120   -0.50 4  207 292 
 ZAR  HN ES        6 5 24.70                             120    0.53 8  207 292 
 NOR  HZ EP   1    6 5  2.54                             116    0.22 6  237 235 
 NOR  HN ES   2    6 5 29.89                             116   -0.16 4  237 235 
 NOR  HZ I         6 5 35.22         4.0 0.13            108            237 235 
 SML  HZ EP   1    6 5  2.29                             116   -0.83 6  245 335 
 SML  HN ES   1    6 5 31.07                             116   -0.41 6  245 335 
 SML  HZ I         6 5 34.00        10.3 0.08            108            245 335 
 CHI  HZ EP   1    6 5  4.14                             115    0.02 6  249 196 
 CHI  HN ES   2    6 5 32.76                             115   -0.50 4  249 196 
 CHI  HZ I         6 5 37.55         1.8 0.28            107            249 196 
 HEL  HZ EP   1    6 5  6.78                             113   -0.14 6  275 256 
 HEL  HE ES   1    6 5 38.67                             113    0.44 6  275 256 
 GUY2CHZ EP   2    6 5 10.57                             111    0.27 4  304 235 
 GUY2CHN ES   4    6 5 46.17                             111    1.92 0  304 235 
 GUY2CHZ I         6 5 53.48         2.9 0.57                           304 235 
 CBOC HZ EP   1    6 5 14.39                             108    0.70 5  336 252 
 CBOC HN ES        6 5 50.03                             108   -0.27 7  336 252 
 CBOC HZ I         6 5 54.97         1.0 0.16            102            336 252 
 PRA  HZ EP   1    6 5 19.93                             105   -0.26 4  393 210 
 PRA  HZ I         6 6  7.10         1.6 0.12            100            393 210 
                                                                                
