 2017  7 4 0208 25.0 L   6.682 -73.217148.6  RSN  5 0.3 1.2LRSN                1
 GAP=208        0.65       4.6     5.8  6.5 -0.4255E+01  0.1401E+02 -0.5604E+00E
 Epicentro: VILLANUEVA - SANTANDER                                             3
 ACTION:UPD 17-08-30 15:29 OP:rebc STATUS:               ID:20170704020825 L   I
 OLDACT:REG 17-07-04 12:29 OP:edw  STATUS:               ID:20170704020745     3
 2017-07-04-0208-00M.COL___371                                                 6
 STAT SP IPHASW D HRMM SECON CODA AMPLIT PERI AZIMU VELO AIN AR TRES W  DIS CAZ7
 BAR2 EZ ES        2 8 59.91                             176   -0.2610 10.6 159 
 BAR2 EZ I         2 9  0.62         7.8 0.30            176           10.6 159 
 BRR  HZ IP     C  2 8 46.47                             153    0.0110 72.1 311 
 BRR  HN ES        2 9  3.64                             153    0.4110 72.1 311 
 PTB  HZ EP        2 8 51.36                             135    0.07 9  138 264 
 PTB  HN ES        2 9 11.55                             135   -0.28 9  138 264 
 PTB  HZ I         2 9 14.90         1.0 0.18            134            138 264 
 SPBC HN ES        2 9 13.76                             133    0.16 9  148 220 
 ZAR  HN ES   2    2 9 22.16                             123   -0.55 4  202 296 
                                                                                
