 2012 10 4 0150 24.0 L   6.801 -73.128141.4  RSN 11 0.4 2.7LRSN                1
 GAP= 72        0.60       3.7     3.3  5.8  0.2288E+00  0.4744E+01  0.5342E+01E
 Epicentro: LOS SANTOS - SANTANDER                                             3
 ACTION:UPD 12-11-22 17:01 OP:ep   STATUS:               ID:20121004015024 L   I
 2012-10-04-0150-00M.COL___220                                                 6
 STAT SP IPHASW D HRMM SECON CODA AMPLIT PERI AZIMU VELO AIN AR TRES W  DIS CAZ7
 BAR2 SZ EP        150 42.92                             170   -0.1610 23.9 195 
 BAR2 SZ ES   2    150 57.47                             170   -0.52 5 23.9 195 
 BAR2 SZ I         150 58.97       160.8 0.25                          23.9 195 
 GIR2 SZ EP   1    150 42.85                             167   -0.27 7 31.5 347 
 BRR  HZ EP   1    150 44.71                             151   -0.03 7 72.9 298 
 BRR  HN ES   2    151  1.50                             151    0.56 5 72.9 298 
 BRR  HZ I         151  2.28        97.2 0.17                          72.9 298 
 PAM  SZ EP   1    150 45.73                             150    0.10 7 76.0  38 
 PAM  SN ES   2    151  2.44                             150   -0.09 5 76.0  38 
 PAM  SN I         151  3.02        58.3 0.33                          76.0  38 
 RUS  HZ EP   1    150 46.99                             143   -0.30 7  101 177 
 RUS  HN ES   2    151  6.08                             143    0.60 5  101 177 
 TAM  HZ EP   1    150 51.32                             130    0.20 7  153 105 
 TAM  HN ES   2    151 12.81                             130    0.51 5  153 105 
 TAM  HN I         151 13.80        46.7 0.34                           153 105 
 ZAR  HZ EP   1    150 56.85                             121    0.54 6  206 292 
 ZAR  HN ES   2    151 20.59                             121   -0.95 4  206 292 
 ZAR  HZ I         151 26.43        51.6 0.35                           206 292 
 NOR  SN ES   2    151 27.33                             117   -0.11 4  236 235 
 CHI  HZ EP   1    151  1.35                             116   -0.14 6  249 196 
 CHI  HN ES   2    151 30.64                             116   -0.13 4  249 196 
 CHI  HN I         151 33.52        70.4 0.23                           249 196 
 HEL  HZ EP   1    151  4.43                             114    0.26 6  274 256 
 HEL  HN ES   2    151 36.49                             114    0.95 4  274 256 
 HEL  HZ I         151 41.19        21.2 0.42                           274 256 
 PRA  HZ EP   1    151 17.04                             106   -0.42 4  393 210 
 PRA  HE ES   2    151 59.18                             106   -0.02 3  393 210 
 PRA  HZ I         152  3.71        19.4 0.29                           393 210 
                                                                                
