 2015  6 4 0327 20.8 L   6.817 -73.139136.5  RSN 19 0.5 2.1LRSN                1
 GAP=184        1.04       2.5     4.2  5.1 -0.1463E+01  0.7364E+01  0.1205E+01E
 Epicentro: LOS SANTOS - SANTANDER                                             3
 ACTION:UPD 15-09-10 22:09 OP:cam  STATUS:               ID:20150604032720 L   I
 OLDACT:REG 15-06-04 12:57 OP:ak   STATUS:               ID:20150604031748     3
 2015-06-04-0317-48M.COL___300                                                 6
 STAT SP IPHASW D HRMM SECON CODA AMPLIT PERI AZIMU VELO AIN AR TRES W  DIS CAZ7
 BAR2 EZ EP        327 39.54                             169    0.1910 25.3 191 
 BAR2 EZ ES        327 53.30                             169   -0.5310 25.3 191 
 BAR2 EZ I         327 55.49        22.6 0.32            167           25.3 191 
 BRR  HZ IP     C  327 41.33                             151    0.4010 70.9 297 
 BRR  HN ES        327 57.54                             151    0.9110 70.9 297 
 BRR  HZ I         328  1.52        18.2 0.34            149           70.9 297 
 RUS  HZ EP        327 44.01                             141    0.2310  102 177 
 RUS  HN ES        328  1.69                             141   -0.0210  102 177 
 RUS  HZ I         328  4.15        12.6 0.28            144            102 177 
 OCA  HZ EP        327 47.70                             128   -0.52 9  158 353 
 OCA  HN ES        328  9.06                             128   -0.56 9  158 353 
 OCA  HZ I         328 15.43        45.8 0.40            130            158 353 
 SPBC HZ EP        327 48.51                             126   -0.27 9  165 219 
 SPBC HN ES        328 10.57                             126   -0.05 9  165 219 
 SPBC HZ I         328 16.65        20.5 0.26            128            165 219 
 ZAR  HZ EP        327 52.83                             120    0.19 9  204 292 
 ZAR  HN ES        328 17.36                             120   -0.13 9  204 292 
 ZAR  HZ I         328 22.89        10.0 0.20            121            204 292 
 NOR  HZ EP        327 55.80                             116   -0.38 8  236 234 
 NOR  HZ IP        327 55.80                             116            236 234 
 NOR  HN ES        328 22.99                             116   -0.80 8  236 234 
 NOR  HZ I         328 27.45         7.7 0.16            118            236 234 
 SML  HZ EP        327 56.49                             116   -0.27 8  242 335 
 SML  HE ES        328 25.24                             116    0.43 8  242 335 
 SML  HZ I         328 28.83        18.0 0.10            118            242 335 
 CHI  HZ EP   1    327 58.15                             115   -0.07 6  251 195 
 CHI  HN ES   1    328 27.48                             115    0.07 6  251 195 
 CHI  HZ I         328 30.85         5.3 0.21            117            251 195 
 HEL  HZ EP        328  1.53                             113    0.85 8  273 255 
 HEL  HE ES        328 30.95                             113   -0.84 8  273 255 
 HEL  HZ I         328 38.67         7.5 0.56            114            273 255 
 GUY2CHZ EP        328  4.41                             110    0.23 7  303 235 
 GUY2CHN ES        328 38.57                             110    0.55 7  303 235 
 GUY2CHZ I         328 47.44         6.1 0.42                           303 235 
 RREF HZ EP   1    328  6.68                             109   -0.07 5  324 229 
 RREF HE ES        328 42.56                             109   -0.04 7  324 229 
 RREF HZ I         328 49.69         2.4 0.28            111            324 229 
 CBOC HZ EP        328  8.13                             108    0.64 7  335 252 
 CBOC HN ES        328 43.53                             108   -0.37 7  335 252 
 CBOC HZ I         328 45.06         2.2 0.18            109            335 252 
 TOL  SZ EP        328  9.46                             107    0.55 7  345 225 
 TOL  SN ES        328 47.20                             107    0.77 7  345 225 
 TOL  SZ I         328 53.35         4.9 0.24            109            345 225 
 MON  HZ EP   4    328  6.73                             107   -2.65 0  353 308 
 MON  HN ES   4    328 45.18                             107   -2.09 0  353 308 
 MON  HZ I         328 49.78         1.9 0.20            109            353 308 
 PRA  HZ EP        328 13.71                             105   -0.53 6  394 210 
 PRA  HN ES        328 55.66                             105   -0.27 6  394 210 
 PRA  HZ I         329  1.96         7.4 0.28            107            394 210 
 ORTC HZ EP        328 14.81                             105    0.17 6  397 216 
 ORTC HN ES        328 57.34                             105    0.70 6  397 216 
 ORTC HZ I         329  2.29         3.3 0.24            106            397 216 
 PAL  HZ EP        328 15.29                             104   -0.56 6  407 239 
 PAL  HN ES        328 57.98                             104   -0.81 6  407 239 
 PAL  HZ I         329  3.95         2.1 0.36            106            407 239 
 SJC  HZ EP   4    328 13.75                             104   -2.17 0  408 327 
 SJC  HN ES   4    328 55.16                             104   -3.76 0  408 327 
 SJC  HZ I         328 59.12         9.4 0.04            106            408 327 
                                                                                
