 2017  3 4 0557 52.3 L   6.742 -73.104149.4  RSN  7 0.3 1.3LRSN                1
 GAP=238        0.83       3.9     4.9  6.0  0.7140E+01  0.5348E+01  0.3294E+01E
 Epicentro: JORDAN - SANTANDER                                                 3
 ACTION:UPD 17-05-25 18:35 OP:jn   STATUS:               ID:20170304055752 L   I
 OLDACT:REG 17-03-04 12:28 OP:lv   STATUS:               ID:20170304053438     3
 2017-03-04-0548-00M.COL___397                                                 6
 STAT SP IPHASW D HRMM SECON CODA AMPLIT PERI AZIMU VELO AIN AR TRES W  DIS CAZ7
 BAR2 EZ EP        558 12.31                             173    0.0310 18.7 208 
 BAR2 EZ ES        558 27.55                             173   -0.3210 18.7 208 
 BAR2 EZ I         558 28.10         4.5 0.33            170           18.7 208 
 BRR  HZ EP        558 14.40                             151    0.1510 78.4 301 
 BRR  HE ES        558 31.72                             151    0.3510 78.4 301 
 BRR  HZ I         558 32.27         3.2 0.13            149           78.4 301 
 RUS  HZ EP        558 15.73                             146   -0.2210 94.0 179 
 RUS  HN ES        558 34.56                             146    0.1610 94.0 179 
 RUS  HZ I         558 36.25         1.1 0.38            146           94.0 179 
 PTB  HZ EP        558 19.27                             132   -0.61 9  151 262 
 PTB  HE ES        558 40.92                             132   -0.47 9  151 262 
 PTB  HZ I         558 42.89         2.4 0.10            131            151 262 
 SPBC HZ EP        558 21.38                             130    0.48 9  161 222 
 SPBC HN ES        558 43.42                             130    0.21 9  161 222 
 SPBC HZ I         558 46.15         2.7 0.11            129            161 222 
 ZAR  HZ EP   4    558 28.12                             122    2.44 0  211 293 
 ZAR  HN ES        558 51.95                             122    0.24 8  211 293 
 ZAR  HZ I         558 58.14         2.8 0.08            122            211 293 
 CHI  HN ES        558 58.89                             118    0.06 8  244 197 
                                                                                
