 2016 11 4 0717 50.7 L   6.740 -73.152152.0  RSN  6 0.4 1.1LRSN                1
 GAP=138        0.73       4.5     5.8  7.8 -0.6994E+01 -0.1406E+02  0.7652E+01E
 Epicentro: LOS SANTOS - SANTANDER                                             3
 ACTION:UPD 17-10-26 21:04 OP:lp   STATUS:               ID:20161104071750 L   I
 OLDACT:UP  16-11-04 16:09 OP:dani STATUS:               ID:20161104070645d    3
 OLDACT:UP  16-11-04 16:09 OP:dani STATUS:               ID:20161104070645d    3
 OLDACT:UP  16-11-04 16:09 OP:dani STATUS:               ID:20161104070645d    3
 OLDACT:DUP 16-11-04 16:06 OP:dani STATUS:               ID:20161104070645d    3
 OLDACT:UP  16-11-04 16:05 OP:dani STATUS:               ID:20161104070644     3
 OLDACT:UP  16-11-04 16:04 OP:dani STATUS:               ID:20161104070644     3
 OLDACT:UP  16-11-04 16:03 OP:dani STATUS:               ID:20161104070644     3
 OLDACT:UP  16-11-04 16:03 OP:dani STATUS:               ID:20161104070644     3
 OLDACT:UP  16-11-04 16:01 OP:dani STATUS:               ID:20161104070644     3
 OLDACT:UP  16-11-04 15:58 OP:dani STATUS:               ID:20161104070644     3
 OLDACT:REG 16-11-04 13:10 OP:dani STATUS:               ID:20161104070644     3
 2016-11-04-0707-00M.COL___343                                                 6
 STAT SP IPHASW D HRMM SECON CODA AMPLIT PERI AZIMU VELO AIN AR TRES W  DIS CAZ7
 BAR2 EZ EP        718 10.69                             173   -0.3010 16.7 191 
 BRR  HZ EP        718 12.85                             153    0.1510 74.0 303 
 BRR  HN ES        718 30.11                             153    0.2710 74.0 303 
 BRR  HZ I         718 32.27         2.6 0.28            152           74.0 303 
 PAM  EZ EP        718 13.87                             150   -0.0610 83.0  37 
 RUS  HZ EP        718 14.86                             147    0.2210 94.1 175 
 RUS  HN ES   2    718 32.99                             147   -0.31 5 94.1 175 
 RUS  HZ I         718 33.66         1.5 0.34            149           94.1 175 
 PTB  HZ EP        718 17.55                             134   -0.49 9  146 261 
 PTB  HN ES   3    718 37.78                             134   -1.56 2  146 261 
 PTB  HZ I         718 41.52         1.3 0.23            134            146 261 
 SPBC HZ EP        718 19.52                             132    0.33 9  158 220 
 SPBC HN ES        718 41.43                             132    0.03 9  158 220 
 SPBC HZ I         718 43.79         1.3 0.11            132            158 220 
                                                                                
