 2012  9 4 0138 39.0 L   6.815 -73.133144.6  RSN  9 0.4 1.8LRSN                1
 GAP=137        0.79       4.3     4.3  6.3 -0.1419E+01  0.8377E+01  0.1052E+01E
 Epicentro: LOS SANTOS - SANTANDER                                             3
 ACTION:UPD 12-10-22 14:17 OP:ep   STATUS:               ID:20120904013839 L   I
 2012-09-04-0137-35M.COL___207                                                 6
 STAT SP IPHASW D HRMM SECON CODA AMPLIT PERI AZIMU VELO AIN AR TRES W  DIS CAZ7
 BAR2 SZ EP   1    138 58.40                             170   -0.16 7 25.2 192 
 BAR2 SZ I         138 58.96        12.5 0.12                          25.2 192 
 BAR2 SZ ES   1    139 13.40                             170   -0.39 7 25.2 192 
 GIR2 SZ EP   1    138 58.49                             168   -0.03 7 29.9 347 
 GIR2 SZ ES   1    139 13.79                             168    0.06 7 29.9 347 
 BRR  HZ EP        139  0.19                             152    0.1210 71.6 297 
 BRR  HN ES   1    139 17.07                             152    0.58 7 71.6 297 
 BRR  HZ I         139 18.24        18.9 0.15                          71.6 297 
 PAM  SZ EP   1    139  1.31                             151    0.32 7 75.2  40 
 PAM  SZ I         139  1.61        18.9 0.22                          75.2  40 
 PAM  SN ES   1    139 17.96                             151   -0.16 7 75.2  40 
 RUS  HZ EP   1    139  2.61                             143   -0.17 7  102 177 
 RUS  HZ I         139  3.69         4.1 0.12                           102 177 
 RUS  HE ES   1    139 21.75                             143    0.45 7  102 177 
 PTB  HZ EP   1    139  5.25                             131   -0.80 7  149 258 
 PTB  HE ES   1    139 26.67                             131   -0.46 7  149 258 
 OCA  HN ES   2    139 28.22                             130   -0.79 5  159 353 
 ZAR  HZ EP   1    139 12.27                             122    0.81 6  205 292 
 ZAR  HZ I         139 14.82         5.8 0.32                           205 292 
 ZAR  HE ES   1    139 36.80                             122    0.04 6  205 292 
 NOR  SN ES   1    139 42.99                             118    0.09 6  237 234 
 NOR  SN I         139 44.63         7.6 0.16                           237 234 
                                                                                
