 2014 10 4 0516 58.1 L   6.784 -73.143143.7  RSN  8 0.3 1.6LRSN                1
 GAP= 99        0.71       3.3     2.7  4.2  0.1082E+01  0.1365E+01  0.9300E+00E
 Epicentro: LOS SANTOS - SANTANDER                                             3
 ACTION:UPD 14-11-29 23:46 OP:nd   STATUS:               ID:20141004051658 L   I
 OLDACT:DUP 14-10-04 19:13 OP:stll STATUS:               ID:20141004050750d    3
 2014-10-04-0507-49M.COL___286                                                 6
 STAT SP IPHASW D HRMM SECON CODA AMPLIT PERI AZIMU VELO AIN AR TRES W  DIS CAZ7
 BAR2 SZ EP        517 17.39                             171   -0.0710 21.7 192 
 BAR2 SZ ES        517 32.76                             171    0.2010 21.7 192 
 BAR2 SZ I         517 33.55        17.3 0.16            160           21.7 192 
 BRR  HZ EP        517 19.29                             152    0.1910 72.3 300 
 BRR  HN ES        517 35.88                             152    0.4010 72.3 300 
 BRR  HZ I         517 36.43         5.2 0.32            145           72.3 300 
 PAM  SZ EP        517 20.22                             150    0.0410 78.6  39 
 PAM  SZ I         517 20.48        15.1 0.20            152           78.6  39 
 PAM  SN ES        517 36.92                             150   -0.4810 78.6  39 
 RUS  HZ EP        517 21.56                             144    0.0210 98.8 176 
 RUS  HZ I         517 22.08         3.2 0.20            133           98.8 176 
 RUS  HN ES        517 39.75                             144   -0.0610 98.8 176 
 PTB  HZ EP        517 24.49                             132   -0.42 9  148 260 
 PTB  HE ES        517 45.70                             132   -0.11 9  148 260 
 PTB  HZ I         517 47.96         4.5 0.20            122            148 260 
 TAM  HZ EP        517 25.81                             130    0.25 9  154 104 
 SPBC HZ EP        517 26.19                             129   -0.15 9  162 219 
 SPBC HZ I         517 54.51         5.2 0.20            119            162 219 
 ZAR  HZ EP        517 30.97                             122    0.45 9  205 293 
 ZAR  HN ES        517 55.52                             122   -0.28 9  205 293 
 ZAR  HZ I         518  2.09         3.7 0.68            115            205 293 
                                                                                
