 2013  6 4 0227 38.3 L   6.766 -73.109150.1  RSN  5 0.4 1.9LRSN                1
 GAP=228        0.87       5.7     9.7 12.0 -0.1640E+02 -0.2218E+02  0.1314E+02E
 Epicentro: LOS SANTOS - SANTANDER                                             3
 ACTION:UPD 14-01-08 09:52 OP:ep   STATUS:               ID:20130604022738 L   I
 2013-06-04-0220-00M.COL___257                                                 6
 STAT SP IPHASW D HRMM SECON CODA AMPLIT PERI AZIMU VELO AIN AR TRES W  DIS CAZ7
 BAR2 SZ EP   1    227 57.93                             172   -0.47 7 20.8 203 
 BAR2 SZ I         228 16.85         4.7 0.18            159           20.8 203 
 BRR  HZ IP     D  228  0.56                             152    0.3410 76.6 300 
 BRR  HN ES   1    228 17.70                             152    0.38 7 76.6 300 
 BRR  HN I         228 20.40        19.3 0.16            169           76.6 300 
 PTB  HZ EP   1    228  5.45                             132   -0.47 7  151 261 
 PTB  HN ES   1    228 26.74                             132   -0.73 7  151 261 
 PTB  HN I         228 31.88        14.2 0.74            143            151 261 
 NOR  HZ EP   1    228 14.82                             119    0.41 6  236 236 
 NOR  HN ES   1    228 43.08                             119    0.51 6  236 236 
 NOR  HZ I         228 46.28         2.6 0.20            123            236 236 
 SML  HE ES        228 44.84                             118   -0.08 8  249 335 
 SML  HN I         228 50.41        12.2 0.10            122            249 335 
 GUY2CHN ES   4    228 59.31                             113    2.79 0  302 236 
                                                                                
