 2013  6 4 0025 46.7 L   6.818 -73.151143.9  RSN 18 0.4 3.3LRSN 3.5WRSN        1
 SPEC AVERAGE  MO 14.3 ST 12.7 OM  2.7 f0 3.22 R0.5356 AL 1.99 WI 30.8 MW  3.5 3
 SPEC SD       MO  0.3 ST 16.2 OM  0.4 f0 1.19 R0.1787 AL      WI      MW  0.2 3
 GAP=111        0.89       2.3     2.8  4.6  0.8564E+00  0.1271E+01  0.5531E+00E
 Epicentro: LOS SANTOS - SANTANDER                                             3
 SPEC RREFHH Z MO 14.3 ST 18.9 OM  2.4 f0 4.18 R0.3718 AL 3.15 WI 40.4 MW  3.5 3
 SPEC RREFHH Z T 027 4 K 0.000 GD  353 VS 4.20 DE 3.20 Q0300.0 QA 0.60 VS 4.20 3
 SPEC TAM HH N MO 14.2 ST  1.8 OM  2.5 f0 2.11 R0.7365 AL 2.09 WI 25.2 MW  3.4 3
 SPEC TAM HH N T 02630 K 0.000 GD  212 VS 4.20 DE 3.20 Q0300.0 QA 0.60 VS 4.20 3
 SPEC PTB HH N MO 14.3 ST 10.2 OM  2.6 f0 3.49 R0.4453 AL 1.16 WI 26.3 MW  3.5 3
 SPEC PTB HH N T 02632 K 0.000 GD  206 VS 4.20 DE 3.20 Q0300.0 QA 0.60 VS 4.20 3
 SPEC RUS HH N MO 14.0 ST  4.6 OM  2.4 f0 3.29 R0.4723 AL 1.85 WI 24.7 MW  3.3 3
 SPEC RUS HH N T 02626 K 0.000 GD  176 VS 4.20 DE 3.20 Q0300.0 QA 0.60 VS 4.20 3
 SPEC PRA HH N MO 14.4 ST  7.6 OM  2.4 f0 2.92 R0.5322 AL 1.69 WI 27.8 MW  3.6 3
 SPEC PRA HH N T 02719 K 0.000 GD  418 VS 4.20 DE 3.20 Q0300.0 QA 0.60 VS 4.20 3
 SPECGUY2CHH N MO 14.6 ST  1.5 OM  2.7 f0 1.43 R1.0872 AL 1.80 WI 41.0 MW  3.7 3
 SPECGUY2CHH N T 027 2 K 0.000 GD  334 VS 4.20 DE 3.20 Q0300.0 QA 0.60 VS 4.20 3
 SPEC HEL HH N MO 14.3 ST  4.5 OM  2.4 f0 2.71 R0.5734 AL 1.86 WI 29.5 MW  3.5 3
 SPEC HEL HH N T 02655 K 0.000 GD  307 VS 4.20 DE 3.20 Q0300.0 QA 0.60 VS 4.20 3
 SPEC NOR HH N MO 14.4 ST 59.1 OM  2.6 f0 5.70 R0.2726 AL 3.25 WI 42.0 MW  3.6 3
 SPEC NOR HH N T 02644 K 0.000 GD  275 VS 4.20 DE 3.20 Q0300.0 QA 0.60 VS 4.20 3
 SPEC OCA HH N MO 14.5 ST 10.8 OM  2.8 f0 3.02 R0.5146 AL 1.65 WI 29.5 MW  3.6 3
 SPEC OCA HH N T 02633 K 0.000 GD  213 VS 4.20 DE 3.20 Q0300.0 QA 0.60 VS 4.20 3
 SPEC ARGCHH N MO 14.2 ST  4.2 OM  2.2 f0 2.88 R0.5396 AL 2.14 WI 33.5 MW  3.4 3
 SPEC ARGCHH N T 02712 K 0.000 GD  384 VS 4.20 DE 3.20 Q0300.0 QA 0.60 VS 4.20 3
 SPEC COD HH N MO 14.2 ST0.895 OM  2.2 f0 1.73 R0.8983 AL 1.23 WI 41.3 MW  3.4 3
 SPEC COD HH N T 027 7 K 0.000 GD  374 VS 4.20 DE 3.20 Q0300.0 QA 0.60 VS 4.20 3
 SPEC CHI HH N MO 14.6 ST  4.2 OM  2.7 f0 2.16 R0.7194 AL 2.01 WI 30.6 MW  3.6 3
 SPEC CHI HH N T 02650 K 0.000 GD  288 VS 4.20 DE 3.20 Q0300.0 QA 0.60 VS 4.20 3
 SPEC BRR HH N MO 14.4 ST 35.6 OM  2.8 f0 4.95 R0.3139 AL 2.31 WI 23.5 MW  3.5 3
 SPEC BRR HH N T 02622 K 0.000 GD  159 VS 4.20 DE 3.20 Q0300.0 QA 0.60 VS 4.20 3
 SPEC BAR2SH Z MO 14.1 ST  2.7 OM  2.5 f0 2.71 R0.5734 AL 1.54 WI 25.6 MW  3.3 3
 SPEC BAR2SH Z T 02618 K 0.000 GD  146 VS 4.20 DE 3.20 Q0300.0 QA 0.60 VS 4.20 3
 ACTION:UPD 14-01-08 09:52 OP:ep   STATUS:               ID:20130604002546 L   I
 2013-06-04-0020-00M.COL___257                                                 6
 STAT SP IPHASW D HRMM SECON CODA AMPLIT PERI AZIMU VELO AIN AR TRES W  DIS CAZ7
 BAR2 SZ EP     C  026  6.36                             170    0.1910 25.2 188 
 BAR2 SZ ES   1    026 20.99                             170   -0.35 7 25.2 188 
 BAR2 SZ I         026 22.87       327.0 0.20            170           25.2 188 
 BRR  HZ IP     D  026  8.17                             153    0.5810 69.7 297 
 BRR  HN ES        026 24.58                             153    0.7110 69.7 297 
 BRR  HZ I         026 28.32       282.9 0.18            150           69.7 297 
 RUS  HZ EP     D  026 10.34                             143   -0.1010  103 176 
 RUS  HN ES        026 28.79                             143   -0.1610  103 176 
 RUS  HN I         026 30.37       248.6 0.42            145            103 176 
 PTB  HZ EP        026 12.75                             132   -0.78 9  148 258 
 PTB  HN ES   1    026 33.93                             132   -0.50 7  148 258 
 PTB  HZ I         026 41.19       192.8 0.44            131            148 258 
 TAM  HZ IP     D  026 14.80                             130    0.44 9  156 106 
 TAM  HN ES   1    026 34.95                             130   -0.96 7  156 106 
 TAM  HN I         026 37.13       318.0 0.36            133            156 106 
 OCA  HZ EP   1    026 14.47                             130   -0.23 7  158 353 
 OCA  HN ES        026 36.21                             130   -0.31 9  158 353 
 OCA  HN I         026 41.33       682.6 0.28            130            158 353 
 YOP  SZ EP     D  026 17.08                             125    0.24 9  181 153 
 YOP  SN ES   1    026 41.04                             125    0.71 7  181 153 
 YOP  SZ I         026 43.06        79.7 0.28            128            181 153 
 ZAR  HZ EP   1    026 19.03                             122    0.11 6  203 292 
 ZAR  HN ES        026 43.62                             122   -0.40 9  203 292 
 ZAR  HZ I         026 48.94       132.2 0.38            122            203 292 
 NOR  HZ EP   1    026 22.29                             118   -0.13 6  235 234 
 NOR  HN ES        026 50.27                             118    0.01 8  235 234 
 NOR  HN I         026 53.05       283.8 0.16            118            235 234 
 SML  HZ EP   1    026 22.79                             117   -0.23 6  242 335 
 SML  HN ES   4    026 50.09                             117   -1.24 0  242 335 
 SML  HN I         026 58.52       470.1 0.10            118            242 335 
 CHI  HZ EP        026 24.58                             116    0.06 8  250 195 
 CHI  HN ES        026 53.94                             116   -0.05 8  250 195 
 CHI  HZ I         026 58.82        81.2 0.32            117            250 195 
 HEL  HZ EP        026 26.97                             114    0.13 8  272 255 
 HEL  HN ES        026 58.32                             114    0.20 8  272 255 
 HEL  HN I         027  4.69       129.4 0.30            115            272 255 
 GUY2CHZ EP   1    026 30.33                             112    0.00 5  302 234 
 GUY2CHN ES   4    027  6.53                             112    2.20 0  302 234 
 GUY2CHN I         027 13.37       115.8 0.66                           302 234 
 VIL  SZ EP   1    026 30.36                             111    0.09 5  305 191 
 VIL  SN ES   1    027  3.80                             111   -0.43 5  305 191 
 VIL  SN I         027  9.92       370.7 0.58            112            305 191 
 RREF HZ EP        026 33.57                             110    0.68 7  323 229 
 RREF HN ES   4    027 11.63                             110    2.74 0  323 229 
 RREF HZ I         027 18.11       107.0 0.42            111            323 229 
 COD  HZ EP   1    026 34.27                             109   -0.52 5  346 355 
 COD  HE ES   2    027 11.74                             109   -0.54 3  346 355 
 COD  HE I         027 17.07        48.1 0.56            109            346 355 
 ARGC HZ EP        026 36.36                             108    0.29 6  357 340 
 ARGC HN ES   1    027 15.06                             108    0.50 5  357 340 
 ARGC HN I         027 23.67        65.8 0.44            109            357 340 
 PRA  HZ EP   1    026 39.59                             106   -0.76 4  393 209 
 PRA  HN ES   1    027 21.65                             106   -0.53 4  393 209 
 PRA  HN I         027 26.77        61.8 0.30            107            393 209 
 SMAR HZ EP   4    026 50.60                             102   -1.70 0  495 346 
 SMAR HE ES   4    027 39.41                             102   -4.04 0  495 346 
                                                                                
