 2013  4 4 0511 46.8 L   6.762 -73.191146.5  RSN  6 0.4 1.4LRSN                1
 GAP=173        0.80       6.0     5.8  6.9  0.1337E+02  0.1107E+02  0.8154E+01E
 Epicentro: VILLANUEVA - SANTANDER                                             3
 ACTION:UPD 13-05-22 14:35 OP:EP   STATUS:               ID:20130404051146 L   I
 2013-04-04-0510-00M.COL___245                                                 6
 STAT SP IPHASW D HRMM SECON CODA AMPLIT PERI AZIMU VELO AIN AR TRES W  DIS CAZ7
 BAR2 SZ EP        512  6.42                             172   -0.0210 18.8 177 
 BAR2 SZ ES   1    512 22.02                             172    0.26 7 18.8 177 
 BAR2 SZ I         512 23.78        11.0 0.28            172           18.8 177 
 GIR2 SZ EP   1    512  6.37                             166   -0.29 7 35.0 360 
 GIR2 SZ ES        512 21.75                             166   -0.4110 35.0 360 
 GIR2 SZ I         512 24.67         3.6 0.26            167           35.0 360 
 BRR  HZ EP     D  512  8.20                             153    0.2910 69.0 304 
 BRR  HN ES   1    512 24.77                             153    0.40 7 69.0 304 
 BRR  HZ I         512 27.38         4.4 0.34            154           69.0 304 
 RUS  HZ EP   1    512 10.42                             145    0.06 7 96.9 173 
 RUS  HE ES   1    512 29.07                             145    0.33 7 96.9 173 
 RUS  HZ I         512 30.00         2.6 0.26            148           96.9 173 
 PTB  HZ EP   1    512 13.03                             133   -0.28 7  142 260 
 PTB  HN ES   1    512 33.25                             133   -0.75 7  142 260 
 PTB  HZ I         512 36.40         2.7 0.30            135            142 260 
 ZAR  HN ES   1    512 44.62                             123    0.53 6  201 294 
                                                                                
