 2011  6 4 0803  5.8 L   6.814 -73.070148.0  RSN  4 0.3 1.3LRSN                1
 GAP=167        0.72       5.0     9.5  9.6 -0.8160E+01 -0.3188E+02  0.5520E+01E
 Epicentro: LOS SANTOS - SANTANDER                                             3
 ACTION:UP  11-07-14 19:03 OP:ep   STATUS:               ID:20110604080305 L   I
 2011-06-04-0800-00M.COL___122                                                 6
 STAT SP IPHASW D HRMM SECON CODA AMPLIT PERI AZIMU VELO SNR AR TRES W  DIS CAZ7
 BAR2 SZ EP   1    8 3 25.43                             169    -0.3 7   28 207 
 BAR2 SZ I         8 3 26.18         7.1 0.44                            28 207 
 BAR2 SZ ES   2    8 3 40.63                             169    -0.7 5   28 207 
 BRR  HZ EP   1    8 3 27.41                             151    -0.1 7   78 295 
 BRR  HE ES   1    8 3 44.74                             151     0.2 7   78 295 
 BRR  HZ I         8 3 48.14         3.4 0.43                            78 295 
 RUS  HZ EP   1    8 3 29.88                             144     0.1 7  102 181 
 RUS  HZ I         8 3 33.02         1.0 0.17                           102 181 
 RUS  HN ES   2    8 3 49.33                             144     0.7 5  102 181 
 GRA  SZ EP   1    8 3 30.96                             139     0.1 7  122  14 
 GRA  SZ ES   1    8 3 50.61                             139     0.1 7  122  14 
 GRA  SZ I         8 3 51.88         4.5 0.34                           122  14 
                                                                                
