 2011  7 4 0027  7.3 L   7.046 -73.342112.9  RSN 19 0.4 3.0LRSN                1
 GAP= 82        0.82       2.6     3.5  4.6 -0.3554E+01  0.5189E+01  0.1965E+01E
 Epicentro: BETULIA - SANTANDER                                                3
 ACTION:UPD 12-07-25 13:58 OP:epov STATUS:               ID:20110704002707 L   I
 2011-07-04-0026-05S.COL___140                                                 6
 STAT SP IPHASW D HRMM SECON CODA AMPLIT PERI AZIMU VELO AIN AR TRES W  DIS CAZ7
 BTL  SZ EP        027 22.99                             171    0.1210 16.3 150 
 GIR2 SZ EP        027 22.85                             171    0.1110 16.8  77 
 GIR2 SZ ES   1    027 34.33                             171   -0.42 7 16.8  77 
 BRR  HZ IP     D  027 23.17                             158   -0.1510 41.4 279 
 BRR  HN ES   1    027 35.57                             158   -0.22 7 41.4 279 
 BRR  HZ I         027 36.88       541.7 0.14                          41.4 279 
 SAN  SZ EP        027 24.66                             158    0.9710 43.0 136 
 BAR2 SZ EP        027 24.46                             153    0.2010 53.2 161 
 BAR2 SZ I         027 24.75       233.3 0.16                          53.2 161 
 BAR2 SZ ES   1    027 37.54                             153    0.08 7 53.2 161 
 PAM  SZ EP        027 26.14                             143   -0.0910 78.1  65 
 PAM  SN ES   1    027 41.07                             143    0.11 7 78.1  65 
 BRI  SZ EP   1    027 27.30                             137    0.13 7 95.5  39 
 BRI  SZ ES   1    027 42.11                             137   -0.52 7 95.5  39 
 BRI  SZ I         027 45.79       107.1 0.28                          95.5  39 
 GRA  SZ EP        027 28.53                             133    0.1210  110  33 
 GRA  SZ ES   1    027 44.81                             133   -0.03 7  110  33 
 GRA  SZ I         027 47.07       176.7 0.39                           110  33 
 RUS  HZ EP        027 30.30                             127   -0.4810  131 167 
 RUS  HN ES   1    027 48.93                             127   -0.13 7  131 167 
 OCA  SZ EP        027 30.26                             127   -0.2010  132   1 
 OCA  SZ ES   1    027 48.22                             127   -0.27 7  132   1 
 OCA  SZ I         027 49.32       250.2 0.14                           132   1 
 YOP  SZ EP   1    027 39.14                             113    0.12 6  213 151 
 NOR  SZ EP   1    027 41.00                             110   -0.47 6  235 226 
 NOR  SN ES        028  8.58                             110    0.48 8  235 226 
 HEL  HZ EP   1    027 44.83                             108    0.17 6  260 249 
 HEL  HN ES   1    028 14.69                             108    0.93 6  260 249 
 HEL  HZ I         028 18.88        44.6 0.31                           260 249 
 CHI  HZ EP   1    027 46.19                             107    0.20 6  271 189 
 CHI  HZ I         028 22.53        35.8 0.38                           271 189 
 DBB  SZ EP   1    027 50.75                             104   -0.26 5  317 270 
 RREF HZ EP   1    027 52.91                             104    0.27 5  325 223 
 RREF HN ES   1    028 27.12                             104   -0.85 5  325 223 
 RREF HZ I         028 35.18        41.7 0.37                           325 223 
 TOL  SZ EP   1    027 54.78                             102   -0.39 5  349 219 
 PRA  HZ EP   1    028  1.71                             100    0.08 4  406 205 
 PRA  HN ES   1    028 43.10                             100   -0.88 4  406 205 
 PRA  HZ I         028 52.19        73.1 0.22                           406 205 
 SJA  SZ EP   1    028  2.87                              99   -0.82 4  423 189 
                                                                                
