 2011 12 4 0122 41.0 L   6.769 -73.095148.7  RSN  6 0.2 1.7LRSN                1
 GAP=144        0.44       2.6     4.4  4.1  0.1799E+00 -0.1218E+01 -0.5027E-01E
 Epicentro: LOS SANTOS - SANTANDER                                             3
 ACTION:UPD 12-07-13 16:14 OP:ep   STATUS:               ID:20111204012241 L   I
 2011-12-04-0120-00M.COL___183                                                 6
 STAT SP IPHASW D HRMM SECON CODA AMPLIT PERI AZIMU VELO AIN AR TRES W  DIS CAZ7
 BAR2 SZ EP        123  0.82                             171   -0.1210 21.7 206 
 BAR2 SZ ES   1    123 16.38                             171   -0.13 7 21.7 206 
 BAR2 SZ I         123 17.57        10.5 0.36                          21.7 206 
 GIR2 SZ EP        123  1.32                             166    0.1810 36.0 342 
 PAM  SZ EP        123  3.55                             151    0.0710 76.8  35 
 PAM  SN ES   1    123 21.13                             151    0.10 7 76.8  35 
 BRR  HZ EP        123  2.79                             151   -0.0410 77.7 299 
 BRR  HZ I         123  2.92        16.5 0.16                          77.7 299 
 BRR  HE ES   1    123 20.08                             151    0.21 7 77.7 299 
 RUS  HZ EP        123  4.77                             145    0.0010 96.9 179 
 RUS  HE ES   1    123 23.27                             145   -0.05 7 96.9 179 
 RUS  HZ I         123 25.00         3.7 0.40                          96.9 179 
 OCA  SZ ES   2    123 31.76                             129   -0.73 5  164 351 
                                                                                
