 2016 10 4 0244 39.0 L   6.773 -73.145148.2  RSN  5 0.2 1.3LRSN                1
 GAP=138        0.66       4.3     4.1  5.2  0.3846E+01 -0.1241E+01 -0.3693E+01E
 Epicentro: LOS SANTOS - SANTANDER                                             3
 ACTION:UPD 16-11-09 19:16 OP:rebc STATUS:               ID:20161004023740 L   I
 OLDACT:UPD 16-10-04 12:58 OP:edw  STATUS:               ID:20161004023740 L   3
 2016-10-04-0238-00M.COL___369                                                 6
 STAT SP IPHASW D HRMM SECON CODA AMPLIT PERI AZIMU VELO AIN AR TRES W  DIS CAZ7
 BAR2 EZ ES        245 13.93                             172   -0.4610 20.4 192 
 BRR  HZ EP        245  0.57                             152    0.0510 72.7 301 
 BRR  HN ES        245 17.63                             152    0.3410 72.7 301 
 BRR  HZ I         245 20.16         4.1 0.15            151           72.7 301 
 PAM  EZ EP        245  1.63                             150   -0.0110 79.7  38 
 RUS  HZ EP        245  2.88                             145    0.0810 97.6 176 
 RUS  HE ES        245 21.61                             145    0.2610 97.6 176 
 RUS  HZ I         245 22.59         3.6 0.32            146           97.6 176 
 PTB  HZ EP        245  5.92                             133   -0.22 9  147 260 
 PTB  HN ES        245 27.23                             133   -0.07 9  147 260 
 PTB  HZ I         245 31.60         2.1 0.13            132            147 260 
                                                                                
