 2012  3 4 0707 38.7 L   6.740 -73.208159.8  RSN  4 0.2 1.6LRSN                1
 GAP=224        0.59       9.9     6.2  9.8  0.7519E+01 -0.1299E+02  0.2659E+02E
 ACTION:UP  12-03-31 23:16 OP:EP   STATUS:               ID:20120304070738 L   I
 2012-03-04-0700-00M.COL___191                                                 6
 STAT SP IPHASW D HRMM SECON CODA AMPLIT PERI AZIMU VELO SNR AR TRES W  DIS CAZ7
 BAR2 SZ EP   1    7 7 59.53                             174    -0.4 7   17 170 
 BAR2 SZ I         7 8 15.78         5.8 0.28                            17 170 
 BRR  HZ EP        7 8  1.32                             155     0.110   69 306 
 BRR  HZ I         7 8  1.64         9.2 0.13                            69 306 
 BRR  HN ES   1    7 8 19.01                             155     0.2 7   69 306 
 PTB  HZ EP   1    7 8  6.48                             137     0.3 7  140 261 
 PTB  HN ES   1    7 8 27.48                             137    -0.1 7  140 261 
 ZAR  HN ES   1    7 8 37.17                             126    -0.3 6  200 295 
                                                                                
