 2014  6 4 0532 13.1 L   6.787 -73.129145.1  RSN 15 0.4 2.1LRSN                1
 GAP=139        0.89       2.6     3.5  5.4 -0.1669E+01  0.6832E+01 -0.1007E+01E
 Epicentro: LOS SANTOS - SANTANDER                                             3
 OLDACT:REG 14-06-04 17:14 OP:fm   STATUS:               ID:20140604053140     3
 ACTION:UPD 14-07-01 22:50 OP:nd   STATUS:               ID:20140604053213 L   I
 OLDACT:UP  14-06-04 17:27 OP:fm   STATUS:               ID:20140604053140     3
 2014-06-04-0531-40M.COL___253                                                 6
 STAT SP IPHASW D HRMM SECON CODA AMPLIT PERI AZIMU VELO AIN AR TRES W  DIS CAZ7
 BAR2 SZ EP        532 32.57                             171   -0.0910 22.3 195 
 BAR2 SZ ES   1    532 47.37                             171   -0.53 7 22.3 195 
 BAR2 SZ I         532 48.84        36.8 0.42            171           22.3 195 
 PAM  SZ EP        532 35.57                             151    0.3010 77.3  38 
 PAM  SN ES        532 52.73                             151    0.1910 77.3  38 
 PAM  SZ I         532 54.00        45.5 0.58            147           77.3  38 
 RUS  HZ EP        532 36.69                             144   -0.0210 99.0 177 
 RUS  HN ES        532 55.29                             144    0.2010 99.0 177 
 RUS  SZ I         532 56.25        18.5 0.26            143           99.0 177 
 PTB  HZ EP        532 39.78                             132   -0.41 9  149 260 
 PTB  HN ES        533  1.54                             132    0.25 9  149 260 
 PTB  SZ I         533  4.49         9.6 0.16            127            149 260 
 OCA  HZ EP        532 41.25                             129   -0.30 9  162 353 
 OCA  HN ES   4    533  2.29                             129   -1.42 0  162 353 
 OCA  SZ I         533  8.90        16.1 0.30            124            162 353 
 SPBC HE ES   1    533  3.50                             129   -0.28 7  163 220 
 ZAR  HZ EP        532 45.72                             122   -0.05 8  206 292 
 ZAR  HN ES        533 11.62                             122    0.39 8  206 292 
 ZAR  SZ I         533 14.67        10.7 0.36            117            206 292 
 NOR  HZ EP   2    532 48.99                             118    0.09 4  235 235 
 NOR  HN ES        533 15.92                             118   -0.88 8  235 235 
 NOR  SZ I         533 18.08         6.3 0.14            115            235 235 
 SML  HZ EP        532 49.15                             117   -0.80 8  246 335 
 SML  HE ES        533 19.09                             117    0.42 8  246 335 
 SML  SZ I         533 24.09        20.7 0.08            113            246 335 
 CHI  HZ EP        532 50.56                             117   -0.14 8  248 196 
 CHI  HN ES        533 20.11                             117    0.11 8  248 196 
 CHI  SZ I         533 23.14         5.7 0.34            114            248 196 
 ROSC BN ES   4    533 25.20                             117    4.33 0  252 212 
 HEL  HZ EP   1    532 53.77                             114    0.29 6  274 256 
 HEL  HN ES   1    533 24.94                             114   -0.00 6  274 256 
 HEL  SZ I         533 32.72         3.4 0.22            111            274 256 
 GUY2CHZ EP   4    532 59.22                             112    2.43 0  302 235 
 GUY2CHN ES   4    533 33.91                             112    3.07 0  302 235 
 GUY2CSZ I         533 37.59         4.6 0.24                           302 235 
 PTGC HN ES   4    533 29.09                             112   -1.64 0  307 159 
 RREF HZ EP        532 59.38                             111    0.08 7  322 230 
 RREF HN ES   4    533 37.64                             111    2.33 0  322 230 
 RREF SZ I         533 44.28         4.4 1.00            108            322 230 
 TOL  SZ EP        533  2.39                             109    0.99 7  344 225 
 TOL  SN ES        533 39.64                             109    0.60 7  344 225 
 TOL  SZ I         533 47.44        13.4 0.92            106            344 225 
 SJC  HZ EP   4    533  7.44                             105   -1.50 0  411 327 
 SJC  SZ I         533 47.96        10.7 2.24            102            411 327 
 SJC  HN ES   4    533 48.73                             105   -3.73 0  411 327 
                                                                                
