 2013  7 4 0155 14.1 L   6.393 -73.663103.7  RSN 19 0.5 2.3LRSN                1
 GAP= 51        1.27       2.4     2.6  5.9 -0.1990E+01  0.2034E+01  0.9253E+00E
 Epicentro: SANTA HELENA DEL OPON - SANTANDER                                  3
 ACTION:UPD 13-08-12 10:35 OP:ep   STATUS:               ID:20130704015514 L   I
 OLDACT:DUP 13-07-04 08:30 OP:stll STATUS:               ID:20130704014850d    3
 2013-07-04-0148-49M.COL___229                                                 6
 STAT SP IPHASW D HRMM SECON CODA AMPLIT PERI AZIMU VELO AIN AR TRES W  DIS CAZ7
 BAR2 SZ EP        155 30.48                             149    0.1810 57.5  67 
 BAR2 SZ ES        155 43.41                             149    0.4810 57.5  67 
 BAR2 SZ I         155 44.39       112.1 0.14            146           57.5  67 
 BRR  HZ IP     C  155 31.48                             139   -0.0310 79.1 356 
 BRR  HN ES        155 45.45                             139    0.3610 79.1 356 
 BRR  HN I         155 51.94        44.4 0.16            133           79.1 356 
 RUS  HZ EP        155 32.37                             138   -0.2810 84.7 131 
 RUS  HE ES        155 46.75                             138   -0.3610 84.7 131 
 RUS  HE I         155 50.17        38.0 0.34            136           84.7 131 
 PTB  HZ EP   1    155 31.57                             136   -0.80 7 89.3 280 
 PTB  HN ES        155 45.67                             136   -0.9510 89.3 280 
 PTB  HN I         155 48.97        33.7 0.28            129           89.3 280 
 GIR2 SZ EP        155 32.90                             135    0.1410 91.8  34 
 PAM  SZ EP        155 38.70                             120   -0.10 9  149  45 
 PAM  SN ES        155 57.52                             120   -0.54 9  149  45 
 PAM  SN I         156  0.74        13.7 0.48            116            149  45 
 NOR  HZ EP        155 38.89                             117   -0.72 9  162 236 
 NOR  HE ES        155 59.13                             117   -0.37 9  162 236 
 NOR  HE I         156  4.03        42.9 0.24            114            162 236 
 ZAR  HZ EP        155 41.50                             115    0.04 9  180 313 
 ZAR  HE ES        156  2.61                             115   -0.18 9  180 313 
 ZAR  HE I         156  7.48        41.3 0.52            110            180 313 
 ROSC BZ EP        155 43.26                             114    0.53 9  187 203 
 ROSC BN ES        156  5.78                             114    0.72 9  187 203 
 CHI  HZ EP        155 43.35                             113   -0.38 9  195 182 
 CHI  HN ES        156  6.92                             113    0.09 9  195 182 
 CHI  HN I         156 11.13        14.0 0.24            110            195 182 
 TAM  HZ EP        155 44.34                             111   -0.26 8  207  89 
 TAM  HE ES        156  8.02                             111   -0.37 8  207  89 
 TAM  HE I         156  9.65        15.3 0.46            109            207  89 
 OCA  HZ EP        155 44.87                             111    0.07 8  208  10 
 OCA  HN ES        156  9.29                             111    0.55 8  208  10 
 OCA  HN I         156 15.32       107.4 0.24            108            208  10 
 HEL  HZ EP        155 45.44                             111    0.35 8  208 264 
 HEL  HE ES        156  9.42                             111    0.17 8  208 264 
 HEL  HE I         156 13.32        11.3 0.16            108            208 264 
 CAPV BZ IP     C  155 46.99                             109    0.61 8  221  42 
 CAPV BZ ES        156 12.86                             109    1.30 8  221  42 
 GUY2CHZ EP        155 47.70                             109    0.08 8  229 236 
 GUY2CHN ES        156 15.19                             109    1.43 8  229 236 
 RREF HZ EP        155 50.22                             107    0.02 8  249 229 
 RREF HN ES        156 18.33                             107   -0.03 8  249 229 
 RREF HZ I         156 24.84         5.9 0.34            105            249 229 
 SML  HN EP        155 50.94                             105   -0.92 8  270 350 
 SML  HE ES        156 21.34                             105    0.03 8  270 350 
 SML  HE I         156 27.22        25.9 0.10            103            270 350 
 PRA  HZ EP   1    155 58.23                             101   -0.33 5  326 205 
 PRA  HE ES        156 33.29                             101    0.06 7  326 205 
 PRA  HE I         156 40.80         8.0 0.40            101            326 205 
 SOCV BZ EP        156  3.29                              98   -1.01 6  374  56 
                                                                                
