 2014 12 4 0810 55.7 L   6.840 -73.155136.7  RSN  6 0.3 1.5LRSN                1
 GAP=144        0.73       4.9     4.6  7.3 -0.9816E+01  0.1960E+02 -0.1476E+02E
 Epicentro: LOS SANTOS - SANTANDER                                             3
 ACTION:UPD 15-02-10 17:00 OP:nd   STATUS:               ID:20141204081055 L   I
 OLDACT:DUP 14-12-04 15:43 OP:carl STATUS:               ID:20141204080742d    3
 2014-12-04-0807-41M.COL___300                                                 6
 STAT SP IPHASW D HRMM SECON CODA AMPLIT PERI AZIMU VELO AIN AR TRES W  DIS CAZ7
 BAR2 SZ ES        811 28.64                             168   -0.2110 27.6 186 
 BAR2 SZ I         811 29.66         7.8 0.32            172           27.6 186 
 BRR  HZ EP        811 15.64                             152   -0.0410 68.2 296 
 BRR  HN ES        811 31.62                             152    0.3510 68.2 296 
 BRR  HZ I         811 38.38         5.8 0.32            149           68.2 296 
 PAM  SN ES        811 33.47                             150    0.2610 74.7  42 
 PAM  SZ I         811 35.65         8.0 0.50            153           74.7  42 
 PTB  HE ES        811 42.08                             130   -0.29 9  148 257 
 OCA  HN ES        811 43.58                             128   -0.48 9  156 353 
 OCA  HZ I         811 46.71         3.5 0.18            130            156 353 
 ZAR  HZ EP        811 27.53                             121    0.26 9  201 291 
 ZAR  HN ES        811 52.07                             121    0.15 9  201 291 
 ZAR  HZ I         811 57.58         3.2 0.26            123            201 291 
                                                                                
