 2012 12 4 0826 23.2 L   6.852 -73.158146.2  RSN 11 0.4 1.7LRSN                1
 GAP=132        0.68       2.8     3.7  5.2 -0.3130E+00  0.8534E+01 -0.2111E-01E
 Epicentro: LOS SANTOS - SANTANDER                                             3
 ACTION:UPD 13-01-04 14:25 OP:ep   STATUS:               ID:20121204082623 L   I
 2012-12-04-0820-00M.COL___236                                                 6
 STAT SP IPHASW D HRMM SECON CODA AMPLIT PERI AZIMU VELO AIN AR TRES W  DIS CAZ7
 GIR2 SZ EP   1    826 42.99                             170    0.18 8 25.3 351 
 GIR2 SZ ES   1    826 57.74                             170   -0.33 8 25.3 351 
 GIR2 SZ I         826 58.67         8.0 0.34                          25.3 351 
 BAR2 SZ EP   1    826 43.17                             168    0.14 8 28.9 185 
 BAR2 SZ ES   1    826 58.38                             168   -0.10 8 28.9 185 
 BAR2 SZ I         826 59.86        13.6 0.20                          28.9 185 
 PAM  SZ EP   1    826 45.87                             152    0.58 8 73.9  43 
 PAM  SN ES   1    827  2.73                             152    0.24 8 73.9  43 
 PAM  SZ I         827  5.34         7.3 0.52                          73.9  43 
 RUS  HZ EP   1    826 47.37                             142   -0.08 8  106 176 
 RUS  HN ES   1    827  6.11                             142   -0.23 8  106 176 
 RUS  HZ I         827  7.40         3.9 0.36                           106 176 
 PTB  HZ EP        826 49.86                             132   -0.3610  148 257 
 PTB  HN ES   1    827 11.54                             132    0.27 7  148 257 
 PTB  HZ I         827 13.61        11.1 0.56                           148 257 
 OCA  HN ES   1    827 12.18                             131   -0.52 7  154 353 
 OCA  HZ I         827 16.98         4.6 0.24                           154 353 
 ZAR  HZ EP   1    826 55.96                             123    0.61 7  201 291 
 ZAR  HN ES   1    827 20.90                             123    0.49 7  201 291 
 ZAR  HZ I         827 26.68         7.5 0.42                           201 291 
 SML  HZ EP   1    826 59.03                             118   -0.22 6  238 335 
 SML  HN ES   1    827 27.25                             118   -0.09 6  238 335 
 SML  HZ I         827 37.04         5.1 0.24                           238 335 
 HEL  HN ES   1    827 35.14                             115    0.26 6  272 255 
 HEL  HZ I         827 42.20         3.9 0.30                           272 255 
 MON  HN ES   2    827 48.24                             109   -1.28 3  349 308 
 MON  HZ I         827 49.07         1.2 0.14                           349 308 
 PRA  HZ EP   1    827 16.99                             106   -0.29 5  396 209 
 PRA  HE ES   1    827 59.25                             106   -0.18 5  396 209 
 PRA  HZ I         828  6.66         2.3 0.30                           396 209 
                                                                                
