 2010  4 4 0319 25.2 L   6.582 -74.027 52.0  RSN  5 0.5 2.0LRSN                1
 GAP=135        1.07      15.1     6.8 39.0 -0.1964E+02  0.4571E+02  0.5103E+03E
 Epicentro: PUERTO PARRA - SANTANDER                                           3
 ACTION:UPD 10-08-24 09:57 OP:vdl  STATUS:               ID:20100404031925 L   I
 2010-04-04-0317-32S.COL___098                                                 6
 STAT SP IPHASW D HRMM SECON CODA AMPLIT PERI AZIMU VELO AIN AR TRES W  DIS CAZ7
 BRR  HZ IP        319 37.25                             124    -0.110   68  31 
 BRR  HZ I         319 37.59        90.2 0.10                            68  31 
 BRR  HE ES   1    319 47.34                             124     0.5 7   68  31 
 BAR2 SZ IP        319 40.14                             112    -0.410   93  89 
 HEL  HZ EP        319 49.83                             100    -0.3 9  172 255 
 HEL  HE ES   2    320  8.80                             100    -0.8 4  172 255 
 HEL  HZ I         320 10.26         7.1 0.26                           172 255 
 RREF BZ EP        319 59.20                              96     0.8 8  237 218 
 RREF BN ES   2    320 23.73                              96    -0.6 4  237 218 
 TOL  SZ EP        320  1.72                              96     0.4 8  263 213 
                                                                                
