 2016 12 4 0720 34.8 L   6.741 -73.299124.4  RSN  4 0.4 1.0LRSN                1
 GAP=190        0.66       8.7     8.6  6.8  0.3759E+02  0.3885E+02  0.1515E+02E
 Epicentro: ZAPATOCA - SANTANDER                                               3
 ACTION:UPD 17-01-11 20:12 OP:rebc STATUS:               ID:20161204072034 L   I
 OLDACT:UP  16-12-04 16:14 OP:dani STATUS:               ID:20161204071743d    3
 OLDACT:DUP 16-12-04 16:08 OP:dani STATUS:               ID:20161204071743d    3
 OLDACT:UP  16-12-04 16:07 OP:dani STATUS:               ID:20161204071742     3
 OLDACT:REG 16-12-04 12:50 OP:dani STATUS:               ID:20161204071742     3
 2016-12-04-0718-00M.COL___349                                                 6
 STAT SP IPHASW D HRMM SECON CODA AMPLIT PERI AZIMU VELO AIN AR TRES W  DIS CAZ7
 BAR2 EZ ES        721  5.14                             170    0.0510 20.9 142 
 BRR  HZ EP   2    720 52.28                             152   -0.79 5 61.0 312 
 BRR  HN ES        721  7.31                             152   -0.0010 61.0 312 
 BRR  HZ I         721  9.69         1.6 0.24            145           61.0 312 
 PTB  HZ EP        720 58.66                             131    0.2410  130 260 
 PTB  HN ES   2    721 16.17                             131   -0.66 5  130 260 
 PTB  HZ I         721 18.49         1.5 0.23            129            130 260 
 ZAR  HZ EP        721  4.52                             119   -0.06 9  191 296 
 ZAR  HN ES   2    721 28.42                             119    0.63 4  191 296 
 ZAR  HZ I         721 33.83         1.4 0.30            118            191 296 
                                                                                
