 2014  1 4 0508 35.0 L   6.815 -73.143144.2  RSN 27 0.6 2.7LRSN 3.2WRSN        1
 SPEC AVERAGE  MO 13.9 ST 30.4 OM  2.0 f0 5.64 R0.6454 AL 0.00 WI 20.0 MW  3.2 3
 SPEC SD       MO  0.4 ST 80.6 OM  0.4 f0 6.45 R0.4436 AL      WI      MW  0.3 3
 GAP= 53        1.31       2.6     3.1  5.0 -0.1569E+01  0.2579E+01  0.9051E+00E
 Epicentro: LOS SANTOS - SANTANDER                                             3
 SPEC BAR2SH Z MO 14.2 ST 16.8 OM  2.4 f0 5.39 R0.3570 AL-0.00 WI 20.0 MW  3.4 3
 SPEC BAR2SH Z T 5 9 7 K 0.050 GD  146 VS 5.20 DE 3.20 Q0750.0 QA 1.50 VS 5.20 3
 SPEC BRR HH Z MO 13.6 ST 34.7 OM  1.7 f0 11.4 R0.1688 AL-0.00 WI 20.0 MW  3.0 3
 SPEC BRR HH Z T 5 911 K 0.050 GD  160 VS 5.20 DE 3.20 Q0750.0 QA 1.50 VS 5.20 3
 SPEC PAM SH Z MO 13.7 ST  1.8 OM  1.8 f0 3.94 R0.4883 AL-0.00 WI 20.0 MW  3.1 3
 SPEC PAM SH Z T 5 913 K 0.050 GD  162 VS 5.20 DE 3.20 Q0750.0 QA 1.50 VS 5.20 3
 SPEC TAM HH Z MO 13.6 ST0.827 OM  1.6 f0 3.23 R0.5957 AL-0.00 WI 20.0 MW  3.0 3
 SPEC TAM HH Z T 5 922 K 0.050 GD  211 VS 5.20 DE 3.20 Q0750.0 QA 1.50 VS 5.20 3
 SPEC OCA HH Z MO 13.6 ST  7.6 OM  1.6 f0 6.74 R0.2855 AL-0.00 WI 20.0 MW  3.0 3
 SPEC OCA HH Z T 5 923 K 0.050 GD  214 VS 5.20 DE 3.20 Q0750.0 QA 1.50 VS 5.20 3
 SPEC SPBCHH Z MO 13.6 ST297.0 OM  1.6 f0 22.7 R0.0848 AL-0.00 WI 20.0 MW  3.0 3
 SPEC SPBCHH Z T 5 924 K 0.050 GD  219 VS 5.20 DE 3.20 Q0750.0 QA 1.50 VS 5.20 3
 SPEC SML HH Z MO 13.6 ST  2.6 OM  1.5 f0 4.65 R0.4138 AL-0.00 WI 20.0 MW  3.0 3
 SPEC SML HH Z T 5 937 K 0.050 GD  281 VS 5.20 DE 3.20 Q0750.0 QA 1.50 VS 5.20 3
 SPEC CHI HH Z MO 13.9 ST0.381 OM  1.8 f0 1.93 R0.9969 AL-0.00 WI 20.0 MW  3.2 3
 SPEC CHI HH Z T 5 940 K 0.050 GD  288 VS 5.20 DE 3.20 Q0750.0 QA 1.50 VS 5.20 3
 SPEC ROSCBH Z MO 14.3 ST0.257 OM  2.2 f0 1.24 R1.5516 AL-0.00 WI 20.0 MW  3.5 3
 SPEC ROSCBH Z T 5 940 K 0.050 GD  292 VS 5.20 DE 3.20 Q0750.0 QA 1.50 VS 5.20 3
 SPEC HEL HH Z MO 13.6 ST0.469 OM  1.4 f0 2.75 R0.6996 AL-0.00 WI 20.0 MW  3.0 3
 SPEC HEL HH Z T 5 944 K 0.050 GD  308 VS 5.20 DE 3.20 Q0750.0 QA 1.50 VS 5.20 3
 SPECGUY2CHH Z MO 13.7 ST  0.4 OM  1.5 f0 2.36 R 0.815 AL-0.00 WI 20.0 MW  3.1 3
 SPECGUY2CHH Z T 5 951 K 0.050 GD334.7 VS 5.20 DE 3.20 Q0750.0 QA 1.50 VS 5.20 3
 SPEC VIL SH Z MO 14.2 ST0.433 OM  2.0 f0 1.64 R1.1732 AL-0.00 WI 20.0 MW  3.4 3
 SPEC VIL SH Z T 5 950 K 0.050 GD  337 VS 5.20 DE 3.20 Q0750.0 QA 1.50 VS 5.20 3
 SPEC ANILHH Z MO 14.5 ST  1.6 OM  2.2 f0 2.07 R0.9295 AL-0.00 WI 20.0 MW  3.6 3
 SPEC ANILHH Z T 510 3 K 0.050 GD  386 VS 5.20 DE 3.20 Q0750.0 QA 1.50 VS 5.20 3
 OLDACT:DUP 14-01-04 13:14 OP:stll STATUS:               ID:20140104045812d    3
 ACTION:UPD 14-03-13 09:51 OP:ep   STATUS:               ID:20140104050835 L   I
 OLDACT:UP  14-01-04 13:35 OP:stll STATUS:               ID:20140104045812d    3
 2014-01-04-0458-10M.COL___234                                                 6
 STAT SP IPHASW D HRMM SECON CODA AMPLIT PERI AZIMU VELO AIN AR TRES W  DIS CAZ7
 BAR2 SZ IP     D  5 8 54.74                             170    0.2410 25.0 190 
 BAR2 SZ ES        5 9  9.12                             170   -0.5810 25.0 190 
 BAR2 SZ I         5 9 11.22       230.6 0.32            168           25.0 190 
 BRR  HZ IP     D  5 8 56.50                             152    0.5210 70.7 297 
 BRR  HN ES        5 9 13.25                             152    0.9310 70.7 297 
 BRR  SZ I         5 9 17.31        79.9 0.30            143           70.7 297 
 PAM  SZ IP     D  5 8 57.53                             151    0.5410 75.9  40 
 PAM  SN ES        5 9 14.53                             151    0.4110 75.9  40 
 PAM  SZ I         5 9 16.67        78.4 0.52            145           75.9  40 
 RUS  HZ IP     C  5 8 58.66                             143   -0.0810  102 176 
 RUS  HN ES        5 9 16.97                             143   -0.2710  102 176 
 RUS  SZ I         5 9 18.48        40.1 0.64            138            102 176 
 PTB  HZ EP        5 9  1.49                             132   -0.43 9  148 258 
 PTB  HN ES        5 9 22.09                             132   -0.82 9  148 258 
 PTB  SZ I         5 9 28.00        43.2 0.22            123            148 258 
 TAM  HZ IP     C  5 9  3.18                             130    0.59 9  155 106 
 TAM  HN ES        5 9 24.31                             130    0.22 9  155 106 
 TAM  SZ I         5 9 34.39        21.2 1.06            125            155 106 
 OCA  HZ EP        5 9  2.69                             130   -0.38 9  159 353 
 OCA  HN ES        5 9 25.12                             130    0.18 9  159 353 
 OCA  SZ I         5 9 30.17        35.7 0.18            121            159 353 
 SPBC HZ EP        5 9  3.67                             128    0.12 9  165 219 
 SPBC HN ES        5 9 25.79                             128   -0.00 9  165 219 
 SPBC SZ I         5 9 30.26        58.8 0.26            121            165 219 
 ZAR  HN EP        5 9  7.72                             122    0.38 9  204 292 
 ZAR  HE ES        5 9 32.36                             122   -0.18 9  204 292 
 ZAR  HN I         5 9 38.51        99.3 0.42            114            204 292 
 NOR  HZ IP     C  5 9 10.92                             118    0.12 8  236 234 
 NOR  HE ES        5 9 38.26                             118   -0.44 8  236 234 
 NOR  SZ I         5 9 44.21        22.7 0.18            111            236 234 
 SML  HZ EP        5 9 10.80                             117   -0.62 8  242 335 
 SML  HE ES        5 9 39.45                             117   -0.35 8  242 335 
 SML  SZ I         5 9 46.16        50.6 0.08            110            242 335 
 CHI  HZ EP        5 9 12.79                             117   -0.03 8  250 195 
 CHI  HN ES        5 9 41.94                             117   -0.36 8  250 195 
 CHI  SZ I         5 9 45.42        32.0 0.42            110            250 195 
 ROSC BZ EP        5 9 14.71                             116    1.48 8  254 211 
 ROSC BN ES        5 9 42.14                             116   -0.89 8  254 211 
 ROSC SZ I         5 9 48.59        54.5 0.50            110            254 211 
 HEL  HZ EP        5 9 16.30                             114    1.06 8  273 255 
 HEL  HE ES        5 9 46.00                             114   -0.60 8  273 255 
 HEL  SZ I         5 9 53.17        16.9 0.70            108            273 255 
 URE  HZ EP        5 9 15.31                             113   -0.68 7  284 292 
 URE  SZ I         5 9 52.45        19.4 0.36            106            284 292 
 SOCV BZ IP     D  5 9 17.14                             112   -0.73 7  300  57 
 GUY2CHZ EP        5 9 18.97                             112    0.27 7  302 235 
 GUY2CHN ES        5 9 53.18                             112    0.42 7  302 235 
 GUY2CSZ I         5 9 59.09        21.5 0.88                           302 235 
 VIL  SZ EP        5 9 18.27                             112   -0.29 7  305 192 
 VIL  SE ES        5 9 51.93                             112   -0.59 7  305 192 
 VIL  SZ I         5 9 58.08        47.1 0.44            106            305 192 
 PTGC HZ IP     C  5 9 17.86                             111   -1.11 7  310 159 
 PTGC HE ES   4    5 9 50.74                             111   -2.51 0  310 159 
 PTGC SZ I         5 9 52.66        18.6 0.26            106            310 159 
 RREF HN ES        5 9 57.72                             110    0.42 7  323 229 
 CBOC HZ EP        5 9 22.86                             110    0.89 7  334 252 
 CBOC SZ I         510  8.50         6.0 1.32            103            334 252 
 DBB  SZ EP        5 9 22.02                             109   -0.44 7  340 274 
 DBB  SZ I         510  0.05        20.1 0.48            103            340 274 
 TOL  SZ EP        5 9 23.72                             109    0.34 7  345 224 
 TOL  SZ I         510  8.25        14.2 0.45            103            345 224 
 COD  HZ EP        5 9 22.58                             109   -0.58 6  347 355 
 COD  HN ES        510  0.18                             109   -0.52 6  347 355 
 COD  SZ I         510 10.79        13.0 0.64            103            347 355 
 SDV  BZ EP        5 9 24.35                             108   -0.51 6  359  50 
 ANIL HZ EP        5 9 26.19                             108    1.26 6  359 224 
 ANIL HE ES        510  4.64                             108    0.78 6  359 224 
 ANIL SZ I         510 14.69        61.8 0.30            102            359 224 
 ORTC HZ EP        5 9 29.27                             106    0.20 6  397 216 
 ORTC HN ES        510 10.19                             106   -1.03 6  397 216 
 ORTC SZ I         510 15.85        15.3 0.54            101            397 216 
 ORTC HZ I         510 16.15        15.3 0.28                           397 216 
                                                                                
