 2011  7 4 0203 49.4 L   6.738 -73.088141.0  RSN  4 0.3 1.4LRSN                1
 GAP=166        0.72       4.7     8.6  7.9 -0.2396E+01 -0.1439E+02 -0.2817E+01E
 Epicentro: JORDAN - SANTANDER                                                 3
 ACTION:UPD 12-07-25 13:58 OP:epov STATUS:               ID:20110704020349 L   I
 2011-07-04-0201-09S.COL___139                                                 6
 STAT SP IPHASW D HRMM SECON CODA AMPLIT PERI AZIMU VELO AIN AR TRES W  DIS CAZ7
 BAR2 SZ EP   1    2 4  8.06                             172   -0.27 7 19.2 213 
 BAR2 SZ ES   1    2 4 22.85                             172   -0.28 7 19.2 213 
 BAR2 SZ I         2 4 24.80         6.2 0.36                          19.2 213 
 BRR  HZ EP        2 4 10.30                             149   -0.2310 80.2 301 
 BRR  HZ I         2 4 10.68        12.5 0.16                          80.2 301 
 BRR  HN ES   1    2 4 27.37                             149    0.32 7 80.2 301 
 RUS  HZ EP   1    2 4 12.79                             145    0.67 7 93.5 180 
 RUS  HN ES   2    2 4 29.79                             145   -0.09 5 93.5 180 
 RUS  HZ I         2 4 32.37         2.2 0.22                          93.5 180 
 GRA  SZ EP   1    2 4 14.29                             135   -0.30 7  131  14 
 GRA  SZ I         2 4 15.46         3.6 0.29                           131  14 
 GRA  SZ ES   1    2 4 34.59                             135    0.31 7  131  14 
                                                                                
