 2017  4 4 0938 17.1 L   6.807 -73.161148.6  RSN 16 0.4 2.1LRSN                1
 GAP=118        0.91       2.7     3.2  4.6 -0.6261E+00  0.3775E+01  0.8818E+00E
 Epicentro: LOS SANTOS - SANTANDER                                             3
 ACTION:UPD 17-05-30 21:08 OP:jn   STATUS:               ID:20170404093817 L   I
 OLDACT:UP  17-04-04 17:56 OP:and  STATUS:               ID:20170404093741     3
 OLDACT:UP  17-04-04 17:56 OP:and  STATUS:               ID:20170404093741     3
 OLDACT:UP  17-04-04 17:55 OP:and  STATUS:               ID:20170404093741     3
 OLDACT:UP  17-04-04 17:54 OP:and  STATUS:               ID:20170404093741     3
 OLDACT:UP  17-04-04 17:53 OP:and  STATUS:               ID:20170404093741     3
 OLDACT:UP  17-04-04 17:47 OP:and  STATUS:               ID:20170404093741     3
 OLDACT:REG 17-04-04 12:45 OP:and  STATUS:               ID:20170404093741     3
 2017-04-04-0938-00M.COL___359                                                 6
 STAT SP IPHASW D HRMM SECON CODA AMPLIT PERI AZIMU VELO AIN AR TRES W  DIS CAZ7
 BAR2 EZ EP        938 37.00                             170   -0.0710 23.8 186 
 BAR2 EZ ES        938 52.49                             170   -0.1610 23.8 186 
 BAR2 EZ I         938 53.68        50.2 0.20            168           23.8 186 
 BRR  HZ IP     C  938 38.84                             153    0.4010 69.4 299 
 BRR  HN ES        938 55.93                             153    0.8310 69.4 299 
 BRR  HZ I         938 59.90        25.9 0.32            144           69.4 299 
 PAM  EZ EP        938 39.85                             151    0.2210 77.9  41 
 PAM  EN ES        938 56.84                             151   -0.3810 77.9  41 
 PAM  EZ I         938 59.29        19.0 0.46            149           77.9  41 
 RUS  HZ EP        938 41.22                             144    0.0410  101 175 
 RUS  HN ES        938 59.47                             144   -0.5010  101 175 
 RUS  HZ I         939  1.14        25.5 0.26            142            101 175 
 PTB  HZ EP        938 44.09                             133   -0.06 9  146 258 
 PTB  HN ES        939  4.61                             133   -0.65 9  146 258 
 PTB  HZ I         939 11.46         8.7 0.14            126            146 258 
 SPBC HZ EP        938 45.99                             130    0.23 9  163 218 
 SPBC HN ES        939  8.21                             130    0.09 9  163 218 
 SPBC HZ I         939 12.88        20.5 0.20            125            163 218 
 ZAR  HZ EP        938 49.56                             123    0.03 9  202 292 
 ZAR  HN ES        939 14.90                             123    0.07 9  202 292 
 ZAR  HZ I         939 20.43        18.8 0.42            117            202 292 
 NOR  HZ EP        938 53.24                             119    0.36 8  234 234 
 NOR  HN ES        939 20.52                             119   -0.28 8  234 234 
 NOR  HZ I         939 30.37         6.1 0.16            114            234 234 
 CHI  HZ EP        938 55.36                             117    0.39 8  249 195 
 CHI  HN ES        939 24.36                             117   -0.16 8  249 195 
 CHI  HZ I         939 28.03         8.6 0.62            114            249 195 
 ROSC BZ EP   9    938 57.81                             117    2.47 0  253 211 
 ROSC BE ES        939 28.05                             117    0.41 8  253 211 
 ROSC BZ I         939 31.71        20.1 0.40            113            253 211 
 HEL  HN ES        939 28.83                             115    0.19 8  271 256 
 HEL  HZ I         939 36.33         3.8 0.24            111            271 256 
 URE  HZ EP   2    938 57.31                             114   -0.78 4  282 292 
 URE  HZ I         939 38.44        10.1 0.26            109            282 292 
 PTGC HZ EP   9    939  0.09                             112   -1.13 0  310 158 
 PTGC HN ES        939 33.85                             112   -0.66 7  310 158 
 CBOC HZ EP   9    939  5.37                             110    1.41 0  332 252 
 CBOC HE ES        939 41.83                             110   -0.10 7  332 252 
 CBOC HZ I         939 47.22         1.9 0.38            106            332 252 
 PRA  HZ EP        939 10.84                             107    0.16 6  392 209 
 PRA  HN ES        939 52.67                             107    0.18 6  392 209 
 PRA  HZ I         939 59.34         8.5 0.30            104            392 209 
 SJC  HZ EP   2    939 11.19                             106   -1.37 3  408 327 
 SJC  HE ES        939 54.84                             106   -0.99 6  408 327 
 SJC  HZ I         940  0.19         3.4 0.44            103            408 327 
                                                                                
