 2010  8 4 0341 59.3 L   6.787 -73.080146.5  RSN  6 0.2 1.4LRSN                1
 GAP=166        0.53       2.9     6.1  4.7 -0.1678E+01 -0.9093E+01 -0.2876E+01E
 Epicentro: LOS SANTOS - SANTANDER                                             3
 ACTION:UP  10-09-07 10:52 OP:vdl  STATUS:               ID:20100804034159 L   I
 2010-08-04-0341-28S.COL___126                                                 6
 STAT SP IPHASW D HRMM SECON CODA AMPLIT PERI AZIMU VELO SNR AR TRES W  DIS CAZ7
 BAR2 SZ EP        342 18.94                             170    -0.110   24 208 
 BAR2 SZ ES   1    342 34.05                             170    -0.4 7   24 208 
 BAR2 SZ I         342 35.73        10.0 0.13                            24 208 
 BTL  SZ EP   1    342 19.32                             168     0.2 7   25 305 
 BTL  SZ ES   1    342 34.84                             168     0.3 7   25 305 
 BRR  HZ EP        342 20.82                             149    -0.210   78 297 
 BRR  HN ES   1    342 37.94                             149     0.1 7   78 297 
 RUS  HZ EP   1    342 23.13                             144     0.1 7   99 180 
 RUS  HN ES   1    342 41.67                             144     0.1 7   99 180 
 RUS  HZ I         342 42.80         1.9 0.23                            99 180 
 GUE  SZ EP        342 24.07                             139    -0.110  117   8 
 GRA  SZ EP        342 24.76                             136     0.210  125  14 
 GRA  SZ ES   1    342 44.19                             136    -0.1 7  125  14 
 GRA  SZ I         342 45.65         3.1 0.29                           125  14 
                                                                                
