 2017  7 4 0654 37.1 L   6.736 -73.140144.3  RSN  7 0.6 1.3LRSN                1
 GAP=229        1.12       7.8     7.1  8.5  0.9294E+00  0.1724E+02  0.4568E+00E
 Epicentro: LOS SANTOS - SANTANDER                                             3
 ACTION:UPD 17-08-30 15:29 OP:rebc STATUS:               ID:20170704065437 L   I
 OLDACT:DUP 17-07-04 16:14 OP:edw  STATUS:               ID:20170704064529d    3
 2017-07-04-0648-00M.COL___371                                                 6
 STAT SP IPHASW D HRMM SECON CODA AMPLIT PERI AZIMU VELO AIN AR TRES W  DIS CAZ7
 BAR2 EZ EP        654 56.34                             173   -0.1110 16.6 196 
 BAR2 EZ I         655 11.36         3.8 0.52            172           16.6 196 
 BAR2 HN ES        655 11.40                             173   -0.1410 16.6 196 
 BRR  HZ EP     D  654 58.28                             151   -0.0710 75.3 303 
 BRR  HN ES        655 15.46                             151    0.5510 75.3 303 
 BRR  HZ I         655 17.14         2.8 0.24            153           75.3 303 
 PTB  HZ EP        655  3.95                             132    0.04 9  147 262 
 PTB  HN ES        655 23.82                             132   -0.99 9  147 262 
 PTB  HZ I         655 26.62         1.6 0.16            133            147 262 
 SPBC HZ EP   2    655  5.64                             130    0.61 5  158 221 
 ZAR  HZ EP        655 10.12                             121    0.31 8  207 294 
 ZAR  HN ES        655 35.46                             121    0.15 8  207 294 
 ZAR  HZ I         655 41.42         3.0 0.58            121            207 294 
 NOR  HN ES        655 40.36                             119    0.47 8  231 236 
 SJC  HZ EP   2    655 31.04                             105   -2.32 3  415 327 
                                                                                
