 2010  6 4 0202 27.1 L   6.416 -73.635107.6  RSN 10 0.4 2.1LRSN                1
 GAP=114        0.79       4.2     6.6  8.6 -0.1911E+02  0.2864E+02 -0.1277E+02E
 Epicentro: SANTA HELENA DEL OPON - SANTANDER                                  3
 ACTION:UP  10-08-24 10:08 OP:vdl  STATUS:               ID:20100604020227 L   I
 2010-06-04-0158-36S.COL___109                                                 6
 STAT SP IPHASW D HRMM SECON CODA AMPLIT PERI AZIMU VELO SNR AR TRES W  DIS CAZ7
 BAR2 SZ IP        2 2 43.27                             152    -0.210   54  69 
 BAR2 SZ ES   1    2 2 56.10                             152    -0.1 7   54  69 
 GIR2 SZ EP   2    2 2 45.74                             138     0.0 5   88  34 
 GUE  SZ IP        2 2 54.22                             117    -0.3 9  175  27 
 GUE  SZ ES   1    2 3 15.60                             117    -0.3 7  175  27 
 GRA  SZ EP   1    2 2 55.60                             115     0.0 7  187  29 
 GRA  SZ ES   1    2 3 18.30                             115     0.5 7  187  29 
 ROSC BZ EP   1    2 2 56.80                             115     0.5 7  190 204 
 ROSC BN ES   2    2 3 19.66                             115     0.6 4  190 204 
 ROSC BZ I         2 3 23.69         9.2 0.43                           190 204 
 CHI  HZ I         2 2 56.90        11.5 0.11                           198 183 
 CHI  HE ES   2    2 3 20.50                             114    -0.2 4  198 183 
 OCA  SZ IP        2 2 57.58                             113     0.0 9  205  10 
 OCA  SZ ES   1    2 3 22.36                             113     0.9 6  205  10 
 OCA  SZ I         2 3 27.95        28.1 0.17                           205  10 
 HEL  HZ EP   2    2 2 57.91                             112    -0.7 4  211 263 
 HEL  HE ES   2    2 3 22.59                             112    -0.6 4  211 263 
 HEL  HZ I         2 3 25.07        15.0 0.58                           211 263 
 RREF BZ EP   2    2 3  3.60                             108    -0.2 4  253 229 
 RREF BN ES   2    2 3 32.96                             108     0.6 4  253 229 
 RREF BZ I         2 3 38.39         9.1 0.21                           253 229 
 SDV  BZ EP   1    2 3 23.91                              97    -0.3 4  429  50 
 SDV  BZ I         2 4 10.04         3.8 0.41                           429  50 
                                                                                
