 2015  4 4 0238 16.9 L   6.805 -73.157138.0  RSN 11 0.4 2.0LRSN                1
 GAP=135        1.00       3.6     4.1  5.4 -0.4960E+01  0.6606E+01  0.6836E+00E
 Epicentro: LOS SANTOS - SANTANDER                                             3
 ACTION:UPD 15-06-03 16:52 OP:cam  STATUS:               ID:20150404023816 L   I
 OLDACT:UP  15-04-04 15:23 OP:mh   STATUS:               ID:20150404023748     3
 OLDACT:UP  15-04-04 15:23 OP:mh   STATUS:               ID:20150404023748     3
 OLDACT:REG 15-04-04 13:19 OP:mh   STATUS:               ID:20150404023748     3
 2015-04-04-0237-48M.COL___279                                                 6
 STAT SP IPHASW D HRMM SECON CODA AMPLIT PERI AZIMU VELO AIN AR TRES W  DIS CAZ7
 BAR2 EZ EP        238 35.56                             170   -0.0510 23.7 187 
 BAR2 EZ ES        238 49.83                             170   -0.3710 23.7 187 
 BAR2 EZ I         238 52.95        22.6 0.42            167           23.7 187 
 BRR  HZ EP        238 37.68                             152    0.5410 69.8 299 
 BRR  HN ES        238 53.26                             152    0.3410 69.8 299 
 BRR  HZ I         238 56.36        11.2 0.26            150           69.8 299 
 PAM  SZ EP        238 38.42                             149    0.1010 77.8  41 
 PAM  SN ES        238 55.57                             149    0.5510 77.8  41 
 PAM  SZ I         238 57.76        13.1 0.60            155           77.8  41 
 RUS  HZ EP        238 39.71                             142   -0.2410  101 175 
 RUS  HN ES        238 57.88                             142   -0.0410  101 175 
 RUS  HZ I         238 59.47         8.4 0.28            143            101 175 
 PTB  HZ EP        238 42.34                             131   -0.80 9  147 259 
 PTB  HN ES        239  3.25                             131   -0.36 9  147 259 
 PTB  HZ I         239  7.99        11.8 0.12            130            147 259 
 OCA  HZ EP        238 43.99                             128   -0.56 9  160 354 
 OCA  HN ES   1    239  5.87                             128   -0.25 7  160 354 
 OCA  HZ I         239  9.60        22.4 0.22            131            160 354 
 SPBC HZ EP        238 44.66                             127   -0.12 9  163 219 
 SPBC HN ES        239  6.60                             127    0.07 9  163 219 
 SPBC HZ I         239 13.31        15.5 0.10            128            163 219 
 NOR  HZ EP        238 51.83                             117   -0.29 8  234 234 
 NOR  HE ES        239 20.15                             117    0.57 8  234 234 
 NOR  HZ I         239 23.93        11.8 0.16            118            234 234 
 ROSC BZ EP   2    238 55.33                             115    0.74 4  253 211 
 ROSC BN ES   4    239 26.77                             115    2.78 0  253 211 
 ROSC BZ I         239 31.20        10.0 0.30            116            253 211 
 HEL  HZ EP        238 56.53                             113   -0.08 8  271 256 
 HEL  HN ES        239 27.88                             113    0.30 8  271 256 
 HEL  HZ I         239 34.33         4.2 0.24            114            271 256 
 TOL  SZ EP        239  5.68                             108    0.88 7  343 224 
 TOL  SN ES   4    239 45.51                             108    3.35 0  343 224 
 TOL  SZ I         239 52.19         4.8 0.60            109            343 224 
                                                                                
