 2015  4 4 0055 39.3 L   5.951 -73.776106.2  RSN  5 0.3 1.0LRSN                1
 GAP=156        0.80       4.2     3.4  8.9 -0.4945E+01  0.4495E+01  0.1964E+01E
 Epicentro: SUCRE - SANTANDER                                                  3
 ACTION:UPD 15-06-03 16:52 OP:cam  STATUS:               ID:20150404005539 L   I
 OLDACT:UP  15-04-04 14:16 OP:mh   STATUS:               ID:20150404004750     3
 OLDACT:REG 15-04-04 13:16 OP:mh   STATUS:               ID:20150404004750     3
 2015-04-04-0047-50M.COL___285                                                 6
 STAT SP IPHASW D HRMM SECON CODA AMPLIT PERI AZIMU VELO AIN AR TRES W  DIS CAZ7
 RUS  HZ EP   1    055 57.27                             142   -0.22 7 77.0  95 
 RUS  HN ES   1    056 11.34                             142   -0.32 7 77.0  95 
 RUS  HZ I         056 12.95         1.1 0.64            148           77.0  95 
 BAR2 EZ EP        055 58.75                             135    0.0110 96.7  43 
 BAR2 EZ ES   1    056 14.35                             135    0.45 7 96.7  43 
 PTB  HZ EP   1    055 58.32                             133   -0.37 7 99.5 311 
 PTB  HN ES   1    056 13.11                             133   -0.68 7 99.5 311 
 PTB  HZ I         056 17.05         1.9 0.10            137           99.5 311 
 BRR  HZ EP        056  1.52                             125    0.1610  128   3 
 BRR  HN ES        056 18.73                             125    0.1710  128   3 
 NOR  HZ EP        056  1.30                             125   -0.1710  128 251 
 NOR  HN ES        056 19.26                             125    0.5210  128 251 
 NOR  HZ I         056 21.12         4.6 0.22            129            128 251 
                                                                                
