 2016 11 4 0418 54.2 L   6.790 -73.207155.9  RSN  4 0.1 0.9LRSN                1
 GAP=129        0.43       2.9     2.8  4.2  0.1838E+01 -0.2997E+01 -0.2030E+01E
 Epicentro: ZAPATOCA - SANTANDER                                               3
 ACTION:UPD 17-10-26 21:04 OP:lp   STATUS:               ID:20161104041854 L   I
 OLDACT:REG 16-11-04 13:00 OP:dani STATUS:               ID:20161104041740     3
 2016-11-04-0418-00M.COL___349                                                 6
 STAT SP IPHASW D HRMM SECON CODA AMPLIT PERI AZIMU VELO AIN AR TRES W  DIS CAZ7
 BRR  HZ EP        419 16.39                             156    0.1910 65.8 302 
 BRR  HN ES        419 33.42                             156    0.0810 65.8 302 
 BRR  HZ I         419 37.41         1.6 0.21            155           65.8 302 
 PAM  EZ EP        419 17.63                             151   -0.2010 82.7  43 
 RUS  HZ EP        419 19.08                             146    0.1210  100 172 
 RUS  HN ES        419 38.22                             146   -0.0310  100 172 
 RUS  HZ I         419 39.02         0.8 0.31            150            100 172 
 PTB  HZ EP        419 21.39                             136   -0.04 9  141 259 
 PTB  HN ES        419 42.53                             136   -0.13 9  141 259 
 PTB  HZ I         419 46.07         1.1 0.22            137            141 259 
                                                                                
