 2017  6 4 0700  6.4 L   6.800 -73.134151.7  RSN 14 0.5 1.8LRSN                1
 GAP=154        0.69       2.9     3.4  5.0  0.2800E+01 -0.1231E+01  0.2506E+01E
 Epicentro: LOS SANTOS - SANTANDER                                             3
 ACTION:UPD 17-09-14 16:49 OP:jn   STATUS:               ID:20170604070006 L   I
 OLDACT:UP  17-06-04 17:33 OP:and  STATUS:               ID:20170604065740     3
 OLDACT:UP  17-06-04 17:33 OP:and  STATUS:               ID:20170604065740     3
 OLDACT:UP  17-06-04 17:32 OP:and  STATUS:               ID:20170604065740     3
 OLDACT:UP  17-06-04 17:30 OP:and  STATUS:               ID:20170604065740     3
 OLDACT:UP  17-06-04 17:28 OP:and  STATUS:               ID:20170604065740     3
 OLDACT:UP  17-06-04 17:28 OP:and  STATUS:               ID:20170604065740     3
 OLDACT:REG 17-06-04 13:44 OP:osc  STATUS:               ID:20170604065740     3
 2017-06-04-0658-00M.COL___350                                                 6
 STAT SP IPHASW D HRMM SECON CODA AMPLIT PERI AZIMU VELO AIN AR TRES W  DIS CAZ7
 BRR  HZ IP     C  7 0 28.37                             153    0.0810 72.3 298 
 BRR  HN ES        7 0 45.46                             153    0.1210 72.3 298 
 BRR  HZ I         7 0 46.08        18.8 0.10            150           72.3 298 
 RUS  HZ EP        7 0 30.92                             145    0.1510  100 177 
 RUS  HN ES        7 0 49.60                             145   -0.1410  100 177 
 RUS  HZ I         7 0 51.07         7.1 0.30            143            100 177 
 PTB  HZ EP   1    7 0 33.67                             133   -0.33 7  149 259 
 PTB  HN ES   3    7 0 54.36                             133   -1.14 2  149 259 
 PTB  HZ I         7 0 56.31         3.9 0.40            130            149 259 
 SPBC HZ EP        7 0 35.71                             130    0.24 9  164 219 
 SPBC HN ES        7 0 57.84                             130   -0.27 9  164 219 
 SPBC HZ I         7 1  2.44        11.3 0.15            127            164 219 
 YPLC HZ IP     D  7 0 36.94                             128    0.33 9  176 152 
 YPLC HN ES   3    7 1  0.96                             128    0.82 2  176 152 
 YPLC HZ I         7 1  1.85         6.3 0.32            128            176 152 
 ZAR  HN ES        7 1  4.68                             123   -0.42 8  205 292 
 ZAR  HZ I         7 1 11.20         8.3 0.30            122            205 292 
 NOR  HZ EP   2    7 0 42.78                             119    0.16 4  236 235 
 NOR  HE ES        7 1 11.40                             119    0.55 8  236 235 
 NOR  HZ I         7 1 18.14         4.3 0.21            118            236 235 
 CHI  HZ EP   2    7 0 45.11                             118    0.61 4  249 195 
 CHI  HN ES        7 1 14.07                             118   -0.12 8  249 195 
 CHI  HZ I         7 1 18.81         4.6 0.40            117            249 195 
 ROSC BZ EP   4    7 0 47.15                             118    2.20 0  253 211 
 ROSC BN ES        7 1 14.99                             118   -0.01 8  253 211 
 ROSC BZ I         7 1 20.38        10.5 0.45            116            253 211 
 PTGC HZ EP        7 0 49.70                             113   -0.81 7  308 159 
 PTGC HN ES   3    7 1 23.30                             113   -1.59 2  308 159 
 LL6C HN EP   9    7 0 32.05                             111   -20.4 0  325 357 
 LL6C HN ES        7 1  7.66                                   -0.24 7  325 357 
 CBOC HZ EP        7 0 53.73                             111   -0.01 7  335 252 
 CBOC HN ES   2    7 1 31.24                             111    0.61 3  335 252 
 CBOC HZ I         7 1 34.70         0.8 0.20            110            335 252 
 ARGC HE ES   3    7 1 37.23                             109    1.90 2  360 340 
 SJC  HZ EP   3    7 1  0.72                             107   -1.56 1  410 327 
 SJC  HN ES   4    7 1 40.01                             107   -5.83 0  410 327 
 SJC  HZ I         7 1 49.22         1.5 0.61            106            410 327 
                                                                                
