 2015  3 4 0336 42.6 L   6.489 -74.169 18.2  RSN 12 0.5 2.1LRSN                1
 GAP= 84        1.21       2.4     2.6  4.4 -0.1935E+01  0.5883E+01  0.4351E+00E
 Epicentro: PUERTO PARRA - SANTANDER                                           3
 ACTION:UPD 15-04-30 16:22 OP:nd   STATUS:               ID:20150304033642 L   I
 OLDACT:REG 15-03-04 12:33 OP:spq  STATUS:               ID:20150304032748     3
 2015-03-04-0327-48M.COL___290                                                 6
 STAT SP IPHASW D HRMM SECON CODA AMPLIT PERI AZIMU VELO AIN AR TRES W  DIS CAZ7
 BRR  HZ EP     C  336 56.22                             100   -0.0210 85.0  36 
 BRR  HN ES        337  6.71                             100   -0.1910 85.0  36 
 BRR  HZ I         337  7.72       138.0 0.18             47           85.0  36 
 SPBC HZ EP        336 58.47                              99    0.9210 93.1 173 
 SPBC HE ES        337  8.26                              99   -0.9610 93.1 173 
 SPBC HZ I         337 10.83        42.6 0.32             47           93.1 173 
 BAR2 EZ EP     D  337  0.36                              98    0.1710  110  84 
 BAR2 EZ ES        337 13.46                              98   -0.4710  110  84 
 BAR2 EZ I         337 14.43        76.8 0.18             47            110  84 
 NOR  HZ EP        337  3.06                              56    0.3410  128 217 
 NOR  HE ES        337 18.11                              56   -0.3310  128 217 
 NOR  HZ I         337 21.93        16.4 0.16             47            128 217 
 RUS  HZ EP     C  337  4.89                              56    0.55 9  137 119 
 RUS  HE ES        337 21.02                              56   -0.30 9  137 119 
 RUS  HZ I         337 22.59        42.9 0.30             47            137 119 
 HEL  HZ IP     D  337  6.52                              56    0.21 9  154 258 
 HEL  HN ES        337 24.26                              56   -0.56 9  154 258 
 HEL  HZ I         337 25.63        56.6 0.22             47            154 258 
 PAM  SZ EP        337 10.95                              56    0.28 9  188  60 
 PAM  SN ES        337 32.63                              56    0.05 9  188  60 
 PAM  SZ I         337 34.65        43.4 0.14             37            188  60 
 GUY2CHZ EP        337 11.60                              56    0.34 9  193 224 
 GUY2CHE ES        337 33.88                              56    0.24 9  193 224 
 GUY2CHZ I         337 38.00        10.7 0.44                           193 224 
 URE  HZ EP        337 12.95                              56    0.64 8  205 313 
 URE  HN ES        337 34.68                              56   -0.82 8  205 313 
 URE  HZ I         337 39.43        10.3 0.36             37            205 313 
 RREF HZ EP   4    337 15.98                              56    1.25 0  219 217 
 RREF HN ES        337 40.07                              56    0.27 8  219 217 
 RREF HZ I         337 44.30         9.5 0.26             37            219 217 
 TOL  SZ EP   4    337 20.44                              56    2.66 0  246 211 
 TOL  SN ES        337 44.78                              56   -0.46 8  246 211 
 TOL  SZ I         337 57.27         5.2 0.42             37            246 211 
 ORTC HZ EP   4    337 31.89                              55    6.63 0  309 203 
 ORTC HE ES        337 58.84                              55    0.29 7  309 203 
 ORTC HZ I         338 16.74        10.7 0.88             36            309 203 
 PRA  HZ EP   4    337 34.25                              55    8.04 0  317 195 
 PRA  HN ES   4    338 11.20                              55   10.95 0  317 195 
                                                                                
