 2013  9 4 0627 13.7 L   6.573 -73.573113.3  RSN  6 0.6 1.6LRSN                1
 GAP= 78        1.39       7.2     6.2 12.0 -0.1436E+02 -0.5240E+01  0.3363E+02E
 Epicentro: EL CARMEN DE CHUCURI - SANTANDER                                   3
 ACTION:UPD 13-10-22 09:19 OP:ep   STATUS:               ID:20130904062713 L   I
 OLDACT:UP  13-09-04 11:01 OP:cam  STATUS:               ID:20130904061959     3
 OLDACT:REG 13-09-04 09:11 OP:cam  STATUS:               ID:20130904061959     3
 2013-09-04-0619-59M.COL___269                                                 6
 STAT SP IPHASW D HRMM SECON CODA AMPLIT PERI AZIMU VELO AIN AR TRES W  DIS CAZ7
 BAR2 SZ EP     C  627 30.33                             158    0.1310 43.3  87 
 BAR2 SZ ES        627 42.66                             158   -0.3810 43.3  87 
 BAR2 SZ I         627 44.23        25.5 0.48            159           43.3  87 
 BRR  HN ES        627 45.06                             149    0.9210 61.1 345 
 RUS  HZ EP        627 33.35                             138   -0.4410 92.7 144 
 PTB  HZ EP        627 33.15                             136   -0.4010 97.7 268 
 PTB  HN ES        627 48.24                             136   -0.7710 97.7 268 
 PTB  HZ I         627 49.61         5.7 0.18            138           97.7 268 
 SPBC HZ EP        627 36.09                             131    0.8310  116 209 
 SPBC HN ES        627 52.34                             131    0.3010  116 209 
 SPBC HZ I         627 53.73         5.2 0.32            132            116 209 
 PAM  SZ EP   2    627 36.88                             128   -0.11 5  129  49 
 PAM  SN ES   1    627 54.90                             128   -0.22 7  129  49 
                                                                                
