 2016 10 4 0801 12.5 L   6.782 -73.161145.9  RSN  5 0.3 1.1LRSN                1
 GAP=135        0.55       6.4     3.7  6.2 -0.5608E+01  0.2970E+01 -0.1858E+02E
 Epicentro: LOS SANTOS - SANTANDER                                             3
 ACTION:UPD 16-11-09 19:16 OP:rebc STATUS:               ID:20161004080112 L   I
 OLDACT:REG 16-10-04 13:27 OP:dani STATUS:               ID:20161004075738     3
 2016-10-04-0758-00M.COL___360                                                 6
 STAT SP IPHASW D HRMM SECON CODA AMPLIT PERI AZIMU VELO AIN AR TRES W  DIS CAZ7
 BAR2 EZ EP        8 1 31.77                             172   -0.3310 21.1 186 
 BAR2 EZ ES        8 1 47.43                             172    0.0410 21.1 186 
 BAR2 EZ I         8 1 48.64         3.9 0.22            171           21.1 186 
 PAM  EZ EP        8 1 35.07                             150    0.1910 80.0  40 
 PAM  EN ES   3    8 1 51.83                             150   -0.52 2 80.0  40 
 PAM  EZ I         8 1 54.81         1.8 0.40            152           80.0  40 
 RUS  HZ EP   2    8 1 36.06                             145   -0.06 5 98.7 175 
 RUS  HN ES   2    8 1 54.92                             145    0.36 5 98.7 175 
 RUS  HZ I         8 1 56.77         1.2 0.24            152           98.7 175 
 PTB  HZ EP   2    8 1 38.84                             133   -0.45 5  146 259 
 PTB  HE ES        8 2  0.21                             133    0.02 9  146 259 
 PTB  HZ I         8 2  4.90         1.5 0.24            132            146 259 
 ZAR  HZ EP   2    8 1 45.67                             123    0.80 4  203 293 
 ZAR  HN ES   3    8 2 10.07                             123   -0.05 2  203 293 
 ZAR  HZ I         8 2 20.21         1.4 0.32            122            203 293 
                                                                                
