 2017  7 4 0815 35.1 L   6.749 -73.135147.2  RSN  6 0.2 1.3LRSN                1
 GAP=255        0.61       4.2     4.4  5.0 -0.1476E+01  0.3100E+01  0.4196E+01E
 Epicentro: LOS SANTOS - SANTANDER                                             3
 ACTION:UPD 17-08-30 15:29 OP:rebc STATUS:               ID:20170704081535 L   I
 OLDACT:UP  17-07-04 16:45 OP:edw  STATUS:               ID:20170704080743     3
 OLDACT:UP  17-07-04 16:44 OP:edw  STATUS:               ID:20170704080743     3
 OLDACT:REG 17-07-04 13:03 OP:edw  STATUS:               ID:20170704080743     3
 2017-07-04-0808-00M.COL___371                                                 6
 STAT SP IPHASW D HRMM SECON CODA AMPLIT PERI AZIMU VELO AIN AR TRES W  DIS CAZ7
 BAR2 EZ EP        815 54.83                             173   -0.0010 18.1 197 
 BAR2 EZ ES        816  9.98                             173   -0.2310 18.1 197 
 BAR2 EZ I         816 12.60         6.1 0.30            171           18.1 197 
 BRR  HZ EP        815 56.63                             151   -0.0210 75.1 302 
 BRR  HN ES        816 13.75                             151    0.3110 75.1 302 
 BRR  HZ I         816 15.35         3.3 0.50            153           75.1 302 
 PTB  HZ EP        816  1.85                             132   -0.37 9  148 261 
 PTB  HE ES        816 23.37                             132    0.01 9  148 261 
 PTB  HZ I         816 25.63         1.6 0.38            134            148 261 
 SPBC HZ EP        816  3.84                             130    0.45 9  160 221 
 SPBC HN ES        816 25.39                             130   -0.05 9  160 221 
 SPBC HZ I         816 28.69         4.3 0.10            131            160 221 
 ZAR  HE ES   2    816 33.29                             122   -0.35 4  207 293 
 GUY2CHN ES   2    816 52.23                             113   -0.18 4  299 236 
                                                                                
