 2013  9 4 0519 40.1 L   6.787 -73.140144.5  RSN  7 0.4 2.1LRSN                1
 GAP=138        1.01       5.2     4.8  7.1 -0.1174E+01  0.3588E+01  0.4717E+01E
 Epicentro: LOS SANTOS - SANTANDER                                             3
 ACTION:UPD 13-10-22 09:19 OP:ep   STATUS:               ID:20130904051940 L   I
 OLDACT:UP  13-09-04 11:45 OP:cam  STATUS:               ID:20130904051841     3
 OLDACT:REG 13-09-04 11:40 OP:cam  STATUS:               ID:20130904051841     3
 2013-09-04-0518-41M.COL___214                                                 6
 STAT SP IPHASW D HRMM SECON CODA AMPLIT PERI AZIMU VELO AIN AR TRES W  DIS CAZ7
 BAR2 SZ EP     C  519 59.52                             171   -0.0710 22.1 192 
 BAR2 SZ ES        520 14.30                             171   -0.4610 22.1 192 
 BAR2 SZ I         520 15.33        33.1 0.34            171           22.1 192 
 BRR  HZ EP        520  1.34                             152    0.1210 72.4 299 
 BRR  HN ES        520 18.18                             152    0.5210 72.4 299 
 BRR  HZ I         520 21.23        23.8 0.40            150           72.4 299 
 PAM  SZ EP     C  520  2.45                             150    0.1910 78.0  39 
 PAM  SZ I         520  2.64        42.0 0.18            152           78.0  39 
 PAM  SN ES   1    520 19.35                             150   -0.16 7 78.0  39 
 RUS  HZ EP        520  3.59                             144   -0.0710 99.1 176 
 RUS  HE ES   1    520 22.34                             144    0.34 7 99.1 176 
 RUS  HZ I         520 23.80        11.4 0.30            146           99.1 176 
 PTB  HZ EP        520  6.60                             132   -0.43 9  148 259 
 PTB  HN ES        520 27.25                             132   -0.76 9  148 259 
 PTB  HZ I         520 29.77        16.4 0.40            131            148 259 
 SPBC HZ EP        520  8.60                             129    0.13 9  163 219 
 SPBC HE ES   1    520 31.53                             129    0.95 7  163 219 
 SPBC HZ I         520 31.83         8.4 0.26            130            163 219 
 ZAR  HE ES   1    520 38.32                             122    0.37 6  205 292 
 ZAR  HN I         520 43.86        22.9 0.14            122            205 292 
                                                                                
