 2011  5 4 0938 51.8 L   6.774 -73.073146.7  RSN 11 0.2 2.3LRSN                1
 GAP=147        0.51       3.1     4.5  3.7 -0.6678E+01 -0.4877E+00  0.2233E+01E
 Epicentro: LOS SANTOS - SANTANDER                                             3
 ACTION:UP  11-06-29 08:50 OP:tino STATUS:               ID:20110504093851 L   I
 2011-05-04-0920-00M.COL___140                                                 6
 STAT SP IPHASW D HRMM SECON CODA AMPLIT PERI AZIMU VELO SNR AR TRES W  DIS CAZ7
 BAR2 SZ EP   1    939 11.44                             170    -0.1 8   23 211 
 BAR2 SZ ES   2    939 26.58                             170    -0.4 5   23 211 
 BAR2 SZ I         939 28.98        56.0 0.23                            23 211 
 BTL  SZ EP   1    939 12.02                             169     0.4 8   27 307 
 BTL  SZ ES   1    939 26.93                             169    -0.2 8   27 307 
 GIR2 SZ EP   1    939 11.74                             165     0.0 8   36 339 
 PAM  SZ EP   1    939 14.03                             152     0.0 8   75  33 
 PAM  SE ES   2    939 31.49                             152     0.2 5   75  33 
 BRR  HZ EP   1    939 13.35                             150    -0.2 8   80 298 
 BRR  HE ES   1    939 30.79                             150     0.3 8   80 298 
 BRR  HZ I         939 34.64        51.9 0.15                            80 298 
 RUS  HZ EP   1    939 15.39                             145     0.0 8   97 181 
 RUS  HN ES   2    939 34.11                             145     0.3 5   97 181 
 RUS  HZ I         939 35.84        30.0 0.30                            97 181 
 BRI  SZ IP        939 15.93                             142     0.110  109  16 
 BRI  SZ ES   2    939 34.58                             142     0.1 5  109  16 
 BRI  SZ I         939 37.56        28.5 0.27                           109  16 
 GRA  SZ IP        939 17.15                             137     0.010  126  14 
 GRA  SZ ES   1    939 36.69                             137    -0.3 7  126  14 
 GRA  SZ I         939 37.70        27.0 0.33                           126  14 
 NOR  SZ EP   1    939 27.62                             118    -0.5 6  240 236 
 HEL  HZ EP   1    939 33.10                             114     0.2 6  279 257 
 HEL  HZ I         939 35.28         4.9 0.16                           279 257 
 PRA  HZ EP   1    939 45.68                             107     0.1 4  394 211 
                                                                                
