 2016  9 4 0008 46.9 L   6.770 -73.156141.7  RSN  8 0.4 1.8LRSN                1
 GAP=137        1.05       3.7     4.4  6.3  0.1670E+00  0.6288E+01  0.3775E+01E
 Epicentro: LOS SANTOS - SANTANDER                                             3
 ACTION:UPD 17-08-17 21:06 OP:lp   STATUS:               ID:20160904000846 L   I
 OLDACT:REG 16-09-04 12:33 OP:drio STATUS:               ID:20160904000736     3
 2016-09-04-0008-00M.COL___355                                                 6
 STAT SP IPHASW D HRMM SECON CODA AMPLIT PERI AZIMU VELO AIN AR TRES W  DIS CAZ7
 BAR2 EZ EP        0 9  5.74                             172   -0.2310 19.9 188 
 BAR2 EZ ES        0 9 20.56                             172   -0.2810 19.9 188 
 BAR2 EZ I         0 9 21.72        23.9 0.40            169           19.9 188 
 BRR  HZ EP        0 9  7.38                             152   -0.2610 71.9 301 
 BRR  HN ES        0 9 24.53                             152    0.7110 71.9 301 
 PAM  EZ EP        0 9  8.72                             149   -0.1610 80.6  39 
 PAM  EE ES        0 9 26.11                             149    0.0910 80.6  39 
 PAM  EZ I         0 9 27.95         7.9 0.38            154           80.6  39 
 RUS  HZ EP        0 9  9.73                             144   -0.2810 97.4 175 
 RUS  HE ES        0 9 28.33                             144    0.2910 97.4 175 
 RUS  HZ I         0 9 29.77         6.2 0.22            145           97.4 175 
 PTB  HZ EP        0 9 12.97                             131   -0.41 9  146 260 
 PTB  HE ES        0 9 33.58                             131   -0.45 9  146 260 
 PTB  HZ I         0 9 40.67         7.9 0.46            131            146 260 
 SPBC HZ EP        0 9 14.77                             129   -0.00 9  160 219 
 SPBC HN ES        0 9 36.45                             129   -0.07 9  160 219 
 SPBC HZ I         0 9 42.47         9.7 0.26            129            160 219 
 ZAR  HZ EP        0 9 20.20                             121    1.10 9  204 293 
 ZAR  HN ES        0 9 43.87                             121   -0.35 9  204 293 
 ZAR  HZ I         0 9 50.57         7.9 0.44            122            204 293 
 CHI  HZ EP        0 9 24.04                             117    0.05 8  245 195 
 CHI  HN ES        0 9 53.48                             117    0.55 8  245 195 
 CHI  HZ I         0 9 56.99         3.3 0.74            118            245 195 
                                                                                
