 2015  3 4 0645 12.2 L   7.454 -73.207134.7  RSN 12 0.4 2.0LRSN                1
 GAP=111        0.85       2.5     3.9  5.5  0.6611E+00  0.7273E+01  0.1419E+01E
 Epicentro: EL PLAYON - SANTANDER                                              3
 ACTION:UPD 15-04-30 16:22 OP:nd   STATUS:               ID:20150304064512 L   I
 OLDACT:REG 15-03-04 12:47 OP:spq  STATUS:               ID:20150304063744     3
 2015-03-04-0637-44M.COL___284                                                 6
 STAT SP IPHASW D HRMM SECON CODA AMPLIT PERI AZIMU VELO AIN AR TRES W  DIS CAZ7
 PAM  SZ EP     C  645 32.32                             156    0.1810 57.4 103 
 PAM  SN ES        645 47.75                             156    0.0810 57.4 103 
 PAM  SZ I         645 50.21        14.8 0.36            160           57.4 103 
 BRR  HZ EP     C  645 32.13                             152    0.1510 67.6 236 
 BRR  HE ES        645 47.48                             152    0.1010 67.6 236 
 BRR  HZ I         645 49.30        29.1 0.18            150           67.6 236 
 OCA  HZ EP   1    645 34.16                             145    0.67 7 87.7 352 
 OCA  HN ES        645 50.37                             145    0.3010 87.7 352 
 OCA  HZ I         645 52.55        16.1 0.20            147           87.7 352 
 BAR2 EZ EP        645 33.93                             143   -0.2210 95.3 178 
 BAR2 EZ ES   1    645 50.48                             143   -0.77 7 95.3 178 
 BAR2 EZ I         645 51.60        36.1 0.14            143           95.3 178 
 PTB  HZ EP        645 40.69                             125    0.11 9  171 234 
 PTB  HN ES        646  2.79                             125    0.09 9  171 234 
 PTB  HZ I         646  6.29         8.4 0.16            125            171 234 
 RUS  HZ EP   1    645 41.05                             125   -0.37 7  173 175 
 RUS  HE ES   1    646  3.48                             125   -0.71 7  173 175 
 SML  HZ EP        645 40.96                             124   -0.17 9  177 327 
 SML  HN ES        646  3.16                             124   -0.53 9  177 327 
 SML  HZ I         646  5.03        20.2 0.10            126            177 327 
 SPBC HZ EP   1    645 46.61                             118    0.72 6  221 206 
 SPBC HN ES   1    646 12.51                             118    0.36 6  221 206 
 SPBC HZ I         646 18.75         5.6 0.27            119            221 206 
 NOR  HN ES   1    646 23.55                             112    0.16 6  278 221 
 NOR  HZ I         646 29.23         4.1 0.56            113            278 221 
 MON  HZ EP   1    645 54.59                             109   -0.92 5  308 299 
 MON  HN ES   1    646 29.27                             109   -0.01 5  308 299 
 CHI  HN ES   1    646 32.71                             109    0.51 5  318 191 
 GUY2CHZ EP   4    646  1.89                             107    1.70 0  343 224 
 GUY2CHN ES   4    646 40.53                             107    2.93 0  343 224 
 GUY2CHZ I         646 47.43         2.1 0.55                           343 224 
                                                                                
