 2015  2 4 0538 35.2 L   6.792 -73.175142.3  RSN  7 0.5 1.3LRSN                1
 GAP=133        1.18       4.6     6.3  9.1 -0.2070E+01 -0.1737E+01 -0.3718E+01E
 Epicentro: LOS SANTOS - SANTANDER                                             3
 ACTION:UPD 15-04-30 21:21 OP:nd   STATUS:               ID:20150204053835 L   I
 OLDACT:REG 15-02-04 12:03 OP:stll STATUS:               ID:20150204053748     3
 2015-02-04-0537-48M.COL___265                                                 6
 STAT SP IPHASW D HRMM SECON CODA AMPLIT PERI AZIMU VELO AIN AR TRES W  DIS CAZ7
 BAR2 EZ EP        538 54.21                             171   -0.1410 22.1 182 
 BAR2 EZ I         538 54.43         4.3 0.38            170           22.1 182 
 BAR2 EZ ES        539  9.14                             171   -0.1710 22.1 182 
 BRR  HZ EP        538 56.23                             153    0.4310 68.8 300 
 BRR  HN ES        539 12.83                             153    0.9310 68.8 300 
 BRR  HZ I         539 14.02         3.6 0.22            152           68.8 300 
 PAM  SZ EP        538 57.18                             149    0.0010 80.2  41 
 PAM  SZ I         538 57.52         9.0 0.22            151           80.2  41 
 RUS  HZ EP        538 58.99                             143    0.4710 99.9 174 
 RUS  HN ES        539 16.52                             143   -0.2310 99.9 174 
 RUS  HZ I         539 17.73         1.6 0.38            144           99.9 174 
 PTB  HZ EP        539  1.51                             132   -0.03 9  144 259 
 PTB  HN ES        539 21.69                             132   -0.43 9  144 259 
 PTB  HZ I         539 24.17         2.3 0.26            131            144 259 
 SPBC HE ES        539 24.64                             129   -0.31 9  160 218 
 SPBC HZ I         539 28.53         2.4 0.28            129            160 218 
 OCA  HN ES        539 24.39                             129   -0.78 9  161 354 
 OCA  HZ I         539 26.13         3.5 0.36            130            161 354 
                                                                                
