 2015  3 4 0628  5.3 L   6.778 -73.135146.0  RSN 14 0.4 1.7LRSN                1
 GAP=139        0.77       2.3     3.0  4.5 -0.1031E+01  0.3843E+01  0.1324E+01E
 Epicentro: LOS SANTOS - SANTANDER                                             3
 ACTION:UPD 15-04-30 16:22 OP:nd   STATUS:               ID:20150304062805 L   I
 OLDACT:DUP 15-03-04 14:55 OP:spq  STATUS:               ID:20150304061748d    3
 2015-03-04-0617-47M.COL___284                                                 6
 STAT SP IPHASW D HRMM SECON CODA AMPLIT PERI AZIMU VELO AIN AR TRES W  DIS CAZ7
 BAR2 EZ EP   1    628 24.70                             171   -0.19 7 21.2 194 
 BAR2 EZ ES   1    628 40.41                             171    0.22 7 21.2 194 
 BAR2 EZ I         628 40.97        10.1 0.22            169           21.2 194 
 BRR  HZ EP        628 26.51                             152   -0.0610 73.4 300 
 BRR  HE ES        628 43.80                             152    0.6110 73.4 300 
 BRR  HZ I         628 48.71        12.4 0.30            149           73.4 300 
 PAM  SZ EP        628 27.41                             151   -0.1710 78.6  38 
 PAM  SN ES        628 44.72                             151   -0.2610 78.6  38 
 PAM  SZ I         628 46.64         5.8 0.48            154           78.6  38 
 RUS  HZ EP        628 28.62                             145   -0.2410 98.0 177 
 RUS  HN ES        628 47.61                             145    0.3410 98.0 177 
 RUS  HZ I         628 48.61         4.2 0.30            147           98.0 177 
 PTB  HZ EP   1    628 32.09                             132   -0.23 7  148 260 
 PTB  HE ES   1    628 53.02                             132   -0.40 7  148 260 
 PTB  HZ I         628 54.90         7.1 0.28            131            148 260 
 SPBC HZ EP        628 33.61                             129   -0.07 9  162 220 
 SPBC HN ES        628 55.23                             129   -0.60 9  162 220 
 SPBC HZ I         629  2.86         9.7 0.36            130            162 220 
 OCA  HZ EP   1    628 33.67                             129   -0.17 7  163 353 
 OCA  HN ES        628 56.14                             129    0.01 9  163 353 
 OCA  HZ I         628 59.45         7.6 0.46            130            163 353 
 ZAR  HZ EP   1    628 38.40                             122    0.46 6  206 293 
 ZAR  HN ES        629  3.40                             122   -0.02 8  206 293 
 ZAR  HZ I         629  8.57         4.2 0.28            122            206 293 
 NOR  HZ EP   1    628 41.36                             119    0.40 6  234 235 
 NOR  HN ES        629  8.43                             119   -0.37 8  234 235 
 NOR  HZ I         629 10.50         6.1 0.18            119            234 235 
 SML  HE ES   2    629 10.85                             117   -0.16 4  246 335 
 SML  HZ I         629 15.56         6.3 0.28            118            246 335 
 CHI  HZ EP        628 43.02                             117    0.26 8  247 196 
 CHI  HN ES   1    629 12.58                             117    0.58 6  247 196 
 CHI  HZ I         629 16.33         1.9 0.38            119            247 196 
 HEL  HZ EP   1    628 46.16                             115    0.60 6  273 256 
 HEL  HE ES   1    629 17.08                             115    0.10 6  273 256 
 HEL  HZ I         629 23.26         4.1 0.36            115            273 256 
 GUY2CHZ EP   4    628 51.81                             112    2.97 0  301 235 
 GUY2CHE ES   4    629 23.95                             112    1.13 0  301 235 
 GUY2CHZ I         629 29.19         3.0 0.34                           301 235 
 CBOC HZ EP   1    628 53.07                             110    0.83 5  334 253 
 CBOC HN ES   1    629 28.31                             110   -0.56 5  334 253 
 CBOC HZ I         629 38.46         0.9 0.38            111            334 253 
                                                                                
