 2011  1 4 0111 50.7 L   6.786 -73.155141.6  RSN 11 0.3 2.2LRSN                1
 GAP=135        0.68       2.4     4.9  5.6 -0.3933E+01  0.1149E+02 -0.5314E+00E
 Epicentro: LOS SANTOS - SANTANDER                                             3
 ACTION:UP  11-02-08 08:38 OP:pat  STATUS:               ID:20110104011150 L   I
 2011-01-04-0107-50S.COL___135                                                 6
 STAT SP IPHASW D HRMM SECON CODA AMPLIT PERI AZIMU VELO SNR AR TRES W  DIS CAZ7
 BAR2 SZ IP        112  9.99                             171     0.210   22 188 
 BAR2 SZ ES   1    112 24.72                             171     0.0 7   22 188 
 BAR2 SZ I         112 28.10        54.3 0.50                            22 188 
 RUS  HZ EP        112 13.86                             143    -0.110   99 175 
 RUS  HN ES   1    112 31.91                             143    -0.1 7   99 175 
 RUS  HZ I         112 33.85        32.5 0.45                            99 175 
 GRA  SZ IP        112 16.12                             135     0.410  128  18 
 GRA  SZ ES   1    112 35.28                             135     0.0 7  128  18 
 GRA  SZ I         112 37.13        24.9 0.31                           128  18 
 OCA  SZ EP        112 18.83                             128     0.0 9  162 354 
 OCA  SZ ES   1    112 39.95                             128    -0.8 7  162 354 
 OCA  SZ I         112 43.88        19.0 0.31                           162 354 
 YOP  SZ EP   2    112 19.78                             125    -0.6 4  178 153 
 YOP  SE ES   2    112 43.96                             125     0.5 4  178 153 
 YOP  SZ I         112 47.44        16.4 0.44                           178 153 
 NOR  SZ EP   2    112 25.44                             118    -0.6 4  233 235 
 NOR  SE ES   2    112 53.66                             118     0.1 4  233 235 
 CHI  HZ EP   1    112 27.93                             116    -0.1 6  247 195 
 CHI  HE ES   1    112 56.92                             116    -0.1 6  247 195 
 CHI  HZ I         113  0.14         8.5 0.45                           247 195 
 HEL  HZ EP   1    112 31.23                             114     0.7 6  271 256 
 HEL  HE ES   2    113  2.26                             114     0.6 4  271 256 
 HEL  HZ I         113  8.67        10.9 0.53                           271 256 
 RREF HZ EP   1    112 36.33                             110    -0.1 5  320 229 
 RREF HN ES   1    113 11.93                             110    -0.2 5  320 229 
 RREF HZ I         113 22.02         8.3 0.40                           320 229 
 TOL  SZ EP   1    112 38.48                             108    -0.1 5  342 225 
 PRA  HZ EP   1    112 43.78                             106    -0.1 4  390 210 
 PRA  HE ES   2    113 25.06                             106    -0.3 3  390 210 
                                                                                
