 2011  4 4 0705 26.1 L   6.798 -73.103143.4  RSN 10 0.4 1.9LRSN                1
 GAP=160        0.82       5.3     8.1  7.9 -0.2315E+02  0.1361E+02 -0.4449E+00E
 Epicentro: LOS SANTOS - SANTANDER                                             3
 ACTION:UP  11-06-22 15:28 OP:REBC STATUS:               ID:20110404070526 L   I
 2011-04-04-0702-59S.COL___139                                                 6
 STAT SP IPHASW D HRMM SECON CODA AMPLIT PERI AZIMU VELO SNR AR TRES W  DIS CAZ7
 BTL  SZ EP   1    7 5 46.00                             170     0.5 7   23 306 
 BAR2 SZ EP   1    7 5 45.84                             170     0.3 7   24 201 
 BAR2 SZ ES   1    7 6  0.35                             170    -0.3 7   24 201 
 BAR2 SZ I         7 6  2.13        30.0 0.15                            24 201 
 GIR2 SZ EP   2    7 5 45.88                             166     0.3 5   33 342 
 PAM  SZ EP   2    7 5 48.56                             151     0.6 5   75  37 
 BRR  HE ES   2    7 6  4.22                             150     0.4 5   75 297 
 GRA  SZ EP   1    7 5 50.56                             137    -0.5 7  125  15 
 GRA  SZ ES   1    7 6  9.76                             137    -0.8 7  125  15 
 GRA  SZ I         7 6 11.63         9.1 0.39                           125  15 
 OCA  SZ EP   1    7 5 54.66                             129     0.3 7  161 352 
 OCA  SZ ES   2    7 6 16.70                             129     0.3 5  161 352 
 OCA  SZ I         7 6 21.33        11.7 0.34                           161 352 
 NOR  SZ EP   2    7 6  2.11                             117     0.0 4  238 235 
 NOR  SE ES   2    7 6 29.80                             117    -0.4 4  238 235 
 CHI  HZ EP   2    7 6  3.24                             116    -0.6 4  250 196 
 CHI  HZ I         7 6  6.58         3.3 0.34                           250 196 
 CHI  HN ES   2    7 6 33.05                             116    -0.2 4  250 196 
 HEL  HZ EP   1    7 6  6.86                             114     0.1 6  277 256 
 HEL  HE ES   2    7 6 37.86                             114    -0.5 4  277 256 
 HEL  HZ I         7 6 44.67         4.6 0.38                           277 256 
                                                                                
