 2017  5 4 0758 44.0 L   6.702 -73.296151.3  RSN  4 0.2 1.0LRSN                1
 GAP=211        0.40       3.3     3.3  3.8  0.6018E+01 -0.2061E+00 -0.3789E+00E
 Epicentro: GALAN - SANTANDER                                                  3
 ACTION:UPD 17-06-16 13:32 OP:jn   STATUS:               ID:20170504075844 L   I
 OLDACT:REG 17-05-04 13:10 OP:edw  STATUS:               ID:20170504075319     3
 2017-05-04-0758-00M.COL___371                                                 6
 STAT SP IPHASW D HRMM SECON CODA AMPLIT PERI AZIMU VELO AIN AR TRES W  DIS CAZ7
 BRR  HZ EP        759  5.26                             156   -0.1510 64.2 314 
 BRR  HN ES        759 22.15                             156    0.0710 64.2 314 
 RUS  HZ EP        759  7.82                             147    0.0510 92.5 165 
 RUS  HE ES        759 26.31                             147    0.0210 92.5 165 
 RUS  HZ I         759 27.88         1.6 0.34            147           92.5 165 
 PTB  HZ EP        759  9.79                             137   -0.0910  130 262 
 PTB  HN ES        759 30.05                             137   -0.0010  130 262 
 ZAR  HZ EP   2    759 16.32                             125    0.55 4  193 297 
                                                                                
