 2010  1 4 0528 47.0 L   6.787 -73.120142.8  RSN  8 0.3 1.9LRSN                1
 GAP=185        0.55       3.2     5.7  5.6 -0.3320E+01  0.1351E+02 -0.6950E-01E
 Epicentro: LOS SANTOS - SANTANDER                                             3
 ACTION:UP  10-08-24 09:42 OP:vdl  STATUS:               ID:20100104052847 L   I
 2010-01-04-0527-21S.COL___097                                                 6
 STAT SP IPHASW D HRMM SECON CODA AMPLIT PERI AZIMU VELO SNR AR TRES W  DIS CAZ7
 BAR2 SZ EP        529  6.11                             171    -0.110   23 198 
 BAR2 SZ ES   2    529 21.12                             171    -0.1 5   23 198 
 GIR2 SZ EP        529  6.21                             166    -0.110   33 346 
 GIR2 SZ ES   2    529 21.52                             166     0.1 5   33 346 
 RUS  BZ EP        529 10.57                             144     0.310   99 178 
 RUS  BE ES   2    529 28.82                             144     0.3 5   99 178 
 RUS  BZ I         529 29.67        12.8 0.29                            99 178 
 OCA  SZ EP        529 15.19                             129     0.0 9  162 352 
 OCA  SZ I         529 38.85        11.3 0.37                           162 352 
 CHI  HZ EP        529 24.14                             116    -0.3 8  248 196 
 CHI  HE ES   2    529 53.22                             116    -0.4 4  248 196 
 CHI  HZ I         529 57.66         2.8 0.35                           248 196 
 HEL  HZ EP        529 27.69                             114     0.4 8  274 256 
 HEL  HN ES   2    529 58.45                             114    -0.3 4  274 256 
 HEL  HZ I         530  4.67         4.9 0.38                           274 256 
 RREF BN ES   3    530  9.85                             110     0.7 2  323 230 
 RREF BZ I         530 16.02         3.7 0.30                           323 230 
 TOL  SZ ES   2    530 12.42                             109    -0.4 3  344 225 
                                                                                
