 2013  1 4 0141  2.4 L   7.438 -73.177127.0  RSN 11 0.5 2.2LRSN 2.7WRSN        1
 SPEC AVERAGE  MO 13.2 ST  3.3 OM  2.5 f0 4.15 R0.3959 AL 2.11 WI 19.0 MW  2.7 3
 SPEC SD       MO  0.2 ST  3.9 OM  1.0 f0 1.46 R0.1201 AL      WI      MW  0.1 3
 GAP=132        1.08       3.5     3.8  6.2  0.2610E+01 -0.4649E+00 -0.3332E+00E
 Epicentro: EL PLAYON - SANTANDER                                              3
 SPEC RUS HH N MO 13.0 ST0.294 OM  1.3 f0 2.78 R0.5288 AL 1.46 WI 21.5 MW  2.6 3
 SPEC RUS HH N T 14150 K 0.000 GD  213 VS 4.20 DE 3.00 Q0230.0 QA 0.60 VS 4.20 3
 SPEC HEL HH N MO 13.2 ST0.876 OM  1.3 f0 3.49 R0.4212 AL 1.57 WI 20.2 MW  2.7 3
 SPEC HEL HH N T 14215 K 0.000 GD  320 VS 4.20 DE 3.00 Q0230.0 QA 0.60 VS 4.20 3
 SPEC BRR HH N MO 13.4 ST  8.7 OM  1.9 f0 6.18 R0.2379 AL 3.31 WI 15.4 MW  2.9 3
 SPEC BRR HH N T 14136 K 0.000 GD  144 VS 4.20 DE 3.00 Q0230.0 QA 0.60 VS 4.20 3
 ACTION:UPD 13-02-15 09:12 OP:ep   STATUS:               ID:20130104014102 L   I
 2013-01-04-0139-37M.COL___208                                                 6
 STAT SP IPHASW D HRMM SECON CODA AMPLIT PERI AZIMU VELO AIN AR TRES W  DIS CAZ7
 BRR  HZ EP        141 21.51                             150    0.0710 69.4 238 
 BRR  HN ES        141 36.72                             150    0.4310 69.4 238 
 BRR  HN I         141 37.10        42.4 0.46            139           69.4 238 
 OCA  HZ EP        141 22.94                             143   -0.1210 89.9 350 
 OCA  HN ES        141 39.23                             143    0.0510 89.9 350 
 OCA  HN I         141 43.14        77.4 0.26            134           89.9 350 
 BAR2 SZ EP        141 23.48                             142    0.0310 93.6 180 
 BAR2 SZ ES        141 39.67                             142   -0.2010 93.6 180 
 BAR2 SZ I         141 40.98        53.4 0.16            134           93.6 180 
 RUS  HZ EP        141 30.43                             123   -0.44 9  171 177 
 RUS  HE ES        141 52.89                             123   -0.19 9  171 177 
 RUS  HN I         141 54.12         8.3 0.30            117            171 177 
 PTB  HZ EP        141 30.03                             123   -0.37 9  173 235 
 PTB  HN ES        141 51.59                             123   -0.66 9  173 235 
 PTB  HN I         141 55.02        20.8 0.34            115            173 235 
 ZAR  HZ EP        141 31.48                             121   -0.25 9  186 272 
 ZAR  HN ES        141 55.01                             121    0.41 9  186 272 
 ZAR  HN I         141 57.57        25.0 0.22            113            186 272 
 TAM  HZ EP        141 32.27                             120    0.13 9  189 126 
 TAM  HN ES        141 55.65                             120    0.31 9  189 126 
 TAM  HZ I         141 56.91        12.6 0.20            115            189 126 
 COD  HZ EP        141 41.55                             110   -0.34 7  278 354 
 HEL  HZ EP        141 45.80                             109    1.53 7  294 242 
 HEL  HN I         142 28.45         4.5 0.42            104            294 242 
 CHI  HZ EP        141 47.54                             107    0.63 7  317 191 
 CHI  HZ I         141 48.58         2.2 0.36            104            317 191 
 DBB  SZ EP        141 48.36                             106   -0.66 7  338 262 
                                                                                
