 2012  8 4 0947 53.1 L   6.769 -73.153148.0  RSN  9 0.4 1.8LRSN                1
 GAP=137        0.83       4.3     4.8  6.6  0.2136E+00  0.7316E+01  0.3666E+01E
 Epicentro: LOS SANTOS - SANTANDER                                             3
 ACTION:UPD 12-09-10 11:54 OP:ep   STATUS:               ID:20120804094753 L   I
 2012-08-04-0946-35M.COL___212                                                 6
 STAT SP IPHASW D HRMM SECON CODA AMPLIT PERI AZIMU VELO AIN AR TRES W  DIS CAZ7
 BAR2 SZ EP        948 12.97                             172    0.0410 19.8 189 
 BAR2 SZ ES   1    948 28.20                             172   -0.20 7 19.8 189 
 BAR2 SZ I         948 30.92        20.6 0.23                          19.8 189 
 GIR2 SZ EP   1    948 13.21                             166    0.09 7 34.5 353 
 GIR2 SZ ES   1    948 29.04                             166    0.30 7 34.5 353 
 BRR  HZ EP   1    948 15.00                             153    0.46 7 72.2 301 
 BRR  HE ES   1    948 32.15                             153    0.89 7 72.2 301 
 BRR  HZ I         948 36.11        14.8 0.10                          72.2 301 
 PAM  SZ EP   1    948 15.79                             150    0.05 7 80.6  38 
 PAM  SN ES   1    948 33.24                             150   -0.16 7 80.6  38 
 RUS  HZ EP   1    948 16.84                             145    0.01 7 97.2 175 
 RUS  HN ES   1    948 35.12                             145   -0.22 7 97.2 175 
 RUS  HZ I         948 36.82         6.2 0.29                          97.2 175 
 PTB  HZ EP   1    948 19.65                             133   -0.46 7  146 260 
 PTB  HN ES   1    948 40.52                             133   -0.67 7  146 260 
 PTB  HZ I         948 44.06         6.7 0.14                           146 260 
 OCA  HN ES   1    948 43.62                             130   -0.73 7  164 354 
 ZAR  HE ES   1    948 51.20                             123    0.00 6  205 293 
 GUY  SZ EP   1    948 37.37                             113    0.60 5  301 236 
                                                                                
