 2014  8 4 0052 29.2 L   6.354 -73.571110.7  RSN 14 0.4 1.9LRSN                1
 GAP= 75        1.04       2.4     3.0  5.6 -0.1811E+01  0.4693E+01  0.1625E+01E
 Epicentro: SANTA HELENA DEL OPON - SANTANDER                                  3
 ACTION:UPD 14-09-15 21:46 OP:nd   STATUS:               ID:20140804005229 L   I
 OLDACT:REG 14-08-04 12:25 OP:carl STATUS:               ID:20140804004811     3
 2014-08-04-0048-11M.COL___254                                                 6
 STAT SP IPHASW D HRMM SECON CODA AMPLIT PERI AZIMU VELO AIN AR TRES W  DIS CAZ7
 BAR2 SZ IP     C  052 45.86                             154    0.1610 50.4  58 
 BAR2 SZ ES        052 58.82                             154    0.2210 50.4  58 
 BAR2 SZ I         053  0.24        50.8 0.26            158           50.4  58 
 RUS  HZ EP        052 47.34                             144   -0.2310 74.3 133 
 RUS  HN ES        053  1.86                             144   -0.0710 74.3 133 
 RUS  HZ I         053  3.39        16.2 0.20            149           74.3 133 
 BRR  HZ IP        052 47.62                             140   -0.0510 84.7 349 
 BRR  HN ES        053  2.95                             140    0.8510 84.7 349 
 BRR  HZ I         053  9.80        19.5 0.16            142           84.7 349 
 SPBC HZ EP        052 48.63                             136   -0.0410 95.4 216 
 SPBC HN ES        053  3.68                             136   -0.2010 95.4 216 
 SPBC HZ I         053  7.26        21.3 0.42            138           95.4 216 
 PTB  HZ IP     D  052 48.40                             135   -0.5610  100 282 
 PTB  HN ES        053  3.76                             135   -0.6410  100 282 
 PTB  HZ I         053  6.70        17.8 0.16            136            100 282 
 PAM  SZ EP        052 53.69                             123   -0.23 9  145  41 
 PAM  SN ES        053 12.70                             123   -0.52 9  145  41 
 PAM  SZ I         053 15.28         7.8 0.18            128            145  41 
 NOR  HZ EP        052 55.69                             119   -0.04 9  168 239 
 NOR  HN ES        053 15.76                             119   -0.69 9  168 239 
 NOR  HZ I         053 18.39        11.0 0.52            121            168 239 
 ZAR  HZ EP        052 58.22                             115    0.19 9  190 312 
 ZAR  HN ES        053 20.72                             115    0.18 9  190 312 
 ZAR  HZ I         053 26.11        26.2 0.24            118            190 312 
 CHI  HZ EP        052 58.54                             115   -0.18 9  192 185 
 CHI  HN ES        053 22.55                             115    0.77 9  192 185 
 CHI  HZ I         053 26.31         3.6 0.60            118            192 185 
 OCA  HN ES        053 25.28                             113    0.37 8  210   8 
 GUY2CHZ EP        053  4.11                             110    0.45 8  235 238 
 GUY2CHE ES        053 31.08                             110    0.51 8  235 238 
 GUY2CHZ I         053 38.51         4.0 0.46                           235 238 
 RREF HZ EP   4    053  9.18                             108    3.09 0  254 231 
 RREF HN ES   4    053 36.67                             108    1.78 0  254 231 
 RREF HZ I         053 42.83         5.7 0.30            111            254 231 
 TOL  SN ES        053 39.15                             106    0.51 7  275 225 
 PRA  HZ EP        053 13.47                             103   -0.38 7  326 207 
 PRA  HN ES        053 48.86                             103    0.16 7  326 207 
 PRA  HZ I         053 53.13         4.7 0.22            105            326 207 
                                                                                
