 2012 12 4 0738 13.3 L   6.799 -73.186144.3  RSN  9 0.4 1.7LRSN                1
 GAP=132        0.72       3.2     3.9  5.7 -0.1279E+01  0.9512E+01 -0.2841E+01E
 Epicentro: LOS SANTOS - SANTANDER                                             3
 ACTION:UPD 13-01-04 14:25 OP:ep   STATUS:               ID:20121204073813 L   I
 2012-12-04-0730-00M.COL___236                                                 6
 STAT SP IPHASW D HRMM SECON CODA AMPLIT PERI AZIMU VELO AIN AR TRES W  DIS CAZ7
 BAR2 SZ EP   1    738 32.74                             171    0.04 7 22.9 179 
 BAR2 SZ ES   1    738 48.09                             171    0.22 7 22.9 179 
 BAR2 SZ I         738 49.36        27.0 0.22                          22.9 179 
 GIR2 SZ EP   1    738 33.03                             167    0.28 7 30.9 358 
 GIR2 SZ ES   1    738 47.24                             167   -0.70 7 30.9 358 
 GIR2 SZ I         738 49.65         6.5 0.24                          30.9 358 
 PAM  SZ EP   1    738 35.53                             150    0.03 7 80.4  42 
 PAM  SN ES   1    738 52.82                             150   -0.02 7 80.4  42 
 RUS  HZ EP   1    738 36.65                             143   -0.24 7  101 174 
 RUS  HN ES   1    738 55.60                             143    0.28 7  101 174 
 RUS  HZ I         738 56.70         4.3 0.62                           101 174 
 PTB  HZ EP   1    738 39.31                             133   -0.40 7  143 259 
 PTB  HN ES   1    739  0.04                             133   -0.30 7  143 259 
 PTB  HZ I         739  4.45         5.0 0.12                           143 259 
 OCA  HZ EP   2    738 41.54                             129    0.12 5  160 355 
 OCA  HE ES   1    739  4.13                             129    0.74 7  160 355 
 OCA  HZ I         739  6.41         5.5 0.24                           160 355 
 ZAR  HZ EP   1    738 45.21                             123    0.02 6  200 293 
 ZAR  HE ES   1    739 10.61                             123    0.52 6  200 293 
 ZAR  HZ I         739 15.89         7.1 0.40                           200 293 
 SML  HZ EP   1    738 49.03                             117   -0.59 6  242 336 
 SML  HN ES   1    739 17.53                             117   -0.44 6  242 336 
 SML  HZ I         739 26.55         7.2 0.10                           242 336 
 HEL  HZ EP   1    738 53.41                             115    0.49 6  268 256 
 HEL  HN ES   1    739 23.91                             115    0.06 6  268 256 
 HEL  HZ I         739 30.63         2.6 0.32                           268 256 
                                                                                
