 2013 10 4 0253  7.9 L   7.233 -73.058  4.1  RSN  4 0.2 1.3LRSN                1
 GAP=282        0.53       3.4     3.4  4.4  0.8475E+01  0.3778E+01  0.3844E+01E
 Epicentro: CHARTA - SANTANDER                                                 3
 ACTION:UPD 13-11-25 09:19 OP:ep   STATUS:               ID:20131004025307 L   I
 OLDACT:REG 13-10-04 09:35 OP:nd   STATUS:               ID:20131004024959     3
 2013-10-04-0249-59M.COL___273                                                 6
 STAT SP IPHASW D HRMM SECON CODA AMPLIT PERI AZIMU VELO AIN AR TRES W  DIS CAZ7
 BAR2 SZ EP        253 19.71                              90    0.0210 72.2 191 
 BAR2 SZ ES        253 28.99                              90    0.1210 72.2 191 
 BAR2 SZ I         253 30.30        13.0 0.26             47           72.2 191 
 BRR  HZ IP     C  253 19.76                              90    0.1110 73.6 259 
 BRR  HN ES        253 28.65                              90   -0.1510 73.6 259 
 BRR  HZ I         253 29.68        11.1 0.16             47           73.6 259 
 RUS  HZ EP        253 31.61                              90    0.14 9  148 181 
 RUS  HN ES        253 49.56                              90   -0.30 9  148 181 
 RUS  HZ I         253 52.12         2.3 0.38             47            148 181 
 SPBC HZ EP   2    253 38.53                              56   -0.70 4  208 213 
 SPBC HN ES        254  3.88                              56    0.22 8  208 213 
 SPBC HZ I         254  8.30         3.2 0.24             37            208 213 
                                                                                
