 2017  8 4 0930 41.6 L   6.762 -73.119134.6  RSN  6 0.4 1.3LRSN                1
 GAP=237        0.91       5.2     5.8  9.5  0.7595E+01 -0.1027E+02  0.6207E+01E
 Epicentro: LOS SANTOS - SANTANDER                                             3
 ACTION:UPD 17-09-04 20:16 OP:rebc STATUS:               ID:20170804093041 L   I
 OLDACT:UP  17-08-04 18:35 OP:dani STATUS:               ID:20170804092740     3
 OLDACT:REG 17-08-04 13:29 OP:osc  STATUS:               ID:20170804092740     3
 2017-08-04-0928-00M.COL___365                                                 6
 STAT SP IPHASW D HRMM SECON CODA AMPLIT PERI AZIMU VELO AIN AR TRES W  DIS CAZ7
 BAR2 EZ EP        930 59.65                             171   -0.1710 20.1 200 
 BRR  HZ EP        931  1.55                             149   -0.2810 75.8 300 
 BRR  HN ES        931 17.74                             149    0.1310 75.8 300 
 BRR  HZ I         931 23.20         7.7 0.53            150           75.8 300 
 RUS  HZ EP        931  4.09                             142    0.1510 96.3 178 
 PTB  HZ EP   3    931  6.56                             129   -1.32 2  150 261 
 PTB  HE ES        931 28.98                             129    0.60 9  150 261 
 PTB  HZ I         931 31.05         1.2 0.25            131            150 261 
 SPBC HZ EP        931  9.33                             126    0.20 9  162 221 
 SPBC HN ES        931 30.15                             126   -0.46 9  162 221 
 SPBC HZ I         931 38.96         1.6 0.09            129            162 221 
 ZAR  HZ EP        931 14.26                             119    0.46 8  208 293 
 ZAR  HE ES        931 38.37                             119   -0.54 8  208 293 
 ZAR  HZ I         931 43.86         3.7 0.33            123            208 293 
                                                                                
