 2017  1 4 0959 20.6 L   6.618 -73.397122.5  RSN 21 0.3 2.4LRSN                1
 GAP= 55        0.75       2.0     2.3  3.7  0.3050E+00  0.3910E+01  0.1006E+01E
 Epicentro: GALAN - SANTANDER                                                  3
 ACTION:UPD 17-05-22 15:55 OP:jn   STATUS:               ID:20170104095920 L   I
 OLDACT:REG 17-01-04 17:41 OP:lv   STATUS:               ID:20170104095541     3
 2017-01-04-0956-00M.COL___366                                                 6
 STAT SP IPHASW D HRMM SECON CODA AMPLIT PERI AZIMU VELO AIN AR TRES W  DIS CAZ7
 BAR2 EZ EP        959 37.52                             168    0.0510 23.9  97 
 BAR2 EZ ES        959 50.64                             168    0.0210 23.9  97 
 BRR  HZ IP        959 38.77                             150   -0.1010 64.3 327 
 BRR  HE ES        959 53.39                             150    0.2810 64.3 327 
 BRR  HZ I        10 0  1.64        57.8 0.16            149           64.3 327 
 RUS  HZ EP        959 40.65                             142   -0.4810 87.4 157 
 RUS  HN ES        959 56.54                             142   -0.6010 87.4 157 
 RUS  HZ I         959 58.35        41.9 0.29            146           87.4 157 
 PAM  EZ EP        959 43.44                             135    0.4210  111  44 
 PAM  EN ES       10 0  0.51                             135    0.0110  111  44 
 PAM  EZ I        10 0  5.40        34.2 0.23            137            111  44 
 PTB  HZ EP   4    959 41.26                             133   -1.68 0  117 266 
 PTB  HN ES   4    959 57.56                             133   -2.79 0  117 266 
 PTB  HZ I        10 0  1.27        82.9 0.14            133            117 266 
 TAM  HZ IP     D  959 49.32                             120    0.32 9  179  96 
 TAM  HE ES   4   10 0  9.73                             120   -1.41 0  179  96 
 TAM  HZ I        10 0 10.80        21.6 0.10            123            179  96 
 ZAR  HZ EP        959 49.99                             119    0.05 9  188 301 
 ZAR  HN ES       10 0 12.98                             119    0.16 9  188 301 
 ZAR  HZ I        10 0 18.02        46.2 0.16            119            188 301 
 ROSC BZ EP        959 54.51                             115    0.43 8  222 208 
 ROSC BN ES   4   10 0 23.90                             115    3.72 0  222 208 
 CHI  HZ EP        959 54.10                             115   -0.16 8  223 190 
 CHI  HN ES       10 0 20.72                             115    0.22 8  223 190 
 CHI  HZ I        10 0 25.28        13.3 0.17            116            223 190 
 GUY2CHZ EP        959 59.52                             110    0.23 8  267 235 
 GUY2CHN ES   4   10 0 30.78                             110    1.32 0  267 235 
 GUY2CHZ  IAML    10 0 38.29        22.6 0.41                           267 235 
 URE  HZ EP        959 58.13                             110   -0.61 8  267 298 
 URE  HN ES   4   10 0 26.03                             110   -2.44 0  267 298 
 URE  HZ I        10 0 28.01        42.7 0.12            111            267 298 
 ELA  HZ EP   9   10 0  5.57                             108    2.98 0  295 229 
 ELA  HN ES       10 0 38.83                                    0.52 7  295 229 
 ELA  HZ I        10 0 45.27        11.6 0.21            109            295 229 
 PTGC HZ EP   9   10 0  1.46                             107   -1.29 0  302 152 
 PTGC HN ES       10 0 34.27                                   -0.05 7  302 152 
 DBB  EZ EP       10 0  4.47                             106    0.21 7  314 278 
 DBB  EN ES       10 0 37.59                             106   -0.71 7  314 278 
 DBB  EZ I        10 0 39.78         7.1 0.26            107            314 278 
 ORTC HZ EP       10 0 10.05                             104    0.08 6  363 214 
 ORTC HE ES       10 0 48.91                             104    0.45 6  363 214 
 ORTC HZ I        10 0 54.50         7.2 0.31            105            363 214 
 ARGC HZ EP   4   10 0 11.60                             103    0.80 0  370 345 
 ARGC HN ES   4   10 0 53.10                             103    3.16 0  370 345 
 ARGC HZ I        10 1  3.88         6.3 0.06            104            370 345 
 PAL  HZ EP       10 0 11.01                             103   -0.01 6  371 239 
 PAL  HN ES       10 0 50.57                             103    0.23 6  371 239 
 PAL  HZ I        10 0 55.34         4.6 0.32            104            371 239 
 APAC HZ EP       10 0 11.74                             103   -0.08 6  379 292 
 APAC HN ES       10 0 51.66                             103   -0.10 6  379 292 
 APAC HZ I        10 0 54.02         9.2 0.39            104            379 292 
 SJC  HZ EP   4   10 0 14.36                             101   -1.52 0  412 332 
 SJC  HN ES   4   10 0 54.88                             101   -4.11 0  412 332 
 SJC  HZ I        10 1  3.53         7.7 0.46            102            412 332 
 CRJC HZ EP       10 0 24.52                              99   -0.75 4  490   7 
 CRJC HN ES       10 1 15.91                              99    0.22 4  490   7 
 CRJC HZ I        10 1 24.82        10.3 0.33            100            490   7 
 MACC HZ EP   4   10 0 24.19                              98   -1.82 0  497 186 
 MACC HN ES   4   10 1 14.41                              98   -2.61 0  497 186 
 MACC HZ I        10 1 18.77         3.1 0.36            100            497 186 
                                                                                
