 2017  9 4 0741 54.2 L   6.801 -73.149148.5  RSN 12 0.4 1.8LRSN                1
 GAP=111        1.01       3.8     3.7  6.2  0.1293E+01  0.5156E+01  0.6333E+01E
 Epicentro: LOS SANTOS - SANTANDER                                             3
 ACTION:UPD 17-10-05 19:09 OP:rebc STATUS:               ID:20170904074154 L   I
 OLDACT:UP  17-09-04 16:18 OP:dnl  STATUS:               ID:20170904073733     3
 OLDACT:REG 17-09-04 12:50 OP:dnl  STATUS:               ID:20170904073733     3
 2017-09-04-0738-00M.COL___408                                                 6
 STAT SP IPHASW D HRMM SECON CODA AMPLIT PERI AZIMU VELO AIN AR TRES W  DIS CAZ7
 BAR2 EZ EP        742 14.01                             171   -0.1610 23.3 189 
 BAR2 EZ ES        742 29.11                             171   -0.6310 23.3 189 
 BAR2 EZ I         742 30.22        17.6 0.32            168           23.3 189 
 BRR  HZ EP        742 15.82                             153    0.1810 70.8 299 
 BRR  HE ES        742 32.98                             153    0.6310 70.8 299 
 BRR  HZ I         742 36.77        11.4 0.44            151           70.8 299 
 PAM  EZ EP        742 16.95                             151    0.2210 77.6  40 
 PAM  EE ES        742 34.17                             151   -0.1310 77.6  40 
 PAM  EZ I         742 36.12        12.8 0.54            152           77.6  40 
 RUS  HZ EP   2    742 18.20                             144   -0.04 5  101 176 
 RUS  HN ES        742 36.86                             144   -0.1310  101 176 
 RUS  HZ I         742 38.31         3.8 0.42            142            101 176 
 SPBC HZ EP        742 23.02                             130    0.12 9  163 219 
 SPBC HN ES        742 44.80                             130   -0.48 9  163 219 
 SPBC HZ I         742 51.96         9.4 0.36            127            163 219 
 YPLC HZ EP   2    742 24.21                             127   -0.02 4  177 151 
 YPLC HN ES        742 48.61                             127    0.96 9  177 151 
 YPLC HZ I         742 57.40         3.7 0.58            126            177 151 
 ZAR  HZ EP   4    742 28.07                             123    1.28 0  204 292 
 ZAR  HN ES        742 51.87                             123   -0.34 9  204 292 
 ZAR  HZ I         742 58.21         6.0 0.22            121            204 292 
 NOR  HZ EP        742 29.87                             119   -0.20 8  234 234 
 NOR  HN ES        742 58.30                             119    0.26 8  234 234 
 NOR  HZ I         743  3.96         3.5 0.22            117            234 234 
 HEL  HZ EP   4    742 31.00                             115   -3.52 0  272 256 
 HEL  HE ES        743  6.32                             115    0.35 8  272 256 
 HEL  HZ I         743 12.46         3.4 0.34            113            272 256 
 PTGC HZ EP        742 37.29                             112   -0.93 7  309 159 
 PTGC HN ES   4    743 10.84                             112   -1.70 0  309 159 
 PTGC HZ I         743 18.13         3.3 0.32            111            309 159 
 PRA  HZ EP   2    742 48.19                             107    0.38 3  392 210 
 PRA  HN ES   4    743 30.65                             107    1.03 0  392 210 
 PRA  HZ I         743 34.33         3.0 0.36            106            392 210 
 SJC  HZ EP   9    742 47.78                             106   -2.05 0  409 327 
 SJC  HE ES        743 30.86                             107   -0.30 6  409 327 
 SJC  HZ I         743 43.73         1.6 0.72            105            409 327 
                                                                                
