 2016 11 4 0544 21.8 L   6.784 -73.151153.9  RSN  4 0.1 0.9LRSN                1
 GAP=137        0.37       2.5     2.5  3.7  0.1380E+01 -0.2206E+01 -0.1658E+01E
 Epicentro: LOS SANTOS - SANTANDER                                             3
 ACTION:UPD 17-10-26 21:04 OP:lp   STATUS:               ID:20161104054421 L   I
 OLDACT:REG 16-11-04 13:03 OP:dani STATUS:               ID:20161104053743     3
 2016-11-04-0538-00M.COL___349                                                 6
 STAT SP IPHASW D HRMM SECON CODA AMPLIT PERI AZIMU VELO AIN AR TRES W  DIS CAZ7
 BRR  HZ EP        544 44.04                             154    0.2210 71.6 300 
 BRR  HE ES        545  0.99                             154   -0.0410 71.6 300 
 BRR  HZ I         545  2.41         3.4 0.34            153           71.6 300 
 PAM  EZ EP        544 44.86                             152   -0.0910 79.1  39 
 RUS  HZ EP        544 46.21                             146    0.0010 98.9 176 
 RUS  HN ES        545  5.29                             146    0.0210 98.9 176 
 RUS  HZ I         545  6.10         1.3 0.26            147           98.9 176 
 PTB  HZ EP        544 49.23                             134   -0.10 9  147 259 
 PTB  HN ES        545 10.81                             134   -0.02 9  147 259 
 PTB  HZ I         545 13.04         0.5 0.14            134            147 259 
                                                                                
