 2017  8 4 0308  3.2 L   6.790 -73.147138.0  RSN  8 0.5 1.5LRSN                1
 GAP=112        1.12       4.5     4.1  6.9  0.4128E+01  0.6339E+01  0.8169E+01E
 Epicentro: LOS SANTOS - SANTANDER                                             3
 ACTION:UPD 17-09-04 20:16 OP:rebc STATUS:               ID:20170804030803 L   I
 OLDACT:REG 17-08-04 12:51 OP:osc  STATUS:               ID:20170804025738     3
 2017-08-04-0258-00M.COL___374                                                 6
 STAT SP IPHASW D HRMM SECON CODA AMPLIT PERI AZIMU VELO AIN AR TRES W  DIS CAZ7
 BAR2 EZ EP        3 8 21.49                             170   -0.4010 22.2 190 
 BAR2 EZ ES        3 8 36.14                             170   -0.3110 22.2 190 
 BAR2 EZ I         3 8 38.69        11.6 0.18            171           22.2 190 
 BRR  HZ EP        3 8 23.86                             151    0.3110 71.6 299 
 BRR  HN ES        3 8 39.89                             151    0.4710 71.6 299 
 PAM  EZ IP     D  3 8 24.70                             149    0.0310 78.4  39 
 PAM  EN ES        3 8 41.63                             149    0.2210 78.4  39 
 PAM  EZ I         3 8 43.86         6.7 0.44            151           78.4  39 
 RUS  HZ EP        3 8 26.11                             143   -0.0210 99.4 176 
 RUS  HN ES        3 8 44.26                             143    0.2710 99.4 176 
 RUS  HZ I         3 8 44.97         6.4 0.30            144           99.4 176 
 PTB  HZ EP        3 8 28.74                             130   -0.78 9  147 259 
 PTB  HE ES        3 8 49.32                             130   -0.72 9  147 259 
 PTB  HZ I         3 8 52.59         2.3 0.09            132            147 259 
 YPLC HZ EP        3 8 31.95                             125   -0.41 9  176 151 
 YPLC HN ES        3 8 55.33                             125    0.23 9  176 151 
 ZAR  HE ES        3 9  0.27                             121    0.13 9  204 292 
 GUY2CHZ EP        3 8 46.94                             111    0.56 7  300 235 
 GUY2CHN ES        3 9 21.04                             111    0.99 7  300 235 
 GUY2CHZ I         3 9 28.99         1.7 0.56                           300 235 
                                                                                
