 2010  6 4 0824 20.7 L   6.760 -73.097150.9  RSN  5 0.3 1.6LRSN                1
 GAP=193        0.49       6.2    23.5 10.7  0.1572E+02 -0.1487E+03 -0.2968E+02E
 Epicentro: LOS SANTOS - SANTANDER                                             3
 ACTION:UP  10-08-24 10:08 OP:vdl  STATUS:               ID:20100604082420 L   I
 2010-06-04-0820-42S.COL___109                                                 6
 STAT SP IPHASW D HRMM SECON CODA AMPLIT PERI AZIMU VELO SNR AR TRES W  DIS CAZ7
 BAR2 SZ EP   1    824 41.00                             172     0.1 8   21 207 
 BAR2 SZ ES   2    824 56.42                             172    -0.2 5   21 207 
 GIR2 SZ EP   3    824 41.06                             166    -0.1 3   37 343 
 GIR2 SZ ES   3    824 57.42                             166     0.3 3   37 343 
 GUE  SZ EP   2    824 45.41                             139    -0.7 5  120   9 
 GRA  SZ IP        824 46.80                             137     0.210  129  15 
 OCA  SZ EP   2    824 49.92                             130     0.0 5  165 351 
 OCA  SZ ES   2    825 12.66                             130     0.0 5  165 351 
 OCA  SZ I         825 16.62         4.1 0.22                           165 351 
                                                                                
