 2017  5 4 0115 28.2 L   6.789 -73.179149.6  RSN  5 0.3 1.3LRSN                1
 GAP=133        0.73       3.8     3.3  6.4  0.9031E+00  0.3200E+01  0.2427E+01E
 Epicentro: LOS SANTOS - SANTANDER                                             3
 ACTION:UPD 17-06-16 13:32 OP:jn   STATUS:               ID:20170504011528 L   I
 OLDACT:DUP 17-05-04 14:04 OP:edw  STATUS:               ID:20170504010741d    3
 2017-05-04-0108-00M.COL___371                                                 6
 STAT SP IPHASW D HRMM SECON CODA AMPLIT PERI AZIMU VELO AIN AR TRES W  DIS CAZ7
 BRR  HZ EP        115 49.90                             154    0.3110 68.6 301 
 BRR  HN ES        116  6.71                             154    0.4110 68.6 301 
 BRR  HZ I         116 10.20         7.7 0.38            154           68.6 301 
 PAM  EZ EP     D  115 51.12                             150    0.1410 80.7  41 
 PAM  EN ES        116  8.36                             150   -0.4210 80.7  41 
 PAM  EZ I         116  8.78         3.4 0.28            155           80.7  41 
 RUS  HZ EP        115 52.31                             145    0.0810 99.7 174 
 RUS  HN ES        116 11.04                             145    0.0410 99.7 174 
 RUS  HZ I         116 12.36         2.6 0.44            147           99.7 174 
 PTB  HZ EP        115 54.81                             134   -0.30 9  144 259 
 PTB  HN ES        116 15.82                             134   -0.30 9  144 259 
 PTB  HZ I         116 20.83         2.2 0.36            135            144 259 
 ZAR  HN ES        116 25.79                             124   -0.05 9  201 293 
                                                                                
