 2010  9 4 0825 13.2 L   6.770 -73.089146.0  RSN  6 0.1 1.5LRSN                1
 GAP=165        0.38       3.7     6.1  6.1  0.1013E+02 -0.2113E+02 -0.1386E+02E
 Epicentro: LOS SANTOS - SANTANDER                                             3
 ACTION:UP  11-02-18 11:00 OP:tino STATUS:               ID:20100904082513 L   I
 2010-09-04-0822-35S.COL___120                                                 6
 STAT SP IPHASW D HRMM SECON CODA AMPLIT PERI AZIMU VELO SNR AR TRES W  DIS CAZ7
 BAR2 SZ ES   2    825 48.19                             171     0.0 5   22 208 
 BAR2 SZ I         825 49.53        11.8 0.31                            22 208 
 BTL  SZ EP        825 32.98                             170     0.010   26 310 
 GIR2 SZ EP   2    825 32.88                             165    -0.2 5   36 341 
 BRR  HZ IP     C  825 34.66                             151    -0.210   78 298 
 BRR  HN ES   1    825 51.82                             151     0.2 7   78 298 
 BRR  HZ I         825 54.87         6.0 0.10                            78 298 
 RUS  HZ EP   2    825 36.98                             145     0.2 5   97 180 
 RUS  HN ES   1    825 55.05                             145     0.0 7   97 180 
 RUS  HZ I         825 56.74         3.2 0.80                            97 180 
 GRA  SZ IP        825 38.64                             137     0.010  127  14 
 GRA  SZ I         825 39.72         3.8 0.31                           127  14 
                                                                                
