 2010  5 4 0341 56.6 L   6.813 -73.055142.0  RSN  8 0.4 1.9LRSN                1
 GAP=194        0.69       7.3     9.4  7.0 -0.4377E+02 -0.4517E+01  0.3148E+01E
 Epicentro: LOS SANTOS - SANTANDER                                             3
 ACTION:UP  10-08-24 10:02 OP:vdl  STATUS:               ID:20100504034156 L   I
 2010-05-04-0338-05S.COL___105                                                 6
 STAT SP IPHASW D HRMM SECON CODA AMPLIT PERI AZIMU VELO AIN AR TRES W  DIS CAZ7
 BAR2 SZ EP   1    342 15.90                             168     0.0 7   28 210 
 BAR2 SZ ES   2    342 30.75                             168    -0.2 5   28 210 
 GIR2 SZ EP   2    342 15.72                             166    -0.2 5   33 333 
 GIR2 SZ ES   2    342 30.46                             166    -0.5 5   33 333 
 BRR  HZ IP     D  342 18.09                             149     0.210   80 294 
 BRR  HZ I         342 20.02        16.9 0.10                            80 294 
 BRR  HN ES   2    342 34.84                             149     0.4 5   80 294 
 BRI  SZ IP        342 20.07                             142     0.310  104  16 
 BRI  SZ ES   2    342 37.28                             142    -0.6 5  104  16 
 GRA  SZ IP        342 21.28                             137     0.110  122  13 
 GRA  SZ ES   1    342 40.33                             137     0.0 7  122  13 
 OCA  SZ EP   2    342 23.85                             129    -0.8 5  160 350 
 OCA  SZ I         342 51.00         8.0 0.36                           160 350 
 HEL  HZ EP   2    342 36.79                             113    -1.0 4  282 256 
 HEL  HZ I         343 14.54         6.1 0.35                           282 256 
 PRA  HZ EP   3    342 50.21                             106    -0.5 1  398 211 
 PRA  HZ I         343 36.70         1.8 0.36                           398 211 
                                                                                
