 2017  6 4 0541 30.5 L   6.778 -73.139150.0  RSN 12 0.4 2.2LRSN                1
 GAP=171        0.86       3.5     3.4  5.3  0.2798E+01 -0.1027E+00 -0.1405E+01E
 Epicentro: LOS SANTOS - SANTANDER                                             3
 ACTION:UPD 17-09-14 16:49 OP:jn   STATUS:               ID:20170604054130 L   I
 OLDACT:UP  17-06-04 18:48 OP:and  STATUS:               ID:20170604053740     3
 OLDACT:UP  17-06-04 18:40 OP:osc  STATUS:               ID:20170604053740     3
 OLDACT:REG 17-06-04 13:35 OP:osc  STATUS:               ID:20170604053740     3
 2017-06-04-0538-00M.COL___350                                                 6
 STAT SP IPHASW D HRMM SECON CODA AMPLIT PERI AZIMU VELO AIN AR TRES W  DIS CAZ7
 BRR  HZ IP     C  541 51.99                             153   -0.2010 73.0 300 
 BRR  HN ES        542  9.53                             153    0.4010 73.0 300 
 BRR  HZ I         542 13.92        24.7 0.24            150           73.0 300 
 RUS  HZ EP        541 54.50                             146    0.0210 98.1 176 
 RUS  HN ES        542 12.86                             146   -0.3310 98.1 176 
 RUS  HZ I         542 13.99        19.5 0.28            143           98.1 176 
 PTB  HZ EP   9    541 56.66                             133   -1.16 0  148 260 
 PTB  HN ES        542 18.08                             133    0.09 9  148 260 
 PTB  HZ I         542 19.87        17.4 0.17            130            148 260 
 SPBC HZ EP        541 59.13                             130   -0.05 9  162 220 
 SPBC HN ES        542 21.22                             130   -0.34 9  162 220 
 SPBC HZ I         542 24.12        38.3 0.22            128            162 220 
 YPLC HZ EP        542  0.22                             128   -0.12 9  174 151 
 YPLC HE ES        542 24.26                             128    0.62 9  174 151 
 YPLC HZ I         542 26.47        12.3 0.22            128            174 151 
 ZAR  HZ EP   1    542  2.64                             123   -0.73 6  206 293 
 ZAR  HN ES   3    542 28.00                             123   -1.03 2  206 293 
 NOR  HZ EP        542  6.03                             120   -0.35 8  234 235 
 NOR  HE ES        542 34.23                             120   -0.14 8  234 235 
 NOR  HZ I         542 42.02        13.3 0.26            118            234 235 
 CHI  HZ EP        542  8.38                             118    0.19 8  246 195 
 CHI  HN ES        542 37.42                             118   -0.18 8  246 195 
 CHI  HZ I         542 47.25         6.0 0.40            117            246 195 
 ROSC BZ EP   9    542 10.93                             118    2.28 0  251 211 
 ROSC BN ES        542 41.22                             118    0.52 8  251 211 
 ROSC BZ I         542 43.73        14.8 0.50            117            251 211 
 HEL  HZ EP   4    542 12.34                             116    1.41 0  272 256 
 HEL  HN ES        542 42.97                             116    0.49 8  272 256 
 HEL  HZ I         542 48.65         8.2 0.28            115            272 256 
 CBOC HZ EP        542 18.64                             111    1.07 7  334 253 
 CBOC HN ES        542 54.15                             111   -0.15 7  334 253 
 CBOC HZ I         543  6.42         2.8 0.54            110            334 253 
 ARGC HZ EP   2    542 19.90                             109   -0.69 3  362 340 
 ARGC HE ES   2    543  0.35                             109    0.67 3  362 340 
                                                                                
