 2016 11 4 0750 22.3 L   6.829 -73.328125.3  RSN  7 0.4 1.3LRSN                1
 GAP=105        1.09       4.4     4.7  9.2  0.1775E+00  0.8971E+01  0.9226E+01E
 Epicentro: ZAPATOCA - SANTANDER                                               3
 ACTION:UPD 17-10-26 21:04 OP:lp   STATUS:               ID:20161104075022 L   I
 OLDACT:REG 16-11-04 13:13 OP:dani STATUS:               ID:20161104074745     3
 2016-11-04-0748-00M.COL___343                                                 6
 STAT SP IPHASW D HRMM SECON CODA AMPLIT PERI AZIMU VELO AIN AR TRES W  DIS CAZ7
 BAR2 EZ EP        750 39.60                             165   -0.0410 30.8 148 
 BRR  HZ EP     C  750 39.92                             156   -0.2410 52.4 306 
 BRR  HE ES        750 54.04                             156   -0.0910 52.4 306 
 BRR  HZ I         750 55.15         6.3 0.20            145           52.4 306 
 PAM  EZ EP        750 43.11                             142   -0.0910 89.5  51 
 PAM  EE ES        750 59.69                             142    0.1610 89.5  51 
 PAM  EZ I         751  1.30         4.7 0.22            135           89.5  51 
 RUS  HZ EP        750 45.00                             137    0.4110  107 165 
 RUS  HE ES        751  1.87                             137   -0.1410  107 165 
 RUS  HZ I         751  3.20         2.5 0.27            130            107 165 
 PTB  HZ EP        750 44.82                             131   -1.0210  129 256 
 PTB  HZ I         751  6.65         5.2 0.40            121            129 256 
 SPBC HZ EP        750 48.89                             126    0.53 9  154 212 
 SPBC HN ES        751  8.77                             126    0.05 9  154 212 
 SPBC HZ I         751 11.89         3.0 0.10            117            154 212 
 ZAR  HE ES        751 14.66                             120    0.64 9  184 294 
                                                                                
