 2012  2 4 0706 32.7 L   6.636 -73.295138.7  RSN  5 0.4 1.3LRSN                1
 GAP=152        0.81       8.0     7.7  9.2  0.3590E+02  0.2281E+02  0.1217E+02E
 ACTION:UP  12-03-07 16:27 OP:epov STATUS:               ID:20120204070632 L   I
 2012-02-04-0700-00M.COL___188                                                 6
 STAT SP IPHASW D HRMM SECON CODA AMPLIT PERI AZIMU VELO SNR AR TRES W  DIS CAZ7
 BAR2 SZ ES   1    7 7  5.78                             174   -0.02 7 13.4 111 
 BRR  HZ EP   1    7 6 52.48                             152   -0.48 7 69.5 319 
 BRR  HZ I         7 6 54.58         5.8 0.11                          69.5 319 
 BRR  HN ES   1    7 7  8.92                             152    0.13 7 69.5 319 
 RUS  HZ EP   1    7 6 54.44                             147   -0.22 7 85.5 164 
 RUS  HE ES   1    7 7 12.12                             147    0.30 7 85.5 164 
 RUS  HZ I         7 7 14.06         1.9 0.17                          85.5 164 
 PTB  HZ EP   1    7 6 57.93                             134    0.57 7  129 265 
 PTB  HN ES   1    7 7 16.05                             134   -0.57 7  129 265 
 PTB  HZ I         7 7 20.54         0.0 0.14                           129 265 
 ZAR  HN ES   2    7 7 29.20                             122    0.91 4  197 299 
 ZAR  HZ I         7 7 34.71         2.3 0.10                           197 299 
                                                                                
