 2013  7 4 0936 52.6 L   6.816 -73.161145.6  RSN 10 0.5 1.8LRSN                1
 GAP=134        1.18       4.7     4.7  7.2  0.1047E+01  0.4137E+01 -0.9369E+01E
 Epicentro: LOS SANTOS - SANTANDER                                             3
 ACTION:UPD 13-08-12 10:35 OP:ep   STATUS:               ID:20130704093652 L   I
 OLDACT:UP  13-07-05 02:36 OP:CF   STATUS:               ID:20130704093652 L   3
 OLDACT:REG 13-07-04 08:19 OP:stll STATUS:               ID:20130704092839     3
 2013-07-04-0928-39M.COL___228                                                 6
 STAT SP IPHASW D HRMM SECON CODA AMPLIT PERI AZIMU VELO AIN AR TRES W  DIS CAZ7
 BAR2 SZ EP        937 12.20                             170   -0.0210 24.8 185 
 BAR2 SZ ES        937 27.72                             170    0.1710 24.8 185 
 BAR2 SZ I         937 28.82         4.7 0.18            170           24.8 185 
 GIR2 SZ EP        937 11.94                             168   -0.2410 29.3 353 
 BRR  HZ EP        937 13.82                             153    0.2410 68.9 298 
 BRR  HN ES        937 30.67                             153    0.7010 68.9 298 
 BRR  HN I         937 31.14        35.6 0.30            154           68.9 298 
 PAM  SZ EP        937 14.95                             151    0.1810 77.2  41 
 PAM  SZ I         937 15.10        17.5 0.16            152           77.2  41 
 PAM  SN ES        937 31.74                             151   -0.3410 77.2  41 
 RUS  HZ EP        937 17.32                             143    0.8710  102 175 
 RUS  HN ES        937 34.57                             143   -0.5010  102 175 
 RUS  HN I         937 36.47         3.6 0.50            144            102 175 
 PTB  HZ EP        937 19.10                             132   -0.31 9  146 258 
 PTB  HN ES        937 39.44                             132   -0.90 9  146 258 
 PTB  HN I         937 42.45         8.6 0.30            133            146 258 
 CAPV BZ EP        937 19.83                             132   -0.11 9  149  39 
 OCA  HN ES   4    937 40.70                             130   -1.93 0  158 354 
 OCA  HN I         937 44.06        20.2 0.34            131            158 354 
 ZAR  HZ EP        937 24.85                             123    0.07 9  202 292 
 ZAR  HE ES        937 50.51                             123    0.61 9  202 292 
 SML  HN EP        937 28.74                             118   -0.21 8  241 335 
 SML  HE ES        937 56.88                             118   -0.44 8  241 335 
                                                                                
