 2015  5 4 0717 42.6 L   6.822 -73.166144.5  RSN 12 0.5 1.7LRSN                1
 GAP=133        1.28       3.8     4.8  7.8 -0.7048E-01  0.1660E+02  0.1410E+01E
 Epicentro: LOS SANTOS - SANTANDER                                             3
 ACTION:UPD 15-09-10 22:01 OP:cam  STATUS:               ID:20150504071742 L   I
 OLDACT:REG 15-05-04 13:42 OP:drio STATUS:               ID:20150504070738     3
 2015-05-04-0707-38M.COL___274                                                 6
 STAT SP IPHASW D HRMM SECON CODA AMPLIT PERI AZIMU VELO AIN AR TRES W  DIS CAZ7
 BAR2 EZ EP        718  2.58                             169    0.4310 25.5 184 
 BAR2 EZ ES        718 16.87                             169   -0.5110 25.5 184 
 BAR2 EZ I         718 20.77         7.2 0.46            168           25.5 184 
 BRR  HZ EP        718  4.12                             153    0.6610 68.0 298 
 BRR  HE ES        718 20.61                             153    0.9010 68.0 298 
 BRR  HZ I         718 25.10        12.1 0.12            151           68.0 298 
 PAM  SZ EP        718  5.10                             151    0.4210 77.0  42 
 PAM  SE ES        718 20.99                             151   -0.9010 77.0  42 
 PAM  SZ I         718 23.11         9.1 0.24            157           77.0  42 
 RUS  HZ EP        718  6.95                             143    0.5110  103 175 
 RUS  HN ES        718 24.86                             143   -0.1610  103 175 
 RUS  HZ I         718 27.39         2.7 0.22            145            103 175 
 OCA  HZ EP        718 10.24                             130   -0.34 9  158 354 
 OCA  HE ES        718 31.81                             130   -0.58 9  158 354 
 OCA  HZ I         718 35.78        19.1 0.36            133            158 354 
 ZAR  HZ EP        718 15.08                             122    0.40 9  201 292 
 ZAR  HN ES        718 40.19                             122    0.52 9  201 292 
 ZAR  HZ I         718 46.92         9.5 0.32            123            201 292 
 CHI  HZ EP   1    718 20.35                             116   -0.10 6  250 195 
 CHI  HN ES        718 49.86                             116   -0.09 8  250 195 
 CHI  HZ I         718 59.57         1.8 0.34            118            250 195 
 HEL  HZ EP   1    718 22.06                             114   -0.54 6  270 255 
 HEL  HE ES        718 53.60                             114   -0.17 8  270 255 
 HEL  HZ I         719  1.30         3.8 0.26            116            270 255 
 URE  HZ EP   4    718 25.18                             113    1.88 0  281 292 
 URE  HN ES   1    718 55.20                             113    0.18 6  281 292 
 URE  HZ I         719  3.51         8.5 0.30            115            281 292 
 GUY2CHN ES        718 59.45                             112   -0.61 7  301 234 
 GUY2CHZ I         719 11.27         2.3 0.54                           301 234 
 CBOC HZ EP   4    718 31.82                             110    2.49 0  332 252 
 CBOC HN ES        719  5.07                             110   -0.68 7  332 252 
 MON  HZ EP   4    718 29.35                             108   -1.85 0  350 308 
 MON  HN ES        719  8.32                             108   -0.76 6  350 308 
 MON  HZ I         719 12.17         1.3 0.18            110            350 308 
                                                                                
