 2010  3 4 0254 38.2 L   6.817 -72.998149.1  RSN 11 0.3 2.6LRSN                1
 GAP=198        0.68       2.4     5.3  4.4 -0.1415E+01  0.3866E+01  0.1843E+01E
 Epicentro: CEPITA - SANTANDER                                                 3
 ACTION:UP  10-08-24 09:51 OP:vdl  STATUS:               ID:20100304025438 L   I
 2010-03-04-0252-25S.COL___096                                                 6
 STAT SP IPHASW D HRMM SECON CODA AMPLIT PERI AZIMU VELO SNR AR TRES W  DIS CAZ7
 BAR2 SZ IP        254 58.63                             167     0.110   32 220 
 BAR2 SZ ES   1    255 13.96                             167    -0.3 7   32 220 
 BRR  HZ IP        255  0.54                             149     0.010   85 292 
 BRR  HN ES        255 17.72                             149    -0.310   85 292 
 BRR  HZ I         255 20.23       100.1 0.54                            85 292 
 RUS  BZ EP        255  2.42                             144    -0.110  103 185 
 RUS  BN ES        255 21.46                             144     0.110  103 185 
 RUS  BZ I         255 22.54        38.6 0.26                           103 185 
 OCA  SZ EP        255  6.94                             130     0.0 9  161 347 
 OCA  SZ ES   1    255 29.89                             130     0.6 7  161 347 
 CHI  HZ EP        255 16.63                             117    -0.2 8  255 199 
 CHI  HN ES        255 46.89                             117     0.0 8  255 199 
 CHI  HZ I         255 55.54        18.9 1.40                           255 199 
 ROSC BZ EP   1    255 18.25                             116     0.6 6  263 214 
 ROSC BE ES        255 48.54                             116     0.1 8  263 214 
 ROSC BZ I         255 54.52        34.5 0.33                           263 214 
 HEL  HZ EP   2    255 20.35                             114    -0.1 4  288 256 
 HEL  HZ I         255 56.93        11.1 0.40                           288 256 
 RREF BZ EP   1    255 25.90                             110    -0.2 5  336 231 
 RREF BE ES   1    256  4.23                             110     0.8 5  336 231 
 RREF BZ I         256 11.11        18.0 0.30                           336 231 
 DBB  SZ EP   1    255 26.99                             109    -0.7 5  356 274 
 TOL  SZ EP   1    255 27.99                             109    -0.1 5  356 226 
 TOL  SZ ES   2    256  7.08                             109     0.0 3  356 226 
 PRA  HZ EP   1    255 32.33                             106    -0.7 4  402 211 
 PRA  HN ES        256 16.00                             106     0.2 6  402 211 
                                                                                
