 2013  7 4 0349 15.7 L   6.821 -73.162143.6  RSN 12 0.4 2.0LRSN                1
 GAP= 73        1.04       3.3     3.5  5.4 -0.5268E+00  0.3734E+00 -0.2237E+01E
 Epicentro: LOS SANTOS - SANTANDER                                             3
 ACTION:UPD 13-08-12 10:35 OP:ep   STATUS:               ID:20130704034915 L   I
 OLDACT:REG 13-07-04 08:09 OP:stll STATUS:               ID:20130704034838     3
 2013-07-04-0348-38M.COL___238                                                 6
 STAT SP IPHASW D HRMM SECON CODA AMPLIT PERI AZIMU VELO AIN AR TRES W  DIS CAZ7
 BAR2 SZ EP        349 34.97                             169   -0.1010 25.4 185 
 BAR2 SZ ES        349 49.90                             169   -0.3110 25.4 185 
 BAR2 SZ I         349 51.60        13.2 0.14            170           25.4 185 
 GIR2 SZ EP        349 35.48                             168    0.4810 28.7 353 
 GIR2 SZ ES        349 49.93                             168   -0.1610 28.7 353 
 BRR  HZ EP        349 36.87                             153    0.4610 68.5 297 
 BRR  HN ES        349 53.65                             153    1.0410 68.5 297 
 BRR  HN I         349 57.08        27.4 0.16            152           68.5 297 
 PAM  SN ES        349 54.83                             151    0.1210 76.7  42 
 PAM  SN I         349 56.31        20.4 0.42            153           76.7  42 
 RUS  HZ EP        349 39.06                             143   -0.3110  103 175 
 RUS  HN ES        349 57.73                             143   -0.1510  103 175 
 GRA  SZ EP        349 40.85                             137    0.2910  124  19 
 PTB  HZ EP        349 42.46                             132    0.13 9  146 258 
 PTB  HN ES        350  2.60                             132   -0.53 9  146 258 
 PTB  HN I         350  8.21         8.5 0.24            132            146 258 
 CAPV BZ EP        349 43.01                             131    0.21 9  149  39 
 CAPV BZ ES        350  3.72                             131   -0.26 9  149  39 
 TAM  HZ EP        349 43.33                             130   -0.05 9  157 106 
 OCA  HN ES        350  4.81                             130   -0.50 9  158 354 
 OCA  HN I         350  6.98        13.9 0.44            131            158 354 
 ZAR  HE ES        350 12.60                             122   -0.09 9  202 292 
 SML  HN EP        349 51.81                             117   -0.03 8  241 335 
 SML  HE ES        350 19.42                             117   -0.65 8  241 335 
                                                                                
