 2017  5 4 0603 59.7 L   6.814 -73.097148.4  RSN  9 0.2 1.6LRSN                1
 GAP=116        0.69       3.0     2.9  4.6 -0.2055E+01  0.5734E+00  0.2553E+01E
 Epicentro: LOS SANTOS - SANTANDER                                             3
 ACTION:UPD 17-06-16 13:32 OP:jn   STATUS:               ID:20170504060359 L   I
 OLDACT:UP  17-05-04 17:56 OP:edw  STATUS:               ID:20170504055740d    3
 OLDACT:DUP 17-05-04 17:52 OP:edw  STATUS:               ID:20170504055740d    3
 OLDACT:UP  17-05-04 17:51 OP:edw  STATUS:               ID:20170504055738     3
 OLDACT:REG 17-05-04 13:04 OP:edw  STATUS:               ID:20170504055738     3
 2017-05-04-0558-00M.COL___370                                                 6
 STAT SP IPHASW D HRMM SECON CODA AMPLIT PERI AZIMU VELO AIN AR TRES W  DIS CAZ7
 PAM  EZ EP        6 4 21.79                             152   -0.1610 72.8  37 
 PAM  EN ES        6 4 39.26                             152   -0.0310 72.8  37 
 PAM  EZ I         6 4 41.60         6.3 0.50            156           72.8  37 
 BRR  HZ IP     C  6 4 21.28                             151   -0.1010 75.3 296 
 BRR  HE ES        6 4 38.48                             151    0.2010 75.3 296 
 BRR  HZ I         6 4 42.23        11.4 0.42            154           75.3 296 
 RUS  HZ EP        6 4 23.73                             144   -0.1010  102 179 
 RUS  HN ES        6 4 42.57                             144   -0.0610  102 179 
 RUS  HZ I         6 4 46.13         2.9 0.68            145            102 179 
 PTB  HZ EP   9    6 4 26.39                             131   -1.02 0  153 259 
 PTB  HN ES        6 4 47.33                             132   -0.66 9  153 259 
 PTB  HZ I         6 4 48.34         3.8 0.24            134            153 259 
 SPBC HZ EP        6 4 28.49                             129   -0.37 9  168 220 
 SPBC HN ES        6 4 51.85                             129    0.26 9  168 220 
 SPBC HZ I         6 4 57.46         6.6 0.32            131            168 220 
 YPLC HZ EP        6 4 29.90                             127    0.30 9  176 153 
 YPLC HE ES   4    6 4 54.39                             127    1.49 0  176 153 
 YPLC HZ I         6 4 56.49         3.9 0.36            130            176 153 
 ZAR  HZ EP        6 4 33.08                             122    0.29 8  208 291 
 ZAR  HN ES   4    6 5  1.07                             122    2.48 0  208 291 
 ZAR  HZ I         6 5  3.65         4.9 0.18            125            208 291 
 NOR  HN ES        6 5  4.35                             118   -0.25 8  240 235 
 HEL  HE ES        6 5 12.75                             115    0.11 7  278 256 
 PTGC HE ES   4    6 5 15.63                             112   -2.28 0  308 160 
                                                                                
