 2016  2 4 0733 50.9 L   6.360 -73.603112.6  RSN 14 0.5 2.2LRSN                1
 GAP=144        1.05       3.9     3.8  6.8 -0.9234E+01  0.2721E+01  0.6078E+00E
 Epicentro: SANTA HELENA DEL OPON - SANTANDER                                  3
 ACTION:UPD 16-03-04 21:23 OP:rebc STATUS:               ID:20160204073350 L   I
 OLDACT:REG 16-02-04 12:52 OP:dnl  STATUS:               ID:20160204072736     3
 2016-02-04-0727-36M.COL___294                                                 6
 STAT SP IPHASW D HRMM SECON CODA AMPLIT PERI AZIMU VELO AIN AR TRES W  DIS CAZ7
 BAR2 EZ IP     D  734  7.84                             153    0.0810 53.2  61 
 BAR2 EZ ES   2    734 20.26                             153   -0.68 5 53.2  61 
 BAR2 EZ I         734 22.23        56.3 0.18            154           53.2  61 
 SPBC HZ EP     C  734  9.92                             137   -0.5010 93.9 214 
 SPBC HE ES        734 25.71                             137    0.0410 93.9 214 
 SPBC HZ I         734 29.37        52.9 0.11            137           93.9 214 
 PTB  HZ IP     C  734  9.62                             136   -0.9010 96.4 282 
 PTB  HE ES        734 26.66                             136    0.8110 96.4 282 
 PTB  HZ I         734 27.14        48.7 0.11            136           96.4 282 
 PAM  EZ EP        734 16.16                             124    0.22 9  147  43 
 PAM  EN ES        734 35.29                             124   -0.21 9  147  43 
 PAM  EZ I         734 40.50        18.4 0.51            124            147  43 
 NOR  HZ EP        734 17.26                             120   -0.00 9  166 238 
 NOR  HN ES        734 37.60                             120   -0.25 9  166 238 
 NOR  HZ I         734 39.58        30.7 0.15            120            166 238 
 ROSC BZ EP        734 20.45                             117    0.56 9  186 205 
 ROSC BN ES   4    734 39.49                             117   -3.03 0  186 205 
 ROSC BZ I         734 46.53        13.4 0.46            116            186 205 
 ZAR  HZ EP   2    734 19.19                             116   -0.31 4  187 312 
 ZAR  HN ES   2    734 40.88                             116   -0.94 4  187 312 
 ZAR  HZ I         734 44.98        16.5 0.21            116            187 312 
 OCA  HZ EP   1    734 22.18                             113   -0.08 6  210   9 
 OCA  HN ES        734 47.26                             113    0.51 8  210   9 
 OCA  HZ I         734 51.78        41.0 0.22            114            210   9 
 HEL  HZ EP        734 23.07                             113    0.11 8  214 265 
 HEL  HE ES        734 47.58                             113   -0.41 8  214 265 
 HEL  HZ I         734 50.99         8.2 0.27            113            214 265 
 GUY2CHZ EP        734 25.02                             111   -0.13 8  232 237 
 GUY2CHN ES        734 52.85                             111    0.97 8  232 237 
 GUY2CHZ I         734 59.76        11.0 0.31                           232 237 
 CBOC HZ EP        734 29.94                             107    0.54 8  272 259 
 CBOC HN ES   2    734 58.56                             107   -0.89 4  272 259 
 CBOC HZ I         735  3.62         3.8 0.19            107            272 259 
 ANIL HZ EP   2    734 31.41                             106    0.11 4  287 224 
 ANIL HE ES   2    735  2.39                             106   -0.45 4  287 224 
 ANIL HZ I         735 11.95        20.1 0.30            106            287 224 
 ORTC HZ EP   2    734 35.48                             103   -0.15 3  327 214 
 ORTC HE ES   4    735 12.20                             103    1.66 0  327 214 
 ORTC HZ I         735 16.06         4.6 0.39            103            327 214 
 PAL  HZ EP        734 37.15                             103    0.16 7  338 242 
 PAL  HN ES        735 12.45                             103   -0.50 7  338 242 
 PAL  HZ I         735 21.12         3.7 0.16            103            338 242 
                                                                                
