 2016 10 4 0244 38.5 L   6.783 -73.167153.7  RSN  5 0.1 1.3LRSN                1
 GAP=135        0.34       2.2     2.0  3.4  0.1767E+01 -0.1391E+01 -0.1643E+01E
 Epicentro: LOS SANTOS - SANTANDER                                             3
 ACTION:UPD 16-11-09 19:16 OP:rebc STATUS:               ID:20161004023742dL   I
 OLDACT:DUP 16-10-04 15:52 OP:dani STATUS:               ID:20161004023742dL   3
 OLDACT:DUP 16-10-04 15:47 OP:dani STATUS:               ID:20161004023741dL   3
 OLDACT:UPD 16-10-04 12:58 OP:edw  STATUS:               ID:20161004023740 L   3
 2016-10-04-0238-00M.COL___369                                                 6
 STAT SP IPHASW D HRMM SECON CODA AMPLIT PERI AZIMU VELO AIN AR TRES W  DIS CAZ7
 BRR  HZ EP        245  0.68                             154    0.2010 70.1 301 
 BRR  HN ES        245 17.63                             154    0.0310 70.1 301 
 BRR  HZ I         245 21.51         4.1 0.30            155           70.1 301 
 PAM  EZ EP        245  1.64                             151   -0.1210 80.3  40 
 RUS  HZ EP        245  2.95                             146   -0.0010 98.9 175 
 RUS  HE ES        245 21.99                             146   -0.0110 98.9 175 
 RUS  HZ I         245 22.58         3.6 0.34            149           98.9 175 
 PTB  HZ EP        245  5.92                             134   -0.00 9  145 259 
 PTB  HN ES        245 27.23                             134   -0.06 9  145 259 
 PTB  HZ I         245 30.11         1.7 0.17            137            145 259 
 ZAR  HE ES        245 36.90                             124   -0.06 9  203 293 
                                                                                
