 2013  2 4 0425 30.3 L   6.808 -73.140150.6  RSN  7 0.5 1.6LRSN                1
 GAP=102        1.21       5.9     5.7  8.4 -0.4061E+01 -0.4261E+01  0.1172E+02E
 Epicentro: LOS SANTOS - SANTANDER                                             3
 ACTION:UPD 13-03-12 09:30 OP:ep   STATUS:               ID:20130204042530 L   I
 2013-02-04-0420-00M.COL___241                                                 6
 STAT SP IPHASW D HRMM SECON CODA AMPLIT PERI AZIMU VELO AIN AR TRES W  DIS CAZ7
 BAR2 SZ EP        425 50.26                             170   -0.2610 24.3 191 
 BAR2 SZ I         425 50.31        10.3 0.20            165           24.3 191 
 BAR2 SZ ES   1    426  6.17                             170   -0.13 7 24.3 191 
 BRR  HZ IP     C  425 52.11                             153    0.1410 71.4 298 
 BRR  HZ I         425 52.35         9.4 0.24            152           71.4 298 
 BRR  HN ES        426  9.79                             153    0.9110 71.4 298 
 PAM  SZ EP        425 53.00                             152    0.0410 76.3  40 
 PAM  SZ I         425 53.21         9.7 0.22            157           76.3  40 
 PAM  SN ES        426 10.47                             152   -0.1710 76.3  40 
 RUS  HZ EP        425 54.66                             145    0.0810  101 176 
 RUS  HE ES        426 13.06                             145   -0.4610  101 176 
 PTB  HZ EP        425 57.33                             133   -0.40 9  149 259 
 PTB  HN ES        426 18.46                             133   -0.67 9  149 259 
 PTB  HZ I         426 24.03         4.2 0.70            131            149 259 
 TAM  HZ IP     C  425 58.42                             132    0.10 9  155 105 
 CHI  HZ EP   1    426  8.54                             118    0.17 6  250 195 
 CHI  HN ES   1    426 39.70                             118    1.64 6  250 195 
 CHI  HZ I         426 47.52         1.3 0.44            116            250 195 
                                                                                
