 2011  5 4 0759  5.8 L   6.782 -73.073150.4  RSN  5 0.2 1.5LRSN                1
 GAP=190        0.46       3.6     6.8  6.7 -0.1389E+00 -0.1909E+01 -0.6640E+01E
 Epicentro: LOS SANTOS - SANTANDER                                             3
 ACTION:UP  11-06-29 08:50 OP:tino STATUS:               ID:20110504075905 L   I
 2011-05-04-0755-08S.COL___133                                                 6
 STAT SP IPHASW D HRMM SECON CODA AMPLIT PERI AZIMU VELO SNR AR TRES W  DIS CAZ7
 BAR2 SZ EP   1    759 26.22                             170     0.2 7   24 210 
 BAR2 SZ ES   2    759 41.48                             170    -0.3 5   24 210 
 BAR2 SZ I         759 47.08         5.7 0.36                            24 210 
 BRR  HZ EP   1    759 28.12                             151     0.2 7   79 297 
 BRR  HZ I         759 29.65         5.3 0.15                            79 297 
 BRR  HN ES   2    759 45.51                             151     0.3 5   79 297 
 RUS  HZ EP   2    759 29.70                             145    -0.2 5   98 181 
 RUS  HE ES   2    759 48.75                             145     0.1 5   98 181 
 RUS  HZ I         759 49.53         3.6 0.70                            98 181 
 OCA  SZ EP   1    759 34.75                             130    -0.1 7  163 350 
 OCA  SZ ES   2    759 57.04                             130    -0.4 5  163 350 
 OCA  SZ I         8 0  1.35         4.6 0.40                           163 350 
 NOR  SN ES   2    8 0 10.60                             119    -0.4 4  240 236 
                                                                                
