 2014  2 4 0241 36.8 L   6.814 -73.182142.0  RSN 16 0.4 1.9LRSN                1
 GAP=131        0.72       2.3     3.3  4.1 -0.1025E+01  0.4526E+01 -0.9295E-01E
 Epicentro: ZAPATOCA - SANTANDER                                               3
 ACTION:UPD 14-03-10 08:07 OP:ep   STATUS:               ID:20140204024136 L   I
 OLDACT:UP  14-02-04 10:14 OP:mh   STATUS:               ID:20140204024000     3
 OLDACT:UP  14-02-04 10:14 OP:mh   STATUS:               ID:20140204024000     3
 OLDACT:UP  14-02-04 10:11 OP:mh   STATUS:               ID:20140204024000     3
 OLDACT:UP  14-02-04 10:11 OP:mh   STATUS:               ID:20140204024000     3
 OLDACT:REG 14-02-04 08:04 OP:mh   STATUS:               ID:20140204024000     3
 2014-02-04-0240-00M.COL___288                                                 6
 STAT SP IPHASW D HRMM SECON CODA AMPLIT PERI AZIMU VELO AIN AR TRES W  DIS CAZ7
 BAR2 SZ EP   1    241 55.83                             170   -0.16 7 24.5 180 
 BAR2 SZ ES        242 11.27                             170    0.3110 24.5 180 
 BAR2 SZ I         242 13.12        25.9 0.32            168           24.5 180 
 BRR  HZ EP   1    241 57.71                             153    0.42 7 66.9 299 
 BRR  HN ES   1    242 12.90                             153   -0.37 7 66.9 299 
 BRR  HZ I         242 15.82         7.4 0.15            149           66.9 299 
 PAM  SZ EP        241 58.81                             150    0.1210 78.9  43 
 PAM  SN ES   1    242 15.68                             150   -0.10 7 78.9  43 
 PAM  SZ I         242 18.02        18.5 0.40            154           78.9  43 
 RUS  HZ EP   1    241 59.97                             142   -0.34 7  102 174 
 RUS  HN ES        242 18.83                             142    0.1810  102 174 
 RUS  HZ I         242 19.69         8.8 0.27            144            102 174 
 PTB  HZ EP   1    242  2.66                             132   -0.45 7  144 258 
 PTB  HN ES   1    242 23.54                             132   -0.11 7  144 258 
 PTB  HZ I         242 25.77         9.9 0.10            130            144 258 
 SPBC HZ EP   1    242  4.71                             128   -0.16 7  162 218 
 SPBC HN ES        242 26.63                             128   -0.15 9  162 218 
 SPBC HZ I         242 29.61         9.2 0.15            128            162 218 
 ZAR  HZ EP   1    242  9.62                             122    1.08 6  200 292 
 ZAR  HN ES   1    242 33.62                             122    0.32 6  200 292 
 ZAR  HZ I         242 41.03         6.1 0.08            121            200 292 
 NOR  HZ EP        242 12.19                             118    0.15 8  232 234 
 NOR  HN ES        242 39.23                             118   -0.31 8  232 234 
 NOR  HZ I         242 44.69         6.4 0.30            118            232 234 
 SML  HZ EP        242 12.31                             117   -0.56 8  241 336 
 SML  HE ES   1    242 40.66                             117   -0.35 6  241 336 
 SML  HZ I         242 43.80         7.3 0.14            118            241 336 
 CHI  HZ EP   1    242 14.27                             116   -0.06 6  249 194 
 CHI  HN ES        242 43.23                             116   -0.38 8  249 194 
 CHI  HZ I         242 47.06         6.8 0.44            117            249 194 
 HEL  HZ EP   4    242 17.76                             114    1.34 0  269 255 
 HEL  HN ES   4    242 45.98                             114   -1.34 0  269 255 
 HEL  HZ I         242 54.95         4.7 0.39            114            269 255 
 GUY2CHZ EP   1    242 20.44                             112    0.49 5  299 234 
 GUY2CHE ES   4    242 55.90                             112    2.28 0  299 234 
 GUY2CHZ I         243  2.01         3.7 0.44                           299 234 
 RREF BZ EP   1    242 22.86                             110    0.33 5  320 229 
 RREF BN ES   4    243  1.17                             110    2.96 0  320 229 
 RREF BZ I         243  4.96         4.3 0.27            111            320 229 
 CBOC HZ EP   2    242 24.22                             109    1.06 3  330 252 
 CBOC HE ES   2    242 59.45                             109    0.12 3  330 252 
 CBOC HZ I         243  5.55         1.0 0.27            110            330 252 
 PRA  HZ EP   1    242 29.76                             106   -0.35 4  391 209 
 PRA  HN ES   4    243  9.79                             106   -1.90 0  391 209 
 PRA  HZ I         243 16.63         3.0 0.62            107            391 209 
 ORTC HZ EP   1    242 30.87                             106    0.42 4  394 216 
 ORTC HN ES   2    243 13.07                             106    0.77 3  394 216 
 ORTC HZ I         243 16.87         2.2 0.25            106            394 216 
                                                                                
