 2016  4 4 0747 52.4 L   6.820 -73.223140.0  RSN  9 0.3 1.5LRSN                1
 GAP=125        0.54       2.2     2.7  4.0 -0.1335E+01  0.3539E+01  0.1292E+00E
 Epicentro: ZAPATOCA - SANTANDER                                               3
 ACTION:UPD 16-05-05 14:18 OP:rebc STATUS:               ID:20160404074752 L   I
 OLDACT:DUP 16-04-04 18:18 OP:dnl  STATUS:               ID:20160404073745d    3
 OLDACT:REG 16-04-04 12:33 OP:mh   STATUS:               ID:20160404073744     3
 2016-04-04-0737-44M.COL___306                                                 6
 STAT SP IPHASW D HRMM SECON CODA AMPLIT PERI AZIMU VELO AIN AR TRES W  DIS CAZ7
 BAR2 EZ EP        748 11.29                             169   -0.0910 25.5 170 
 BAR2 EZ ES        748 26.30                             169    0.1110 25.5 170 
 BAR2 EZ I         748 28.00         6.1 0.32            171           25.5 170 
 PAM  EZ EP        748 14.35                             149    0.0910 81.5  45 
 PAM  EN ES        748 31.41                             149    0.1010 81.5  45 
 PAM  EZ I         748 33.82         6.8 0.54            152           81.5  45 
 RUS  HZ EP        748 15.48                             142   -0.3310  104 171 
 RUS  HN ES        748 34.25                             142    0.1710  104 171 
 RUS  HZ I         748 35.19         2.2 0.36            146            104 171 
 PTB  HZ EP        748 18.07                             133   -0.11 9  140 257 
 PTB  HN ES        748 38.47                             133    0.18 9  140 257 
 PTB  HZ I         748 44.74         5.2 0.19            132            140 257 
 OCA  HZ EP   2    748 19.97                             129   -0.01 5  157 356 
 OCA  HN ES   2    748 40.84                             129   -0.66 5  157 356 
 OCA  HZ I         748 47.07         5.8 0.15            130            157 356 
 SPBC HZ EP   2    748 20.44                             129    0.32 5  160 216 
 SPBC HE ES   2    748 42.09                             129    0.34 5  160 216 
 SPBC HZ I         748 43.64         5.4 0.10            130            160 216 
 ZAR  HZ EP   2    748 24.23                             123    0.66 4  195 292 
 ZAR  HN ES   2    748 47.35                             123   -0.53 4  195 292 
 ZAR  HZ I         748 55.36         3.9 0.28            122            195 292 
 CHI  HZ EP   2    748 29.49                             116   -0.29 4  249 193 
 CHI  HN ES        748 58.71                             116   -0.23 8  249 193 
 CHI  HZ I         749  4.29         1.3 0.19            118            249 193 
 GUY2CHZ EP   2    748 35.84                             112    0.74 4  296 233 
 GUY2CHN ES   2    749  7.90                             112   -0.51 4  296 233 
 GUY2CHZ I         749 18.72         1.5 0.46                           296 233 
                                                                                
