 2015 11 4 0559 53.0 L   6.893 -73.322128.9  RSN  8 0.3 1.4LRSN                1
 GAP=101        0.68       2.1     3.1  4.9  0.2896E-02  0.2976E+01 -0.1540E+00E
 Epicentro: BETULIA - SANTANDER                                                3
 ACTION:UPD 15-12-28 16:08 OP:cam  STATUS:               ID:20151104055953 L   I
 OLDACT:UP  15-12-17 21:16 OP:cam  STATUS:               ID:20151104055953 L   3
 OLDACT:UP  15-11-19 06:49 OP:CARA STATUS:               ID:20151104055953 L   3
 OLDACT:REG 15-11-04 13:15 OP:cara STATUS:               ID:20151104055748     3
 2015-11-04-0557-48M.COL___304                                                 6
 STAT SP IPHASW D HRMM SECON CODA AMPLIT PERI AZIMU VELO AIN AR TRES W  DIS CAZ7
 BAR2 EZ IP     C  6 0 11.06                             163    0.0910 36.6 155 
 BAR2 EZ ES        6 0 24.78                             163   -0.2310 36.6 155 
 BAR2 EZ I         6 0 25.65        14.3 0.24            166           36.6 155 
 BRR  HZ IP        6 0 11.61                             158    0.4810 49.2 299 
 BRR  HE ES        6 0 25.72                             158    0.4310 49.2 299 
 BRR  HZ I         6 0 25.99         5.5 0.12            156           49.2 299 
 PAM  EZ EP   2    6 0 14.06                             145    0.14 5 84.6  54 
 PAM  EN ES        6 0 30.17                             145   -0.0910 84.6  54 
 PAM  EZ I         6 0 33.34         2.9 0.28            145           84.6  54 
 RUS  HZ EP        6 0 16.04                             136   -0.1410  114 167 
 RUS  HN ES        6 0 34.34                             136    0.0610  114 167 
 RUS  HZ I         6 0 35.36         1.4 0.34            138            114 167 
 OCA  HZ EP        6 0 18.83                             128   -0.08 9  149   0 
 OCA  HE ES        6 0 38.96                             128   -0.19 9  149   0 
 OCA  HZ I         6 0 44.89         7.2 0.12            127            149   0 
 SPBC HZ EP   2    6 0 19.97                             126    0.01 5  160 211 
 SPBC HE ES        6 0 40.64                             126   -0.36 9  160 211 
 SPBC HZ I         6 0 42.03         3.8 0.56            126            160 211 
 ZAR  HE ES        6 0 44.46                             122   -0.30 9  182 291 
 ZAR  HZ I         6 0 49.59         2.9 0.70            121            182 291 
 CHI  HN ES   2    6 1  0.48                             113    0.82 4  254 190 
                                                                                
