 2011  5 4 0500 50.7 L   6.775 -73.108143.1  RSN 10 0.3 1.8LRSN                1
 GAP=143        0.57       3.3     4.7  4.5 -0.5989E+01  0.1099E+01 -0.2451E+01E
 Epicentro: LOS SANTOS - SANTANDER                                             3
 ACTION:UP  11-06-29 08:50 OP:tino STATUS:               ID:20110504050050 L   I
 2011-05-04-0458-08S.COL___132                                                 6
 STAT SP IPHASW D HRMM SECON CODA AMPLIT PERI AZIMU VELO SNR AR TRES W  DIS CAZ7
 BAR2 SZ EP   1    5 1  9.97                             171     0.0 7   22 202 
 BAR2 SZ ES   1    5 1 24.71                             171    -0.3 7   22 202 
 BAR2 SZ I         5 1 26.31        22.5 0.23                            22 202 
 BTL  SZ IP   1    5 1 10.07                             170     0.0 7   24 312 
 BTL  SZ ES   1    5 1 25.47                             170     0.4 7   24 312 
 BRR  HZ IP     C  5 1 11.85                             150     0.010   76 299 
 BRR  HN ES   2    5 1 28.39                             150     0.0 5   76 299 
 BRR  HZ I         5 1 32.86        22.6 0.14                            76 299 
 PAM  SZ EP   1    5 1 13.04                             150     0.4 7   77  36 
 RUS  HZ EP   1    5 1 14.05                             144     0.1 7   98 178 
 RUS  HN ES   2    5 1 31.78                             144    -0.4 5   98 178 
 RUS  HZ I         5 1 33.52         6.4 0.20                            98 178 
 BRI  SZ EP   1    5 1 14.53                             140     0.1 7  110  18 
 BRI  SZ I         5 1 39.47         6.0 0.83                           110  18 
 GRA  SZ IP        5 1 15.84                             136     0.010  127  15 
 GRA  SZ ES   1    5 1 35.45                             136     0.0 7  127  15 
 OCA  SZ EP   1    5 1 18.53                             128    -0.6 7  164 352 
 OCA  SZ ES   2    5 1 40.92                             128    -0.4 5  164 352 
 OCA  SZ I         5 1 47.11         8.7 0.48                           164 352 
 NOR  SN ES   2    5 1 54.15                             118    -0.2 4  237 236 
 HEL  HZ EP   2    5 1 31.36                             114     0.2 4  275 257 
 HEL  HN ES   2    5 2  3.08                             114     0.4 4  275 257 
 HEL  HZ I         5 2  8.05         3.6 0.43                           275 257 
                                                                                
