 2017  3 4 0357 54.7 L   6.796 -73.146136.1  RSN 12 0.4 1.7LRSN                1
 GAP=119        1.10       3.6     4.1  5.9 -0.7579E+00  0.6073E+01  0.4006E+01E
 Epicentro: LOS SANTOS - SANTANDER                                             3
 ACTION:UPD 17-05-25 18:35 OP:jn   STATUS:               ID:20170304035754 L   I
 OLDACT:DUP 17-03-04 14:58 OP:lv   STATUS:               ID:20170304034745d    3
 2017-03-04-0348-00M.COL___397                                                 6
 STAT SP IPHASW D HRMM SECON CODA AMPLIT PERI AZIMU VELO AIN AR TRES W  DIS CAZ7
 BAR2 EZ IP     C  358 13.11                             170   -0.0810 22.9 190 
 BAR2 EZ ES        358 27.20                             170   -0.3910 22.9 190 
 BAR2 EZ I         358 29.38        13.3 0.18            168           22.9 190 
 BRR  HZ EP        358 14.92                             151    0.0710 71.4 299 
 BRR  HN ES        358 30.83                             151    0.2810 71.4 299 
 BRR  HZ I         358 32.26         9.2 0.13            150           71.4 299 
 PAM  EZ EP        358 16.17                             149    0.2210 77.7  39 
 PAM  EN ES        358 32.70                             149    0.2010 77.7  39 
 PAM  EZ I         358 34.97        11.7 0.36            153           77.7  39 
 RUS  HZ EP        358 17.32                             142   -0.1910  100 176 
 RUS  HN ES        358 35.35                             142    0.0710  100 176 
 RUS  HZ I         358 37.53         3.4 0.30            142            100 176 
 PTB  HZ EP        358 20.00                             130   -0.92 9  148 259 
 PTB  HN ES        358 40.40                             130   -0.94 9  148 259 
 PTB  HZ I         358 44.11         5.5 0.16            130            148 259 
 SPBC HZ EP        358 22.17                             127   -0.30 9  163 219 
 SPBC HN ES        358 44.39                             127    0.28 9  163 219 
 SPBC HZ I         358 48.66         8.6 0.18            127            163 219 
 ZAR  HZ EP        358 26.77                             120    0.19 9  204 292 
 ZAR  HN ES        358 51.98                             120    0.56 9  204 292 
 ZAR  HZ I         358 57.39         7.5 0.37            121            204 292 
 NOR  HZ EP        358 30.02                             116    0.13 8  234 235 
 NOR  HN ES        358 57.81                             116    0.50 8  234 235 
 NOR  HZ I         359  1.03         5.3 0.16            117            234 235 
 CHI  HZ EP        358 31.78                             115   -0.08 8  248 195 
 CHI  HN ES        359  1.76                             115    0.93 8  248 195 
 CHI  HZ I         359  5.08         1.9 0.24            116            248 195 
 ROSC BZ EP   4    358 33.32                             115    1.02 0  252 211 
 ROSC BN ES   4    358 56.96                             115   -4.64 0  252 211 
 PTGC HZ EP   9    358 36.57                             110   -1.55 0  308 159 
 PTGC HN ES        359  9.93                                   -0.49 7  308 159 
 CBOC HZ EP   9    358 42.44                             108    1.20 0  333 252 
 CBOC HN ES        359 19.47                                    0.75 7  333 252 
 CBOC HZ I         359 21.45         0.6 0.27            109            333 252 
 PRA  HZ EP        358 47.72                             105   -0.16 6  392 210 
 PRA  HN ES   4    359 27.54                             105   -1.81 0  392 210 
 PRA  HZ I         359 35.82         2.7 0.26            106            392 210 
                                                                                
