 2016  2 4 0718 16.8 L   6.815 -73.196130.0  RSN  5 0.4 1.3LRSN                1
 GAP=146        0.62       8.0     8.2  8.7 -0.5546E+02  0.2221E+02 -0.1582E+02E
 Epicentro: ZAPATOCA - SANTANDER                                               3
 ACTION:UPD 16-03-04 21:23 OP:rebc STATUS:               ID:20160204071816 L   I
 OLDACT:REG 16-02-04 12:52 OP:dnl  STATUS:               ID:20160204071736     3
 2016-02-04-0717-36M.COL___294                                                 6
 STAT SP IPHASW D HRMM SECON CODA AMPLIT PERI AZIMU VELO AIN AR TRES W  DIS CAZ7
 BAR2 EZ EP   2    718 34.45                             169   -0.12 5 24.7 176 
 BAR2 EZ ES   2    718 48.15                             169   -0.28 5 24.7 176 
 BAR2 EZ I         718 51.64         4.0 0.12            180           24.7 176 
 PAM  EZ EP        718 37.30                             147   -0.2310 79.8  43 
 PAM  EZ I         718 50.31         6.6 0.69            139           79.8  43 
 PAM  EE ES   2    718 54.66                             147    0.97 5 79.8  43 
 PTB  HZ EP   2    718 42.08                             129    0.04 5  143 258 
 PTB  HN ES   2    719  1.34                             129   -0.39 5  143 258 
 PTB  HZ I         719  6.28         2.2 0.13            128            143 258 
 SPBC HZ EP   2    718 43.48                             126   -0.45 5  161 217 
 SPBC HN ES        719  5.24                             126    0.16 9  161 217 
 SPBC HZ I         719  6.52         3.0 0.10            127            161 217 
 GUY2CHZ EP   2    719  0.01                             109    0.69 4  298 234 
 GUY2CHE ES   2    719 32.76                             109    0.28 4  298 234 
                                                                                
