 2017  3 4 0353  9.2 L   6.687 -73.229142.6  RSN  5 0.4 1.0LRSN                1
 GAP=203        0.93       6.9     6.3  7.5  0.2667E+02  0.9665E+01  0.2638E+01E
 Epicentro: BARICHARA - SANTANDER                                              3
 ACTION:UPD 17-05-25 18:35 OP:jn   STATUS:               ID:20170304035309 L   I
 OLDACT:DUP 17-03-04 14:58 OP:lv   STATUS:               ID:20170304034744d    3
 2017-03-04-0348-00M.COL___397                                                 6
 STAT SP IPHASW D HRMM SECON CODA AMPLIT PERI AZIMU VELO AIN AR TRES W  DIS CAZ7
 BAR2 EZ EP        353 28.00                             175   -0.2810 11.7 154 
 BAR2 EZ ES        353 42.56                             175   -0.5910 11.7 154 
 BAR2 EZ I         353 44.92         3.7 0.30            173           11.7 154 
 BRR  HZ EP        353 30.04                             152    0.0510 70.7 311 
 BRR  HE ES        353 46.88                             152    0.6810 70.7 311 
 RUS  HZ EP        353 32.02                             146    0.1610 89.3 170 
 RUS  HN ES        353 49.81                             146    0.2810 89.3 170 
 RUS  HZ I         353 51.22         0.7 0.14            146           89.3 170 
 PTB  HZ EP        353 35.00                             134    0.07 9  137 263 
 PTB  HN ES        353 54.82                             134   -0.16 9  137 263 
 PTB  HZ I         353 57.83         1.8 0.20            134            137 263 
 ZAR  HE ES        354  5.71                             122   -0.29 9  201 296 
                                                                                
