 2017  7 4 0243 57.0 L   6.889 -73.345120.5  RSN  5 0.4 1.3LRSN                1
 GAP=211        0.91       6.0     7.1  8.4 -0.8432E+01  0.1646E+02  0.1799E+02E
 Epicentro: BETULIA - SANTANDER                                                3
 ACTION:UPD 17-08-30 15:29 OP:rebc STATUS:               ID:20170704024357 L   I
 OLDACT:UP  17-07-05 13:03 OP:nlst STATUS:               ID:20170704024357 L   3
 OLDACT:UP  17-07-04 14:54 OP:edw  STATUS:               ID:20170704023617d    3
 OLDACT:DUP 17-07-04 14:48 OP:edw  STATUS:               ID:20170704023617d    3
 2017-07-04-0238-00M.COL___371                                                 6
 STAT SP IPHASW D HRMM SECON CODA AMPLIT PERI AZIMU VELO AIN AR TRES W  DIS CAZ7
 BAR2 EZ EP        244 14.06                             162    0.0510 37.4 151 
 BAR2 EZ ES        244 27.00                             162   -0.3110 37.4 151 
 BAR2 EZ I         244 27.64        10.9 0.46            167           37.4 151 
 BRR  HZ IP     C  244 14.17                             157    0.0910 47.2 301 
 BRR  HZ I         244 26.56         3.5 0.46            144           47.2 301 
 BRR  HN ES        244 27.51                             157    0.0910 47.2 301 
 PTB  HZ EP   4    244 18.57                             130   -1.60 0  129 253 
 PTB  HN ES   4    244 34.44                             130   -3.83 0  129 253 
 PTB  HZ I         244 40.10         2.4 0.26            124            129 253 
 SPBC HZ EP        244 23.15                             123   -0.05 9  159 211 
 SPBC HN ES        244 44.36                             123    0.69 9  159 211 
 NOR  HN ES        244 55.30                             114   -0.66 8  223 229 
                                                                                
