 2017  8 4 0408  7.9 L   6.752 -73.085141.5  RSN  8 0.4 1.0LRSN                1
 GAP=147        1.10       4.8     5.0  7.5 -0.6565E+01  0.7766E+01  0.4178E+01E
 Epicentro: LOS SANTOS - SANTANDER                                             3
 ACTION:UPD 17-09-04 20:16 OP:rebc STATUS:               ID:20170804040807 L   I
 OLDACT:REG 17-08-04 12:58 OP:osc  STATUS:               ID:20170804040743     3
 2017-08-04-0408-00M.COL___374                                                 6
 STAT SP IPHASW D HRMM SECON CODA AMPLIT PERI AZIMU VELO AIN AR TRES W  DIS CAZ7
 BAR2 EZ EP        4 8 27.35                             171    0.3810 20.7 211 
 BAR2 EZ ES        4 8 41.65                             171   -0.1810 20.7 211 
 PAM  EZ EP        4 8 29.97                             150    0.2910 77.7  33 
 PAM  EN ES        4 8 45.99                             150   -0.6810 77.7  33 
 BRR  HZ EP        4 8 29.35                             149    0.2510 79.6 300 
 BRR  HN ES        4 8 46.30                             149    0.6710 79.6 300 
 RUS  HZ EP        4 8 30.76                             144   -0.0810 95.1 180 
 RUS  HN ES        4 8 49.07                             144    0.3510 95.1 180 
 RUS  HZ I         4 8 50.63         1.5 0.26            145           95.1 180 
 PTB  HZ EP        4 8 34.62                             130   -0.43 9  153 261 
 PTB  HE ES        4 8 56.03                             130   -0.19 9  153 261 
 PTB  HZ I         4 8 58.33         1.5 0.18            130            153 261 
 SPBC HZ EP        4 8 36.05                             128   -0.06 9  163 222 
 SPBC HN ES        4 8 57.37                             128   -0.73 9  163 222 
 ZAR  HN ES   2    4 9  5.82                             120   -0.87 4  212 293 
 NOR  HN ES        4 9 12.06                             117    0.52 8  237 236 
                                                                                
