 2015 10 4 0628  6.6 L   6.787 -73.083141.0  RSN  9 0.5 1.9LRSN                1
 GAP=162        1.20       5.0     7.3  7.4 -0.1669E+02  0.9669E+01  0.5063E+01E
 Epicentro: LOS SANTOS - SANTANDER                                             3
 ACTION:UPD 15-12-22 20:37 OP:cam  STATUS:               ID:20151004062806 L   I
 OLDACT:REG 15-10-04 12:31 OP:drio STATUS:               ID:20151004062748     3
 2015-10-04-0627-48M.COL___349                                                 6
 STAT SP IPHASW D HRMM SECON CODA AMPLIT PERI AZIMU VELO AIN AR TRES W  DIS CAZ7
 BAR2 EZ EP     C  628 25.74                             170    0.0410 24.1 207 
 BAR2 EZ ES        628 39.92                             170   -0.6610 24.1 207 
 BAR2 EZ I         628 51.75         9.2 0.76            165           24.1 207 
 PAM  EZ EP        628 28.62                             151    0.4610 74.4  35 
 PAM  EE ES        628 45.56                             151    0.6110 74.4  35 
 PAM  EZ I         628 47.13        11.6 0.18            153           74.4  35 
 BRR  HZ EP     C  628 27.50                             149   -0.1710 78.0 297 
 BRR  HN ES        628 44.40                             149    0.3210 78.0 297 
 BRR  HZ I         628 48.21        13.6 0.36            143           78.0 297 
 OCA  HZ EP        628 33.86                             128   -0.94 9  163 351 
 OCA  HN ES   4    628 55.33                             128   -1.45 0  163 351 
 OCA  HZ I         628 58.43        22.1 0.22            126            163 351 
 SPBC HZ EP        628 35.03                             127   -0.06 9  167 221 
 SPBC HN ES        628 56.73                             127   -0.55 9  167 221 
 SPBC HZ I         629  0.77        10.3 0.64            125            167 221 
 ZAR  HZ EP        628 39.65                             120    0.15 8  211 292 
 ZAR  HN EPn       629  2.94                                            211 292 
 ZAR  HZ I         629 10.60        12.5 0.36            118            211 292 
 CHI  HZ EP        628 44.24                             116    0.12 8  249 197 
 CHI  HE ES        629 13.46                             116    0.10 8  249 197 
 CHI  HZ I         629 21.18         2.6 0.32            115            249 197 
 GUY2CHZ EP   4    628 52.23                             111    1.66 0  306 236 
 GUY2CHE ES        629 25.71                             111    0.86 7  306 236 
 GUY2CHZ I         629 34.13         3.3 0.50                           306 236 
 SJC  HZ EP   4    629  0.06                             105   -2.57 0  414 326 
 SJC  HE ES   4    629 42.87                             105   -3.44 0  414 326 
 SJC  HZ I         629 45.13         1.9 0.54            104            414 326 
                                                                                
