 2013  4 4 0658  0.5 L   6.766 -73.153146.8  RSN  6 0.4 1.4LRSN                1
 GAP=183        0.73       6.4     6.2  6.8  0.2074E+02  0.1564E+02  0.9487E+01E
 Epicentro: LOS SANTOS - SANTANDER                                             3
 ACTION:UPD 13-05-22 14:35 OP:EP   STATUS:               ID:20130404065800 L   I
 2013-04-04-0655-50M.COL___215                                                 6
 STAT SP IPHASW D HRMM SECON CODA AMPLIT PERI AZIMU VELO AIN AR TRES W  DIS CAZ7
 BAR2 SZ EP   1    658 19.91                             172   -0.26 7 19.5 189 
 BAR2 SZ ES        658 35.59                             172    0.0710 19.5 189 
 BAR2 SZ I         658 36.34         9.9 0.26            170           19.5 189 
 GIR2 SZ ES   1    658 35.27                             166   -0.63 7 34.8 353 
 BRR  HZ EP   1    658 22.12                             152    0.32 7 72.3 301 
 BRR  HN ES   1    658 39.07                             152    0.63 7 72.3 301 
 RUS  HZ EP   1    658 24.26                             145    0.18 7 96.9 175 
 RUS  HN ES   1    658 42.62                             145    0.14 7 96.9 175 
 RUS  HZ I         658 44.36         1.8 0.44            145           96.9 175 
 PTB  HZ EP   1    658 27.13                             133   -0.27 7  146 260 
 PTB  HN ES   1    658 47.99                             133   -0.40 7  146 260 
 PTB  HZ I         658 49.54         3.1 0.22            130            146 260 
 ZAR  HE ES   1    658 58.57                             122    0.10 6  205 293 
 ZAR  HZ I         659  5.07         2.6 0.26            121            205 293 
                                                                                
