 2014 10 4 0523 13.2 L   6.323 -73.699 99.1  RSN  8 0.5 1.9LRSN                1
 GAP= 84        1.16       4.0     3.6  7.9  0.1204E+01  0.4424E+01 -0.5214E+01E
 Epicentro: SANTA HELENA DEL OPON - SANTANDER                                  3
 ACTION:UPD 14-11-29 23:46 OP:nd   STATUS:               ID:20141004052313 L   I
 OLDACT:REG 14-10-04 12:29 OP:stl  STATUS:               ID:20141004051742     3
 2014-10-04-0517-42M.COL___286                                                 6
 STAT SP IPHASW D HRMM SECON CODA AMPLIT PERI AZIMU VELO AIN AR TRES W  DIS CAZ7
 BAR2 SZ EP        523 29.76                             145    0.3710 64.4  62 
 BAR2 SZ ES        523 42.52                             145    0.5010 64.4  62 
 BAR2 SZ I         523 44.22        81.1 0.20            147           64.4  62 
 RUS  HZ EP        523 31.16                             138   -0.0310 83.1 125 
 RUS  HZ I         523 31.59        10.7 0.40            133           83.1 125 
 RUS  HN ES        523 45.20                             138   -0.0310 83.1 125 
 SPBC HZ EP        523 30.90                             137    0.1110 84.9 209 
 SPBC HZ I         523 47.03        11.2 0.22            129           84.9 209 
 BRR  HZ I         523 31.22        21.6 0.18            139           86.7 359 
 BRR  HZ EP        523 31.22                             136    0.4010 86.7 359 
 BRR  HE ES        523 44.90                             136    0.3310 86.7 359 
 PTB  HZ EP        523 30.59                             136   -0.2910 87.1 286 
 PTB  HN ES        523 43.98                             136   -0.6910 87.1 286 
 PTB  HZ I         523 46.80        16.4 0.36            133           87.1 286 
 PAM  SZ EP        523 38.12                             118   -0.39 9  158  44 
 PAM  SN ES        523 57.07                             118   -1.19 9  158  44 
 PAM  SZ I         523 59.57        10.6 0.16            119            158  44 
 ZAR  HZ EP        523 40.71                             114    0.11 9  182 315 
 ZAR  HZ I         523 42.03        12.9 0.30            113            182 315 
 ZAR  HE ES        524  2.25                             114    0.28 9  182 315 
 OCA  HZ EP        523 45.12                             110    0.46 8  216  11 
 OCA  HN ES        524  9.23                             110    0.02 8  216  11 
                                                                                
