 2015 11 4 0220 39.7 L   6.811 -73.093145.6  RSN 12 0.4 1.7LRSN                1
 GAP=143        0.86       3.2     3.5  5.1 -0.9801E-01  0.6641E+01  0.4223E+01E
 Epicentro: LOS SANTOS - SANTANDER                                             3
 ACTION:UPD 15-12-28 16:08 OP:cam  STATUS:               ID:20151104022039 L   I
 OLDACT:UP  15-11-19 06:49 OP:CARA STATUS:               ID:20151104022039 L   3
 OLDACT:REG 15-11-04 12:53 OP:cara STATUS:               ID:20151104021736     3
 2015-11-04-0217-36M.COL___307                                                 6
 STAT SP IPHASW D HRMM SECON CODA AMPLIT PERI AZIMU VELO AIN AR TRES W  DIS CAZ7
 BAR2 EZ EP     C  220 59.03                             169   -0.3110 26.1 202 
 BAR2 EZ ES        221 14.49                             169   -0.1810 26.1 202 
 BAR2 EZ I         221 14.98        12.5 0.34            167           26.1 202 
 PAM  EZ EP     C  221  1.86                             152    0.2610 72.8  37 
 PAM  EN ES        221 19.02                             152    0.3210 72.8  37 
 PAM  EZ I         221 21.32         9.4 0.56            154           72.8  37 
 BRR  HZ IP     C  221  0.95                             151   -0.1110 75.8 296 
 BRR  HN ES        221 18.20                             151    0.4510 75.8 296 
 BRR  HZ I         221 19.54         8.4 0.12            146           75.8 296 
 RUS  HZ IP     C  221  3.57                             143    0.1010  102 179 
 RUS  HN ES        221 21.57                             143   -0.4710  102 179 
 RUS  HZ I         221 24.84         3.1 0.34            144            102 179 
 ZAR  HZ EP        221 12.34                             122   -0.27 8  209 291 
 ZAR  HN ES        221 37.48                             122   -0.82 8  209 291 
 ZAR  HZ I         221 44.10        10.4 0.48            119            209 291 
 NOR  HZ EP        221 15.61                             118   -0.36 8  240 235 
 NOR  HE ES        221 44.28                             118   -0.01 8  240 235 
 SML  HZ EP   4    221 15.06                             117   -1.37 0  245 334 
 SML  HE ES   4    221 44.68                             117   -0.42 0  245 334 
 SML  HZ I         221 51.01         9.2 0.10            116            245 334 
 CHI  HZ EP        221 17.82                             117    0.16 8  251 196 
 CHI  HN ES        221 47.51                             117    0.22 8  251 196 
 CHI  HZ I         221 56.54         1.9 0.36            116            251 196 
 HEL  HZ EP   2    221 20.63                             114    0.10 4  278 256 
 HEL  HN ES        221 52.76                             114    0.36 7  278 256 
 HEL  HZ I         222  4.41         2.9 0.58            113            278 256 
 URE  HZ EP   4    221 19.89                             113   -1.39 0  289 291 
 URE  HN ES   4    221 50.80                             113   -2.94 0  289 291 
 URE  HZ I         222  5.60         3.9 0.38            112            289 291 
 GUY2CHZ EP        221 24.17                             112    0.29 7  307 235 
 GUY2CHN ES        221 59.11                             112    0.74 7  307 235 
 GUY2CHZ I         222  5.68         3.4 0.34                           307 235 
 MON  HZ EP   9    221 26.29                             108   -2.81 0  357 308 
 MON  HN ES        222  5.22                             108    0.37 6  357 308 
 MON  HZ I         222 12.43         1.6 0.24            107            357 308 
                                                                                
