 2012  5 4 0645 55.8 L   6.726 -73.217154.7  RSN  5 0.3 1.3LRSN                1
 GAP=218        0.72       7.6     6.8  7.7  0.3178E+02  0.7073E+01  0.7165E+00E
 Epicentro: VILLANUEVA - SANTANDER                                             3
 ACTION:UP  12-07-05 12:02 OP:pat  STATUS:               ID:20120504064555 L   I
 2012-05-04-0640-00M.COL___189                                                 6
 STAT SP IPHASW D HRMM SECON CODA AMPLIT PERI AZIMU VELO SNR AR TRES W  DIS CAZ7
 BAR2 SZ EP   1    646 16.04                             174    -0.4 7   15 165 
 BAR2 SZ ES   1    646 32.16                             174    -0.3 7   15 165 
 BRR  HZ EP   1    646 18.02                             155     0.2 7   69 308 
 BRR  HZ I         646 19.57         7.1 0.12                            69 308 
 BRR  HN ES   1    646 35.56                             155     0.5 7   69 308 
 RUS  HZ EP   1    646 20.19                             148     0.2 7   93 171 
 RUS  HZ I         646 21.16         1.6 0.20                            93 171 
 RUS  HN ES   1    646 38.85                             148     0.0 7   93 171 
 PTB  HZ EP   1    646 22.94                             136     0.2 7  139 262 
 PTB  HN ES   1    646 43.78                             136     0.0 7  139 262 
 PTB  HZ I         646 50.03         2.5 0.31                           139 262 
 ZAR  HN ES   1    646 53.44                             125    -0.5 6  200 295 
                                                                                
