 2010  8 4 0645  9.4 L   6.271 -73.130163.7  RSN  5 0.2 1.4LRSN                1
 GAP=162        0.42       4.9    10.5  6.3  0.2076E+02 -0.2221E+02 -0.1117E+02E
 Epicentro: CHARALA - SANTANDER                                                3
 ACTION:UP  10-09-07 10:52 OP:vdl  STATUS:               ID:20100804064509 L   I
 2010-08-04-0641-55S.COL___125                                                 6
 STAT SP IPHASW D HRMM SECON CODA AMPLIT PERI AZIMU VELO SNR AR TRES W  DIS CAZ7
 RUS  HZ EP   1    645 32.06                             165     0.0 7   42 173 
 RUS  HN ES   2    645 49.72                             165     0.0 5   42 173 
 RUS  HZ I         645 51.03         4.1 0.40                            42 173 
 GIR2 SZ EP   1    645 33.82                             150     0.1 7   90 355 
 GIR2 SZ ES   2    645 52.49                             150    -0.3 5   90 355 
 BRR  HZ EP   1    645 34.87                             144    -0.2 7  113 325 
 BRR  HE ES   2    645 55.50                             144     0.4 5  113 325 
 BRR  HZ I         645 59.73         3.2 0.46                           113 325 
 GUE  SZ EP   1    645 40.58                             131     0.0 7  174   7 
 GRA  SZ EP   2    645 41.54                             129     0.4 4  182  11 
                                                                                
