 2012  1 4 0707 47.6 L   6.764 -73.195149.0  RSN  5 0.3 1.4LRSN                1
 GAP=132        0.60       6.0     5.1  7.3  0.2868E+01 -0.6875E+01 -0.7550E-01E
 Epicentro: VILLANUEVA - SANTANDER                                             3
 ACTION:UP  12-02-03 08:14 OP:REBC STATUS:               ID:20120104070747 L   I
 2012-01-04-0700-00M.COL___183                                                 6
 STAT SP IPHASW D HRMM SECON CODA AMPLIT PERI AZIMU VELO SNR AR TRES W  DIS CAZ7
 BAR2 SZ ES   2    7 8 22.73                             172    -0.4 5   19 176 
 BAR2 SZ I         7 8 26.12         5.9 0.61                            19 176 
 BRR  HZ EP   1    7 8  9.20                             154     0.2 7   69 304 
 BRR  HN ES   1    7 8 25.85                             154     0.2 7   69 304 
 BRR  HZ I         7 8 28.22         5.4 0.29                            69 304 
 PAM  SZ EP   1    7 8 10.31                             149    -0.2 7   84  41 
 RUS  HZ EP   1    7 8 11.76                             145     0.3 7   97 173 
 RUS  HZ I         7 8 28.96         3.3 0.60                            97 173 
 RUS  HE ES   2    7 8 29.97                             145    -0.1 5   97 173 
 PTB  HZ EP   1    7 8 14.02                             134    -0.3 7  142 260 
 PTB  HN ES   1    7 8 34.98                             134    -0.1 7  142 260 
 PTB  HZ I         7 8 41.92         0.0 0.43                           142 260 
                                                                                
