 2012  4 4 0524  0.5 L   6.769 -73.158146.7  RSN  5 0.4 1.2LRSN                1
 GAP=136        0.84       5.8     5.6  7.8 -0.4469E+01  0.3656E+01 -0.2082E+01E
 Epicentro: LOS SANTOS - SANTANDER                                             3
 ACTION:UPD 12-07-05 11:50 OP:tino STATUS:               ID:20120404052400 L   I
 2012-04-04-0520-00M.COL___196                                                 6
 STAT SP IPHASW D HRMM SECON CODA AMPLIT PERI AZIMU VELO AIN AR TRES W  DIS CAZ7
 BAR2 SZ EP   1    524 20.08                             172    -0.1 7   20 188 
 BAR2 SZ ES   1    524 35.77                             172     0.2 7   20 188 
 BAR2 SZ I         524 36.04         4.1 0.20                            20 188 
 BRR  HZ EP        524 22.01                             152     0.210   72 301 
 BRR  HE ES   1    524 38.95                             152     0.6 7   72 301 
 PAM  SZ EP        524 23.08                             150     0.010   81  39 
 PAM  SN ES   1    524 40.00                             150    -0.6 7   81  39 
 RUS  HZ EP   1    524 24.36                             145     0.2 7   97 175 
 RUS  HN ES   1    524 42.43                             145    -0.1 7   97 175 
 RUS  HZ I         524 43.59         2.0 0.25                            97 175 
 PTB  HZ EP   1    524 27.24                             133    -0.1 7  146 260 
 PTB  HE ES   1    524 47.67                             133    -0.7 7  146 260 
 PTB  HZ I         524 49.97         1.9 0.15                           146 260 
                                                                                
