 2012  7 4 0626 10.5 L   6.792 -73.174132.4  RSN  8 0.4 2.0LRSN                1
 GAP=180        0.90       3.7     4.5  7.2 -0.2588E+00  0.9181E+01 -0.1169E+01E
 Epicentro: LOS SANTOS - SANTANDER                                             3
 ACTION:UPD 12-08-14 11:42 OP:ep   STATUS:               ID:20120704062610 L   I
 2012-07-04-0620-00M.COL___200                                                 6
 STAT SP IPHASW D HRMM SECON CODA AMPLIT PERI AZIMU VELO AIN AR TRES W  DIS CAZ7
 BAR2 SZ EP   1    626 28.78                             170     0.3 8   22 182 
 BAR2 SZ ES   1    626 42.77                             170     0.2 8   22 182 
 BAR2 SZ I         626 45.03        32.8 0.24            170             22 182 
 BRR  HZ EP   1    626 30.70                             151     0.6 8   69 300 
 BRR  HN ES   1    626 45.61                             151     0.3 8   69 300 
 BRR  HZ I         626 48.83        28.6 0.10            149             69 300 
 RUS  HZ EP   1    626 32.59                             141    -0.3 8  100 174 
 RUS  HN ES   1    626 50.35                             141     0.0 8  100 174 
 RUS  HZ I         626 52.61         9.6 0.33            144            100 174 
 PTB  HZ EP   1    626 35.52                             129    -0.6 7  145 259 
 PTB  HN ES        626 55.76                             129    -0.310  145 259 
 PTB  HZ I         626 57.81         8.2 0.12            130            145 259 
 OCA  HZ EP   1    626 38.12                             126     0.3 7  161 354 
 OCA  HN ES        626 58.61                             126    -0.610  161 354 
 OCA  HZ I         627  2.44        17.6 0.19            128            161 354 
 ZAR  HZ EP   1    626 42.03                             120     0.2 7  201 293 
 ZAR  HN ES        627  6.43                             120     0.2 9  201 293 
 ZAR  HZ I         627 12.96        11.9 0.26            121            201 293 
 HEL  HZ EP   1    626 50.25                             112     0.6 6  269 256 
 HEL  HE ES        627 20.21                             112    -0.1 8  269 256 
 HEL  HZ I         627 29.05         4.8 0.45            114            269 256 
 PRA  HN ES   1    627 44.41                             104    -0.1 5  390 209 
