 2017  2 4 0325 39.7 L   6.805 -73.109141.8  RSN  5 0.3 1.1LRSN                1
 GAP=141        0.84       4.7     4.6  7.4 -0.3125E+01  0.2119E+01 -0.2617E+01E
 Epicentro: LOS SANTOS - SANTANDER                                             3
 ACTION:UPD 17-05-24 15:32 OP:jn   STATUS:               ID:20170204032539 L   I
 OLDACT:UP  17-02-04 14:37 OP:dnl  STATUS:               ID:20170204031740     3
 OLDACT:REG 17-02-04 12:33 OP:dnl  STATUS:               ID:20170204031740     3
 2017-02-04-0318-00M.COL___346                                                 6
 STAT SP IPHASW D HRMM SECON CODA AMPLIT PERI AZIMU VELO AIN AR TRES W  DIS CAZ7
 BAR2 EZ EP        325 58.41                             170   -0.4410 24.9 199 
 BAR2 EZ ES        326 13.51                             170   -0.3110 24.9 199 
 BAR2 EZ I         326 13.81         3.1 0.30            169           24.9 199 
 PAM  EZ EP        326  1.54                             151    0.2610 74.4  37 
 PAM  EE ES        326 18.48                             151    0.3410 74.4  37 
 PAM  EZ I         326 20.13         3.1 0.42            154           74.4  37 
 BRR  HZ EP        326  0.32                             151   -0.2610 74.5 297 
 BRR  HE ES        326 16.66                             151   -0.2410 74.5 297 
 BRR  HZ I         326 22.59         3.7 0.44            152           74.5 297 
 RUS  HZ EP   2    326  3.05                             143   -0.00 5  101 178 
 RUS  HN ES        326 21.50                             143    0.2110  101 178 
 RUS  HZ I         326 26.07         0.8 0.42            145            101 178 
 PTB  HZ EP   4    326  5.61                             130   -1.08 0  152 259 
 PTB  HE ES     C  326 28.29                             130    0.52 9  152 259 
 PTB  HZ I         326 28.99         2.3 0.44            132            152 259 
                                                                                
