 2015  3 4 0930 58.3 L   6.793 -73.116152.0  RSN  9 0.4 1.2LRSN                1
 GAP=186        0.86       3.1     5.6  5.9  0.2902E+01  0.5823E-01 -0.6061E+00E
 Epicentro: LOS SANTOS - SANTANDER                                             3
 ACTION:UPD 15-04-30 16:23 OP:nd   STATUS:               ID:20150304093058 L   I
 OLDACT:REG 15-03-04 13:00 OP:spq  STATUS:               ID:20150304092738     3
 2015-03-04-0927-38M.COL___284                                                 6
 STAT SP IPHASW D HRMM SECON CODA AMPLIT PERI AZIMU VELO AIN AR TRES W  DIS CAZ7
 BAR2 EZ EP        931 18.47                             171   -0.1710 23.4 198 
 BAR2 EZ ES   1    931 34.14                             171   -0.40 7 23.4 198 
 BAR2 EZ I         931 35.38         2.0 0.34            168           23.4 198 
 BRR  HZ EP        931 20.43                             153    0.1710 74.4 298 
 BRR  HN ES        931 38.09                             153    0.6610 74.4 298 
 BRR  HZ I         931 38.93         2.5 0.36            150           74.4 298 
 RUS  HZ EP        931 22.78                             145    0.2210 99.7 178 
 RUS  HE ES   1    931 41.20                             145   -0.32 7 99.7 178 
 RUS  HZ I         931 44.39         1.1 0.56            146           99.7 178 
 PTB  HZ EP        931 25.41                             133   -0.61 9  151 259 
 PTB  HN ES   1    931 46.76                             133   -0.91 7  151 259 
 PTB  HZ I         931 52.30         1.4 0.20            131            151 259 
 OCA  HN ES   1    931 49.40                             131   -0.31 7  161 352 
 OCA  HZ I         931 54.43         2.0 0.26            132            161 352 
 SPBC HZ EP        931 27.73                             130    0.35 9  165 220 
 SPBC HN ES        931 50.44                             130    0.34 9  165 220 
 SPBC HZ I         931 56.55         3.1 0.28            130            165 220 
 ZAR  HZ EP   1    931 31.33                             123   -0.12 6  207 292 
 ZAR  HN ES   1    931 57.40                             123    0.06 6  207 292 
 ZAR  HZ I         932  2.03         1.7 0.34            123            207 292 
 SML  HZ EP        931 35.42                             119   -0.04 8  246 335 
 SML  HN ES   1    932  4.71                             119    0.24 6  246 335 
 SML  HZ I         932  8.07         2.8 0.24            119            246 335 
 CHI  HZ EP   1    931 36.30                             118   -0.03 6  249 196 
 CHI  HN ES   1    932  6.15                             118    0.13 6  249 196 
 CHI  HZ I         932 11.82         0.7 0.37            119            249 196 
                                                                                
