 2010 11 4 0053 39.6 L   7.372 -72.897175.7  RSN  6 0.2 1.4LRSN                1
 GAP=177        0.44       6.5     9.6  7.1 -0.3424E+02 -0.1436E+02  0.5940E+01E
 Epicentro: CALIFORNIA - SANTANDER                                             3
 ACTION:UP  10-12-17 16:50 OP:REBC STATUS:               ID:20101104005339 L   I
 2010-11-04-0052-57S.COL___128                                                 6
 STAT SP IPHASW D HRMM SECON CODA AMPLIT PERI AZIMU VELO SNR AR TRES W  DIS CAZ7
 GIR2 SZ EP   2    054  3.42                             165     0.2 5   46 225 
 GUE  SZ EP   2    054  3.75                             163     0.1 5   51 357 
 GRA  SZ EP   1    054  3.41                             161    -0.2 7   58  10 
 GRA  SZ ES   2    054 22.56                             161     0.1 5   58  10 
 GRA  SZ I         054 30.17         2.2 0.54                            58  10 
 BAR2 SZ ES   2    054 25.75                             151     0.1 5   92 200 
 BAR2 SZ I         054 29.05         4.0 0.37                            92 200 
 BRR  HZ EP   1    054  5.48                             150     0.2 7   95 252 
 BRR  HE ES   2    054 25.03                             150    -0.3 5   95 252 
 BRR  HZ I         054 29.59         8.6 0.29                            95 252 
 RUS  HZ EP   2    054 11.03                             135    -0.2 5  165 187 
 RUS  HZ I         054 11.43         1.5 0.22                           165 187 
                                                                                
