 2013  5 4 0704 41.8 L   6.773 -73.155145.7  RSN  7 0.4 1.6LRSN                1
 GAP=137        0.90       5.3     4.7  6.7 -0.7772E+01  0.5270E+01  0.4239E+01E
 Epicentro: LOS SANTOS - SANTANDER                                             3
 ACTION:UPD 13-06-20 09:47 OP:ep   STATUS:               ID:20130504070441 L   I
 2013-05-04-0700-00M.COL___253                                                 6
 STAT SP IPHASW D HRMM SECON CODA AMPLIT PERI AZIMU VELO AIN AR TRES W  DIS CAZ7
 BAR2 SZ EP   1    7 5  1.69                             172    0.29 7 20.2 189 
 BAR2 SZ ES   1    7 5 16.62                             172   -0.03 7 20.2 189 
 BAR2 SZ I         7 5 17.93         7.9 0.24            168           20.2 189 
 BRR  HZ EP     C  7 5  3.12                             152    0.1110 71.8 301 
 BRR  HZ I         7 5  3.40         9.2 0.26            152           71.8 301 
 BRR  HN ES        7 5 20.08                             152    0.5610 71.8 301 
 PAM  SZ EP        7 5  4.32                             150    0.0910 80.4  39 
 PAM  SZ I         7 5  4.51        13.4 0.18            154           80.4  39 
 PAM  SE ES        7 5 21.43                             150   -0.2610 80.4  39 
 RUS  HZ EP   1    7 5  5.39                             145    0.02 7 97.6 175 
 RUS  HN ES   1    7 5 23.58                             145   -0.15 7 97.6 175 
 RUS  HZ I         7 5 25.43         4.1 0.32            143           97.6 175 
 PTB  HZ EP     C  7 5  8.12                             132   -0.53 9  146 260 
 PTB  HN ES        7 5 28.90                             132   -0.67 9  146 260 
 PTB  HZ I         7 5 33.21         4.4 0.16            131            146 260 
 NOR  HZ EP   1    7 5 17.87                             119    0.59 6  232 235 
 NOR  HN ES   1    7 5 45.65                             119    0.72 6  232 235 
 NOR  HZ I         7 5 50.56         3.2 0.38            118            232 235 
 SML  HZ EP   2    7 5 18.58                             117   -0.13 4  246 336 
                                                                                
