 2015  4 4 0717 20.8 L   6.804 -73.140155.6  RSN  6 0.4 1.5LRSN                1
 GAP=253        0.89       5.7     6.1  8.2 -0.9261E+00  0.2047E+01  0.1436E+02E
 Epicentro: LOS SANTOS - SANTANDER                                             3
 ACTION:UPD 15-06-03 16:52 OP:cam  STATUS:               ID:20150404071720 L   I
 OLDACT:UP  15-04-04 16:44 OP:mh   STATUS:               ID:20150404070746     3
 OLDACT:REG 15-04-04 13:25 OP:mh   STATUS:               ID:20150404070746     3
 2015-04-04-0707-46M.COL___276                                                 6
 STAT SP IPHASW D HRMM SECON CODA AMPLIT PERI AZIMU VELO AIN AR TRES W  DIS CAZ7
 BAR2 EZ EP        717 41.11                             171   -0.4810 23.9 191 
 BAR2 EZ I         718  4.74         3.7 0.08            166           23.9 191 
 BRR  HZ EP   1    717 43.31                             154    0.31 7 71.5 298 
 BRR  HN ES        718  0.59                             154    0.2410 71.5 298 
 BRR  HZ I         718  5.89         3.5 0.23            165           71.5 298 
 SPBC HZ EP        717 50.37                             131    0.27 9  164 219 
 SPBC HN ES   1    718 13.06                             131    0.07 7  164 219 
 SPBC HZ I         718 18.18         6.0 0.14            136            164 219 
 ZAR  HZ EP        717 54.01                             124    0.10 9  204 292 
 ZAR  HN ES        718 19.42                             124   -0.34 9  204 292 
 ZAR  HZ I         718 24.88         3.2 0.48            132            204 292 
 NOR  HZ EP        717 57.79                             120    0.63 8  235 234 
 NOR  HN ES        718 25.02                             120   -0.53 8  235 234 
 NOR  HZ I         718 32.34         2.0 0.32            125            235 234 
 HEL  HZ EP        718  1.04                             117   -0.53 8  273 256 
 HEL  HE ES        718 33.79                             117    0.39 8  273 256 
 HEL  HZ I         718 40.06         1.6 0.30            122            273 256 
                                                                                
