 2010 12 4 0359 40.2 L   6.767 -73.068147.3  RSN 14 0.4 2.9LRSN                1
 GAP=181        0.84       4.1     7.1  6.8 -0.1764E+02  0.1372E+02  0.4100E+01E
 Epicentro: LOS SANTOS - SANTANDER                                             3
 ACTION:UP  11-01-14 15:22 OP:pat  STATUS:               ID:20101204035940 L   I
 2010-12-04-0358-43S.COL___133                                                 6
 STAT SP IPHASW D HRMM SECON CODA AMPLIT PERI AZIMU VELO SNR AR TRES W  DIS CAZ7
 BAR2 SZ IP        4 0  0.05                             171     0.110   23 214 
 BAR2 SZ ES   1    4 0 15.30                             171    -0.1 7   23 214 
 BAR2 SZ I         4 0 16.78       195.8 0.21                            23 214 
 GIR2 SZ IP        4 0  0.10                             165    -0.110   37 338 
 GUE  SZ EP        4 0  5.95                             139     0.810  119   8 
 GRA  SZ IP        4 0  5.84                             137     0.210  127  13 
 GRA  SZ ES   1    4 0 25.60                             137     0.1 7  127  13 
 OCA  SZ IP        4 0  8.43                             129    -0.6 9  165 350 
 OCA  SZ ES   1    4 0 31.03                             129    -0.6 7  165 350 
 OCA  SZ I         4 0 37.12        46.5 0.57                           165 350 
 NOR  SZ EP        4 0 16.28                             118    -0.3 8  240 236 
 NOR  SE ES   2    4 0 44.51                             118    -0.4 4  240 236 
 CHI  HZ EP        4 0 17.69                             117    -0.1 8  248 197 
 CHI  HE ES   2    4 0 47.13                             117    -0.1 4  248 197 
 CVER SZ EP   3    4 0 20.30                             115    -0.3 2  272 204 
 CVER SZ I         4 0 22.06        42.7 0.55                           272 204 
 HEL  HZ EP        4 0 21.15                             114    -0.1 7  280 257 
 HEL  HN ES   2    4 0 54.42                             114     1.1 4  280 257 
 GUY  SZ EP   1    4 0 25.06                             112     0.6 5  306 236 
 GUY  SE ES   2    4 0 59.51                             112     0.6 4  306 236 
 GUY  SZ I         4 1 10.84        31.2 0.54                           306 236 
 RREF HZ EP        4 0 27.00                             111     0.1 7  326 231 
 RREF HN ES   2    4 1  3.18                             111    -0.1 3  326 231 
 RREF HZ I         4 1  9.02        21.3 0.14                           326 231 
 TOL  SZ EP        4 0 29.21                             109     0.3 6  347 226 
 TOL  SZ ES   2    4 1  7.09                             109     0.2 3  347 226 
 PRA  HZ EP        4 0 32.97                             107    -0.9 6  393 211 
 PRA  HN ES   2    4 1 16.33                             107     0.6 3  393 211 
 SJA  SZ EP   2    4 0 34.49                             106    -0.1 3  399 194 
 SJA  SZ ES   3    4 1 16.30                             106    -0.7 1  399 194 
 SJA  SZ I         4 1 28.76        42.3 0.29                           399 194 
                                                                                
