 2014  8 4 0328 37.8 L   6.827 -73.172145.7  RSN  8 0.5 2.0LRSN                1
 GAP=132        1.25       4.3     5.6  7.4 -0.5432E+01  0.1163E+02 -0.2415E+01E
 Epicentro: ZAPATOCA - SANTANDER                                               3
 ACTION:UPD 14-09-15 21:46 OP:nd   STATUS:               ID:20140804032837 L   I
 OLDACT:REG 14-08-04 12:30 OP:carl STATUS:               ID:20140804032812     3
 2014-08-04-0328-12M.COL___251                                                 6
 STAT SP IPHASW D HRMM SECON CODA AMPLIT PERI AZIMU VELO AIN AR TRES W  DIS CAZ7
 BAR2 SZ EP        328 57.60                             169    0.1110 26.0 183 
 BAR2 SZ ES        329 12.23                             169   -0.6110 26.0 183 
 BAR2 SZ I         329 13.85        15.2 0.58            169           26.0 183 
 BRR  HZ EP        328 59.27                             154    0.5310 67.3 297 
 BRR  HN ES        329 16.11                             154    1.0510 67.3 297 
 BRR  HZ I         329 19.93        20.7 0.42            152           67.3 297 
 PAM  SZ EP        329  0.43                             151    0.4310 77.0  43 
 PAM  SN ES        329 16.85                             151   -0.4510 77.0  43 
 PAM  SZ I         329 19.71         8.3 0.54            155           77.0  43 
 RUS  HZ EP        329  2.11                             143    0.3210  104 175 
 RUS  HN ES        329 20.24                             143   -0.2610  104 175 
 RUS  HZ I         329 22.17        10.2 0.30            146            104 175 
 PTB  HZ EP        329  4.40                             132   -0.18 9  146 257 
 PTB  HN ES        329 25.14                             132   -0.31 9  146 257 
 PTB  HZ I         329 30.47        14.0 0.28            133            146 257 
 SPBC HZ EP        329  7.00                             129    0.63 9  164 218 
 SPBC HN ES        329 28.49                             129   -0.14 9  164 218 
 SPBC HZ I         329 35.96        10.0 0.16            131            164 218 
 NOR  HZ EP        329 12.83                             118   -0.65 8  234 233 
 NOR  HN ES        329 41.28                             118   -0.02 8  234 233 
 NOR  HZ I         329 43.73         9.0 0.16            120            234 233 
 SML  HZ EP        329 13.50                             118   -0.51 8  240 336 
 SML  HN ES        329 41.73                             118   -0.52 8  240 336 
 SML  HZ I         329 45.44        12.3 0.10            120            240 336 
                                                                                
