 2014  7 4 0653 38.1 L   7.061 -73.792 98.2  RSN  7 0.5 1.4LRSN                1
 GAP=119        1.11       3.6     5.0  8.0  0.2546E+01  0.2935E+01 -0.2179E+01E
 Epicentro: BARRANCABERMEJA - SANTANDER                                        3
 ACTION:UPD 15-03-16 20:41 OP:nd   STATUS:               ID:20140704065338 L   I
 OLDACT:REG 14-07-04 12:56 OP:cam  STATUS:               ID:20140704065000     3
 2014-07-04-0650-00M.COL___279                                                 6
 STAT SP IPHASW D HRMM SECON CODA AMPLIT PERI AZIMU VELO AIN AR TRES W  DIS CAZ7
 BRR  HZ IP     D  653 51.72                             174    0.3110 10.2  60 
 BRR  HN ES        654  2.33                             174    0.5510 10.2  60 
 BRR  HZ I         654  3.66         8.2 0.12            173           10.2  60 
 BAR2 SZ EP        653 55.97                             137    0.1310 85.1 128 
 BAR2 SZ ES        654  9.33                             137   -0.3410 85.1 128 
 BAR2 SZ I         654 11.54        11.3 0.58            139           85.1 128 
 PTB  HZ EP        653 56.67                             133    0.4110 93.3 232 
 PTB  HN ES        654  9.94                             133   -0.4810 93.3 232 
 PTB  HZ I         654 15.97         3.3 0.28            130           93.3 232 
 ZAR  HZ EP   4    654  1.53                             124    2.03 0  127 292 
 ZAR  HN ES   4    654 19.18                             124    2.99 0  127 292 
 ZAR  HZ I         654 21.26         5.5 0.42            120            127 292 
 RUS  HZ EP   1    654  3.55                             119    0.87 7  151 149 
 RUS  HE ES        654 21.24                             119   -0.61 9  151 149 
 RUS  HZ I         654 23.64         3.2 0.34            120            151 149 
 SPBC HZ EP   4    654  4.99                             118    1.99 0  159 191 
 SPBC HN ES        654 22.43                             118    0.02 9  159 191 
 SPBC HZ I         654 27.93         3.9 0.38            117            159 191 
 SML  HZ EP   1    654  6.79                             113   -0.11 6  195 351 
 SML  HE ES        654 28.78                             113   -0.59 9  195 351 
 SML  HZ I         654 40.86         8.2 0.10            111            195 351 
                                                                                
