 2010  3 4 0745 12.8 L   6.785 -73.005148.9  RSN 11 0.4 3.1LRSN                1
 GAP=137        0.92       3.3     5.6  5.3 -0.5232E+01  0.1493E+01  0.2699E+01E
 Epicentro: CEPITA - SANTANDER                                                 3
 ACTION:UP  10-08-24 09:51 OP:vdl  STATUS:               ID:20100304074513 L   I
 2010-03-04-0741-36S.COL___096                                                 6
 STAT SP IPHASW D HRMM SECON CODA AMPLIT PERI AZIMU VELO SNR AR TRES W  DIS CAZ7
 BAR2 SZ IP        745 32.90                             168     0.010   29 223 
 BAR2 SZ ES   1    745 48.40                             168    -0.2 7   29 223 
 BRR  HZ EP        745 34.81                             148    -0.410   86 295 
 BRR  HN ES        745 52.40                             148    -0.210   86 295 
 BRR  HZ I         745 54.18       158.6 0.13                            86 295 
 RUS  BZ IP        745 36.78                             145     0.010   99 185 
 RUS  BN ES        745 55.68                             145     0.210   99 185 
 RUS  BZ I         745 57.36        77.6 0.60                            99 185 
 OCA  SZ EP        745 41.48                             130    -0.3 9  164 348 
 OCA  SZ ES   1    746  5.18                             130     0.9 7  164 348 
 OCA  SZ I         746  9.19       204.2 0.27                           164 348 
 CHI  HZ EP        745 50.93                             117    -0.1 8  252 199 
 CHI  HN ES   1    746 20.65                             117    -0.1 6  252 199 
 CHI  HZ I         746 26.24        46.9 0.32                           252 199 
 HEL  HZ EP   1    745 54.20                             114    -0.6 6  287 257 
 HEL  HZ I         746 31.43        46.9 0.42                           287 257 
 RREF BZ EP        746  0.43                             111     0.1 7  333 231 
 RREF BN ES        746 38.23                             111     0.8 7  333 231 
 RREF BZ I         746 44.53        73.6 0.09                           333 231 
 SDV  BZ EP        746  2.26                             109     0.5 6  350  48 
 SDV  BZ I         746  3.27        30.1 0.28                           350  48 
 TOL  SZ EP        746  2.31                             109     0.0 6  353 227 
 TOL  SZ ES   3    746 40.85                             109    -0.1 2  353 227 
 ANIL BZ EP   1    746  4.39                             108     0.5 5  367 226 
 ANIL BN ES        746 44.07                             108     0.4 6  367 226 
 ANIL BZ I         746 49.59       114.7 0.30                           367 226 
 PRA  HZ EP        746  6.41                             107    -0.8 6  399 212 
 PRA  HN ES        746 49.48                             107    -0.1 6  399 212 
 PRA  HZ I         746 54.27        53.2 0.41                           399 212 
                                                                                
