 2011  1 4 0235 38.7 L   6.774 -72.876132.8  RSN  5 0.4 1.4LRSN                1
 GAP=190        1.03       4.7    23.3 10.6 -0.3366E+02 -0.7528E+02 -0.1690E+01E
 Epicentro: SAN ANDRES - SANTANDER                                             3
 ACTION:UP  11-02-08 08:38 OP:pat  STATUS:               ID:20110104023538 L   I
 2011-01-04-0232-10S.COL___135                                                 6
 STAT SP IPHASW D HRMM SECON CODA AMPLIT PERI AZIMU VELO SNR AR TRES W  DIS CAZ7
 BAR2 SZ EP   1    235 57.00                             164    -0.2 8   40 239 
 BAR2 SZ ES   1    236 11.35                             164    -0.4 8   40 239 
 BAR2 SZ I         236 13.09         8.8 0.27                            40 239 
 RUS  HZ EP        236  0.93                             142    -0.210  100 193 
 RUS  HZ I         236  1.84         2.4 0.08                           100 193 
 RUS  HE ES   1    236 19.52                             142     0.8 7  100 193 
 GRA  SZ IP        236  2.95                             135     0.410  123   4 
 GRA  SZ I         236  3.98         4.0 0.31                           123   4 
 GRA  SZ ES   2    236 20.44                             135    -0.8 5  123   4 
 OCA  SZ EP   1    236  6.65                             125    -0.3 7  169 343 
 OCA  SZ ES   1    236 29.34                             125     0.4 7  169 343 
 OCA  SZ I         236 32.21         3.9 0.54                           169 343 
 CHI  HZ EP   1    236 16.06                             114    -0.4 6  255 202 
 CHI  HN ES   2    236 45.96                             114     0.0 4  255 202 
 CHI  HZ I         236 50.37         1.4 0.33                           255 202 
                                                                                
