 2010  5 4 0040 21.7 L   6.796 -73.088143.8  RSN 11 0.5 2.5LRSN                1
 GAP=179        0.94       5.4     9.2  6.5 -0.2840E+02  0.1738E+01  0.9097E+01E
 Epicentro: LOS SANTOS - SANTANDER                                             3
 ACTION:UP  10-08-24 10:02 OP:vdl  STATUS:               ID:20100504004021 L   I
 2010-05-04-0037-57S.COL___105                                                 6
 STAT SP IPHASW D HRMM SECON CODA AMPLIT PERI AZIMU VELO AIN AR TRES W  DIS CAZ7
 BAR2 SZ IP        040 41.01                             170    -0.110   25 205 
 BAR2 SZ ES   1    040 55.86                             170    -0.4 7   25 205 
 GIR2 SZ EP   1    040 41.09                             166    -0.1 7   33 340 
 GIR2 SZ ES   1    040 56.17                             166    -0.3 7   33 340 
 BRR  HZ IP     C  040 43.48                             150     0.510   77 297 
 BRR  HN ES   1    041  0.27                             150     0.7 7   77 297 
 BRR  HZ I         041  3.95        85.0 0.13                            77 297 
 BRI  SZ EP   1    040 45.66                             141     0.4 7  107  18 
 BRI  SZ ES   1    041  3.89                             141     0.2 7  107  18 
 GRA  SZ EP        040 46.90                             137     0.210  124  15 
 GRA  SZ ES   1    041  6.10                             137     0.0 7  124  15 
 OCA  SZ EP   1    040 49.48                             129    -0.5 7  162 351 
 OCA  SZ ES   1    041 11.12                             129    -0.9 7  162 351 
 OCA  SZ I         041 14.63        47.0 0.27                           162 351 
 CHI  HZ EP   2    041  0.38                             117     0.9 4  250 197 
 CHI  HZ I         041 35.85        17.7 0.53                           250 197 
 HEL  HZ EP   2    041  2.80                             114     0.3 4  278 256 
 HEL  HZ I         041 40.19        14.4 0.45                           278 256 
 RREF BZ EP        041  8.46                             110     0.2 7  326 230 
 RREF BZ I         041 53.04        17.5 0.34                           326 230 
 TOL  SZ EP   1    041  9.76                             109    -0.6 5  348 225 
 PRA  HZ EP   2    041 14.84                             106    -0.7 3  395 210 
 PRA  HE ES   1    041 56.96                             106    -0.5 4  395 210 
                                                                                
