 2012  4 4 0058 50.8 L   6.776 -73.155150.3  RSN  6 0.4 1.7LRSN                1
 GAP=137        0.92       6.3     5.6  8.9  0.3178E+01  0.8949E+01  0.7543E+00E
 Epicentro: LOS SANTOS - SANTANDER                                             3
 ACTION:UPD 12-07-05 11:50 OP:tino STATUS:               ID:20120404005850 L   I
 2012-04-04-0057-59S.COL___201                                                 6
 STAT SP IPHASW D HRMM SECON CODA AMPLIT PERI AZIMU VELO AIN AR TRES W  DIS CAZ7
 BAR2 SZ EP   1    059 10.94                             172     0.0 7   21 189 
 BAR2 SZ ES   1    059 26.28                             172    -0.3 7   21 189 
 BAR2 SZ I         059 27.70        10.1 0.30                            21 189 
 BRR  HZ EP   1    059 12.51                             153     0.1 7   72 301 
 BRR  HZ I         059 22.31        12.3 0.32                            72 301 
 BRR  HE ES   1    059 30.10                             153     0.8 7   72 301 
 PAM  SZ EP   1    059 13.68                             151     0.1 7   80  39 
 PAM  SN ES   1    059 31.06                             151    -0.4 7   80  39 
 PAM  SZ I         059 33.04         4.5 0.54                            80  39 
 RUS  HZ EP   1    059 15.24                             145     0.5 7   98 175 
 RUS  HN ES   1    059 33.60                             145     0.1 7   98 175 
 RUS  HZ I         059 35.30         6.5 0.48                            98 175 
 PTB  HZ EP   1    059 17.46                             133    -0.5 7  146 260 
 PTB  HN ES   1    059 38.79                             133    -0.4 7  146 260 
 PTB  HZ I         059 46.51         5.9 0.26                           146 260 
 ZAR  HN ES   1    059 49.17                             123     0.1 6  204 293 
 ZAR  HZ I         059 56.62         7.1 0.23                           204 293 
                                                                                
