 2010 12 4 0503 33.9 L   6.781 -73.146143.9  RSN  8 0.4 2.0LRSN                1
 GAP=174        0.91       6.0    15.8  8.8 -0.6861E+02  0.5073E+02 -0.1040E+02E
 Epicentro: LOS SANTOS - SANTANDER                                             3
 ACTION:UP  11-01-14 15:22 OP:pat  STATUS:               ID:20101204050333 L   I
 2010-12-04-0500-43S.COL___133                                                 6
 STAT SP IPHASW D HRMM SECON CODA AMPLIT PERI AZIMU VELO SNR AR TRES W  DIS CAZ7
 BAR2 SZ EP        5 3 52.93                             171    -0.310   21 191 
 BAR2 SZ ES   1    5 4  8.62                             171     0.3 7   21 191 
 BAR2 SZ I         5 4  9.68        14.5 0.28                            21 191 
 GIR2 SZ EP        5 3 53.33                             167    -0.110   33 351 
 GUE  SZ EP        5 3 58.94                             138     0.410  119  12 
 GRA  SZ EP        5 3 59.66                             136     0.510  128  17 
 GRA  SZ ES   2    5 4 18.33                             136    -0.5 5  128  17 
 GRA  SZ I         5 4 21.17        11.5 0.25                           128  17 
 OCA  SZ EP        5 4  1.56                             129    -0.7 9  162 353 
 OCA  SZ ES   2    5 4 24.40                             129     0.0 5  162 353 
 OCA  SZ I         5 4 28.20        15.4 0.35                           162 353 
 CHI  HZ EP   1    5 4 10.91                             117    -0.3 6  247 195 
 CHI  HE ES   2    5 4 40.03                             117    -0.4 4  247 195 
 CHI  HZ I         5 4 45.87         5.5 0.42                           247 195 
 RREF HZ EP   2    5 4 19.61                             111    -0.2 3  320 230 
 RREF HN ES   2    5 4 56.13                             111     0.5 3  320 230 
 RREF HZ I         5 5  5.03         6.1 0.22                           320 230 
 PRA  HZ EP        5 4 27.49                             106     0.4 6  390 210 
 PRA  HE ES   2    5 5  9.09                             106     0.4 3  390 210 
                                                                                
