 2015  3 4 0057 22.4 L   6.787 -73.151149.0  RSN  8 0.3 1.5LRSN                1
 GAP= 71        0.68       3.0     3.2  5.1 -0.1566E+01 -0.2219E+01  0.1496E+01E
 Epicentro: LOS SANTOS - SANTANDER                                             3
 ACTION:UPD 15-04-30 16:22 OP:nd   STATUS:               ID:20150304005722 L   I
 OLDACT:DUP 15-03-04 17:49 OP:spq  STATUS:               ID:20150304004748d    3
 OLDACT:REG 15-03-04 12:21 OP:spq  STATUS:               ID:20150304004746     3
 2015-03-04-0047-46M.COL___290                                                 6
 STAT SP IPHASW D HRMM SECON CODA AMPLIT PERI AZIMU VELO AIN AR TRES W  DIS CAZ7
 BAR2 EZ EP        057 42.19                             171   -0.1510 21.8 189 
 BAR2 EZ ES   1    057 57.58                             171   -0.35 7 21.8 189 
 BAR2 EZ I         057 58.87         5.1 0.10            171           21.8 189 
 BRR  HZ EP        057 44.22                             153    0.3610 71.4 300 
 BRR  HE ES        058  1.01                             153    0.3710 71.4 300 
 BRR  HZ I         058  4.17         4.5 0.46            152           71.4 300 
 PAM  SZ EP        057 45.20                             151    0.2110 78.9  39 
 PAM  SN ES        058  2.41                             151   -0.2510 78.9  39 
 PAM  SZ I         058  4.13         6.3 0.44            153           78.9  39 
 RUS  HZ EP        057 46.19                             145   -0.1310 99.2 176 
 RUS  HN ES   1    058  5.00                             145   -0.02 7 99.2 176 
 RUS  HZ I         058  6.36         3.0 0.42            147           99.2 176 
 PTB  HZ EP   1    057 48.97                             133   -0.54 7  147 259 
 PTB  HE ES   1    058 10.61                             133   -0.08 7  147 259 
 PTB  HZ I         058 13.89         2.7 0.18            133            147 259 
 TAM  HZ EP        057 50.56                             131    0.26 9  155 104 
 SPBC HN ES        058 13.32                             130    0.05 9  162 219 
 SPBC HZ I         058 16.46         4.3 0.18            131            162 219 
 SML  HE ES   1    058 27.60                             118   -0.47 6  245 336 
 SML  HZ I         058 30.08         3.9 0.08            119            245 336 
                                                                                
