 2017  4 4 0539 14.4 L   6.731 -73.131147.1  RSN  5 0.4 1.1LRSN                1
 GAP=234        0.78       4.6     6.1  5.8  0.6268E+01  0.6185E+01  0.2312E+01E
 Epicentro: JORDAN - SANTANDER                                                 3
 ACTION:UPD 17-05-30 21:08 OP:jn   STATUS:               ID:20170404053914 L   I
 OLDACT:UP  17-04-04 14:35 OP:and  STATUS:               ID:20170404053744d    3
 OLDACT:UP  17-04-04 14:34 OP:and  STATUS:               ID:20170404053744d    3
 OLDACT:UP  17-04-04 14:34 OP:and  STATUS:               ID:20170404053744d    3
 OLDACT:UP  17-04-04 14:33 OP:and  STATUS:               ID:20170404053744d    3
 OLDACT:UP  17-04-04 14:33 OP:and  STATUS:               ID:20170404053744d    3
 OLDACT:DUP 17-04-04 14:31 OP:and  STATUS:               ID:20170404053744d    3
 2017-04-04-0538-00M.COL___359                                                 6
 STAT SP IPHASW D HRMM SECON CODA AMPLIT PERI AZIMU VELO AIN AR TRES W  DIS CAZ7
 BAR2 EZ EP        539 34.03                             173   -0.0510 16.3 200 
 BAR2 EZ ES        539 49.44                             173    0.0210 16.3 200 
 BAR2 EZ I         539 50.48         3.2 0.05            171           16.3 200 
 BRR  HZ IP     C  539 35.84                             151   -0.1710 76.5 303 
 BRR  HN ES        539 53.12                             151    0.2710 76.5 303 
 RUS  HZ EP        539 37.43                             146   -0.3310 92.9 177 
 RUS  HN ES        539 55.87                             146   -0.0910 92.9 177 
 RUS  HZ I         539 57.88         1.5 0.26            146           92.9 177 
 PTB  HZ EP        539 41.48                             132   -0.03 9  148 262 
 PTB  HE ES   2    540  1.44                             132   -1.21 5  148 262 
 SPBC HZ EP        539 43.06                             130    0.50 9  158 221 
 SPBC HN ES        540  4.77                             130    0.26 9  158 221 
 SPBC HZ I         540  6.26         2.4 0.08            130            158 221 
                                                                                
