 2015  8 4 0403 58.2 L   6.871 -73.291125.7  RSN 17 0.4 2.4LRSN                1
 GAP=107        0.94       2.5     3.5  5.5 -0.1406E+01  0.8880E+01  0.2409E+01E
 Epicentro: BETULIA - SANTANDER                                                3
 ACTION:UPD 15-09-15 22:59 OP:cam  STATUS:               ID:20150804040358 L   I
 OLDACT:UP  15-08-04 18:21 OP:mh   STATUS:               ID:20150804035748     3
 OLDACT:UP  15-08-04 18:16 OP:mh   STATUS:               ID:20150804035748     3
 OLDACT:UP  15-08-04 18:15 OP:mh   STATUS:               ID:20150804035748     3
 OLDACT:UP  15-08-04 14:37 OP:mh   STATUS:               ID:20150804035748     3
 OLDACT:REG 15-08-04 12:41 OP:mh   STATUS:               ID:20150804035748     3
 2015-08-04-0357-48M.COL___358                                                 6
 STAT SP IPHASW D HRMM SECON CODA AMPLIT PERI AZIMU VELO AIN AR TRES W  DIS CAZ7
 BAR2 EZ IP     D  4 4 15.87                             164    0.1410 33.1 159 
 BAR2 EZ I         4 4 30.21       152.9 0.28            163           33.1 159 
 BRR  HZ EP        4 4 16.31                             155    0.0810 53.4 299 
 BRR  HN ES        4 4 29.99                             155   -0.2710 53.4 299 
 BRR  HZ I         4 4 31.77        69.2 0.26            156           53.4 299 
 PAM  EZ EP   1    4 4 18.84                             145    0.07 7 83.4  52 
 PAM  EN ES        4 4 35.78                             145    0.9910 83.4  52 
 PAM  EZ I         4 4 37.19        52.5 0.28            149           83.4  52 
 RUS  HZ EP        4 4 20.68                             136   -0.2110  111 168 
 RUS  HN ES        4 4 38.03                             136   -0.5310  111 168 
 OCA  HZ EP        4 4 24.00                             126   -0.18 9  151 359 
 OCA  HN ES        4 4 43.97                             126   -0.45 9  151 359 
 OCA  HZ I         4 4 45.23        80.1 0.26            129            151 359 
 ZAR  HZ EP   1    4 4 27.73                             120    0.17 7  186 292 
 ZAR  HN ES   1    4 4 51.11                             120    0.69 7  186 292 
 ZAR  HZ I         4 4 55.87        29.3 0.22            121            186 292 
 NOR  HZ EP        4 4 31.88                             115   -0.12 8  227 230 
 NOR  HN ES        4 4 57.82                             115   -0.51 8  227 230 
 NOR  HZ I         4 4 59.70        14.7 0.16            115            227 230 
 SML  HZ EP        4 4 31.80                             114   -0.51 8  230 338 
 SML  HN ES        4 4 58.62                             114   -0.26 8  230 338 
 SML  HZ I         4 5  5.06        61.3 0.10            116            230 338 
 ROSC BZ EP   1    4 4 34.32                             112   -0.92 6  252 207 
 ROSC BN ES   4    4 5  6.84                             112    2.74 0  252 207 
 ROSC BZ I         4 5 14.00         8.7 0.35            113            252 207 
 HEL  HZ EP   1    4 4 36.50                             112    0.51 6  259 253 
 HEL  HN ES        4 5  5.57                             112    0.14 8  259 253 
 HEL  HZ I         4 5  9.74        14.5 0.46            112            259 253 
 URE  HZ EP   4    4 4 35.29                             111   -1.08 0  266 292 
 URE  HN ES   4    4 5  5.12                             111   -1.00 0  266 292 
 GUY2CHZ EP        4 4 40.32                             109    0.27 7  293 232 
 GUY2CHN ES   4    4 5 11.27                             109   -1.40 0  293 232 
 GUY2CHZ I         4 5 19.16        12.0 0.38                           293 232 
 VIL  SE ES   4    4 5 12.45                             107   -2.60 0  308 188 
 CBOC HZ EP        4 4 43.27                             107    0.35 7  321 250 
 CBOC HN ES        4 5 17.64                             107   -0.13 7  321 250 
 CBOC HZ I         4 5 24.98         4.4 0.44            108            321 250 
 DBB  SZ EP        4 4 43.13                             107    0.09 7  323 273 
 DBB  SZ ES   4    4 5 15.03                             107   -2.96 0  323 273 
 DBB  SZ I         4 5 21.59        20.7 0.24            108            323 273 
 TOL  SZ EP        4 4 45.60                             106    0.46 7  338 222 
 TOL  SN ES   4    4 5 19.98                             106   -1.75 0  338 222 
 TOL  SZ I         4 5 33.79         6.7 0.44            106            338 222 
 ANIL HZ EP   4    4 4 54.42                             105    7.69 0  352 222 
 ANIL HN ES        4 5 25.40                             105    0.86 6  352 222 
 ORTC HZ EP        4 4 51.18                             103   -0.04 6  393 214 
 ORTC HE ES        4 5 32.81                             103    0.27 6  393 214 
 ORTC HZ I         4 5 40.00         5.2 0.70            104            393 214 
 PAL  HZ EP        4 4 51.72                             103    0.04 6  396 237 
 PAL  HN ES   4    4 5 31.52                             103   -1.84 0  396 237 
 PAL  HZ I         4 5 37.95         6.7 0.32            104            396 237 
                                                                                
