 2017  6 4 0420 21.4 L   6.766 -73.154144.4  RSN 15 0.4 2.2LRSN                1
 GAP=209        0.84       3.4     3.3  4.8  0.4572E+01  0.1629E+01 -0.2262E+00E
 Epicentro: LOS SANTOS - SANTANDER                                             3
 ACTION:UPD 17-09-14 16:49 OP:jn   STATUS:               ID:20170604042021 L   I
 OLDACT:UP  17-06-04 18:35 OP:and  STATUS:               ID:20170604041736     3
 OLDACT:UP  17-06-04 16:50 OP:and  STATUS:               ID:20170604041736     3
 OLDACT:UP  17-06-04 16:49 OP:and  STATUS:               ID:20170604041736     3
 OLDACT:UP  17-06-04 16:12 OP:osc  STATUS:               ID:20170604041736     3
 OLDACT:REG 17-06-04 13:16 OP:osc  STATUS:               ID:20170604041736     3
 2017-06-04-0418-00M.COL___350                                                 6
 STAT SP IPHASW D HRMM SECON CODA AMPLIT PERI AZIMU VELO AIN AR TRES W  DIS CAZ7
 BRR  HZ IP     C  420 42.11                             152   -0.3510 72.3 302 
 BRR  HE ES        420 59.18                             152    0.2910 72.3 302 
 BRR  HZ I         421  2.35        24.8 0.22            150           72.3 302 
 RUS  HZ EP        420 44.24                             145   -0.5110 96.9 175 
 RUS  HE ES        421  3.10                             145    0.1410 96.9 175 
 RUS  HZ I         421  3.84        20.2 0.24            142           96.9 175 
 PTB  HZ EP   9    420 47.18                             132   -0.93 0  146 260 
 PTB  HN ES        421  8.01                                   -0.00 9  146 260 
 PTB  HZ I         421  9.04        21.0 0.28            130            146 260 
 SPBC HZ EP        420 49.32                             129   -0.14 9  160 220 
 SPBC HN ES        421 11.34                             129   -0.01 9  160 220 
 SPBC HZ I         421 13.93        45.3 0.20            127            160 220 
 YPLC HZ IP     C  420 50.71                             127   -0.10 9  174 150 
 YPLC HN ES        421 14.22                             127    0.46 9  174 150 
 YPLC HZ I         421 18.30         9.2 0.30            127            174 150 
 ZAR  HZ EP        420 53.64                             122   -0.18 9  205 293 
 ZAR  HE ES        421 18.99                             122   -0.12 9  205 293 
 ZAR  HZ I         421 25.23        30.6 0.46            122            205 293 
 NOR  HZ EP        420 56.76                             119    0.03 8  232 235 
 NOR  HN ES        421 24.47                             119    0.18 8  232 235 
 NOR  HZ I         421 28.53        11.8 0.17            117            232 235 
 CHI  HZ EP        420 58.71                             117    0.11 8  245 195 
 CHI  HN ES        421 27.32                             117   -0.29 8  245 195 
 CHI  HZ I         421 33.02         6.6 0.32            116            245 195 
 ROSC BZ EP   4    421  0.59                             117    1.55 0  249 211 
 ROSC BN ES   4    421 31.15                             117    2.76 0  249 211 
 ROSC BZ I         421 37.93        24.0 0.40            116            249 211 
 HEL  HZ EP        421  2.24                             115    0.90 8  270 257 
 HEL  HE ES        421 31.69                             115   -0.81 8  270 257 
 HEL  HZ I         421 38.62        15.9 0.30            114            270 257 
 PTGC HZ EP   9    421  3.40                             112   -1.43 0  305 158 
 PTGC HE ES        421 36.65                                   -0.63 7  305 158 
 PTGC HZ I         421 42.64         7.2 0.34            112            305 158 
 CBOC HZ EP        421  8.42                             110    0.40 7  332 253 
 CBOC HE ES        421 44.99                             110    0.60 7  332 253 
 CBOC HZ I         421 57.09         3.9 0.36            109            332 253 
 DBB  EZ EP        421  8.71                             109   -0.04 7  339 275 
 DBB  EN ES   4    421 44.33                             109   -1.35 0  339 275 
 DBB  EZ I         421 46.39         5.1 0.30            109            339 275 
 PAL  HZ EP        421 16.25                             106    0.06 6  403 239 
 PAL  HE ES   3    421 57.39                             106   -1.54 1  403 239 
 PAL  HZ I         422  4.34         2.7 0.22            105            403 239 
 SJC  HZ EP   4    421 14.02                             105   -3.21 0  412 327 
 SJC  HN ES   4    421 56.20                             105   -4.58 0  412 327 
 SJC  HZ I         422  0.35         3.9 0.52            106            412 327 
                                                                                
