 2010 11 4 0452 22.4 L   6.754 -73.142148.0  RSN  6 0.3 1.7LRSN                1
 GAP=165        0.61       4.3    11.0  7.9  0.1840E+02 -0.4202E+02 -0.1244E+02E
 Epicentro: LOS SANTOS - SANTANDER                                             3
 ACTION:UP  10-12-17 16:50 OP:REBC STATUS:               ID:20101104045222 L   I
 2010-11-04-0448-58S.COL___127                                                 6
 STAT SP IPHASW D HRMM SECON CODA AMPLIT PERI AZIMU VELO SNR AR TRES W  DIS CAZ7
 BAR2 SZ EP   2    452 41.79                             173    -0.4 5   19 194 
 BAR2 SZ I         452 42.77         8.6 0.16                            19 194 
 BAR2 SZ ES   2    452 57.14                             173    -0.5 5   19 194 
 GIR2 SZ EP   2    452 42.26                             166    -0.2 5   36 351 
 BRR  HZ EP        452 43.97                             152     0.010   74 302 
 BRR  HE ES   1    453  0.84                             152     0.1 7   74 302 
 BRR  HZ I         453  1.67        15.4 0.16                            74 302 
 RUS  HZ EP   1    452 46.26                             146     0.2 7   96 176 
 RUS  HZ I         452 47.46         4.0 0.09                            96 176 
 RUS  HE ES   2    453  4.72                             146     0.3 5   96 176 
 GUE  SZ EP   2    452 48.18                             139     0.5 5  121  11 
 OCA  SZ EP        452 51.10                             129    -0.3 9  165 353 
 OCA  SZ ES   1    453 14.25                             129     0.3 7  165 353 
 OCA  SZ I         453 17.36         7.6 0.33                           165 353 
                                                                                
