 2015  4 4 0952 17.4 L   7.255 -73.280125.2  RSN  8 0.4 1.7LRSN                1
 GAP= 90        0.94       2.8     3.5  6.0  0.6556E+00  0.5055E+01 -0.1828E+01E
 Epicentro: RIONEGRO - SANTANDER                                               3
 ACTION:UPD 15-06-03 16:52 OP:cam  STATUS:               ID:20150404095217 L   I
 OLDACT:UP  15-04-04 17:32 OP:mh   STATUS:               ID:20150404094737     3
 OLDACT:REG 15-04-04 13:29 OP:mh   STATUS:               ID:20150404094737     3
 2015-04-04-0947-37M.COL___276                                                 6
 STAT SP IPHASW D HRMM SECON CODA AMPLIT PERI AZIMU VELO AIN AR TRES W  DIS CAZ7
 BRR  HZ EP        952 35.63                             157    0.4810 50.4 251 
 BRR  HN ES        952 49.26                             157    0.2410 50.4 251 
 BRR  HZ I         952 50.12        12.7 0.28            147           50.4 251 
 PAM  SZ EP        952 37.09                             151    0.4610 64.8  82 
 PAM  SN ES        952 51.56                             151   -0.1110 64.8  82 
 PAM  SZ I         952 52.73         9.5 0.18            153           64.8  82 
 BAR2 EZ EP   1    952 37.10                             148    0.25 7 74.1 172 
 BAR2 EZ ES        952 52.07                             148    0.0110 74.1 172 
 BAR2 EZ I         952 53.81        10.7 0.29            142           74.1 172 
 OCA  HZ EP        952 39.59                             136    0.2310  109 358 
 OCA  HN ES        952 56.26                             136   -0.2610  109 358 
 OCA  HZ I         952 57.63        24.9 0.28            133            109 358 
 RUS  HZ EP        952 43.58                             126   -0.22 9  152 172 
 RUS  HN ES        953  4.10                             126   -0.33 9  152 172 
 RUS  HZ I         953  6.01         3.4 0.32            121            152 172 
 PTB  HZ EP        952 42.88                             126   -0.28 9  152 239 
 PTB  HN ES        953  2.72                             126   -0.57 9  152 239 
 PTB  HZ I         953  4.67         2.8 0.20            118            152 239 
 ZAR  HZ EP   1    952 45.87                             122    0.29 7  176 279 
 ZAR  HN ES        953  8.24                             122    0.64 9  176 279 
 ZAR  HZ I         953 18.93         2.9 0.10            115            176 279 
 SML  HZ EP        952 47.09                             119   -0.14 9  192 333 
 SML  HN ES        953  9.85                             119   -0.68 9  192 333 
 SML  HZ I         953 12.04        11.1 0.30            114            192 333 
                                                                                
