 2013  2 4 0703 37.6 L   6.360 -73.675113.6  RSN  7 0.5 1.3LRSN                1
 GAP= 83        0.97       4.5     5.3 12.3  0.7850E+01  0.3106E+02  0.5685E+01E
 Epicentro: SANTA HELENA DEL OPON - SANTANDER                                  3
 ACTION:UPD 13-03-12 09:30 OP:ep   STATUS:               ID:20130204070337 L   I
 2013-02-04-0700-00M.COL___241                                                 6
 STAT SP IPHASW D HRMM SECON CODA AMPLIT PERI AZIMU VELO AIN AR TRES W  DIS CAZ7
 BAR2 SZ EP   1    7 3 55.45                             150    0.42 7 60.2  65 
 BAR2 SZ ES   1    7 4  8.80                             150    0.19 7 60.2  65 
 BRR  HZ EP        7 3 56.48                             141    0.2410 82.7 357 
 BRR  HN I         7 4 18.34         5.4 0.16             98           82.7 357 
 RUS  HN ES        7 4 11.49                             141   -0.6010 83.5 128 
 RUS  HN I         7 4 12.66         2.9 0.46            101           83.5 128 
 PTB  HZ EP   1    7 3 55.98                             139   -0.75 7 88.7 283 
 PTB  HN ES   1    7 4 12.15                             139    0.52 7 88.7 283 
 PTB  HN I         7 4 13.01         4.9 0.26            101           88.7 283 
 ZAR  HN ES   1    7 4 27.29                             117   -0.25 7  181 314 
 ZAR  HN I         7 4 32.69         4.5 0.44             81            181 314 
 CHI  HN ES        7 4 30.89                             116    0.39 9  191 182 
 CHI  HN I         7 4 33.15         1.5 0.60             81            191 182 
 HEL  HN ES   2    7 4 32.95                             114   -0.30 4  206 265 
 HEL  HN I         7 4 35.96         1.7 0.26             81            206 265 
                                                                                
