 2011  6 4 0454 22.1 L   6.786 -73.079147.7  RSN  5 0.2 1.5LRSN                1
 GAP=146        0.56       3.3     6.2  5.9 -0.3404E+01 -0.7562E+01 -0.1436E+01E
 Epicentro: LOS SANTOS - SANTANDER                                             3
 ACTION:UP  11-07-14 19:03 OP:ep   STATUS:               ID:20110604045422 L   I
 2011-06-04-0453-07S.COL___132                                                 6
 STAT SP IPHASW D HRMM SECON CODA AMPLIT PERI AZIMU VELO SNR AR TRES W  DIS CAZ7
 BAR2 SZ EP   1    454 41.79                             170    -0.2 7   24 208 
 BAR2 SZ ES   1    454 57.57                             170     0.1 7   24 208 
 BAR2 SZ I         454 58.47        10.0 0.18                            24 208 
 PAM  SZ EP   1    454 44.67                             152     0.4 7   74  34 
 PAM  SN ES   2    455  1.03                             152    -0.6 5   74  34 
 BRR  HZ EP   1    454 43.69                             151    -0.2 7   78 297 
 BRR  HE ES   1    455  0.83                             151     0.0 7   78 297 
 BRR  HZ I         455  1.06         5.7 0.13                            78 297 
 RUS  HZ EP   1    454 45.63                             145    -0.3 7   99 180 
 RUS  HN ES   1    455  4.64                             145     0.2 7   99 180 
 RUS  HZ I         455  5.65         2.9 0.26                            99 180 
 GRA  SZ EP   1    454 47.59                             138     0.1 7  125  14 
 GRA  SZ ES   1    455  7.29                             138     0.1 7  125  14 
 GRA  SZ I         455  8.69         3.6 0.34                           125  14 
                                                                                
