 2011 11 4 0820 57.1 L   6.770 -73.131139.1  RSN 11 0.3 2.5LRSN                1
 GAP=116        0.54       2.2     2.7  3.3 -0.6583E+00  0.2540E+01  0.4963E+00E
 Epicentro: LOS SANTOS - SANTANDER                                             3
 ACTION:UPD 12-07-13 16:08 OP:ep   STATUS:               ID:20111104082057 L   I
 2011-11-04-0819-24S.COL___175                                                 6
 STAT SP IPHASW D HRMM SECON CODA AMPLIT PERI AZIMU VELO AIN AR TRES W  DIS CAZ7
 BAR2 SZ IP        821 15.94                             171    0.0910 20.5 196 
 BAR2 SZ ES        821 30.35                             171   -0.1410 20.5 196 
 BAR2 SZ I         821 31.77       109.1 0.27                          20.5 196 
 BTL  SZ EP   2    821 16.15                             170    0.26 5 22.3 317 
 BRR  HZ IP     D  821 17.91                             150    0.2210 74.2 300 
 BRR  HE ES        821 33.92                             150    0.1510 74.2 300 
 PAM  SZ EP        821 18.72                             149    0.0310 79.0  37 
 PAM  SN ES        821 35.62                             149    0.0810 79.0  37 
 RUS  HZ EP        821 19.87                             143   -0.0610 97.2 177 
 RUS  HN ES   1    821 37.70                             143   -0.06 7 97.2 177 
 RUS  HZ I         821 40.37        48.8 0.33                          97.2 177 
 OCA  SZ EP        821 24.99                             127   -0.22 9  164 353 
 OCA  SZ ES   1    821 46.85                             127   -0.31 7  164 353 
 OCA  SZ I         821 52.59        33.9 0.36                           164 353 
 YOP  SZ EP   2    821 26.39                             125    0.10 4  175 153 
 YOP  SZ I         821 53.38        31.8 0.27                           175 153 
 ZAR  HZ EP   1    821 29.66                             120    0.28 6  207 293 
 ZAR  HN ES   1    821 54.35                             120   -0.23 6  207 293 
 ZAR  HZ I         821 57.26        34.6 0.29                           207 293 
 NOR  SZ EP   1    821 31.56                             117   -0.81 6  234 235 
 NOR  SN ES   1    821 59.60                             117   -0.29 6  234 235 
 HEL  HZ EP   1    821 37.50                             113    0.45 6  273 257 
 HEL  HZ I         822 14.94        17.4 0.19                           273 257 
 RREF HZ EP   1    821 43.08                             110    0.24 5  321 230 
 RREF HN ES   2    822 19.28                             110    0.75 3  321 230 
 RREF HZ I         822 28.95        10.8 0.20                           321 230 
                                                                                
