 2014  7 4 0842 44.4 L   6.774 -73.146147.8  RSN  6 0.3 1.5LRSN                1
 GAP=200        0.69       3.2     4.8  5.5  0.5550E+00  0.7296E+01 -0.6435E+01E
 Epicentro: LOS SANTOS - SANTANDER                                             3
 ACTION:UPD 15-03-16 20:41 OP:nd   STATUS:               ID:20140704084244 L   I
 OLDACT:UP  14-07-04 16:39 OP:cam  STATUS:               ID:20140704084000     3
 OLDACT:REG 14-07-04 13:06 OP:cam  STATUS:               ID:20140704084000     3
 2014-07-04-0840-00M.COL___279                                                 6
 STAT SP IPHASW D HRMM SECON CODA AMPLIT PERI AZIMU VELO AIN AR TRES W  DIS CAZ7
 BAR2 SZ EP   1    843  4.35                             172    0.11 7 20.5 191 
 BAR2 SZ ES        843 19.72                             172    0.0210 20.5 191 
 BAR2 SZ I         843 20.91         4.1 0.40            167           20.5 191 
 RUS  HZ EP   1    843  8.55                             145    0.38 7 97.7 176 
 RUS  HN ES        843 26.39                             145   -0.3010 97.7 176 
 RUS  HZ I         843 28.10         1.9 0.40            146           97.7 176 
 PTB  HZ EP        843 11.19                             132   -0.31 9  147 260 
 PTB  HN ES        843 32.59                             132   -0.03 9  147 260 
 PTB  HZ I         843 38.21         4.9 0.40            131            147 260 
 SPBC HZ EP        843 13.28                             130    0.42 9  161 220 
 SPBC HN ES        843 35.14                             130    0.09 9  161 220 
 SPBC HZ I         843 42.26         7.0 0.24            129            161 220 
 SML  HZ EP        843 20.93                             117   -0.52 8  246 336 
 SML  HE ES        843 50.71                             117    0.39 8  246 336 
 SML  HZ I         843 53.40         4.6 0.10            119            246 336 
 HEL  HZ EP   1    843 24.55                             115   -0.11 6  271 256 
 GUY2CHZ EP   4    843 29.72                             113    1.79 0  299 235 
 SJC  HZ EP   4    843 38.60                             106   -1.73 0  412 327 
                                                                                
