 2011 11 4 0948 48.5 L   6.797 -73.118134.0  RSN  4 0.4 1.1LRSN                1
 GAP=140        0.54       7.3    11.2  9.8  0.4417E+02 -0.4036E+02 -0.2709E+02E
 Epicentro: LOS SANTOS - SANTANDER                                             3
 ACTION:UPD 12-07-13 16:08 OP:ep   STATUS:               ID:20111104094848 L   I
 2011-11-04-0948-26S.COL___175                                                 6
 STAT SP IPHASW D HRMM SECON CODA AMPLIT PERI AZIMU VELO AIN AR TRES W  DIS CAZ7
 BAR2 SZ EP   2    949  6.35                             169   -0.42 5 23.7 197 
 BAR2 SZ ES   2    949 20.61                             169   -0.38 5 23.7 197 
 BAR2 SZ I         949 23.10         4.7 0.15                          23.7 197 
 BRR  HZ EP   1    949  8.74                             149    0.13 7 74.1 298 
 BRR  HN ES   2    949 24.30                             149    0.04 5 74.1 298 
 PAM  SZ EP   2    949  9.71                             149    0.29 5 75.8  38 
 RUS  HZ EP   2    949 10.71                             141   -0.41 5  100 178 
 RUS  HE ES   2    949 29.30                             141    0.58 5  100 178 
 RUS  HZ I         949 30.73         1.9 0.24                           100 178 
                                                                                
