 2011  3 4 0111 16.8 L   6.834 -73.319115.0  RSN  7 0.5 2.1LRSN                1
 GAP=125        1.12       4.0     8.5 10.5 -0.1294E+02  0.4673E+02 -0.7442E+01E
 Epicentro: ZAPATOCA - SANTANDER                                               3
 ACTION:UP  11-06-16 14:31 OP:jfem STATUS:               ID:20110304011117 L   I
 2011-03-04-0107-34S.COL___135                                                 6
 STAT SP IPHASW D HRMM SECON CODA AMPLIT PERI AZIMU VELO SNR AR TRES W  DIS CAZ7
 BAR2 SZ EP        111 33.20                             166     0.210   31 151 
 BAR2 SZ ES   1    111 45.81                             166     0.2 7   31 151 
 BAR2 SZ I         111 47.24        80.8 0.39                            31 151 
 RUS  HZ EP   1    111 38.21                             135    -0.1 7  107 166 
 RUS  HE ES   1    111 54.52                             135    -0.5 7  107 166 
 GRA  SZ IP        111 40.53                             127     0.710  129  26 
 GRA  SZ ES   1    111 58.27                             127     0.5 7  129  26 
 GRA  SZ I         112  0.51        16.1 0.32                           129  26 
 OCA  SZ IP        111 41.65                                    -0.8 9  155 360 
 OCA  SZ ES   1    112  1.69                                    -0.7 7  155 360 
 OCA  SZ I         112  3.23        22.3 0.56                           155 360 
 CHI  HZ EP   1    111 52.80                             110    -0.2 6  248 191 
 CHI  HE ES   1    112 21.05                             110    -0.1 6  248 191 
 CHI  HZ I         112 28.53         3.0 0.30                           248 191 
 HEL  HZ EP   1    111 54.06                             109     0.4 6  255 254 
 HEL  HN ES   1    112 22.68                             109     0.3 6  255 254 
 HEL  HZ I         112 25.50         8.8 0.38                           255 254 
 PRA  HZ EP   1    112  9.38                             101     0.6 4  386 207 
 PRA  HN ES   1    112 48.75                             101    -0.6 4  386 207 
                                                                                
