 2015  1 4 0834 20.5 L   6.783 -73.114147.7  RSN  6 0.2 1.3LRSN                1
 GAP=208        0.63       2.5     4.8  4.5 -0.2893E+01  0.1941E+01 -0.1401E+01E
 Epicentro: LOS SANTOS - SANTANDER                                             3
 ACTION:UPD 15-03-02 15:36 OP:nd   STATUS:               ID:20150104083420 L   I
 OLDACT:REG 15-01-04 14:40 OP:stll STATUS:               ID:20150104082744     3
 2015-01-04-0827-44M.COL___274                                                 6
 STAT SP IPHASW D HRMM SECON CODA AMPLIT PERI AZIMU VELO AIN AR TRES W  DIS CAZ7
 BAR2 EZ EP        834 40.12                             171   -0.2410 22.4 200 
 BAR2 EZ ES        834 55.67                             171   -0.1710 22.4 200 
 BAR2 EZ I         834 57.70         3.6 0.32            169           22.4 200 
 BRR  HZ EP        834 42.39                             151    0.2810 75.2 299 
 BRR  HN ES        834 59.24                             151    0.3010 75.2 299 
 PTB  HZ EP        834 47.80                             132   -0.13 9  151 260 
 PTB  HN ES        835  8.85                             132   -0.45 9  151 260 
 PTB  HZ I         835 14.56         1.5 0.14            131            151 260 
 OCA  HN ES        835 11.55                             130   -0.02 9  163 352 
 OCA  HZ I         835 17.01         1.9 0.42            130            163 352 
 SPBC HZ EP        834 49.34                             129    0.10 9  164 220 
 SPBC HE ES        835 11.98                             129    0.34 9  164 220 
 SPBC HZ I         835 17.47         2.8 0.22            130            164 220 
 SML  HZ EP        834 57.53                             117   -0.07 8  247 335 
 SML  HN ES        835 26.57                             117    0.04 8  247 335 
 SML  HZ I         835 31.75         2.4 0.32            118            247 335 
                                                                                
