 2017  1 4 0733 35.7 L   6.662 -73.534111.4  RSN  4 0.1 1.2LRSN                1
 GAP=123        0.32       2.0     1.7  2.8  0.1524E+01  0.1285E+01  0.1703E+01E
 Epicentro: EL CARMEN - SANTANDER                                              3
 ACTION:UPD 17-05-22 15:55 OP:jn   STATUS:               ID:20170104073335 L   I
 OLDACT:DUP 17-01-04 16:08 OP:lv   STATUS:               ID:20170104072751d    3
 2017-01-04-0728-00M.COL___369                                                 6
 STAT SP IPHASW D HRMM SECON CODA AMPLIT PERI AZIMU VELO AIN AR TRES W  DIS CAZ7
 BAR2 EZ EP        733 51.82                             159   -0.0210 39.7 101 
 BAR2 EZ ES        734  4.30                             159   -0.0910 39.7 101 
 BAR2 EZ I         734  5.09         8.5 0.36            161           39.7 101 
 BRR  HZ EP        733 52.09                             153   -0.0710 53.0 338 
 BRR  HN ES        734  5.07                             153    0.1110 53.0 338 
 RUS  HZ EP        733 56.12                             136   -0.0210 98.6 150 
 RUS  HN ES        734 12.13                             136    0.0810 98.6 150 
 PTB  HZ EP        733 55.93                             134    0.0810  103 262 
 PTB  HE ES        734 11.46                             134   -0.0810  103 262 
 PTB  HZ I         734 12.66         1.7 0.10            134            103 262 
 ZAR  HE ES   4    734 26.02                             118    2.17 0  173 302 
                                                                                
