 2017  2 4 0351 24.4 L   6.743 -73.143147.0  RSN  7 0.4 1.4LRSN                1
 GAP=139        0.78       3.4     4.2  5.8 -0.1852E+01  0.1863E+01  0.4063E+01E
 Epicentro: LOS SANTOS - SANTANDER                                             3
 ACTION:UPD 17-05-24 15:32 OP:jn   STATUS:               ID:20170204035124 L   I
 OLDACT:REG 17-02-04 12:34 OP:dnl  STATUS:               ID:20170204034742     3
 2017-02-04-0348-00M.COL___346                                                 6
 STAT SP IPHASW D HRMM SECON CODA AMPLIT PERI AZIMU VELO AIN AR TRES W  DIS CAZ7
 BAR2 EZ EP   2    351 44.03                             173   -0.08 5 17.3 195 
 BAR2 EZ ES        351 59.22                             173   -0.2410 17.3 195 
 BAR2 EZ I         352  1.78        10.0 0.28            167           17.3 195 
 BRR  HZ EP        351 45.82                             152   -0.1010 74.7 303 
 BRR  HN ES        352  2.74                             152    0.0710 74.7 303 
 BRR  HZ I         352  6.81         8.0 0.26            137           74.7 303 
 PAM  EZ IP     D  351 46.95                             150   -0.1210 82.1  37 
 PAM  EN ES        352  4.69                             150   -0.0410 82.1  37 
 PAM  EZ I         352  6.40         4.1 0.64            141           82.1  37 
 RUS  HZ EP        351 48.22                             146    0.3510 94.3 176 
 RUS  HN ES        352  6.62                             146    0.4710 94.3 176 
 RUS  HZ I         352  7.84         3.5 0.30            136           94.3 176 
 PTB  HZ EP   2    351 50.88                             133   -0.56 5  147 261 
 PTB  HE ES        352 12.63                             133    0.13 9  147 261 
 PTB  HZ I         352 15.03         2.0 0.12            119            147 261 
 CHI  HZ EP   2    352  1.78                             118    0.22 4  243 196 
 CHI  HN ES        352 29.70                             118   -0.82 8  243 196 
 CHI  HZ I         352 37.43         1.3 0.42            108            243 196 
 CBOC HZ EP   2    352 12.20                             110    0.98 3  332 253 
 CBOC HZ I         352 50.20         1.0 0.12            100            332 253 
                                                                                
