 2017  9 4 0148 53.3 L   6.567 -73.525111.0  RSN 16 0.4 2.0LRSN                1
 GAP= 66        1.00       2.6     2.9  5.4 -0.8538E+00  0.6522E+01  0.2051E+01E
 Epicentro: EL CARMEN - SANTANDER                                              3
 ACTION:UPD 17-10-05 19:08 OP:rebc STATUS:               ID:20170904014853 L   I
 OLDACT:UP  17-09-04 13:56 OP:dnl  STATUS:               ID:20170904013736     3
 OLDACT:REG 17-09-04 12:18 OP:dnl  STATUS:               ID:20170904013736     3
 2017-09-04-0138-00M.COL___417                                                 6
 STAT SP IPHASW D HRMM SECON CODA AMPLIT PERI AZIMU VELO AIN AR TRES W  DIS CAZ7
 BAR2 EZ IP     D  149  9.36                             160    0.1110 37.9  86 
 BAR2 EZ ES        149 21.85                             160    0.1410 37.9  86 
 BRR  HZ EP        149 10.13                             148   -0.1310 63.2 341 
 BRR  HE ES        149 23.85                             148    0.3410 63.2 341 
 BRR  HZ I         149 28.18        21.9 0.12            149           63.2 341 
 RUS  HZ EP        149 12.48                             139   -0.3710 89.2 147 
 RUS  HN ES        149 28.24                             139    0.1210 89.2 147 
 RUS  HZ I         149 29.56        13.5 0.36            142           89.2 147 
 SPBC HZ EP        149 14.35                             130   -0.4810  118 211 
 SPBC HN ES        149 30.75                             130   -0.8810  118 211 
 SPBC HZ I         149 33.04        37.4 0.10            131            118 211 
 PAM  EZ EP        149 15.84                             128   -0.1810  125  47 
 PAM  EN ES        149 33.69                             128   -0.0710  125  47 
 PAM  EZ I         149 36.25        10.1 0.16            132            125  47 
 ZAR  HZ EP        149 21.63                             117    0.62 9  179 305 
 ZAR  HE ES   4    149 44.11                             117    1.48 0  179 305 
 ZAR  HZ I         149 47.74        27.5 0.34            119            179 305 
 YPLC HZ EP        149 21.34                             117    0.05 9  181 136 
 YPLC HE ES        149 43.56                             117    0.43 9  181 136 
 YPLC HZ I         149 45.59        17.7 0.38            120            181 136 
 NOR  HZ EP        149 21.06                             116   -0.69 9  186 233 
 NOR  HN ES   4    149 42.53                             116   -1.43 0  186 233 
 NOR  HZ I         149 45.05        16.9 0.30            117            186 233 
 ROSC BZ EP   9    149 26.36                             113    1.44 0  210 205 
 ROSC BN ES        149 51.01                             113   -0.03 8  210 205 
 ROSC BZ I         149 55.89         7.3 0.40            115            210 205 
 CHI  HZ EP   2    149 25.99                             112    0.46 4  215 186 
 CHI  HE ES        149 50.98                             112    0.29 8  215 186 
 CHI  HZ I         149 54.91         4.0 0.26            114            215 186 
 HEL  HZ EP        149 26.93                             111    0.31 8  226 259 
 HEL  HN ES        149 52.35                             111   -0.27 8  226 259 
 HEL  HZ I         149 57.58        11.3 0.20            113            226 259 
 GUY2CHZ EP        149 30.32                             108    0.52 8  252 234 
 GUY2CHE ES        149 59.34                             108    1.05 8  252 234 
 GUY2CHZ I         150  7.36         8.8 0.64                           252 234 
 URE  HZ EP        149 29.34                             108   -0.51 8  258 301 
 URE  HN ES   4    149 56.67                             108   -1.71 0  258 301 
 URE  HZ I         150  0.86        14.5 0.32            109            258 301 
 ELA  HZ EP   4    149 35.93                             106    2.74 0  281 228 
 ELA  HN ES        150  4.35                             106    0.03 7  281 228 
 ELA  HZ I         150  9.02         4.7 0.34            108            281 228 
 PRA  HZ EP   2    149 40.90                             102    0.13 3  350 206 
 PRA  HN ES        150 17.97                             102    0.17 6  350 206 
 PRA  HZ I         150 21.85         4.1 0.20            103            350 206 
 ORTC HZ EP   2    149 40.12                             102   -0.72 3  350 213 
 ORTC HE ES   4    150 19.93                             102    1.99 0  350 213 
 ORTC HZ I         150 20.67         2.3 0.18            103            350 213 
                                                                                
