 2015  7 4 0642  6.3 L   6.879 -73.277124.0  RSN  9 0.5 1.8LRSN                1
 GAP=110        1.05       5.0     5.6  9.5 -0.8673E+01  0.3646E+02 -0.1860E+02E
 Epicentro: BETULIA - SANTANDER                                                3
 ACTION:UPD 15-09-08 21:46 OP:cam  STATUS:               ID:20150704064206 L   I
 OLDACT:UP  15-07-08 22:11 OP:cam  STATUS:               ID:20150704064206 L   3
 OLDACT:UP  15-07-08 22:10 OP:cam  STATUS:               ID:20150704064206 L   3
 OLDACT:UP  15-07-08 22:10 OP:cam  STATUS:               ID:20150704064206 L   3
 OLDACT:UP  15-07-08 22:09 OP:cam  STATUS:               ID:20150704064206 L   3
 OLDACT:UP  15-07-08 10:50 OP:Mher STATUS:               ID:20150704064206 L   3
 OLDACT:UP  15-07-04 18:49 OP:mh   STATUS:               ID:20150704063750     3
 OLDACT:UP  15-07-04 18:11 OP:mh   STATUS:               ID:20150704063750     3
 OLDACT:UP  15-07-04 17:29 OP:mh   STATUS:               ID:20150704063750     3
 OLDACT:UP  15-07-04 17:29 OP:mh   STATUS:               ID:20150704063750     3
 OLDACT:UP  15-07-04 17:29 OP:mh   STATUS:               ID:20150704063750     3
 OLDACT:REG 15-07-04 13:37 OP:mh   STATUS:               ID:20150704063750     3
 2015-07-04-0637-50M.COL___334                                                 6
 STAT SP IPHASW D HRMM SECON CODA AMPLIT PERI AZIMU VELO AIN AR TRES W  DIS CAZ7
 BAR2 EZ EP        642 23.26                             164   -0.3210 33.4 162 
 BAR2 EZ ES        642 37.08                             164    0.0010 33.4 162 
 BAR2 EZ I         642 38.86        24.9 0.32            169           33.4 162 
 PAM  EZ EP        642 26.13                             145   -0.3810 81.6  51 
 PAM  EN ES        642 43.02                             145    0.7210 81.6  51 
 PAM  EZ I         642 45.23        18.6 0.44            154           81.6  51 
 OCA  HZ EP        642 31.57                             126   -0.44 9  150 358 
 OCA  HN ES        642 51.81                             126   -0.27 9  150 358 
 OCA  HZ I         642 56.74        17.0 0.48            131            150 358 
 ZAR  HZ EP        642 36.36                             119    0.75 9  187 291 
 ZAR  HE ES   4    643  1.78                             119    3.29 0  187 291 
 ZAR  HZ I         643  7.10         5.7 0.30            123            187 291 
 SML  HZ EP        642 40.25                             114    0.02 8  230 338 
 SML  HN ES   1    643  6.31                             114   -0.41 6  230 338 
 HEL  HZ EP   1    642 44.69                             111    0.55 6  260 253 
 HEL  HN ES   1    643 13.60                             111   -0.08 6  260 253 
 HEL  HZ I         643 21.39         2.9 0.54            115            260 253 
 GUY2CHZ EP   9    642 49.92                             108    1.69 0  295 232 
 GUY2CHE ES   2    643 22.93                                    0.28 4  295 232 
 DBB  SZ ES        643 25.52                             106   -0.71 7  324 273 
 MON  HZ EP   4    642 50.99                             105   -1.55 0  337 309 
 MON  HN ES        643 29.39                             105    0.76 7  337 309 
 MON  HZ I         643 30.07         2.0 0.06            109            337 309 
                                                                                
