 2017  6 4 0214 14.2 L   6.846 -73.124149.8  RSN 11 0.4 2.1LRSN                1
 GAP=219        0.87       3.8     4.3  5.7  0.7828E+01 -0.5030E+01 -0.2945E+01E
 Epicentro: LOS SANTOS - SANTANDER                                             3
 ACTION:UPD 17-09-14 16:49 OP:jn   STATUS:               ID:20170604021414 L   I
 OLDACT:UP  17-06-04 16:46 OP:and  STATUS:               ID:20170604020743d    3
 OLDACT:UP  17-06-04 15:06 OP:osc  STATUS:               ID:20170604020743d    3
 OLDACT:DUP 17-06-04 14:56 OP:osc  STATUS:               ID:20170604020743d    3
 2017-06-04-0208-00M.COL___353                                                 6
 STAT SP IPHASW D HRMM SECON CODA AMPLIT PERI AZIMU VELO AIN AR TRES W  DIS CAZ7
 BRR  HZ EP        214 35.69                             153   -0.0710 71.1 294 
 BRR  HE ES        214 52.86                             153    0.2610 71.1 294 
 BRR  HZ I         214 55.99        23.1 0.14            151           71.1 294 
 RUS  HZ EP        214 38.15                             143   -0.5310  106 178 
 RUS  HN ES        214 57.69                             143   -0.1110  106 178 
 RUS  HZ I         214 58.71        10.5 0.32            142            106 178 
 PTB  HZ EP   9    214 40.71                             132   -1.08 0  151 257 
 PTB  HN ES        215  1.82                                   -0.42 9  151 257 
 PTB  HZ I         215  4.60        11.9 0.16            130            151 257 
 SPBC HZ EP        214 43.14                             129   -0.37 9  169 219 
 SPBC HN ES        215  6.00                             129   -0.38 9  169 219 
 SPBC HZ I         215 12.08        15.9 0.18            127            169 219 
 YPLC HZ IP     D  214 44.59                             127   -0.01 9  180 153 
 YPLC HE ES        215  9.00                             127    0.68 9  180 153 
 YPLC HZ I         215 13.96         8.4 0.36            127            180 153 
 ZAR  HZ EP        214 46.74                             123   -0.19 9  204 291 
 ZAR  HE ES        215 12.66                             123    0.18 9  204 291 
 ZAR  HZ I         215 17.92        23.0 0.40            123            204 291 
 NOR  HZ EP   9    214 50.31                             119   -0.36 0  240 234 
 NOR  HE ES        215 18.80                                    0.03 8  240 234 
 NOR  HZ I         215 24.39        11.4 0.18            118            240 234 
 CHI  HZ EP        214 52.47                             117   -0.23 8  254 195 
 CHI  HN ES        215 22.99                             117    0.24 8  254 195 
 CHI  HZ I         215 27.15         4.1 0.26            117            254 195 
 HEL  HZ EP        214 55.80                             115    0.80 7  276 255 
 HEL  HE ES   4    215 30.48                             115    3.64 0  276 255 
 HEL  HZ I         215 33.90         9.3 0.26            115            276 255 
 CBOC HN ES   2    215 39.53                             110    0.75 3  338 251 
 ORTC HZ EP   9    215 10.37                             107    1.49 0  401 216 
 ORTC HN ES        215 53.34                             107    0.30 6  401 216 
                                                                                
