 2011  5 4 0132 36.4 L   6.792 -73.117141.1  RSN 13 0.3 2.4LRSN                1
 GAP=141        0.55       2.8     4.1  5.0 -0.5267E+01  0.5315E+01  0.1575E+01E
 Epicentro: LOS SANTOS - SANTANDER                                             3
 ACTION:UP  11-06-29 08:50 OP:tino STATUS:               ID:20110504013236 L   I
 2011-05-04-0129-48S.COL___132                                                 6
 STAT SP IPHASW D HRMM SECON CODA AMPLIT PERI AZIMU VELO SNR AR TRES W  DIS CAZ7
 BTL  SZ IP        132 55.84                             171     0.410   22 310 
 BAR2 SZ IP        132 55.46                             170     0.010   23 198 
 BAR2 SZ ES   2    133  9.72                             170    -0.6 5   23 198 
 BAR2 SZ I         133 13.94        72.0 0.58                            23 198 
 BRR  HZ IP     C  132 57.29                             151     0.010   74 298 
 BRR  HN ES   2    133 13.81                             151     0.3 5   74 298 
 BRR  HZ I         133 17.48        55.1 0.16                            74 298 
 PAM  SZ EP   1    132 58.19                             150     0.1 7   76  37 
 PAM  SE ES   2    133 15.34                             150     0.4 5   76  37 
 RUS  HZ EP   1    132 59.37                             143    -0.3 7  100 178 
 RUS  HN ES   2    133 18.00                             143     0.3 5  100 178 
 RUS  HZ I         133 19.94        21.0 0.38                           100 178 
 BRI  SZ EP   1    132 59.91                             140     0.1 7  108  19 
 BRI  SZ ES   2    133 17.79                             140    -0.3 5  108  19 
 BRI  SZ I         133 23.20        35.7 0.45                           108  19 
 GRA  SZ IP        133  1.17                             136    -0.110  126  16 
 GRA  SZ ES   2    133 20.56                             136     0.0 5  126  16 
 GRA  SZ I         133 21.90        42.7 0.33                           126  16 
 OCA  SZ EP   2    133  4.19                             128    -0.3 5  162 352 
 OCA  SZ ES   2    133 25.62                             128    -0.8 5  162 352 
 OCA  SZ I         133 31.23        39.9 0.26                           162 352 
 NOR  SZ EP   1    133 11.93                             117    -0.2 6  237 235 
 NOR  SN ES   2    133 39.66                             117    -0.3 4  237 235 
 HEL  HZ EP   1    133 16.89                             114     0.2 6  275 256 
 HEL  HN ES   2    133 48.00                             114    -0.1 4  275 256 
 HEL  HZ I         133 55.44        29.5 0.63                           275 256 
 VIL  SZ EP   2    133 19.44                             111    -0.2 4  303 192 
 VIL  SE ES   2    133 52.81                             111    -0.5 4  303 192 
 VIL  SZ I         133 59.41        10.3 0.39                           303 192 
 RREF HZ EP   2    133 22.99                             110     0.4 3  324 230 
 RREF HE ES   2    133 59.07                             110     0.5 3  324 230 
 RREF HZ I         134 10.43        17.5 0.26                           324 230 
 PRA  HZ EP   2    133 29.86                             106     0.0 3  393 210 
 PRA  HN ES   2    134 11.15                             106    -0.4 3  393 210 
                                                                                
