 2013  9 4 0422  2.5 L   6.817 -73.141145.7  RSN  6 0.5 1.3LRSN                1
 GAP=201        1.18       5.4     7.6  8.8  0.8905E+01 -0.5532E+00 -0.6796E+01E
 Epicentro: LOS SANTOS - SANTANDER                                             3
 ACTION:UPD 13-10-22 09:19 OP:ep   STATUS:               ID:20130904042202 L   I
 OLDACT:REG 13-09-04 08:48 OP:cam  STATUS:               ID:20130904041959     3
 2013-09-04-0419-59M.COL___269                                                 6
 STAT SP IPHASW D HRMM SECON CODA AMPLIT PERI AZIMU VELO AIN AR TRES W  DIS CAZ7
 BAR2 SZ EP        422 22.19                             170    0.0110 25.3 191 
 BAR2 SZ ES   1    422 36.58                             170   -0.93 7 25.3 191 
 BRR  HZ EP        422 24.01                             153    0.3810 70.8 297 
 BRR  HN ES        422 40.94                             153    0.8310 70.8 297 
 BRR  HZ I         422 41.67         5.3 0.32            151           70.8 297 
 RUS  HZ EP        422 26.60                             143    0.2110  102 176 
 RUS  HN ES        422 44.83                             143   -0.1910  102 176 
 RUS  HZ I         422 46.65         1.6 0.24            141            102 176 
 PTB  HZ EP        422 28.95                             132   -0.61 9  149 258 
 PTB  HN ES        422 50.08                             132   -0.57 9  149 258 
 PTB  HZ I         422 52.43         2.8 0.16            130            149 258 
 SPBC HZ EP        422 31.38                             129    0.20 9  165 219 
 SPBC HN ES        422 53.91                             129    0.37 9  165 219 
 SPBC HZ I         423  1.65         2.7 0.32            127            165 219 
 SML  HZ EP   1    422 39.12                             118    0.15 6  242 335 
 SML  HE ES   1    423  6.80                             118   -0.61 6  242 335 
                                                                                
