 2013  8 4 0429 53.0 L   6.786 -73.137147.2  RSN  7 0.4 1.6LRSN                1
 GAP=187        0.99       4.2     6.5  6.7  0.2746E+01  0.1235E+02 -0.4426E+00E
 Epicentro: LOS SANTOS - SANTANDER                                             3
 ACTION:UPD 14-01-14 08:58 OP:ep   STATUS:               ID:20130804042953 L   I
 OLDACT:REG 13-08-04 07:43 OP:carl STATUS:               ID:20130804042959     3
 2013-08-04-0429-59M.COL___269                                                 6
 STAT SP IPHASW D HRMM SECON CODA AMPLIT PERI AZIMU VELO AIN AR TRES W  DIS CAZ7
 BAR2 SZ EP        430 12.88                             171    0.0810 22.0 193 
 BAR2 SZ ES        430 28.01                             171   -0.2210 22.0 193 
 BAR2 SZ I         430 28.96         8.1 0.14            168           22.0 193 
 GIR2 SZ EP        430 12.78                             167   -0.1310 32.9 349 
 GIR2 SZ ES        430 27.89                             167   -0.5410 32.9 349 
 GIR2 SZ I         430 30.51         4.6 0.22            168           32.9 349 
 BRR  HZ EP        430 14.11                             152   -0.3110 72.8 299 
 BRR  HN ES        430 31.95                             152    0.8510 72.8 299 
 BRR  HN I         430 32.31        16.8 0.24            152           72.8 299 
 RUS  HN ES        430 35.79                             145    0.4310 99.0 177 
 PTB  HZ EP        430 20.15                             132   -0.02 9  148 259 
 PTB  HN ES        430 40.94                             132   -0.40 9  148 259 
 PTB  HZ I         430 42.80         4.7 0.16            132            148 259 
 SPBC HZ EP        430 21.78                             129    0.20 9  163 220 
 SPBC HN ES   1    430 43.58                             129   -0.27 7  163 220 
 SPBC HZ I         430 49.34         4.8 0.34            129            163 220 
 SML  HE ES        430 58.97                             118    0.27 8  245 335 
                                                                                
