 2014  4 4 0722 32.8 L   6.523 -73.487111.2  RSN  7 0.4 1.5LRSN                1
 GAP=103        0.93       3.2     3.8  9.4 -0.1486E+01  0.1450E+02 -0.4618E+01E
 Epicentro: SIMACOTA - SANTANDER                                               3
 ACTION:UPD 14-05-13 23:06 OP:nd   STATUS:               ID:20140404072232 L   I
 OLDACT:UP  14-04-04 16:35 OP:cam  STATUS:               ID:20140404071812     3
 OLDACT:UP  14-04-04 16:35 OP:cam  STATUS:               ID:20140404071812     3
 OLDACT:REG 14-04-04 13:41 OP:cam  STATUS:               ID:20140404071812     3
 2014-04-04-0718-12M.COL___255                                                 6
 STAT SP IPHASW D HRMM SECON CODA AMPLIT PERI AZIMU VELO AIN AR TRES W  DIS CAZ7
 RUS  HZ EP        722 51.75                             141   -0.1110 82.7 147 
 RUS  HN ES        723  7.18                             141    0.4410 82.7 147 
 RUS  HZ I         723  8.68         4.5 0.40            142           82.7 147 
 PTB  HZ EP   4    722 51.44                             132   -1.81 0  107 271 
 PTB  HN ES   4    723  6.38                             132   -2.85 0  107 271 
 PTB  HZ I         723 11.01         7.3 0.40            134            107 271 
 SPBC HZ EP        722 54.03                             130   -0.1310  116 214 
 SPBC HN ES        723 10.34                             130   -0.5010  116 214 
 SPBC HZ I         723 11.45        12.5 0.34            132            116 214 
 PAM  SZ EP   1    722 55.93                             128    0.35 7  125  44 
 PAM  SN ES        723 12.99                             128   -0.3810  125  44 
 PAM  SZ I         723 15.45         5.5 0.18            130            125  44 
 ZAR  HZ EP   1    723  0.37                             116   -0.83 7  186 305 
 ZAR  HE ES        723 24.01                             116    0.65 9  186 305 
 ZAR  HZ I         723 25.70         7.8 0.34            118            186 305 
 CHI  HZ EP        723  4.95                             113    0.41 8  211 187 
 CHI  HN ES   1    723 29.30                             113   -0.01 6  211 187 
 CHI  HZ I         723 34.32         1.4 0.22            114            211 187 
 HEL  HZ EP   2    723  6.50                             111    0.00 4  229 261 
 HEL  HN ES   1    723 32.83                             111    0.03 6  229 261 
 HEL  HZ I         723 33.23         2.2 0.28            112            229 261 
                                                                                
