 2013  6 4 0933 55.0 L   6.882 -73.252151.4  RSN  4 0.3 1.9LRSN                1
 GAP=257        0.61       4.9    10.2  9.1 -0.2966E+02 -0.1641E+02  0.1131E+01E
 Epicentro: BETULIA - SANTANDER                                                3
 ACTION:UPD 14-01-08 09:52 OP:ep   STATUS:               ID:20130604093355 L   I
 2013-06-04-0930-00M.COL___257                                                 6
 STAT SP IPHASW D HRMM SECON CODA AMPLIT PERI AZIMU VELO AIN AR TRES W  DIS CAZ7
 BRR  HZ EP   1    934 16.04                             158    0.03 9 56.6 296 
 BRR  HN ES   2    934 32.51                             158    0.10 6 56.6 296 
 BRR  HN I         934 34.07        10.3 0.28            153           56.6 296 
 PTB  HZ EP   1    934 21.13                             135   -0.46 9  138 254 
 PTB  HN ES   1    934 42.58                             135    0.23 9  138 254 
 PTB  HN I         934 47.52        10.2 0.48            135            138 254 
 OCA  HN ES   1    934 44.46                             133   -0.08 9  150 357 
 OCA  HN I         934 48.79        15.8 0.28            133            150 357 
 SML  HZ EP   1    934 31.18                             120    0.64 7  231 337 
 SML  HN ES        934 58.08                             120   -0.1910  231 337 
 SML  HZ I         935  1.94         4.8 0.22            121            231 337 
                                                                                
