 2013 10 4 0234 29.0 L   6.794 -73.099141.6  RSN  5 0.4 1.7LRSN                1
 GAP=205        1.08       5.1     9.6  7.7  0.1189E+02  0.1364E+01 -0.6751E+01E
 Epicentro: LOS SANTOS - SANTANDER                                             3
 ACTION:UPD 13-11-25 09:19 OP:ep   STATUS:               ID:20131004023429 L   I
 OLDACT:DUP 13-10-04 11:44 OP:nd   STATUS:               ID:20131004023001d    3
 2013-10-04-0230-00M.COL___272                                                 6
 STAT SP IPHASW D HRMM SECON CODA AMPLIT PERI AZIMU VELO AIN AR TRES W  DIS CAZ7
 BAR2 SZ EP        234 48.48                             170    0.2910 24.1 202 
 BAR2 SZ ES        235  2.43                             170   -0.6910 24.1 202 
 BAR2 SZ I         235  4.75        24.5 0.16            170           24.1 202 
 BRR  HZ EP        234 50.52                             150    0.4910 76.1 297 
 BRR  HN ES        235  6.95                             150    0.5410 76.1 297 
 BRR  HZ I         235  7.91         8.3 0.38            149           76.1 297 
 RUS  HZ EP        234 52.31                             143   -0.0110 99.7 179 
 RUS  HN ES        235 10.76                             143    0.2810 99.7 179 
 RUS  HZ I         235 12.14         5.6 0.30            145           99.7 179 
 SPBC HZ EP        234 57.42                             128   -0.08 9  166 221 
 SPBC HN ES        235 19.19                             128   -0.50 9  166 221 
 SPBC HZ I         235 22.14         6.3 0.20            128            166 221 
 SML  HZ EP        235  5.25                             116   -0.50 8  247 334 
 SML  HN ES   2    235 33.65                             116   -0.73 4  247 334 
 SML  HZ I         235 37.43         4.5 0.10            117            247 334 
                                                                                
