 2014  4 4 0529 34.8 L   6.764 -73.165143.9  RSN  7 0.4 1.6LRSN                1
 GAP=136        0.95       3.5     4.4  8.7 -0.2529E+01  0.1349E+02 -0.2651E+01E
 Epicentro: LOS SANTOS - SANTANDER                                             3
 ACTION:UPD 14-05-13 23:06 OP:nd   STATUS:               ID:20140404052934 L   I
 OLDACT:UP  14-04-04 16:01 OP:cam  STATUS:               ID:20140404052813     3
 OLDACT:REG 14-04-04 13:35 OP:cam  STATUS:               ID:20140404052813     3
 2014-04-04-0528-13M.COL___255                                                 6
 STAT SP IPHASW D HRMM SECON CODA AMPLIT PERI AZIMU VELO AIN AR TRES W  DIS CAZ7
 PAM  SZ EP        529 57.20                             149    0.1010 81.9  39 
 PAM  SN ES        530 14.58                             149    0.0910 81.9  39 
 PAM  SZ I         530 16.60         5.9 0.42            152           81.9  39 
 RUS  HZ EP        529 57.80                             144   -0.3010 96.8 175 
 RUS  HN ES        530 16.55                             144    0.2710 96.8 175 
 RUS  HZ I         530 17.68         5.5 0.34            148           96.8 175 
 PTB  HZ EP        530  0.91                             132   -0.45 9  145 260 
 PTB  HN ES        530 21.50                             132   -0.58 9  145 260 
 SPBC HZ EP   1    530  3.17                             129    0.43 7  159 219 
 SPBC HN ES        530 24.58                             129    0.05 9  159 219 
 SPBC HZ I         530 26.91         6.2 0.38            132            159 219 
 OCA  HE ES        530 25.22                             128   -0.35 9  164 354 
 ZAR  HZ EP        530  7.41                             122    0.33 9  204 293 
 ZAR  HN ES        530 33.02                             122    0.76 9  204 293 
 ZAR  HZ I         530 38.73         6.2 0.34            124            204 293 
 GUY2CHZ EP   4    530 19.45                             112    1.58 0  297 235 
 GUY2CHZ I         530 59.00         2.0 0.40                           297 235 
                                                                                
