 2010  9 4 0406 46.3 L   6.671 -73.094138.3  RSN  4 0.4 1.1LRSN                1
 GAP=214        0.93      16.9    32.8 21.7  0.4923E+03 -0.5201E+03 -0.2552E+03E
 Epicentro: JORDAN - SANTANDER                                                 3
 ACTION:UP  11-02-18 11:00 OP:tino STATUS:               ID:20100904040646 L   I
 2010-09-04-0404-55S.COL___120                                                 6
 STAT SP IPHASW D HRMM SECON CODA AMPLIT PERI AZIMU VELO SNR AR TRES W  DIS CAZ7
 BAR2 SZ EP   1    4 7  4.84                             174     0.0 7   13 228 
 BAR2 SZ I         4 7 42.20         5.0 0.90                            13 228 
 BTL  SZ EP        4 7  5.24                             166     0.010   33 325 
 BRR  HZ EP   1    4 7  6.80                             147    -0.6 7   84 305 
 BRR  HZ I         4 7 15.66         4.4 0.62                            84 305 
 BRR  HE ES   1    4 7 24.19                             147     0.3 7   84 305 
 RUS  HZ EP   1    4 7  8.83                             147     0.6 7   86 179 
 RUS  HN ES   1    4 7 25.07                             147    -0.3 7   86 179 
 RUS  HZ I         4 7 30.57         0.9 0.31                            86 179 
                                                                                
