 2017  1 4 0454  1.7 L   7.173 -73.333117.9  RSN  7 0.3 1.4LRSN                1
 GAP=153        0.87       4.5     3.6  6.0 -0.6727E+00  0.5395E+01 -0.1218E+00E
 Epicentro: LEBRIJA - SANTANDER                                                3
 ACTION:UPD 17-05-22 15:55 OP:jn   STATUS:               ID:20170104045401 L   I
 OLDACT:REG 17-01-04 12:44 OP:lv   STATUS:               ID:20170104044740     3
 2017-01-04-0448-00M.COL___369                                                 6
 STAT SP IPHASW D HRMM SECON CODA AMPLIT PERI AZIMU VELO AIN AR TRES W  DIS CAZ7
 BRR  HZ EP        454 18.21                             159   -0.1310 42.5 260 
 BRR  HN ES        454 31.45                             159    0.1610 42.5 260 
 BRR  HZ I         454 32.18        11.1 0.14            156           42.5 260 
 BAR2 EZ EP        454 20.00                             149    0.0210 66.4 165 
 BAR2 EZ ES        454 34.27                             149    0.0610 66.4 165 
 PAM  EZ EP        454 20.29                             147   -0.4410 72.3  75 
 PAM  EN ES        454 35.60                             147    0.0610 72.3  75 
 PAM  EZ I         454 37.27         4.9 0.24            150           72.3  75 
 PTB  HZ EP        454 26.05                             126   -0.03 9  143 241 
 PTB  HN ES        454 44.48                             126   -0.58 9  143 241 
 PTB  HZ I         454 48.83         2.9 0.14            126            143 241 
 RUS  HZ EP        454 26.74                             126   -0.14 9  144 169 
 RUS  HN ES        454 46.85                             126    0.36 9  144 169 
 ZAR  HZ EP        454 29.83                             120    0.75 9  172 282 
 ZAR  HN ES   4    454 52.05                             120    1.64 0  172 282 
 ZAR  HZ I         454 55.37         2.7 0.21            120            172 282 
 GUY2CHZ EP   4    454 47.71                             106    2.29 0  311 226 
 GUY2CHE ES   4    455 23.83                             106    4.34 0  311 226 
 GUY2CHZ I         455 30.73         1.0 0.27                           311 226 
                                                                                
