 2015  3 4 0118 26.0 L   6.771 -73.119151.2  RSN  8 0.4 1.4LRSN                1
 GAP=141        0.89       3.6     4.8  6.7 -0.3759E+01  0.3651E+01  0.4776E+01E
 Epicentro: LOS SANTOS - SANTANDER                                             3
 ACTION:UPD 15-04-30 16:22 OP:nd   STATUS:               ID:20150304011826 L   I
 OLDACT:DUP 15-03-04 18:08 OP:spq  STATUS:               ID:20150304011745d    3
 2015-03-04-0117-43M.COL___289                                                 6
 STAT SP IPHASW D HRMM SECON CODA AMPLIT PERI AZIMU VELO AIN AR TRES W  DIS CAZ7
 BRR  HZ EP   1    118 48.35                             152    0.37 7 75.3 300 
 BRR  HN ES        119  5.55                             152    0.4310 75.3 300 
 BRR  HZ I         119  9.16         4.8 0.54            151           75.3 300 
 PAM  SZ EP        118 49.05                             152    0.2010 78.1  36 
 PAM  SE ES        119  6.54                             152   -0.1310 78.1  36 
 PAM  SZ I         119  8.48         3.4 0.48            157           78.1  36 
 RUS  HZ EP        118 50.40                             146    0.3310 97.2 178 
 RUS  HE ES   1    119  8.15                             146   -0.69 7 97.2 178 
 RUS  HZ I         119 10.13         1.9 0.34            148           97.2 178 
 PTB  HZ EP        118 53.24                             133   -0.39 9  150 260 
 PTB  HN ES   1    119 14.54                             133   -0.64 7  150 260 
 PTB  HZ I         119 20.17         3.7 0.22            133            150 260 
 SPBC HZ EP        118 54.94                             130    0.06 9  163 220 
 SPBC HN ES   1    119 17.64                             130    0.24 7  163 220 
 SPBC HZ I         119 24.63         5.2 0.26            131            163 220 
 NOR  HE ES   1    119 30.92                             120    0.63 6  235 236 
 NOR  HZ I         119 34.02         2.3 0.22            121            235 236 
 CHI  HZ EP   1    119  4.20                             118    0.43 6  246 196 
 CHI  HE ES   1    119 32.65                             118   -0.58 6  246 196 
 CHI  HZ I         119 37.72         0.9 0.33            120            246 196 
 SML  HZ EP   1    119  2.69                             118   -0.70 6  248 335 
 SML  HN ES   1    119 32.25                             118   -0.29 6  248 335 
 SML  HZ I         119 36.08         5.5 0.10            120            248 335 
                                                                                
