 2012  9 4 0105 47.3 L   6.782 -73.158148.9  RSN 11 0.4 2.0LRSN                1
 GAP=136        0.81       4.3     4.3  6.3 -0.9085E+00  0.7850E+01  0.5562E+01E
 Epicentro: LOS SANTOS - SANTANDER                                             3
 ACTION:UPD 12-10-22 14:16 OP:ep   STATUS:               ID:20120904010547 L   I
 2012-09-04-0100-00M.COL___218                                                 6
 STAT SP IPHASW D HRMM SECON CODA AMPLIT PERI AZIMU VELO AIN AR TRES W  DIS CAZ7
 BAR2 SZ EP   1    1 6  7.31                             172   -0.01 7 21.2 187 
 BAR2 SZ ES   1    1 6 22.78                             172   -0.11 7 21.2 187 
 BAR2 SZ I         1 6 23.99        33.6 0.34                          21.2 187 
 GIR2 SZ EP   1    1 6  7.24                             167   -0.20 7 33.0 353 
 GIR2 SZ ES   1    1 6 23.48                             167    0.36 7 33.0 353 
 BRR  HZ EP   1    1 6  9.10                             153    0.27 7 71.0 300 
 BRR  HZ I         1 6  9.40        29.6 0.28                          71.0 300 
 BRR  HN ES   1    1 6 26.54                             153    0.96 7 71.0 300 
 PAM  SZ EP   1    1 6 10.11                             150    0.07 7 79.8  39 
 PAM  SZ I         1 6 10.28        34.2 0.18                          79.8  39 
 PAM  SN ES   1    1 6 27.39                             150   -0.35 7 79.8  39 
 RUS  HZ EP   1    1 6 11.33                             145    0.05 7 98.7 175 
 RUS  HN ES   1    1 6 29.42                             145   -0.52 7 98.7 175 
 RUS  HZ I         1 6 31.08         8.6 0.38                          98.7 175 
 PTB  HZ EP   1    1 6 14.43                             133    0.01 7  146 259 
 PTB  HN ES   1    1 6 34.85                             133   -0.69 7  146 259 
 PTB  HZ I         1 6 41.14         6.9 0.17                           146 259 
 OCA  HN ES   2    1 6 38.48                             130    0.00 5  162 354 
 ZAR  HN ES   1    1 6 44.79                             123   -0.59 6  204 293 
 ZAR  HZ I         1 6 52.58         9.5 0.12                           204 293 
 NOR  SZ EP   1    1 6 23.30                             119    0.28 6  232 235 
 NOR  SN ES   1    1 6 51.39                             119    0.54 6  232 235 
 NOR  SZ I         1 6 55.51         7.8 0.25                           232 235 
 URE  HN ES   2    1 6 59.80                             114   -0.83 4  283 292 
 URE  HZ I         1 7 10.78         4.6 0.25                           283 292 
 PRA  HZ EP   1    1 6 41.24                             107    0.54 4  390 210 
 PRA  HZ I         1 7 28.55         4.7 0.37                           390 210 
                                                                                
