 2016  6 4 0420 57.0 L   6.817 -73.141148.6  RSN 23 0.5 2.4LRSN                1
 GAP= 66        1.14       3.0     3.1  5.0 -0.1929E+01  0.4595E+01  0.1239E+01E
 Epicentro: LOS SANTOS - SANTANDER                                             3
 ACTION:UPD 16-07-21 22:15 OP:rebc STATUS:               ID:20160604042057 L   I
 OLDACT:REG 16-06-04 13:04 OP:ak   STATUS:               ID:20160604041740     3
 2016-06-04-0417-40M.COL___319                                                 6
 STAT SP IPHASW D HRMM SECON CODA AMPLIT PERI AZIMU VELO AIN AR TRES W  DIS CAZ7
 BAR2 EZ IP     D  421 17.07                             170    0.0210 25.2 191 
 BAR2 EZ ES        421 32.31                             170   -0.3510 25.2 191 
 BAR2 EZ I         421 33.86        52.8 0.24                          25.2 191 
 BRR  HZ IP     C  421 18.93                             153    0.4610 70.8 297 
 BRR  HN ES        421 36.08                             153    0.8910 70.8 297 
 BRR  HZ I         421 40.01        55.3 0.48                          70.8 297 
 PAM  EZ EP        421 19.93                             152    0.4810 75.6  40 
 PAM  EN ES        421 37.23                             152    0.3010 75.6  40 
 PAM  EZ I         421 39.33        30.6 0.20                          75.6  40 
 RUS  HZ EP        421 20.90                             144   -0.3010  102 176 
 RUS  HN ES        421 39.58                             144   -0.4610  102 176 
 RUS  HZ I         421 40.77        23.4 0.30                           102 176 
 PTB  HZ EP        421 23.65                             132   -0.67 9  149 258 
 PTB  HN ES        421 44.80                             132   -0.80 9  149 258 
 PTB  HZ I         421 52.49        35.4 0.48                           149 258 
 TAM  HZ EP        421 25.30                             131    0.36 9  155 106 
 TAM  HZ I         421 46.12        17.5 0.32                           155 106 
 TAM  HE ES        421 46.79                             131    0.09 9  155 106 
 OCA  HZ EP        421 24.98                             131   -0.43 9  159 353 
 OCA  HN ES        421 47.36                             131   -0.17 9  159 353 
 OCA  HZ I         421 54.24        43.3 0.22                           159 353 
 SPBC HZ EP        421 25.96                             129    0.04 9  165 219 
 SPBC HN ES        421 48.12                             129   -0.33 9  165 219 
 SPBC HZ I         421 55.09        52.7 0.34                           165 219 
 NOR  HZ EP        421 33.11                             119    0.01 8  236 234 
 NOR  HN ES        422  0.87                             119   -0.35 8  236 234 
 NOR  HZ I         422  5.21        31.4 0.20                           236 234 
 CHI  HZ EP        421 34.95                             117   -0.15 8  251 195 
 CHI  HN ES        422  4.61                             117   -0.18 8  251 195 
 CHI  HZ I         422 12.58        13.4 0.36                           251 195 
 ROSC BZ EP   9    421 36.82                             117    1.30 0  255 211 
 ROSC BN ES        422  7.49                                    0.66 8  255 211 
 ROSC BZ I         422 13.15        31.4 0.55                           255 211 
 HEL  HZ EP        421 38.44                             115    0.93 8  273 255 
 HEL  HN ES        422  9.04                             115   -0.03 8  273 255 
 HEL  HZ I         422 14.35         9.7 0.36                           273 255 
 URE  HZ EP   2    421 37.41                             114   -0.82 4  284 292 
 URE  HN ES   4    422  9.03                             114   -1.33 0  284 292 
 URE  HZ I         422 22.06        13.1 0.18                           284 292 
 PTGC HZ EP   9    421 39.08                             112   -2.11 0  310 159 
 PTGC HN ES        422 12.84                                   -0.68 7  310 159 
 PTGC HZ I         422 15.67         9.1 0.22                           310 159 
 ELA  HZ EP   4    421 46.30                             111    2.10 0  331 229 
 ELA  HN ES   4    422 25.20                             111    4.22 0  331 229 
 ELA  HZ I         422 36.90        10.2 0.66                           331 229 
 CBOC HZ EP        421 44.77                             110    0.57 7  335 252 
 CBOC HN ES        422 21.61                             110    0.63 7  335 252 
 CBOC HZ I         422 21.99         3.7 0.42                           335 252 
 DBB  SZ EP        421 44.11                             110   -0.57 7  340 274 
 DBB  SZ ES        422 21.71                             110   -0.13 7  340 274 
 DBB  SZ I         422 36.74        22.9 0.58                           340 274 
 ANIL HZ EP   9    421 48.83                             109    1.68 0  359 224 
 ANIL HE ES        422 28.25                                    0.33 6  359 224 
 PRA  HZ EP        421 50.16                             107   -0.72 6  394 210 
 PRA  HN ES        422 33.77                             107    0.90 6  394 210 
 PRA  HZ I         422 38.20        13.1 0.30                           394 210 
 ORTC HZ EP        421 51.85                             107    0.58 6  397 216 
 ORTC HN ES        422 34.40                             107    0.83 6  397 216 
 ORTC HZ I         422 40.62        12.1 0.40                           397 216 
 PAL  HZ EP        421 52.41                             106   -0.05 6  407 239 
 PAL  HN ES        422 36.61                             106    0.92 6  407 239 
 PAL  HZ I         422 43.71         3.9 0.30                           407 239 
 SJC  HZ EP        421 51.26                             106   -1.29 6  408 327 
 SJC  HN ES   4    422 32.25                             106   -3.60 0  408 327 
 SJC  HZ I         422 37.69         3.6 0.28                           408 327 
 CRJC HZ EP   4    421 57.43                             104   -1.97 0  466   3 
 CRJC HN ES   4    422 44.87                             104   -3.17 0  466   3 
 CRJC HZ I         422 49.08         8.4 0.37                           466   3 
                                                                                
