 2010  5 4 0417 23.5 L   6.666 -72.944137.0  RSN  5 0.4 1.4LRSN                1
 GAP=245        0.76      15.8    13.8 15.3  0.6672E+02 -0.1346E+03 -0.1228E+03E
 Epicentro: ARATOCA - SANTANDER                                                3
 ACTION:UP  10-08-24 10:02 OP:vdl  STATUS:               ID:20100504041723 L   I
 2010-05-04-0416-17S.COL___105                                                 6
 STAT SP IPHASW D HRMM SECON CODA AMPLIT PERI AZIMU VELO AIN AR TRES W  DIS CAZ7
 BAR2 SZ EP   2    417 42.73                             169     0.5 5   28 253 
 BAR2 SZ ES   2    417 56.25                             169    -0.5 5   28 253 
 GIR2 SZ EP        417 43.02                             158     0.010   53 329 
 BRR  HZ EP   1    417 45.36                             143    -0.2 7   98 300 
 BRR  HN ES   1    418  2.92                             143     0.2 7   98 300 
 BRR  HZ I         418  3.81         5.9 0.26                            98 300 
 BRI  SZ EP   1    417 47.70                             137     0.4 7  117   8 
 OCA  SZ EP   2    417 52.10                             124    -0.9 4  179 347 
 OCA  SZ I         418 18.68         2.5 0.28                           179 347 
                                                                                
