 2012  1 4 0459 28.3 L   6.774 -73.113146.5  RSN  8 0.3 1.7LRSN                1
 GAP=142        0.67       3.7     4.7  5.9  0.1252E+01  0.3017E+01  0.4125E+01E
 Epicentro: LOS SANTOS - SANTANDER                                             3
 ACTION:UP  12-02-03 08:13 OP:REBC STATUS:               ID:20120104045928 L   I
 2012-01-04-0458-59S.COL___183                                                 6
 STAT SP IPHASW D HRMM SECON CODA AMPLIT PERI AZIMU VELO SNR AR TRES W  DIS CAZ7
 BAR2 SZ EP        459 47.92                             171    -0.110   21 201 
 BAR2 SZ I         459 48.30        13.0 0.11                            21 201 
 BAR2 SZ ES   1    5 0  3.16                             171    -0.2 7   21 201 
 BRR  HZ EP        459 49.80                             151     0.010   76 299 
 BRR  HE ES   1    5 0  7.04                             151     0.5 7   76 299 
 BRR  HZ I         5 0 10.71        12.0 0.37                            76 299 
 PAM  SZ EP   1    459 50.84                             151     0.3 7   77  36 
 PAM  SN ES   2    5 0  7.71                             151    -0.3 5   77  36 
 RUS  HZ EP        459 51.90                             145     0.010   97 178 
 RUS  HN ES   1    5 0 10.23                             145    -0.1 7   97 178 
 RUS  HZ I         5 0 11.74         4.3 0.29                            97 178 
 PTB  HZ EP   1    459 54.84                             132    -0.7 7  151 260 
 PTB  HE ES   2    5 0 16.37                             132    -0.5 5  151 260 
 ZAR  HE ES   2    5 0 27.14                             122     0.2 4  208 293 
 NOR  SN ES   2    5 0 32.49                             119     0.3 4  236 236 
 CHI  HZ EP   1    5 0  6.08                             117     0.3 6  247 196 
 CHI  HN ES   1    5 0 35.43                             117     0.3 6  247 196 
 CHI  HZ I         5 0 36.69         2.7 0.50                           247 196 
                                                                                
