 2015  4 4 0030 33.3 L   7.419 -73.493105.9  RSN  6 0.4 1.8LRSN                1
 GAP=119        1.12       4.0     4.1  8.6 -0.3651E+01  0.1159E+02 -0.6620E+01E
 Epicentro: SABANA DE TORRES - SANTANDER                                       3
 ACTION:UPD 15-06-03 16:52 OP:cam  STATUS:               ID:20150404003033 L   I
 OLDACT:UP  15-04-04 14:13 OP:mh   STATUS:               ID:20150404002748     3
 OLDACT:REG 15-04-04 13:15 OP:mh   STATUS:               ID:20150404002748     3
 2015-04-04-0027-48M.COL___285                                                 6
 STAT SP IPHASW D HRMM SECON CODA AMPLIT PERI AZIMU VELO AIN AR TRES W  DIS CAZ7
 BRR  HZ EP        030 48.76                             157    0.1810 42.1 215 
 BRR  HN ES        031  0.68                             157    0.2210 42.1 215 
 BRR  HZ I         031  2.73        14.7 0.20            159           42.1 215 
 PAM  SZ EP        030 52.64                             138    0.2910 88.0  96 
 PAM  SN ES        031  6.90                             138   -0.2810 88.0  96 
 PAM  SZ I         031  9.52        10.6 0.26            143           88.0  96 
 OCA  HZ EP   1    030 52.50                             136    0.22 7 92.6  12 
 OCA  HN ES        031  7.24                             136    0.1910 92.6  12 
 OCA  HZ I         031 10.69        23.8 0.24            139           92.6  12 
 PTB  HZ EP        030 56.71                             122   -0.33 9  144 228 
 PTB  HN ES        031 14.76                             122   -0.76 9  144 228 
 PTB  HZ I         031 19.16         7.2 0.12            126            144 228 
 ZAR  HZ EP        030 58.41                             120    0.68 9  151 273 
 ZAR  HE ES        031 17.26                             120    0.51 9  151 273 
 ZAR  HZ I         031 19.96        14.3 0.30            124            151 273 
 SML  HZ EP        030 59.11                             118   -0.17 9  166 337 
 SML  HN ES        031 18.72                             118   -0.79 9  166 337 
 SML  HZ I         031 23.57        13.0 0.32            121            166 337 
                                                                                
