 2016  1 4 0253 15.0 L   6.800 -73.160148.4  RSN 10 0.5 1.8LRSN                1
 GAP=135        1.17       3.2     5.2  6.4 -0.3483E+01  0.6559E+01 -0.1666E+00E
 Epicentro: LOS SANTOS - SANTANDER                                             3
 ACTION:UPD 16-03-09 23:22 OP:cam  STATUS:               ID:20160104025315 L   I
 OLDACT:UP  16-01-04 15:09 OP:drio STATUS:               ID:20160104024748     3
 OLDACT:REG 16-01-04 13:00 OP:drio STATUS:               ID:20160104024748     3
 2016-01-04-0247-48M.COL___314                                                 6
 STAT SP IPHASW D HRMM SECON CODA AMPLIT PERI AZIMU VELO AIN AR TRES W  DIS CAZ7
 BAR2 EZ EP        253 35.11                             171    0.1210 23.1 186 
 BAR2 EZ ES        253 50.12                             171   -0.4210 23.1 186 
 BAR2 EZ I         253 51.52        16.7 0.18            171           23.1 186 
 BRR  HZ EP        253 36.96                             153    0.5610 69.8 299 
 BRR  HN ES        253 54.13                             153    1.0710 69.8 299 
 BRR  HZ I         253 58.25         8.5 0.14            153           69.8 299 
 PAM  EZ EP        253 38.05                             151    0.4510 78.4  40 
 PAM  EE ES        253 55.24                             151    0.0410 78.4  40 
 PAM  EZ I         253 57.21         9.2 0.46            153           78.4  40 
 RUS  HZ EP        253 39.16                             144    0.1010  101 175 
 RUS  HE ES        253 57.55                             144   -0.2510  101 175 
 RUS  HZ I         253 58.79         7.4 0.24            147            101 175 
 PTB  HZ EP        253 41.54                             133   -0.55 9  146 259 
 PTB  HN ES        254  2.72                             133   -0.46 9  146 259 
 PTB  HZ I         254  4.60         6.2 0.18            134            146 259 
 OCA  HZ EP        253 43.20                             130   -0.35 9  160 354 
 OCA  HE ES        254  5.05                             130   -0.73 9  160 354 
 OCA  HZ I         254  8.26        12.5 0.16            132            160 354 
 SPBC HZ EP        253 43.93                             130    0.28 9  162 219 
 SPBC HN ES        254  6.20                             130    0.24 9  162 219 
 SPBC HZ I         254  8.66        13.6 0.18            131            162 219 
 SML  HZ EP        253 51.83                             118    0.08 8  243 336 
 SML  HN ES        254 20.11                             118   -0.27 8  243 336 
 SML  HZ I         254 24.26         5.8 0.22            119            243 336 
 CHI  HZ EP        253 53.15                             118    0.31 8  248 195 
 CHI  HN ES        254 21.59                             118   -0.73 8  248 195 
 CHI  HZ I         254 26.54         2.1 0.70            119            248 195 
 GUY2CHZ EP   4    254  0.36                             113    1.73 0  300 235 
 GUY2CHN ES        254 32.76                             113    0.14 7  300 235 
 GUY2CHZ I         254 41.44         2.9 0.26                           300 235 
                                                                                
