 2012  3 4 0857 55.0 L   6.772 -73.129144.0  RSN 11 0.4 2.7LRSN                1
 GAP=140        0.90       3.7     4.2  5.4 -0.2516E+01  0.6436E+01  0.1399E+01E
 ACTION:UP  12-03-31 23:16 OP:EP   STATUS:               ID:20120304085755 L   I
 2012-03-04-0850-00M.COL___191                                                 6
 STAT SP IPHASW D HRMM SECON CODA AMPLIT PERI AZIMU VELO SNR AR TRES W  DIS CAZ7
 BAR2 SZ IP        858 14.68                             171     0.310   21 197 
 BAR2 SZ I         858 14.87        91.9 0.21                            21 197 
 BAR2 SZ ES        858 29.32                             171    -0.210   21 197 
 BRR  HZ IP     C  858 16.56                             151     0.410   74 300 
 BRR  HZ I         858 16.93        87.7 0.12                            74 300 
 BRR  HN ES        858 33.37                             151     0.710   74 300 
 PAM  SZ EP   1    858 17.37                             150     0.2 7   79  37 
 PAM  SN ES   1    858 33.96                             150    -0.4 7   79  37 
 RUS  HZ EP        858 18.65                             144     0.310   97 177 
 RUS  HE ES   1    858 36.05                             144    -0.5 7   97 177 
 PTB  HZ EP        858 21.46                             131    -0.5 9  149 260 
 PTB  HE ES   1    858 42.68                             131    -0.3 7  149 260 
 OCA  SZ EP        858 23.49                             129     0.0 9  164 353 
 OCA  SZ ES   1    858 45.14                             129    -0.6 7  164 353 
 ZAR  HZ EP   1    858 27.37                             122    -0.3 6  207 293 
 ZAR  HN ES   1    858 52.97                             122    -0.1 6  207 293 
 ZAR  HZ I         858 59.79        57.9 0.41                           207 293 
 NOR  SZ EP   1    858 30.84                             118     0.2 6  234 235 
 NOR  SE ES   1    858 58.33                             118    -0.1 6  234 235 
 HEL  HZ EP   1    858 34.67                             114    -0.6 6  273 257 
 HEL  HN ES   1    859  6.78                             114     0.1 6  273 257 
 HEL  HZ I         859 13.12        25.2 0.30                           273 257 
 RREF HZ EP   1    858 41.35                             111     0.3 5  321 230 
 RREF HN ES   1    859 16.75                             111    -0.1 5  321 230 
 RREF HZ I         859 23.46        19.2 0.35                           321 230 
 PRA  HZ EP   1    858 48.49                             106     0.2 4  390 210 
                                                                                
