 2012 10 4 0904 38.4 L   6.649 -73.681 99.2  RSN  5 0.2 1.6LRSN                1
 GAP=215        0.42       3.6     4.8  5.0  0.9515E+01  0.3416E+01  0.6922E+01E
 Epicentro: EL CARMEN DE CHUCURI - SANTANDER                                   3
 ACTION:UPD 12-11-22 17:01 OP:ep   STATUS:               ID:20121004090438 L   I
 2012-10-04-0900-00M.COL___219                                                 6
 STAT SP IPHASW D HRMM SECON CODA AMPLIT PERI AZIMU VELO AIN AR TRES W  DIS CAZ7
 BRR  HZ EP        9 4 53.32                             151    0.0010 50.8 356 
 BRR  HN ES        9 5  4.94                             151   -0.0610 50.8 356 
 BAR2 SZ EP   1    9 4 54.13                             149    0.17 7 55.5  96 
 BAR2 SZ ES   1    9 5  6.37                             149    0.23 7 55.5  96 
 BAR2 SZ I         9 5  7.57        34.2 0.19                          55.5  96 
 GIR2 SZ EP   1    9 4 54.93                             142   -0.05 7 71.9  49 
 RUS  HZ EP   1    9 4 58.55                             130    0.09 7  107 142 
 RUS  HN ES   2    9 5 13.61                             130   -0.54 5  107 142 
 RUS  HZ I         9 5 15.71         2.5 0.26                           107 142 
 PAM  SN ES   2    9 5 18.51                             123   -0.21 5  133  55 
 PAM  SN I         9 5 19.29        10.0 0.15                           133  55 
                                                                                
