 2012  8 4 0808  0.3 L   6.686 -73.202151.4  RSN  5 0.3 1.2LRSN                1
 GAP=219        0.53       5.5     4.9  5.6  0.1638E+02  0.4441E+01  0.5596E+00E
 Epicentro: VILLANUEVA - SANTANDER                                             3
 ACTION:UPD 12-09-10 11:54 OP:ep   STATUS:               ID:20120804080800 L   I
 2012-08-04-0806-40M.COL___209                                                 6
 STAT SP IPHASW D HRMM SECON CODA AMPLIT PERI AZIMU VELO AIN AR TRES W  DIS CAZ7
 BAR2 SZ EP   1    8 8 20.18                             176   -0.29 7 10.6 168 
 BAR2 SZ ES   1    8 8 36.06                             176   -0.11 7 10.6 168 
 BAR2 SZ I         8 8 38.22         4.1 0.27                          10.6 168 
 BRR  HZ EP   1    8 8 22.16                             153   -0.04 7 73.1 310 
 BRR  HZ I         8 8 22.62         3.8 0.13                          73.1 310 
 BRR  HN ES   1    8 8 39.30                             153    0.04 7 73.1 310 
 RUS  HZ EP   1    8 8 24.14                             148    0.29 7 88.7 172 
 RUS  HZ I         8 8 24.52         1.1 0.29                          88.7 172 
 RUS  HN ES   1    8 8 42.40                             148    0.20 7 88.7 172 
 PTB  HZ EP   1    8 8 26.84                             135   -0.22 7  140 263 
 PTB  HN ES   1    8 8 47.63                             135   -0.28 7  140 263 
 PTB  HZ I         8 8 53.50         2.0 0.25                           140 263 
 ZAR  HN ES   1    8 8 59.16                             124    0.50 6  204 296 
                                                                                
