 2014  6 4 0254 31.2 L   6.817 -73.169139.6  RSN 16 0.5 2.1LRSN                1
 GAP=133        1.14       2.8     4.2  6.0 -0.1737E+01  0.1183E+02  0.1535E+01E
 Epicentro: LOS SANTOS - SANTANDER                                             3
 ACTION:UPD 14-07-01 22:50 OP:nd   STATUS:               ID:20140604025431 L   I
 OLDACT:DUP 14-06-04 15:10 OP:fm   STATUS:               ID:20140604024809d    3
 2014-06-04-0248-08M.COL___253                                                 6
 STAT SP IPHASW D HRMM SECON CODA AMPLIT PERI AZIMU VELO AIN AR TRES W  DIS CAZ7
 BAR2 SZ EP        254 50.19                             169    0.0310 24.9 183 
 BAR2 SZ ES        255  4.99                             169    0.0710 24.9 183 
 BAR2 SZ I         255  7.06        22.6 0.46            168           24.9 183 
 PAM  SN ES        255 10.38                             149    0.7310 77.6  42 
 RUS  HZ EP        254 54.32                             142   -0.2210  103 175 
 RUS  HN ES        255 12.97                             142    0.2510  103 175 
 RUS  HZ I         255 15.47        12.8 0.50            145            103 175 
 PTB  HZ EP        254 56.80                             131   -0.72 9  146 258 
 PTB  HN ES        255 17.44                             131   -0.57 9  146 258 
 PTB  HZ I         255 25.74        17.3 0.44            131            146 258 
 OCA  HN ES        255 20.51                             129    0.08 9  158 354 
 OCA  HZ I         255 26.16        11.6 0.18            131            158 354 
 SPBC HZ EP        254 59.12                             128   -0.14 9  163 218 
 SPBC HN ES        255 20.69                             128   -0.43 9  163 218 
 SPBC HZ I         255 26.24        17.8 0.24            129            163 218 
 ZAR  HZ EP        255  3.17                             121    0.20 9  201 292 
 ZAR  HN ES        255 28.13                             121    0.41 9  201 292 
 ZAR  HZ I         255 34.46        14.1 0.20            122            201 292 
 NOR  HZ EP        255  6.16                             117   -0.35 8  234 234 
 NOR  HN ES        255 33.50                             117   -0.53 8  234 234 
 NOR  HZ I         255 36.58         9.5 0.26            119            234 234 
 SML  HZ EP        255  6.99                             116   -0.24 8  241 336 
 SML  HN ES        255 34.33                             116   -0.96 8  241 336 
 SML  HZ I         255 39.83        15.5 0.10            119            241 336 
 CHI  HZ EP        255  8.28                             116   -0.45 8  250 194 
 CHI  HN ES        255 37.11                             116   -0.86 8  250 194 
 CHI  HZ I         255 43.51         5.8 0.26            118            250 194 
 HEL  HZ EP        255 11.43                             114    0.51 8  270 255 
 HEL  HE ES        255 42.06                             114    0.19 8  270 255 
 HEL  HZ I         255 48.66         4.8 0.60            115            270 255 
 GUY2CHZ EP        255 15.01                             111    0.55 7  300 234 
 GUY2CHE ES        255 48.58                             111    0.41 7  300 234 
 GUY2CHZ I         255 58.99         5.2 0.36                           300 234 
 RREF HZ EP        255 17.84                             110    0.80 7  321 229 
 RREF HN ES        255 53.59                             110    0.82 7  321 229 
 RREF HZ I         256  1.66         6.0 0.28            112            321 229 
 CBOC HZ EP        255 18.28                             109    0.59 7  332 252 
 CBOC HN ES        255 53.85                             109   -0.08 7  332 252 
 CBOC HZ I         256  6.74         2.9 0.50            110            332 252 
 TOL  SZ EP        255 20.01                             108    0.81 7  343 224 
 TOL  SN ES        255 57.50                             108    0.89 7  343 224 
 TOL  SZ I         256  3.71        11.7 0.30            110            343 224 
 ORTC HZ EP        255 24.37                             105   -0.59 6  395 216 
 ORTC HN ES        256  6.80                             105   -0.06 6  395 216 
 ORTC HZ I         256 14.10         2.6 0.38            107            395 216 
                                                                                
