 2016  4 4 0905 43.3 L   6.805 -73.144143.7  RSN  6 0.4 1.5LRSN                1
 GAP=137        0.99       3.9     4.6  7.4 -0.1536E+01  0.1072E+02 -0.6027E+01E
 Epicentro: LOS SANTOS - SANTANDER                                             3
 ACTION:UPD 16-05-05 14:18 OP:rebc STATUS:               ID:20160404090543 L   I
 OLDACT:UP  16-04-05 16:13 OP:nlst STATUS:               ID:20160404090543 L   3
 OLDACT:UP  16-04-04 18:15 OP:mh   STATUS:               ID:20160404085743     3
 OLDACT:UP  16-04-04 18:14 OP:mh   STATUS:               ID:20160404085743     3
 OLDACT:REG 16-04-04 12:36 OP:mh   STATUS:               ID:20160404085743     3
 2016-04-04-0857-43M.COL___303                                                 6
 STAT SP IPHASW D HRMM SECON CODA AMPLIT PERI AZIMU VELO AIN AR TRES W  DIS CAZ7
 BAR2 EZ EP        9 6  2.78                             170    0.0710 23.9 190 
 BAR2 EZ ES        9 6 17.81                             170   -0.0310 23.9 190 
 BAR2 EZ I         9 6 19.22         4.0 0.35            171           23.9 190 
 PAM  EZ EP        9 6  5.78                             151    0.5010 76.8  40 
 PAM  EE ES        9 6 22.85                             151    0.4410 76.8  40 
 PAM  EN I         9 6 23.40        13.4 0.48            152           76.8  40 
 PAM  EZ I         9 6 24.89         6.8 0.47                          76.8  40 
 RUS  HZ EP        9 6  6.34                             143   -0.5610  101 176 
 RUS  HN ES        9 6 25.22                             143   -0.0810  101 176 
 RUS  HZ I         9 6 26.53                             146            101 176 
 PTB  HZ EP        9 6 10.52                             131    0.38 9  148 259 
 PTB  HN ES        9 6 30.87                             131   -0.20 9  148 259 
 PTB  HZ I         9 6 32.00         2.3 0.14            132            148 259 
 OCA  HZ EP        9 6 11.17                             129   -0.25 9  160 353 
 OCA  HN ES        9 6 32.55                             129   -0.79 9  160 353 
 OCA  HZ I         9 6 36.44         6.6 0.20            130            160 353 
 ZAR  HZ EP   1    9 6 15.96                             122    0.33 6  204 292 
 ZAR  HN ES        9 6 41.14                             122    0.31 9  204 292 
 ZAR  HZ I         9 6 47.02         2.5 0.09            122            204 292 
                                                                                
