 2015  9 4 0243  9.8 L   6.796 -73.122148.8  RSN  7 0.5 1.5LRSN                1
 GAP=140        1.38       5.0     6.8  8.6 -0.4377E+01  0.1183E+02 -0.5541E+01E
 Epicentro: LOS SANTOS - SANTANDER                                             3
 ACTION:UPD 15-10-28 16:23 OP:cam  STATUS:               ID:20150904024309 L   I
 OLDACT:UP  15-09-04 15:54 OP:ak   STATUS:               ID:20150904023749d    3
 OLDACT:DUP 15-09-04 15:50 OP:ak   STATUS:               ID:20150904023749d    3
 2015-09-04-0237-48M.COL___355                                                 6
 STAT SP IPHASW D HRMM SECON CODA AMPLIT PERI AZIMU VELO AIN AR TRES W  DIS CAZ7
 BAR2 EZ EP        243 29.78                             171   -0.0610 23.5 197 
 BAR2 EZ ES        243 45.70                             171    0.2710 23.5 197 
 BAR2 EZ I         243 47.93         5.9 0.46            170           23.5 197 
 BRR  HZ EP        243 32.30                             152    0.8410 73.7 298 
 BRR  HN ES        243 49.23                             152    0.9110 73.7 298 
 PAM  EZ EP        243 32.56                             152    0.2610 76.1  38 
 PAM  EN ES        243 49.24                             152   -0.5810 76.1  38 
 PAM  EZ I         243 52.42         7.0 0.58            155           76.1  38 
 RUS  HZ EP        243 33.90                             145    0.0510100.0 178 
 RUS  HN ES        243 52.02                             145   -0.5510100.0 178 
 RUS  HZ I         243 54.10         1.7 0.15            146          100.0 178 
 PTB  HZ EP        243 36.70                             132   -0.58 9  150 259 
 PTB  HE ES        243 57.94                             132   -0.74 9  150 259 
 PTB  HZ I         244  4.11         4.9 0.20            133            150 259 
 SPBC HZ EP        243 39.15                             129    0.45 9  164 220 
 SPBC HN ES        244  1.24                             129    0.04 9  164 220 
 SPBC HZ I         244  4.59         4.8 0.16            131            164 220 
 SML  HZ EP        243 46.93                             118    0.13 8  245 335 
 SML  HE ES        244 14.85                             118   -0.78 8  245 335 
                                                                                
