 2016  5 4 0508 28.1 L   6.321 -73.583114.4  RSN 13 0.4 1.7LRSN                1
 GAP= 75        0.97       2.4     2.7  5.4 -0.1613E+01  0.4117E+01 -0.1773E+01E
 Epicentro: SANTA HELENA DEL OPON - SANTANDER                                  3
 ACTION:UPD 16-08-18 17:41 OP:cam  STATUS:               ID:20160504050828 L   I
 OLDACT:UP  16-05-04 14:01 OP:edw  STATUS:               ID:20160504050746     3
 OLDACT:UP  16-05-04 13:57 OP:edw  STATUS:               ID:20160504050746     3
 OLDACT:REG 16-05-04 12:31 OP:edw  STATUS:               ID:20160504050746     3
 2016-05-04-0507-46M.COL___295                                                 6
 STAT SP IPHASW D HRMM SECON CODA AMPLIT PERI AZIMU VELO AIN AR TRES W  DIS CAZ7
 BAR2 EZ IP     C  5 8 45.33                             153    0.1510 53.5  56 
 BAR2 EZ ES        5 8 58.56                             153    0.0410 53.5  56 
 BAR2 EZ I         5 9  0.04        35.3 0.34            153           53.5  56 
 RUS  HZ EP        5 8 46.62                             145   -0.1210 72.8 131 
 RUS  HE ES        5 9  1.51                             145    0.2110 72.8 131 
 RUS  HZ I         5 9  2.23         5.6 0.18            144           72.8 131 
 BRR  HZ EP        5 8 46.95                             140   -0.2310 88.1 351 
 BRR  HE ES        5 9  2.43                             140    0.3410 88.1 351 
 SPBC HZ EP   2    5 8 47.07                             138   -0.52 5 91.6 216 
 SPBC HN ES        5 9  3.07                             138    0.2510 91.6 216 
 SPBC HZ I         5 9  6.63        15.0 0.10            137           91.6 216 
 PTB  HZ EP        5 8 47.13                             136   -1.0210 99.6 284 
 PTB  HN ES        5 9  3.11                             136   -0.6910 99.6 284 
 PAM  EZ EP        5 8 53.43                             124   -0.01 9  149  41 
 PAM  EE ES        5 9 13.33                             124    0.10 9  149  41 
 PAM  EZ I         5 9 17.74         5.6 0.48            123            149  41 
 NOR  HZ EP        5 8 54.90                             120    0.37 9  165 240 
 NOR  HN ES        5 9 15.54                             120    0.36 9  165 240 
 CHI  HZ EP   2    5 8 57.11                             117   -0.30 4  188 185 
 CHI  HN ES        5 9 19.85                             117   -0.45 9  188 185 
 CHI  HZ I         5 9 24.73         3.0 0.30            116            188 185 
 ZAR  HZ EP        5 8 57.17                             116   -0.12 9  191 313 
 ZAR  HN ES        5 9 20.02                             116   -0.06 9  191 313 
 ZAR  HZ I         5 9 23.86         8.4 0.20            116            191 313 
 OCA  HZ EP        5 8 59.97                             113   -0.02 8  214   8 
 OCA  HN ES        5 9 25.08                             113    0.19 8  214   8 
 OCA  HZ I         5 9 31.41        11.3 0.50            113            214   8 
 HEL  HZ EP        5 9  1.32                             113    0.86 8  216 266 
 HEL  HN ES        5 9 26.02                             113    0.31 8  216 266 
 HEL  HZ I         5 9 28.47         2.6 0.24            113            216 266 
 URE  HZ EP   2    5 9  6.47                             108    0.58 4  267 306 
 URE  HN ES   4    5 9 32.22                             108   -3.17 0  267 306 
 URE  HZ I         5 9 35.29         9.7 0.14            107            267 306 
 ORTC HZ EP   2    5 9 12.09                             104   -0.51 3  324 215 
 ORTC HE ES   2    5 9 48.27                             104    0.93 3  324 215 
 ORTC HZ I         5 9 55.01         1.5 0.53            103            324 215 
                                                                                
