 2011 11 4 0712 38.1 L   6.819 -73.090149.4  RSN  4 0.3 1.2LRSN                1
 GAP=189        0.50       8.0    14.9  8.7  0.9111E+02 -0.6560E+02 -0.3697E+02E
 Epicentro: LOS SANTOS - SANTANDER                                             3
 ACTION:UPD 12-07-13 16:08 OP:ep   STATUS:               ID:20111104071238 L   I
 2011-11-04-0709-28S.COL___175                                                 6
 STAT SP IPHASW D HRMM SECON CODA AMPLIT PERI AZIMU VELO AIN AR TRES W  DIS CAZ7
 BAR2 SZ EP        712 58.09                             169   -0.1310 27.1 202 
 BAR2 SZ ES   2    713 13.71                             169   -0.23 5 27.1 202 
 BAR2 SZ I         713 16.16         5.3 0.45                          27.1 202 
 BRR  HZ EP        712 59.96                             151    0.0810 75.8 295 
 BRR  HZ I         713  0.32         4.1 0.14                          75.8 295 
 BRR  HN ES   2    713 16.75                             151   -0.13 5 75.8 295 
 RUS  HZ EP   1    713  2.14                             144   -0.18 7  102 180 
 RUS  HZ I         713  3.26         0.9 0.15                           102 180 
 RUS  HE ES   2    713 21.87                             144    0.64 5  102 180 
 OCA  SZ EP   2    713  6.93                             131    0.37 5  159 351 
                                                                                
