 2012  5 4 0053 38.6 L   6.797 -73.158143.3  RSN  6 0.4 1.7LRSN                1
 GAP=135        0.92       6.3     5.4 10.7  0.2855E+01  0.9132E+01  0.8180E+01E
 Epicentro: LOS SANTOS - SANTANDER                                             3
 ACTION:UP  12-07-05 12:02 OP:pat  STATUS:               ID:20120504005338 L   I
 2012-05-04-0050-00M.COL___189                                                 6
 STAT SP IPHASW D HRMM SECON CODA AMPLIT PERI AZIMU VELO SNR AR TRES W  DIS CAZ7
 BAR2 SZ EP   1    053 58.08                             171     0.1 7   23 187 
 BAR2 SZ I         053 58.41        14.6 0.10                            23 187 
 BRR  HZ EP   1    053 59.87                             152     0.4 7   70 299 
 BRR  HZ I         054  0.17        18.7 0.19                            70 299 
 BRR  HE ES   1    054 16.29                             152     0.6 7   70 299 
 PAM  SZ EP   1    054  1.02                             150     0.4 7   79  40 
 PAM  SE ES   1    054 17.21                             150    -0.6 7   79  40 
 PAM  SZ I         054 19.37         6.5 0.17                            79  40 
 RUS  HZ EP   1    054  2.13                             143     0.0 7  100 175 
 RUS  HZ I         054  3.30         5.8 0.17                           100 175 
 RUS  HN ES   1    054 20.36                             143    -0.1 7  100 175 
 PTB  HZ EP   1    054  4.77                             132    -0.5 7  146 259 
 PTB  HN ES   1    054 25.98                             132    -0.1 7  146 259 
 PTB  HZ I         054 28.96         5.1 0.13                           146 259 
 ZAR  HN ES   1    054 35.53                             122    -0.4 6  203 292 
                                                                                
