 2011  6 4 0928 58.5 L   6.809 -73.156145.7  RSN  9 0.3 1.9LRSN                1
 GAP=135        0.61       3.3     6.9  6.6 -0.1085E+02  0.1893E+02 -0.3006E+01E
 Epicentro: LOS SANTOS - SANTANDER                                             3
 ACTION:UP  11-07-14 19:03 OP:ep   STATUS:               ID:20110604092858 L   I
 2011-06-04-0927-25S.COL___132                                                 6
 STAT SP IPHASW D HRMM SECON CODA AMPLIT PERI AZIMU VELO SNR AR TRES W  DIS CAZ7
 BAR2 SZ EP   1    929 17.94                             170    -0.2 7   24 187 
 BAR2 SZ ES   2    929 33.26                             170    -0.2 5   24 187 
 BAR2 SZ I         929 34.70        16.5 0.20                            24 187 
 BRR  HZ EP   1    929 19.96                             153     0.4 7   70 298 
 BRR  HZ I         929 38.42        17.9 0.19                            70 298 
 PAM  SZ EP   1    929 20.85                             151     0.2 7   77  41 
 PAM  SN ES   2    929 38.20                             151     0.2 5   77  41 
 RUS  HZ EP   1    929 22.20                             143    -0.1 7  102 175 
 RUS  HN ES   1    929 40.92                             143     0.1 7  102 175 
 RUS  HZ I         929 42.26        10.1 0.43                           102 175 
 BRI  SZ EP   1    929 22.83                             141     0.5 7  108  22 
 BRI  SZ ES   2    929 40.74                             141    -0.2 5  108  22 
 GRA  SZ EP   1    929 23.07                             137    -0.6 7  125  18 
 GRA  SZ ES   2    929 42.95                             137    -0.3 5  125  18 
 GRA  SZ I         929 48.34         9.1 0.33                           125  18 
 OCA  SZ EP   2    929 26.74                             130     0.1 5  159 354 
 OCA  SZ ES   2    929 48.42                             130    -0.2 5  159 354 
 OCA  SZ I         929 53.25        14.0 0.29                           159 354 
 NOR  SZ EP   1    929 34.03                             118    -0.1 6  234 234 
 NOR  SN ES   2    930  1.85                             118    -0.1 4  234 234 
 CHI  HZ EP   1    929 36.09                             117    -0.1 6  249 195 
 CHI  HZ I         930 13.36         5.1 0.42                           249 195 
                                                                                
