 2013  5 4 0425 40.9 L   6.774 -73.152148.5  RSN  6 0.3 1.6LRSN                1
 GAP=137        0.76       5.0     4.7  5.9 -0.2039E+01  0.2182E+01 -0.7814E+00E
 Epicentro: LOS SANTOS - SANTANDER                                             3
 ACTION:UPD 13-06-20 09:47 OP:ep   STATUS:               ID:20130504042540 L   I
 2013-05-04-0420-00M.COL___253                                                 6
 STAT SP IPHASW D HRMM SECON CODA AMPLIT PERI AZIMU VELO AIN AR TRES W  DIS CAZ7
 BAR2 SZ EP   1    426  0.88                             172    0.08 7 20.4 189 
 BAR2 SZ ES        426 16.10                             172   -0.2210 20.4 189 
 BAR2 SZ I         426 18.08        11.4 0.26            172           20.4 189 
 GIR2 SZ EP   1    426  0.80                             166   -0.16 7 34.0 352 
 BRR  HZ IP     D  426  2.50                             153    0.1210 72.0 301 
 BRR  HZ I         426  2.77        11.2 0.28            154           72.0 301 
 BRR  HN ES        426 19.68                             153    0.5410 72.0 301 
 PAM  SZ EP        426  3.69                             150    0.1310 80.1  39 
 PAM  SN ES   1    426 20.74                             150   -0.50 7 80.1  39 
 PAM  SZ I         426 23.08         4.8 0.52            152           80.1  39 
 RUS  HZ EP   1    426  4.83                             145    0.11 7 97.8 175 
 RUS  HE ES   1    426 23.58                             145    0.28 7 97.8 175 
 RUS  HZ I         426 24.27         3.8 0.28            147           97.8 175 
 PTB  HZ EP        426  7.82                             133   -0.15 9  146 260 
 PTB  HN ES   1    426 28.40                             133   -0.69 7  146 260 
 PTB  HZ E         426 30.82                                            146 260 
 PTB  HZ I         426 30.84         4.0 0.16            134            146 260 
                                                                                
