 2011  1 4 0343 43.2 L   6.777 -73.266145.8  RSN  5 0.2 1.4LRSN                1
 GAP=166        0.41       3.0    19.8  5.1  0.1411E+02  0.3221E+02 -0.2438E+01E
 Epicentro: ZAPATOCA - SANTANDER                                               3
 ACTION:UP  11-02-08 08:38 OP:pat  STATUS:               ID:20110104034343 L   I
 2011-01-04-0339-50S.COL___135                                                 6
 STAT SP IPHASW D HRMM SECON CODA AMPLIT PERI AZIMU VELO SNR AR TRES W  DIS CAZ7
 BAR2 SZ EP   1    344  2.90                             171     0.1 7   22 156 
 BAR2 SZ ES   1    344 18.24                             171     0.1 7   22 156 
 BAR2 SZ I         344 19.23         6.0 0.32                            22 156 
 RUS  HZ EP   1    344  7.00                             144     0.1 7  100 168 
 RUS  HE ES   1    344 25.18                             144    -0.2 7  100 168 
 RUS  HZ I         344 26.40         2.1 0.55                           100 168 
 GRA  SZ EP   2    344  9.16                             135     0.1 5  133  23 
 GRA  SZ I         344 31.33         4.6 0.33                           133  23 
 OCA  SZ EP   2    344 11.30                             129    -0.4 5  162 358 
 OCA  SZ ES   2    344 33.81                             129     0.0 5  162 358 
 OCA  SZ I         344 38.89         6.0 0.35                           162 358 
 CHI  HZ EP   2    344 20.41                             118     0.1 4  243 192 
 CHI  HZ I         344 23.61         1.3 0.25                           243 192 
                                                                                
