 2017  7 4 0122 11.8 L   6.840 -73.158151.5  RSN 23 0.5 2.2LRSN                1
 GAP= 64        1.15       3.7     3.3  5.3 -0.2609E+00  0.3290E+01  0.2510E+01E
 Epicentro: LOS SANTOS - SANTANDER                                             3
 ACTION:UPD 17-08-30 15:29 OP:rebc STATUS:               ID:20170704012211 L   I
 OLDACT:UP  17-07-04 14:11 OP:edw  STATUS:               ID:20170704011632     3
 OLDACT:UP  17-07-04 14:11 OP:edw  STATUS:               ID:20170704011632     3
 OLDACT:UP  17-07-04 13:52 OP:edw  STATUS:               ID:20170704011632     3
 OLDACT:UP  17-07-04 13:51 OP:edw  STATUS:               ID:20170704011632     3
 OLDACT:REG 17-07-04 12:25 OP:edw  STATUS:               ID:20170704011632     3
 2017-07-04-0118-00M.COL___377                                                 6
 STAT SP IPHASW D HRMM SECON CODA AMPLIT PERI AZIMU VELO AIN AR TRES W  DIS CAZ7
 BAR2 EZ IP     C  122 31.91                             169   -0.3410 27.5 186 
 BAR2 EZ ES        122 47.49                             169   -0.6710 27.5 186 
 BAR2 EZ I         122 48.49        42.3 0.16            168           27.5 186 
 BRR  HZ IP     C  122 33.71                             154    0.2710 68.0 296 
 BRR  HN ES        122 50.89                             154    0.6110 68.0 296 
 BRR  HZ I         122 53.58        26.6 0.16            151           68.0 296 
 PAM  EZ EP     D  122 34.90                             152    0.3710 74.9  42 
 PAM  EN ES        122 52.05                             152   -0.1710 74.9  42 
 PAM  EZ I         122 54.06        33.0 0.50            154           74.9  42 
 PTB  HZ EP   9    122 38.61                             133   -0.63 0  147 257 
 PTB  HN ES        122 59.62                             132   -0.36 9  147 257 
 PTB  HZ I         123  3.27        15.7 0.16            131            147 257 
 TAM  HZ IP     C  122 40.29                             131    0.08 9  158 106 
 SPBC HZ EP   9 C  122 40.82                             129   -0.21 0  166 218 
 SPBC HN ES        123  2.54                             129   -1.05 9  166 218 
 SPBC HZ I         123  5.48        30.0 0.32            128            166 218 
 YPLC HZ EP     C  122 42.35                             126   -0.15 9  181 152 
 YPLC HE ES        123  6.72                             126    0.31 9  181 152 
 YPLC HZ I         123  7.25        30.2 0.28            127            181 152 
 ZAR  HZ EP        122 44.39                             123    0.02 9  201 291 
 ZAR  HN ES        123  9.43                             123   -0.31 9  201 291 
 ZAR  HZ I         123 18.69        13.6 0.20            122            201 291 
 TABC EZ EP   2    122 49.31                             120    1.04 4  233 210 
 TABC EZ ES   2    123 17.04                             120    0.36 4  233 210 
 NOR  HZ EP        122 48.09                             119    0.02 8  236 233 
 NOR  HN ES        123 15.66                             119   -0.66 8  236 233 
 NOR  HZ I         123 20.57        12.7 0.24            118            236 233 
 ROSC BZ EP   4    122 51.86                             117    1.24 0  256 210 
 ROSC BN ES   4    123 22.87                             117    2.01 0  256 210 
 ROSC BZ I         123 30.20        12.8 0.35            116            256 210 
 HEL  HZ EP   4    122 54.64                             115    2.31 0  272 255 
 HEL  HN ES        123 24.65                             115    0.74 8  272 255 
 HEL  HZ I         123 32.13         9.0 0.44            114            272 255 
 GUY2CHZ EP   4    122 57.89                             113    2.01 0  303 234 
 GUY2CHN ES   4    123 32.02                             113    1.78 0  303 234 
 GUY2CHZ I         123 37.88         8.9 0.32                           303 234 
 VIL  EZ EP   2    122 55.89                             112   -0.09 4  307 191 
 VIL  EN ES   2    123 30.39                             112   -0.02 4  307 191 
 VIL  EZ I         123 38.86         9.0 0.46            112            307 191 
 PTGC HZ EP   9    122 55.18                             112   -1.30 0  313 159 
 PTGC HN ES        123 28.58                             112   -1.42 7  313 159 
 PTGC HZ I         123 30.23        10.7 0.30            112            313 159 
 LL6C HZ EP   3    122 57.12                             111   -0.16 2  320 358 
 LL6C HN ES   3    123 32.29                             111   -0.43 2  320 358 
 CBOC HZ EP        122 59.35                             110    0.34 7  334 251 
 CBOC HN ES        123 36.14                             110    0.34 7  334 251 
 CBOC HZ I         123 39.84         2.8 0.48            110            334 251 
 DBB  EZ EP        122 59.54                             110    0.18 7  338 274 
 DBB  EN ES        123 35.00                             110   -1.43 7  338 274 
 DBB  EZ I         123 38.08         4.0 0.44            109            338 274 
 ARGC HZ EP   4    123  3.85                             109    2.66 0  355 340 
 ARGC HN ES   2    123 39.40                             109   -0.28 3  355 340 
 ARGC HZ I         123 52.26         2.9 0.34            109            355 340 
 ORTC HZ EP        123  6.20                             107   -0.09 6  398 216 
 ORTC HN ES        123 49.60                             107    0.85 6  398 216 
 ORTC HZ I         123 55.76         4.3 0.36            106            398 216 
 SJC  HZ EP   4    123  6.06                             106   -1.01 0  405 327 
 SJC  HN ES   4    123 47.13                             106   -3.03 0  405 327 
 SJC  HZ I         123 53.29         2.6 0.68            106            405 327 
 PAL  HZ EP        123  6.97                             106   -0.36 6  407 238 
 CRJC HZ EP   4    123 11.93                             104   -2.06 0  463   4 
 CRJC HN ES        124  1.88                             104   -0.59 5  463   4 
                                                                                
