 2016  4 4 0459 31.8 L   6.813 -73.156142.4  RSN 13 0.4 1.9LRSN                1
 GAP=125        0.96       3.0     3.5  5.8 -0.1600E+01  0.5439E+01 -0.2627E+01E
 Epicentro: LOS SANTOS - SANTANDER                                             3
 ACTION:UPD 16-05-05 14:18 OP:rebc STATUS:               ID:20160404045931 L   I
 OLDACT:UP  16-04-04 16:51 OP:dnl  STATUS:               ID:20160404045747     3
 OLDACT:REG 16-04-04 12:30 OP:mh   STATUS:               ID:20160404045747     3
 2016-04-04-0457-47M.COL___312                                                 6
 STAT SP IPHASW D HRMM SECON CODA AMPLIT PERI AZIMU VELO AIN AR TRES W  DIS CAZ7
 BAR2 EZ EP        459 51.28                             170    0.2010 24.6 187 
 BAR2 EZ ES        5 0  6.30                             170    0.2110 24.6 187 
 BAR2 EZ I         5 0  7.39        13.8 0.14            170           24.6 187 
 PAM  EZ EP     D  459 54.09                             150    0.4310 77.0  41 
 PAM  EN ES        5 0 10.87                             150    0.1810 77.0  41 
 PAM  EZ I         5 0 13.38        25.7 0.70            151           77.0  41 
 RUS  HZ EP        459 55.28                             143   -0.0810  102 175 
 RUS  HN ES        5 0 13.33                             143   -0.3910  102 175 
 RUS  HZ I         5 0 14.77         8.5 0.32            144            102 175 
 PTB  HZ EP        459 58.14                             131   -0.31 9  147 258 
 PTB  HN ES        5 0 18.86                             131   -0.35 9  147 258 
 PTB  HZ I         5 0 21.69        10.1 0.12            131            147 258 
 OCA  HZ EP        459 59.50                             129   -0.23 9  159 353 
 OCA  HN ES        5 0 21.18                             129   -0.31 9  159 353 
 OCA  HZ I         5 0 24.73        20.6 0.42            129            159 353 
 SPBC HZ EP        5 0  0.37                             128    0.26 9  164 218 
 SPBC HE ES        5 0 22.11                             128   -0.06 9  164 218 
 SPBC HZ I         5 0 24.91        10.5 0.16            128            164 218 
 ZAR  HZ EP        5 0  4.66                             122    0.77 9  202 292 
 ZAR  HN ES        5 0 29.52                             122    0.62 9  202 292 
 ZAR  HZ I         5 0 35.51         7.1 0.14            122            202 292 
 CHI  HZ EP   2    5 0  9.65                             116    0.19 4  250 195 
 CHI  HN ES   2    5 0 38.82                             116    0.00 4  250 195 
 CHI  HZ I         5 0 45.46         2.1 0.38            117            250 195 
 URE  HZ EP   4    5 0 14.87                             113    2.31 0  282 292 
 URE  HN ES        5 0 43.40                             113   -0.93 7  282 292 
 URE  HZ I         5 0 44.56         8.3 0.12            113            282 292 
 GUY2CHZ EP   2    5 0 16.32                             112    1.05 4  301 234 
 GUY2CHN ES   2    5 0 48.76                             112   -0.40 4  301 234 
 GUY2CHZ I         5 0 58.62         2.9 0.46                           301 234 
 MON  HZ EP   4    5 0 19.12                             108   -1.37 0  352 308 
 MON  HE ES   4    5 0 57.87                             108   -0.58 0  352 308 
 MON  HZ I         5 0 58.38         3.3 0.18            108            352 308 
 SDV  BZ EP        5 0 20.95                             108   -0.78 6  360  50 
 SDV  BN ES   4    5 0 58.10                             108   -2.56 0  360  50 
 SJC  HZ EP   4    5 0 25.76                             105   -1.31 0  407 327 
 SJC  HN ES   4    5 1  7.51                             105   -2.64 0  407 327 
 SJC  HZ I         5 1 22.27         1.2 0.35            105            407 327 
                                                                                
