 2014 11 4 0502 25.9 L   7.241 -73.436112.7  RSN  8 0.4 1.6LRSN                1
 GAP=123        1.06       3.3     3.9  6.8 -0.3330E+01  0.5822E+01  0.2631E+01E
 Epicentro: SABANA DE TORRES - SANTANDER                                       3
 ACTION:UPD 14-12-19 15:39 OP:nd   STATUS:               ID:20141104050225 L   I
 OLDACT:REG 14-11-04 12:36 OP:carl STATUS:               ID:20141104045743     3
 2014-11-04-0457-43M.COL___271                                                 6
 STAT SP IPHASW D HRMM SECON CODA AMPLIT PERI AZIMU VELO AIN AR TRES W  DIS CAZ7
 BRR  HZ EP        5 2 41.69                             162    0.1510 33.8 244 
 BRR  HN ES        5 2 54.00                             162    0.2610 33.8 244 
 BRR  HZ I         5 2 55.46        11.4 0.10            161           33.8 244 
 BAR2 SZ EP        5 2 44.44                             143    0.1110 77.1 159 
 BAR2 SZ ES        5 2 58.60                             143   -0.1210 77.1 159 
 BAR2 SZ I         5 2 59.76        34.0 0.44            144           77.1 159 
 PAM  SZ EP        5 2 45.24                             142    0.1810 82.1  82 
 PAM  SE ES        5 3  0.16                             142    0.1510 82.1  82 
 PAM  SZ I         5 3  1.75         8.2 0.28            145           82.1  82 
 OCA  HZ EP        5 2 46.22                             132   -0.8010  111   7 
 OCA  HN ES        5 3  3.59                             132    0.0810  111   7 
 OCA  HZ I         5 3  5.53        11.1 0.44            135            111   7 
 PTB  HZ EP        5 2 48.92                             125   -0.37 9  137 236 
 PTB  HN ES        5 3  7.36                             125   -0.18 9  137 236 
 PTB  HZ I         5 3 11.42         9.2 0.14            126            137 236 
 RUS  HZ EP        5 2 52.08                             122    0.41 9  154 165 
 RUS  HN ES        5 3 11.48                             122   -0.30 9  154 165 
 RUS  HZ I         5 3 14.66         1.7 0.54            123            154 165 
 SPBC HZ EP        5 2 55.64                             116    0.75 9  189 202 
 SPBC HN ES        5 3 16.76                             116   -0.75 9  189 202 
 SPBC HZ I         5 3 26.16         4.1 0.24            117            189 202 
 HEL  HN ES        5 3 32.79                             108    0.64 8  259 243 
                                                                                
