 2016 12 4 0907 48.8 L   6.798 -73.131153.3  RSN 10 0.5 1.9LRSN                1
 GAP=120        1.14       5.0     5.0  6.6  0.7572E+00  0.5136E+01  0.1039E+02E
 Epicentro: LOS SANTOS - SANTANDER                                             3
 ACTION:UPD 17-01-11 20:12 OP:rebc STATUS:               ID:20161204090748 L   I
 OLDACT:UP  16-12-04 17:03 OP:dani STATUS:               ID:20161204085743     3
 OLDACT:UP  16-12-04 17:03 OP:dani STATUS:               ID:20161204085743     3
 OLDACT:REG 16-12-04 13:00 OP:dani STATUS:               ID:20161204085743     3
 2016-12-04-0858-00M.COL___346                                                 6
 STAT SP IPHASW D HRMM SECON CODA AMPLIT PERI AZIMU VELO AIN AR TRES W  DIS CAZ7
 BAR2 EZ EP        9 8  9.54                             171    0.1610 23.4 194 
 BAR2 EZ ES        9 8 24.80                             171   -0.6010 23.4 194 
 BAR2 EZ I         9 8 26.25        19.3 0.38            170           23.4 194 
 BRR  HZ EP        9 8 11.43                             153    0.5410 72.8 298 
 BRR  HN ES        9 8 28.55                             153    0.4510 72.8 298 
 BRR  HZ I         9 8 29.15         9.8 0.09            150           72.8 298 
 PAM  EZ EP        9 8 12.49                             152    0.6810 76.6  38 
 PAM  EN ES        9 8 29.34                             152   -0.4010 76.6  38 
 PAM  EZ I         9 8 31.72        12.9 0.52            153           76.6  38 
 PTB  HZ EP        9 8 16.31                             133   -0.26 9  149 259 
 PTB  HN ES        9 8 37.45                             133   -0.75 9  149 259 
 PTB  HZ I         9 8 39.23         7.5 0.42            131            149 259 
 ZAR  HZ EP        9 8 22.11                             124    0.16 8  206 292 
 ZAR  HE ES        9 8 47.66                             124   -0.12 8  206 292 
 ZAR  HZ I         9 8 52.99         6.3 0.19            122            206 292 
 NOR  HZ EP        9 8 25.80                             120    0.66 8  236 235 
 NOR  HE ES   3    9 8 54.37                             120    0.92 2  236 235 
 NOR  HZ I         9 8 59.47         3.8 0.42            119            236 235 
 CHI  HZ EP        9 8 26.78                             119   -0.20 8  249 196 
 CHI  HN ES        9 8 57.04                             119    0.31 8  249 196 
 CHI  HZ I         9 9  0.55         5.2 0.43            118            249 196 
 PTGC HZ EP        9 8 32.74                             113   -0.20 7  308 159 
 PRA  HZ EP   2    9 8 41.39                             108   -1.30 3  393 210 
 PRA  HN ES   4    9 9 22.23                             108   -2.47 0  393 210 
 PRA  HZ I         9 9 28.75         4.0 0.32            107            393 210 
 SJC  HZ EP        9 8 43.71                             107   -1.07 6  410 327 
 SJC  HN ES   4    9 9 25.24                             107   -3.19 0  410 327 
 SJC  HZ I         9 9 36.96         1.9 0.40            106            410 327 
                                                                                
