 2011  8 4 0513 25.6 L   6.839 -73.048144.4  RSN  6 0.3 1.4LRSN                1
 GAP=147        0.58       3.8     6.9  5.5  0.4368E+01  0.2589E+01  0.3563E+01E
 Epicentro: LOS SANTOS - SANTANDER                                             3
 ACTION:UPD 12-07-25 14:06 OP:epov STATUS:               ID:20110804051325 L   I
 2011-08-04-0511-30S.COL___139                                                 6
 STAT SP IPHASW D HRMM SECON CODA AMPLIT PERI AZIMU VELO AIN AR TRES W  DIS CAZ7
 BAR2 SZ EP   2    513 45.55                             167    0.30 5 31.1 209 
 BAR2 SZ ES   1    514  0.00                             167   -0.58 8 31.1 209 
 BAR2 SZ I         514  2.31         8.8 0.26                          31.1 209 
 PAM  SZ EP   2    513 47.26                             154    0.15 5 67.4  35 
 PAM  SE ES   2    514  3.56                             154   -0.31 5 67.4  35 
 BRR  HZ EP   1    513 47.29                             149    0.21 8 79.2 292 
 BRR  HN ES   1    514  3.93                             149    0.11 8 79.2 292 
 BRR  HZ I         514  9.15         7.1 0.11                          79.2 292 
 RUS  HZ EP   1    513 49.68                             142    0.15 7  105 182 
 RUS  HE ES        514  8.42                             142    0.2410  105 182 
 RUS  HZ I         514  9.23         2.3 0.34                           105 182 
 CHI  HZ EP   2    514  3.40                             116   -0.61 4  256 197 
 CHI  HZ I         514  6.54         1.4 0.83                           256 197 
 CHI  HN ES   2    514 33.86                             116   -0.11 4  256 197 
 PRA  HZ EP   1    514 19.62                             106   -0.53 4  401 211 
                                                                                
