 2016 12 4 0705 32.5 L   5.896 -73.761120.6  RSN  7 0.4 1.6LRSN                1
 GAP=168        0.76       3.0     3.5  6.9 -0.4280E+01 -0.1487E+01  0.8069E+01E
 Epicentro: JESUS MARIA - SANTANDER                                            3
 ACTION:UPD 17-01-11 20:12 OP:rebc STATUS:               ID:20161204070532 L   I
 OLDACT:UP  16-12-04 16:01 OP:dani STATUS:               ID:20161204065745     3
 OLDACT:UP  16-12-04 16:00 OP:dani STATUS:               ID:20161204065745     3
 OLDACT:UP  16-12-04 16:00 OP:dani STATUS:               ID:20161204065745     3
 OLDACT:REG 16-12-04 12:49 OP:dani STATUS:               ID:20161204065745     3
 2016-12-04-0658-00M.COL___349                                                 6
 STAT SP IPHASW D HRMM SECON CODA AMPLIT PERI AZIMU VELO AIN AR TRES W  DIS CAZ7
 BAR2 EZ EP        7 5 53.72                             138    0.1910  100  40 
 BAR2 EZ ES        7 6  9.74                             138   -0.1510  100  40 
 PTB  HZ EP   2    7 5 52.50                             136   -1.11 5  105 313 
 PTB  HN ES        7 6  9.90                             136   -0.1410  105 313 
 PTB  HZ I         7 6 12.19         5.4 0.20            138            105 313 
 NOR  HZ EP        7 5 56.04                             130    0.3010  128 253 
 NOR  HN ES        7 6 14.05                             130    0.2110  128 253 
 NOR  HZ I         7 6 16.97        12.6 0.16            131            128 253 
 BRR  HZ EP        7 5 56.33                             128    0.1010  134   2 
 BRR  HN ES        7 6 14.75                             128    0.0510  134   2 
 BRR  HZ I         7 6 18.36         4.5 0.16            131            134   2 
 ZAR  HZ EP        7 6  5.05                             115    0.45 8  214 326 
 ZAR  HN ES        7 6 29.28                             115   -0.32 8  214 326 
 ZAR  HZ I         7 6 34.14         4.5 0.16            117            214 326 
 PRA  HZ EP        7 6 10.58                             109   -0.57 8  272 207 
 PRA  HN ES        7 6 41.26                             109   -0.00 8  272 207 
 PRA  HZ I         7 6 47.21         2.9 0.41            111            272 207 
 URE  HZ EP   4    7 6 13.47                             108    0.97 0  284 316 
 URE  HN ES   4    7 6 41.21                             108   -2.45 0  284 316 
 URE  HZ I         7 6 42.42         2.9 0.20            110            284 316 
                                                                                
