 2015 11 4 0604  9.9 L   6.817 -73.135141.9  RSN  9 0.4 1.7LRSN                1
 GAP=137        0.94       3.0     4.4  6.1 -0.5151E+00  0.8280E+01  0.1040E+00E
 Epicentro: LOS SANTOS - SANTANDER                                             3
 ACTION:UPD 15-12-28 16:08 OP:cam  STATUS:               ID:20151104060409 L   I
 OLDACT:DUP 15-11-04 16:44 OP:cara STATUS:               ID:20151104055749d    3
 OLDACT:REG 15-11-04 13:15 OP:cara STATUS:               ID:20151104055748     3
 2015-11-04-0557-48M.COL___304                                                 6
 STAT SP IPHASW D HRMM SECON CODA AMPLIT PERI AZIMU VELO AIN AR TRES W  DIS CAZ7
 BAR2 EZ EP        6 4 28.98                             169   -0.1210 25.4 192 
 BAR2 EZ ES        6 4 43.77                             169   -0.3110 25.4 192 
 BAR2 EZ I         6 4 44.72         8.0 0.18            170           25.4 192 
 BRR  HZ EP        6 4 30.51                             152   -0.1210 71.3 297 
 BRR  HN ES        6 4 47.37                             152    0.5710 71.3 297 
 BRR  HZ I         6 4 51.35         6.3 0.30            150           71.3 297 
 PAM  EZ IP        6 4 31.95                             151    0.3910 75.2  40 
 PAM  EN ES        6 4 48.63                             151    0.1710 75.2  40 
 PAM  EZ I         6 4 50.84        13.8 0.44            154           75.2  40 
 RUS  HZ EP        6 4 33.90                             142    0.5010  102 177 
 RUS  HE ES        6 4 51.47                             142   -0.2610  102 177 
 RUS  HZ I         6 4 52.59         5.1 0.26            145            102 177 
 OCA  HZ EP        6 4 37.25                             129   -0.49 9  159 353 
 OCA  HE ES        6 4 58.87                             129   -0.58 9  159 353 
 OCA  HZ I         6 5  2.99        14.3 0.20            130            159 353 
 ZAR  HZ EP        6 4 42.48                             121    0.36 9  204 292 
 ZAR  HN ES        6 5  7.40                             121    0.14 9  204 292 
 ZAR  HZ I         6 5 14.64         5.2 0.26            122            204 292 
 CHI  HE ES        6 5 16.95                             116   -0.08 8  251 195 
 CHI  HZ I         6 5 19.61         1.5 0.28            118            251 195 
 GUY2CHZ EP   4    6 4 54.64                             111    1.09 0  303 235 
 GUY2CHN ES        6 5 27.14                             111   -0.47 7  303 235 
 GUY2CHZ I         6 5 36.48         1.9 0.64                           303 235 
 MON  HZ EP   4    6 4 56.59                             108   -2.12 0  353 308 
 MON  HN ES   4    6 5 35.25                             108   -1.54 0  353 308 
 MON  HZ I         6 5 36.07         1.7 0.16            109            353 308 
                                                                                
