 2015  4 4 0520 48.6 L   6.523 -73.547110.0  RSN  9 0.5 1.5LRSN                1
 GAP= 68        1.29       3.8     4.5  8.2 -0.5314E+01  0.1104E+02 -0.4884E+01E
 Epicentro: EL CARMEN - SANTANDER                                              3
 ACTION:UPD 15-06-03 16:52 OP:cam  STATUS:               ID:20150404052048 L   I
 OLDACT:UP  15-04-04 18:11 OP:mh   STATUS:               ID:20150404051749d    3
 OLDACT:UP  15-04-04 18:11 OP:mh   STATUS:               ID:20150404051749d    3
 OLDACT:UP  15-04-04 16:32 OP:mh   STATUS:               ID:20150404051749d    3
 OLDACT:DUP 15-04-04 16:30 OP:mh   STATUS:               ID:20150404051749d    3
 OLDACT:REG 15-04-04 13:23 OP:mh   STATUS:               ID:20150404051748     3
 2015-04-04-0517-48M.COL___279                                                 6
 STAT SP IPHASW D HRMM SECON CODA AMPLIT PERI AZIMU VELO AIN AR TRES W  DIS CAZ7
 BAR2 EZ EP        521  5.25                             158    0.6410 41.1  79 
 BAR2 EZ ES        521 17.18                             158    0.0910 41.1  79 
 BRR  HZ EP        521  6.13                             146    0.3810 67.1 344 
 BRR  HN ES        521 19.66                             146    0.5410 67.1 344 
 BRR  HZ I         521 25.39         5.9 0.12            142           67.1 344 
 RUS  HZ EP        521  7.10                             139   -0.7910 86.6 144 
 RUS  HE ES        521 22.96                             139    0.0410 86.6 144 
 RUS  HZ I         521 23.84         3.1 0.20            148           86.6 144 
 PTB  HZ EP        521  8.02                             134   -0.3810  101 271 
 PTB  HN ES        521 22.87                             134   -0.9610  101 271 
 PTB  HZ I         521 27.56         8.5 0.26            134            101 271 
 SPBC HZ EP        521 10.03                             131    0.4510  112 211 
 SPBC HN ES        521 26.09                             131    0.1710  112 211 
 SPBC HZ I         521 33.27         8.8 0.24            136            112 211 
 PAM  SN ES        521 29.51                             127   -0.3510  130  46 
 ZAR  HZ EP        521 17.20                             117    0.82 9  180 307 
 ZAR  HN ES   4    521 40.12                             117    2.10 0  180 307 
 ZAR  HZ I         521 41.91         6.7 0.34            117            180 307 
 NOR  HZ EP   1    521 16.46                             117   -0.04 7  181 234 
 NOR  HN ES        521 38.33                             117    0.09 9  181 234 
 NOR  HZ I         521 43.12         3.8 0.14            120            181 234 
 OCA  HZ EP        521 17.34                             115   -0.46 9  191   8 
 OCA  HN ES        521 40.32                             115   -0.24 9  191   8 
 OCA  HZ I         522  4.66         8.3 0.44            116            191   8 
                                                                                
