 2016 12 4 0454 10.3 L   6.819 -73.192139.2  RSN  5 0.3 1.2LRSN                1
 GAP=239        0.83       5.9     6.0  6.5  0.1086E+02  0.1054E+02  0.3053E+01E
 Epicentro: ZAPATOCA - SANTANDER                                               3
 ACTION:UPD 17-01-11 20:12 OP:rebc STATUS:               ID:20161204045410 L   I
 OLDACT:UP  16-12-04 15:21 OP:dani STATUS:               ID:20161204044742     3
 OLDACT:UP  16-12-04 15:20 OP:dani STATUS:               ID:20161204044742     3
 OLDACT:UP  16-12-04 15:20 OP:dani STATUS:               ID:20161204044742     3
 OLDACT:UP  16-12-04 15:20 OP:dani STATUS:               ID:20161204044742     3
 OLDACT:REG 16-12-04 12:41 OP:dani STATUS:               ID:20161204044742     3
 2016-12-04-0448-00M.COL___349                                                 6
 STAT SP IPHASW D HRMM SECON CODA AMPLIT PERI AZIMU VELO AIN AR TRES W  DIS CAZ7
 BAR2 EZ EP        454 28.92                             169   -0.3110 25.1 178 
 BAR2 EZ ES        454 43.96                             169    0.0110 25.1 178 
 BRR  HZ EP        454 31.18                             153    0.7010 65.7 299 
 BRR  HE ES        454 46.01                             153   -0.1710 65.7 299 
 BRR  HZ I         454 50.48         3.3 0.12            147           65.7 299 
 PTB  HZ EP        454 36.06                             131   -0.31 9  143 258 
 PTB  HE ES        454 56.92                             131    0.26 9  143 258 
 PTB  HZ I         455  2.07         2.3 0.28            129            143 258 
 ZAR  HZ EP        454 41.80                             122    0.00 9  199 292 
 ZAR  HN ES   1    455  5.89                             122   -0.44 6  199 292 
 ZAR  HZ I         455 13.59         1.7 0.24            121            199 292 
 CHI  HN ES   1    455 16.93                             116   -0.04 6  249 194 
                                                                                
