 2012  3 4 0753 14.9 L   6.764 -73.188143.6  RSN  5 0.4 1.6LRSN                1
 GAP=230        0.83       6.5     6.1  7.6  0.6000E+01  0.1209E+02  0.4686E+01E
 ACTION:UP  12-03-31 23:16 OP:EP   STATUS:               ID:20120304075314 L   I
 2012-03-04-0750-00M.COL___191                                                 6
 STAT SP IPHASW D HRMM SECON CODA AMPLIT PERI AZIMU VELO SNR AR TRES W  DIS CAZ7
 BAR2 SZ EP        753 34.06                             172    -0.110   19 178 
 BAR2 SZ I         753 34.37         9.8 0.13                            19 178 
 BAR2 SZ ES   1    753 48.88                             172    -0.4 7   19 178 
 BRR  HZ EP        753 35.86                             153     0.210   69 303 
 BRR  HZ I         753 36.27         7.7 0.06                            69 303 
 BRR  HN ES   1    753 52.51                             153     0.6 7   69 303 
 RUS  HZ EP   1    753 38.02                             144    -0.2 7   97 173 
 RUS  HN ES   1    753 56.70                             144     0.3 7   97 173 
 RUS  HZ I         753 58.52         5.1 0.23                            97 173 
 PTB  HZ EP        753 41.08                             133    -0.1 9  142 260 
 PTB  HN ES   1    754  1.05                             133    -0.7 7  142 260 
 NOR  SZ EP   1    753 50.09                             119     0.2 6  229 235 
 NOR  SN ES   1    754 17.49                             119     0.4 6  229 235 
                                                                                
