 2016  1 4 0818  2.1 L   6.761 -73.112141.4  RSN  8 0.4 1.4LRSN                1
 GAP=143        1.12       4.7     4.8  7.6 -0.1357E+01  0.7962E+01  0.2904E+01E
 Epicentro: LOS SANTOS - SANTANDER                                             3
 ACTION:UPD 16-03-09 23:22 OP:cam  STATUS:               ID:20160104081802 L   I
 OLDACT:REG 16-01-04 13:16 OP:drio STATUS:               ID:20160104080745d    3
 2016-01-04-0807-44M.COL___311                                                 6
 STAT SP IPHASW D HRMM SECON CODA AMPLIT PERI AZIMU VELO AIN AR TRES W  DIS CAZ7
 BAR2 EZ EP        818 20.98                             171   -0.1410 20.2 203 
 BAR2 EZ ES        818 35.72                             171   -0.2610 20.2 203 
 BAR2 EZ I         818 38.19         3.4 0.20            169           20.2 203 
 BRR  HZ EP        818 23.10                             150    0.0310 76.5 300 
 BRR  HE ES        818 40.10                             150    0.6510 76.5 300 
 BRR  HZ I         818 44.35         5.9 0.12            148           76.5 300 
 PAM  EZ EP        818 23.64                             150   -0.2610 78.5  35 
 PAM  EE ES        818 40.80                             150   -0.1310 78.5  35 
 PAM  EZ I         818 41.84         3.8 0.34            153           78.5  35 
 RUS  HZ EP        818 25.63                             144    0.5510 96.1 178 
 RUS  HE ES        818 43.10                             144    0.0810 96.1 178 
 RUS  HZ I         818 45.14         2.4 0.28            147           96.1 178 
 PTB  HZ EP        818 28.25                             130   -0.71 9  151 261 
 PTB  HN ES        818 49.13                             130   -0.79 9  151 261 
 PTB  HZ I         818 52.78         3.0 0.10            130            151 261 
 SPBC HZ EP        818 30.55                             128    0.39 9  162 221 
 SPBC HN ES        818 52.13                             128    0.07 9  162 221 
 SPBC HZ I         818 56.84         3.3 0.22            129            162 221 
 ZAR  HZ EP   4    818 36.21                             121    1.44 0  209 293 
 ZAR  HE ES        819  0.81                             121    0.54 8  209 293 
 ZAR  HZ I         819  8.17         1.7 0.12            121            209 293 
 SML  HZ EP   4    818 37.53                             116   -1.53 0  249 335 
 SML  HN ES   4    819  4.80                             116   -3.11 0  249 335 
 SML  HZ I         819 10.34         3.5 0.10            117            249 335 
                                                                                
