 2011  2 4 0810 57.2 L   6.780 -73.193144.0  RSN  5 0.2 1.2LRSN                1
 GAP=154        0.47       4.6    16.7  6.2 -0.5108E+02  0.7167E+01  0.8159E+00E
 Epicentro: LOS SANTOS - SANTANDER                                             3
 ACTION:UP  11-03-28 15:05 OP:jfem STATUS:               ID:20110204081057 L   I
 2011-02-04-0808-56S.COL___138                                                 6
 STAT SP IPHASW D HRMM SECON CODA AMPLIT PERI AZIMU VELO SNR AR TRES W  DIS CAZ7
 BTL  SZ EP   1    811 16.44                             173    -0.1 7   17 332 
 BTL  SZ ES   2    811 32.04                             173     0.4 5   17 332 
 BAR2 SZ EP   1    811 16.40                             171    -0.2 7   21 177 
 BAR2 SZ ES   2    811 31.48                             171    -0.2 5   21 177 
 BAR2 SZ I         811 34.06         4.5 0.44                            21 177 
 RUS  HZ EP   2    811 20.76                             144     0.1 5   99 173 
 RUS  HN ES   2    811 39.19                             144     0.2 5   99 173 
 RUS  HZ I         811 40.66         2.9 0.36                            99 173 
 GRA  SZ EP   2    811 23.07                             136     0.4 5  129  19 
 GRA  SZ ES   1    811 42.39                             136    -0.1 7  129  19 
 GRA  SZ I         811 43.78         3.0 0.26                           129  19 
 CHI  HZ EP   2    811 34.60                             117     0.1 4  245 194 
 CHI  HZ I         811 41.19         0.8 0.50                           245 194 
                                                                                
