 2010  5 4 0604 38.9 L   6.857 -73.265138.0  RSN  5 0.2 1.7LRSN                1
 GAP=150        0.47       6.8    14.5 12.8 -0.2745E+02  0.8171E+02  0.4062E+02E
 Epicentro: ZAPATOCA - SANTANDER                                               3
 ACTION:UP  10-08-24 10:02 OP:vdl  STATUS:               ID:20100504060438 L   I
 2010-05-04-0602-59S.COL___105                                                 6
 STAT SP IPHASW D HRMM SECON CODA AMPLIT PERI AZIMU VELO AIN AR TRES W  DIS CAZ7
 BAR2 SZ EP   2    6 4 57.50                             167    -0.2 5   31 163 
 BRI  SZ EP   2    6 5  1.99                             140     0.0 5  108  28 
 BRI  SZ ES   1    6 5 20.37                             140     0.3 7  108  28 
 GRA  SZ EP   1    6 5  3.31                             136     0.0 7  125  24 
 GRA  SZ ES   1    6 5 22.10                             136    -0.3 7  125  24 
 OCA  SZ ES   2    6 5 26.99                             129     0.0 5  153 358 
 OCA  SZ I         6 5 34.59         4.4 0.37                           153 358 
 PRA  HZ EP   2    6 5 32.40                             105     0.4 3  391 207 
 PRA  HZ I         6 6 20.38         2.0 0.14                           391 207 
                                                                                
