 2010  5 4 0909 50.0 L   6.749 -73.026142.6  RSN  8 0.4 2.4LRSN                1
 GAP=150        0.97       6.2     9.3  8.1 -0.3224E+02 -0.2814E+02  0.1738E+02E
 Epicentro: CEPITA - SANTANDER                                                 3
 ACTION:UP  10-08-24 10:02 OP:vdl  STATUS:               ID:20100504090950 L   I
 2010-05-04-0906-14S.COL___105                                                 6
 STAT SP IPHASW D HRMM SECON CODA AMPLIT PERI AZIMU VELO AIN AR TRES W  DIS CAZ7
 BAR2 SZ IP        910  9.22                             169    -0.110   25 225 
 BAR2 SZ ES   1    910 24.03                             169    -0.3 7   25 225 
 BRR  HZ IP     C  910 11.67                             146    -0.110   86 298 
 BRR  HN ES   1    910 28.68                             146     0.0 7   86 298 
 BRR  HZ I         910 30.97        75.4 0.16                            86 298 
 BRI  SZ IP        910 13.72                             140     0.010  110  13 
 BRI  SZ ES   1    910 32.10                             140    -0.2 7  110  13 
 GRA  SZ IP        910 15.98                             136     0.810  128  11 
 CHI  HZ EP        910 27.23                             116    -0.2 8  247 198 
 CHI  HN ES   2    910 57.37                             116     0.8 4  247 198 
 CHI  HZ I         911  4.23        18.6 0.28                           247 198 
 HEL  HZ EP   2    910 30.43                             113    -1.0 4  284 258 
 HEL  HZ I         911  7.11        12.7 0.12                           284 258 
 RREF BZ EP   1    910 37.32                             110     0.5 5  328 232 
 SDV  BZ EP        910 38.57                             108    -0.7 6  354  48 
 SDV  BZ I         911 22.26         4.1 0.52                           354  48 
                                                                                
