 2012  2 4 0756 34.7 L   6.727 -73.180147.3  RSN  9 0.4 1.7LRSN                1
 GAP=175        0.76       4.4     4.6  8.1  0.4628E+01  0.4900E+01  0.8647E+01E
 ACTION:UP  12-03-07 16:27 OP:epov STATUS:               ID:20120204075634 L   I
 2012-02-04-0750-00M.COL___188                                                 6
 STAT SP IPHASW D HRMM SECON CODA AMPLIT PERI AZIMU VELO SNR AR TRES W  DIS CAZ7
 BAR2 SZ EP   1    756 54.31                             174   -0.12 7 14.9 181 
 BAR2 SZ I         757 11.13        11.6 0.22                          14.9 181 
 GIR2 SZ EP   1    756 54.55                             164   -0.28 7 38.9 358 
 BRR  HZ EP   1    756 56.33                             152    0.20 7 72.2 306 
 BRR  HE ES   1    757 13.42                             152    0.62 7 72.2 306 
 BRR  HZ I         757 15.87         9.8 0.11                          72.2 306 
 RUS  HZ EP   1    756 58.20                             146    0.08 7 92.9 173 
 RUS  HN ES   1    757 15.78                             146   -0.57 7 92.9 173 
 RUS  HZ I         757 18.69         7.1 0.41                          92.9 173 
 PTB  HZ EP   1    757  1.04                             133   -0.35 7  143 262 
 PTB  HN ES   1    757 22.02                             133   -0.14 7  143 262 
 ZAR  HN ES   1    757 32.78                             123    0.15 6  204 295 
 NOR  SZ EP   1    757  9.52                             120   -0.22 6  227 236 
 NOR  SN ES   1    757 37.33                             120    0.29 6  227 236 
 CHI  HZ EP   1    757 12.22                             118    0.63 6  240 195 
 CHI  HN ES   1    757 40.89                             118    0.57 6  240 195 
 CHI  HZ I         757 49.77         3.2 0.54                           240 195 
 HEL  HN ES   1    757 44.62                             116   -0.75 6  266 257 
 HEL  HZ I         757 52.45         3.5 0.26                           266 257 
                                                                                
