 2017  9 4 0842 16.5 L   6.788 -73.166138.0  RSN  4 0.8 1.2LRSN                1
 GAP=244        1.58      11.0    16.7 18.8  0.6519E+02  0.1736E+03  0.4308E+02E
 Epicentro: LOS SANTOS - SANTANDER                                             3
 ACTION:UPD 17-10-05 19:09 OP:rebc STATUS:               ID:20170904084216 L   I
 OLDACT:DUP 17-09-04 18:15 OP:dnl  STATUS:               ID:20170904083739d    3
 OLDACT:UP  17-09-04 18:15 OP:dnl  STATUS:               ID:20170904083738     3
 OLDACT:UP  17-09-04 18:14 OP:dnl  STATUS:               ID:20170904083738     3
 OLDACT:UP  17-09-04 18:13 OP:dnl  STATUS:               ID:20170904083738     3
 OLDACT:REG 17-09-04 12:54 OP:dnl  STATUS:               ID:20170904083738     3
 2017-09-04-0838-00M.COL___408                                                 6
 STAT SP IPHASW D HRMM SECON CODA AMPLIT PERI AZIMU VELO AIN AR TRES W  DIS CAZ7
 BAR2 EZ EP   2    842 34.89                             171   -0.24 5 21.7 185 
 BAR2 EZ ES        842 49.14                             171   -0.5510 21.7 185 
 BAR2 EZ I         842 51.06         2.8 0.38            162           21.7 185 
 BRR  HZ EP   2    842 36.21                             152   -0.50 5 69.9 300 
 BRR  HE ES        842 53.53                             152    1.0410 69.9 300 
 BRR  HZ I         842 57.82         3.1 0.56            147           69.9 300 
 SPBC HZ EP   2    842 43.87                             128   -0.27 5  161 219 
 SPBC HN ES        843  6.01                             128    0.28 9  161 219 
 SPBC HZ I         843 13.43         2.4 0.22            126            161 219 
 ZAR  HZ EP   2    842 49.96                             121    1.71 4  202 293 
 ZAR  HN ES        843 11.96                             121   -1.09 9  202 293 
 ZAR  HZ I         843 18.16         1.9 0.54            121            202 293 
                                                                                
