 2010  8 4 0520 42.8 L   6.779 -73.031143.1  RSN  9 0.4 1.8LRSN                1
 GAP=172        0.96       4.9     9.7  8.2 -0.8690E+01 -0.9235E+01 -0.9009E+01E
 Epicentro: CEPITA - SANTANDER                                                 3
 ACTION:UP  10-09-07 10:52 OP:vdl  STATUS:               ID:20100804052042 L   I
 2010-08-04-0518-59S.COL___125                                                 6
 STAT SP IPHASW D HRMM SECON CODA AMPLIT PERI AZIMU VELO SNR AR TRES W  DIS CAZ7
 BAR2 SZ EP        521  2.30                             169     0.210   27 219 
 BAR2 SZ ES   1    521 16.18                             169    -1.1 7   27 219 
 BAR2 SZ I         521 19.01        11.1 0.20                            27 219 
 BTL  SZ EP        521  2.45                             167     0.210   30 301 
 BTL  SZ ES   2    521 18.06                             167     0.6 5   30 301 
 BRR  HZ IP     C  521  4.20                             148    -0.210   84 296 
 BRR  HZ I         521  4.46        20.7 0.16                            84 296 
 BRR  HE ES   1    521 21.55                             148     0.3 7   84 296 
 RUS  HZ EP   1    521  6.25                             144     0.2 7   98 183 
 RUS  HN ES   1    521 24.38                             144     0.1 7   98 183 
 RUS  HZ I         521 26.15         5.4 0.42                            98 183 
 GUE  SZ EP   1    521  7.37                             139     0.1 7  117   6 
 GRA  SZ EP   1    521  7.88                             136     0.2 7  125  12 
 GRA  SZ ES   1    521 27.39                             136     0.3 7  125  12 
 GRA  SZ I         521 28.74         7.5 0.32                           125  12 
 OCA  SZ EP        521 10.73                             128    -0.5 9  165 349 
 OCA  SZ ES   3    521 33.27                             128    -0.2 2  165 349 
 OCA  SZ I         521 38.46         7.3 0.28                           165 349 
 RREF HN ES   2    522  6.74                             110     0.4 3  330 231 
 RREF HZ I         522 10.60         3.6 0.37                           330 231 
 PRA  HE ES   3    522 18.07                             106    -0.7 1  396 211 
 PRA  HZ I         522 21.98         2.8 0.49                           396 211 
                                                                                
