 2012  1 4 0431 33.8 L   6.853 -73.315124.7  RSN  7 0.2 2.0LRSN                1
 GAP=102        0.50       2.9     3.1  4.7 -0.1933E-01 -0.5161E+00 -0.1960E+01E
 Epicentro: ZAPATOCA - SANTANDER                                               3
 ACTION:UP  12-02-03 08:13 OP:REBC STATUS:               ID:20120104043133 L   I
 2012-01-04-0430-00M.COL___183                                                 6
 STAT SP IPHASW D HRMM SECON CODA AMPLIT PERI AZIMU VELO SNR AR TRES W  DIS CAZ7
 BAR2 SZ EP   1    431 51.01                             165    -0.1 7   32 153 
 BAR2 SZ ES   1    432  4.37                             165    -0.3 7   32 153 
 BAR2 SZ I         432  5.44        25.7 0.25                            32 153 
 BRR  HZ EP   1    431 51.40                             156    -0.2 7   52 303 
 BRR  HZ I         431 51.65        19.0 0.10                            52 303 
 BRR  HE ES   1    432  5.76                             156     0.3 7   52 303 
 PAM  SZ EP        431 54.58                             143     0.110   87  52 
 PAM  SN ES   1    432 10.74                             143     0.2 7   87  52 
 RUS  HZ EP   1    431 56.32                             136     0.1 7  109 166 
 RUS  HN ES   2    432 13.84                             136     0.1 5  109 166 
 PTB  HN ES   2    432 15.86                             130    -0.1 5  131 255 
 OCA  SZ EP   1    431 59.80                             126     0.0 7  153 360 
 OCA  SZ ES   2    432 19.50                             126    -0.7 5  153 360 
 OCA  SZ I         432 22.37        15.2 0.47                           153 360 
 ZAR  HE ES   2    432 25.82                             120     0.3 4  185 293 
                                                                                
