 2013  9 4 0458 24.0 L   6.749 -73.141150.9  RSN  5 0.3 1.5LRSN                1
 GAP=234        0.63       4.1     5.0  5.4  0.2170E+01  0.2254E+01  0.4046E+01E
 Epicentro: LOS SANTOS - SANTANDER                                             3
 ACTION:UPD 13-10-22 09:19 OP:ep   STATUS:               ID:20130904045824 L   I
 OLDACT:UP  13-09-04 10:51 OP:cam  STATUS:               ID:20130904044960d    3
 OLDACT:DUP 13-09-04 10:48 OP:cam  STATUS:               ID:20130904044960d    3
 OLDACT:UP  13-09-04 10:48 OP:cam  STATUS:               ID:20130904044959     3
 OLDACT:REG 13-09-04 08:52 OP:cam  STATUS:               ID:20130904044959     3
 2013-09-04-0449-59M.COL___269                                                 6
 STAT SP IPHASW D HRMM SECON CODA AMPLIT PERI AZIMU VELO AIN AR TRES W  DIS CAZ7
 BAR2 SZ EP   1    458 43.91                             173   -0.20 7 17.9 195 
 BAR2 SZ ES        458 59.64                             173   -0.1910 17.9 195 
 BAR2 SZ I         459  0.59         5.2 0.22            168           17.9 195 
 BRR  HZ EP        458 45.66                             152   -0.1910 74.5 302 
 BRR  HN ES        459  3.30                             152    0.3810 74.5 302 
 BRR  HZ I         459  4.34         5.0 0.62            152           74.5 302 
 RUS  HZ EP   1    458 47.84                             146    0.01 7 94.9 176 
 RUS  HN ES   1    459  6.54                             146    0.10 7 94.9 176 
 RUS  HN I         459  8.17         6.5 0.20            145           94.9 176 
 PTB  HN ES   1    459 12.15                             133   -0.49 7  147 261 
 SPBC HZ EP        458 52.80                             131    0.32 9  159 220 
 SPBC HN ES        459 14.77                             131    0.03 9  159 220 
 SPBC HZ I         459 19.78         5.6 0.20            130            159 220 
                                                                                
