 2015  5 4 0956  2.3 L   6.979 -73.119149.0  RSN 10 0.4 1.9LRSN                1
 GAP=140        1.03       3.8     4.7  6.1 -0.5434E+01  0.1182E+02 -0.2050E+01E
 Epicentro: PIEDECUESTA - SANTANDER                                            3
 ACTION:UPD 15-09-10 22:01 OP:cam  STATUS:               ID:20150504095602 L   I
 OLDACT:REG 15-05-04 13:56 OP:drio STATUS:               ID:20150504094741     3
 2015-05-04-0947-41M.COL___274                                                 6
 STAT SP IPHASW D HRMM SECON CODA AMPLIT PERI AZIMU VELO AIN AR TRES W  DIS CAZ7
 BAR2 EZ EP        956 22.73                             163   -0.1910 43.4 189 
 BAR2 EZ ES        956 38.47                             163   -0.5010 43.4 189 
 BAR2 EZ I         956 39.92        12.2 0.38            163           43.4 189 
 PAM  SZ EP        956 24.66                             157    0.6210 61.1  49 
 PAM  SN ES        956 40.79                             157   -0.1710 61.1  49 
 PAM  SZ I         956 43.39        14.5 0.28            162           61.1  49 
 BRR  HZ EP        956 24.08                             154    0.4510 67.1 282 
 BRR  HN ES        956 41.03                             154    0.8110 67.1 282 
 BRR  HZ I         956 43.43        14.9 0.26            152           67.1 282 
 OCA  HZ EP        956 29.04                             134   -0.14 9  141 351 
 OCA  HE ES        956 49.67                             134   -0.44 9  141 351 
 OCA  HZ I         956 54.29        16.5 0.14            136            141 351 
 ZAR  HZ EP        956 34.49                             124   -0.13 9  200 287 
 ZAR  HN ES        956 59.39                             124   -0.41 9  200 287 
 ZAR  HZ I         957  4.88        11.8 0.30            124            200 287 
 SML  HZ EP        956 37.14                             120   -0.26 8  227 333 
 SML  HN ES        957  4.99                             120    0.25 8  227 333 
 SML  HZ I         957  8.41        13.8 0.26            122            227 333 
 NOR  HZ EP   1    956 39.76                             118   -0.05 6  249 231 
 NOR  HN ES        957  8.42                             118   -0.61 8  249 231 
 NOR  HZ I         957 20.61         3.9 0.18            119            249 231 
 HEL  HN ES        957 16.36                             115    0.49 7  280 252 
 HEL  HZ I         957 22.45         3.3 0.44            116            280 252 
 GUY2CHZ EP        956 48.22                             112    0.51 7  315 232 
 GUY2CHN ES        957 22.97                             112   -0.12 7  315 232 
 GUY2CHZ I         957 35.61         1.9 0.56                           315 232 
 MON  HZ EP        956 49.99                             110   -0.39 7  344 305 
 MON  HN ES   4    957 26.20                             110   -1.65 0  344 305 
 MON  HZ I         957 27.10         2.9 0.78            111            344 305 
                                                                                
