 2010  3 4 0422 17.7 L   6.805 -72.993139.8  RSN 10 0.4 2.3LRSN                1
 GAP=198        0.83       3.2     6.5  5.4  0.1208E+01  0.5800E+01  0.2056E+01E
 Epicentro: CEPITA - SANTANDER                                                 3
 ACTION:UP  10-08-24 09:51 OP:vdl  STATUS:               ID:20100304042217 L   I
 2010-03-04-0419-22S.COL___096                                                 6
 STAT SP IPHASW D HRMM SECON CODA AMPLIT PERI AZIMU VELO SNR AR TRES W  DIS CAZ7
 BAR2 SZ EP        422 37.14                             167     0.310   32 222 
 BAR2 SZ ES   1    422 51.55                             167    -0.2 7   32 222 
 BRR  HZ IP        422 39.07                             146    -0.110   86 293 
 BRR  HZ I         422 39.50        81.5 0.21                            86 293 
 BRR  HN ES        422 56.05                             146     0.110   86 293 
 RUS  BZ EP        422 41.09                             142     0.110  101 186 
 RUS  BN ES        422 58.92                             142    -0.210  101 186 
 RUS  BZ I         423  0.30        31.8 0.24                           101 186 
 OCA  SZ EP        422 45.89                             128     0.1 9  163 347 
 OCA  SZ ES   1    423  7.69                             128     0.0 7  163 347 
 CHI  HZ EP        422 55.46                             115    -0.3 8  254 199 
 CHI  HN ES   1    423 24.98                             115    -0.4 6  254 199 
 CHI  HZ I         423 27.84         8.2 0.17                           254 199 
 ROSC BZ EP   1    422 57.33                             114     0.7 6  262 214 
 ROSC BZ I         423 30.84         7.9 0.23                           262 214 
 HEL  HZ EP   1    422 58.94                             112    -0.6 5  289 257 
 HEL  HZ I         423 36.61        11.9 0.55                           289 257 
 RREF BZ EP   1    423  5.79                             109     0.6 5  335 231 
 RREF BN ES        423 42.56                             109     0.4 7  335 231 
 RREF BZ I         423 49.82        13.7 0.07                           335 231 
 TOL  SZ EP   1    423  7.23                             107     0.0 5  356 227 
 DBB  SZ EP   1    423  5.68                             107    -1.3 5  356 274 
                                                                                
