 2012  9 4 0453 35.3 L   6.773 -73.135142.6  RSN  6 0.3 1.6LRSN                1
 GAP=188        0.68       6.0     5.9  7.2  0.1537E+02  0.1553E+02  0.5094E+01E
 Epicentro: LOS SANTOS - SANTANDER                                             3
 ACTION:UPD 12-10-22 14:17 OP:ep   STATUS:               ID:20120904045335 L   I
 2012-09-04-0450-00M.COL___218                                                 6
 STAT SP IPHASW D HRMM SECON CODA AMPLIT PERI AZIMU VELO AIN AR TRES W  DIS CAZ7
 BAR2 SZ EP        453 54.28                             171   -0.2310 20.7 195 
 BAR2 SZ ES   1    454  9.08                             171   -0.41 7 20.7 195 
 BAR2 SZ I         454 10.31        10.6 0.15                          20.7 195 
 GIR2 SZ ES   1    454 10.05                             166    0.22 7 34.4 349 
 BRR  HZ EP   1    453 56.11                             151   -0.16 7 73.7 300 
 BRR  HZ I         453 56.55         6.4 0.10                          73.7 300 
 BRR  HE ES   1    454 12.82                             151    0.20 7 73.7 300 
 RUS  HN ES   1    454 17.14                             144    0.49 7 97.5 177 
 PTB  HZ EP   1    454  2.37                             131    0.28 7  148 260 
 PTB  HE ES   1    454 22.49                             131   -0.48 7  148 260 
 ZAR  HN ES   1    454 33.45                             121    0.33 6  206 293 
                                                                                
