 2014  5 4 0914  8.3 L   6.809 -73.184138.0  RSN  8 0.4 2.2LRSN                1
 GAP=144        0.79       3.7     3.6  6.5 -0.3497E+01  0.7731E+01  0.5176E+01E
 Epicentro: ZAPATOCA - SANTANDER                                               3
 ACTION:UPD 15-03-16 16:55 OP:nd   STATUS:               ID:20140504091408 L   I
 OLDACT:UP  14-05-04 18:13 OP:mh   STATUS:               ID:20140504091000     3
 OLDACT:REG 14-05-04 13:10 OP:mh   STATUS:               ID:20140504091000     3
 2014-05-04-0910-00M.COL___273                                                 6
 STAT SP IPHASW D HRMM SECON CODA AMPLIT PERI AZIMU VELO AIN AR TRES W  DIS CAZ7
 PAM  SZ EP        914 29.88                             149    0.0810 79.4  42 
 PAM  SN ES        914 46.82                             149    0.2410 79.4  42 
 PAM  SZ I         914 49.76        17.6 0.75            153           79.4  42 
 RUS  HZ EP        914 31.00                             142   -0.3710  102 174 
 RUS  HN ES        914 49.19                             142   -0.2010  102 174 
 RUS  HZ I         914 50.77        21.8 0.25            144            102 174 
 PTB  HZ EP   1    914 34.07                             131   -0.18 7  144 258 
 PTB  HN ES        914 54.33                             131   -0.18 9  144 258 
 PTB  HZ I         914 57.62        22.7 0.14            132            144 258 
 NOR  HZ EP        914 43.32                             117    0.07 8  232 234 
 NOR  HN ES        915 10.66                             117    0.13 8  232 234 
 NOR  HZ I         915 15.44        14.4 0.25            118            232 234 
 CHI  HZ EP        914 45.00                             115   -0.54 8  249 194 
 CHI  HN ES        915 15.49                             115    0.89 8  249 194 
 CHI  HZ I         915 20.22         7.6 0.18            117            249 194 
 ROSC BZ EP   4    914 46.85                             115    1.02 0  251 210 
 ROSC BN ES   4    915 17.59                             115    2.46 0  251 210 
 HEL  HZ EP   4    914 49.19                             114    1.53 0  268 255 
 HEL  HN ES        915 18.32                             114   -0.07 8  268 255 
 HEL  HZ I         915 25.85         9.5 0.20            115            268 255 
 PTGC HZ EP   4    914 50.12                             110   -1.96 0  311 158 
 PTGC HN ES   4    915 22.27                             110   -3.98 0  311 158 
 CBOC HZ EP   1    914 55.29                             109    0.85 5  330 252 
 CBOC HN ES   4    915 28.25                             109   -2.20 0  330 252 
 ORTC HZ EP        915  1.59                             105   -0.15 6  394 216 
 ORTC HN ES   2    915 43.53                             105    0.09 3  394 216 
 ORTC HZ I         915 48.65         6.6 0.25            107            394 216 
 SJC  HZ EP   4    915  1.13                             105   -2.09 0  406 327 
 SJC  HN ES   4    915 42.15                             105   -3.92 0  406 327 
                                                                                
