 2017  5 4 0901 40.0 L   6.827 -73.175150.3  RSN 16 0.4 2.1LRSN                1
 GAP=108        0.92       2.9     3.0  5.7  0.5343E+00  0.2924E+01  0.1623E+01E
 Epicentro: ZAPATOCA - SANTANDER                                               3
 ACTION:UPD 17-06-16 13:32 OP:jn   STATUS:               ID:20170504090140 L   I
 OLDACT:UP  17-05-04 18:34 OP:edw  STATUS:               ID:20170504085740     3
 OLDACT:UP  17-05-04 15:51 OP:osc  STATUS:               ID:20170504085740     3
 OLDACT:UP  17-05-04 15:49 OP:osc  STATUS:               ID:20170504085740     3
 OLDACT:UP  17-05-04 15:42 OP:osc  STATUS:               ID:20170504085740     3
 OLDACT:REG 17-05-04 13:13 OP:edw  STATUS:               ID:20170504085740     3
 2017-05-04-0858-00M.COL___365                                                 6
 STAT SP IPHASW D HRMM SECON CODA AMPLIT PERI AZIMU VELO AIN AR TRES W  DIS CAZ7
 BRR  HZ IP     C  9 2  1.73                             155    0.3410 66.9 298 
 BRR  HN ES        9 2 18.83                             155    0.7410 66.9 298 
 BRR  HZ I         9 2 19.55        30.0 0.14            151           66.9 298 
 PAM  EZ EP        9 2  2.93                             152    0.2610 77.2  43 
 PAM  EE ES        9 2 20.14                             152   -0.2310 77.2  43 
 PAM  EZ I         9 2 22.15        48.3 0.50            156           77.2  43 
 RUS  HZ EP        9 2  3.90                             144   -0.5110  104 174 
 RUS  HE ES        9 2 23.08                             144   -0.3910  104 174 
 RUS  HZ I         9 2 23.72        15.9 0.30            144            104 174 
 PTB  HZ EP        9 2  6.82                             134   -0.27 9  145 257 
 PTB  HN ES        9 2 27.71                             134   -0.53 9  145 257 
 PTB  HZ I         9 2 35.03        14.8 0.40            131            145 257 
 SPBC HZ EP        9 2  8.92                             130    0.06 9  164 217 
 SPBC HN ES        9 2 31.08                             130   -0.31 9  164 217 
 SPBC HZ I         9 2 35.80        22.6 0.22            129            164 217 
 YPLC HZ EP        9 2 10.39                             127   -0.13 9  181 151 
 YPLC HE ES        9 2 34.69                             127    0.36 9  181 151 
 YPLC HZ I         9 2 35.45         9.1 0.22            129            181 151 
 ZAR  HZ EP        9 2 12.69                             124    0.38 9  200 292 
 ZAR  HE ES        9 2 37.22                             124   -0.30 9  200 292 
 ZAR  HZ I         9 2 44.77        20.8 0.38            123            200 292 
 NOR  HZ EP   4    9 2 16.98                             119    1.09 0  234 233 
 NOR  HN ES        9 2 43.90                             119    0.01 8  234 233 
 NOR  HZ I         9 2 50.03         5.0 0.15            119            234 233 
 CHI  HZ EP   2    9 2 18.54                             118    0.38 4  251 194 
 CHI  HN ES   2    9 2 47.78                             118   -0.16 4  251 194 
 ROSC BZ EP   4    9 2 19.74                             117    1.29 0  254 210 
 ROSC BN ES        9 2 49.34                             117    0.88 8  254 210 
 ROSC BZ I         9 2 53.79        16.7 0.40            117            254 210 
 HEL  HZ EP   2    9 2 20.86                             116    0.69 4  270 255 
 HEL  HN ES        9 2 51.45                             116   -0.06 8  270 255 
 HEL  HZ I         9 2 58.34         5.0 0.26            115            270 255 
 PTGC HZ EP   4    9 2 22.91                             112   -1.58 0  313 158 
 PTGC HE ES   4    9 2 54.31                             112   -4.90 0  313 158 
 PTGC HZ I         9 2 59.07        10.4 0.44            113            313 158 
 CBOC HZ EP   4    9 2 28.87                             111    2.03 0  331 251 
 CBOC HE ES   4    9 3  4.72                             111    1.33 0  331 251 
 CBOC HZ I         9 3 12.59         1.5 0.22            111            331 251 
 DBB  EE ES   4    9 3  3.09                             110   -1.03 0  336 274 
 ARGC HE ES   2    9 3  7.96                             109    0.08 3  355 341 
 ORTC HZ EP   2    9 2 34.23                             107    0.11 3  396 216 
 ORTC HN ES   4    9 3 18.12                             107    1.77 0  396 216 
 ORTC HZ I         9 3 23.33         4.6 0.44            107            396 216 
 SJC  HZ EP        9 2 34.60                             107   -0.59 6  405 327 
 SJC  HE ES   4    9 3 15.23                             107   -3.03 0  405 327 
 SJC  HZ I         9 3 19.88         2.6 0.28            107            405 327 
                                                                                
