 2012  2 4 0925 11.6 L   6.790 -73.173140.8  RSN 12 0.4 2.3LRSN                1
 GAP=134        0.87       3.7     4.3  6.2 -0.1692E+01  0.7195E+01  0.3379E+01E
 ACTION:UP  12-03-07 16:27 OP:epov STATUS:               ID:20120204092511 L   I
 2012-02-04-0920-00M.COL___188                                                 6
 STAT SP IPHASW D HRMM SECON CODA AMPLIT PERI AZIMU VELO SNR AR TRES W  DIS CAZ7
 BAR2 SZ EP        925 30.87                             171    0.2710 21.9 183 
 BAR2 SZ ES   1    925 44.89                             171   -0.53 7 21.9 183 
 BAR2 SZ I         925 46.94        79.2 0.28                          21.9 183 
 GIR2 SZ EP        925 30.90                             166    0.2110 32.0 356 
 BRR  HZ EP        925 32.65                             152    0.5710 69.1 301 
 BRR  HZ I         925 32.91       145.1 0.12                          69.1 301 
 BRR  HN ES   1    925 48.87                             152    0.80 7 69.1 301 
 PAM  SZ EP   1    925 33.73                             149    0.28 7 80.2  41 
 PAM  SN ES   1    925 50.07                             149   -0.43 7 80.2  41 
 PAM  SZ I         925 53.40        27.1 0.53                          80.2  41 
 RUS  HZ EP   1    925 33.97                             143   -0.82 7 99.8 174 
 RUS  HN ES   1    925 53.13                             143    0.23 7 99.8 174 
 RUS  HZ I         925 55.28        18.3 0.33                          99.8 174 
 PTB  HZ EP        925 37.35                             132   -0.52 9  145 259 
 PTB  HN ES   1    925 57.88                             132   -0.48 7  145 259 
 OCA  SZ EP   1    925 39.18                             128   -0.41 7  161 354 
 ZAR  HZ EP   1    925 43.38                             122   -0.09 6  202 293 
 ZAR  HN ES   1    926  7.97                             122   -0.36 6  202 293 
 ZAR  HZ I         926 15.03        18.7 0.27                           202 293 
 NOR  SZ EP   1    925 46.92                             118    0.22 6  232 234 
 NOR  SN ES   1    926 14.42                             118    0.33 6  232 234 
 CHI  HZ EP   1    925 49.05                             116    0.23 6  247 195 
 CHI  HN ES   1    926 17.79                             116   -0.06 6  247 195 
 CHI  HZ I         926 20.92         8.2 0.33                           247 195 
 HEL  HN ES   2    926 21.80                             114   -0.29 4  269 256 
 HEL  HZ I         926 30.31        11.3 0.43                           269 256 
 PRA  HZ EP   1    926  4.92                             106    0.26 4  390 209 
 PRA  HN ES   1    926 46.13                             106    0.08 4  390 209 
                                                                                
