 2013  6 4 0325 23.9 L   6.925 -73.340154.0  RSN  4 0.2 1.7LRSN                1
 GAP=250        0.44       5.8     9.2  6.7 -0.3363E+02 -0.1104E+02  0.8276E+01E
 Epicentro: BETULIA - SANTANDER                                                3
 ACTION:UPD 14-01-08 09:52 OP:ep   STATUS:               ID:20130604032523 L   I
 2013-06-04-0320-00M.COL___257                                                 6
 STAT SP IPHASW D HRMM SECON CODA AMPLIT PERI AZIMU VELO AIN AR TRES W  DIS CAZ7
 BRR  HZ EP   1    325 44.95                             162    0.20 7 45.8 296 
 BRR  HN ES   1    326  0.86                             162   -0.18 7 45.8 296 
 BRR  HN I         326  2.38        12.0 0.32            140           45.8 296 
 PTB  HZ EP   1    325 49.95                             137   -0.09 7  131 251 
 PTB  HN ES   1    326 10.71                             137    0.24 7  131 251 
 PTB  HN I         326 16.14         5.4 0.34            123            131 251 
 SML  HN ES   2    326 25.81                             122   -0.13 4  223 339 
 SML  HN I         326 31.65         6.5 0.10            113            223 339 
 NOR  HE ES   2    326 26.39                             121   -0.41 4  227 228 
 NOR  HE I         326 34.26         3.2 0.26            113            227 228 
                                                                                
