 2010  8 4 0432 38.4 L   6.781 -73.120144.0  RSN  4 0.2 1.9LRSN                1
 GAP=167        0.45       4.2     8.9  6.8  0.1579E+02 -0.2512E+02 -0.6005E+01E
 Epicentro: LOS SANTOS - SANTANDER                                             3
 ACTION:UP  10-09-07 10:52 OP:vdl  STATUS:               ID:20100804043238 L   I
 2010-08-04-0431-31S.COL___126                                                 6
 STAT SP IPHASW D HRMM SECON CODA AMPLIT PERI AZIMU VELO SNR AR TRES W  DIS CAZ7
 BTL  SZ EP        432 57.65                             171    -0.110   22 313 
 BTL  SZ ES   2    433 12.77                             171    -0.1 5   22 313 
 BRR  HZ EP        432 59.35                             151    -0.210   75 299 
 BRR  HN ES   2    433 16.31                             151     0.3 5   75 299 
 RUS  HZ EP        433  1.97                             144     0.210   98 178 
 RUS  HN ES   2    433 19.83                             144    -0.2 5   98 178 
 RUS  HZ I         433 27.37        13.2 0.52                            98 178 
 GUE  SZ EP   1    433  3.16                             139     0.1 7  118  11 
                                                                                
