 2013  8 4 0832 54.3 L   6.759 -73.155142.5  RSN 12 0.5 2.0LRSN                1
 GAP=196        1.04       3.1     5.2  6.2 -0.2269E+01  0.4927E+01  0.3227E+01E
 Epicentro: LOS SANTOS - SANTANDER                                             3
 ACTION:UPD 14-01-14 08:58 OP:ep   STATUS:               ID:20130804083254 L   I
 OLDACT:REG 13-08-04 07:48 OP:carl STATUS:               ID:20130804082959     3
 2013-08-04-0829-59M.COL___270                                                 6
 STAT SP IPHASW D HRMM SECON CODA AMPLIT PERI AZIMU VELO AIN AR TRES W  DIS CAZ7
 BAR2 SZ EP        833 13.43                             172    0.0210 18.6 189 
 BAR2 SZ ES   1    833 28.24                             172   -0.11 7 18.6 189 
 BAR2 SZ I         833 29.55        21.8 0.20            168           18.6 189 
 GIR2 SZ IP        833 13.83                             165    0.1610 35.7 353 
 GIR2 SZ ES   1    833 28.72                             165   -0.10 7 35.7 353 
 GIR2 SZ I         833 31.03        13.4 0.48            161           35.7 353 
 BRR  HZ IP     D  833 15.61                             151    0.4710 72.6 302 
 BRR  HN ES        833 32.17                             151    0.7410 72.6 302 
 BRR  HN I         833 33.26        40.3 0.16            146           72.6 302 
 PTB  HZ EP        833 20.24                             132   -0.55 9  146 261 
 PTB  HN ES   1    833 40.82                             132   -0.67 7  146 261 
 PTB  HZ I         833 41.69         9.6 0.14            129            146 261 
 SPBC HZ EP        833 22.32                             129    0.21 9  159 220 
 SPBC HN ES        833 42.99                             129   -0.85 9  159 220 
 SPBC HZ I         833 52.51        12.0 0.40            128            159 220 
 OCA  HZ EP   1    833 22.49                             128   -0.25 7  165 354 
 OCA  HN ES   1    833 44.56                             128   -0.40 7  165 354 
 OCA  HZ I         833 48.75        14.7 0.18            128            165 354 
 ZAR  HZ EP        833 26.89                             122    0.31 9  205 293 
 ZAR  HN ES        833 52.15                             122    0.36 9  205 293 
 ZAR  HZ I         834  1.42        11.6 0.28            120            205 293 
 NOR  HZ EP        833 30.23                             118    0.81 8  231 235 
 NOR  HE ES   1    833 56.22                             118   -0.64 6  231 235 
 NOR  HZ I         834  2.55         7.8 0.28            117            231 235 
 CHI  HZ EP   1    833 31.18                             117   -0.08 6  244 195 
 CHI  HN ES        834  0.20                             117    0.07 8  244 195 
 SML  HZ EP   1    833 30.44                             116   -0.67 6  247 336 
 SML  HN ES        833 59.22                             116   -0.64 8  247 336 
 SML  HZ I         834  6.13        15.6 0.24            116            247 336 
 HEL  HN ES        834  5.50                             114    0.37 8  270 257 
 HEL  HN I         834 16.59         3.5 0.32            114            270 257 
 PRA  HZ EP   1    833 46.87                             106   -0.27 4  388 210 
 PRA  HN ES        834 28.52                             106    0.13 6  388 210 
 PRA  HZ I         834 31.01         2.4 0.22            107            388 210 
                                                                                
