 2014  1 4 0430 35.3 L   6.792 -73.167144.8  RSN  5 0.3 1.3LRSN                1
 GAP=134        0.81       4.3     4.1  5.9 -0.1662E+01  0.2976E+01  0.1172E+01E
 Epicentro: LOS SANTOS - SANTANDER                                             3
 ACTION:UPD 14-03-13 09:51 OP:ep   STATUS:               ID:20140104043035 L   I
 OLDACT:REG 14-01-04 07:47 OP:stll STATUS:               ID:20140104042805     3
 2014-01-04-0428-05M.COL___240                                                 6
 STAT SP IPHASW D HRMM SECON CODA AMPLIT PERI AZIMU VELO AIN AR TRES W  DIS CAZ7
 BAR2 SZ EP        430 54.77                             171   -0.0110 22.2 184 
 BAR2 SZ I         430 54.89         7.2 0.18            171           22.2 184 
 BAR2 SZ ES        431  9.76                             171   -0.2210 22.2 184 
 BRR  HZ EP        430 56.60                             153    0.3610 69.6 300 
 BRR  HZ I         430 59.58         4.1 0.60            153           69.6 300 
 BRR  HN ES        431 13.03                             153    0.4510 69.6 300 
 PAM  SZ EP        430 57.64                             150    0.1110 79.5  40 
 PAM  SN ES        431 14.53                             150   -0.3510 79.5  40 
 PAM  SZ I         431 16.91         4.6 0.54            151           79.5  40 
 RUS  HZ EP        430 58.67                             144   -0.2310 99.9 175 
 RUS  HN ES        431 17.66                             144    0.3510 99.9 175 
 RUS  HZ I         431 20.17         1.9 0.38            144           99.9 175 
 PTB  HZ EP        431  1.89                             132   -0.06 9  145 259 
 PTB  HN ES        431 22.29                             132   -0.46 9  145 259 
 PTB  HZ I         431 24.82         2.8 0.10            133            145 259 
                                                                                
