 2013  4 4 0821 14.6 L   6.792 -73.083181.5  RSN  6 0.4 1.4LRSN                1
 GAP=189        0.78       6.5     7.3  9.3  0.1710E+02  0.1562E+01  0.2102E+01E
 Epicentro: LOS SANTOS - SANTANDER                                             3
 ACTION:UPD 13-05-22 14:35 OP:EP   STATUS:               ID:20130404082113 L   I
 2013-04-04-0820-00M.COL___245                                                 6
 STAT SP IPHASW D HRMM SECON CODA AMPLIT PERI AZIMU VELO AIN AR TRES W  DIS CAZ7
 GIR2 SZ EP   2    821 38.10                             169   -0.50 5 34.0 339 
 GIR2 SZ ES   2    821 57.43                             169    0.11 5 34.0 339 
 BRR  HZ EP   1    821 39.99                             156   -0.02 7 77.7 297 
 BRR  HZ I         821 59.37         5.0 0.44            150           77.7 297 
 BRR  HN ES   1    821 59.68                             156   -0.15 7 77.7 297 
 RUS  HZ EP   1    821 42.04                             150    0.11 7 99.5 180 
 RUS  HE ES   1    822  3.60                             150    0.35 7 99.5 180 
 RUS  HZ I         822  4.65         2.1 0.68            146           99.5 180 
 PTB  HZ EP   1    821 45.16                             138   -0.05 7  154 260 
 PTB  HN ES   1    822  8.30                             138   -0.79 7  154 260 
 PTB  HZ I         822 12.83         1.9 0.24            132            154 260 
 OCA  HE ES   2    822 10.37                             136   -0.21 5  162 351 
 ZAR  HZ EP   4    821 53.23                             128    3.00 0  211 292 
 ZAR  HN ES   1    822 18.98                             128    0.95 6  211 292 
 ZAR  HZ I         822 20.77         1.8 0.16            120            211 292 
                                                                                
