 2016  5 4 0512 32.8 L   6.790 -73.140143.5  RSN 10 0.4 1.5LRSN                1
 GAP=138        0.95       2.7     3.9  5.4 -0.1416E+01  0.4931E+01  0.9159E+00E
 Epicentro: LOS SANTOS - SANTANDER                                             3
 ACTION:UPD 16-08-18 17:41 OP:cam  STATUS:               ID:20160504051232 L   I
 OLDACT:UP  16-05-04 14:06 OP:edw  STATUS:               ID:20160504050747d    3
 OLDACT:DUP 16-05-04 14:01 OP:edw  STATUS:               ID:20160504050747d    3
 OLDACT:UP  16-05-04 13:57 OP:edw  STATUS:               ID:20160504050746     3
 OLDACT:REG 16-05-04 12:31 OP:edw  STATUS:               ID:20160504050746     3
 2016-05-04-0507-46M.COL___295                                                 6
 STAT SP IPHASW D HRMM SECON CODA AMPLIT PERI AZIMU VELO AIN AR TRES W  DIS CAZ7
 BAR2 EZ EP        512 51.88                             171   -0.2710 22.4 192 
 BAR2 EZ ES        513  7.14                             171   -0.0910 22.4 192 
 BAR2 EZ I         513  8.45        14.1 0.18            169           22.4 192 
 BRR  HZ EP        512 53.83                             152    0.0510 72.3 299 
 BRR  HN ES        513 10.83                             152    0.7010 72.3 299 
 BRR  HZ I         513 11.69         6.6 0.50            151           72.3 299 
 PAM  EZ EP        512 54.91                             150    0.1010 77.8  39 
 PAM  EN ES        513 11.82                             150   -0.1510 77.8  39 
 PAM  EZ I         513 12.57         4.0 0.20            152           77.8  39 
 RUS  HZ EP        512 56.00                             144   -0.2610 99.5 176 
 RUS  HE ES        513 14.51                             144   -0.0410 99.5 176 
 RUS  HZ I         513 16.01         3.8 0.26            143           99.5 176 
 PTB  HZ EP        512 58.99                             131   -0.65 9  148 259 
 PTB  HN ES        513 19.86                             131   -0.70 9  148 259 
 PTB  HZ I         513 21.60         2.6 0.16            130            148 259 
 OCA  HZ EP        513  1.74                             129    0.68 9  161 353 
 OCA  HN ES        513 22.91                             129   -0.17 9  161 353 
 OCA  HZ I         513 25.18        11.6 0.20            129            161 353 
 SPBC HZ EP   2    513  1.15                             129    0.05 5  163 219 
 SPBC HE ES        513 23.82                             129    0.66 9  163 219 
 ZAR  HZ EP        513  5.18                             122   -0.04 9  205 292 
 ZAR  HN ES        513 30.36                             122   -0.13 9  205 292 
 ZAR  HZ I         513 35.70         2.9 0.08            121            205 292 
 CHI  HZ EP   2    513  9.99                             117   -0.31 4  248 195 
 CHI  HN ES        513 39.63                             117    0.10 8  248 195 
 CHI  HZ I         513 46.65         2.1 0.54            116            248 195 
 ORTC HZ EP        513 26.95                             106    0.35 6  395 216 
 ORTC HN ES        514  8.99                             106    0.43 6  395 216 
 ORTC HZ I         514 14.49         1.0 0.38            106            395 216 
                                                                                
