 2012  7 4 0146 50.4 L   6.976 -73.293121.3  RSN 10 0.4 1.9LRSN                1
 GAP= 70        1.07       3.7     3.4  7.0  0.2749E+00  0.5596E+01  0.3338E+01E
 Epicentro: BETULIA - SANTANDER                                                3
 ACTION:UPD 12-08-14 11:42 OP:ep   STATUS:               ID:20120704014650 L   I
 2012-07-04-0140-00M.COL___200                                                 6
 STAT SP IPHASW D HRMM SECON CODA AMPLIT PERI AZIMU VELO AIN AR TRES W  DIS CAZ7
 BAR2 SZ EP   1    147  8.20                             159     0.4 7   44 164 
 BAR2 SZ I         147  8.58        43.3 0.11            153             44 164 
 BAR2 SZ ES   1    147 21.23                             159    -0.2 7   44 164 
 BRR  HZ EP   1    147  7.81                             157     0.2 7   49 287 
 BRR  HN ES        147 21.63                             157     0.510   49 287 
 PAM  SZ EP   1    147 10.65                             146     0.6 7   77  58 
 PAM  SZ I         147 11.30         9.8 0.14            146             77  58 
 PAM  SN ES   1    147 25.55                             146     0.2 7   77  58 
 RUS  HZ EP   1    147 13.61                             132    -0.1 7  122 169 
 RUS  HN ES        147 31.28                             132    -0.610  122 169 
 RUS  HZ I         147 38.31         4.0 0.19            126            122 169 
 PTB  HZ EP   1    147 13.65                             128    -0.8 7  137 249 
 PTB  HZ I         147 33.79        15.3 0.21            122            137 249 
 OCA  HZ EP   1    147 14.74                             128    -0.1 7  140 359 
 OCA  HN ES        147 33.50                             128    -0.5 9  140 359 
 TAM  HZ EP   1    147 19.17                             121     0.7 7  176 110 
 TAM  HZ I         147 19.77        13.0 0.15            117            176 110 
 TAM  HE ES        147 40.08                             121    -0.3 9  176 110 
 ZAR  HZ EP   1    147 18.84                             120    -0.2 7  182 288 
 ZAR  HN ES   1    147 41.04                             120    -0.3 7  182 288 
 ZAR  HZ I         147 44.48        25.8 0.22            115            182 288 
 NOR  SZ EP   1    147 25.23                             113     0.5 6  234 228 
 NOR  SE ES        147 51.87                             113     0.3 8  234 228 
 HEL  HZ EP   1    147 27.71                             110    -0.6 6  262 251 
 HEL  HN ES        147 58.24                             110     0.3 8  262 251 
 HEL  HZ I         148  1.43         6.1 0.30            106            262 251 
