 2017  9 4 0236 37.0 L   5.853 -73.718116.6  RSN  8 0.4 1.3LRSN                1
 GAP=154        0.89       5.2     4.2  6.7 -0.1404E+02  0.7023E+01 -0.1412E+02E
 Epicentro: PUENTE NACIONAL - SANTANDER                                        3
 ACTION:UPD 17-10-05 19:08 OP:rebc STATUS:               ID:20170904023637 L   I
 OLDACT:UP  17-09-04 14:36 OP:dnl  STATUS:               ID:20170904022740     3
 OLDACT:REG 17-09-04 12:21 OP:dnl  STATUS:               ID:20170904022740     3
 2017-09-04-0228-00M.COL___417                                                 6
 STAT SP IPHASW D HRMM SECON CODA AMPLIT PERI AZIMU VELO AIN AR TRES W  DIS CAZ7
 SPBC HZ EP   4    236 50.48                             157   -3.23 0 45.1 241 
 SPBC HN ES        237  6.35                             157   -0.3910 45.1 241 
 SPBC HZ I         237 10.52         4.8 0.36            158           45.1 241 
 RUS  HZ EP   2    236 56.64                             147    0.91 5 70.4  86 
 RUS  HN ES        237 10.35                             147    0.0110 70.4  86 
 RUS  HZ I         237 12.10         2.7 0.50            151           70.4  86 
 BAR2 EZ IP     C  236 57.68                             136   -0.0110  101  36 
 BAR2 EZ ES        237 13.85                             136    0.0210  101  36 
 BAR2 EZ I         237 14.99        11.6 0.22            139            101  36 
 NOR  HZ EP        237  0.53                             128    0.3210  131 256 
 NOR  HN ES        237 18.50                             128    0.1910  131 256 
 NOR  HZ I         237 21.30         4.9 0.24            130            131 256 
 BRR  HZ EP        237  0.14                             126   -0.70 9  139   0 
 BRR  HN ES        237 19.81                             126    0.38 9  139   0 
 BRR  HZ I         237 20.92         7.5 0.12            128            139   0 
 GUY2CHZ EP   4    237 10.65                             117    3.29 0  195 249 
 GUY2CHN ES   4    237 32.73                             117    1.68 0  195 249 
 GUY2CHZ I         237 40.53         1.0 0.44                           195 249 
 PAM  EZ EP        237  7.51                             116   -0.30 9  199  34 
 PAM  EE ES        237 32.11                             116    0.26 9  199  34 
 PAM  EZ I         237 35.91         1.6 0.36            119            199  34 
 ZAR  HZ EP   4    237  7.84                             113   -1.75 0  221 325 
 ZAR  HE ES   4    237 32.81                             113   -2.21 0  221 325 
 ZAR  HZ I         237 37.31         2.4 0.44            115            221 325 
                                                                                
