 2011  2 4 0801 35.9 L   6.784 -73.350141.8  RSN  5 0.2 1.2LRSN                1
 GAP=196        0.48       5.6    19.7  6.8 -0.7426E+02  0.7914E+02 -0.2290E+02E
 Epicentro: ZAPATOCA - SANTANDER                                               3
 ACTION:UP  11-03-28 15:05 OP:jfem STATUS:               ID:20110204080135 L   I
 2011-02-04-0759-56S.COL___138                                                 6
 STAT SP IPHASW D HRMM SECON CODA AMPLIT PERI AZIMU VELO SNR AR TRES W  DIS CAZ7
 BTL  SZ EP        8 1 55.08                             173     0.110   17  32 
 BAR2 SZ EP   1    8 1 54.78                             169    -0.4 7   28 139 
 BAR2 SZ ES        8 2 10.17                             169     0.010   28 139 
 BAR2 SZ I         8 2 11.65         5.0 0.31                            28 139 
 RUS  HE ES   2    8 2 17.95                             142     0.2 5  103 163 
 RUS  HZ I         8 2 18.79         1.9 0.32                           103 163 
 GRA  SZ EP   1    8 2  1.67                             134     0.0 7  136  26 
 GRA  SZ ES   2    8 2 21.78                             134     0.0 5  136  26 
 GRA  SZ I         8 2 22.83         2.5 0.62                           136  26 
 CHI  HZ EP   2    8 2 12.80                             117     0.2 4  242 190 
 CHI  HZ I         8 2 14.34         0.9 0.32                           242 190 
                                                                                
