 2010  8 4 0639 39.2 L   6.803 -73.024146.5  RSN  4 0.3 1.3LRSN                1
 GAP=206        0.69       9.9    13.6 14.2 -0.6696E+02 -0.8849E+02  0.2363E+02E
 Epicentro: CEPITA - SANTANDER                                                 3
 ACTION:UP  10-09-07 10:52 OP:vdl  STATUS:               ID:20100804063939 L   I
 2010-08-04-0637-06S.COL___125                                                 6
 STAT SP IPHASW D HRMM SECON CODA AMPLIT PERI AZIMU VELO SNR AR TRES W  DIS CAZ7
 BAR2 SZ EP   1    639 58.92                             168    -0.1 7   29 217 
 BAR2 SZ ES   3    640 14.93                             168     0.4 2   29 217 
 BRR  HZ EP   1    640  0.81                             149    -0.3 7   83 294 
 BRR  HZ I         640  1.08         8.2 0.20                            83 294 
 BRR  HN ES   2    640 18.56                             149     0.3 5   83 294 
 GUE  SZ EP   1    640  3.94                             140     0.1 7  114   6 
 GUE  SZ I         640  4.53         1.1 0.12                           114   6 
 GRA  SZ EP   1    640  4.66                             138     0.4 7  122  11 
 GRA  SZ ES   2    640 23.14                             138    -0.6 5  122  11 
 GRA  SZ I         640 25.35         2.6 0.41                           122  11 
                                                                                
