 2015  2 4 0031 14.4 L   6.819 -73.158138.7  RSN 22 0.5 2.4LRSN                1
 GAP= 64        1.22       2.7     3.1  5.2 -0.1324E+01  0.5144E+01  0.1950E+01E
 Epicentro: LOS SANTOS - SANTANDER                                             3
 ACTION:UPD 15-04-30 21:21 OP:nd   STATUS:               ID:20150204003114 L   I
 OLDACT:REG 15-02-04 11:54 OP:stll STATUS:               ID:20150204002743     3
 2015-02-04-0027-43M.COL___274                                                 6
 STAT SP IPHASW D HRMM SECON CODA AMPLIT PERI AZIMU VELO AIN AR TRES W  DIS CAZ7
 BAR2 EZ EP        031 33.27                             169    0.0910 25.2 186 
 BAR2 EZ ES        031 48.25                             169    0.3910 25.2 186 
 BAR2 EZ I         031 49.61        64.4 0.18            167           25.2 186 
 BRR  HZ EP     C  031 35.02                             152    0.4110 69.0 298 
 BRR  HN ES        031 51.46                             152    1.0510 69.0 298 
 BRR  HZ I         031 56.02        38.7 0.12            147           69.0 298 
 PAM  SZ EP     D  031 36.00                             150    0.2210 76.7  41 
 PAM  SZ I         031 36.39        91.1 0.18            152           76.7  41 
 PAM  SN ES        031 52.66                             150    0.1710 76.7  41 
 RUS  HZ EP        031 37.29                             142   -0.2910  103 175 
 RUS  HZ I         031 38.38        24.4 0.16            141            103 175 
 RUS  HN ES        031 55.48                             142   -0.2210  103 175 
 PTB  HZ EP        031 39.87                             131   -0.79 9  147 258 
 PTB  HN ES        032  1.00                             131   -0.19 9  147 258 
 PTB  HZ I         032  2.74        31.6 0.24            127            147 258 
 TAM  HZ IP     D  031 41.74                             129    0.08 9  157 106 
 TAM  HZ I         031 42.16        21.4 0.44            130            157 106 
 TAM  HN ES        032  2.27                             129   -0.69 9  157 106 
 OCA  HZ EP        031 41.88                             128   -0.02 9  158 354 
 OCA  HE ES        032  3.39                             128   -0.01 9  158 354 
 OCA  HZ I         032  6.25        38.4 0.28            127            158 354 
 SPBC HZ EP        031 42.26                             127   -0.13 9  164 218 
 SPBC HN ES        032  4.27                             127    0.00 9  164 218 
 SPBC HZ I         032 10.51        44.4 0.20            125            164 218 
 ZAR  HZ EP        031 46.23                             121    0.10 9  202 292 
 ZAR  HE ES        032 10.24                             121   -0.67 9  202 292 
 ZAR  HZ I         032 15.95        26.7 0.42            119            202 292 
 NOR  HZ EP     C  031 49.39                             117   -0.30 8  235 234 
 NOR  HN ES        032 17.08                             117   -0.18 8  235 234 
 NOR  HZ I         032 23.32        23.5 0.20            115            235 234 
 SML  HZ EP        031 49.69                             116   -0.62 8  241 335 
 SML  HN ES        032 17.56                             116   -0.81 8  241 335 
 SML  HZ I         032 26.07        37.9 0.30            115            241 335 
 CHI  HZ EP        031 51.65                             115   -0.20 8  250 195 
 CHI  HN ES        032 20.75                             115   -0.36 8  250 195 
 CHI  HZ I         032 28.83        12.5 0.42            115            250 195 
 ROSC BZ EP        031 52.86                             115    0.64 8  254 211 
 ROSC BN ES        032 21.78                             115    0.03 8  254 211 
 ROSC BZ I         032 30.28        25.7 0.60            114            254 211 
 HEL  HZ EP        031 54.74                             113    0.62 8  271 255 
 HEL  HN ES        032 24.61                             113   -0.53 8  271 255 
 HEL  HZ I         032 33.90        11.4 0.26            112            271 255 
 GUY2CHZ EP        031 58.63                             111    0.98 7  301 234 
 GUY2CHE ES        032 31.45                             111    0.02 7  301 234 
 GUY2CHZ I         032 41.02        14.3 0.60                           301 234 
 PTGC HZ EP   9    031 56.60                             110   -1.59 0  311 159 
 PTGC HZ I         031 57.22        23.9 0.10            110            311 159 
 PTGC HN ES        032 29.11                                   -1.68 7  311 159 
 RREF HZ EP        032  0.24                             109    0.01 7  322 229 
 RREF HN ES        032 35.78                             109   -0.24 7  322 229 
 RREF HZ I         032 45.42        12.5 0.28            108            322 229 
 CBOC HZ EP     C  032  1.26                             109    0.36 7  333 252 
 CBOC HZ I         032  2.23         5.1 0.22            107            333 252 
 CBOC HN ES        032 36.35                             109   -0.87 7  333 252 
 DBB  SZ EP        032  1.16                             108   -0.21 7  338 274 
 DBB  SZ I         032 41.03        33.0 0.40            107            338 274 
 TOL  SZ EP        032  3.13                             108    0.74 7  344 224 
 TOL  SN ES        032 39.25                             108   -0.62 7  344 224 
 ANIL HZ EP        032  5.12                             107    1.16 6  358 224 
 ANIL HN ES        032 43.62                             107    0.97 6  358 224 
 ANIL HZ I         032 47.95         3.6 0.34            106            358 224 
 ORTC HZ EP        032  8.67                             105    0.53 6  396 216 
 ORTC HN ES        032 50.24                             105    0.14 6  396 216 
 ORTC HZ I         032 58.56        11.3 0.50            104            396 216 
                                                                                
