 2016  9 4 0939  7.1 L   6.827 -73.150144.0  RSN  5 0.3 1.4LRSN                1
 GAP=244        0.87       5.8     5.3  7.1  0.1290E+02  0.6330E+01 -0.9098E+01E
 Epicentro: LOS SANTOS - SANTANDER                                             3
 ACTION:UPD 17-08-17 21:06 OP:lp   STATUS:               ID:20160904093907 L   I
 OLDACT:DUP 16-09-04 17:08 OP:drio STATUS:               ID:20160904092740d    3
 OLDACT:REG 16-09-04 13:05 OP:drio STATUS:               ID:20160904092739     3
 2016-09-04-0928-00M.COL___343                                                 6
 STAT SP IPHASW D HRMM SECON CODA AMPLIT PERI AZIMU VELO AIN AR TRES W  DIS CAZ7
 BAR2 EZ EP        939 26.44                             169   -0.1010 26.2 188 
 BAR2 EZ ES        939 41.44                             169   -0.2910 26.2 188 
 BAR2 EZ I         939 42.89         6.1 0.24            165           26.2 188 
 RUS  HZ EP        939 31.39                             142    0.5310  104 176 
 RUS  HE ES        939 49.59                             142    0.1710  104 176 
 RUS  HZ I         939 50.54         3.5 0.26            143            104 176 
 PTB  HZ EP        939 34.00                             131    0.11 9  148 258 
 PTB  HE ES        939 55.18                             131    0.36 9  148 258 
 PTB  HZ I         939 59.57         2.5 0.16            130            148 258 
 SPBC HZ EP        939 35.46                             128   -0.15 9  165 218 
 SPBC HN ES        939 57.42                             128   -0.47 9  165 218 
 SPBC HZ I         940  3.47         4.4 0.34            128            165 218 
 ZAR  HZ EP        939 38.65                             122   -0.58 9  202 291 
 ZAR  HN ES        940  4.62                             122    0.30 9  202 291 
 ZAR  HZ I         940 11.45         2.6 0.36            122            202 291 
                                                                                
