 2012 12 4 0318  4.0 L   6.858 -73.205143.6  RSN 10 0.4 1.8LRSN                1
 GAP=127        0.74       3.4     4.0  5.9 -0.1618E+01  0.9048E+01  0.1881E+01E
 Epicentro: ZAPATOCA - SANTANDER                                               3
 ACTION:UPD 13-01-04 14:25 OP:ep   STATUS:               ID:20121204031804 L   I
 2012-12-04-0310-00M.COL___236                                                 6
 STAT SP IPHASW D HRMM SECON CODA AMPLIT PERI AZIMU VELO AIN AR TRES W  DIS CAZ7
 GIR2 SZ ES   1    318 38.39                             170    0.17 7 24.5   3 
 BAR2 SZ EP   1    318 23.48                             168    0.01 7 29.5 175 
 BAR2 SZ ES   1    318 38.70                             168    0.01 7 29.5 175 
 BAR2 SZ I         318 41.06         9.2 0.18                          29.5 175 
 PAM  SZ EP   1    318 26.57                             150    0.64 7 77.1  46 
 PAM  SN ES   1    318 43.05                             150   -0.02 7 77.1  46 
 PAM  SZ I         318 44.73         4.2 0.14                          77.1  46 
 RUS  HZ EP   1    318 27.59                             141   -0.43 7  108 173 
 PTB  HZ EP   1    318 30.08                             133   -0.22 7  143 256 
 PTB  HN ES   1    318 51.02                             133    0.17 7  143 256 
 PTB  HZ I         318 53.68        10.9 0.14                           143 256 
 OCA  HN ES   1    318 52.01                             130   -0.87 7  153 355 
 ZAR  HZ EP   2    318 35.54                             123    0.15 4  196 291 
 ZAR  HN ES   1    319  0.55                             123    0.63 6  196 291 
 ZAR  HZ I         319  8.59         6.3 0.28                           196 291 
 SML  HZ EP   1    318 39.74                             118    0.20 6  235 336 
 SML  HN ES   1    319  7.26                             118   -0.03 6  235 336 
 SML  HZ I         319 15.87         6.8 0.10                           235 336 
 HEL  HN ES   1    319 13.83                             115   -0.59 6  267 254 
 HEL  HZ I         319 22.30         3.2 0.34                           267 254 
 PRA  HZ EP   1    318 58.23                             106    0.54 4  394 208 
 PRA  HN ES   1    319 39.33                             106   -0.27 4  394 208 
 PRA  HZ I         319 47.39         2.5 0.62                           394 208 
                                                                                
