 2012  5 4 0303  2.8 L   6.140 -73.509126.8  RSN  4 0.2 1.3LRSN                1
 GAP=173        0.48       5.9     4.1  6.4  0.1005E+02  0.1057E+02  0.7116E+00E
 Epicentro: SAN BENITO - SANTANDER                                             3
 ACTION:UP  12-07-05 12:02 OP:pat  STATUS:               ID:20120504030302 L   I
 2012-05-04-0300-00M.COL___189                                                 6
 STAT SP IPHASW D HRMM SECON CODA AMPLIT PERI AZIMU VELO SNR AR TRES W  DIS CAZ7
 RUS  HZ EP   1    3 3 21.49                             156    -0.2 7   55 120 
 RUS  HN ES   1    3 3 36.58                             156     0.2 7   55 120 
 RUS  HZ I         3 3 37.79         3.1 0.48                            55 120 
 BAR2 SZ ES   1    3 3 36.26                             153    -0.2 7   62  36 
 BAR2 SZ I         3 3 38.55        13.2 0.29                            62  36 
 BRR  HZ EP   1    3 3 24.99                             136     0.3 7  109 348 
 PTB  HZ EP   1    3 3 25.02                             135    -0.1 7  114 293 
 PTB  HN ES   1    3 3 42.59                             135     0.0 7  114 293 
 PTB  HZ I         3 3 45.47         1.6 0.22                           114 293 
                                                                                
