 2015  5 4 0657 20.8 L   6.781 -73.105144.1  RSN 10 0.5 1.8LRSN                1
 GAP=187        1.07       2.8     5.6  7.3 -0.5351E+00  0.5302E+01  0.2291E+01E
 Epicentro: LOS SANTOS - SANTANDER                                             3
 ACTION:UPD 15-09-10 22:01 OP:cam  STATUS:               ID:20150504065720 L   I
 OLDACT:UP  15-05-04 18:14 OP:drio STATUS:               ID:20150504064736     3
 OLDACT:REG 15-05-04 13:41 OP:drio STATUS:               ID:20150504064736     3
 2015-05-04-0647-36M.COL___274                                                 6
 STAT SP IPHASW D HRMM SECON CODA AMPLIT PERI AZIMU VELO AIN AR TRES W  DIS CAZ7
 BRR  HZ EP        657 42.27                             151    0.1910 76.2 298 
 BRR  HN ES        657 59.39                             151    0.7410 76.2 298 
 RUS  HZ EP        657 44.43                             144    0.1910 98.3 179 
 RUS  HZ I         657 45.24         2.9 0.30            147           98.3 179 
 RUS  HN ES        658  1.94                             144   -0.5710 98.3 179 
 OCA  HZ EP        657 49.29                             129    0.04 9  163 352 
 OCA  HN ES        658 11.21                             129   -0.21 9  163 352 
 OCA  HZ I         658 16.12        10.8 0.26            131            163 352 
 SPBC HZ EP        657 49.49                             128    0.18 9  164 221 
 SPBC HE ES        658 10.71                             128   -0.83 9  164 221 
 SPBC HZ I         658 18.19        12.5 0.36            130            164 221 
 ZAR  HZ EP        657 53.12                             121   -0.55 8  209 292 
 ZAR  HN ES        658 19.56                             121    0.27 8  209 292 
 ZAR  HZ I         658 24.72         6.8 0.52            123            209 292 
 NOR  HZ EP        657 56.73                             118    0.01 8  237 236 
 NOR  HN ES        658 24.34                             118   -0.39 8  237 236 
 SML  HN ES        658 26.29                             117   -0.29 8  247 335 
 CHI  HZ EP        657 58.61                             117    0.27 8  248 196 
 CHI  HN ES        658 28.55                             117    0.94 8  248 196 
 GUY2CHZ EP        658  4.46                             112   -0.18 7  304 236 
 GUY2CHE ES        658 39.26                             112    0.45 7  304 236 
 MON  HN ES   4    658 44.91                             108   -4.01 0  358 308 
 ORTC HN ES        658 56.54                             106   -0.37 6  396 217 
                                                                                
