 2015  5 4 0310 23.7 L   6.772 -73.105142.0  RSN  5 0.5 1.3LRSN                1
 GAP=143        1.07       5.5     6.7 12.2  0.1569E+01  0.1203E+02 -0.1269E+02E
 Epicentro: LOS SANTOS - SANTANDER                                             3
 ACTION:UPD 15-09-10 22:01 OP:cam  STATUS:               ID:20150504031023 L   I
 OLDACT:UP  15-05-08 07:35 OP:AK   STATUS:               ID:20150504031023 L   3
 OLDACT:REG 15-05-04 12:56 OP:drio STATUS:               ID:20150504030737     3
 2015-05-04-0307-37M.COL___274                                                 6
 STAT SP IPHASW D HRMM SECON CODA AMPLIT PERI AZIMU VELO AIN AR TRES W  DIS CAZ7
 BRR  HZ I         310 44.57         5.8 0.26            140           76.7 299 
 BRR  HZ EP        310 44.77                             150   -0.0010 76.7 299 
 BRR  HN ES        311  1.42                             150    0.2110 76.7 299 
 PAM  SZ EP        310 45.89                             150    0.3810 77.1  35 
 PAM  SZ I         310 46.00         3.5 0.22            126           77.1  35 
 PAM  SN ES        311  2.81                             150    0.3010 77.1  35 
 RUS  HE ES        311  4.49                             144   -0.4110 97.2 179 
 RUS  HZ I         311  5.67         2.2 0.48            118           97.2 179 
 OCA  HN ES   1    311 12.99                             128   -1.22 7  164 352 
 SPBC HE ES   4    311 12.09                             128   -1.92 0  164 221 
 ZAR  HE ES   1    311 22.24                             121    0.22 6  209 292 
                                                                                
