 2014  5 4 0854 24.7 L   6.805 -73.155146.7  RSN  5 0.2 1.6LRSN                1
 GAP=135        0.53       2.8     3.4  5.5 -0.4204E+01  0.8051E+01 -0.5044E+01E
 Epicentro: LOS SANTOS - SANTANDER                                             3
 ACTION:UPD 15-03-16 16:55 OP:nd   STATUS:               ID:20140504085424 L   I
 OLDACT:DUP 14-05-04 17:58 OP:mh   STATUS:               ID:20140504085002d    3
 2014-05-04-0850-00M.COL___273                                                 6
 STAT SP IPHASW D HRMM SECON CODA AMPLIT PERI AZIMU VELO AIN AR TRES W  DIS CAZ7
 PAM  SZ EP        854 47.05                             151    0.0510 77.7  40 
 PAM  SN ES        855  4.47                             151    0.0510 77.7  40 
 RUS  HN ES   1    855  7.07                             144   -0.12 7  101 175 
 PTB  HZ EP        854 52.01                             132    0.38 9  147 259 
 PTB  HN ES        855 12.49                             132   -0.17 9  147 259 
 PTB  HZ I         855 18.67         6.8 0.05            132            147 259 
 SPBC HZ EP   1    854 53.19                             129   -0.02 7  163 219 
 SPBC HN ES   1    855 15.47                             129   -0.01 7  163 219 
 SPBC HZ I         855 18.72         3.6 0.11            131            163 219 
 SML  HZ EP        855  0.81                             118   -0.44 8  243 335 
 SML  HN ES   1    855 29.99                             118    0.21 6  243 335 
                                                                                
