 2012  9 4 0423  9.5 L   6.665 -73.244145.2  RSN  4 0.3 1.3LRSN                1
 GAP=186        0.62       7.4     6.8  7.6  0.9181E+01  0.1693E+02 -0.4125E+01E
 Epicentro: BARICHARA - SANTANDER                                              3
 ACTION:UPD 12-10-22 14:17 OP:ep   STATUS:               ID:20120904042309 L   I
 2012-09-04-0420-00M.COL___218                                                 6
 STAT SP IPHASW D HRMM SECON CODA AMPLIT PERI AZIMU VELO AIN AR TRES W  DIS CAZ7
 BAR2 SZ ES   1    423 43.52                             176   -0.47 7 10.5 140 
 BAR2 SZ I         423 44.24         6.2 0.28                          10.5 140 
 BRR  HZ EP        423 30.72                             152    0.1310 71.2 313 
 BRR  HZ I         423 31.34         2.6 0.13                          71.2 313 
 BRR  HN ES   1    423 47.36                             152    0.32 7 71.2 313 
 RUS  HN ES   2    423 50.52                             148    0.47 5 87.2 168 
 PTB  HZ EP   1    423 35.02                             135   -0.26 7  135 264 
 PTB  HN ES   1    423 55.32                             135   -0.05 7  135 264 
                                                                                
