 2010  1 4 0051 41.5 L   6.797 -72.994143.8  RSN  5 0.2 2.2LRSN                1
 GAP=314        0.53       5.5     7.4  4.9 -0.1147E+02  0.1356E+02  0.3246E+01E
 Epicentro: CEPITA - SANTANDER                                                 3
 ACTION:UP  10-08-24 09:42 OP:vdl  STATUS:               ID:20100104005141 L   I
 2010-01-04-0046-56S.COL___087                                                 6
 STAT SP IPHASW D HRMM SECON CODA AMPLIT PERI AZIMU VELO SNR AR TRES W  DIS CAZ7
 BAR2 SZ IP        052  1.16                             167     0.110   31 223 
 BAR2 SZ ES   1    052 16.02                             167    -0.3 7   31 223 
 RUS  BZ EP        052  5.15                             143     0.110  101 186 
 RUS  BN ES   1    052 23.49                             143     0.1 7  101 186 
 CHI  HZ EP        052 19.14                             116    -0.4 8  253 199 
 CHI  HN ES   1    052 49.37                             116     0.1 6  253 199 
 CHI  HZ I         052 58.32         5.4 0.36                           253 199 
 RREF BZ EP        052 29.16                             110     0.2 7  334 231 
 RREF BN ES   1    053  6.10                             110     0.1 5  334 231 
 RREF BZ I         053 12.40        10.2 0.31                           334 231 
 PRA  HZ EP        052 35.69                             106    -0.2 6  400 212 
 PRA  HZ I         053 20.83         6.1 0.52                           400 212 
                                                                                
