 2017  9 4 0514  8.0 L   6.757 -73.073148.5  RSN 12 0.4 1.8LRSN                1
 GAP=127        0.86       2.9     3.5  5.0  0.7081E-01  0.4816E+01  0.3421E+01E
 Epicentro: LOS SANTOS - SANTANDER                                             3
 ACTION:UPD 17-10-05 19:08 OP:rebc STATUS:               ID:20170904051408 L   I
 OLDACT:UP  17-09-04 15:42 OP:dnl  STATUS:               ID:20170904050740     3
 OLDACT:REG 17-09-04 12:33 OP:dnl  STATUS:               ID:20170904050740     3
 2017-09-04-0508-00M.COL___417                                                 6
 STAT SP IPHASW D HRMM SECON CODA AMPLIT PERI AZIMU VELO AIN AR TRES W  DIS CAZ7
 BAR2 EZ EP        514 28.04                             171    0.1010 21.8 214 
 BAR2 EZ ES        514 43.10                             171   -0.3910 21.8 214 
 BAR2 EZ I         514 49.07        13.8 0.52            168           21.8 214 
 PAM  EZ EP        514 30.85                             152    0.3910 76.5  33 
 PAM  EN ES        514 48.05                             152    0.0710 76.5  33 
 PAM  EZ I         514 49.80         7.3 0.54            157           76.5  33 
 BRR  HZ EP        514 29.95                             150   -0.0510 80.5 299 
 BRR  HN ES        514 47.16                             150    0.0110 80.5 299 
 BRR  HZ I         514 50.29        14.7 0.44            150           80.5 299 
 RUS  HZ EP        514 31.95                             146    0.2710 95.6 181 
 RUS  HN ES        514 50.40                             146    0.2610 95.6 181 
 RUS  HZ I         514 52.87         4.4 0.32            146           95.6 181 
 SPBC HZ EP        514 36.97                             129    0.10 9  165 222 
 SPBC HE ES        514 59.86                             129    0.48 9  165 222 
 SPBC HZ I         515  4.10         9.4 0.24            130            165 222 
 ZAR  HZ EP        514 41.08                             122   -0.50 8  213 293 
 ZAR  HE ES        515  7.45                             122   -0.33 8  213 293 
 ZAR  HZ I         515 12.07        12.1 0.46            124            213 293 
 NOR  HZ EP        514 44.49                             119    0.18 8  239 237 
 NOR  HN ES        515 11.96                             119   -0.67 8  239 237 
 NOR  HZ I         515 17.59         5.7 0.28            120            239 237 
 CHI  HZ EP   4    514 46.95                             118    1.35 0  246 197 
 CHI  HN ES        515 15.00                             118    0.07 8  246 197 
 CHI  HZ I         515 20.91         1.7 0.20            119            246 197 
 HEL  HZ EP   2    514 49.09                             115   -0.01 4  279 257 
 HEL  HN ES   4    515 22.75                             115    1.60 0  279 257 
 HEL  HZ I         515 26.79         5.0 0.40            116            279 257 
 PTGC HZ EP   2    514 51.06                             113   -0.10 4  301 160 
 PTGC HN ES        515 23.68                             113   -1.14 7  301 160 
 PTGC HZ I         515 29.26         4.4 0.44            115            301 160 
 GUY2CHZ EP   2    514 52.72                             113    0.54 4  305 236 
 GUY2CHN ES        515 27.05                             113    0.41 7  305 236 
 GUY2CHZ I         515 34.71         4.2 0.38                           305 236 
 PAL  HZ EP   2    515  4.10                             106    0.32 3  410 240 
 PAL  HE ES   4    515 45.96                             106   -1.33 0  410 240 
 PAL  HZ I         515 55.11         1.4 0.40            108            410 240 
                                                                                
