 2017  5 4 0916 50.9 L   6.798 -73.161148.0  RSN  5 0.3 1.4LRSN                1
 GAP=236        0.66       4.0     4.9  6.4  0.6931E+01 -0.5583E+01 -0.2366E+01E
 Epicentro: LOS SANTOS - SANTANDER                                             3
 ACTION:UPD 17-06-16 13:32 OP:jn   STATUS:               ID:20170504091650 L   I
 OLDACT:UP  17-05-04 16:08 OP:osc  STATUS:               ID:20170504090737     3
 OLDACT:REG 17-05-04 13:13 OP:edw  STATUS:               ID:20170504090737     3
 2017-05-04-0908-00M.COL___365                                                 6
 STAT SP IPHASW D HRMM SECON CODA AMPLIT PERI AZIMU VELO AIN AR TRES W  DIS CAZ7
 BRR  HZ EP        917 12.56                             153    0.3610 69.8 299 
 BRR  HN ES        917 28.87                             153    0.0510 69.8 299 
 BRR  HZ I         917 31.53         5.0 0.34            150           69.8 299 
 RUS  HZ EP        917 14.82                             144   -0.0310  101 175 
 RUS  HN ES   2    917 32.77                             144   -0.77 5  101 175 
 RUS  HZ I         917 34.91         2.0 0.18            145            101 175 
 PTB  HZ EP        917 17.58                             133   -0.30 9  146 259 
 PTB  HN ES        917 39.09                             133    0.15 9  146 259 
 PTB  HZ I         917 46.21         3.3 0.32            131            146 259 
 SPBC HN ES        917 41.92                             130    0.21 9  162 219 
 SPBC HZ I         917 44.85         6.1 0.22            129            162 219 
 ZAR  HZ EP        917 23.34                             123    0.02 9  203 292 
 ZAR  HN ES        917 48.29                             123   -0.33 9  203 292 
 ZAR  HZ I         917 55.06         2.4 0.25            123            203 292 
 SJC  HZ EP   4    917 50.10                             106    3.67 0  408 327 
 SJC  HN ES   4    918 26.96                             106   -2.80 0  408 327 
                                                                                
