 2012  4 4 0313 48.6 L   6.405 -73.616 95.0  RSN  4 0.4 1.1LRSN                1
 GAP=145        0.98       8.9     5.8 13.7  0.2806E+02  0.2670E+02  0.3510E+01E
 Epicentro: SANTA HELENA DEL OPON - SANTANDER                                  3
 ACTION:UPD 12-07-05 11:50 OP:tino STATUS:               ID:20120404031348 L   I
 2012-04-04-0310-00M.COL___196                                                 6
 STAT SP IPHASW D HRMM SECON CODA AMPLIT PERI AZIMU VELO AIN AR TRES W  DIS CAZ7
 BAR2 SZ EP        314  3.20                             149    -0.410   52  67 
 BAR2 SZ ES   1    314 15.30                             149     0.1 7   52  67 
 RUS  HZ EP   1    314  6.82                             137     0.7 7   82 134 
 RUS  HN ES   1    314 19.79                             137     0.0 7   82 134 
 RUS  HZ I         314 22.05         3.3 0.26                            82 134 
 PTB  HZ EP   1    314  6.01                             132    -0.6 7   94 279 
 PTB  HN ES   1    314 20.60                             132     0.0 7   94 279 
 PTB  HZ I         314 21.96         3.1 0.16                            94 279 
 ZAR  HN ES   1    314 37.73                             113     0.6 7  182 311 
                                                                                
