 2016  2 4 0631  5.8 L   6.829 -73.168139.6  RSN 23 0.5 3.0LRSN 3.6WRSN        1
 SPEC AVERAGE  MO 14.5 ST0.266 OM  2.7 f0 1.01 R2.0025 AL 0.00 WI 40.0 MW  3.6 3
 SPEC SD       MO  0.1 ST0.267 OM  0.4 f00.248 R0.4119 AL      WI      MW  0.1 3
 GAP= 69        0.99       2.2     3.2  4.8 -0.1158E+01  0.5168E+01  0.3909E+00E
 Epicentro: LOS SANTOS - SANTANDER                                             3
 SPEC PAM EH Z MO 14.4 ST0.344 OM  2.5 f0 1.29 R1.4915 AL-0.00 WI 40.0 MW  3.6 3
 SPEC PAM EH Z T 63143 K 0.000 GD  159 VS 5.20 DE 3.50 Q0750.0 QA 1.50 VS 3.50 3
 SPEC RUS HH Z MO 14.5 ST0.129 OM  2.5 f00.902 R2.1330 AL-0.00 WI 40.0 MW  3.6 3
 SPEC RUS HH Z T 63145 K 0.000 GD  174 VS 5.20 DE 3.50 Q0750.0 QA 1.50 VS 3.50 3
 SPEC OCA HH Z MO 14.6 ST0.917 OM  2.6 f0 1.51 R1.2742 AL-0.00 WI 40.0 MW  3.7 3
 SPEC OCA HH Z T 63153 K 0.000 GD  210 VS 5.20 DE 3.50 Q0750.0 QA 1.50 VS 3.50 3
 SPEC TAM HH Z MO 14.3 ST0.067 OM  2.3 f00.794 R2.4232 AL-0.00 WI 40.0 MW  3.5 3
 SPEC TAM HH Z T 63153 K 0.000 GD  210 VS 5.20 DE 3.50 Q0750.0 QA 1.50 VS 3.50 3
 SPEC CHI HH Z MO 14.5 ST0.113 OM  2.3 f00.852 R2.2582 AL-0.00 WI 40.0 MW  3.6 3
 SPEC CHI HH Z T 63211 K 0.000 GD  287 VS 5.20 DE 3.50 Q0750.0 QA 1.50 VS 3.50 3
 SPEC ROSCBH Z MO 14.7 ST0.144 OM  2.5 f00.791 R2.4324 AL-0.00 WI 40.0 MW  3.7 3
 SPEC ROSCBH Z T 63212 K 0.000 GD  289 VS 5.20 DE 3.50 Q0750.0 QA 1.50 VS 3.50 3
 SPECGUY2CHH Z MO 14.3 ST0.101 OM  2.1 f00.912 R2.1096 AL-0.00 WI 40.0 MW  3.5 3
 SPECGUY2CHH Z T 63221 K 0.000 GD  331 VS 5.20 DE 3.50 Q0750.0 QA 1.50 Q1 0.00 3
 SPEC ELA HH Z MO 14.4 ST0.089 OM  2.1 f00.852 R2.2582 AL-0.00 WI 40.0 MW  3.5 3
 SPEC ELA HH Z T 63228 K 0.000 GD  357 VS 5.20 DE 3.50 Q0750.0 QA 1.50 VS 3.50 3
 SPEC ANILHH Z MO 14.6 ST0.325 OM  2.3 f0 1.10 R1.7491 AL-0.00 WI 40.0 MW  3.7 3
 SPEC ANILHH Z T 63233 K 0.000 GD  384 VS 5.20 DE 3.50 Q0750.0 QA 1.50 VS 3.50 3
 OLDACT:REG 16-02-04 12:50 OP:dnl  STATUS:               ID:20160204062745     3
 ACTION:UPD 16-03-04 21:23 OP:rebc STATUS:               ID:20160204063105 L   I
 OLDACT:UP  16-02-04 15:14 OP:dnl  STATUS:               ID:20160204062745     3
 2016-02-04-0627-45M.COL___300                                                 6
 STAT SP IPHASW D HRMM SECON CODA AMPLIT PERI AZIMU VELO AIN AR TRES W  DIS CAZ7
 BAR2 EZ IP     D  631 25.09                             169    0.3610 26.3 184 
 BAR2 EZ ES        631 38.80                             169   -0.7110 26.3 184 
 BAR2 EZ I         631 41.35       163.0 0.25            167           26.3 184 
 PAM  EZ IP     D  631 27.92                             150    0.6410 76.5  42 
 PAM  EE ES        631 44.76                             150    0.7010 76.5  42 
 PAM  EZ I         631 47.30       371.9 0.43            146           76.5  42 
 RUS  HZ IP     D  631 29.00                             141   -0.1810  104 175 
 RUS  HN ES        631 47.17                             141   -0.2710  104 175 
 RUS  HZ I         631 49.18       140.3 0.35            138            104 175 
 PTB  HZ EP        631 31.49                             131   -0.60 9  146 257 
 PTB  HN ES        631 52.79                             131    0.18 9  146 257 
 PTB  HZ I         632  0.29        72.2 0.30            127            146 257 
 OCA  HZ EP     C  631 33.16                             129   -0.12 9  157 354 
 OCA  HN ES        631 54.67                             129   -0.06 9  157 354 
 OCA  HZ I         631 59.20       187.0 0.15            125            157 354 
 TAM  HZ IP     D  631 33.52                             128    0.25 9  158 106 
 TAM  HZ I         631 54.47        50.4 0.35            124            158 106 
 SPBC HZ EP        631 34.02                             127    0.11 9  164 218 
 SPBC HN ES        631 55.59                             127   -0.26 9  164 218 
 SPBC HZ I         631 58.70       150.5 0.32            123            164 218 
 ZAR  HZ EP        631 37.59                             121    0.13 9  201 292 
 ZAR  HE ES        632  1.87                             121   -0.31 9  201 292 
 ZAR  HZ I         632  9.21       117.7 0.26            117            201 292 
 NOR  HE ES   2    632  8.23                             117   -0.51 4  235 233 
 NOR  HZ I         632 16.60        51.7 0.22            113            235 233 
 SML  HZ EP        631 41.11                             116   -0.52 8  240 335 
 SML  HN ES        632  9.91                             116    0.32 8  240 335 
 SML  HZ I         632 13.51       109.3 0.10            113            240 335 
 CHI  HZ EP        631 43.34                             115   -0.07 8  251 194 
 CHI  HE ES        632 12.55                             115   -0.22 8  251 194 
 CHI  HZ I         632 16.19        69.5 0.43            112            251 194 
 ROSC BZ EP   4    631 44.91                             115    1.17 0  254 210 
 ROSC BN ES        632 13.80                             115    0.45 8  254 210 
 ROSC BZ I         632 18.94       135.1 0.35            111            254 210 
 URE  HZ EP   4    631 44.97                             113   -1.19 0  280 291 
 URE  HZ EPg       631 45.71                             113   -0.45 7  280 291 
 URE  HE ES   2    632 16.80                             113   -0.86 4  280 291 
 URE  HZ I         632 28.18        79.7 0.18            109            280 291 
 GUY2CHZ EP        631 49.22                             111    0.12 7  301 234 
 GUY2CHN ES        632 23.40                             111    0.52 7  301 234 
 GUY2CHZ I         632 31.14        36.0 0.26                           301 234 
 SOCV BZ EP   4    631 46.91                             111   -1.67 0  302  58 
 SOCV BE ES   4    632 19.06                             111   -2.90 0  302  58 
 VIL  SZ EP        631 48.56                             110   -0.67 7  306 191 
 VIL  SN ES        632 22.44                             110   -0.68 7  306 191 
 ELA  HZ EP   4    631 53.49                             109    1.08 0  329 229 
 ELA  HN ES        632 29.57                             109    0.79 7  329 229 
 ELA  HZ I         632 36.37        26.5 0.48            106            329 229 
 CBOC HZ EP        631 53.03                             109    0.74 7  332 251 
 CBOC HE ES   4    632 26.01                             109   -2.57 0  332 251 
 ANIL HZ EP        631 55.41                             107   -0.01 6  358 224 
 ANIL HE ES        632 34.60                             107    0.45 6  358 224 
 ANIL HZ I         632 39.95       114.6 0.37            104            358 224 
 SDV  BZ EP   4    631 54.40                             107   -1.16 0  360  51 
 SDV  BN ES   4    632 29.20                             107   -5.20 0  360  51 
 ORTC HN ES        632 42.36                             105    0.72 6  397 216 
 ORTC HZ I         632 46.08        32.1 0.22            102            397 216 
 SJC  HZ EP   4    631 58.74                             105   -1.92 0  405 327 
 SJC  HZ EPg       631 59.75                             105   -0.91 6  405 327 
 SJC  HE ES   4    632 38.85                             105   -4.63 0  405 327 
 PAL  HZ EP        632  0.87                             105    0.18 6  405 238 
 PAL  HZ I         632 48.97        10.0 0.33            102            405 238 
 ELOV BZ EP   4    631 59.36                             105   -1.50 0  408  87 
 ELOV BE ES   4    632 40.02                             105   -3.81 0  408  87 
 CRJC HZ EP   4    632  5.44                             102   -2.30 0  465   4 
 CRJC HE ES   4    632 51.08                             102   -4.99 0  465   4 
 CRJC HZ I         632 56.02        17.8 0.20            100            465   4 
 FLO2 HZ EP   2    632 27.78                              98   -1.24 1  642 206 
 FLO2 HE ES   4    633 32.53                              98   -1.41 0  642 206 
 FLO2 HZ I         633 36.29         4.0 0.35             95            642 206 
                                                                                
