 2011  9 4 0709 19.8 L   6.763 -73.107142.8  RSN 17 0.3 2.7LRSN                1
 GAP=119        0.44       1.8     2.5  2.9  0.2475E+00  0.2212E+01  0.1915E+01E
 Epicentro: LOS SANTOS - SANTANDER                                             3
 ACTION:UPD 12-07-13 15:55 OP:ep   STATUS:               ID:20110904070919 L   I
 2011-09-04-0707-56S.COL___171                                                 6
 STAT SP IPHASW D HRMM SECON CODA AMPLIT PERI AZIMU VELO AIN AR TRES W  DIS CAZ7
 BAR2 SZ IP        7 9 39.12                             171    0.0710 20.7 204 
 BAR2 SZ I         7 9 39.53       111.3 0.14                          20.7 204 
 BAR2 SZ ES   1    7 9 53.93                             171   -0.11 7 20.7 204 
 GIR2 SZ EP   1    7 9 39.25                             165   -0.04 7 36.2 345 
 GIR2 SZ ES   1    7 9 54.14                             165   -0.33 7 36.2 345 
 BRR  HZ IP     D  7 9 41.07                             150    0.0810 76.9 300 
 BRR  HE ES   1    7 9 58.02                             150    0.52 7 76.9 300 
 BRR  HZ I         7 9 59.37       142.3 0.17                          76.9 300 
 PAM  SZ EP   1    7 9 42.05                             150    0.29 7 78.0  35 
 PAM  SN ES   2    7 9 59.09                             150    0.22 5 78.0  35 
 RUS  HZ IP     D  7 9 43.00                             144    0.0210 96.3 178 
 RUS  HN ES   2    710  0.74                             144   -0.30 5 96.3 178 
 RUS  HZ I         710  3.32        31.4 0.48                          96.3 178 
 OCA  SZ EP   1    7 9 47.88                             128   -0.46 7  165 352 
 OCA  SZ ES   2    710 10.43                             128   -0.16 5  165 352 
 OCA  SZ I         710 13.44        79.5 0.46                           165 352 
 YOP  SE ES   2    710 12.06                             127    0.11 4  173 154 
 ZAR  HZ EP   1    7 9 52.19                             121   -0.46 6  210 293 
 ZAR  HN ES   1    710 18.26                             121    0.00 6  210 293 
 ZAR  HZ I         710 23.93        79.5 0.46                           210 293 
 NOR  SZ EP   1    7 9 55.18                             118   -0.33 6  236 236 
 NOR  SN ES   2    710 23.35                             118    0.00 4  236 236 
 CHI  HZ EP   1    7 9 57.00                             117   -0.06 6  246 196 
 CHI  HE ES   2    710 26.09                             117   -0.02 4  246 196 
 CHI  HZ I         710 33.04        14.0 0.39                           246 196 
 HEL  HZ EP   2    710  0.29                             114    0.04 4  275 257 
 HEL  HN ES   2    710 31.71                             114   -0.07 4  275 257 
 HEL  HZ I         710 38.01        48.4 0.54                           275 257 
 VIL  SN ES   2    710 36.37                             112    0.12 4  300 193 
 VIL  SZ I         710 42.99        13.1 0.33                           300 193 
 GUY  SZ EP   2    710  4.41                             111    0.71 4  305 236 
 GUY  SN ES   2    710 37.71                             111   -0.22 4  305 236 
 GUY  SZ I         710 46.34        31.7 0.42                           305 236 
 RREF HZ EP   1    710  6.29                             110    0.37 5  322 230 
 RREF HN ES   2    710 41.78                             110   -0.09 3  322 230 
 RREF HZ I         710 54.12        24.5 0.47                           322 230 
 TOL  SZ EP   1    710  8.34                             109    0.36 5  344 226 
 PRA  HZ EP   1    710 13.03                             106   -0.05 4  391 210 
 PRA  HN ES   2    710 54.42                             106   -0.21 3  391 210 
 SJA  SZ EP   1    710 14.20                             106    0.27 4  397 194 
 SJA  SZ ES   2    710 55.59                             106   -0.55 3  397 194 
                                                                                
