 2012  4 4 0328 55.3 L   6.791 -73.213135.7  RSN  4 0.4 1.2LRSN                1
 GAP=129        0.81       5.8     5.6 11.2 -0.5648E+01  0.7134E+01  0.3618E+01E
 Epicentro: ZAPATOCA - SANTANDER                                               3
 ACTION:UPD 12-07-05 11:50 OP:tino STATUS:               ID:20120404032855 L   I
 2012-04-04-0320-00M.COL___196                                                 6
 STAT SP IPHASW D HRMM SECON CODA AMPLIT PERI AZIMU VELO AIN AR TRES W  DIS CAZ7
 BRR  HZ EP   1    329 15.41                             153     0.3 7   65 302 
 BRR  HN ES   2    329 31.15                             153     0.7 5   65 302 
 BRR  HZ I         329 35.75         5.1 0.36                            65 302 
 PAM  SZ EP   1    329 16.66                             147    -0.2 7   83  43 
 PAM  SZ I         329 16.91         2.6 0.14                            83  43 
 PAM  SN ES   1    329 33.48                             147    -0.2 7   83  43 
 RUS  HZ EP   1    329 18.04                             142    -0.1 7  100 172 
 RUS  HN ES   1    329 35.97                             142     0.1 7  100 172 
 RUS  HZ I         329 37.90         2.1 0.35                           100 172 
 PTB  HZ EP   2    329 21.40                             131     0.6 5  140 259 
 PTB  HN ES   1    329 40.03                             131    -0.6 7  140 259 
                                                                                
