 2013  6 4 0552 57.9 L   6.825 -73.233162.3  RSN  5 0.4 2.1LRSN                1
 GAP=171        0.90       6.4    11.1 11.8 -0.2947E+02 -0.3836E+02  0.1781E+02E
 Epicentro: ZAPATOCA - SANTANDER                                               3
 ACTION:UPD 14-01-08 09:52 OP:ep   STATUS:               ID:20130604055257 L   I
 2013-06-04-0550-00M.COL___257                                                 6
 STAT SP IPHASW D HRMM SECON CODA AMPLIT PERI AZIMU VELO AIN AR TRES W  DIS CAZ7
 BAR2 SZ EP   1    553 19.02                             170   -0.59 7 26.3 168 
 BRR  HZ EP        553 20.88                             158    0.4710 61.4 301 
 BRR  HN ES        553 38.28                             158    0.3310 61.4 301 
 BRR  HN I         553 41.51        11.9 0.18            141           61.4 301 
 PTB  HZ EP   1    553 25.76                             137    0.22 7  139 257 
 PTB  HN ES   1    553 46.45                             137   -0.63 7  139 257 
 PTB  HN I         553 52.17        13.0 0.48            127            139 257 
 OCA  HN ES        553 49.87                             134   -0.25 9  157 357 
 OCA  HN I         553 52.89        17.9 0.24            125            157 357 
 SML  HN ES   1    554  3.55                             122   -0.12 6  237 337 
 SML  HN I         554 14.47         8.8 0.10            114            237 337 
                                                                                
