 2017  3 4 0152 26.4 L   6.794 -73.119142.6  RSN 10 0.4 1.7LRSN                1
 GAP=140        0.93       3.3     3.9  5.3 -0.1274E+01  0.3224E+01  0.2829E+01E
 Epicentro: LOS SANTOS - SANTANDER                                             3
 ACTION:UPD 17-05-25 18:35 OP:jn   STATUS:               ID:20170304015226 L   I
 OLDACT:REG 17-03-04 12:15 OP:lv   STATUS:               ID:20170304014744     3
 2017-03-04-0148-00M.COL___397                                                 6
 STAT SP IPHASW D HRMM SECON CODA AMPLIT PERI AZIMU VELO AIN AR TRES W  DIS CAZ7
 BAR2 EZ EP        152 45.53                             170   -0.0810 23.4 197 
 BAR2 EZ ES        153  0.49                             170   -0.1310 23.4 197 
 BAR2 EZ I         153  1.91        16.4 0.30            168           23.4 197 
 BRR  HZ IP     C  152 47.35                             151    0.0210 74.1 298 
 BRR  HN ES        153  4.30                             151    0.6110 74.1 298 
 BRR  HZ I         153  5.49         9.5 0.10            149           74.1 298 
 PAM  EZ EP        152 48.52                             151    0.3610 76.1  38 
 PAM  EE ES        153  4.60                             151   -0.5610 76.1  38 
 PAM  EZ I         153  7.71        11.8 0.52            154           76.1  38 
 RUS  HZ EP        152 49.48                             143   -0.2610 99.8 178 
 RUS  HN ES        153  8.48                             143    0.5110 99.8 178 
 RUS  HZ I         153  9.19         3.1 0.23            144           99.8 178 
 PTB  HZ EP   9    152 52.11                             131   -1.21 0  150 259 
 PTB  HN ES        153 13.28                                    0.14 9  150 259 
 PTB  HZ I         153 18.81         4.2 0.28            130            150 259 
 SPBC HZ EP        152 54.65                             128   -0.09 9  165 220 
 SPBC HN ES        153 16.64                             128   -0.24 9  165 220 
 SPBC HZ I         153 21.35         7.9 0.21            128            165 220 
 ZAR  HZ EP        152 59.39                             121    0.49 8  207 292 
 ZAR  HN ES        153 23.58                             121   -0.71 8  207 292 
 ZAR  HZ I         153 30.23         7.1 0.57            121            207 292 
 NOR  HN ES        153 30.16                             118    0.15 8  237 235 
 NOR  HZ I         153 33.00         2.5 0.12            118            237 235 
 CHI  HZ EP        153  3.93                             116    0.04 8  249 196 
 CHI  HN ES        153 32.92                             116   -0.25 8  249 196 
 CHI  HZ I         153 36.57         2.5 0.52            117            249 196 
 ORTC HZ EP   4    153 14.49                             106   -5.82 0  397 217 
 ORTC HN ES   4    154  3.46                             106    1.07 0  397 217 
 ORTC HZ I         154  7.03         1.5 0.20            106            397 217 
 SJC  HZ EP   4    153 19.84                             105   -2.23 0  411 327 
 SJC  HN ES   4    154  1.18                             105   -4.34 0  411 327 
                                                                                
