 2011  7 4 0949  9.2 L   7.403 -73.192128.8  RSN  4 0.1 1.4LRSN                1
 GAP=158        0.32       5.3     5.4  3.8 -0.2309E+02  0.1456E+01 -0.4551E+01E
 Epicentro: EL PLAYON - SANTANDER                                              3
 ACTION:UPD 12-07-25 13:58 OP:epov STATUS:               ID:20110704094909 L   I
 2011-07-04-0947-13S.COL___139                                                 6
 STAT SP IPHASW D HRMM SECON CODA AMPLIT PERI AZIMU VELO AIN AR TRES W  DIS CAZ7
 GIR2 SZ EP   1    949 26.90                             164   -0.14 7 35.8 180 
 GIR2 SZ ES   1    949 40.98                             164    0.05 7 35.8 180 
 BRI  SZ EP   1    949 28.09                             155    0.14 7 55.7  51 
 BRI  SZ I         949 28.71         6.2 0.24                          55.7  51 
 BRR  HZ EP   1    949 28.20                             151   -0.06 7 66.0 240 
 BRR  HN ES   1    949 43.15                             151    0.05 7 66.0 240 
 BRR  HZ I         949 45.27         4.0 0.15                          66.0 240 
 GRA  SZ EP        949 28.67                             150    0.0410 68.4  39 
 GRA  SZ ES   1    949 43.66                             150   -0.10 7 68.4  39 
 GRA  SZ I         949 45.59        10.2 0.29                          68.4  39 
                                                                                
