 2016 12 4 0454 10.0 L   6.788 -73.187142.5  RSN  5 0.5 1.2LRSN                1
 GAP=237        0.80       8.6     6.5  7.9 -0.2718E+00  0.1755E+02 -0.2220E+02E
 Epicentro: LOS SANTOS - SANTANDER                                             3
 ACTION:UPD 17-01-11 20:12 OP:rebc STATUS:               ID:20161204045411dL   I
 OLDACT:UP  16-12-04 15:20 OP:dani STATUS:               ID:20161204044742     3
 OLDACT:REG 16-12-04 12:41 OP:dani STATUS:               ID:20161204044742     3
 2016-12-04-0448-00M.COL___349                                                 6
 STAT SP IPHASW D HRMM SECON CODA AMPLIT PERI AZIMU VELO AIN AR TRES W  DIS CAZ7
 BAR2 EZ EP        454 28.92                             171   -0.3110 21.6 179 
 BAR2 EZ ES        454 43.96                             171   -0.2510 21.6 179 
 BRR  HZ EP        454 31.18                             153    0.5410 67.9 301 
 BRR  HE ES   3    454 48.38                             153    1.67 2 67.9 301 
 BRR  HZ I         454 50.48         3.3 0.12            146           67.9 301 
 PTB  HZ EP        454 36.06                             132   -0.24 9  143 259 
 PTB  HE ES        454 56.92                             132    0.13 9  143 259 
 PTB  HZ I         455  2.07         2.3 0.28            131            143 259 
 ZAR  HZ EP        454 41.80                             122   -0.08 9  200 293 
 ZAR  HN ES   3    455  5.89                             122   -0.83 2  200 293 
 ZAR  HZ I         455 13.59         1.7 0.24            121            200 293 
 CHI  HN ES   2    455 16.93                             117    0.60 4  246 194 
                                                                                
