 2011  4 4 0452 45.5 L   6.762 -72.979144.4  RSN  8 0.3 1.8LRSN                1
 GAP=191        0.52       3.7     6.5  6.0 -0.1059E+02 -0.7336E+01  0.7299E+01E
 Epicentro: CEPITA - SANTANDER                                                 3
 ACTION:UP  11-06-22 15:28 OP:REBC STATUS:               ID:20110404045245 L   I
 2011-04-04-0450-49S.COL___138                                                 6
 STAT SP IPHASW D HRMM SECON CODA AMPLIT PERI AZIMU VELO SNR AR TRES W  DIS CAZ7
 BAR2 SZ EP   1    453  4.88                             168    -0.2 7   29 230 
 BAR2 SZ ES   2    453 20.13                             168    -0.3 5   29 230 
 BAR2 SZ I         453 22.08        18.8 0.24                            29 230 
 GIR2 SZ EP   2    453  6.19                             163     0.8 5   42 326 
 BRR  HZ EP        453  7.64                             146     0.010   90 295 
 BRR  HN ES   1    453 24.99                             146     0.1 7   90 295 
 BRR  HZ I         453 29.03        11.8 0.12                            90 295 
 GRA  SZ EP   1    453 10.62                             137     0.0 7  126   9 
 GRA  SZ ES   1    453 30.13                             137    -0.1 7  126   9 
 GRA  SZ I         453 31.82         7.5 0.29                           126   9 
 OCA  SZ EP   2    453 14.25                             128    -0.2 5  168 347 
 OCA  SZ ES   2    453 37.09                             128     0.1 5  168 347 
 OCA  SZ I         453 41.35         8.1 0.35                           168 347 
 NOR  SZ EP   2    453 22.08                             117    -0.5 4  248 238 
 CHI  HZ EP   2    453 23.36                             117     0.1 4  250 200 
 CHI  HN ES   2    453 53.08                             117     0.3 4  250 200 
 CHI  HZ I         453 57.51         3.3 0.36                           250 200 
 HEL  HZ EP   2    453 27.67                             113     0.1 4  289 258 
 HEL  HZ I         454  4.94         4.3 0.34                           289 258 
                                                                                
