 2012 10 4 0933 16.1 L   6.755 -73.119147.6  RSN 12 0.2 2.8LRSN                1
 GAP= 74        0.54       2.1     2.1  3.0  0.8632E-01  0.1256E+01  0.2123E+01E
 Epicentro: LOS SANTOS - SANTANDER                                             3
 ACTION:UPD 12-11-22 17:01 OP:ep   STATUS:               ID:20121004093316 L   I
 2012-10-04-0930-00M.COL___219                                                 6
 STAT SP IPHASW D HRMM SECON CODA AMPLIT PERI AZIMU VELO AIN AR TRES W  DIS CAZ7
 BAR2 SZ IP        933 35.85                             172   -0.0610 19.4 201 
 BAR2 SZ ES        933 51.31                             172   -0.0310 19.4 201 
 BAR2 SZ I         933 52.61       149.0 0.29                          19.4 201 
 GIR2 SZ EP        933 35.99                             165   -0.1910 36.7 347 
 GIR2 SZ ES   1    933 52.06                             165    0.24 7 36.7 347 
 BRR  HZ EP        933 37.77                             151    0.0010 76.2 301 
 BRR  HE ES        933 55.04                             151    0.3910 76.2 301 
 BRR  HZ I         933 59.58        98.9 0.15                          76.2 301 
 PAM  SZ EP        933 38.64                             150   -0.0310 79.5  36 
 PAM  SE ES        933 55.79                             150   -0.4610 79.5  36 
 PAM  SZ I         933 58.19        59.4 0.14                          79.5  36 
 RUS  HZ EP        933 39.71                             146    0.0010 95.5 178 
 RUS  HE ES        933 57.95                             146   -0.1410 95.5 178 
 TAM  HZ IP     D  933 44.00                             132    0.42 9  151 103 
 TAM  HZ I         933 44.18        74.9 0.29                           151 103 
 TAM  HN ES   1    934  5.15                             132    0.16 7  151 103 
 ZAR  HN ES        934 14.89                             122   -0.06 8  209 293 
 ZAR  HZ I         934 20.29        65.7 0.38                           209 293 
 NOR  SZ EP        933 51.82                             119   -0.11 8  234 236 
 CHI  HZ EP        933 53.59                             118    0.08 8  245 196 
 CHI  HN ES   1    934 22.97                             118    0.31 6  245 196 
 CHI  HZ I         934 29.21        23.5 0.27                           245 196 
 ROSC BE ES   1    934 23.65                             117   -0.01 6  250 212 
 ROSC BZ I         934 29.58        50.9 0.38                           250 212 
 HEL  HZ EP        933 56.71                             115    0.08 8  274 257 
 HEL  HZ I         934 34.37        27.8 0.53                           274 257 
 PRA  HZ EP        934  9.21                             107   -0.18 6  389 210 
 PRA  HN ES   1    934 50.49                             107   -0.44 4  389 210 
 PRA  HZ I         934 57.60        28.3 0.50                           389 210 
                                                                                
