 2017  7 4 0830 21.7 L   6.799 -73.152144.9  RSN 11 0.5 1.6LRSN                1
 GAP=111        1.12       5.5     4.6  6.7  0.4865E+01  0.2616E+01  0.9747E+01E
 Epicentro: LOS SANTOS - SANTANDER                                             3
 ACTION:UPD 17-08-30 15:29 OP:rebc STATUS:               ID:20170704083021 L   I
 OLDACT:UP  17-07-04 17:08 OP:edw  STATUS:               ID:20170704082739     3
 OLDACT:UP  17-07-04 17:08 OP:edw  STATUS:               ID:20170704082739     3
 OLDACT:REG 17-07-04 13:06 OP:edw  STATUS:               ID:20170704082739     3
 2017-07-04-0828-00M.COL___371                                                 6
 STAT SP IPHASW D HRMM SECON CODA AMPLIT PERI AZIMU VELO AIN AR TRES W  DIS CAZ7
 BAR2 EZ EP        830 41.30                             170    0.0510 23.1 188 
 BAR2 EZ ES        830 56.43                             170   -0.0510 23.1 188 
 BAR2 EZ I         830 57.35        12.4 0.28            169           23.1 188 
 BRR  HZ EP        830 43.07                             153    0.3110 70.6 299 
 BRR  HN ES        830 59.59                             153    0.4410 70.6 299 
 BRR  HZ I         831  3.25         6.8 0.40            151           70.6 299 
 PAM  EZ EP        830 44.18                             151    0.2910 77.9  40 
 PAM  EN ES        831  0.55                             151   -0.6210 77.9  40 
 PAM  EZ I         831  3.45        13.0 0.42            154           77.9  40 
 PTB  HZ EP        830 48.10                             132   -0.46 9  147 259 
 PTB  HN ES        831  8.86                             132   -0.63 9  147 259 
 PTB  HZ I         831 10.92         2.0 0.16            131            147 259 
 SPBC HZ EP   9    830 49.39                             129   -0.72 0  163 219 
 SPBC HN ES   1    831 11.99                             129    0.46 7  163 219 
 SPBC HZ I         831 16.92        10.3 0.24            129            163 219 
 YPLC HZ IP     C  830 51.65                             126    0.16 9  177 151 
 YPLC HN ES        831 15.30                             126    0.60 9  177 151 
 YPLC HZ I         831 17.10         4.3 0.28            128            177 151 
 ZAR  HZ EP        830 54.60                             122    0.54 9  203 292 
 ZAR  HN ES   4    831 18.57                             122   -0.70 0  203 292 
 ZAR  HZ I         831 26.19         2.8 0.26            122            203 292 
 NOR  HZ EP   2    830 56.78                             118   -0.56 4  234 234 
 NOR  HN ES   4    831 24.90                             118   -0.22 0  234 234 
 GUY2CHZ EP   4    831  7.09                             112    1.86 0  301 235 
 GUY2CHN ES   4    831 43.46                             112    4.31 0  301 235 
 GUY2CHZ I         831 47.38         1.8 0.24                           301 235 
 PTGC HZ EP        831  4.45                             111   -1.12 7  309 159 
 PTGC HN ES   4    831 37.79                             111   -1.97 0  309 159 
 CBOC HZ EP   2    831  9.29                             110    0.76 3  333 252 
 CBOC HN ES   2    831 45.84                             110    0.81 3  333 252 
 CBOC HZ I         831 49.42         0.8 0.64            110            333 252 
                                                                                
