 2016  8 4 0549  5.4 L   6.222 -73.661 93.9  RSN  5 0.3 1.1LRSN                1
 GAP=211        0.64      11.4     3.5 11.4  0.3843E+01  0.1689E+01 -0.1018E+03E
 Epicentro: LA PAZ - SANTANDER                                                 3
 ACTION:UPD 16-10-29 15:32 OP:rebc STATUS:               ID:20160804054905 L   I
 OLDACT:UP  16-08-04 15:36 OP:dani STATUS:               ID:20160804054734     3
 OLDACT:REG 16-08-04 12:28 OP:dani STATUS:               ID:20160804054734     3
 2016-08-04-0548-00M.COL___323                                                 6
 STAT SP IPHASW D HRMM SECON CODA AMPLIT PERI AZIMU VELO AIN AR TRES W  DIS CAZ7
 RUS  HZ EP        549 21.96                             139   -0.1710 73.6 120 
 RUS  HZ I         549 38.36         2.2 0.17                          73.6 120 
 SPBC HZ EP        549 22.11                             137    0.1910 77.8 216 
 SPBC HN ES        549 34.84                             137    0.0410 77.8 216 
 SPBC HZ I         549 40.07         6.5 0.10                          77.8 216 
 HEL  HZ EP        549 36.28                             110    0.44 8  207 269 
 HEL  HN ES        549 59.31                             110            207 269 
 HEL  HN IS        549 59.31                             110   -0.27 8  207 269 
 HEL  HZ I         550  5.74         1.2 0.44                           207 269 
 GUY2CHZ EP        549 37.09                             109   -0.27 8  219 240 
 GUY2CHZ I         550  7.33         1.2 0.58                           219 240 
 CBOC HZ EP   4    549 39.63                             105   -2.62 0  263 261 
 CBOC HZ I         550 12.80         0.9 0.58                           263 261 
                                                                                
