 2016  1 4 0001 51.0 L   6.054 -73.812100.9  RSN  5 0.3 1.4LRSN                1
 GAP=111        0.86       3.4     3.2  7.6 -0.1575E+01  0.8216E+00 -0.3736E+01E
 Epicentro: EL PENON - SANTANDER                                               3
 ACTION:UPD 16-03-09 23:22 OP:cam  STATUS:               ID:20160104000151 L   I
 OLDACT:REG 16-01-04 12:49 OP:drio STATUS:               ID:20160104000005     3
 2016-01-04-0000-05M.COL___314                                                 6
 STAT SP IPHASW D HRMM SECON CODA AMPLIT PERI AZIMU VELO AIN AR TRES W  DIS CAZ7
 SPBC HZ EP        0 2  6.34                             150   -0.0510 53.0 213 
 SPBC HE ES        0 2 18.75                             150    0.3410 53.0 213 
 SPBC HZ I         0 2 22.65         8.0 0.30            152           53.0 213 
 RUS  HZ EP        0 2  8.91                             138   -0.1810 82.6 102 
 RUS  HE ES        0 2 23.03                             138   -0.1910 82.6 102 
 RUS  HZ I         0 2 24.95         3.0 0.22            142           82.6 102 
 PTB  HZ EP   4    0 2  7.67                             135   -1.33 0 89.3 307 
 PTB  HN ES        0 2 22.40                             135   -0.6610 89.3 307 
 PTB  HZ I         0 2 24.05         4.6 0.38            140           89.3 307 
 BRR  HZ EP     D  0 2 11.80                             126    0.2510  117   5 
 BRR  HN ES        0 2 28.00                             126    0.4110  117   5 
 NOR  HZ EP        0 2 12.70                             123   -0.1310  129 245 
 NOR  HE ES        0 2 30.14                             123    0.2610  129 245 
 NOR  HZ I         0 2 31.72        10.4 0.38            127            129 245 
                                                                                
