 2013  4 4 0538 12.8 L   6.731 -73.142147.9  RSN  8 0.4 1.3LRSN                1
 GAP=183        0.78       4.0     4.9  6.8  0.2299E+01  0.6910E+01  0.2941E+01E
 Epicentro: JORDAN - SANTANDER                                                 3
 ACTION:UPD 13-05-22 14:35 OP:EP   STATUS:               ID:20130404053812 L   I
 2013-04-04-0536-36M.COL___212                                                 6
 STAT SP IPHASW D HRMM SECON CODA AMPLIT PERI AZIMU VELO AIN AR TRES W  DIS CAZ7
 BAR2 SZ EP   1    538 32.39                             174   -0.18 7 16.0 196 
 BAR2 SZ ES   1    538 47.41                             174   -0.58 7 16.0 196 
 BAR2 SZ I         538 50.14         5.9 0.28            171           16.0 196 
 GIR2 SZ EP   1    538 32.40                             165   -0.56 7 38.9 352 
 GIR2 SZ ES   1    538 48.94                             165    0.27 7 38.9 352 
 GIR2 SZ I         538 52.07         2.5 0.32            166           38.9 352 
 BRR  HZ EP        538 34.61                             151    0.1710 75.5 303 
 BRR  HN ES   1    538 51.73                             151    0.43 7 75.5 303 
 BRR  HZ I         538 54.92         3.4 0.16            151           75.5 303 
 RUS  HZ EP        538 36.57                             146    0.3310 93.0 176 
 RUS  HN ES   1    538 54.82                             146    0.30 7 93.0 176 
 RUS  HZ I         538 56.70         1.6 0.16            149           93.0 176 
 PTB  HZ EP   1    538 39.56                             133   -0.32 7  147 262 
 PTB  HN ES   1    539  0.37                             133   -0.62 7  147 262 
 PTB  HZ I         539  7.91         4.5 0.26            134            147 262 
 OCA  HN ES   1    539  4.66                             129   -0.11 7  168 353 
 ZAR  HN ES   1    539 11.88                             122    0.45 6  207 294 
 NOR  HE ES   1    539 15.90                             119    0.02 6  231 236 
                                                                                
