 2016  1 4 0820 42.6 L   6.756 -73.135149.5  RSN  4 0.4 1.0LRSN                1
 GAP=235        1.12       6.8    10.2  9.0  0.1294E+02  0.6178E+01  0.7609E+01E
 Epicentro: LOS SANTOS - SANTANDER                                             3
 ACTION:UPD 16-03-09 23:22 OP:cam  STATUS:               ID:20160104082042 L   I
 OLDACT:DUP 16-01-04 16:48 OP:drio STATUS:               ID:20160104080746d    3
 OLDACT:REG 16-01-04 13:16 OP:drio STATUS:               ID:20160104080745d    3
 2016-01-04-0807-44M.COL___311                                                 6
 STAT SP IPHASW D HRMM SECON CODA AMPLIT PERI AZIMU VELO AIN AR TRES W  DIS CAZ7
 BAR2 EZ EP        821  2.59                             172   -0.0610 18.9 196 
 BAR2 EZ ES        821 17.91                             172   -0.3410 18.9 196 
 BAR2 EZ I         821 19.33         3.6 0.30            168           18.9 196 
 BRR  HZ EP        821  3.67                             152   -0.7310 74.6 301 
 BRR  HE ES        821 21.99                             152    0.6310 74.6 301 
 BRR  HZ I         821 22.67         1.5 0.14            151           74.6 301 
 RUS  HZ EP        821  6.81                             146    0.3810 95.7 177 
 RUS  HN ES        821 25.08                             146    0.1010 95.7 177 
 RUS  HZ I         821 26.85         0.9 0.24            145           95.7 177 
 SPBC HZ EP        821 11.55                             130    0.39 9  160 220 
 SPBC HN ES        821 33.02                             130   -0.38 9  160 220 
 SPBC HZ I         821 38.01         1.9 0.10            129            160 220 
                                                                                
