 2017  4 4 0738  9.2 L   5.843 -73.764116.8  RSN  6 0.2 0.9LRSN                1
 GAP=153        0.30       2.9     2.4  4.4  0.9777E+00 -0.8150E+00 -0.4216E+01E
 Epicentro: JESUS MARIA - SANTANDER                                            3
 ACTION:UPD 17-05-30 21:08 OP:jn   STATUS:               ID:20170404073809 L   I
 OLDACT:UP  17-04-04 15:05 OP:and  STATUS:               ID:20170404072745d    3
 OLDACT:UP  17-04-04 15:05 OP:and  STATUS:               ID:20170404072745d    3
 OLDACT:DUP 17-04-04 15:01 OP:and  STATUS:               ID:20170404072745d    3
 2017-04-04-0728-00M.COL___359                                                 6
 STAT SP IPHASW D HRMM SECON CODA AMPLIT PERI AZIMU VELO AIN AR TRES W  DIS CAZ7
 SPBC HZ EP   2    738 25.93                             160    0.23 5 40.2 238 
 SPBC HN ES   2    738 38.32                             160   -0.25 5 40.2 238 
 SPBC HZ I         738 40.16         3.5 0.28            162           40.2 238 
 RUS  HZ EP   2    738 28.29                             145    0.00 5 75.5  86 
 RUS  HN ES   2    738 43.20                             145    0.02 5 75.5  86 
 RUS  HZ I         738 45.31         1.4 0.22            147           75.5  86 
 BAR2 EZ EP        738 30.25                             135    0.0210  105  38 
 BAR2 EZ ES   2    738 46.59                             135   -0.06 5  105  38 
 PTB  HZ EP   2    738 30.18                             134   -0.08 5  109 315 
 PTB  HN ES   2    738 46.97                             134    0.27 5  109 315 
 BRR  HZ EP   2    738 33.02                             126   -0.14 5  140   2 
 BRR  HN ES   2    738 51.96                             126    0.09 5  140   2 
 ZAR  HN ES   2    739  6.63                             113   -0.22 4  219 327 
                                                                                
