 2013  9 4 0954 31.0 L   6.833 -73.150146.9  RSN 14 0.6 2.1LRSN                1
 GAP=134        1.12       3.0     4.7  6.1  0.1919E-01  0.8068E+01  0.5707E+00E
 Epicentro: LOS SANTOS - SANTANDER                                             3
 ACTION:UPD 13-10-22 09:19 OP:ep   STATUS:               ID:20130904095431 L   I
 OLDACT:UP  13-09-04 11:38 OP:cam  STATUS:               ID:20130904094959     3
 OLDACT:UP  13-09-04 11:38 OP:cam  STATUS:               ID:20130904094959     3
 OLDACT:REG 13-09-04 09:22 OP:cam  STATUS:               ID:20130904094959     3
 2013-09-04-0949-59M.COL___269                                                 6
 STAT SP IPHASW D HRMM SECON CODA AMPLIT PERI AZIMU VELO AIN AR TRES W  DIS CAZ7
 BAR2 SZ EP        954 50.72                             169   -0.1210 26.8 188 
 BAR2 SZ ES        955  5.99                             169   -0.3310 26.8 188 
 BAR2 SZ I         955  7.24        22.3 0.48            167           26.8 188 
 BRR  HZ EP        954 52.51                             153    0.3510 69.1 296 
 BRR  HN ES        955  9.53                             153    0.8710 69.1 296 
 BRR  HZ I         955  9.83        24.2 0.32            152           69.1 296 
 PAM  SZ EP        954 53.58                             152    0.3910 74.9  42 
 PAM  SN ES        955 10.51                             152    0.0110 74.9  42 
 PAM  SZ I         955 11.07        10.2 0.26            155           74.9  42 
 RUS  HZ EP        954 54.81                             143   -0.3210  104 176 
 RUS  HN ES        955 13.60                             143   -0.3410  104 176 
 RUS  HZ I         955 15.34        11.9 0.26            143            104 176 
 PTB  HZ EP        954 57.28                             132   -0.81 9  148 257 
 PTB  HN ES        955 18.45                             132   -0.76 9  148 257 
 PTB  HZ I         955 20.80        14.1 0.12            131            148 257 
 OCA  HN ES   1    955 21.15                             131    0.21 7  157 353 
 OCA  HZ I         955 23.23        15.8 0.24            132            157 353 
 SPBC HZ EP        954 59.96                             129    0.13 9  166 218 
 SPBC HN ES        955 22.50                             129    0.19 9  166 218 
 SPBC HZ I         955 29.21        11.6 0.18            128            166 218 
 ZAR  HZ EP        955  3.45                             123    0.11 9  202 291 
 ZAR  HN ES        955 29.03                             123    0.47 9  202 291 
 ZAR  HZ I         955 34.23        12.0 0.36            122            202 291 
 SML  HZ EP        955  7.44                             118    0.13 8  240 335 
 SML  HN ES        955 35.11                             118   -0.53 8  240 335 
 SML  HZ I         955 38.51        24.4 0.10            119            240 335 
 CHI  HZ EP   1    955  9.33                             117    0.20 6  252 195 
 CHI  HN ES        955 39.00                             117    0.14 8  252 195 
 CHI  HZ I         955 44.83         5.4 0.30            117            252 195 
 HEL  HZ EP   2    955 11.99                             115    0.67 4  273 255 
 GUY2CHZ EP   2    955 16.37                             112    1.52 4  303 234 
 PRA  HZ EP   2    955 25.18                             107    0.28 3  395 209 
 PRA  HN ES        956  7.50                             107    0.56 6  395 209 
 PRA  HZ I         956 11.41         5.6 0.36            107            395 209 
 SJC  HZ EP   4    955 25.01                             106   -1.20 0  406 327 
 SJC  HN ES   1    956  7.37                             106   -1.91 4  406 327 
 SJC  HZ I         956  9.93         1.5 0.22            106            406 327 
                                                                                
