 2013 12 4 0806 18.1 L   6.776 -73.128151.1  RSN  8 0.4 1.6LRSN                1
 GAP=140        0.92       3.5     4.4  6.2 -0.4842E+01  0.4769E+01  0.1939E+01E
 Epicentro: LOS SANTOS - SANTANDER                                             3
 ACTION:UPD 14-01-13 10:15 OP:ep   STATUS:               ID:20131204080618 L   I
 OLDACT:DUP 13-12-04 11:14 OP:carl STATUS:               ID:20131204080001d    3
 2013-12-04-0800-00M.COL___285                                                 6
 STAT SP IPHASW D HRMM SECON CODA AMPLIT PERI AZIMU VELO AIN AR TRES W  DIS CAZ7
 BAR2 SZ EP        8 6 38.44                             172    0.1010 21.2 197 
 BAR2 SZ ES        8 6 54.09                             172   -0.0410 21.2 197 
 BAR2 SZ I         8 6 55.67        11.4 0.28            171           21.2 197 
 BRR  HZ IP     C  8 6 40.30                             152    0.2910 74.2 300 
 BRR  HN ES        8 6 57.92                             152    0.8310 74.2 300 
 BRR  HZ I         8 7  1.77         4.5 0.34            151           74.2 300 
 PAM  SZ EP        8 6 41.16                             151    0.2110 78.2  37 
 PAM  SN ES        8 6 58.41                             151   -0.3510 78.2  37 
 RUS  HZ EP        8 6 42.05                             146   -0.1510 97.8 177 
 RUS  HN ES        8 7  0.91                             146   -0.0810 97.8 177 
 RUS  HZ I         8 7  2.25         4.5 0.24            148           97.8 177 
 PTB  HZ EP        8 6 45.51                             133   -0.14 9  149 260 
 PTB  HN ES        8 7  6.48                             133   -0.65 9  149 260 
 PTB  HZ I         8 7 12.12         5.3 0.40            133            149 260 
 SPBC HZ EP        8 6 47.22                             130    0.27 9  162 220 
 SPBC HN ES        8 7  9.57                             130    0.12 9  162 220 
 OCA  HN ES        8 7  9.33                             130   -0.39 9  163 353 
 NOR  HE ES        8 7 22.09                             120   -0.20 8  235 235 
                                                                                
