 2012 11 4 0843  8.5 L   6.376 -73.639105.8  RSN  7 0.4 1.7LRSN                1
 GAP= 81        0.71       3.0     4.3  9.0  0.2834E+01  0.2480E+02  0.3222E+01E
 Epicentro: SANTA HELENA DEL OPON - SANTANDER                                  3
 ACTION:UPD 12-12-05 15:31 OP:}ep  STATUS:               ID:20121104084308 L   I
 2012-11-04-0840-00M.COL___229                                                 6
 STAT SP IPHASW D HRMM SECON CODA AMPLIT PERI AZIMU VELO AIN AR TRES W  DIS CAZ7
 BAR2 SZ EP   1    843 25.14                             150    0.36 7 55.9  65 
 BAR2 SZ ES   1    843 37.87                             150    0.35 7 55.9  65 
 BAR2 SZ I         843 39.21        39.9 0.18                          55.9  65 
 BRR  HZ EP   1    843 25.98                             139   -0.26 7 81.3 354 
 RUS  HZ EP        843 26.79                             140   -0.1510 81.5 131 
 RUS  HN ES   1    843 40.75                             140   -0.60 7 81.5 131 
 RUS  HN I         843 42.30         3.8 0.28                          81.5 131 
 ZAR  HZ EP   1    843 36.01                             115   -0.27 7  183 313 
 ZAR  HN ES   1    843 58.16                             115    0.18 7  183 313 
 ZAR  HN I         844  1.59        11.2 0.30                           183 313 
 CHI  HZ EP   1    843 37.77                             114   -0.21 7  193 183 
 CHI  HN ES   1    844  1.80                             114    0.80 7  193 183 
 CHI  HN I         844  5.57         3.4 0.42                           193 183 
 OCA  HN ES   1    844  3.70                             111    0.14 6  209  10 
 HEL  HZ EP   1    843 40.00                             111    0.19 6  210 265 
 HEL  HN ES   1    844  3.97                             111   -0.29 6  210 265 
 HEL  HN I         844  7.49         4.8 0.28                           210 265 
                                                                                
