 2011  3 4 0304 51.2 L   6.800 -73.210141.8  RSN  4 0.1 1.4LRSN                1
 GAP=187        0.33       3.1    12.9  4.2 -0.3147E+02  0.2329E+02 -0.2852E+01E
 Epicentro: ZAPATOCA - SANTANDER                                               3
 ACTION:UP  11-06-16 14:31 OP:jfem STATUS:               ID:20110304030451 L   I
 2011-03-04-0304-12S.COL___135                                                 6
 STAT SP IPHASW D HRMM SECON CODA AMPLIT PERI AZIMU VELO SNR AR TRES W  DIS CAZ7
 BAR2 SZ EP   1    3 5 10.55                             170     0.2 7   23 173 
 BAR2 SZ ES   1    3 5 25.20                             170    -0.1 7   23 173 
 BAR2 SZ I         3 5 27.19         8.5 0.17                            23 173 
 RUS  HZ EP   1    3 5 14.54                             143    -0.1 7  101 172 
 RUS  HE ES   1    3 5 32.92                             143     0.0 7  101 172 
 RUS  HZ I         3 5 34.91         3.2 0.42                           101 172 
 GRA  SZ EP   3    3 5 16.18                             135    -0.1 2  128  20 
 GRA  SZ ES   1    3 5 35.81                             135     0.0 7  128  20 
 GRA  SZ I         3 5 39.04         2.6 0.41                           128  20 
 CHI  HZ EP   1    3 5 28.42                             116    -0.1 6  247 194 
 CHI  HE ES   2    3 5 57.55                             116     0.0 4  247 194 
 CHI  HZ I         3 6  1.77         1.7 0.47                           247 194 
                                                                                
