 2016  1 4 0032 45.5 L   6.792 -73.142153.1  RSN  7 0.5 1.7LRSN                1
 GAP=137        1.35       5.0     6.7  9.2 -0.4264E+01  0.1301E+02 -0.6106E+01E
 Epicentro: LOS SANTOS - SANTANDER                                             3
 ACTION:UPD 16-03-09 23:22 OP:cam  STATUS:               ID:20160104003245 L   I
 OLDACT:REG 16-01-04 12:50 OP:drio STATUS:               ID:20160104002749     3
 2016-01-04-0027-49M.COL___314                                                 6
 STAT SP IPHASW D HRMM SECON CODA AMPLIT PERI AZIMU VELO AIN AR TRES W  DIS CAZ7
 BRR  HZ EP        033  8.15                             153    0.6910 72.0 299 
 BRR  HE ES        033 25.62                             153    1.0010 72.0 299 
 BRR  HZ I         033 28.51         5.6 0.16            150           72.0 299 
 PAM  EZ EP        033  8.77                             152    0.2710 77.8  39 
 PAM  EE ES        033 26.07                             152   -0.4010 77.8  39 
 PAM  EZ I         033 28.35         4.6 0.56            155           77.8  39 
 RUS  HZ EP        033  9.98                             146    0.0910 99.7 176 
 RUS  HN ES        033 28.50                             146   -0.4410 99.7 176 
 RUS  HZ I         033 30.30         2.9 0.18            150           99.7 176 
 PTB  HZ EP        033 13.16                             134    0.09 9  148 259 
 PTB  HN ES        033 34.18                             134   -0.41 9  148 259 
 PTB  HZ I         033 41.46         8.6 0.28            134            148 259 
 SPBC HZ EP        033 14.97                             131    0.47 9  163 219 
 SPBC HN ES        033 36.55                             131   -0.60 9  163 219 
 ZAR  HZ EP        033 18.62                             124    0.14 9  205 292 
 ZAR  HN ES   4    033 42.76                             124   -1.46 0  205 292 
 ZAR  HZ I         033 49.73         5.5 0.30            124            205 292 
 SML  HZ EP        033 21.98                             119   -0.64 8  245 335 
 SML  HE ES        033 50.76                             119   -0.84 8  245 335 
 SML  HZ I         033 57.75         7.4 0.10            120            245 335 
                                                                                
