 2010  8 4 0701 54.3 L   6.777 -73.107144.9  RSN  7 0.2 1.7LRSN                1
 GAP=163        0.46       2.9     7.3  5.2 -0.1548E-01 -0.1010E+02 -0.3018E+01E
 Epicentro: LOS SANTOS - SANTANDER                                             3
 ACTION:UP  10-09-07 10:52 OP:vdl  STATUS:               ID:20100804070154 L   I
 2010-08-04-0658-48S.COL___125                                                 6
 STAT SP IPHASW D HRMM SECON CODA AMPLIT PERI AZIMU VELO SNR AR TRES W  DIS CAZ7
 BAR2 SZ EP   1    7 2 13.69                             171    -0.1 7   22 202 
 BAR2 SZ ES   2    7 2 28.38                             171    -0.6 5   22 202 
 BAR2 SZ I         7 2 29.73        11.7 0.31                            22 202 
 GIR2 SZ EP   1    7 2 13.81                             166    -0.1 7   35 344 
 GIR2 SZ ES   2    7 2 29.33                             166     0.1 5   35 344 
 BRR  HZ EP   1    7 2 15.42                             151    -0.2 7   76 299 
 BRR  HZ I         7 2 15.65        15.0 0.12                            76 299 
 BRR  HE ES   2    7 2 32.58                             151     0.3 5   76 299 
 RUS  HZ EP   1    7 2 17.87                             145     0.1 7   98 178 
 RUS  HE ES   2    7 2 36.46                             145     0.4 5   98 178 
 RUS  HZ I         7 2 37.46         5.0 0.23                            98 178 
 GUE  SZ EP   1    7 2 18.88                             139    -0.1 7  118  10 
 GRA  SZ EP   1    7 2 19.63                             137     0.1 7  127  15 
 GRA  SZ ES   2    7 2 39.41                             137     0.2 5  127  15 
 OCA  SZ EP   1    7 2 22.84                             129     0.0 7  163 352 
 OCA  SZ ES   2    7 2 45.26                             129     0.2 5  163 352 
 OCA  SZ I         7 2 50.48         3.8 0.58                           163 352 
                                                                                
