 2017  9 4 0207 56.9 L   6.768 -73.120142.5  RSN  8 0.3 1.6LRSN                1
 GAP=141        0.61       2.5     3.2  4.7 -0.9706E+00  0.4331E+01  0.1088E+01E
 Epicentro: LOS SANTOS - SANTANDER                                             3
 ACTION:UPD 17-10-05 19:08 OP:rebc STATUS:               ID:20170904020756 L   I
 OLDACT:UP  17-09-04 14:06 OP:dnl  STATUS:               ID:20170904015743     3
 OLDACT:UP  17-09-04 14:06 OP:dnl  STATUS:               ID:20170904015743     3
 OLDACT:REG 17-09-04 12:20 OP:dnl  STATUS:               ID:20170904015743     3
 2017-09-04-0158-00M.COL___417                                                 6
 STAT SP IPHASW D HRMM SECON CODA AMPLIT PERI AZIMU VELO AIN AR TRES W  DIS CAZ7
 BAR2 EZ EP   2    2 8 16.07                             171   -0.01 5 20.6 200 
 BAR2 EZ ES        2 8 30.54                             171   -0.5110 20.6 200 
 BAR2 EZ I         2 8 32.19         8.5 0.16            169           20.6 200 
 BRR  HZ EP        2 8 17.88                             150   -0.0610 75.5 300 
 BRR  HN ES        2 8 34.53                             150    0.1710 75.5 300 
 BRR  HZ I         2 8 40.03         6.5 0.28            148           75.5 300 
 PAM  EZ EP        2 8 18.96                             150    0.1310 78.4  36 
 PAM  EN ES        2 8 36.14                             150    0.2010 78.4  36 
 PAM  EZ I         2 8 38.17        12.1 0.60            153           78.4  36 
 RUS  HZ EP   2    2 8 19.56                             144   -0.50 5 96.9 178 
 RUS  HN ES        2 8 38.25                             144    0.1210 96.9 178 
 RUS  HZ I         2 8 40.07         3.3 0.40            146           96.9 178 
 SPBC HZ EP   2    2 8 24.46                             128   -0.60 5  162 221 
 SPBC HN ES        2 8 47.36                             128    0.33 9  162 221 
 SPBC HZ I         2 8 49.73         3.9 0.10            128            162 221 
 ZAR  HZ EP   4    2 8 30.41                             121    0.86 0  208 293 
 ZAR  HN ES        2 8 54.88                             121   -0.14 8  208 293 
 ZAR  HZ I         2 9  2.78         6.3 0.48            121            208 293 
 PRA  HZ EP   2    2 8 50.04                             106   -0.07 3  390 210 
 PRA  HN ES        2 9 31.70                             106    0.09 6  390 210 
 PRA  HZ I         2 9 38.91         1.6 0.32            107            390 210 
 SJC  HZ EP   4    2 8 50.87                             105   -2.02 0  414 327 
 SJC  HN ES   4    2 9 31.16                             105   -5.40 0  414 327 
 SJC  HZ I         2 9 35.77         1.4 0.54            106            414 327 
                                                                                
