 2017  5 4 0150 21.6 L   6.782 -73.154143.9  RSN 10 0.3 1.9LRSN                1
 GAP=112        0.79       3.0     3.0  5.3  0.4690E+00  0.7564E+00  0.3749E+01E
 Epicentro: LOS SANTOS - SANTANDER                                             3
 ACTION:UPD 17-06-16 13:32 OP:jn   STATUS:               ID:20170504015021 L   I
 OLDACT:UP  17-05-04 15:01 OP:edw  STATUS:               ID:20170504014737     3
 OLDACT:UP  17-05-04 15:01 OP:edw  STATUS:               ID:20170504014737     3
 OLDACT:REG 17-05-04 12:50 OP:edw  STATUS:               ID:20170504014737     3
 2017-05-04-0148-00M.COL___371                                                 6
 STAT SP IPHASW D HRMM SECON CODA AMPLIT PERI AZIMU VELO AIN AR TRES W  DIS CAZ7
 BRR  HZ IP        150 42.56                             152    0.0510 71.4 300 
 BRR  HN ES        150 59.33                             152    0.4710 71.4 300 
 BRR  HZ I         151  0.17        13.6 0.12            151           71.4 300 
 PAM  EZ IP     C  150 43.64                             150   -0.0610 79.5  39 
 PAM  EN ES        151  0.57                             150   -0.4010 79.5  39 
 PAM  EZ I         151  2.95        17.8 0.48            152           79.5  39 
 RUS  HZ EP        150 44.83                             144   -0.1610 98.7 175 
 RUS  HN ES        151  3.25                             144   -0.0210 98.7 175 
 RUS  HZ I         151  4.05        12.3 0.18            145           98.7 175 
 PTB  HZ EP   9    150 47.48                             132   -0.77 0  146 260 
 PTB  HN ES        151  8.45                             132    0.14 9  146 260 
 PTB  HZ I         151 10.29        10.8 0.46            131            146 260 
 SPBC HZ EP        150 49.49                             129   -0.22 9  161 219 
 SPBC HN ES        151 11.51                             129   -0.17 9  161 219 
 SPBC HZ I         151 15.12        22.1 0.10            129            161 219 
 YPLC HZ EP        150 51.09                             126    0.00 9  176 151 
 YPLC HN ES        151 14.61                             126    0.48 9  176 151 
 YPLC HZ I         151 15.65         6.9 0.26            128            176 151 
 ZAR  HZ EP   4    150 55.05                             122    1.18 0  204 293 
 ZAR  HN ES        151 19.04                             122   -0.03 9  204 293 
 ZAR  HZ I         151 25.47        12.3 0.26            122            204 293 
 NOR  HZ EP        150 57.63                             118    0.66 8  233 235 
 NOR  HN ES        151 24.06                             118   -0.54 8  233 235 
 NOR  HZ I         151 28.59         6.6 0.44            118            233 235 
 CBOC HZ EP   4    151  9.57                             110    1.35 0  332 252 
 CBOC HN ES   4    151 45.65                             110    1.03 0  332 252 
 CBOC HZ I         151 47.73         1.6 0.22            110            332 252 
 DBB  EZ EP   4    151  6.05                             109   -2.82 0  339 275 
 DBB  EN ES   4    151 43.81                             109   -1.96 0  339 275 
 SJC  HZ EP   4    151 14.96                             105   -2.23 0  410 327 
 SJC  HN ES   4    151 55.16                             105   -5.42 0  410 327 
 SJC  HZ I         152  0.66         2.6 0.76            106            410 327 
                                                                                
