 2012  3 4 0013 35.2 L   6.785 -73.132142.0  RSN  8 0.3 2.2LRSN                1
 GAP=139        0.88       4.3     4.3  6.1 -0.1756E+01  0.4138E+01 -0.8918E+00E
 ACTION:UP  12-03-31 23:16 OP:EP   STATUS:               ID:20120304001335 L   I
 2012-03-04-0010-00M.COL___191                                                 6
 STAT SP IPHASW D HRMM SECON CODA AMPLIT PERI AZIMU VELO SNR AR TRES W  DIS CAZ7
 BAR2 SZ EP        013 54.56                             171     0.210   22 195 
 BAR2 SZ I         013 55.12        33.3 0.17                            22 195 
 BAR2 SZ ES   1    014  8.94                             171    -0.3 7   22 195 
 BRR  HZ EP        013 56.33                             151     0.310   73 299 
 BRR  HN ES        014 12.88                             151     0.610   73 299 
 BRR  HZ I         014 17.48        33.2 0.23                            73 299 
 PAM  SZ EP        013 57.33                             150     0.310   78  38 
 PAM  SN ES   1    014 13.37                             150    -0.7 7   78  38 
 RUS  HZ EP        013 58.61                             144     0.210   99 177 
 RUS  HN ES   1    014 16.38                             144    -0.2 7   99 177 
 RUS  HZ I         014 19.19        14.2 0.35                            99 177 
 PTB  HZ EP        014  1.58                             131    -0.4 9  149 260 
 PTB  HE ES   1    014 22.80                             131     0.0 7  149 260 
 OCA  SZ EP        014  3.10                             128    -0.3 9  162 353 
 ZAR  HZ EP   1    014  7.46                             121    -0.1 6  206 292 
 ZAR  HE ES   1    014 32.48                             121    -0.4 6  206 292 
 ZAR  HZ I         014 39.20        26.0 0.54                           206 292 
 NOR  SZ EP   1    014 10.89                             118     0.2 6  235 235 
 NOR  SE ES   1    014 38.13                             118    -0.3 6  235 235 
                                                                                
