 2013  9 4 0822 45.7 L   6.798 -73.138149.8  RSN  9 0.4 1.6LRSN                1
 GAP=138        0.98       3.5     4.8  6.1 -0.7987E+00  0.7126E+01 -0.9300E+00E
 Epicentro: LOS SANTOS - SANTANDER                                             3
 ACTION:UPD 13-10-22 09:19 OP:ep   STATUS:               ID:20130904082245 L   I
 OLDACT:UP  13-09-04 11:24 OP:cam  STATUS:               ID:20130904081959     3
 OLDACT:UP  13-09-04 11:24 OP:cam  STATUS:               ID:20130904081959     3
 OLDACT:REG 13-09-04 09:19 OP:cam  STATUS:               ID:20130904081959     3
 2013-09-04-0819-59M.COL___269                                                 6
 STAT SP IPHASW D HRMM SECON CODA AMPLIT PERI AZIMU VELO AIN AR TRES W  DIS CAZ7
 BAR2 SZ EP   1    823  5.87                             171    0.09 7 23.3 192 
 BAR2 SZ ES        823 21.09                             171   -0.3710 23.3 192 
 BAR2 SZ I         823 22.53         6.8 0.31            171           23.3 192 
 BRR  HZ EP        823  7.56                             153    0.2610 72.1 298 
 BRR  HN ES        823 25.03                             153    0.8610 72.1 298 
 BRR  HZ I         823 28.80         5.3 0.14            151           72.1 298 
 PAM  SZ EP        823  8.59                             152    0.3010 77.0  39 
 PAM  SN ES        823 25.87                             152   -0.0610 77.0  39 
 PAM  SZ I         823 27.87         5.0 0.20            154           77.0  39 
 RUS  HZ EP   1    823 10.13                             145    0.33 7  100 177 
 RUS  HN ES        823 28.23                             145   -0.3810  100 177 
 RUS  HZ I         823 29.32         3.4 0.42            148            100 177 
 PTB  HZ EP        823 12.60                             133   -0.44 9  149 259 
 PTB  HN ES   1    823 33.85                             133   -0.53 7  149 259 
 PTB  HZ I         823 37.51         3.7 0.24            133            149 259 
 SPBC HZ EP        823 14.62                             130    0.11 9  164 219 
 SPBC HN ES        823 37.07                             130    0.06 9  164 219 
 SPBC HZ I         823 41.63         6.4 0.22            131            164 219 
 ZAR  HN ES   1    823 44.35                             123    0.30 6  205 292 
 SML  HZ EP   1    823 22.16                             118   -0.42 6  244 335 
 SML  HN ES        823 50.67                             118   -0.71 8  244 335 
 SML  HZ I         823 57.07         8.6 0.10            119            244 335 
 CHI  HZ EP   1    823 23.98                             118    0.39 6  249 195 
                                                                                
