 2011 11 4 0529 58.7 L   6.779 -73.113147.7  RSN 10 0.3 2.4LRSN                1
 GAP=118        0.60       2.7     3.7  4.1 -0.3412E+00  0.1925E+01  0.9357E-01E
 Epicentro: LOS SANTOS - SANTANDER                                             3
 ACTION:UPD 12-07-13 16:08 OP:ep   STATUS:               ID:20111104052958 L   I
 2011-11-04-0527-13S.COL___175                                                 6
 STAT SP IPHASW D HRMM SECON CODA AMPLIT PERI AZIMU VELO AIN AR TRES W  DIS CAZ7
 BAR2 SZ EP        530 18.62                             171    0.0410 22.1 200 
 BAR2 SZ ES        530 34.09                             171    0.0410 22.1 200 
 BAR2 SZ I         530 35.36        73.4 0.24                          22.1 200 
 BRR  HZ IP     C  530 20.51                             151    0.1710 75.5 299 
 BRR  HZ I         530 20.77        88.3 0.15                          75.5 299 
 BRR  HE ES        530 37.58                             151    0.3910 75.5 299 
 PAM  SZ EP   1    530 21.16                             151    0.03 7 77.0  36 
 PAM  SN ES   1    530 38.48                             151   -0.13 7 77.0  36 
 RUS  HZ EP        530 22.51                             145    0.0110 98.1 178 
 RUS  HN ES   1    530 40.59                             145   -0.45 7 98.1 178 
 RUS  HZ I         530 42.53        29.6 0.51                          98.1 178 
 OCA  SZ EP        530 27.42                             130   -0.04 9  163 352 
 OCA  SZ ES   1    530 49.44                             130   -0.42 7  163 352 
 OCA  SZ I         531  1.55        17.8 0.34                           163 352 
 YOP  SZ EP   2    530 29.00                             127    0.44 4  175 154 
 ZAR  HZ EP   2    530 31.25                             122   -0.49 4  208 292 
 ZAR  HE ES   2    530 56.82                             122   -0.67 4  208 292 
 ZAR  HZ I         531  2.72        31.5 0.46                           208 292 
 NOR  SZ EP   2    530 33.92                             119   -0.83 4  236 235 
 NOR  SE ES   1    531  2.85                             119    0.00 6  236 235 
 HEL  HZ EP   2    530 40.24                             115    0.86 4  275 256 
 HEL  HZ I         531 17.47        10.9 0.28                           275 256 
 RREF HZ EP   2    530 45.35                             111    0.24 3  323 230 
 RREF HZ I         531 29.79        15.3 0.47                           323 230 
                                                                                
