 2016  3 4 0417 13.2 L   6.685 -73.253129.0  RSN  8 0.4 1.7LRSN                1
 GAP=103        0.91       2.8     4.4  5.9 -0.4170E+01  0.6997E+01 -0.1390E+01E
 Epicentro: BARICHARA - SANTANDER                                              3
 ACTION:UPD 16-05-13 21:21 OP:cam  STATUS:               ID:20160304041713 L   I
 OLDACT:UP  16-03-14 10:32 OP:Ak   STATUS:               ID:20160304041713 L   3
 OLDACT:UP  16-03-04 16:38 OP:mh   STATUS:               ID:20160304040748     3
 OLDACT:REG 16-03-04 12:56 OP:mh   STATUS:               ID:20160304040748     3
 2016-03-04-0407-48M.COL___331                                                 6
 STAT SP IPHASW D HRMM SECON CODA AMPLIT PERI AZIMU VELO AIN AR TRES W  DIS CAZ7
 BAR2 EZ IP     D  417 30.76                             174    0.1010 12.9 143 
 BAR2 EZ ES        417 44.55                             174    0.2910 12.9 143 
 BAR2 EZ I         417 46.69         5.5 0.15            178           12.9 143 
 RUS  HZ EP        417 34.21                             143   -0.3410 89.6 168 
 RUS  HN ES        417 51.18                             143    0.0110 89.6 168 
 RUS  HZ I         417 53.23         7.2 0.22            147           89.6 168 
 PAM  EZ EP        417 34.83                             142   -0.0910 94.7  40 
 PAM  EN ES        417 51.63                             142   -0.2010 94.7  40 
 PAM  EZ I         417 54.20         8.6 0.60            144           94.7  40 
 PTB  HZ EP   1    417 37.12                             131   -0.48 7  134 263 
 PTB  HN ES        417 56.14                             131   -0.4610  134 263 
 PTB  HZ I         417 57.77         7.9 0.18            131            134 263 
 SPBC HZ EP        417 38.93                             128    0.13 9  146 218 
 SPBC HN ES        417 59.19                             128    0.44 9  146 218 
 SPBC HZ I         418  1.55        16.2 0.26            130            146 218 
 OCA  HZ EP        417 42.33                             123    0.85 9  172 358 
 OCA  HE ES        418  3.19                             123   -0.31 9  172 358 
 OCA  HZ I         418  8.65        13.6 0.68            125            172 358 
 ZAR  HZ EP   1    417 44.57                             119    0.52 6  199 297 
 ZAR  HE ES   4    418 10.61                             119    2.52 0  199 297 
 ZAR  HZ I         418 15.57         4.2 0.40            120            199 297 
 CHI  HZ EP        417 47.89                             115   -0.48 8  233 193 
 CHI  HN ES        418 15.85                             115    0.08 8  233 193 
 CHI  HZ I         418 18.64         2.4 0.34            117            233 193 
                                                                                
