 2010 11 4 0403 28.8 L   6.774 -73.060150.7  RSN  7 0.2 1.7LRSN                1
 GAP=169        0.39       2.5     3.7  4.9 -0.2529E+01 -0.1764E+01  0.7768E+00E
 Epicentro: LOS SANTOS - SANTANDER                                             3
 ACTION:UP  10-12-17 16:50 OP:REBC STATUS:               ID:20101104040330dL   I
 2010-11-04-0402-20S.COL___128                                                 6
 STAT SP IPHASW D HRMM SECON CODA AMPLIT PERI AZIMU VELO SNR AR TRES W  DIS CAZ7
 BRR  HZ EP        4 3 50.97                             150     0.010   81 297 
 BRR  HN ES   1    4 4  8.32                             150     0.0 7   81 297 
 BRR  HZ I         4 4  9.90        14.1 0.10                            81 297 
 RUS  HZ EP   1    4 3 52.95                             146     0.2 7   98 181 
 RUS  HN ES   2    4 4 11.42                             146    -0.1 5   98 181 
 RUS  HZ I         4 4 12.70         4.6 0.45                            98 181 
 GUE  SZ EP   2    4 3 54.01                             140     0.0 5  118   7 
 GRA  SZ EP   2    4 3 54.78                             138     0.3 5  126  13 
 GRA  SZ ES   2    4 4 14.40                             138    -0.1 5  126  13 
 GRA  SZ I         4 4 16.09         5.1 0.18                           126  13 
 OCA  SZ EP   1    4 3 57.66                             130    -0.2 7  164 350 
 OCA  SZ ES   2    4 4 20.77                             130     0.2 5  164 350 
 OCA  SZ I         4 4 26.55         4.8 0.76                           164 350 
 NOR  SE ES   2    4 4 33.90                             119    -0.2 4  241 236 
 HEL  HZ EP   2    4 4  9.78                             115    -0.4 4  281 257 
 HEL  HN ES   2    4 4 42.89                             115     0.4 4  281 257 
 HEL  HZ I         4 4 48.31         2.6 0.35                           281 257 
                                                                                
