 2016 11 4 0202 15.8 L   6.737 -73.112144.0  RSN 11 0.5 1.9LRSN                1
 GAP=124        1.06       3.6     4.2  5.9  0.1090E+01  0.4945E+01  0.6774E+01E
 Epicentro: JORDAN - SANTANDER                                                 3
 ACTION:UPD 17-10-26 21:04 OP:lp   STATUS:               ID:20161104020215 L   I
 OLDACT:UP  16-11-04 14:01 OP:dani STATUS:               ID:20161104015745     3
 OLDACT:UP  16-11-04 14:00 OP:dani STATUS:               ID:20161104015745     3
 OLDACT:REG 16-11-04 12:24 OP:dani STATUS:               ID:20161104015745     3
 2016-11-04-0158-00M.COL___343                                                 6
 STAT SP IPHASW D HRMM SECON CODA AMPLIT PERI AZIMU VELO AIN AR TRES W  DIS CAZ7
 BAR2 EZ EP        2 2 35.01                             172   -0.1210 17.8 206 
 BAR2 HE ES        2 2 50.10                             172   -0.1010 17.8 206 
 BAR2 EZ I         2 2 51.62        20.7 0.26            172           17.8 206 
 BRR  HZ EP     C  2 2 37.05                             150   -0.1210 77.9 302 
 BRR  HE ES        2 2 54.02                             150    0.2010 77.9 302 
 BRR  HZ I         2 2 58.64        14.0 0.32            142           77.9 302 
 PAM  EZ EP     D  2 2 38.20                             150    0.1510 80.7  34 
 PAM  EE ES        2 2 55.53                             150    0.1410 80.7  34 
 PAM  EZ I         2 3  1.57         4.9 0.32            143           80.7  34 
 RUS  HZ EP        2 2 38.65                             146   -0.2410 93.5 178 
 RUS  HN ES        2 2 57.39                             146    0.5010 93.5 178 
 RUS  HZ I         2 2 58.21        12.3 0.22            143           93.5 178 
 PTB  HZ EP        2 2 42.12                             131   -0.74 9  150 262 
 PTB  HN ES   3    2 3  2.73                             131   -1.23 2  150 262 
 PTB  HZ I         2 3  5.65        10.3 0.16            124            150 262 
 SPBC HZ EP     D  2 2 43.95                             129    0.05 9  160 222 
 SPBC HN ES        2 3  5.48                             129   -0.33 9  160 222 
 SPBC HZ I         2 3  7.83        12.8 0.70            123            160 222 
 ZAR  HZ EP   3    2 2 50.23                             121    1.45 2  210 294 
 ZAR  HN ES        2 3 13.98                             121   -0.51 8  210 294 
 ZAR  HZ I         2 3 19.49        10.3 0.39            114            210 294 
 NOR  HZ EP        2 2 51.41                             118    0.06 8  234 236 
 NOR  HN ES        2 3 19.20                             118    0.14 8  234 236 
 NOR  HZ I         2 3 24.53         6.6 0.17            113            234 236 
 CHI  HZ EP        2 2 53.65                             117    0.85 8  243 196 
 CHI  HN ES        2 3 22.18                             117    0.53 8  243 196 
 CHI  HZ I         2 3 25.52         2.8 0.28            113            243 196 
 HEL  HZ EP        2 2 57.17                             114    1.01 8  274 257 
 HEL  HZ I         2 3 36.89         2.9 0.42            109            274 257 
 PTGC HZ EP        2 2 58.03                             112   -0.68 7  301 159 
 PTGC HN ES        2 3 31.38                             112   -0.79 7  301 159 
 PTGC HZ I         2 3 38.71         8.4 0.39            108            301 159 
                                                                                
