 2010  7 4 0505 56.4 L   6.833 -73.320122.3  RSN  4 0.2 1.1LRSN                1
 GAP=139        0.44       4.1     7.0  5.7  0.1390E+02 -0.2048E+02 -0.1140E+02E
 Epicentro: ZAPATOCA - SANTANDER                                               3
 ACTION:UPD 10-12-01 15:14 OP:pat  STATUS:               ID:20100704050556 L   I
 2010-07-04-0502-10S.COL___118                                                 6
 STAT SP IPHASW D HRMM SECON CODA AMPLIT PERI AZIMU VELO AIN AR TRES W  DIS CAZ7
 BAR2 SZ EP        5 6 13.27                             165    -0.110   31 151 
 BAR2 SZ ES   1    5 6 26.50                             165    -0.1 7   31 151 
 BRR  HZ EP   1    5 6 13.73                             155    -0.2 7   53 305 
 BRR  HZ I         5 6 27.08         5.6 0.35                            53 305 
 BRR  HN ES   1    5 6 27.81                             155     0.1 7   53 305 
 RUS  HZ EP   2    5 6 18.56                             136     0.1 5  107 166 
 RUS  HN ES   2    5 6 35.97                             136     0.3 5  107 166 
 RUS  HZ I         5 6 37.39         1.5 0.54                           107 166 
 GUE  SZ EP        5 6 19.29                             133     0.110  119  22 
                                                                                
