 2014 10 4 0904 18.9 L   6.757 -73.072132.0  RSN  4 0.3 1.2LRSN                1
 GAP=248        0.70       4.0    12.6 20.9  0.1322E+02 -0.2159E+03 -0.3617E+02E
 Epicentro: LOS SANTOS - SANTANDER                                             3
 ACTION:UPD 14-11-29 23:46 OP:nd   STATUS:               ID:20141004090420 L   I
 OLDACT:UP  14-10-09 08:21 OP:CAM  STATUS:               ID:20141004090420 L   3
 OLDACT:DUP 14-10-04 22:51 OP:fm   STATUS:               ID:20141004085750d    3
 OLDACT:REG 14-10-04 12:46 OP:stl  STATUS:               ID:20141004085749     3
 2014-10-04-0857-49M.COL___286                                                 6
 STAT SP IPHASW D HRMM SECON CODA AMPLIT PERI AZIMU VELO AIN AR TRES W  DIS CAZ7
 PTB  HZ EP        9 4 45.36                             128   -0.1210  155 261 
 PTB  HN ES        9 5  6.39                             128    0.1810  155 261 
 PTB  HZ I         9 5  8.91         1.3 0.22            136            155 261 
 SPBC HZ EP   1    9 4 47.20                             126    0.64 7  165 222 
 SPBC HN ES   1    9 5  7.68                             126   -0.44 7  165 222 
 SPBC HZ I         9 5 10.92         1.5 0.28            136            165 222 
 ZAR  HZ EP   1    9 4 51.67                             118    0.18 7  213 293 
 ZAR  HE ES        9 5 16.74                             118   -0.17 9  213 293 
 ZAR  HZ I         9 5 25.19         1.5 0.40            125            213 293 
 SML  HZ EP        9 4 55.23                             114   -0.43 9  251 334 
 SML  HN ES        9 5 24.61                             114    0.28 9  251 334 
 SML  HZ I         9 5 32.55         1.4 0.10            120            251 334 
                                                                                
