 2011  2 4 0903 29.2 L   6.774 -73.192134.2  RSN 13 0.4 2.2LRSN                1
 GAP=132        0.75       3.3     5.6  7.9 -0.5863E+01  0.2015E+02 -0.5227E+00E
 Epicentro: VILLANUEVA - SANTANDER                                             3
 ACTION:UP  11-03-28 15:05 OP:jfem STATUS:               ID:20110204090329 L   I
 2011-02-04-0900-25S.COL___138                                                 6
 STAT SP IPHASW D HRMM SECON CODA AMPLIT PERI AZIMU VELO SNR AR TRES W  DIS CAZ7
 BTL  SZ EP        9 3 47.54                             172     0.210   18 332 
 BAR2 SZ IP        9 3 47.37                             171     0.010   20 177 
 BAR2 SZ ES   2    9 4  1.45                             171    -0.1 5   20 177 
 BAR2 SZ I         9 4  3.43        54.9 0.35                            20 177 
 GIR2 SZ EP   1    9 3 47.50                             165     0.0 7   34 360 
 RUS  HZ EP   2    9 3 51.35                             142    -0.3 5   98 173 
 RUS  HE ES   2    9 4  8.76                             142    -0.4 5   98 173 
 RUS  HZ I         9 4 13.10        10.4 0.31                            98 173 
 GRA  SZ EP        9 3 54.41                             133     0.610  130  19 
 GRA  SZ ES   1    9 4 13.03                             133     0.0 7  130  19 
 GRA  SZ I         9 4 14.79        45.7 0.40                           130  19 
 OCA  SZ EP   1    9 3 56.13                             126    -0.7 7  163 355 
 OCA  SZ ES   2    9 4 17.48                             126    -0.9 5  163 355 
 OCA  SZ I         9 4 21.27        34.6 0.23                           163 355 
 YOP  SZ EP   2    9 3 58.11                             123    -0.3 4  179 151 
 YOP  SN ES   2    9 4 20.83                             123    -0.4 4  179 151 
 YOP  SZ I         9 4 24.94         6.2 0.34                           179 151 
 NOR  SZ EP   1    9 4  3.44                             116    -0.2 6  229 234 
 NOR  SN ES   2    9 4 30.78                             116     0.3 4  229 234 
 CHI  HZ EP   1    9 4  5.95                             115     0.1 6  245 194 
 CHI  HE ES   2    9 4 34.49                             115     0.1 4  245 194 
 CHI  HZ I         9 4 40.78         7.2 0.42                           245 194 
 HEL  HZ EP   2    9 4  8.43                             113     0.2 4  266 256 
 HEL  HN ES   2    9 4 38.46                             113    -0.1 4  266 256 
 HEL  HZ I         9 4 45.88        13.1 0.29                           266 256 
 GUY  SZ EP   2    9 4 11.56                             110    -0.1 4  295 235 
 GUY  SN ES   2    9 4 45.54                             110     0.8 4  295 235 
 GUY  SZ I         9 4 52.65        17.7 0.13                           295 235 
 RREF HZ EP   2    9 4 14.45                             109     0.3 3  316 229 
 RREF HZ I         9 4 58.11         9.8 0.78                           316 229 
 DBB  SZ EP   1    9 4 15.10                             107    -0.5 5  335 275 
                                                                                
