 2013  8 4 0438  6.7 L   6.806 -73.190145.8  RSN  6 0.5 1.6LRSN                1
 GAP=179        1.16       7.7     7.1 10.9  0.6390E+01  0.1273E+02 -0.1618E+02E
 Epicentro: ZAPATOCA - SANTANDER                                               3
 ACTION:UPD 14-01-14 08:58 OP:ep   STATUS:               ID:20130804043806 L   I
 OLDACT:DUP 13-08-04 10:59 OP:carl STATUS:               ID:20130804042960d    3
 2013-08-04-0429-59M.COL___269                                                 6
 STAT SP IPHASW D HRMM SECON CODA AMPLIT PERI AZIMU VELO AIN AR TRES W  DIS CAZ7
 BAR2 SZ EP        438 26.23                             170   -0.1210 23.6 178 
 BAR2 SZ ES   1    438 40.64                             170   -1.03 7 23.6 178 
 BAR2 SZ I         438 42.76         8.0 0.28            167           23.6 178 
 GIR2 SZ EP        438 26.23                             168   -0.1310 30.2 359 
 GIR2 SZ ES   1    438 42.19                             168    0.51 7 30.2 359 
 BRR  HZ EP        438 28.05                             154    0.4410 66.6 300 
 BRR  HN ES   1    438 44.86                             154    0.94 7 66.6 300 
 BRR  HN I         438 45.57        15.6 0.32            150           66.6 300 
 PTB  HZ EP   1    438 33.83                             133    0.57 7  143 258 
 PTB  HN ES        438 53.82                             133   -0.15 9  143 258 
 PTB  HZ I         438 59.69         2.3 0.60            130            143 258 
 ZAR  HN ES        439  3.19                             123   -0.41 9  199 293 
 ZAR  HN I         439  9.96         4.5 0.16            122            199 293 
 SML  HE ES        439 10.96                             118   -0.45 8  241 336 
                                                                                
