 2011  5 4 0237 21.1 L   6.817 -73.030140.3  RSN  5 0.4 1.3LRSN                1
 GAP=171        0.72       5.4    12.7  8.1 -0.4817E+01 -0.4503E+02 -0.2251E+01E
 Epicentro: CEPITA - SANTANDER                                                 3
 ACTION:UP  11-06-29 08:50 OP:tino STATUS:               ID:20110504023721 L   I
 2011-05-04-0233-57S.COL___132                                                 6
 STAT SP IPHASW D HRMM SECON CODA AMPLIT PERI AZIMU VELO SNR AR TRES W  DIS CAZ7
 BTL  SZ EP   1    237 40.32                             168     0.2 7   29 293 
 BTL  SZ ES   1    237 55.18                             168     0.1 7   29 293 
 BAR2 SZ EP   1    237 40.07                             167    -0.1 7   30 214 
 BAR2 SZ ES   1    237 54.98                             167    -0.1 7   30 214 
 BAR2 SZ I         237 56.21         6.2 0.28                            30 214 
 BRR  HZ EP   2    237 41.89                             148    -0.4 5   82 293 
 BRR  HZ I         237 42.27         7.4 0.60                            82 293 
 BRR  HE ES   2    237 58.85                             148     0.0 5   82 293 
 RUS  HZ EP   1    237 44.06                             142    -0.3 7  102 183 
 RUS  HN ES   2    238  3.08                             142     0.5 5  102 183 
 RUS  HZ I         238  3.69         2.5 0.31                           102 183 
 GRA  SZ EP   1    237 45.92                             137     0.5 7  121  12 
 GRA  SZ I         237 51.06         2.2 0.27                           121  12 
 GRA  SZ ES   2    238  3.62                             137    -0.7 5  121  12 
                                                                                
