 2016  7 4 0926 10.0 L   5.819 -74.074  0.0  RSN  8 0.5 1.2LRSN                1
 GAP=111        1.28       3.7     2.9  6.4  0.3074E+00  0.7892E+00 -0.1844E+02E
 Epicentro: FLORIAN - SANTANDER                                                3
 ACTION:UPD 17-03-29 16:46 OP:lp   STATUS:               ID:20160704092610 L   I
 OLDACT:UP  16-07-04 22:21 OP:dani STATUS:               ID:20160704091742     3
 OLDACT:UP  16-07-04 22:21 OP:dani STATUS:               ID:20160704091742     3
 OLDACT:UP  16-07-04 22:21 OP:dani STATUS:               ID:20160704091742     3
 OLDACT:UP  16-07-04 22:07 OP:dani STATUS:               ID:20160704091742     3
 OLDACT:UP  16-07-04 22:07 OP:dani STATUS:               ID:20160704091742     3
 OLDACT:UP  16-07-04 22:07 OP:dani STATUS:               ID:20160704091742     3
 OLDACT:UP  16-07-04 22:07 OP:dani STATUS:               ID:20160704091742     3
 OLDACT:UP  16-07-04 22:06 OP:dani STATUS:               ID:20160704091742     3
 OLDACT:UP  16-07-04 22:06 OP:dani STATUS:               ID:20160704091742     3
 OLDACT:REG 16-07-04 13:47 OP:dani STATUS:               ID:20160704091742     3
 2016-07-04-0917-42M.COL___310                                                 6
 STAT SP IPHASW D HRMM SECON CODA AMPLIT PERI AZIMU VELO AIN AR TRES W  DIS CAZ7
 SPBC HZ EP        926 13.63                              92   -0.2610 18.4 179 
 SPBC HE ES        926 16.33                              92   -0.5610 18.4 179 
 SPBC HZ I         926 17.15        82.4 0.24             93           18.4 179 
 PTB  HZ EP        926 24.90                              47    0.0110 90.2 332 
 PTB  HN ES        926 36.14                              47   -0.3310 90.2 332 
 PTB  HZ I         926 38.59        11.2 0.18             47           90.2 332 
 NOR  HZ EP        926 25.36                              47    0.0910 92.4 252 
 RUS  HZ EP        926 29.33                              47    0.9410  110  86 
 RUS  HE ES        926 42.53                              47   -0.1810  110  86 
 RUS  HZ I         926 43.51         2.3 0.28             47            110  86 
 GUY2CHZ EP        926 36.19                              47    0.64 9  157 245 
 GUY2CHE ES        926 56.11                              47    0.67 9  157 245 
 GUY2CHZ I         926 57.00         1.9 0.34                           157 245 
 HEL  HZ EP        926 36.23                              47   -0.54 9  166 284 
 HEL  HN ES   4    926 55.32                              47   -2.29 0  166 284 
 HEL  HZ I         926 56.73         2.2 0.14             47            166 284 
 ZAR  HE ES        927  5.56                              37   -0.50 9  204 335 
 PAM  EZ EP   4    926 48.04                              37    3.15 0  227  42 
 PAM  EE ES   4    927 16.45                              37    4.38 0  227  42 
 PAM  EZ I         927 18.71         4.9 0.16             37            227  42 
                                                                                
