 2010  3 4 0751 28.2 L   6.775 -73.053147.0  RSN 11 0.4 2.3LRSN                1
 GAP=133        0.77       2.9     5.4  4.6 -0.7551E+00 -0.1289E+00  0.3015E+00E
 Epicentro: LOS SANTOS - SANTANDER                                             3
 ACTION:UP  10-08-24 09:51 OP:vdl  STATUS:               ID:20100304075128 L   I
 2010-03-04-0749-55S.COL___096                                                 6
 STAT SP IPHASW D HRMM SECON CODA AMPLIT PERI AZIMU VELO SNR AR TRES W  DIS CAZ7
 BAR2 SZ EP        751 48.10                             170     0.110   25 216 
 BAR2 SZ ES   1    752  3.19                             170    -0.3 7   25 216 
 BRR  HZ EP        751 50.15                             149     0.010   82 297 
 BRR  HN ES        752  7.61                             149     0.410   82 297 
 BRR  HZ I         752  8.93        25.7 0.13                            82 297 
 RUS  BZ EP        751 51.87                             145     0.010   98 182 
 RUS  BN ES        752 10.31                             145     0.010   98 182 
 RUS  BZ I         752 12.00        23.0 0.46                            98 182 
 OCA  SZ EP        751 56.87                             129    -0.2 9  165 350 
 OCA  SZ ES   1    752 19.30                             129    -0.2 7  165 350 
 OCA  SZ I         752 24.20        46.8 0.53                           165 350 
 CHI  HZ EP        752  5.81                             117    -0.2 8  249 198 
 CHI  HN ES   1    752 35.42                             117    -0.1 6  249 198 
 CHI  HZ I         752 37.92         8.2 0.56                           249 198 
 HEL  HZ EP   1    752  9.89                             114     0.4 6  281 257 
 HEL  HZ I         752 49.32         8.6 0.39                           281 257 
 RREF BZ EP        752 15.80                             111     0.7 7  328 231 
 RREF BN ES   2    752 50.67                             111    -1.0 3  328 231 
 RREF BZ I         752 59.35        10.1 0.12                           328 231 
 TOL  SZ EP   1    752 17.24                             109     0.1 5  349 226 
 DBB  SZ EP   1    752 16.00                             109    -1.0 5  350 275 
 SDV  BZ EP        752 17.87                             109     0.3 6  354  49 
 SDV  BZ I         752 18.00         6.9 0.08                           354  49 
 PRA  HN ES   2    753  3.52                             107    -0.6 3  395 211 
                                                                                
