 2016  3 4 0548 29.0 L   6.825 -73.348133.7  RSN  6 0.4 1.2LRSN                1
 GAP=158        0.90       5.5     5.8  8.0 -0.1388E+02  0.2678E+02 -0.5417E+01E
 Epicentro: ZAPATOCA - SANTANDER                                               3
 ACTION:UPD 16-05-13 21:21 OP:cam  STATUS:               ID:20160304054829 L   I
 OLDACT:UP  16-03-04 17:35 OP:mh   STATUS:               ID:20160304053748d    3
 OLDACT:DUP 16-03-04 17:12 OP:mh   STATUS:               ID:20160304053748d    3
 2016-03-04-0537-47M.COL___327                                                 6
 STAT SP IPHASW D HRMM SECON CODA AMPLIT PERI AZIMU VELO AIN AR TRES W  DIS CAZ7
 BAR2 EZ EP        548 47.71                             166    0.2910 31.6 144 
 BAR2 EZ ES        549  2.10                             166    0.3310 31.6 144 
 BAR2 EZ I         549  4.43         1.9 0.21            170           31.6 144 
 PAM  EZ EP        548 50.75                             144   -0.1910 91.5  52 
 PAM  EN ES        549  7.93                             144   -0.1010 91.5  52 
 PAM  EZ I         549 10.95         1.8 0.30            152           91.5  52 
 RUS  HZ EP        548 51.73                             139   -0.4010  107 164 
 RUS  HN ES        549  9.81                             139   -0.3310  107 164 
 RUS  HZ I         549 11.21         3.3 0.33            145            107 164 
 SPBC HZ EP        548 56.04                             128    0.46 9  152 212 
 SPBC HN ES   4    549 18.11                             128    1.82 0  152 212 
 SPBC HZ I         549 23.54         2.6 0.36            131            152 212 
 NOR  HZ EP        549  2.80                             118    0.47 8  219 230 
 NOR  HN ES   4    549 31.67                             118    3.36 0  219 230 
 NOR  HZ I         549 33.63         2.1 0.56            121            219 230 
 HEL  HN ES        549 34.84                             114   -0.55 8  251 254 
                                                                                
