 2017  7 4 0631 49.0 L   6.733 -73.179151.5  RSN  5 0.3 1.5LRSN                1
 GAP=236        0.79       5.1     5.2  6.7  0.3315E+01  0.6773E+01  0.3141E+01E
 Epicentro: VILLANUEVA - SANTANDER                                             3
 ACTION:UPD 17-08-30 15:29 OP:rebc STATUS:               ID:20170704063149 L   I
 OLDACT:UP  17-07-04 16:11 OP:edw  STATUS:               ID:20170704062348     3
 OLDACT:UP  17-07-04 16:10 OP:edw  STATUS:               ID:20170704062348     3
 OLDACT:UP  17-07-04 16:08 OP:edw  STATUS:               ID:20170704062348     3
 OLDACT:REG 17-07-04 12:53 OP:edw  STATUS:               ID:20170704062348     3
 2017-07-04-0628-00M.COL___371                                                 6
 STAT SP IPHASW D HRMM SECON CODA AMPLIT PERI AZIMU VELO AIN AR TRES W  DIS CAZ7
 BAR2 EZ IP     C  632  8.87                             174   -0.3110 15.6 181 
 BAR2 EZ ES        632 24.85                             174   -0.0810 15.6 181 
 BAR2 EZ I         632 25.15         7.2 0.16            169           15.6 181 
 BRR  HZ EP        632 10.75                             153   -0.0510 72.0 305 
 BRR  HN ES        632 28.22                             153    0.4110 72.0 305 
 BRR  HZ I         632 28.72         5.6 0.32            154           72.0 305 
 PTB  HZ EP        632 15.91                             134   -0.09 9  143 261 
 PTB  HN ES        632 36.66                             134   -0.41 9  143 261 
 PTB  HZ I         632 38.41         1.9 0.32            133            143 261 
 SPBC HZ EP   1    632 18.02                             132    0.83 7  155 220 
 SPBC HN ES        632 39.28                             132    0.09 9  155 220 
 SPBC HZ I         632 44.37         7.3 0.34            130            155 220 
 ZAR  HZ EP   4    632 23.72                             124    1.95 0  204 294 
 ZAR  HN ES        632 47.33                             124   -0.00 9  204 294 
 GUY2CHE ES   4    633  7.47                             114    1.81 0  294 236 
 SJC  HZ EP   4    632 43.46                             106   -1.78 0  413 328 
 SJC  HN ES   4    633 23.45                             106   -5.66 0  413 328 
                                                                                
