 2012  4 4 0355 46.3 L   6.772 -73.194147.9  RSN  4 0.4 1.0LRSN                1
 GAP=132        0.87       7.4     7.5 11.6  0.1318E+02 -0.2025E+02 -0.1690E+02E
 Epicentro: VILLANUEVA - SANTANDER                                             3
 ACTION:UPD 12-07-05 11:50 OP:tino STATUS:               ID:20120404035546 L   I
 2012-04-04-0350-00M.COL___196                                                 6
 STAT SP IPHASW D HRMM SECON CODA AMPLIT PERI AZIMU VELO AIN AR TRES W  DIS CAZ7
 BRR  HZ EP        356  7.71                             154     0.210   68 303 
 BRR  HN ES   1    356 24.14                             154     0.0 7   68 303 
 BRR  HZ I         356 26.91         3.2 0.19                            68 303 
 PAM  SZ EP   1    356  8.92                             149    -0.2 7   83  41 
 RUS  HZ EP   1    356  9.63                             145    -0.5 7   98 173 
 RUS  HZ I         356  9.72         1.1 0.40                            98 173 
 RUS  HN ES   1    356 28.98                             145     0.3 7   98 173 
 PTB  HZ EP   1    356 13.54                             134     0.6 7  142 260 
 PTB  HN ES   1    356 33.24                             134    -0.5 7  142 260 
 PTB  HZ I         356 34.92         0.9 0.17                           142 260 
                                                                                
