 2012  8 4 0842 49.9 L   5.962 -73.758 96.5  RSN  5 0.2 0.9LRSN                1
 GAP=214        0.45       4.3     2.8  7.9  0.4396E+01  0.4679E+01  0.1150E+02E
 Epicentro: GUAVATA - SANTANDER                                                3
 ACTION:UPD 12-09-10 11:54 OP:ep   STATUS:               ID:20120804084249 L   I
 2012-08-04-0840-00M.COL___215                                                 6
 STAT SP IPHASW D HRMM SECON CODA AMPLIT PERI AZIMU VELO AIN AR TRES W  DIS CAZ7
 RUS  HZ EP   1    843  6.89                             140   -0.12 7 75.1  96 
 RUS  HZ I         843  7.47         1.3 0.12                          75.1  96 
 BAR2 SZ EP   1    843  8.13                             133   -0.18 7 94.4  42 
 BAR2 SZ ES   1    843 22.84                             133    0.18 7 94.4  42 
 BAR2 SZ I         843 24.30         7.6 0.26                          94.4  42 
 PTB  HZ EP   1    843  8.96                             130    0.41 7  100 310 
 PTB  HN ES   1    843 22.91                             130   -0.18 7  100 310 
 PTB  HZ I         843 26.81         1.2 0.18                           100 310 
 BRR  HZ EP   1    843 11.09                             123   -0.06 7  127   2 
 BRR  HN ES   1    843 27.72                             123    0.01 7  127   2 
 ZAR  HN ES   1    843 43.73                             110   -0.09 6  208 324 
                                                                                
