 2011  9 4 0830 47.1 L   7.452 -73.204118.3  RSN 13 0.3 2.2LRSN                1
 GAP=181        0.47       2.1     3.3  3.7 -0.5910E-01  0.1782E+01  0.1235E+00E
 Epicentro: EL PLAYON - SANTANDER                                              3
 ACTION:UPD 12-07-13 15:55 OP:ep   STATUS:               ID:20110904083047 L   I
 2011-09-04-0820-00M.COL___172                                                 6
 STAT SP IPHASW D HRMM SECON CODA AMPLIT PERI AZIMU VELO AIN AR TRES W  DIS CAZ7
 GIR2 SZ EP   1    831  4.33                             160    0.43 7 41.2 178 
 GIR2 SZ ES   2    831 17.20                             160    0.20 5 41.2 178 
 BRR  HZ EP   1    831  5.10                             148   -0.03 7 67.8 236 
 BRR  HN ES   1    831 19.12                             148   -0.08 7 67.8 236 
 BRR  HZ I         831 19.75        90.9 0.14                          67.8 236 
 OCA  SZ EP   2    831  6.61                             141   -0.18 5 88.0 352 
 OCA  SZ ES   2    831 22.49                             141    0.35 5 88.0 352 
 OCA  SZ I         831 30.71        36.1 0.30                          88.0 352 
 BAR2 SZ IP        831  7.55                             139    0.0910 95.1 179 
 BAR2 SZ ES   2    831 22.61                             139   -0.73 5 95.1 179 
 BAR2 SZ I         831 24.24        70.8 0.20                          95.1 179 
 RUS  HZ EP   1    831 14.88                             121   -0.31 7  173 176 
 RUS  HN ES   2    831 37.26                             121    0.17 4  173 176 
 RUS  HZ I         831 44.41         3.8 0.38                           173 176 
 ZAR  HZ EP   1    831 15.19                             119   -0.40 7  183 272 
 ZAR  HN ES   2    831 37.44                             119   -0.38 4  183 272 
 ZAR  HZ I         831 41.10        24.7 0.23                           183 272 
 COD  HZ EP   1    831 26.10                             108    0.05 6  276 355 
 COD  HN ES   2    831 56.72                             108    0.29 4  276 355 
 COD  HZ I         832  7.70        15.9 0.47                           276 355 
 NOR  SZ EP   2    831 26.33                             108   -0.08 4  278 222 
 NOR  SN ES   2    831 57.29                             108    0.22 4  278 222 
 HEL  HZ EP   1    831 28.04                             107   -0.39 5  292 242 
 HEL  HN ES   2    832  1.54                             107    0.88 4  292 242 
 HEL  HZ I         832  9.22         5.6 0.62                           292 242 
 CHI  HN ES   2    832  6.46                             105    0.46 3  317 191 
 CHI  HZ I         832 14.75         6.7 0.46                           317 191 
 RREF HZ EP   2    831 37.77                             103    0.03 3  369 220 
 RREF HN ES   2    832 17.51                             103    0.27 3  369 220 
 RREF HZ I         832 23.56         4.5 0.48                           369 220 
 PRA  HZ EP   2    831 47.31                              99    0.13 2  453 204 
 PRA  HN ES   2    832 34.00                              99   -0.04 2  453 204 
 SJA  SZ EP   2    831 49.50                              99    0.30 2  469 190 
 SJA  SZ ES   2    832 37.45                              99   -0.18 2  469 190 
                                                                                
