 2012  1 4 0856  0.2 L   6.734 -73.207152.0  RSN  4 0.3 1.1LRSN                1
 GAP=224        0.51       6.0     5.7  6.6  0.1971E+02  0.1988E+01 -0.9026E+01E
 Epicentro: VILLANUEVA - SANTANDER                                             3
 ACTION:UP  12-02-03 08:14 OP:REBC STATUS:               ID:20120104085600 L   I
 2012-01-04-0850-00M.COL___183                                                 6
 STAT SP IPHASW D HRMM SECON CODA AMPLIT PERI AZIMU VELO SNR AR TRES W  DIS CAZ7
 BAR2 SZ ES   2    856 35.68                             174    -0.6 5   16 170 
 BRR  HZ EP   1    856 22.02                             154     0.1 7   69 306 
 BRR  HE ES   2    856 39.29                             154     0.4 5   69 306 
 RUS  HZ EP   1    856 23.95                             147    -0.2 7   94 172 
 RUS  HN ES        856 42.94                             147     0.210   94 172 
 RUS  HZ I         856 44.00         1.9 0.36                            94 172 
 PTB  HZ EP   1    856 26.93                             135    -0.1 7  140 261 
 PTB  HN ES   1    856 47.80                             135    -0.1 7  140 261 
                                                                                
