 2017  5 4 0946 30.4 L   6.789 -73.115140.0  RSN  5 0.3 1.4LRSN                1
 GAP=141        0.85       5.8     4.2  6.8  0.2989E+01  0.2334E+01  0.8516E+01E
 Epicentro: LOS SANTOS - SANTANDER                                             3
 ACTION:UPD 17-06-16 13:32 OP:jn   STATUS:               ID:20170504094630 L   I
 OLDACT:DUP 17-05-04 16:44 OP:osc  STATUS:               ID:20170504093740d    3
 2017-05-04-0938-00M.COL___365                                                 6
 STAT SP IPHASW D HRMM SECON CODA AMPLIT PERI AZIMU VELO AIN AR TRES W  DIS CAZ7
 BRR  HZ EP        946 50.75                             150   -0.4010 74.7 298 
 BRR  HN ES        947  7.81                             150    0.4810 74.7 298 
 BRR  HZ I         947  8.15         6.6 0.36            149           74.7 298 
 PAM  EZ EP        946 51.91                             150   -0.0410 76.2  37 
 PAM  EN ES        947  8.61                             150   -0.1410 76.2  37 
 PAM  EZ I         947 11.15         5.2 0.64            151           76.2  37 
 RUS  HZ EP        946 53.56                             143    0.0510 99.2 178 
 RUS  HE ES   2    947 11.32                             143   -0.19 5 99.2 178 
 RUS  HZ I         947 13.47         2.8 0.30            144           99.2 178 
 PTB  HZ EP   9    946 56.06                             130   -1.15 0  151 260 
 PTB  HN ES        947 16.60                                   -0.35 9  151 260 
 PTB  HZ I         947 19.03         2.5 0.40            130            151 260 
 ZAR  HZ EP        947  3.42                             120    0.55 8  208 292 
 ZAR  HE ES        947 27.76                             120   -0.41 8  208 292 
 ZAR  HZ I         947 34.90         2.9 0.34            121            208 292 
                                                                                
