 2016  6 4 0435 11.7 L   6.095 -73.859101.5  RSN  6 0.2 1.7LRSN                1
 GAP=101        0.62       2.5     2.5  5.6  0.4437E+00 -0.1599E+01 -0.6086E+01E
 Epicentro: EL PENON - SANTANDER                                               3
 ACTION:UPD 16-07-21 22:15 OP:rebc STATUS:               ID:20160604043511 L   I
 OLDACT:DUP 16-06-04 16:05 OP:ak   STATUS:               ID:20160604042743d    3
 2016-06-04-0427-42M.COL___313                                                 6
 STAT SP IPHASW D HRMM SECON CODA AMPLIT PERI AZIMU VELO AIN AR TRES W  DIS CAZ7
 SPBC HZ EP   2    435 27.24                             149   -0.05 5 54.4 206 
 SPBC HN ES        435 39.37                             149   -0.0610 54.4 206 
 SPBC HZ I         435 40.42        14.0 0.22                          54.4 206 
 PTB  HZ EP        435 29.17                             138   -0.0510 82.3 307 
 PTB  HN ES        435 42.87                             138    0.0110 82.3 307 
 RUS  HZ EP        435 30.33                             136   -0.0810 88.8 105 
 RUS  HN ES        435 45.39                             136    0.4010 88.8 105 
 BAR2 EZ EP   2    435 30.32                             134   -0.10 5 92.9  54 
 BAR2 EZ ES        435 44.48                             134   -0.5210 92.9  54 
 BAR2 EZ I         435 46.53        14.0 0.40                          92.9  54 
 BRR  HZ EP        435 32.00                             128    0.0410  113   8 
 BRR  HE ES        435 48.02                             128    0.2810  113   8 
 OCA  HN ES        436 13.85                             106    0.06 8  244  14 
                                                                                
