 2012  1 4 0346  7.9 L   6.775 -73.089147.9  RSN 11 0.3 2.0LRSN                1
 GAP=145        0.56       2.9     3.7  4.6 -0.1004E+01  0.3493E+01  0.2926E+01E
 Epicentro: LOS SANTOS - SANTANDER                                             3
 ACTION:UP  12-02-03 08:13 OP:REBC STATUS:               ID:20120104034607 L   I
 2012-01-04-0340-00M.COL___183                                                 6
 STAT SP IPHASW D HRMM SECON CODA AMPLIT PERI AZIMU VELO SNR AR TRES W  DIS CAZ7
 BAR2 SZ EP   1    346 27.48                             171    -0.3 7   23 207 
 BAR2 SZ ES   1    346 42.89                             171    -0.4 7   23 207 
 BAR2 SZ I         346 45.09        17.1 0.35                            23 207 
 PAM  SZ EP   1    346 30.45                             152     0.2 7   76  35 
 PAM  SN ES   2    346 47.55                             152    -0.1 5   76  35 
 BRR  HZ EP   1    346 29.50                             151    -0.1 7   78 298 
 BRR  HE ES   1    346 46.99                             151     0.4 7   78 298 
 BRR  HZ I         346 49.08        19.8 0.13                            78 298 
 RUS  HZ EP   1    346 31.43                             145    -0.2 7   98 180 
 RUS  HE ES   2    346 50.55                             145     0.4 5   98 180 
 RUS  HZ I         346 52.83         7.9 0.41                            98 180 
 PTB  HE ES   2    346 57.10                             131     0.0 5  153 260 
 OCA  SZ EP   2    346 37.18                             129     0.5 5  164 351 
 OCA  SZ ES   2    346 59.41                             129     0.3 5  164 351 
 OCA  SZ I         347  5.23        17.4 0.27                           164 351 
 ZAR  HZ EP   2    346 40.77                             122    -0.4 4  211 292 
 ZAR  HN ES   2    347  6.55                             122    -0.6 4  211 292 
 ZAR  HZ I         347 11.91        10.0 0.30                           211 292 
 NOR  SZ EP   1    346 43.69                             118    -0.4 6  238 236 
 NOR  SN ES   2    347 12.37                             118     0.0 4  238 236 
 CHI  HZ EP   1    346 45.65                             118     0.1 6  248 197 
 CHI  HZ I         346 47.68         4.4 0.16                           248 197 
 CHI  HN ES   1    347 15.32                             118     0.3 6  248 197 
 HEL  HZ EP   1    346 48.80                             115     0.0 6  278 257 
 HEL  HN ES   2    347 21.00                             115     0.3 4  278 257 
 HEL  HZ I         347 26.76         6.9 0.49                           278 257 
 RREF HZ EP   2    346 54.86                             111     0.4 3  325 230 
 RREF HE ES   2    347 31.21                             111     0.4 3  325 230 
 RREF HZ I         347 38.57         4.7 0.29                           325 230 
                                                                                
