 2017  2 4 0501 33.0 L   6.278 -73.611110.0  RSN  4 0.1 0.9LRSN                1
 GAP=161        0.33       2.2     1.8  4.0  0.1724E+01  0.1800E+01  0.4692E+00E
 Epicentro: SANTA HELENA DEL OPON - SANTANDER                                  3
 ACTION:UPD 17-05-24 15:32 OP:jn   STATUS:               ID:20170204050133 L   I
 OLDACT:REG 17-02-04 12:37 OP:dnl  STATUS:               ID:20170204045646     3
 2017-02-04-0457-00M.COL___340                                                 6
 STAT SP IPHASW D HRMM SECON CODA AMPLIT PERI AZIMU VELO AIN AR TRES W  DIS CAZ7
 BAR2 EZ EP        5 1 49.95                             150    0.0210 58.8  54 
 BAR2 EZ ES   2    5 2  2.85                             150   -0.29 5 58.8  54 
 BAR2 EZ I         5 2  4.57         1.9 0.36            155           58.8  54 
 RUS  HZ EP   2    5 1 51.36                             145    0.17 5 72.3 126 
 RUS  HN ES        5 2  5.40                             145    0.0210 72.3 126 
 RUS  HZ I         5 2  9.28         1.2 0.32            148           72.3 126 
 BRR  HZ EP   2    5 1 51.80                             137   -0.25 5 92.4 353 
 BRR  HE ES        5 2  7.00                             137    0.0910 92.4 353 
 BRR  HZ I         5 2  8.45         3.5 0.56            143           92.4 353 
 PTB  HZ IP     D  5 1 52.49                             135   -0.0510 97.9 287 
 PTB  HN ES        5 2  7.80                             135    0.0110 97.9 287 
 PTB  HZ I         5 2  9.77         1.5 0.62            140           97.9 287 
                                                                                
