 2012  7 4 0710 36.7 L   6.079 -73.736102.0  RSN  5 0.2 1.4LRSN                1
 GAP=197        0.52       5.2     3.3  8.7  0.4687E+01  0.4530E+01  0.1739E+02E
 Epicentro: BOLIVAR - SANTANDER                                                3
 ACTION:UPD 12-08-14 11:42 OP:ep   STATUS:               ID:20120704071036 L   I
 2012-07-04-0710-00M.COL___200                                                 6
 STAT SP IPHASW D HRMM SECON CODA AMPLIT PERI AZIMU VELO AIN AR TRES W  DIS CAZ7
 RUS  HZ EP   1    710 54.68                             141     0.3 7   75 106 
 BAR2 SZ EP   1    710 54.62                             138    -0.1 7   84  47 
 BAR2 SZ ES   1    711  8.45                             138    -0.2 7   84  47 
 BAR2 SZ I         711 10.03        12.7 0.18            146             84  47 
 PTB  HZ EP   1    710 55.01                             134    -0.3 7   95 303 
 PTB  HN ES   1    711  9.91                             134     0.1 7   95 303 
 PTB  HZ I         711 13.42         2.4 0.17            138             95 303 
 BRR  HZ EP   1    710 57.03                             128    -0.1 7  114   1 
 BRR  HZ I         710 57.27         7.9 0.12            135            114   1 
 BRR  HN ES   1    711 13.17                             128     0.2 7  114   1 
 ZAR  HN ES   2    711 29.46                             111     0.2 4  200 322 
