 2014 11 4 0734 10.7 L   5.928 -73.604123.7  RSN  7 0.3 1.6LRSN                1
 GAP= 95        0.71       2.1     3.2  5.1 -0.1369E+01  0.4141E+01  0.1753E+01E
 Epicentro: BARBOSA - SANTANDER                                                3
 ACTION:UPD 14-12-19 15:39 OP:nd   STATUS:               ID:20141104073410 L   I
 OLDACT:REG 14-11-04 12:40 OP:carl STATUS:               ID:20141104072746     3
 2014-11-04-0727-46M.COL___268                                                 6
 STAT SP IPHASW D HRMM SECON CODA AMPLIT PERI AZIMU VELO AIN AR TRES W  DIS CAZ7
 RUS  HZ IP     D  734 29.39                             154   -0.0510 57.8  94 
 RUS  HN ES        734 43.86                             154   -0.1910 57.8  94 
 RUS  HZ I         734 44.82        12.0 0.34            158           57.8  94 
 BAR2 SZ EP        734 31.08                             143    0.1210 87.0  32 
 BAR2 SZ ES        734 46.79                             143    0.0410 87.0  32 
 BAR2 SZ I         734 48.38        14.0 0.14            147           87.0  32 
 PTB  HZ EP        734 32.58                             134   -0.4410  116 306 
 PTB  HN ES        734 50.27                             134   -0.1510  116 306 
 PTB  HZ I         734 54.06         7.0 0.10            136            116 306 
 BRR  HZ EP        734 34.52                             130    0.1710  131 355 
 BRR  HE ES        734 53.34                             130    0.5610  131 355 
 BRR  HZ I         734 54.60         6.3 0.30            134            131 355 
 CHI  HZ EP        734 36.46                             127    0.28 9  144 186 
 CHI  HN ES        734 56.23                             127    0.19 9  144 186 
 CHI  HZ I         735  2.54         3.8 0.32            129            144 186 
 PAM  SZ EP        734 40.58                             120    0.14 9  185  33 
 PAM  SN ES        735  3.13                             120   -0.50 9  185  33 
 PAM  SZ I         735  5.53         4.8 0.38            124            185  33 
 PRA  HZ EP        734 50.70                             109   -0.07 7  283 210 
 PRA  HN ES        735 21.82                             109   -0.20 7  283 210 
 PRA  HZ I         735 28.02         4.9 0.32            110            283 210 
 MON  HZ EP   4    735  1.05                             103   -2.07 0  389 324 
 MON  HN ES   4    735 43.02                             103   -0.97 0  389 324 
 MON  HZ I    4    735 44.13         0.9 0.50            104            389 324 
                                                                                
