 2017  9 4 0646 54.6 L   6.800 -73.144148.2  RSN 11 0.3 1.7LRSN                1
 GAP=112        0.72       2.7     3.2  4.8  0.1075E+01  0.3902E+01  0.2793E+01E
 Epicentro: LOS SANTOS - SANTANDER                                             3
 ACTION:UPD 17-10-05 19:08 OP:rebc STATUS:               ID:20170904064654 L   I
 OLDACT:UP  17-09-04 16:09 OP:dnl  STATUS:               ID:20170904063739     3
 OLDACT:REG 17-09-04 12:48 OP:dnl  STATUS:               ID:20170904063739     3
 2017-09-04-0638-00M.COL___402                                                 6
 STAT SP IPHASW D HRMM SECON CODA AMPLIT PERI AZIMU VELO AIN AR TRES W  DIS CAZ7
 BAR2 EZ EP        647 14.20                             171   -0.3510 23.3 191 
 BAR2 EZ ES        647 29.81                             171   -0.2810 23.3 191 
 BAR2 EZ I         647 31.73         5.3 0.18            168           23.3 191 
 BRR  HZ EP        647 16.09                             153    0.0310 71.4 298 
 BRR  HN ES        647 33.44                             153    0.6810 71.4 298 
 BRR  HZ I         647 34.13         5.0 0.28            150           71.4 298 
 PAM  EZ EP        647 17.16                             151    0.0610 77.3  39 
 PAM  EN ES        647 34.52                             151   -0.1010 77.3  39 
 PAM  EZ I         647 36.47        10.4 0.58            154           77.3  39 
 RUS  HZ EP   2    647 18.86                             144    0.24 5  101 176 
 RUS  HE ES        647 37.08                             144   -0.2510  101 176 
 RUS  HZ I         647 38.35         6.8 0.44            144            101 176 
 SPBC HZ EP        647 23.51                             130    0.18 9  163 219 
 SPBC HN ES        647 45.60                             130   -0.11 9  163 219 
 SPBC HZ I         647 50.09         8.2 0.30            128            163 219 
 YPLC HZ EP   2    647 24.45                             127   -0.14 4  177 151 
 YPLC HN ES        647 48.38                             127    0.42 9  177 151 
 YPLC HZ I         647 49.13         6.7 0.24            128            177 151 
 ZAR  HZ EP   2    647 27.28                             123    0.02 4  204 292 
 ZAR  HN ES        647 52.46                             123   -0.25 9  204 292 
 ZAR  HZ I         647 58.81         5.3 0.26            122            204 292 
 NOR  HZ EP   2    647 29.76                             119   -0.76 4  235 234 
 NOR  HN ES   4    647 57.48                             119   -1.03 0  235 234 
 NOR  HZ I         648  5.47         3.3 0.28            118            235 234 
 GUY2CHZ EP   4    647 39.57                             113    1.20 0  301 235 
 GUY2CHE ES   4    648 14.75                             113    2.26 0  301 235 
 GUY2CHZ I         648 21.50         2.6 0.48                           301 235 
 PRA  HZ EP   2    647 49.02                             107    0.77 3  392 210 
 PRA  HE ES        648 30.15                             107    0.08 6  392 210 
 PRA  HZ I         648 34.44         1.7 0.32            107            392 210 
 SJC  HZ EP   4    647 48.64                             106   -1.65 0  409 327 
 SJC  HN ES   4    648 29.63                             106   -4.08 0  409 327 
 SJC  HZ I         648 36.52         3.2 0.88            106            409 327 
                                                                                
