 2014  5 4 0445  0.3 L   6.783 -73.162148.6  RSN  5 0.4 1.6LRSN                1
 GAP=135        1.02       4.9     7.0  9.8 -0.1146E+02  0.3318E+02 -0.1253E+02E
 Epicentro: LOS SANTOS - SANTANDER                                             3
 OLDACT:REG 14-05-04 12:59 OP:mh   STATUS:               ID:20140504044000     3
 ACTION:UPD 15-03-16 16:55 OP:nd   STATUS:               ID:20140504044500 L   I
 OLDACT:UP  14-05-04 14:57 OP:mh   STATUS:               ID:20140504044000     3
 OLDACT:UP  14-05-04 14:56 OP:mh   STATUS:               ID:20140504044000     3
 2014-05-04-0440-00M.COL___273                                                 6
 STAT SP IPHASW D HRMM SECON CODA AMPLIT PERI AZIMU VELO AIN AR TRES W  DIS CAZ7
 PAM  SZ EP   1    445 23.38                             150    0.36 7 80.0  40 
 PAM  SN ES        445 40.44                             150   -0.2610 80.0  40 
 PAM  SZ I         445 43.36         7.4 0.42            162           80.0  40 
 RUS  HZ EP        445 24.85                             145    0.5910 98.9 175 
 RUS  HN ES        445 42.82                             145   -0.0910 98.9 175 
 RUS  SZ I         446  7.20         4.2 1.48            148           98.9 175 
 PTB  HZ EP        445 26.74                             133   -0.61 9  146 259 
 PTB  HN ES   1    445 48.81                             133    0.39 7  146 259 
 PTB  SZ I         445 55.04         5.7 2.36            140            146 259 
 SPBC HZ EP        445 28.17                             130   -0.65 9  161 219 
 SPBC HN ES   1    445 51.47                             130    0.44 7  161 219 
 SPBC SZ I         445 58.07         3.2 0.10            136            161 219 
 SML  HZ EP        445 37.62                             118    0.39 8  245 336 
 SML  HN ES   2    446  5.95                             118   -0.05 4  245 336 
 SML  SZ I         446 11.43         4.0 0.98            128            245 336 
                                                                                
