 2012  9 4 0815 36.5 L   6.771 -73.142145.6  RSN  7 0.4 1.4LRSN                1
 GAP=138        0.74       4.8     4.4  6.4  0.1173E+01  0.5594E+01  0.2658E+01E
 Epicentro: LOS SANTOS - SANTANDER                                             3
 ACTION:UPD 12-10-22 14:17 OP:ep   STATUS:               ID:20120904081536 L   I
 2012-09-04-0810-00M.COL___218                                                 6
 STAT SP IPHASW D HRMM SECON CODA AMPLIT PERI AZIMU VELO AIN AR TRES W  DIS CAZ7
 BAR2 SZ EP   1    815 55.65                             172   -0.38 7 20.3 193 
 BAR2 SZ ES   1    816 11.15                             172   -0.13 7 20.3 193 
 BAR2 SZ I         816 12.31         6.9 0.12                          20.3 193 
 GIR2 SZ EP   1    815 56.03                             166   -0.19 7 34.5 351 
 GIR2 SZ ES   1    816 11.58                             166   -0.04 7 34.5 351 
 BRR  HZ EP   1    815 58.00                             152    0.28 7 73.1 301 
 BRR  HZ I         815 59.74         6.7 0.09                          73.1 301 
 BRR  HN ES   1    816 14.88                             152    0.60 7 73.1 301 
 PAM  SZ EP   1    815 58.91                             150    0.10 7 79.6  38 
 PAM  SZ I         815 59.02         8.7 0.20                          79.6  38 
 PAM  SN ES   1    816 15.89                             150   -0.34 7 79.6  38 
 RUS  HZ EP   1    816  0.46                             145    0.47 7 97.4 176 
 RUS  HN ES   1    816 18.56                             145    0.24 7 97.4 176 
 RUS  HZ I         816 19.45         2.8 0.22                          97.4 176 
 PTB  HZ EP   1    816  3.06                             132   -0.35 7  148 260 
 PTB  HN ES   1    816 23.74                             132   -0.68 7  148 260 
 PTB  HZ I         816 27.89         1.7 0.18                           148 260 
 ZAR  HN ES   1    816 34.86                             122    0.36 6  206 293 
                                                                                
