 2016  5 4 0844  5.6 L   7.304 -73.757 89.2  RSN 12 0.4 1.7LRSN                1
 GAP=101        0.81       2.3     2.0  5.4  0.4353E+00  0.4046E+01  0.1565E+01E
 Epicentro: PUERTO WILCHES - SANTANDER                                         3
 ACTION:UPD 16-08-18 17:41 OP:cam  STATUS:               ID:20160504084405 L   I
 OLDACT:UP  16-05-04 18:30 OP:ak   STATUS:               ID:20160504083746     3
 OLDACT:REG 16-05-04 13:33 OP:edw  STATUS:               ID:20160504083746     3
 2016-05-04-0837-46M.COL___288                                                 6
 STAT SP IPHASW D HRMM SECON CODA AMPLIT PERI AZIMU VELO AIN AR TRES W  DIS CAZ7
 BRR  HZ IP     D  844 17.89                             165   -0.1510 22.3 167 
 BRR  HN ES        844 27.75                             165   -0.0210 22.3 167 
 BRR  HZ I         844 28.99        11.6 0.18            165           22.3 167 
 BAR2 EZ EP        844 23.88                             128   -0.1310  101 141 
 BAR2 EZ ES        844 38.98                             128    0.5710  101 141 
 BAR2 EZ I         844 40.29        12.4 0.24            128            101 141 
 OCA  HZ EP   4    844 28.07                             124    2.87 0  114  25 
 OCA  HN ES        844 40.04                             124   -0.4810  114  25 
 OCA  HZ I         844 42.75        18.8 0.14            124            114  25 
 PTB  HZ EP   2    844 24.19                             124   -0.88 5  115 222 
 PTB  HN ES   4    844 38.78                             124   -1.51 0  115 222 
 PTB  HZ I         844 39.78        21.1 0.20            123            115 222 
 PAM  EZ EP        844 26.00                             124    0.0810  117  88 
 PAM  EE ES        844 41.77                             124   -0.0310  117  88 
 ZAR  HZ EP        844 26.27                             121    0.3010  123 280 
 ZAR  HN ES        844 41.77                             121   -0.1210  123 280 
 ZAR  HZ I         844 46.03        13.5 0.18            120            123 280 
 RUS  HZ EP   2    844 31.71                             113   -0.35 4  173 154 
 RUS  HN ES        844 53.05                             113    0.32 9  173 154 
 RUS  HZ I         844 56.24         5.1 0.20            113            173 154 
 SPBC HN ES        844 54.00                             111   -0.48 9  186 191 
 URE  HZ EP        844 35.04                             109    0.22 9  202 284 
 URE  HN ES        844 58.32                             109    0.67 9  202 284 
 URE  HZ I         845  2.39         7.8 0.16            109            202 284 
 NOR  HZ EP   2    844 38.41                             107    0.44 4  228 213 
 NOR  HE ES        845  2.83                             107   -0.42 8  228 213 
 NOR  HZ I         845  6.95         4.7 0.08            106            228 213 
 HEL  HZ EP   2    844 38.38                             106   -0.32 4  231 238 
 HEL  HN ES        845  4.62                             106    0.06 8  231 238 
 HEL  HZ I         845 11.44         3.0 0.24            106            231 238 
 CBOC HZ EP   2    844 45.86                             102   -0.32 4  296 238 
                                                                                
