 2017  1 4 0358  1.9 L   6.814 -73.182141.2  RSN  9 0.4 1.6LRSN                1
 GAP=131        1.11       4.1     4.3  6.3  0.3220E+01  0.8054E+01  0.1992E+01E
 Epicentro: ZAPATOCA - SANTANDER                                               3
 ACTION:UPD 17-05-22 15:55 OP:jn   STATUS:               ID:20170104035801 L   I
 OLDACT:REG 17-01-04 12:41 OP:lv   STATUS:               ID:20170104034740     3
 2017-01-04-0348-00M.COL___369                                                 6
 STAT SP IPHASW D HRMM SECON CODA AMPLIT PERI AZIMU VELO AIN AR TRES W  DIS CAZ7
 BAR2 EZ IP     C  358 20.92                             170   -0.1210 24.5 180 
 BAR2 EZ ES        358 35.94                             170   -0.0010 24.5 180 
 BAR2 EZ I         358 37.27        13.7 0.28            170           24.5 180 
 BRR  HZ IP     C  358 22.81                             153    0.4710 66.9 299 
 BRR  HN ES        358 38.83                             153    0.5610 66.9 299 
 BRR  HZ I         358 43.75         9.1 0.14            151           66.9 299 
 PAM  EZ EP        358 23.94                             150    0.1910 78.8  43 
 PAM  EN ES        358 40.57                             150   -0.2010 78.8  43 
 PAM  EZ I         358 43.25         9.4 0.36            153           78.8  43 
 RUS  HZ EP        358 24.97                             142   -0.4110  103 174 
 RUS  HN ES        358 43.21                             142   -0.4510  103 174 
 RUS  HZ I         358 44.78         4.9 0.24            144            103 174 
 PTB  HZ EP        358 28.00                             132   -0.20 9  144 258 
 PTB  HN ES        358 48.20                             132   -0.49 9  144 258 
 PTB  HZ I         358 50.93         5.0 0.13            131            144 258 
 ZAR  HZ EP        358 34.03                             122    0.40 9  200 292 
 ZAR  HN ES        358 58.75                             122    0.39 9  200 292 
 ZAR  HZ I         359  4.97         7.2 0.20            122            200 292 
 CHI  HZ EP        358 39.70                             116    0.27 8  249 194 
 CHI  HE ES        359  9.58                             116    0.89 8  249 194 
 CHI  HZ I         359 15.19         1.5 0.28            117            249 194 
 URE  HZ EP        358 41.69                             113   -0.61 7  280 292 
 URE  HE ES        359 13.05                             113   -0.73 7  280 292 
 URE  HZ I         359 24.21         3.6 0.26            113            280 292 
 GUY2CHZ EP   9    358 46.26                             112    1.20 0  299 234 
 GUY2CHE ES        359 20.66                                    0.76 7  299 234 
 GUY2CHZ I         359 27.70         1.9 0.30                           299 234 
 SJC  HZ EP   4    358 55.64                             105   -1.29 0  406 327 
 SJC  HN ES   4    359 36.15                             105   -3.68 0  406 327 
                                                                                
