 2015  6 4 0233 31.2 L   6.862 -73.098134.6  RSN  5 0.4 1.8LRSN                1
 GAP=280        0.74       4.8     8.5 12.5  0.1485E+02 -0.4790E+02 -0.6655E+01E
 Epicentro: LOS SANTOS - SANTANDER                                             3
 ACTION:UPD 15-09-10 22:09 OP:cam  STATUS:               ID:20150604023331 L   I
 OLDACT:REG 15-06-04 12:52 OP:ak   STATUS:               ID:20150604022748     3
 2015-06-04-0227-48M.COL___300                                                 6
 STAT SP IPHASW D HRMM SECON CODA AMPLIT PERI AZIMU VELO AIN AR TRES W  DIS CAZ7
 SPBC HZ EP        233 59.54                             125   -0.1710  172 219 
 SPBC HE ES        234 22.12                             125    0.1610  172 219 
 SPBC HZ I         234 29.08         5.9 0.13            130            172 219 
 ZAR  HZ EP   1    234  3.62                             119    0.44 7  206 290 
 ZAR  HE ES        234 27.84                             119   -0.30 9  206 290 
 ZAR  HZ I         234 34.44         5.4 0.16            125            206 290 
 HEL  HZ EP   1    234 11.48                             112   -0.14 6  279 255 
 HEL  HN ES        234 43.03                             112   -0.13 8  279 255 
 HEL  HZ I         234 49.10         3.3 0.28            117            279 255 
 GUY2CHZ EP        234 15.99                             109    0.74 8  309 234 
 GUY2CHN ES        234 49.94                             109    0.32 8  309 234 
 GUY2CHZ I         234 58.88         3.1 0.30                           309 234 
 PRA  HZ EP        234 24.80                             104   -0.56 6  401 210 
 PRA  HN ES     C  235  7.04                             104   -0.57 6  401 210 
 PRA  HZ I         235 13.62         2.2 0.34            109            401 210 
                                                                                
