 2012  7 4 0428 21.3 L   6.761 -73.198137.7  RSN  6 0.4 1.4LRSN                1
 GAP=177        1.02       5.8     6.6 10.1  0.1048E+02  0.7348E+01 -0.4882E+00E
 Epicentro: VILLANUEVA - SANTANDER                                             3
 ACTION:UPD 12-08-14 11:42 OP:ep   STATUS:               ID:20120704042821 L   I
 2012-07-04-0427-40M.COL___202                                                 6
 STAT SP IPHASW D HRMM SECON CODA AMPLIT PERI AZIMU VELO AIN AR TRES W  DIS CAZ7
 BAR2 SZ EP   1    428 39.82                             172     0.0 7   19 175 
 BAR2 SZ ES   1    428 53.87                             172    -0.5 7   19 175 
 BAR2 SZ I         428 56.47         5.9 0.13            172             19 175 
 BRR  HZ EP   1    428 41.82                             152     0.4 7   68 304 
 BRR  HN ES        428 57.65                             152     0.510   68 304 
 BRR  HZ I         428 59.69         7.2 0.12            153             68 304 
 RUS  HZ EP   1    428 44.21                             143     0.2 7   97 172 
 RUS  HZ I         428 45.23         3.9 0.13            144             97 172 
 RUS  HN ES   1    429  1.83                             143     0.1 7   97 172 
 PTB  HZ EP   1    428 46.88                             132    -0.1 7  141 260 
 PTB  HN ES        429  6.51                             132    -0.6 9  141 260 
 PTB  HZ I         429  9.57         1.9 0.10            133            141 260 
 OCA  HE ES   1    429 10.71                             127    -0.5 7  164 355 
 ZAR  HN ES   1    429 17.82                             121     0.4 6  200 294 
