 2014  2 4 0757 14.3 L   6.719 -73.149134.0  RSN  5 0.4 1.1LRSN                1
 GAP=140        0.65       4.1     5.7  8.3 -0.6847E+01  0.1912E+02 -0.5549E+01E
 Epicentro: VILLANUEVA - SANTANDER                                             3
 ACTION:UPD 14-03-10 08:07 OP:ep   STATUS:               ID:20140204075714 L   I
 OLDACT:UP  14-02-04 12:28 OP:mh   STATUS:               ID:20140204075000     3
 OLDACT:REG 14-02-04 08:23 OP:mh   STATUS:               ID:20140204075000     3
 2014-02-04-0750-00M.COL___288                                                 6
 STAT SP IPHASW D HRMM SECON CODA AMPLIT PERI AZIMU VELO AIN AR TRES W  DIS CAZ7
 PAM  SZ EP   1    757 35.27                             146   -0.50 7 84.7  36 
 PAM  SN ES   2    757 52.92                             146    0.42 5 84.7  36 
 PAM  SZ I         757 55.58         3.2 0.21            151           84.7  36 
 RUS  HZ EP   1    757 36.38                             144    0.12 7 91.7 175 
 RUS  HN ES        757 53.44                             144    0.0610 91.7 175 
 RUS  HZ I         757 56.89         1.2 0.39            143           91.7 175 
 PTB  HZ EP   1    757 40.37                             130    0.20 7  146 262 
 PTB  HE ES   2    758  0.09                             130   -0.25 5  146 262 
 PTB  HZ I         758  2.44         3.9 0.06            130            146 262 
 NOR  HN ES   2    758 15.80                             116    0.11 4  229 236 
 NOR  HZ I         758 21.13         1.4 0.26            117            229 236 
 CHI  HZ EP   1    757 50.99                             115    0.57 6  240 196 
 CHI  HN ES   1    758 17.97                             115   -0.61 6  240 196 
 CHI  HZ I         758 28.67         0.6 0.33            116            240 196 
                                                                                
