 2015  2 4 0612 34.9 L   6.823 -73.126142.0  RSN 22 0.6 2.5LRSN                1
 GAP= 56        1.48       3.3     3.8  6.4 -0.1533E+01  0.7415E+01  0.2890E+01E
 Epicentro: LOS SANTOS - SANTANDER                                             3
 ACTION:UPD 15-04-30 21:21 OP:nd   STATUS:               ID:20150204061234 L   I
 OLDACT:REG 15-02-04 12:03 OP:stll STATUS:               ID:20150204060744     3
 2015-02-04-0607-44M.COL___268                                                 6
 STAT SP IPHASW D HRMM SECON CODA AMPLIT PERI AZIMU VELO AIN AR TRES W  DIS CAZ7
 BAR2 EZ IP     D  612 54.40                             169    0.2110 26.3 194 
 BAR2 EZ ES        613  9.32                             169    0.1210 26.3 194 
 BAR2 EZ I         613 12.07        61.9 0.24            167           26.3 194 
 BRR  HZ IP     C  612 56.30                             151    0.5710 72.0 296 
 BRR  HN ES        613 12.73                             151    0.7810 72.0 296 
 BRR  HZ I         613 18.10        30.1 0.34            147           72.0 296 
 PAM  SZ EP        612 57.05                             151    0.4910 74.0  40 
 PAM  SZ I         612 57.47        42.4 0.22            153           74.0  40 
 PAM  SN ES        613 13.78                             151    0.3610 74.0  40 
 RUS  HZ EP        612 58.33                             142   -0.1810  103 177 
 RUS  HN ES        613 16.32                             142   -0.5710  103 177 
 RUS  HZ I         613 18.25        27.6 0.30            143            103 177 
 PTB  HZ EP        613  1.13                             130   -0.72 9  150 258 
 PTB  HN ES        613 22.10                             130   -0.74 9  150 258 
 PTB  HZ I         613 29.57        37.8 0.36            128            150 258 
 TAM  HZ EP        613  2.61                             130    0.41 9  154 106 
 TAM  HE ES        613 22.49                             130   -0.96 9  154 106 
 TAM  HZ I         613 23.35        22.5 0.40            133            154 106 
 OCA  HZ EP        613  2.56                             129   -0.19 9  158 352 
 OCA  HN ES        613 24.30                             129   -0.14 9  158 352 
 OCA  HZ I         613 30.05        50.8 0.40            128            158 352 
 SPBC HZ EP        613  3.33                             127   -0.15 9  167 219 
 SPBC HE ES        613 25.64                             127   -0.10 9  167 219 
 SPBC HZ I         613 30.76        56.5 0.22            126            167 219 
 ZAR  HZ EP        613  6.73                             121   -0.53 9  205 291 
 ZAR  HE ES        613 32.15                             121   -0.32 9  205 291 
 ZAR  HZ I         613 37.93        41.5 0.34            119            205 291 
 SML  HZ EP        613 10.91                             117   -0.30 8  242 335 
 SML  HE ES        613 39.60                             117    0.10 8  242 335 
 SML  HZ I         613 41.08        32.5 0.34            116            242 335 
 CHI  HZ EP        613 12.57                             116   -0.20 8  252 195 
 CHI  HZ I         613 15.09        13.5 0.48            116            252 195 
 CHI  HN ES        613 42.28                             116    0.00 8  252 195 
 ROSC BZ EP     C  613 14.19                             115    0.96 8  256 211 
 ROSC BE ES        613 43.48                             115    0.39 8  256 211 
 ROSC BZ I         613 52.17        53.1 0.35            115            256 211 
 HEL  HZ EP        613 15.17                             113   -0.11 8  275 255 
 HEL  HN ES        613 47.26                             113    0.53 8  275 255 
 HEL  HZ I         613 53.97        22.4 0.30            113            275 255 
 URE  HZ EP   9    613 14.90                             112   -1.06 0  285 291 
 URE  HN ES        613 45.25                                   -1.64 7  285 291 
 URE  HZ I         613 55.26        19.5 0.36            112            285 291 
 GUY2CHZ EP        613 18.56                             111   -0.19 7  304 235 
 GUY2CHN ES        613 52.83                             111   -0.09 7  304 235 
 GUY2CHZ I         614  0.80        26.6 0.42                           304 235 
 PTGC HZ EP   9    613 17.40                             110   -1.42 0  310 159 
 PTGC HN ES        613 50.17                                   -1.45 7  310 159 
 RREF HZ EP        613 22.51                             110    1.20 7  325 229 
 RREF HN ES        613 58.46                             110    0.99 7  325 229 
 RREF HZ I         614  4.08        18.5 0.26            109            325 229 
 CBOC HZ EP        613 22.06                             109    0.02 7  336 252 
 CBOC HZ I         613 22.97         8.7 0.18            108            336 252 
 CBOC HE ES        613 57.46                             109   -1.31 7  336 252 
 DBB  SZ EP        613 21.93                             108   -0.57 7  341 274 
 DBB  SZ I         614  1.12        41.8 0.52            108            341 274 
 TOL  SZ EP        613 22.84                             108   -0.60 6  347 225 
 TOL  SN ES        614  0.84                             108   -0.43 6  347 225 
 SDV  BZ EP   9    613 23.65                             107   -0.81 0  357  50 
 SDV  BZ I         613 24.48        11.8 0.30            108            357  50 
 SDV  BN ES        614  0.38                                   -1.89 6  357  50 
 ANIL HZ EP        613 25.78                             107    0.78 6  361 224 
 ANIL HN ES        614  4.84                             107    0.80 6  361 224 
 ANIL HZ I         614 15.69         5.2 0.50            107            361 224 
                                                                                
