 2011  6 4 0945 27.5 L   6.557 -73.405118.4  RSN  5 0.3 1.5LRSN                1
 GAP=177        0.56       4.0     9.4  7.4  0.9702E+01  0.5805E+01 -0.4902E+01E
 Epicentro: HATO - SANTANDER                                                   3
 ACTION:UP  11-07-14 19:03 OP:ep   STATUS:               ID:20110604094527 L   I
 2011-06-04-0940-08S.COL___132                                                 6
 STAT SP IPHASW D HRMM SECON CODA AMPLIT PERI AZIMU VELO SNR AR TRES W  DIS CAZ7
 BAR2 SZ EP   1    945 43.46                             167    -0.4 7   25  81 
 BAR2 SZ ES   2    945 56.81                             167     0.2 5   25  81 
 BAR2 SZ I         945 57.51         7.3 0.12                            25  81 
 BRR  HN ES   2    945 59.71                             147    -0.1 5   70 331 
 BRR  HZ I         946  0.11        12.3 0.30                            70 331 
 RUS  HZ EP   1    945 47.12                             143     0.0 7   82 154 
 RUS  HN ES   2    946  2.94                             143     0.4 5   82 154 
 RUS  HZ I         946  3.81         5.8 0.24                            82 154 
 PAM  SN ES   2    946  7.43                             133    -0.2 5  116  42 
 OCA  SZ EP   1    945 56.87                             118     0.3 7  186   3 
 OCA  SZ I         946 17.94         3.9 0.41                           186   3 
 OCA  SZ ES   2    946 19.36                             118     0.1 4  186   3 
                                                                                
