 2013  2 4 0519 54.2 L   6.780 -73.145148.0  RSN  6 0.3 1.6LRSN                1
 GAP=138        0.70       4.4     3.4  7.4  0.3889E+00  0.5829E+01  0.5122E+01E
 Epicentro: LOS SANTOS - SANTANDER                                             3
 ACTION:UPD 13-03-12 09:30 OP:ep   STATUS:               ID:20130204051954 L   I
 2013-02-04-0518-50M.COL___176                                                 6
 STAT SP IPHASW D HRMM SECON CODA AMPLIT PERI AZIMU VELO AIN AR TRES W  DIS CAZ7
 BAR2 SZ EP        520 14.04                             171   -0.0310 21.2 191 
 BAR2 SZ I         520 31.56         6.1 0.18            167           21.2 191 
 BRR  HZ EP        520 15.99                             152    0.3210 72.4 300 
 BRR  HN ES   1    520 32.80                             152    0.40 7 72.4 300 
 BRR  HN I         520 35.76        10.7 0.18            155           72.4 300 
 PAM  SZ EP   1    520 16.94                             151    0.18 7 79.0  38 
 PAM  SN ES        520 34.01                             151   -0.3410 79.0  38 
 PAM  SN I         520 35.94         5.9 0.44            151           79.0  38 
 RUS  HZ EP   1    520 18.15                             145    0.12 7 98.4 176 
 RUS  HN ES   1    520 36.81                             145    0.20 7 98.4 176 
 PTB  HZ EP   1    520 20.78                             132   -0.56 7  147 260 
 PTB  HN ES        520 42.14                             132   -0.35 9  147 260 
 PTB  HN I         520 47.17         7.9 0.32            132            147 260 
 ZAR  HE ES        520 52.56                             123    0.16 9  205 293 
                                                                                
