 2017  9 4 0034 13.7 L   6.822 -73.123148.0  RSN  5 0.3 1.4LRSN                1
 GAP=138        0.79       4.5     4.5  7.2  0.3017E+01  0.5395E+01 -0.5410E+01E
 Epicentro: LOS SANTOS - SANTANDER                                             3
 ACTION:UPD 17-10-05 19:08 OP:rebc STATUS:               ID:20170904003413 L   I
 OLDACT:UP  17-09-04 13:07 OP:dnl  STATUS:               ID:20170904002739     3
 OLDACT:UP  17-09-04 13:07 OP:dnl  STATUS:               ID:20170904002739     3
 OLDACT:REG 17-09-04 12:14 OP:dnl  STATUS:               ID:20170904002739     3
 2017-09-04-0028-00M.COL___417                                                 6
 STAT SP IPHASW D HRMM SECON CODA AMPLIT PERI AZIMU VELO AIN AR TRES W  DIS CAZ7
 BAR2 EZ EP   2    034 33.62                             169   -0.04 5 26.2 194 
 BAR2 EZ ES        034 48.96                             169   -0.2710 26.2 194 
 BAR2 EZ I         034 51.22         5.7 0.26            171           26.2 194 
 BRR  HZ EP        034 35.16                             152    0.0010 72.3 296 
 BRR  HN ES        034 52.36                             152    0.4710 72.3 296 
 BRR  HZ I         034 58.78         6.7 0.48            151           72.3 296 
 PAM  EZ EP        034 36.37                             152    0.4110 73.9  39 
 PAM  EN ES        034 52.99                             152   -0.3210 73.9  39 
 PAM  EZ I         034 55.65         5.3 0.34            155           73.9  39 
 RUS  HZ EP   2    034 37.28                             143   -0.56 5  103 178 
 RUS  HN ES        034 56.79                             143    0.1310  103 178 
 RUS  HZ I         034 57.30         3.1 0.32            149            103 178 
 ZAR  HZ EP   4    034 48.03                             122    1.59 0  205 291 
 ZAR  HN ES        035 11.61                             122   -0.37 8  205 291 
 ZAR  HZ I         035 16.57         2.2 0.42            124            205 291 
                                                                                
