 2015  6 4 0840 28.9 L   6.791 -73.146143.3  RSN  5 0.4 1.4LRSN                1
 GAP=237        1.03       6.0     7.5  8.2  0.2101E+02  0.1151E+02  0.5750E+01E
 Epicentro: LOS SANTOS - SANTANDER                                             3
 ACTION:UPD 15-09-10 22:09 OP:cam  STATUS:               ID:20150604084028 L   I
 OLDACT:UP  15-06-04 18:22 OP:drio STATUS:               ID:20150604083749     3
 OLDACT:REG 15-06-04 13:21 OP:ak   STATUS:               ID:20150604083749     3
 2015-06-04-0837-49M.COL___294                                                 6
 STAT SP IPHASW D HRMM SECON CODA AMPLIT PERI AZIMU VELO AIN AR TRES W  DIS CAZ7
 BAR2 EZ EP        840 47.92                             171   -0.3210 22.4 190 
 BAR2 EZ ES        841  2.80                             171   -0.5010 22.4 190 
 BAR2 EZ I         841  3.93         6.6 0.22            169           22.4 190 
 BRR  HZ EP        840 49.88                             152    0.0510 71.6 299 
 BRR  HE ES        841  6.91                             152    0.7810 71.6 299 
 RUS  HZ EP        840 52.49                             144    0.1310 99.6 176 
 RUS  HN ES        841 10.74                             144    0.0910 99.6 176 
 RUS  HZ I         841 11.47         2.3 0.28            143           99.6 176 
 SPBC HZ EP        840 57.48                             129    0.32 9  162 219 
 SPBC HN ES        841 19.10                             129   -0.08 9  162 219 
 SPBC HZ I         841 20.91         3.9 0.22            128            162 219 
 ZAR  HE ES        841 25.84                             122   -0.60 9  204 292 
                                                                                
