 2016 10 4 0705 26.9 L   5.901 -73.753109.0  RSN  5 0.3 1.1LRSN                1
 GAP=141        0.81       4.6     3.4  8.8  0.3187E+01  0.1332E+02  0.5157E+01E
 Epicentro: JESUS MARIA - SANTANDER                                            3
 ACTION:UPD 16-11-09 19:16 OP:rebc STATUS:               ID:20161004070526 L   I
 OLDACT:UP  16-10-04 17:43 OP:dani STATUS:               ID:20161004065744     3
 OLDACT:UP  16-10-04 17:43 OP:dani STATUS:               ID:20161004065744     3
 OLDACT:REG 16-10-04 13:23 OP:dani STATUS:               ID:20161004065744     3
 2016-10-04-0658-00M.COL___360                                                 6
 STAT SP IPHASW D HRMM SECON CODA AMPLIT PERI AZIMU VELO AIN AR TRES W  DIS CAZ7
 SPBC HZ EP        7 5 42.47                             156   -0.2410 44.8 232 
 RUS  HZ EP        7 5 45.15                             143    0.0510 74.2  91 
 RUS  HE ES        7 5 59.48                             143    0.1610 74.2  91 
 RUS  HZ I         7 6  1.88         1.6 0.30            145           74.2  91 
 PTB  HZ EP   4    7 5 45.34                             132   -1.63 0  105 312 
 PTB  HN ES        7 6  2.19                             132   -0.4610  105 312 
 PTB  HZ I         7 6  2.83         1.6 0.14            134            105 312 
 BRR  HZ EP        7 5 49.39                             125   -0.2610  133   2 
 BRR  HN ES        7 6  7.74                             125    0.3310  133   2 
 BRR  HZ I         7 6 10.45         3.9 0.16            127            133   2 
 HEL  HZ EP        7 5 57.10                             114   -0.04 9  199 279 
 HEL  HE ES        7 6 21.34                             114    0.60 9  199 279 
 HEL  HZ I         7 6 24.28         1.9 0.37            115            199 279 
                                                                                
