 2016 11 4 0850 46.6 L   6.763 -73.107156.0  RSN 10 0.5 1.7LRSN                1
 GAP=124        1.14       4.8     5.1  6.4 -0.4762E+01  0.4544E+01  0.1086E+01E
 Epicentro: LOS SANTOS - SANTANDER                                             3
 ACTION:UPD 17-10-26 21:04 OP:lp   STATUS:               ID:20161104085046 L   I
 OLDACT:UP  16-11-04 17:30 OP:dani STATUS:               ID:20161104084746d    3
 OLDACT:DUP 16-11-04 17:26 OP:dani STATUS:               ID:20161104084746d    3
 OLDACT:UP  16-11-04 17:25 OP:dani STATUS:               ID:20161104084745     3
 OLDACT:REG 16-11-04 13:17 OP:dani STATUS:               ID:20161104084745     3
 2016-11-04-0848-00M.COL___343                                                 6
 STAT SP IPHASW D HRMM SECON CODA AMPLIT PERI AZIMU VELO AIN AR TRES W  DIS CAZ7
 BAR2 EZ EP        851  7.52                             172    0.0910 20.6 204 
 BAR2 EZ ES        851 22.89                             172   -0.7710 20.6 204 
 BAR2 EZ I         851 26.55         6.6 0.50            171           20.6 204 
 BRR  HZ EP        851  9.59                             152    0.4010 76.9 300 
 BRR  HN ES        851 27.51                             152    0.7110 76.9 300 
 BRR  HZ I         851 32.44        11.9 0.27            144           76.9 300 
 PAM  EZ EP        851 10.43                             152    0.4610 78.1  35 
 PAM  EE ES        851 27.83                             152   -0.3510 78.1  35 
 PAM  EZ I         851 31.81         2.4 0.17            148           78.1  35 
 RUS  HZ EP        851 11.45                             147    0.3610 96.3 178 
 RUS  HN ES        851 30.20                             147    0.0110 96.3 178 
 RUS  HZ I         851 32.30         2.9 0.28            147           96.3 178 
 PTB  HZ EP        851 14.56                             133   -0.18 9  151 261 
 PTB  HE ES        851 36.39                             133   -0.28 9  151 261 
 PTB  HN I         851 41.17        20.2 0.32            128            151 261 
 SPBC HZ EP        851 15.95                             131    0.07 9  163 221 
 SPBC HN ES        851 38.60                             131   -0.11 9  163 221 
 SPBC HZ I         851 41.28         8.3 0.10            128            163 221 
 ZAR  HZ EP        851 20.38                             124    0.08 8  210 293 
 ZAR  HZ I         851 53.13         3.4 0.14            118            210 293 
 NOR  HN ES        851 51.57                             120    0.05 8  236 236 
 PTGC HZ EP        851 30.25                             114   -0.10 7  303 159 
 PTGC HE ES   4    852  3.39                             114   -1.07 0  303 159 
 PTGC HZ I         852  6.97         4.2 0.33            112            303 159 
 SJC  HZ EP        851 41.41                             107   -1.79 6  415 327 
 SJC  HN ES   4    852 23.32                             107   -4.01 0  415 327 
 SJC  HZ I         852 28.04         1.3 0.44            104            415 327 
                                                                                
