 2012  8 4 0753 11.0 L   6.588 -73.571109.2  RSN  4 0.2 1.0LRSN                1
 GAP=122        0.41       3.4     2.8  5.2  0.3769E+01  0.4564E+01  0.4118E+01E
 Epicentro: EL CARMEN DE CHUCURI - SANTANDER                                   3
 ACTION:UPD 12-09-10 11:54 OP:ep   STATUS:               ID:20120804075311 L   I
 2012-08-04-0750-00M.COL___215                                                 6
 STAT SP IPHASW D HRMM SECON CODA AMPLIT PERI AZIMU VELO AIN AR TRES W  DIS CAZ7
 BAR2 SZ EP   1    753 26.70                             157   -0.25 7 43.0  89 
 BAR2 SZ I         753 27.14         5.1 0.21                          43.0  89 
 BAR2 SZ ES   1    753 39.43                             157    0.01 7 43.0  89 
 BRR  HZ EP   1    753 27.37                             149   -0.14 7 59.4 345 
 BRR  HN ES   1    753 40.59                             149    0.17 7 59.4 345 
 BRR  HZ I         753 42.21         5.3 0.13                          59.4 345 
 RUS  HZ EP   2    753 31.14                             137    0.38 5 94.0 145 
 RUS  HN ES   1    753 46.20                             137   -0.01 7 94.0 145 
 RUS  HZ I         753 47.61         1.4 0.24                          94.0 145 
 PTB  HZ EP   1    753 30.63                             135    0.18 7 98.0 267 
 PTB  HN ES   1    753 45.53                             135   -0.13 7 98.0 267 
 PTB  HZ I         753 47.30         1.3 0.20                          98.0 267 
                                                                                
