 2015  4 4 0900 28.7 L   6.799 -73.136152.5  RSN 13 0.4 1.9LRSN                1
 GAP=138        0.89       2.6     3.4  4.7 -0.2075E+01  0.4742E+01 -0.4734E+00E
 Epicentro: LOS SANTOS - SANTANDER                                             3
 ACTION:UPD 15-06-03 16:52 OP:cam  STATUS:               ID:20150404090028 L   I
 OLDACT:UP  15-04-04 17:12 OP:mh   STATUS:               ID:20150404085743     3
 OLDACT:UP  15-04-04 17:12 OP:mh   STATUS:               ID:20150404085743     3
 OLDACT:UP  15-04-04 17:12 OP:mh   STATUS:               ID:20150404085743     3
 OLDACT:UP  15-04-04 17:12 OP:mh   STATUS:               ID:20150404085743     3
 OLDACT:UP  15-04-04 17:02 OP:mh   STATUS:               ID:20150404085743     3
 OLDACT:REG 15-04-04 13:28 OP:mh   STATUS:               ID:20150404085743     3
 2015-04-04-0857-43M.COL___276                                                 6
 STAT SP IPHASW D HRMM SECON CODA AMPLIT PERI AZIMU VELO AIN AR TRES W  DIS CAZ7
 BAR2 EZ EP        9 0 49.11                             171   -0.0310 23.4 193 
 BAR2 EZ ES        9 1  4.92                             171   -0.1710 23.4 193 
 BAR2 EZ I         9 1  6.29                             171           23.4 193 
 BRR  HZ EP        9 0 51.06                             153    0.4310 72.2 298 
 BRR  HN ES        9 1  8.43                             153    0.6910 72.2 298 
 BRR  HZ I         9 1 12.15         7.6 0.14            151           72.2 298 
 PAM  SZ EP        9 0 51.86                             152    0.2610 76.8  39 
 PAM  SN ES        9 1  9.19                             152   -0.2710 76.8  39 
 PAM  SZ I         9 1 11.03         8.6 0.58            155           76.8  39 
 RUS  HZ EP        9 0 53.05                             145   -0.0610  100 177 
 RUS  HN ES        9 1 11.84                             145   -0.3010  100 177 
 RUS  HZ I         9 1 12.57         8.0 0.28            149            100 177 
 PTB  HZ EP        9 0 55.70                             133   -0.62 9  149 259 
 PTB  HN ES        9 1 17.24                             133   -0.62 9  149 259 
 PTB  HZ I         9 1 24.40        12.2 0.44            133            149 259 
 OCA  HZ EP        9 0 57.90                             131    0.34 9  160 353 
 OCA  HN ES        9 1 20.36                             131    0.29 9  160 353 
 OCA  HZ I         9 1 29.45        11.6 0.12            132            160 353 
 SPBC HZ EP        9 0 57.97                             130    0.19 9  164 219 
 SPBC HN ES        9 1 20.69                             130    0.23 9  164 219 
 SPBC HZ I         9 1 25.35        14.3 0.07            132            164 219 
 ZAR  HZ EP        9 1  1.80                             124    0.10 9  205 292 
 ZAR  HN ES        9 1 27.22                             124   -0.21 9  205 292 
 ZAR  HZ I         9 1 29.04         9.1 0.30            124            205 292 
 NOR  HZ EP        9 1  4.69                             120   -0.22 8  236 235 
 NOR  HN ES   1    9 1 33.15                             120   -0.01 6  236 235 
 NOR  HZ I         9 1 35.70         4.7 0.30            121            236 235 
 SML  HZ EP        9 1  5.66                             119   -0.11 8  244 335 
 SML  HN ES   1    9 1 34.01                             119   -0.67 6  244 335 
 SML  HZ I         9 1 36.98        10.7 0.30            120            244 335 
 HEL  HZ EP   4    9 1 11.26                             116    1.89 0  273 256 
 HEL  HN ES        9 1 41.54                             116    0.44 8  273 256 
 HEL  HZ I         9 1 47.04         4.1 0.30            117            273 256 
 GUY2CHZ EP   4    9 1 14.50                             114    1.78 0  302 235 
 GUY2CHN ES   4    9 1 50.88                             114    3.83 0  302 235 
 GUY2CHZ I         9 1 55.39         4.3 0.76                           302 235 
 TOL  SZ EP        9 1 16.73                             110   -0.58 7  344 225 
 TOL  SN ES        9 1 55.68                             110    0.45 7  344 225 
 TOL  SZ I         9 2  2.01         2.2 0.26            112            344 225 
                                                                                
