 2010  9 4 0211  1.3 L   6.803 -73.109140.7  RSN 10 0.3 2.3LRSN                1
 GAP=163        0.73       3.0     6.7  4.8 -0.6932E+01  0.9739E+00  0.1505E+01E
 Epicentro: LOS SANTOS - SANTANDER                                             3
 ACTION:UP  11-02-18 11:00 OP:tino STATUS:               ID:20100904021101 L   I
 2010-09-04-0209-42S.COL___120                                                 6
 STAT SP IPHASW D HRMM SECON CODA AMPLIT PERI AZIMU VELO SNR AR TRES W  DIS CAZ7
 BTL  SZ EP        211 20.49                             171     0.210   22 306 
 BTL  SZ ES   1    211 34.89                             171    -0.2 7   22 306 
 BAR2 SZ IP        211 20.28                             170     0.010   25 199 
 BAR2 SZ ES   1    211 35.26                             170     0.1 7   25 199 
 BAR2 SZ I         211 36.89        46.2 0.08                            25 199 
 BRR  HZ IP     D  211 22.14                             150     0.110   75 297 
 BRR  HZ I         211 22.31       105.1 0.13                            75 297 
 BRR  HN ES   1    211 38.22                             150    -0.1 7   75 297 
 RUS  HZ EP        211 24.26                             143    -0.310  101 178 
 RUS  HN ES   1    211 42.76                             143     0.1 7  101 178 
 RUS  HZ I         211 44.90        12.0 0.36                           101 178 
 GRA  SZ IP        211 26.13                             136     0.210  124  16 
 GRA  SZ ES   1    211 45.37                             136     0.2 7  124  16 
 OCA  SZ EP        211 28.77                             128    -0.4 9  160 352 
 OCA  SZ I         211 55.22        28.0 0.26                           160 352 
 CHI  HZ EP   1    211 38.66                             116    -0.2 6  250 196 
 CHI  HN ES   2    212  8.13                             116     0.0 4  250 196 
 CHI  HZ I         212 14.07         8.6 0.38                           250 196 
 ROSC BZ EP   1    211 40.44                             115     1.1 6  255 212 
 ROSC BN ES   1    212  9.15                             115     0.0 6  255 212 
 ROSC BZ I         212 16.18         8.6 0.61                           255 212 
 HEL  HZ EP   2    211 41.94                             113     0.3 4  276 256 
 HEL  HZ I         212 18.77        11.1 0.38                           276 256 
 PRA  HZ EP   1    211 54.33                             106    -0.6 4  394 210 
 PRA  HN ES   2    212 36.14                             106    -0.6 3  394 210 
 PRA  HZ I         212 41.67         6.9 0.26                           394 210 
                                                                                
