 2011 11 4 0606 14.6 L   6.808 -73.108146.2  RSN  4 0.2 1.3LRSN                1
 GAP=141        0.51       5.0     7.0  8.9  0.4974E+01  0.2589E+02  0.1821E+02E
 Epicentro: LOS SANTOS - SANTANDER                                             3
 ACTION:UPD 12-07-13 16:08 OP:ep   STATUS:               ID:20111104060614 L   I
 2011-11-04-0604-00S.COL___174                                                 6
 STAT SP IPHASW D HRMM SECON CODA AMPLIT PERI AZIMU VELO AIN AR TRES W  DIS CAZ7
 BAR2 SZ EP   1    6 6 33.96                             170   -0.40 7 25.3 199 
 BAR2 SZ I         6 6 36.31         5.3 0.43                          25.3 199 
 PAM  SN ES   1    6 6 53.98                             152    0.06 7 74.1  37 
 BRR  HZ EP        6 6 36.02                             151   -0.0110 74.5 296 
 BRR  HZ I         6 6 36.59         6.2 0.12                          74.5 296 
 BRR  HN ES   2    6 6 52.88                             151    0.18 5 74.5 296 
 RUS  HZ EP   1    6 6 38.82                             144    0.34 7  101 178 
 RUS  HN ES   2    6 6 56.94                             144   -0.14 5  101 178 
 RUS  HZ I         6 6 58.47         1.5 0.34                           101 178 
                                                                                
