 2012  2 4 0618 47.5 L   6.826 -73.362121.5  RSN  8 0.4 1.9LRSN                1
 GAP=109        0.71       3.0     4.1  6.2  0.2415E+01  0.3805E+01 -0.1084E+01E
 ACTION:UP  12-03-07 16:27 OP:epov STATUS:               ID:20120204061847 L   I
 2012-02-04-0616-41S.COL___155                                                 6
 STAT SP IPHASW D HRMM SECON CODA AMPLIT PERI AZIMU VELO SNR AR TRES W  DIS CAZ7
 BAR2 SZ EP   1    619  4.84                             164    0.33 7 32.6 142 
 BAR2 SZ I         619  5.08        66.6 0.12                          32.6 142 
 BAR2 SZ ES   1    619 17.59                             164   -0.17 7 32.6 142 
 GIR2 SZ EP   1    619  4.44                             164    0.04 7 33.6  34 
 BRR  HZ EP   1    619  5.03                             156    0.17 7 49.6 309 
 BRR  HE ES   1    619 19.03                             156    0.65 7 49.6 309 
 BRR  HZ I         619 20.31        40.4 0.16                          49.6 309 
 RUS  HZ EP   1    619  9.63                             136    0.07 7  108 163 
 RUS  HE ES   1    619 26.56                             136   -0.20 7  108 163 
 RUS  HZ I         619 28.36         4.4 0.30                           108 163 
 PTB  HZ EP   1    619 10.06                             131   -0.39 7  125 255 
 PTB  HN ES   1    619 27.63                             131   -0.71 7  125 255 
 OCA  SZ EP   1    619 13.53                             124   -0.13 7  156   2 
 OCA  SZ ES   1    619 33.58                             124   -0.48 7  156   2 
 ZAR  HZ EP   1    619 16.32                             120    0.31 7  181 294 
 ZAR  HN ES   1    619 38.54                             120    0.30 7  181 294 
 ZAR  HZ I         619 43.76         5.9 0.13                           181 294 
 CHI  HN ES   1    619 52.26                             112    0.29 6  246 190 
                                                                                
