 2016  2 4 0950 58.1 L   6.670 -73.005133.2  RSN  5 0.5 1.3LRSN                1
 GAP=161        0.71       7.0    12.8 10.1 -0.6088E+02  0.4388E+02  0.1012E+02E
 Epicentro: ARATOCA - SANTANDER                                                3
 ACTION:UPD 16-03-04 21:23 OP:rebc STATUS:               ID:20160204095058 L   I
 OLDACT:REG 16-02-04 13:00 OP:dnl  STATUS:               ID:20160204094747     3
 2016-02-04-0947-47M.COL___291                                                 6
 STAT SP IPHASW D HRMM SECON CODA AMPLIT PERI AZIMU VELO AIN AR TRES W  DIS CAZ7
 BAR2 EZ EP   2    951 15.98                             170   -0.20 5 21.4 246 
 BAR2 EZ ES   2    951 30.45                             170    0.16 5 21.4 246 
 BAR2 EZ I         951 32.59         4.2 0.21            162           21.4 246 
 PAM  EZ EP   2    951 18.28                             147   -0.97 5 81.3  24 
 PAM  EN ES        951 35.93                             147    0.1810 81.3  24 
 PAM  EZ I         951 38.29         4.2 0.20            149           81.3  24 
 RUS  HZ EP   2    951 20.36                             145    0.76 5 86.4 186 
 RUS  HE ES   2    951 35.55                             145   -0.82 5 86.4 186 
 RUS  HZ I         951 41.45         3.1 0.37            136           86.4 186 
 CHI  HZ EP   2    951 34.31                             115    0.18 4  240 200 
 CHI  HE ES   2    952  2.74                             115    0.50 4  240 200 
 CHI  HZ I         952 14.59         1.1 0.49            113            240 200 
 GUY2CHZ EP   2    951 41.82                             109    0.07 4  306 239 
 GUY2CHN ES   2    952 15.57                             109   -0.23 4  306 239 
 GUY2CHZ I         952 21.36         1.6 0.25                           306 239 
                                                                                
