 2013  9 4 0253 21.9 L   6.803 -73.127146.9  RSN 10 0.4 1.8LRSN                1
 GAP=139        1.02       2.9     5.1  5.8 -0.1830E+01  0.5850E+01 -0.7037E-01E
 Epicentro: LOS SANTOS - SANTANDER                                             3
 ACTION:UPD 13-10-22 09:19 OP:ep   STATUS:               ID:20130904025321 L   I
 OLDACT:UP  13-09-04 09:56 OP:cam  STATUS:               ID:20130904024959     3
 OLDACT:REG 13-09-04 08:35 OP:cam  STATUS:               ID:20130904024959     3
 2013-09-04-0249-59M.COL___269                                                 6
 STAT SP IPHASW D HRMM SECON CODA AMPLIT PERI AZIMU VELO AIN AR TRES W  DIS CAZ7
 BAR2 SZ EP        253 41.59                             170   -0.0610 24.1 195 
 BAR2 SZ ES        253 57.04                             170   -0.0410 24.1 195 
 BAR2 SZ I         253 58.26        11.1 0.36            169           24.1 195 
 BRR  HZ EP        253 43.62                             152    0.3810 72.8 298 
 BRR  HN ES        254  0.81                             152    0.9110 72.8 298 
 BRR  HZ I         254  4.71        11.0 0.38            150           72.8 298 
 PAM  SZ EP     C  253 44.36                             152    0.2410 75.9  39 
 PAM  SN ES        254  0.75                             152   -0.7210 75.9  39 
 RUS  HZ EP   1    253 46.06                             144    0.31 7  101 177 
 RUS  HN ES        254  4.39                             144    0.0210  101 177 
 RUS  HZ I         254  5.06         5.3 0.38            145            101 177 
 PTB  HZ EP        253 48.51                             132   -0.61 9  150 259 
 PTB  HN ES        254  9.83                             132   -0.54 9  150 259 
 PTB  HZ I         254 12.18         6.7 0.14            131            150 259 
 OCA  HZ EP   1    253 50.71                             130    0.44 7  160 352 
 OCA  HN ES        254 12.59                             130    0.18 9  160 352 
 OCA  HZ I         254 16.93         8.4 0.38            131            160 352 
 SPBC HZ EP        253 50.74                             129    0.14 9  165 219 
 SPBC HN ES   1    254 13.16                             129    0.15 7  165 219 
 SPBC HZ I         254 17.61         8.8 0.44            129            165 219 
 SML  HZ EP        253 58.53                             118   -0.09 8  244 335 
 SML  HN ES        254 26.80                             118   -0.49 8  244 335 
 SML  HZ I         254 30.64        13.4 0.10            118            244 335 
 CHI  HZ EP   1    253 59.36                             117   -0.36 6  249 196 
 CHI  HN ES        254 29.12                             117   -0.13 8  249 196 
 CHI  HZ I         254 34.89         1.9 0.36            118            249 196 
 PRA  HZ EP   1    254 16.22                             107    0.64 4  393 210 
                                                                                
