 2012 12 4 0421 50.9 L   6.794 -73.178148.8  RSN  7 0.4 1.5LRSN                1
 GAP=177        0.68       3.5     5.2  7.2  0.3857E+01  0.8442E+01 -0.5794E+01E
 Epicentro: LOS SANTOS - SANTANDER                                             3
 ACTION:UPD 13-01-04 14:25 OP:ep   STATUS:               ID:20121204042150 L   I
 2012-12-04-0420-00M.COL___236                                                 6
 STAT SP IPHASW D HRMM SECON CODA AMPLIT PERI AZIMU VELO AIN AR TRES W  DIS CAZ7
 BAR2 SZ EP   1    422 10.93                             171    0.07 7 22.3 181 
 BAR2 SZ ES   2    422 26.57                             171    0.13 5 22.3 181 
 BAR2 SZ I         422 27.36        10.7 0.16                          22.3 181 
 GIR2 SZ ES   2    422 27.35                             167    0.80 5 31.5 357 
 GIR2 SZ I         422 27.43         3.7 0.52                          31.5 357 
 RUS  HZ EP   1    422 15.07                             144    0.16 7  100 174 
 RUS  HN ES   1    422 33.16                             144   -0.49 7  100 174 
 RUS  HZ I         422 35.84         1.5 0.28                           100 174 
 PTB  HZ EP   1    422 17.74                             133   -0.04 7  144 259 
 PTB  HN ES   1    422 38.53                             133   -0.22 7  144 259 
 PTB  HZ I         422 43.66         4.2 0.10                           144 259 
 OCA  HE ES   1    422 41.74                             130    0.00 7  161 354 
 ZAR  HZ EP   1    422 23.64                             123    0.42 6  201 293 
 ZAR  HN ES   1    422 48.76                             123    0.32 6  201 293 
 ZAR  HZ I         422 54.50         4.4 0.26                           201 293 
 SML  HZ EP   1    422 27.67                             118    0.08 6  243 336 
 SML  HN ES   1    422 55.38                             118   -0.84 6  243 336 
 SML  HZ I         423  1.64         3.8 0.24                           243 336 
                                                                                
