 2012  3 4 0416 30.3 L   6.744 -73.133141.6  RSN  4 0.2 1.7LRSN                1
 GAP=234        0.46       5.7     8.1  4.4  0.3580E+02  0.1171E+01  0.1009E+01E
 ACTION:UP  12-03-31 23:16 OP:EP   STATUS:               ID:20120304041630 L   I
 2012-03-04-0410-00M.COL___191                                                 6
 STAT SP IPHASW D HRMM SECON CODA AMPLIT PERI AZIMU VELO SNR AR TRES W  DIS CAZ7
 BAR2 SZ EP        416 49.26                             173     0.010   18 198 
 BAR2 SZ I         416 49.63         8.0 0.08                            18 198 
 BAR2 SZ ES   1    417  3.86                             173    -0.3 7   18 198 
 BRR  HZ EP        416 51.16                             150     0.010   76 302 
 BRR  HE ES        417  7.70                             150     0.110   76 302 
 BRR  HZ I         417 12.62        12.6 0.68                            76 302 
 RUS  HZ EP   1    416 53.37                             145     0.2 7   94 177 
 RUS  HN ES   1    417 11.04                             145     0.0 7   94 177 
 PTB  HZ EP   1    416 56.70                             131    -0.2 7  148 261 
                                                                                
