 2011 10 4 0454 51.2 L   6.748 -73.074137.5  RSN  4 0.1 1.0LRSN                1
 GAP=148        0.36       2.6     4.0  4.4  0.1161E+01  0.1682E+01  0.1855E+01E
 Epicentro: LOS SANTOS - SANTANDER                                             3
 ACTION:UPD 12-07-13 16:01 OP:ep   STATUS:               ID:20111004045451 L   I
 2011-10-04-0453-27S.COL___170                                                 6
 STAT SP IPHASW D HRMM SECON CODA AMPLIT PERI AZIMU VELO AIN AR TRES W  DIS CAZ7
 BAR2 SZ EP   1    455  9.90                             171    0.07 7 20.9 215 
 BAR2 SZ I         455 10.26         3.5 0.04                          20.9 215 
 BAR2 SZ ES   1    455 24.12                             171   -0.21 7 20.9 215 
 PAM  SN ES   1    455 29.28                             149    0.05 7 77.4  32 
 PAM  SZ I         455 30.29         1.5 0.65                          77.4  32 
 BRR  HZ EP   1    455 11.93                             148   -0.18 7 80.9 299 
 BRR  HE ES   1    455 28.54                             148    0.16 7 80.9 299 
 RUS  HZ EP   1    455 13.78                             144    0.04 7 94.5 181 
 RUS  HE ES   1    455 31.37                             144    0.08 7 94.5 181 
 RUS  HZ I         455 35.67         1.5 0.40                          94.5 181 
                                                                                
