 2012 10 4 0148 42.4 L   6.805 -73.081151.4  RSN  6 0.3 1.8LRSN                1
 GAP=145        0.60       5.6     6.2  8.0  0.6316E+01  0.2509E+01 -0.1496E+01E
 Epicentro: LOS SANTOS - SANTANDER                                             3
 ACTION:UPD 12-11-22 17:01 OP:ep   STATUS:               ID:20121004014842 L   I
 2012-10-04-0140-00M.COL___220                                                 6
 STAT SP IPHASW D HRMM SECON CODA AMPLIT PERI AZIMU VELO AIN AR TRES W  DIS CAZ7
 BAR2 SZ EP   1    149  2.58                             170   -0.20 7 26.1 205 
 BAR2 SZ ES   2    149 18.19                             170   -0.48 5 26.1 205 
 BAR2 SZ I         149 21.15         9.7 0.20                          26.1 205 
 GIR2 SZ EP   1    149  2.59                             167   -0.21 7 32.7 338 
 PAM  SZ EP   1    149  5.46                             153    0.49 7 72.6  35 
 PAM  SN ES   2    149 22.29                             153   -0.26 5 72.6  35 
 PAM  SN I         149 23.97         5.2 0.17                          72.6  35 
 BRR  HZ EP        149  4.56                             151    0.0410 77.3 296 
 BRR  HZ I         149  6.07        16.9 0.09                          77.3 296 
 BRR  HN ES   2    149 22.11                             151    0.35 5 77.3 296 
 RUS  HZ EP   1    149  6.49                             145   -0.26 7  101 180 
 RUS  HN ES   2    149 26.43                             145    0.70 5  101 180 
 ZAR  HN ES   2    149 41.95                             123   -0.05 4  210 291 
 ZAR  HN I         149 48.76        10.1 0.15                           210 291 
                                                                                
