 2011  9 4 0412 33.1 L   6.751 -73.171152.0  RSN  7 0.2 1.7LRSN                1
 GAP=178        0.52       2.9     4.4  5.6  0.2434E+01  0.5990E+00 -0.4024E+01E
 Epicentro: VILLANUEVA - SANTANDER                                             3
 ACTION:UPD 12-07-13 15:55 OP:ep   STATUS:               ID:20110904041233 L   I
 2011-09-04-0410-32S.COL___171                                                 6
 STAT SP IPHASW D HRMM SECON CODA AMPLIT PERI AZIMU VELO AIN AR TRES W  DIS CAZ7
 BAR2 SZ EP        412 53.02                             173   -0.3110 17.6 184 
 BAR2 SZ ES   2    413  8.99                             173   -0.15 5 17.6 184 
 BAR2 SZ I         413 10.32        15.1 0.31                          17.6 184 
 GIR2 SZ EP        412 53.38                             166   -0.2210 36.3 356 
 GIR2 SZ ES   2    413  9.57                             166   -0.06 5 36.3 356 
 BRR  HZ EP        412 55.12                             153    0.2310 71.6 303 
 BRR  HN ES   2    413 12.39                             153    0.46 5 71.6 303 
 BRR  HZ I         413 14.24        11.6 0.10                          71.6 303 
 RUS  HZ EP   1    412 57.23                             146    0.17 7 95.4 174 
 RUS  HN ES   1    413 15.92                             146    0.13 7 95.4 174 
 RUS  HZ I         413 17.58         7.6 0.42                          95.4 174 
 OCA  SZ EP        413  2.48                             130    0.16 9  165 354 
 OCA  SZ ES   1    413 25.28                             130    0.13 7  165 354 
 OCA  SZ I         413 28.20         4.6 0.24                           165 354 
 ZAR  HN ES   1    413 31.05                             124   -0.40 6  204 294 
 NOR  SN ES   2    413 36.58                             120    0.30 4  229 235 
                                                                                
