 2016 12 4 0736 35.7 L   6.727 -73.192152.4  RSN  4 0.3 1.1LRSN                1
 GAP=230        0.65       8.1     4.8  5.8  0.1565E+02  0.3348E+01 -0.1071E+02E
 Epicentro: VILLANUEVA - SANTANDER                                             3
 ACTION:UPD 17-01-11 20:12 OP:rebc STATUS:               ID:20161204073635 L   I
 OLDACT:REG 16-12-04 12:51 OP:dani STATUS:               ID:20161204072743     3
 2016-12-04-0728-00M.COL___346                                                 6
 STAT SP IPHASW D HRMM SECON CODA AMPLIT PERI AZIMU VELO AIN AR TRES W  DIS CAZ7
 BAR2 EZ EP        736 55.87                             174   -0.1310 15.0 176 
 BAR2 EZ ES        737 11.65                             174   -0.1810 15.0 176 
 BRR  HZ EP        736 57.69                             154    0.1210 71.1 306 
 BRR  HE ES        737 14.91                             154    0.2810 71.1 306 
 BRR  HZ I         737 18.38         1.8 0.07            147           71.1 306 
 PTB  HN ES        737 23.83                             135    0.15 9  141 262 
 ZAR  HZ EP        737  8.64                             124    0.21 9  203 295 
 ZAR  HN ES        737 33.46                             124   -0.50 9  203 295 
 ZAR  HZ I         737 41.42         1.1 0.15            123            203 295 
                                                                                
