 2013  6 4 0032  5.9 L   6.975 -73.220165.7  RSN  4 0.5 1.8LRSN                1
 GAP=199        0.88       9.6    12.0 10.2 -0.1953E+02 -0.3440E+02  0.1157E+02E
 Epicentro: BETULIA - SANTANDER                                                3
 ACTION:UPD 14-01-08 09:52 OP:ep   STATUS:               ID:20130604003205 L   I
 2013-06-04-0030-00M.COL___257                                                 6
 STAT SP IPHASW D HRMM SECON CODA AMPLIT PERI AZIMU VELO AIN AR TRES W  DIS CAZ7
 BAR2 SZ EP   1    032 27.82                             165   -0.56 7 42.5 174 
 BAR2 SZ I         032 57.70         3.4 0.50            134           42.5 174 
 BRR  HZ EP   1    032 28.67                             160    0.14 7 56.3 285 
 BRR  HN ES        032 46.48                             160    0.2810 56.3 285 
 BRR  HN I         032 48.18        17.7 0.18            162           56.3 285 
 PTB  HZ EP        032 34.76                             137    0.46 9  145 251 
 PTB  HN ES   1    032 55.80                             137   -0.67 7  145 251 
 PTB  HZ I         032 58.33         3.6 0.14            142            145 251 
 SML  HZ EP   2    032 41.53                             124   -0.01 4  223 335 
 SML  HE ES   2    033  8.63                             124   -0.73 4  223 335 
 SML  HN I         033 13.57        13.9 0.10            121            223 335 
                                                                                
