 2010  9 4 0725  2.5 L   6.920 -73.072150.0  RSN  9 0.4 1.8LRSN                1
 GAP=165        1.01       5.5    10.7  9.2 -0.2019E+02 -0.9252E+01 -0.1339E+01E
 Epicentro: PIEDECUESTA - SANTANDER                                            3
 ACTION:UP  11-02-18 11:00 OP:tino STATUS:               ID:20100904072502 L   I
 2010-09-04-0723-13S.COL___120                                                 6
 STAT SP IPHASW D HRMM SECON CODA AMPLIT PERI AZIMU VELO SNR AR TRES W  DIS CAZ7
 BAR2 SZ IP        725 23.02                             165     0.010   38 199 
 BAR2 SZ I         725 23.26        15.1 0.07                            38 199 
 BAR2 SZ ES   1    725 38.89                             165    -0.1 7   38 199 
 BRR  HZ EP        725 23.93                             153    -0.310   74 286 
 BRR  HE ES   1    725 41.44                             153     0.3 7   74 286 
 BRR  HZ I         725 42.85        21.4 0.17                            74 286 
 GUE  SZ EP   1    725 27.32                             144     0.9 7  102   9 
 GUE  SZ I         725 27.95         7.2 0.19                           102   9 
 GRA  SZ IP        725 26.86                             142     0.010  111  16 
 GRA  SZ ES   1    725 45.83                             142    -0.1 7  111  16 
 GRA  SZ I         725 50.02        12.2 0.33                           111  16 
 RUS  HZ EP   1    725 27.94                             141     0.4 7  114 181 
 RUS  HE ES   2    725 46.88                             141    -0.3 5  114 181 
 RUS  HZ I         725 49.30         2.0 0.19                           114 181 
 OCA  SZ EP   1    725 29.18                             133    -0.8 7  148 349 
 OCA  SZ I         725 53.21         4.9 0.06                           148 349 
 CHI  HN ES   2    726 12.46                             116    -0.4 4  264 196 
 CHI  HZ I         726 16.53         5.0 0.42                           264 196 
 HEL  HZ EP   2    725 44.83                             115     0.7 4  283 254 
 HEL  HZ I         726 21.31         2.2 0.69                           283 254 
 PRA  HN ES   2    726 40.93                             106    -0.3 3  408 210 
 PRA  HZ I         726 47.44         3.1 0.38                           408 210 
                                                                                
