 2016 11 4 0115 40.1 L   6.789 -73.127149.6  RSN  5 0.4 1.3LRSN                1
 GAP=139        0.96       5.0     4.4  8.4  0.1511E+01  0.6388E+01  0.4258E+01E
 Epicentro: LOS SANTOS - SANTANDER                                             3
 ACTION:UPD 17-10-26 21:04 OP:lp   STATUS:               ID:20161104011540 L   I
 OLDACT:UP  16-11-04 13:55 OP:dani STATUS:               ID:20161104010745     3
 OLDACT:REG 16-11-04 12:21 OP:dani STATUS:               ID:20161104010745     3
 2016-11-04-0108-00M.COL___346                                                 6
 STAT SP IPHASW D HRMM SECON CODA AMPLIT PERI AZIMU VELO AIN AR TRES W  DIS CAZ7
 BRR  HZ EP        116  1.73                             152   -0.1010 73.6 299 
 BRR  HN ES        116 19.20                             152    0.4410 73.6 299 
 BRR  HZ I         116 22.73         4.3 0.14            153           73.6 299 
 PAM  EZ EP        116  3.17                             152    0.4310 77.0  38 
 PAM  EE ES        116 19.85                             152   -0.5310 77.0  38 
 PAM  EZ I         116 22.59         4.9 0.52            156           77.0  38 
 RUS  HZ EP        116  4.42                             145    0.2410 99.3 177 
 RUS  HE ES        116 23.00                             145    0.0710 99.3 177 
 RUS  HZ I         116 24.62         1.1 0.23            148           99.3 177 
 PTB  HZ EP        116  7.03                             132   -0.55 9  150 259 
 PTB  HN ES        116 28.65                             132   -0.33 9  150 259 
 PTB  HZ I         116 36.02         3.4 0.32            134            150 259 
 ZAR  HE ES        116 39.05                             123    0.29 8  206 292 
                                                                                
