 2016  7 4 0221  0.3 L   6.749 -73.153139.9  RSN  9 0.4 1.6LRSN                1
 GAP=121        0.93       4.1     3.9  6.3  0.2818E+01  0.3869E+01 -0.2371E+01E
 Epicentro: LOS SANTOS - SANTANDER                                             3
 ACTION:UPD 17-03-29 16:46 OP:lp   STATUS:               ID:20160704022100 L   I
 OLDACT:UP  16-07-04 16:23 OP:dani STATUS:               ID:20160704021742     3
 OLDACT:REG 16-07-04 12:57 OP:dani STATUS:               ID:20160704021742     3
 2016-07-04-0217-42M.COL___328                                                 6
 STAT SP IPHASW D HRMM SECON CODA AMPLIT PERI AZIMU VELO AIN AR TRES W  DIS CAZ7
 BAR2 EZ EP        221 19.12                             172   -0.0310 17.6 191 
 BAR2 EZ ES        221 33.95                             172    0.1210 17.6 191 
 BAR2 EZ I         221 35.32         7.0 0.18            169           17.6 191 
 PAM  EZ EP        221 21.98                             148   -0.2510 82.3  37 
 RUS  HZ EP        221 23.27                             144    0.1710 95.0 175 
 RUS  HE ES        221 41.28                             144    0.4110 95.0 175 
 RUS  HZ I         221 42.86         3.8 0.24            145           95.0 175 
 PTB  HZ EP        221 26.44                             131   -0.22 9  146 261 
 PTB  HE ES        221 46.89                             131   -0.30 9  146 261 
 PTB  HZ I         221 52.43         3.8 0.36            130            146 261 
 SPBC HZ EP        221 27.93                             129    0.01 9  158 220 
 SPBC HE ES        221 49.30                             129   -0.14 9  158 220 
 SPBC HZ I         221 53.33         8.8 0.10            128            158 220 
 ZAR  HZ EP        221 33.44                             121    0.89 8  205 294 
 ZAR  HE ES        221 57.16                             121   -0.52 8  205 294 
 ZAR  HZ I         222  4.20         4.1 0.28            121            205 294 
 NOR  HN ES        222  2.70                             118    0.12 8  231 235 
 NOR  HZ I         222 10.60         3.2 0.24            118            231 235 
 GUY2CHZ EP        221 43.64                             111    0.41 7  297 236 
 GUY2CHZ I         222 23.27         1.7 0.32                           297 236 
 PTGC HE ES        222 16.09                             111   -0.84 7  304 158 
                                                                                
