 2011  1 4 0328 40.0 L   6.799 -73.159136.0  RSN 17 0.4 2.8LRSN                1
 GAP=135        0.83       2.6     4.2  5.4 -0.2568E+01  0.9353E+01  0.1441E+01E
 Epicentro: LOS SANTOS - SANTANDER                                             3
 ACTION:UP  11-02-08 08:38 OP:pat  STATUS:               ID:20110104032840 L   I
 2011-01-04-0325-00S.COL___135                                                 6
 STAT SP IPHASW D HRMM SECON CODA AMPLIT PERI AZIMU VELO SNR AR TRES W  DIS CAZ7
 BTL  SZ EP        328 58.60                             172     0.210   18 318 
 BAR2 SZ IP        328 58.56                             170     0.110   23 187 
 BAR2 SZ ES   1    329 12.72                             170    -0.1 7   23 187 
 BAR2 SZ I         329 14.25       217.0 0.23                            23 187 
 GIR2 SZ EP   1    328 58.66                             166     0.1 7   31 353 
 GIR2 SZ ES   1    329 13.48                             166     0.5 7   31 353 
 RUS  HZ EP   1    329  2.53                             142    -0.3 7  101 175 
 RUS  HN ES   1    329 20.05                             142    -0.5 7  101 175 
 RUS  HZ I         329 22.57        67.8 0.29                           101 175 
 GRA  SZ IP        329  4.60                             135     0.110  126  18 
 GRA  SZ ES   1    329 24.09                             135     0.6 7  126  18 
 GRA  SZ I         329 26.29       100.0 0.32                           126  18 
 OCA  SZ IP        329  6.95                             127    -0.6 9  160 354 
 OCA  SZ ES   1    329 28.45                             127    -0.6 7  160 354 
 OCA  SZ I         329 31.97       109.8 0.38                           160 354 
 YOP  SZ EP   1    329  8.89                             124    -0.5 7  180 153 
 YOP  SE ES   1    329 32.72                             124     0.3 7  180 153 
 YOP  SZ I         329 37.85        30.4 0.82                           180 153 
 NOR  SZ EP   1    329 14.73                             117    -0.3 6  234 234 
 NOR  SN ES   1    329 42.16                             117    -0.2 6  234 234 
 CHI  HZ EP   1    329 16.96                             115    -0.2 6  248 195 
 CHI  HN ES   1    329 45.98                             115    -0.1 6  248 195 
 CHI  HZ I         329 51.96        16.5 0.23                           248 195 
 HEL  HZ EP   1    329 19.83                             113     0.3 6  271 256 
 HEL  HN ES   1    329 50.15                             113    -0.3 6  271 256 
 HEL  HZ I         329 58.12        28.7 0.26                           271 256 
 GUY  SZ EP   1    329 23.90                             111     0.9 5  300 235 
 GUY  SE ES   1    329 57.01                             111     0.4 5  300 235 
 GUY  SZ I         330  3.48        54.7 0.52                           300 235 
 VIL  SE ES   2    329 56.76                             110     0.7 4  301 190 
 RREF HZ EP   1    329 25.91                             109     0.3 5  321 229 
 RREF HE ES   1    330  1.28                             109     0.1 5  321 229 
 DBB  SZ IP        329 26.81                             108    -0.1 7  338 274 
 TOL  SZ EP   1    329 28.44                             108     0.7 5  342 224 
 PRA  HZ EP   1    329 33.43                             105     0.3 4  391 209 
 PRA  HN ES   1    330 14.11                             105    -0.4 4  391 209 
 SJA  SZ EP   2    329 33.58                             105    -0.6 3  400 193 
 SJA  SZ I         330 20.87        22.0 0.59                           400 193 
                                                                                
