 2015  2 4 0921 28.3 L   6.765 -73.158138.9  RSN 11 0.5 2.3LRSN                1
 GAP= 72        1.24       3.4     3.8  8.7  0.7459E+00  0.9912E+00 -0.1854E+01E
 Epicentro: LOS SANTOS - SANTANDER                                             3
 ACTION:UPD 15-04-30 21:21 OP:nd   STATUS:               ID:20150204092128 L   I
 OLDACT:UP  15-02-04 19:16 OP:stll STATUS:               ID:20150204091742d    3
 OLDACT:DUP 15-02-04 19:11 OP:stll STATUS:               ID:20150204091742d    3
 OLDACT:DUP 15-02-04 19:07 OP:stll STATUS:               ID:20150204091741d    3
 OLDACT:DUP 15-02-04 19:05 OP:stll STATUS:               ID:20150204091740d    3
 2015-02-04-0917-39M.COL___271                                                 6
 STAT SP IPHASW D HRMM SECON CODA AMPLIT PERI AZIMU VELO AIN AR TRES W  DIS CAZ7
 BAR2 EZ IP     C  921 47.40                             172    0.3710 19.3 188 
 BAR2 EZ I         922  3.20        27.9 0.22            165           19.3 188 
 BRR  HZ EP        921 49.55                             151    0.7910 72.0 302 
 BRR  HZ I         921 49.66        40.7 0.22            141           72.0 302 
 BRR  HN ES        922  5.13                             151    0.4210 72.0 302 
 PAM  SZ EP        921 50.51                             148    0.4710 81.3  39 
 PAM  SZ I         921 50.82        58.2 0.30            150           81.3  39 
 PAM  SN ES        922  6.99                             148   -0.0010 81.3  39 
 RUS  HZ EP        921 51.23                             143    0.1310 96.8 175 
 RUS  HN ES        922  8.96                             143    0.0710 96.8 175 
 RUS  HZ I         922 10.67        30.1 0.32            143           96.8 175 
 PTB  HN ES        922 14.07                             131   -0.91 9  146 260 
 PTB  HZ I         922 20.02        13.7 0.12            124            146 260 
 TAM  HZ I         921 55.73        15.6 0.18            134            155 103 
 TAM  HZ EP        921 55.81                             129    0.33 9  155 103 
 TAM  HN ES        922 15.98                             129   -0.70 9  155 103 
 SPBC HN ES        922 17.61                             128    0.17 9  159 219 
 SPBC HZ I         922 19.37        17.2 0.12            124            159 219 
 OCA  HZ EP        921 56.12                             127   -0.33 9  164 354 
 OCA  HN ES        922 17.83                             127   -0.57 9  164 354 
 OCA  HZ I         922 22.72        26.0 0.30            124            164 354 
 ZAR  HZ EP        922  0.45                             121    0.12 9  204 293 
 ZAR  HE ES        922 25.66                             121    0.34 9  204 293 
 ZAR  HZ I         922 35.23        19.1 0.44            116            204 293 
 CHI  HN ES        922 33.18                             116   -0.75 8  245 195 
 SML  HN ES        922 32.76                             116   -0.65 8  247 336 
 SML  HZ I         922 39.89        24.0 0.26            113            247 336 
                                                                                
