 2010  9 4 0435 48.2 L   6.783 -73.088146.0  RSN  5 0.4 1.8LRSN                1
 GAP=242        0.78       6.4    10.4  8.9  0.2635E+02  0.2500E+02  0.1575E+02E
 Epicentro: LOS SANTOS - SANTANDER                                             3
 ACTION:UP  11-02-18 11:00 OP:tino STATUS:               ID:20100904043548 L   I
 2010-09-04-0420-00S.COL___112                                                 6
 STAT SP IPHASW D HRMM SECON CODA AMPLIT PERI AZIMU VELO SNR AR TRES W  DIS CAZ7
 BAR2 SZ EP        436  7.77                             170    -0.110   24 207 
 BAR2 SZ I         436 24.31        19.0 0.17                            24 207 
 BRR  HZ EP        436  9.66                             150    -0.110   78 298 
 BRR  HN ES   1    436 26.53                             150     0.0 7   78 298 
 BRR  HZ I         436 28.38        11.9 0.15                            78 298 
 RUS  HZ EP   1    436 11.68                             144    -0.1 7   98 180 
 RUS  HN ES   1    436 30.60                             144     0.4 7   98 180 
 RUS  HZ I         436 31.63         7.1 0.30                            98 180 
 HEL  HZ EP   1    436 29.78                             114     0.7 6  278 257 
 HEL  HZ I         437  6.18         2.3 0.04                           278 257 
 PRA  HZ EP   1    436 42.04                             107     0.1 4  394 211 
 PRA  HE ES   1    437 22.96                             107    -0.8 4  394 211 
 PRA  HZ I         437 29.46         4.0 0.36                           394 211 
                                                                                
