 2012 12 4 1146 16.8 L   6.829 -73.167139.8  RSN  5 0.3 1.8LRSN                1
 GAP=132        0.74       3.9     3.4  6.3 -0.3083E+00  0.6962E+01 -0.1732E+01E
 Epicentro: LOS SANTOS - SANTANDER                                             3
 ACTION:UPD 13-01-04 14:25 OP:ep   STATUS:               ID:20121204114616 L   I
 2012-12-04-1140-00M.COL___232                                                 6
 STAT SP IPHASW D HRMM SECON CODA AMPLIT PERI AZIMU VELO AIN AR TRES W  DIS CAZ7
 BAR2 SZ EP       1146 36.16                             169    0.3710 26.2 184 
 BAR2 SZ ES       1146 50.78                             169    0.1810 26.2 184 
 BAR2 SZ I        1146 52.49        11.0 0.20                          26.2 184 
 PAM  SZ EP       1146 38.42                             150    0.0710 76.5  42 
 PAM  SN ES       1146 54.81                             150   -0.3310 76.5  42 
 PAM  SN I        1146 56.32        10.6 0.40                          76.5  42 
 RUS  HZ EP       1146 40.17                             142   -0.0610  104 175 
 RUS  HN ES       1146 58.57                             142    0.0710  104 175 
 RUS  HN I        1147  0.27         4.2 0.20                           104 175 
 PTB  HZ EP       1146 42.82                             131   -0.33 9  146 257 
 PTB  HN ES       1147  3.31                             131   -0.38 9  146 257 
 PTB  HN I        1147  9.00        10.1 0.24                           146 257 
 ZAR  HN ES       1147 13.70                             121    0.44 9  201 292 
 ZAR  HN I        1147 19.59        25.9 0.28                           201 292 
                                                                                
