 2017  6 4 1545 37.0 L   6.792 -73.148146.4  RSN  8 0.5 1.9LRSN                1
 GAP=212        1.14       5.4     4.9  8.1  0.1237E+02  0.1783E+01  0.5014E+00E
 Epicentro: LOS SANTOS - SANTANDER                                             3
 ACTION:UPD 17-09-14 16:49 OP:jn   STATUS:               ID:20170604154537 L   I
 OLDACT:UP  17-06-05 01:08 OP:ar   STATUS:               ID:20170604153731     3
 OLDACT:REG 17-06-04 22:10 OP:ar   STATUS:               ID:20170604153731     3
 2017-06-04-1538-00M.COL___347                                                 6
 STAT SP IPHASW D HRMM SECON CODA AMPLIT PERI AZIMU VELO AIN AR TRES W  DIS CAZ7
 BRR  HZ EP       1545 58.44                             153    0.2210 71.4 299 
 BRR  HE ES       1546 15.21                             153    0.4310 71.4 299 
 BRR  HZ I        1546 21.65        18.1 0.16            153           71.4 299 
 RUS  HZ EP       1546  0.60                             144   -0.1410 99.7 176 
 RUS  HN ES       1546 18.65                             144   -0.6210 99.7 176 
 RUS  HZ I        1546 19.53         9.1 0.24            148           99.7 176 
 PTB  HZ EP       1546  2.99                             132   -0.98 9  147 259 
 PTB  HN ES       1546 24.48                             132   -0.54 9  147 259 
 PTB  HZ I        1546 27.00        10.1 0.24            135            147 259 
 SPBC HZ EP       1546  5.64                             129    0.18 9  162 219 
 SPBC HE ES       1546 27.66                             129   -0.00 9  162 219 
 SPBC HZ I        1546 34.50        12.6 0.28            132            162 219 
 YPLC HZ EP     D 1546  6.75                             127   -0.02 9  176 151 
 YPLC HE ES       1546 30.52                             127    0.53 9  176 151 
 YPLC HZ I        1546 33.06         9.1 0.32            131            176 151 
 ZAR  HZ EP       1546  9.47                             122   -0.02 9  204 292 
 ZAR  HN ES       1546 35.05                             122    0.21 9  204 292 
 ZAR  HZ I        1546 40.83        12.5 0.44            125            204 292 
 NOR  HZ EP       1546 13.06                             119    0.38 8  234 235 
 NOR  HN ES       1546 41.40                             119    0.88 8  234 235 
 NOR  HZ I        1546 45.10         5.2 0.24            122            234 235 
 CBOC HZ EP   4   1546 25.89                             110    2.02 0  333 252 
 CBOC HN ES       1547  0.21                             110   -0.23 7  333 252 
                                                                                
