 2013 11 4 1149 12.4 L   6.792 -73.172147.3  RSN  8 0.4 1.8LRSN                1
 GAP=134        0.94       3.8     4.5  6.2 -0.1233E+01  0.5150E+01 -0.1921E+01E
 Epicentro: LOS SANTOS - SANTANDER                                             3
 ACTION:UPD 14-01-09 16:25 OP:ep   STATUS:               ID:20131104114912 L   I
 OLDACT:REG 13-11-04 17:38 OP:jn   STATUS:               ID:20131104114744     3
 2013-11-04-1147-44M.COL___213                                                 6
 STAT SP IPHASW D HRMM SECON CODA AMPLIT PERI AZIMU VELO AIN AR TRES W  DIS CAZ7
 BAR2 SZ EP       1149 32.26                             171    0.1110 22.1 183 
 BAR2 SZ ES       1149 47.51                             171   -0.0710 22.1 183 
 BAR2 SZ I        1149 48.77        25.3 0.24            169           22.1 183 
 BRR  HZ EP       1149 34.07                             153    0.5110 69.1 300 
 BRR  HN ES       1149 50.69                             153    0.6010 69.1 300 
 BRR  HZ I        1149 53.70        13.4 0.30            150           69.1 300 
 PAM  SZ EP       1149 35.20                             150    0.3110 80.0  41 
 PAM  SN ES       1149 52.19                             150   -0.2810 80.0  41 
 PAM  SZ I        1149 54.61         7.4 0.68            156           80.0  41 
 RUS  HZ EP       1149 36.19                             144   -0.0310 99.9 174 
 RUS  HN ES       1149 54.58                             144   -0.2410 99.9 174 
 RUS  HZ I        1149 56.11         7.0 0.28            146           99.9 174 
 PTB  HZ EP       1149 38.87                             133   -0.31 9  145 259 
 PTB  HN ES       1149 59.48                             133   -0.62 9  145 259 
 PTB  HZ I        1150  7.24         8.7 0.34            132            145 259 
 SPBC HZ EP   1   1149 40.89                             130    0.15 7  161 218 
 SPBC HN ES   1   1150  3.04                             130    0.17 7  161 218 
 SPBC HZ I        1150  9.46        11.1 0.26            130            161 218 
 ZAR  HN ES   2   1150 10.67                             123    0.81 4  202 293 
 ZAR  HZ I        1150 17.12         5.0 0.12            123            202 293 
 SML  HZ EP   1   1149 48.91                             118   -0.12 6  243 336 
 SML  HN ES   1   1150 16.64                             118   -0.99 6  243 336 
                                                                                
