 2010 12 4 1320 33.7 L   6.766 -73.097148.4  RSN 17 0.4 3.9LRSN                1
 GAP=142        0.72       2.9     4.4  4.5 -0.6338E+01 -0.3095E+00  0.4343E+01E
 Epicentro: LOS SANTOS - SANTANDER                                             3
 ACTION:UP  11-01-14 15:22 OP:pat  STATUS:               ID:20101204132033 L   I
 2010-12-04-1318-44S.COL___133                                                 6
 STAT SP IPHASW D HRMM SECON CODA AMPLIT PERI AZIMU VELO SNR AR TRES W  DIS CAZ7
 BAR2 SZ EP   1   1320 53.80                             171     0.1 7   22 206 
 BAR2 SZ ES   1   1321  9.23                             171     0.0 7   22 206 
 BAR2 SZ I        1321 12.01      1301.4 0.48                            22 206 
 GIR2 SZ EP   1   1320 53.93                             166     0.1 7   36 343 
 GIR2 SZ ES   1   1321  9.31                             166    -0.3 7   36 343 
 BRR  HZ IP     C 1320 55.78                             151     0.210   78 299 
 BRR  HN ES   1   1321 12.77                             151     0.2 7   78 299 
 BRR  HZ I        1321 16.72       929.9 0.33                            78 299 
 GUE  SZ EP   1   1320 58.98                             139     0.1 7  119   9 
 GRA  SZ IP       1320 59.62                             137     0.210  128  15 
 GRA  SZ ES   1   1321 19.14                             137    -0.3 7  128  15 
 GRA  SZ I        1321 22.45      1167.3 0.57                           128  15 
 OCA  SZ EP   1   1321  2.37                             129    -0.3 7  165 351 
 OCA  SZ ES   1   1321 25.29                             129     0.0 7  165 351 
 OCA  SZ I        1321 29.32      1793.6 0.22                           165 351 
 NOR  SZ EP   1   1321  9.62                             119    -0.3 6  237 236 
 NOR  SN ES   1   1321 37.47                             119    -0.6 6  237 236 
 CHI  HZ EP   1   1321 11.44                             118     0.1 6  247 197 
 CHI  HE ES   1   1321 40.97                             118     0.3 6  247 197 
 CHI  HZ I        1321 49.20       476.6 0.31                           247 197 
 HEL  HZ EP   1   1321 15.22                             115     0.7 6  276 257 
 HEL  HN ES   1   1321 45.76                             115    -0.7 6  276 257 
 HEL  HZ I        1321 53.62       643.1 0.53                           276 257 
 VIL  SZ EP   1   1321 16.79                             113     0.0 5  299 191 
 VIL  SN ES   1   1321 50.08                             113    -0.3 5  299 191 
 VIL  SZ I        1321 58.56       264.6 0.14                           299 191 
 RREF HZ EP   1   1321 20.94                             111     0.7 5  323 230 
 RREF HE ES   1   1321 57.10                             111     0.7 5  323 230 
 RREF HZ I        1322  6.19       519.5 0.27                           323 230 
 DBB  SZ EP   1   1321 21.40                             110    -0.6 5  345 275 
 TOL  SZ EP   1   1321 22.64                             110     0.4 5  345 226 
 SDV  BZ EP   1   1321 23.21                             109    -0.5 5  359  49 
 SDV  BZ I        1322  4.34        97.1 0.60                           359  49 
 PRA  HZ EP   1   1321 26.76                             107    -0.5 4  391 211 
 PRA  HE ES   1   1322  8.99                             107    -0.1 4  391 211 
 SJA  SZ EP   1   1321 27.34                             107    -0.8 4  398 194 
 SJA  SZ I        1322 13.37       429.0 0.16                           398 194 
 HORQ SZ EP   2   1321 44.74                             102     0.3 2  533 227 
 HORQ SZ I        1322 47.59        26.4 0.37                           533 227 
                                                                                
