 2014  1 4 1507  5.3 L   6.790 -73.168147.8  RSN  4 0.4 1.3LRSN                1
 GAP=199        0.76       6.0    10.9  8.8  0.2446E+02 -0.6658E+01  0.4893E+00E
 Epicentro: LOS SANTOS - SANTANDER                                             3
 ACTION:UPD 14-03-13 09:51 OP:ep   STATUS:               ID:20140104150705 L   I
 OLDACT:UP  14-01-04 19:15 OP:mh   STATUS:               ID:20140104150000     3
 OLDACT:REG 14-01-04 15:02 OP:mh   STATUS:               ID:20140104150000     3
 2014-01-04-1500-00M.COL___285                                                 6
 STAT SP IPHASW D HRMM SECON CODA AMPLIT PERI AZIMU VELO AIN AR TRES W  DIS CAZ7
 BRR  HZ EP       15 7 27.08                             154    0.5010 69.6 300 
 BRR  HN ES       15 7 43.19                             154    0.0210 69.6 300 
 BRR  HZ I        15 7 46.15         7.1 0.17            147           69.6 300 
 RUS  HZ EP   2   15 7 28.54                             144   -0.66 5 99.7 175 
 RUS  HN ES   2   15 7 47.62                             144   -0.21 5 99.7 175 
 RUS  HZ I        15 7 50.39         1.0 0.29            141           99.7 175 
 PTB  HZ EP       15 7 32.23                             133    0.03 9  145 259 
 PTB  HN ES   2   15 7 52.73                             133   -0.45 5  145 259 
 PTB  HZ I        15 8  0.36         3.4 0.34            128            145 259 
 SML  HN ES   1   15 8 10.06                             118   -0.63 6  244 336 
                                                                                
