 2010  1 4 1458 43.9 L   6.783 -73.100150.9  RSN 13 0.5 4.2LRSN                1
 GAP=129        1.02       4.3     8.2  7.7 -0.1316E+02  0.2194E+02 -0.3414E+01E
 Epicentro: LOS SANTOS - SANTANDER                                             3
 Evento Sentido                                                                2
 Reportado como sentido:                                                       3
 CUCUTA (NORTE DE SANTANDER)                                                   3
 ACTION:UP  10-08-24 09:42 OP:vdl  STATUS:               ID:20100104145843 L   I
 2010-01-04-1456-56S.COL___096                                                 6
 STAT SP IPHASW D HRMM SECON CODA AMPLIT PERI AZIMU VELO SNR AR TRES W  DIS CAZ7
 BAR2 SZ EP       1459  4.15                             171     0.010   23 204 
 BAR2 SZ ES   1   1459 19.39                             171    -0.5 7   23 204 
 GIR2 SZ IP       1459  5.22                             167     1.010   34 342 
 RUS  BZ IP       1459  8.03                             145     0.010   99 179 
 RUS  BE ES   1   1459 26.64                             145    -0.2 7   99 179 
 RUS  BZ I        1459 28.19      2153.7 0.56                            99 179 
 OCA  SZ IP       1459 12.49                             130    -0.3 9  163 351 
 OCA  SZ ES   1   1459 35.36                             130     0.0 7  163 351 
 CHI  HZ IP       1459 21.70                             118    -0.1 8  248 196 
 CHI  HE ES   1   1459 50.75                             118    -0.7 6  248 196 
 CHI  HZ I        15 0  0.30       852.2 0.74                           248 196 
 ROSC BZ EP   1   1459 23.48                             118     1.1 6  254 212 
 ROSC BZ I        15 0  0.78      1377.5 0.49                           254 212 
 HEL  HZ EP   1   1459 24.04                             115    -0.8 6  277 256 
 RREF BN ES   2   15 0  7.54                             112     0.6 3  324 230 
 RREF BZ I        15 0 15.72       956.7 0.31                           324 230 
 DBB  SZ IP       1459 31.80                             110    -0.3 7  345 274 
 TOL  SZ EP   1   1459 32.72                             110     0.1 5  346 225 
 SDV  BZ IP       1459 33.41                             109    -0.4 6  358  49 
 ANIL BZ EP   2   1459 34.11                             109     0.0 3  360 225 
 ANIL BN ES   1   15 0 13.37                             109     0.0 5  360 225 
 PRA  HZ EP   2   1459 36.97                             107    -0.7 3  393 210 
 PRA  HE ES   1   15 0 19.67                             107     0.0 4  393 210 
                                                                                
