 2014  2 4 1131  3.4 L   6.843 -73.169142.8  RSN  5 0.2 1.7LRSN                1
 GAP=147        0.49       2.4     2.9  3.6 -0.1967E+01  0.2379E+01  0.1434E+01E
 Epicentro: LOS SANTOS - SANTANDER                                             3
 ACTION:UPD 14-03-10 08:07 OP:ep   STATUS:               ID:20140204113103 L   I
 OLDACT:REG 14-02-04 15:06 OP:nd   STATUS:               ID:20140204113000     3
 2014-02-04-1130-00M.COL___288                                                 6
 STAT SP IPHASW D HRMM SECON CODA AMPLIT PERI AZIMU VELO AIN AR TRES W  DIS CAZ7
 BAR2 SZ EP       1131 22.51                             168   -0.2510 27.7 183 
 BAR2 SZ ES       1131 37.97                             168    0.1010 27.7 183 
 BAR2 SZ I        1131 41.80        17.3 0.50            167           27.7 183 
 PAM  SZ EP       1131 25.37                             151    0.1910 75.6  43 
 PAM  SN ES       1131 42.23                             151    0.0510 75.6  43 
 PAM  SZ I        1131 43.55         8.0 0.28            155           75.6  43 
 RUS  HZ EP       1131 27.00                             142   -0.2110  105 175 
 RUS  HN ES       1131 45.66                             142   -0.1410  105 175 
 RUS  HZ I        1131 47.75         3.8 0.32            142            105 175 
 PTB  HZ EP       1131 29.84                             132   -0.13 9  146 257 
 PTB  HN ES       1131 50.76                             132    0.05 9  146 257 
 PTB  HZ I        1131 53.44         9.9 0.26            133            146 257 
 CHI  HZ EP       1131 41.59                             116    0.24 8  253 194 
 CHI  HN ES       1132 11.23                             116    0.28 8  253 194 
 CHI  HZ I        1132 16.85         2.7 0.24            118            253 194 
                                                                                
