 2013  7 4 1830 41.1 L   6.749 -73.183144.8  RSN  6 0.5 1.4LRSN                1
 GAP=134        1.11       7.2     6.9 11.2  0.1322E+02  0.3530E+02  0.1090E+02E
 Epicentro: VILLANUEVA - SANTANDER                                             3
 ACTION:UPD 13-08-12 10:35 OP:ep   STATUS:               ID:20130704183041 L   I
 OLDACT:UP  13-07-04 21:24 OP:jn   STATUS:               ID:20130704182959     3
 OLDACT:REG 13-07-04 19:39 OP:jn   STATUS:               ID:20130704182959     3
 2013-07-04-1829-59M.COL___267                                                 6
 STAT SP IPHASW D HRMM SECON CODA AMPLIT PERI AZIMU VELO AIN AR TRES W  DIS CAZ7
 BAR2 SZ ES       1831 15.48                             173   -0.1810 17.3 180 
 BAR2 SZ I        1831 16.34         5.7 0.24            171           17.3 180 
 BRR  HN ES   1   1831 19.38                             153    0.86 7 70.6 304 
 PAM  SE ES   1   1831 20.71                             148   -0.54 7 84.4  39 
 RUS  HZ EP   1   1831  4.63                             145    0.23 7 95.3 173 
 RUS  HN ES       1831 22.86                             145    0.3010 95.3 173 
 RUS  HZ I        1831 23.70         4.1 0.28            145           95.3 173 
 PTB  HZ EP       1831  7.41                             133   -0.14 9  143 261 
 PTB  HN ES       1831 27.46                             133   -0.70 9  143 261 
 PTB  HZ I        1831 31.02         3.3 0.16            133            143 261 
 ZAR  HE ES   1   1831 39.21                             122    0.74 6  202 294 
                                                                                
