 2010  4 4 1227 49.1 L   6.817 -73.046150.1  RSN  6 0.4 1.9LRSN                1
 GAP=208        0.62       4.3    10.3  7.2 -0.1470E+02 -0.3401E-01  0.1019E+02E
 Epicentro: LOS SANTOS - SANTANDER                                             3
 ACTION:UPD 10-08-24 09:57 OP:vdl  STATUS:               ID:20100404122749 L   I
 2010-04-04-1226-12S.COL___098                                                 6
 STAT SP IPHASW D HRMM SECON CODA AMPLIT PERI AZIMU VELO AIN AR TRES W  DIS CAZ7
 BAR2 SZ EP   1   1228  9.51                             168     0.1 7   29 211 
 BAR2 SZ ES   2   1228 24.68                             168    -0.6 5   29 211 
 BRR  HZ EP   1   1228 11.54                             150     0.3 7   80 294 
 BRR  HE ES   2   1228 28.67                             150     0.1 5   80 294 
 BRR  HZ I        1228 30.89         9.7 0.11                            80 294 
 OCA  SZ EP   1   1228 17.59                             131    -0.2 7  160 349 
 OCA  SZ ES   2   1228 40.13                             131     0.0 5  160 349 
 OCA  SZ I        1228 44.86        12.9 0.17                           160 349 
 CHI  HZ EP   1   1228 27.66                             117     0.1 6  254 197 
 CHI  HZ I        1228 28.18         3.5 0.16                           254 197 
 CHI  HN ES   2   1228 58.42                             117     0.8 4  254 197 
 RREF BZ EP   1   1228 36.79                             111     0.2 5  331 230 
 RREF BE ES   2   1229 12.96                             111    -0.6 3  331 230 
 RREF BZ I        1229 23.60         3.0 0.36                           331 230 
 PRA  HZ EP   1   1228 42.87                             107    -0.8 4  399 211 
 PRA  HE ES   2   1229 26.09                             107    -0.1 3  399 211 
 PRA  HZ I        1229 31.41         3.2 0.41                           399 211 
                                                                                
