 2014  7 4 1747 31.4 L   6.791 -73.170137.3  RSN 12 0.5 1.9LRSN                1
 GAP=134        1.07       3.1     4.1  6.0 -0.1204E+01  0.9172E+01  0.2601E+01E
 Epicentro: LOS SANTOS - SANTANDER                                             3
 ACTION:UPD 15-03-16 20:41 OP:nd   STATUS:               ID:20140704174731 L   I
 OLDACT:UP  14-07-08 10:00 OP:spq  STATUS:               ID:20140704173815     3
 OLDACT:REG 14-07-08 09:05 OP:spq  STATUS:               ID:20140704173815     3
 2014-07-04-1738-15M.COL___259                                                 6
 STAT SP IPHASW D HRMM SECON CODA AMPLIT PERI AZIMU VELO AIN AR TRES W  DIS CAZ7
 BAR2 SZ EP       1747 50.25                             170    0.2510 22.1 184 
 BAR2 SZ ES   1   1748  4.87                             170    0.37 7 22.1 184 
 BAR2 SZ I        1748  7.99        10.9 0.26            169           22.1 184 
 BRR  HZ EP       1747 52.22                             152    0.6710 69.3 300 
 BRR  HE ES       1748  7.65                             152    0.4010 69.3 300 
 BRR  HZ I        1748 14.47        19.7 0.48            151           69.3 300 
 PAM  SZ EP       1747 52.90                             148    0.0110 79.8  41 
 PAM  SN ES       1748  9.49                             148   -0.1510 79.8  41 
 PAM  SZ I        1748 12.45         8.8 0.18            155           79.8  41 
 RUS  HZ EP       1747 54.13                             142   -0.1610 99.9 174 
 RUS  HN ES       1748 11.70                             142   -0.4310 99.9 174 
 RUS  HZ I        1748 14.31         3.5 0.31            145           99.9 174 
 PTB  HZ EP       1747 56.86                             131   -0.59 9  145 259 
 PTB  HN ES       1748 17.50                             131   -0.25 9  145 259 
 PTB  HZ I        1748 24.25         9.7 0.25            132            145 259 
 ZAR  HZ EP       1748  2.04                             121   -1.06 9  202 293 
 ZAR  HN ES       1748 27.44                             121   -0.38 9  202 293 
 ZAR  HZ I        1748 34.78         7.2 0.12            123            202 293 
 SML  HZ EP       1748  7.48                             116   -0.07 8  243 336 
 SML  HE ES       1748 36.03                             116    0.29 8  243 336 
 SML  HZ I        1748 40.00        11.4 0.10            119            243 336 
 CHI  HN ES   1   1748 36.73                             115   -0.67 6  247 195 
 CHI  HZ I        1748 44.30         2.6 0.31            118            247 195 
 GUY2CHZ EP       1748 14.73                             111    0.39 7  298 235 
 GUY2CHN ES       1748 48.31                             111    0.50 7  298 235 
 GUY2CHZ I        1748 56.98         4.4 0.36                           298 235 
 RREF HZ EP       1748 17.56                             109    0.66 7  319 229 
 RREF HN ES       1748 52.57                             109    0.19 7  319 229 
 RREF HZ I        1748 58.93         3.6 0.24            112            319 229 
 TOL  SN ES       1748 55.74                             108   -0.46 7  341 224 
 TOL  SZ I        1749  1.39         7.4 0.22            110            341 224 
 PRA  HZ EP       1748 24.81                             105    0.40 6  390 209 
 PRA  HN ES       1749  6.59                             105    0.85 6  390 209 
 PRA  HZ I        1749 14.69         3.6 0.60            108            390 209 
                                                                                
