 2010  6 4 1110 38.8 L   6.144 -74.007 94.0  RSN 12 0.4 2.6LRSN                1
 GAP=108        1.00       3.9     4.3 11.4 -0.1139E+02  0.2111E+02 -0.1680E+02E
 Epicentro: CIMITARRA - SANTANDER                                              3
 ACTION:UP  10-08-24 10:08 OP:vdl  STATUS:               ID:20100604111038 L   I
 2010-06-04-1105-31S.COL___109                                                 6
 STAT SP IPHASW D HRMM SECON CODA AMPLIT PERI AZIMU VELO SNR AR TRES W  DIS CAZ7
 BAR2 SZ IP       1110 57.98                             128     0.110  104  61 
 BAR2 SZ ES       1111 12.49                             128    -0.310  104  61 
 GIR2 SZ EP       1111  1.42                             120     0.210  137  41 
 ROSC BN ES   1   1111 21.27                             118    -0.1 7  148 194 
 ROSC BZ I        1111 24.30        41.8 0.08                           148 194 
 HEL  HN ES   1   1111 24.90                             115    -0.4 7  169 272 
 HEL  HZ I        1111 29.23        42.8 0.57                           169 272 
 CHI  HZ EP   1   1111  4.15                             114    -1.0 7  170 170 
 CHI  HN ES   1   1111 26.59                             114     0.9 7  170 170 
 CHI  HZ I        1111 28.45        12.6 0.17                           170 170 
 RREF BN ES       1111 33.31                             110     0.6 9  202 227 
 RREF BZ I        1111 36.69        66.3 0.19                           202 227 
 GUE  SZ EP       1111 10.95                             108     0.0 8  221  33 
 TOL  SZ EP   1   1111 10.93                             108    -0.5 6  226 220 
 GRA  SZ EP       1111 12.38                             107     0.2 8  234  35 
 GRA  SZ ES   1   1111 38.21                             107     0.0 6  234  35 
 ANIL BZ EP   1   1111 12.84                             107    -0.2 6  239 220 
 ANIL BN ES       1111 39.35                             107    -0.3 8  239 220 
 ANIL BZ I        1111 45.27        87.7 0.06                           239 220 
 OCA  SZ EP       1111 13.34                             106     0.0 8  244  18 
 OCA  SZ I        1111 46.79        47.0 1.03                           244  18 
 DBB  SZ EP       1111 15.76                             105     0.3 8  262 292 
                                                                                
