 2012 12 4 1913 41.2 L   5.925 -73.676124.1  RSN  4 0.4 1.8LRSN                1
 GAP=160        1.04       7.2     4.2 10.3 -0.5195E+01  0.1279E+02  0.1192E+02E
 Epicentro: PUENTE NACIONAL - SANTANDER                                        3
 ACTION:UPD 13-01-04 14:25 OP:ep   STATUS:               ID:20121204191341 L   I
 2012-12-04-1910-00M.COL___232                                                 6
 STAT SP IPHASW D HRMM SECON CODA AMPLIT PERI AZIMU VELO AIN AR TRES W  DIS CAZ7
 RUS  HZ EP       1914  0.02                             151   -0.3610 65.7  93 
 RUS  HN ES       1914 15.06                             151   -0.3110 65.7  93 
 RUS  HN I        1914 15.63         8.0 0.26                          65.7  93 
 BAR2 SZ EP       1914  2.00                             141    0.2010 91.8  37 
 BAR2 SZ ES       1914 18.53                             141    0.6310 91.8  37 
 BAR2 SZ I        1914 19.77        23.3 0.30                          91.8  37 
 PTB  HZ EP       1914  2.55                             136   -0.4010  110 308 
 PTB  HN ES       1914 19.53                             136   -0.4310  110 308 
 PTB  HN I        1914 24.18         9.1 0.56                           110 308 
 NOR  HZ EP       1914  5.91                             129    0.35 9  138 253 
 NOR  HN ES       1914 24.96                             129    0.36 9  138 253 
 NOR  HN I        1914 28.75        14.5 0.14                           138 253 
                                                                                
