 2016  7 4 1418  8.7 L   6.790 -73.135145.8  RSN  9 0.3 1.8LRSN                1
 GAP=138        0.72       2.6     2.9  4.6 -0.7553E+00  0.2986E+01  0.2835E+01E
 Epicentro: LOS SANTOS - SANTANDER                                             3
 ACTION:UPD 17-03-29 16:46 OP:lp   STATUS:               ID:20160704141808 L   I
 OLDACT:REG 16-07-04 20:31 OP:edw  STATUS:               ID:20160704141743     3
 2016-07-04-1417-43M.COL___322                                                 6
 STAT SP IPHASW D HRMM SECON CODA AMPLIT PERI AZIMU VELO AIN AR TRES W  DIS CAZ7
 BRR  HZ EP       1418 30.00                             152    0.0610 72.7 299 
 BRR  HN ES       1418 46.82                             152    0.3110 72.7 299 
 PAM  EZ EP       1418 31.04                             151    0.1210 77.5  38 
 PAM  EN ES       1418 48.10                             151   -0.1710 77.5  38 
 PAM  EZ I        1418 50.28        10.3 0.44            153           77.5  38 
 RUS  HZ EP       1418 32.26                             144   -0.1110 99.4 177 
 RUS  HN ES       1418 50.89                             144    0.0610 99.4 177 
 RUS  HZ I        1418 51.86         8.7 0.28            144           99.4 177 
 PTB  HZ EP       1418 34.98                             132   -0.77 9  149 259 
 PTB  HE ES       1418 56.72                             132   -0.13 9  149 259 
 PTB  HZ I        1418 58.01         7.4 0.16            133            149 259 
 SPBC HZ EP       1418 37.35                             129    0.17 9  163 220 
 SPBC HN ES       1418 59.35                             129   -0.05 9  163 220 
 SPBC HZ I        1419  1.56        12.3 0.26            130            163 220 
 ZAR  HZ EP       1418 41.85                             122    0.56 8  206 292 
 ZAR  HE ES       1419  6.43                             122   -0.29 8  206 292 
 NOR  HZ EP       1418 44.42                             118   -0.04 8  235 235 
 NOR  HN ES       1419 12.42                             118    0.07 8  235 235 
 NOR  HZ I        1419 16.76         4.6 0.34            119            235 235 
 CHI  HZ EP       1418 45.99                             117   -0.32 8  248 195 
 CHI  HN ES       1419 15.81                             117    0.16 8  248 195 
 CHI  HZ I        1419 19.08         4.3 0.38            118            248 195 
 GUY2CHZ EP       1418 52.86                             112    0.52 7  301 235 
 GUY2CHN ES       1419 26.42                             112    0.04 7  301 235 
 GUY2CHZ I        1419 34.38         3.2 0.32                           301 235 
 SJC  HZ EP   4   1419  2.29                             106   -2.15 0  411 327 
 SJC  HN ES   4   1419 44.13                             106   -3.79 0  411 327 
                                                                                
