 2011  1 4 1425 53.0 L   6.781 -73.105147.8  RSN 10 0.4 2.3LRSN                1
 GAP=163        0.80       4.4     7.7  7.6 -0.1430E+02  0.2041E+02  0.1589E+01E
 Epicentro: LOS SANTOS - SANTANDER                                             3
 ACTION:UP  11-02-08 08:38 OP:pat  STATUS:               ID:20110104142553 L   I
 2011-01-04-1420-00M.COL___137                                                 6
 STAT SP IPHASW D HRMM SECON CODA AMPLIT PERI AZIMU VELO SNR AR TRES W  DIS CAZ7
 BAR2 SZ EP   1   1426 12.51                             171    -0.3 7   23 203 
 BAR2 SZ ES   2   1426 28.48                             171     0.1 5   23 203 
 BAR2 SZ I        1426 30.56        27.7 0.28                            23 203 
 BTL  SZ EP   1   1426 13.88                             170     1.0 7   24 310 
 BTL  SZ ES   2   1426 28.57                             170     0.2 5   24 310 
 RUS  HZ EP   1   1426 16.33                             145    -0.4 7   98 179 
 RUS  HN ES   2   1426 35.20                             145    -0.1 5   98 179 
 RUS  HZ I        1426 37.35        12.7 0.27                            98 179 
 GRA  SZ EP   1   1426 18.38                             137    -0.1 7  127  15 
 GRA  SZ ES   2   1426 38.16                             137    -0.2 5  127  15 
 GRA  SZ I        1426 40.90        35.6 0.30                           127  15 
 OCA  SZ EP   1   1426 21.45                             130    -0.2 7  163 352 
 OCA  SZ ES   2   1426 43.83                             130    -0.3 5  163 352 
 OCA  SZ I        1426 48.04        45.2 0.32                           163 352 
 NOR  SZ EP   1   1426 28.54                             119    -0.6 6  237 236 
 NOR  SN ES   2   1426 56.74                             119    -0.5 4  237 236 
 CHI  HZ EP   1   1426 30.73                             118     0.0 6  248 196 
 CHI  HN ES   2   1427  0.22                             118     0.1 4  248 196 
 CHI  HZ I        1427  8.23         8.2 0.48                           248 196 
 HEL  HZ EP   1   1426 34.16                             115     0.4 6  276 256 
 HEL  HN ES   2   1427  5.11                             115    -0.4 4  276 256 
 HEL  HZ I        1427 12.25        15.8 0.30                           276 256 
 RREF HZ EP   1   1426 40.22                             111     0.8 5  324 230 
 RREF HE ES   2   1427 16.06                             111     0.4 3  324 230 
 RREF HZ I        1427 24.76        15.3 0.28                           324 230 
 PRA  HZ EP   1   1426 46.64                             107     0.0 4  392 210 
 PRA  HN ES   2   1427 28.39                             107    -0.1 3  392 210 
                                                                                
