 2012 12 4 1944 48.3 L   6.864 -73.182135.8  RSN  5 0.3 1.5LRSN                1
 GAP=244        0.76       6.0     4.5 11.6  0.1239E+02  0.1513E+01 -0.2134E+02E
 Epicentro: ZAPATOCA - SANTANDER                                               3
 ACTION:UPD 13-01-04 14:25 OP:ep   STATUS:               ID:20121204194448 L   I
 2012-12-04-1940-00M.COL___232                                                 6
 STAT SP IPHASW D HRMM SECON CODA AMPLIT PERI AZIMU VELO AIN AR TRES W  DIS CAZ7
 BAR2 SZ EP       1945  7.29                             167    0.3810 30.1 180 
 BAR2 SZ I        1945 24.91         9.0 0.26                          30.1 180 
 RUS  HZ EP       1945 11.45                             140   -0.2210  108 174 
 RUS  HN ES       1945 29.66                             140   -0.2310  108 174 
 RUS  HN I        1945 30.70         4.5 0.24                           108 174 
 PTB  HZ EP       1945 14.42                             130    0.16 9  145 256 
 PTB  HN ES       1945 34.86                             130    0.35 9  145 256 
 PTB  HN I        1945 38.76         4.5 0.20                           145 256 
 ZAR  HN ES       1945 43.28                             121   -0.48 9  198 291 
 NOR  HN ES       1945 51.05                             116   -0.06 8  236 232 
                                                                                
