 2013  9 4 1816 19.6 L   6.737 -73.161138.6  RSN  6 0.3 1.5LRSN                1
 GAP=137        0.54       4.3     3.9  5.5  0.1977E+01  0.4565E+01  0.1511E+01E
 Epicentro: VILLANUEVA - SANTANDER                                             3
 ACTION:UPD 13-10-22 09:20 OP:ep   STATUS:               ID:20130904181619 L   I
 OLDACT:UP  13-09-04 20:55 OP:mh   STATUS:               ID:20130904180959     3
 OLDACT:UP  13-09-04 20:55 OP:mh   STATUS:               ID:20130904180959     3
 OLDACT:UP  13-09-04 20:54 OP:mh   STATUS:               ID:20130904180959     3
 OLDACT:REG 13-09-04 14:54 OP:mh   STATUS:               ID:20130904180959     3
 2013-09-04-1809-59M.COL___269                                                 6
 STAT SP IPHASW D HRMM SECON CODA AMPLIT PERI AZIMU VELO AIN AR TRES W  DIS CAZ7
 BAR2 SZ EP       1816 37.94                             173   -0.2710 16.2 188 
 BAR2 SZ ES   1   1816 52.90                             173    0.15 7 16.2 188 
 BAR2 SZ I        1816 55.42         7.2 0.18            171           16.2 188 
 BRR  HZ EP   1   1816 40.47                             151    0.40 7 73.3 304 
 BRR  HN ES   2   1816 56.42                             151    0.35 5 73.3 304 
 BRR  HZ I        1816 59.33         7.9 0.56            149           73.3 304 
 PAM  SZ EP   1   1816 41.47                             147    0.03 7 83.9  37 
 PAM  SN ES   2   1816 58.13                             147   -0.38 5 83.9  37 
 PAM  SZ I        1817  0.21         8.9 0.50            154           83.9  37 
 RUS  HZ EP       1816 42.39                             144    0.2710 93.8 175 
 RUS  HN ES   2   1816 59.44                             144   -0.28 5 93.8 175 
 RUS  HZ I        1817  1.83         2.5 0.36            149           93.8 175 
 PTB  HZ EP       1816 45.48                             131   -0.21 9  145 261 
 PTB  HN ES   2   1817  5.96                             131   -0.11 5  145 261 
 PTB  HZ I        1817 11.81         3.4 0.40            132            145 261 
 ZAR  HN ES   2   1817 16.52                             121   -0.20 4  205 294 
 ZAR  HN I        1817 21.60         5.5 0.30            123            205 294 
                                                                                
