 2011  5 4 1006 13.9 L   6.584 -73.320129.1  RSN  6 0.2 1.6LRSN                1
 GAP=162        0.61       3.3     5.5  5.4 -0.8931E+00  0.9646E+00 -0.4428E+01E
 Epicentro: HATO - SANTANDER                                                   3
 ACTION:UP  11-06-29 08:50 OP:tino STATUS:               ID:20110504100613 L   I
 2011-05-04-1003-37S.COL___133                                                 6
 STAT SP IPHASW D HRMM SECON CODA AMPLIT PERI AZIMU VELO SNR AR TRES W  DIS CAZ7
 BAR2 SZ EP       10 6 31.28                             173    -0.110   15  86 
 BAR2 SZ ES   1   10 6 44.96                             173     0.0 7   15  86 
 BAR2 SZ I        10 6 45.98         9.0 0.24                            15  86 
 BRR  HZ EP       10 6 33.36                             149     0.010   72 323 
 BRR  HZ I        10 6 33.59        46.7 0.13                            72 323 
 BRR  HN ES   1   10 6 48.66                             149     0.2 7   72 323 
 RUS  HZ EP   1   10 6 34.94                             146     0.3 7   81 161 
 RUS  HN ES   1   10 6 50.50                             146    -0.2 7   81 161 
 PAM  SZ EP   1   10 6 37.02                             138     0.4 7  108  39 
 PAM  SN ES   1   10 6 54.33                             138    -0.1 7  108  39 
 PAM  SZ I        10 6 55.37         1.7 0.38                           108  39 
 GRA  SZ EP   1   10 6 40.42                             127     0.0 7  155  22 
 GRA  SZ ES   1   10 7  1.19                             127     0.1 7  155  22 
 GRA  SZ I        10 7  2.39         5.8 0.34                           155  22 
 OCA  SZ EP   1   10 6 42.71                             122    -0.6 7  183   0 
 OCA  SZ I        10 7  8.12         5.3 0.31                           183   0 
                                                                                
