 2011  7 4 1848 40.7 L   6.779 -73.105150.0  RSN 14 0.3 2.8LRSN                1
 GAP=143        0.64       2.3     3.4  3.5 -0.3255E+01  0.2559E+01  0.9446E+00E
 Epicentro: LOS SANTOS - SANTANDER                                             3
 ACTION:UPD 12-07-25 13:58 OP:epov STATUS:               ID:20110704184840 L   I
 2011-07-04-1846-58S.COL___139                                                 6
 STAT SP IPHASW D HRMM SECON CODA AMPLIT PERI AZIMU VELO AIN AR TRES W  DIS CAZ7
 BAR2 SZ IP       1849  0.81                             171    0.0310 22.4 202 
 BAR2 SZ I        1849  1.11        88.1 0.23                          22.4 202 
 BAR2 SZ ES       1849 16.69                             171    0.2210 22.4 202 
 GIR2 SZ EP   1   1849  0.90                             166   -0.02 7 34.5 344 
 BRR  HZ IP     C 1849  2.77                             152    0.2210 76.2 298 
 BRR  HZ I        1849  4.32       204.5 0.13                          76.2 298 
 BRR  HE ES       1849 19.87                             152    0.2410 76.2 298 
 PAM  SZ EP       1849  3.56                             152    0.2910 76.4  36 
 PAM  SE ES   1   1849 20.87                             152   -0.04 7 76.4  36 
 RUS  HZ EP       1849  4.62                             145   -0.0310 98.1 179 
 RUS  HE ES   1   1849 23.03                             145   -0.34 7 98.1 179 
 BRI  SZ EP       1849  5.29                             142    0.2910  109  18 
 BRI  SZ ES   1   1849 23.30                             142   -0.69 7  109  18 
 GRA  SZ IP       1849  6.58                             138    0.2210  127  15 
 GRA  SZ ES   1   1849 26.08                             138   -0.32 7  127  15 
 GRA  SZ I        1849 28.60        91.3 0.28                           127  15 
 OCA  SZ EP       1849  9.25                             130   -0.32 9  163 352 
 OCA  SZ ES   2   1849 31.86                             130   -0.25 5  163 352 
 OCA  SZ I        1849 36.18       126.3 0.26                           163 352 
 NOR  SZ EP       1849 16.51                             119   -0.38 8  237 236 
 NOR  SN ES   1   1849 45.00                             119   -0.15 6  237 236 
 CHI  HZ EP       1849 18.53                             118    0.04 8  248 196 
 CHI  HN ES   1   1849 47.55                             118   -0.45 6  248 196 
 CHI  HZ I        1849 53.23        26.8 0.63                           248 196 
 HEL  HZ EP   1   1849 21.84                             115    0.33 6  276 256 
 HEL  HE ES   1   1849 53.35                             115   -0.03 6  276 256 
 DBB  SZ EP       1849 28.33                             110   -0.52 7  344 275 
 TOL  SZ EP   1   1849 29.98                             110    0.71 5  345 225 
 PRA  HZ EP   1   1849 34.16                             107   -0.20 4  392 210 
 PRA  HE ES   1   1850 16.63                             107    0.38 4  392 210 
                                                                                
