 2012  6 4 1809 10.2 L   6.874 -73.124143.8  RSN  5 0.4 1.5LRSN                1
 GAP=135        0.79       6.1     5.0  8.7  0.3596E+01  0.1851E+02  0.3062E+01E
 Epicentro: LOS SANTOS - SANTANDER                                             3
 ACTION:UPD 12-08-06 17:47 OP:ep   STATUS:               ID:20120604180908 L   I
 2012-06-04-1806-50M.COL___182                                                 6
 STAT SP IPHASW D HRMM SECON CODA AMPLIT PERI AZIMU VELO AIN AR TRES W  DIS CAZ7
 BAR2 SZ EP   1   18 9 30.44                             167    0.67 7 31.8 192 
 BAR2 SZ ES       18 9 45.35                             167    0.3010 31.8 192 
 BAR2 SZ I        18 9 47.15         9.9 0.23            166           31.8 192 
 PAM  SN ES   1   18 9 48.06                             153   -0.48 7 69.6  42 
 RUS  HZ EP   1   18 9 34.31                             141   -0.02 7  109 178 
 RUS  HN ES   1   18 9 52.97                             141   -0.20 7  109 178 
 RUS  HZ I        18 9 54.19         4.0 0.29            142            109 178 
 PTB  HZ EP   1   18 9 36.97                             131   -0.39 7  152 256 
 PTB  HN ES       18 9 58.29                             131   -0.27 9  152 256 
 PTB  HZ I        1810  0.51         3.6 0.17            132            152 256 
 ZAR  HN ES   1   1810  7.91                             122    0.35 6  203 290 
                                                                                
