 2014  1 4 1702 26.3 L   6.841 -73.427122.6  RSN  4 0.4 1.8LRSN                1
 GAP=154        0.67       5.4     4.1  7.9  0.3337E+01  0.1503E+01 -0.1938E+02E
 Epicentro: SAN VICENTE DE CHUCURI - SANTANDER                                 3
 ACTION:UPD 14-03-13 09:51 OP:ep   STATUS:               ID:20140104170226 L   I
 OLDACT:REG 14-01-04 15:13 OP:mh   STATUS:               ID:20140104170000     3
 2014-01-04-1700-00M.COL___285                                                 6
 STAT SP IPHASW D HRMM SECON CODA AMPLIT PERI AZIMU VELO AIN AR TRES W  DIS CAZ7
 BAR2 SZ EP       17 2 43.83                             161    0.2210 38.6 135 
 BAR2 SZ ES   1   17 2 57.41                             161    0.28 7 38.6 135 
 BAR2 SZ I        17 2 58.39        67.7 0.19            171           38.6 135 
 RUS  HZ EP   1   17 2 48.80                             135    0.05 7  112 160 
 RUS  HN ES   2   17 3  5.34                             135   -0.93 5  112 160 
 RUS  HZ I        17 3  7.55         4.8 0.26            145            112 160 
 PTB  HZ EP       17 2 48.91                             133    0.2010  119 254 
 PTB  HN ES       17 3  6.02                             133   -0.1810  119 254 
 PTB  HZ I        17 3 11.16         3.7 0.14            136            119 254 
 SML  HZ EP   1   17 2 59.51                             114   -0.45 6  228 342 
 SML  HN ES   2   17 3 26.04                             114   -0.19 4  228 342 
 SML  HZ I        17 3 35.21        10.1 0.07            116            228 342 
                                                                                
