 2011  6 4 1626 23.3 L   6.777 -73.084149.2  RSN  7 0.3 1.9LRSN                1
 GAP=146        0.67       3.6     5.2  5.4 -0.7169E+01  0.4372E+01  0.2592E+01E
 Epicentro: LOS SANTOS - SANTANDER                                             3
 ACTION:UP  11-07-14 19:03 OP:ep   STATUS:               ID:20110604162623 L   I
 2011-06-04-1624-42S.COL___132                                                 6
 STAT SP IPHASW D HRMM SECON CODA AMPLIT PERI AZIMU VELO SNR AR TRES W  DIS CAZ7
 BAR2 SZ EP   1   1626 43.15                             171    -0.1 7   23 208 
 BAR2 SZ ES   1   1626 58.56                             171    -0.4 7   23 208 
 BAR2 SZ I        1627  0.14        16.5 0.31                            23 208 
 PAM  SZ EP   1   1626 45.63                             152    -0.1 7   75  34 
 PAM  SN ES   1   1627  3.29                             152     0.1 7   75  34 
 PAM  SZ I        1627  5.53         5.8 0.19                            75  34 
 BRR  HZ EP       1626 45.22                             151     0.010   78 298 
 BRR  HZ I        1626 46.87        23.7 0.13                            78 298 
 BRR  HN ES   1   1627  2.75                             151     0.5 7   78 298 
 RUS  HZ EP       1626 47.30                             145     0.110   98 180 
 RUS  HN ES   1   1627  5.93                             145     0.1 7   98 180 
 RUS  HZ I        1627  7.30         9.2 0.26                            98 180 
 GRA  SZ EP   1   1626 48.67                             138    -0.2 7  126  14 
 GRA  SZ ES   1   1627  8.78                             138     0.0 7  126  14 
 GRA  SZ I        1627  9.95        10.7 0.30                           126  14 
 NOR  SZ EP   1   1626 59.31                             119    -0.3 6  239 236 
 NOR  SE ES   1   1627 27.59                                    -0.4 6  239 236 
 NOR  SZ I        1627 34.56         1.7 0.33                           239 236 
 PRA  HZ EP   1   1627 17.85                             107     0.8 4  393 211 
 PRA  HZ I        1628  4.33        16.3 0.18                           393 211 
                                                                                
