 2012 12 4 1453 44.5 L   6.775 -73.065146.0  RSN  4 0.5 1.5LRSN                1
 GAP=281        1.27      14.9     8.3 19.9  0.1447E+02  0.2094E+02 -0.1479E+03E
 Epicentro: LOS SANTOS - SANTANDER                                             3
 ACTION:UPD 13-01-04 14:25 OP:ep   STATUS:               ID:20121204145344 L   I
 2012-12-04-1450-00M.COL___232                                                 6
 STAT SP IPHASW D HRMM SECON CODA AMPLIT PERI AZIMU VELO AIN AR TRES W  DIS CAZ7
 BAR2 SZ EP       1454  4.45                             170    0.2610 24.0 213 
 BAR2 SZ I        1454 22.67         5.8 0.18                          24.0 213 
 RUS  HZ EP       1454  7.25                             145   -0.8310 97.6 181 
 RUS  HN ES       1454 26.80                             145    0.3510 97.6 181 
 PTB  HZ EP       1454 12.90                             131    0.63 9  156 260 
 PTB  HN ES       1454 33.38                             131   -0.53 9  156 260 
 PTB  HN I        1454 39.00         3.9 0.52                           156 260 
 NOR  HE ES       1454 49.46                             118    0.21 8  240 236 
                                                                                
