 2010  6 4 1223 17.5 L   6.351 -73.545113.9  RSN  5 0.2 1.8LRSN                1
 GAP=175        0.46       9.2    12.2  7.6 -0.9894E+02  0.7922E+02 -0.5842E+02E
 Epicentro: CONTRATACION - SANTANDER                                           3
 ACTION:UP  10-08-24 10:08 OP:vdl  STATUS:               ID:20100604122317 L   I
 2010-06-04-1221-41S.COL___109                                                 6
 STAT SP IPHASW D HRMM SECON CODA AMPLIT PERI AZIMU VELO SNR AR TRES W  DIS CAZ7
 BAR2 SZ ES       1223 47.36                             156     0.010   48  56 
 GUE  SZ EP       1223 45.56                             118     0.0 9  177  23 
 GUE  SZ ES   1   1224  7.20                             118    -0.2 7  177  23 
 GRA  SZ EP       1223 46.40                             117    -0.1 9  188  26 
 OCA  SZ EP       1223 49.19                             114     0.2 8  210   7 
 OCA  SZ I        1224 19.93         8.7 0.28                           210   7 
 RREF BN ES   2   1224 23.60                             109    -0.2 4  256 231 
 RREF BZ I        1224 28.89         2.8 0.95                           256 231 
                                                                                
