 2017  4 4 1551 34.4 L   6.778 -73.145142.9  RSN  7 0.5 1.9LRSN                1
 GAP=138        1.17       4.8     5.0  7.4 -0.7700E+00  0.9635E+01  0.3607E+00E
 Epicentro: LOS SANTOS - SANTANDER                                             3
 ACTION:UPD 17-05-30 21:08 OP:jn   STATUS:               ID:20170404155134 L   I
 OLDACT:REG 17-04-04 21:08 OP:ar   STATUS:               ID:20170404154745     3
 2017-04-04-1548-00M.COL___371                                                 6
 STAT SP IPHASW D HRMM SECON CODA AMPLIT PERI AZIMU VELO AIN AR TRES W  DIS CAZ7
 BAR2 EZ EP       1551 53.49                             171   -0.1410 20.9 192 
 BAR2 EZ ES       1552  8.14                             171   -0.5010 20.9 192 
 BAR2 EZ I        1552  9.28        20.4 0.38            170           20.9 192 
 BRR  HZ EP       1551 55.32                             152    0.0110 72.5 300 
 BRR  HN ES       1552 12.25                             152    0.6310 72.5 300 
 PAM  EZ EP       1551 56.49                             150    0.0710 79.2  38 
 PAM  EN ES       1552 13.61                             150    0.0210 79.2  38 
 PAM  EZ I        1552 15.90         9.1 0.24            153           79.2  38 
 RUS  HZ EP       1551 57.32                             144   -0.3710 98.1 176 
 RUS  HN ES       1552 16.19                             144    0.3410 98.1 176 
 RUS  HZ I        1552 17.52         6.4 0.46            146           98.1 176 
 PTB  HZ EP       1552  0.49                             131   -0.61 9  147 260 
 PTB  HN ES       1552 21.37                             131   -0.56 9  147 260 
 PTB  HZ I        1552 27.71         7.7 0.34            131            147 260 
 SPBC HZ EP       1552  2.52                             129    0.02 9  161 220 
 SPBC HN ES       1552 25.05                             129    0.63 9  161 220 
 SPBC HZ I        1552 29.08        18.2 0.30            129            161 220 
 ZAR  HZ EP       1552  7.71                             122    0.95 9  205 293 
 ZAR  HN ES       1552 31.62                             122   -0.39 9  205 293 
 ZAR  HZ I        1552 36.37         8.4 0.38            122            205 293 
                                                                                
