 2011  7 4 1003 50.5 L   6.791 -73.136142.9  RSN 18 0.3 2.8LRSN                1
 GAP=115        0.70       2.0     3.3  3.8 -0.2179E+01  0.3373E+01  0.1535E+01E
 Epicentro: LOS SANTOS - SANTANDER                                             3
 ACTION:UPD 12-07-25 13:58 OP:epov STATUS:               ID:20110704100350 L   I
 2011-07-04-1002-16S.COL___140                                                 6
 STAT SP IPHASW D HRMM SECON CODA AMPLIT PERI AZIMU VELO AIN AR TRES W  DIS CAZ7
 BTL  SZ IP       10 4 10.30                             171    0.5310 20.2 314 
 BAR2 SZ IP       10 4  9.92                             170    0.1110 22.6 193 
 BAR2 SZ ES       10 4 24.63                             170   -0.2110 22.6 193 
 BAR2 SZ I        10 4 26.63       153.8 0.55                          22.6 193 
 GIR2 SZ IP       10 4  9.80                             167   -0.1010 32.4 349 
 BRR  HZ IP     C 10 4 11.72                             151    0.2610 72.6 299 
 BRR  HE ES   1   10 4 28.56                             151    0.78 7 72.6 299 
 BRR  HZ I        10 4 29.71       161.6 0.09                          72.6 299 
 PAM  SZ EP       10 4 12.74                             150    0.2910 77.4  38 
 PAM  SE ES   1   10 4 28.94                             150   -0.61 7 77.4  38 
 RUS  HZ EP       10 4 13.89                             143   -0.0410 99.6 177 
 RUS  HZ I        10 4 14.85        68.6 0.15                          99.6 177 
 RUS  HN ES   1   10 4 32.10                             143   -0.08 7 99.6 177 
 BRI  SZ EP       10 4 14.35                             141    0.1510  109  20 
 BRI  SZ ES   1   10 4 32.73                             141    0.08 7  109  20 
 GRA  SZ IP       10 4 15.74                             136    0.1610  126  17 
 GRA  SZ ES       10 4 34.59                             136   -0.5210  126  17 
 GRA  SZ I        10 4 38.04        79.9 0.46                           126  17 
 OCA  SZ EP       10 4 18.54                             129   -0.19 9  161 353 
 OCA  SZ ES   1   10 4 40.09                             129   -0.63 7  161 353 
 OCA  SZ I        10 4 43.44       102.4 0.18                           161 353 
 YOP  SZ EP       10 4 20.64                             126    0.40 9  178 153 
 YOP  SZ I        10 4 20.98        31.9 0.14                           178 153 
 YOP  SN ES   2   10 4 43.44                             126    0.03 4  178 153 
 NOR  SZ EP       10 4 25.97                             118   -0.17 8  235 235 
 NOR  SE ES   1   10 4 53.84                             118   -0.07 6  235 235 
 CHI  HZ EP       10 4 28.09                             116    0.08 8  248 195 
 CHI  HN ES   1   10 4 56.81                             116   -0.43 6  248 195 
 CHI  HZ I        10 5  4.76        37.1 0.47                           248 195 
 HEL  HZ EP   1   10 4 30.38                             114   -0.32 6  273 256 
 HEL  HE ES   2   10 5  2.00                             114   -0.02 4  273 256 
 VIL  SZ EP   2   10 4 33.41                             111   -0.34 4  303 192 
 VIL  SN ES   2   10 5  6.75                             111   -0.70 4  303 192 
 VIL  SZ I        10 5 17.27        28.0 0.30                           303 192 
 RREF HZ EP   1   10 4 36.57                             110   -0.01 5  322 230 
 RREF HN ES   1   10 5 12.70                             110    0.21 5  322 230 
 RREF HZ I        10 5 24.03        39.2 0.29                           322 230 
 DBB  SZ EP       10 4 38.05                             109    0.02 7  341 274 
 TOL  SZ EP   2   10 4 38.44                             109   -0.25 3  344 225 
 PRA  HZ EP       10 4 43.46                             106   -0.47 6  392 210 
 PRA  HN ES   1   10 5 25.47                             106   -0.10 4  392 210 
                                                                                
