 2014  3 4 1055 14.8 L   6.780 -73.203144.7  RSN  5 0.3 1.2LRSN                1
 GAP=195        0.84       4.6     5.4  7.6  0.1022E+02  0.2647E+01 -0.1505E+02E
 Epicentro: ZAPATOCA - SANTANDER                                               3
 ACTION:UPD 14-04-09 23:14 OP:nd   STATUS:               ID:20140304105514 L   I
 OLDACT:DUP 14-03-04 16:24 OP:stll STATUS:               ID:20140304104817d    3
 2014-03-04-1048-16M.COL___229                                                 6
 STAT SP IPHASW D HRMM SECON CODA AMPLIT PERI AZIMU VELO AIN AR TRES W  DIS CAZ7
 BAR2 SZ ES       1055 49.21                             171   -0.2510 20.9 174 
 BAR2 SZ I        1055 50.97         6.6 0.58            176           20.9 174 
 RUS  HZ EP       1055 38.62                             144    0.2510 99.0 172 
 RUS  HN ES       1055 56.94                             144    0.2210 99.0 172 
 RUS  HZ I        1055 59.08         0.8 0.32            149           99.0 172 
 PTB  HZ EP       1055 41.09                             133   -0.03 9  141 259 
 PTB  HN ES       1056  1.23                             133   -0.38 9  141 259 
 PTB  HZ I        1056  5.52         1.6 0.22            135            141 259 
 ZAR  HN ES       1056 11.98                             123    0.44 9  199 293 
 SML  HZ EP       1055 50.71                             117   -0.64 8  243 337 
 SML  HN ES       1056 20.18                             117    0.36 8  243 337 
 SML  HZ I        1056 29.04         1.7 0.10            118            243 337 
                                                                                
