 2015  5 4 1444 45.6 L   6.739 -73.116138.8  RSN  6 0.5 1.7LRSN                1
 GAP=143        1.15       5.0     5.5  7.7 -0.4073E+00  0.1550E+02  0.2105E+01E
 Epicentro: JORDAN - SANTANDER                                                 3
 ACTION:UPD 15-09-10 22:01 OP:cam  STATUS:               ID:20150504144445 L   I
 OLDACT:DUP 15-05-05 00:10 OP:stll STATUS:               ID:20150504143749d    3
 OLDACT:REG 15-05-04 22:21 OP:stll STATUS:               ID:20150504143747     3
 2015-05-04-1437-47M.COL___274                                                 6
 STAT SP IPHASW D HRMM SECON CODA AMPLIT PERI AZIMU VELO AIN AR TRES W  DIS CAZ7
 BAR2 EZ EP       1445  4.45                             172    0.1610 17.8 204 
 BAR2 EZ ES       1445 19.06                             172    0.1910 17.8 204 
 BAR2 EZ I        1445 20.96         9.1 0.20            169           17.8 204 
 BRR  HZ EP       1445  6.47                             149    0.0910 77.4 302 
 BRR  HZ I        1445  6.78        16.4 0.26            149           77.4 302 
 BRR  HE ES       1445 23.26                             149    0.6810 77.4 302 
 PAM  SZ EP       1445  7.54                             149    0.2510 80.8  35 
 PAM  SN ES       1445 23.32                             149   -0.8910 80.8  35 
 PAM  SZ I        1445 25.12         7.6 0.32            153           80.8  35 
 RUS  HZ EP       1445  8.01                             144   -0.1610 93.7 178 
 RUS  HN ES       1445 25.93                             144    0.1510 93.7 178 
 RUS  HZ I        1445 29.25         5.4 0.42            145           93.7 178 
 ZAR  HZ EP       1445 18.62                             120    0.43 8  210 294 
 ZAR  HN ES       1445 43.15                             120   -0.47 8  210 294 
 ZAR  HZ I        1445 49.05         7.0 0.38            121            210 294 
 NOR  HZ EP       1445 20.97                             117    0.16 8  234 236 
 NOR  HN ES       1445 47.46                             117   -0.82 8  234 236 
 NOR  HZ I        1445 53.54         4.8 0.22            118            234 236 
                                                                                
