 2011  4 4 1609  5.7 L   6.776 -73.006147.3  RSN  7 0.3 2.1LRSN                1
 GAP=188        0.76       5.3     9.6  6.9 -0.2444E+02 -0.2098E+02  0.8618E+01E
 Epicentro: CEPITA - SANTANDER                                                 3
 ACTION:UP  11-06-22 15:28 OP:REBC STATUS:               ID:20110404160905 L   I
 2011-04-04-1600-00M.COL___139                                                 6
 STAT SP IPHASW D HRMM SECON CODA AMPLIT PERI AZIMU VELO SNR AR TRES W  DIS CAZ7
 BAR2 SZ IP       16 9 25.85                             169     0.210   28 224 
 BAR2 SZ ES   1   16 9 40.68                             169    -0.5 7   28 224 
 BAR2 SZ I        16 9 42.07        27.0 0.36                            28 224 
 BTL  SZ EP       16 9 26.15                             167     0.410   33 299 
 BTL  SZ ES   1   16 9 41.57                             167     0.2 7   33 299 
 GIR2 SZ EP       16 9 26.06                             164     0.310   39 328 
 BRR  HZ IP       16 9 27.73                             148    -0.210   86 295 
 BRR  HZ I        16 9 28.00        39.4 0.14                            86 295 
 BRR  HN ES   1   16 9 45.19                             148    -0.1 7   86 295 
 GRA  SZ EP       16 9 30.60                             138    -0.410  125  10 
 GRA  SZ ES   1   16 9 50.65                             138    -0.1 7  125  10 
 GRA  SZ I        16 9 51.90        17.2 0.25                           125  10 
 CHI  HZ EP   2   16 9 43.97                             117     0.3 4  251 199 
 CHI  HN ES   2   1610 12.90                             117    -0.4 4  251 199 
 CHI  HZ I        1610 22.63         5.0 0.63                           251 199 
 PRA  HN ES   2   1610 41.68                             106    -0.6 3  398 212 
                                                                                
