 2015 11 4 1213  2.2 L   6.667 -73.645103.5  RSN  5 0.3 1.6LRSN                1
 GAP=160        0.81       6.0     6.5  8.4  0.2999E+02  0.2778E+02  0.1179E+02E
 Epicentro: EL CARMEN - SANTANDER                                              3
 ACTION:UPD 15-12-28 16:08 OP:cam  STATUS:               ID:20151104121302 L   I
 OLDACT:REG 15-11-04 21:10 OP:ar   STATUS:               ID:20151104120747     3
 2015-11-04-1207-47M.COL___307                                                 6
 STAT SP IPHASW D HRMM SECON CODA AMPLIT PERI AZIMU VELO AIN AR TRES W  DIS CAZ7
 BRR  HZ EP       1213 16.87                             152   -0.6410 49.3 351 
 BRR  HN ES   2   1213 29.52                             152    0.04 5 49.3 351 
 BRR  HZ I        1213 38.32        12.3 0.30            148           49.3 351 
 BAR2 EZ EP     D 1213 18.28                             151    0.2710 51.8  99 
 BAR2 EZ IPg    D 1213 18.28                             151    0.2710 51.8  99 
 BAR2 EZ ES       1213 30.61                             151    0.2510 51.8  99 
 BAR2 EZ I        1213 31.10        11.6 0.34            153           51.8  99 
 RUS  HZ EP       1213 22.59                             131    0.0610  106 144 
 RUS  HE ES       1213 38.00                             131   -0.4210  106 144 
 RUS  HZ I        1213 39.37         3.0 0.28            141            106 144 
 ZAR  HZ EP       1213 28.00                             117    0.39 9  162 304 
 ZAR  HN ES       1213 47.39                             117   -0.06 9  162 304 
 ZAR  HZ I        1213 50.61        11.0 0.50            121            162 304 
 SML  HZ EP   2   1213 36.23                             107   -0.24 4  241 349 
 SML  HE ES   2   1214  2.90                             107   -0.33 4  241 349 
 SML  HZ I        1214 11.40         5.2 0.10            110            241 349 
                                                                                
