 2015  4 4 1037 15.6 L   6.766 -73.153151.8  RSN  5 0.4 1.3LRSN                1
 GAP=200        1.07       5.9     7.8 10.2  0.2065E+02 -0.1397E+02 -0.2498E+02E
 Epicentro: LOS SANTOS - SANTANDER                                             3
 ACTION:UPD 15-06-03 16:52 OP:cam  STATUS:               ID:20150404103715 L   I
 OLDACT:DUP 15-04-04 22:57 OP:fm   STATUS:               ID:20150404102745d    3
 2015-04-04-1027-44M.COL___276                                                 6
 STAT SP IPHASW D HRMM SECON CODA AMPLIT PERI AZIMU VELO AIN AR TRES W  DIS CAZ7
 BRR  HZ EP       1037 38.16                             153    0.6510 72.4 301 
 BRR  HN ES       1037 54.97                             153    0.4010 72.4 301 
 BRR  HZ I        1037 58.47         2.7 0.32            151           72.4 301 
 RUS  HZ EP   1   1037 40.19                             146    0.46 7 96.9 175 
 RUS  HN ES       1037 57.93                             146   -0.6010 96.9 175 
 RUS  HZ I        1037 59.66         1.4 0.30            150           96.9 175 
 PTB  HZ EP       1037 42.99                             134    0.02 9  146 260 
 PTB  HE ES       1038  4.03                             134   -0.27 9  146 260 
 PTB  HZ I        1038  9.95         3.2 0.42            134            146 260 
 ZAR  HN ES       1038 14.37                             123    0.14 9  205 293 
 ZAR  HZ I        1038 20.20         2.7 0.38            124            205 293 
 SML  HZ EP       1037 52.62                             118   -0.32 8  247 336 
 SML  HE ES       1038 21.42                             118   -0.62 8  247 336 
 SML  HZ I        1038 28.25         2.9 0.24            120            247 336 
                                                                                
