 2013 12 4 1326  7.4 L   6.784 -73.181150.8  RSN  5 0.4 1.6LRSN                1
 GAP=232        1.15       9.2     8.4  9.2  0.4450E+02  0.7678E+01 -0.1811E+00E
 Epicentro: LOS SANTOS - SANTANDER                                             3
 ACTION:UPD 14-01-13 10:15 OP:ep   STATUS:               ID:20131204132607 L   I
 OLDACT:UP  13-12-04 15:56 OP:cam  STATUS:               ID:20131204132000     3
 OLDACT:REG 13-12-04 14:50 OP:cam  STATUS:               ID:20131204132000     3
 2013-12-04-1320-00M.COL___285                                                 6
 STAT SP IPHASW D HRMM SECON CODA AMPLIT PERI AZIMU VELO AIN AR TRES W  DIS CAZ7
 BAR2 SZ EP       1326 27.36                             172   -0.2710 21.2 180 
 BAR2 SZ ES       1326 42.59                             172   -0.7910 21.2 180 
 BRR  HZ EP       1326 29.06                             154    0.0710 68.7 301 
 BRR  HN ES       1326 46.46                             154    0.6510 68.7 301 
 RUS  HZ EP       1326 32.01                             145    0.4310 99.2 174 
 RUS  HE ES       1326 50.82                             145    0.4010 99.2 174 
 RUS  HZ I        1326 54.85         2.9 0.78            142           99.2 174 
 PTB  HZ EP       1326 33.97                             134   -0.47 9  144 259 
 PTB  HN ES       1326 55.36                             134   -0.15 9  144 259 
 PTB  HZ I        1327  0.09         5.4 0.22            130            144 259 
 ZAR  HE ES   1   1327  5.36                             124    0.12 6  201 293 
 ZAR  HZ I        1327 10.02         5.4 0.28            123            201 293 
                                                                                
