 2010 10 4 1930 59.0 L   6.797 -73.124142.0  RSN 10 0.4 1.9LRSN                1
 GAP=161        1.11       4.6     6.0  8.7 -0.8773E+01  0.5725E+01 -0.4078E+01E
 Epicentro: LOS SANTOS - SANTANDER                                             3
 ACTION:UP  11-02-18 11:07 OP:tino STATUS:               ID:20101004193059 L   I
 2010-10-04-1927-04S.COL___125                                                 6
 STAT SP IPHASW D HRMM SECON CODA AMPLIT PERI AZIMU VELO SNR AR TRES W  DIS CAZ7
 BAR2 SZ ES   1   1931 32.25                             170    -0.9 7   24 196 
 BRR  HZ EP       1931 19.93                             151     0.010   74 298 
 BRR  HZ I        1931 21.85        47.2 0.27                            74 298 
 BRR  HN ES       1931 36.62                             151     0.410   74 298 
 RUS  HZ EP       1931 22.49                             143     0.110  100 177 
 RUS  HN ES       1931 41.00                             143     0.410  100 177 
 RUS  HZ I        1931 42.32         7.9 0.26                           100 177 
 GUE  SZ EP       1931 23.09                             139    -0.310  116  11 
 GUE  SZ I        1931 43.68         7.0 0.04                           116  11 
 GRA  SZ EP       1931 24.05                             136     0.110  125  16 
 GRA  SZ ES   1   1931 43.39                             136     0.1 7  125  16 
 GRA  SZ I        1931 44.29        27.1 0.42                           125  16 
 NOR  SN ES       1932  2.13                             118    -0.5 8  237 235 
 NOR  SZ I        1932  7.92         1.8 0.18                           237 235 
 CHI  HN ES   2   1932  5.41                             116    -0.4 4  249 196 
 CHI  HZ I        1932 10.07         3.0 0.39                           249 196 
 HEL  HN ES   1   1932 11.23                             114     0.5 6  274 256 
 HEL  HZ I        1932 17.82         6.6 0.27                           274 256 
 RREF HN ES   2   1932 21.85                             110     0.6 3  323 230 
 RREF HZ I        1932 27.12         5.2 0.07                           323 230 
 DBB  SZ ES   2   1932 22.85                             109    -0.9 3  342 274 
                                                                                
