 2016  9 4 1544  0.4 L   6.822 -73.129141.9  RSN 19 0.5 2.8LRSN                1
 GAP=138        1.11       3.1     3.9  5.3 -0.1716E+01  0.6761E+01  0.2139E+01E
 Epicentro: LOS SANTOS - SANTANDER                                             3
 ACTION:UPD 17-08-17 21:06 OP:lp   STATUS:               ID:20160904154400 L   I
 OLDACT:REG 16-09-04 21:14 OP:dnl  STATUS:               ID:20160904153731     3
 2016-09-04-1538-00M.COL___355                                                 6
 STAT SP IPHASW D HRMM SECON CODA AMPLIT PERI AZIMU VELO AIN AR TRES W  DIS CAZ7
 BAR2 HZ EP     C 1544 19.64                             169    0.0110 26.0 193 
 BAR2 HZ ES       1544 33.93                             169   -0.6910 26.0 193 
 BAR2 HZ I        1544 35.53       135.9 0.30            170           26.0 193 
 BRR  HZ EP       1544 21.50                             152    0.3410 71.8 296 
 BRR  HN ES       1544 38.13                             152    0.7710 71.8 296 
 BRR  HZ I        1544 42.03       102.3 0.40            147           71.8 296 
 PAM  HZ EP       1544 22.45                             151    0.4310 74.3  40 
 PAM  HN ES       1544 39.32                             151    0.4310 74.3  40 
 PAM  HZ I        1544 41.50       128.3 0.48            147           74.3  40 
 RUS  HZ EP       1544 23.73                             142   -0.2110  103 177 
 RUS  HN ES       1544 42.31                             142    0.0110  103 177 
 RUS  HZ I        1544 44.13        76.9 0.40            141            103 177 
 PTB  HZ EP       1544 26.47                             131   -0.80 9  150 258 
 PTB  HE ES       1544 48.11                             131   -0.11 9  150 258 
 PTB  HZ I        1544 50.23        84.8 0.10            127            150 258 
 OCA  HZ EP       1544 27.98                             129   -0.23 9  158 352 
 OCA  HN ES       1544 49.26                             129   -0.64 9  158 352 
 OCA  HZ I        1544 52.84       178.2 0.28            124            158 352 
 SPBC HZ EP       1544 28.70                             128   -0.20 9  166 219 
 SPBC HN ES       1544 50.87                             128   -0.25 9  166 219 
 SPBC HZ I        1544 56.70       118.7 0.20            124            166 219 
 ZAR  HZ EP       1544 32.87                             121    0.18 9  205 291 
 ZAR  HE ES       1544 57.92                             121    0.05 9  205 291 
 ZAR  HZ I        1545  5.59        58.4 0.28            117            205 291 
 NOR  HZ EP       1544 35.93                             117   -0.29 8  238 234 
 NOR  HN ES       1545  4.39                             117    0.23 8  238 234 
 NOR  HZ I        1545 10.49        46.9 0.20            114            238 234 
 CHI  HZ EP       1544 38.12                             116   -0.07 8  251 195 
 CHI  HE ES       1545  7.57                             116   -0.10 8  251 195 
 CHI  HZ I        1545 10.65        23.9 0.34            113            251 195 
 ROSC HZ EP       1544 39.12                             116    0.48 8  256 211 
 ROSC HN ES   4   1545  9.98                             116    1.51 0  256 211 
 ROSC HZ I        1545 14.34        55.3 0.40            113            256 211 
 HEL  HZ EP       1544 41.56                             114    0.87 8  274 255 
 HEL  HN ES       1545 12.46                             114    0.35 8  274 255 
 HEL  HZ I        1545 19.21        38.2 0.28            111            274 255 
 URE  HZ EP       1544 40.26                             113   -1.12 7  285 291 
 URE  HN ES   4   1545 10.71                             113   -2.64 0  285 291 
 URE  HZ I        1545 13.10        36.5 0.12            109            285 291 
 GUY2CHZ EP       1544 44.28                             111    0.12 7  304 235 
 GUY2CHN ES   4   1545 20.95                             111    2.65 0  304 235 
 GUY2CHZ I        1545 24.13        30.4 0.26                           304 235 
 LL6C HZ EP   4   1544 44.24                             110   -1.44 0  323 357 
 LL6C HZ I        1545 24.95        11.1 0.54            107            323 357 
 ELA  HZ EP       1544 48.52                             109    1.09 7  332 229 
 ELA  HN ES   4   1545 27.92                             109    3.80 0  332 229 
 ELA  HZ I        1545 35.37        21.6 0.50            107            332 229 
 CBOC HZ EP   2   1544 48.05                             109    0.60 3  336 252 
 CBOC HN ES       1545 23.81                             109   -0.33 7  336 252 
 CBOC HZ I        1545 29.00        11.1 0.20            106            336 252 
 SJC  HZ EP   4   1544 53.52                             105   -2.20 0  408 327 
 SJC  HN ES   4   1545 35.17                             105   -3.70 0  408 327 
 SJC  HZ I        1545 39.37        17.4 0.46            102            408 327 
 PAL  HZ EP       1544 55.60                             105   -0.17 6  409 239 
 PAL  HE ES   4   1545 37.33                             105   -1.62 0  409 239 
 PAL  HZ I        1545 44.46        11.2 0.48            103            409 239 
                                                                                
