 2013  4 4 1025 35.3 L   6.842 -73.120144.4  RSN  5 0.3 1.4LRSN                1
 GAP=247        0.64       6.3     5.9  7.0  0.1970E+02  0.1350E+02  0.7845E+01E
 Epicentro: LOS SANTOS - SANTANDER                                             3
 ACTION:UPD 13-05-22 14:35 OP:EP   STATUS:               ID:20130404102535 L   I
 2013-04-04-1020-00M.COL___245                                                 6
 STAT SP IPHASW D HRMM SECON CODA AMPLIT PERI AZIMU VELO AIN AR TRES W  DIS CAZ7
 BAR2 SZ EP   1   1025 55.16                             168    0.26 7 28.5 194 
 BAR2 SZ ES   1   1026  9.96                             168   -0.21 7 28.5 194 
 BAR2 SZ I        1026 11.07         8.0 0.18            171           28.5 194 
 RUS  HZ EP   1   1025 59.14                             142   -0.12 7  105 178 
 RUS  HE ES   1   1026 18.24                             142    0.30 7  105 178 
 RUS  HZ I        1026 18.79         2.7 0.30            146            105 178 
 PTB  HZ EP   1   1026  2.04                             131   -0.47 7  151 257 
 PTB  HE ES   1   1026 23.32                             131   -0.41 7  151 257 
 PTB  HZ I        1026 25.21         3.0 0.48            130            151 257 
 ZAR  HN ES   1   1026 33.66                             122    0.58 6  205 291 
 ZAR  HZ I        1026 40.42         1.9 0.24            121            205 291 
 PRA  HZ EP   1   1026 29.40                             106   -0.03 4  397 210 
 PRA  HN ES   1   1027 12.00                             106    0.36 4  397 210 
                                                                                
