 2012 12 4 1639 27.6 L   6.802 -73.133146.7  RSN  7 0.4 2.3LRSN                1
 GAP=138        0.98       3.9     4.4  8.8 -0.1180E+01  0.1661E+02 -0.1810E+01E
 Epicentro: LOS SANTOS - SANTANDER                                             3
 ACTION:UPD 13-01-04 14:25 OP:ep   STATUS:               ID:20121204163927 L   I
 2012-12-04-1636-56M.COL___201                                                 6
 STAT SP IPHASW D HRMM SECON CODA AMPLIT PERI AZIMU VELO AIN AR TRES W  DIS CAZ7
 BAR2 SZ EP       1639 47.44                             170    0.1010 23.8 193 
 PAM  SZ EP       1639 50.07                             151    0.2310 76.3  39 
 PAM  SN ES       1640  6.93                             151   -0.2710 76.3  39 
 PAM  SN I        1640  9.15        30.2 0.46                          76.3  39 
 RUS  HN EP       1639 51.66                             144    0.2210  101 177 
 RUS  HE ES       1640  9.97                             144   -0.0710  101 177 
 RUS  HZ I        1640 12.15         6.4 0.26                           101 177 
 PTB  HZ EP       1639 54.25                             132   -0.51 9  149 259 
 PTB  HN ES       1640 15.91                             132   -0.04 9  149 259 
 PTB  HN I        1640 20.32        34.7 0.54                           149 259 
 ZAR  HZ EP       1639 59.44                             122   -0.78 8  205 292 
 ZAR  HN ES       1640 25.46                             122   -0.21 8  205 292 
 ZAR  HN I        1640 31.96        29.4 0.16                           205 292 
 NOR  HZ EP       1640  3.59                             118    0.09 8  236 235 
 NOR  HN ES       1640 32.16                             118    0.64 8  236 235 
 NOR  HN I        1640 38.39        25.7 0.16                           236 235 
 SML  HN ES       1640 33.77                             117    0.82 8  244 335 
 SML  HN I        1640 46.85        32.7 0.10                           244 335 
                                                                                
