 2013  9 4 1656  9.8 L   6.653 -73.155168.0  RSN  6 0.2 1.5LRSN                1
 GAP=141        0.49       5.5     4.9 10.0  0.5527E+01 -0.2947E+02 -0.1161E+02E
 Epicentro: VILLANUEVA - SANTANDER                                             3
 ACTION:UPD 13-10-22 09:20 OP:ep   STATUS:               ID:20130904165609 L   I
 OLDACT:DUP 13-09-04 20:16 OP:mh   STATUS:               ID:20130904164960d    3
 OLDACT:UP  13-09-04 20:14 OP:mh   STATUS:               ID:20130904164959     3
 OLDACT:UP  13-09-04 20:12 OP:mh   STATUS:               ID:20130904164959     3
 OLDACT:REG 13-09-04 14:51 OP:mh   STATUS:               ID:20130904164959     3
 2013-09-04-1649-59M.COL___269                                                 6
 STAT SP IPHASW D HRMM SECON CODA AMPLIT PERI AZIMU VELO AIN AR TRES W  DIS CAZ7
 BRR  HZ EP   1   1656 33.56                             154   -0.21 7 79.4 309 
 BRR  HN ES   2   1656 52.14                             154   -0.36 5 79.4 309 
 RUS  HZ EP       1656 34.64                             152   -0.1310 84.5 175 
 RUS  HN ES   2   1656 54.47                             152    0.19 5 84.5 175 
 RUS  HZ I        1656 56.50         1.7 0.44            151           84.5 175 
 PAM  SZ EP   1   1656 35.45                             151    0.31 7 91.0  34 
 PTB  HZ EP   4   1656 40.09                             137    1.75 0  144 265 
 PTB  HN ES       1657  0.77                             137    0.13 9  144 265 
 PTB  HZ I        1657  8.35         4.2 0.36            129            144 265 
 ZAR  HZ I        1657 25.50         3.6 0.12            120            210 296 
 GUY2CHZ EP   4   1656 57.21                             117    3.82 0  291 237 
 GUY2CHE ES   4   1657 32.10                             117    4.66 0  291 237 
 GUY2CHZ I        1657 39.56         2.0 0.70                           291 237 
                                                                                
