 2015  5 4 1517 59.8 L   6.774 -73.113144.0  RSN  9 0.5 1.8LRSN                1
 GAP=142        1.27       4.2     5.7  7.7 -0.4722E+01  0.1665E+02  0.2974E+01E
 Epicentro: LOS SANTOS - SANTANDER                                             3
 ACTION:UPD 15-09-10 22:01 OP:cam  STATUS:               ID:20150504151759 L   I
 OLDACT:UP  15-05-04 23:57 OP:stll STATUS:               ID:20150504150749     3
 OLDACT:REG 15-05-04 22:22 OP:stll STATUS:               ID:20150504150749     3
 2015-05-04-1507-49M.COL___274                                                 6
 STAT SP IPHASW D HRMM SECON CODA AMPLIT PERI AZIMU VELO AIN AR TRES W  DIS CAZ7
 BAR2 EZ IP     C 1518 19.17                             171    0.0410 21.5 201 
 BAR2 EZ I        1518 19.28        17.6 0.40            167           21.5 201 
 BAR2 EZ ES       1518 34.63                             171    0.3810 21.5 201 
 BRR  HZ IP     C 1518 21.14                             151    0.1710 75.7 299 
 BRR  HZ I        1518 21.41        16.2 0.26            149           75.7 299 
 BRR  HE ES       1518 38.09                             151    0.5710 75.7 299 
 PAM  SZ EP       1518 21.77                             151   -0.0110 77.5  36 
 PAM  SZ I        1518 22.81        14.2 0.18            155           77.5  36 
 PAM  SN ES       1518 39.01                             151    0.0410 77.5  36 
 RUS  HZ EP       1518 23.15                             144    0.0410 97.5 178 
 RUS  HE ES       1518 41.15                             144   -0.1710 97.5 178 
 RUS  HZ I        1518 43.13         5.2 0.46            144           97.5 178 
 SPBC HZ EP       1518 28.06                             129   -0.06 9  163 221 
 SPBC HN ES       1518 49.70                             129   -0.55 9  163 221 
 SPBC HZ I        1518 58.14         9.4 0.16            128            163 221 
 OCA  HE ES       1518 49.50                             129   -0.96 9  164 352 
 ZAR  HZ EP       1518 32.54                             121    0.00 8  208 293 
 ZAR  HE ES       1518 58.35                             121    0.24 8  208 293 
 ZAR  HZ I        1519  4.14         5.4 0.32            121            208 293 
 NOR  HZ EP       1518 35.23                             118   -0.28 8  236 236 
 NOR  HN ES       1519  2.26                             118   -1.15 8  236 236 
 NOR  HZ I        1519 11.21         3.7 0.16            118            236 236 
 GUY2CHZ EP       1518 44.89                             112    1.47 7  302 236 
 GUY2CHN ES       1519 18.00                             112    0.51 7  302 236 
 GUY2CHZ I        1519 26.93         3.3 0.30                           302 236 
                                                                                
