 2013  2 4 1311  5.0 L   6.782 -73.171141.1  RSN  4 0.3 1.1LRSN                1
 GAP=134        0.80       4.6     5.7  9.6 -0.7385E+01  0.1832E+02 -0.4912E+01E
 Epicentro: LOS SANTOS - SANTANDER                                             3
 ACTION:UPD 13-03-12 09:30 OP:ep   STATUS:               ID:20130204131105 L   I
 2013-02-04-1310-00M.COL___241                                                 6
 STAT SP IPHASW D HRMM SECON CODA AMPLIT PERI AZIMU VELO AIN AR TRES W  DIS CAZ7
 BRR  HZ EP       1311 26.13                             152    0.5910 69.7 301 
 PAM  SZ EP       1311 26.78                             149   -0.1210 80.7  40 
 PAM  SN ES       1311 43.87                             149   -0.1410 80.7  40 
 PAM  SZ I        1311 46.40         4.4 0.56            155           80.7  40 
 RUS  HZ EP       1311 27.83                             143   -0.3110 98.8 174 
 RUS  HE ES       1311 46.43                             143    0.2110 98.8 174 
 RUS  HZ I        1311 49.33         1.3 0.30            148           98.8 174 
 PTB  HZ EP   2   1311 31.10                             132   -0.18 5  145 259 
 PTB  HE ES   1   1311 51.40                             132   -0.39 7  145 259 
 PTB  HZ I        1311 57.10         1.9 0.32            134            145 259 
                                                                                
