 2010  3 4 1035 51.6 L   6.824 -73.021149.2  RSN 11 0.3 2.3LRSN                1
 GAP=196        0.70       2.7     6.1  4.4  0.1218E+01  0.5687E+01  0.1868E+01E
 Epicentro: CEPITA - SANTANDER                                                 3
 ACTION:DUP 10-08-24 09:51 OP:vdl  STATUS:               ID:20100304103552dL   I
 2010-03-04-1032-18S.COL___101                                                 6
 STAT SP IPHASW D HRMM SECON CODA AMPLIT PERI AZIMU VELO SNR AR TRES W  DIS CAZ7
 BAR2 SZ EP       1036 11.96                             168     0.110   31 215 
 BAR2 SZ ES   1   1036 27.07                             168    -0.5 7   31 215 
 BRR  HZ IP       1036 13.97                             149     0.210   83 292 
 BRR  HZ I        1036 16.15        27.4 0.10                            83 292 
 BRR  HN ES       1036 31.11                             149     0.010   83 292 
 RUS  BZ EP       1036 15.91                             144     0.010  103 184 
 RUS  BN ES       1036 34.82                             144     0.010  103 184 
 RUS  BZ I        1036 35.71        11.3 0.32                           103 184 
 OCA  SZ EP       1036 20.42                             130     0.3 9  160 348 
 OCA  SZ ES   2   1036 42.18                             130    -0.2 5  160 348 
 OCA  SZ I        1036 47.85        47.2 0.22                           160 348 
 CHI  HZ EP       1036 30.16                             117     0.0 8  255 198 
 CHI  HZ I        1036 32.96         5.4 0.18                           255 198 
 CHI  HN ES       1037  0.43                             117     0.1 8  255 198 
 HEL  HZ EP   1   1036 33.77                             114     0.2 6  286 256 
 HEL  HZ I        1037 11.37        10.4 0.37                           286 256 
 RREF BZ EP       1036 39.05                             110    -0.2 7  334 231 
 RREF BZ I        1037 21.76        10.7 0.27                           334 231 
 DBB  SZ EP   1   1036 40.17                             109    -0.6 5  353 274 
 TOL  SZ EP   1   1036 40.42                             109    -0.9 5  355 226 
 ANIL BE ES   2   1037 23.86                             108     1.0 3  369 226 
 ANIL BZ I        1037 30.07        19.8 0.33                           369 226 
 PRA  HZ EP   1   1036 46.22                             106    -0.1 4  401 211 
 PRA  HE ES       1037 29.23                             106     0.2 6  401 211 
 PRA  HZ I        1037 32.92        10.1 0.29                           401 211 
                                                                                
