 2011  4 4 1129 45.7 L   6.767 -73.032140.7  RSN  5 0.5 1.8LRSN                1
 GAP=209        0.65       6.3     8.5 10.1 -0.1806E+02 -0.1178E+02  0.1577E+02E
 Epicentro: CEPITA - SANTANDER                                                 3
 ACTION:UP  11-06-22 15:28 OP:REBC STATUS:               ID:20110404112945 L   I
 2011-04-04-1127-18S.COL___136                                                 6
 STAT SP IPHASW D HRMM SECON CODA AMPLIT PERI AZIMU VELO SNR AR TRES W  DIS CAZ7
 BAR2 SZ EP       1130  5.02                             169     0.310   26 221 
 BAR2 SZ ES   2   1130 19.47                             169    -0.2 5   26 221 
 BAR2 SZ I        1130 21.04        16.8 0.27                            26 221 
 BRR  HZ EP       1130  7.03                             148     0.010   84 297 
 BRR  HN ES   1   1130 23.87                             148     0.1 7   84 297 
 BRR  HZ I        1130 24.75         9.1 0.10                            84 297 
 GRA  SZ ES   1   1130 29.54                             136    -0.3 7  126  11 
 OCA  SZ ES   3   1130 36.25                             128    -0.1 2  166 349 
 NOR  SN ES   3   1130 48.45                             116    -1.9 2  243 237 
                                                                                
