 2012  4 4 1635  9.5 L   6.774 -73.153139.3  RSN  6 0.3 1.6LRSN                1
 GAP=137        0.42       3.5     4.1  5.3 -0.1584E+01  0.1997E+01  0.5611E+01E
 Epicentro: LOS SANTOS - SANTANDER                                             3
 ACTION:UPD 12-07-05 11:50 OP:tino STATUS:               ID:20120404163509 L   I
 2012-04-04-1630-00M.COL___196                                                 6
 STAT SP IPHASW D HRMM SECON CODA AMPLIT PERI AZIMU VELO AIN AR TRES W  DIS CAZ7
 BAR2 SZ EP       1635 28.36                             171     0.010   20 189 
 BAR2 SZ ES   2   1635 42.72                             171    -0.3 5   20 189 
 BAR2 SZ I        1635 44.27         9.4 0.36                            20 189 
 BRR  HZ EP       1635 30.15                             151     0.110   72 301 
 BRR  HZ I        1635 30.33        13.9 0.18                            72 301 
 BRR  HN ES   2   1635 46.26                             151     0.2 5   72 301 
 PAM  SZ EP       1635 31.20                             149     0.010   80  39 
 PAM  SN ES   1   1635 48.11                             149    -0.1 7   80  39 
 RUS  HZ EP       1635 32.52                             143     0.110   98 175 
 RUS  HN ES   3   1635 50.44                             143     0.1 2   98 175 
 PTB  HZ EP   3   1635 34.98                             131    -0.9 2  146 260 
 PTB  HZ I        1635 59.28         2.6 0.24                           146 260 
 ZAR  HN ES   3   1636  5.73                             121    -0.9 2  204 293 
                                                                                
