 2014 11 4 1948 45.5 L   6.813 -73.207141.8  RSN  5 0.2 1.5LRSN                1
 GAP=146        0.52       3.0     3.0  3.9 -0.2377E+01  0.2785E+01  0.9342E+00E
 Epicentro: ZAPATOCA - SANTANDER                                               3
 ACTION:UPD 14-12-19 15:39 OP:nd   STATUS:               ID:20141104194845 L   I
 OLDACT:UP  14-11-05 00:51 OP:cam  STATUS:               ID:20141104194750     3
 OLDACT:REG 14-11-04 23:12 OP:cam  STATUS:               ID:20141104194750     3
 2014-11-04-1947-50M.COL___274                                                 6
 STAT SP IPHASW D HRMM SECON CODA AMPLIT PERI AZIMU VELO AIN AR TRES W  DIS CAZ7
 BAR2 SZ ES       1949 19.39                             170   -0.2110 24.6 174 
 BAR2 SZ I        1949 22.37         8.2 0.20            170           24.6 174 
 PAM  SZ EP     D 1949  7.62                             149    0.1410 80.8  44 
 PAM  SN ES       1949 24.62                             149   -0.0210 80.8  44 
 PAM  SZ I        1949 25.39         5.1 0.22            153           80.8  44 
 RUS  HZ EP       1949  9.15                             142    0.1610  103 172 
 RUS  HE ES       1949 27.40                             142    0.0710  103 172 
 RUS  HE I        1949 28.51         4.7 0.22            145            103 172 
 PTB  HZ EP       1949 11.22                             132   -0.31 9  141 258 
 PTB  HN ES       1949 32.11                             132    0.25 9  141 258 
 PTB  HZ I        1949 37.56         3.8 0.48            133            141 258 
 CHI  HZ EP       1949 22.79                             116   -0.13 8  248 194 
                                                                                
