 2011  7 4 1037 55.1 L   6.803 -73.105142.0  RSN  8 0.3 1.9LRSN                1
 GAP=160        0.43       2.6     4.2  4.1 -0.2683E+01 -0.1786E+01 -0.2123E+01E
 Epicentro: LOS SANTOS - SANTANDER                                             3
 ACTION:UPD 12-07-25 13:58 OP:epov STATUS:               ID:20110704103755 L   I
 2011-07-04-1034-05S.COL___140                                                 6
 STAT SP IPHASW D HRMM SECON CODA AMPLIT PERI AZIMU VELO AIN AR TRES W  DIS CAZ7
 BAR2 SZ EP       1038 14.22                             170   -0.1110 24.8 200 
 BAR2 SZ ES   1   1038 29.41                             170    0.09 7 24.8 200 
 BAR2 SZ I        1038 31.05        32.6 0.33                          24.8 200 
 GIR2 SZ EP   1   1038 14.55                             167    0.18 7 32.0 342 
 BRR  HZ EP       1038 16.13                             151    0.0410 75.0 297 
 BRR  HZ I        1038 16.49        13.5 0.12                          75.0 297 
 BRR  HN ES   1   1038 32.45                             151    0.00 7 75.0 297 
 RUS  HZ EP   2   1038 18.18                             143   -0.33 5  101 179 
 RUS  HN ES   2   1038 36.93                             143    0.17 5  101 179 
 RUS  HZ I        1038 38.19         8.1 0.43                           101 179 
 BRI  SZ EP   2   1038 18.78                             141    0.26 5  107  19 
 GRA  SZ EP       1038 19.93                             137    0.0310  124  16 
 GRA  SZ I        1038 21.21         6.8 0.28                           124  16 
 GRA  SZ ES   2   1038 38.76                             137   -0.47 5  124  16 
 OCA  SZ EP   1   1038 23.01                             129   -0.16 7  161 352 
 OCA  SZ ES   2   1038 45.28                             129    0.23 5  161 352 
 OCA  SZ I        1038 51.60         9.8 0.24                           161 352 
 NOR  SZ EP   2   1038 31.70                             117    0.64 4  239 235 
 NOR  SN ES   2   1038 58.52                             117   -0.56 4  239 235 
                                                                                
