 2016  4 4 1558 52.2 L   6.809 -73.189143.8  RSN  6 0.2 2.0LRSN                1
 GAP=131        0.53       2.5     2.4  4.1 -0.8547E+00  0.3010E+01 -0.1910E+00E
 Epicentro: ZAPATOCA - SANTANDER                                               3
 ACTION:UPD 16-05-05 14:18 OP:rebc STATUS:               ID:20160404155852 L   I
 OLDACT:REG 16-04-04 20:34 OP:drio STATUS:               ID:20160404155744     3
 2016-04-04-1557-44M.COL___295                                                 6
 STAT SP IPHASW D HRMM SECON CODA AMPLIT PERI AZIMU VELO AIN AR TRES W  DIS CAZ7
 BAR2 EZ EP       1559 11.48                             170   -0.0910 24.0 178 
 BAR2 EZ ES       1559 26.47                             170   -0.2310 24.0 178 
 PAM  EZ EP       1559 14.39                             150    0.0810 79.7  43 
 PAM  EN ES       1559 31.80                             150    0.2210 79.7  43 
 PAM  EZ I        1559 33.75        16.2 0.56            153           79.7  43 
 RUS  HZ EP       1559 15.70                             143   -0.1210  102 173 
 RUS  HE ES       1559 34.19                             143   -0.0910  102 173 
 RUS  HZ I        1559 35.13         9.2 0.34            148            102 173 
 PTB  HZ EP       1559 18.40                             132   -0.16 9  143 258 
 PTB  HE ES       1559 39.49                             132    0.34 9  143 258 
 PTB  HZ I        1559 45.39        11.1 0.38            132            143 258 
 SPBC HZ EP       1559 20.50                             129    0.20 9  161 217 
 SPBC HE ES       1559 42.41                             129    0.15 9  161 217 
 SPBC HZ I        1559 45.20        24.1 0.26            131            161 217 
 ZAR  HZ EP   4   1559 25.56                             123    1.58 0  199 292 
 ZAR  HN ES       1559 48.52                             123   -0.28 9  199 292 
 ZAR  HZ I        1559 58.08         6.4 0.36            122            199 292 
                                                                                
