 2010 10 4 1324 48.1 L   6.796 -73.096149.8  RSN  6 0.3 1.9LRSN                1
 GAP=242        0.64       5.0     8.0  8.9 -0.3052E+01  0.3925E+02 -0.9905E+01E
 Epicentro: LOS SANTOS - SANTANDER                                             3
 ACTION:UP  11-02-18 11:07 OP:tino STATUS:               ID:20101004132448 L   I
 2010-10-04-1321-22S.COL___122                                                 6
 STAT SP IPHASW D HRMM SECON CODA AMPLIT PERI AZIMU VELO SNR AR TRES W  DIS CAZ7
 BAR2 SZ EP       1325  8.18                             170    -0.110   25 203 
 BAR2 SZ I        1325 24.73        30.3 0.30                            25 203 
 BRR  HZ EP       1325 10.07                             152     0.110   76 297 
 BRR  HZ I        1325 31.20        17.4 0.48                            76 297 
 RUS  HZ EP       1325 12.29                             145     0.110  100 179 
 RUS  HN ES       1325 31.07                             145     0.010  100 179 
 RUS  HZ I        1325 31.99        11.3 0.15                           100 179 
 NOR  SZ EP   1   1325 24.01                             119    -0.6 6  239 235 
 NOR  SN ES   2   1325 52.38                             119    -0.6 4  239 235 
 CHI  HZ EP   1   1325 26.21                             118     0.0 6  250 196 
 CHI  HN ES   2   1325 55.63                             118    -0.2 4  250 196 
 CHI  HZ I        1325 59.16         3.6 0.91                           250 196 
 RREF HZ EP   1   1325 35.33                             111     0.4 5  326 230 
 RREF HN ES   2   1326 12.32                             111     1.0 3  326 230 
 RREF HZ I        1326 17.50         4.2 0.73                           326 230 
                                                                                
