 2017  9 4 1142 55.3 L   6.813 -73.154140.6  RSN 18 0.4 2.2LRSN                1
 GAP=103        0.80       2.4     2.1  4.0  0.3660E-01  0.1956E+01  0.1434E+01E
 Epicentro: LOS SANTOS - SANTANDER                                             3
 ACTION:UPD 17-10-05 19:09 OP:rebc STATUS:               ID:20170904114255 L   I
 OLDACT:UP  17-09-04 22:54 OP:lv   STATUS:               ID:20170904113746     3
 OLDACT:REG 17-09-04 19:58 OP:lv   STATUS:               ID:20170904113746     3
 2017-09-04-1138-00M.COL___408                                                 6
 STAT SP IPHASW D HRMM SECON CODA AMPLIT PERI AZIMU VELO AIN AR TRES W  DIS CAZ7
 BAR2 EZ EP       1143 14.13                             170   -0.2010 24.6 187 
 BAR2 EZ ES       1143 28.76                             170   -0.4210 24.6 187 
 BAR2 EZ I        1143 30.51        44.0 0.20            167           24.6 187 
 BRR  HZ IP     C 1143 15.85                             152    0.0410 69.8 298 
 BRR  HN ES       1143 32.69                             152    0.8910 69.8 298 
 BRR  HZ I        1143 33.99        29.1 0.14            153           69.8 298 
 PAM  EZ IP     D 1143 17.04                             150    0.1110 76.9  41 
 PAM  EN ES       1143 33.50                             150   -0.3110 76.9  41 
 PAM  EZ I        1143 36.34        15.1 0.52            152           76.9  41 
 RUS  HZ EP       1143 18.39                             142   -0.2610  102 176 
 RUS  HN ES       1143 36.64                             142   -0.2310  102 176 
 RUS  HZ I        1143 38.20        15.6 0.28            140            102 176 
 TAM  HZ EP       1143 22.57                             129   -0.11 9  156 105 
 TAM  HN ES       1143 44.24                             129    0.19 9  156 105 
 SPBC HZ EP       1143 23.48                             128    0.02 9  164 218 
 SPBC HN ES       1143 45.36                             128   -0.06 9  164 218 
 YPLC HZ IP     D 1143 24.74                             125   -0.15 9  178 151 
 YPLC HN ES       1143 48.52                             125    0.56 9  178 151 
 YPLC HZ I        1143 52.31        14.6 0.34            124            178 151 
 ZAR  HZ EP       1143 27.36                             121    0.09 9  203 292 
 ZAR  HN ES       1143 52.18                             121   -0.03 9  203 292 
 ZAR  HZ I        1143 57.50        23.1 0.40            122            203 292 
 NOR  HZ EP       1143 30.57                             117   -0.17 8  235 234 
 NOR  HN ES       1143 58.67                             117    0.28 8  235 234 
 NOR  HZ I        1144  0.10        10.8 0.18            117            235 234 
 CHI  HZ EP       1143 32.68                             116   -0.16 8  250 195 
 CHI  HN ES       1144  2.27                             116    0.15 8  250 195 
 CHI  HZ I        1144  7.33         6.7 0.50            115            250 195 
 HEL  HZ EP       1143 35.66                             114    0.46 8  272 255 
 HEL  HE ES       1144  5.67                             114   -0.65 8  272 255 
 HEL  HZ I        1144 10.52         6.0 0.26            113            272 255 
 URE  HN ES   4   1144  4.85                             113   -2.84 0  282 292 
 GUY2CHZ EP   9   1143 39.91                             111    1.23 0  301 234 
 GUY2CHN ES       1144 13.11                                   -0.64 7  301 234 
 GUY2CHZ I        1144 22.36         7.8 0.38                           301 234 
 PTGC HZ EP   4   1143 37.58                             110   -1.53 0  310 159 
 PTGC HN ES   4   1144 10.41                             110   -2.88 0  310 159 
 PTGC HZ I        1144 29.84        13.8 0.48            110            310 159 
 ELA  HN EP   3   1143 44.04                             109    2.08 2  329 229 
 ELA  HZ ES       1144 18.33                             109   -0.03 7  329 229 
 DBB  EN EP       1143 42.50                             108    0.04 7  339 274 
 DBB  EZ ES   3   1144 17.81                             108   -1.43 2  339 274 
 ANIL HZ EP   9   1143 46.65                             107    1.70 0  358 224 
 ANIL HE ES       1144 25.47                                    0.09 6  358 224 
 ANIL HZ I        1144 28.86        23.1 0.32            107            358 224 
 PRA  HZ EP   9   1143 48.34                             106   -0.40 0  393 209 
 PRA  HN ES       1144 29.85                                   -0.17 6  393 209 
 PRA  HZ I        1144 35.40        14.7 0.82            105            393 209 
 SJC  HZ EP   4   1143 48.45                             105   -2.05 0  408 327 
 SJC  HN ES   4   1144 29.68                             105   -3.87 0  408 327 
 SJC  HZ I        1144 33.68         4.2 0.32            105            408 327 
                                                                                
