 2016  1 4 1957  4.2 L   6.800 -73.125147.1  RSN  6 0.5 1.9LRSN                1
 GAP=139        1.35       5.4     7.1  9.3 -0.4766E+01  0.5027E+01 -0.4616E+01E
 Epicentro: LOS SANTOS - SANTANDER                                             3
 ACTION:UPD 16-03-09 23:22 OP:cam  STATUS:               ID:20160104195704 L   I
 OLDACT:REG 16-01-04 22:14 OP:ar   STATUS:               ID:20160104194748     3
 2016-01-04-1947-48M.COL___334                                                 6
 STAT SP IPHASW D HRMM SECON CODA AMPLIT PERI AZIMU VELO AIN AR TRES W  DIS CAZ7
 BAR2 EZ EP       1957 24.05                             170    0.0210 23.8 195 
 BAR2 EZ ES       1957 39.63                             170    0.1610 23.8 195 
 BAR2 EZ I        1957 40.04        12.9 0.40            162           23.8 195 
 BRR  HE ES       1957 43.21                             152    0.8810 73.2 298 
 BRR  HZ I        1958 11.22        19.1 0.48            143           73.2 298 
 PAM  EZ EP     D 1957 26.83                             152    0.3310 76.0  38 
 PAM  EN ES       1957 43.98                             152    0.1010 76.0  38 
 PAM  EZ I        1957 46.04        18.1 0.58            154           76.0  38 
 RUS  HZ EP       1957 28.14                             144    0.0410  100 177 
 RUS  HE ES       1957 46.14                             144   -0.5810  100 177 
 RUS  HZ I        1957 47.14         6.8 0.38            153            100 177 
 PTB  HZ EP       1957 32.20                             132    0.70 9  150 259 
 PTB  HE ES       1957 52.05                             132   -0.73 9  150 259 
 PTB  HZ I        1957 58.93         5.9 0.22            130            150 259 
 OCA  HZ EP       1957 32.45                             130   -0.22 9  161 352 
 OCA  HN ES       1957 53.98                             130   -0.88 9  161 352 
 OCA  HZ I        1958  1.87        24.7 0.48            130            161 352 
                                                                                
