 2010  3 4 1443 44.6 L   6.816 -73.158144.9  RSN  9 0.3 2.1LRSN                1
 GAP=182        0.69       3.4     6.1  5.6 -0.1132E+01  0.1642E+02  0.1917E+01E
 Epicentro: LOS SANTOS - SANTANDER                                             3
 ACTION:UP  10-08-24 09:51 OP:vdl  STATUS:               ID:20100304144345 L   I
 2010-03-04-1439-00S.COL___101                                                 6
 STAT SP IPHASW D HRMM SECON CODA AMPLIT PERI AZIMU VELO SNR AR TRES W  DIS CAZ7
 BAR2 SZ EP       1444  4.22                             170     0.110   25 187 
 BAR2 SZ ES   1   1444 18.83                             170    -0.5 7   25 187 
 BRR  HZ EP       1444  5.95                             153     0.410   69 298 
 BRR  HE ES   2   1444 22.51                             153     0.7 5   69 298 
 BRR  HZ I        1444 25.08        19.4 0.03                            69 298 
 RUS  BZ EP   1   1444  8.43                             143     0.1 7  102 175 
 RUS  BE ES   1   1444 26.84                             143    -0.1 7  102 175 
 RUS  BZ I        1444 28.56         9.4 0.29                           102 175 
 OCA  SZ EP   1   1444 12.38                             130    -0.2 7  158 354 
 OCA  SZ ES   2   1444 34.04                             130    -0.5 5  158 354 
 OCA  SZ I        1444 37.83        30.5 0.37                           158 354 
 CHI  HZ EP       1444 22.62                             117     0.3 8  250 195 
 CHI  HE ES   2   1444 51.67                             117    -0.2 4  250 195 
 CHI  HZ I        1444 55.21         4.3 0.44                           250 195 
 RREF BZ EP       1444 30.29                             111    -0.4 7  322 229 
 RREF BN ES       1445  6.50                             111    -0.1 7  322 229 
 RREF BZ I        1445 16.39         7.8 0.47                           322 229 
 DBB  SZ EP       1444 31.51                             109    -0.3 7  338 274 
 DBB  SZ ES   3   1445  8.80                             109     0.1 2  338 274 
 TOL  SZ EP   1   1444 32.70                             109    -0.1 5  344 224 
 TOL  SZ ES   3   1445 10.76                             109     0.3 2  344 224 
 PRA  HZ EP       1444 38.41                             106     0.3 6  393 209 
 PRA  HZ I        1445 24.97         4.8 0.62                           393 209 
                                                                                
