 2011  7 4 1245  1.9 L   6.790 -73.049142.0  RSN  4 0.2 1.4LRSN                1
 GAP=170        0.40       5.4     8.6  6.7  0.2945E+02 -0.3126E+02 -0.1766E+02E
 Epicentro: LOS SANTOS - SANTANDER                                             3
 ACTION:UPD 12-07-25 13:58 OP:epov STATUS:               ID:20110704124501 L   I
 2011-07-04-1241-22S.COL___140                                                 6
 STAT SP IPHASW D HRMM SECON CODA AMPLIT PERI AZIMU VELO AIN AR TRES W  DIS CAZ7
 BAR2 SZ EP   2   1245 21.52                             169    0.35 5 26.4 214 
 BAR2 SZ ES   2   1245 35.92                             169   -0.26 5 26.4 214 
 BAR2 SZ I        1245 37.65         9.0 0.33                          26.4 214 
 BRR  HZ EP       1245 23.12                             149   -0.1610 81.3 296 
 BRR  HZ I        1245 23.46        10.2 0.15                          81.3 296 
 BRR  HE ES   1   1245 40.10                             149    0.17 7 81.3 296 
 RUS  HZ EP   2   1245 25.19                             144   -0.02 5 99.3 182 
 RUS  HN ES   2   1245 43.47                             144    0.09 5 99.3 182 
 RUS  HZ I        1245 46.05         1.9 0.22                          99.3 182 
 GRA  SZ EP   2   1245 26.78                             137    0.09 5  124  13 
 GRA  SZ I        1245 48.21         2.5 0.44                           124  13 
                                                                                
