 2011  2 4 1548 16.4 L   6.790 -73.145137.0  RSN  9 0.5 2.1LRSN                1
 GAP=159        0.84       6.1     8.3 10.3 -0.2120E+02  0.3957E+02 -0.6490E+01E
 Epicentro: LOS SANTOS - SANTANDER                                             3
 ACTION:UP  11-03-28 15:05 OP:jfem STATUS:               ID:20110204154816 L   I
 2011-02-04-1545-57S.COL___138                                                 6
 STAT SP IPHASW D HRMM SECON CODA AMPLIT PERI AZIMU VELO SNR AR TRES W  DIS CAZ7
 BTL  SZ EP       1548 34.91                             171     0.010   20 316 
 BAR2 SZ EP   1   1548 34.83                             171    -0.1 7   22 191 
 BAR2 SZ ES   2   1548 48.83                             171    -0.6 5   22 191 
 BAR2 SZ I        1548 52.26        36.5 0.22                            22 191 
 GIR2 SZ EP   1   1548 34.87                             166    -0.2 7   32 351 
 RUS  HZ EP   1   1548 39.00                             142    -0.2 7   99 176 
 RUS  HN ES   2   1548 57.75                             142     0.7 5   99 176 
 RUS  HZ I        1548 59.92        15.4 0.38                            99 176 
 GRA  SZ EP   1   1548 41.71                             134     0.7 7  127  17 
 NOR  SZ EP   1   1548 51.01                             116    -0.6 6  234 235 
 NOR  SN ES   2   1549 19.60                             116     0.6 4  234 235 
 CHI  HZ EP   1   1548 52.97                             115    -0.5 6  248 195 
 CHI  HN ES   2   1549 23.18                             115     0.7 4  248 195 
 CHI  HZ I        1549 25.67        11.4 0.34                           248 195 
 HEL  HZ EP   1   1548 56.67                             113     0.5 6  272 256 
 HEL  HE ES   2   1549 26.83                             113    -0.3 4  272 256 
 HEL  HZ I        1549 34.40        10.1 0.64                           272 256 
 RREF HZ EP   2   1549  2.35                             109     0.2 3  321 230 
 RREF HE ES   2   1549 37.45                             109    -0.3 3  321 230 
 RREF HZ I        1549 46.85         6.2 0.29                           321 230 
                                                                                
