 2013  1 4 1343 27.9 L   6.841 -73.107138.6  RSN  5 0.5 1.8LRSN                1
 GAP=187        0.93       5.7     7.4 10.8  0.1091E+02  0.2342E+02 -0.9935E+01E
 Epicentro: LOS SANTOS - SANTANDER                                             3
 ACTION:UPD 13-02-15 09:12 OP:ep   STATUS:               ID:20130104134327 L   I
 2013-01-04-1340-00M.COL___242                                                 6
 STAT SP IPHASW D HRMM SECON CODA AMPLIT PERI AZIMU VELO AIN AR TRES W  DIS CAZ7
 BAR2 SZ EP   1   1343 46.92                             168    0.16 7 28.7 197 
 BAR2 SZ ES   1   1344  2.02                             168    0.51 7 28.7 197 
 BAR2 SZ I        1344  3.48        18.0 0.22            167           28.7 197 
 RUS  HZ EP   1   1343 51.32                             141    0.07 7  105 179 
 RUS  HN ES   1   1344  9.31                             141   -0.17 7  105 179 
 RUS  HZ I        1344 10.70         5.5 0.50            144            105 179 
 PTB  HZ EP   1   1343 54.32                             129   -0.42 7  153 257 
 PTB  HN ES   1   1344 14.92                             129   -0.78 7  153 257 
 PTB  HZ I        1344 17.49         6.6 0.14            130            153 257 
 OCA  HN ES   1   1344 16.04                             129   -0.58 7  156 351 
 ZAR  HZ EP   1   1344  0.63                             120    0.53 6  206 291 
 ZAR  HN ES   1   1344 26.02                             120    0.78 6  206 291 
 ZAR  HZ I        1344 31.58         7.1 0.30            121            206 291 
                                                                                
