 2016 10 4 1312 34.1 L   6.800 -73.143145.5  RSN  8 0.3 1.6LRSN                1
 GAP=137        0.78       2.8     3.3  4.6  0.1251E+00  0.3389E+01  0.2125E+01E
 Epicentro: LOS SANTOS - SANTANDER                                             3
 ACTION:UPD 16-11-09 19:16 OP:rebc STATUS:               ID:20161004131234 L   I
 OLDACT:REG 16-10-04 19:47 OP:lv   STATUS:               ID:20161004130741     3
 2016-10-04-1308-00M.COL___372                                                 6
 STAT SP IPHASW D HRMM SECON CODA AMPLIT PERI AZIMU VELO AIN AR TRES W  DIS CAZ7
 BAR2 EZ EP       1312 53.42                             170   -0.2710 23.4 191 
 BAR2 EZ ES       1313  8.62                             170   -0.3510 23.4 191 
 BAR2 EZ I        1313 11.29        10.1 0.36            168           23.4 191 
 BRR  HZ EP       1312 55.45                             152    0.2210 71.5 298 
 BRR  HE ES       1313 12.10                             152    0.3910 71.5 298 
 PAM  EZ EP       1312 56.29                             151    0.0210 77.1  39 
 PAM  EN ES       1313 13.60                             151    0.0410 77.1  39 
 PAM  EZ I        1313 15.53        10.1 0.56            155           77.1  39 
 RUS  HZ EP       1312 58.04                             144    0.2210  101 176 
 RUS  HE ES       1313 16.31                             144   -0.0110  101 176 
 RUS  HZ I        1313 17.24         5.2 0.34            144            101 176 
 PTB  HZ EP       1313  0.55                             132   -0.52 9  148 259 
 PTB  HN ES       1313 21.56                             132   -0.55 9  148 259 
 PTB  HZ I        1313 27.87         3.4 0.11            131            148 259 
 SPBC HZ EP       1313  2.61                             129    0.02 9  163 219 
 SPBC HE ES       1313 25.10                             129    0.28 9  163 219 
 ZAR  HZ EP       1313  6.33                             122   -0.22 9  204 292 
 ZAR  HN ES       1313 32.33                             122    0.46 9  204 292 
 ZAR  HZ I        1313 40.10         5.4 0.14            122            204 292 
 CHI  HZ EP       1313 11.91                             117    0.12 8  249 195 
 CHI  HN ES       1313 41.46                             117    0.27 8  249 195 
 CHI  HZ I        1313 50.97         1.2 0.10            118            249 195 
 SJC  HZ EP   4   1313 27.81                             106   -1.86 0  409 327 
 SJC  HN ES   4   1314  9.48                             106   -3.53 0  409 327 
                                                                                
