 2010 10 4 1400 40.5 L   6.800 -73.044138.0  RSN  6 0.3 2.0LRSN                1
 GAP=170        0.66       3.7     7.0  5.6  0.5789E+01 -0.8201E+01  0.2344E+01E
 Epicentro: LOS SANTOS - SANTANDER                                             3
 ACTION:UP  11-02-18 11:07 OP:tino STATUS:               ID:20101004140040 L   I
 2010-10-04-1358-37S.COL___122                                                 6
 STAT SP IPHASW D HRMM SECON CODA AMPLIT PERI AZIMU VELO SNR AR TRES W  DIS CAZ7
 BAR2 SZ EP       14 0 59.36                             168     0.010   28 214 
 BAR2 SZ I        14 0 59.90        29.5 0.60                            28 214 
 BAR2 SZ ES   1   14 1 13.95                             168     0.0 7   28 214 
 BRR  HZ IP       14 1  1.14                             148    -0.310   81 295 
 BRR  HZ I        14 1  1.44        33.2 0.23                            81 295 
 BRR  HN ES       14 1 17.90                             148     0.110   81 295 
 RUS  HZ EP       14 1  3.41                             142    -0.110  100 182 
 RUS  HZ I        14 1  4.10         8.0 0.33                           100 182 
 RUS  HN ES   1   14 1 21.59                             142     0.1 7  100 182 
 GRA  SZ EP   1   14 1  5.16                             136     0.3 7  123  12 
 GRA  SZ I        14 1 25.83        13.5 0.19                           123  12 
 CHI  HZ EP   1   14 1 17.79                             115    -0.4 6  252 198 
 CHI  HN ES   1   14 1 47.65                             115     0.1 6  252 198 
 CHI  HZ I        14 1 51.06         2.9 0.24                           252 198 
 RREF HZ EP   1   14 1 27.95                             109     0.6 5  330 231 
 RREF HZ I        14 1 56.76         9.8 0.14                           330 231 
                                                                                
