 2012 12 4 1731 53.7 L   6.719 -73.201139.6  RSN  4 0.2 1.8LRSN                1
 GAP=133        0.65       5.8     3.3  6.2 -0.6641E+01  0.7620E+01 -0.6043E+01E
 Epicentro: VILLANUEVA - SANTANDER                                             3
 ACTION:UPD 13-01-04 14:25 OP:ep   STATUS:               ID:20121204173153 L   I
 2012-12-04-1730-00M.COL___232                                                 6
 STAT SP IPHASW D HRMM SECON CODA AMPLIT PERI AZIMU VELO AIN AR TRES W  DIS CAZ7
 BAR2 SZ EP       1732 12.70                             174    0.2310 14.2 172 
 BAR2 SZ ES       1732 27.31                             174    0.2210 14.2 172 
 BAR2 SZ I        1732 29.25        15.7 0.26                          14.2 172 
 PAM  SZ EP       1732 15.98                             146   -0.0210 88.2  39 
 PAM  SN ES       1732 33.13                             146   -0.2410 88.2  39 
 PAM  SN I        1732 34.10        12.8 0.72                          88.2  39 
 PTB  HZ EP       1732 19.41                             132   -0.11 9  140 262 
 PTB  HN ES       1732 39.25                             132   -0.38 9  140 262 
 PTB  HN I        1732 46.31        10.4 0.54                           140 262 
 ZAR  HN ES       1732 50.75                             121    0.34 9  202 295 
 ZAR  HN I        1732 56.33         5.8 0.54                           202 295 
                                                                                
