 2013  8 4 1631 38.2 L   6.812 -73.130149.5  RSN 17 0.5 2.6LRSN                1
 GAP=138        1.19       3.0     4.4  5.2 -0.2054E+01  0.5758E+01  0.1548E+01E
 Epicentro: LOS SANTOS - SANTANDER                                             3
 ACTION:UPD 14-01-14 08:59 OP:ep   STATUS:               ID:20130804163138 L   I
 OLDACT:UP  13-08-04 17:22 OP:cam  STATUS:               ID:20130804162959     3
 OLDACT:REG 13-08-04 15:16 OP:cam  STATUS:               ID:20130804162959     3
 2013-08-04-1629-59M.COL___269                                                 6
 STAT SP IPHASW D HRMM SECON CODA AMPLIT PERI AZIMU VELO AIN AR TRES W  DIS CAZ7
 BAR2 SZ IP     D 1631 58.18                             170   -0.0910 25.0 193 
 BAR2 SZ ES       1632 14.25                             170    0.2910 25.0 193 
 BAR2 SZ I        1632 15.81        57.3 0.18            170           25.0 193 
 GIR2 SZ EP     C 1631 58.28                             168    0.0310 30.3 347 
 GIR2 SZ ES       1632 13.32                             168   -0.6010 30.3 347 
 GIR2 SZ I        1632 15.35        49.3 0.31            166           30.3 347 
 BRR  HZ IP     C 1632  0.08                             153    0.3210 72.1 297 
 BRR  HN ES       1632 17.49                             153    0.8810 72.1 297 
 BRR  HZ I        1632 19.70        56.1 0.16            150           72.1 297 
 PAM  SZ EP       1632  1.12                             152    0.4710 75.3  39 
 PAM  SN ES       1632 18.39                             152    0.2010 75.3  39 
 PAM  SZ I        1632 20.35        69.7 0.46            154           75.3  39 
 RUS  HZ EP     C 1632  1.94                             144   -0.4210  102 177 
 RUS  HN ES       1632 20.83                             144   -0.4110  102 177 
 RUS  HZ I        1632 21.93        35.5 0.66            146            102 177 
 PTB  HZ EP       1632  4.94                             132   -0.67 9  150 258 
 PTB  HN ES       1632 26.53                             132   -0.48 9  150 258 
 PTB  HZ I        1632 28.14        71.4 0.16            132            150 258 
 OCA  HZ EP   1   1632  6.77                             131    0.11 7  159 352 
 OCA  HE ES       1632 28.95                             131    0.06 9  159 352 
 OCA  HZ I        1632 34.09        44.3 0.22            131            159 352 
 SPBC HZ EP       1632  7.16                             129    0.02 9  165 219 
 SPBC HN ES       1632 29.70                             129   -0.05 9  165 219 
 SPBC HZ I        1632 34.19        75.3 0.32            130            165 219 
 ZAR  HZ EP       1632 10.63                             123   -0.33 9  205 292 
 ZAR  HE ES       1632 36.51                             123   -0.04 9  205 292 
 ZAR  HZ I        1632 41.73        65.7 0.30            123            205 292 
 NOR  HZ EP       1632 14.12                             119   -0.22 8  237 234 
 NOR  HE ES       1632 41.87                             119   -0.69 8  237 234 
 NOR  HZ I        1632 49.37        31.3 0.38            119            237 234 
 SML  HZ EP       1632 14.63                             118   -0.31 8  243 335 
 SML  HN ES       1632 43.37                             118   -0.27 8  243 335 
 SML  HZ I        1632 47.61        64.5 0.10            118            243 335 
 CHI  HZ EP       1632 16.29                             118    0.04 8  250 195 
 CHI  HN ES       1632 45.79                             118   -0.18 8  250 195 
 CHI  HZ I        1632 49.57        19.6 0.38            119            250 195 
 ROSC BZ EP       1632 18.42                             117    1.72 8  255 211 
 HEL  HN ES       1632 51.37                             115    0.90 8  274 256 
 HEL  HZ I        1632 56.41        28.8 0.44            115            274 256 
 GUY2CHZ EP       1632 22.56                             113    0.37 7  303 235 
 RREF HZ EP   4   1632 25.79                             111    1.08 0  324 229 
 COD  HZ EP       1632 25.86                             110   -0.69 6  347 354 
 COD  HN ES   4   1633  3.05                             110   -1.25 0  347 354 
 COD  HZ I        1633 10.26         8.6 0.30            110            347 354 
 PRA  HZ EP       1632 32.14                             107    0.10 6  394 210 
 PRA  HN ES   1   1633 14.45                             107    0.38 4  394 210 
 PRA  HZ I        1633 19.78        20.0 0.34            108            394 210 
                                                                                
