 2012  6 4 1834 24.6 L   6.817 -73.201142.6  RSN  6 0.3 1.7LRSN                1
 GAP=129        0.65       3.2     3.9  6.8  0.5578E-01  0.1035E+02 -0.3918E+01E
 Epicentro: ZAPATOCA - SANTANDER                                               3
 ACTION:UPD 12-08-06 17:47 OP:ep   STATUS:               ID:20120604183423 L   I
 2012-06-04-1830-00M.COL___201                                                 6
 STAT SP IPHASW D HRMM SECON CODA AMPLIT PERI AZIMU VELO AIN AR TRES W  DIS CAZ7
 BAR2 SZ EP   1   1834 43.79                             170   -0.11 8 24.9 175 
 BAR2 SZ ES   1   1834 58.53                             170   -0.41 8 24.9 175 
 BAR2 SZ I        1835  0.60        18.8 0.26            170           24.9 175 
 PAM  SZ EP   1   1834 46.95                             149    0.29 8 80.1  44 
 PAM  SN ES   1   1835  3.78                             149   -0.08 8 80.1  44 
 RUS  HZ EP   1   1834 48.48                             142    0.24 7  103 173 
 RUS  HN ES       1835  6.75                             142    0.0910  103 173 
 RUS  HZ I        1835  8.02         7.7 0.25            146            103 173 
 PTB  HZ EP   1   1834 50.83                             132    0.01 7  142 258 
 PTB  HN ES   1   1835 11.41                             132    0.15 7  142 258 
 PTB  HZ I        1835 14.18         4.0 0.08            132            142 258 
 OCA  HN ES   1   1835 14.33                             129    0.17 7  158 355 
 ZAR  HZ EP   1   1834 55.33                             122   -0.87 6  198 292 
 ZAR  HN ES   1   1835 21.22                             122    0.38 6  198 292 
 ZAR  HZ I        1835 30.02         5.0 0.15            123            198 292 
                                                                                
