 2011  9 4 1034 47.6 L   7.406 -73.168127.0  RSN  4 0.1 1.7LRSN                1
 GAP=191        0.35       2.7     5.5  4.6  0.1750E+01 -0.5112E+01 -0.4844E+01E
 Epicentro: EL PLAYON - SANTANDER                                              3
 ACTION:UP  12-07-13 15:55 OP:ep   STATUS:               ID:20110904103447 L   I
 OLDACT:UPD 12-07-12 20:29 OP:ep   STATUS:               ID:20110904103447 L   3
 2011-09-04-1033-07S.COL___170                                                 6
 STAT SP IPHASW D HRMM SECON CODA AMPLIT PERI AZIMU VELO AIN AR TRES W  DIS CAZ7
 GIR2 SZ EP   1   1035  5.25                             163    0.07 7 36.3 184 
 GIR2 SZ ES   1   1035 18.69                             163   -0.23 7 36.3 184 
 BRR  HZ EP   1   1035  6.43                             150   -0.13 7 68.6 241 
 BRR  HZ I        1035  6.68        16.8 0.20                          68.6 241 
 BRR  HN ES   1   1035 21.44                             150    0.07 7 68.6 241 
 BAR2 SZ EP   2   1035  8.35                             142   -0.01 5 90.1 181 
 BAR2 SZ ES   1   1035 24.74                             142    0.16 7 90.1 181 
 BAR2 SZ I        1035 26.07         9.7 0.25                          90.1 181 
 OCA  SZ EP   1   1035  8.50                             141    0.00 7 93.5 350 
 OCA  SZ ES   2   1035 24.99                             141    0.15 5 93.5 350 
 OCA  SZ I        1035 27.39         9.2 0.58                          93.5 350 
                                                                                
