 2013  6 4 1717 13.3 L   6.810 -73.187135.7  RSN  8 0.4 2.0LRSN                1
 GAP=131        0.93       3.3     4.8  6.1 -0.2351E+01  0.9368E+01 -0.2434E+01E
 Epicentro: ZAPATOCA - SANTANDER                                               3
 ACTION:UPD 14-01-08 09:52 OP:ep   STATUS:               ID:20130604171713 L   I
 2013-06-04-1710-00M.COL___257                                                 6
 STAT SP IPHASW D HRMM SECON CODA AMPLIT PERI AZIMU VELO AIN AR TRES W  DIS CAZ7
 BAR2 SZ EP       1717 31.68                             169   -0.0110 24.1 179 
 BAR2 SZ ES       1717 46.16                             169    0.1010 24.1 179 
 BAR2 SZ I        1717 47.49        29.7 0.20            170           24.1 179 
 BRR  HZ IP     C 1717 33.63                             152    0.5710 66.7 300 
 BRR  HN ES   2   1717 49.18                             152    0.68 5 66.7 300 
 BRR  HZ I        1717 52.18        21.0 0.22            151           66.7 300 
 PAM  SZ IP     C 1717 34.78                             148    0.2410 79.5  43 
 PAM  SN ES       1717 51.23                             148    0.0810 79.5  43 
 PAM  SZ I        1717 53.91        13.5 0.58            151           79.5  43 
 RUS  HZ EP       1717 36.14                             141   -0.0010  102 174 
 RUS  HN ES       1717 53.50                             141   -0.4910  102 174 
 RUS  HZ I        1717 55.82         8.2 0.38            143            102 174 
 PTB  HZ EP       1717 38.35                             130   -0.67 9  144 258 
 PTB  HN ES       1717 59.21                             130    0.09 9  144 258 
 PTB  HZ I        1718  2.14        17.3 0.16            131            144 258 
 OCA  HZ EP   2   1717 40.77                             127    0.12 5  159 355 
 OCA  HN ES       1718  1.71                             127   -0.30 9  159 355 
 OCA  HZ I        1718  3.01        14.0 0.38            129            159 355 
 SML  HZ EP       1717 48.50                             116   -0.52 8  241 336 
 SML  HN ES   2   1718 17.03                             116    0.12 4  241 336 
 SML  HZ I        1718 20.90        13.3 0.10            116            241 336 
 PRA  HZ EP       1718  7.38                             105    1.08 6  391 209 
 PRA  HN ES   2   1718 47.95                             105    0.28 3  391 209 
 PRA  HZ I        1718 52.36         2.4 0.34            106            391 209 
                                                                                
