 2013  4 4 1715 11.4 L   6.798 -73.140150.7  RSN  9 0.5 2.0LRSN                1
 GAP=182        0.92       3.5     6.4  8.4 -0.1200E+01 -0.2722E+01 -0.1474E+01E
 Epicentro: LOS SANTOS - SANTANDER                                             3
 ACTION:UPD 13-05-22 14:35 OP:EP   STATUS:               ID:20130404171511 L   I
 2013-04-04-1710-00M.COL___245                                                 6
 STAT SP IPHASW D HRMM SECON CODA AMPLIT PERI AZIMU VELO AIN AR TRES W  DIS CAZ7
 BAR2 SZ EP       1715 31.68                             171    0.0410 23.3 192 
 BRR  HZ IP     C 1715 33.58                             153    0.4410 71.8 298 
 BRR  HN ES   1   1715 51.08                             153    1.00 7 71.8 298 
 BRR  HZ I        1715 57.21        18.1 0.24            151           71.8 298 
 RUS  HZ EP   1   1715 35.36                             145   -0.28 7  100 176 
 RUS  HN ES   1   1715 54.20                             145   -0.34 7  100 176 
 RUS  HZ I        1715 55.53         8.3 0.24            148            100 176 
 PTB  HZ EP   1   1715 38.28                             133   -0.56 7  148 259 
 PTB  HN ES   1   1715 59.54                             133   -0.70 7  148 259 
 PTB  HZ I        1716  5.51        10.7 0.20            133            148 259 
 OCA  HE ES   1   1716  1.80                             131   -0.74 7  161 353 
 OCA  HZ I        1716  7.42        14.5 0.34            134            161 353 
 ZAR  HZ EP   2   1715 44.44                             123    0.19 4  205 292 
 ZAR  HN ES   2   1716 10.26                             123    0.40 4  205 292 
 ZAR  HZ I        1716 16.72        13.6 0.26            124            205 292 
 NOR  HZ EP   1   1715 47.71                             120    0.23 6  235 235 
 NOR  HN ES   1   1716 15.23                             120   -0.38 6  235 235 
 NOR  HZ I        1716 20.89         7.9 0.20            121            235 235 
 CHI  HZ EP   1   1715 49.98                             118    0.59 6  249 195 
 CHI  HN ES   1   1716 19.18                             118    0.16 6  249 195 
 CHI  HZ I        1716 28.86         3.9 0.44            121            249 195 
 COD  HZ EP   1   1716  0.21                             110    0.19 5  348 355 
 COD  HN ES       1716 37.72                             110   -0.21 6  348 355 
                                                                                
