 2012  7 4 1953 49.7 L   6.781 -73.169147.1  RSN  6 0.3 1.6LRSN                1
 GAP=134        0.80       5.4     4.7  7.8  0.2338E+01  0.6817E+01  0.6215E+00E
 Epicentro: LOS SANTOS - SANTANDER                                             3
 ACTION:UPD 12-08-14 11:42 OP:ep   STATUS:               ID:20120704195349 L   I
 2012-07-04-1950-00M.COL___200                                                 6
 STAT SP IPHASW D HRMM SECON CODA AMPLIT PERI AZIMU VELO AIN AR TRES W  DIS CAZ7
 BAR2 SZ EP   1   1954  9.64                             172     0.2 7   21 184 
 BAR2 SZ ES   1   1954 24.72                             172    -0.2 7   21 184 
 BAR2 SZ I        1954 26.19        12.4 0.20            171             21 184 
 BRR  HZ EP   1   1954 11.05                             153     0.1 7   70 301 
 BRR  HZ I        1954 16.02        13.3 0.31            151             70 301 
 BRR  HN ES   1   1954 28.17                             153     0.6 7   70 301 
 PAM  SZ EP   1   1954 12.56                             150     0.3 7   81  40 
 PAM  SN ES   1   1954 29.34                             150    -0.6 7   81  40 
 RUS  HZ EP   1   1954 13.46                             145     0.0 7   99 174 
 RUS  HN ES   1   1954 32.24                             145     0.2 7   99 174 
 RUS  HZ I        1954 33.49         2.9 0.44            144             99 174 
 PTB  HZ EP   1   1954 16.30                             133    -0.3 7  145 259 
 PTB  HN ES   1   1954 36.93                             133    -0.5 7  145 259 
 PTB  HZ I        1954 39.96         4.1 0.16            131            145 259 
 ZAR  HN ES   1   1954 47.45                             123     0.1 6  202 293 
