 2012  6 4 1303 19.1 L   6.775 -73.157138.8  RSN  8 0.4 2.1LRSN                1
 GAP=136        0.76       3.3     4.2  6.9 -0.2037E+01  0.1159E+02  0.4552E+01E
 Epicentro: LOS SANTOS - SANTANDER                                             3
 ACTION:UPD 12-08-06 17:47 OP:ep   STATUS:               ID:20120604130319 L   I
 2012-06-04-1300-00M.COL___201                                                 6
 STAT SP IPHASW D HRMM SECON CODA AMPLIT PERI AZIMU VELO AIN AR TRES W  DIS CAZ7
 BAR2 SZ EP   1   13 3 38.01                             171    0.15 7 20.4 188 
 BAR2 SZ ES   1   13 3 52.46                             171   -0.02 7 20.4 188 
 BAR2 SZ I        13 3 54.46        51.3 0.20            169           20.4 188 
 PAM  SZ EP   1   13 3 40.91                             148    0.12 7 80.3  39 
 PAM  SZ I        13 3 41.25        33.8 0.20            151           80.3  39 
 PAM  SN ES       13 3 57.53                             148   -0.1610 80.3  39 
 RUS  HZ EP   1   13 3 42.13                             143    0.13 7 97.9 175 
 RUS  HZ I        13 3 43.32        11.2 0.15            144           97.9 175 
 RUS  HN ES   1   13 3 59.84                             143   -0.01 7 97.9 175 
 PTB  HZ EP   1   13 3 44.75                             131   -0.62 7  146 260 
 PTB  HN ES   1   13 4  5.28                             131   -0.57 7  146 260 
 PTB  HZ I        13 4 10.14         8.6 0.11            128            146 260 
 OCA  HE ES   1   13 4  9.56                             127    0.54 7  163 354 
 OCA  HZ I        13 4 12.82        35.8 0.13            127            163 354 
 ZAR  HN ES   1   13 4 16.06                             121   -0.01 6  204 293 
 ZAR  HZ I        13 4 24.41        10.5 0.30            119            204 293 
 NOR  SZ EP   1   13 3 54.25                             117    0.08 6  232 235 
 NOR  SN ES   1   13 4 22.48                             117    0.97 6  232 235 
 CHI  HZ EP   1   13 3 55.51                             116   -0.61 6  246 195 
 CHI  HN ES   1   13 4 25.33                             116    0.36 6  246 195 
 CHI  HZ I        13 4 31.59         3.9 0.35            116            246 195 
                                                                                
