 2013  9 4 1156 23.0 L   6.794 -73.136146.0  RSN 10 0.5 2.0LRSN                1
 GAP=138        0.95       3.4     5.2  6.0  0.4051E+01  0.2768E+01 -0.1242E+01E
 Epicentro: LOS SANTOS - SANTANDER                                             3
 ACTION:UPD 13-10-22 09:20 OP:ep   STATUS:               ID:20130904115623 L   I
 OLDACT:DUP 13-09-04 19:14 OP:mh   STATUS:               ID:20130904114960d    3
 OLDACT:REG 13-09-04 14:33 OP:mh   STATUS:               ID:20130904114959     3
 2013-09-04-1149-59M.COL___269                                                 6
 STAT SP IPHASW D HRMM SECON CODA AMPLIT PERI AZIMU VELO AIN AR TRES W  DIS CAZ7
 BAR2 SZ EP       1156 42.75                             171    0.1410 22.9 193 
 BAR2 SZ ES   1   1156 58.15                             171    0.22 7 22.9 193 
 BAR2 SZ I        1157  0.31        15.2 0.28            167           22.9 193 
 BRR  HZ EP   1   1156 44.59                             152    0.38 7 72.5 299 
 BRR  HN ES       1157  1.68                             152    0.9010 72.5 299 
 BRR  HZ I        1157  4.31        11.8 0.42            151           72.5 299 
 PAM  SZ EP   1   1156 45.49                             151    0.30 7 77.2  39 
 PAM  SN ES   2   1157  2.08                             151   -0.45 5 77.2  39 
 PAM  SZ I        1157  4.72        13.5 0.20            157           77.2  39 
 RUS  HZ EP       1156 46.57                             144   -0.1110 99.8 177 
 RUS  HN ES       1157  4.73                             144   -0.4510 99.8 177 
 RUS  HZ I        1157  6.04         4.0 0.36            144           99.8 177 
 PTB  HZ EP   1   1156 49.46                             132   -0.57 7  149 259 
 PTB  HN ES   2   1157 10.34                             132   -0.81 5  149 259 
 PTB  HZ I        1157 16.48        16.1 0.26            131            149 259 
 SPBC HZ EP   1   1156 51.66                             129    0.17 7  163 219 
 SPBC HN ES       1157 13.45                             129   -0.29 9  163 219 
 SPBC HN I        1157 20.01        36.7 0.40            129            163 219 
 ZAR  HZ EP   1   1156 55.47                             123   -0.08 6  205 292 
 ZAR  HN ES       1157 21.06                             123    0.09 8  205 292 
 SML  HZ EP       1156 59.56                             118   -0.16 8  245 335 
 SML  HN ES       1157 27.55                             118   -0.84 8  245 335 
 SML  HZ I        1157 31.31        16.9 0.10            119            245 335 
 CHI  HZ EP       1157  0.75                             118    0.12 8  248 195 
 CHI  HE ES   2   1157 30.76                             118    0.75 4  248 195 
 CHI  HZ I        1157 37.83         3.1 0.28            118            248 195 
 GUY2CHZ EP   4   1157  7.69                             113    1.06 0  302 235 
 GUY2CHN ES   4   1157 43.87                             113    3.17 0  302 235 
 PRA  HZ EP   1   1157 17.12                             107    0.64 4  392 210 
 PRA  HN ES   4   1157 59.81                             107    1.59 0  392 210 
 PRA  HZ I        1158  4.46         4.2 0.34            107            392 210 
                                                                                
