 2017  2 4 1315 53.8 L   6.760 -73.140151.1  RSN  6 0.4 1.6LRSN                1
 GAP=139        0.86       4.6     4.6  6.7  0.3716E+01  0.4226E+01 -0.1670E+00E
 Epicentro: LOS SANTOS - SANTANDER                                             3
 ACTION:UPD 17-05-24 15:32 OP:jn   STATUS:               ID:20170204131553 L   I
 OLDACT:REG 17-02-04 21:08 OP:ar   STATUS:               ID:20170204130746     3
 2017-02-04-1308-00M.COL___346                                                 6
 STAT SP IPHASW D HRMM SECON CODA AMPLIT PERI AZIMU VELO AIN AR TRES W  DIS CAZ7
 BAR2 EZ EP       1316 13.80                             172   -0.1910 19.2 194 
 BAR2 EZ ES       1316 29.83                             172    0.0910 19.2 194 
 BAR2 EZ I        1316 30.57         9.3 0.58            172           19.2 194 
 BRR  HZ EP       1316 15.98                             153    0.3110 73.9 301 
 BRR  HN ES       1316 33.37                             153    0.6410 73.9 301 
 PAM  EZ EP       1316 16.87                             151    0.1210 80.4  37 
 PAM  EN ES       1316 34.28                             151   -0.3810 80.4  37 
 PAM  EZ I        1316 34.75         5.3 0.36            152           80.4  37 
 RUS  HZ EP       1316 17.83                             146    0.0710 96.2 176 
 RUS  HN ES       1316 36.29                             146   -0.1710 96.2 176 
 RUS  HZ I        1316 37.26         4.0 0.24            147           96.2 176 
 PTB  HZ EP   2   1316 21.54                             133    0.36 5  148 261 
 PTB  HN ES   2   1316 41.98                             133   -0.57 5  148 261 
 PTB  HZ I        1316 43.46         6.3 0.14            132            148 261 
 ZAR  HE ES       1316 51.97                             123   -0.61 8  206 293 
 ZAR  HZ I        1316 57.48         6.5 0.30            122            206 293 
                                                                                
