 2015  5 4 1314 19.6 L   6.799 -73.115153.0  RSN  6 0.5 1.8LRSN                1
 GAP=203        1.22       5.3     8.6  8.3  0.1816E+02  0.5566E+01 -0.1018E+02E
 Epicentro: LOS SANTOS - SANTANDER                                             3
 ACTION:UPD 15-09-10 22:01 OP:cam  STATUS:               ID:20150504131419 L   I
 OLDACT:REG 15-05-04 22:17 OP:stll STATUS:               ID:20150504130750     3
 2015-05-04-1307-50M.COL___274                                                 6
 STAT SP IPHASW D HRMM SECON CODA AMPLIT PERI AZIMU VELO AIN AR TRES W  DIS CAZ7
 BAR2 EZ EP     C 1314 40.31                             171    0.2110 24.1 198 
 BAR2 EZ I        1314 40.59        10.6 0.10            168           24.1 198 
 BAR2 EZ ES       1314 56.37                             171    0.2710 24.1 198 
 BRR  HZ EP       1314 42.29                             153    0.6010 74.2 297 
 BRR  HN ES       1314 59.43                             153    0.5010 74.2 297 
 RUS  HZ EP       1314 43.93                             145   -0.1010  100 178 
 RUS  HN ES       1315  2.39                             145   -0.7210  100 178 
 RUS  HZ I        1315  3.85         4.5 0.20            146            100 178 
 SPBC HZ EP       1314 49.35                             130    0.51 9  165 220 
 SPBC HN ES       1315 11.11                             130   -0.55 9  165 220 
 SPBC HZ I        1315 13.41        10.8 0.22            129            165 220 
 ZAR  HZ EP       1314 53.05                             124    0.22 8  207 292 
 ZAR  HN ES       1315 18.59                             124   -0.18 8  207 292 
 ZAR  HZ I        1315 25.34         5.8 0.16            122            207 292 
 SML  HZ EP       1314 56.60                             119   -0.19 8  245 335 
 SML  HN ES       1315 24.77                             119   -1.04 8  245 335 
 SML  HZ I        1315 27.77         5.4 0.26            118            245 335 
                                                                                
