 2010  4 4 1641 22.4 L   6.788 -73.049137.4  RSN  7 0.4 2.4LRSN                1
 GAP=208        0.65       4.2     8.9  7.2 -0.7695E+01  0.1214E+02  0.8388E+01E
 Epicentro: LOS SANTOS - SANTANDER                                             3
 ACTION:UPD 10-08-24 09:57 OP:vdl  STATUS:               ID:20100404164122 L   I
 2010-04-04-1639-47S.COL___098                                                 6
 STAT SP IPHASW D HRMM SECON CODA AMPLIT PERI AZIMU VELO AIN AR TRES W  DIS CAZ7
 BAR2 SZ IP       1641 41.30                             168     0.210   26 214 
 BAR2 SZ ES   2   1641 55.70                             168     0.0 5   26 214 
 BRR  HZ IP       1641 43.35                             148     0.010   81 296 
 BRR  HZ I        1641 43.85        51.4 0.21                            81 296 
 BRR  HE ES   2   1641 59.98                             148     0.4 5   81 296 
 OCA  SZ EP   1   1641 50.21                             127    -0.2 7  163 349 
 OCA  SZ ES   2   1642 11.36                             127    -0.8 5  163 349 
 OCA  SZ I        1642 14.66        43.8 0.44                           163 349 
 CHI  HZ EP   1   1641 59.79                             115    -0.1 6  250 198 
 CHI  HE ES   2   1642 28.90                             115    -0.2 4  250 198 
 CHI  HZ I        1642 34.97         7.3 0.50                           250 198 
 HEL  HZ EP   1   1642  3.55                             112     0.2 6  282 257 
 HEL  HZ I        1642 39.78        11.3 0.56                           282 257 
 RREF BZ EP   1   1642  9.76                             109     0.7 5  329 231 
 RREF BN ES   2   1642 44.96                             109    -0.5 3  329 231 
 RREF BZ I        1642 51.44        10.8 0.41                           329 231 
 PRA  HZ EP   1   1642 15.91                             105    -0.3 4  396 211 
 PRA  HN ES   2   1642 57.12                             105    -1.0 3  396 211 
 PRA  HZ I        1643  6.02         8.7 0.22                           396 211 
                                                                                
