 2013 11 4 1229 19.9 L   6.799 -73.144147.8  RSN  9 0.5 2.1LRSN                1
 GAP=137        1.36       4.5     5.6  8.0 -0.2884E+01  0.1179E+02 -0.2073E+01E
 Epicentro: LOS SANTOS - SANTANDER                                             3
 ACTION:UPD 14-01-09 16:25 OP:ep   STATUS:               ID:20131104122919 L   I
 OLDACT:REG 13-11-04 17:38 OP:jn   STATUS:               ID:20131104122743     3
 2013-11-04-1227-43M.COL___214                                                 6
 STAT SP IPHASW D HRMM SECON CODA AMPLIT PERI AZIMU VELO AIN AR TRES W  DIS CAZ7
 BAR2 SZ EP       1229 39.93                             171    0.1310 23.3 191 
 BAR2 SZ ES       1229 54.87                             171   -0.4310 23.3 191 
 BAR2 SZ I        1229 56.61        37.1 0.24            169           23.3 191 
 BRR  HZ EP       1229 41.97                             153    0.6610 71.4 299 
 BRR  HN ES       1229 59.06                             153    1.0810 71.4 299 
 BRR  HZ I        1230  2.33        13.3 0.32            151           71.4 299 
 PAM  SZ EP       1229 42.69                             151    0.3310 77.3  39 
 PAM  SN ES       1229 59.69                             151   -0.1610 77.3  39 
 PAM  SZ I        1230  2.07        17.4 0.22            156           77.3  39 
 RUS  HZ EP       1229 43.80                             144   -0.0710  100 176 
 RUS  HN ES       1230  2.02                             144   -0.5210  100 176 
 RUS  HZ I        1230  3.94        10.0 0.34            146            100 176 
 PTB  HZ EP       1229 46.60                             132   -0.48 9  148 259 
 PTB  HN ES       1230  7.36                             132   -0.89 9  148 259 
 PTB  HZ I        1230 13.87        15.2 0.50            132            148 259 
 SPBC HZ EP       1229 48.94                             129    0.35 9  163 219 
 SPBC HN ES       1230 11.55                             129    0.61 9  163 219 
 SPBC HZ I        1230 15.98        23.2 0.20            130            163 219 
 ZAR  HE ES       1230 18.33                             123    0.37 9  204 292 
 NOR  HZ EP       1229 55.94                             119    0.15 8  235 235 
 NOR  HN ES       1230 23.44                             119   -0.32 8  235 235 
 NOR  HZ I        1230 31.10        10.3 0.24            120            235 235 
 SML  HZ EP       1229 56.34                             118   -0.35 8  244 335 
 SML  HN ES       1230 24.47                             118   -0.89 8  244 335 
 SML  HZ I        1230 28.99        26.0 0.24            120            244 335 
                                                                                
