 2011  7 4 1911 53.4 L   6.771 -73.101141.3  RSN  7 0.2 1.8LRSN                1
 GAP=144        0.51       2.7     3.4  4.4 -0.3912E+01 -0.5706E+00  0.8968E+00E
 Epicentro: LOS SANTOS - SANTANDER                                             3
 ACTION:UPD 12-07-25 13:58 OP:epov STATUS:               ID:20110704191153 L   I
 2011-07-04-1907-47S.COL___139                                                 6
 STAT SP IPHASW D HRMM SECON CODA AMPLIT PERI AZIMU VELO AIN AR TRES W  DIS CAZ7
 PAM  SZ EP       1912 15.29                             150    0.1710 76.9  35 
 PAM  SN ES   1   1912 31.87                             150   -0.18 7 76.9  35 
 BRR  HZ EP       1912 14.28                             150   -0.1410 77.0 299 
 BRR  HN ES       1912 30.94                             150    0.1310 77.0 299 
 BRR  HZ I        1912 35.24        21.4 0.10                          77.0 299 
 RUS  HZ EP   1   1912 16.51                             144    0.04 7 97.2 179 
 RUS  HN ES   1   1912 34.60                             144    0.14 7 97.2 179 
 RUS  HZ I        1912 36.43         4.8 0.26                          97.2 179 
 BRI  SZ EP       1912 16.93                             140   -0.0510  110  18 
 GRA  SZ EP   1   1912 18.01                             136   -0.39 7  127  15 
 GRA  SZ ES   1   1912 37.76                             136   -0.12 7  127  15 
 GRA  SZ I        1912 39.87        12.2 0.39                           127  15 
 OCA  SZ EP   1   1912 22.32                             128    0.58 7  164 352 
 NOR  SZ EP   1   1912 29.10                             117   -0.02 6  237 236 
 NOR  SE ES   1   1912 56.69                             117   -0.29 6  237 236 
                                                                                
