 2012  8 4 1839 45.8 L   6.765 -73.139144.9  RSN  5 0.3 1.6LRSN                1
 GAP=139        0.58       4.8     5.1  5.6  0.2992E+01  0.5925E-01  0.2079E+00E
 Epicentro: LOS SANTOS - SANTANDER                                             3
 ACTION:UPD 12-09-10 11:54 OP:ep   STATUS:               ID:20120804183945 L   I
 2012-08-04-1839-48M.COL___212                                                 6
 STAT SP IPHASW D HRMM SECON CODA AMPLIT PERI AZIMU VELO AIN AR TRES W  DIS CAZ7
 BAR2 SZ EP       1840  5.36                             172    0.0810 19.7 194 
 BAR2 SZ I        1840  5.69        13.9 0.36                          19.7 194 
 BAR2 SZ ES   1   1840 20.17                             172   -0.28 7 19.7 194 
 BRR  HZ EP       1840  7.15                             152    0.1310 73.8 301 
 BRR  HZ I        1840  7.30        22.4 0.16                          73.8 301 
 BRR  HN ES   1   1840 23.98                             152    0.42 7 73.8 301 
 PAM  SZ EP       1840  7.96                             150   -0.1410 79.9  37 
 PAM  SN ES   3   1840 24.98                             150   -0.49 2 79.9  37 
 PAM  SZ I        1840 27.57         5.5 0.62                          79.9  37 
 RUS  HZ EP       1840  9.47                             145    0.2710 96.6 176 
 RUS  HE ES   2   1840 27.35                             145   -0.09 5 96.6 176 
 RUS  HZ I        1840 29.89         2.5 0.14                          96.6 176 
 PTB  HZ EP       1840 12.36                             132   -0.36 9  148 260 
 PTB  HN ES   3   1840 32.96                             132   -0.75 2  148 260 
 PTB  HZ I        1840 35.90         4.8 0.14                           148 260 
                                                                                
