 2010 10 4 1811  8.0 L   6.844 -73.084141.0  RSN  5 0.2 1.9LRSN                1
 GAP=171        0.65       4.6     9.2  7.8  0.2427E+02 -0.4325E+02 -0.1840E+02E
 Epicentro: LOS SANTOS - SANTANDER                                             3
 ACTION:UP  11-02-18 11:07 OP:tino STATUS:               ID:20101004181108 L   I
 2010-10-04-1808-02S.COL___125                                                 6
 STAT SP IPHASW D HRMM SECON CODA AMPLIT PERI AZIMU VELO SNR AR TRES W  DIS CAZ7
 BTL  SZ EP       1811 27.30                             171     0.310   22 292 
 BAR2 SZ EP   1   1811 26.75                             167    -0.4 7   30 202 
 BAR2 SZ ES   1   1811 41.90                             167    -0.3 7   30 202 
 BAR2 SZ I        1811 43.00        21.5 0.25                            30 202 
 BRR  HZ EP       1811 28.63                             150    -0.210   75 293 
 BRR  HZ I        1811 28.77        30.8 0.23                            75 293 
 BRR  HE ES       1811 45.24                             150     0.110   75 293 
 RUS  HZ EP       1811 31.65                             142     0.010  105 180 
 RUS  HN ES       1811 50.13                             142     0.110  105 180 
 RUS  HZ I        1811 51.73         5.7 0.53                           105 180 
 GUE  SZ EP       1811 31.81                             140     0.110  110   9 
                                                                                
