 2012 11 4 1142 37.3 L   6.766 -73.124143.2  RSN  7 0.5 1.9LRSN                1
 GAP=141        1.08       4.3     5.6  7.6  0.2684E+01  0.8867E+01  0.8611E+01E
 Epicentro: LOS SANTOS - SANTANDER                                             3
 ACTION:UPD 12-12-05 15:31 OP:}ep  STATUS:               ID:20121104114237 L   I
 2012-11-04-1140-00M.COL___229                                                 6
 STAT SP IPHASW D HRMM SECON CODA AMPLIT PERI AZIMU VELO AIN AR TRES W  DIS CAZ7
 BAR2 SZ EP       1142 56.59                             172   -0.0110 20.2 199 
 BAR2 SZ ES       1143 10.94                             172   -0.6810 20.2 199 
 BAR2 SZ I        1143 13.29        20.9 0.24                          20.2 199 
 BRR  HZ EP       1142 58.51                             151    0.0710 75.2 300 
 BRR  HN ES       1143 15.41                             151    0.5110 75.2 300 
 BRR  HN I        1143 16.02        23.5 0.32                          75.2 300 
 PAM  SZ EP       1142 59.45                             150    0.0810 78.9  36 
 PAM  SN ES       1143 16.45                             150   -0.1110 78.9  36 
 PAM  SN I        1143 18.75        10.8 0.54                          78.9  36 
 RUS  HZ EP       1143  0.58                             144    0.0210 96.6 177 
 RUS  HN ES       1143 19.36                             144    0.7010 96.6 177 
 RUS  HN I        1143 20.91        12.6 0.34                          96.6 177 
 ZAR  HN ES       1143 34.90                             121   -0.57 8  208 293 
 ZAR  HN I        1143 39.59         6.0 0.14                           208 293 
 CHI  HZ EP       1143 14.82                             117    0.25 8  246 196 
 CHI  HN ES       1143 42.91                             117   -0.69 8  246 196 
 CHI  HN I        1143 48.87         4.1 0.62                           246 196 
 HEL  HN ES   2   1143 49.77                             114    0.80 4  273 257 
                                                                                
