 2016 11 4 1232 39.6 L   6.967 -73.227143.3  RSN  5 0.3 2.1LRSN                1
 GAP=282        0.77       5.9     5.2  6.1 -0.3452E+01  0.5546E+01  0.4812E+01E
 Epicentro: BETULIA - SANTANDER                                                3
 ACTION:UPD 17-10-26 21:04 OP:lp   STATUS:               ID:20161104123239 L   I
 OLDACT:REG 16-11-04 20:12 OP:cog  STATUS:               ID:20161104122747     3
 2016-11-04-1228-00M.COL___340                                                 6
 STAT SP IPHASW D HRMM SECON CODA AMPLIT PERI AZIMU VELO AIN AR TRES W  DIS CAZ7
 BAR2 EZ EP       1232 59.61                             163    0.1210 41.7 173 
 BAR2 EZ ES       1233 14.99                             163    0.0210 41.7 173 
 BAR2 EZ I        1233 16.36        20.3 0.30            162           41.7 173 
 PTB  HZ EP       1233  6.41                             132    0.36 9  144 251 
 PTB  HE ES       1233 26.58                             132   -0.08 9  144 251 
 PTB  HZ I        1233 33.52        12.8 0.26            131            144 251 
 SPBC HZ EP       1233  8.61                             127   -0.27 9  173 213 
 SPBC HN ES       1233 31.23                             127   -0.47 9  173 213 
 SPBC HZ I        1233 37.79        25.8 0.34            127            173 213 
 NOR  HZ EP       1233 15.69                             117    0.01 8  239 230 
 NOR  HE ES       1233 43.98                             117    0.18 8  239 230 
 NOR  HZ I        1233 47.36         9.2 0.20            118            239 230 
 CHI  HZ EP       1233 18.44                             115   -0.50 8  264 192 
 CHI  HN ES       1233 50.24                             115    0.65 8  264 192 
 CHI  HZ I        1233 51.04         4.4 0.38            117            264 192 
                                                                                
