 2012  6 4 1613 15.5 L   6.775 -73.162138.8  RSN 10 0.3 2.1LRSN                1
 GAP=136        0.61       2.4     3.0  5.0  0.3094E-01  0.6592E+01  0.1517E+01E
 Epicentro: LOS SANTOS - SANTANDER                                             3
 ACTION:UPD 12-08-06 17:47 OP:ep   STATUS:               ID:20120604161314 L   I
 2012-06-04-1610-00M.COL___201                                                 6
 STAT SP IPHASW D HRMM SECON CODA AMPLIT PERI AZIMU VELO AIN AR TRES W  DIS CAZ7
 BAR2 SZ EP   1   1613 34.29                             171    0.08 9 20.4 186 
 BAR2 SZ ES   1   1613 48.37                             171   -0.45 9 20.4 186 
 BAR2 SZ I        1613 50.97        43.7 0.18            169           20.4 186 
 PAM  SZ EP   1   1613 37.27                             148    0.11 9 80.6  39 
 PAM  SN ES   1   1613 53.98                             148   -0.10 9 80.6  39 
 PAM  SZ I        1613 56.30        17.4 0.20            154           80.6  39 
 RUS  HZ EP   1   1613 38.27                             143   -0.09 9 98.0 175 
 RUS  HN ES   1   1613 56.69                             143    0.48 9 98.0 175 
 RUS  HZ I        1613 58.68        20.3 0.32            146           98.0 175 
 PTB  HZ EP   1   1613 41.14                             131   -0.53 8  145 260 
 PTB  HN ES   1   1614  2.09                             131   -0.02 8  145 260 
 PTB  HZ I        1614  8.90        13.2 0.17            131            145 260 
 OCA  HN ES   1   1614  5.74                             127    0.39 8  163 354 
 ZAR  HZ EP   1   1613 46.79                             121   -0.62 7  203 293 
 ZAR  HN ES       1614 12.47                             121    0.1510  203 293 
 ZAR  HZ I        1614 17.92        21.5 0.19            122            203 293 
 NOR  SZ EP   1   1613 50.49                             117    0.01 7  232 235 
 NOR  SE ES   1   1614 17.73                             117   -0.05 7  232 235 
 CHI  HZ EP   1   1613 52.39                             116   -0.07 7  246 195 
 CHI  HZ I        1613 54.64         7.5 0.10            119            246 195 
 CHI  HN ES       1614 21.32                             116    0.02 9  246 195 
 HEL  HZ EP   1   1613 55.77                             114    0.69 7  270 256 
 HEL  HE ES   1   1614 26.16                             114    0.20 7  270 256 
 HEL  HZ I        1614 33.85        12.9 0.42            115            270 256 
 DBB  SZ EP   1   1614  2.35                             108   -0.15 6  338 275 
                                                                                
