 2010  9 4 1515 13.8 L   6.754 -73.135148.3  RSN 10 0.4 2.0LRSN                1
 GAP=160        1.00       4.0     9.3  7.7 -0.1026E+02  0.1192E+01  0.1130E+01E
 Epicentro: LOS SANTOS - SANTANDER                                             3
 ACTION:UP  11-02-18 11:00 OP:tino STATUS:               ID:20100904151513 L   I
 2010-09-04-1510-23S.COL___120                                                 6
 STAT SP IPHASW D HRMM SECON CODA AMPLIT PERI AZIMU VELO SNR AR TRES W  DIS CAZ7
 BAR2 SZ IP       1515 33.51                             172    -0.110   19 197 
 BAR2 SZ ES   1   1515 48.46                             172    -0.7 7   19 197 
 BAR2 SZ I        1515 49.74        28.3 0.31                            19 197 
 GIR2 SZ EP   2   1515 33.63                             165    -0.3 5   37 350 
 BRR  HZ IP     C 1515 35.37                             152     0.010   75 302 
 BRR  HZ I        1515 35.71        50.2 0.11                            75 302 
 BRR  HN ES   1   1515 52.76                             152     0.5 7   75 302 
 RUS  HZ EP       1515 37.72                             146     0.310   95 177 
 RUS  HE ES   1   1515 56.12                             146     0.3 7   95 177 
 RUS  HZ I        1515 56.97        12.8 0.58                            95 177 
 GUE  SZ EP   1   1515 38.38                             139    -0.7 7  121  11 
 GUE  SZ I        1515 39.56         5.7 0.09                           121  11 
 GRA  SZ IP       1515 40.30                             136     0.710  130  16 
 GRA  SZ ES   1   1515 59.96                             136     0.2 7  130  16 
 GRA  SZ I        1516  1.00        12.6 0.27                           130  16 
 OCA  SZ EP   1   1515 42.11                             129    -0.7 7  165 353 
 OCA  SZ ES   1   1516  5.34                             129    -0.1 7  165 353 
 OCA  SZ I        1516  9.76        12.6 0.30                           165 353 
 CHI  HZ EP   2   1515 51.13                             118     0.0 4  244 196 
 CHI  HZ I        1515 54.18         5.3 0.56                           244 196 
 CHI  HN ES   2   1516 19.66                             118    -0.6 4  244 196 
 RREF HZ EP   2   1515 59.89                             111     0.1 3  319 230 
 RREF HE ES   2   1516 35.80                             111     0.2 3  319 230 
 RREF HZ I        1516 42.43         6.0 0.24                           319 230 
 PRA  HZ EP   1   1516  7.43                             107     0.5 4  388 210 
 PRA  HN ES   2   1516 47.71                             107    -0.7 3  388 210 
 PRA  HZ I        1516 55.22         4.4 0.72                           388 210 
                                                                                
