 2014  7 4 1010  5.9 L   6.796 -72.907107.7  RSN  4 0.4 1.3LRSN                1
 GAP=256        1.00       5.1     8.7  9.8 -0.1110E+02  0.1725E+02 -0.1801E+02E
 Epicentro: SAN ANDRES - SANTANDER                                             3
 OLDACT:UP  14-07-04 22:09 OP:spq  STATUS:               ID:20140704100813     3
 OLDACT:UP  14-07-04 21:02 OP:spq  STATUS:               ID:20140704100813     3
 OLDACT:UP  14-07-04 19:30 OP:spq  STATUS:               ID:20140704100813     3
 OLDACT:REG 14-07-04 17:16 OP:spq  STATUS:               ID:20140704100813     3
 ACTION:UPD 15-03-16 20:41 OP:nd   STATUS:               ID:20140704101005 L   I
 OLDACT:DUP 14-07-05 00:26 OP:spq  STATUS:               ID:20140704100814d    3
 OLDACT:UP  14-07-04 22:23 OP:spq  STATUS:               ID:20140704100813     3
 2014-07-04-1008-13M.COL___253                                                 6
 STAT SP IPHASW D HRMM SECON CODA AMPLIT PERI AZIMU VELO AIN AR TRES W  DIS CAZ7
 BAR2 SZ EP       1010 20.89                             159   -0.5910 37.9 234 
 BAR2 SZ ES   1   1010 34.03                             159    0.40 7 37.9 234 
 BAR2 SZ I        1010 42.22         3.0 0.18            164           37.9 234 
 PTB  HZ EP       1010 32.32                             117   -0.50 9  174 261 
 PTB  HN ES       1010 53.58                             117   -0.24 9  174 261 
 PTB  HZ I        1010 54.77         1.9 0.18            126            174 261 
 SPBC HZ EP       1010 34.34                             116    0.66 9  181 226 
 SPBC HE ES       1010 55.54                             116    0.19 9  181 226 
 SPBC HZ I        1011  2.59         4.9 0.10            125            181 226 
 SML  HZ EP       1010 42.34                             107    0.18 8  256 330 
 SML  HN ES       1011 10.75                             107    0.30 8  256 330 
 SML  HZ I        1011 13.16         1.7 0.03            116            256 330 
                                                                                
