 2014  7 4 1051 55.8 L   6.593 -73.591 90.0  RSN  8 0.5 1.4LRSN                1
 GAP=114        1.08       3.5     4.7  9.0 -0.7491E+01  0.1477E+02 -0.8176E+01E
 Epicentro: EL CARMEN - SANTANDER                                              3
 ACTION:UPD 15-03-16 20:41 OP:nd   STATUS:               ID:20140704105155 L   I
 OLDACT:REG 14-07-04 17:26 OP:spq  STATUS:               ID:20140704104818     3
 2014-07-04-1048-18M.COL___247                                                 6
 STAT SP IPHASW D HRMM SECON CODA AMPLIT PERI AZIMU VELO AIN AR TRES W  DIS CAZ7
 BAR2 SZ IP     C 1052 10.03                             152    0.2810 45.2  90 
 BAR2 SZ ES   1   1052 20.54                             152   -0.11 7 45.2  90 
 BAR2 SZ I        1052 24.19        16.5 0.46            152           45.2  90 
 PTB  HZ IP     C 1052 12.91                             130   -0.5710 95.9 267 
 PTB  HN ES       1052 27.60                             130    0.3010 95.9 267 
 PTB  HZ I        1052 28.66         3.2 0.10            131           95.9 267 
 SPBC HZ EP       1052 15.10                             124   -0.5710  117 207 
 SPBC HN ES       1052 31.09                             124   -0.1010  117 207 
 SPBC HZ I        1052 37.38         4.0 0.15            124            117 207 
 OCA  HN ES       1052 45.04                             111    0.45 9  184   9 
 OCA  HZ I        1052 48.23         3.1 0.35            113            184   9 
 HEL  HN ES       1052 51.76                             108   -0.46 8  219 258 
 HEL  HZ I        1052 58.12         2.1 0.56            109            219 258 
 GUY2CHZ EP       1052 31.80                             106    0.76 8  248 232 
 GUY2CHN ES       1052 59.47                             106    0.91 8  248 232 
 GUY2CHZ I        1053  8.30         1.8 0.52                           248 232 
 SML  HZ EP       1052 30.37                             105   -0.31 8  250 348 
 SML  HN ES       1052 57.68                             105   -0.23 8  250 348 
 SML  HZ I        1053  1.85         2.4 0.18            106            250 348 
 PRA  HN ES   1   1053 19.13                             100   -0.19 5  349 204 
 PRA  HZ I        1053 26.25         1.1 0.60            101            349 204 
                                                                                
