 2016  9 4 1359  6.4 L   6.812 -73.151148.9  RSN 15 0.4 2.3LRSN                1
 GAP=135        0.97       2.8     3.6  5.0 -0.1743E+01  0.4649E+01  0.6048E+00E
 Epicentro: LOS SANTOS - SANTANDER                                             3
 ACTION:UPD 17-08-17 21:06 OP:lp   STATUS:               ID:20160904135906 L   I
 OLDACT:REG 16-09-04 20:54 OP:dnl  STATUS:               ID:20160904135736     3
 2016-09-04-1358-00M.COL___355                                                 6
 STAT SP IPHASW D HRMM SECON CODA AMPLIT PERI AZIMU VELO AIN AR TRES W  DIS CAZ7
 BAR2 EZ EP       1359 26.46                             170   -0.0210 24.6 188 
 BAR2 EZ ES       1359 41.50                             170   -0.6010 24.6 188 
 BAR2 EZ I        1359 44.30        70.0 0.30            168           24.6 188 
 BRR  HZ EP       1359 28.25                             153    0.3810 70.1 298 
 BRR  HE ES       1359 45.47                             153    0.8910 70.1 298 
 BRR  HZ I        1359 49.27        35.3 0.34            149           70.1 298 
 PAM  EZ EP       1359 29.26                             152    0.3110 76.7  41 
 PAM  EN ES       1359 46.72                             152    0.2110 76.7  41 
 PAM  EZ I        1359 48.63        38.1 0.50            155           76.7  41 
 RUS  HZ EP       1359 30.45                             144   -0.1510  102 176 
 RUS  HN ES       1359 49.41                             144   -0.0410  102 176 
 RUS  HZ I        1359 50.37        35.4 0.32            144            102 176 
 PTB  HZ EP       1359 33.25                             133   -0.39 9  147 258 
 PTB  HN ES       1359 54.70                             133   -0.16 9  147 258 
 PTB  HZ I        1359 59.38        22.0 0.14            130            147 258 
 OCA  HZ EP       1359 34.75                             131   -0.11 9  159 353 
 OCA  HN ES       1359 56.44                             131   -0.60 9  159 353 
 OCA  HZ I        14 0  0.06        40.6 0.16            130            159 353 
 SPBC HZ EP       1359 35.41                             130    0.16 9  164 219 
 SPBC HN ES       1359 57.36                             130   -0.36 9  164 219 
 SPBC HZ I        14 0  2.29        36.6 0.10            128            164 219 
 ZAR  HZ EP       1359 38.70                             123   -0.29 9  203 292 
 ZAR  HN ES       14 0  4.70                             123    0.33 9  203 292 
 ZAR  HZ I        14 0  9.68        15.4 0.28            122            203 292 
 NOR  HZ EP       1359 42.92                             119    0.53 8  235 234 
 NOR  HN ES       14 0  9.89                             119   -0.54 8  235 234 
 NOR  HZ I        14 0 16.10        21.0 0.18            118            235 234 
 CHI  HZ EP       1359 44.60                             118    0.16 8  250 195 
 CHI  HE ES       14 0 14.50                             118    0.42 8  250 195 
 CHI  HZ I        14 0 20.16         7.8 0.26            117            250 195 
 URE  HZ EP       1359 46.94                             114   -0.61 7  283 292 
 URE  HN ES   4   14 0 17.57                             114   -2.05 0  283 292 
 URE  HZ I        14 0 29.22        12.3 0.18            113            283 292 
 GUY2CHZ EP   9   1359 51.82                             113    1.59 0  302 234 
 GUY2CHN ES       14 0 25.80                                   -0.18 7  302 234 
 GUY2CHZ I        14 0 31.71        11.0 0.40                           302 234 
 PTGC HZ EP   4   1359 49.66                             112   -0.94 0  310 159 
 PTGC HN ES   4   14 0 23.06                             112   -1.99 0  310 159 
 PTGC HZ I        14 0 31.53        16.9 0.48            113            310 159 
 CBOC HZ EP   2   1359 53.84                             110    0.37 3  334 252 
 CBOC HN ES       14 0 30.57                             110    0.41 7  334 252 
 CBOC HZ I        14 0 46.18         3.6 0.50            110            334 252 
 SJC  HZ EP   4   14 0  0.75                             106   -1.19 0  408 327 
 SJC  HN ES   4   14 0 40.63                             106   -4.59 0  408 327 
 SJC  HZ I        14 0 55.78         2.5 0.44            106            408 327 
                                                                                
