 2011  1 4 1929 48.5 L   6.761 -73.144141.1  RSN  9 0.4 2.2LRSN                1
 GAP=136        0.73       3.2     5.4  7.5 -0.3591E+01  0.1463E+02  0.7964E+00E
 Epicentro: LOS SANTOS - SANTANDER                                             3
 ACTION:UP  11-02-08 08:38 OP:pat  STATUS:               ID:20110104192948 L   I
 2011-01-04-1919-57S.COL___137                                                 6
 STAT SP IPHASW D HRMM SECON CODA AMPLIT PERI AZIMU VELO SNR AR TRES W  DIS CAZ7
 BAR2 SZ IP       1930  7.20                             172    -0.310   19 193 
 BAR2 SZ ES   2   1930 22.14                             172    -0.2 5   19 193 
 BAR2 SZ I        1930 23.16        57.4 0.25                            19 193 
 RUS  HZ IP     C 1930 11.14                             144    -0.310   96 176 
 RUS  HE ES   2   1930 29.96                             144     0.6 5   96 176 
 RUS  HZ I        1930 30.87        15.5 0.32                            96 176 
 GRA  SZ IP       1930 14.12                             135     0.410  130  17 
 GRA  SZ ES   2   1930 33.26                             135    -0.1 5  130  17 
 GRA  SZ I        1930 34.82        18.7 0.39                           130  17 
 OCA  SZ EP   1   1930 16.79                             128    -0.1 7  165 353 
 OCA  SZ ES   2   1930 38.72                             128    -0.3 5  165 353 
 OCA  SZ I        1930 43.14        26.7 0.34                           165 353 
 YOP  SZ EP   1   1930 17.90                             126     0.1 7  175 153 
 YOP  SZ I        1930 18.30        14.7 0.37                           175 153 
 YOP  SE ES   2   1930 41.31                             126     0.6 4  175 153 
 NOR  SZ IP       1930 23.71                             118     0.0 8  232 235 
 NOR  SN ES   2   1930 51.25                             118     0.1 4  232 235 
 CHI  HZ EP   1   1930 24.81                             116    -0.7 6  244 195 
 CHI  HE ES   2   1930 54.56                             116     0.2 4  244 195 
 CHI  HZ I        1931  0.72         8.6 0.32                           244 195 
 HEL  HZ EP   1   1930 28.71                             114     0.3 6  271 257 
 HEL  HE ES   2   1930 59.60                             114     0.1 4  271 257 
 HEL  HZ I        1931  6.25        11.8 0.31                           271 257 
 PRA  HZ EP   1   1930 41.68                             106     0.3 4  388 210 
 PRA  HN ES   2   1931 23.81                             106     1.1 3  388 210 
                                                                                
