 2015  8 4 1128 52.2 L   6.782 -73.097146.9  RSN  8 0.4 1.9LRSN                1
 GAP=205        1.02       4.1     5.7  6.3  0.4915E+01  0.1005E+02  0.3815E+01E
 Epicentro: LOS SANTOS - SANTANDER                                             3
 ACTION:UPD 15-09-15 23:00 OP:cam  STATUS:               ID:20150804112852 L   I
 OLDACT:REG 15-08-04 20:31 OP:drio STATUS:               ID:20150804112749     3
 2015-08-04-1127-49M.COL___349                                                 6
 STAT SP IPHASW D HRMM SECON CODA AMPLIT PERI AZIMU VELO AIN AR TRES W  DIS CAZ7
 BAR2 EZ EP       1129 12.09                             171    0.1310 23.0 204 
 BAR2 EZ ES       1129 27.41                             171    0.0410 23.0 204 
 BAR2 EZ  AMP     1129 28.45        92.0 0.14                          23.0 204 
 BRR  HZ EP     D 1129 13.99                             151    0.2010 76.9 298 
 BRR  HN ES       1129 31.16                             151    0.5210 76.9 298 
 BRR  HZ I        1129 41.53         9.8 0.42            146           76.9 298 
 RUS  HZ EP       1129 16.43                             145    0.5310 98.4 179 
 RUS  HE ES       1129 33.78                             145   -0.6110 98.4 179 
 RUS  HZ I        1129 36.03         5.4 0.32            139           98.4 179 
 ZAR  HN ES       1129 50.52                             122   -0.61 8  210 292 
 ZAR  HZ I        1129 56.13         7.9 0.28            116            210 292 
 NOR  HZ EP       1129 28.15                             118   -0.19 8  238 236 
 NOR  HN ES       1129 56.47                             118   -0.07 8  238 236 
 NOR  HZ I        1130  5.81         4.4 0.16            113            238 236 
 SML  HZ EP       1129 28.63                             117   -0.69 8  248 334 
 SML  HN ES   4   1129 56.21                             117   -2.07 0  248 334 
 SML  HZ I        1130  2.68         9.2 0.10            112            248 334 
 CHI  HZ EP       1129 30.14                             117    0.23 8  248 196 
 CHI  HN ES       1129 58.82                             117   -0.51 8  248 196 
 CHI  HZ I        1130  7.70         3.2 0.40            112            248 196 
 GUY2CHZ EP       1129 36.47                             112    0.24 7  305 236 
 GUY2CHN ES       1130 11.15                             112    0.57 7  305 236 
 GUY2CHZ I        1130 15.11         3.1 0.28                           305 236 
                                                                                
