 2017  4 4 1131 31.9 L   6.824 -73.171147.0  RSN 18 0.6 2.6LRSN                1
 GAP=109        1.30       3.8     4.1  6.2  0.2549E+01  0.7595E+01  0.4882E+01E
 Epicentro: LOS SANTOS - SANTANDER                                             3
 ACTION:UPD 17-05-30 21:08 OP:jn   STATUS:               ID:20170404113131 L   I
 OLDACT:UP  17-04-04 22:37 OP:ar   STATUS:               ID:20170404112744     3
 OLDACT:REG 17-04-04 19:56 OP:edw  STATUS:               ID:20170404112744     3
 2017-04-04-1128-00M.COL___365                                                 6
 STAT SP IPHASW D HRMM SECON CODA AMPLIT PERI AZIMU VELO AIN AR TRES W  DIS CAZ7
 BAR2 EZ EP       1131 51.37                             170   -0.3310 25.7 183 
 BAR2 EZ ES       1132  7.21                             170    0.0410 25.7 183 
 BAR2 EZ I        1132  9.08        85.2 0.38            167           25.7 183 
 BRR  HZ IP     C 1131 53.10                             154    0.1510 67.5 298 
 BRR  HN ES       1132 10.39                             154    1.0010 67.5 298 
 BRR  HZ I        1132 14.09        72.9 0.16            151           67.5 298 
 PAM  EZ EP       1131 54.49                             151    0.2810 77.2  42 
 PAM  EE ES       1132 11.66                             151    0.0310 77.2  42 
 PAM  EZ I        1132 13.40       109.6 0.48            157           77.2  42 
 RUS  HZ EP       1131 55.72                             143   -0.2310  103 175 
 RUS  HN ES       1132 14.06                             143   -0.6710  103 175 
 RUS  HZ I        1132 15.06        68.1 0.34            144            103 175 
 PTB  HZ EP       1131 58.14                             133   -0.60 9  146 258 
 PTB  HN ES       1132 19.09                             133   -0.60 9  146 258 
 PTB  HZ I        1132 24.68        40.1 0.18            131            146 258 
 SPBC HZ EP       1132  0.34                             129   -0.15 9  164 218 
 SPBC HN ES       1132 22.10                             129   -0.72 9  164 218 
 SPBC HZ I        1132 24.55        87.9 0.26            129            164 218 
 YPLC HZ EP       1132  2.22                             126    0.11 9  181 151 
 YPLC HN ES       1132 25.75                             126    0.04 9  181 151 
 YPLC HZ I        1132 26.55        60.2 0.22            129            181 151 
 ZAR  HZ EP       1132  4.30                             123    0.28 9  200 292 
 ZAR  HN ES       1132 29.77                             123    0.66 9  200 292 
 ZAR  HZ I        1132 34.88        43.4 0.32            123            200 292 
 NOR  HZ EP       1132  7.76                             119    0.17 8  234 234 
 NOR  HN ES       1132 36.28                             119    0.83 8  234 234 
 NOR  HZ I        1132 40.82        24.6 0.24            119            234 234 
 CHI  HZ EP       1132  9.59                             117   -0.24 8  250 194 
 CHI  HN ES       1132 40.11                             117    0.66 8  250 194 
 CHI  HZ I        1132 42.35        17.9 0.38            118            250 194 
 ROSC BZ EP   4   1132 11.75                             117    1.60 0  254 210 
 ROSC BE ES   4   1132 42.38                             117    2.38 0  254 210 
 ROSC BZ I        1132 45.85        30.5 0.40            117            254 210 
 HEL  HZ EP   4   1132 13.77                             115    1.86 0  270 255 
 HEL  HN ES   4   1132 45.93                             115    2.78 0  270 255 
 HEL  HZ I        1132 52.59        10.4 0.30            115            270 255 
 URE  HZ EP       1132 12.41                             114   -0.18 7  280 292 
 URE  HE ES       1132 42.85                             114   -1.51 7  280 292 
 URE  HZ I        1132 52.59        31.3 0.30            114            280 292 
 ELA  HZ EP   4   1132 16.88                             110   -1.84 0  329 229 
 ELA  HN ES   4   1132 56.75                             110    1.48 0  329 229 
 ELA  HZ I        1133  2.92        10.7 0.38            111            329 229 
 DBB  EZ EP       1132 19.65                             110    0.60 7  336 274 
 DBB  EN ES   2   1132 54.36                             110   -1.49 3  336 274 
 DBB  EZ I        1132 58.57         6.7 0.18            110            336 274 
 ANIL HZ EP   9   1132 23.88                             109    2.17 0  357 224 
 ANIL HE ES       1133  2.63                             108   -0.13 6  357 224 
 ANIL HZ I        1133  7.44        46.1 0.26            109            357 224 
 PRA  HZ EP       1132 25.14                             107   -0.40 6  393 209 
 PRA  HN ES       1133  7.61                             107    0.21 6  393 209 
 PRA  HZ I        1133 13.28        17.1 0.42            107            393 209 
 ORTC HZ EP       1132 26.60                             106    0.72 6  396 216 
 ORTC HE ES       1133  9.31                             106    1.29 6  396 216 
 ORTC HZ I        1133 15.15        10.7 0.32            107            396 216 
                                                                                
