 2016  8 4 1343  7.1 L   6.833 -73.118145.8  RSN  6 0.3 1.6LRSN                1
 GAP=138        0.73       3.3     4.0  5.7 -0.2287E+01  0.1072E+02 -0.2167E+01E
 Epicentro: LOS SANTOS - SANTANDER                                             3
 ACTION:UPD 16-10-29 15:32 OP:rebc STATUS:               ID:20160804133740 L   I
 OLDACT:UPD 16-08-04 23:10 OP:AR   STATUS:               ID:20160804133740 L   3
 2016-08-04-1338-00M.COL___329                                                 6
 STAT SP IPHASW D HRMM SECON CODA AMPLIT PERI AZIMU VELO AIN AR TRES W  DIS CAZ7
 BAR2 EZ EP       1343 26.60                             169   -0.2710 27.6 195 
 BAR2 EZ ES       1343 42.04                             169   -0.2210 27.6 195 
 PAM  EZ EP       1343 29.28                             152    0.2010 72.6  40 
 PAM  EE ES       1343 46.53                             152    0.3310 72.6  40 
 PAM  EZ I        1343 48.58         5.2 0.52                          72.6  40 
 RUS  HZ EP       1343 30.84                             143   -0.3110  104 178 
 RUS  HN ES       1343 49.74                             143   -0.1410  104 178 
 RUS  HZ I        1343 50.30         4.2 0.30                           104 178 
 SPBC HZ EP   4   1343 35.42                             128   -0.68 0  168 219 
 SPBC HN ES       1343 59.27                             128    0.59 9  168 219 
 SPBC HZ I        1344  1.30         7.7 0.20                           168 219 
 ZAR  HZ EP       1343 39.71                             122   -0.03 8  206 291 
 ZAR  HN ES       1344  4.89                             122   -0.28 8  206 291 
 ZAR  HZ I        1344  9.98         3.2 0.32                           206 291 
 GUY2CHZ EP       1343 51.50                             112    0.23 7  306 235 
 GUY2CHN ES   2   1344 26.02                             112    0.33 4  306 235 
 GUY2CHZ I        1344 32.59         1.9 0.30                           306 235 
                                                                                
