 2012  7 4 1137 44.0 L   6.794 -73.121150.0  RSN  6 0.3 1.5LRSN                1
 GAP=140        0.63       4.4     4.1  6.0  0.7428E-01  0.3345E+01  0.1008E+01E
 Epicentro: LOS SANTOS - SANTANDER                                             3
 ACTION:UPD 12-08-14 11:42 OP:ep   STATUS:               ID:20120704113744 L   I
 2012-07-04-1130-00M.COL___200                                                 6
 STAT SP IPHASW D HRMM SECON CODA AMPLIT PERI AZIMU VELO AIN AR TRES W  DIS CAZ7
 BAR2 SZ EP       1138  4.18                             171     0.010   23 197 
 BAR2 SZ I        1138  4.71         8.2 0.14            170             23 197 
 BAR2 SZ ES   1   1138 20.12                             171     0.3 7   23 197 
 BRR  HZ EP   1   1138  5.90                             152     0.1 7   74 298 
 BRR  HN ES   1   1138 22.82                             152     0.1 7   74 298 
 PAM  SZ EP   1   1138  6.99                             152     0.4 7   76  38 
 PAM  SZ I        1138  7.34        11.6 0.20            152             76  38 
 PAM  SN ES   1   1138 23.81                             152    -0.4 7   76  38 
 RUS  HZ EP   1   1138  8.26                             145     0.1 7  100 178 
 RUS  HZ I        1138  8.92         3.4 0.11            144            100 178 
 RUS  HN ES   1   1138 26.83                             145    -0.1 7  100 178 
 PTB  HZ EP   1   1138 11.03                             132    -0.5 7  150 259 
 PTB  HN ES   1   1138 32.99                             132    -0.1 7  150 259 
 PTB  HZ I        1138 35.30         3.1 0.14            131            150 259 
 ZAR  HN ES   2   1138 43.01                             123     0.2 4  207 292 
