 2012  4 4 1137 27.9 L   6.807 -73.154146.5  RSN 14 0.4 2.4LRSN                1
 GAP=125        0.86       3.4     4.9  6.6 -0.2086E+01  0.6955E+01  0.4857E+01E
 Epicentro: LOS SANTOS - SANTANDER                                             3
 ACTION:UPD 12-07-05 11:50 OP:tino STATUS:               ID:20120404113727 L   I
 2012-04-04-1130-00M.COL___196                                                 6
 STAT SP IPHASW D HRMM SECON CODA AMPLIT PERI AZIMU VELO AIN AR TRES W  DIS CAZ7
 BAR2 SZ EP       1137 47.57                             170     0.010   24 187 
 BAR2 SZ I        1138  3.60        59.7 0.18                            24 187 
 BRR  HZ EP       1137 49.55                             153     0.510   70 298 
 BRR  HE ES   1   1138  6.12                             153     0.6 7   70 298 
 BRR  HZ I        1138  7.79        76.0 0.16                            70 298 
 PAM  SZ EP       1137 50.42                             151     0.210   77  40 
 PAM  SN ES   1   1138  7.44                             151    -0.1 7   77  40 
 RUS  HZ EP       1137 51.65                             144    -0.110  101 176 
 RUS  HN ES   1   1138  9.96                             144    -0.4 7  101 176 
 RUS  HZ I        1138 11.68        20.1 0.44                           101 176 
 PTB  HZ EP   3   1137 54.31                             132    -0.5 2  147 258 
 PTB  HN ES   2   1138 15.04                             132    -0.8 5  147 258 
 PTB  HZ I        1138 18.50        26.9 0.16                           147 258 
 OCA  SZ EP       1137 56.27                             130     0.1 9  159 353 
 OCA  SZ ES   1   1138 17.45                             130    -0.8 7  159 353 
 ZAR  HZ EP       1138  0.40                             123     0.2 9  203 292 
 ZAR  HE ES   2   1138 25.42                             123    -0.1 4  203 292 
 ZAR  HZ I        1138 32.20        25.5 0.32                           203 292 
 NOR  SZ EP       1138  2.82                             119    -0.8 8  234 234 
 NOR  SN ES   3   1138 30.98                             119    -0.5 2  234 234 
 CHI  HZ EP       1138  5.85                             117     0.2 8  249 195 
 CHI  HN ES   2   1138 36.14                             117     1.0 4  249 195 
 CHI  HZ I        1138 40.87        11.4 0.28                           249 195 
 HEL  HN ES   3   1138 39.47                             115     0.1 2  271 256 
 RREF HZ EP   3   1138 13.75                             111    -0.3 2  322 229 
 RREF HN ES   2   1138 50.03                             111     0.0 3  322 229 
 RREF HZ I        1138 57.40        15.0 0.68                           322 229 
 TOL  SZ EP   3   1138 16.12                             109     0.0 2  343 224 
 SDV  BZ EP   2   1138 17.15                             108    -0.8 3  361  50 
 PRA  HZ EP   1   1138 21.61                             107     0.2 4  392 209 
 PRA  HE ES   1   1139  3.59                             107     0.4 4  392 209 
                                                                                
