 2014  9 4 1945 20.1 L   6.727 -73.151150.0  RSN  6 0.6 1.6LRSN                1
 GAP=139        1.34       6.5     6.4 11.8 -0.8489E+01  0.2340E+02 -0.8846E+01E
 Epicentro: JORDAN - SANTANDER                                                 3
 ACTION:UPD 14-10-03 23:02 OP:nd   STATUS:               ID:20140904194520 L   I
 OLDACT:REG 14-09-04 21:14 OP:fm   STATUS:               ID:20140904193819     3
 2014-09-04-1938-19M.COL___280                                                 6
 STAT SP IPHASW D HRMM SECON CODA AMPLIT PERI AZIMU VELO AIN AR TRES W  DIS CAZ7
 BAR2 SZ EP       1945 40.71                             174    0.5610 15.3 193 
 BAR2 SZ ES   1   1945 56.10                             174    0.34 7 15.3 193 
 BAR2 SZ I        1946  1.70         5.6 0.24            171           15.3 193 
 PAM  SZ EP       1945 43.58                             149    0.3710 84.1  36 
 PAM  SN ES       1946  0.45                             149   -0.7610 84.1  36 
 PAM  SZ I        1946  3.24         6.2 0.58            157           84.1  36 
 RUS  HZ EP   1   1945 42.83                             147   -0.93 7 92.6 175 
 RUS  HN ES       1946  2.81                             147    0.6210 92.6 175 
 RUS  HZ I        1946  4.79         3.8 0.24            151           92.6 175 
 PTB  HZ EP       1945 47.72                             133    0.43 9  146 262 
 PTB  HN ES       1946  8.49                             133    0.02 9  146 262 
 PTB  HZ I        1946 13.65         5.4 0.26            136            146 262 
 SPBC HZ EP   1   1945 47.73                             131   -0.63 7  157 221 
 SPBC HN ES       1946  9.63                             131   -0.74 9  157 221 
 SPBC HZ I        1946 18.86         5.6 0.36            134            157 221 
 ZAR  HN ES       1946 18.99                             123    0.11 8  207 294 
 ZAR  HZ I        1946 24.24         7.9 0.46            126            207 294 
                                                                                
