 2010  8 4 1757 21.6 L   6.806 -73.162147.3  RSN  5 0.1 1.5LRSN                1
 GAP=162        0.38       4.1    12.7  5.0  0.8504E+01  0.1172E+02 -0.5387E+01E
 Epicentro: LOS SANTOS - SANTANDER                                             3
 ACTION:UP  10-09-07 10:52 OP:vdl  STATUS:               ID:20100804175721 L   I
 2010-08-04-1754-26S.COL___126                                                 6
 STAT SP IPHASW D HRMM SECON CODA AMPLIT PERI AZIMU VELO SNR AR TRES W  DIS CAZ7
 BAR2 SZ EP       1757 41.51                             168     0.110   24 186 
 BAR2 SZ ES   1   1757 56.81                             168    -0.1 7   24 186 
 BAR2 SZ I        1757 59.13        16.2 0.17                            24 186 
 BRR  HZ EP   2   1757 42.73                                    -0.1 5   69 299 
 RUS  HZ EP   1   1757 45.32                             144    -0.2 7  101 175 
 RUS  HE ES   1   1758  4.32                             144     0.1 7  101 175 
 RUS  HZ I        1758  5.21         5.0 0.21                           101 175 
 GUE  SZ EP   2   1757 46.51                             140     0.1 5  116  13 
 GUE  SZ I        1758  9.72         1.3 0.08                           116  13 
 PRA  HZ EP   2   1758 15.29                             106     0.2 3  392 209 
 PRA  HZ I        1758 18.77         2.2 0.30                           392 209 
                                                                                
