 2012  4 4 1205 42.1 L   6.767 -73.152148.2  RSN  6 0.3 1.6LRSN                1
 GAP=234        0.62       6.0     7.4  6.3  0.2339E+02  0.1021E+02  0.9109E+01E
 Epicentro: LOS SANTOS - SANTANDER                                             3
 ACTION:UPD 12-07-05 11:50 OP:tino STATUS:               ID:20120404120542 L   I
 2012-04-04-1200-00M.COL___196                                                 6
 STAT SP IPHASW D HRMM SECON CODA AMPLIT PERI AZIMU VELO AIN AR TRES W  DIS CAZ7
 BAR2 SZ ES   1   12 6 16.99                             172    -0.4 7   20 190 
 BRR  HZ EP       12 6  3.62                             152     0.110   72 301 
 BRR  HZ I        12 6  3.85        11.2 0.30                            72 301 
 BRR  HE ES   1   12 6 20.76                             152     0.5 7   72 301 
 RUS  HZ EP       12 6  5.75                             145     0.010   97 176 
 RUS  HN ES   2   12 6 24.40                             145     0.1 5   97 176 
 RUS  HZ I        12 6 26.05         3.7 0.20                            97 176 
 PTB  HZ EP       12 6  9.03                             133    -0.1 9  146 260 
 PTB  HN ES   2   12 6 29.76                             133    -0.4 5  146 260 
 PTB  HZ I        12 6 32.56         4.2 0.18                           146 260 
 ZAR  HE ES   3   12 6 39.57                             123    -0.7 2  205 293 
 ZAR  HZ I        12 6 45.63         5.8 0.30                           205 293 
 CHI  HZ EP   3   12 6 19.98                             118     0.5 2  245 195 
 CHI  HN ES   2   12 6 49.06                             118     0.4 4  245 195 
 CHI  HZ I        12 6 54.43         2.7 0.22                           245 195 
                                                                                
