 2016 12 4 1200 35.4 L   6.629 -73.185143.2  RSN  4 0.3 1.6LRSN                1
 GAP=224        0.81       8.9     5.8  6.5  0.1795E+02  0.1061E+02  0.4861E+00E
 Epicentro: BARICHARA - SANTANDER                                              3
 ACTION:UPD 17-01-11 20:12 OP:rebc STATUS:               ID:20161204120035 L   I
 OLDACT:REG 16-12-04 20:23 OP:lv   STATUS:               ID:20161204115744     3
 2016-12-04-1158-00M.COL___346                                                 6
 STAT SP IPHASW D HRMM SECON CODA AMPLIT PERI AZIMU VELO AIN AR TRES W  DIS CAZ7
 BAR2 EZ EP       12 0 54.61                             178    0.1110 4.11 176 
 BAR2 EZ ES       12 1  9.37                             178   -0.0210 4.11 176 
 BAR2 EZ I        12 1 12.83         9.3 0.25            172           4.11 176 
 BRR  HZ EP       12 0 56.20                             150   -0.5310 78.7 312 
 BRR  HN ES       12 1 13.60                             150    0.2410 78.7 312 
 BRR  HZ I        12 1 21.48        11.5 0.34            147           78.7 312 
 PTB  HZ EP       12 1  1.48                             133   -0.08 9  141 266 
 PTB  HN ES       12 1 21.97                             133    0.02 9  141 266 
 PTB  HZ I        12 1 24.54         2.9 0.11            136            141 266 
 ZAR  HZ EP       12 1  8.75                             121    0.64 8  208 297 
 ZAR  HN ES       12 1 33.31                             121   -0.30 8  208 297 
 ZAR  HZ I        12 1 38.88         3.1 0.25            123            208 297 
                                                                                
