 2015 11 4 1015 13.6 L   6.816 -73.143146.6  RSN  6 0.3 1.4LRSN                1
 GAP=136        0.59       2.3     4.7  5.8 -0.2090E+01  0.1581E+02 -0.2140E+01E
 Epicentro: LOS SANTOS - SANTANDER                                             3
 ACTION:UPD 15-12-28 16:08 OP:cam  STATUS:               ID:20151104101513 L   I
 OLDACT:REG 15-11-04 21:05 OP:ar   STATUS:               ID:20151104100735     3
 2015-11-04-1007-35M.COL___307                                                 6
 STAT SP IPHASW D HRMM SECON CODA AMPLIT PERI AZIMU VELO AIN AR TRES W  DIS CAZ7
 BAR2 EZ EP       1015 33.28                             170   -0.0510 25.2 190 
 BAR2 EZ ES   2   1015 48.38                             170   -0.36 5 25.2 190 
 PAM  EZ IP     C 1015 36.14                             151    0.3710 75.8  40 
 PAM  EN ES       1015 53.29                             151    0.2010 75.8  40 
 PAM  EZ I        1015 55.55         3.2 0.52            155           75.8  40 
 RUS  HZ EP       1015 37.28                             143   -0.2410  102 176 
 RUS  HN ES       1015 56.04                             143   -0.1710  102 176 
 RUS  HZ I        1015 57.05         3.6 0.32            145            102 176 
 SML  HZ EP       1015 49.89                             118   -0.18 8  242 335 
 SML  HE ES       1016 18.29                             118   -0.25 8  242 335 
 SML  HZ I        1016 25.05         2.8 0.07            118            242 335 
 CHI  HZ EP   1   1015 51.43                             117   -0.07 6  250 195 
 CHI  HN ES   2   1016 21.31                             117    0.21 4  250 195 
 CHI  HZ I        1016 28.62         1.2 0.62            118            250 195 
 GUY2CHZ EP   4   1015 56.17                             112   -1.18 0  302 235 
 GUY2CHN ES       1016 31.97                             112    0.46 7  302 235 
 GUY2CHZ I        1016 39.59         2.0 0.30                           302 235 
                                                                                
