 2012  4 4 1326 57.9 L   6.805 -73.165147.5  RSN  6 0.4 1.6LRSN                1
 GAP=134        0.90       5.9     5.3  9.2 -0.4258E+00  0.4459E+01  0.7145E+01E
 Epicentro: LOS SANTOS - SANTANDER                                             3
 ACTION:UPD 12-07-05 11:50 OP:tino STATUS:               ID:20120404132657 L   I
 2012-04-04-1320-00M.COL___196                                                 6
 STAT SP IPHASW D HRMM SECON CODA AMPLIT PERI AZIMU VELO AIN AR TRES W  DIS CAZ7
 BAR2 SZ EP       1327 17.67                             170     0.010   24 185 
 BAR2 SZ I        1327 34.53         7.4 0.28                            24 185 
 BRR  HZ EP       1327 19.49                             154     0.410   69 299 
 BRR  HE ES   1   1327 35.99                             154     0.4 7   69 299 
 BRR  HZ I        1327 39.95        17.6 0.46                            69 299 
 PAM  SZ EP       1327 20.54                             151     0.210   78  41 
 PAM  SN ES   1   1327 37.17                             151    -0.7 7   78  41 
 RUS  HZ EP       1327 21.80                             144     0.010  101 175 
 RUS  HN ES   1   1327 40.73                             144     0.2 7  101 175 
 RUS  HZ I        1327 42.55         4.2 0.20                           101 175 
 PTB  HZ EP       1327 24.29                             133    -0.5 9  146 258 
 PTB  HN ES   1   1327 45.59                             133    -0.2 7  146 258 
 PTB  HZ I        1327 48.10         4.5 0.22                           146 258 
 ZAR  HZ EP   3   1327 30.90                             123     0.7 2  202 292 
 ZAR  HN ES   2   1327 55.31                             123    -0.1 4  202 292 
 ZAR  HZ I        1327 59.61         2.7 0.54                           202 292 
                                                                                
