 2015  4 4 1926  9.9 L   6.797 -73.199141.1  RSN 17 0.4 2.3LRSN                1
 GAP=130        0.98       2.4     3.4  4.8 -0.1463E+01  0.6581E+01  0.5613E+00E
 Epicentro: ZAPATOCA - SANTANDER                                               3
 ACTION:UPD 15-06-03 16:52 OP:cam  STATUS:               ID:20150404192609 L   I
 OLDACT:REG 15-04-04 22:40 OP:fm   STATUS:               ID:20150404191748     3
 2015-04-04-1917-48M.COL___285                                                 6
 STAT SP IPHASW D HRMM SECON CODA AMPLIT PERI AZIMU VELO AIN AR TRES W  DIS CAZ7
 BAR2 EZ EP       1926 28.97                             170    0.0310 22.7 175 
 BAR2 EZ ES       1926 44.18                             170    0.3810 22.7 175 
 BAR2 EZ I        1926 45.41        82.4 0.14            170           22.7 175 
 BRR  HZ IP     C 1926 30.81                             153    0.5610 66.3 301 
 BRR  HN ES       1926 46.53                             153    0.4010 66.3 301 
 BRR  HZ I        1926 54.81        32.1 0.34            149           66.3 301 
 PAM  SZ EP       1926 31.86                             149    0.0010 81.5  43 
 PAM  SN ES       1926 48.60                             149   -0.3910 81.5  43 
 PAM  SZ I        1926 51.23        11.7 0.44            153           81.5  43 
 RUS  HZ EP       1926 33.41                             143    0.2110  101 173 
 RUS  HN ES       1926 51.02                             143   -0.3610  101 173 
 RUS  HZ I        1926 52.60        28.0 0.24            147            101 173 
 PTB  HZ EP       1926 35.42                             132   -0.52 9  142 258 
 PTB  HE ES       1926 56.02                             132   -0.25 9  142 258 
 PTB  HZ I        1926 58.82        29.9 0.38            131            142 258 
 SPBC HZ EP       1926 37.78                             129    0.12 9  159 217 
 SPBC HE ES       1926 58.97                             129   -0.35 9  159 217 
 SPBC HZ I        1927  2.52        45.4 0.38            130            159 217 
 OCA  HE ES       1927  0.08                             129    0.50 9  160 355 
 OCA  HZ I        1927  5.89        32.2 0.36            130            160 355 
 ZAR  HZ EP       1926 41.45                             122   -0.03 9  199 293 
 ZAR  HN ES       1927  6.32                             122    0.20 9  199 293 
 ZAR  HZ I        1927 12.84        26.8 0.34            122            199 293 
 NOR  HZ EP       1926 44.78                             118   -0.03 8  230 234 
 NOR  HE ES       1927 12.03                             118   -0.03 8  230 234 
 NOR  HZ I        1927 19.23        13.8 0.16            119            230 234 
 SML  HZ EP       1926 45.14                             117   -0.88 8  242 337 
 SML  HE ES       1927 13.66                             117   -0.55 8  242 337 
 SML  HZ I        1927 21.36        21.9 0.10            118            242 337 
 ROSC BE ES       1927 15.69                             116   -0.97 8  250 210 
 ROSC BZ I        1927 23.80        18.2 0.35            118            250 210 
 HEL  HZ EP       1926 49.88                             114    0.66 8  266 256 
 HEL  HE ES       1927 19.30                             114   -0.60 8  266 256 
 HEL  HZ I        1927 27.64         7.3 0.38            115            266 256 
 GUY2CHZ EP       1926 52.91                             112    0.19 7  296 234 
 GUY2CHE ES       1927 26.50                             112    0.37 7  296 234 
 GUY2CHZ I        1927 35.50         5.8 0.46                           296 234 
 RREF HN EP       1926 55.66                             110    0.36 7  317 229 
 RREF HE ES   4   1927 32.17                             110    1.45 0  317 229 
 RREF HN I        1927 38.33        24.4 0.38            112            317 229 
 TOL  SZ EP       1926 57.77                             109    0.31 7  339 224 
 TOL  SN ES       1927 34.85                             109    0.29 7  339 224 
 TOL  SZ I        1927 42.72         7.2 0.60            110            339 224 
 MON  HZ EP   1   1926 57.94                             108   -0.26 5  349 309 
 MON  HE ES       1927 35.82                             108   -0.06 6  349 309 
 MON  HZ I        1927 50.95         6.0 0.72            109            349 309 
 ORTC HZ EP   1   1927  3.38                             106    0.16 4  392 215 
 ORTC HN ES       1927 45.79                             106    0.98 6  392 215 
 ORTC HZ I        1927 52.05         5.7 0.50            107            392 215 
                                                                                
