 2016 12 4 1704 18.8 L   6.830 -73.105148.4  RSN  4 0.2 1.5LRSN                1
 GAP=159        0.64       6.2     3.6  5.1  0.1255E+01  0.5073E+01 -0.3680E+01E
 Epicentro: LOS SANTOS - SANTANDER                                             3
 ACTION:UPD 17-01-11 20:12 OP:rebc STATUS:               ID:20161204170418 L   I
 OLDACT:REG 16-12-04 20:40 OP:lv   STATUS:               ID:20161204165745     3
 2016-12-04-1658-00M.COL___352                                                 6
 STAT SP IPHASW D HRMM SECON CODA AMPLIT PERI AZIMU VELO AIN AR TRES W  DIS CAZ7
 BAR2 EZ EP       17 4 38.49                             169   -0.3310 27.7 198 
 BAR2 EZ ES       17 4 54.53                             169    0.0810 27.7 198 
 BAR2 EZ I        17 4 56.06         6.2 0.25            173           27.7 198 
 PAM  EZ EP       17 4 41.30                             153    0.3410 72.0  38 
 PAM  EN ES       17 4 58.01                             153   -0.2610 72.0  38 
 PAM  EZ I        17 5  1.54         4.6 0.42            152           72.0  38 
 BRR  HZ EP       17 4 40.61                             152    0.2610 73.7 295 
 BRR  HN ES       17 4 57.30                             152    0.1210 73.7 295 
 ZAR  HZ EP       17 4 51.50                             123   -0.19 8  207 291 
 ZAR  HN ES       17 5 17.26                             123   -0.11 8  207 291 
 ZAR  HZ I        17 5 22.30         3.2 0.26            123            207 291 
                                                                                
