 2015  9 4 1140 52.9 L   6.540 -73.615102.9  RSN  6 0.2 1.8LRSN                1
 GAP= 94        0.50       2.2     1.8  3.7  0.8715E+00  0.5718E+00 -0.2507E+01E
 Epicentro: EL CARMEN - SANTANDER                                              3
 ACTION:UPD 15-10-28 16:24 OP:cam  STATUS:               ID:20150904114052 L   I
 OLDACT:UP  15-09-09 20:49 OP:cam  STATUS:               ID:20150904114052 L   3
 OLDACT:UP  15-09-09 20:48 OP:cam  STATUS:               ID:20150904114052 L   3
 OLDACT:UP  15-09-08 11:01 OP:AK   STATUS:               ID:20150904114052 L   3
 OLDACT:REG 15-09-04 20:41 OP:stll STATUS:               ID:20150904113747     3
 2015-09-04-1137-47M.COL___352                                                 6
 STAT SP IPHASW D HRMM SECON CODA AMPLIT PERI AZIMU VELO AIN AR TRES W  DIS CAZ7
 BAR2 EZ EP       1141  8.33                             153   -0.1110 48.2  83 
 BAR2 EZ ES       1141 20.50                             153   -0.0910 48.2  83 
 BAR2 EZ I        1141 22.23        42.9 0.46            154           48.2  83 
 RUS  HZ EP       1141 12.18                             135    0.1610 92.7 141 
 RUS  HE ES       1141 27.00                             135    0.0410 92.7 141 
 CPBEREZ EP       1141 11.20                             134   -0.2010 93.0 270 
 PTB  HZ EP       1141 11.21                             134   -0.1910 93.0 270 
 PTB  HN ES       1141 25.88                             134    0.0310 93.0 270 
 PTB  HZ I        1141 30.80         8.1 0.10            135           93.0 270 
 CPBEREN ES       1141 25.92                             134    0.0710 93.0 270 
 SPBC HZ EP       1141 13.31                             129    0.2210  110 207 
 ZAR  HN ES   4   1141 42.73                             115    2.51 0  173 308 
 SML  HZ EP       1141 28.58                             106   -0.26 8  255 349 
 SML  HN ES       1141 57.29                             106    0.40 8  255 349 
 SML  HZ I        1142  7.65         3.9 0.28            106            255 349 
                                                                                
