 2013  4 4 1202 13.5 L   6.744 -73.516109.8  RSN  5 0.4 1.5LRSN                1
 GAP=143        0.76       6.1     5.1  9.1  0.1358E+02  0.1343E+02  0.5601E+01E
 Epicentro: EL CARMEN DE CHUCURI - SANTANDER                                   3
 ACTION:UPD 13-05-22 14:35 OP:EP   STATUS:               ID:20130404120213 L   I
 2013-04-04-1200-00M.COL___245                                                 6
 STAT SP IPHASW D HRMM SECON CODA AMPLIT PERI AZIMU VELO AIN AR TRES W  DIS CAZ7
 BAR2 SZ EP       12 2 29.29                             158   -0.1110 40.6 114 
 BAR2 SZ ES   1   12 2 41.56                             158   -0.28 7 40.6 114 
 BAR2 SZ I        12 2 42.97        13.1 0.40            163           40.6 114 
 BRR  HZ IP     C 12 2 29.05                             156   -0.2410 45.6 332 
 BRR  HE ES   1   12 2 42.01                             156    0.38 7 45.6 332 
 RUS  HN ES   1   12 2 51.08                             133    0.48 7  106 153 
 PTB  HZ EP   1   12 2 33.89                             132    0.15 7  106 258 
 PTB  HN ES   1   12 2 49.10                             132   -0.45 7  106 258 
 PTB  HZ I        12 2 55.25         4.4 0.38            131            106 258 
 ZAR  HE ES   2   12 3  1.76                             118    0.94 5  170 299 
                                                                                
