 2012  4 4 1530  8.0 L   6.662 -73.212148.4  RSN  5 0.3 1.8LRSN                1
 GAP=205        0.40      18.2     9.5  9.0  0.9541E+02 -0.1162E+01 -0.1895E+02E
 Epicentro: BARICHARA - SANTANDER                                              3
 ACTION:UPD 12-07-05 11:50 OP:tino STATUS:               ID:20120404153008 L   I
 2012-04-04-1530-00M.COL___196                                                 6
 STAT SP IPHASW D HRMM SECON CODA AMPLIT PERI AZIMU VELO AIN AR TRES W  DIS CAZ7
 BAR2 SZ EP       1530 27.83                             177     0.110    8 157 
 BAR2 SZ ES   2   1530 43.05                             177    -0.1 5    8 157 
 BAR2 SZ I        1530 47.20         5.8 0.70                             8 157 
 BRR  HZ EP   3   1530 29.72                             152     0.1 2   74 312 
 BRR  HZ I        1530 53.22        23.8 0.38                            74 312 
 RUS  HZ EP   3   1530 30.46                             148    -0.6 2   86 170 
 PTB  HN ES   3   1530 55.31                             134     0.4 2  138 264 
 ZAR  HN ES   3   1531  5.48                             123    -0.5 2  204 297 
                                                                                
