 2014  8 4 1035 40.5 L   6.799 -73.176138.6  RSN  9 0.4 1.5LRSN                1
 GAP=198        0.87       3.1     4.7  6.1  0.3124E+01  0.1908E+01  0.2302E+00E
 Epicentro: LOS SANTOS - SANTANDER                                             3
 ACTION:UPD 14-09-15 21:46 OP:nd   STATUS:               ID:20140804103540 L   I
 OLDACT:DUP 14-08-04 23:51 OP:spq  STATUS:               ID:20140804102818d    3
 2014-08-04-1028-17M.COL___245                                                 6
 STAT SP IPHASW D HRMM SECON CODA AMPLIT PERI AZIMU VELO AIN AR TRES W  DIS CAZ7
 BAR2 SZ EP     C 1035 59.43                             170    0.1810 22.9 182 
 BAR2 SZ ES   1   1036 14.09                             170    0.20 7 22.9 182 
 BAR2 SZ I        1036 15.89         8.8 0.28            166           22.9 182 
 BRR  HZ EP       1036  1.11                             152    0.4110 68.3 300 
 BRR  HN ES       1036 16.24                             152   -0.2310 68.3 300 
 BRR  HZ I        1036 19.73         8.0 0.32            146           68.3 300 
 RUS  HZ EP   1   1036  2.78                             142   -0.78 7  101 174 
 RUS  HE ES   1   1036 21.42                             142   -0.14 7  101 174 
 RUS  HZ I        1036 24.05         3.8 0.28            144            101 174 
 PTB  HZ EP       1036  6.33                             131   -0.25 9  145 259 
 PTB  HN ES       1036 26.77                             131   -0.17 9  145 259 
 PTB  HZ I        1036 29.69         3.3 0.15            128            145 259 
 SPBC HZ EP       1036  8.28                             128    0.04 9  161 218 
 SPBC HN ES       1036 30.59                             128    0.69 9  161 218 
 SPBC HZ I        1036 36.59         5.3 0.26            127            161 218 
 ZAR  HN ES       1036 36.33                             121   -0.53 9  201 293 
 ZAR  HZ I        1036 55.89         1.1 0.01            120            201 293 
 SML  HZ EP   1   1036 16.98                             116    0.40 6  242 336 
 SML  HE ES       1036 44.94                             116    0.21 8  242 336 
 SML  HZ I        1036 48.98         6.1 0.10            116            242 336 
 CHI  HZ EP   1   1036 17.50                             116   -0.20 6  248 194 
 CHI  HE ES   1   1036 46.25                             116   -0.48 6  248 194 
 CHI  HZ I        1036 49.82         2.2 0.34            117            248 194 
 GUY2CHN ES   1   1036 57.54                             111    0.55 5  298 234 
 GUY2CHZ I        1037  5.60         2.0 0.24                           298 234 
                                                                                
