 2010  8 4 1819 30.7 L   6.815 -73.045138.1  RSN  8 0.3 2.0LRSN                1
 GAP=170        0.82       4.3     8.3  9.2 -0.5135E+01 -0.1407E+02 -0.9186E+01E
 Epicentro: LOS SANTOS - SANTANDER                                             3
 ACTION:UP  10-09-07 10:52 OP:vdl  STATUS:               ID:20100804181930 L   I
 2010-08-04-1817-04S.COL___126                                                 6
 STAT SP IPHASW D HRMM SECON CODA AMPLIT PERI AZIMU VELO SNR AR TRES W  DIS CAZ7
 BAR2 SZ IP       1819 49.66                             168     0.110   29 212 
 BAR2 SZ I        1820  5.71        29.4 0.29                            29 212 
 GIR2 SZ EP   1   1819 49.67                             166     0.1 7   34 331 
 BRR  HZ IP     D 1819 51.40                             148    -0.210   81 294 
 BRR  HN ES   1   1820  8.20                             148     0.3 7   81 294 
 BRR  HZ I        1820  9.39        20.6 0.20                            81 294 
 RUS  HZ EP   1   1819 53.64                             142    -0.2 7  102 182 
 RUS  HN ES   1   1820 11.72                             142    -0.1 7  102 182 
 RUS  HZ I        1820 13.86        12.7 0.24                           102 182 
 GUE  SZ EP       1819 54.57                                     0.110  113   7 
 GRA  SZ EP       1819 55.41                             136     0.510  121  13 
 GRA  SZ I        1819 56.73        13.8 0.41                           121  13 
 GRA  SZ ES   1   1820 13.29                             136    -0.5 7  121  13 
 OCA  SZ EP       1819 58.07                             128    -0.4 9  160 349 
 OCA  SZ I        1820 24.10         8.6 0.21                           160 349 
 HEL  HZ EP   2   1820 11.57                             112    -0.2 4  283 256 
 HEL  HZ I        1820 47.20         4.6 0.21                           283 256 
                                                                                
