 2014  7 4 1502 18.7 L   6.747 -73.195146.7  RSN  4 0.4 1.7LRSN                1
 GAP=228        1.04       8.2     7.7  8.4  0.3108E+02  0.6922E+01  0.2437E+01E
 Epicentro: VILLANUEVA - SANTANDER                                             3
 ACTION:UPD 15-03-16 20:41 OP:nd   STATUS:               ID:20140704150218 L   I
 OLDACT:REG 14-07-04 18:17 OP:spq  STATUS:               ID:20140704145821     3
 2014-07-04-1458-21M.COL___256                                                 6
 STAT SP IPHASW D HRMM SECON CODA AMPLIT PERI AZIMU VELO AIN AR TRES W  DIS CAZ7
 BAR2 SZ EP       15 2 38.16                             173   -0.2310 17.1 175 
 BAR2 SZ ES       15 2 53.00                             173   -0.7010 17.1 175 
 BAR2 SZ I        15 2 54.19        14.8 0.22            171           17.1 175 
 BRR  HZ EP       15 2 40.15                             153    0.2410 69.6 305 
 BRR  HE ES       15 2 56.94                             153    0.5210 69.6 305 
 BRR  HZ I        15 3  1.54        21.4 0.48            151           69.6 305 
 RUS  HZ EP       15 2 42.22                             145    0.0010 95.3 173 
 RUS  HN ES       15 3  1.06                             145    0.5310 95.3 173 
 RUS  HZ I        15 3  1.76         4.5 0.26            148           95.3 173 
 PTB  HZ EP       15 2 45.04                             134   -0.18 9  141 261 
 PTB  HN ES       15 3  5.64                             134   -0.23 9  141 261 
 PTB  HZ I        15 3 10.96         3.5 0.14            133            141 261 
                                                                                
