 2012 12 4 1118 26.5 L   6.778 -73.164141.5  RSN  5 0.1 1.9LRSN                1
 GAP=135        0.44       2.3     2.1  4.0 -0.7980E-01  0.1824E+01 -0.9968E+00E
 Epicentro: LOS SANTOS - SANTANDER                                             3
 ACTION:UPD 13-01-04 14:25 OP:ep   STATUS:               ID:20121204111826 L   I
 2012-12-04-1110-00M.COL___232                                                 6
 STAT SP IPHASW D HRMM SECON CODA AMPLIT PERI AZIMU VELO AIN AR TRES W  DIS CAZ7
 BAR2 SZ EP       1118 45.55                             171    0.0110 20.6 186 
 BAR2 SZ ES       1119  0.41                             171    0.0010 20.6 186 
 BAR2 SZ I        1119  1.97        29.8 0.18                          20.6 186 
 PAM  SZ EP       1118 48.38                             149   -0.0610 80.6  40 
 PAM  SN ES       1119  5.55                             149   -0.0210 80.6  40 
 PAM  SN I        1119  6.78        11.2 0.70                          80.6  40 
 RUS  HZ EP       1118 49.62                             144   -0.0310 98.3 175 
 RUS  HN ES       1119  7.86                             144    0.1510 98.3 175 
 RUS  HN I        1119  9.98        18.6 0.30                          98.3 175 
 PTB  HN ES       1119 13.18                             132   -0.28 9  145 260 
 PTB  HN I        1119 18.90         7.0 0.20                           145 260 
 ZAR  HE ES       1119 23.85                             122    0.29 9  203 293 
                                                                                
