 2015  2 4 1709 20.8 L   6.799 -73.145148.8  RSN  8 0.5 2.1LRSN                1
 GAP=151        1.29       5.2     5.9  8.5 -0.9218E+01  0.1248E+02 -0.3772E+01E
 Epicentro: LOS SANTOS - SANTANDER                                             3
 ACTION:UPD 15-04-30 21:21 OP:nd   STATUS:               ID:20150204170920 L   I
 OLDACT:UP  15-02-05 00:08 OP:cam  STATUS:               ID:20150204170815     3
 OLDACT:REG 15-02-04 22:47 OP:cam  STATUS:               ID:20150204170815     3
 2015-02-04-1708-15M.COL___277                                                 6
 STAT SP IPHASW D HRMM SECON CODA AMPLIT PERI AZIMU VELO AIN AR TRES W  DIS CAZ7
 BAR2 EZ EP       17 9 40.76                             171   -0.0510 23.3 190 
 BAR2 EZ ES       17 9 55.93                             171   -0.4710 23.3 190 
 BAR2 EZ I        17 9 57.40        15.1 0.12            171           23.3 190 
 BRR  HZ EP       17 9 42.44                             153    0.1510 71.3 299 
 BRR  HE ES       1710  0.08                             153    1.0310 71.3 299 
 BRR  HE I        1710  0.30        63.6 0.30            151           71.3 299 
 PAM  SZ EP       17 9 43.70                             151    0.3510 77.4  39 
 PAM  SE ES       1710  0.74                             151   -0.2010 77.4  39 
 PAM  SZ I        1710  2.95        13.9 0.48            154           77.4  39 
 PTB  HZ EP       17 9 48.13                             133    0.10 9  148 259 
 PTB  HN ES       1710  8.57                             133   -0.69 9  148 259 
 PTB  HN I        1710 14.22        12.5 0.22            132            148 259 
 SPBC HZ EP       17 9 50.25                             130    0.71 9  163 219 
 SPBC HN ES       1710 11.65                             130   -0.30 9  163 219 
 SPBC HZ I        1710 14.13        14.7 0.24            131            163 219 
 ZAR  HN ES       1710 19.46                             123    0.53 9  204 292 
 ZAR  HN I        1710 25.47        17.6 0.22            123            204 292 
 NOR  HE ES       1710 24.50                             119   -0.22 8  235 234 
 SML  HZ EP       17 9 56.97                             118   -0.65 8  244 335 
 SML  HE ES       1710 25.61                             118   -0.72 8  244 335 
                                                                                
