 2015  1 4 1658 58.8 L   6.817 -73.134149.8  RSN 21 0.5 2.8LRSN                1
 GAP= 71        1.05       2.4     2.8  4.5 -0.5769E+00  0.3388E+01  0.8770E+00E
 Epicentro: LOS SANTOS - SANTANDER                                             3
 ACTION:UPD 15-03-02 15:36 OP:nd   STATUS:               ID:20150104165858 L   I
 OLDACT:UP  15-01-04 22:36 OP:cam  STATUS:               ID:20150104165818     3
 OLDACT:UP  15-01-04 22:35 OP:cam  STATUS:               ID:20150104165818     3
 OLDACT:REG 15-01-04 20:43 OP:cam  STATUS:               ID:20150104165818     3
 2015-01-04-1658-18M.COL___280                                                 6
 STAT SP IPHASW D HRMM SECON CODA AMPLIT PERI AZIMU VELO AIN AR TRES W  DIS CAZ7
 BAR2 EZ IP     D 1659 18.87                             170   -0.0810 25.5 192 
 BAR2 EZ ES       1659 33.91                             170   -0.7710 25.5 192 
 BAR2 EZ I        1659 36.60       129.7 0.28            171           25.5 192 
 BRR  HZ EP     C 1659 20.70                             153    0.3110 71.5 297 
 BRR  HN ES       1659 38.19                             153    0.9510 71.5 297 
 BRR  HZ I        1659 41.74        58.5 0.52            151           71.5 297 
 PAM  SZ EP     C 1659 21.68                             152    0.3710 75.1  40 
 PAM  SN ES       1659 39.12                             152    0.2510 75.1  40 
 PAM  SZ I        1659 40.99        94.9 0.46            152           75.1  40 
 RUS  HZ EP       1659 22.76                             144   -0.3110  102 177 
 RUS  HN ES       1659 41.42                             144   -0.5910  102 177 
 RUS  HZ I        1659 42.68        40.8 0.44            144            102 177 
 PTB  HZ EP       1659 25.51                             133   -0.73 9  149 258 
 PTB  HE ES       1659 47.89                             133    0.24 9  149 258 
 PTB  HZ I        1659 54.38        72.1 0.28            132            149 258 
 TAM  HZ EP       1659 27.04                             132    0.32 9  154 106 
 TAM  HZ I        1659 47.81        44.8 0.42            132            154 106 
 TAM  HE ES       1659 48.82                             132    0.31 9  154 106 
 OCA  HZ EP       1659 27.02                             131   -0.24 9  159 353 
 OCA  HE ES       1659 49.09                             131   -0.37 9  159 353 
 OCA  HZ I        1659 57.36        57.4 0.18            130            159 353 
 SPBC HZ EP       1659 27.79                             129   -0.03 9  165 219 
 SPBC HN ES       1659 50.50                             129    0.04 9  165 219 
 SPBC HZ I        1659 56.71       122.6 0.44            129            165 219 
 ZAR  HZ EP       1659 31.70                             123    0.14 9  205 292 
 ZAR  HE ES       1659 57.07                             123   -0.04 9  205 292 
 ZAR  HZ I        17 0  7.69        62.4 0.36            122            205 292 
 NOR  HZ EP     C 1659 34.82                             119   -0.17 8  237 234 
 NOR  HN ES       17 0  3.19                             119   -0.04 8  237 234 
 NOR  HZ I        17 0  6.51        48.1 0.36            118            237 234 
 SML  HZ EP       1659 35.21                             118   -0.31 8  243 335 
 SML  HN ES       17 0  4.76                             118    0.59 8  243 335 
 SML  HZ I        17 0 11.06        80.6 0.10            117            243 335 
 CHI  HZ EP       1659 36.88                             118   -0.07 8  251 195 
 CHI  HN ES       17 0  6.62                             118   -0.10 8  251 195 
 CHI  HZ I        17 0 14.83        19.3 0.64            117            251 195 
 ROSC BZ EP   4   1659 38.58                             117    1.19 0  255 211 
 ROSC BN ES   4   17 0  9.57                             117    2.08 0  255 211 
 HEL  HZ EP       1659 39.92                             115    0.51 8  274 255 
 HEL  HN ES   4   17 0  8.64                             115   -2.44 0  274 255 
 HEL  HN I        17 0 17.60        26.5 0.26            115            274 255 
 URE  HZ EP   4   1659 43.24                             114    3.12 0  284 291 
 VIL  SZ EP   4   1659 41.45                             113   -1.19 0  306 192 
 RREF HZ EP   4   1659 47.00                             111    1.63 0  324 229 
 CBOC HZ EP       1659 46.63                             110    0.54 7  335 252 
 DBB  SZ EP       1659 46.46                             110   -0.11 7  341 274 
 DBB  SZ ES       17 0 23.23                             110   -0.61 7  341 274 
 DBB  SZ I        17 0 26.83        71.8 0.48            109            341 274 
 TOL  SZ EP       1659 48.32                             110    0.84 6  346 225 
 TOL  SN ES       17 0 26.20                             110    0.75 6  346 225 
 TOL  SZ I        17 0 32.77        74.5 0.38            109            346 225 
 MON  HZ EP   4   1659 45.90                             109   -2.03 0  354 308 
 MON  HN ES       17 0 25.05                             109   -1.21 6  354 308 
 MON  HZ I        17 0 41.08        11.2 0.56            109            354 308 
 SDV  BZ EP       1659 48.23                             109   -0.50 6  358  50 
 ARGC HN EP   4   1659 51.52                             109    3.07 0  358 340 
 ANIL HZ EP       1659 48.95                             109   -0.07 6  360 224 
 ANIL HE ES       17 0 27.86                             109   -0.33 6  360 224 
 ANIL HZ I        17 0 32.84         7.4 0.42            109            360 224 
 ORTC HZ EP       1659 52.91                             107   -0.21 6  398 216 
 ORTC HN ES       17 0 36.28                             107    0.78 6  398 216 
 ORTC HZ I        17 0 43.35        20.6 0.24            106            398 216 
 PAL  HZ EP       1659 54.44                             106    0.10 6  408 239 
 SJC  HZ EP   4   1659 53.08                             106   -1.31 0  408 327 
                                                                                
