 2016  2 4 1303 50.8 L   6.812 -73.132150.2  RSN  9 0.2 2.2LRSN                1
 GAP=202        0.61       2.1     3.2  4.0  0.1300E+01  0.2028E+01 -0.1407E+01E
 Epicentro: LOS SANTOS - SANTANDER                                             3
 ACTION:UPD 16-03-04 21:23 OP:rebc STATUS:               ID:20160204130350 L   I
 OLDACT:REG 16-02-04 20:35 OP:cara STATUS:               ID:20160204125759     3
 2016-02-04-1257-59S.COL___229                                                 6
 STAT SP IPHASW D HRMM SECON CODA AMPLIT PERI AZIMU VELO AIN AR TRES W  DIS CAZ7
 BAR2 EZ IP     C 13 4 10.97                             170   -0.0410 25.0 193 
 BAR2 EZ ES       13 4 26.91                             170    0.1410 25.0 193 
 BAR2 EZ I        13 4 28.04        20.2 0.18            166           25.0 193 
 RUS  HZ EP       13 4 15.11                             144    0.0210  102 177 
 RUS  HN ES       13 4 33.87                             144   -0.1610  102 177 
 RUS  HZ I        13 4 34.59        11.7 0.32            144            102 177 
 PTB  HZ EP       13 4 17.89                             133   -0.41 9  150 258 
 PTB  HN ES       13 4 39.31                             133   -0.44 9  150 258 
 PTB  HZ I        13 4 43.76        18.0 0.46            130            150 258 
 SPBC HZ IP       13 4 20.24                             130    0.40 9  165 219 
 SPBC HE ES       13 4 42.64                             130    0.15 9  165 219 
 SPBC HZ I        13 4 48.97        24.8 0.28            128            165 219 
 ZAR  HZ EP       13 4 23.83                             123    0.19 9  205 292 
 ZAR  HE ES       13 4 49.70                             123    0.45 9  205 292 
 ZAR  HZ I        13 4 55.07        20.3 0.40            122            205 292 
 NOR  HZ EP       13 4 26.85                             119   -0.17 8  237 234 
 NOR  HN ES       13 4 55.20                             119   -0.06 8  237 234 
 NOR  HZ I        13 5  2.85         9.9 0.36            118            237 234 
 SML  HZ EP       13 4 27.40                             118   -0.23 8  243 335 
 SML  HN ES       13 4 56.38                             118    0.04 8  243 335 
 SML  HZ I        13 5  0.69        20.2 0.10            119            243 335 
 CHI  HZ EP       13 4 29.04                             118    0.09 8  250 195 
 CHI  HN ES       13 4 58.81                             118    0.12 8  250 195 
 CHI  HZ I        13 5  4.42         5.6 0.33            118            250 195 
 GUY2CHZ EP   4   13 4 36.26                             113    1.40 0  303 235 
 GUY2CHE ES   4   13 5 13.77                             113    4.56 0  303 235 
 GUY2CHZ I        13 5 19.76         5.7 0.34                           303 235 
                                                                                
