 2015 12 4 1927 41.2 L   6.798 -73.162144.6  RSN  7 0.3 1.8LRSN                1
 GAP=243        0.76       4.5     4.0  5.7  0.4953E+01  0.9489E+01  0.5799E+01E
 Epicentro: LOS SANTOS - SANTANDER                                             3
 ACTION:UPD 16-02-04 15:02 OP:cam  STATUS:               ID:20151204192741 L   I
 OLDACT:DUP 15-12-04 23:39 OP:drio STATUS:               ID:20151204191749d    3
 2015-12-04-1917-48M.COL___310                                                 6
 STAT SP IPHASW D HRMM SECON CODA AMPLIT PERI AZIMU VELO AIN AR TRES W  DIS CAZ7
 BAR2 EZ EP       1928  0.44                             171   -0.2010 22.8 186 
 BAR2 EZ ES       1928 15.89                             171    0.0710 22.8 186 
 BAR2 EZ I        1928 17.04         9.8 0.18            164           22.8 186 
 RUS  HZ EP       1928  4.88                             144    0.1010  100 175 
 RUS  HE ES       1928 23.36                             144    0.1510  100 175 
 RUS  HZ I        1928 30.93         4.3 0.14            143            100 175 
 PTB  HZ EP       1928  7.49                             132   -0.37 9  146 259 
 PTB  HN ES       1928 28.66                             132   -0.03 9  146 259 
 PTB  HZ I        1928 35.90         8.3 0.34            131            146 259 
 ZAR  HE ES       1928 38.94                             122    0.46 9  202 292 
 ZAR  HZ I        1928 44.76         8.3 0.28            124            202 292 
 NOR  HZ EP       1928 16.57                             118   -0.07 8  233 234 
 NOR  HN ES       1928 43.56                             118   -0.76 8  233 234 
 NOR  HZ I        1928 51.81         4.9 0.16            119            233 234 
 GUY2CHZ EP   4   1928 26.84                             112    2.31 0  300 235 
 GUY2CHE ES       1928 58.66                             112    0.31 7  300 235 
 GUY2CHZ I        1929  3.97         1.8 0.26                           300 235 
 PRA  HZ EP       1928 34.82                             106    0.31 6  391 209 
 PRA  HE ES       1929 16.62                             106    0.51 6  391 209 
 PRA  HZ I        1929 26.38         3.3 0.32            108            391 209 
                                                                                
