 2017  1 4 1916  0.2 L   6.800 -73.155143.3  RSN  9 0.5 2.0LRSN                1
 GAP=135        1.15       4.3     4.7  6.8  0.3912E+00  0.9230E+01  0.6107E+01E
 Epicentro: LOS SANTOS - SANTANDER                                             3
 ACTION:UPD 17-05-22 15:55 OP:jn   STATUS:               ID:20170104191600 L   I
 OLDACT:DUP 17-01-04 23:52 OP:dnl  STATUS:               ID:20170104190750d    3
 2017-01-04-1908-00M.COL___366                                                 6
 STAT SP IPHASW D HRMM SECON CODA AMPLIT PERI AZIMU VELO AIN AR TRES W  DIS CAZ7
 BAR2 EZ EP       1916 19.33                             170   -0.2310 23.2 187 
 BAR2 EZ ES       1916 34.50                             170   -0.1410 23.2 187 
 BAR2 EZ I        1916 35.31        28.0 0.34            169           23.2 187 
 BRR  HZ EP       1916 21.14                             152    0.0810 70.2 299 
 BRR  HE ES       1916 38.16                             152    0.8510 70.2 299 
 BRR  HZ I        1916 41.13        24.4 0.38            151           70.2 299 
 PAM  EZ EP       1916 22.29                             150    0.0610 78.0  40 
 PAM  EN ES       1916 39.18                             150   -0.2010 78.0  40 
 PAM  EZ I        1916 39.92         9.4 0.18            154           78.0  40 
 RUS  HZ EP       1916 23.43                             143   -0.3210  101 175 
 RUS  HE ES       1916 42.16                             143    0.0610  101 175 
 RUS  HZ I        1916 43.93         8.1 0.16            144            101 175 
 PTB  HZ EP       1916 26.14                             132   -0.77 9  147 259 
 PTB  HN ES       1916 46.99                             132   -0.72 9  147 259 
 PTB  HZ I        1916 48.24         8.8 0.18            131            147 259 
 ZAR  HZ EP       1916 33.31                             122    0.90 9  203 292 
 ZAR  HE ES       1916 57.38                             122   -0.14 9  203 292 
 ZAR  HZ I        1917  2.69        14.4 0.56            122            203 292 
 NOR  HZ EP       1916 35.74                             118    0.01 8  234 234 
 NOR  HN ES       1917  3.36                             118   -0.06 8  234 234 
 NOR  HZ I        1917  9.23         6.5 0.14            118            234 234 
 CHI  HZ EP       1916 37.87                             117    0.10 8  248 195 
 CHI  HE ES       1917  7.92                             117    0.87 8  248 195 
 CHI  HZ I        1917 11.64         5.5 0.28            117            248 195 
 GUY2CHZ EP   2   1916 43.74                             112    0.11 4  300 235 
 GUY2CHN ES   4   1917 18.91                             112    1.43 0  300 235 
 GUY2CHZ  IAML    1917 26.90         6.3 0.78                           300 235 
                                                                                
