 2015 10 4 1019 34.2 L   6.812 -73.129146.0  RSN 15 0.5 2.0LRSN                1
 GAP=120        0.77       2.9     4.0  4.6 -0.4817E+00  0.3263E+01  0.1382E+01E
 Epicentro: LOS SANTOS - SANTANDER                                             3
 ACTION:UPD 15-12-22 20:37 OP:cam  STATUS:               ID:20151004101934 L   I
 OLDACT:REG 15-10-04 20:24 OP:ar   STATUS:               ID:20151004101749     3
 2015-10-04-1017-49M.COL___352                                                 6
 STAT SP IPHASW D HRMM SECON CODA AMPLIT PERI AZIMU VELO AIN AR TRES W  DIS CAZ7
 BAR2 EZ EP       1019 53.75                             170   -0.1210 25.0 194 
 BAR2 EZ ES       1020  9.01                             170   -0.2210 25.0 194 
 BAR2 EZ I        1020 10.20        16.0 0.14            167           25.0 194 
 BRR  HZ EP       1019 55.74                             152    0.3310 72.2 297 
 BRR  HN ES       1020 12.62                             152    0.6510 72.2 297 
 BRR  HZ I        1020 15.71         9.6 0.26            147           72.2 297 
 PAM  EZ EP       1019 56.52                             152    0.2310 75.2  39 
 PAM  EN ES       1020 13.65                             152    0.1110 75.2  39 
 PAM  EZ I        1020 15.72        17.3 0.48            150           75.2  39 
 RUS  HZ EP   2   1019 57.87                             144   -0.17 5  102 177 
 RUS  HN ES   2   1020 16.65                             144   -0.00 5  102 177 
 RUS  HZ I        1020 17.35        12.2 0.32            139            102 177 
 OCA  HZ EP   2   1020  2.97                             130    0.56 5  159 352 
 OCA  HN ES   2   1020 24.02                             130   -0.41 5  159 352 
 OCA  HZ I        1020 29.10        11.3 0.05            126            159 352 
 SPBC HZ EP   2   1020  2.12                             129   -0.78 5  165 219 
 SPBC HN ES   2   1020 24.42                             129   -0.89 5  165 219 
 SPBC HZ I        1020 26.41        12.8 0.12            124            165 219 
 ZAR  HN ES   2   1020 32.17                             122   -0.01 4  205 292 
 ZAR  HZ I        1020 40.25        11.8 0.28            118            205 292 
 NOR  HZ EP   2   1020 10.20                             119    0.03 4  237 234 
 NOR  HN ES   2   1020 37.55                             119   -0.68 4  237 234 
 NOR  HZ I        1020 45.32         7.7 0.14            114            237 234 
 SML  HZ EP       1020 10.50                             118   -0.28 8  243 335 
 SML  HN ES       1020 38.59                             118   -0.73 8  243 335 
 SML  HZ I        1020 41.52        12.4 0.07            114            243 335 
 CHI  HZ EP   2   1020 12.03                             117   -0.05 4  250 195 
 CHI  HN ES   4   1020 40.17                             117   -1.47 0  250 195 
 CHI  HZ I        1020 44.69         3.9 0.38            113            250 195 
 HEL  HZ EP   4   1020 16.07                             115    1.43 0  274 256 
 HEL  HN ES   2   1020 45.92                             115   -0.28 4  274 256 
 HEL  HZ I        1020 53.73         6.3 0.48            111            274 256 
 GUY2CHZ EP   2   1020 19.01                             112    0.95 4  303 235 
 GUY2CHN ES   2   1020 53.11                             112    0.83 4  303 235 
 GUY2CHZ I        1020 59.82         4.2 0.35                           303 235 
 PTGC HZ EP       1020 17.86                             112   -0.25 7  309 159 
 PTGC HN ES   4   1020 50.96                             112   -1.42 0  309 159 
 PTGC HZ I        1021  6.97        13.2 0.34            108            309 159 
 ORTC HZ EP   2   1020 28.52                             106    0.16 3  398 216 
 ORTC HN ES   2   1021 11.52                             106    0.90 3  398 216 
 ORTC HZ I        1021 18.75         3.2 0.60            103            398 216 
 CRJC HZ EP   4   1020 34.19                             104   -2.33 0  466   3 
 CRJC HE ES   4   1021 21.82                             104   -3.32 0  466   3 
 CRJC HZ I        1021 39.83         6.1 0.76            101            466   3 
                                                                                
