 2011 12 4 1420 42.5 L   6.790 -73.099135.7  RSN  7 0.3 1.7LRSN                1
 GAP=143        0.72       3.5     5.9  5.4  0.2238E+01 -0.4597E+01 -0.2447E+01E
 Epicentro: LOS SANTOS - SANTANDER                                             3
 ACTION:UPD 12-07-13 16:14 OP:ep   STATUS:               ID:20111204142042 L   I
 2011-12-04-1420-00M.COL___182                                                 6
 STAT SP IPHASW D HRMM SECON CODA AMPLIT PERI AZIMU VELO AIN AR TRES W  DIS CAZ7
 BAR2 SZ EP       1421  0.86                             170   -0.0910 23.7 203 
 BAR2 SZ ES       1421 14.93                             170   -0.4010 23.7 203 
 BAR2 SZ I        1421 17.04        32.2 0.25                          23.7 203 
 GIR2 SZ EP   1   1421  0.90                             165   -0.17 7 33.6 342 
 PAM  SZ EP       1421  3.71                             150    0.1710 75.1  36 
 PAM  SN ES   1   1421 20.34                             150    0.41 7 75.1  36 
 BRR  HZ IP     C 1421  2.67                             149   -0.2410 76.3 297 
 BRR  HN ES       1421 19.17                             149    0.3610 76.3 297 
 RUS  HZ EP       1421  5.33                             142    0.1310 99.2 179 
 RUS  HN ES       1421 22.90                             142    0.0210 99.2 179 
 RUS  HZ I        1421 24.90         5.3 0.23                          99.2 179 
 OCA  SZ EP   1   1421  9.76                             127   -0.49 7  162 351 
 CHI  HZ EP   2   1421 20.56                             115    0.84 4  249 196 
 CHI  HZ I        1421 57.91         2.3 0.26                           249 196 
                                                                                
