 2010  9 4 1259 50.2 L   5.906 -73.649117.3  RSN 14 0.3 2.6LRSN                1
 GAP= 92        0.72       2.4     3.7  6.8 -0.3647E+01  0.1304E+02 -0.8735E+00E
 Epicentro: PUENTE NACIONAL - SANTANDER                                        3
 ACTION:UP  11-02-18 11:00 OP:tino STATUS:               ID:20100904125950 L   I
 2010-09-04-1255-22S.COL___120                                                 6
 STAT SP IPHASW D HRMM SECON CODA AMPLIT PERI AZIMU VELO SNR AR TRES W  DIS CAZ7
 RUS  HZ IP     D 13 0  8.51                             150     0.010   63  91 
 RUS  HZ I        13 0  9.06        51.7 0.11                            63  91 
 RUS  HN ES   1   13 0 22.93                             150     0.1 7   63  91 
 BAR2 SZ IP       13 0 10.27                             139     0.110   92  34 
 BAR2 SZ ES   1   13 0 25.99                             139     0.2 7   92  34 
 BAR2 SZ I        13 0 27.26       308.4 0.56                            92  34 
 BTL  SZ EP       13 0 12.73                             131     0.110  120  21 
 BTL  SZ ES   1   13 0 29.68                             131    -0.4 7  120  21 
 BRR  HZ EP       13 0 13.41                             128    -0.110  133 357 
 BRR  HZ I        13 0 13.85        70.8 0.15                           133 357 
 BRR  HN ES   1   13 0 31.77                             128     0.0 7  133 357 
 ROSC BZ EP   2   13 0 15.38                             127     0.7 5  139 212 
 ROSC BZ I        13 0 39.65        30.5 0.30                           139 212 
 GIR2 SZ EP   2   13 0 14.30                             126     0.0 5  139  21 
 CHI  HZ EP   1   13 0 14.99                             126     0.1 7  141 184 
 CHI  HN ES   1   13 0 34.07                             126    -0.1 7  141 184 
 CHI  HZ I        13 0 40.22        23.9 0.42                           141 184 
 CVER SZ EP   2   13 0 16.85                             122    -0.1 5  160 197 
 CVER SZ I        13 0 36.93        25.6 0.41                           160 197 
 GUY  SZ EP   2   13 0 21.67                             115     0.0 4  205 249 
 GUY  SZ I        13 0 52.50        85.2 0.19                           205 249 
 HEL  HZ EP   1   13 0 22.18                             115     0.0 6  210 279 
 HEL  HE ES   1   13 0 46.50                             115    -0.6 6  210 279 
 HEL  HZ I        13 0 52.36        23.3 0.31                           210 279 
 RREF HZ EP   1   13 0 23.49                             114     0.1 6  219 240 
 RREF HE ES   1   13 0 49.99                             114     0.7 6  219 240 
 RREF HZ I        13 0 56.18        29.3 0.23                           219 240 
 ANIL HE ES   2   13 0 55.41                             110     0.7 4  250 231 
 ANIL HZ I        13 0 59.55        36.1 0.37                           250 231 
 OCA  SZ EP   1   13 0 28.05                             109     0.5 6  261   8 
 OCA  SZ ES   1   13 0 56.64                             109     0.0 6  261   8 
 OCA  SZ I        13 1  1.18        34.8 0.34                           261   8 
 PRA  HZ EP   1   13 0 28.91                             108    -0.6 6  279 210 
 PRA  HN ES   1   13 0 59.44                             108    -0.7 6  279 210 
 PRA  HZ I        13 1  7.59        22.0 0.27                           279 210 
                                                                                
