 2015  5 4 1033 34.5 L   6.811 -73.113145.9  RSN  8 0.6 1.8LRSN                1
 GAP=204        1.34       3.9     8.2  8.0 -0.3192E+01  0.8068E+01  0.1554E+01E
 Epicentro: LOS SANTOS - SANTANDER                                             3
 ACTION:UPD 15-09-10 22:01 OP:cam  STATUS:               ID:20150504103334 L   I
 OLDACT:REG 15-05-04 22:14 OP:stll STATUS:               ID:20150504102748     3
 2015-05-04-1027-48M.COL___274                                                 6
 STAT SP IPHASW D HRMM SECON CODA AMPLIT PERI AZIMU VELO AIN AR TRES W  DIS CAZ7
 BAR2 EZ EP       1033 54.37                             170    0.1710 25.4 198 
 BAR2 EZ ES       1034  9.41                             170   -0.1510 25.4 198 
 BAR2 EZ I        1034 11.85        12.5 0.24            169           25.4 198 
 BRR  HZ EP       1033 56.30                             152    0.4810 73.8 296 
 BRR  HN ES       1034 13.39                             152    0.9410 73.8 296 
 BRR  HZ I        1034 18.32         7.4 0.18            149           73.8 296 
 OCA  HZ EP       1034  2.95                             130    0.19 9  159 352 
 OCA  HE ES       1034 24.33                             130   -0.46 9  159 352 
 OCA  HZ I        1034 29.39        19.2 0.34            131            159 352 
 SPBC HZ EP       1034  3.38                             129    0.05 9  166 220 
 SPBC HZ I        1034  3.63         8.5 0.20            130            166 220 
 SPBC HE ES       1034 25.23                             129   -0.58 9  166 220 
 ZAR  HZ EP       1034  7.55                             122    0.29 8  207 291 
 ZAR  HN ES       1034 32.78                             122   -0.03 8  207 291 
 ZAR  HZ I        1034 40.68         5.6 0.32            122            207 291 
 SML  HZ EP       1034 10.85                             117   -0.34 8  244 334 
 SML  HN ES       1034 38.70                             117   -1.09 8  244 334 
 SML  HZ I        1034 47.82         6.4 0.22            119            244 334 
 CHI  HZ EP       1034 12.36                             117   -0.09 8  251 196 
 CHI  HN ES       1034 41.38                             117   -0.67 8  251 196 
 CHI  HZ I        1034 48.73         1.9 0.30            119            251 196 
 GUY2CHZ EP       1034 19.91                             112    1.37 7  305 235 
 GUY2CHN ES       1034 52.35                             112   -0.53 7  305 235 
 GUY2CHZ I        1035  0.93         4.4 0.42                           305 235 
                                                                                
