 2015  1 4 1220  9.5 L   6.631 -73.453114.7  RSN  8 0.5 2.0LRSN                1
 GAP=114        1.23       4.2     5.4  9.7 -0.1621E+01  0.2899E+02 -0.1222E+02E
 Epicentro: EL CARMEN - SANTANDER                                              3
 ACTION:UPD 15-03-02 15:36 OP:nd   STATUS:               ID:20150104122009 L   I
 OLDACT:UP  15-01-04 21:27 OP:cam  STATUS:               ID:20150104121814     3
 OLDACT:REG 15-01-04 20:31 OP:cam  STATUS:               ID:20150104121814     3
 2015-01-04-1218-14M.COL___277                                                 6
 STAT SP IPHASW D HRMM SECON CODA AMPLIT PERI AZIMU VELO AIN AR TRES W  DIS CAZ7
 BAR2 EZ EP       1220 26.31                             164    0.7010 30.2  98 
 BAR2 EZ ES       1220 37.76                             164   -0.4110 30.2  98 
 RUS  HZ EP       1220 30.17                             139    0.5910 91.3 153 
 RUS  HE ES       1220 44.76                             139   -0.4810 91.3 153 
 RUS  HZ I        1220 46.80        22.7 0.22            141           91.3 153 
 PTB  HZ IP   4 C 1220 29.02                             132   -1.62 0  111 265 
 PTB  HZ I        1220 49.41        11.9 0.28            130            111 265 
 SPBC HZ EP       1220 31.90                             128   -0.4010  128 212 
 SPBC HN ES       1220 50.62                             128    0.5410  128 212 
 SPBC HZ I        1220 54.75        16.6 0.12            128            128 212 
 ZAR  HZ EP     D 1220 38.33                             118    0.60 9  182 302 
 ZAR  HN ES       1220 59.43                             118   -0.32 9  182 302 
 ZAR  HZ I        1221  1.92        18.6 0.26            116            182 302 
 NOR  HZ EP     D 1220 38.66                             116   -0.67 9  196 233 
 NOR  HE ES       1221  2.80                             116    0.20 9  196 233 
 NOR  HZ I        1221  3.72         8.7 0.18            115            196 233 
 HEL  HZ EP       1220 43.49                             111   -0.56 8  235 258 
 HEL  HN ES       1221 11.18                             111    0.19 8  235 258 
 HEL  HZ I        1221 14.95         4.3 0.36            110            235 258 
 SML  HZ EP       1220 44.67                             109   -0.59 8  249 344 
 SML  HN ES       1221 13.50                             109    0.36 8  249 344 
 SML  HN I        1221 23.35        20.0 0.10            108            249 344 
                                                                                
