 2012  8 4 1346 57.1 L   6.733 -73.144143.5  RSN  8 0.3 2.0LRSN                1
 GAP= 74        0.72       4.3     3.2  5.9  0.2676E+01  0.6413E+00  0.3226E+01E
 Epicentro: JORDAN - SANTANDER                                                 3
 ACTION:UPD 12-09-10 11:54 OP:ep   STATUS:               ID:20120804134657 L   I
 2012-08-04-1339-40M.COL___212                                                 6
 STAT SP IPHASW D HRMM SECON CODA AMPLIT PERI AZIMU VELO AIN AR TRES W  DIS CAZ7
 BAR2 SZ EP       1347 16.53                             173    0.1610 16.2 195 
 BAR2 SZ ES   2   1347 31.42                             173    0.05 5 16.2 195 
 BAR2 SZ I        1347 32.53        39.6 0.38                          16.2 195 
 GIR2 SZ EP       1347 16.72                             164   -0.0410 38.6 352 
 GIR2 SZ ES   2   1347 31.74                             164   -0.33 5 38.6 352 
 BRR  HZ EP       1347 18.49                             151    0.2210 75.2 303 
 BRR  HN ES   1   1347 35.46                             151    0.70 7 75.2 303 
 BRR  HZ I        1347 37.42        26.4 0.10                          75.2 303 
 PAM  SZ EP       1347 19.44                             149   -0.0210 83.1  36 
 PAM  SZ I        1347 19.74        13.2 0.26                          83.1  36 
 PAM  SN ES   1   1347 36.65                             149   -0.23 7 83.1  36 
 RUS  HZ EP       1347 20.38                             145    0.2410 93.2 176 
 RUS  HN ES   1   1347 38.07                             145   -0.02 7 93.2 176 
 RUS  HZ I        1347 39.56        11.7 0.48                          93.2 176 
 PTB  HZ EP       1347 23.42                             132   -0.40 9  147 262 
 PTB  HN ES   2   1347 43.93                             132   -0.71 5  147 262 
 PTB  HZ I        1347 49.44         7.9 0.12                           147 262 
 TAM  HZ EP       1347 24.70                             130    0.24 9  153 102 
 TAM  HZ I        1347 24.82        15.7 0.12                           153 102 
 TAM  HN ES   1   1347 45.15                             130   -0.61 7  153 102 
 ZAR  HN ES   1   1347 54.83                             121   -0.36 6  207 294 
                                                                                
