 2014  8 4 1444 34.4 L   6.718 -73.168145.1  RSN  4 0.3 1.4LRSN                1
 GAP=241        0.64       7.4     4.7  6.3  0.1200E+02  0.5194E+01  0.5813E+01E
 Epicentro: VILLANUEVA - SANTANDER                                             3
 ACTION:UPD 14-09-15 21:46 OP:nd   STATUS:               ID:20140804144434 L   I
 OLDACT:REG 14-08-04 20:55 OP:spq  STATUS:               ID:20140804143816     3
 2014-08-04-1438-16M.COL___248                                                 6
 STAT SP IPHASW D HRMM SECON CODA AMPLIT PERI AZIMU VELO AIN AR TRES W  DIS CAZ7
 BAR2 SZ EP       1444 53.82                             174    0.0510 14.0 187 
 BAR2 SZ ES   1   1445  8.44                             174   -0.46 7 14.0 187 
 BAR2 SZ I        1445  9.97         3.8 0.18            174           14.0 187 
 BRR  HZ EP       1444 55.68                             151    0.0710 74.0 306 
 BRR  HN ES       1445 12.47                             151    0.3010 74.0 306 
 BRR  HZ I        1445 18.79        14.6 0.36            150           74.0 306 
 PTB  HZ EP       1445  0.95                             133    0.02 9  144 262 
 PTB  HE ES       1445 21.79                             133    0.14 9  144 262 
 PTB  HZ I        1445 26.75         1.5 0.32            134            144 262 
 ZAR  HE ES       1445 31.88                             122   -0.42 8  205 295 
 ZAR  HZ I        1445 35.31         1.7 0.28            124            205 295 
                                                                                
