 2013  3 4 1119 38.0 L   6.764 -73.135138.9  RSN  6 0.3 1.7LRSN                1
 GAP=140        0.89       4.3     3.9  6.5  0.1341E+01  0.5387E+01  0.2418E+00E
 Epicentro: LOS SANTOS - SANTANDER                                             3
 ACTION:UPD 13-04-09 13:59 OP:ep   STATUS:               ID:20130304111938 L   I
 2013-03-04-1118-50M.COL___193                                                 6
 STAT SP IPHASW D HRMM SECON CODA AMPLIT PERI AZIMU VELO AIN AR TRES W  DIS CAZ7
 BAR2 SZ IP       1119 56.71                             172    0.0110 19.7 195 
 BAR2 SZ I        1119 56.85        14.1 0.22            174           19.7 195 
 BAR2 SZ ES       1120 10.96                             172   -0.3610 19.7 195 
 BRR  HZ EP       1119 58.63                             150    0.0710 74.2 301 
 BRR  HN ES       1120 14.75                             150    0.1310 74.2 301 
 BRR  HN I        1120 19.99        19.2 0.18            150           74.2 301 
 PAM  SZ EP       1119 59.74                             149    0.1410 79.7  37 
 PAM  SN ES       1120 16.43                             149   -0.0510 79.7  37 
 PAM  SZ I        1120 18.62         3.9 0.42            150           79.7  37 
 RUS  HZ EP       1120  1.19                             143    0.4410 96.5 177 
 RUS  HN ES       1120 18.56                             143    0.0310 96.5 177 
 PTB  HZ EP       1120  3.52                             130   -0.91 9  148 260 
 PTB  HE ES       1120 25.36                             130    0.29 9  148 260 
 ZAR  HE ES       1120 35.58                             120    0.15 8  207 293 
                                                                                
