 2016  7 4 1036  7.1 L   6.764 -73.139141.9  RSN  9 0.3 1.7LRSN                1
 GAP=139        0.71       2.6     2.9  4.1 -0.9195E+00  0.3423E+01  0.1727E+01E
 Epicentro: LOS SANTOS - SANTANDER                                             3
 ACTION:UPD 17-03-29 16:46 OP:lp   STATUS:               ID:20160704103607 L   I
 OLDACT:DUP 16-07-04 21:15 OP:edw  STATUS:               ID:20160704102746d    3
 2016-07-04-1027-44M.COL___307                                                 6
 STAT SP IPHASW D HRMM SECON CODA AMPLIT PERI AZIMU VELO AIN AR TRES W  DIS CAZ7
 BAR2 EZ EP       1036 26.10                             172   -0.1310 19.6 194 
 BAR2 EZ ES       1036 41.16                             172    0.0410 19.6 194 
 BAR2 EZ I        1036 43.91        12.1 0.28            169           19.6 194 
 BRR  HZ EP       1036 27.95                             151   -0.0710 73.8 301 
 BRR  HN ES       1036 44.74                             151    0.4310 73.8 301 
 PAM  EZ EP       1036 28.99                             149   -0.1210 80.0  37 
 PAM  EN ES       1036 46.19                             149   -0.0510 80.0  37 
 RUS  HZ EP       1036 30.32                             144    0.1010 96.5 176 
 RUS  HN ES       1036 48.20                             144   -0.0210 96.5 176 
 RUS  HZ I        1036 51.61         4.1 0.30            145           96.5 176 
 PTB  HZ EP       1036 33.15                             131   -0.64 9  148 260 
 PTB  HN ES       1036 54.20                             131   -0.38 9  148 260 
 PTB  HZ I        1037  0.10         4.1 0.16            131            148 260 
 SPBC HZ EP       1036 35.05                             129   -0.04 9  161 220 
 SPBC HN ES       1036 57.01                             129    0.11 9  161 220 
 SPBC HZ I        1036 59.84         9.2 0.36            129            161 220 
 ZAR  HZ EP       1036 40.13                             121    0.56 8  206 293 
 ZAR  HE ES       1037  4.81                             121   -0.05 8  206 293 
 ZAR  HZ I        1037 11.24         4.9 0.21            122            206 293 
 NOR  HZ EP       1036 42.83                             118    0.37 8  233 235 
 NOR  HE ES       1037  9.83                             118   -0.19 8  233 235 
 CHI  HZ EP   4   1036 43.82                             117   -0.41 0  245 196 
 CHI  HN ES   4   1037 12.79                             117   -0.36 0  245 196 
 GUY2CHZ EP   4   1036 47.53                             112   -2.85 0  300 235 
 GUY2CHN ES   4   1037 26.77                             112    2.66 0  300 235 
 PRA  HZ EP       1037  0.10                             106   -0.06 6  389 210 
 PRA  HE ES       1037 42.04                             106    0.52 6  389 210 
 PRA  HZ I        1037 48.71         2.0 0.25            107            389 210 
                                                                                
