 2011 12 4 1804 16.4 L   6.750 -73.079142.0  RSN  7 0.3 1.8LRSN                1
 GAP=148        0.75       5.1     6.4  6.7  0.4591E+00 -0.3255E+01 -0.4698E+00E
 Epicentro: LOS SANTOS - SANTANDER                                             3
 ACTION:UPD 12-07-13 16:14 OP:ep   STATUS:               ID:20111204180416 L   I
 2011-12-04-1800-00M.COL___181                                                 6
 STAT SP IPHASW D HRMM SECON CODA AMPLIT PERI AZIMU VELO AIN AR TRES W  DIS CAZ7
 BAR2 SZ EP       18 4 35.32                             171   -0.1710 20.9 213 
 BAR2 SZ ES   2   18 4 50.73                             171    0.32 5 20.9 213 
 BAR2 SZ I        18 4 53.82         9.8 0.19                          20.9 213 
 GIR2 SZ EP   2   18 4 35.59                             164   -0.22 5 38.5 341 
 PAM  SZ EP   1   18 4 37.99                             150   -0.19 7 77.5  33 
 PAM  SN ES   1   18 4 55.07                             150   -0.13 7 77.5  33 
 BRR  HZ EP       18 4 37.18                             149   -0.4810 80.4 299 
 BRR  HN ES       18 4 54.29                             149    0.0210 80.4 299 
 BRR  HN I        18 4 55.39        59.1 0.12                          80.4 299 
 RUS  HZ EP   1   18 4 39.46                             145    0.13 7 94.8 180 
 RUS  HN ES   2   18 4 57.76                             145    0.52 5 94.8 180 
 RUS  HZ I        18 5  1.39         5.0 0.35                          94.8 180 
 OCA  SZ EP       18 4 45.71                             127    0.70 9  167 351 
 HEL  HZ EP   2   18 4 57.11                             113    0.06 4  278 257 
 HEL  HZ I        18 5 32.73         3.3 0.35                           278 257 
                                                                                
