 2013 10 4 1415 17.8 L   6.792 -73.135137.6  RSN 13 0.7 2.4LRSN 2.8WRSN        1
 SPEC AVERAGE  MO 13.3 ST278.6 OM  1.6 f0 21.8 R0.1254 AL 0.00 WI 20.0 MW  2.8 3
 SPEC SD       MO  0.2 ST346.6 OM  0.4 f0 12.0 R0.0800 AL      WI      MW  0.1 3
 GAP=138        1.75       5.2     6.1  8.7 -0.8544E+01  0.1267E+02  0.6073E+01E
 Epicentro: LOS SANTOS - SANTANDER                                             3
 SPEC BAR2SH Z MO 13.6 ST 31.4 OM  1.8 f0 10.7 R0.1798 AL-0.00 WI 20.0 MW  3.0 3
 SPEC BAR2SH Z T141547 K 0.050 GD  139 VS 5.20 DE 3.20 Q0750.0 QA 1.50 VS 5.20 3
 SPEC BRR HH Z MO 13.4 ST 43.7 OM  1.5 f0 14.5 R0.1327 AL-0.00 WI 20.0 MW  2.9 3
 SPEC BRR HH Z T141553 K 0.050 GD  155 VS 5.20 DE 3.20 Q0750.0 QA 1.50 VS 5.20 3
 SPEC PAM SH Z MO 13.4 ST  3.3 OM  1.5 f0 6.10 R0.3154 AL-0.00 WI 20.0 MW  2.9 3
 SPEC PAM SH Z T141554 K 0.050 GD  157 VS 5.20 DE 3.20 Q0750.0 QA 1.50 VS 5.20 3
 SPEC RUS HH Z MO 12.9 ST 16.0 OM  1.0 f0 14.8 R0.1300 AL-0.00 WI 20.0 MW  2.5 3
 SPEC RUS HH Z T141557 K 0.050 GD  169 VS 5.20 DE 3.20 Q0750.0 QA 1.50 VS 5.20 3
 SPEC PTB HH Z MO 13.4 ST949.1 OM  1.4 f0 40.0 R0.0481 AL-0.00 WI 20.0 MW  2.9 3
 SPEC PTB HH Z T1416 2 K 0.050 GD  202 VS 5.20 DE 3.20 Q0750.0 QA 1.50 VS 5.20 3
 SPEC SPBCHH Z MO 13.3 ST358.5 OM  1.3 f0 30.7 R0.0627 AL-0.00 WI 20.0 MW  2.8 3
 SPEC SPBCHH Z T1416 6 K 0.050 GD  213 VS 5.20 DE 3.20 Q0750.0 QA 1.50 VS 5.20 3
 SPEC ZAR HH Z MO 13.4 ST240.6 OM  1.3 f0 25.6 R0.0752 AL-0.00 WI 20.0 MW  2.9 3
 SPEC ZAR HH Z T141613 K 0.050 GD  246 VS 5.20 DE 3.20 Q0750.0 QA 1.50 VS 5.20 3
 SPEC NOR HH Z MO 13.3 ST 35.2 OM  1.2 f0 14.1 R0.1365 AL-0.00 WI 20.0 MW  2.8 3
 SPEC NOR HH Z T141619 K 0.050 GD  272 VS 5.20 DE 3.20 Q0750.0 QA 1.50 VS 5.20 3
 SPEC SML HH Z MO 13.3 ST829.7 OM  1.2 f0 40.0 R0.0481 AL-0.00 WI 20.0 MW  2.8 3
 SPEC SML HH Z T141619 K 0.050 GD  280 VS 5.20 DE 3.20 Q0750.0 QA 1.50 VS 5.20 3
 SPECGUY2CHH Z MO 16.0 ST  0.0 OM  3.8 f00.100 R  19.3 AL-0.00 WI 20.0 MW  4.6 3
 SPECGUY2CHH Z T141633 K 0.050 GD331.9 VS 5.20 DE 3.20 Q0750.0 QA 1.50 VS 5.20 3
 OLDACT:REG 13-10-04 13:59 OP:stll STATUS:               ID:20131004140848     3
 ACTION:UPD 13-11-25 09:19 OP:ep   STATUS:               ID:20131004141517 L   I
 OLDACT:UP  13-10-04 20:55 OP:stll STATUS:               ID:20131004140848     3
 2013-10-04-1408-48M.COL___235                                                 6
 STAT SP IPHASW D HRMM SECON CODA AMPLIT PERI AZIMU VELO AIN AR TRES W  DIS CAZ7
 BAR2 SZ IP     D 1415 36.83                             170    0.3810 22.7 193 
 BAR2 SZ ES       1415 49.35                             170   -1.6310 22.7 193 
 BAR2 SZ I        1415 56.89        54.5 0.36            164           22.7 193 
 BRR  HZ IP     C 1415 38.61                             150    0.4410 72.7 299 
 BRR  HN ES       1415 55.32                             150    1.2710 72.7 299 
 BRR  SZ I        1415 56.24        43.7 0.14            135           72.7 299 
 PAM  SZ EP       1415 39.51                             149    0.3510 77.3  38 
 PAM  SN ES       1415 56.49                             149    0.6810 77.3  38 
 PAM  SZ I        1415 58.89        39.4 0.36            139           77.3  38 
 RUS  HZ EP       1415 40.94                             142    0.2410 99.6 177 
 RUS  HN ES       1415 59.31                             142    0.7610 99.6 177 
 RUS  SZ I        1416  1.30        13.5 0.12            130           99.6 177 
 PTB  HZ EP       1415 43.41                             130   -0.81 9  149 259 
 PTB  HN ES       1416  4.09                             130   -0.73 9  149 259 
 PTB  SZ I        1416  9.26        35.7 0.16            116            149 259 
 CAPV BZ EP       1415 44.70                             130    0.14 9  149  37 
 CAPV BZ ES       1416  4.11                             130   -1.30 9  149  37 
 SPBC HZ EP       1415 45.85                             127    0.14 9  163 220 
 SPBC SZ I        1416 16.71        29.9 0.22            114            163 220 
 ZAR  HZ EP       1415 50.40                             120    0.51 8  205 292 
 ZAR  HE ES       1416 15.01                             120    0.10 8  205 292 
 ZAR  SZ I        1416 20.56        36.9 0.60            109            205 292 
 NOR  HZ EP       1415 53.14                             117    0.01 8  235 235 
 NOR  SZ I        1416 28.25        19.7 0.18            106            235 235 
 SML  HZ EP       1415 53.22                             116   -0.92 8  245 335 
 SML  SZ I        1416 30.61        32.0 0.08            106            245 335 
 CHI  HZ EP       1415 55.36                             115    0.35 8  248 195 
 CHI  HN ES       1416 23.71                             115   -0.32 8  248 195 
 CHI  SZ I        1416 35.33         8.5 0.38            106            248 195 
 GUY2CHZ EP       1416  1.49                             111    0.38 7  302 235 
 GUY2CHN ES       1416 34.66                             111   -0.22 7  302 235 
 GUY2CSZ I        1416 46.89        13.8 0.52                           302 235 
 PRA  HZ EP       1416 11.01                             105   -0.03 6  392 210 
 PRA  HN ES       1416 51.89                             105   -0.67 6  392 210 
 PRA  SZ I        1416 59.28        12.1 0.56             99            392 210 
                                                                                
