 2012  3 4 1506 51.9 L   6.639 -73.216147.0  RSN  5 0.3 1.4LRSN                1
 GAP=191        0.65       7.5     7.6  7.8  0.4058E+02  0.6325E+01 -0.8195E+00E
 ACTION:UP  12-03-31 23:17 OP:EP   STATUS:               ID:20120304150651 L   I
 2012-03-04-1500-00M.COL___191                                                 6
 STAT SP IPHASW D HRMM SECON CODA AMPLIT PERI AZIMU VELO SNR AR TRES W  DIS CAZ7
 BAR2 SZ EP   1   15 7 11.06                             177    -0.4 7    6 144 
 BAR2 SZ ES   1   15 7 26.58                             177    -0.1 7    6 144 
 BAR2 SZ I        15 7 27.85         4.0 0.25                             6 144 
 BRR  HZ EP   1   15 7 13.17                             151    -0.2 7   75 313 
 BRR  HN ES   1   15 7 30.49                             151     0.3 7   75 313 
 BRR  HZ I        15 7 35.16         7.8 0.13                            75 313 
 RUS  HZ EP   1   15 7 15.06                             149     0.5 7   84 170 
 RUS  HN ES   1   15 7 32.30                             149     0.0 7   84 170 
 RUS  HZ I        15 7 34.89         3.1 0.28                            84 170 
 PTB  HN ES   2   15 7 38.24                             134    -0.2 5  138 265 
 ZAR  HN ES   1   15 7 49.86                             123     0.0 6  204 298 
 ZAR  HZ I        15 7 52.94         3.0 0.11                           204 298 
                                                                                
