 2012 10 4 1406 47.0 L   6.805 -73.117148.2  RSN 15 0.5 2.7LRSN 3.3WRSN        1
 SPEC AVERAGE  MO 14.0 ST  2.2 OM  2.6 f0 2.33 R0.6502 AL 1.74 WI 15.2 MW  3.3 3
 SPEC SD       MO  0.2 ST  1.9 OM  0.8 f00.380 R0.1156 AL      WI      MW  0.1 3
 GAP=101        0.96       4.2     3.9  5.7 -0.1709E+01  0.3356E+01  0.5277E+01E
 Epicentro: LOS SANTOS - SANTANDER                                             3
 XNEAR  100.0 XFAR  800.0 SDEP 100.0                                           3
 SPEC TAM HH Z MO 14.2 ST  1.8 OM  1.7 f0 2.06 R0.7136 AL 1.68 WI  6.7 MW  3.4 3
 SPEC TAM HH Z T14 714 K 0.000 GD  212 VP 7.60 DE 3.00 Q0230.0 QA 0.60 VS 4.20 3
 SPEC PRA HH N MO 14.1 ST0.900 OM  2.1 f0 1.74 R0.8448 AL 1.38 WI 13.5 MW  3.3 3
 SPEC PRA HH N T14 823 K 0.000 GD  420 VS 4.20 DE 3.00 Q0230.0 QA 0.60 VS 4.20 3
 SPEC PAM SH N MO 13.7 ST  1.0 OM  2.1 f0 2.47 R0.5951 AL 2.29 WI 16.5 MW  3.1 3
 SPEC PAM SH N T14 726 K 0.000 GD  166 VS 4.20 DE 3.00 Q0230.0 QA 0.60 VS 4.20 3
 SPEC HEL HH Z MO 13.8 ST  1.6 OM  1.2 f0 2.56 R0.5742 AL 1.52 WI 25.1 MW  3.2 3
 SPEC HEL HH Z T14 728 K 0.000 GD  312 VP 7.60 DE 3.00 Q0230.0 QA 0.60 VS 4.20 3
 SPEC BRR HH N MO 14.3 ST  5.9 OM  2.7 f0 2.81 R0.5231 AL 1.82 WI 14.3 MW  3.5 3
 SPEC BRR HH N T14 726 K 0.000 GD  165 VS 4.20 DE 3.00 Q0230.0 QA 0.60 VS 4.20 3
 ACTION:UP  12-11-22 17:01 OP:ep   STATUS:               ID:20121004140647 L   I
 2012-10-04-1400-00M.COL___222                                                 6
 STAT SP IPHASW D HRMM SECON CODA AMPLIT PERI AZIMU VELO AIN AR TRES W  DIS CAZ7
 BAR2 SZ IP       14 7  6.80                             170   -0.1310 24.6 197 
 BAR2 SZ ES   1   14 7 22.23                             170   -0.27 7 24.6 197 
 BAR2 SZ I        14 7 23.49        98.6 0.28                          24.6 197 
 BRR  HZ EP       14 7  8.67                             152    0.1310 73.8 297 
 BRR  HZ I        14 7 10.19        72.0 0.10                          73.8 297 
 BRR  HN ES   1   14 7 26.03                             152    0.67 7 73.8 297 
 PAM  SZ EP       14 7  9.65                             152    0.3310 75.0  38 
 PAM  SN ES   1   14 7 26.51                             152   -0.23 7 75.0  38 
 PAM  SN I        14 7 27.33        56.9 0.40                          75.0  38 
 RUS  HZ EP       14 7 10.65                             144   -0.3510  101 178 
 RUS  HN ES   1   14 7 29.30                             144   -0.44 7  101 178 
 RUS  HN I        14 7 30.11        22.4 0.36                           101 178 
 TAM  HZ IP     D 14 7 14.94                             132    0.35 9  152 105 
 TAM  HZ I        14 7 15.05        48.9 0.34                           152 105 
 TAM  HN ES   1   14 7 36.64                             132    0.52 7  152 105 
 ZAR  HE ES   2   14 7 44.55                             122   -0.97 4  207 292 
 ZAR  HN I        14 7 50.33        72.5 0.54                           207 292 
 AGZ  SZ EP       14 7 20.88                             121   -0.25 8  219 161 
 NOR  SN ES   2   14 7 51.17                             119   -0.21 4  238 235 
 CHI  HZ EP       14 7 24.32                             117   -0.64 8  250 196 
 CHI  HN ES   1   14 7 54.47                             117   -0.12 6  250 196 
 CHI  HZ I        14 7 59.87        16.8 0.46                           250 196 
 ROSC BZ EP   3   14 7 26.80                             117    1.34 2  255 212 
 ROSC BN ES   3   14 7 56.84                             117    1.36 2  255 212 
 HEL  HZ EP       14 7 28.76                             115    1.09 8  275 256 
 GUY  SZ EP       14 7 31.66                             112    0.37 7  306 235 
 GUY  SN I        14 8 13.14       190.4 0.40                           306 235 
 DBB  SZ EP       14 7 34.16                             110   -0.75 7  343 274 
 DBB  SZ I        14 8 12.64        23.1 0.34                           343 274 
 SDV  BZ EP       14 7 36.10                             109   -0.69 6  358  50 
 PRA  HZ EP       14 7 40.99                             107    0.17 6  394 210 
 PRA  HN ES   1   14 8 23.25                             107    0.43 4  394 210 
 PRA  HN I        14 8 27.38        17.4 0.66                           394 210 
                                                                                
