 2010  2 4 1334 17.1 L   6.849 -72.986148.8  RSN  7 0.3 2.2LRSN                1
 GAP=240        0.57       4.5     5.1  7.6 -0.2844E+00  0.1612E+02  0.3821E+01E
 Epicentro: CEPITA - SANTANDER                                                 3
 ACTION:UP  10-08-24 09:47 OP:vdl  STATUS:               ID:20100204133416 L   I
 2010-02-04-1319-54S.COL___092                                                 6
 STAT SP IPHASW D HRMM SECON CODA AMPLIT PERI AZIMU VELO SNR AR TRES W  DIS CAZ7
 BAR2 SZ IP       1334 37.28                             166    -0.110   36 218 
 BAR2 SZ ES   2   1334 52.83                             166    -0.4 5   36 218 
 RUS  HZ EP   2   1334 41.95                             143     0.4 5  106 186 
 RUS  HE ES   2   1335  1.10                             143     0.5 5  106 186 
 RUS  HZ I        1335  1.95        10.0 0.40                           106 186 
 CHI  HZ EP   1   1334 55.96                             117    -0.1 6  259 199 
 CHI  HE ES       1335 26.37                             117    -0.1 8  259 199 
 CHI  HZ I        1335 31.66         6.7 0.37                           259 199 
 HEL  HZ EP   2   1334 59.22                             114    -0.2 4  291 256 
 HEL  HN ES       1335 32.66                             114     0.1 7  291 256 
 HEL  HZ I        1335 36.71        11.0 0.56                           291 256 
 RREF HN ES   1   1335 43.12                             110     0.3 5  339 231 
 RREF HZ I        1335 50.16         9.6 0.99                           339 231 
 MON  HZ EP   2   1335  7.34                             108     0.0 3  364 306 
 MON  HZ I        1335 50.81         3.5 0.43                           364 306 
 PRA  HZ EP   2   1335 12.92                             106     0.7 3  406 211 
 PRA  HE ES   1   1335 54.58                             106    -0.8 4  406 211 
 PRA  HZ I        1335 58.61         8.3 0.33                           406 211 
                                                                                
