 2013 12 4 1417 50.1 L   6.795 -73.183154.3  RSN  4 0.4 1.4LRSN                1
 GAP=197        0.77       5.4     6.7  8.8  0.1845E+02 -0.7034E+01 -0.1098E+02E
 Epicentro: LOS SANTOS - SANTANDER                                             3
 ACTION:UPD 14-01-13 10:15 OP:ep   STATUS:               ID:20131204141750 L   I
 OLDACT:REG 13-12-04 14:51 OP:cam  STATUS:               ID:20131204141000     3
 2013-12-04-1410-00M.COL___285                                                 6
 STAT SP IPHASW D HRMM SECON CODA AMPLIT PERI AZIMU VELO AIN AR TRES W  DIS CAZ7
 BRR  HZ EP   2   1418 12.43                             155    0.38 5 67.9 301 
 BRR  HN ES   1   1418 29.66                             155    0.52 8 67.9 301 
 RUS  HZ EP       1418 15.03                             145    0.2910  100 174 
 RUS  HN ES       1418 33.50                             145   -0.4210  100 174 
 RUS  HZ I        1418 34.62         3.5 0.28            144            100 174 
 PTB  HZ EP       1418 17.44                             135   -0.02 9  144 259 
 PTB  HN ES       1418 38.73                             135   -0.04 9  144 259 
 PTB  HZ I        1418 43.78         3.7 0.30            132            144 259 
 SML  HE ES   1   1418 55.44                             119   -0.55 6  242 336 
                                                                                
