 2014  7 4 1054 41.1 L   6.145 -73.808 23.9  RSN  6 0.4 0.9LRSN                1
 GAP=113        1.06       3.3     2.6  4.9  0.7908E+00  0.5539E+01  0.9496E+00E
 Epicentro: LANDAZURI - SANTANDER                                              3
 ACTION:UPD 15-03-16 20:41 OP:nd   STATUS:               ID:20140704105441 L   I
 OLDACT:DUP 14-07-05 01:07 OP:spq  STATUS:               ID:20140704104819d    3
 OLDACT:REG 14-07-04 17:26 OP:spq  STATUS:               ID:20140704104818     3
 2014-07-04-1048-18M.COL___247                                                 6
 STAT SP IPHASW D HRMM SECON CODA AMPLIT PERI AZIMU VELO AIN AR TRES W  DIS CAZ7
 SPBC HN ES       1054 59.60                             109   -0.3410 61.8 208 
 SPBC HZ I        1055  7.80         3.0 0.08            128           61.8 208 
 PTB  HZ EP       1054 54.33                             104   -0.5110 84.0 301 
 PTB  HN ES       1055  6.12                             104    0.5910 84.0 301 
 PTB  HZ I        1055  7.06         7.4 0.10            116           84.0 301 
 RUS  HN ES       1055  7.02                             104    0.3410 84.9 109 
 RUS  HZ I        1055 12.82         1.2 0.29            112           84.9 109 
 BAR2 SZ ES   1   1055  5.75                             104   -0.49 7 85.1  54 
 BAR2 SZ I        1055 18.30         3.0 0.16            111           85.1  54 
 HEL  HZ EP       1055  8.80                              56   -0.14 9  191 272 
 HEL  HN ES       1055 30.33                              56   -0.31 9  191 272 
 HEL  HZ I        1055 32.47         3.1 0.22             98            191 272 
 GUY2CHZ EP       1055 11.00                              56    0.71 9  200 240 
 GUY2CHN ES   1   1055 33.05                              56    0.02 6  200 240 
 GUY2CHZ I        1055 39.35         1.1 0.46                           200 240 
                                                                                
