 2015  4 4 1956 28.6 L   6.815 -73.185135.4  RSN  9 0.5 1.6LRSN                1
 GAP=131        1.10       3.8     4.6  6.7 -0.3876E+01  0.1290E+02 -0.2418E+01E
 Epicentro: ZAPATOCA - SANTANDER                                               3
 ACTION:UPD 15-06-03 16:52 OP:cam  STATUS:               ID:20150404195628 L   I
 OLDACT:DUP 15-04-04 22:44 OP:fm   STATUS:               ID:20150404194751d    3
 2015-04-04-1947-50M.COL___285                                                 6
 STAT SP IPHASW D HRMM SECON CODA AMPLIT PERI AZIMU VELO AIN AR TRES W  DIS CAZ7
 BAR2 EZ ES   1   1957  1.46                             169    0.10 7 24.6 179 
 BAR2 EZ I        1957  3.45         9.2 0.10            172           24.6 179 
 BRR  HZ IP     C 1956 48.80                             152    0.4510 66.6 299 
 BRR  HN ES       1957  4.02                             152    0.2510 66.6 299 
 BRR  HZ I        1957  8.57         8.2 0.52            151           66.6 299 
 PAM  SZ EP       1956 49.85                             148    0.0410 79.0  43 
 PAM  SE ES       1957  6.39                             148    0.0210 79.0  43 
 PAM  SZ I        1957  8.88        10.0 0.48            152           79.0  43 
 RUS  HN ES       1957  9.14                             141   -0.2110  103 174 
 RUS  HZ I        1957 11.65         2.8 0.40            147            103 174 
 PTB  HZ EP       1956 54.07                             130   -0.29 9  144 258 
 PTB  HN ES       1957 14.09                             130   -0.37 9  144 258 
 PTB  HZ I        1957 18.89         4.5 0.12            132            144 258 
 ZAR  HZ EP       1957  0.74                             121    0.86 9  199 292 
 ZAR  HN ES       1957 24.73                             121    0.43 9  199 292 
 ZAR  HZ I        1957 30.95         7.4 0.50            123            199 292 
 NOR  HZ EP       1957  3.43                             116   -0.02 8  232 234 
 NOR  HN ES       1957 29.88                             116   -0.77 8  232 234 
 NOR  HZ I        1957 32.44         3.7 0.20            120            232 234 
 SML  HZ EP       1957  3.33                             116   -0.96 8  240 336 
 SML  HE ES       1957 31.64                             116   -0.50 8  240 336 
 SML  HZ I        1957 37.37         7.8 0.26            118            240 336 
 GUY2CHZ EP       1957 12.14                             110    0.70 7  299 234 
 GUY2CHE ES       1957 45.07                             110    0.21 7  299 234 
 GUY2CHZ I        1957 51.60         1.6 0.38                           299 234 
                                                                                
