 2014  8 4 1009 25.5 L   6.814 -73.142144.1  RSN 21 0.4 2.2LRSN                1
 GAP=136        0.89       2.1     3.3  4.6 -0.1441E+01  0.3599E+01  0.1628E+01E
 Epicentro: LOS SANTOS - SANTANDER                                             3
 ACTION:UPD 14-09-15 21:46 OP:nd   STATUS:               ID:20140804100925 L   I
 OLDACT:REG 14-08-04 20:28 OP:spq  STATUS:               ID:20140804100813     3
 2014-08-04-1008-13M.COL___245                                                 6
 STAT SP IPHASW D HRMM SECON CODA AMPLIT PERI AZIMU VELO AIN AR TRES W  DIS CAZ7
 BAR2 SZ EP       10 9 45.02                             170    0.0510 24.9 190 
 BAR2 SZ ES   1   10 9 59.78                             170   -0.37 7 24.9 190 
 BAR2 SZ I        1010  2.19        24.1 0.30            168           24.9 190 
 BRR  HZ IP     D 10 9 46.99                             152    0.5310 70.8 297 
 BRR  HE ES       1010  3.36                             152    0.5710 70.8 297 
 BRR  HZ I        1010  5.01        15.0 0.20            149           70.8 297 
 PAM  SZ EP   1   10 9 48.17                             151    0.71 7 76.0  40 
 PAM  SE ES   1   1010  4.03                             151   -0.55 7 76.0  40 
 PAM  SZ I        1010  7.28        37.7 0.46            156           76.0  40 
 RUS  HZ EP   1   10 9 48.47                             143   -0.74 7  102 176 
 RUS  HE ES       1010  8.12                             143    0.4310  102 176 
 RUS  HZ I        1010  9.84        15.6 0.24            145            102 176 
 PTB  HZ EP       10 9 51.87                             132   -0.54 9  148 258 
 PTB  HE ES       1010 12.71                             132   -0.67 9  148 258 
 PTB  HZ I        1010 19.90        13.1 0.26            131            148 258 
 OCA  HZ EP       10 9 53.54                             130   -0.01 9  159 353 
 OCA  HE ES       1010 15.21                             130   -0.21 9  159 353 
 OCA  HZ I        1010 19.72        16.0 0.38            131            159 353 
 SPBC HZ EP       10 9 53.93                             128   -0.09 9  165 219 
 SPBC HE ES       1010 15.92                             128   -0.33 9  165 219 
 SPBC HZ I        1010 18.85        25.2 0.35            129            165 219 
 ZAR  HZ EP       10 9 57.60                             122   -0.23 9  204 292 
 ZAR  HN ES       1010 22.90                             122   -0.13 9  204 292 
 ZAR  HZ I        1010 29.66        10.1 0.14            122            204 292 
 NOR  HZ EP   1   1010  0.72                             118   -0.55 6  236 234 
 NOR  HE ES       1010 29.53                             118    0.36 8  236 234 
 NOR  HZ I        1010 31.75        11.2 0.15            118            236 234 
 SML  HZ EP   1   1010  1.40                             117   -0.51 6  242 335 
 SML  HE ES       1010 30.83                             117    0.53 8  242 335 
 SML  HZ I        1010 33.62        22.3 0.08            118            242 335 
 CHI  HZ EP       1010  3.36                             117    0.07 8  250 195 
 CHI  HN ES       1010 32.71                             117   -0.05 8  250 195 
 CHI  HZ I        1010 36.19         7.8 0.42            118            250 195 
 ROSC BZ EP   4   1010  5.20                             116    1.49 0  254 211 
 ROSC BN ES       1010 33.89                             116    0.39 8  254 211 
 ROSC BZ I        1010 43.38        11.5 0.35            117            254 211 
 HEL  HN ES       1010 37.14                             114    0.05 8  273 256 
 HEL  HZ I        1010 44.09         7.7 0.44            115            273 256 
 URE  HN ES   4   1010 37.43                             113   -1.00 0  284 292 
 URE  HZ I        1010 47.82         9.8 0.16            114            284 292 
 GUY2CHZ EP   1   1010  9.09                             112   -0.09 5  302 235 
 GUY2CHE ES       1010 43.01                             112   -0.23 7  302 235 
 GUY2CHZ I        1010 55.37         6.1 0.46                           302 235 
 PTGC HZ EP   4   1010  8.40                             111   -1.04 0  310 159 
 PTGC HE ES   4   1010 38.68                             111   -5.02 0  310 159 
 PTGC HZ I        1010 43.47        21.1 0.34            113            310 159 
 RREF HZ EP   4   1010 14.59                             110    2.86 0  323 229 
 RREF HN ES       1010 48.31                             110    0.53 7  323 229 
 RREF HZ I        1010 55.67         7.5 0.26            111            323 229 
 TOL  SZ EP       1010 14.46                             109    0.60 7  345 225 
 TOL  SE ES       1010 51.42                             109   -0.15 7  345 225 
 TOL  SZ I        1010 58.73        14.7 0.48            110            345 225 
 PRA  HZ EP       1010 19.00                             106   -0.15 6  394 210 
 PRA  HN ES       1011  0.74                             106   -0.25 6  394 210 
 PRA  HZ I        1011  6.88         4.5 0.30            107            394 210 
 ORTC HZ EP       1010 19.68                             106    0.13 6  397 216 
 ORTC HN ES       1011  2.06                             106    0.37 6  397 216 
 ORTC HZ I        1011  6.66         3.7 0.28            107            397 216 
 SJC  HZ EP   4   1010 19.33                             105   -1.56 0  408 327 
 SJC  HN ES   4   1011  0.57                             105   -3.52 0  408 327 
 SJC  HZ I        1011  4.81         2.4 0.54            107            408 327 
                                                                                
