 2016 10 4 1836 12.4 L   6.813 -73.184144.7  RSN  5 0.1 1.4LRSN                1
 GAP=131        0.41       2.2     1.9  4.4 -0.1266E-01  0.2528E+01  0.6254E-01E
 Epicentro: ZAPATOCA - SANTANDER                                               3
 ACTION:UPD 16-11-09 19:16 OP:rebc STATUS:               ID:20161004183612 L   I
 OLDACT:REG 16-10-04 20:12 OP:lv   STATUS:               ID:20161004182746     3
 2016-10-04-1828-00M.COL___353                                                 6
 STAT SP IPHASW D HRMM SECON CODA AMPLIT PERI AZIMU VELO AIN AR TRES W  DIS CAZ7
 BAR2 EZ EP       1836 31.73                             170   -0.2010 24.4 179 
 PAM  EZ EP       1836 34.56                             150   -0.0510 79.1  43 
 PAM  EE ES       1836 52.03                             150    0.0910 79.1  43 
 PAM  EZ I        1836 53.83         5.2 0.53            156           79.1  43 
 RUS  HZ EP       1836 36.15                             143   -0.0310  102 174 
 RUS  HE ES       1836 54.78                             143    0.0510  102 174 
 RUS  HZ I        1836 57.23         2.8 0.21            147            102 174 
 PTB  HZ EP       1836 39.20                             133    0.27 9  144 258 
 PTB  HN ES       1836 59.56                             133   -0.07 9  144 258 
 PTB  HZ I        1837  5.79         3.7 0.33            135            144 258 
 ZAR  HE ES       1837  9.16                             123   -0.05 9  200 292 
                                                                                
