 2013  3 4 1632 45.7 L   6.717 -73.188140.7  RSN  4 0.4 2.0LRSN                1
 GAP=226        1.02       7.8     7.8  9.3  0.3071E+02 -0.1299E+01 -0.1704E+00E
 Epicentro: VILLANUEVA - SANTANDER                                             3
 ACTION:UPD 13-04-09 13:59 OP:ep   STATUS:               ID:20130304163245 L   I
 2013-03-04-1628-48M.COL___193                                                 6
 STAT SP IPHASW D HRMM SECON CODA AMPLIT PERI AZIMU VELO AIN AR TRES W  DIS CAZ7
 BAR2 SZ EP       1633  4.27                             174   -0.2510 13.8 177 
 BAR2 SZ ES       1633 18.64                             174   -0.5910 13.8 177 
 BAR2 SZ I        1633 20.27        13.3 0.38            176           13.8 177 
 BRR  HZ EP       1633  6.26                             151   -0.0710 72.2 307 
 BRR  HN ES       1633 23.06                             151    0.6210 72.2 307 
 BRR  HE I        1633 23.80        27.9 0.22            152           72.2 307 
 RUS  HZ EP       1633  8.46                             145    0.1710 91.8 173 
 RUS  HN ES       1633 26.32                             145    0.3810 91.8 173 
 PTB  HN ES       1633 31.64                             132   -0.30 9  142 262 
                                                                                
