 2014  6 4 1155 57.9 L   6.779 -73.170131.3  RSN 13 0.5 2.1LRSN                1
 GAP=134        1.19       3.1     4.1  5.9 -0.2678E+01  0.7710E+01  0.7130E+00E
 Epicentro: LOS SANTOS - SANTANDER                                             3
 ACTION:UPD 14-07-01 22:50 OP:nd   STATUS:               ID:20140604115557 L   I
 OLDACT:REG 14-06-04 21:25 OP:stll STATUS:               ID:20140604114819     3
 2014-06-04-1148-19M.COL___259                                                 6
 STAT SP IPHASW D HRMM SECON CODA AMPLIT PERI AZIMU VELO AIN AR TRES W  DIS CAZ7
 BAR2 SZ IP     D 1156 15.99                             171    0.2110 20.7 184 
 BAR2 SZ ES       1156 29.65                             171   -0.0410 20.7 184 
 BAR2 SZ I        1156 31.70        54.5 0.16            172           20.7 184 
 BRR  HZ IP     D 1156 17.95                             150    0.4710 70.0 301 
 BRR  HN ES       1156 33.34                             150    0.6310 70.0 301 
 BRR  HZ I        1156 35.87        20.0 0.46            144           70.0 301 
 PAM  SZ EP       1156 18.98                             147    0.1110 80.8  40 
 PAM  SZ I        1156 19.20        48.3 0.24            142           80.8  40 
 PAM  SN ES       1156 35.13                             147   -0.0610 80.8  40 
 RUS  HZ EP       1156 20.10                             141   -0.0410 98.5 174 
 RUS  HN ES       1156 37.64                             141    0.1810 98.5 174 
 RUS  HZ I        1156 40.04        19.6 0.34            139           98.5 174 
 PTB  HZ EP       1156 22.98                             129   -0.50 9  145 260 
 PTB  HN ES       1156 43.03                             129   -0.37 9  145 260 
 PTB  HZ I        1156 46.17        15.4 0.16            124            145 260 
 SPBC HZ EP       1156 25.36                             126    0.33 9  160 219 
 SPBC HN ES       1156 46.24                             126    0.08 9  160 219 
 SPBC HZ I        1156 49.28        16.2 0.32            122            160 219 
 OCA  HZ EP       1156 25.92                             126    0.55 9  162 354 
 OCA  HN ES       1156 45.84                             126   -0.92 9  162 354 
 OCA  HZ I        1156 49.29        12.8 0.28            120            162 354 
 ZAR  HZ EP       1156 29.11                             119   -0.21 9  202 293 
 ZAR  HN ES       1156 53.99                             119    0.19 9  202 293 
 ZAR  HZ I        1156 57.38        10.6 0.44            114            202 293 
 NOR  HZ EP       1156 32.66                             116    0.17 8  231 235 
 NOR  HE ES       1156 58.67                             116   -0.77 8  231 235 
 NOR  HZ I        1157  5.79         7.6 0.28            112            231 235 
 SML  HZ EP       1156 33.05                             114   -0.86 8  245 336 
 SML  HZ I        1157  7.46        15.4 0.10            110            245 336 
 CHI  HZ EP       1156 34.28                             114   -0.28 8  246 195 
 CHI  HN ES       1157  2.12                             114   -1.00 8  246 195 
 CHI  HZ I        1157  6.83         4.8 0.52            111            246 195 
 HEL  HZ EP       1156 38.14                             112    1.03 8  269 256 
 HEL  HN ES       1157  7.46                             112   -0.19 8  269 256 
 HEL  HZ I        1157 15.36         6.8 0.32            108            269 256 
 GUY2CHZ EP       1156 41.28                             110    0.75 7  298 235 
 GUY2CHN ES       1157 14.08                             110    0.34 7  298 235 
 GUY2CHZ I        1157 23.40         4.9 0.48                           298 235 
                                                                                
