 2017  6 4 1745  0.2 L   6.880 -73.095148.0  RSN 14 0.7 2.3LRSN                1
 GAP=224        1.57       6.1     6.6  9.5  0.1435E+02  0.1154E+02  0.1948E+01E
 Epicentro: PIEDECUESTA - SANTANDER                                            3
 ACTION:UPD 17-09-14 16:49 OP:jn   STATUS:               ID:20170604174500 L   I
 OLDACT:UP  17-06-05 01:53 OP:ar   STATUS:               ID:20170604173741     3
 OLDACT:UP  17-06-05 01:52 OP:ar   STATUS:               ID:20170604173741     3
 OLDACT:REG 17-06-04 22:27 OP:ar   STATUS:               ID:20170604173741     3
 2017-06-04-1738-00M.COL___347                                                 6
 STAT SP IPHASW D HRMM SECON CODA AMPLIT PERI AZIMU VELO AIN AR TRES W  DIS CAZ7
 BRR  HZ IP     C 1745 22.04                             152    0.3310 72.7 290 
 BRR  HE ES       1745 39.34                             152    0.8810 72.7 290 
 BRR  HZ I        1745 42.46        40.1 0.14            150           72.7 290 
 RUS  HZ EP       1745 24.38                             142   -0.4610  109 179 
 RUS  HN ES       1745 43.36                             142   -0.6710  109 179 
 RUS  HZ I        1745 45.41        12.3 0.32            142            109 179 
 PTB  HZ EP       1745 26.99                             131   -1.07 9  155 256 
 PTB  HN ES   2   1745 48.27                             131   -1.50 5  155 256 
 PTB  HZ I        1745 55.50        31.5 0.34            130            155 256 
 SPBC HZ EP       1745 29.35                             128   -0.55 9  174 219 
 SPBC HN ES       1745 53.15                             128    0.12 9  174 219 
 SPBC HZ I        1745 58.43        41.5 0.28            128            174 219 
 YPLC HZ EP       1745 30.73                             126    0.02 9  182 154 
 YPLC HE ES       1745 54.95                             126    0.47 9  182 154 
 YPLC HZ I        1745 57.47        15.5 0.28            129            182 154 
 ZAR  HZ EP       1745 33.00                             123   -0.05 8  206 289 
 ZAR  HN ES       1745 58.34                             123   -0.30 8  206 289 
 ZAR  HZ I        1746  4.41        23.2 0.38            124            206 289 
 NOR  HZ EP       1745 36.78                             118   -0.36 8  244 234 
 NOR  HN ES       1746  4.88                             118   -1.05 8  244 234 
 NOR  HZ I        1746 10.68        14.5 0.16            119            244 234 
 ROSC BZ EP       1745 40.57                             116    0.95 8  263 211 
 ROSC BN ES       1746 11.67                             116    1.33 8  263 211 
 ROSC BZ I        1746 15.37        20.6 0.45            117            263 211 
 HEL  HZ EP       1745 42.64                             115    1.22 7  280 254 
 HEL  HN ES   4   1746 14.97                             115    1.43 0  280 254 
 HEL  HZ I        1746 19.62        12.4 0.58            116            280 254 
 URE  HZ EP       1745 41.48                             114   -0.17 7  286 290 
 URE  HE ES   4   1746 12.06                             114   -1.90 0  286 290 
 URE  HZ I        1746 13.56        16.2 0.14            115            286 290 
 ELA  HN ES       1746 26.95                             110    1.11 7  339 229 
 ELA  HZ I        1746 32.21        10.0 0.52            111            339 229 
 CBOC HZ EP       1745 48.98                             110    0.80 7  342 251 
 CBOC HE ES       1746 25.81                             110    0.24 7  342 251 
 CBOC HZ I        1746 33.54         4.6 0.44            111            342 251 
 DBB  EZ EP       1745 48.01                             110   -0.38 7  345 273 
 DBB  EN ES   4   1746 23.48                             110   -2.47 0  345 273 
 DBB  EZ I        1746 32.00         4.2 0.24            111            345 273 
 ORTC HZ EP       1745 54.84                             106   -0.61 6  406 216 
 ORTC HE ES       1746 37.64                             106   -0.88 6  406 216 
 ORTC HZ I        1746 43.76         7.6 0.62            108            406 216 
                                                                                
