 2011 12 4 1415 41.5 L   6.717 -73.089140.8  RSN  6 0.3 2.0LRSN                1
 GAP=148        0.56       3.3     3.8  4.8 -0.4152E+01  0.2720E+01  0.1087E+01E
 Epicentro: JORDAN - SANTANDER                                                 3
 ACTION:UPD 12-07-13 16:14 OP:ep   STATUS:               ID:20111204141541 L   I
 2011-12-04-1410-00M.COL___181                                                 6
 STAT SP IPHASW D HRMM SECON CODA AMPLIT PERI AZIMU VELO AIN AR TRES W  DIS CAZ7
 BAR2 SZ EP       1416  0.43                             173   -0.0210 17.3 217 
 BAR2 SZ ES   2   1416 15.34                             173    0.13 5 17.3 217 
 BAR2 SZ I        1416 17.15        11.7 0.21                          17.3 217 
 PAM  SZ EP       1416  3.37                             149   -0.0810 81.1  32 
 PAM  SN ES       1416 20.39                             149   -0.1610 81.1  32 
 BRR  HZ EP       1416  2.51                             148   -0.2410 81.2 302 
 BRR  HN ES       1416 19.48                             148    0.1710 81.2 302 
 BRR  HN I        1416 20.19        59.9 0.07                          81.2 302 
 RUS  HZ EP   2   1416  4.82                             146    0.70 5 91.2 180 
 RUS  HN ES   1   1416 21.82                             146    0.07 7 91.2 180 
 RUS  HZ I        1416 24.38        10.0 0.27                          91.2 180 
 OCA  SZ EP   1   1416 10.92                             127    0.51 7  170 351 
 NOR  SZ EP   1   1416 16.58                             117   -0.40 6  235 237 
 NOR  SN ES   1   1416 44.62                             117   -0.01 6  235 237 
                                                                                
