 2012  3 4 1501 47.0 L   6.720 -73.173151.9  RSN  5 0.2 1.8LRSN                1
 GAP=228        0.59       4.7     5.2  8.5  0.9307E+01  0.3848E+01 -0.3721E+00E
 ACTION:UP  12-03-31 23:17 OP:EP   STATUS:               ID:20120304150147 L   I
 2012-03-04-1500-00M.COL___191                                                 6
 STAT SP IPHASW D HRMM SECON CODA AMPLIT PERI AZIMU VELO SNR AR TRES W  DIS CAZ7
 BRR  HZ EP       15 2  8.80                             153    -0.110   73 306 
 BRR  HZ I        15 2  9.20        16.5 0.14                            73 306 
 BRR  HE ES   1   15 2 26.34                             153     0.3 7   73 306 
 RUS  HZ EP   1   15 2 11.07                             147     0.3 7   92 174 
 RUS  HN ES   1   15 2 29.02                             147    -0.3 7   92 174 
 RUS  HZ I        15 2 30.48         5.6 0.34                            92 174 
 PTB  HN ES   2   15 2 35.19                             134     0.0 5  143 262 
 ZAR  HE ES   1   15 2 45.33                             124    -0.3 6  205 295 
 ZAR  HZ I        15 2 51.18         5.6 0.23                           205 295 
 NOR  SN ES   1   15 2 49.97                             121     0.2 6  227 236 
                                                                                
