 2011  1 4 1326 23.9 L   7.428 -73.184127.9  RSN  9 0.5 2.6LRSN                1
 GAP=137        1.01       5.4    10.2 11.0 -0.1295E+02  0.4924E+02  0.1188E+02E
 Epicentro: EL PLAYON - SANTANDER                                              3
 ACTION:UP  11-02-08 08:38 OP:pat  STATUS:               ID:20110104132623 L   I
 2011-01-04-1320-00M.COL___136                                                 6
 STAT SP IPHASW D HRMM SECON CODA AMPLIT PERI AZIMU VELO SNR AR TRES W  DIS CAZ7
 GIR2 SZ EP   1   1326 41.50                             162    -0.2 7   39 182 
 GIR2 SZ ES   2   1326 56.09                             162     0.5 5   39 182 
 BTL  SZ EP   1   1326 43.75                             155     1.0 7   57 189 
 GRA  SZ IP       1326 43.34                             151     0.310   66  40 
 GRA  SZ ES   2   1326 58.21                             151     0.2 5   66  40 
 GRA  SZ I        1326 59.72       204.0 0.56                            66  40 
 OCA  SZ EP   1   1326 44.46                             142    -0.3 7   91 351 
 OCA  SZ ES   2   1327  0.75                             142    -0.3 5   91 351 
 OCA  SZ I        1327  4.57        64.5 0.19                            91 351 
 BAR2 SZ IP       1326 44.65                             142    -0.310   92 180 
 BAR2 SZ ES   2   1327  0.91                             142    -0.5 5   92 180 
 BAR2 SZ I        1327  2.37       162.7 0.15                            92 180 
 RUS  HZ EP   1   1326 51.84                             124    -0.5 7  170 176 
 RUS  HN ES   2   1327 13.88                             124    -0.6 5  170 176 
 HEL  HZ EP   1   1327  5.04                             109    -0.7 5  293 242 
 HEL  HN ES   2   1327 37.67                             109    -0.6 4  293 242 
 HEL  HZ I        1327 47.15        15.9 0.49                           293 242 
 CHI  HZ EP   1   1327  8.98                             108     0.6 5  315 191 
 CHI  HN ES   2   1327 43.40                             108     0.4 3  315 191 
 CHI  HZ I        1327 49.81         7.3 0.64                           315 191 
 GUY  SZ EP   1   1327 12.16                             106     0.5 5  343 225 
 GUY  SN ES   2   1327 49.83                             106     1.0 3  343 225 
 GUY  SZ I        1328  0.22        18.7 0.51                           343 225 
                                                                                
