 2012  5 4 1532 22.9 L   6.776 -73.164146.2  RSN  4 0.2 1.7LRSN                1
 GAP=234        0.56       8.0     9.2  6.5  0.6069E+02 -0.2038E+01 -0.6571E+01E
 Epicentro: LOS SANTOS - SANTANDER                                             3
 ACTION:UP  12-07-05 12:02 OP:pat  STATUS:               ID:20120504153222 L   I
 2012-05-04-1530-00M.COL___189                                                 6
 STAT SP IPHASW D HRMM SECON CODA AMPLIT PERI AZIMU VELO SNR AR TRES W  DIS CAZ7
 BAR2 SZ EP   1   1532 42.20                             172    -0.3 7   20 186 
 BAR2 SZ ES   1   1532 58.08                             172     0.2 7   20 186 
 BAR2 SZ I        1532 58.84         8.1 0.20                            20 186 
 BRR  HZ EP       1532 44.29                             153     0.210   71 301 
 BRR  HZ I        1532 56.74        15.4 0.41                            71 301 
 BRR  HN ES   1   1533  0.37                             153    -0.2 7   71 301 
 RUS  HZ EP   1   1532 46.58                             145     0.0 7   98 175 
 RUS  HE ES   1   1533  4.92                             145     0.0 7   98 175 
 RUS  HZ I        1533  6.05         5.1 0.40                            98 175 
 ZAR  HN ES   1   1533 20.58                             123     0.0 6  203 293 
 ZAR  HZ I        1533 25.90         6.4 0.35                           203 293 
                                                                                
