 2016  9 4 1919 51.9 L   6.762 -73.190154.5  RSN  4 0.2 1.2LRSN                1
 GAP=229        0.51       4.3     4.3  5.1  0.1253E+02 -0.9187E+00 -0.1704E+01E
 Epicentro: LOS SANTOS - SANTANDER                                             3
 ACTION:UPD 17-08-17 21:06 OP:lp   STATUS:               ID:20160904191951 L   I
 OLDACT:DUP 16-09-04 22:58 OP:dani STATUS:               ID:20160904191738d    3
 OLDACT:REG 16-09-04 21:21 OP:dnl  STATUS:               ID:20160904191737     3
 2016-09-04-1918-00M.COL___355                                                 6
 STAT SP IPHASW D HRMM SECON CODA AMPLIT PERI AZIMU VELO AIN AR TRES W  DIS CAZ7
 BRR  HZ EP       1920 14.08                             155    0.1910 69.1 303 
 BRR  HE ES       1920 30.94                             155   -0.1010 69.1 303 
 BRR  HZ I        1920 35.83         4.5 0.33            157           69.1 303 
 RUS  HZ EP       1920 15.95                             147   -0.3210 96.9 173 
 RUS  HE ES       1920 35.45                             147    0.1710 96.9 173 
 RUS  HZ I        1920 37.58         1.4 0.32            151           96.9 173 
 PTB  HZ EP       1920 19.26                             135    0.15 9  142 260 
 PTB  HE ES       1920 40.25                             135   -0.08 9  142 260 
 PTB  HZ I        1920 42.22         2.9 0.14            140            142 260 
 ZAR  HE ES       1920 50.16                             125   -0.01 9  201 294 
                                                                                
