 2013  3 4 1726 42.7 L   6.773 -73.135147.7  RSN  5 0.3 1.8LRSN                1
 GAP=164        0.61       9.3    15.6  9.9  0.1226E+03 -0.7536E+02 -0.5337E+02E
 Epicentro: LOS SANTOS - SANTANDER                                             3
 ACTION:UPD 13-04-09 13:59 OP:ep   STATUS:               ID:20130304172642 L   I
 2013-03-04-1718-50M.COL___187                                                 6
 STAT SP IPHASW D HRMM SECON CODA AMPLIT PERI AZIMU VELO AIN AR TRES W  DIS CAZ7
 BAR2 SZ EP   1   1727  1.93                             170   -0.62 7 20.7 195 
 BAR2 SZ ES   2   1727 18.01                             170    0.01 5 20.7 195 
 BAR2 SZ I        1727 20.17         9.1 0.30            177           20.7 195 
 BRR  HZ EP       1727  4.56                             151    0.3310 73.6 300 
 BRR  HN ES   1   1727 20.83                             151   -0.17 7 73.6 300 
 BRR  HN I        1727 26.13        15.3 0.22            152           73.6 300 
 RUS  HZ EP   3   1727  6.63                             144    0.17 2 97.6 177 
 RUS  HN ES       1727 25.07                             144    0.1010 97.6 177 
 PTB  HZ EP   3   1727  9.60                             131   -0.31 2  148 260 
 TAM  HZ EP   3   1727 10.80                             131    0.41 2  153 104 
                                                                                
