 2011  9 4 1834 28.1 L   6.805 -73.173140.6  RSN 10 0.4 2.3LRSN                1
 GAP=133        0.80       3.1     4.9  6.7 -0.2944E+01  0.1584E+02 -0.3697E-01E
 Epicentro: LOS SANTOS - SANTANDER                                             3
 ACTION:UPD 12-07-13 15:55 OP:ep   STATUS:               ID:20110904183428 L   I
 2011-09-04-1833-28S.COL___170                                                 6
 STAT SP IPHASW D HRMM SECON CODA AMPLIT PERI AZIMU VELO AIN AR TRES W  DIS CAZ7
 BAR2 SZ EP       1834 47.23                             170    0.1010 23.6 182 
 BAR2 SZ ES   1   1835  1.93                             170   -0.03 7 23.6 182 
 BAR2 SZ I        1835  3.31        70.1 0.28                          23.6 182 
 BRR  HZ IP     C 1834 49.02                             152    0.4810 68.2 299 
 BRR  HZ I        1834 49.27       124.8 0.13                          68.2 299 
 PAM  SZ EP   1   1834 50.33                             149    0.45 7 78.9  42 
 PAM  SN ES   1   1835  6.88                             149    0.03 7 78.9  42 
 PAM  SZ I        1835  9.89         8.8 0.27                          78.9  42 
 RUS  HZ EP       1834 51.22                             142   -0.2010  101 174 
 RUS  HN ES   1   1835  9.35                             142   -0.25 7  101 174 
 RUS  HZ I        1835 11.06        17.0 0.27                           101 174 
 OCA  SZ EP       1834 55.88                             128   -0.06 9  159 354 
 OCA  SZ ES   1   1835 16.81                             128   -0.84 7  159 354 
 OCA  SZ I        1835 26.00        22.8 0.31                           159 354 
 ZAR  HZ EP   1   1835  0.03                             121    0.12 6  201 292 
 ZAR  HN ES   2   1835 24.39                             121   -0.32 4  201 292 
 ZAR  HZ I        1835 30.45        15.8 0.12                           201 292 
 NOR  SZ EP   1   1835  2.38                             117   -0.94 6  233 234 
 NOR  SN ES   1   1835 30.62                             117   -0.15 6  233 234 
 CHI  HZ EP   1   1835  6.11                             116    0.60 6  248 194 
 CHI  HN ES   1   1835 34.76                             116    0.09 6  248 194 
 CHI  HZ I        1835 37.32        11.2 0.29                           248 194 
 HEL  HZ EP   1   1835  8.13                             114    0.38 6  269 256 
 HEL  HN ES   1   1835 39.33                             114    0.66 6  269 256 
 HEL  HZ I        1835 45.72         9.9 0.26                           269 256 
 PRA  HZ EP   1   1835 20.60                             106   -0.74 4  391 209 
 PRA  HN ES   2   1836  2.07                             106   -0.79 3  391 209 
 PRA  HZ I        1836  9.11        23.7 0.21                           391 209 
                                                                                
