 2011  4 4 1454 53.5 L   6.653 -73.111146.7  RSN  4 0.1 1.8LRSN                1
 GAP=240        0.31      11.1    10.8  4.0  0.8872E+02  0.9988E+01  0.1074E+01E
 Epicentro: CURITI - SANTANDER                                                 3
 ACTION:UP  11-06-22 15:28 OP:REBC STATUS:               ID:20110404145453 L   I
 2011-04-04-1454-44S.COL___138                                                 6
 STAT SP IPHASW D HRMM SECON CODA AMPLIT PERI AZIMU VELO SNR AR TRES W  DIS CAZ7
 BAR2 SZ ES   1   1455 28.29                             176     0.0 7   10 229 
 BAR2 SZ I        1455 29.69        11.4 0.25                            10 229 
 BTL  SZ ES   1   1455 29.19                             166     0.1 7   34 329 
 GIR2 SZ EP   3   1455 13.87                             161     0.0 2   48 349 
 GIR2 SZ ES   3   1455 29.42                             161    -0.3 2   48 349 
 BRR  HZ EP       1455 15.42                             149     0.010   83 307 
 BRR  HZ I        1455 15.66        13.1 0.17                            83 307 
 BRR  HN ES   1   1455 32.62                             149     0.0 7   83 307 
                                                                                
