 2012 12 4 1857 37.5 L   6.801 -73.161140.0  RSN  9 0.4 2.4LRSN                1
 GAP=134        0.96       3.2     3.8  5.9 -0.1605E+01  0.1028E+02 -0.1407E+01E
 Epicentro: LOS SANTOS - SANTANDER                                             3
 ACTION:UPD 13-01-04 14:25 OP:ep   STATUS:               ID:20121204185737 L   I
 2012-12-04-1850-00M.COL___232                                                 6
 STAT SP IPHASW D HRMM SECON CODA AMPLIT PERI AZIMU VELO AIN AR TRES W  DIS CAZ7
 BAR2 SZ IP       1857 56.56                             170    0.1110 23.2 186 
 BAR2 SZ ES       1858 11.17                             170   -0.0410 23.2 186 
 BAR2 SZ I        1858 12.49        45.9 0.42                          23.2 186 
 PAM  SZ EP       1857 59.53                             149    0.3510 78.4  41 
 PAM  SN ES       1858 16.07                             149   -0.0110 78.4  41 
 PAM  SN I        1858 17.33        86.3 0.46                          78.4  41 
 RUS  HZ EP       1858  0.57                             142   -0.1510  101 175 
 RUS  HN ES       1858 18.68                             142   -0.1410  101 175 
 RUS  HN I        1858 19.52        22.8 0.24                           101 175 
 PTB  HZ EP       1858  3.25                             131   -0.61 9  146 259 
 PTB  HN ES       1858 24.38                             131   -0.03 9  146 259 
 ZAR  HZ EP       1858  9.47                             121    0.06 9  202 292 
 ZAR  HN ES       1858 35.28                             121    0.99 9  202 292 
 ZAR  HN I        1858 41.97        34.8 0.20                           202 292 
 NOR  HZ EP       1858 12.59                             117   -0.18 8  233 234 
 NOR  HN ES       1858 40.65                             117    0.38 8  233 234 
 NOR  HN I        1858 42.35        42.9 0.18                           233 234 
 SML  HZ EP       1858 13.59                             116   -0.13 8  243 336 
 SML  HN ES       1858 41.60                             116   -0.37 8  243 336 
 SML  HN I        1858 52.09        34.1 0.10                           243 336 
 HEL  HZ EP       1858 17.08                             114   -0.17 8  270 256 
 HEL  HN ES       1858 47.37                             114   -0.88 8  270 256 
 HEL  HN I        1858 57.23        11.6 0.24                           270 256 
 PRA  HZ EP       1858 31.41                             106    0.66 6  391 209 
 PRA  HN ES       1859 12.93                             106    0.65 6  391 209 
 PRA  HN I        1859 18.29         3.9 0.30                           391 209 
                                                                                
