 2013  3 4 1035 22.3 L   6.796 -73.164143.8  RSN  5 0.4 1.6LRSN                1
 GAP=134        0.95       5.5     5.5  8.5 -0.1173E+01 -0.7256E+01  0.3351E+01E
 Epicentro: LOS SANTOS - SANTANDER                                             3
 ACTION:UPD 13-04-09 13:59 OP:ep   STATUS:               ID:20130304103522 L   I
 2013-03-04-1028-50M.COL___193                                                 6
 STAT SP IPHASW D HRMM SECON CODA AMPLIT PERI AZIMU VELO AIN AR TRES W  DIS CAZ7
 BAR2 SZ EP       1035 41.64                             171   -0.0210 22.6 185 
 BAR2 SZ ES       1035 56.24                             171   -0.5310 22.6 185 
 BAR2 SZ I        1035 59.75         9.5 0.40            170           22.6 185 
 BRR  HN ES       1036  0.00                             153    0.6110 69.6 300 
 PAM  SZ EP       1035 44.43                             150    0.0410 79.0  40 
 PAM  SN ES   1   1036  1.41                             150   -0.22 7 79.0  40 
 RUS  HZ EP       1035 45.75                             143   -0.0710  100 175 
 RUS  HN ES       1036  4.61                             143    0.4310  100 175 
 RUS  HE I        1036  5.35         5.8 0.22            144            100 175 
 PTB  HN ES       1036  9.27                             132   -0.39 9  146 259 
 PTB  HN I        1036 12.67         6.3 0.14            133            146 259 
                                                                                
