 2013  1 4 1116 24.2 L   6.810 -73.141145.3  RSN  7 0.5 1.6LRSN                1
 GAP=183        1.05       5.3     7.6  9.2  0.1330E+02  0.5685E+01  0.1166E+02E
 Epicentro: LOS SANTOS - SANTANDER                                             3
 ACTION:UPD 13-02-15 09:12 OP:ep   STATUS:               ID:20130104111624 L   I
 2013-01-04-1110-00M.COL___241                                                 6
 STAT SP IPHASW D HRMM SECON CODA AMPLIT PERI AZIMU VELO AIN AR TRES W  DIS CAZ7
 BAR2 SZ EP       1116 43.92                             170    0.0810 24.5 191 
 BAR2 SZ ES   1   1116 59.32                             170    0.19 7 24.5 191 
 BAR2 SZ I        1117  0.22        17.8 0.22            166           24.5 191 
 BRR  HZ EP   1   1116 45.73                             153    0.40 7 71.1 298 
 BRR  HN ES   1   1117  2.39                             153    0.61 7 71.1 298 
 RUS  HZ EP       1116 48.44                             143    0.4110  102 176 
 RUS  HN ES   1   1117  6.15                             143   -0.43 7  102 176 
 RUS  HZ I        1117  8.07         5.3 0.22            142            102 176 
 PTB  HZ EP   1   1116 50.85                             132   -0.38 7  148 258 
 PTB  HN ES   1   1117 11.51                             132   -0.77 7  148 258 
 PTB  HZ I        1117 14.96         4.3 0.14            129            148 258 
 OCA  HN ES   1   1117 13.29                             130   -1.10 7  159 353 
 ZAR  HN ES   1   1117 22.56                             122    0.62 6  204 292 
 ZAR  HZ I        1117 28.47         3.9 0.14            121            204 292 
 CHI  HZ EP       1117  2.21                             117    0.16 8  250 195 
 CHI  HN ES   1   1117 30.95                             117   -0.58 6  250 195 
 CHI  HZ I        1117 35.27         1.8 0.74            116            250 195 
                                                                                
