 2011 11 4 1609 42.0 L   6.763 -73.142140.5  RSN 14 0.4 2.5LRSN                1
 GAP=115        0.77       3.7     4.2  5.4 -0.3540E+00  0.6047E+01  0.6640E+01E
 Epicentro: LOS SANTOS - SANTANDER                                             3
 ACTION:UPD 12-07-13 16:08 OP:ep   STATUS:               ID:20111104160942 L   I
 2011-11-04-1607-14S.COL___175                                                 6
 STAT SP IPHASW D HRMM SECON CODA AMPLIT PERI AZIMU VELO AIN AR TRES W  DIS CAZ7
 BAR2 SZ IP       1610  1.02                             172    0.0910 19.4 193 
 BAR2 SZ ES   1   1610 14.85                             172   -0.83 7 19.4 193 
 BAR2 SZ I        1610 16.93        64.4 0.24                          19.4 193 
 BTL  SZ EP       1610  1.36                             171    0.3810 22.1 321 
 BRR  HZ IP       1610  2.95                             151    0.2210 73.6 301 
 BRR  HE ES   1   1610 19.66                             151    0.77 7 73.6 301 
 BRR  HZ I        1610 21.43        50.7 0.14                          73.6 301 
 PAM  SZ EP       1610  3.83                             149   -0.0210 80.3  37 
 PAM  SN ES   1   1610 20.56                             149   -0.32 7 80.3  37 
 RUS  HZ EP       1610  4.81                             144   -0.1310 96.5 176 
 RUS  HZ I        1610  6.03        19.3 0.14                          96.5 176 
 RUS  HE ES   1   1610 23.13                             144    0.30 7 96.5 176 
 OCA  SZ ES   2   1610 31.96                             128   -0.42 5  164 353 
 YOP  SZ EP       1610 11.43                             126    0.13 9  175 153 
 ZAR  HZ EP   2   1610 13.80                             121   -0.51 4  206 293 
 ZAR  HE ES   2   1610 38.53                             121   -0.98 4  206 293 
 ZAR  HZ I        1610 44.62        32.3 0.54                           206 293 
 NOR  SZ EP       1610 16.95                             118   -0.26 8  233 235 
 NOR  SN ES   1   1610 44.57                             118   -0.10 6  233 235 
 HEL  HZ EP   2   1610 21.76                             114   -0.13 4  271 257 
 HEL  HZ I        1611  0.71        11.2 0.38                           271 257 
 GUY  SZ EP       1610 25.61                             111    0.20 7  302 236 
 GUY  SZ I        1611  8.54        35.4 0.42                           302 236 
 RREF HZ EP   2   1610 27.91                             110    0.25 3  319 230 
 RREF HZ I        1611 13.50        14.9 0.38                           319 230 
 ANIL HZ EP   3   1610 32.26                             108    0.95 2  355 225 
 ANIL HZ I        1611 17.30        37.1 0.36                           355 225 
 PRA  HZ EP       1610 34.44                             106   -0.52 6  389 210 
                                                                                
