 2013  8 4 1456 14.0 L   6.797 -73.211147.3  RSN  5 0.2 1.5LRSN                1
 GAP=168        0.65       6.3     4.6  5.2 -0.2417E+01  0.1547E+01 -0.1165E+02E
 Epicentro: ZAPATOCA - SANTANDER                                               3
 ACTION:UPD 14-01-14 08:59 OP:ep   STATUS:               ID:20130804145614 L   I
 OLDACT:UP  13-08-04 17:08 OP:cam  STATUS:               ID:20130804144959     3
 OLDACT:UP  13-08-04 17:08 OP:cam  STATUS:               ID:20130804144959     3
 OLDACT:REG 13-08-04 15:01 OP:cam  STATUS:               ID:20130804144959     3
 2013-08-04-1449-59M.COL___269                                                 6
 STAT SP IPHASW D HRMM SECON CODA AMPLIT PERI AZIMU VELO AIN AR TRES W  DIS CAZ7
 BAR2 SZ EP       1456 33.64                             171   -0.1310 22.9 172 
 BAR2 SZ ES       1456 49.17                             171   -0.0410 22.9 172 
 BAR2 SZ I        1456 49.90         6.9 0.18            141           22.9 172 
 GIR2 SZ EP       1456 33.72                             167   -0.0910 31.2   4 
 BRR  HZ EP       1456 35.53                             155    0.5810 65.1 302 
 BRR  HN ES       1456 51.28                             155   -0.0410 65.1 302 
 BRR  HZ I        1456 55.25         6.4 0.44            120           65.1 302 
 PTB  HZ EP       1456 40.39                             134   -0.03 9  141 258 
 PTB  HN ES       1457  0.95                             134   -0.10 9  141 258 
 PTB  HZ I        1457  4.51         3.2 0.20            117            141 258 
 SML  HZ EP       1456 50.12                             118   -0.27 8  241 337 
 SML  HZ I        1457 31.35         3.4 0.24            102            241 337 
                                                                                
