 2017  4 4 1726 42.4 L   6.781 -73.164142.0  RSN  9 0.3 1.7LRSN                1
 GAP=135        0.77       3.0     3.4  4.5 -0.5652E+00  0.2279E+01  0.3879E+01E
 Epicentro: LOS SANTOS - SANTANDER                                             3
 ACTION:UPD 17-05-30 21:08 OP:jn   STATUS:               ID:20170404172642 L   I
 OLDACT:UP  17-04-05 00:28 OP:edw  STATUS:               ID:20170404171459     3
 OLDACT:UP  17-04-05 00:20 OP:edw  STATUS:               ID:20170404171459     3
 OLDACT:REG 17-04-04 21:15 OP:ar   STATUS:               ID:20170404171459     3
 2017-04-04-1718-00M.COL___362                                                 6
 STAT SP IPHASW D HRMM SECON CODA AMPLIT PERI AZIMU VELO AIN AR TRES W  DIS CAZ7
 BAR2 EZ EP       1727  1.53                             171   -0.0410 20.9 186 
 BAR2 EZ ES       1727 16.53                             171    0.0410 20.9 186 
 BAR2 EZ I        1727 17.75        11.2 0.20            168           20.9 186 
 BRR  HZ EP       1727  3.21                             152    0.0710 70.5 301 
 BRR  HN ES       1727 19.94                             152    0.6510 70.5 301 
 BRR  HZ I        1727 21.62         7.1 0.34            150           70.5 301 
 PAM  HZ EP       1727  4.44                             149    0.0110 80.3  40 
 PAM  EN ES       1727 21.37                             149   -0.2210 80.3  40 
 PAM  HZ I        1727 23.72         7.0 0.48            153           80.3  40 
 RUS  HZ EP       1727  5.90                             144    0.2210 98.6 175 
 RUS  HN ES       1727 23.44                             144   -0.3610 98.6 175 
 RUS  HZ I        1727 25.28         8.9 0.26            142           98.6 175 
 PTB  HZ EP   9   1727  8.29                             132   -0.59 0  145 260 
 PTB  HN ES       1727 29.15                             131    0.23 9  145 260 
 PTB  HZ I        1727 31.20         5.3 0.40            130            145 260 
 ZAR  HZ EP   4   1727 17.24                             122    2.71 0  203 293 
 ZAR  HN ES       1727 38.99                             122   -0.58 9  203 293 
 ZAR  HZ I        1727 44.66         5.1 0.42            121            203 293 
 NOR  HZ EP       1727 17.64                             118   -0.00 8  232 235 
 NOR  HN ES       1727 44.74                             118   -0.36 8  232 235 
 NOR  HZ I        1727 50.93         2.6 0.18            117            232 235 
 CHI  HZ EP       1727 19.62                             117   -0.03 8  246 195 
 CHI  HN ES       1727 48.87                             117    0.20 8  246 195 
 CHI  HZ I        1727 54.15         2.8 0.30            116            246 195 
 PRA  HZ EP       1727 36.04                             106    0.54 6  389 209 
 PRA  HN ES   4   1728 18.25                             106    1.37 0  389 209 
 PRA  HZ I        1728 29.95         2.4 0.36            106            389 209 
                                                                                
