 2012  8 4 1031 57.9 L   6.767 -73.164148.0  RSN  6 0.4 1.9LRSN                1
 GAP=136        0.76       4.8     4.7  7.1  0.2351E+00 -0.7339E+00  0.1741E+00E
 Epicentro: LOS SANTOS - SANTANDER                                             3
 ACTION:UPD 12-09-10 11:54 OP:ep   STATUS:               ID:20120804103157 L   I
 2012-08-04-1029-35M.COL___211                                                 6
 STAT SP IPHASW D HRMM SECON CODA AMPLIT PERI AZIMU VELO AIN AR TRES W  DIS CAZ7
 BAR2 SZ EP       1032 17.65                             172   -0.0510 19.5 186 
 BAR2 SZ ES   1   1032 32.81                             172   -0.36 7 19.5 186 
 BAR2 SZ I        1032 34.43        16.8 0.28                          19.5 186 
 BRR  HZ IP     C 1032 19.55                             153    0.2810 71.3 302 
 BRR  HZ I        1032 19.83        40.7 0.28                          71.3 302 
 BRR  HN ES   1   1032 36.62                             153    0.67 7 71.3 302 
 PAM  SZ EP       1032 20.45                             150   -0.1210 81.4  39 
 PAM  SZ I        1032 20.69         9.8 0.22                          81.4  39 
 PAM  SN ES   1   1032 38.03                             150   -0.24 7 81.4  39 
 RUS  HZ EP       1032 21.92                             145    0.3210 97.2 175 
 RUS  HN ES   1   1032 39.93                             145   -0.18 7 97.2 175 
 RUS  HZ I        1032 41.33         8.3 0.40                          97.2 175 
 PTB  HZ EP   3   1032 23.93                             133   -0.86 2  145 260 
 PTB  HN ES   1   1032 45.48                             133   -0.30 7  145 260 
 PTB  HZ I        1032 47.70         7.3 0.38                           145 260 
 ZAR  HE ES   2   1032 54.82                             123   -0.98 4  204 293 
                                                                                
