 2013  4 4 1700 55.1 L   6.813 -73.100147.0  RSN 12 0.5 2.3LRSN                1
 GAP=170        1.00       5.2     4.7  8.3  0.4885E+01  0.1302E+02  0.4932E+01E
 Epicentro: LOS SANTOS - SANTANDER                                             3
 ACTION:UPD 13-05-22 14:35 OP:EP   STATUS:               ID:20130404170055 L   I
 2013-04-04-1700-00M.COL___245                                                 6
 STAT SP IPHASW D HRMM SECON CODA AMPLIT PERI AZIMU VELO AIN AR TRES W  DIS CAZ7
 BAR2 SZ EP       17 1 14.86                             170   -0.0910 26.0 200 
 BAR2 SZ ES   2   17 1 30.68                             170    0.26 5 26.0 200 
 BAR2 SZ I        17 1 32.35        76.7 0.28            171           26.0 200 
 BRR  HZ EP       17 1 16.79                             151    0.1810 75.1 296 
 BRR  HN ES   2   17 1 33.46                             151    0.07 5 75.1 296 
 BRR  HZ I        17 1 34.83        22.4 0.20            151           75.1 296 
 RUS  HZ EP       17 1 18.49                             144   -0.5810  102 179 
 RUS  HN ES   1   17 1 37.29                             144   -0.47 7  102 179 
 RUS  HZ I        17 1 38.78        21.6 0.30            141            102 179 
 TAM  HZ EP   1   17 1 21.70                             132   -0.77 7  151 106 
 TAM  HZ I        17 1 43.75        13.6 0.32            125            151 106 
 TAM  HN ES   1   17 1 44.63                             132    0.81 7  151 106 
 PTB  HZ EP   4   17 1 21.49                             131   -1.16 0  153 259 
 PTB  HN ES   4   17 1 42.39                             131   -1.75 0  153 259 
 PTB  HZ I        17 1 44.35        22.6 0.30            130            153 259 
 ZAR  HZ EP       17 1 28.82                             122    0.75 8  208 291 
 ZAR  HN ES   1   17 1 53.38                             122   -0.39 6  208 291 
 ZAR  HZ I        17 1 59.80        24.7 0.30            119            208 291 
 CTAB SZ EP   1   17 1 32.39                             119    1.05 6  234 212 
 NOR  HZ EP   1   17 1 30.80                             118   -0.64 6  240 235 
 NOR  HN ES   1   17 1 59.35                             118   -0.43 6  240 235 
 NOR  HZ I        17 2  5.22        24.5 0.22            116            240 235 
 CHI  HZ EP   1   17 1 32.99                             117   -0.18 6  251 196 
 CHI  HE ES   1   17 2  3.88                             117    1.02 6  251 196 
 CHI  HZ I        17 2  8.23         9.1 0.22            114            251 196 
 HEL  HZ EP   1   17 1 35.98                             114    0.01 6  277 256 
 HEL  HE ES   2   17 2  7.77                             114   -0.07 4  277 256 
 HEL  HZ I        17 2 13.52         9.3 0.38            112            277 256 
 DBB  SZ EP   1   17 1 43.30                             109    0.10 5  344 274 
 PRA  HZ EP       17 1 48.77                             106   -0.34 6  396 210 
 PRA  HN ES   1   17 2 31.59                             106    0.36 4  396 210 
 PRA  HZ I        17 2 37.46        10.1 0.22            104            396 210 
                                                                                
