 2017  2 4 1927  0.8 L   6.775 -73.162149.4  RSN  7 0.4 2.1LRSN                1
 GAP=234        1.09       5.1     6.0  6.9  0.1184E+02  0.1073E+02  0.6991E+01E
 Epicentro: LOS SANTOS - SANTANDER                                             3
 ACTION:UPD 17-05-24 15:32 OP:jn   STATUS:               ID:20170204192700 L   I
 OLDACT:REG 17-02-04 22:31 OP:ar   STATUS:               ID:20170204191746     3
 2017-02-04-1918-00M.COL___343                                                 6
 STAT SP IPHASW D HRMM SECON CODA AMPLIT PERI AZIMU VELO AIN AR TRES W  DIS CAZ7
 BAR2 EZ EP       1927 20.59                             172   -0.2710 20.3 186 
 BAR2 EZ ES       1927 36.60                             172    0.1310 20.3 186 
 BAR2 EZ I        1927 37.28        28.8 0.44            168           20.3 186 
 BRR  HZ IP     D 1927 22.47                             153    0.0910 71.0 301 
 BRR  HN ES       1927 39.85                             153    0.6810 71.0 301 
 BRR  HZ I        1927 44.68        17.8 0.24            150           71.0 301 
 RUS  HZ EP       1927 24.66                             145   -0.1110 98.0 175 
 RUS  HN ES       1927 43.01                             145   -0.4210 98.0 175 
 RUS  HZ I        1927 44.07        13.2 0.28            146           98.0 175 
 PTB  HZ EP       1927 27.34                             133   -0.56 9  145 260 
 PTB  HN ES       1927 48.56                             133   -0.45 9  145 260 
 PTB  HZ I        1927 53.07        17.9 0.30            132            145 260 
 ZAR  HZ EP       1927 34.27                             123    0.81 9  203 293 
 ZAR  HN ES       1927 58.27                             123   -0.64 9  203 293 
 ZAR  HZ I        1928  5.36        21.5 0.36            123            203 293 
 NOR  HZ EP       1927 36.39                             120   -0.06 8  232 235 
 NOR  HN ES       1928  4.62                             120    0.39 8  232 235 
 NOR  HZ I        1928  8.77         7.9 0.16            120            232 235 
 CHI  HZ EP       1927 38.58                             118    0.18 8  245 195 
 CHI  HN ES       1928  8.24                             118    0.54 8  245 195 
 CHI  HZ I        1928 13.68         6.6 0.30            119            245 195 
                                                                                
