 2011  8 4 1316 43.9 L   6.801 -73.107149.2  RSN 22 0.5 4.6LRSN                1
 GAP=124        0.82       3.3     5.1  5.2 -0.3496E+01  0.6260E+00  0.6004E+01E
 Epicentro: LOS SANTOS - SANTANDER                                             3
 Evento Sentido                                                                2
 Reportado como sentido en:                                                    3
 PIEDECUESTA, SAN GIL, BARRANCABERMEJA (SANTANDER), MEDELLIN (ANTIOQUIA),      3
 SOGAMOSO (BOYACA)                                                             3
 ACTION:UPD 12-07-25 14:06 OP:epov STATUS:               ID:20110804131644 L   I
 2011-08-04-1315-01S.COL___139                                                 6
 STAT SP IPHASW D HRMM SECON CODA AMPLIT PERI AZIMU VELO AIN AR TRES W  DIS CAZ7
 BAR2 SZ IP       1317  4.20                             170    0.2210 24.5 200 
 BAR2 SZ ES   1   1317 18.84                             170   -0.79 7 24.5 200 
 BAR2 SZ I        1317 22.59      7169.9 0.60                          24.5 200 
 PAM  SZ IP       1317  7.05                             152    0.7110 74.6  37 
 BRR  HZ IP     C 1317  5.99                             152    0.3510 74.9 297 
 BRR  HN ES   1   1317 22.63                             152    0.04 7 74.9 297 
 BRR  HZ I        1317 26.76      7213.7 0.18                          74.9 297 
 RUS  HZ EP       1317  8.10                             145    0.1010  101 178 
 RUS  HZ I        1317 28.06      4644.8 0.26                           101 178 
 OCA  SZ ES   1   1317 34.42                             130   -0.44 7  161 352 
 NOR  SZ IP       1317 19.71                             119   -0.51 8  238 235 
 CHI  HZ EP       1317 22.19                             118    0.25 8  250 196 
 CHI  HN ES   1   1317 51.44                             118   -0.16 6  250 196 
 CHI  HZ I        1317 55.06      2812.6 0.38                           250 196 
 HEL  HN ES   2   1317 56.65                             115    0.03 4  276 256 
 VIL  SZ EP       1317 27.59                             113   -0.01 7  304 192 
 VIL  SN ES   1   1318  1.93                             113    0.25 5  304 192 
 VIL  SZ I        1318  4.97      1423.7 0.48                           304 192 
 GUY  SZ EP       1317 28.92                             113    0.58 7  307 236 
 GUY  SZ I        1318 11.46      2975.6 0.34                           307 236 
 DBB  SZ EP       1317 32.19                             110    0.17 7  344 274 
 TOL  SZ EP       1317 32.54                             110   -0.12 6  347 225 
 COD  HZ EP   1   1317 31.43                             109   -1.03 5  349 354 
 COD  HN ES   3   1318  9.78                             109   -0.55 2  349 354 
 SDV  BZ EP       1317 33.63                             109   -0.07 6  357  50 
 PRA  HZ EP       1317 37.12                             107   -0.69 6  394 210 
 SJA  SZ IP       1317 38.07                             107   -0.64 6  401 194 
 SJA  SZ I        1318 20.89      2395.9 0.44                           401 194 
 GUA  SZ EP       1317 46.58                             104   -0.53 5  474 174 
 BET  SZ EP   2   1317 52.31                             102   -0.85 2  524 210 
 HORQ SZ EP   1   1317 53.70                             102   -1.11 3  535 227 
 PCON HZ EP   1   1318  5.47                             100    0.80 2  615 217 
 POP2 HZ EP   2   1318  4.09                             100   -0.24 1  615 220 
 SOTA HZ EP       1318  8.83                              99    0.51 2  646 217 
                                                                                
