 2015 11 4 1936 20.3 L   6.791 -73.128148.0  RSN  9 0.3 1.9LRSN                1
 GAP=139        0.49       2.3     3.2  4.0 -0.2592E+01  0.6152E+01 -0.1062E+01E
 Epicentro: LOS SANTOS - SANTANDER                                             3
 ACTION:UPD 15-12-28 16:08 OP:cam  STATUS:               ID:20151104193620 L   I
 OLDACT:UP  15-11-05 01:03 OP:ar   STATUS:               ID:20151104192748     3
 OLDACT:REG 15-11-04 22:38 OP:ar   STATUS:               ID:20151104192748     3
 2015-11-04-1927-48M.COL___313                                                 6
 STAT SP IPHASW D HRMM SECON CODA AMPLIT PERI AZIMU VELO AIN AR TRES W  DIS CAZ7
 BAR2 EZ EP   2   1936 40.06                             171   -0.08 5 22.8 195 
 BAR2 EZ ES       1936 55.59                             171   -0.0610 22.8 195 
 BAR2 EZ I        1936 57.56        20.1 0.28            170           22.8 195 
 BRR  HZ EP       1936 41.70                             152   -0.0710 73.4 298 
 BRR  HN ES   2   1936 59.06                             152    0.51 5 73.4 298 
 PAM  EZ EP       1936 42.80                             151    0.1210 76.9  38 
 PAM  EN ES       1937  0.09                             151   -0.0810 76.9  38 
 PAM  EZ I        1937  1.93        10.4 0.18            154           76.9  38 
 RUS  HZ EP   2   1936 43.76                             145   -0.39 5 99.5 177 
 RUS  HE ES   2   1937  2.84                             145    0.06 5 99.5 177 
 RUS  HZ I        1937  3.59         4.5 0.42            148           99.5 177 
 SPBC HZ EP   2   1936 48.89                             129   -0.08 5  164 220 
 SPBC HE ES   2   1937 11.04                             129   -0.33 5  164 220 
 SPBC HZ I        1937 13.05         9.8 0.16            130            164 220 
 ZAR  HZ EP   4   1936 54.63                             122    1.56 0  206 292 
 ZAR  HE ES   2   1937 18.06                             122   -0.61 4  206 292 
 ZAR  HZ I        1937 20.86         5.4 0.02            122            206 292 
 NOR  HZ EP       1936 56.55                             119    0.32 8  236 235 
 NOR  HE ES       1937 24.39                             119    0.10 8  236 235 
 NOR  HZ I        1937 32.45         6.8 0.22            120            236 235 
 SML  HZ EP   2   1936 56.20                             118   -0.99 4  245 335 
 SML  HN ES       1937 26.22                             118    0.22 8  245 335 
 SML  HZ I        1937 33.39        16.4 0.10            118            245 335 
 GUY2CHZ EP   2   1937  4.14                             113    0.05 4  302 235 
 GUY2CHE ES   2   1937 38.22                             113   -0.06 4  302 235 
 GUY2CHZ I        1937 46.76         3.9 0.70                           302 235 
 SJC  HZ EP   4   1937 14.29                             106   -1.82 0  411 327 
 SJC  HN ES   4   1937 55.85                             106   -3.83 0  411 327 
                                                                                
