 2017  5 4 1108 38.3 L   6.771 -73.120144.0  RSN  5 0.4 1.6LRSN                1
 GAP=238        0.74       4.5     6.7  6.9  0.7090E+01 -0.1792E+02 -0.1275E+01E
 Epicentro: LOS SANTOS - SANTANDER                                             3
 ACTION:UPD 17-06-16 13:32 OP:jn   STATUS:               ID:20170504110838 L   I
 OLDACT:UP  17-05-04 18:44 OP:and  STATUS:               ID:20170504110742     3
 OLDACT:UP  17-05-04 18:44 OP:and  STATUS:               ID:20170504110742     3
 OLDACT:UP  17-05-04 18:42 OP:and  STATUS:               ID:20170504110742     3
 OLDACT:UP  17-05-04 18:42 OP:and  STATUS:               ID:20170504110742     3
 OLDACT:UP  17-05-04 18:42 OP:and  STATUS:               ID:20170504110742     3
 OLDACT:UP  17-05-04 18:41 OP:and  STATUS:               ID:20170504110742     3
 OLDACT:UP  17-05-04 18:41 OP:and  STATUS:               ID:20170504110742     3
 OLDACT:UP  17-05-04 18:41 OP:and  STATUS:               ID:20170504110742     3
 OLDACT:UP  17-05-04 18:40 OP:and  STATUS:               ID:20170504110742     3
 OLDACT:UP  17-05-04 18:40 OP:and  STATUS:               ID:20170504110742     3
 OLDACT:UP  17-05-04 18:40 OP:and  STATUS:               ID:20170504110742     3
 OLDACT:REG 17-05-04 17:37 OP:and  STATUS:               ID:20170504110742     3
 2017-05-04-1108-00M.COL___371                                                 6
 STAT SP IPHASW D HRMM SECON CODA AMPLIT PERI AZIMU VELO AIN AR TRES W  DIS CAZ7
 BRR  HZ IP     D 11 8 59.31                             151   -0.2010 75.2 300 
 BRR  HE ES       11 9 16.39                             151    0.3510 75.2 300 
 RUS  HZ EP       11 9  1.82                             145    0.1610 97.2 178 
 RUS  HN ES   2   11 9 18.87                             145   -0.99 5 97.2 178 
 RUS  HZ I        11 9 21.20         4.1 0.32            142           97.2 178 
 PTB  HZ EP   9   11 9  4.19                             131   -1.16 0  150 260 
 PTB  HN ES       11 9 25.22                             134   -0.05 9  150 260 
 PTB  HZ I        11 9 30.39         3.3 0.48            126            150 260 
 SPBC HZ EP       11 9  6.65                             129    0.03 9  163 220 
 SPBC HN ES       11 9 28.85                             129    0.15 9  163 220 
 SPBC HZ I        11 9 33.48         7.8 0.20            125            163 220 
 ZAR  HZ EP       11 9 11.03                             122   -0.02 8  208 293 
 ZAR  HN ES   2   11 9 35.51                             122   -1.07 4  208 293 
 ZAR  HZ I        11 9 43.06         3.4 0.22            119            208 293 
                                                                                
