 2012  8 4 1851 47.5 L   6.736 -73.222152.0  RSN  4 0.2 0.9LRSN                1
 GAP=130        0.32       6.6     8.2  6.4  0.1637E+02 -0.2135E+02  0.3406E+01E
 Epicentro: VILLANUEVA - SANTANDER                                             3
 ACTION:UPD 12-09-10 11:54 OP:ep   STATUS:               ID:20120804185147 L   I
 2012-08-04-1849-48M.COL___212                                                 6
 STAT SP IPHASW D HRMM SECON CODA AMPLIT PERI AZIMU VELO AIN AR TRES W  DIS CAZ7
 BRR  HZ EP       1852  9.17                             154    0.0710 68.0 307 
 BRR  HN ES   1   1852 25.97                             154   -0.02 7 68.0 307 
 PAM  SZ EP   3   1852 10.47                             148   -0.52 2 88.2  41 
 RUS  HZ EP   3   1852 11.49                             147    0.09 2 94.5 171 
 RUS  HN ES   3   1852 30.07                             147   -0.02 2 94.5 171 
 RUS  HZ I        1852 31.06         1.3 0.26                          94.5 171 
 PTB  HZ EP   3   1852 13.95                             135   -0.15 2  138 261 
 PTB  HN ES   3   1852 34.61                             135   -0.28 2  138 261 
                                                                                
