 2017  1 4 1515 11.0 L   6.783 -73.121145.0  RSN 12 0.5 2.3LRSN                1
 GAP=141        1.03       4.0     4.2  6.2  0.5632E+00  0.8458E+01  0.7360E+01E
 Epicentro: LOS SANTOS - SANTANDER                                             3
 ACTION:UPD 17-05-22 15:55 OP:jn   STATUS:               ID:20170104151511 L   I
 OLDACT:UP  17-01-04 22:50 OP:dnl  STATUS:               ID:20170104150745     3
 OLDACT:UP  17-01-04 22:50 OP:dnl  STATUS:               ID:20170104150745     3
 OLDACT:UP  17-01-04 22:49 OP:dnl  STATUS:               ID:20170104150745     3
 OLDACT:REG 17-01-04 20:52 OP:dnl  STATUS:               ID:20170104150745     3
 2017-01-04-1508-00M.COL___366                                                 6
 STAT SP IPHASW D HRMM SECON CODA AMPLIT PERI AZIMU VELO AIN AR TRES W  DIS CAZ7
 BAR2 EZ IP     C 1515 30.32                             171   -0.1610 22.2 198 
 BAR2 EZ ES       1515 45.54                             171   -0.1610 22.2 198 
 BAR2 EZ I        1515 48.14        71.6 0.30            166           22.2 198 
 BRR  HZ EP       1515 32.06                             151   -0.1610 74.5 299 
 BRR  HE ES       1515 49.25                             151    0.4510 74.5 299 
 BRR  HZ I        1515 53.14        56.9 0.42            147           74.5 299 
 PAM  EZ IP     D 1515 33.14                             151    0.0610 77.1  37 
 PAM  EN ES       1515 50.34                             151    0.0110 77.1  37 
 PAM  EZ I        1515 52.75        30.7 0.22            157           77.1  37 
 RUS  HZ IP     C 1515 34.30                             144   -0.2010 98.6 178 
 RUS  HN ES       1515 53.21                             144    0.3610 98.6 178 
 RUS  HZ I        1515 54.23        14.9 0.40            145           98.6 178 
 PTB  HZ EP       1515 37.02                             131   -1.07 9  150 260 
 PTB  HE ES       1515 58.64                             131   -0.60 9  150 260 
 PTB  HZ I        1516  5.12        25.1 0.42            129            150 260 
 ZAR  HZ EP   2   1515 44.76                             122    1.06 4  207 292 
 ZAR  HE ES       1516  9.82                             122    0.59 8  207 292 
 ZAR  HZ I        1516 14.35        19.1 0.48            121            207 292 
 CHI  HZ EP       1515 48.55                             117    0.04 8  248 196 
 CHI  HN ES       1516 17.98                             117    0.18 8  248 196 
 CHI  HZ I        1516 21.44        11.1 0.44            118            248 196 
 ROSC BZ EP   4   1515 50.35                             117    1.32 0  253 212 
 ROSC BN ES   4   1516 20.80                             117    2.08 0  253 212 
 ROSC BZ I        1516 26.60        26.5 0.70            117            253 212 
 URE  HZ EP   4   1515 55.01                             113    2.64 0  287 292 
 URE  HN ES   4   1516 26.56                             113    1.90 0  287 292 
 URE  HZ I        1516 32.69         9.5 0.16            113            287 292 
 GUY2CHZ EP       1515 55.36                             112    0.68 7  302 235 
 GUY2CHN ES   4   1516 32.20                             112    3.42 0  302 235 
 GUY2CHZ  IAML    1516 37.77         8.7 0.30                           302 235 
 CBOC HZ EP   2   1515 58.29                             110    0.20 3  336 253 
 CBOC HN ES       1516 34.66                             110   -0.19 7  336 253 
 CBOC HZ I        1516 47.02         3.3 0.62            110            336 253 
 ORTC HZ EP   2   1516  4.67                             106   -0.21 3  396 217 
 ORTC HN ES       1516 47.68                             106    0.74 6  396 217 
 ORTC HZ I        1516 53.75         7.0 0.44            107            396 217 
                                                                                
