 2011  5 4 1804 14.4 L   6.765 -73.088146.6  RSN  6 0.2 1.8LRSN                1
 GAP=146        0.55       3.5     5.4  5.0 -0.2623E+01 -0.4064E+01 -0.4889E+01E
 Epicentro: LOS SANTOS - SANTANDER                                             3
 ACTION:UP  11-06-29 08:50 OP:tino STATUS:               ID:20110504180414 L   I
 2011-05-04-1800-04S.COL___133                                                 6
 STAT SP IPHASW D HRMM SECON CODA AMPLIT PERI AZIMU VELO SNR AR TRES W  DIS CAZ7
 BAR2 SZ EP   1   18 4 33.93                             171    -0.1 7   22 209 
 BAR2 SZ ES   1   18 4 49.15                             171    -0.3 7   22 209 
 BAR2 SZ I        18 4 50.67        16.4 0.23                            22 209 
 PAM  SZ EP   1   18 4 36.72                             151     0.1 7   77  34 
 PAM  SZ I        18 4 36.96         8.4 0.21                            77  34 
 PAM  SN ES   1   18 4 54.04                             151     0.1 7   77  34 
 BRR  HZ EP       18 4 35.82                             150    -0.210   79 299 
 BRR  HZ I        18 4 36.10        36.8 0.17                            79 299 
 BRR  HN ES   1   18 4 53.26                             150     0.3 7   79 299 
 RUS  HZ EP   1   18 4 38.20                             145     0.3 7   97 180 
 RUS  HN ES   1   18 4 56.26                             145     0.0 7   97 180 
 RUS  HZ I        18 4 57.76         8.1 0.21                            97 180 
 BRI  SZ EP       18 4 38.55                             141     0.110  110  17 
 GRA  SZ EP       18 4 39.70                             137    -0.110  128  14 
 GRA  SZ I        18 5  4.51         5.7 0.43                           128  14 
                                                                                
