 2010  7 4 1031 11.7 L   6.766 -73.139145.4  RSN  8 0.4 2.0LRSN                1
 GAP=157        1.06       5.0     7.6  8.8 -0.1008E+02 -0.4546E+01 -0.4724E+01E
 Epicentro: LOS SANTOS - SANTANDER                                             3
 ACTION:UPD 10-12-01 15:15 OP:pat  STATUS:               ID:20100704103111 L   I
 2010-07-04-1029-39S.COL___117                                                 6
 STAT SP IPHASW D HRMM SECON CODA AMPLIT PERI AZIMU VELO AIN AR TRES W  DIS CAZ7
 BAR2 SZ IP     D 1031 31.25                             172     0.110   20 194 
 BAR2 SZ ES   1   1031 45.73                             172    -0.7 7   20 194 
 BRR  HZ EP       1031 33.14                             152     0.210   74 301 
 BRR  HN ES   1   1031 50.21                             152     0.7 7   74 301 
 BRR  HZ I        1031 54.21        39.9 0.14                            74 301 
 RUS  HZ EP       1031 35.52                             145     0.410   97 176 
 RUS  HN ES   2   1031 52.76                             145    -0.6 5   97 176 
 RUS  HZ I        1031 54.35         5.2 0.27                            97 176 
 BRI  SZ IP     C 1031 35.96                             140     0.210  112  20 
 BRI  SZ I        1031 36.33        15.2 0.17                           112  20 
 BRI  SZ ES   2   1031 54.74                             140     0.2 5  112  20 
 GUE  SZ EP       1031 36.18                             138    -0.410  120  11 
 GRA  SZ IP       1031 37.25                             136     0.110  129  17 
 GRA  SZ ES   1   1031 57.53                             136     0.5 7  129  17 
 OCA  SZ IP       1031 39.98                             129    -0.3 9  164 353 
 OCA  SZ ES   1   1032  2.01                             129    -0.6 7  164 353 
 OCA  SZ I        1032  6.69        17.7 0.19                           164 353 
 HEL  HE ES   1   1032 22.74                             115    -0.4 6  272 257 
 HEL  HZ I        1032 31.85         4.0 0.44                           272 257 
                                                                                
