 2012  6 4 1111 47.5 L   6.778 -73.182143.5  RSN  6 0.4 1.6LRSN                1
 GAP=133        0.71       4.6     4.1  7.4 -0.2763E+01  0.1264E+02 -0.4886E+01E
 Epicentro: LOS SANTOS - SANTANDER                                             3
 ACTION:UPD 12-08-06 17:47 OP:ep   STATUS:               ID:20120604111145 L   I
 2012-06-04-1110-00M.COL___201                                                 6
 STAT SP IPHASW D HRMM SECON CODA AMPLIT PERI AZIMU VELO AIN AR TRES W  DIS CAZ7
 BAR2 SZ EP   1   1112  6.88                             171    0.07 7 20.5 180 
 BAR2 SZ ES   1   1112 22.21                             171    0.34 7 20.5 180 
 BAR2 SZ I        1112 23.76        13.5 0.14            172           20.5 180 
 PAM  SZ EP   1   1112  9.75                             149   -0.01 7 81.9  41 
 PAM  SN ES   1   1112 26.80                             149   -0.31 7 81.9  41 
 RUS  HZ EP   1   1112 11.41                             144    0.53 7 98.5 174 
 RUS  HN ES   1   1112 28.73                             144   -0.39 7 98.5 174 
 RUS  HZ I        1112 30.86         3.8 0.20            147           98.5 174 
 PTB  HZ EP   1   1112 14.27                             132    0.38 7  143 259 
 PTB  HN ES   1   1112 34.45                             132   -0.02 7  143 259 
 PTB  HZ I        1112 38.49         3.4 0.13            133            143 259 
 ZAR  HZ EP   1   1112 18.87                             122   -0.65 6  201 293 
 ZAR  HN ES   1   1112 44.79                             122    0.30 6  201 293 
 ZAR  HZ I        1112 48.42         4.2 0.18            124            201 293 
 NOR  SN ES   1   1112 49.53                             118   -0.44 6  230 234 
                                                                                
