 2015  4 4 1201 22.2 L   6.854 -73.193134.8  RSN  7 0.3 1.4LRSN                1
 GAP=132        0.70       3.2     3.2  5.3 -0.2746E+01  0.4995E+01 -0.5121E+01E
 Epicentro: ZAPATOCA - SANTANDER                                               3
 ACTION:UPD 15-06-03 16:52 OP:cam  STATUS:               ID:20150404120122 L   I
 OLDACT:REG 15-04-04 21:25 OP:fm   STATUS:               ID:20150404115748     3
 2015-04-04-1157-48M.COL___279                                                 6
 STAT SP IPHASW D HRMM SECON CODA AMPLIT PERI AZIMU VELO AIN AR TRES W  DIS CAZ7
 BAR2 EZ EP   1   12 1 40.29                             167   -0.35 7 29.0 178 
 BAR2 EZ ES   1   12 1 54.88                             167   -0.15 7 29.0 178 
 BAR2 EZ I        12 1 55.97         4.5 0.28            170           29.0 178 
 BRR  HZ EP       12 1 42.11                             153    0.3810 63.8 296 
 BRR  HN ES       12 1 57.34                             153    0.3610 63.8 296 
 BRR  HZ I        12 2  1.89         6.5 0.28            151           63.8 296 
 PAM  SZ IP     C 12 1 43.31                             149    0.1210 76.5  45 
 PAM  SE ES       12 1 59.50                             149   -0.0710 76.5  45 
 PAM  SZ I        12 2  2.42         3.9 0.52            152           76.5  45 
 PTB  HN ES       12 2  7.65                             130   -0.35 9  144 256 
 PTB  HZ I        12 2 11.18         4.2 0.26            131            144 256 
 SPBC HE ES       12 2 11.63                             126   -0.10 9  165 216 
 SPBC HZ I        12 2 18.24         3.1 0.34            128            165 216 
 ZAR  HZ EP       12 1 53.54                             121    0.34 9  197 291 
 ZAR  HN ES       12 2 17.47                             121    0.09 9  197 291 
 ZAR  HZ I        12 2 22.23         2.3 0.28            121            197 291 
 SML  HZ EP       12 1 57.21                             116   -0.17 8  236 336 
 SML  HE ES       12 2 24.34                             116   -0.49 8  236 336 
 SML  HZ I        12 2 33.92         3.9 0.10            117            236 336 
                                                                                
