 2014  2 4 1119 59.2 L   7.431 -73.388112.5  RSN  5 0.3 1.7LRSN                1
 GAP= 93        0.81       3.1     3.3  7.9 -0.6187E+00  0.1294E+02  0.1022E+01E
 Epicentro: SABANA DE TORRES - SANTANDER                                       3
 ACTION:UPD 14-03-10 08:07 OP:ep   STATUS:               ID:20140204111959 L   I
 OLDACT:REG 14-02-04 15:03 OP:nd   STATUS:               ID:20140204112000     3
 2014-02-04-1120-00M.COL___288                                                 6
 STAT SP IPHASW D HRMM SECON CODA AMPLIT PERI AZIMU VELO AIN AR TRES W  DIS CAZ7
 PAM  SZ EP       1120 18.19                             144    0.2510 76.6  98 
 PAM  SN ES       1120 32.99                             144    0.4310 76.6  98 
 PAM  SZ I        1120 35.25         7.7 0.20            151           76.6  98 
 OCA  HZ EP       1120 18.31                             139   -0.1610 89.7   5 
 OCA  HN ES       1120 33.21                             139   -0.3010 89.7   5 
 OCA  HZ I        1120 34.44         9.4 0.14            144           89.7   5 
 BAR2 SZ EP       1120 19.20                             137    0.1410 95.4 166 
 BAR2 SZ ES       1120 34.05                             137   -0.5010 95.4 166 
 BAR2 SZ I        1120 35.62        24.4 0.26            142           95.4 166 
 PTB  HZ EP       1120 24.17                             122   -0.12 9  154 230 
 PTB  HN ES       1120 43.92                             122    0.04 9  154 230 
 PTB  HZ I        1120 47.39         4.9 0.24            125            154 230 
 ZAR  HZ EP       1120 24.96                             120   -0.23 9  162 273 
 ZAR  HN ES       1120 45.93                             120    0.46 9  162 273 
 ZAR  HZ I        1120 51.21         6.4 0.24            124            162 273 
                                                                                
