 2011 10 4 1454 37.9 L   6.244 -73.577100.0  RSN  5 0.3 1.4LRSN                1
 GAP=140        0.49       4.5     3.6  7.4 -0.5854E+01  0.1846E+02  0.7093E+00E
 Epicentro: LA PAZ - SANTANDER                                                 3
 ACTION:UPD 12-07-13 16:01 OP:ep   STATUS:               ID:20111004145437 L   I
 2011-10-04-1452-12S.COL___171                                                 6
 STAT SP IPHASW D HRMM SECON CODA AMPLIT PERI AZIMU VELO AIN AR TRES W  DIS CAZ7
 BAR2 SZ EP   1   1454 53.60                             148   -0.11 7 58.2  49 
 BAR2 SZ ES   1   1455  6.17                             148    0.08 7 58.2  49 
 BAR2 SZ I        1455  8.13         8.3 0.21                          58.2  49 
 RUS  HZ EP   1   1454 54.62                             145   -0.07 7 67.1 125 
 RUS  HZ I        1454 54.91         2.7 0.26                          67.1 125 
 RUS  HE ES   1   1455  7.89                             145    0.07 7 67.1 125 
 NOR  SZ EP   1   1455  2.75                             117   -0.35 7  162 242 
 NOR  SN ES   1   1455 23.17                             117    0.38 7  162 242 
 HEL  HZ EP   2   1455  9.90                             110    0.27 4  216 269 
 HEL  HN ES   2   1455 34.27                             110   -0.16 4  216 269 
 HEL  HZ I        1455 38.81         5.1 0.28                           216 269 
 RREF HZ EP   2   1455 14.12                             107    0.67 4  246 233 
 RREF HN ES   1   1455 40.87                             107   -0.35 6  246 233 
 RREF HZ I        1455 49.50         3.0 0.33                           246 233 
                                                                                
