 2016  7 4 1904 56.6 L   6.003 -74.011 87.4  RSN  7 0.2 1.5LRSN                1
 GAP=143        0.61       2.0     1.6  5.6 -0.9438E+00  0.4853E+00  0.1727E+01E
 Epicentro: LA BELLEZA - SANTANDER                                             3
 ACTION:UPD 17-03-29 16:47 OP:lp   STATUS:               ID:20160704190456 L   I
 OLDACT:REG 16-07-04 20:55 OP:edw  STATUS:               ID:20160704185741     3
 2016-07-04-1857-41M.COL___328                                                 6
 STAT SP IPHASW D HRMM SECON CODA AMPLIT PERI AZIMU VELO AIN AR TRES W  DIS CAZ7
 PTB  HZ EP       19 5 12.13                             135   -0.2910 77.1 320 
 PTB  HN ES       19 5 24.61                             135   -0.1210 77.1 320 
 PTB  HZ I        19 5 27.34         6.1 0.12            138           77.1 320 
 RUS  HZ EP       19 5 15.57                             127    0.0510  103  97 
 RUS  HN ES       19 5 30.19                             127   -0.0610  103  97 
 NOR  HZ EP       19 5 15.27                             125   -0.0010  107 243 
 NOR  HN ES       19 5 29.66                             125   -0.1510  107 243 
 NOR  HZ I        19 5 32.71        10.2 0.16            129            107 243 
 BAR2 EZ EP       19 5 16.05                             124   -0.0510  112  55 
 BAR2 EZ ES       19 5 31.45                             124    0.1710  112  55 
 BAR2 EZ I        19 5 33.52         9.2 0.30            128            112  55 
 BRR  HZ EP       19 5 16.82                             120   -0.4410  127  15 
 BRR  HN ES       19 5 33.73                             120    0.3810  127  15 
 BRR  HZ I        19 5 34.99         9.9 0.28            124            127  15 
 GUY2CHZ EP       19 5 23.19                             112    0.16 9  173 240 
 GUY2CHN ES       19 5 43.96                             112    0.34 9  173 240 
 GUY2CHZ I        19 5 50.77         2.9 0.36                           173 240 
 ZAR  HN ES       19 5 46.09                             110    0.13 9  189 330 
 ZAR  HZ I        19 5 48.83         6.9 0.28            113            189 330 
                                                                                
