 2012  1 4 1448  7.5 L   5.963 -73.582123.1  RSN  6 0.4 1.4LRSN                1
 GAP=105        0.75       4.8     6.9 11.8  0.5485E+01  0.5632E+02  0.5978E+01E
 Epicentro: BARBOSA - SANTANDER                                                3
 ACTION:UP  12-02-03 08:14 OP:REBC STATUS:               ID:20120104144807 L   I
 2012-01-04-1440-00M.COL___184                                                 6
 STAT SP IPHASW D HRMM SECON CODA AMPLIT PERI AZIMU VELO SNR AR TRES W  DIS CAZ7
 RUS  HZ EP       1448 26.25                             154     0.210   56  98 
 RUS  HN ES   1   1448 40.80                             154     0.2 7   56  98 
 RUS  HZ I        1448 42.66         6.4 0.26                            56  98 
 PTB  HZ EP       1448 29.28                             134    -0.510  116 303 
 PTB  HE ES   3   1448 46.79                             134    -0.3 2  116 303 
 PTB  HZ I        1448 53.26         2.0 0.20                           116 303 
 BRR  HZ EP   3   1448 31.20                             131     0.4 2  127 354 
 BRR  HN ES   3   1448 48.65                             131    -0.3 2  127 354 
 CHI  HZ EP       1448 33.31                             126     0.0 9  148 186 
 CHI  HZ I        1448 33.99         5.7 0.44                           148 186 
 CHI  HN ES   1   1448 53.03                             126    -0.5 7  148 186 
 NOR  SZ EP       1448 33.35                             126     0.4 9  149 253 
 NOR  SE ES   3   1448 53.91                             126     1.1 2  149 253 
 HEL  HZ EP   2   1448 40.85                             115     0.4 4  217 277 
                                                                                
