 2017  4 4 1210 22.3 L   6.991 -73.591  0.1  RSN  5 0.4 1.8LRSN                1
 GAP=201        1.04       4.9     4.7  6.2  0.1765E+02  0.1555E+02  0.2450E+02E
 Epicentro: SAN VICENTE DE CHUCURI - SANTANDER                                 3
 ACTION:UPD 17-05-30 21:08 OP:jn   STATUS:               ID:20170404121022 L   I
 OLDACT:REG 17-04-04 20:27 OP:ar   STATUS:               ID:20170404120741     3
 2017-04-04-1208-00M.COL___365                                                 6
 STAT SP IPHASW D HRMM SECON CODA AMPLIT PERI AZIMU VELO AIN AR TRES W  DIS CAZ7
 BRR  HZ IP     D 1210 25.49                              91   -0.6210 18.5 314 
 BRR  HN ES       1210 29.47                              91    0.3610 18.5 314 
 BRR  HZ I        1210 29.89       221.2 0.12             90           18.5 314 
 PTB  HZ EP       1210 39.38                              47   -0.3810  108 242 
 PTB  HE ES       1210 53.17                              47   -0.2510  108 242 
 PTB  HZ I        1210 55.31        21.7 0.22             47            108 242 
 RUS  HZ EP       1210 44.52                              47    0.3310  134 155 
 RUS  HN ES       1211  0.93                              47   -0.3710  134 155 
 RUS  HZ I        1211  5.69         7.1 0.28             47            134 155 
 ZAR  HZ EP       1210 46.84                              47    0.64 9  150 292 
 ZAR  HN ES       1211  4.72                              47   -0.17 9  150 292 
 ZAR  HZ I        1211  6.19        21.6 0.34             47            150 292 
 SPBC HZ EP       1210 47.44                              47    0.11 9  157 200 
 SPBC HN ES       1211  7.38                              47    0.49 9  157 200 
 SPBC HZ I        1211 10.32        10.0 0.32             47            157 200 
                                                                                
