 2012  8 4 1817 37.5 L   6.302 -73.642109.4  RSN  8 0.3 1.7LRSN                1
 GAP=159        0.62       3.6     3.2  5.6  0.3869E+01  0.4890E+01  0.4970E+01E
 Epicentro: SANTA HELENA DEL OPON - SANTANDER                                  3
 ACTION:UPD 12-09-10 11:54 OP:ep   STATUS:               ID:20120804181737 L   I
 2012-08-04-1809-36M.COL___212                                                 6
 STAT SP IPHASW D HRMM SECON CODA AMPLIT PERI AZIMU VELO AIN AR TRES W  DIS CAZ7
 BAR2 SZ EP       1817 54.93                             149    0.4310 60.2  58 
 BAR2 SZ ES   1   1818  7.55                             149   -0.18 7 60.2  58 
 BAR2 SZ I        1818  8.99        54.9 0.36                          60.2  58 
 RUS  HZ EP       1817 55.93                             143   -0.0610 76.7 126 
 RUS  HZ I        1817 56.49         5.3 0.36                          76.7 126 
 RUS  HN ES   2   1818 10.58                             143    0.20 5 76.7 126 
 BRR  HZ EP       1817 56.30                             138    0.0010 89.4 355 
 BRR  HZ I        1817 56.52        16.6 0.12                          89.4 355 
 BRR  HN ES   2   1818 11.31                             138    0.39 5 89.4 355 
 PTB  HZ EP       1817 56.40                             136   -0.2910 93.8 286 
 PTB  HN ES   2   1818 11.34                             136   -0.28 5 93.8 286 
 PTB  HZ I        1818 13.98         9.1 0.10                          93.8 286 
 GIR2 SZ EP       1817 57.39                             135    0.0710 99.2  30 
 GIR2 SZ ES   1   1818 12.67                             135   -0.08 7 99.2  30 
 PAM  SZ EP       1818  2.69                             121   -0.50 9  155  42 
 PAM  SZ I        1818 26.99         2.5 0.24                           155  42 
 YOP  SZ EP       1818  4.49                             118    0.07 9  171 128 
 ZAR  HZ EP       1818  6.49                             115    0.36 9  188 314 
 ZAR  HN ES   2   1818 28.54                             115    0.10 4  188 314 
 ZAR  HZ I        1818 31.66         9.2 0.28                           188 314 
                                                                                
