 2014  7 4 1808 46.9 L   6.810 -73.174138.6  RSN  9 0.3 1.6LRSN                1
 GAP=133        0.82       2.9     3.3  5.5 -0.3872E+00  0.5657E+01 -0.8141E+00E
 Epicentro: LOS SANTOS - SANTANDER                                             3
 ACTION:UPD 15-03-16 20:41 OP:nd   STATUS:               ID:20140704180846 L   I
 OLDACT:DUP 14-07-08 10:17 OP:spq  STATUS:               ID:20140704175820d    3
 OLDACT:REG 14-07-08 09:11 OP:spq  STATUS:               ID:20140704175819     3
 2014-07-04-1758-19M.COL___259                                                 6
 STAT SP IPHASW D HRMM SECON CODA AMPLIT PERI AZIMU VELO AIN AR TRES W  DIS CAZ7
 BAR2 SZ EP       18 9  5.73                             170    0.0210 24.1 182 
 BAR2 SZ ES   1   18 9 20.38                             170    0.02 7 24.1 182 
 BAR2 SZ I        18 9 22.31         7.2 0.14            172           24.1 182 
 BRR  HZ IP     C 18 9  7.67                             152    0.5510 68.0 299 
 BRR  HE ES       18 9 23.36                             152    0.4910 68.0 299 
 BRR  HZ I        18 9 28.17        11.2 0.34            150           68.0 299 
 PAM  SZ EP       18 9  8.74                             149    0.2810 78.6  42 
 PAM  SN ES       18 9 25.08                             149   -0.1710 78.6  42 
 PAM  SZ I        18 9 28.53         4.8 0.32            152           78.6  42 
 RUS  HZ EP       18 9  9.97                             142   -0.1110  102 174 
 RUS  HE ES       18 9 27.82                             142   -0.3210  102 174 
 RUS  HZ I        18 9 29.89         3.7 0.26            147            102 174 
 PTB  HZ EP       18 9 12.60                             131   -0.46 9  145 258 
 PTB  HN ES       18 9 33.24                             131   -0.20 9  145 258 
 PTB  HZ I        18 9 37.15         4.8 0.19            132            145 258 
 SPBC HN ES       18 9 36.48                             128   -0.03 9  162 218 
 SPBC HZ I        18 9 41.31         5.7 0.34            131            162 218 
 ZAR  HZ EP       18 9 18.59                             121    0.02 9  201 292 
 ZAR  HN ES       18 9 43.15                             121   -0.11 9  201 292 
 ZAR  HZ I        18 9 50.91         5.8 0.22            123            201 292 
 SML  HE ES       18 9 50.35                             116   -0.63 8  241 336 
 SML  HZ I        18 9 58.32         6.1 0.09            118            241 336 
 GUY2CHZ EP   1   18 9 30.72                             111    0.72 5  299 234 
 GUY2CHE ES   1   1810  3.87                             111    0.28 5  299 234 
 GUY2CHZ I        1810 11.76         1.5 0.26                           299 234 
                                                                                
