 2010 10 4 1739 37.1 L   6.802 -73.017138.0  RSN  5 0.4 1.9LRSN                1
 GAP=173        1.05       7.0    14.4 14.7  0.5278E+02 -0.1422E+03 -0.5808E+02E
 Epicentro: CEPITA - SANTANDER                                                 3
 ACTION:UP  11-02-18 11:07 OP:tino STATUS:               ID:20101004173937 L   I
 2010-10-04-1736-22S.COL___125                                                 6
 STAT SP IPHASW D HRMM SECON CODA AMPLIT PERI AZIMU VELO SNR AR TRES W  DIS CAZ7
 BAR2 SZ EP       1739 55.89                             168     0.010   30 218 
 BAR2 SZ ES   2   1740  9.56                             168    -1.1 5   30 218 
 BAR2 SZ I        1740 12.55        20.3 0.08                            30 218 
 BRR  HZ EP       1739 57.63                             148    -0.610   84 294 
 BRR  HZ I        1739 57.97        34.1 0.23                            84 294 
 BRR  HN ES       1740 15.09                             148     0.410   84 294 
 RUS  HZ EP       1740  0.16                             143     0.110  101 184 
 RUS  HN ES       1740 18.27                             143     0.210  101 184 
 RUS  HZ I        1740 19.27         6.3 0.48                           101 184 
 GUE  SZ EP       1740  0.92                             139     0.010  114   5 
 GRA  SZ EP   1   1740  1.69                             136     0.4 7  122  11 
                                                                                
