 2010  4 4 1952 24.9 L   6.104 -73.309151.9  RSN  4 0.1 1.9LRSN                1
 GAP=182        0.32       2.7     7.7  7.3 -0.8398E+01 -0.9489E+00  0.8504E+01E
 Epicentro: GAMBITA - SANTANDER                                                3
 ACTION:UPD 10-08-24 09:57 OP:vdl  STATUS:               ID:20100404195224 L   I
 2010-04-04-1950-26S.COL___098                                                 6
 STAT SP IPHASW D HRMM SECON CODA AMPLIT PERI AZIMU VELO AIN AR TRES W  DIS CAZ7
 BAR2 SZ EP   1   1952 46.29                             159     0.0 7   56  14 
 BRR  HZ EP   1   1952 50.06                             143     0.0 7  120 338 
 BRR  HN ES   2   1953  9.54                             143     0.0 5  120 338 
 BRR  HZ I        1953 10.02        13.8 0.07                           120 338 
 CHI  HZ EP   1   1952 55.07                             131     0.1 7  170 196 
 CHI  HN ES   2   1953 18.28                             131    -0.1 5  170 196 
 CHI  HZ I        1953 20.47         5.7 0.29                           170 196 
 PRA  HZ EP   1   1953  9.85                             114    -0.2 5  317 214 
 PRA  HN ES   2   1953 45.36                             114     0.1 3  317 214 
 PRA  HZ I        1953 47.59         4.8 0.42                           317 214 
                                                                                
