 2016  4 4 1841  7.1 L   6.841 -73.186145.0  RSN 12 0.4 2.3LRSN                1
 GAP=130        1.01       4.1     4.7  6.5 -0.4920E+01  0.1660E+02 -0.7108E+01E
 Epicentro: ZAPATOCA - SANTANDER                                               3
 ACTION:UPD 16-05-05 14:18 OP:rebc STATUS:               ID:20160404184107 L   I
 OLDACT:UP  16-04-04 23:54 OP:drio STATUS:               ID:20160404183748     3
 OLDACT:UP  16-04-04 23:54 OP:drio STATUS:               ID:20160404183748     3
 OLDACT:REG 16-04-04 20:40 OP:drio STATUS:               ID:20160404183748     3
 2016-04-04-1837-48M.COL___292                                                 6
 STAT SP IPHASW D HRMM SECON CODA AMPLIT PERI AZIMU VELO AIN AR TRES W  DIS CAZ7
 BAR2 EZ EP       1841 26.74                             169    0.0110 27.6 179 
 BAR2 EZ ES       1841 41.23                             169   -0.8210 27.6 179 
 BAR2 EZ I        1841 43.03        50.6 0.14            168           27.6 179 
 PAM  EZ EP       1841 29.66                             151    0.4510 77.0  44 
 PAM  EE ES       1841 46.97                             151    0.5110 77.0  44 
 PAM  EZ I        1841 49.33        22.1 0.64            157           77.0  44 
 RUS  HZ EP       1841 30.71                             142   -0.4310  106 174 
 RUS  HE ES       1841 49.77                             142   -0.1210  106 174 
 RUS  HZ I        1841 50.32        19.6 0.24            147            106 174 
 PTB  HZ EP       1841 33.51                             132   -0.19 9  144 257 
 PTB  HN ES       1841 54.79                             132    0.35 9  144 257 
 PTB  HZ I        1841 58.23        29.2 0.16            132            144 257 
 SPBC HZ EP       1841 35.70                             129    0.08 9  164 217 
 SPBC HN ES       1841 58.15                             129    0.28 9  164 217 
 SPBC HZ I        1842  5.65        37.8 0.10            131            164 217 
 ZAR  HZ EP       1841 38.72                             123   -0.17 9  198 291 
 ZAR  HE ES   4   1842  5.52                             123    1.83 0  198 291 
 ZAR  HZ I        1842 11.00        29.4 0.32            124            198 291 
 NOR  HZ EP       1841 42.92                             118    0.23 8  234 233 
 NOR  HN ES       1842 10.56                             118    0.11 8  234 233 
 NOR  HZ I        1842 16.85        22.7 0.16            120            234 233 
 HEL  HZ EP   4   1841 47.96                             115    1.04 0  269 255 
 HEL  HN ES   4   1842 19.91                             115    1.93 0  269 255 
 HEL  HZ I        1842 25.67        13.7 0.26            116            269 255 
 URE  HZ EP       1841 47.71                             114    0.23 7  278 291 
 URE  HE ES   4   1842 17.79                             114   -1.18 0  278 291 
 URE  HZ I        1842 29.28        12.3 0.32            115            278 291 
 GUY2CHZ EP       1841 51.10                             112    0.53 7  300 234 
 GUY2CHE ES   4   1842 22.10                             112   -2.37 0  300 234 
 GUY2CHZ I        1842 33.12        16.8 0.62                           300 234 
 MON  HZ EP       1841 54.24                             109   -1.10 6  347 308 
 MON  HE ES       1842 32.77                             109   -0.19 6  347 308 
 MON  HZ I        1842 35.25         4.9 0.60            111            347 308 
 SJC  HZ EP   4   1842  0.09                             106   -1.81 0  403 327 
 SJC  HN ES   4   1842 42.52                             106   -2.12 0  403 327 
 SJC  HZ I        1842 45.76         3.1 0.38            108            403 327 
                                                                                
