 2014  1 4 1223 54.9 L   5.866 -73.675122.2  RSN 10 0.4 1.9LRSN                1
 GAP= 95        0.85       3.2     3.3  7.2 -0.2110E+01  0.7152E+01 -0.1878E+01E
 Epicentro: PUENTE NACIONAL - SANTANDER                                        3
 ACTION:UPD 14-03-13 09:51 OP:ep   STATUS:               ID:20140104122354 L   I
 OLDACT:REG 14-01-04 14:53 OP:mh   STATUS:               ID:20140104122000     3
 2014-01-04-1220-00M.COL___285                                                 6
 STAT SP IPHASW D HRMM SECON CODA AMPLIT PERI AZIMU VELO AIN AR TRES W  DIS CAZ7
 SPBC HZ EP   1   1224 12.50                             156    0.06 7 49.9 242 
 SPBC HN ES   1   1224 26.11                             156   -0.04 7 49.9 242 
 RUS  HZ EP       1224 14.11                             150    0.2210 65.6  87 
 RUS  HN ES   2   1224 28.47                             150   -0.25 5 65.6  87 
 RUS  HZ I        1224 30.05         5.6 0.20            149           65.6  87 
 BAR2 SZ EP       1224 16.08                             139    0.3310 97.0  34 
 BAR2 SZ ES   1   1224 32.35                             139    0.31 7 97.0  34 
 BAR2 SZ I        1224 33.76        47.2 0.41            136           97.0  34 
 PTB  HZ EP       1224 16.45                             134   -0.4310  114 311 
 PTB  HZ I        1224 34.83        11.9 0.08            131            114 311 
 NOR  HZ EP       1224 19.31                             128    0.33 9  136 256 
 NOR  HN ES   1   1224 38.13                             128    0.34 7  136 256 
 NOR  HZ I        1224 39.91        20.2 0.18            126            136 256 
 CHI  HZ EP       1224 18.93                             129   -0.58 9  137 183 
 CHI  HN ES       1224 38.47                             129   -0.26 9  137 183 
 CHI  HZ I        1224 43.54         5.1 0.39            127            137 183 
 GUY2CHZ EP       1224 26.72                             117    0.63 9  200 249 
 GUY2CHN ES       1224 50.44                             117    0.00 9  200 249 
 GUY2CHZ I        1224 57.55         6.0 0.60                           200 249 
 HEL  HZ EP   1   1224 26.68                             116   -0.15 6  208 280 
 HEL  HN ES   1   1224 51.80                             116    0.04 6  208 280 
 ZAR  HE ES   1   1224 52.66                             114   -1.03 6  222 324 
 ZAR  HE I        1224 54.20        19.8 0.20            112            222 324 
 ORTC HN ES   1   1225  4.94                             109   -0.03 6  278 219 
                                                                                
