 2015  9 4 1928 32.8 L   6.767 -73.167141.9  RSN  9 0.4 1.9LRSN                1
 GAP=135        1.04       4.3     4.0  6.6 -0.3513E+01  0.9328E+01 -0.2573E+01E
 Epicentro: LOS SANTOS - SANTANDER                                             3
 ACTION:UPD 15-10-28 16:24 OP:cam  STATUS:               ID:20150904192832 L   I
 OLDACT:DUP 15-09-05 01:47 OP:stll STATUS:               ID:20150904191752d    3
 2015-09-04-1917-50M.COL___334                                                 6
 STAT SP IPHASW D HRMM SECON CODA AMPLIT PERI AZIMU VELO AIN AR TRES W  DIS CAZ7
 BAR2 EZ EP       1928 52.12                             172    0.2710 19.4 185 
 BAR2 EZ ES       1929  7.14                             172    0.4010 19.4 185 
 BAR2 EZ I        1929  8.13        15.2 0.24            169           19.4 185 
 BRR  HZ EP       1928 54.11                             152    0.6310 71.0 302 
 PAM  EZ EP     C 1928 54.61                             149   -0.2210 81.7  39 
 PAM  EZ I        1928 55.07        13.2 0.22            154           81.7  39 
 PAM  EN ES       1929 11.92                             149   -0.1310 81.7  39 
 RUS  HZ EP       1928 56.02                             144    0.1410 97.2 174 
 RUS  HE ES       1929 13.39                             144   -0.5310 97.2 174 
 RUS  HZ I        1929 15.80         6.2 0.28            144           97.2 174 
 PTB  HZ EP       1928 58.56                             132   -0.57 9  145 260 
 PTB  HN ES       1929 19.51                             132   -0.20 9  145 260 
 PTB  HZ I        1929 27.46         9.8 0.30            131            145 260 
 CPBEREZ EP       1928 58.82                             132   -0.32 9  145 260 
 CPBEREN ES       1929 19.02                             132   -0.70 9  145 260 
 SPBC HZ EP       1929  0.99                             129    0.44 9  159 219 
 SPBC HN ES       1929 22.51                             129    0.28 9  159 219 
 SPBC HZ I        1929 30.16        15.8 0.12            129            159 219 
 ZAR  HZ EP       1929  4.74                             122   -0.13 9  203 293 
 ZAR  HZ I        1929  6.82         6.3 0.26            123            203 293 
 ZAR  HN ES       1929 30.36                             122    0.44 9  203 293 
 NOR  HZ EP       1929  7.57                             118   -0.26 8  231 235 
 NOR  HN ES       1929 35.69                             118    0.51 8  231 235 
 NOR  HZ I        1929 39.78         7.2 0.20            119            231 235 
                                                                                
