 2014 10 4 1234 11.1 L   6.803 -73.137149.1  RSN 16 0.6 2.3LRSN                1
 GAP=137        1.27       3.5     5.1  6.5 -0.1233E+01  0.8337E+01  0.1281E+01E
 Epicentro: LOS SANTOS - SANTANDER                                             3
 ACTION:UPD 14-11-29 23:46 OP:nd   STATUS:               ID:20141004123411 L   I
 OLDACT:REG 14-10-04 23:44 OP:fm   STATUS:               ID:20141004122738     3
 2014-10-04-1227-38M.COL___289                                                 6
 STAT SP IPHASW D HRMM SECON CODA AMPLIT PERI AZIMU VELO AIN AR TRES W  DIS CAZ7
 BAR2 SZ EP       1234 30.97                             170   -0.1610 23.9 192 
 BAR2 SZ ES   1   1234 46.94                             170    0.17 7 23.9 192 
 BAR2 SZ I        1234 47.51        29.3 0.44            168           23.9 192 
 BRR  HZ EP   1   1234 32.18                             153   -0.46 7 71.9 298 
 BRR  HE ES       1234 50.05                             153    0.6010 71.9 298 
 BRR  HZ I        1234 54.57        23.0 0.12            151           71.9 298 
 PAM  SZ EP       1234 34.46                             152    0.8510 76.5  39 
 PAM  SN ES       1234 51.09                             152   -0.0910 76.5  39 
 PAM  SZ I        1234 53.48        60.0 0.54            156           76.5  39 
 RUS  HZ EP       1234 35.77                             144    0.5810  101 177 
 RUS  HE ES       1234 53.63                             144   -0.3610  101 177 
 RUS  HZ I        1234 55.28        19.8 0.24            145            101 177 
 PTB  HZ EP       1234 38.65                             132    0.23 9  149 259 
 PTB  HN ES       1234 59.58                             132   -0.16 9  149 259 
 PTB  HZ I        1235  2.67        20.1 0.22            132            149 259 
 OCA  HZ EP       1234 39.57                             130   -0.07 9  160 353 
 OCA  HN ES       1235  1.14                             130   -0.77 9  160 353 
 OCA  HZ I        1235  5.42        23.6 0.50            132            160 353 
 SPBC HZ EP       1234 40.18                             130    0.25 9  164 219 
 SPBC HN ES       1235  1.57                             130   -0.85 9  164 219 
 SPBC HZ I        1235  6.42        20.0 0.20            130            164 219 
 ZAR  HZ EP   1   1234 44.04                             123    0.21 6  205 292 
 ZAR  HN ES       1235 10.31                             123    0.94 9  205 292 
 ZAR  HZ I        1235 15.62        20.2 0.32            123            205 292 
 SML  HZ EP       1234 47.34                             118   -0.57 8  244 335 
 SML  HE ES       1235 16.21                             118   -0.43 8  244 335 
 SML  HZ I        1235 19.71        16.9 0.10            119            244 335 
 CHI  HZ EP       1234 48.84                             118   -0.20 8  249 195 
 CHI  HN ES   4   1235 17.06                             118   -1.58 0  249 195 
 CHI  HZ I        1235 23.35         5.0 0.46            119            249 195 
 GUY2CHZ EP       1234 55.14                             113    0.18 7  302 235 
 GUY2CHN ES   4   1235 30.88                             113    1.69 0  302 235 
 GUY2CHZ I        1235 39.20         8.0 0.58                           302 235 
 DBB  SZ EP   1   1234 59.78                             110    0.97 5  340 274 
 DBB  SZ ES   1   1235 35.98                             110   -0.05 5  340 274 
 DBB  SZ I        1235 40.28        26.2 0.36            111            340 274 
 TOL  SZ EP   1   1235  0.33                             110    0.74 5  344 225 
 TOL  SN ES   4   1235 36.06                             110   -1.35 0  344 225 
 TOL  SZ I        1235 46.06        10.3 0.38            111            344 225 
 MON  HZ EP   1   1234 58.46                             109   -1.82 5  354 308 
 MON  HN ES   4   1235 37.39                             109   -1.27 0  354 308 
 MON  HZ I        1235 38.77         7.5 0.20            110            354 308 
 PRA  HZ EP   1   1235  5.57                             107    0.75 4  393 210 
 PRA  HN ES       1235 45.71                             107   -1.01 6  393 210 
 PRA  HZ I        1235 54.28         5.8 0.68            108            393 210 
 SJC  HZ EP   4   1235  5.77                             106   -1.02 0  409 327 
 SJC  HN ES   4   1235 46.12                             106   -4.12 0  409 327 
 SJC  HZ I        1235 51.72        10.2 0.88            107            409 327 
                                                                                
