 2012  6 4 1758 48.3 L   6.854 -73.162141.9  RSN  4 0.2 1.4LRSN                1
 GAP=245        0.50       6.7     5.4  7.8  0.2327E+02  0.9825E+01 -0.1173E+02E
 Epicentro: LOS SANTOS - SANTANDER                                             3
 ACTION:UPD 12-08-06 17:47 OP:ep   STATUS:               ID:20120604175845 L   I
 2012-06-04-1756-50M.COL___182                                                 6
 STAT SP IPHASW D HRMM SECON CODA AMPLIT PERI AZIMU VELO AIN AR TRES W  DIS CAZ7
 BAR2 SZ EP   1   1759  7.81                             168    0.17 9 29.0 184 
 BAR2 SZ ES   1   1759 22.83                             168    0.13 9 29.0 184 
 BAR2 SZ I        1759 24.96         6.3 0.21            166           29.0 184 
 RUS  HN ES   1   1759 30.45                             141   -0.31 9  107 175 
 PTB  HZ EP   1   1759 15.05                             131    0.10 8  147 256 
 PTB  HE ES   1   1759 35.98                             131    0.27 8  147 256 
 PTB  HZ I        1759 42.14         2.9 0.33            131            147 256 
 ZAR  HN ES       1759 44.69                             122   -0.2410  200 291 
 ZAR  HZ I        1759 53.36         2.4 0.15            123            200 291 
                                                                                
