 2012 10 4 1007  2.1 L   6.767 -73.100146.5  RSN  4 0.2 1.4LRSN                1
 GAP=170        0.54      10.3     6.8  7.1 -0.3238E+02  0.4312E+01  0.5451E+01E
 Epicentro: LOS SANTOS - SANTANDER                                             3
 ACTION:UPD 12-11-22 17:01 OP:ep   STATUS:               ID:20121004100702 L   I
 2012-10-04-1000-00M.COL___219                                                 6
 STAT SP IPHASW D HRMM SECON CODA AMPLIT PERI AZIMU VELO AIN AR TRES W  DIS CAZ7
 BAR2 SZ EP   2   10 7 21.53                             171   -0.24 5 21.3 205 
 BAR2 SZ ES   2   10 7 37.30                             171    0.18 5 21.3 205 
 BAR2 SZ I        10 7 42.40         4.4 0.58                          21.3 205 
 GIR2 SZ EP       10 7 21.71                             165   -0.2710 36.0 343 
 PAM  SZ EP       10 7 24.70                             151    0.3310 77.2  35 
 PAM  SN ES   1   10 7 41.54                             151   -0.21 7 77.2  35 
 BRR  HZ EP       10 7 23.72                             150    0.0510 77.4 299 
 BRR  HZ I        10 7 24.08         6.4 0.12                          77.4 299 
 BRR  HN ES   2   10 7 40.63                             150    0.12 5 77.4 299 
                                                                                
