 2015  6 4 1629 14.9 L   6.772 -73.179128.0  RSN  8 0.4 2.3LRSN                1
 GAP=134        1.06       3.3     4.9  7.6 -0.9950E+00  0.2135E+02 -0.4845E+01E
 Epicentro: LOS SANTOS - SANTANDER                                             3
 ACTION:UPD 15-09-10 22:09 OP:cam  STATUS:               ID:20150604162914 L   I
 OLDACT:UP  15-06-05 00:30 OP:ar   STATUS:               ID:20150604162748     3
 OLDACT:REG 15-06-04 21:08 OP:ar   STATUS:               ID:20150604162748     3
 2015-06-04-1627-48M.COL___306                                                 6
 STAT SP IPHASW D HRMM SECON CODA AMPLIT PERI AZIMU VELO AIN AR TRES W  DIS CAZ7
 BAR2 EZ EP       1629 32.45                             171    0.1610 19.9 181 
 BAR2 EZ ES       1629 46.19                             171    0.3110 19.9 181 
 BAR2 EZ I        1629 48.56        52.7 0.20            170           19.9 181 
 PAM  SZ EP       1629 35.42                             146   -0.1210 82.1  40 
 PAM  SE ES       1629 52.08                             146    0.4210 82.1  40 
 PAM  SZ I        1629 54.30        34.3 0.54            152           82.1  40 
 RUS  HZ EP       1629 36.45                             141   -0.2510 97.9 174 
 RUS  HE ES       1629 53.25                             141   -0.4810 97.9 174 
 RUS  HZ I        1629 55.75        14.6 0.18            145           97.9 174 
 OCA  HN ES       1630  2.66                             125   -0.72 9  163 355 
 ZAR  HZ EP       1629 46.36                             119    0.38 9  202 293 
 ZAR  HN ES       1630 10.73                             119    0.48 9  202 293 
 ZAR  HZ I        1630 16.82        28.8 0.68            121            202 293 
 NOR  HZ EP       1629 49.08                             115   -0.02 8  230 235 
 NOR  HN ES       1630 16.02                             115    0.21 8  230 235 
 NOR  HZ I        1630 20.36        17.8 0.24            118            230 235 
 SML  HZ EP       1629 51.62                             113    0.92 8  245 336 
 SML  HN ES       1630 18.27                             113   -0.38 8  245 336 
 SML  HZ I        1630 19.27        25.0 0.26            116            245 336 
 URE  HZ EP       1629 54.55                             110   -0.33 7  282 293 
 URE  HN ES       1630 25.42                             110   -0.67 7  282 293 
 URE  HZ I        1630 32.33         8.6 0.34            112            282 293 
                                                                                
