 2013  3 4 1528 47.6 L   6.787 -73.169147.7  RSN  8 0.5 2.2LRSN                1
 GAP=180        1.13       4.5     5.8  7.2  0.4222E+01  0.1139E+02  0.3499E+01E
 Epicentro: LOS SANTOS - SANTANDER                                             3
 ACTION:UPD 13-04-09 13:59 OP:ep   STATUS:               ID:20130304152847 L   I
 2013-03-04-1528-49M.COL___187                                                 6
 STAT SP IPHASW D HRMM SECON CODA AMPLIT PERI AZIMU VELO AIN AR TRES W  DIS CAZ7
 BAR2 SZ EP       1529  7.40                             171    0.0010 21.6 184 
 BAR2 SZ ES       1529 22.71                             171   -0.1610 21.6 184 
 BAR2 SZ I        1529 24.02        27.9 0.38            161           21.6 184 
 BRR  HZ IP     C 1529  9.24                             153    0.3910 69.7 301 
 BRR  HZ I        1529  9.53        32.1 0.22            149           69.7 301 
 BRR  HN ES       1529 26.34                             153    0.9010 69.7 301 
 RUS  HZ EP       1529 11.53                             145    0.1110 99.3 175 
 RUS  HN ES       1529 29.71                             145   -0.3210 99.3 175 
 RUS  HE I        1529 31.00        20.8 0.50            131           99.3 175 
 PTB  HZ EP       1529 13.94                             133   -0.50 9  145 259 
 PTB  HN ES       1529 34.69                             133   -0.72 9  145 259 
 PTB  HE I        1529 38.73        16.2 0.26            123            145 259 
 OCA  HN ES       1529 38.15                             130   -0.28 9  161 354 
 ZAR  HZ EP       1529 19.42                             123   -0.54 9  202 293 
 ZAR  HN ES       1529 45.34                             123    0.12 9  202 293 
 NOR  HZ EP       1529 23.40                             119    0.30 8  232 234 
 NOR  HN ES       1529 51.10                             119    0.29 8  232 234 
 NOR  HE I        1529 56.58        23.3 0.20            110            232 234 
 HEL  HZ EP   4   1529 29.26                             115    1.69 0  269 256 
 PRA  HZ EP       1529 41.73                             107    0.87 6  389 209 
 PRA  HN I        1530 29.06         3.8 0.32             99            389 209 
                                                                                
