 2011  1 4 1700 42.9 L   6.706 -73.105146.0  RSN  4 0.5 1.6LRSN                1
 GAP=216        0.82      10.6    12.3 10.9 -0.2383E+02  0.4495E+02  0.1924E+02E
 Epicentro: JORDAN - SANTANDER                                                 3
 ACTION:UP  11-02-08 08:38 OP:pat  STATUS:               ID:20110104170042 L   I
 2011-01-04-1700-00M.COL___137                                                 6
 STAT SP IPHASW D HRMM SECON CODA AMPLIT PERI AZIMU VELO SNR AR TRES W  DIS CAZ7
 BAR2 SZ EP   1   17 1  1.94                             174    -0.5 7   15 214 
 BAR2 SZ ES   2   17 1 16.72                             174    -0.9 5   15 214 
 BAR2 SZ I        17 1 19.64        10.3 0.34                            15 214 
 BTL  SZ EP   1   17 1  3.07                             168     0.4 7   30 323 
 BTL  SZ ES   2   17 1 18.76                             168     0.6 5   30 323 
 RUS  HZ EP   1   17 1  6.06                             147     0.1 7   90 178 
 RUS  HN ES   2   17 1 24.35                             147     0.4 5   90 178 
 RUS  HZ I        17 1 26.24         7.1 0.43                            90 178 
 NOR  SZ EP   1   17 1 18.32                             119    -0.1 6  233 237 
 NOR  SE ES   2   17 1 46.21                             119     0.1 4  233 237 
                                                                                
