 2014  5 4 1146 33.5 L   6.807 -73.175131.7  RSN 13 0.4 2.1LRSN                1
 GAP= 69        0.89       2.8     2.5  6.5 -0.6049E+00  0.5515E+01  0.4780E+00E
 Epicentro: LOS SANTOS - SANTANDER                                             3
 OLDACT:REG 14-05-04 19:51 OP:spq  STATUS:               ID:20140504114000     3
 ACTION:UPD 15-03-16 16:55 OP:nd   STATUS:               ID:20140504114633 L   I
 OLDACT:UP  14-05-04 22:43 OP:spq  STATUS:               ID:20140504114000     3
 2014-05-04-1140-00M.COL___273                                                 6
 STAT SP IPHASW D HRMM SECON CODA AMPLIT PERI AZIMU VELO AIN AR TRES W  DIS CAZ7
 PAM  SZ EPg      1146 54.68                             148    0.3510 78.9  42 
 PAM  SE ESg      1147 10.36                             148   -0.2210 78.9  42 
 PAM  SZ I        1147 12.38        13.8 0.20             47           78.9  42 
 RUS  HZ EP       1146 56.07                             140    0.1110  102 174 
 RUS  HN ES   1   1147 12.73                             140   -0.76 7  102 174 
 RUS  SZ I        1147 16.12        11.5 0.14             47            102 174 
 PTB  HZ EP       1146 58.83                             129   -0.23 9  145 258 
 PTB  HN ES       1147 19.34                             129    0.33 9  145 258 
 PTB  SZ I        1147 22.04        23.7 0.14             47            145 258 
 TAM  HZ EP       1147  0.37                             126   -0.04 9  158 105 
 TAM  HE ES       1147 21.85                             126    0.43 9  158 105 
 TAM  SZ I        1147 43.57        12.5 0.40             37            158 105 
 SPBC HZ EP       1147  1.01                             126    0.20 9  162 218 
 SPBC HN ES   1   1147 21.78                             126   -0.33 7  162 218 
 SPBC SZ I        1147 28.93        20.1 0.18             47            162 218 
 ZAR  HZ EP       1147  4.78                             120    0.07 9  201 292 
 ZAR  HE ES       1147 29.83                             120    0.77 9  201 292 
 ZAR  SZ I        1147 35.95        29.6 0.44             47            201 292 
 NOR  HZ EP       1147  8.34                             116    0.14 8  233 234 
 NOR  HN ES       1147 34.79                             116   -0.49 8  233 234 
 NOR  SZ I        1147 44.51         9.7 0.24             37            233 234 
 SML  HZ EP       1147  8.18                             115   -0.96 8  242 336 
 SML  HE ES       1147 36.71                             115   -0.24 8  242 336 
 SML  SZ I        1147 38.55        19.0 0.24             37            242 336 
 CHI  HZ EP   1   1147 10.37                             114   -0.06 6  249 194 
 CHI  SZ I        1147 47.76         5.1 1.90             37            249 194 
 ROSC BN ES   1   1147 40.28                             114    0.44 6  252 210 
 HEL  HZ EP   1   1147 12.81                             112    0.12 6  269 255 
 HEL  HE ES   1   1147 43.42                             112    0.15 6  269 255 
 HEL  SZ I        1147 50.03         8.1 0.40             37            269 255 
 URE  HZ EP   4   1147 11.95                             111   -1.59 0  281 292 
 URE  HN ES   4   1147 42.79                             111   -1.99 0  281 292 
 URE  SZ I        1147 53.65        14.5 0.16             37            281 292 
 CBOC HZ EP   1   1147 19.69                             107    0.16 5  331 252 
 CBOC HE ES   1   1147 54.96                             107   -0.48 5  331 252 
 CBOC SZ I        1147 57.70         3.0 1.06             36            331 252 
 SJC  HE ES   4   1148  6.33                             103   -4.79 0  407 327 
                                                                                
