 2011  9 4 1130 48.0 L   6.711 -73.200150.2  RSN  5 0.3 1.5LRSN                1
 GAP=170        0.47       7.3     8.3  6.8  0.4492E+02 -0.1368E+02 -0.1105E+02E
 Epicentro: VILLANUEVA - SANTANDER                                             3
 ACTION:UPD 12-07-13 15:55 OP:ep   STATUS:               ID:20110904113048 L   I
 2011-09-04-1125-46S.COL___171                                                 6
 STAT SP IPHASW D HRMM SECON CODA AMPLIT PERI AZIMU VELO AIN AR TRES W  DIS CAZ7
 BAR2 SZ EP   1   1131  8.13                             175    0.10 7 13.3 171 
 BAR2 SZ I        1131  8.69         7.6 0.44                          13.3 171 
 BAR2 SZ ES   2   1131 23.93                             175    0.29 5 13.3 171 
 GIR2 SZ EP   1   1131  8.18                             164   -0.32 7 40.7   1 
 BRR  HZ EP   1   1131  9.81                             153    0.14 7 71.5 308 
 BRR  HN ES   1   1131 26.57                             153    0.01 7 71.5 308 
 BRR  HZ I        1131 28.51        10.2 0.35                          71.5 308 
 RUS  HZ EP   2   1131 11.97                             147    0.38 5 91.4 172 
 RUS  HN ES   2   1131 29.54                             147   -0.42 5 91.4 172 
 RUS  HZ I        1131 31.99         2.3 0.22                          91.4 172 
 ZAR  HN ES   2   1131 45.88                             123   -0.13 4  202 295 
 ZAR  HZ I        1131 51.92         4.7 0.38                           202 295 
                                                                                
