 2010  5 4 1333 34.5 L   6.783 -72.976144.8  RSN  7 0.5 2.3LRSN                1
 GAP=203        0.97       8.0    11.1 11.0 -0.4129E+02  0.4739E+01  0.7621E+01E
 Epicentro: CEPITA - SANTANDER                                                 3
 ACTION:UP  10-08-24 10:02 OP:vdl  STATUS:               ID:20100504133334 L   I
 2010-05-04-1330-14S.COL___105                                                 6
 STAT SP IPHASW D HRMM SECON CODA AMPLIT PERI AZIMU VELO SNR AR TRES W  DIS CAZ7
 BAR2 SZ IP       1333 54.15                             167     0.010   31 227 
 BAR2 SZ ES   2   1334  9.42                             167    -0.1 5   31 227 
 BRR  HZ EP   1   1333 56.55                             147     0.0 7   89 294 
 BRR  HZ I        1333 57.07        39.7 0.14                            89 294 
 BRR  HE ES   2   1334 14.21                             147     0.3 5   89 294 
 GUE  SZ EP   1   1334  0.19                             139     1.2 7  116   3 
 GRA  SZ EP   1   1333 58.91                             137    -0.5 7  123   9 
 GRA  SZ ES   2   1334 18.34                             137    -0.5 5  123   9 
 OCA  SZ EP   1   1334  2.79                             128    -0.4 7  165 347 
 OCA  SZ ES   2   1334 25.38                             128    -0.2 5  165 347 
 OCA  SZ I        1334 29.62        18.1 0.45                           165 347 
 HEL  HZ EP   1   1334 17.03                             113     0.4 5  290 257 
 HEL  HE ES   2   1334 48.98                             113    -0.5 4  290 257 
 HEL  HZ I        1334 52.60         7.0 0.46                           290 257 
 PRA  HZ EP   1   1334 28.37                             106    -0.5 4  400 212 
 PRA  HZ I        1335  8.86        11.2 0.59                           400 212 
                                                                                
