 2015 11 4 1304 53.3 L   5.847 -73.829117.4  RSN  7 0.4 1.6LRSN                1
 GAP= 89        0.89       3.4     3.2  6.8 -0.3217E+01  0.4109E+01 -0.4475E+01E
 Epicentro: JESUS MARIA - SANTANDER                                            3
 ACTION:UPD 15-12-28 16:08 OP:cam  STATUS:               ID:20151104130453 L   I
 OLDACT:UP  15-11-05 00:51 OP:dnl  STATUS:               ID:20151104125748     3
 OLDACT:REG 15-11-04 21:12 OP:ar   STATUS:               ID:20151104125748     3
 2015-11-04-1257-48M.COL___307                                                 6
 STAT SP IPHASW D HRMM SECON CODA AMPLIT PERI AZIMU VELO AIN AR TRES W  DIS CAZ7
 SPBC HZ EP       13 5  9.63                             163    0.0110 34.5 231 
 SPBC HZ I        13 5 20.27         5.0 0.11            164           34.5 231 
 SPBC HN ES       13 5 22.55                             163    0.1710 34.5 231 
 RUS  HZ EP       13 5 12.53                             143   -0.4110 82.8  87 
 RUS  HN ES   2   13 5 28.11                             143   -0.18 5 82.8  87 
 RUS  HZ I        13 5 33.78         2.5 0.38            144           82.8  87 
 BAR2 EZ EP       13 5 14.87                             134    0.1410  109  41 
 BAR2 EZ ES       13 5 31.81                             134    0.3410  109  41 
 BAR2 EZ I        13 5 32.75        23.1 0.46            136            109  41 
 NOR  HZ EP       13 5 15.48                             131    0.0810  119 255 
 NOR  HE ES       13 5 31.84                             131   -0.8210  119 255 
 NOR  HZ I        13 5 35.48        13.3 0.50            133            119 255 
 CHI  HZ EP   2   13 5 17.42                             128    0.06 5  135 175 
 CHI  HE ES       13 5 36.12                             128   -0.0410  135 175 
 CHI  HZ I        13 5 40.70         4.2 0.44            129            135 175 
 GUY2CHZ EP       13 5 22.62                             118    0.21 9  184 248 
 GUY2CHE ES       13 5 45.84                             118    0.70 9  184 248 
 GUY2CHZ I        13 5 49.88         4.8 0.26                           184 248 
 ZAR  HZ EP   2   13 5 24.60                             114   -0.59 4  215 328 
 ZAR  HE ES       13 5 49.99                             114   -0.11 8  215 328 
 ZAR  HZ I        13 5 56.01         4.5 0.42            116            215 328 
                                                                                
