 2013  6 4 1756 14.6 L   6.786 -73.128136.6  RSN  4 0.1 1.6LRSN                1
 GAP=139        0.41       2.1     3.1  3.3 -0.1180E+00 -0.6998E+00  0.2966E+00E
 Epicentro: LOS SANTOS - SANTANDER                                             3
 ACTION:UPD 14-01-08 09:52 OP:ep   STATUS:               ID:20130604175614 L   I
 2013-06-04-1750-00M.COL___257                                                 6
 STAT SP IPHASW D HRMM SECON CODA AMPLIT PERI AZIMU VELO AIN AR TRES W  DIS CAZ7
 BAR2 SZ EP       1756 32.97                             170   -0.1910 22.3 196 
 BAR2 SZ ES       1756 47.62                             170    0.0210 22.3 196 
 BAR2 SZ I        1756 49.15         6.8 0.46            171           22.3 196 
 BRR  HZ IP     D 1756 35.07                             150    0.1110 73.7 299 
 BRR  HN ES       1756 50.78                             150   -0.0310 73.7 299 
 BRR  HZ I        1756 56.86        11.0 0.40            149           73.7 299 
 PAM  SZ IP     C 1756 36.08                             149    0.1810 77.3  38 
 PAM  SN ES       1756 52.39                             149   -0.0810 77.3  38 
 PAM  SZ I        1756 55.19        12.3 0.62            152           77.3  38 
 RUS  HZ EP       1756 37.25                             142   -0.1410 98.9 177 
 RUS  HN ES       1756 55.25                             142    0.1210 98.9 177 
 RUS  HZ I        1756 56.72         4.0 0.30            147           98.9 177 
                                                                                
