 2016  5 4 1343 17.3 L   6.750 -73.167141.9  RSN  7 0.4 1.7LRSN                1
 GAP=136        0.90       3.5     3.9  6.1  0.1301E+01  0.5624E+01  0.2501E+01E
 Epicentro: LOS SANTOS - SANTANDER                                             3
 ACTION:UPD 16-08-18 17:41 OP:cam  STATUS:               ID:20160504134317 L   I
 OLDACT:REG 16-05-04 20:49 OP:dnl  STATUS:               ID:20160504133749     3
 2016-05-04-1337-49M.COL___301                                                 6
 STAT SP IPHASW D HRMM SECON CODA AMPLIT PERI AZIMU VELO AIN AR TRES W  DIS CAZ7
 BAR2 EZ EP       1343 36.41                             173    0.0910 17.5 186 
 BAR2 EZ ES       1343 51.08                             173   -0.1110 17.5 186 
 BAR2 EZ I        1343 52.40        16.3 0.30            170           17.5 186 
 BRR  HZ EP       1343 38.20                             152    0.1610 72.0 303 
 BRR  HN ES       1343 54.99                             152    0.7410 72.0 303 
 BRR  HZ I        1343 57.20        11.2 0.20            149           72.0 303 
 PAM  EZ EP       1343 39.31                             148   -0.1210 83.1  38 
 PAM  EN ES       1343 56.24                             148   -0.4810 83.1  38 
 PAM  EZ I        1343 58.42        12.0 0.44            152           83.1  38 
 RUS  HZ EP       1343 40.85                             145    0.6010 95.3 174 
 RUS  HE ISg  2   1343 58.15                             145   -0.03 5 95.3 174 
 RUS  HE ES       1343 58.15                             145   -0.0310 95.3 174 
 RUS  HZ I        1344  0.25         3.7 0.28            145           95.3 174 
 PTB  HZ EP       1343 43.20                             132   -0.41 9  144 261 
 PTB  HN ES       1344  3.94                             132   -0.23 9  144 261 
 PTB  HZ I        1344  9.78         6.6 0.20            130            144 261 
 ZAR  HZ EP   2   1343 49.32                             122   -0.14 4  204 294 
 ZAR  HN ES       1344 14.39                             122   -0.18 9  204 294 
 ZAR  HZ I        1344 23.09         7.1 0.20            121            204 294 
 CHI  HZ EP   2   1343 54.90                             117    0.80 4  243 195 
 CHI  HN ES       1344 22.45                             117   -0.38 8  243 195 
 CHI  HZ I        1344 27.95         2.3 0.40            118            243 195 
                                                                                
