 2016  1 4 1007  6.9 L   6.732 -73.087138.0  RSN  4 0.3 1.4LRSN                1
 GAP=165        0.66       4.9     5.3  5.8 -0.7392E+01 -0.2401E+01  0.6495E+01E
 Epicentro: JORDAN - SANTANDER                                                 3
 ACTION:UPD 16-03-09 23:22 OP:cam  STATUS:               ID:20160104100706 L   I
 OLDACT:REG 16-01-04 20:46 OP:ar   STATUS:               ID:20160104095739     3
 2016-01-04-0957-39M.COL___323                                                 6
 STAT SP IPHASW D HRMM SECON CODA AMPLIT PERI AZIMU VELO AIN AR TRES W  DIS CAZ7
 BAR2 EZ EP       10 7 25.62                             172    0.0710 18.7 214 
 BAR2 EZ ES       10 7 40.13                             172    0.0610 18.7 214 
 BAR2 EZ I        10 7 42.55         2.6 0.14            169           18.7 214 
 PAM  EZ EP       10 7 28.42                             149   -0.0610 79.6  32 
 PAM  EN ES       10 7 45.33                             149    0.0510 79.6  32 
 PAM  EZ I        10 7 47.41         4.9 0.50            154           79.6  32 
 BRR  HZ EP       10 7 27.43                             148   -0.4110 80.6 301 
 BRR  HN ES       10 7 44.36                             148    0.2310 80.6 301 
 BRR  HZ I        10 7 47.21        11.7 0.34            151           80.6 301 
 CHI  HZ EP   2   10 7 44.61                             116    0.98 4  243 197 
 CHI  HN ES   2   10 8 11.65                             116   -0.59 4  243 197 
 CHI  HZ I        10 8 16.72         1.2 0.36            117            243 197 
                                                                                
