 2013  6 4 1547 24.2 L   6.809 -73.203141.2  RSN  7 0.4 2.0LRSN                1
 GAP=196        0.90       3.7     5.9  6.3  0.4708E+01  0.8742E+01 -0.3263E+01E
 Epicentro: ZAPATOCA - SANTANDER                                               3
 ACTION:UPD 14-01-08 09:52 OP:ep   STATUS:               ID:20130604154724 L   I
 2013-06-04-1540-00M.COL___257                                                 6
 STAT SP IPHASW D HRMM SECON CODA AMPLIT PERI AZIMU VELO AIN AR TRES W  DIS CAZ7
 BAR2 SZ EP       1547 43.34                             170    0.0510 24.1 174 
 BAR2 SZ ES       1547 58.29                             170    0.1010 24.1 174 
 BAR2 SZ I        1547 59.69        31.5 0.20            169           24.1 174 
 BRR  HZ IP     C 1547 45.23                             154    0.7310 65.1 300 
 BRR  HN ES   2   1548  0.84                             154    0.49 5 65.1 300 
 BRR  HZ I        1548  3.70        16.0 0.32            152           65.1 300 
 RUS  HZ EP       1547 47.16                             142   -0.4610  102 173 
 RUS  HN ES       1548  5.71                             142   -0.1810  102 173 
 RUS  HZ I        1548  7.06         6.9 0.34            144            102 173 
 PTB  HZ EP       1547 50.18                             132   -0.05 9  142 258 
 PTB  HN ES       1548 10.21                             132   -0.34 9  142 258 
 PTB  HZ I        1548 13.07        11.5 0.42            131            142 258 
 SML  HZ EP       1548  0.43                             117    0.26 8  240 337 
 SML  HN ES       1548 27.70                             117   -0.54 8  240 337 
 SML  HZ I        1548 31.15         9.7 0.10            118            240 337 
 GUY2CHZ EP   4   1548  9.88                             112    2.81 0  297 234 
 GUY2CHN ES   4   1548 44.46                             112    3.94 0  297 234 
 GUY2CHZ I        1548 49.79         7.8 0.32                           297 234 
 PRA  HZ EP       1548 17.15                             106   -0.14 6  390 209 
 PRA  HN ES       1548 59.32                             106    0.60 6  390 209 
 PRA  HZ I        1549  5.67         5.3 0.54            106            390 209 
                                                                                
