 2017  2 4 1212 31.8 L   6.767 -73.136148.0  RSN  8 0.3 2.1LRSN                1
 GAP=139        0.89       3.5     4.0  5.5  0.1632E+01  0.5338E+01  0.3269E+01E
 Epicentro: LOS SANTOS - SANTANDER                                             3
 ACTION:UPD 17-05-24 15:32 OP:jn   STATUS:               ID:20170204121231 L   I
 OLDACT:REG 17-02-04 21:05 OP:ar   STATUS:               ID:20170204120747     3
 2017-02-04-1208-00M.COL___340                                                 6
 STAT SP IPHASW D HRMM SECON CODA AMPLIT PERI AZIMU VELO AIN AR TRES W  DIS CAZ7
 BAR2 EZ IP     C 1212 51.35                             172   -0.2410 20.0 195 
 BAR2 EZ ES       1213  7.17                             172    0.1110 20.0 195 
 BAR2 EZ I        1213  8.03        42.1 0.36            170           20.0 195 
 BRR  HZ IP     C 1212 53.25                             152   -0.0410 73.9 301 
 BRR  HN ES       1213 10.82                             152    0.7210 73.9 301 
 BRR  HZ I        1213 14.69        21.4 0.14            149           73.9 301 
 PAM  EZ EP       1212 54.17                             151   -0.1610 79.5  37 
 PAM  EN ES       1213 11.80                             151   -0.1510 79.5  37 
 PAM  EZ I        1213 13.86        14.7 0.60            154           79.5  37 
 RUS  HZ EP       1212 55.74                             145    0.2710 96.9 177 
 RUS  HN ES       1213 13.71                             145   -0.2510 96.9 177 
 RUS  HZ I        1213 15.09        16.9 0.30            147           96.9 177 
 PTB  HZ EP       1212 58.46                             132   -0.48 9  148 260 
 PTB  HN ES       1213 19.62                             132   -0.52 9  148 260 
 PTB  HZ I        1213 24.57        17.9 0.20            131            148 260 
 ZAR  HZ EP       1213  5.04                             123    0.45 8  206 293 
 ZAR  HN ES       1213 30.07                             123   -0.12 8  206 293 
 ZAR  HZ I        1213 36.36        32.0 0.30            122            206 293 
 CHI  HZ EP       1213  9.53                             118    0.30 8  245 196 
 CHI  HN ES       1213 38.76                             118    0.30 8  245 196 
 CHI  HZ I        1213 42.77         4.7 0.38            119            245 196 
 URE  HZ EP   4   1213 16.10                             114    2.91 0  286 293 
 URE  HN ES   4   1213 42.43                             114   -3.08 0  286 293 
 URE  HZ I        1213 51.24         9.2 0.16            114            286 293 
                                                                                
