 2016 10 4 1627 20.4 L   6.823 -73.164133.9  RSN  5 0.3 1.4LRSN                1
 GAP=133        0.92       4.7     4.2  7.8 -0.6626E+00  0.1120E+02 -0.2801E+01E
 Epicentro: LOS SANTOS - SANTANDER                                             3
 ACTION:UPD 16-11-09 19:16 OP:rebc STATUS:               ID:20161004162720 L   I
 OLDACT:REG 16-10-04 20:04 OP:lv   STATUS:               ID:20161004161744     3
 2016-10-04-1618-00M.COL___366                                                 6
 STAT SP IPHASW D HRMM SECON CODA AMPLIT PERI AZIMU VELO AIN AR TRES W  DIS CAZ7
 BAR2 EZ EP       1627 38.22                             169   -0.4410 25.6 185 
 BAR2 EZ ES       1627 53.42                             169    0.5210 25.6 185 
 BAR2 EZ I        1627 56.19         5.8 0.33            172           25.6 185 
 PAM  EZ EP       1627 41.28                             149   -0.0510 76.7  42 
 PAM  EN ES       1627 57.59                             149   -0.0610 76.7  42 
 PAM  EZ I        1628  0.61         5.7 0.35            151           76.7  42 
 RUS  HZ EP       1627 43.72                             140    0.5010  103 175 
 RUS  HE ES       1628  0.51                             140   -0.5010  103 175 
 RUS  HZ I        1628  2.24         3.8 0.36            146            103 175 
 PTB  HZ EP       1627 46.54                             129    0.24 9  146 258 
 PTB  HN ES       1628  6.43                             129   -0.06 9  146 258 
 ZAR  HE ES       1628 16.14                             120   -0.16 9  201 292 
 ZAR  HZ I        1628 22.23         2.5 0.12            122            201 292 
                                                                                
