 2015  2 4 1609 59.2 L   6.823 -73.181144.5  RSN 12 0.5 2.5LRSN                1
 GAP=131        1.29       3.6     5.6  7.3 -0.4387E+01  0.1442E+02 -0.8242E+00E
 Epicentro: ZAPATOCA - SANTANDER                                               3
 ACTION:UPD 15-04-30 21:21 OP:nd   STATUS:               ID:20150204160959 L   I
 OLDACT:UP  15-02-04 23:46 OP:cam  STATUS:               ID:20150204160817     3
 OLDACT:REG 15-02-04 22:44 OP:cam  STATUS:               ID:20150204160817     3
 2015-02-04-1608-17M.COL___274                                                 6
 STAT SP IPHASW D HRMM SECON CODA AMPLIT PERI AZIMU VELO AIN AR TRES W  DIS CAZ7
 BAR2 EZ EP     D 1610 18.78                             170    0.0210 25.5 180 
 BAR2 EZ ES       1610 33.46                             170   -0.5310 25.5 180 
 BAR2 EZ I        1610 34.77        42.0 0.16            164           25.5 180 
 BRR  HZ EP     D 1610 20.60                             154    0.6110 66.5 298 
 BRR  HN ES       1610 37.60                             154    1.4210 66.5 298 
 BRR  HN I        1610 41.44       104.9 0.16            152           66.5 298 
 PAM  SZ EP       1610 21.58                             150    0.2210 78.0  43 
 PAM  SN ES       1610 38.61                             150   -0.0010 78.0  43 
 PAM  SZ I        1610 40.63        65.4 0.50            146           78.0  43 
 RUS  HN ES       1610 41.26                             143   -0.4110  103 174 
 RUS  HN I        1610 42.83        86.2 0.32            135            103 174 
 PTB  HZ EP       1610 25.63                             132   -0.17 9  144 258 
 PTB  HN ES       1610 46.01                             132   -0.51 9  144 258 
 PTB  HZ I        1610 50.60        23.4 0.12            127            144 258 
 OCA  HN ES       1610 48.71                             130   -0.25 9  157 354 
 OCA  HN I        1610 49.38       124.3 0.16            125            157 354 
 SPBC HZ EP       1610 27.56                             129   -0.04 9  163 217 
 SPBC HE ES       1610 49.67                             129   -0.05 9  163 217 
 SPBC HZ I        1610 52.87        40.7 0.20            122            163 217 
 NOR  HZ EP       1610 35.39                             118    0.67 8  233 233 
 NOR  HN ES       1611  1.96                             118   -0.43 8  233 233 
 NOR  HZ I        1611  9.95        14.4 0.18            113            233 233 
 SML  HZ EP       1610 35.12                             118   -0.25 8  240 336 
 SML  HE ES       1611  2.63                             118   -0.92 8  240 336 
 SML  HZ I        1611 10.14        24.5 0.10            113            240 336 
 CHI  HZ EP       1610 37.18                             117    0.15 8  250 194 
 CHI  HZ I        1611  9.62         6.7 0.50            111            250 194 
 GUY2CHZ EP   4   1610 44.51                             112    1.91 0  299 234 
 GUY2CHN ES   4   1611 18.14                             112    1.72 0  299 234 
 TOL  SZ EP   4   1610 48.78                             109    1.44 0  343 224 
 TOL  SN ES       1611 25.14                             109    0.28 7  343 224 
 TOL  SZ I        1611 30.46         6.8 0.74            104            343 224 
 MON  HZ EP   4   1610 46.26                             109   -1.40 0  349 308 
 MON  HN ES       1611 25.27                             109   -0.15 6  349 308 
 MON  HN I        1611 25.94        10.5 0.18            104            349 308 
                                                                                
