 2011  6 4 1021 39.4 L   6.799 -73.143145.0  RSN  8 0.5 1.6LRSN                1
 GAP=137        1.18       7.2     9.5 11.3 -0.2537E+02 -0.3300E+00  0.1319E+02E
 Epicentro: LOS SANTOS - SANTANDER                                             3
 ACTION:UP  11-07-14 19:03 OP:ep   STATUS:               ID:20110604102139 L   I
 2011-06-04-1019-58S.COL___132                                                 6
 STAT SP IPHASW D HRMM SECON CODA AMPLIT PERI AZIMU VELO SNR AR TRES W  DIS CAZ7
 BTL  SZ EP   1   1021 59.88                             172     1.0 7   19 314 
 BAR2 SZ EP   1   1021 58.35                             170    -0.6 7   23 191 
 BAR2 SZ I        1022 15.13        10.5 0.30                            23 191 
 GIR2 SZ EP   1   1021 59.58                             167     0.6 7   32 350 
 GIR2 SZ ES   1   1022 15.03                             167     0.7 7   32 350 
 BRR  HZ EP   1   1022  0.65                             152     0.1 7   72 299 
 BRR  HZ I        1022  2.17         8.5 0.10                            72 299 
 BRR  HN ES   1   1022 16.59                             152    -0.4 7   72 299 
 PAM  SZ EP   1   1022  1.46                             151    -0.1 7   77  39 
 PAM  SZ I        1022  1.83         5.8 0.09                            77  39 
 PAM  SN ES   1   1022 18.06                             151    -0.8 7   77  39 
 RUS  HZ EP   1   1022  2.91                             144    -0.2 7  100 176 
 RUS  HN ES   1   1022 21.65                             144     0.1 7  100 176 
 RUS  HZ I        1022 23.10         5.4 0.31                           100 176 
 GRA  SZ EP   1   1022  4.50                             137    -0.1 7  126  17 
 GRA  SZ ES   2   1022 23.95                             137    -0.3 5  126  17 
 GRA  SZ I        1022 25.20         3.8 0.45                           126  17 
 NOR  SN ES   1   1022 42.48                             118    -0.5 6  235 235 
                                                                                
