 2012  9 4 1231 51.2 L   6.706 -73.117148.0  RSN  5 0.3 1.7LRSN                1
 GAP=189        0.46       5.6     8.4  8.3  0.2391E+02 -0.1480E+02 -0.2437E+02E
 Epicentro: JORDAN - SANTANDER                                                 3
 ACTION:UPD 12-10-22 14:17 OP:ep   STATUS:               ID:20120904123151 L   I
 2012-09-04-1230-00M.COL___218                                                 6
 STAT SP IPHASW D HRMM SECON CODA AMPLIT PERI AZIMU VELO AIN AR TRES W  DIS CAZ7
 BAR2 SZ EP       1232 11.26                             174    0.3010 14.5 210 
 BAR2 SZ ES   3   1232 26.63                             174    0.26 2 14.5 210 
 BAR2 SZ I        1232 28.92        13.8 0.20                          14.5 210 
 GIR2 SZ EP       1232 11.19                             163   -0.2810 42.1 348 
 GIR2 SZ ES   3   1232 26.95                             163   -0.33 2 42.1 348 
 BRR  HZ EP       1232 13.16                             150    0.0910 79.3 304 
 BRR  HZ I        1232 13.32        20.1 0.18                          79.3 304 
 BRR  HN ES   2   1232 30.19                             150    0.07 5 79.3 304 
 RUS  HZ EP   3   1232 14.04                             147   -0.41 2 90.0 178 
 RUS  HN ES   1   1232 32.47                             147   -0.11 7 90.0 178 
 RUS  HZ I        1232 34.94         4.1 0.24                          90.0 178 
 PTB  HZ EP   3   1232 18.38                             132   -0.11 2  149 263 
 PTB  HN ES   3   1232 39.16                             132   -0.61 2  149 263 
                                                                                
