 2016  4 4 1949 11.2 L   6.799 -73.134145.4  RSN  9 0.3 2.1LRSN                1
 GAP=138        0.70       3.3     2.9  4.8 -0.1527E+01  0.6402E+01 -0.3688E+00E
 Epicentro: LOS SANTOS - SANTANDER                                             3
 ACTION:UPD 16-05-05 14:18 OP:rebc STATUS:               ID:20160404194911 L   I
 OLDACT:UP  16-04-05 00:00 OP:drio STATUS:               ID:20160404194745     3
 OLDACT:UP  16-04-04 23:59 OP:drio STATUS:               ID:20160404194745     3
 OLDACT:REG 16-04-04 20:41 OP:drio STATUS:               ID:20160404194745     3
 2016-04-04-1947-45M.COL___292                                                 6
 STAT SP IPHASW D HRMM SECON CODA AMPLIT PERI AZIMU VELO AIN AR TRES W  DIS CAZ7
 BAR2 EZ EP       1949 30.75                             170   -0.0110 23.5 193 
 BAR2 EZ ES       1949 45.97                             170   -0.0710 23.5 193 
 BAR2 EZ I        1949 59.09        11.2 0.44            170           23.5 193 
 PAM  EZ EP       1949 33.39                             151    0.0810 76.6  39 
 PAM  EE ES       1949 50.74                             151    0.1710 76.6  39 
 PAM  EZ I        1949 52.68        20.3 0.56            159           76.6  39 
 RUS  HZ EP       1949 34.63                             144   -0.2510  100 177 
 RUS  HE ES       1949 53.53                             144    0.1710  100 177 
 RUS  HZ I        1949 55.01         8.6 0.32            150            100 177 
 PTB  HZ EP       1949 37.68                             132   -0.55 9  149 259 
 PTB  HE ES       1949 58.99                             132   -0.34 9  149 259 
 PTB  HZ I        1950  4.66        13.8 0.28            136            149 259 
 ZAR  HZ EP       1949 43.58                             122   -0.14 8  205 292 
 ZAR  HE ES       1950  9.27                             122    0.16 8  205 292 
 ZAR  HZ I        1950 15.12        18.1 0.34            127            205 292 
 NOR  HZ EP       1949 47.04                             118    0.05 8  236 235 
 NOR  HE ES       1950 14.94                             118    0.02 8  236 235 
 NOR  HZ I        1950 20.03        14.1 0.20            124            236 235 
 HEL  HZ EP   4   1949 52.73                             115    1.23 0  273 256 
 HEL  HN ES       1950 23.55                             115    0.59 8  273 256 
 HEL  HZ I        1950 29.42        10.2 0.32            120            273 256 
 GUY2CHZ EP       1949 55.45                             112    0.57 7  302 235 
 GUY2CHE ES   4   1950 31.34                             112    2.37 0  302 235 
 GUY2CHZ I        1950 38.79         7.6 0.30                           302 235 
 MON  HZ EP   4   1949 58.09                             108   -2.20 0  355 308 
 MON  HE ES   4   1950 35.85                             108   -2.74 0  355 308 
 MON  HZ I        1950 39.00         3.5 0.66            113            355 308 
                                                                                
