 2012  4 4 1012 33.5 L   6.743 -73.140153.8  RSN  6 0.4 1.4LRSN                1
 GAP=140        0.89      10.4     6.7 13.7  0.1431E+02  0.6579E+01  0.7828E+02E
 Epicentro: JORDAN - SANTANDER                                                 3
 ACTION:UPD 12-07-05 11:50 OP:tino STATUS:               ID:20120404101233 L   I
 2012-04-04-1010-00M.COL___196                                                 6
 STAT SP IPHASW D HRMM SECON CODA AMPLIT PERI AZIMU VELO AIN AR TRES W  DIS CAZ7
 BAR2 SZ EP       1012 54.15                             174     0.210   17 196 
 BAR2 SZ I        1013 11.57         5.9 0.52                            17 196 
 BRR  HZ EP       1012 56.10                             152     0.410   75 302 
 BRR  HZ I        1012 56.49         7.5 0.30                            75 302 
 BRR  HN ES   1   1013 13.35                             152     0.3 7   75 302 
 PAM  SN ES   2   1013 14.07                             149    -1.0 5   82  36 
 RUS  HZ EP       1012 57.48                             147    -0.110   94 176 
 PTB  HZ EP       1013  1.14                             133     0.1 9  147 261 
 PTB  HN ES   1   1013 22.04                             133    -0.6 7  147 261 
 PTB  HZ I        1013 27.91         1.9 0.28                           147 261 
 ZAR  HZ EP   3   1013  5.94                             123    -0.8 2  207 294 
 ZAR  HN ES   2   1013 32.50                             123    -0.2 4  207 294 
 ZAR  HZ I        1013 38.50         2.6 0.36                           207 294 
                                                                                
