 2015  9 4 1258 17.9 L   6.803 -73.139140.6  RSN 22 0.5 2.4LRSN 3.1WRSN        1
 SPEC AVERAGE  MO 13.7 ST0.274 OM  1.9 f0 1.88 R1.7363 AL 0.00 WI 30.0 MW  3.1 3
 SPEC SD       MO  0.3 ST0.332 OM  0.5 f0 1.16 R1.3025 AL      WI      MW  0.2 3
 GAP= 71        1.05       2.5     2.8  4.7 -0.7612E+00  0.3795E+01  0.1360E+01E
 Epicentro: LOS SANTOS - SANTANDER                                             3
 SPEC BAR2EH Z MO 13.5 ST0.704 OM  1.6 f0 3.39 R0.5676 AL-0.00 WI 30.0 MW  2.9 3
 SPEC BAR2EH Z T125850 K 0.000 GD  142 VS 5.20 DE 3.50 Q0750.0 QA 1.50 Q1 0.00 3
 SPEC PAM EH Z MO 13.4 ST0.143 OM  1.5 f0 2.07 R0.9295 AL-0.00 WI 30.0 MW  2.9 3
 SPEC PAM EH Z T125855 K 0.000 GD  160 VS 5.20 DE 3.50 Q0750.0 QA 1.50 Q1 0.00 3
 SPEC ZAR HH Z MO 13.5 ST0.874 OM  1.4 f0 3.53 R0.5450 AL-0.00 WI 30.0 MW  2.9 3
 SPEC ZAR HH Z T125914 K 0.000 GD  248 VS 5.20 DE 3.50 Q0750.0 QA 1.50 Q1 0.00 3
 SPEC HEL HH Z MO 14.4 ST0.023 OM  2.2 f00.533 R3.6098 AL-0.00 WI 30.0 MW  3.5 3
 SPEC HEL HH Z T125927 K 0.000 GD  307 VS 5.20 DE 3.50 Q0750.0 QA 1.50 Q1 0.00 3
 SPEC SOCVBH Z MO 13.7 ST0.004 OM  1.5 f00.505 R3.8099 AL-0.00 WI 30.0 MW  3.1 3
 SPEC SOCVBH Z T125928 K 0.000 GD  332 VS 5.20 DE 3.50 Q0750.0 QA 1.50 Q1 0.00 3
 SPECGUY2CHH Z MO 13.7 ST0.045 OM  1.5 f0 1.10 R1.7491 AL-0.00 WI 30.0 MW  3.1 3
 SPECGUY2CHH Z T125933 K 0.000 GD  333 VS 5.20 DE 3.50 Q0750.0 QA 1.50 Q1 0.00 3
 SPEC TOL SH Z MO 13.4 ST0.126 OM  1.1 f0 2.04 R0.9431 AL-0.00 WI 30.0 MW  2.9 3
 SPEC TOL SH Z T125943 K 0.000 GD  371 VS 5.20 DE 3.50 Q0750.0 QA 1.50 Q1 0.00 3
 OLDACT:REG 15-09-04 20:43 OP:stll STATUS:               ID:20150904124750     3
 ACTION:UPD 15-10-28 16:24 OP:cam  STATUS:               ID:20150904125817 L   I
 OLDACT:UP  15-09-09 20:52 OP:cam  STATUS:               ID:20150904125817 L   3
 OLDACT:UP  15-09-08 11:01 OP:AK   STATUS:               ID:20150904125817 L   3
 OLDACT:UP  15-09-04 23:57 OP:stll STATUS:               ID:20150904124750     3
 2015-09-04-1255-58M.COL___355                                                 6
 STAT SP IPHASW D HRMM SECON CODA AMPLIT PERI AZIMU VELO AIN AR TRES W  DIS CAZ7
 BAR2 EZ IP     C 1258 37.18                             170    0.2610 23.8 192 
 BAR2 EZ ES       1258 51.76                             170    0.0010 23.8 192 
 BAR2 EZ I        1258 53.07        57.4 0.14            167           23.8 192 
 BRR  HZ EP     C 1258 39.05                             151    0.5310 71.7 298 
 BRR  HN ES       1258 55.23                             151    0.6310 71.7 298 
 BRR  HZ I        1258 59.11        31.1 0.16            145           71.7 298 
 PAM  EZ EP       1258 39.77                             150    0.2410 76.7  39 
 PAM  EZ I        1258 40.16        45.6 0.26            147           76.7  39 
 PAM  EN ES       1258 56.77                             150    0.3710 76.7  39 
 RUS  HZ EP     C 1258 41.11                             143   -0.0610  101 176 
 RUS  HN ES       1258 59.45                             143    0.1310  101 176 
 RUS  HZ I        1259  0.54        31.2 0.34            138            101 176 
 PTB  HZ EP       1258 43.79                             131   -0.73 9  149 259 
 PTB  HE ES       1259  4.94                             131   -0.34 9  149 259 
 PTB  HZ I        1259 10.14        28.1 0.44            124            149 259 
 TAM  HZ IP     D 1258 45.44                             129    0.32 9  155 105 
 TAM  HZ I        1258 45.55        48.2 0.20            126            155 105 
 TAM  HN ES       1259  5.40                             129   -0.95 9  155 105 
 OCA  HZ EP       1258 45.66                             128   -0.13 9  160 353 
 OCA  HN ES       1259  7.21                             128   -0.34 9  160 353 
 OCA  HZ I        1259 11.64        52.1 0.22            123            160 353 
 SPBC HZ EP       1258 45.99                             128   -0.08 9  164 219 
 SPBC HN ES       1259  7.57                             128   -0.48 9  164 219 
 SPBC HZ I        1259 13.19        39.0 0.40            122            164 219 
 ZAR  HZ EP       1258 50.44                             121    0.37 9  205 292 
 ZAR  HE ES       1259 15.50                             121    0.34 9  205 292 
 ZAR  HZ I        1259 21.64        33.2 0.36            115            205 292 
 NOR  HZ EP       1258 53.27                             117   -0.15 8  235 234 
 NOR  HE ES       1259 20.84                             117   -0.28 8  235 234 
 NOR  HZ I        1259 27.92        21.2 0.18            112            235 234 
 SML  HZ EP       1258 53.74                             116   -0.50 8  244 335 
 SML  HN ES       1259 21.76                             116   -0.83 8  244 335 
 SML  HZ I        1259 27.41        27.0 0.28            111            244 335 
 CHI  HN ES       1259 24.68                             116    0.08 8  249 195 
 CHI  HZ I        1259 27.68         9.2 0.38            111            249 195 
 ROSC BZ EP       1258 56.65                             115    0.84 8  253 211 
 ROSC BZ I        1259 32.95        16.2 0.45            111            253 211 
 HEL  HZ EP   4   1258 59.32                             114    1.38 0  273 256 
 HEL  HN ES       1259 28.57                             114   -0.60 8  273 256 
 HEL  HZ I        1259 35.83        15.3 0.26            109            273 256 
 URE  HZ EP   4   1258 58.22                             112   -0.56 0  284 292 
 URE  HN ES   4   1259 28.74                             112   -1.93 0  284 292 
 URE  HZ I        1259 30.78        15.3 0.14            108            284 292 
 SOCV BZ EP   4   1258 58.99                             111   -1.64 0  301  57 
 SOCV BN ES   4   1259 29.59                             111   -4.36 0  301  57 
 GUY2CHZ EP       1259  1.82                             111    0.46 7  302 235 
 GUY2CHN ES       1259 35.46                             111    0.20 7  302 235 
 GUY2CHZ I        1259 42.01        11.6 0.30                           302 235 
 CBOC HZ EP       1259  4.65                             109   -0.04 7  334 252 
 CBOC HN ES       1259 41.16                             109   -0.03 7  334 252 
 CBOC HZ I        1259 48.49         4.1 0.34            104            334 252 
 DBB  SZ EP       1259  5.69                             108    0.44 7  340 274 
 TOL  SZ EP       1259  6.93                             108    0.90 7  344 225 
 TOL  SE ES   4   1259 45.47                             108    1.89 0  344 225 
 TOL  SZ I        1259 53.73         8.8 0.40            104            344 225 
 PRA  HZ EP       1259 10.89                             106   -0.43 6  393 210 
 PRA  HZ I        1259 12.69         7.3 0.18            102            393 210 
 PRA  HN ES       1259 52.33                             106   -0.66 6  393 210 
 ORTC HZ EP       1259 11.94                             105    0.22 6  396 216 
 ORTC HZ I        1259 15.00         6.9 0.26            102            396 216 
 SJC  HZ EP   4   1259 11.77                             105   -1.54 0  409 327 
 SJC  HZ I        1259 57.49         4.1 0.62            101            409 327 
 CRJC HZ EP   4   1259 17.71                             103   -2.50 0  467   3 
                                                                                
