 2013  7 4 1453 54.4 L   6.791 -73.174145.9  RSN  9 0.3 2.2LRSN                1
 GAP=133        0.81       3.4     3.4  5.4  0.5704E-01  0.3779E+01 -0.1574E+00E
 Epicentro: LOS SANTOS - SANTANDER                                             3
 ACTION:UPD 13-08-12 10:35 OP:ep   STATUS:               ID:20130704145354 L   I
 OLDACT:REG 13-07-04 19:25 OP:jn   STATUS:               ID:20130704144959     3
 2013-07-04-1449-59M.COL___267                                                 6
 STAT SP IPHASW D HRMM SECON CODA AMPLIT PERI AZIMU VELO AIN AR TRES W  DIS CAZ7
 BAR2 SZ EP     D 1454 14.12                             171    0.1010 22.0 182 
 BAR2 SZ ES       1454 29.14                             171   -0.1810 22.0 182 
 BAR2 SZ I        1454 31.87        45.2 0.26            171           22.0 182 
 GIR2 SZ EP       1454 14.17                             167    0.0710 31.9 356 
 GIR2 SZ ES   1   1454 28.93                             167   -0.54 7 31.9 356 
 BRR  HZ EP     C 1454 15.78                             153    0.3410 68.9 301 
 BRR  HN ES       1454 32.64                             153    0.7910 68.9 301 
 BRR  HZ I        1454 36.87        35.3 0.30            152           68.9 301 
 PAM  SZ EP       1454 16.93                             150    0.1310 80.2  41 
 PAM  SN ES   1   1454 33.99                             150   -0.28 7 80.2  41 
 PAM  SZ I        1454 36.80        19.3 0.60            154           80.2  41 
 RUS  HZ EP       1454 18.04                             144   -0.0710 99.8 174 
 RUS  HN ES       1454 36.60                             144   -0.0010 99.8 174 
 RUS  HZ I        1454 37.97        22.8 0.32            147           99.8 174 
 PTB  HZ EP       1454 20.83                             133   -0.25 9  144 259 
 PTB  HN ES       1454 41.69                             133   -0.20 9  144 259 
 PTB  HZ I        1454 44.43        14.1 0.16            133            144 259 
 ZAR  HE ES       1454 51.26                             123   -0.44 9  202 293 
 ZAR  HZ I        1454 57.31        13.1 0.24            124            202 293 
 NOR  HN ES       1454 57.52                             119    0.11 8  232 234 
 NOR  HZ I        1455  3.74        12.7 0.16            120            232 234 
 SML  HE ES   1   1454 59.32                             117   -0.21 6  243 336 
                                                                                
