 2012 10 4 1150  3.0 L   6.794 -73.123140.6  RSN  6 0.2 2.0LRSN                1
 GAP=140        0.52       3.0     6.1  4.6 -0.4290E+01  0.3983E+01  0.9237E+00E
 Epicentro: LOS SANTOS - SANTANDER                                             3
 ACTION:UPD 12-11-22 17:01 OP:ep   STATUS:               ID:20121004115003 L   I
 2012-10-04-1150-00M.COL___220                                                 6
 STAT SP IPHASW D HRMM SECON CODA AMPLIT PERI AZIMU VELO AIN AR TRES W  DIS CAZ7
 BAR2 SZ EP       1150 22.02                             170   -0.0110 23.2 197 
 BAR2 SZ ES   1   1150 36.62                             170   -0.24 7 23.2 197 
 BAR2 SZ I        1150 38.55        27.8 0.18                          23.2 197 
 GIR2 SZ EP       1150 22.07                             166   -0.0510 32.5 346 
 GIR2 SZ ES   1   1150 36.89                             166   -0.12 7 32.5 346 
 BRR  HZ EP       1150 23.83                             151    0.0610 73.8 298 
 BRR  HN ES   3   1150 40.65                             151    0.70 2 73.8 298 
 BRR  HN E        1150 40.65                                           73.8 298 
 PAM  SZ EP       1150 24.89                             150    0.2610 76.3  38 
 PAM  SZ I        1150 25.11        13.0 0.20                          76.3  38 
 PAM  SE ES   1   1150 41.35                             150   -0.13 7 76.3  38 
 RUS  HZ EP     D 1150 25.92                             143   -0.2910 99.7 177 
 RUS  HN ES   1   1150 44.73                             143    0.44 7 99.7 177 
 CHI  HN ES   2   1151  9.59                             116   -0.04 4  249 196 
                                                                                
