 2010  3 4 1125 22.1 L   6.813 -73.030144.0  RSN  8 0.3 2.1LRSN                1
 GAP=195        0.54       3.1     6.7  4.7  0.3960E+01  0.7131E+00  0.3283E+01E
 Epicentro: CEPITA - SANTANDER                                                 3
 ACTION:UP  10-08-24 09:51 OP:vdl  STATUS:               ID:20100304112522 L   I
 2010-03-04-1123-44S.COL___101                                                 6
 STAT SP IPHASW D HRMM SECON CODA AMPLIT PERI AZIMU VELO SNR AR TRES W  DIS CAZ7
 BAR2 SZ EP       1125 41.80                             168     0.210   30 215 
 BAR2 SZ ES   1   1125 56.52                             168    -0.4 7   30 215 
 BRR  HZ EP       1125 43.56                             148    -0.110   82 293 
 BRR  HN ES   1   1126  0.77                             148     0.2 7   82 293 
 RUS  BZ EP       1125 45.86                             143     0.110  102 183 
 RUS  BN ES   1   1126  4.04                             143    -0.2 7  102 183 
 RUS  BZ I        1126  5.46         8.5 0.33                           102 183 
 OCA  SZ EP   2   1125 50.10                             129    -0.2 5  161 349 
 OCA  SZ ES   3   1126 12.51                             129     0.2 2  161 349 
 OCA  SZ I        1126 17.63        32.1 0.24                           161 349 
 CHI  HZ EP       1126  0.22                             116     0.0 8  254 198 
 CHI  HN ES   1   1126 30.38                             116     0.4 6  254 198 
 CHI  HZ I        1126 32.81         5.5 0.51                           254 198 
 RREF BN ES   3   1126 45.96                             110    -0.3 2  333 231 
 RREF BZ I        1126 54.33         5.7 0.27                           333 231 
 TOL  SZ EP   2   1126 10.56                             108    -0.9 3  354 226 
 PRA  HE ES   1   1126 58.67                             106    -0.2 4  400 211 
 PRA  HZ I        1127  3.26         6.2 0.37                           400 211 
                                                                                
