 2015  1 4 1643 35.3 L   6.815 -73.120146.7  RSN  6 0.2 1.9LRSN                1
 GAP=186        0.61       2.2     3.6  4.9 -0.8757E+00  0.6345E+01 -0.2671E+01E
 Epicentro: LOS SANTOS - SANTANDER                                             3
 ACTION:UPD 15-03-02 15:36 OP:nd   STATUS:               ID:20150104164335 L   I
 OLDACT:REG 15-01-04 20:43 OP:cam  STATUS:               ID:20150104163819     3
 2015-01-04-1638-19M.COL___280                                                 6
 STAT SP IPHASW D HRMM SECON CODA AMPLIT PERI AZIMU VELO AIN AR TRES W  DIS CAZ7
 BAR2 EZ EP     D 1643 55.36                             170    0.2510 25.6 196 
 BAR2 EZ ES       1644 10.23                             170   -0.3110 25.6 196 
 BAR2 EZ I        1644 13.01         8.7 0.24            167           25.6 196 
 RUS  HZ EP       1643 59.30                             143    0.0310  102 178 
 RUS  HN ES       1644 18.01                             143    0.0610  102 178 
 RUS  HZ I        1644 18.93         7.3 0.40            146            102 178 
 OCA  HZ EP       1644  3.82                             130    0.24 9  159 352 
 OCA  HE ES       1644 25.55                             130   -0.07 9  159 352 
 OCA  HZ I        1644 29.56        10.7 0.52            132            159 352 
 SPBC HE ES       1644 26.94                             129    0.25 9  166 219 
 SPBC HE I        1644 30.34        25.4 0.38            129            166 219 
 ZAR  HZ EP       1644  7.59                             122   -0.44 8  206 291 
 ZAR  HN ES       1644 33.80                             122    0.26 8  206 291 
 ZAR  HZ I        1644 39.43        15.5 0.26            122            206 291 
 NOR  HZ EP       1644 11.17                             118   -0.29 8  238 235 
 NOR  HN ES       1644 39.56                             118   -0.08 8  238 235 
 NOR  HZ I        1644 47.65         5.0 0.16            119            238 235 
                                                                                
