 2011  3 4 1549 15.3 L   6.799 -73.152139.6  RSN 17 0.5 2.9LRSN                1
 GAP=103        0.81       2.6     5.0  6.0 -0.1290E+01  0.1524E+02  0.1646E+01E
 Epicentro: LOS SANTOS - SANTANDER                                             3
 ACTION:UP  11-06-16 14:31 OP:jfem STATUS:               ID:20110304154915 L   I
 2011-03-04-1546-06S.COL___136                                                 6
 STAT SP IPHASW D HRMM SECON CODA AMPLIT PERI AZIMU VELO SNR AR TRES W  DIS CAZ7
 BAR2 SZ IP       1549 34.34                             170     0.110   23 189 
 BAR2 SZ ES   1   1549 48.81                             170    -0.1 7   23 189 
 BAR2 SZ I        1549 50.64       273.5 0.15                            23 189 
 RUS  HZ IP     C 1549 38.27                             142    -0.210  101 176 
 RUS  HN ES   1   1549 56.27                             142    -0.2 7  101 176 
 GUE  SZ EP       1549 39.81                             138     0.310  117  12 
 GRA  SZ IP       1549 40.23                             135     0.210  126  18 
 GRA  SZ ES   1   1549 59.74                             135     0.4 7  126  18 
 GRA  SZ I        1550  3.06        73.5 0.25                           126  18 
 OCA  SZ EP   2   1549 42.62                             128    -0.5 5  160 353 
 OCA  SZ ES   1   1550  3.99                             128    -0.9 7  160 353 
 OCA  SZ I        1550  7.96       105.2 0.42                           160 353 
 YOP  SZ EP       1549 44.84                             124    -0.1 9  179 153 
 YOP  SN ES   1   1550  8.09                             124     0.0 7  179 153 
 CHI  HZ IP     C 1549 52.59                                    -0.1 8  248 195 
 CHI  HN ES   3   1550 21.67                             116    -0.1 2  248 195 
 CHI  HZ I        1550 28.91        31.6 0.28                           248 195 
 HEL  HZ EP       1549 55.82                             114     0.7 8  271 256 
 HEL  HN ES   3   1550 26.77                             114     0.6 2  271 256 
 HEL  HZ I        1550 33.44        30.0 0.33                           271 256 
 GUY  SZ EP       1549 59.05                             111     0.5 7  301 235 
 GUY  SN ES   2   1550 32.30                             111     0.0 4  301 235 
 GUY  SZ I        1550 43.05        56.2 0.51                           301 235 
 VIL  SZ EP   3   1549 57.67                             111    -0.8 2  303 191 
 VIL  SN ES   1   1550 32.43                             111     0.4 5  303 191 
 VIL  SZ I        1550 38.07        23.0 0.38                           303 191 
 RREF HZ EP       1550  1.17                             110     0.0 7  321 229 
 RREF HN ES   3   1550 36.60                             110    -0.3 2  321 229 
 RREF HZ I        1550 46.62        39.1 0.37                           321 229 
 DBB  SZ EP       1550  2.08                             108    -0.4 7  339 274 
 TOL  SZ EP   1   1550  3.68                             108     0.4 5  343 225 
 MON  HN ES   3   1550 39.31                             107    -2.7 2  352 308 
 SDV  BZ EP   3   1550  4.38                             107    -0.8 2  361  50 
 PRA  HZ EP       1550  7.89                             105    -0.7 6  392 209 
 PRA  HN ES   2   1550 49.15                             105    -1.0 3  392 209 
 SJA  SZ EP   3   1550  8.21                             105    -1.4 1  400 193 
 SJA  SZ I        1551  2.27        56.6 0.58                           400 193 
                                                                                
