 2014  9 4 1632 15.8 L   6.819 -73.182145.2  RSN 19 0.5 2.4LRSN                1
 GAP=131        1.08       2.8     3.9  5.9 -0.7306E+00  0.7560E+01  0.2524E+01E
 Epicentro: ZAPATOCA - SANTANDER                                               3
 ACTION:UPD 14-10-03 23:02 OP:nd   STATUS:               ID:20140904163215 L   I
 OLDACT:DUP 14-09-04 23:50 OP:fm   STATUS:               ID:20140904162822d    3
 OLDACT:REG 14-09-04 21:05 OP:fm   STATUS:               ID:20140904162820     3
 2014-09-04-1628-20M.COL___278                                                 6
 STAT SP IPHASW D HRMM SECON CODA AMPLIT PERI AZIMU VELO AIN AR TRES W  DIS CAZ7
 BAR2 SZ EP     D 1632 35.44                             170    0.0110 25.1 180 
 BAR2 SZ ES   1   1632 50.66                             170   -0.06 7 25.1 180 
 BAR2 SZ I        1632 52.00        69.5 0.28            168           25.1 180 
 BRR  HZ EP       1632 37.24                             154    0.5710 66.6 299 
 BRR  HN ES       1632 53.33                             154    0.4110 66.6 299 
 BRR  HZ I        1632 58.26        50.9 0.28            152           66.6 299 
 PAM  SZ EP       1632 38.41                             150    0.3610 78.4  43 
 PAM  SE ES       1632 55.35                             150   -0.0310 78.4  43 
 PAM  SZ I        1632 57.29        41.7 0.72            156           78.4  43 
 RUS  HZ EP   1   1632 38.75                             143   -0.95 7  103 174 
 RUS  HN ES       1632 57.80                             143   -0.5310  103 174 
 RUS  HZ I        1632 59.34        34.6 0.40            144            103 174 
 PTB  HZ EP       1632 41.98                             133   -0.45 9  144 258 
 PTB  HN ES       1633  3.14                             133   -0.04 9  144 258 
 PTB  HZ I        1633  5.79        29.0 0.14            132            144 258 
 OCA  HZ EP       1632 43.46                             130   -0.40 9  158 354 
 OCA  HN ES       1633  6.08                             130    0.36 9  158 354 
 OCA  HZ I        1633 10.97        25.9 0.26            132            158 354 
 ZAR  HZ EP   1   1632 48.33                             123    0.56 6  200 292 
 ZAR  HN ES       1633 13.17                             123    0.48 9  200 292 
 ZAR  HZ I        1633 18.36        14.9 0.36            123            200 292 
 NOR  HZ EP   1   1632 51.20                             119   -0.11 6  233 233 
 NOR  HN ES       1633 18.34                             119   -0.64 8  233 233 
 NOR  HZ I        1633 26.37        24.1 0.16            119            233 233 
 SML  HZ EP   4   1632 50.69                             118   -1.34 0  240 336 
 SML  HN ES       1633 19.51                             118   -0.76 8  240 336 
 SML  HZ I        1633 22.67        36.4 0.28            119            240 336 
 CHI  HZ EP       1632 53.68                             117    0.07 8  250 194 
 CHI  HE ES       1633 23.37                             117    0.30 8  250 194 
 CHI  HZ I        1633 29.22        15.5 0.34            118            250 194 
 ROSC BZ EP   1   1632 54.83                             117    0.94 6  253 210 
 ROSC BN ES   4   1633 25.52                             117    1.94 0  253 210 
 ROSC BZ I        1633 31.48        24.8 0.65            117            253 210 
 HEL  HZ EP   1   1632 56.47                             115    0.83 6  269 255 
 HEL  HN ES   1   1633 27.08                             115    0.39 6  269 255 
 HEL  HZ I        1633 34.25        14.2 0.44            115            269 255 
 GUY2CHZ EP   4   1633  0.33                             112    1.15 0  299 234 
 GUY2CHN ES       1633 32.70                             112   -0.30 7  299 234 
 GUY2CHZ I        1633 41.71        14.6 0.26                           299 234 
 CBOC HZ EP   1   1633  2.94                             110    0.58 5  330 252 
 CBOC HN ES   4   1633 33.35                             110   -5.30 0  330 252 
 CBOC HZ I        1633 41.88         4.4 0.24            111            330 252 
 DBB  SZ EP   1   1633  2.29                             110   -0.51 5  335 274 
 DBB  SZ ES   4   1633 37.36                             110   -2.08 0  335 274 
 DBB  SZ I        1633 43.12        31.5 0.42            110            335 274 
 TOL  SZ EP   4   1633  5.23                             109    1.32 0  342 224 
 TOL  SE ES   4   1633 43.51                             109    2.09 0  342 224 
 TOL  SZ I        1633 51.84        30.6 0.40            110            342 224 
 MON  HN ES       1633 40.93                             109   -1.16 6  349 309 
 MON  HZ I        1633 43.31         5.0 0.24            110            349 309 
 PRA  HZ EP       1633  9.40                             106    0.08 6  392 209 
 PRA  HN ES       1633 51.70                             106    0.67 6  392 209 
 PRA  HZ I        1633 57.77        14.3 0.38            107            392 209 
 SJC  HZ EP   4   1633  9.43                             106   -1.48 0  405 327 
 SJC  HN ES   4   1633 49.55                             106   -4.32 0  405 327 
 SJC  HZ I        1633 55.24         3.6 0.62            107            405 327 
                                                                                
