 2013  9 4 1345 15.6 L   6.823 -73.141145.7  RSN 11 0.4 2.3LRSN                1
 GAP=136        0.77       3.6     3.6  5.8  0.6265E-01  0.6301E+01  0.2310E+01E
 Epicentro: LOS SANTOS - SANTANDER                                             3
 ACTION:UPD 13-10-22 09:20 OP:ep   STATUS:               ID:20130904134515 L   I
 OLDACT:REG 13-09-04 14:38 OP:mh   STATUS:               ID:20130904133959     3
 2013-09-04-1339-59M.COL___269                                                 6
 STAT SP IPHASW D HRMM SECON CODA AMPLIT PERI AZIMU VELO AIN AR TRES W  DIS CAZ7
 BAR2 SZ EP   1   1345 35.26                             169    0.03 7 25.9 190 
 BAR2 SZ ES   1   1345 50.31                             169   -0.26 7 25.9 190 
 BAR2 SZ I        1345 52.25        21.3 0.16            167           25.9 190 
 BRR  HZ IP     C 1345 37.03                             153    0.3810 70.4 297 
 BRR  HN ES   2   1345 54.06                             153    0.96 5 70.4 297 
 BRR  HZ I        1345 59.65        23.5 0.22            152           70.4 297 
 PAM  SZ EP   1   1345 37.93                             151    0.30 7 75.1  41 
 PAM  SN ES   1   1345 54.89                             151    0.05 7 75.1  41 
 RUS  HZ EP       1345 39.32                             143   -0.1610  103 176 
 RUS  HN ES   2   1345 57.70                             143   -0.44 5  103 176 
 RUS  HZ I        1346  0.94         9.5 0.32            146            103 176 
 PTB  HZ EP   1   1345 41.90                             132   -0.70 7  149 258 
 PTB  HN ES   1   1346  3.09                             132   -0.61 7  149 258 
 PTB  HZ I        1346  8.77        25.2 0.36            133            149 258 
 SPBC HZ EP   1   1345 44.35                             128    0.09 7  165 219 
 SPBC HN ES   2   1346  6.97                             128    0.32 5  165 219 
 SPBC HN I        1346 13.13        69.0 0.20            131            165 219 
 ZAR  HZ EP   1   1345 48.04                             122    0.10 6  204 291 
 ZAR  HN ES       1346 13.16                             122   -0.04 9  204 291 
 ZAR  HZ I        1346 19.73        28.2 0.44            125            204 291 
 NOR  HZ EP   1   1345 51.20                             118   -0.28 6  237 234 
 NOR  HN ES   2   1346 20.18                             118    0.68 4  237 234 
 NOR  HZ I        1346 23.40        14.5 0.26            121            237 234 
 SML  HZ EP   1   1345 51.35                             118   -0.59 6  242 335 
 SML  HN ES   2   1346 19.60                             118   -0.73 4  242 335 
 CHI  HZ EP   1   1345 53.69                             117    0.16 6  251 195 
 CHI  HN ES   2   1346 23.13                             117   -0.02 4  251 195 
 HEL  HZ EP   1   1345 57.00                             115    1.12 6  273 255 
 HEL  HN ES       1346 27.34                             115    0.00 8  273 255 
 URE  HZ EP   4   1345 58.83                             113    2.27 0  283 291 
 URE  HN ES   4   1346 24.73                             113   -3.82 0  283 291 
 GUY2CHZ EP   4   1346  0.65                             112    1.28 0  303 234 
 GUY2CHN ES   4   1346 37.94                             112    4.40 0  303 234 
 SJC  HZ EP   4   1346  9.58                             106   -1.31 0  407 327 
 SJC  HN ES   4   1346 48.72                             106   -5.33 0  407 327 
                                                                                
