 2013  3 4 1410 33.4 L   6.654 -73.570103.7  RSN  5 0.3 2.2LRSN                1
 GAP=116        0.90       5.1     4.4  7.0  0.1067E+02  0.1055E+02  0.7312E+01E
 Epicentro: EL CARMEN DE CHUCURI - SANTANDER                                   3
 ACTION:UPD 13-04-09 13:59 OP:ep   STATUS:               ID:20130304141033 L   I
 2013-03-04-1408-48M.COL___190                                                 6
 STAT SP IPHASW D HRMM SECON CODA AMPLIT PERI AZIMU VELO AIN AR TRES W  DIS CAZ7
 BAR2 SZ EP       1410 48.55                             156   -0.2310 43.4  99 
 BAR2 SZ ES       1411  0.61                             156   -0.1810 43.4  99 
 BAR2 SZ I        1411  1.66       110.6 0.38            158           43.4  99 
 BRR  HZ EP       1410 48.49                             151   -0.4410 52.5 343 
 BRR  HZ I        1410 48.62        23.8 0.12            151           52.5 343 
 BRR  HN ES       1411  1.40                             151    0.3410 52.5 343 
 BRR  HE I        1411  1.88        78.1 0.22            151           52.5 343 
 PTB  HZ EP       1410 52.24                             133   -0.2410 98.8 263 
 PTB  HN ES       1411  7.22                             133   -0.1510 98.8 263 
 PTB  HE I        1411  8.35        21.8 0.26            133           98.8 263 
 RUS  HZ EP       1410 53.18                             133   -0.0510100.0 147 
 RUS  HN ES       1411  9.12                             133    0.4110100.0 147 
 RUS  HE I        1411 10.23        12.1 0.30            134          100.0 147 
 ZAR  HZ EP       1411  0.32                             116    0.66 9  170 303 
 ZAR  HN ES   4   1411 22.28                             116    2.11 0  170 303 
 ZAR  HE I        1411 24.32        44.4 0.42            117            170 303 
                                                                                
