 2017  3 4 1045  4.4 L   6.802 -73.164139.1  RSN 10 0.4 1.6LRSN                1
 GAP=134        0.85       3.2     3.3  5.0 -0.7753E+00  0.4311E+01  0.2022E+01E
 Epicentro: LOS SANTOS - SANTANDER                                             3
 ACTION:UPD 17-05-25 18:36 OP:jn   STATUS:               ID:20170304104504 L   I
 OLDACT:UP  17-03-04 21:57 OP:dani STATUS:               ID:20170304103743     3
 OLDACT:UP  17-03-04 21:56 OP:dani STATUS:               ID:20170304103743     3
 OLDACT:REG 17-03-04 19:48 OP:dani STATUS:               ID:20170304103743     3
 2017-03-04-1038-00M.COL___397                                                 6
 STAT SP IPHASW D HRMM SECON CODA AMPLIT PERI AZIMU VELO AIN AR TRES W  DIS CAZ7
 BAR2 EZ EP       1045 23.24                             170    0.0210 23.3 185 
 BAR2 EZ ES       1045 37.66                             170   -0.2510 23.3 185 
 BAR2 EZ I        1045 39.13        11.9 0.26            167           23.3 185 
 BRR  HZ EP       1045 25.04                             152    0.3210 69.3 299 
 BRR  HN ES       1045 40.81                             152    0.2410 69.3 299 
 BRR  HZ I        1045 42.58        10.8 0.28            150           69.3 299 
 PAM  EZ EP       1045 26.03                             149    0.0610 78.5  41 
 PAM  EN ES       1045 42.68                             149   -0.1310 78.5  41 
 PAM  EZ I        1045 44.95        11.6 0.48            155           78.5  41 
 RUS  HZ EP       1045 27.40                             142   -0.1210  101 175 
 RUS  HN ES       1045 45.75                             142    0.1810  101 175 
 RUS  HZ I        1045 49.44         2.2 0.36            142            101 175 
 PTB  HZ EP       1045 29.92                             131   -0.73 9  146 259 
 PTB  HN ES       1045 50.90                             131   -0.23 9  146 259 
 PTB  HZ I        1045 56.36         5.5 0.16            130            146 259 
 SPBC HZ EP       1045 32.28                             128   -0.01 9  162 218 
 SPBC HE ES       1045 54.63                             128    0.59 9  162 218 
 SPBC HZ I        1046  1.57         7.5 0.21            127            162 218 
 ZAR  HZ EP   3   1045 37.43                             121    1.22 2  202 292 
 ZAR  HE ES       1046  1.34                             121    0.31 9  202 292 
 ZAR  HZ I        1046  8.66         4.8 0.10            121            202 292 
 NOR  HE ES       1046  6.34                             117   -0.69 8  233 234 
 CHI  HZ EP       1045 41.91                             116    0.21 8  248 195 
 CHI  HN ES   3   1046 12.83                             116    2.04 2  248 195 
 CHI  HZ I        1046 19.22         2.0 0.33            116            248 195 
 URE  HZ EP       1045 44.93                             112    0.00 7  282 292 
 URE  HN ES   4   1046 14.14                             112   -2.41 0  282 292 
 URE  HZ I        1046 23.56         4.3 0.22            113            282 292 
                                                                                
