 2013 10 4 1449 27.0 L   6.823 -73.149142.7  RSN 12 0.5 2.1LRSN 2.7WRSN        1
 SPEC AVERAGE  MO 13.1 ST 96.0 OM  1.3 f0 14.9 R0.2320 AL 0.00 WI 20.0 MW  2.7 3
 SPEC SD       MO  0.3 ST164.1 OM  0.4 f0 11.4 R0.1139 AL      WI      MW  0.2 3
 GAP=135        1.27       4.1     4.8  6.5 -0.4121E+01  0.5168E+01  0.2200E+01E
 Epicentro: LOS SANTOS - SANTANDER                                             3
 SPEC BAR2SH Z MO 13.6 ST 10.7 OM  1.8 f0 7.37 R0.2611 AL-0.00 WI 20.0 MW  3.0 3
 SPEC BAR2SH Z T144959 K 0.050 GD  145 VS 5.20 DE 3.20 Q0750.0 QA 1.50 VS 5.20 3
 SPEC BRR HH Z MO 13.1 ST 19.3 OM  1.2 f0 13.8 R0.1394 AL-0.00 WI 20.0 MW  2.7 3
 SPEC BRR HH Z T1450 3 K 0.050 GD  158 VS 5.20 DE 3.20 Q0750.0 QA 1.50 VS 5.20 3
 SPEC PAM SH Z MO 12.8 ST  1.9 OM  0.9 f0 8.04 R0.2393 AL-0.00 WI 20.0 MW  2.5 3
 SPEC PAM SH Z T1450 4 K 0.050 GD  161 VS 5.20 DE 3.20 Q0750.0 QA 1.50 VS 5.20 3
 SPEC RUS HH Z MO 12.6 ST  4.9 OM  0.7 f0 12.4 R0.1552 AL-0.00 WI 20.0 MW  2.4 3
 SPEC RUS HH Z T1450 7 K 0.050 GD  175 VS 5.20 DE 3.20 Q0750.0 QA 1.50 VS 5.20 3
 SPEC PTB HH Z MO 13.1 ST482.2 OM  1.1 f0 40.0 R0.0481 AL-0.00 WI 20.0 MW  2.7 3
 SPEC PTB HH Z T145012 K 0.050 GD  205 VS 5.20 DE 3.20 Q0750.0 QA 1.50 VS 5.20 3
 SPEC SPBCHH Z MO 13.2 ST248.0 OM  1.2 f0 29.1 R0.0661 AL-0.00 WI 20.0 MW  2.8 3
 SPEC SPBCHH Z T145015 K 0.050 GD  218 VS 5.20 DE 3.20 Q0750.0 QA 1.50 VS 5.20 3
 SPEC SML HH Z MO 12.9 ST0.749 OM  0.8 f0 5.26 R0.3658 AL-0.00 WI 20.0 MW  2.6 3
 SPEC SML HH Z T145029 K 0.050 GD  280 VS 5.20 DE 3.20 Q0750.0 QA 1.50 VS 5.20 3
 SPECGUY2CHH Z MO 13.2 ST  0.5 OM  1.0 f0 3.91 R 0.492 AL-0.00 WI 20.0 MW  2.7 3
 SPECGUY2CHH Z T145043 K 0.050 GD334.0 VS 5.20 DE 3.20 Q0750.0 QA 1.50 VS 5.20 3
 SPEC RREFHH Z MO 13.2 ST0.373 OM  1.0 f0 3.31 R0.5813 AL-0.00 WI 20.0 MW  2.8 3
 SPEC RREFHH Z T145048 K 0.050 GD  353 VS 5.20 DE 3.20 Q0750.0 QA 1.50 VS 5.20 3
 OLDACT:REG 13-10-04 14:00 OP:stll STATUS:               ID:20131004144848     3
 ACTION:UPD 13-11-25 09:19 OP:ep   STATUS:               ID:20131004144927 L   I
 OLDACT:UP  13-10-04 21:01 OP:stll STATUS:               ID:20131004144848     3
 2013-10-04-1448-48M.COL___235                                                 6
 STAT SP IPHASW D HRMM SECON CODA AMPLIT PERI AZIMU VELO AIN AR TRES W  DIS CAZ7
 BAR2 SZ EP       1449 46.28                             169   -0.0710 25.8 188 
 BAR2 SZ ES       1450  0.76                             169   -0.6510 25.8 188 
 BAR2 SZ I        1450  4.19        38.3 0.30            172           25.8 188 
 BRR  HZ EP       1449 48.15                             152    0.3910 69.7 297 
 BRR  HN ES       1450  4.72                             152    0.7810 69.7 297 
 BRR  SZ I        1450 13.98        16.5 0.34            144           69.7 297 
 PAM  SZ EP       1449 48.99                             151    0.1710 75.6  41 
 PAM  SN ES       1450  6.03                             151    0.2210 75.6  41 
 PAM  SZ I        1450  8.21        12.7 0.56            146           75.6  41 
 RUS  HZ EP       1449 50.38                             142   -0.2910  103 176 
 RUS  HN ES       1450  8.94                             142   -0.1710  103 176 
 RUS  SZ I        1450 11.15        11.8 0.50            145            103 176 
 CAPV BZ EP       1449 54.07                             131    0.06 9  147  39 
 PTB  HZ EP       1449 53.13                             131   -0.64 9  148 258 
 PTB  HN ES       1450 14.16                             131   -0.46 9  148 258 
 PTB  SZ I        1450 21.13        18.3 0.40            127            148 258 
 SPBC HZ EP       1449 55.10                             128   -0.37 9  165 218 
 SPBC HN ES       1450 17.25                             128   -0.40 9  165 218 
 SPBC SZ I        1450 22.58        24.4 0.30            126            165 218 
 ZAR  HN ES       1450 24.32                             122    0.12 9  203 292 
 SML  HZ EP       1450  3.02                             117   -0.20 8  241 335 
 SML  SZ I        1450 39.37        20.3 0.10            113            241 335 
 CHI  HZ EP       1450  4.50                             116   -0.32 8  251 195 
 CHI  HE ES       1450 36.10                             116    1.80 8  251 195 
 CHI  SZ I        1450 41.03        11.4 0.52            115            251 195 
 GUY2CHZ EP       1450 10.86                             112    0.22 7  302 234 
 GUY2CHN ES       1450 44.63                             112   -0.02 7  302 234 
 GUY2CSZ I        1450 51.21         7.2 0.50                           302 234 
 RREF HZ EP       1450 13.57                             110    0.37 7  323 229 
                                                                                
