 2016  1 4 1545 18.9 L   6.816 -73.168136.2  RSN  7 0.5 1.9LRSN                1
 GAP=133        1.26       4.2     5.5  8.8 -0.4576E+01  0.1748E+02 -0.6588E+01E
 Epicentro: LOS SANTOS - SANTANDER                                             3
 ACTION:UPD 16-03-09 23:22 OP:cam  STATUS:               ID:20160104154518 L   I
 OLDACT:UP  16-01-05 00:45 OP:ar   STATUS:               ID:20160104153750     3
 OLDACT:REG 16-01-04 22:04 OP:ar   STATUS:               ID:20160104153750     3
 2016-01-04-1537-50M.COL___320                                                 6
 STAT SP IPHASW D HRMM SECON CODA AMPLIT PERI AZIMU VELO AIN AR TRES W  DIS CAZ7
 BAR2 EZ EP     C 1545 37.30                             169   -0.1210 24.8 184 
 BAR2 EZ ES       1545 51.92                             169    0.0610 24.8 184 
 BAR2 EZ I        1545 53.10        14.0 0.16            171           24.8 184 
 PAM  EZ EP       1545 40.15                             149    0.0210 77.6  42 
 PAM  EN ES       1545 56.93                             149    0.2510 77.6  42 
 PAM  EZ I        1545 59.13        21.4 0.46            152           77.6  42 
 RUS  HZ EP       1545 41.42                             141   -0.4610  103 175 
 RUS  HN ES       1546  0.19                             141    0.3910  103 175 
 RUS  HZ I        1546  0.76        11.0 0.34            146            103 175 
 PTB  HZ EP       1545 44.16                             130   -0.76 9  146 258 
 PTB  HN ES       1546  4.70                             130   -0.51 9  146 258 
 PTB  HZ I        1546  8.96         7.1 0.16            131            146 258 
 OCA  HZ EP       1545 45.95                             128   -0.35 9  158 354 
 OCA  HE ES       1546  7.33                             128   -0.33 9  158 354 
 OCA  HZ I        1546 10.78        21.0 0.56            129            158 354 
 SPBC HZ EP       1545 47.62                             127    0.94 9  163 218 
 SPBC HN ES       1546  7.96                             127   -0.38 9  163 218 
 SPBC HZ I        1546 10.72        14.5 0.30            129            163 218 
 ZAR  HZ EP       1545 51.29                             121    0.85 9  201 292 
 ZAR  HN ES       1546 15.68                             121    0.64 9  201 292 
 ZAR  HZ I        1546 23.53         6.9 0.24            122            201 292 
                                                                                
