 2014  7 4 1943 35.0 L   6.788 -73.186144.3  RSN  8 0.4 1.5LRSN                1
 GAP=132        0.99       3.6     4.3  7.2 -0.4252E-01  0.6741E+01  0.4621E+00E
 Epicentro: ZAPATOCA - SANTANDER                                               3
 ACTION:UPD 15-03-16 20:41 OP:nd   STATUS:               ID:20140704194333 L   I
 OLDACT:REG 14-07-09 09:49 OP:spq  STATUS:               ID:20140704193819     3
 2014-07-04-1938-19M.COL___259                                                 6
 STAT SP IPHASW D HRMM SECON CODA AMPLIT PERI AZIMU VELO AIN AR TRES W  DIS CAZ7
 BAR2 SZ ES   1   1944  9.52                             171   -0.05 7 21.6 179 
 BAR2 SZ I        1944 11.30         9.5 0.16            173           21.6 179 
 BRR  HN ES       1944 12.49                             153    0.4410 68.1 301 
 BRR  HZ I        1944 19.85        10.0 0.34            152           68.1 301 
 PAM  SZ EP       1943 57.59                             149    0.2910 81.3  41 
 PAM  SN ES       1944 14.27                             149   -0.4210 81.3  41 
 PAM  SZ I        1944 17.85         3.2 0.42            153           81.3  41 
 RUS  HZ EP       1943 58.66                             144    0.1210 99.6 173 
 RUS  HE ES       1944 16.97                             144    0.0710 99.6 173 
 RUS  HZ I        1944 18.60         2.9 0.20            149           99.6 173 
 PTB  HZ EP       1944  2.00                             133    0.57 9  143 259 
 PTB  HN ES       1944 22.47                             133    0.42 9  143 259 
 PTB  HZ I        1944 28.13         1.9 0.18            134            143 259 
 SPBC HZ EP       1944  2.66                             129   -0.36 9  159 218 
 SPBC HN ES       1944 24.29                             129   -0.59 9  159 218 
 SPBC HZ I        1944 27.13         3.7 0.22            133            159 218 
 ZAR  HE ES       1944 31.32                             122   -0.61 9  201 293 
 ZAR  HZ I        1944 38.66         2.3 0.32            124            201 293 
 SML  HN ES       1944 39.76                             117   -0.18 8  243 336 
 SML  HZ I        1944 43.43         5.1 0.07            120            243 336 
                                                                                
