 2013  2 4 1610 56.2 L   6.749 -73.096143.6  RSN  4 0.2 1.6LRSN                1
 GAP=145        0.47       3.0     4.1  4.4  0.9415E+00 -0.3436E+01  0.9277E+00E
 Epicentro: LOS SANTOS - SANTANDER                                             3
 ACTION:UPD 13-03-12 09:30 OP:ep   STATUS:               ID:20130204161056 L   I
 2013-02-04-1610-00M.COL___240                                                 6
 STAT SP IPHASW D HRMM SECON CODA AMPLIT PERI AZIMU VELO AIN AR TRES W  DIS CAZ7
 BAR2 SZ EP       1611 15.41                             172   -0.1010 19.8 209 
 BAR2 SZ ES   1   1611 30.35                             172   -0.21 7 19.8 209 
 BAR2 SZ I        1611 31.62        13.9 0.17            173           19.8 209 
 PAM  SZ EP       1611 18.46                             150    0.2010 78.6  34 
 PAM  SN ES   1   1611 35.38                             150   -0.09 7 78.6  34 
 PAM  SZ I        1611 37.45         6.3 0.49            151           78.6  34 
 BRR  HZ EP       1611 17.32                             150   -0.2510 78.8 300 
 BRR  HE ES       1611 34.42                             150    0.1910 78.8 300 
 BRR  HZ I        1611 36.06         7.0 0.13            152           78.8 300 
 RUS  HZ EP       1611 19.37                             145    0.0510 94.7 179 
 RUS  HN ES   1   1611 37.50                             145    0.14 7 94.7 179 
 RUS  HN I        1611 38.77         4.0 0.36            147           94.7 179 
                                                                                
