 2010  8 4 1030 49.8 L   6.811 -73.005148.0  RSN  3 0.1 1.5LRSN                1
 GAP=252        0.44      10.7    17.0  8.0  0.1630E+03 -0.8948E+02 -0.4962E+02E
 Epicentro: CEPITA - SANTANDER                                                 3
 ACTION:UP  10-09-07 10:52 OP:vdl  STATUS:               ID:20100804103049 L   I
 2010-08-04-1028-42S.COL___125                                                 6
 STAT SP IPHASW D HRMM SECON CODA AMPLIT PERI AZIMU VELO SNR AR TRES W  DIS CAZ7
 BAR2 SZ IP       1031  9.98                             171     0.110   31 219 
 BAR2 SZ ES   2   1031 25.40                                    -0.1 5   31 219 
 BAR2 SZ I        1031 26.61         7.9 0.07                            31 219 
 BRR  HZ IP     C 1031 11.78                             151    -0.210   85 293 
 BRR  HZ I        1031 12.78         8.6 0.57                            85 293 
 BRR  HN ES   1   1031 29.44                             151     0.2 7   85 293 
 RUS  HZ EP   1   1031 13.82                             146     0.0 7  102 185 
 RUS  HE ES   2   1031 32.54                             146    -0.1 5  102 185 
 RUS  HZ I        1031 33.82         2.1 0.42                           102 185 
                                                                                
