 2014 10 4 1044 13.7 L   7.187 -73.281119.3  RSN  5 0.4 1.6LRSN                1
 GAP=154        0.97       6.0     4.3  8.1  0.5398E+01  0.7792E+01  0.1929E+01E
 Epicentro: LEBRIJA - SANTANDER                                                3
 ACTION:UPD 14-11-29 23:46 OP:nd   STATUS:               ID:20141004104413 L   I
 OLDACT:REG 14-10-04 23:39 OP:fm   STATUS:               ID:20141004103749     3
 2014-10-04-1037-49M.COL___289                                                 6
 STAT SP IPHASW D HRMM SECON CODA AMPLIT PERI AZIMU VELO AIN AR TRES W  DIS CAZ7
 BRR  HZ EP       1044 30.40                             156   -0.3410 48.4 259 
 BRR  HN ES       1044 43.62                             156   -0.4010 48.4 259 
 BRR  HZ I        1044 44.37        16.5 0.12            156           48.4 259 
 PAM  SZ EP       1044 32.24                             149   -0.2110 66.4  75 
 PAM  SN ES       1044 47.25                             149    0.1710 66.4  75 
 PAM  SZ I        1044 48.13         5.7 0.26            151           66.4  75 
 BAR2 SZ EP   1   1044 32.51                             149    0.40 7 66.7 171 
 BAR2 SZ ES   1   1044 47.14                             149    0.67 7 66.7 171 
 BAR2 SZ I        1044 48.21        21.6 0.26            150           66.7 171 
 RUS  HZ EP   1   1044 39.50                             126    0.50 7  145 171 
 RUS  HN ES   1   1044 58.07                             126   -0.66 7  145 171 
 ZAR  HZ EP   1   1044 41.35                             120   -0.34 7  177 281 
 ZAR  HN ES       1045  4.04                             120    0.52 9  177 281 
 ZAR  HZ I        1045  6.38         3.9 0.50            120            177 281 
                                                                                
