 2016  7 4 1323 57.2 L   6.758 -73.169148.6  RSN  6 0.4 1.5LRSN                1
 GAP=135        1.04       5.2     4.6  7.0  0.2620E+01  0.7865E+01 -0.1749E+01E
 Epicentro: LOS SANTOS - SANTANDER                                             3
 ACTION:UPD 17-03-29 16:46 OP:lp   STATUS:               ID:20160704132357 L   I
 OLDACT:DUP 16-07-05 00:18 OP:edw  STATUS:               ID:20160704131746d    3
 OLDACT:UP  16-07-05 00:13 OP:edw  STATUS:               ID:20160704131745d    3
 2016-07-04-1317-44M.COL___322                                                 6
 STAT SP IPHASW D HRMM SECON CODA AMPLIT PERI AZIMU VELO AIN AR TRES W  DIS CAZ7
 BAR2 EZ EP       1324 17.14                             173    0.0510 18.4 184 
 BAR2 EZ ES       1324 32.97                             173    0.3610 18.4 184 
 BAR2 EZ I        1324 35.41         6.9 0.13            173           18.4 184 
 BRR  HZ EP       1324 18.81                             153    0.1410 71.3 303 
 BRR  HN ES       1324 35.99                             153    0.5710 71.3 303 
 PAM  EZ EP       1324 20.03                             150   -0.0210 82.7  39 
 PAM  EN ES       1324 37.33                             150   -0.5310 82.7  39 
 PAM  EZ I        1324 40.11         5.9 0.40            152           82.7  39 
 RUS  HZ EP       1324 21.10                             146    0.1710 96.2 174 
 RUS  HE ES       1324 39.17                             146   -0.2710 96.2 174 
 RUS  HZ I        1324 41.12         2.2 0.28            148           96.2 174 
 PTB  HZ EP       1324 24.65                             133    0.54 9  144 260 
 PTB  HN ES       1324 44.30                             133   -0.79 9  144 260 
 PTB  HZ I        1324 47.68         5.1 0.14            134            144 260 
 ZAR  HZ EP       1324 29.41                             123   -0.37 9  203 294 
 ZAR  HN ES       1324 55.19                             123    0.01 9  203 294 
 ZAR  HZ I        1325  0.43         4.9 0.16            124            203 294 
 NOR  HZ EP   4   1324 27.53                             120   -5.06 0  230 235 
 NOR  HE ES   4   1324 59.40                             120   -0.79 0  230 235 
 GUY2CHZ EP   4   1324 27.95                             113   -12.5 0  296 235 
 GUY2CHE ES   4   1325 19.38                             113    5.28 0  296 235 
                                                                                
