 2013  3 4 1708 47.8 L   6.809 -73.139141.8  RSN  6 0.4 1.8LRSN                1
 GAP=102        0.86       4.5     5.2  6.4 -0.4897E+00 -0.8704E+01  0.2387E+01E
 Epicentro: LOS SANTOS - SANTANDER                                             3
 ACTION:UPD 13-04-09 13:59 OP:ep   STATUS:               ID:20130304170847 L   I
 2013-03-04-1658-50M.COL___193                                                 6
 STAT SP IPHASW D HRMM SECON CODA AMPLIT PERI AZIMU VELO AIN AR TRES W  DIS CAZ7
 BAR2 SZ EP       17 9  6.81                             170   -0.2010 24.5 191 
 BAR2 SZ ES       17 9 21.44                             170   -0.5210 24.5 191 
 BAR2 SZ I        17 9 26.32        14.4 0.50            169           24.5 191 
 BRR  HZ EP       17 9  8.60                             152    0.0410 71.4 298 
 BRR  HN ES       17 9 25.21                             152    0.4810 71.4 298 
 BRR  HE I        17 9 26.04        25.8 0.32            154           71.4 298 
 PAM  SZ EP       17 9  9.67                             150    0.1210 76.1  40 
 PAM  SZ I        17 9  9.85        12.5 0.20            153           76.1  40 
 PAM  SN ES       17 9 26.38                             150   -0.1010 76.1  40 
 RUS  HZ EP       17 9 11.27                             143    0.0010  102 177 
 RUS  HZ I        17 9 12.04         4.2 0.16            144            102 177 
 RUS  HN ES       17 9 29.94                             143    0.4010  102 177 
 PTB  HN ES   2   17 9 34.31                             131   -1.10 5  149 258 
 TAM  HZ EP       17 9 15.16                             130    0.01 9  155 105 
                                                                                
