 2016 12 4 1005 51.6 L   6.849 -73.193136.0  RSN 10 0.3 1.9LRSN                1
 GAP=132        0.79       3.3     3.5  5.5 -0.1757E+01  0.6512E+01  0.5068E+01E
 Epicentro: ZAPATOCA - SANTANDER                                               3
 ACTION:UPD 17-01-11 20:12 OP:rebc STATUS:               ID:20161204100551 L   I
 OLDACT:DUP 16-12-04 20:58 OP:lv   STATUS:               ID:20161204095746d    3
 2016-12-04-0958-00M.COL___343                                                 6
 STAT SP IPHASW D HRMM SECON CODA AMPLIT PERI AZIMU VELO AIN AR TRES W  DIS CAZ7
 BAR2 EZ EP       10 6  9.88                             168   -0.3210 28.4 178 
 BAR2 EZ ES       10 6 24.77                             168    0.0810 28.4 178 
 BAR2 EZ I        10 6 27.43        12.1 0.14            167           28.4 178 
 BRR  HZ EP       10 6 11.46                             153    0.1510 64.0 297 
 BRR  HN ES   4   10 6 28.33                             153    1.66 0 64.0 297 
 BRR  HZ I        10 6 33.10        18.6 0.20            151           64.0 297 
 PAM  EZ EP       10 6 12.49                             149   -0.2910 76.9  45 
 PAM  EN ES       10 6 29.53                             149    0.2510 76.9  45 
 PAM  EZ I        10 6 31.41        19.3 0.42            157           76.9  45 
 PTB  HZ EP       10 6 16.84                             130   -0.60 9  144 256 
 PTB  HN ES       10 6 37.30                             130   -0.27 9  144 256 
 PTB  HZ I        10 6 43.14         9.4 0.17            131            144 256 
 ZAR  HZ EP       10 6 22.69                             121   -0.03 9  197 291 
 ZAR  HE ES       10 6 47.60                             121    0.62 9  197 291 
 ZAR  HZ I        10 6 53.08        15.6 0.27            123            197 291 
 NOR  HZ EP       10 6 26.49                             116   -0.20 8  234 233 
 NOR  HN ES       10 6 53.97                             116   -0.07 8  234 233 
 NOR  HZ I        10 6 59.00         4.2 0.25            119            234 233 
 CHI  HZ EP       10 6 29.82                             115    0.59 8  253 194 
 CHI  HE ES       10 6 58.72                             115    0.15 8  253 194 
 CHI  HZ I        10 7  4.22         2.9 0.22            118            253 194 
 URE  HZ EP   4   10 6 33.18                             112    1.73 0  277 291 
 URE  HE ES   4   10 7  0.95                             112   -1.57 0  277 291 
 URE  HZ I        10 7  8.05         7.5 0.14            115            277 291 
 LL6C HZ EP   4   10 6 15.44                             109   -20.8 0  319 358 
 LL6C HE ES   4   10 6 48.37                             109   -22.7 0  319 358 
 PRA  HZ EP       10 6 45.36                             105    0.28 6  394 209 
 PRA  HE ES       10 7 27.01                             105    0.24 6  394 209 
 PRA  HZ I        10 7 34.11         4.3 0.33            107            394 209 
 SJC  HZ EP   4   10 6 43.57                             104   -2.43 0  402 327 
 SJC  HN ES   4   10 7 25.11                             104   -3.30 0  402 327 
 SJC  HZ I        10 7 31.24         1.0 0.26            107            402 327 
                                                                                
