 2010  2 4 1632 14.2 L   6.789 -73.188131.8  RSN  5 0.4 1.5LRSN                1
 GAP=159        0.61       6.1    19.2  8.6 -0.4643E+02  0.7719E+02 -0.1574E+02E
 Epicentro: LOS SANTOS - SANTANDER                                             3
 ACTION:UP  10-08-24 09:47 OP:vdl  STATUS:               ID:20100204163214 L   I
 2010-02-04-1619-50S.COL___092                                                 6
 STAT SP IPHASW D HRMM SECON CODA AMPLIT PERI AZIMU VELO SNR AR TRES W  DIS CAZ7
 BAR2 SZ EP   2   1632 31.66                             170    -0.5 5   22 179 
 BAR2 SZ ES   1   1632 46.20                             170     0.1 7   22 179 
 GIR2 SZ EP   2   1632 31.73                             166    -0.5 5   32 359 
 RUS  HZ EP   2   1632 36.35                             141    -0.2 5  100 173 
 RUS  HN ES   1   1632 54.11                             141     0.1 7  100 173 
 RUS  HZ I        1632 56.01         3.4 0.25                           100 173 
 GUE  SZ EP   2   1632 38.60                             136     0.7 5  119  14 
 PRA  HZ EP   2   1633  6.94                             104     0.0 3  389 209 
 PRA  HN ES   2   1633 48.44                             104     0.4 3  389 209 
 PRA  HZ I        1633 51.72         1.8 0.65                           389 209 
                                                                                
