 2011  4 4 1746 44.9 L   6.375 -72.988176.0  RSN  5 0.2 2.1LRSN                1
 GAP=308        0.46       8.2     8.7  6.4 -0.2154E+02 -0.2875E+02  0.1365E+02E
 Epicentro: COROMORO - SANTANDER                                               3
 ACTION:UP  11-06-22 15:28 OP:REBC STATUS:               ID:20110404174644 L   I
 2011-04-04-1744-15S.COL___138                                                 6
 STAT SP IPHASW D HRMM SECON CODA AMPLIT PERI AZIMU VELO SNR AR TRES W  DIS CAZ7
 BAR2 SZ ES   2   1747 26.67                             169     0.0 5   32 318 
 BAR2 SZ I        1747 27.95        12.0 0.18                            32 318 
 BTL  SZ EP       1747  9.80                             158     0.210   68 333 
 BTL  SZ ES   2   1747 28.58                             158    -0.2 5   68 333 
 GIR2 SZ EP       1747 10.04                             154    -0.110   81 344 
 BRR  HZ EP       1747 11.69                             146    -0.210  114 315 
 BRR  HN ES   1   1747 33.15                             146     0.2 7  114 315 
 BRR  HZ I        1747 34.94        20.4 0.07                           114 315 
 GRA  SZ EP       1747 16.42                             134     0.0 9  168   7 
 GRA  SZ I        1747 18.07        12.0 0.40                           168   7 
 GRA  SZ ES   2   1747 40.95                             134     0.0 5  168   7 
                                                                                
