 2010  8 4 1647 17.2 L   6.973 -72.765137.6  RSN  4 0.3 1.5LRSN                1
 GAP=199        0.79       5.9    11.7 18.1  0.1691E+02 -0.1325E+03 -0.4388E+02E
 Epicentro: GUACA - SANTANDER                                                  3
 ACTION:UP  10-09-07 10:52 OP:vdl  STATUS:               ID:20100804164717 L   I
 2010-08-04-1644-13S.COL___126                                                 6
 STAT SP IPHASW D HRMM SECON CODA AMPLIT PERI AZIMU VELO SNR AR TRES W  DIS CAZ7
 BAR2 SZ EP       1647 37.79                             154     0.510   63 228 
 BAR2 SZ I        1647 55.65         8.9 0.23                            63 228 
 GRA  SZ IP       1647 39.57                             142    -0.110  101 358 
 GRA  SZ I        1648  6.10         4.6 0.22                           101 358 
 BRR  HZ EP       1647 39.73                             140    -0.110  106 278 
 BRR  HN ES   1   1647 57.48                             140     0.0 7  106 278 
 BRR  HZ I        1647 58.18        11.0 0.48                           106 278 
 RUS  HZ EP   1   1647 41.82                             136    -0.2 7  125 196 
 RUS  HE ES   1   1648  1.25                             136    -0.2 7  125 196 
 RUS  HZ I        1648  1.55         2.1 0.50                           125 196 
                                                                                
