 2014 11 4 1830 26.2 L   6.787 -73.137144.1  RSN  4 0.1 1.5LRSN                1
 GAP=138        0.35       2.1     4.4  3.2 -0.3672E+01  0.4729E+01 -0.1384E+01E
 Epicentro: LOS SANTOS - SANTANDER                                             3
 ACTION:UPD 14-12-19 15:39 OP:nd   STATUS:               ID:20141104183026 L   I
 OLDACT:REG 14-11-04 23:11 OP:cam  STATUS:               ID:20141104182746     3
 2014-11-04-1827-46M.COL___277                                                 6
 STAT SP IPHASW D HRMM SECON CODA AMPLIT PERI AZIMU VELO AIN AR TRES W  DIS CAZ7
 BAR2 SZ EP       1830 45.38                             171   -0.1910 22.1 193 
 BAR2 SZ ES       1831  0.71                             171   -0.0010 22.1 193 
 BAR2 SZ I        1831  1.91        10.0 0.20            170           22.1 193 
 BRR  HZ EP       1830 47.29                             152    0.0710 72.7 299 
 PAM  SZ IP     C 1830 48.31                             150    0.0710 78.0  38 
 PAM  SE ES       1831  5.45                             150   -0.0110 78.0  38 
 PAM  SE I        1831  5.91         6.4 0.62            152           78.0  38 
 RUS  HZ EP       1830 49.66                             144    0.0210 99.0 177 
 RUS  HE ES       1831  8.01                             144    0.0510 99.0 177 
 RUS  HE I        1831 10.01         3.2 0.42            144           99.0 177 
                                                                                
