 2011  8 4 1914 20.4 L   7.209 -74.092  4.0  RSN  5 0.4 2.2LRSN                1
 GAP=191        0.76       5.0     4.8  6.0 -0.1084E+02  0.7872E+00  0.7088E+01E
 Epicentro: PUERTO WILCHES - SANTANDER                                         3
 ACTION:UPD 12-07-25 14:06 OP:epov STATUS:               ID:20110804191420 L   I
 2011-08-04-1913-08S.COL___138                                                 6
 STAT SP IPHASW D HRMM SECON CODA AMPLIT PERI AZIMU VELO AIN AR TRES W  DIS CAZ7
 BRR  HZ IP       1914 27.34                              47   -0.2010 43.5 105 
 BRR  HN ES   1   1914 32.71                              47   -0.43 7 43.5 105 
 BRR  HZ I        1914 33.70       188.3 0.24                          43.5 105 
 BAR2 SZ EP       1914 39.84                              47    0.2310  122 124 
 OCA  SZ ES   2   1914 59.98                              47   -0.08 5  142  37 
 RUS  HZ EP       1914 49.64                              37    0.50 9  183 142 
 RUS  HN ES   1   1915 11.77                              37    0.18 7  183 142 
 NOR  SE ES   1   1915 14.04                              37   -0.57 6  201 205 
                                                                                
