 2012  6 4 1933 38.7 L   6.755 -73.159140.5  RSN  6 0.4 1.9LRSN                1
 GAP=137        0.78       4.2     4.3  7.0  0.4561E+00  0.8577E+01  0.2343E+01E
 Epicentro: LOS SANTOS - SANTANDER                                             3
 ACTION:UPD 12-08-06 17:47 OP:ep   STATUS:               ID:20120604193337 L   I
 2012-06-04-1930-00M.COL___201                                                 6
 STAT SP IPHASW D HRMM SECON CODA AMPLIT PERI AZIMU VELO AIN AR TRES W  DIS CAZ7
 BAR2 SZ EP   1   1933 57.43                             172   -0.16 8 18.1 188 
 BAR2 SZ ES   1   1934 12.04                             172   -0.29 8 18.1 188 
 BAR2 SZ I        1934 14.43        34.5 0.16            172           18.1 188 
 PAM  SZ EP   1   1934  0.93                             148    0.29 8 82.2  38 
 PAM  SZ I        1934  1.33        13.3 0.21            151           82.2  38 
 PAM  SN ES   1   1934 17.39                             148   -0.38 8 82.2  38 
 RUS  HZ EP   1   1934  2.08                             144    0.51 8 95.7 175 
 RUS  HN ES   1   1934 20.12                             144    0.71 8 95.7 175 
 RUS  HZ I        1934 21.73        12.2 0.29            145           95.7 175 
 PTB  HZ EP   1   1934  4.85                             131   -0.17 7  145 261 
 PTB  HN ES       1934 25.42                             131   -0.1410  145 261 
 PTB  HZ I        1934 28.22         7.7 0.19            133            145 261 
 ZAR  HZ EP   1   1934 11.11                             121    0.25 7  205 294 
 ZAR  HN ES   1   1934 36.26                             121    0.31 7  205 294 
 CHI  HZ EP   1   1934 14.77                             116   -0.76 6  243 195 
 CHI  HE ES   1   1934 43.86                             116   -0.40 6  243 195 
                                                                                
