 2010 12 4 1441 49.1 L   6.812 -72.952141.6  RSN  5 0.5 1.9LRSN                1
 GAP=268        0.79      10.0    13.1 14.4 -0.6612E+00 -0.2401E+02  0.9328E+02E
 Epicentro: CEPITA - SANTANDER                                                 3
 ACTION:UP  11-01-14 15:22 OP:pat  STATUS:               ID:20101204144149 L   I
 2010-12-04-1439-01S.COL___132                                                 6
 STAT SP IPHASW D HRMM SECON CODA AMPLIT PERI AZIMU VELO SNR AR TRES W  DIS CAZ7
 BAR2 SZ EP   1   1442  9.01                             166     0.4 7   35 226 
 BAR2 SZ I        1442 25.10        14.3 0.27                            35 226 
 BRR  HZ EP   1   1442 10.83                             146    -0.2 7   90 291 
 BRR  HN ES   1   1442 27.95                             146    -0.2 7   90 291 
 BRR  HZ I        1442 30.40        14.8 0.27                            90 291 
 CHI  HZ EP   2   1442 27.19                             115    -0.3 4  256 200 
 CHI  HE ES   2   1442 56.62                             115    -0.7 4  256 200 
 CHI  HZ I        1443  0.18         5.1 0.56                           256 200 
 HEL  HZ EP   2   1442 30.91                             112    -0.6 4  293 257 
 HEL  HZ I        1442 37.29         3.1 0.43                           293 257 
 RREF HZ EP   1   1442 37.59                             109     0.5 5  339 232 
 RREF HE ES   2   1443 15.31                             109     0.8 3  339 232 
 RREF HZ I        1443 21.07         3.7 0.28                           339 232 
                                                                                
