 2016  9 4 1258 39.0 L   6.587 -73.442119.4  RSN 15 0.5 2.4LRSN                1
 GAP= 58        1.09       2.8     3.0  5.5 -0.2881E+01  0.4571E+01  0.2180E+00E
 Epicentro: EL CARMEN - SANTANDER                                              3
 ACTION:UPD 17-08-17 21:06 OP:lp   STATUS:               ID:20160904125839 L   I
 OLDACT:UP  16-09-04 23:23 OP:dnl  STATUS:               ID:20160904125733     3
 OLDACT:REG 16-09-04 20:50 OP:dnl  STATUS:               ID:20160904125733     3
 2016-09-04-1258-00M.COL___352                                                 6
 STAT SP IPHASW D HRMM SECON CODA AMPLIT PERI AZIMU VELO AIN AR TRES W  DIS CAZ7
 BAR2 EZ EP     D 1258 55.69                             166    0.0410 28.7  89 
 BAR2 EZ ES       1259  8.75                             166    0.1410 28.7  89 
 BAR2 EZ I        1259  9.52        66.1 0.50            168           28.7  89 
 BRR  HZ EP       1258 57.16                             149    0.1710 64.8 333 
 BRR  HN ES       1259 11.28                             149    0.2810 64.8 333 
 BRR  HZ I        1259 12.25        56.0 0.14            146           64.8 333 
 RUS  HZ EP       1258 58.92                             142   -0.2610 86.4 153 
 RUS  HN ES       1259 14.79                             142   -0.0910 86.4 153 
 RUS  HZ I        1259 15.86        77.1 0.22            144           86.4 153 
 PTB  HZ EP       1258 59.53                             134   -1.1210  112 267 
 PTB  HN ES   4   1259 15.79                             134   -1.71 0  112 267 
 PTB  HZ I        1259 18.86        47.8 0.12            131            112 267 
 PAM  EZ EP       1259  1.78                             133    0.0910  117  45 
 PAM  EN ES       1259 19.30                             133   -0.0610  117  45 
 PAM  EZ I        1259 22.72        47.0 0.22            132            117  45 
 SPBC HZ EP       1259  1.66                             130   -0.2110  125 214 
 SPBC HN ES       1259 19.13                             130   -0.5510  125 214 
 SPBC HZ I        1259 21.99        82.6 0.10            129            125 214 
 TAM  HZ EP       1259  7.54                             119   -0.17 9  183  95 
 TAM  HN ES       1259 29.72                             119   -0.35 9  183  95 
 TAM  HZ I        1259 30.70        22.8 0.38            119            183  95 
 OCA  HZ EP       1259  7.98                             119    0.14 9  183   4 
 OCA  HE ES       1259 30.84                             119    0.53 9  183   4 
 OCA  HZ I        1259 36.22        86.7 0.40            117            183   4 
 NOR  HZ EP       1259  8.54                             117   -0.37 9  194 234 
 NOR  HN ES       1259 32.36                             117    0.15 9  194 234 
 NOR  HZ I        1259 34.69        30.0 0.16            116            194 234 
 CHI  HZ EP       1259 12.25                             114    0.19 8  219 188 
 CHI  HE ES       1259 38.95                             114    1.14 8  219 188 
 CHI  HZ I        1259 41.98        14.4 0.22            114            219 188 
 HEL  HZ EP       1259 14.56                             112    0.74 8  235 259 
 HEL  HN ES       1259 40.58                             112   -0.37 8  235 259 
 HEL  HZ I        1259 48.00        15.2 0.20            111            235 259 
 GUY2CHZ EP       1259 17.64                             110    0.75 8  261 235 
 GUY2CHN ES       1259 46.58                             110    0.16 8  261 235 
 GUY2CHZ I        1259 55.82        17.8 0.32                           261 235 
 URE  HZ EP   2   1259 15.73                             109   -1.00 4  264 299 
 URE  HN ES   4   1259 44.25                             109   -1.87 0  264 299 
 URE  HZ I        1259 53.00        14.8 0.14            108            264 299 
 ELA  HZ EP   2   1259 21.20                             108    1.00 4  289 229 
 ELA  HN ES       1259 52.17                             108   -0.14 7  289 229 
 ELA  HZ I        13 0  4.00        12.4 0.46            107            289 229 
 LL6C HZ EP       1259 26.37                             104   -0.20 6  349   3 
 LL6C HZ ES   4   13 0  1.09                             104   -2.55 0  349   3 
 LL6C HZ I        13 0 12.89        10.0 0.46            103            349   3 
                                                                                
