 2015  4 4 1629 36.4 L   6.790 -73.157132.3  RSN 13 0.5 1.9LRSN                1
 GAP=136        1.17       3.3     4.2  6.6 -0.3357E+01  0.1062E+02 -0.1547E+01E
 Epicentro: LOS SANTOS - SANTANDER                                             3
 ACTION:UPD 15-06-03 16:52 OP:cam  STATUS:               ID:20150404162936 L   I
 OLDACT:REG 15-04-04 22:34 OP:fm   STATUS:               ID:20150404162748     3
 2015-04-04-1627-48M.COL___285                                                 6
 STAT SP IPHASW D HRMM SECON CODA AMPLIT PERI AZIMU VELO AIN AR TRES W  DIS CAZ7
 BAR2 EZ EP       1629 54.90                             170    0.5210 22.0 187 
 BAR2 EZ ES       1630  8.14                             170   -0.2810 22.0 187 
 BAR2 EZ I        1630 10.72        17.0 0.32            169           22.0 187 
 BRR  HZ EP       1629 56.83                             150    0.7510 70.6 300 
 BRR  HE ES       1630 11.95                             150    0.5210 70.6 300 
 BRR  HZ I        1630 18.21        15.8 0.48            148           70.6 300 
 PAM  SZ EP     C 1629 57.79                             147    0.4810 79.1  40 
 PAM  SE ES       1630 13.84                             147    0.2210 79.1  40 
 PAM  SZ I        1630 15.32        12.9 0.38            152           79.1  40 
 RUS  HZ EP       1629 58.09                             141   -0.6810 99.5 175 
 RUS  HN ES       1630 16.07                             141   -0.1510 99.5 175 
 RUS  HZ I        1630 17.93         7.2 0.48            146           99.5 175 
 PTB  HZ EP       1630  1.52                             129   -0.64 9  146 259 
 PTB  HE ES       1630 21.78                             129   -0.48 9  146 259 
 PTB  HZ I        1630 24.90        12.6 0.10            130            146 259 
 OCA  HZ EP       1630  3.64                             126   -0.15 9  161 354 
 OCA  HN ES       1630 24.65                             126   -0.52 9  161 354 
 OCA  HZ I        1630 26.96        24.3 0.56            129            161 354 
 SPBC HN ES       1630 24.38                             126   -0.68 9  161 219 
 SPBC HZ I        1630 29.55         9.0 0.10            128            161 219 
 ZAR  HZ EP       1630  7.95                             119    0.03 9  203 293 
 ZAR  HN ES       1630 32.67                             119    0.15 9  203 293 
 ZAR  HZ I        1630 41.81        12.1 0.28            121            203 293 
 NOR  HZ EP       1630 11.47                             116    0.27 8  233 235 
 NOR  HE ES       1630 38.51                             116    0.17 8  233 235 
 NOR  HZ I        1630 45.36         6.8 0.18            118            233 235 
 SML  HE ES       1630 39.94                             114   -0.47 8  244 336 
 SML  HZ I        1630 47.89        17.0 0.10            117            244 336 
 HEL  HE ES       1630 46.66                             112    0.15 8  271 256 
 HEL  HZ I        1630 53.90         4.3 0.36            114            271 256 
 GUY2CHZ EP       1630 19.27                             110    0.05 7  299 235 
 GUY2CHN ES       1630 53.59                             110    0.96 7  299 235 
 GUY2CHZ I        1631  0.29         3.8 0.26                           299 235 
 MON  HE ES   4   1631  1.58                             106   -1.11 0  353 309 
 MON  HZ I        1631  2.20         2.3 0.16            108            353 309 
                                                                                
