 2012 11 4 1243 19.2 L   6.781 -73.134138.3  RSN  5 0.4 1.8LRSN                1
 GAP=139        0.88       6.5     6.5  8.7  0.2222E+02 -0.9351E+01 -0.2356E+02E
 Epicentro: LOS SANTOS - SANTANDER                                             3
 ACTION:UPD 12-12-05 15:31 OP:}ep  STATUS:               ID:20121104124319 L   I
 2012-11-04-1240-00M.COL___229                                                 6
 STAT SP IPHASW D HRMM SECON CODA AMPLIT PERI AZIMU VELO AIN AR TRES W  DIS CAZ7
 BAR2 SZ EP       1243 37.79                             170   -0.0610 21.5 194 
 BAR2 SZ ES       1243 51.86                             170   -0.5810 21.5 194 
 BAR2 SZ I        1243 53.51        12.6 0.16                          21.5 194 
 BRR  HZ EP       1243 39.84                             150    0.2110 73.4 299 
 BRR  HN ES   1   1243 56.33                             150    0.72 7 73.4 299 
 BRR  HN I        1244  1.37        24.5 0.16                          73.4 299 
 PAM  SZ EP       1243 40.66                             149    0.0310 78.2  38 
 PAM  SN I        1243 59.62         8.2 0.52                          78.2  38 
 RUS  HZ EP   1   1243 41.87                             143   -0.15 7 98.4 177 
 RUS  HN ES       1244  0.16                             143    0.3110 98.4 177 
 RUS  HN I        1244  1.72         5.7 0.24                          98.4 177 
 ZAR  HN ES       1244 16.13                             120   -0.31 8  206 293 
 ZAR  HN I        1244 24.14         6.8 0.40                           206 293 
                                                                                
