 2012 12 4 1047 35.6 L   7.433 -73.221126.6  RSN  5 0.2 1.8LRSN                1
 GAP=107        0.64       2.6     3.4  5.6  0.2721E+01  0.8992E+01  0.3981E+01E
 Epicentro: EL PLAYON - SANTANDER                                              3
 ACTION:UPD 13-01-04 14:25 OP:ep   STATUS:               ID:20121204104735 L   I
 2012-12-04-1040-00M.COL___232                                                 6
 STAT SP IPHASW D HRMM SECON CODA AMPLIT PERI AZIMU VELO AIN AR TRES W  DIS CAZ7
 PAM  SZ EP       1047 54.74                             154    0.1110 58.5 100 
 PAM  SN ES       1048  9.85                             154    0.3510 58.5 100 
 PAM  SN I        1048 10.86        16.7 0.76                          58.5 100 
 OCA  HZ EP   1   1047 56.17                             142    0.00 7 89.8 353 
 OCA  HN ES       1048 12.00                             142   -0.2510 89.8 353 
 OCA  HN I        1048 14.33        24.0 0.14                          89.8 353 
 BAR2 SZ EP       1047 56.23                             141   -0.3010 93.1 177 
 BAR2 SZ ES       1048 12.63                             141   -0.2610 93.1 177 
 BAR2 SZ I        1048 13.38        11.6 0.16                          93.1 177 
 RUS  HZ EP       1048  4.22                             123    0.24 9  171 175 
 RUS  HN ES       1048 26.14                             123   -0.01 9  171 175 
 RUS  HN I        1048 27.16         2.6 0.38                           171 175 
 ZAR  HZ EP       1048  4.22                             121   -0.14 9  181 272 
 ZAR  HN ES       1048 27.17                             121    0.34 9  181 272 
 ZAR  HN I        1048 28.27        15.6 0.14                           181 272 
                                                                                
