 2016 11 4 1010 17.5 L   6.582 -73.241114.0  RSN  5 0.5 1.5LRSN                1
 GAP=122        0.82       5.8     6.1  8.7  0.1785E+02  0.2922E+02  0.1295E+02E
 Epicentro: CABRERA - SANTANDER                                                3
 ACTION:UPD 17-10-26 21:04 OP:lp   STATUS:               ID:20161104101017 L   I
 OLDACT:UP  16-11-04 21:48 OP:cog  STATUS:               ID:20161104100739     3
 OLDACT:REG 16-11-04 21:29 OP:cog  STATUS:               ID:20161104100739     3
 2016-11-04-1008-00M.COL___343                                                 6
 STAT SP IPHASW D HRMM SECON CODA AMPLIT PERI AZIMU VELO AIN AR TRES W  DIS CAZ7
 BAR2 EZ EP       1010 33.16                             175    0.0710 6.53  80 
 BAR2 EZ ES       1010 45.25                             175    0.0410 6.53  80 
 BAR2 EZ I        1010 47.07         9.2 0.30            167           6.53  80 
 BRR  HN ES       1010 49.94                             142   -0.1910 78.0 318 
 BRR  HZ I        1011  4.31        11.8 0.32            139           78.0 318 
 RUS  HZ EP   4   1010 37.24                             142    0.68 0 78.2 167 
 RUS  HN ES       1010 51.20                             142   -0.1910 78.2 167 
 PTB  HZ EP       1010 41.42                             125    0.6110  135 268 
 PTB  HE ES       1010 58.75                             125   -0.2110  135 268 
 PTB  HZ I        1011  4.30         3.0 0.11            129            135 268 
 ZAR  HZ EP   3   1010 46.12                             113   -2.14 2  205 299 
 ZAR  HE ES   4   1011  9.20                             113   -3.02 0  205 299 
 ZAR  HZ I        1011 15.49         2.8 0.34            116            205 299 
                                                                                
