 2012  5 4 1643 50.6 L   6.759 -73.121141.5  RSN  5 0.3 1.8LRSN                1
 GAP=142        0.83       8.3     7.5 11.2  0.3026E+02 -0.2689E+02 -0.5005E+02E
 Epicentro: LOS SANTOS - SANTANDER                                             3
 ACTION:UP  12-07-05 12:02 OP:pat  STATUS:               ID:20120504164350 L   I
 2012-05-04-1640-00M.COL___192                                                 6
 STAT SP IPHASW D HRMM SECON CODA AMPLIT PERI AZIMU VELO SNR AR TRES W  DIS CAZ7
 BAR2 SZ EP       1644  9.37                             172    -0.310   20 200 
 BAR2 SZ ES   1   1644 24.40                             172    -0.1 7   20 200 
 BAR2 SZ I        1644 25.38        13.4 0.22                            20 200 
 BRR  HZ EP   1   1644 12.29                             150     0.7 7   76 301 
 BRR  HE ES   1   1644 28.04                             150     0.1 7   76 301 
 BRR  HZ I        1644 32.58        25.4 0.08                            76 301 
 PAM  SZ EP       1644 12.41                             149    -0.110   79  36 
 RUS  HE ES   1   1644 31.63                             144     0.1 7   96 178 
 RUS  HZ I        1644 32.58         7.4 0.24                            96 178 
 ZAR  HE ES   1   1644 48.24                             121    -0.4 6  208 293 
                                                                                
