 2013  3 4 1147 44.3 L   6.764 -73.159141.3  RSN  8 0.5 1.9LRSN                1
 GAP=136        1.18       5.5     5.3  9.4  0.2665E+01  0.3169E+01 -0.3446E+01E
 Epicentro: LOS SANTOS - SANTANDER                                             3
 ACTION:UPD 13-04-09 13:59 OP:ep   STATUS:               ID:20130304114744 L   I
 2013-03-04-1138-48M.COL___193                                                 6
 STAT SP IPHASW D HRMM SECON CODA AMPLIT PERI AZIMU VELO AIN AR TRES W  DIS CAZ7
 BAR2 SZ IP       1148  3.23                             172   -0.1210 19.2 188 
 BRR  HZ EP       1148  5.31                             152    0.2610 71.9 302 
 BRR  HN ES       1148 21.92                             152    0.7210 71.9 302 
 BRR  HN I        1148 25.84        22.2 0.18            153           71.9 302 
 PAM  SZ IP     C 1148  6.27                             149   -0.0610 81.4  39 
 PAM  SZ I        1148  6.47         9.9 0.26            152           81.4  39 
 PAM  SN ES       1148 23.01                             149   -0.4710 81.4  39 
 RUS  HZ EP       1148  7.19                             144   -0.1810 96.8 175 
 RUS  HE ES       1148 25.77                             144    0.4310 96.8 175 
 RUS  HE I        1148 27.42        10.0 0.24            147           96.8 175 
 PTB  HN ES       1148 30.29                             132   -1.06 9  146 260 
 PTB  HN I        1148 33.09        14.9 0.22            134            146 260 
 ZAR  HN ES       1148 41.79                             121    0.18 9  204 293 
 CHI  HZ EP   2   1148 22.07                             117    0.74 4  244 195 
 SML  HZ EP       1148 21.20                             116    0.16 8  247 336 
                                                                                
