 2017  2 4 1346 25.8 L   6.777 -73.145149.5  RSN  7 0.4 1.8LRSN                1
 GAP=138        1.04       5.3     4.7  7.0  0.2621E+01  0.7998E+01 -0.1662E+01E
 Epicentro: LOS SANTOS - SANTANDER                                             3
 ACTION:UPD 17-05-24 15:32 OP:jn   STATUS:               ID:20170204134625 L   I
 OLDACT:UP  17-02-05 00:05 OP:ar   STATUS:               ID:20170204133742     3
 OLDACT:UP  17-02-05 00:04 OP:ar   STATUS:               ID:20170204133742     3
 OLDACT:UP  17-02-05 00:03 OP:ar   STATUS:               ID:20170204133742     3
 OLDACT:REG 17-02-04 21:11 OP:ar   STATUS:               ID:20170204133742     3
 2017-02-04-1338-00M.COL___340                                                 6
 STAT SP IPHASW D HRMM SECON CODA AMPLIT PERI AZIMU VELO AIN AR TRES W  DIS CAZ7
 BAR2 EZ IP     D 1346 45.68                             172   -0.1710 20.8 191 
 BAR2 EZ ES       1347  2.08                             172    0.6010 20.8 191 
 BAR2 EZ I        1347  4.43        13.5 0.32            168           20.8 191 
 BRR  HZ IP     D 1346 47.44                             153   -0.0010 72.5 300 
 BRR  HN ES       1347  4.53                             153    0.2210 72.5 300 
 PAM  EZ EP       1346 48.56                             151    0.0210 79.3  38 
 PAM  EN ES       1347  5.77                             151   -0.5010 79.3  38 
 PAM  EZ I        1347  6.39         6.8 0.16            155           79.3  38 
 RUS  HZ EP       1346 50.20                             145    0.4410 98.0 176 
 RUS  HN ES       1347  8.27                             145   -0.1610 98.0 176 
 RUS  HZ I        1347  9.23         6.9 0.54            143           98.0 176 
 PTB  HZ EP       1346 52.62                             133   -0.44 9  147 260 
 PTB  HN ES       1347 13.58                             133   -0.72 9  147 260 
 PTB  HZ I        1347 16.18        13.5 0.14            131            147 260 
 ZAR  HZ EP       1346 58.99                             123    0.37 9  205 293 
 ZAR  HN ES       1347 24.62                             123    0.42 9  205 293 
 ZAR  HZ I        1347 30.09        11.0 0.18            123            205 293 
 CHI  HN ES   4   1347 34.83                             118    2.01 0  246 195 
 CHI  HZ I        1347 40.95         2.9 0.36            117            246 195 
                                                                                
