 2013  5 4 1444  5.9 L   6.735 -73.190139.3  RSN  7 0.4 2.2LRSN                1
 GAP=134        0.81       4.2     5.0  8.9 -0.8284E+01  0.2075E+02 -0.7396E+01E
 Epicentro: VILLANUEVA - SANTANDER                                             3
 ACTION:UPD 13-06-20 09:47 OP:ep   STATUS:               ID:20130504144405 L   I
 2013-05-04-1440-00M.COL___253                                                 6
 STAT SP IPHASW D HRMM SECON CODA AMPLIT PERI AZIMU VELO AIN AR TRES W  DIS CAZ7
 BAR2 SZ EP   1   1444 24.77                             173    0.19 7 15.9 177 
 BAR2 SZ ES   1   1444 38.98                             173   -0.21 7 15.9 177 
 BAR2 SZ I        1444 41.31        22.4 0.24            172           15.9 177 
 BRR  HZ IP     C 1444 26.65                             151    0.3610 70.8 305 
 BRR  HE ES   4   1444 43.88                             151    1.65 0 70.8 305 
 BRR  HN I        1444 48.11        39.2 0.24            148           70.8 305 
 PAM  SZ EP   1   1444 27.52                             147   -0.43 7 86.0  39 
 PAM  SN ES       1444 44.95                             147   -0.2210 86.0  39 
 PAM  SN I        1444 45.88        14.5 0.48            152           86.0  39 
 RUS  HZ EP   1   1444 28.69                             144    0.19 7 94.0 173 
 RUS  HN ES   1   1444 46.59                             144    0.43 7 94.0 173 
 RUS  HN I        1444 47.84        18.0 0.38            151           94.0 173 
 PTB  HN ES   1   1444 52.32                             132    0.37 7  142 261 
 PTB  HN I        1444 57.77        15.4 0.12            132            142 261 
 NOR  HZ EP   4   1444 41.21                             118    0.86 0  227 235 
 NOR  HN ES       1445  6.53                             118   -0.71 8  227 235 
 NOR  HN I        1445 10.30        16.2 0.16            121            227 235 
 SML  HZ EP   4   1444 40.91                             115   -1.72 0  248 337 
 SML  HN ES   1   1445 11.49                             115    0.18 6  248 337 
 SML  HN I        1445 16.83        26.8 0.10            118            248 337 
                                                                                
