 2012  6 4 1121  1.6 L   6.778 -73.160138.6  RSN  8 0.4 2.0LRSN                1
 GAP=136        0.76       3.9     4.0  6.8 -0.9481E+00  0.1119E+02  0.2726E+01E
 Epicentro: LOS SANTOS - SANTANDER                                             3
 ACTION:UPD 12-08-06 17:47 OP:ep   STATUS:               ID:20120604112101 L   I
 2012-06-04-1120-00M.COL___201                                                 6
 STAT SP IPHASW D HRMM SECON CODA AMPLIT PERI AZIMU VELO AIN AR TRES W  DIS CAZ7
 BAR2 SZ EP   1   1121 20.40                             171    0.07 7 20.7 187 
 BAR2 SZ ES   1   1121 34.60                             171   -0.32 7 20.7 187 
 BAR2 SZ I        1121 36.38        26.2 0.13            168           20.7 187 
 PAM  SZ EP   1   1121 23.41                             148    0.16 7 80.3  39 
 PAM  SZ I        1121 23.74        15.1 0.27            152           80.3  39 
 PAM  SN ES   1   1121 40.37                             148    0.24 7 80.3  39 
 RUS  HZ EP   1   1121 24.32                             143   -0.17 7 98.3 175 
 RUS  HN ES   1   1121 42.54                             143    0.20 7 98.3 175 
 RUS  HZ I        1121 44.33        17.8 0.23            143           98.3 175 
 PTB  HZ EP   1   1121 27.24                             131   -0.57 7  146 260 
 PTB  HN ES   1   1121 48.07                             131   -0.18 7  146 260 
 PTB  HZ I        1121 50.61        16.7 0.15            130            146 260 
 ZAR  HZ EP   1   1121 34.39                             121    0.85 6  203 293 
 ZAR  HN ES   1   1121 57.84                             121   -0.60 6  203 293 
 ZAR  HZ I        1122  5.48         9.3 0.18            121            203 293 
 NOR  SZ EP   1   1121 36.30                             117   -0.34 6  232 235 
 NOR  SN ES   1   1122  4.54                             117    0.58 6  232 235 
 CHI  HZ EP   1   1121 38.16                             116   -0.46 6  246 195 
 CHI  HN ES   1   1122  7.60                             116    0.12 6  246 195 
 CHI  HZ I        1122 15.51         4.6 0.41            116            246 195 
 HEL  HN ES   1   1122 12.75                             113    0.62 6  270 256 
                                                                                
