 2010  5 4 1908 51.8 L   6.749 -73.034139.5  RSN 13 0.6 2.9LRSN                1
 GAP=150        1.31       8.0    11.9 11.5 -0.7074E+02 -0.5057E+02  0.4998E+02E
 Epicentro: CEPITA - SANTANDER                                                 3
 ACTION:UP  10-08-24 10:02 OP:vdl  STATUS:               ID:20100504190852dL   I
 2010-05-04-1907-18S.COL___105                                                 6
 STAT SP IPHASW D HRMM SECON CODA AMPLIT PERI AZIMU VELO SNR AR TRES W  DIS CAZ7
 BAR2 SZ EP       19 9 10.43                             169    -0.310   24 224 
 BAR2 SZ ES   2   19 9 25.16                             169    -0.3 5   24 224 
 BRR  HZ EP       19 9 12.92                             146    -0.210   85 298 
 BRR  HE ES   1   19 9 29.70                             146    -0.1 7   85 298 
 BRR  HZ I        19 9 33.94       140.5 0.15                            85 298 
 BRI  SZ IP       19 9 16.05                             139     0.810  110  14 
 GUE  SZ EP       19 9 15.27                             137    -1.010  120   6 
 GRA  SZ IP       19 9 17.29                             135     0.610  128  11 
 GRA  SZ ES       19 9 36.52                             135     0.410  128  11 
 OCA  SZ EP   2   19 9 18.87                             126    -1.5 5  168 349 
 OCA  SZ I        19 9 45.46       125.8 0.20                           168 349 
 CHI  HZ EP   1   19 9 28.97                             116     0.0 6  247 198 
 CHI  HN ES   2   19 9 57.63                             116    -0.3 4  247 198 
 ROSC BZ EP   2   19 9 30.48                             115     0.7 4  255 214 
 ROSC BZ I        1910  6.23        31.9 0.40                           255 214 
 HEL  HZ EP   2   19 9 32.61                             112    -0.3 4  283 258 
 RREF BZ EP   1   19 9 38.72                             109     0.4 5  328 232 
 RREF BN ES   2   1910 13.65                             109    -1.0 3  328 232 
 RREF BZ I        1910 20.41        22.9 0.31                           328 232 
 TOL  SZ IP       19 9 41.49                             108     1.1 6  348 227 
 TOL  SZ ES   2   1910 18.59                             108     0.3 3  348 227 
 SDV  BZ IP       19 9 40.14                             107    -0.8 6  355  48 
 PRA  HZ EP       19 9 45.18                             105    -0.1 6  393 212 
 PRA  HN ES       1910 26.65                             105    -0.3 6  393 212 
 PRA  HZ I        1910 31.48        26.8 0.29                           393 212 
                                                                                
