 2014 11 4 1716 16.1 L   6.785 -73.146142.6  RSN 14 0.4 2.5LRSN                1
 GAP=137        0.93       3.4     3.8  5.0 -0.2739E+01  0.5520E+01  0.4441E+01E
 Epicentro: LOS SANTOS - SANTANDER                                             3
 ACTION:UPD 14-12-19 15:39 OP:nd   STATUS:               ID:20141104171616 L   I
 OLDACT:UP  14-11-05 00:30 OP:cam  STATUS:               ID:20141104170748     3
 OLDACT:UP  14-11-05 00:30 OP:cam  STATUS:               ID:20141104170748     3
 OLDACT:REG 14-11-04 23:00 OP:cam  STATUS:               ID:20141104170748     3
 2014-11-04-1707-48M.COL___285                                                 6
 STAT SP IPHASW D HRMM SECON CODA AMPLIT PERI AZIMU VELO AIN AR TRES W  DIS CAZ7
 BAR2 SZ EP     D 1716 35.33                             171    0.0610 21.7 191 
 BAR2 SZ ES       1716 49.46                             171   -0.8010 21.7 191 
 BAR2 SZ I        1716 53.11        41.3 0.34            166           21.7 191 
 BRR  HZ EP     C 1716 37.07                             152    0.1610 72.0 300 
 BRR  HN ES       1716 53.95                             152    0.7710 72.0 300 
 BRR  HZ I        1716 54.54        60.9 0.32            152           72.0 300 
 PAM  SZ IP     D 1716 38.23                             150    0.2210 78.7  39 
 PAM  SE ES       1716 55.18                             150    0.0410 78.7  39 
 PAM  SZ I        1716 55.44        25.6 0.24            157           78.7  39 
 RUS  HZ EP     C 1716 39.43                             144    0.0510 98.9 176 
 RUS  HE ES       1716 57.64                             144    0.0710 98.9 176 
 RUS  HZ I        1717  0.25        25.6 0.22            142           98.9 176 
 PTB  HZ EP       1716 42.21                             131   -0.53 9  147 259 
 PTB  HN ES       1717  3.06                             131   -0.49 9  147 259 
 PTB  HN I        1717  8.05       121.4 0.42            131            147 259 
 SPBC HZ EP       1716 44.36                             128    0.17 9  162 219 
 SPBC HN ES       1717  6.39                             128    0.25 9  162 219 
 SPBC HZ I        1717 13.48        43.5 0.28            128            162 219 
 CHI  HZ EP       1716 53.79                             117    0.38 8  247 195 
 CHI  HN ES       1717 22.18                             117   -0.36 8  247 195 
 CHI  HZ I        1717 30.96        11.8 0.40            117            247 195 
 HEL  HZ EP       1716 55.49                             114   -0.58 8  272 256 
 HEL  HN ES       1717 27.42                             114    0.15 8  272 256 
 HEL  HZ I        1717 35.74        19.0 0.26            115            272 256 
 URE  HZ EP   4   1716 55.16                             113   -1.89 0  284 292 
 GUY2CHZ EP   4   1717  0.78                             112    1.37 0  300 235 
 GUY2CHE ES       1717 33.42                             112    0.19 7  300 235 
 GUY2CHZ I        1717 43.41        20.3 0.32                           300 235 
 DBB  SZ EP       1717  2.98                             109   -0.44 7  340 275 
 TOL  SZ EP   4   1717  5.21                             109    1.16 0  342 225 
 TOL  SN ES       1717 41.95                             109    0.46 7  342 225 
 TOL  SZ I        1717 49.12        38.0 0.42            110            342 225 
 MON  HZ EP   4   1717  2.66                             108   -2.40 0  355 309 
 MON  HN ES   4   1717 40.25                             108   -3.03 0  355 309 
 MON  HN I        1717 43.12        11.7 0.30            110            355 309 
 PRA  HZ EP       1717  9.00                             106   -0.30 6  391 210 
 PRA  HN ES       1717 51.19                             106    0.36 6  391 210 
 PRA  HZ I        1717 55.82        13.6 0.38            107            391 210 
 ORTC HZ EP       1717  9.96                             106    0.24 6  394 216 
 ORTC HE ES   4   1717 53.33                             106    1.76 0  394 216 
 ORTC HZ I        1717 58.02         8.8 0.34            107            394 216 
                                                                                
