 2016 10 4 1010 35.3 L   7.395 -73.196132.4  RSN  5 0.2 1.2LRSN                1
 GAP=183        0.51       3.9     2.3  4.1 -0.8464E+00  0.3475E+01 -0.4059E+01E
 Epicentro: EL PLAYON - SANTANDER                                              3
 ACTION:UPD 16-11-09 19:16 OP:rebc STATUS:               ID:20161004101035 L   I
 OLDACT:DUP 16-10-04 20:23 OP:lv   STATUS:               ID:20161004100749d    3
 2016-10-04-1008-00M.COL___366                                                 6
 STAT SP IPHASW D HRMM SECON CODA AMPLIT PERI AZIMU VELO AIN AR TRES W  DIS CAZ7
 PAM  EZ EP       1010 54.80                             156   -0.0310 55.1  96 
 PAM  EE ES       1011 10.20                             156    0.1310 55.1  96 
 PAM  EZ I        1011 14.83         2.9 0.44            159           55.1  96 
 BRR  HZ EP       1010 54.59                             152   -0.0610 65.3 241 
 BRR  HN ES       1011  9.60                             152   -0.1610 65.3 241 
 BRR  HZ I        1011 10.54         4.8 0.12            155           65.3 241 
 BAR2 EZ EP       1010 56.80                             144    0.2910 88.8 179 
 BAR2 EZ ES       1011 12.89                             144   -0.1810 88.8 179 
 BAR2 EZ I        1011 14.06         2.0 0.09            149           88.8 179 
 PTB  HZ EP       1011  3.06                             125   -0.15 9  168 236 
 PTB  HE ES       1011 25.22                             125    0.22 9  168 236 
 PTB  HZ I        1011 27.89         1.6 0.24            128            168 236 
 ZAR  HZ EP       1011  4.53                             122   -0.24 9  184 273 
 ZAR  HN ES       1011 27.95                             122    0.18 9  184 273 
 ZAR  HZ I        1011 31.31         2.3 0.33            125            184 273 
                                                                                
