 2013  1 4 1246  4.3 L   6.742 -73.175148.6  RSN  5 0.4 1.5LRSN                1
 GAP=230        0.73       8.1    10.0  9.5  0.6027E+02  0.2795E+02  0.2261E+02E
 Epicentro: VILLANUEVA - SANTANDER                                             3
 ACTION:UPD 13-02-15 09:12 OP:ep   STATUS:               ID:20130104124604 L   I
 2013-01-04-1240-00M.COL___241                                                 6
 STAT SP IPHASW D HRMM SECON CODA AMPLIT PERI AZIMU VELO AIN AR TRES W  DIS CAZ7
 BAR2 SZ EP   1   1246 24.05                             174   -0.10 7 16.6 183 
 BAR2 SZ ES   1   1246 39.32                             174   -0.31 7 16.6 183 
 BAR2 SZ I        1246 40.54        16.5 0.16            170           16.6 183 
 BRR  HN ES   1   1246 43.20                             153    0.67 7 71.7 304 
 RUS  HZ EP   1   1246 28.13                             146    0.23 7 94.5 174 
 RUS  HN ES   1   1246 46.08                             146   -0.23 7 94.5 174 
 RUS  HZ I        1246 47.85         3.1 0.22            146           94.5 174 
 ZAR  HE ES   1   1247  1.78                             123   -0.50 6  204 294 
 ZAR  HZ I        1247  7.32         2.2 0.28            121            204 294 
 CHI  HN ES   2   1247 10.70                             118    0.37 4  242 195 
                                                                                
