 2012  2 4 1548 32.2 L   6.776 -73.160142.8  RSN 18 0.4 3.5LRSN                1
 GAP=113        0.94       2.6     3.3  4.4  0.3632E+00  0.4117E+01  0.4454E+01E
 ACTION:UP  12-03-07 16:27 OP:epov STATUS:               ID:20120204154832 L   I
 2012-02-04-1544-38S.COL___161                                                 6
 STAT SP IPHASW D HRMM SECON CODA AMPLIT PERI AZIMU VELO SNR AR TRES W  DIS CAZ7
 BAR2 SZ IP       1548 51.49                             171    0.1210 20.4 187 
 BAR2 SZ ES       1549  6.21                             171   -0.1410 20.4 187 
 BAR2 SZ I        1549  7.59      1062.3 0.26                          20.4 187 
 GIR2 SZ IP       1548 51.52                             166   -0.0210 33.7 354 
 GIR2 SZ ES       1549  5.68                             166   -0.9810 33.7 354 
 BRR  HZ IP     C 1548 53.26                             152    0.2810 71.2 301 
 BRR  HZ I        1548 53.53      1611.5 0.16                          71.2 301 
 BRR  HN ES       1549 10.02                             152    0.8010 71.2 301 
 PAM  SZ EP       1548 54.39                             149    0.1510 80.4  39 
 PAM  SN ES       1549 11.17                             149   -0.2910 80.4  39 
 RUS  HZ EP       1548 55.40                             144   -0.0310 98.0 175 
 RUS  HN ES   1   1549 13.99                             144    0.41 7 98.0 175 
 RUS  HZ I        1549 15.32       373.0 0.26                          98.0 175 
 PTB  HZ EP       1548 58.09                             132   -0.61 9  146 260 
 PTB  HE ES   1   1549 19.06                             132   -0.34 7  146 260 
 OCA  SZ EP       1549  0.11                             128   -0.36 9  163 354 
 OCA  SZ ES       1549 23.37                             128    0.81 9  163 354 
 YOP  SZ EP       1549  2.14                             126    0.32 9  177 152 
 YOP  SN ES   1   1549 25.36                             126    0.41 7  177 152 
 YOP  SZ I        1549 27.12       198.1 0.27                           177 152 
 ZAR  HZ EP       1549  3.82                             122   -0.55 9  204 293 
 ZAR  HN ES       1549 29.40                             122   -0.09 9  204 293 
 ZAR  HZ I        1549 34.73       392.3 0.36                           204 293 
 NOR  SZ EP       1549  7.30                             118   -0.11 8  232 235 
 NOR  SN ES   1   1549 34.98                             118    0.07 6  232 235 
 CHI  HZ EP       1549  9.45                             117    0.09 8  246 195 
 CHI  HN ES   1   1549 38.33                             117   -0.05 6  246 195 
 CHI  HZ I        1549 42.33       238.4 0.24                           246 195 
 HEL  HZ EP       1549 12.34                             114    0.36 8  270 256 
 HEL  HN ES   1   1549 43.57                             114    0.53 6  270 256 
 HEL  HZ I        1549 51.07       166.6 0.27                           270 256 
 VIL  SZ EP       1549 15.05                             112   -0.06 7  300 191 
 VIL  SN ES   1   1549 48.10                             112   -0.50 5  300 191 
 VIL  SZ I        1550  0.02       127.4 0.56                           300 191 
 RREF HZ EP   1   1549 18.17                             110    0.33 5  319 230 
 RREF HN ES   1   1549 53.33                             110   -0.13 5  319 230 
 RREF HZ I        1550  4.40       180.2 0.33                           319 230 
 TOL  SZ EP       1549 20.14                             109    0.19 7  341 225 
 PRA  HZ EP       1549 25.38                             106    0.17 6  389 210 
 PRA  HN ES   1   1550  6.90                             106    0.31 4  389 210 
 SJA  SZ EP   1   1549 25.57                             106   -0.69 4  397 193 
 YOT  HZ EP   1   1549 33.98                             103   -0.79 4  469 229 
                                                                                
