 2017  5 4 1747 53.6 L   6.565 -73.445119.4  RSN 12 0.5 1.8LRSN                1
 GAP= 94        0.96       2.6     2.5  5.5  0.9637E+00  0.2226E+01  0.2097E+01E
 Epicentro: HATO - SANTANDER                                                   3
 ACTION:UPD 17-06-16 13:32 OP:jn   STATUS:               ID:20170504174753 L   I
 OLDACT:UP  17-05-04 21:13 OP:and  STATUS:               ID:20170504173743d    3
 OLDACT:UP  17-05-04 21:13 OP:and  STATUS:               ID:20170504173743d    3
 OLDACT:UP  17-05-04 21:12 OP:and  STATUS:               ID:20170504173743d    3
 OLDACT:UP  17-05-04 21:11 OP:and  STATUS:               ID:20170504173743d    3
 OLDACT:UP  17-05-04 21:10 OP:and  STATUS:               ID:20170504173743d    3
 OLDACT:UP  17-05-04 21:09 OP:and  STATUS:               ID:20170504173743d    3
 OLDACT:UP  17-05-04 21:09 OP:and  STATUS:               ID:20170504173743d    3
 OLDACT:UP  17-05-04 21:09 OP:and  STATUS:               ID:20170504173743d    3
 OLDACT:DUP 17-05-04 21:07 OP:and  STATUS:               ID:20170504173743d    3
 2017-05-04-1738-00M.COL___368                                                 6
 STAT SP IPHASW D HRMM SECON CODA AMPLIT PERI AZIMU VELO AIN AR TRES W  DIS CAZ7
 BRR  HZ EP       1748 11.38                             149   -0.3310 66.8 334 
 BRR  HN ES       1748 26.16                             149    0.3510 66.8 334 
 BRR  HZ I        1748 27.52        15.3 0.14            150           66.8 334 
 RUS  HZ EP       1748 13.29                             143   -0.3310 84.4 152 
 RUS  HN ES       1748 29.26                             143    0.0510 84.4 152 
 RUS  HZ I        1748 30.15         9.6 0.19            145           84.4 152 
 PTB  HZ IP   3   1748 13.80                             134   -1.39 2  112 269 
 PTB  HN ES       1748 32.07                             134    0.0510  112 269 
 PTB  HZ I        1748 39.18         8.4 0.26            135            112 269 
 PAM  EZ EP     C 1748 16.71                             132    0.2510  119  44 
 PAM  EN ES       1748 33.88                             132   -0.4010  119  44 
 PAM  EZ I        1748 37.47         4.1 0.20            136            119  44 
 SPBC HZ EP       1748 15.92                             131   -0.3310  122 215 
 SPBC HN ES       1748 33.60                             131   -0.3010  122 215 
 SPBC HZ I        1748 34.80        26.4 0.10            133            122 215 
 YPLC HZ EP       1748 21.41                             120   -0.03 9  175 138 
 YPLC HE ES       1748 43.75                             120    0.60 9  175 138 
 YPLC HZ I        1748 45.31        15.6 0.32            123            175 138 
 ZAR  HZ EP       1748 23.03                             118    0.41 9  187 303 
 ZAR  HN ES       1748 45.42                             118    0.18 9  187 303 
 ZAR  HZ I        1748 48.69        10.8 0.31            120            187 303 
 NOR  HZ EP       1748 23.75                             117    0.44 9  193 235 
 NOR  HN ES       1748 46.00                             117   -0.46 9  193 235 
 NOR  HZ I        1748 48.98         6.7 0.30            119            193 235 
 CHI  HZ EP   2   1748 27.41                             115    1.04 4  216 188 
 CHI  HN ES       1748 52.44                             115    0.53 8  216 188 
 CHI  HZ I        1748 57.72         3.5 0.19            117            216 188 
 HEL  HZ EP       1748 28.84                             112    0.53 8  234 260 
 HEL  HN ES   2   1748 54.88                             112   -0.49 4  234 260 
 HEL  HZ I        1749  1.49         3.8 0.22            114            234 260 
 PTGC HZ EP       1748 34.33                             107   -1.00 7  299 151 
 DBB  EZ EP       1748 36.59                             106   -0.06 7  310 279 
 DBB  EN ES       1749  9.91                             106   -0.30 7  310 279 
 DBB  EZ I        1749 12.07         3.3 0.18            108            310 279 
 SJC  HZ EP   4   1748 46.70                             101   -2.44 0  415 333 
 SJC  HN ES   4   1749 27.52                             101   -4.93 0  415 333 
                                                                                
