 2013 12 4 1053  0.2 L   6.779 -73.197138.2  RSN  4 0.2 1.3LRSN                1
 GAP=239        0.59       9.8     6.9 11.2  0.5801E+02 -0.3960E+02 -0.7309E+02E
 Epicentro: ZAPATOCA - SANTANDER                                               3
 ACTION:UPD 14-01-13 10:15 OP:ep   STATUS:               ID:20131204105300 L   I
 OLDACT:REG 13-12-04 14:14 OP:cam  STATUS:               ID:20131204105000     3
 2013-12-04-1050-00M.COL___285                                                 6
 STAT SP IPHASW D HRMM SECON CODA AMPLIT PERI AZIMU VELO AIN AR TRES W  DIS CAZ7
 BAR2 SZ EP   2   1053 18.86                             171   -0.02 5 20.7 176 
 RUS  HZ EP       1053 23.40                             143    0.3110 98.8 173 
 RUS  HN ES       1053 40.76                             143   -0.1810 98.8 173 
 RUS  HZ I        1053 42.46         2.1 0.24            141           98.8 173 
 PTB  HZ EP       1053 25.69                             131   -0.33 9  142 259 
 PTB  HN ES       1053 46.33                             131    0.18 9  142 259 
 PTB  HZ I        1053 48.79         3.9 0.16            130            142 259 
 ZAR  HN ES       1053 56.30                             121   -0.00 9  200 293 
                                                                                
