 2011 12 4 1016 21.8 L   6.780 -73.150142.6  RSN 13 0.3 2.5LRSN                1
 GAP=114        0.62       2.4     3.4  3.5 -0.2707E+01  0.2601E+01  0.2010E+01E
 Epicentro: LOS SANTOS - SANTANDER                                             3
 ACTION:UPD 12-07-13 16:14 OP:ep   STATUS:               ID:20111204101621 L   I
 2011-12-04-1010-00M.COL___183                                                 6
 STAT SP IPHASW D HRMM SECON CODA AMPLIT PERI AZIMU VELO AIN AR TRES W  DIS CAZ7
 BAR2 SZ IP       1016 40.99                             171   -0.0210 21.1 190 
 BAR2 SZ I        1016 41.54        79.3 0.17                          21.1 190 
 BAR2 SZ ES   1   1016 55.78                             171   -0.21 7 21.1 190 
 GIR2 SZ EP       1016 40.98                             166   -0.1810 33.4 352 
 GIR2 SZ ES       1016 55.94                             166   -0.3210 33.4 352 
 BRR  HZ IP     C 1016 42.81                             152    0.1610 71.9 300 
 BRR  HN ES   1   1016 59.80                             152    0.89 7 71.9 300 
 BRR  HZ I        1017  0.53        74.2 0.10                          71.9 300 
 PAM  SZ EP       1016 43.74                             150   -0.0610 79.3  39 
 PAM  SN ES   1   1017  0.90                             150   -0.06 7 79.3  39 
 PAM  SZ I        1017  1.43        26.5 0.29                          79.3  39 
 RUS  HZ EP       1016 45.02                             144   -0.0710 98.4 176 
 RUS  HZ I        1016 46.18        31.4 0.18                          98.4 176 
 RUS  HN ES   1   1017  3.63                             144    0.38 7 98.4 176 
 BRI  SZ EP   1   1016 45.61                             140    0.04 7  111  21 
 OCA  SZ EP       1016 50.48                             128    0.41 9  162 353 
 OCA  SZ ES   1   1017 11.64                             128   -0.48 7  162 353 
 OCA  SZ I        1017 15.04        46.9 0.27                           162 353 
 YOP  SZ EP   1   1016 51.67                             126    0.22 7  177 153 
 YOP  SZ I        1017 17.95        25.1 0.36                           177 153 
 NOR  SZ EP       1016 56.94                             118   -0.24 8  233 235 
 NOR  SE ES       1017 24.57                             118   -0.20 8  233 235 
 CHI  HZ EP   1   1016 59.25                             117    0.16 6  246 195 
 CHI  HZ I        1017 35.86        16.7 0.56                           246 195 
 HEL  HZ EP       1017  1.68                             114   -0.07 8  271 256 
 HEL  HZ I        1017 39.44        23.3 0.30                           271 256 
 RREF HZ EP   1   1017  7.71                             110    0.10 5  320 230 
 RREF HN ES   2   1017 43.00                             110   -0.34 3  320 230 
 RREF HZ I        1017 55.32        20.9 0.25                           320 230 
 PRA  HZ EP       1017 14.98                             106    0.01 6  390 210 
 PRA  HE ES       1017 56.39                             106   -0.05 6  390 210 
                                                                                
