 2013  1 4 1145  5.3 L   6.723 -73.192141.6  RSN  5 0.4 1.3LRSN                1
 GAP=226        0.71       7.9     7.0  8.1  0.3690E+02  0.1566E+02  0.1071E+02E
 Epicentro: VILLANUEVA - SANTANDER                                             3
 ACTION:UPD 13-02-15 09:12 OP:ep   STATUS:               ID:20130104114505 L   I
 2013-01-04-1140-00M.COL___241                                                 6
 STAT SP IPHASW D HRMM SECON CODA AMPLIT PERI AZIMU VELO AIN AR TRES W  DIS CAZ7
 BAR2 SZ EP   1   1145 24.34                             174    0.06 7 14.5 176 
 BAR2 SZ ES   1   1145 38.44                             174   -0.65 7 14.5 176 
 BRR  HN ES   1   1145 42.61                             152    0.43 7 71.5 307 
 RUS  HZ EP   1   1145 28.16                             145    0.09 7 92.6 173 
 RUS  HN ES   1   1145 46.25                             145    0.41 7 92.6 173 
 RUS  HZ I        1145 48.23         1.8 0.28            137           92.6 173 
 PTB  HZ EP   1   1145 30.97                             132   -0.37 7  141 262 
 PTB  HN ES   1   1145 51.52                             132   -0.14 7  141 262 
 PTB  HZ I        1146  0.21         2.5 0.30            125            141 262 
 ZAR  HE ES   1   1146  2.50                             122    0.16 6  203 295 
 ZAR  HZ I        1146  5.37         2.8 0.12            119            203 295 
                                                                                
