 2015  4 4 1728  4.8 L   6.799 -73.171138.5  RSN  6 0.4 1.4LRSN                1
 GAP=133        1.02       4.6     4.8  7.7 -0.5044E+00  0.1407E+02  0.1574E+01E
 Epicentro: LOS SANTOS - SANTANDER                                             3
 ACTION:UPD 15-06-03 16:52 OP:cam  STATUS:               ID:20150404172804 L   I
 OLDACT:REG 15-04-05 00:49 OP:fm   STATUS:               ID:20150404171748     3
 2015-04-04-1717-48M.COL___285                                                 6
 STAT SP IPHASW D HRMM SECON CODA AMPLIT PERI AZIMU VELO AIN AR TRES W  DIS CAZ7
 BAR2 EZ EP   1   1728 23.91                             170    0.33 7 22.9 183 
 BAR2 EZ ES   1   1728 38.92                             170    0.72 7 22.9 183 
 BAR2 EZ I        1728 41.52         4.3 0.26            169           22.9 183 
 BRR  HZ EP   1   1728 25.50                             152    0.43 7 68.8 300 
 BRR  HN ES       1728 41.21                             152    0.3710 68.8 300 
 BRR  HZ I        1728 46.33         8.8 0.28            151           68.8 300 
 PAM  SZ EP       1728 25.97                             149   -0.4310 79.2  41 
 PAM  SN ES       1728 42.91                             149   -0.3110 79.2  41 
 PAM  SZ I        1728 45.69         3.6 0.56            155           79.2  41 
 RUS  HZ EP   1   1728 28.22                             142    0.33 7  101 174 
 RUS  HN ES       1728 45.45                             142   -0.4210  101 174 
 RUS  HZ I        1728 49.26         2.8 0.38            146            101 174 
 ZAR  HZ EP       1728 36.90                             121    0.34 9  202 292 
 ZAR  HN ES       1729  0.72                             121   -0.58 9  202 292 
 ZAR  HZ I        1729  7.70         5.6 0.36            123            202 292 
 NOR  HZ EP   1   1728 40.52                             117    0.61 6  232 234 
 NOR  HN ES       1729  6.83                             117   -0.43 8  232 234 
 NOR  HZ I        1729 13.83         2.0 0.18            120            232 234 
                                                                                
