 2013  6 4 1417 53.7 L   6.812 -73.163145.0  RSN  4 0.2 1.7LRSN                1
 GAP=209        0.62       4.2     5.0  5.9 -0.7197E+00  0.5594E+01 -0.1212E+02E
 Epicentro: LOS SANTOS - SANTANDER                                             3
 ACTION:UPD 14-01-08 09:52 OP:ep   STATUS:               ID:20130604141753 L   I
 2013-06-04-1410-00M.COL___257                                                 6
 STAT SP IPHASW D HRMM SECON CODA AMPLIT PERI AZIMU VELO AIN AR TRES W  DIS CAZ7
 BAR2 SZ EP       1418 12.86                             170   -0.3810 24.3 185 
 BAR2 SZ ES       1418 28.60                             170    0.1010 24.3 185 
 BAR2 SZ I        1418 30.64         4.9 0.18            170           24.3 185 
 BRR  HZ EP       1418 15.06                             153    0.4410 68.9 298 
 BRR  HZ I        1418 29.19         8.3 0.40            153           68.9 298 
 BRR  HN ES   2   1418 30.87                             153   -0.08 5 68.9 298 
 PTB  HZ EP       1418 20.47                             132    0.03 9  146 258 
 PTB  HN ES       1418 41.19                             132   -0.12 9  146 258 
 PTB  HZ I        1418 44.14         5.1 0.12            131            146 258 
 SML  HZ EP       1418 30.12                             117    0.06 8  242 336 
 SML  HN ES       1418 58.27                             117   -0.15 8  242 336 
 SML  HZ I        1419  1.78         8.6 0.10            116            242 336 
                                                                                
