 2014  5 4 1212 21.1 L   6.858 -73.165139.8  RSN 19 0.5 2.7LRSN                1
 GAP= 69        0.98       3.0     3.0  6.1 -0.7639E+00  0.5518E+01  0.1512E+01E
 Epicentro: LOS SANTOS - SANTANDER                                             3
 OLDACT:REG 14-05-04 19:58 OP:spq  STATUS:               ID:20140504121000     3
 ACTION:UPD 15-03-16 16:55 OP:nd   STATUS:               ID:20140504121221 L   I
 OLDACT:UP  14-05-04 23:37 OP:spq  STATUS:               ID:20140504121000     3
 2014-05-04-1210-00M.COL___273                                                 6
 STAT SP IPHASW D HRMM SECON CODA AMPLIT PERI AZIMU VELO AIN AR TRES W  DIS CAZ7
 PAM  SZ EP       1212 42.89                             151    0.3810 74.0  44 
 PAM  SE ES       1212 59.55                             151    0.3710 74.0  44 
 PAM  SZ I        1213  1.77        85.3 0.26            158           74.0  44 
 RUS  HZ EP   1   1212 45.06                             141    0.26 7  107 175 
 RUS  HE ES   1   1213  2.65                             141   -0.61 7  107 175 
 PTB  HZ EP       1212 47.02                             131   -0.53 9  147 256 
 PTB  HE ES       1213  8.04                             131   -0.12 9  147 256 
 PTB  SZ I        1213  9.87        48.7 0.18            131            147 256 
 TAM  HZ EP       1212 48.76                             128    0.06 9  159 107 
 TAM  HN ES   1   1213  9.88                             128   -0.33 7  159 107 
 SPBC HZ EP       1212 49.62                             127    0.08 9  167 217 
 SPBC HE ES       1213 11.20                             127   -0.50 9  167 217 
 SPBC SZ I        1213 21.15        33.6 0.22            128            167 217 
 ZAR  HZ EP       1212 52.47                             122   -0.27 9  200 291 
 ZAR  HN ES       1213 18.13                             122    0.73 9  200 291 
 ZAR  SZ I        1213 23.73        86.0 0.28            123            200 291 
 SML  HZ EP       1212 55.98                             117   -0.71 8  237 335 
 SML  HN ES   1   1213 23.85                             117   -0.58 6  237 335 
 SML  SZ I        1213 34.19        46.8 0.08            120            237 335 
 NOR  HZ EP       1212 56.96                             117    0.21 8  237 233 
 NOR  HN ES       1213 25.21                             117    0.68 8  237 233 
 NOR  SZ I        1213 31.54        32.1 0.18            119            237 233 
 CHI  HZ EP       1212 59.26                             115    0.13 8  254 194 
 CHI  HN ES   1   1213 28.03                             115   -0.74 6  254 194 
 CHI  SZ I        1213 35.84        20.4 0.80            118            254 194 
 ROSC BZ EP   4   1213  1.07                             115    1.65 0  257 210 
 ROSC BE ES   4   1213 27.07                             115   -2.22 0  257 210 
 ROSC SZ I        1213 36.52        39.5 0.45            117            257 210 
 HEL  HZ EP       1213  1.66                             114    0.66 8  272 254 
 HEL  HE ES   1   1213 32.15                             114    0.05 6  272 254 
 HEL  SZ I        1213 39.16        30.5 0.54            115            272 254 
 URE  HZ EP       1213  0.61                             113   -0.82 7  280 291 
 URE  HE ES   4   1213 30.87                             113   -1.99 0  280 291 
 URE  SZ I        1213 39.97        30.4 0.40            115            280 291 
 VIL  SZ EP   1   1213  5.68                             110    0.73 5  309 191 
 VIL  SN ES   1   1213 39.51                             110    0.37 5  309 191 
 VIL  SZ I        1213 43.53        26.9 0.70            113            309 191 
 CBOC HZ EP       1213  8.50                             109    0.69 7  334 251 
 CBOC HE ES   1   1213 44.06                             109   -0.16 5  334 251 
 CBOC SZ I        1213 55.97         9.1 0.82            111            334 251 
 DBB  SZ EP   1   1213  7.55                             108   -0.53 5  337 273 
 DBB  SZ ES   4   1213 41.74                             108   -2.96 0  337 273 
 TOL  SZ EP   1   1213  9.75                             108    0.23 5  347 224 
 TOL  SZ ES   2   1213 47.36                             108    0.10 3  347 224 
 TOL  SZ I        1213 55.41        11.2 0.50            110            347 224 
 SDV  BZ EP   4   1213  9.17                             107   -1.49 0  358  51 
 SDV  BE ES   4   1213 42.64                             107   -6.66 0  358  51 
 SDV  SZ I        1213 48.34        13.2 0.30            111            358  51 
 ORTC HZ EP       1213 15.67                             105    0.35 6  399 215 
 ORTC HE ES   1   1213 56.66                             105   -0.93 4  399 215 
 ORTC SZ I        1214  4.68        16.8 0.68            107            399 215 
 SJC  HZ EP   4   1213 13.82                             105   -1.91 0  403 327 
 SJC  HN ES   4   1213 54.84                             105   -3.48 0  403 327 
 SJC  SZ I        1213 58.50        11.8 0.62            107            403 327 
                                                                                
