 2012 10 4 1409 14.8 L   6.728 -73.131142.0  RSN  7 0.5 2.2LRSN                1
 GAP=142        1.21       5.4    11.5  9.9 -0.1798E+02  0.3220E+01  0.7138E+01E
 Epicentro: JORDAN - SANTANDER                                                 3
 ACTION:UPD 12-11-22 17:01 OP:ep   STATUS:               ID:20121004140914 L   I
 2012-10-04-1408-19M.COL___195                                                 6
 STAT SP IPHASW D HRMM SECON CODA AMPLIT PERI AZIMU VELO AIN AR TRES W  DIS CAZ7
 BAR2 SZ EP       14 9 33.49                             173   -0.3610 16.0 201 
 BAR2 SZ ES   1   14 9 48.63                             173   -0.08 7 16.0 201 
 BAR2 SZ I        14 9 51.15        41.1 0.26                          16.0 201 
 GIR2 SZ EP       14 9 33.74                             164   -0.5410 39.4 350 
 BRR  HZ EP       14 9 35.57                             150   -0.3010 76.6 303 
 BRR  HN ES   1   14 9 52.56                             150    0.26 7 76.6 303 
 BRR  HN I        14 9 55.42        77.6 0.44                          76.6 303 
 PAM  SE ES   1   14 9 53.48                             148   -0.75 7 82.7  35 
 PAM  SN I        14 9 53.95        36.8 0.40                          82.7  35 
 RUS  HZ EP       14 9 37.38                             145   -0.2310 92.5 177 
 RUS  HN ES   1   14 9 56.04                             145    0.64 7 92.5 177 
 RUS  HN I        14 9 56.67         7.0 0.38                          92.5 177 
 GRA  SZ EP       14 9 41.30                             134    0.9810  133  16 
 GRA  SZ ES   1   1410  0.87                             134    0.64 7  133  16 
 GRA  SZ I        1410  2.14        21.7 0.42                           133  16 
 CHI  HZ EP   1   14 9 51.24                             117   -0.26 6  241 196 
 CHI  HN ES   1   1410 20.86                             117    0.73 6  241 196 
 CHI  HN I        1410 24.70        16.7 0.22                           241 196 
                                                                                
