 2012  2 4 1652 10.0 L   6.762 -73.130145.3  RSN 12 0.4 2.2LRSN                1
 GAP=140        0.77       3.1     3.7  4.9 -0.1700E+01  0.4946E+01  0.9350E+00E
 ACTION:UP  12-03-07 16:27 OP:epov STATUS:               ID:20120204165210 L   I
 2012-02-04-1650-00M.COL___188                                                 6
 STAT SP IPHASW D HRMM SECON CODA AMPLIT PERI AZIMU VELO SNR AR TRES W  DIS CAZ7
 BAR2 SZ EP       1652 29.64                             172    0.1810 19.7 197 
 BAR2 SZ ES       1652 44.17                             172   -0.5110 19.7 197 
 BAR2 SZ I        1652 51.22        43.1 0.54                          19.7 197 
 GIR2 SZ EP       1652 29.73                             165    0.0310 35.7 349 
 BRR  HZ EP       1652 31.47                             151    0.2110 74.7 301 
 BRR  HZ I        1652 31.79        87.4 0.18                          74.7 301 
 BRR  HE ES   1   1652 48.79                             151    0.92 7 74.7 301 
 PAM  SZ EP       1652 32.40                             150    0.1410 79.6  37 
 PAM  SN ES       1652 49.88                             150    0.2310 79.6  37 
 RUS  HZ EP       1652 33.34                             145   -0.0210 96.3 177 
 RUS  HN ES   1   1652 51.49                             145   -0.12 7 96.3 177 
 RUS  HZ I        1652 54.05        13.9 0.47                          96.3 177 
 PTB  HZ EP   1   1652 36.54                             132   -0.43 7  149 261 
 PTB  HN ES   1   1652 57.68                             132   -0.36 7  149 261 
 OCA  SZ EP       1652 38.15                             129   -0.49 9  165 353 
 OCA  SZ ES   1   1653  0.84                             129   -0.17 7  165 353 
 ZAR  HZ EP   2   1652 41.98                             122   -0.72 4  207 293 
 ZAR  HE ES   1   1653  7.87                             122   -0.36 6  207 293 
 ZAR  HZ I        1653 14.79        17.1 0.32                           207 293 
 NOR  SZ EP   1   1652 45.51                             118   -0.04 6  234 236 
 CHI  HZ EP   2   1652 47.39                             117    0.15 4  245 196 
 CHI  HE ES   2   1653 16.29                             117   -0.03 4  245 196 
 CHI  HZ I        1653 24.81         4.1 0.26                           245 196 
 HEL  HZ EP   2   1652 51.08                             115    0.86 4  273 257 
 HEL  HN ES   1   1653 22.22                             115    0.60 6  273 257 
 HEL  HZ I        1653 28.71         9.3 0.55                           273 257 
 PRA  HZ EP   1   1653  3.72                             107    0.59 4  389 210 
 PRA  HN ES   2   1653 44.53                             107   -0.08 3  389 210 
                                                                                
