 2016  8 4 1336 28.5 L   6.786 -73.095143.3  RSN  8 0.3 1.8LRSN                1
 GAP=144        0.60       2.7     2.8  3.8  0.1173E+00  0.4685E+01  0.1054E+01E
 Epicentro: LOS SANTOS - SANTANDER                                             3
 ACTION:UPD 16-10-29 15:32 OP:rebc STATUS:               ID:20160804132745 L   I
 OLDACT:UP  16-08-04 22:53 OP:edw  STATUS:               ID:20160804132745 L   3
 OLDACT:UP  16-08-04 22:50 OP:edw  STATUS:               ID:20160804132745 L   3
 OLDACT:UP  16-08-04 22:48 OP:edw  STATUS:               ID:20160804132745 L   3
 OLDACT:UPD 16-08-04 20:42 OP:AR   STATUS:               ID:20160804132745 L   3
 2016-08-04-1328-00M.COL___329                                                 6
 STAT SP IPHASW D HRMM SECON CODA AMPLIT PERI AZIMU VELO AIN AR TRES W  DIS CAZ7
 BAR2 EZ EP       1336 47.41                             170   -0.4110 23.5 204 
 BAR2 EZ ES       1337  2.88                             170   -0.0210 23.5 204 
 PAM  EZ EP       1336 50.44                             151    0.1310 75.2  35 
 PAM  EE ES       1337  7.45                             151    0.1210 75.2  35 
 PAM  EZ I        1337  9.11        13.3 0.74                          75.2  35 
 BRR  HZ EP       1336 49.50                             150   -0.2010 76.9 298 
 BRR  HZ I        1337  4.74         6.7 0.42                          76.9 298 
 BRR  HN ES       1337  6.49                             150    0.2410 76.9 298 
 RUS  HZ EP       1336 51.90                             144    0.0310 98.8 179 
 RUS  HN ES       1337 10.11                             144    0.0110 98.8 179 
 RUS  HZ I        1337 10.79         5.3 0.20                          98.8 179 
 SPBC HZ EP   2   1336 56.47                             128   -0.56 5  166 221 
 SPBC HN ES   2   1337 19.20                             128   -0.09 5  166 221 
 ZAR  HZ EP       1337  1.62                             121    0.24 8  210 292 
 ZAR  HN ES       1337 26.63                             121   -0.40 8  210 292 
 ZAR  HZ I        1337 32.17        12.4 0.30                           210 292 
 NOR  HN ES   4   1337 31.81                             117   -0.74 0  238 236 
 GUY2CHZ EP       1337 12.94                             112    0.53 7  305 236 
 GUY2CHN ES   2   1337 46.94                             112    0.28 4  305 236 
 GUY2CHZ I        1337 54.02         4.0 0.32                           305 236 
 CBOC HZ EP       1337 15.67                             109   -0.19 7  339 253 
 CBOC HN ES       1337 53.10                             109    0.28 7  339 253 
 CBOC HZ I        1338  1.98         1.7 0.32                           339 253 
                                                                                
