 2015  5 4 1941 57.4 L   6.777 -73.076146.7  RSN  4 0.2 1.8LRSN                1
 GAP=147        0.57       3.0     4.6  4.6 -0.3915E+00 -0.1485E+01  0.5219E+00E
 Epicentro: LOS SANTOS - SANTANDER                                             3
 ACTION:UPD 15-09-10 22:01 OP:cam  STATUS:               ID:20150504194157 L   I
 OLDACT:REG 15-05-04 22:34 OP:stll STATUS:               ID:20150504193750     3
 2015-05-04-1937-50M.COL___274                                                 6
 STAT SP IPHASW D HRMM SECON CODA AMPLIT PERI AZIMU VELO AIN AR TRES W  DIS CAZ7
 BAR2 EZ EP       1942 16.89                             170   -0.2610 23.6 210 
 BAR2 EZ ES       1942 32.35                             170   -0.2110 23.6 210 
 BAR2 EZ I        1942 33.30         9.1 0.42            170           23.6 210 
 PAM  SZ EP       1942 19.79                             152    0.2310 74.8  34 
 PAM  SZ I        1942 20.07        15.4 0.22            152           74.8  34 
 PAM  SN ES       1942 36.82                             152   -0.0310 74.8  34 
 BRR  HZ EP       1942 18.89                             150   -0.2310 79.2 297 
 BRR  HZ I        1942 19.20        21.9 0.24            151           79.2 297 
 BRR  HN ES       1942 36.31                             150    0.2510 79.2 297 
 RUS  HZ EP       1942 21.18                             145    0.1310 97.8 180 
 RUS  HN ES       1942 39.62                             145    0.1210 97.8 180 
 RUS  HZ I        1942 40.86         4.8 0.26            144           97.8 180 
                                                                                
