 2012  2 4 1131 21.7 L   6.688 -73.184138.1  RSN  5 0.3 1.7LRSN                1
 GAP=181        0.45       7.4     3.9  6.7  0.2861E+01  0.1605E+01 -0.1331E+02E
 ACTION:UP  12-03-07 16:27 OP:epov STATUS:               ID:20120204113121 L   I
 2012-02-04-1130-00M.COL___187                                                 6
 STAT SP IPHASW D HRMM SECON CODA AMPLIT PERI AZIMU VELO SNR AR TRES W  DIS CAZ7
 BAR2 SZ EP   2   1131 39.84                             175   -0.40 5 10.5 179 
 BAR2 SZ ES   2   1131 54.96                             175    0.28 5 10.5 179 
 BAR2 SZ I        1131 56.61         9.6 0.24                          10.5 179 
 GIR2 SZ EP   1   1131 40.73                             162   -0.17 7 43.3 359 
 BRR  HZ EP       1131 42.35                             150    0.0910 74.6 308 
 BRR  HN ES   2   1131 58.37                             150    0.10 5 74.6 308 
 BRR  HZ I        1132  1.66        12.6 0.24                          74.6 308 
 PTB  HZ EP   2   1131 47.59                             131    0.07 5  142 263 
 PTB  HN ES   1   1132  7.58                             131   -0.06 7  142 263 
 ZAR  HZ EP   2   1131 54.50                             120    0.68 4  205 296 
 ZAR  HN ES   1   1132 18.61                             120   -0.23 6  205 296 
 ZAR  HZ I        1132 22.27         3.6 0.27                           205 296 
                                                                                
