 2017  7 4 1025 25.7 L   6.800 -73.176145.7  RSN 16 0.4 2.3LRSN                1
 GAP=102        1.07       4.1     2.9  6.0  0.6243E+00  0.2763E+01  0.5815E+01E
 Epicentro: LOS SANTOS - SANTANDER                                             3
 ACTION:UPD 17-08-30 15:29 OP:rebc STATUS:               ID:20170704102525 L   I
 OLDACT:UP  17-07-05 00:07 OP:ar   STATUS:               ID:20170704101737     3
 OLDACT:UP  17-07-05 00:03 OP:ar   STATUS:               ID:20170704101737     3
 OLDACT:UP  17-07-05 00:02 OP:ar   STATUS:               ID:20170704101737     3
 OLDACT:UP  17-07-04 23:55 OP:ar   STATUS:               ID:20170704101737     3
 OLDACT:REG 17-07-04 21:34 OP:ar   STATUS:               ID:20170704101737     3
 2017-07-04-1018-00M.COL___374                                                 6
 STAT SP IPHASW D HRMM SECON CODA AMPLIT PERI AZIMU VELO AIN AR TRES W  DIS CAZ7
 BAR2 EZ IP     C 1025 45.02                             171   -0.2410 23.0 182 
 BAR2 EZ ES       1025 59.91                             171   -0.6510 23.0 182 
 BAR2 EZ I        1026  1.14        95.6 0.30            169           23.0 182 
 BRR  HZ IP     C 1025 46.80                             153    0.1810 68.3 300 
 BRR  HN ES       1026  4.02                             153    1.0410 68.3 300 
 BRR  HZ I        1026  7.03        30.2 0.30            152           68.3 300 
 PAM  EZ EP       1025 48.03                             150    0.0410 79.6  41 
 PAM  EN ES       1026  5.22                             150   -0.1910 79.6  41 
 PAM  EZ I        1026  7.14        42.2 0.54            153           79.6  41 
 PTB  HZ EP       1025 51.81                             133   -0.50 9  144 259 
 PTB  HN ES       1026 12.81                             133   -0.29 9  144 259 
 PTB  HZ I        1026 18.28        20.9 0.14            132            144 259 
 TAM  HZ IP     D 1025 53.44                             130   -0.18 9  158 105 
 TAM  HN ES       1026 15.26                             130   -0.18 9  158 105 
 SPBC HZ EP       1025 54.13                             129    0.19 9  161 218 
 SPBC HN ES       1026 16.05                             129    0.05 9  161 218 
 SPBC HZ I        1026 21.47        33.8 0.24            129            161 218 
 YPLC HZ IP     D 1025 55.47                             126   -0.13 9  178 150 
 YPLC HE ES       1026 19.82                             126    0.87 9  178 150 
 YPLC HZ I        1026 22.13        13.6 0.28            127            178 150 
 ZAR  HZ EP       1025 57.73                             123   -0.04 9  201 293 
 ZAR  HE ES       1026 23.05                             123    0.23 9  201 293 
 ZAR  HZ I        1026 29.38        26.2 0.40            123            201 293 
 NOR  HZ EP       1026  1.14                             119    0.06 8  232 234 
 NOR  HN ES       1026 28.57                             119   -0.14 8  232 234 
 NOR  HZ I        1026 35.28        11.0 0.24            118            232 234 
 ROSC BZ EP   4 D 1026  5.72                             117    2.15 0  251 210 
 ROSC BN ES   4   1026 36.96                             117    3.81 0  251 210 
 ROSC BZ I        1026 38.82        17.4 0.35            117            251 210 
 HEL  HZ EP   4   1026  7.40                             115    1.91 0  269 256 
 HEL  HN ES       1026 35.97                             115   -0.60 8  269 256 
 URE  HZ EP   4   1026  9.52                             114    3.16 0  281 292 
 URE  HE ES   4   1026 36.31                             114   -1.81 0  281 292 
 URE  HZ I        1026 38.91        13.0 0.18            114            281 292 
 GUY2CHZ EP   4   1026 11.36                             112    2.42 0  298 234 
 GUY2CHN ES   4   1026 46.15                             112    3.44 0  298 234 
 GUY2CHZ I        1026 53.40         7.3 0.36                           298 234 
 PTGC HZ EP   9   1026  8.23                             111   -1.41 0  310 158 
 PTGC HN ES       1026 42.11                             111   -0.43 7  310 158 
 PTGC HZ I        1026 45.32         8.1 0.40            112            310 158 
 ORTC HZ EP       1026 20.20                             106    0.87 6  393 216 
 ORTC HE ES   4   1027  3.22                             106    2.02 0  393 216 
 ORTC HZ I        1027  6.41         5.4 0.22            107            393 216 
 SJC  HZ EP   4   1026 19.30                             106   -1.69 0  407 327 
 SJC  HN ES   4   1027  0.00                             106   -4.16 0  407 327 
 SJC  HZ I        1027 14.62         5.2 0.30            106            407 327 
                                                                                
