 2014  5 4 1822 38.5 L   6.787 -73.138146.4  RSN 11 0.4 2.0LRSN                1
 GAP=138        0.89       3.0     3.4  5.8 -0.1001E+01  0.5226E+01  0.3694E+01E
 Epicentro: LOS SANTOS - SANTANDER                                             3
 OLDACT:REG 14-05-04 21:02 OP:spq  STATUS:               ID:20140504182000     3
 ACTION:UPD 15-03-16 16:55 OP:nd   STATUS:               ID:20140504182238 L   I
 OLDACT:UP  14-05-04 23:49 OP:fm   STATUS:               ID:20140504182000     3
 2014-05-04-1820-00M.COL___273                                                 6
 STAT SP IPHASW D HRMM SECON CODA AMPLIT PERI AZIMU VELO AIN AR TRES W  DIS CAZ7
 BRR  HZ EP       1823  0.10                             152    0.2510 72.6 299 
 BRR  HN ES       1823 16.96                             152    0.5010 72.6 299 
 BRR  HZ I        1823 22.15        15.7 0.14            151           72.6 299 
 PAM  SZ EP       1823  1.14                             151    0.2710 78.0  38 
 PAM  SE ES       1823 18.05                             151   -0.2310 78.0  38 
 PAM  HZ I        1823 19.60        10.2 0.58            156           78.0  38 
 RUS  HZ EP       1823  2.19                             144   -0.0610 99.1 176 
 RUS  HE ES       1823 20.77                             144    0.0310 99.1 176 
 RUS  HZ I        1823 21.48        13.1 0.34            146           99.1 176 
 PTB  HZ EP       1823  4.91                             132   -0.71 9  148 259 
 PTB  HN ES       1823 25.92                             132   -0.81 9  148 259 
 PTB  HZ I        1823 28.66        19.8 0.24            132            148 259 
 SPBC HZ EP       1823  6.99                             129   -0.05 9  163 220 
 SPBC HN ES       1823 29.39                             129    0.13 9  163 220 
 SPBC HZ I        1823 31.77        15.2 0.20            130            163 220 
 ZAR  HZ EP   2   1823 11.64                             122    0.47 4  205 292 
 ZAR  HN ES       1823 36.77                             122    0.15 8  205 292 
 ZAR  HZ I        1823 42.71        16.4 0.20            123            205 292 
 NOR  HZ EP       1823 14.62                             119    0.32 8  235 235 
 NOR  HE ES       1823 42.36                             119    0.18 8  235 235 
 NOR  HZ I        1823 47.93         6.6 0.22            120            235 235 
 SML  HN ES   1   1823 43.61                             117   -0.52 6  245 335 
 CHI  HZ EP   1   1823 15.54                             117   -0.61 6  247 195 
 CHI  HE ES       1823 45.54                             117    0.06 8  247 195 
 CHI  HZ I        1823 52.75         6.4 1.96            119            247 195 
 HEL  HZ EP   1   1823 18.85                             115    0.01 6  273 256 
 HEL  HN ES       1823 50.71                             115    0.44 8  273 256 
 HEL  HZ I        1824  1.32         4.7 2.10            116            273 256 
 GUY2CHZ EP       1823 22.75                             112    0.58 7  301 235 
 GUY2CHN ES       1823 55.76                             112   -0.43 7  301 235 
 GUY2CHZ I        1824  3.50         4.3 1.82                           301 235 
                                                                                
