 2012  9 4 1413 53.3 L   6.722 -73.197146.7  RSN  6 0.3 1.7LRSN                1
 GAP=172        0.41       6.0     7.2  6.2  0.2882E+02 -0.5727E+01 -0.1584E+01E
 Epicentro: VILLANUEVA - SANTANDER                                             3
 ACTION:UPD 12-10-22 14:17 OP:ep   STATUS:               ID:20120904141353 L   I
 2012-09-04-1410-00M.COL___218                                                 6
 STAT SP IPHASW D HRMM SECON CODA AMPLIT PERI AZIMU VELO AIN AR TRES W  DIS CAZ7
 BAR2 SZ EP       1414 12.79                             174   -0.1310 14.4 173 
 BAR2 SZ ES   3   1414 27.33                             174   -0.87 2 14.4 173 
 BAR2 SZ I        1414 29.99        17.2 0.30                          14.4 173 
 GIR2 SZ EP   3   1414 12.84                             164   -0.51 2 39.5   1 
 BRR  HZ EP       1414 14.76                             152    0.1910 71.1 307 
 BRR  HZ I        1414 15.22        13.3 0.10                          71.1 307 
 BRR  HN ES   1   1414 31.22                             152    0.09 7 71.1 307 
 RUS  HZ EP   2   1414 16.74                             146    0.13 5 92.6 172 
 RUS  HZ I        1414 17.38         4.1 0.30                          92.6 172 
 RUS  HN ES   2   1414 34.83                             146    0.06 5 92.6 172 
 PTB  HZ EP   2   1414 19.63                             133   -0.11 5  141 262 
 PTB  HN ES   3   1414 40.35                             133    0.01 2  141 262 
 ZAR  HE ES   3   1414 49.92                             123   -0.94 2  202 295 
                                                                                
