 2012  1 4 1806 33.1 L   7.352 -73.388112.0  RSN  4 0.2 1.5LRSN                1
 GAP=132        0.52       4.0     5.6  7.3 -0.5191E+00 -0.1775E+02 -0.2464E+01E
 Epicentro: SABANA DE TORRES - SANTANDER                                       3
 ACTION:UP  12-02-03 08:14 OP:REBC STATUS:               ID:20120104180633 L   I
 2012-01-04-1800-00M.COL___185                                                 6
 STAT SP IPHASW D HRMM SECON CODA AMPLIT PERI AZIMU VELO SNR AR TRES W  DIS CAZ7
 BRR  HZ EP       18 6 49.13                             157     0.010   45 233 
 BRR  HE ES   1   18 7  1.33                             157    -0.3 7   45 233 
 PAM  SZ EP       18 6 51.57                             144    -0.110   76  91 
 PAM  SN ES   3   18 7  5.86                             144    -0.4 2   76  91 
 BAR2 SZ EP       18 6 52.22                             139     0.010   87 165 
 BAR2 SZ ES   1   18 7  7.44                             139     0.3 7   87 165 
 BAR2 SZ I        18 7  8.79         7.6 0.30                            87 165 
 OCA  SZ ES   2   18 7  9.04                             136     0.5 5   98   4 
                                                                                
