 2011  2 4 2322 14.9 L   6.770 -73.165140.9  RSN  5 0.4 1.5LRSN                1
 GAP=157        0.75       7.1    25.3 11.6 -0.7939E+02 -0.7023E+02 -0.1390E+02E
 Epicentro: LOS SANTOS - SANTANDER                                             3
 ACTION:UP  11-03-28 15:05 OP:jfem STATUS:               ID:20110204232214 L   I
 2011-02-04-2319-34S.COL___138                                                 6
 STAT SP IPHASW D HRMM SECON CODA AMPLIT PERI AZIMU VELO SNR AR TRES W  DIS CAZ7
 BAR2 SZ EP   2   2322 33.41                             172    -0.5 5   20 186 
 BAR2 SZ ES   3   2322 48.64                             172    -0.1 2   20 186 
 BTL  SZ EP       2322 33.97                             172     0.110   20 325 
 BTL  SZ ES   2   2322 49.15                             172     0.4 5   20 325 
 GIR2 SZ EP   1   2322 33.62                             165    -0.5 7   34 355 
 RUS  HZ EP   2   2322 37.87                             143    -0.1 5   97 175 
 RUS  HN ES   2   2322 56.07                             143     0.1 5   97 175 
 RUS  HZ I        2322 57.61         4.0 0.55                            97 175 
 GRA  SZ EP       2322 40.51                             135     0.410  130  18 
 GRA  SZ ES   2   2322 58.96                             135    -0.7 5  130  18 
 GRA  SZ I        2323  1.19         5.8 0.26                           130  18 
                                                                                
