 2012  9 4 2047 21.5 L   6.767 -73.156140.4  RSN  8 0.5 2.1LRSN                1
 GAP=137        1.00       5.3     4.9  7.6 -0.2518E+01  0.1040E+02  0.2771E+01E
 Epicentro: LOS SANTOS - SANTANDER                                             3
 ACTION:UPD 12-10-22 14:17 OP:ep   STATUS:               ID:20120904204721 L   I
 2012-09-04-2040-00M.COL___218                                                 6
 STAT SP IPHASW D HRMM SECON CODA AMPLIT PERI AZIMU VELO AIN AR TRES W  DIS CAZ7
 BAR2 SZ EP       2047 40.37                             172   -0.0110 19.6 188 
 BAR2 SZ ES   1   2047 54.57                             172   -0.56 7 19.6 188 
 BAR2 SZ I        2047 57.81        45.3 0.23                          19.6 188 
 GIR2 SZ EP       2047 40.52                             165   -0.0810 34.7 353 
 BRR  HZ EP       2047 42.17                             151    0.0910 72.0 301 
 BRR  HN ES   1   2047 59.03                             151    0.87 7 72.0 301 
 PAM  SZ EP       2047 43.31                             149   -0.0210 80.9  39 
 PAM  SN ES   1   2048  0.28                             149   -0.11 7 80.9  39 
 PAM  SZ I        2048  2.97        19.5 0.52                          80.9  39 
 RUS  HZ EP       2047 44.40                             144   -0.0310 97.1 175 
 RUS  HN ES   1   2048  3.00                             144    0.65 7 97.1 175 
 RUS  HZ I        2048  5.20        11.3 0.31                          97.1 175 
 PTB  HZ EP       2047 47.04                             131   -0.79 9  146 260 
 PTB  HN ES   1   2048  7.73                             131   -0.67 7  146 260 
 PTB  HZ I        2048 11.51         8.7 0.19                           146 260 
 ZAR  HZ EP   1   2047 54.48                             121    0.89 6  204 293 
 ZAR  HN ES   1   2048 18.61                             121   -0.05 6  204 293 
 ZAR  HZ I        2048 24.28        15.9 0.29                           204 293 
 NOR  SZ EP       2047 56.76                             118    0.20 8  232 235 
 NOR  SN ES   1   2048 24.23                             118    0.30 6  232 235 
 NOR  SZ I        2048 29.48        11.9 0.21                           232 235 
                                                                                
