 2017  1 4 2301 49.8 L   6.785 -73.089151.8  RSN 11 0.3 2.0LRSN                1
 GAP=125        0.89       3.2     3.8  5.0 -0.8439E+00  0.4511E+01  0.2642E+01E
 Epicentro: LOS SANTOS - SANTANDER                                             3
 ACTION:UPD 17-05-22 15:55 OP:jn   STATUS:               ID:20170104230149 L   I
 OLDACT:UP  17-01-05 06:50 OP:edw  STATUS:               ID:20170104225746     3
 OLDACT:UP  17-01-05 06:49 OP:edw  STATUS:               ID:20170104225746     3
 OLDACT:REG 17-01-05 03:49 OP:edw  STATUS:               ID:20170104225746     3
 2017-01-04-2258-00M.COL___365                                                 6
 STAT SP IPHASW D HRMM SECON CODA AMPLIT PERI AZIMU VELO AIN AR TRES W  DIS CAZ7
 BAR2 EZ EP       23 2 10.00                             171   -0.1210 23.7 206 
 BAR2 EZ ES       23 2 25.86                             171   -0.1410 23.7 206 
 BAR2 EZ I        23 2 27.84        19.7 0.34            167           23.7 206 
 PAM  EZ EP     C 23 2 12.80                             152    0.3210 74.9  35 
 PAM  EN ES       23 2 30.19                             152   -0.0110 74.9  35 
 PAM  EZ I        23 2 32.26        18.2 0.52            148           74.9  35 
 BRR  HZ IP     D 23 2 12.03                             151    0.1110 77.5 297 
 BRR  HN ES       23 2 29.42                             151    0.2210 77.5 297 
 RUS  HZ EP       23 2 13.80                             145   -0.1710 98.7 180 
 RUS  HN ES       23 2 32.78                             145   -0.0810 98.7 180 
 RUS  HZ I        23 2 34.32         7.3 0.16            138           98.7 180 
 PTB  HZ EP   9   23 2 16.62                             132   -1.13 0  154 260 
 PTB  HN ES       23 2 37.79                             133   -0.66 9  154 260 
 PTB  HZ I        23 2 43.94        16.5 0.38            128            154 260 
 ZAR  HZ EP       23 2 23.12                             122   -0.14 8  210 292 
 ZAR  HN ES       23 2 48.73                             122   -0.65 8  210 292 
 ZAR  HZ I        23 2 53.81        11.4 0.26            119            210 292 
 NOR  HZ EP       23 2 26.03                             119   -0.26 8  239 236 
 NOR  HN ES       23 2 55.25                             119    0.47 8  239 236 
 NOR  HZ I        23 2 56.00         5.3 0.15            115            239 236 
 CHI  HZ EP       23 2 28.03                             118    0.22 8  249 197 
 CHI  HN ES       23 2 57.37                             118   -0.12 8  249 197 
 CHI  HZ I        23 3  5.16         3.8 0.47            113            249 197 
 GUY2CHZ EP   4   23 2 34.90                             113    0.78 0  305 236 
 GUY2CHN ES       23 3  9.16                             113    0.44 7  305 236 
 GUY2CHZ  IAML    23 3 14.84         4.9 0.26                           305 236 
 PTGC HZ EP   9   23 2 32.78                             113   -0.69 0  305 160 
 PTGC HZ I        23 3  1.22        11.9 0.36            108            305 160 
 PTGC HN ES       23 3  5.84                             113   -1.03 7  305 160 
 SJC  HZ EP   4   23 2 44.25                             106   -1.84 0  414 326 
 SJC  HN ES   4   23 3 25.37                             106   -4.65 0  414 326 
 SJC  HZ I        23 3 30.00         2.8 0.56            103            414 326 
                                                                                
