 2012  2 4 2154  0.5 L   6.790 -73.140145.9  RSN  9 0.4 1.7LRSN                1
 GAP=138        0.67       4.1     4.9  6.7 -0.5140E+01  0.4490E+01  0.6975E+01E
 ACTION:UP  12-03-07 16:27 OP:epov STATUS:               ID:20120204215400 L   I
 2012-02-04-2150-00M.COL___188                                                 6
 STAT SP IPHASW D HRMM SECON CODA AMPLIT PERI AZIMU VELO SNR AR TRES W  DIS CAZ7
 BAR2 SZ ES   2   2154 34.63                             171   -0.80 5 22.3 192 
 BAR2 SZ I        2154 37.71        14.2 0.26                          22.3 192 
 GIR2 SZ EP       2154 20.10                             167   -0.1210 32.5 349 
 BRR  HZ EP       2154 21.94                             152    0.2210 72.3 299 
 BRR  HZ I        2154 23.33        17.5 0.12                          72.3 299 
 BRR  HN ES   1   2154 39.07                             152    0.79 7 72.3 299 
 PAM  SZ EP       2154 22.69                             151   -0.0610 77.8  39 
 PAM  SN ES   1   2154 39.74                             151   -0.38 7 77.8  39 
 RUS  HZ EP   3   2154 24.14                             144   -0.03 2 99.4 176 
 RUS  HE ES   2   2154 43.18                             144    0.53 5 99.4 176 
 RUS  HZ I        2154 44.58         4.0 0.38                          99.4 176 
 PTB  HZ EP   3   2154 27.21                             132   -0.30 2  148 259 
 PTB  HN ES   3   2154 48.02                             132   -0.57 2  148 259 
 PTB  HZ I        2154 51.86         5.6 0.14                           148 259 
 ZAR  HN ES   2   2154 57.88                             122   -0.57 4  205 292 
 ZAR  HZ I        2155  4.49         8.5 0.34                           205 292 
 NOR  SZ EP   1   2154 36.01                             119   -0.21 6  235 235 
 NOR  SN ES   2   2155  4.31                             119    0.23 4  235 235 
 CHI  HZ EP   2   2154 38.40                             117    0.30 4  248 195 
 CHI  HE ES   1   2155  7.27                             117   -0.16 6  248 195 
 CHI  HZ I        2155 11.49         1.8 0.54                           248 195 
                                                                                
