 2011  5 4 2308 51.3 L   6.753 -73.086145.6  RSN 11 0.4 2.7LRSN                1
 GAP=147        0.75       3.2     4.7  5.7 -0.6885E+01  0.7626E+01  0.2455E+01E
 Epicentro: LOS SANTOS - SANTANDER                                             3
 ACTION:UP  11-06-29 08:50 OP:tino STATUS:               ID:20110504230851 L   I
 2011-05-04-2305-11S.COL___132                                                 6
 STAT SP IPHASW D HRMM SECON CODA AMPLIT PERI AZIMU VELO SNR AR TRES W  DIS CAZ7
 BAR2 SZ IP       23 9 10.90                             171     0.110   21 211 
 BAR2 SZ I        23 9 11.10       101.4 0.18                            21 211 
 BAR2 SZ ES   2   23 9 25.89                             171    -0.2 5   21 211 
 PAM  SZ EP   1   23 9 13.66                             151     0.2 7   78  33 
 PAM  SN ES   1   23 9 30.99                             151     0.2 7   78  33 
 BRR  HZ EP   1   23 9 12.81                             150    -0.1 7   80 300 
 BRR  HZ I        23 9 13.17       190.2 0.10                            80 300 
 BRR  HE ES   1   23 9 30.25                             150     0.5 7   80 300 
 RUS  HZ EP   1   23 9 14.75                             145     0.1 7   95 180 
 RUS  HN ES   1   23 9 32.65                             145    -0.2 7   95 180 
 RUS  HZ I        23 9 34.80        49.0 0.40                            95 180 
 BRI  SZ EP   1   23 9 15.53                             141     0.2 7  111  17 
 BRI  SZ ES   1   23 9 33.92                             141    -0.2 7  111  17 
 BRI  SZ I        23 9 37.26        56.4 0.30                           111  17 
 GRA  SZ EP   1   23 9 16.70                             136    -0.1 7  129  14 
 GRA  SZ ES   1   23 9 36.46                             136    -0.2 7  129  14 
 GRA  SZ I        23 9 37.40        85.9 0.30                           129  14 
 OCA  SZ EP   1   23 9 19.65                             128    -0.5 7  166 351 
 OCA  SZ ES   1   23 9 42.57                             128    -0.1 7  166 351 
 OCA  SZ I        23 9 46.12        51.9 0.21                           166 351 
 NOR  SZ EP   1   23 9 26.57                             118    -0.7 6  237 236 
 NOR  SN ES   1   23 9 55.07                             118    -0.3 6  237 236 
 HEL  HZ EP   1   23 9 33.14                             114     1.1 6  277 257 
 HEL  HN ES   1   2310  3.43                             114    -0.4 6  277 257 
 HEL  HZ I        2310  8.29        25.2 0.26                           277 257 
 RREF HZ EP   1   23 9 38.17                             111     0.6 5  324 231 
 RREF HZ I        2310 23.31        47.1 0.32                           324 231 
 PRA  HZ EP   1   23 9 44.64                             106     0.0 4  391 211 
 PRA  HN ES   1   2310 26.18                             106    -0.1 4  391 211 
                                                                                
