 2017  1 4 2016 54.2 L   6.781 -73.143148.0  RSN 11 0.5 2.1LRSN                1
 GAP=138        1.01       3.8     4.4  5.4 -0.3940E+00  0.6148E+01  0.4759E+01E
 Epicentro: LOS SANTOS - SANTANDER                                             3
 ACTION:UPD 17-05-22 15:55 OP:jn   STATUS:               ID:20170104201654 L   I
 OLDACT:UP  17-01-05 03:57 OP:edw  STATUS:               ID:20170104200748     3
 OLDACT:REG 17-01-05 03:40 OP:edw  STATUS:               ID:20170104200748     3
 2017-01-04-2008-00M.COL___375                                                 6
 STAT SP IPHASW D HRMM SECON CODA AMPLIT PERI AZIMU VELO AIN AR TRES W  DIS CAZ7
 BAR2 EZ IP     C 2017 13.91                             171   -0.1410 21.3 192 
 BAR2 EZ ES       2017 29.69                             171    0.1510 21.3 192 
 BAR2 EZ I        2017 30.73        30.3 0.46            169           21.3 192 
 BRR  HZ IP     D 2017 15.88                             153    0.2210 72.5 300 
 BRR  HN ES       2017 33.29                             153    0.8910 72.5 300 
 PAM  EZ IP     C 2017 16.76                             151    0.0310 78.8  38 
 PAM  EN ES       2017 33.89                             151   -0.4210 78.8  38 
 PAM  EZ I        2017 36.07         9.5 0.19            154           78.8  38 
 RUS  HZ EP       2017 17.80                             145   -0.2110 98.4 176 
 RUS  HN ES       2017 36.62                             145    0.0310 98.4 176 
 RUS  HZ I        2017 37.52        26.1 0.26            145           98.4 176 
 PTB  HZ EP   9   2017 20.50                             133   -0.84 0  148 260 
 PTB  HN ES       2017 41.85                             132    0.18 9  148 260 
 PTB  HZ I        2017 45.27        15.9 0.15            131            148 260 
 ZAR  HZ EP       2017 26.65                             123   -0.25 9  205 293 
 ZAR  HN ES       2017 51.70                             123   -0.71 9  205 293 
 ZAR  HZ I        2017 57.46        22.0 0.46            122            205 293 
 NOR  HZ EP       2017 30.02                             119    0.07 8  234 235 
 NOR  HN ES       2017 56.96                             119   -0.88 8  234 235 
 NOR  HZ I        2018  0.23        11.1 0.28            119            234 235 
 CHI  HZ EP       2017 32.00                             118    0.20 8  247 195 
 CHI  HN ES       2018  1.01                             118   -0.13 8  247 195 
 CHI  HZ I        2018  7.16         8.2 0.28            118            247 195 
 ROSC BE ES   4   2018  3.61                             117    1.67 0  251 211 
 GUY2CHZ EP       2017 38.75                             113    0.95 7  300 235 
 GUY2CHE ES   4   2018 15.36                             113    3.55 0  300 235 
 GUY2CHZ  IAML    2018 20.90         7.4 0.46                           300 235 
 LL6C HZ EP   4   2017 20.23                             111   -20.0 0  327 358 
 LL6C HZ ES   4   2017 57.29                             111   -18.9 0  327 358 
 ELA  HN ES   4   2018 19.70                             111    2.18 0  328 230 
 CBOC HZ EP   2   2017 41.50                             110    0.34 3  333 252 
 CBOC HN ES   2   2018 18.15                             110    0.35 3  333 252 
 CBOC HZ I        2018 25.35         2.7 0.38            110            333 252 
 ORTC HZ EP       2017 48.25                             107    0.24 6  394 216 
 ORTC HN ES   4   2018 32.13                             107    2.14 0  394 216 
 ORTC HZ I        2018 35.72         3.7 0.24            107            394 216 
 CRJC HZ EP   4   2017 52.08                             104   -4.93 0  470   3 
 CRJC HE ES   4   2018 42.93                             104   -3.07 0  470   3 
                                                                                
