 2013 10 4 2016 49.8 L   6.829 -73.172140.8  RSN  5 0.2 1.5LRSN                1
 GAP=145        0.47       4.0     4.1  5.6 -0.6992E+01  0.6317E+01 -0.1854E+01E
 Epicentro: LOS SANTOS - SANTANDER                                             3
 ACTION:UPD 13-11-25 09:19 OP:ep   STATUS:               ID:20131004201649 L   I
 OLDACT:DUP 13-10-04 22:00 OP:jn   STATUS:               ID:20131004200960d    3
 2013-10-04-2009-59M.COL___273                                                 6
 STAT SP IPHASW D HRMM SECON CODA AMPLIT PERI AZIMU VELO AIN AR TRES W  DIS CAZ7
 BAR2 SZ EP   1   2017  8.68                             169   -0.21 7 26.2 183 
 BAR2 SZ ES   1   2017 23.79                             169    0.00 7 26.2 183 
 BAR2 SZ I        2017 25.13        10.2 0.18            155           26.2 183 
 PAM  SZ EP   1   2017 11.82                             150    0.37 7 76.9  43 
 PAM  SN ES   1   2017 28.16                             150   -0.19 7 76.9  43 
 PAM  SZ I        2017 31.09         6.6 0.50            128           76.9  43 
 RUS  HN ES   1   2017 31.79                             142    0.13 7  104 175 
 RUS  HZ I        2017 32.51         2.3 0.44            117            104 175 
 PTB  HN ES   1   2017 36.83                             131    0.10 7  146 257 
 PTB  HZ I        2017 42.77         4.0 0.20            107            146 257 
 SPBC HZ EP   1   2017 17.77                             128   -0.22 7  164 218 
 SPBC HZ I        2017 44.99         5.6 0.14            105            164 218 
                                                                                
