 2013  4 4 2132 32.8 L   6.772 -73.200150.4  RSN  4 0.3 1.8LRSN                1
 GAP=229        0.68       6.3     6.7  7.6  0.3027E+02  0.1212E+01 -0.3521E+01E
 Epicentro: VILLANUEVA - SANTANDER                                             3
 ACTION:UPD 13-05-22 14:35 OP:EP   STATUS:               ID:20130404213232 L   I
 2013-04-04-2130-00M.COL___245                                                 6
 STAT SP IPHASW D HRMM SECON CODA AMPLIT PERI AZIMU VELO AIN AR TRES W  DIS CAZ7
 BRR  HZ EP       2132 54.01                             154   -0.2710 67.6 303 
 BRR  HN ES       2133 10.91                             154   -0.1010 67.6 303 
 BRR  HN I        2133 11.25        24.5 0.20            151           67.6 303 
 RUS  HZ EP   1   2132 57.02                             145    0.16 7 98.1 172 
 RUS  HN ES       2133 15.77                             145    0.1710 98.1 172 
 RUS  HN I        2133 16.78         5.5 0.38            142           98.1 172 
 PTB  HZ EP   1   2132 59.30                             134   -0.29 7  141 260 
 PTB  HN ES   1   2133 20.18                             134   -0.29 7  141 260 
 PTB  HN I        2133 25.13         9.1 0.50            130            141 260 
 ZAR  HN ES       2133 30.86                             124    0.54 9  200 294 
                                                                                
