 2010  7 4 2129  7.0 L   6.774 -73.160153.2  RSN  4 0.1 1.3LRSN                1
 GAP=154        0.41       5.6    11.2  9.1  0.4189E+02 -0.7127E+02 -0.2086E+02E
 Epicentro: LOS SANTOS - SANTANDER                                             3
 ACTION:UPD 10-12-01 15:15 OP:pat  STATUS:               ID:20100704212907 L   I
 2010-07-04-2127-18S.COL___118                                                 6
 STAT SP IPHASW D HRMM SECON CODA AMPLIT PERI AZIMU VELO AIN AR TRES W  DIS CAZ7
 BAR2 SZ EP   1   2129 27.26                             172    -0.2 7   20 187 
 BRR  HZ EP   1   2129 29.13                             153     0.2 7   71 301 
 BRR  HE ES   1   2129 45.98                             153    -0.1 7   71 301 
 BRR  HZ I        2130  4.20         5.6 0.44                            71 301 
 RUS  HZ EP   1   2129 31.20                             146    -0.1 7   98 175 
 RUS  HZ I        2129 32.37         1.8 0.09                            98 175 
 RUS  HN ES   2   2129 50.43                             146     0.2 5   98 175 
 BRI  SZ EP   2   2129 31.91                             142     0.1 5  112  21 
                                                                                
