 2014 12 4 2232 32.7 L   6.826 -73.261126.4  RSN 11 0.5 2.3LRSN                1
 GAP=114        1.22       3.7     4.2  7.9 -0.3638E+01  0.9184E+01 -0.5958E+00E
 Epicentro: ZAPATOCA - SANTANDER                                               3
 ACTION:UPD 15-02-10 17:00 OP:nd   STATUS:               ID:20141204223232 L   I
 OLDACT:REG 14-12-05 03:39 OP:mh   STATUS:               ID:20141204222744     3
 2014-12-04-2227-44M.COL___297                                                 6
 STAT SP IPHASW D HRMM SECON CODA AMPLIT PERI AZIMU VELO AIN AR TRES W  DIS CAZ7
 BAR2 SZ EP     C 2232 50.89                             167    0.8210 27.2 161 
 BAR2 SZ I        2233  4.97       142.2 0.30            165           27.2 161 
 BRR  HZ EP       2232 51.30                             154    0.2810 58.7 302 
 BRR  HN ES       2233  5.30                             154   -0.0310 58.7 302 
 BRR  HZ I        2233  6.46        46.3 0.18            148           58.7 302 
 PAM  SZ EP       2232 54.11                             144    0.7910 84.1  47 
 PAM  SN ES       2233  9.70                             144    0.2610 84.1  47 
 PAM  SZ I        2233 12.42        24.0 0.28            135           84.1  47 
 RUS  HZ EP       2232 54.54                             138   -0.3810  105 169 
 RUS  HN ES       2233 11.78                             138   -0.5110  105 169 
 PTB  HZ EP       2232 56.16                             130   -0.83 9  136 257 
 PTB  HN ES       2233 16.30                             130    0.34 9  136 257 
 PTB  HZ I        2233 18.42        32.6 0.50            124            136 257 
 OCA  HZ EP   1   2232 58.85                             126   -0.31 7  156 358 
 OCA  HN ES       2233 18.88                             126   -0.95 9  156 358 
 OCA  HZ I        2233 23.04        26.5 0.40            118            156 358 
 SPBC HN ES       2233 19.69                             125   -0.23 9  158 215 
 SPBC HZ I        2233 26.43        19.5 0.18            119            158 215 
 ZAR  HZ EP   1   2233  2.92                             120    0.37 7  191 293 
 ZAR  HN ES       2233 26.01                             120    0.16 9  191 293 
 ZAR  HZ I        2233 31.04        20.2 0.38            114            191 293 
 NOR  HZ EP       2233  6.21                             115   -0.19 8  226 232 
 NOR  HN ES       2233 32.77                             115    0.06 8  226 232 
 NOR  HZ I        2233 39.05        14.2 0.64            110            226 232 
 SML  HZ EP       2233  7.17                             114   -0.25 8  236 338 
 SML  HZ I        2233 35.81        30.3 0.10            109            236 338 
 HEL  HZ EP   1   2233 11.43                             112    0.79 6  260 254 
 HEL  HN ES       2233 40.37                             112    0.11 8  260 254 
 HEL  HZ I        2233 43.36         7.3 0.36            107            260 254 
 GUY2CHZ EP   4   2233 14.93                             109    0.48 0  293 233 
 GUY2CHN ES   4   2233 45.07                             109   -1.98 0  293 233 
                                                                                
