 2012 12 4 2232 34.1 L   6.808 -73.170140.8  RSN 15 0.3 3.3LRSN 3.3WRSN        1
 SPEC AVERAGE  MO 14.0 ST  3.5 OM  2.8 f0 2.77 R0.5608 AL 2.27 WI 15.2 MW  3.3 3
 SPEC SD       MO  0.1 ST  1.9 OM  0.6 f00.602 R0.1376 AL      WI      MW  0.1 3
 GAP= 70        0.72       2.0     2.2  3.9 -0.6558E+00  0.2440E+01  0.5434E+00E
 Epicentro: LOS SANTOS - SANTANDER                                             3
 SPEC ROSCBH Z MO 14.1 ST  6.0 OM  2.2 f0 3.36 R0.4375 AL 3.50 WI 19.8 MW  3.3 3
 SPEC ROSCBH Z T223340 K 0.000 GD  288 VS 4.20 DE 3.20 Q0300.0 QA 0.60 VS 4.20 3
 SPEC HEL HH Z MO 14.0 ST  4.7 OM  2.1 f0 3.29 R0.4468 AL 1.87 WI 18.1 MW  3.3 3
 SPEC HEL HH Z T223345 K 0.000 GD  304 VS 4.20 DE 3.20 Q0300.0 QA 0.60 VS 4.20 3
 SPEC PAM SH Z MO 14.2 ST  1.5 OM  2.6 f0 1.89 R0.7778 AL 1.70 WI  7.7 MW  3.4 3
 SPEC PAM SH Z T223312 K 0.000 GD  161 VS 4.20 DE 3.20 Q0300.0 QA 0.60 VS 4.20 3
 SPEC CHI HH Z MO 14.0 ST  2.0 OM  2.1 f0 2.53 R0.5810 AL 2.00 WI 15.3 MW  3.2 3
 SPEC CHI HH Z T223341 K 0.000 GD  286 VS 4.20 DE 3.20 Q0300.0 QA 0.60 VS 4.20 3
 ACTION:UPD 13-01-04 14:25 OP:ep   STATUS:               ID:20121204223234 L   I
 2012-12-04-2230-00M.COL___237                                                 6
 STAT SP IPHASW D HRMM SECON CODA AMPLIT PERI AZIMU VELO AIN AR TRES W  DIS CAZ7
 BAR2 SZ EP       2232 53.40                             170    0.2810 23.9 183 
 BAR2 SZ ES       2233  7.57                             170   -0.4010 23.9 183 
 BAR2 SZ I        2233  9.72       795.4 0.25                          23.9 183 
 GIR2 SZ IP       2232 53.46                             167    0.3410 30.0 355 
 PAM  SZ EP       2232 56.23                             149    0.4010 78.4  41 
 PAM  SN ES       2233 12.99                             149    0.2010 78.4  41 
 PAM  SZ I        2233 15.61       327.9 0.62                          78.4  41 
 RUS  HZ EP       2232 57.48                             142    0.0610  102 175 
 RUS  HN ES       2233 15.80                             142    0.1710  102 175 
 RUS  HN I        2233 16.92       282.0 0.24                           102 175 
 PTB  HZ EP       2233  0.34                             131   -0.07 9  145 258 
 PTB  HE ES   1   2233 20.93                             131   -0.03 7  145 258 
 PTB  HZ I        2233 23.19       270.3 0.19                           145 258 
 TAM  HZ EP       2233  1.77                             129    0.14 9  158 105 
 TAM  HZ I        2233  1.97       126.3 0.19                           158 105 
 TAM  HN ES       2233 23.04                             129   -0.09 9  158 105 
 OCA  HZ EP       2233  1.58                             129   -0.31 9  159 354 
 OCA  HN ES       2233 23.09                             129   -0.49 9  159 354 
 ZAR  HZ EP       2233  6.31                             122    0.40 9  201 292 
 ZAR  HE ES   1   2233 30.97                             122    0.24 6  201 292 
 ZAR  HZ I        2233 37.87       295.9 0.26                           201 292 
 CTAB SZ EP   4   2233 12.03                             118    2.56 0  229 210 
 NOR  HZ EP       2233  9.42                             118    0.08 8  233 234 
 NOR  HE ES       2233 36.84                             118   -0.01 8  233 234 
 NOR  HZ I        2233 41.48       149.0 0.36                           233 234 
 SML  HZ EP   4   2233  9.48                             117   -0.73 0  242 336 
 CHI  HZ EP       2233 11.81                             116    0.29 8  249 195 
 CHI  HN ES       2233 40.29                             116   -0.44 8  249 195 
 ROSC BZ EP   9   2233 13.44                             116    1.58 0  252 210 
 HEL  HZ EP   1   2233 14.03                             114    0.26 6  270 255 
 HEL  HN ES   1   2233 44.24                             114   -0.50 6  270 255 
 HEL  HZ I        2233 52.06       131.0 0.34                           270 255 
 VIL  SZ EP   1   2233 17.39                             111    0.08 5  304 191 
 VIL  SE ES   1   2233 50.39                             111   -0.65 5  304 191 
 VIL  SZ I        2233 56.68        82.4 0.32                           304 191 
 DBB  SZ EP   1   2233 21.05                             109    0.01 5  337 274 
 TOL  SZ EP   4   2233 23.15                             108    1.16 0  342 224 
 MON  HZ EP   4   2233 21.01                             108   -1.57 0  351 309 
 SDV  BZ EP       2233 23.13                             107   -0.98 6  362  51 
 PRA  HZ EP   1   2233 27.10                             106   -0.27 4  391 209 
 PRA  HN ES   1   2234  8.92                             106   -0.01 4  391 209 
 PRA  HZ I        2234 15.87       116.4 0.32                           391 209 
                                                                                
