 2012  2 4 2345  3.4 L   6.740 -73.275150.0  RSN  5 0.4 1.3LRSN                1
 GAP=134        0.48       8.5     7.6 11.4  0.3467E+02  0.1833E+02  0.5244E+02E
 ACTION:UP  12-03-07 16:27 OP:epov STATUS:               ID:20120204234503 L   I
 2012-02-04-2340-00M.COL___188                                                 6
 STAT SP IPHASW D HRMM SECON CODA AMPLIT PERI AZIMU VELO SNR AR TRES W  DIS CAZ7
 BAR2 SZ EP   3   2345 22.22                             172   -1.23 2 19.3 148 
 GIR2 SZ EP   3   2345 22.94                             165   -0.83 2 38.5  14 
 BRR  HZ EP       2345 24.72                             156    0.1610 63.1 310 
 BRR  HZ I        2345 25.09        10.4 0.10                          63.1 310 
 BRR  HN ES   2   2345 41.02                             156   -0.06 5 63.1 310 
 RUS  HZ EP       2345 27.30                             146    0.0610 96.1 167 
 RUS  HZ I        2345 48.58         1.7 0.68                          96.1 167 
 PTB  HZ EP       2345 29.29                             136   -0.0810  132 260 
 PTB  HN ES   3   2345 49.64                             136    0.00 2  132 260 
 PTB  HZ I        2345 53.53         2.5 0.26                           132 260 
                                                                                
