 2011  1 4 2024 35.7 L   6.829 -73.174141.9  RSN 16 0.3 2.9LRSN                1
 GAP=134        0.62       2.1     3.5  3.6 -0.1108E+01  0.4853E+01  0.1454E+01E
 Epicentro: LOS SANTOS - SANTANDER                                             3
 ACTION:UP  11-02-08 08:38 OP:pat  STATUS:               ID:20110104202435 L   I
 2011-01-04-2023-17S.COL___135                                                 6
 STAT SP IPHASW D HRMM SECON CODA AMPLIT PERI AZIMU VELO SNR AR TRES W  DIS CAZ7
 BTL  SZ IP       2024 54.93                             174     0.210   14 314 
 BTL  SZ ES   1   2025  9.44                             174    -0.1 7   14 314 
 BAR2 SZ IP       2024 54.87                             169    -0.110   26 182 
 BAR2 SZ ES   1   2025  9.66                             169    -0.3 7   26 182 
 BAR2 SZ I        2025 11.71       152.9 0.21                            26 182 
 GIR2 SZ IP       2024 54.76                             168    -0.110   28 356 
 GIR2 SZ ES   1   2025  9.92                             168     0.2 7   28 356 
 RUS  HZ IP     C 2024 58.99                             142    -0.310  104 174 
 RUS  HN ES   1   2025 17.90                             142     0.1 7  104 174 
 RUS  HZ I        2025 19.54       102.0 0.30                           104 174 
 GRA  SZ IP       2025  0.46                             137     0.010  124  19 
 GRA  SZ ES   1   2025 19.88                             137     0.2 7  124  19 
 GRA  SZ I        2025 21.03       115.0 0.27                           124  19 
 OCA  SZ EP   1   2025  3.08                             129    -0.3 7  157 354 
 OCA  SZ I        2025 28.88        66.1 0.10                           157 354 
 YOP  SZ EP       2025  5.71                             125    -0.2 9  183 153 
 YOP  SN ES   1   2025 30.03                             125     0.6 7  183 153 
 YOP  SZ I        2025 33.74        53.5 0.31                           183 153 
 NOR  SZ EP       2025 10.86                             118    -0.3 8  234 233 
 NOR  SN ES   1   2025 38.46                             118    -0.3 6  234 233 
 CHI  HZ EP       2025 13.51                             116     0.1 8  251 194 
 CHI  HN ES   1   2025 42.87                             116     0.0 6  251 194 
 CHI  HZ I        2025 48.21        29.2 0.46                           251 194 
 HEL  HZ EP       2025 15.87                             114     0.4 8  270 255 
 HEL  HZ I        2025 54.45        65.4 0.31                           270 255 
 GUY  SZ EP   2   2025 19.89                             112     0.8 4  301 234 
 GUY  SN ES   2   2025 53.23                             112     0.3 4  301 234 
 GUY  SZ I        2025 59.98        43.2 0.25                           301 234 
 VIL  SN ES   1   2025 52.88                             111     0.0 5  304 189 
 RREF HZ EP       2025 21.74                             110     0.1 7  322 229 
 RREF HZ I        2026  3.52        41.8 0.52                           322 229 
 DBB  SZ EP       2025 22.77                             109     0.1 7  336 274 
 TOL  SZ EP   2   2025 24.57                             109     0.8 3  344 224 
 PRA  HZ EP       2025 28.87                             106    -0.4 6  393 209 
 PRA  HN ES   1   2026 10.71                             106    -0.3 4  393 209 
 PRA  HZ I        2026 14.45       112.1 0.05                           393 209 
                                                                                
