 2011  5 4 2031 20.5 L   6.747 -73.097142.2  RSN  7 0.2 1.8LRSN                1
 GAP=145        0.40       2.2     3.2  3.6 -0.3131E+01  0.5278E+00 -0.2499E+00E
 Epicentro: LOS SANTOS - SANTANDER                                             3
 ACTION:UP  11-06-29 08:50 OP:tino STATUS:               ID:20110504203120 L   I
 2011-05-04-2029-03S.COL___132                                                 6
 STAT SP IPHASW D HRMM SECON CODA AMPLIT PERI AZIMU VELO SNR AR TRES W  DIS CAZ7
 BAR2 SZ EP   1   2031 39.58                             172     0.0 7   20 209 
 BAR2 SZ ES   1   2031 54.33                             172    -0.2 7   20 209 
 BAR2 SZ I        2031 55.62        22.9 0.30                            20 209 
 BRR  HZ EP   1   2031 41.56                             149    -0.1 7   79 300 
 BRR  HZ I        2031 41.70        12.7 0.27                            79 300 
 BRR  HN ES   1   2031 58.35                             149     0.1 7   79 300 
 PAM  SZ EP   1   2031 42.58                             150     0.2 7   79  34 
 PAM  SE ES   1   2031 59.74                             150     0.2 7   79  34 
 RUS  HZ EP   1   2031 43.57                             145     0.1 7   94 179 
 RUS  HE ES   1   2032  1.23                             145    -0.1 7   94 179 
 RUS  HZ I        2032  3.82         7.6 0.45                            94 179 
 BRI  SZ EP   1   2031 44.30                             140     0.0 7  112  17 
 BRI  SZ ES   2   2032  3.03                             140     0.1 5  112  17 
 BRI  SZ I        2032  7.19         8.2 0.21                           112  17 
 GRA  SZ EP   1   2031 45.54                             135    -0.2 7  130  14 
 GRA  SZ I        2031 46.82        12.2 0.24                           130  14 
 GRA  SZ ES   1   2032  5.27                             135    -0.2 7  130  14 
 NOR  SN ES   1   2032 24.01                             118     0.1 6  236 236 
                                                                                
