 2010  8 4 2032 41.3 L   6.587 -73.015162.2  RSN  4 0.1 1.5LRSN                1
 GAP=176        0.36       4.7     9.2  7.4  0.3125E+02 -0.4692E+02 -0.2358E+02E
 Epicentro: CURITI - SANTANDER                                                 3
 *RUS-BRR-GRA                                                                  3
 ACTION:UP  10-09-07 10:52 OP:vdl  STATUS:               ID:20100804203241 L   I
 2010-08-04-2028-56S.COL___126                                                 6
 STAT SP IPHASW D HRMM SECON CODA AMPLIT PERI AZIMU VELO SNR AR TRES W  DIS CAZ7
 RUS  HZ EP   1   2033  5.32                             154     0.1 7   77 186 
 RUS  HN ES   1   2033 23.90                             154     0.0 7   77 186 
 RUS  HZ I        2033 25.24         3.3 0.62                            77 186 
 BRR  HZ EP   1   2033  5.58                             148    -0.1 7   96 307 
 BRR  HZ I        2033 22.55         7.2 0.49                            96 307 
 BRR  HE ES   1   2033 24.75                             148     0.0 7   96 307 
 GUE  SZ EP   2   2033  9.43                             138     0.2 5  138   4 
 GRA  SZ EP   2   2033  9.39                                    -0.2 5  145   9 
                                                                                
