 2010 10 4 2003 48.0 L   7.111 -72.976108.7  RSN  4 0.2 1.6LRSN                1
 GAP=189        0.40       7.6     8.5 10.4 -0.5283E+02 -0.5108E+02  0.5386E+02E
 Epicentro: TONA - SANTANDER                                                   3
 ACTION:UP  11-02-18 11:07 OP:tino STATUS:               ID:20101004200348 L   I
 2010-10-04-2000-20S.COL___124                                                 6
 STAT SP IPHASW D HRMM SECON CODA AMPLIT PERI AZIMU VELO SNR AR TRES W  DIS CAZ7
 BAR2 SZ EP   2   20 4  5.04                             148     0.0 5   62 202 
 BAR2 SZ I        20 4 10.83         7.5 0.59                            62 202 
 GUE  SZ EP   1   20 4  6.32                             141    -0.1 7   80   4 
 GUE  SZ ES   2   20 4 21.11                                     0.4 5   80   4 
 BRR  HZ EP   2   20 4  6.19                             139     0.1 5   81 270 
 BRR  HZ I        20 4  6.72        11.0 0.13                            81 270 
 BRR  HN ES   2   20 4 20.01                             139    -0.1 5   81 270 
 GRA  SZ EP   2   20 4  6.85                             138     0.1 5   88  13 
 GRA  SZ ES   1   20 4 21.27                             138    -0.2 7   88  13 
 GRA  SZ I        20 4 22.73        15.3 0.27                            88  13 
                                                                                
