 2011 10 4 2327 51.0 L   6.774 -73.109141.8  RSN  8 0.3 2.1LRSN                1
 GAP=142        0.74       2.7     4.7  4.6 -0.2400E+01  0.3225E+01  0.7030E+00E
 Epicentro: LOS SANTOS - SANTANDER                                             3
 ACTION:UPD 12-07-13 16:01 OP:ep   STATUS:               ID:20111004232751 L   I
 2011-10-04-2324-39S.COL___169                                                 6
 STAT SP IPHASW D HRMM SECON CODA AMPLIT PERI AZIMU VELO AIN AR TRES W  DIS CAZ7
 BAR2 SZ EP       2328 10.18                             171    0.0110 21.7 202 
 BAR2 SZ ES       2328 25.07                             171   -0.0110 21.7 202 
 BAR2 SZ I        2328 26.93        38.7 0.19                          21.7 202 
 BRR  HZ EP       2328 12.18                             150    0.1210 76.1 299 
 BRR  HE ES       2328 28.86                             150    0.4110 76.1 299 
 BRR  HZ I        2328 33.29        49.0 0.20                          76.1 299 
 PAM  SZ EP       2328 13.20                             150    0.3710 77.1  36 
 PAM  SE ES   1   2328 29.61                             150   -0.20 7 77.1  36 
 RUS  HZ EP       2328 14.42                             144    0.2310 97.5 178 
 RUS  HN ES       2328 31.85                             144   -0.3910 97.5 178 
 RUS  HZ I        2328 34.06        11.5 0.23                          97.5 178 
 OCA  SZ EP       2328 19.12                             128   -0.25 9  164 352 
 OCA  SZ ES   1   2328 40.91                             128   -0.56 7  164 352 
 OCA  SZ I        2328 44.03        25.4 0.21                           164 352 
 NOR  SN ES   1   2328 54.25                             117   -0.32 6  236 236 
 CHI  HZ EP   1   2328 28.78                             116    0.43 6  247 196 
 CHI  HN ES   1   2328 57.66                             116    0.21 6  247 196 
 CHI  HZ I        2329  5.26         6.0 0.50                           247 196 
 RREF HZ EP       2328 36.54                             110   -0.63 7  323 230 
 RREF HN ES   2   2329 13.43                             110    0.29 3  323 230 
 RREF HZ I        2329 22.17         5.6 0.16                           323 230 
                                                                                
