 2012  2 4 2346 52.3 L   6.710 -73.049136.0  RSN  5 0.4 1.3LRSN                1
 GAP=153        0.65      13.7     8.2 11.8 -0.6437E+02 -0.2232E+01  0.1811E+01E
 ACTION:UP  12-03-07 16:27 OP:epov STATUS:               ID:20120204234652 L   I
 2012-02-04-2340-00M.COL___188                                                 6
 STAT SP IPHASW D HRMM SECON CODA AMPLIT PERI AZIMU VELO SNR AR TRES W  DIS CAZ7
 GIR2 SZ EP   3   2347 10.93                             161   -0.28 2 43.8 339 
 GIR2 SZ ES   2   2347 25.79                             161   -0.19 5 43.8 339 
 PAM  SZ EP       2347 13.37                             148   -0.2210 79.6  29 
 PAM  SN ES   3   2347 30.31                             148    0.09 2 79.6  29 
 BRR  HZ EP       2347 13.73                             145    0.4510 85.4 301 
 BRR  HZ I        2347 46.40         7.6 0.26                          85.4 301 
 RUS  HN ES   3   2347 32.03                             144    0.49 2 90.5 182 
 PTB  HZ EP   3   2347 18.62                             127   -0.69 2  157 263 
 PTB  HE ES   2   2347 39.63                             127   -0.78 5  157 263 
 PTB  HZ I        2347 40.71         1.1 0.50                           157 263 
                                                                                
