 2010 12 4 2111 25.1 L   6.941 -73.120140.0  RSN  5 0.5 1.9LRSN                1
 GAP=199        1.17      10.1    14.7 16.8 -0.3384E+02  0.1507E+03 -0.6284E+02E
 Epicentro: PIEDECUESTA - SANTANDER                                            3
 ACTION:UP  11-01-14 15:22 OP:pat  STATUS:               ID:20101204211125 L   I
 2010-12-04-2106-44S.COL___133                                                 6
 STAT SP IPHASW D HRMM SECON CODA AMPLIT PERI AZIMU VELO SNR AR TRES W  DIS CAZ7
 BAR2 SZ IP       2111 43.84                             164    -0.610   39 190 
 BAR2 SZ ES   1   2112  0.05                             164     0.5 7   39 190 
 BAR2 SZ I        2112  1.10        15.9 0.32                            39 190 
 OCA  SZ EP   1   2111 52.04                             132     0.5 7  145 351 
 OCA  SZ I        2112 19.07        14.1 0.37                           145 351 
 HEL  HZ EP   1   2112  6.25                             113     0.5 6  279 253 
 HEL  HZ I        2112 43.09         5.9 0.35                           279 253 
 RREF HZ EP   2   2112 12.86                             109     0.5 3  334 228 
 RREF HN ES   1   2112 49.31                             109     0.0 5  334 228 
 RREF HZ I        2112 55.86         5.0 0.26                           334 228 
 MON  HZ I        2112 18.23         1.9 0.38                           346 306 
 MON  HE ES   1   2112 49.74                             108    -0.6 5  346 306 
                                                                                
