 2015  5 4 2313 59.5 L   6.786 -73.109145.1  RSN 12 0.4 2.0LRSN                1
 GAP=142        0.87       2.3     3.8  4.5 -0.1594E+01  0.5491E+01 -0.3037E+00E
 Epicentro: LOS SANTOS - SANTANDER                                             3
 ACTION:UPD 15-09-10 22:01 OP:cam  STATUS:               ID:20150504231359 L   I
 OLDACT:REG 15-05-05 03:30 OP:ak   STATUS:               ID:20150504230740     3
 2015-05-04-2307-40M.COL___274                                                 6
 STAT SP IPHASW D HRMM SECON CODA AMPLIT PERI AZIMU VELO AIN AR TRES W  DIS CAZ7
 BAR2 EZ EP       2314 18.52                             171   -0.5410 23.0 201 
 BAR2 EZ ES       2314 34.24                             171   -0.0710 23.0 201 
 BAR2 EZ I        2314 35.91        16.6 0.28            168           23.0 201 
 BRR  HZ EP       2314 20.98                             151    0.1310 75.5 298 
 BRR  HZ I        2314 28.38        14.2 0.30            149           75.5 298 
 BRR  HN ES       2314 38.00                             151    0.5210 75.5 298 
 PAM  SZ IP     D 2314 21.81                             151    0.2210 76.1  36 
 PAM  SN ES       2314 38.89                             151    0.0910 76.1  36 
 PAM  SZ I        2314 41.21         5.4 0.30            154           76.1  36 
 RUS  HZ EP       2314 22.81                             144   -0.2710 98.9 178 
 RUS  HE ES       2314 41.41                             144   -0.0510 98.9 178 
 RUS  HZ I        2314 42.92         8.1 0.39            145           98.9 178 
 SPBC HZ EP       2314 27.95                             129   -0.16 9  165 220 
 SPBC HN ES       2314 50.42                             129    0.02 9  165 220 
 SPBC HZ I        2314 54.21        19.2 0.16            128            165 220 
 ZAR  HZ EP   1   2314 31.71                             122   -0.67 6  208 292 
 ZAR  HE ES       2314 57.36                             122   -0.64 8  208 292 
 ZAR  HZ I        2315  2.75        15.2 0.44            121            208 292 
 NOR  HZ EP       2314 35.21                             118   -0.27 8  237 235 
 NOR  HN ES       2315  3.53                             118    0.00 8  237 235 
 NOR  HZ I        2315  8.19         9.7 0.18            118            237 235 
 SML  HZ EP       2314 35.91                             117   -0.54 8  247 335 
 SML  HN ES       2315  5.36                             117    0.11 8  247 335 
 SML  HZ I        2315  8.83        19.9 0.08            117            247 335 
 CHI  HZ EP       2314 37.06                             117   -0.08 8  248 196 
 CHI  HN ES   1   2315  7.08                             117    0.59 6  248 196 
 CHI  HZ I        2315 12.28         3.2 0.40            117            248 196 
 GUY2CHZ EP       2314 44.07                             112    0.69 7  304 235 
 GUY2CHN ES   1   2315 18.48                             112    0.89 5  304 235 
 GUY2CHZ I        2315 26.19         7.4 0.28                           304 235 
 LL2C HZ EP   1   2314 43.63                             112    0.33 5  308 353 
 LL2C HN ES       2315 17.86                             112    0.42 7  308 353 
 RREF HZ EP       2314 46.53                             111    0.65 7  324 230 
 RREF HN ES   1   2315 21.66                             111   -0.38 5  324 230 
 RREF HZ I        2315 30.75         2.5 0.40            111            324 230 
 SJC  HZ EP   4   2314 53.17                             105   -2.31 0  413 327 
 SJC  HN ES   4   2315 35.26                             105   -3.86 0  413 327 
                                                                                
