 2013  6 4 2355 33.6 L   6.775 -73.166142.7  RSN  6 0.3 2.0LRSN                1
 GAP=180        0.88       3.8     5.6  6.3  0.2475E+01  0.6245E+01  0.9290E+00E
 Epicentro: LOS SANTOS - SANTANDER                                             3
 ACTION:UPD 14-01-08 09:52 OP:ep   STATUS:               ID:20130604235533 L   I
 2013-06-04-2348-50M.COL___219                                                 6
 STAT SP IPHASW D HRMM SECON CODA AMPLIT PERI AZIMU VELO AIN AR TRES W  DIS CAZ7
 BAR2 SZ ES       2356  7.57                             172   -0.2510 20.3 185 
 BAR2 SZ I        2356  8.79        18.7 0.24            170           20.3 185 
 GIR2 SZ EP       2355 53.06                             166    0.0410 33.7 355 
 GIR2 SZ ES       2356  8.01                             166   -0.1310 33.7 355 
 BRR  HZ EP       2355 54.74                             152    0.3110 70.6 301 
 BRR  HN ES       2356 11.35                             152    0.7110 70.6 301 
 BRR  HE I        2356 12.33        56.5 0.24            152           70.6 301 
 RUS  HZ EP       2355 57.17                             144    0.2610 98.0 175 
 RUS  HN ES       2356 14.95                             144   -0.1010 98.0 175 
 RUS  HE I        2356 17.03         8.6 0.34            144           98.0 175 
 PTB  HZ EP       2355 59.85                             132   -0.26 9  145 260 
 PTB  HN ES       2356 20.41                             132   -0.34 9  145 260 
 PTB  HE I        2356 22.47        16.0 0.24            132            145 260 
 OCA  HN ES       2356 23.65                             128   -0.39 9  163 354 
                                                                                
