 2016  4 4 2238 48.0 L   6.792 -73.191138.0  RSN  4 0.4 1.5LRSN                1
 GAP=240        0.86       8.4     6.3  8.0  0.3446E+02  0.6124E+01 -0.1258E+02E
 Epicentro: ZAPATOCA - SANTANDER                                               3
 ACTION:UPD 16-05-05 14:18 OP:rebc STATUS:               ID:20160404223848 L   I
 OLDACT:REG 16-04-05 05:23 OP:ak   STATUS:               ID:20160404222749     3
 2016-04-04-2227-49M.COL___305                                                 6
 STAT SP IPHASW D HRMM SECON CODA AMPLIT PERI AZIMU VELO AIN AR TRES W  DIS CAZ7
 BAR2 EZ EP       2239  6.79                             170    0.1410 22.1 177 
 BAR2 EZ ES       2239 20.94                             170   -0.2710 22.1 177 
 BAR2 EZ I        2239 22.48        10.0 0.30            168           22.1 177 
 RUS  HZ EP       2239 11.03                             142    0.0910  100 173 
 RUS  HE ES       2239 29.12                             142    0.2710  100 173 
 RUS  HZ I        2239 31.10         3.4 0.18            143            100 173 
 PTB  HZ EP       2239 13.13                             131   -0.72 9  143 259 
 PTB  HN ES       2239 34.06                             131    0.03 9  143 259 
 PTB  HZ I        2239 39.00         4.1 0.22            130            143 259 
 ZAR  HZ EP   2   2239 20.10                             121    0.62 4  200 293 
 ZAR  HE ES       2239 44.42                             121    0.37 9  200 293 
 ZAR  HZ I        2239 50.20         4.1 0.28            121            200 293 
                                                                                
