 2015  4 4 2343  7.1 L   6.825 -73.175142.0  RSN 20 0.6 2.1LRSN                1
 GAP= 53        2.29       5.4     6.0 10.4 -0.4496E+01  0.1709E+02  0.5792E+01E
 Epicentro: ZAPATOCA - SANTANDER                                               3
 ACTION:UPD 15-06-03 16:52 OP:cam  STATUS:               ID:20150404234307 L   I
 OLDACT:REG 15-04-05 03:06 OP:stll STATUS:               ID:20150404233750     3
 2015-04-04-2337-50M.COL___285                                                 6
 STAT SP IPHASW D HRMM SECON CODA AMPLIT PERI AZIMU VELO AIN AR TRES W  DIS CAZ7
 BAR2 EZ IP     D 2343 26.22                             169   -0.1210 25.8 182 
 BAR2 EZ ES       2343 41.58                             169    0.2410 25.8 182 
 BAR2 EZ I        2343 44.00        24.8 0.28            169           25.8 182 
 BRR  HZ EP     D 2343 27.98                             153    0.3710 67.1 298 
 BRR  HN ES       2343 44.67                             153    1.0610 67.1 298 
 BRR  HZ I        2343 47.47        16.0 0.34            151           67.1 298 
 PAM  SZ EP     C 2343 29.03                             149    0.1110 77.4  43 
 PAM  SZ I        2343 29.38        35.9 0.20            153           77.4  43 
 PAM  SN ES       2343 46.14                             149    0.2110 77.4  43 
 RUS  HZ EP       2343 30.14                             142   -0.5710  104 174 
 RUS  HN ES       2343 48.43                             142   -0.7010  104 174 
 RUS  HZ I        2343 50.25        10.3 0.28            144            104 174 
 PTB  HZ EP       2343 33.01                             131   -0.52 9  145 257 
 PTB  HN ES       2343 53.65                             131   -0.50 9  145 257 
 PTB  HZ I        2343 59.04        14.5 0.42            131            145 257 
 OCA  HZ EP       2343 34.99                             129    0.16 9  157 354 
 OCA  HN ES       2343 56.72                             129    0.27 9  157 354 
 OCA  HZ I        2344  1.71        22.3 0.34            130            157 354 
 TAM  HZ IP     C 2343 34.64                             128   -0.21 9  159 106 
 TAM  HZ I        2343 34.76        15.2 0.18            133            159 106 
 TAM  HN ES       2343 55.74                             128   -0.75 9  159 106 
 SPBC HE ES       2343 57.09                             128   -0.27 9  163 217 
 ZAR  HZ EP       2343 38.41                             121   -0.48 9  200 292 
 ZAR  HE ES       2344  3.51                             121   -0.17 9  200 292 
 ZAR  HZ I        2344  9.37        10.4 0.30            122            200 292 
 NOR  HZ EP       2343 42.38                             117   -0.14 8  234 233 
 NOR  HE ES       2344  9.60                             117   -0.54 8  234 233 
 NOR  HZ I        2344 17.57         9.9 0.12            118            234 233 
 SML  HZ EP       2343 43.22                             116    0.12 8  240 336 
 SML  HE ES       2344 11.14                             116   -0.03 8  240 336 
 SML  HZ I        2344 17.50        17.1 0.10            118            240 336 
 ROSC BZ EP       2343 46.83                             115    1.72 8  254 210 
 ROSC BN ES       2344 15.64                             115    0.89 8  254 210 
 ROSC BZ I        2344 20.71        15.1 0.40            117            254 210 
 HEL  HZ EP       2343 47.38                             114    0.52 8  270 255 
 HEL  HN ES       2344 18.01                             114    0.14 8  270 255 
 HEL  HZ I        2344 26.36         6.3 0.38            115            270 255 
 GUY2CHZ EP       2343 50.83                             111    0.40 7  300 234 
 GUY2CHN ES       2344 23.65                             111   -0.58 7  300 234 
 GUY2CHZ I        2344 32.59         6.5 0.62                           300 234 
 SOCV BZ EP   9   2343 49.04                             111   -1.07 0  302  58 
 SOCV BE ES       2344 20.60                                   -1.99 7  302  58 
 PTGC HZ IP   9 C 2343 49.49                             110   -1.74 0  312 158 
 PTGC HN ES       2344 22.57                                   -1.33 7  312 158 
 TOL  SZ EP       2343 55.56                             108    0.37 7  343 224 
 TOL  SN ES       2344 32.95                             108    0.26 7  343 224 
 MON  HZ EP   9   2343 58.82                             108    3.35 0  349 308 
 MON  HN ES       2344 31.37                                   -5.17 6  349 308 
 MON  HZ I        2344 34.28         2.5 0.30            109            349 308 
 ORTC HZ EP       2344  0.06                             105   -0.89 6  396 216 
 ORTC HE ES       2344 42.82                             105   -0.12 6  396 216 
 ORTC HZ I        2344 50.08         3.5 0.36            106            396 216 
 SJC  HZ EP   9   2344  1.08                             105   -0.98 0  405 327 
 SJC  HN ES       2344 40.63                                   -3.32 6  405 327 
                                                                                
