 2011  8 4 2343 45.2 L   6.828 -73.284126.8  RSN 13 0.5 2.8LRSN                1
 GAP=105        0.88       2.8     5.6  5.7 -0.4721E+01  0.1015E+02 -0.5953E+00E
 Epicentro: ZAPATOCA - SANTANDER                                               3
 ACTION:UPD 12-07-25 14:06 OP:epov STATUS:               ID:20110804234345 L   I
 2011-08-04-2342-10S.COL___138                                                 6
 STAT SP IPHASW D HRMM SECON CODA AMPLIT PERI AZIMU VELO AIN AR TRES W  DIS CAZ7
 BAR2 SZ IP       2344  3.01                             167    0.3610 28.4 157 
 BAR2 SZ ES   1   2344 16.56                             167    0.27 7 28.4 157 
 BAR2 SZ I        2344 17.91       217.7 0.27                          28.4 157 
 BRR  HZ IP     D 2344  3.73                             154    0.2910 56.5 303 
 BRR  HN ES   1   2344 18.09                             154    0.39 7 56.5 303 
 BRR  HZ I        2344 19.36       204.8 0.10                          56.5 303 
 PAM  SZ EP   1   2344  6.77                             144    0.79 7 85.8  49 
 PAM  SN ES   1   2344 21.76                             144   -0.46 7 85.8  49 
 RUS  HZ EP   1   2344  7.39                             138   -0.13 7  106 168 
 RUS  HN ES   1   2344 24.40                             138   -0.56 7  106 168 
 RUS  HZ I        2344 27.18       101.8 0.31                           106 168 
 OCA  SZ EP       2344 11.96                             126    0.31 9  156 359 
 OCA  SZ ES   1   2344 31.42                             126   -0.90 7  156 359 
 OCA  SZ I        2344 37.42       141.3 0.16                           156 359 
 NOR  SZ EP   1   2344 18.53                             115   -0.19 6  224 232 
 NOR  SE ES   2   2344 44.12                             115   -0.78 4  224 232 
 CHI  HZ EP   2   2344 22.51                             113    0.69 4  248 192 
 CHI  HE ES       2344 50.01                             113   -0.41 8  248 192 
 ROSC BN ES   2   2344 50.05                             113   -0.30 4  248 208 
 ROSC BZ I        2344 59.83        40.8 0.34                           248 208 
 CHI  HZ I        2344 56.57        28.2 0.29                           248 192 
 DBB  SZ EP   1   2344 29.88                             107   -0.25 5  324 274 
 TOL  SZ EP   1   2344 31.67                             106   -0.08 5  335 222 
 COD  HZ EP   1   2344 32.54                             106    0.17 5  344 357 
 COD  HN ES   1   2345  8.27                             106   -0.91 5  344 357 
 SDV  BZ EP   1   2344 35.03                             104   -0.69 5  370  52 
 SDV  BZ I        2345 18.84        12.4 0.54                           370  52 
 PRA  HZ EP   1   2344 38.42                             103    0.87 4  387 207 
 PRA  HN ES   1   2345 18.31                             103   -0.10 4  387 207 
                                                                                
