 2017  4 4 2201 15.7 L   6.059 -73.706118.6  RSN 12 0.4 2.3LRSN                1
 GAP= 65        0.98       2.3     2.3  5.2 -0.2674E+00  0.1658E+01  0.9020E+00E
 Epicentro: VELEZ - SANTANDER                                                  3
 ACTION:UPD 17-05-30 21:08 OP:jn   STATUS:               ID:20170404220115 L   I
 OLDACT:REG 17-04-05 04:35 OP:dnl  STATUS:               ID:20170404215745     3
 2017-04-04-2158-00M.COL___365                                                 6
 STAT SP IPHASW D HRMM SECON CODA AMPLIT PERI AZIMU VELO AIN AR TRES W  DIS CAZ7
 SPBC HZ IP     D 22 1 33.13                             151   -0.2910 60.6 222 
 SPBC HN ES       22 1 46.85                             151   -0.4210 60.6 222 
 SPBC HZ I        22 1 49.85        51.4 0.22            152           60.6 222 
 RUS  HZ IP     C 22 1 34.40                             147   -0.2710 71.3 105 
 RUS  HE ES       22 1 49.36                             147   -0.1310 71.3 105 
 RUS  HZ I        22 1 52.17        49.5 0.82            148           71.3 105 
 BAR2 EZ EP       22 1 35.20                             143    0.1110 82.6  44 
 BAR2 EZ ES       22 1 50.15                             143   -0.1010 82.6  44 
 PTB  HZ EP       22 1 35.21                             137   -0.8310 98.6 303 
 PTB  HE ES       22 1 52.00                             137    0.0710 98.6 303 
 PTB  HZ I        22 1 52.59        32.7 0.10            140           98.6 303 
 BRR  HZ EP       22 1 37.53                             132    0.0210  116 360 
 BRR  HN ES       22 1 55.19                             132    0.6410  116 360 
 BRR  HZ I        22 1 59.16        25.6 0.42            135            116 360 
 NOR  HZ EP       22 1 39.92                             127    0.06 9  140 247 
 NOR  HE ES       22 1 59.47                             127    0.75 9  140 247 
 NOR  HZ I        22 2  0.65        52.4 0.48            128            140 247 
 CHI  HZ EP       22 1 41.80                             123   -0.34 9  158 181 
 CHI  HN ES       22 2  2.51                             123   -0.28 9  158 181 
 CHI  HZ I        22 2  8.49        16.2 0.36            125            158 181 
 YPLC HZ EP       22 1 42.56                             122    0.25 9  164 116 
 YPLC HN ES       22 2  3.66                             122    0.57 9  164 116 
 YPLC HZ I        22 2  7.15        45.4 0.24            124            164 116 
 PAM  EZ EP       22 1 44.64                             119    0.12 9  180  38 
 PAM  EN ES       22 2  7.05                             119    0.02 9  180  38 
 PAM  EZ I        22 2 10.24        11.9 0.38            122            180  38 
 HEL  HZ EP       22 1 47.20                             116    0.42 9  202 274 
 HEL  HN ES       22 2 11.19                             116    0.15 9  202 274 
 HEL  HZ I        22 2 15.04        22.8 0.56            118            202 274 
 ZAR  HZ EP       22 1 46.09                             116   -0.33 9  203 321 
 ZAR  HN ES       22 2 10.16                             116   -0.25 9  203 321 
 ZAR  HZ I        22 2 12.10        30.2 0.28            118            203 321 
 PRA  HZ EP       22 1 56.09                             107   -0.29 7  291 207 
 PRA  HN ES       22 2 28.86                             107    0.73 7  291 207 
 PRA  HZ I        22 2 33.64        14.1 0.36            109            291 207 
                                                                                
