 2016  4 4 2052 49.9 L   6.409 -73.638109.9  RSN 33 0.6 3.3LRSN                1
 GAP= 44        1.24       2.3     2.3  5.6 -0.1204E+01  0.3453E+01 -0.2009E+01E
 Epicentro: SANTA HELENA DEL OPON - SANTANDER                                  3
      86.0      54.0    -180.0 14.0 13.0 20.0  0.0  0.1           RSN FPFIT    F
 ACTION:UPD 16-05-05 14:18 OP:rebc STATUS:               ID:20160404205249 L   I
 OLDACT:UP  16-04-05 07:35 OP:nlst STATUS:               ID:20160404205249 L   3
 OLDACT:REG 16-04-05 05:13 OP:ak   STATUS:               ID:20160404204745     3
 2016-04-04-2047-45M.COL___310                                                 6
 STAT SP IPHASW D HRMM SECON CODA AMPLIT PERI AZIMU VELO AIN AR TRES W  DIS CAZ7
 BAR2 EZ IP     D 2053  7.07                             152    0.5210 54.3  68 
 BAR2 EZ ES       2053 19.87                             152    0.3210 54.3  68 
 BAR2 EZ I        2053 21.51      1836.0 0.19            155           54.3  68 
 RUS  HZ IP     D 2053  8.88                             140   -0.0510 83.9 133 
 RUS  HE ES       2053 23.35                             140   -0.4310 83.9 133 
 PTB  HZ IP     C 2053  8.07                             137   -0.8310 91.6 279 
 PTB  HN ES   4   2053 22.11                             137   -1.62 0 91.6 279 
 SPBC HZ IP     C 2053  9.13                             135   -0.2810 96.5 210 
 SPBC HE ES       2053 24.18                             135   -0.4610 96.5 210 
 SPBC HZ I        2053 26.40       735.7 0.36            136           96.5 210 
 PAM  EZ IP     C 2053 15.27                             123    0.62 9  146  45 
 PAM  EN ES       2053 34.54                             123    0.57 9  146  45 
 PAM  EZ I        2053 39.92       290.9 0.60            125            146  45 
 NOR  HZ IP     C 2053 15.34                             119   -0.75 9  165 236 
 NOR  HE ES       2053 36.12                             119   -0.41 9  165 236 
 NOR  HZ I        2053 40.95       321.5 0.30            120            165 236 
 ZAR  HZ IP     D 2053 18.05                             116    0.39 9  180 312 
 ZAR  HN ES       2053 39.54                             116    0.22 9  180 312 
 ZAR  HZ I        2053 43.71       383.6 0.28            117            180 312 
 ROSC BZ EP       2053 19.84                             115    0.72 9  189 204 
 ROSC BE ES   4   2053 44.03                             115    2.10 0  189 204 
 ROSC BZ I        2053 48.22       186.6 0.35            116            189 204 
 CHI  HZ EP       2053 20.00                             114   -0.02 9  197 183 
 CHI  HE ES       2053 43.93                             114    0.42 9  197 183 
 CHI  HZ I        2053 46.92       189.8 0.24            116            197 183 
 TAM  HZ IP     D 2053 20.94                             113    0.58 9  204  89 
 TAM  HE ES       2053 43.13                             113   -0.99 9  204  89 
 TAM  HZ I        2053 43.76       202.2 0.24            115            204  89 
 OCA  HZ EP       2053 21.10                             113    0.48 8  205  10 
 OCA  HN ES       2053 45.37                             113    0.78 8  205  10 
 HEL  HZ EP       2053 21.45                             112   -0.03 8  211 264 
 HEL  HN ES       2053 46.09                             112   -0.02 8  211 264 
 HEL  HZ I        2053 49.12       220.6 0.22            113            211 264 
 GUY2CHZ EP       2053 23.95                             110   -0.07 8  232 236 
 GUY2CHN ES       2053 51.24                             110    0.60 8  232 236 
 GUY2CHZ I        2053 54.85       170.7 0.30                           232 236 
 VIL  SZ EP       2053 26.43                             108    0.28 8  254 181 
 VIL  SE ES       2053 54.97                             108    0.53 8  254 181 
 URE  HZ EP       2053 25.45                             107   -0.85 8  257 305 
 URE  HN ES       2053 54.06                             107   -0.65 8  257 305 
 URE  HZ I        2054  0.89       136.7 0.20            108            257 305 
 ELA  HZ EP       2053 27.88                             107    0.58 8  260 229 
 ELA  HN ES       2053 56.17                             107   -0.31 8  260 229 
 ELA  HZ I        2054  5.23       101.0 0.44            108            260 229 
 CBOC HZ EP       2053 28.87                             106    0.86 8  270 257 
 CBOC HE ES       2053 56.98                             106   -0.77 8  270 257 
 CBOC HZ I        2053 59.92        78.2 0.18            107            270 257 
 ANIL HZ EP       2053 30.93                             105    0.55 7  288 223 
 ANIL HE ES   4   2054  4.83                             105    2.87 0  288 223 
 ANIL HZ I        2054  7.17       281.7 0.30            106            288 223 
 DBB  SZ EP       2053 30.90                             105    0.35 7  292 283 
 DBB  SZ ES       2054  2.63                             105    0.36 7  292 283 
 DBB  SZ I        2054 12.75       236.0 0.36            106            292 283 
 PTGC HZ IP     D 2053 30.03                             104   -0.86 7  296 146 
 PTGC HN ES   4   2054  0.90                             104   -1.96 0  296 146 
 PTGC HZ I        2054  7.79        75.5 0.20            106            296 146 
 ORTC HZ EP       2053 34.83                             102   -0.03 7  329 213 
 ORTC HN ES   4   2054 11.76                             102    1.83 0  329 213 
 ORTC HZ I        2054 20.87        62.6 0.32            103            329 213 
 PAL  HZ EP       2053 36.55                             102    0.71 7  337 241 
 PAL  HE ES       2054 11.24                             102   -0.44 7  337 241 
 PAL  HZ I        2054 15.85        48.5 0.22            103            337 241 
 MON  HZ EP       2053 35.78                             101   -0.88 7  345 320 
 MON  HE ES       2054 12.88                             101   -0.26 7  345 320 
 MON  HZ I        2054 19.62        36.5 0.30            103            345 320 
 LL1C HZ EP   4   2053 38.58                             101    1.68 0  347   2 
 LL1C HN ES   4   2054 17.92                             101    4.36 0  347   2 
 SOCV BZ EP       2053 40.13                             100    0.31 6  371  56 
 SOCV BN ES       2054 16.97                             100   -1.80 6  371  56 
 SJC  HZ EP   9   2053 44.54                              98   -1.45 0  421 336 
 SJC  HE ES       2054 27.71                                   -0.59 5  421 336 
 SJC  HZ I        2054 31.08        31.7 0.26             99            421 336 
 SDV  BZ EP       2053 47.53                              98    0.35 5  430  50 
 SDV  BE ES       2054 30.70                              98   -1.17 5  430  50 
 SDV  BZ I        2054 33.77        47.2 0.40             99            430  50 
 GUA  SZ EP   4   2053 45.89                              97   -2.48 0  442 165 
 GUA  SN ES   4   2054 31.06                              97   -2.93 0  442 165 
 GUA  SZ I        2054 33.85       114.7 0.28             99            442 165 
 MARA HZ EP   2   2053 51.57                              96   -0.65 2  471 213 
 MARA HN ES   4   2054 39.67                              96   -1.16 0  471 213 
 MACC HZ EP   4   2053 50.00                              96   -2.05 0  472 183 
 MACC HN ES   4   2054 36.82                              96   -3.72 0  472 183 
 MACC HZ I        2054 42.56        49.4 0.66             97            472 183 
 GARC HZ EP   4   2053 55.64                              95   -1.34 0  510 204 
 GARC HE ES   4   2054 44.08                              95   -5.23 0  510 204 
 CRJC HZ EP       2053 57.31                              95   -0.26 4  517   9 
 CRJC HN ES       2054 50.25                              95   -0.11 4  517   9 
 CRJC HZ I        2054 57.08       101.9 0.32             96            517   9 
 SMAR HZ EP       2053 59.25                              95    0.21 4  530 353 
 SMAR HN ES       2054 53.26                              95    0.28 4  530 353 
 PCON HZ EP       2054  2.18                              94    0.55 4  545 214 
 SOTA HZ EP   4   2054  6.17                              94    0.88 0  576 215 
 URI  HZ EP   4   2054  7.86                              93   -1.25 0  613  17 
 URI  HE ES   4   2055  8.79                              93   -2.12 0  613  17 
 URI  HZ I        2055 12.81        12.2 0.30             94            613  17 
                                                                                
