 2016  5 4 2239 28.8 L   6.801 -73.149147.9  RSN 17 0.4 2.6LRSN                1
 GAP=136        0.91       2.8     3.4  4.5 -0.4601E+00  0.4164E+01  0.2960E+01E
 Epicentro: LOS SANTOS - SANTANDER                                             3
 ACTION:UPD 16-08-18 17:42 OP:cam  STATUS:               ID:20160504223928 L   I
 OLDACT:UP  16-05-05 09:26 OP:mh   STATUS:               ID:20160504223747     3
 OLDACT:UP  16-05-05 09:26 OP:mh   STATUS:               ID:20160504223747     3
 OLDACT:UP  16-05-05 09:25 OP:mh   STATUS:               ID:20160504223747     3
 OLDACT:UP  16-05-05 09:25 OP:mh   STATUS:               ID:20160504223747     3
 OLDACT:UP  16-05-05 09:25 OP:mh   STATUS:               ID:20160504223747     3
 OLDACT:REG 16-05-05 05:10 OP:mh   STATUS:               ID:20160504223747     3
 2016-05-04-2237-47M.COL___301                                                 6
 STAT SP IPHASW D HRMM SECON CODA AMPLIT PERI AZIMU VELO AIN AR TRES W  DIS CAZ7
 BAR2 EZ EP       2239 48.70                             171    0.0410 23.4 189 
 BAR2 EZ ES       2240  3.87                             171   -0.3010 23.4 189 
 BAR2 EZ I        2240  4.95        92.6 0.28            169           23.4 189 
 BRR  HZ EP       2239 50.62                             153    0.4910 70.8 299 
 BRR  HE ES       2240  7.41                             153    0.6210 70.8 299 
 BRR  HZ I        2240  8.22        68.0 0.09            152           70.8 299 
 PAM  EZ EP       2239 51.46                             151    0.2410 77.5  40 
 PAM  EN ES       2240  8.50                             151   -0.2310 77.5  40 
 PAM  EZ I        2240 10.96        95.0 0.34            154           77.5  40 
 RUS  HZ EP       2239 52.68                             144   -0.0610  101 176 
 RUS  HN ES       2240 11.53                             144    0.0910  101 176 
 RUS  HZ I        2240 12.74        39.7 0.42            144            101 176 
 PTB  HZ EP       2239 55.30                             132   -0.58 9  147 259 
 PTB  HN ES       2240 16.51                             132   -0.52 9  147 259 
 PTB  HZ I        2240 19.44        38.9 0.11            132            147 259 
 SPBC HZ EP       2239 57.67                             129    0.25 9  163 219 
 SPBC HN ES       2240 19.13                             129   -0.64 9  163 219 
 SPBC HZ I        2240 25.74        69.7 0.24            129            163 219 
 ZAR  HZ EP       2240  1.21                             123   -0.11 9  204 292 
 ZAR  HN ES       2240 26.62                             123   -0.08 9  204 292 
 ZAR  HZ I        2240 32.49                             123            204 292 
 NOR  HZ EP       2240  4.75                             119    0.15 8  234 234 
 NOR  HN ES       2240 32.69                             119    0.14 8  234 234 
 NOR  HZ I        2240 34.94        23.2 0.16            119            234 234 
 CHI  HZ EP       2240  6.77                             117    0.18 8  249 195 
 CHI  HN ES       2240 36.21                             117    0.12 8  249 195 
 CHI  HZ I        2240 40.23        25.7 0.39            118            249 195 
 ROSC BZ EP   4   2240  8.34                             117    1.34 0  253 211 
 ROSC BN ES   4   2240 38.31                             117    1.49 0  253 211 
 ROSC BZ I        2240 42.60        45.9 0.36            117            253 211 
 HEL  HZ EP       2240  9.72                             115    0.66 8  272 256 
 HEL  HN ES       2240 41.01                             115    0.53 8  272 256 
 HEL  HZ I        2240 47.01        17.3 0.19            115            272 256 
 URE  HZ EP   4   2240  8.85                             114   -1.05 0  283 292 
 URE  HN ES   4   2240 40.49                             114   -1.50 0  283 292 
 VIL  SZ EP   1   2240 12.31                             112    0.02 5  303 192 
 VIL  SN ES       2240 46.21                             112   -0.03 7  303 192 
 PTGC HZ EP   4   2240 11.79                             112   -0.96 0  309 159 
 PTGC HN ES   4   2240 44.89                             112   -2.16 0  309 159 
 PTGC HZ I        2240 50.23        26.7 0.46            113            309 159 
 PRA  HZ EP       2240 22.43                             107    0.07 6  392 210 
 PRA  HN ES       2241  4.12                             107   -0.04 6  392 210 
 PRA  HZ I        2241  8.74        17.6 0.20            107            392 210 
 ORTC HZ EP       2240 22.75                             107   -0.00 6  395 216 
 ORTC HN ES       2241  4.66                             107   -0.20 6  395 216 
 ORTC HZ I        2241  9.84        12.0 0.34            107            395 216 
 SJC  HZ EP       2240 22.89                             106   -1.48 6  409 327 
 SJC  HN ES   4   2241  2.74                             106   -4.99 0  409 327 
 CRJC HZ EP   4   2240 28.94                             104   -2.38 0  468   4 
 CRJC HN ES   4   2241 16.77                             104   -3.33 0  468   4 
 CRJC HZ I        2241 23.41        11.8 0.20            104            468   4 
                                                                                
