 2017  8 4 2053 28.1 L   6.764 -73.129142.9  RSN  8 0.3 1.7LRSN                1
 GAP=115        0.80       3.0     3.0  4.7  0.1911E+01  0.2164E+01  0.1587E+01E
 Epicentro: LOS SANTOS - SANTANDER                                             3
 ACTION:UPD 17-09-04 20:16 OP:rebc STATUS:               ID:20170804205328 L   I
 OLDACT:REG 17-08-05 04:13 OP:lv   STATUS:               ID:20170804204741     3
 2017-08-04-2048-00M.COL___402                                                 6
 STAT SP IPHASW D HRMM SECON CODA AMPLIT PERI AZIMU VELO AIN AR TRES W  DIS CAZ7
 BAR2 EZ EP       2053 47.23                             172   -0.0510 19.9 197 
 BAR2 EZ ES       2054  2.03                             172   -0.2510 19.9 197 
 BAR2 EZ I        2054  3.76        13.8 0.12            172           19.9 197 
 BRR  HZ EP       2053 49.16                             151    0.0510 74.7 301 
 BRR  HE ES       2054  5.79                             151    0.2610 74.7 301 
 PAM  EZ EP       2053 50.12                             150    0.0210 79.4  37 
 PAM  EN ES       2054  7.25                             150   -0.0410 79.4  37 
 PAM  EZ I        2054  9.81         5.2 0.47            151           79.4  37 
 RUS  HZ EP       2053 51.21                             144   -0.0310 96.5 177 
 RUS  HN ES       2054  9.79                             144    0.4710 96.5 177 
 PTB  HZ EP       2053 54.45                             131   -0.45 9  149 260 
 PTB  HN ES       2054 15.27                             131   -0.56 9  149 260 
 PTB  HZ I        2054 16.05         4.8 0.14            132            149 260 
 SPBC HZ EP       2053 56.17                             129    0.01 9  161 220 
 SPBC HN ES       2054 18.46                             129    0.38 9  161 220 
 SPBC HZ I        2054 21.00         7.9 0.13            130            161 220 
 YPLC HZ EP       2053 57.62                             127    0.40 9  172 151 
 YPLC HN ES       2054 19.42                             127   -0.55 9  172 151 
 ZAR  HZ EP       2054  0.78                             121    0.13 8  207 293 
 ZAR  HE ES       2054 26.28                             121    0.20 8  207 293 
 ZAR  HZ I        2054 30.22         5.3 0.13            122            207 293 
                                                                                
