 2013  3 4 2043  4.6 L   6.801 -73.120134.0  RSN  6 0.4 1.3LRSN                1
 GAP=140        0.79       5.2     5.0  8.7 -0.1740E+00  0.4873E+01  0.5631E-01E
 Epicentro: LOS SANTOS - SANTANDER                                             3
 ACTION:UPD 13-04-09 13:59 OP:ep   STATUS:               ID:20130304204304 L   I
 2013-03-04-2040-00M.COL___228                                                 6
 STAT SP IPHASW D HRMM SECON CODA AMPLIT PERI AZIMU VELO AIN AR TRES W  DIS CAZ7
 BAR2 SZ ES   1   2043 37.08                             169   -0.01 7 24.1 197 
 BAR2 SZ I        2043 40.28        10.1 0.30            173           24.1 197 
 BRR  HZ EP   1   2043 24.75                             149    0.08 7 73.6 297 
 BRR  HN ES   1   2043 40.90                             149    0.60 7 73.6 297 
 BRR  HZ I        2043 44.64        12.8 0.28            153           73.6 297 
 PAM  SZ EP   1   2043 25.54                             149    0.06 7 75.5  38 
 PAM  SN ES   1   2043 41.29                             149   -0.47 7 75.5  38 
 PAM  SZ I        2043 46.24         2.8 0.48            152           75.5  38 
 RUS  HZ EP   1   2043 27.38                             141    0.14 7  101 178 
 RUS  HN ES   1   2043 45.07                             141    0.19 7  101 178 
 RUS  HZ I        2043 46.94         1.8 0.26            148            101 178 
 PTB  HZ EP   4   2043 29.32                             129   -1.61 0  151 259 
 PTB  HN ES   1   2043 50.59                             129   -0.86 7  151 259 
 PTB  HZ I        2043 52.32         1.9 0.18            135            151 259 
 ZAR  HE ES   2   2044  2.02                             119    0.47 4  207 292 
                                                                                
