 2011  1 4 2130 20.3 L   6.765 -73.179140.4  RSN  5 0.2 1.5LRSN                1
 GAP=176        0.61       4.5    22.3  6.5  0.9131E+01  0.2337E+02  0.1950E+01E
 Epicentro: LOS SANTOS - SANTANDER                                             3
 ACTION:UP  11-02-08 08:38 OP:pat  STATUS:               ID:20110104213020 L   I
 2011-01-04-2127-27S.COL___134                                                 6
 STAT SP IPHASW D HRMM SECON CODA AMPLIT PERI AZIMU VELO SNR AR TRES W  DIS CAZ7
 BAR2 SZ ES   1   2130 54.22                             172     0.3 7   19 182 
 BAR2 SZ I        2130 55.69        10.1 0.24                            19 182 
 BTL  SZ EP       2130 39.39                             172     0.210   20 330 
 BTL  SZ ES   2   2130 53.74                             172    -0.2 5   20 330 
 GIR2 SZ EP       2130 39.21                             165    -0.210   35 357 
 RUS  HZ EP       2130 43.50                             144     0.210   97 174 
 RUS  HN ES   1   2131  0.87                             144    -0.3 7   97 174 
 RUS  HZ I        2131  3.02         3.8 0.40                            97 174 
 CHI  HZ EP   2   2130 56.83                             116    -0.4 4  244 195 
 CHI  HN ES   2   2131 26.14                             116     0.1 4  244 195 
 CHI  HZ I        2131 32.67         2.2 0.44                           244 195 
                                                                                
