 2015  4 4 2358 55.4 L   6.828 -73.145138.8  RSN 23 0.5 2.4LRSN                1
 GAP= 53        1.46       3.4     3.8  6.3 -0.1888E+01  0.7136E+01  0.2605E+01E
 Epicentro: LOS SANTOS - SANTANDER                                             3
 ACTION:UPD 15-06-03 16:52 OP:cam  STATUS:               ID:20150404235855 L   I
 OLDACT:DUP 15-04-05 07:15 OP:stll STATUS:               ID:20150404234751d    3
 OLDACT:DUP 15-04-05 06:37 OP:stll STATUS:               ID:20150404234750d    3
 2015-04-04-2347-49M.COL___285                                                 6
 STAT SP IPHASW D HRMM SECON CODA AMPLIT PERI AZIMU VELO AIN AR TRES W  DIS CAZ7
 BAR2 EZ EP       2359 14.32                             169    0.0910 26.4 189 
 BAR2 EZ ES       2359 28.95                             169    0.0010 26.4 189 
 BAR2 EZ I        2359 30.79        38.9 0.60            168           26.4 189 
 BRR  HZ IP     C 2359 16.12                             152    0.4310 69.8 296 
 BRR  HN ES       2359 32.62                             152    1.0810 69.8 296 
 BRR  HZ I        2359 36.82        30.5 0.14            147           69.8 296 
 PAM  SZ IP     D 2359 17.08                             150    0.3810 75.0  41 
 PAM  SZ I        2359 17.37        52.0 0.20            151           75.0  41 
 PAM  SN ES       2359 33.78                             150    0.4410 75.0  41 
 RUS  HZ EP       2359 18.29                             141   -0.3910  104 176 
 RUS  HN ES       2359 36.41                             141   -0.4410  104 176 
 RUS  HZ I        2359 38.73        33.6 0.26            142            104 176 
 PTB  HZ EP       2359 20.85                             130   -0.99 9  148 258 
 PTB  HE ES       2359 42.14                             130   -0.35 9  148 258 
 PTB  HZ I        2359 44.06        26.5 0.14            127            148 258 
 TAM  HZ IP     D 2359 22.67                             129    0.09 9  156 106 
 TAM  HZ I        2359 22.91        45.7 0.38            130            156 106 
 TAM  HN ES       2359 43.46                             129   -0.34 9  156 106 
 OCA  HZ EP       2359 22.54                             128   -0.32 9  157 353 
 OCA  HN ES       2359 43.96                             128   -0.34 9  157 353 
 OCA  HZ I        2359 51.10        39.2 0.22            127            157 353 
 SPBC HZ EP       2359 23.28                             127   -0.30 9  166 218 
 SPBC HE ES       2359 45.56                             127   -0.03 9  166 218 
 SPBC HZ I        2359 51.08        37.8 0.10            125            166 218 
 ZAR  HZ EP       2359 27.09                             121   -0.17 9  203 291 
 ZAR  HE ES       2359 52.19                             121    0.06 9  203 291 
 ZAR  HZ I        2359 58.61        25.7 0.44            119            203 291 
 NOR  HZ EP       2359 30.68                             117   -0.23 8  237 234 
 NOR  HN ES       2359 58.55                             117   -0.08 8  237 234 
 NOR  HZ I        24 0  2.12        20.4 0.26            115            237 234 
 SML  HZ EP       2359 30.76                             116   -0.55 8  241 335 
 SML  HN ES       2359 58.99                             116   -0.36 8  241 335 
 SML  HZ I        24 0  6.56        19.2 0.26            115            241 335 
 ROSC BZ EP       2359 33.70                             115    0.28 8  255 211 
 ROSC BE ES       24 0  3.82                             115    0.73 8  255 211 
 ROSC BZ I        24 0 13.02        21.2 0.35            114            255 211 
 HEL  HZ EP       2359 35.79                             113    0.46 8  273 255 
 HEL  HE ES       24 0  5.65                             113   -0.85 8  273 255 
 HEL  HZ I        24 0 12.82        19.9 0.36            112            273 255 
 URE  HZ EP   9   2359 34.14                             112   -1.85 0  283 291 
 URE  HE ES       24 0  5.92                                    0.10 7  283 291 
 URE  HZ I        24 0  9.65        15.9 0.18            111            283 291 
 SOCV BZ EP   9   2359 37.09                             111   -0.82 0  300  57 
 SOCV BN ES       24 0  8.37                                   -1.90 7  300  57 
 GUY2CHZ EP       2359 38.98                             111    0.10 7  303 234 
 GUY2CHN ES       24 0 12.58                             111   -0.23 7  303 234 
 GUY2CHZ I        24 0 19.62         9.2 0.40                           303 234 
 PTGC HZ IP   9 C 2359 37.68                             110   -1.57 0  312 159 
 PTGC HN ES       24 0 10.05                                   -1.86 7  312 159 
 RREF HN EP       2359 41.74                             109    0.28 7  324 229 
 RREF HE ES       24 0 16.85                             109   -0.56 7  324 229 
 CBOC HZ EP       2359 43.20                             108    1.08 7  335 252 
 CBOC HZ I        2359 45.25         4.8 0.20            107            335 252 
 DBB  SZ EP       2359 42.98                             108    0.42 7  339 274 
 DBB  SZ I        24 0 22.50        31.0 0.58            107            339 274 
 TOL  SZ EP       2359 44.07                             108    0.45 6  346 224 
 TOL  SN ES       24 0 22.32                             108    1.07 6  346 224 
 ORTC HZ EP       2359 49.48                             105    0.12 6  398 216 
 ORTC HE ES       24 0 31.27                             105   -0.20 6  398 216 
 ORTC HZ I        24 0 39.16        11.4 0.84            104            398 216 
 SJC  HZ EP   9   2359 48.80                             105   -1.61 0  407 327 
 SJC  HN ES       24 0 29.41                                   -2.32 6  407 327 
 SJC  HZ I        24 0 34.05         5.0 0.42            104            407 327 
                                                                                
