 2012  1 4 2215 16.0 L   6.763 -73.129146.0  RSN 12 0.3 2.5LRSN                1
 GAP=140        0.85       3.5     4.4  5.0 -0.1044E+01  0.6622E+01  0.3674E+01E
 Epicentro: LOS SANTOS - SANTANDER                                             3
 ACTION:UP  12-02-03 08:14 OP:REBC STATUS:               ID:20120104221516 L   I
 2012-01-04-2210-00M.COL___189                                                 6
 STAT SP IPHASW D HRMM SECON CODA AMPLIT PERI AZIMU VELO SNR AR TRES W  DIS CAZ7
 BAR2 SZ IP       2215 35.67                             172     0.010   20 197 
 BAR2 SZ ES       2215 51.15                             172     0.210   20 197 
 BAR2 SZ I        2215 52.22        87.1 0.10                            20 197 
 GIR2 SZ EP       2215 35.73                             166    -0.110   36 348 
 GIR2 SZ ES   2   2215 51.21                             166    -0.1 5   36 348 
 BRR  HZ IP     C 2215 37.53                             151     0.110   75 301 
 BRR  HZ I        2215 37.77       159.8 0.14                            75 301 
 BRR  HN ES       2215 54.60                             151     0.510   75 301 
 PAM  SZ EP       2215 38.52                             150     0.110   79  37 
 PAM  SN ES       2215 55.49                             150    -0.410   79  37 
 RUS  HZ EP       2215 39.57                             145     0.010   96 177 
 RUS  HN ES   1   2215 57.60                             145    -0.2 7   96 177 
 RUS  HZ I        2215 59.59        48.9 0.45                            96 177 
 PTB  HZ EP       2215 42.35                             132    -0.8 9  149 260 
 OCA  SZ EP   1   2215 45.36                             129     0.6 7  165 353 
 OCA  SZ ES   1   2216  7.19                             129     0.0 7  165 353 
 OCA  SZ I        2216 12.00        27.6 0.18                           165 353 
 ZAR  HZ EP   1   2215 48.49                             122    -0.4 6  207 293 
 ZAR  HN ES   1   2216 14.13                             122    -0.3 6  207 293 
 ZAR  HZ I        2216 20.60        32.8 0.28                           207 293 
 NOR  SZ EP   1   2215 51.58                             119    -0.1 6  234 236 
 NOR  SN ES   1   2216 19.59                             119     0.1 6  234 236 
 CHI  HZ EP       2215 53.73                             118     0.3 8  245 196 
 CHI  HZ I        2215 54.32         9.8 0.22                           245 196 
 HEL  HZ EP   1   2215 56.77                             115     0.4 6  273 257 
 HEL  HZ I        2216 34.91        10.9 0.30                           273 257 
 PRA  HZ EP   1   2216  9.29                             107     0.0 4  389 210 
                                                                                
