 2011  8 4 2140 21.3 L   6.777 -73.112145.5  RSN  9 0.4 2.4LRSN                1
 GAP=142        0.66       3.4     4.2  5.0 -0.5918E+01  0.3983E+01  0.4994E+01E
 Epicentro: LOS SANTOS - SANTANDER                                             3
 ACTION:UPD 12-07-25 14:06 OP:epov STATUS:               ID:20110804214021 L   I
 2011-08-04-2140-00M.COL___145                                                 6
 STAT SP IPHASW D HRMM SECON CODA AMPLIT PERI AZIMU VELO AIN AR TRES W  DIS CAZ7
 BAR2 SZ EP       2140 40.99                             171    0.1010 21.9 201 
 BAR2 SZ ES   1   2140 56.03                             171   -0.13 7 21.9 201 
 BAR2 SZ I        2140 58.95        84.2 0.37                          21.9 201 
 BRR  HZ IP     C 2140 42.83                             151    0.1310 75.7 299 
 BRR  HN ES   1   2140 59.60                             151    0.22 7 75.7 299 
 BRR  HZ I        2141  4.96        33.1 0.11                          75.7 299 
 PAM  SZ EP       2140 43.65                             151    0.1710 77.0  36 
 PAM  SN ES   1   2141  0.32                             151   -0.46 7 77.0  36 
 RUS  HZ EP       2140 44.87                             144    0.0210 97.9 178 
 RUS  HN ES   1   2141  3.33                             144    0.12 7 97.9 178 
 RUS  HZ I        2141  4.89        19.1 0.33                          97.9 178 
 NOR  SZ EP   1   2140 56.47                             118   -0.74 6  236 235 
 NOR  SN ES       2141 25.29                             118    0.09 8  236 235 
 CHI  HZ EP   1   2140 58.88                             117    0.03 6  247 196 
 CHI  HN ES   1   2141 28.33                             117    0.20 6  247 196 
 CHI  HZ I        2141 38.20        11.9 0.20                           247 196 
 ROSC BZ EP   1   2140 59.07                             117   -0.33 6  253 212 
 ROSC BN ES   1   2141 28.45                             117   -0.66 6  253 212 
 ROSC BZ I        2141 37.27        28.6 0.50                           253 212 
 RREF HZ EP   1   2141  8.17                             111    0.58 5  323 230 
 RREF HN ES   1   2141 43.17                             111   -0.51 5  323 230 
 RREF HZ I        2141 52.40        14.4 0.13                           323 230 
 PRA  HZ EP   1   2141 14.62                             106   -0.17 4  392 210 
 PRA  HN ES   1   2141 57.56                             106    1.05 4  392 210 
                                                                                
