 2015  1 4 2143 59.2 L   6.812 -73.115141.4  RSN  7 0.4 1.6LRSN                1
 GAP=204        0.84       4.3     5.4  7.7  0.5002E+01  0.8744E+01 -0.7207E+01E
 Epicentro: LOS SANTOS - SANTANDER                                             3
 ACTION:UPD 15-03-02 15:36 OP:nd   STATUS:               ID:20150104214359 L   I
 OLDACT:REG 15-01-05 07:34 OP:spq  STATUS:               ID:20150104213746     3
 2015-01-04-2137-46M.COL___280                                                 6
 STAT SP IPHASW D HRMM SECON CODA AMPLIT PERI AZIMU VELO AIN AR TRES W  DIS CAZ7
 BAR2 EZ ES   1   2144 32.83                             169   -0.44 8 25.4 197 
 BAR2 EZ I        2144 36.21         5.6 0.04            167           25.4 197 
 BRR  HZ EP   1   2144 20.68                             151    0.67 8 73.6 296 
 RUS  HZ EP       2144 22.75                             143    0.1610  102 178 
 RUS  HE ES   1   2144 41.09                             143    0.24 7  102 178 
 RUS  HZ I        2144 42.81         2.5 0.18            147            102 178 
 PTB  HZ EP   1   2144 25.70                             130   -0.43 7  151 259 
 PTB  HN ES   1   2144 46.91                             130   -0.24 7  151 259 
 PTB  HZ I        2144 54.02         6.5 0.28            132            151 259 
 ZAR  HZ EP   1   2144 31.49                             121   -0.14 6  207 291 
 ZAR  HE ES       2144 57.57                             121    0.64 8  207 291 
 ZAR  HZ I        2145  4.00         3.0 0.20            123            207 291 
 NOR  HZ EP       2144 35.20                             117    0.15 8  238 235 
 NOR  HN ES       2145  2.60                             117   -0.42 8  238 235 
 NOR  HZ I        2145  6.40         2.5 0.16            120            238 235 
 SML  HZ EP   1   2144 35.06                             116   -0.54 6  244 334 
 SML  HE ES   1   2145  3.63                             116   -0.37 6  244 334 
 SML  HZ I        2145  6.62         6.5 0.28            120            244 334 
                                                                                
