 2012  2 4 2117 37.9 L   6.789 -73.110152.3  RSN  6 0.4 1.3LRSN                1
 GAP=142        0.52       7.7     8.8 10.3  0.2310E+02 -0.2115E+01  0.5561E+02E
 ACTION:UP  12-03-07 16:27 OP:epov STATUS:               ID:20120204211737 L   I
 2012-02-04-2110-00M.COL___188                                                 6
 STAT SP IPHASW D HRMM SECON CODA AMPLIT PERI AZIMU VELO SNR AR TRES W  DIS CAZ7
 GIR2 SZ EP   3   2117 59.02                             167    0.64 2 33.4 344 
 BRR  HZ EP       2118  0.09                             152    0.1310 75.2 298 
 BRR  HZ I        2118  3.62         7.3 0.50                          75.2 298 
 BRR  HN ES   1   2118 17.24                             152    0.05 7 75.2 298 
 PAM  SZ EP   3   2118  0.69                             152   -0.02 2 75.9  37 
 PAM  SN ES   3   2118 17.82                             152   -0.70 2 75.9  37 
 RUS  HZ EP       2118  2.09                             145   -0.0910 99.2 178 
 RUS  HZ I        2118  2.85         1.5 0.48                          99.2 178 
 PTB  HZ EP   2   2118  4.88                             133   -0.83 5  151 260 
 PTB  HZ I        2118 28.18         2.8 0.36                           151 260 
 CHI  HZ EP       2118 16.10                             118    0.17 8  249 196 
 CHI  HZ I        2118 17.75         1.4 0.66                           249 196 
                                                                                
