 2014  6 4 2031 48.2 L   7.417 -73.362117.0  RSN  8 0.5 2.4LRSN                1
 GAP=124        1.23       5.5     5.0  8.3  0.2170E+01  0.1224E+02 -0.5273E+01E
 Epicentro: SABANA DE TORRES - SANTANDER                                       3
 ACTION:UPD 14-07-01 22:50 OP:nd   STATUS:               ID:20140604203148 L   I
 OLDACT:UP  14-06-05 02:43 OP:cam  STATUS:               ID:20140604203000     3
 OLDACT:REG 14-06-05 02:30 OP:cam  STATUS:               ID:20140604203000     3
 2014-06-04-2030-00M.COL___276                                                 6
 STAT SP IPHASW D HRMM SECON CODA AMPLIT PERI AZIMU VELO AIN AR TRES W  DIS CAZ7
 BRR  HZ EP     D 2032  4.99                             155   -0.1410 51.6 228 
 BRR  HN ES       2032 17.94                             155   -0.4110 51.6 228 
 BRR  HZ I        2032 18.65        48.7 0.12            151           51.6 228 
 PAM  SZ EP     D 2032  7.77                             146    0.6010 73.6  97 
 PAM  SE ES       2032 22.31                             146    0.3310 73.6  97 
 PAM  SN I        2032 23.24        85.1 0.26            148           73.6  97 
 BAR2 SZ EP       2032  8.36                             139    0.0710 93.4 168 
 BAR2 SZ ES       2032 23.59                             139   -0.3810 93.4 168 
 BAR2 SZ I        2032 24.94       128.7 0.24            137           93.4 168 
 PTB  HZ EP       2032 13.14                             123   -0.58 9  155 231 
 PTB  HE ES   4   2032 32.37                             123   -1.26 0  155 231 
 PTB  HZ I        2032 36.57        14.3 0.20            121            155 231 
 ZAR  HZ EP       2032 14.93                             121    0.16 9  165 273 
 ZAR  HE ES       2032 36.40                             121    0.89 9  165 273 
 ZAR  HZ I        2032 38.40        30.6 0.22            120            165 273 
 RUS  HZ EP       2032 15.69                             120   -0.34 9  171 170 
 RUS  HN ES   4   2032 35.84                             120   -1.91 0  171 170 
 SML  HZ EP       2032 14.62                             120   -0.82 9  172 333 
 SML  HE ES   4   2032 35.10                             120   -1.59 0  172 333 
 SML  HZ I        2032 39.10        53.9 0.10            120            172 333 
 SPBC HZ EP   1   2032 20.56                             115    0.82 6  210 202 
 SPBC HE ES       2032 44.58                             115    0.22 8  210 202 
 SPBC HZ I        2032 54.69        11.5 0.22            113            210 202 
                                                                                
