 2011 12 4 2048 46.1 L   6.736 -73.505106.3  RSN 17 0.3 2.6LRSN                1
 GAP= 61        0.61       2.2     3.1  3.8 -0.9528E+00  0.4921E+01  0.1450E+01E
 Epicentro: EL CARMEN DE CHUCURI - SANTANDER                                   3
 ACTION:UPD 12-07-13 16:14 OP:ep   STATUS:               ID:20111204204846 L   I
 2011-12-04-2047-43S.COL___157                                                 6
 STAT SP IPHASW D HRMM SECON CODA AMPLIT PERI AZIMU VELO AIN AR TRES W  DIS CAZ7
 BAR2 SZ EP       2049  1.82                             158    0.2710 39.1 114 
 BAR2 SZ ES   1   2049 13.92                             158    0.30 7 39.1 114 
 BAR2 SZ I        2049 15.86       420.1 0.26                          39.1 114 
 BRR  HZ EP   1   2049  1.55                             154   -0.03 7 46.9 331 
 BRR  HZ I        2049  2.40       240.7 0.12                          46.9 331 
 BRR  HN ES   1   2049 13.98                             154    0.29 7 46.9 331 
 GIR2 SZ EP       2049  2.24                             152    0.2210 51.2  42 
 GIR2 SZ ES   1   2049 13.94                             152   -0.53 7 51.2  42 
 RUS  HZ EP   1   2049  6.36                             132   -0.16 7  104 153 
 RUS  HE ES   1   2049 21.83                             132   -0.65 7  104 153 
 RUS  HZ I        2049 23.95        91.2 0.24                           104 153 
 PAM  SZ EP   1   2049  7.20                             130    0.05 7  111  53 
 PAM  SN ES   1   2049 23.52                             130   -0.07 7  111  53 
 PAM  SZ I        2049 24.94        32.2 0.25                           111  53 
 BRI  SZ EP   1   2049  9.18                             124    0.26 7  134  36 
 BRI  SZ ES   2   2049 26.41                             124   -0.33 5  134  36 
 OCA  SZ EP       2049 12.35                             117   -0.07 9  167   7 
 OCA  SZ I        2049 40.24        77.0 0.31                           167   7 
 YOP  SZ EP   1   2049 15.87                             113    0.54 6  194 142 
 YOP  SE ES   2   2049 38.44                             113    0.29 4  194 142 
 NOR  SZ EP   1   2049 15.23                             113   -0.55 6  199 229 
 HEL  HZ EP   1   2049 20.10                             109    0.18 6  232 255 
 HEL  HZ I        2049 49.90        17.9 0.29                           232 255 
 CHI  HZ EP   2   2049 19.78                             109   -0.48 4  234 186 
 CHI  HZ I        2049 57.00        14.5 0.39                           234 186 
 GUY  SZ EP   1   2049 24.24                             106    0.04 6  267 231 
 GUY  SN ES   2   2049 54.06                             106    0.12 4  267 231 
 GUY  SZ I        2050  0.92        35.1 0.43                           267 231 
 RREF HZ EP   1   2049 26.86                             104    0.07 5  288 225 
 RREF HZ I        2050  4.85        18.3 0.21                           288 225 
 VIL  SZ EP   1   2049 26.48                             104   -0.06 5  291 184 
 VIL  SZ I        2050  5.79        16.9 0.34                           291 184 
 DBB  SZ EP   2   2049 27.37                             103   -0.24 4  301 276 
 COD  HZ EP   1   2049 33.16                             100   -0.71 5  354   1 
 COD  HZ I        2050 18.13        24.6 0.33                           354   1 
 PRA  HZ EP   1   2049 35.92                              99    0.34 5  368 205 
 PRA  HZ I        2050 22.61        37.8 0.33                           368 205 
                                                                                
