 2016 12 4 2336 48.6 L   6.780 -73.122143.7  RSN 13 0.4 2.1LRSN                1
 GAP= 70        0.93       3.7     2.8  5.0 -0.2842E+00  0.2094E+01  0.8147E+01E
 Epicentro: LOS SANTOS - SANTANDER                                             3
 ACTION:UPD 17-01-11 20:12 OP:rebc STATUS:               ID:20161204233648 L   I
 OLDACT:UP  16-12-05 04:37 OP:edw  STATUS:               ID:20161204232749     3
 OLDACT:REG 16-12-05 02:54 OP:edw  STATUS:               ID:20161204232749     3
 2016-12-04-2328-00M.COL___352                                                 6
 STAT SP IPHASW D HRMM SECON CODA AMPLIT PERI AZIMU VELO AIN AR TRES W  DIS CAZ7
 BAR2 EZ IP     C 2337  7.90                             171   -0.0010 21.8 198 
 BAR2 EZ ES       2337 22.91                             171   -0.0910 21.8 198 
 BAR2 EZ I        2337 23.89        51.3 0.22            168           21.8 198 
 BRR  HZ EP     C 2337  9.75                             151    0.0810 74.6 299 
 BRR  HN ES       2337 26.71                             151    0.5610 74.6 299 
 BRR  HZ I        2337 27.66        21.4 0.10            150           74.6 299 
 PAM  EZ EP     C 2337 10.68                             150    0.1210 77.5  37 
 PAM  EN ES       2337 27.85                             150    0.1310 77.5  37 
 PAM  EZ I        2337 29.82        27.9 0.50            154           77.5  37 
 PTB  HZ EP   9   2337 14.69                             131   -0.86 0  150 260 
 PTB  HN ES       2337 35.70                             132   -0.05 9  150 260 
 PTB  HZ I        2337 38.85        13.7 0.18            130            150 260 
 TAM  HZ EP       2337 16.21                             131    0.43 9  152 104 
 TAM  HN ES       2337 36.39                             131   -0.62 9  152 104 
 ZAR  HZ EP       2337 20.80                             121   -0.40 8  207 292 
 ZAR  HN ES       2337 46.06                             121   -0.61 8  207 292 
 ZAR  HZ I        2337 51.79        16.5 0.32            121            207 292 
 NOR  HZ EP       2337 24.33                             118    0.08 8  236 235 
 NOR  HN ES       2337 51.52                             118   -0.58 8  236 235 
 NOR  HZ I        2337 53.66        10.3 0.28            117            236 235 
 CHI  HZ EP       2337 26.60                             117    0.62 8  247 196 
 CHI  HN ES       2337 55.20                             117    0.03 8  247 196 
 CHI  HZ I        2338  0.92         5.0 0.34            116            247 196 
 URE  HZ EP   4   2337 30.95                             113    1.06 0  287 292 
 URE  HN ES   4   2337 59.67                             113   -2.46 0  287 292 
 PTGC HZ EP       2337 31.00                             111   -0.97 7  306 159 
 PTGC HN ES   4   2338  4.32                             111   -1.52 0  306 159 
 CBOC HZ EP       2337 35.82                             109    0.23 7  335 253 
 CBOC HE ES       2338 12.23                             109   -0.05 7  335 253 
 CBOC HZ I        2338 22.24         2.4 0.20            109            335 253 
 PRA  HZ EP       2337 42.56                             106    0.63 6  391 210 
 PRA  HN ES       2338 24.08                             106    0.52 6  391 210 
 PRA  HZ I        2338 29.97         6.8 0.26            106            391 210 
 ORTC HZ EP       2337 42.47                             106    0.10 6  395 217 
 ORTC HN ES   4   2338 26.80                             106    2.45 0  395 217 
 ORTC HZ I        2338 32.84         4.3 0.36            106            395 217 
 SJC  HZ EP   9   2337 41.07                             105   -3.37 0  413 327 
 SJC  HN ES       2338 24.28                             106   -0.38 6  413 327 
 SJC  HZ I        2338 29.51         2.0 0.15            105            413 327 
                                                                                
