 2017  6 4 2318 16.8 L   6.836 -73.158153.2  RSN  7 0.5 2.0LRSN                1
 GAP=209        1.10       5.5     6.6  9.0  0.1066E+02 -0.2932E+01 -0.5281E+01E
 Epicentro: LOS SANTOS - SANTANDER                                             3
 ACTION:UPD 17-09-14 16:49 OP:jn   STATUS:               ID:20170604231816 L   I
 OLDACT:DUP 17-06-05 04:06 OP:lv   STATUS:               ID:20170604230740d    3
 2017-06-04-2308-00M.COL___341                                                 6
 STAT SP IPHASW D HRMM SECON CODA AMPLIT PERI AZIMU VELO AIN AR TRES W  DIS CAZ7
 BRR  HZ EP       2318 39.10                             155    0.4910 68.2 296 
 BRR  HN ES       2318 56.21                             155    0.6010 68.2 296 
 BRR  HZ I        2318 59.99        16.0 0.27            153           68.2 296 
 RUS  HZ EP       2318 41.63                             144    0.0410  105 175 
 RUS  HN ES       2319  0.29                             144   -0.6310  105 175 
 PTB  HZ EP       2318 44.00                             134   -0.36 9  147 257 
 PTB  HN ES       2319  5.43                             134   -0.41 9  147 257 
 SPBC HZ EP       2318 46.44                             130    0.33 9  165 218 
 SPBC HN ES       2319  9.14                             130    0.18 9  165 218 
 ZAR  HZ EP   4   2318 50.86                             124    1.38 0  201 291 
 ZAR  HN ES       2319 14.32                             124   -0.64 9  201 291 
 ZAR  HZ I        2319 21.51         7.8 0.27            125            201 291 
 NOR  HN ES       2319 21.94                             120    0.50 8  236 233 
 ORTC HE ES   4   2319 52.08                             107   -1.69 0  398 216 
 SJC  HZ EP       2319 11.83                             107   -0.33 6  405 327 
 SJC  HN ES   4   2319 51.83                             107   -3.49 0  405 327 
                                                                                
