 2012  8 4 2307 23.6 L   6.836 -73.159142.4  RSN 18 0.4 3.0LRSN 3.5WRSN        1
 SPEC AVERAGE  MO 14.3 ST 74.6 OM  3.2 f0 5.54 R0.2725 AL 2.62 WI 17.7 MW  3.5 3
 SPEC SD       MO  0.2 ST 64.2 OM  0.6 f00.916 R0.0446 AL      WI      MW  0.1 3
 GAP= 64        0.87       2.6     2.7  4.7  0.3906E+00  0.3516E+01  0.3002E+01E
 Epicentro: LOS SANTOS - SANTANDER                                             3
 SPEC OCA HH N MO 14.7 ST135.6 OM  3.0 f0 5.84 R0.2517 AL 3.67 WI 15.5 MW  3.7 3
 SPEC OCA HH N T23 811 K 0.000 GD  211 VS 4.20 DE 3.00 Q0230.0 QA 0.60 VS 4.20 3
 SPEC PTB HH N MO 14.2 ST 29.0 OM  2.5 f0 5.18 R0.2838 AL 1.93 WI 14.1 MW  3.4 3
 SPEC PTB HH N T23 8 9 K 0.000 GD  204 VS 4.20 DE 3.00 Q0230.0 QA 0.60 VS 4.20 3
 SPEC RUS HH N MO 14.3 ST 59.0 OM  2.7 f0 5.91 R0.2487 AL 2.07 WI 13.8 MW  3.5 3
 SPEC RUS HH N T23 8 4 K 0.000 GD  176 VS 4.20 DE 3.00 Q0230.0 QA 0.60 VS 4.20 3
 SPEC HEL HH N MO 14.2 ST 24.0 OM  2.3 f0 4.95 R0.2970 AL 2.59 WI 28.5 MW  3.4 3
 SPEC HEL HH N T23 834 K 0.000 GD  307 VS 4.20 DE 3.00 Q0230.0 QA 0.60 VS 4.20 3
 SPEC CHI HH N MO 14.1 ST 14.0 OM  2.3 f0 4.22 R0.3483 AL 2.38 WI 18.9 MW  3.4 3
 SPEC CHI HH N T23 830 K 0.000 GD  289 VS 4.20 DE 3.00 Q0230.0 QA 0.60 VS 4.20 3
 SPEC BRR HH N MO 14.6 ST186.0 OM  3.0 f0 7.15 R0.2056 AL 3.05 WI 15.6 MW  3.7 3
 SPEC BRR HH N T23 8 1 K 0.000 GD  157 VS 4.20 DE 3.00 Q0230.0 QA 0.60 VS 4.20 3
 ACTION:UPD 12-09-10 11:54 OP:ep   STATUS:               ID:20120804230723 L   I
 2012-08-04-2300-00M.COL___216                                                 6
 STAT SP IPHASW D HRMM SECON CODA AMPLIT PERI AZIMU VELO AIN AR TRES W  DIS CAZ7
 BAR2 SZ IP       23 7 43.05                             169    0.1210 27.1 186 
 BAR2 SZ ES   1   23 7 57.62                             169   -0.36 7 27.1 186 
 BAR2 SZ I        23 7 58.98       231.5 0.23                          27.1 186 
 BRR  HZ IP       23 7 44.81                             153    0.5810 68.1 296 
 BRR  HZ I        23 7 46.32       355.2 0.13                          68.1 296 
 BRR  HE ES   1   23 8  0.79                             153    0.49 7 68.1 296 
 PAM  SZ IP       23 7 45.72                             151    0.3710 75.3  42 
 PAM  SN ES   1   23 8  2.36                             151    0.07 7 75.3  42 
 RUS  HZ IP     D 23 7 47.10                             142   -0.2410  105 175 
 RUS  HZ I        23 7 48.41        96.9 0.14                           105 175 
 RUS  HN ES   1   23 8  5.26                             142   -0.59 7  105 175 
 PTB  HZ EP       23 7 49.67                             131   -0.59 9  147 257 
 PTB  HN ES   1   23 8 10.42                             131   -0.62 7  147 257 
 PTB  HZ I        23 8 14.71       113.8 0.20                           147 257 
 OCA  HZ EP       23 7 50.89                             130   -0.38 9  156 353 
 OCA  HN ES   1   23 8 12.51                             130   -0.33 7  156 353 
 OCA  HZ I        23 8 17.16       325.7 0.19                           156 353 
 TAM  HZ IP     D 23 7 51.44                             129    0.18 9  158 106 
 TAM  HZ I        23 7 51.89       272.9 0.24                           158 106 
 TAM  HE ES   2   23 8 12.20                             129   -0.62 5  158 106 
 YOP  SZ EP       23 7 53.92                             125    0.08 9  183 153 
 YOP  SZ I        23 7 56.76        49.2 0.23                           183 153 
 YOP  SN ES   1   23 8 18.14                             125    0.72 7  183 153 
 ZAR  HZ EP   1   23 7 55.64                             122    0.09 6  201 291 
 ZAR  HN ES   1   23 8 20.77                             122    0.31 6  201 291 
 ZAR  HZ I        23 8 26.75       155.8 0.18                           201 291 
 NOR  SZ EP       23 7 59.17                             118   -0.12 8  236 233 
 NOR  SN ES   1   23 8 27.20                             118    0.10 6  236 233 
 CHI  HZ EP       23 8  1.52                             116    0.00 8  252 195 
 CHI  HN ES   1   23 8 31.14                             116    0.06 6  252 195 
 CHI  HZ I        23 8 37.79        47.6 0.45                           252 195 
 HEL  HZ EP       23 8  4.55                             114    0.93 8  272 255 
 HEL  HN ES   1   23 8 35.26                             114    0.44 6  272 255 
 HEL  HZ I        23 8 42.53        56.5 0.46                           272 255 
 URE  HZ EP       23 8  3.71                             113   -0.50 7  281 291 
 GUY  SZ EP       23 8  8.12                             111    0.65 7  305 234 
 GUY  SN ES   1   23 8 42.14                             111    0.47 5  305 234 
 GUY  SZ I        23 8 50.36        54.4 0.35                           305 234 
 VIL  SZ EP       23 8  6.93                             111   -0.37 7  307 191 
 VIL  SN ES   1   23 8 41.35                             111   -0.02 5  307 191 
 VIL  SZ I        23 8 51.97        35.0 0.37                           307 191 
 DBB  SZ EP       23 8 10.75                             109   -0.01 7  338 274 
 DBB  SZ ES   1   23 8 46.72                             109   -0.81 5  338 274 
 ANIL HZ EP       23 8 13.20                             108   -0.32 6  359 224 
 ANIL HN ES   1   23 8 52.73                             108    0.30 5  359 224 
 PRA  HZ EP       23 8 16.88                             106   -0.48 6  395 209 
 PRA  HN ES   1   23 8 58.70                             106   -0.57 4  395 209 
                                                                                
