 2010  6 4 2308 18.2 L   6.683 -72.978147.9  RSN  5 0.5 2.2LRSN                1
 GAP=225        0.80       8.8    17.6 11.3 -0.1102E+03  0.4684E+02 -0.1114E+02E
 Epicentro: ARATOCA - SANTANDER                                                3
 ACTION:UP  10-08-24 10:08 OP:vdl  STATUS:               ID:20100604230818 L   I
 2010-06-04-2306-56S.COL___109                                                 6
 STAT SP IPHASW D HRMM SECON CODA AMPLIT PERI AZIMU VELO SNR AR TRES W  DIS CAZ7
 BAR2 SZ EP   1   23 8 38.22                             170     0.1 7   25 246 
 BAR2 SZ ES   2   23 8 53.22                             170    -0.5 5   25 246 
 GUE  SZ EP   2   23 8 43.21                             137    -0.8 5  127   3 
 GRA  SZ EP   1   23 8 45.05                             135     0.7 7  134   8 
 GRA  SZ ES   1   23 9  4.93                             135     0.2 7  134   8 
 OCA  SZ EP   1   23 8 47.61                             127    -0.6 7  176 348 
 OCA  SZ ES   2   23 9 11.73                             127     0.1 4  176 348 
 OCA  SZ I        23 9 14.34        20.6 0.30                           176 348 
 RREF BZ EP   2   23 9  5.21                             111     0.0 3  328 233 
 RREF BE ES   2   23 9 42.39                             111     0.6 3  328 233 
 RREF BZ I        23 9 47.38         5.3 0.25                           328 233 
                                                                                
