 2015  2 4 2323 20.2 L   6.790 -73.118151.6  RSN  7 0.4 1.7LRSN                1
 GAP=140        0.85       3.8     5.1  6.3 -0.3485E+01  0.2433E+01 -0.1269E+01E
 Epicentro: LOS SANTOS - SANTANDER                                             3
 ACTION:UPD 15-04-30 21:21 OP:nd   STATUS:               ID:20150204232320 L   I
 OLDACT:REG 15-02-05 04:02 OP:spq  STATUS:               ID:20150204231750     3
 2015-02-04-2317-50M.COL___275                                                 6
 STAT SP IPHASW D HRMM SECON CODA AMPLIT PERI AZIMU VELO AIN AR TRES W  DIS CAZ7
 BAR2 EZ EP       2323 40.39                             171   -0.1010 23.0 198 
 BAR2 EZ ES   1   2323 56.36                             171    0.01 7 23.0 198 
 BAR2 EZ I        2323 59.74         6.2 0.08            171           23.0 198 
 BRR  HZ EP       2323 42.38                             152    0.2610 74.4 298 
 BRR  HN ES       2323 59.84                             152    0.5910 74.4 298 
 BRR  HZ I        2324  3.19        14.2 0.42            150           74.4 298 
 PAM  SZ EP       2323 43.14                             152    0.2010 76.3  37 
 PAM  SE ES   1   2324  0.37                             152   -0.34 7 76.3  37 
 PAM  SZ I        2324  2.70         6.9 0.57            154           76.3  37 
 RUS  HZ EP   1   2323 44.68                             145    0.27 7 99.4 178 
 RUS  HE ES   1   2324  2.85                             145   -0.47 7 99.4 178 
 RUS  HZ I        2324  3.70         4.1 0.54            150           99.4 178 
 PTB  HZ EP   1   2323 47.42                             133   -0.44 7  151 259 
 PTB  HE ES   1   2324  9.20                             133   -0.27 7  151 259 
 PTB  HZ I        2324 14.60         5.6 0.80            134            151 259 
 SPBC HZ EP       2323 49.69                             130    0.47 9  164 220 
 SPBC HE ES       2324 11.56                             130   -0.32 9  164 220 
 SPBC HZ I        2324 13.23         8.4 0.20            133            164 220 
 SML  HZ EP   1   2323 56.89                             118   -0.47 6  246 335 
 SML  HN ES   1   2324 25.65                             118   -0.73 6  246 335 
 SML  HZ I        2324 32.01         5.6 0.00            120            246 335 
                                                                                
