 2014  2 4 2228  5.4 L   6.794 -73.137143.0  RSN  6 0.2 1.5LRSN                1
 GAP=138        0.54       2.9     3.1  3.9 -0.1963E+01  0.3257E+01  0.4000E+00E
 Epicentro: LOS SANTOS - SANTANDER                                             3
 ACTION:UPD 14-03-10 08:07 OP:ep   STATUS:               ID:20140204222805 L   I
 OLDACT:REG 14-02-04 23:21 OP:stll STATUS:               ID:20140204221810     3
 2014-02-04-2218-10M.COL___246                                                 6
 STAT SP IPHASW D HRMM SECON CODA AMPLIT PERI AZIMU VELO AIN AR TRES W  DIS CAZ7
 BAR2 SZ EP       2228 24.50                             170   -0.2010 22.9 193 
 BAR2 SZ ES       2228 40.13                             170    0.3910 22.9 193 
 BAR2 SZ I        2228 41.38        15.3 0.18            168           22.9 193 
 BRR  HZ EP       2228 26.43                             152    0.1010 72.4 299 
 PAM  SZ EP       2228 27.37                             150    0.0510 77.2  39 
 PAM  SZ I        2228 27.60        13.7 0.40            154           77.2  39 
 PAM  SN ES       2228 44.27                             150   -0.1410 77.2  39 
 RUS  HZ EP       2228 28.90                             143    0.0610 99.9 177 
 RUS  HN ES       2228 46.85                             143   -0.2610 99.9 177 
 RUS  HZ I        2228 48.21         2.9 0.24            144           99.9 177 
 PTB  HZ EP       2228 32.12                             131   -0.11 9  149 259 
 PTB  HN ES       2228 53.10                             131   -0.05 9  149 259 
 PTB  HZ I        2228 58.85         3.6 0.22            130            149 259 
 CHI  HZ EP       2228 43.15                             117    0.23 8  248 195 
 CHI  HZ I        2228 44.86         0.8 0.18            117            248 195 
                                                                                
