 2012 11 4 2026 12.4 L   6.460 -73.736 97.0  RSN  6 0.2 1.8LRSN                1
 GAP=101        0.45       2.6     2.4  5.1  0.1913E+01  0.6774E+01  0.6297E+01E
 Epicentro: SANTA HELENA DEL OPON - SANTANDER                                  3
 ACTION:UPD 12-12-05 15:31 OP:}ep  STATUS:               ID:20121104202612 L   I
 2012-11-04-2020-00M.COL___230                                                 6
 STAT SP IPHASW D HRMM SECON CODA AMPLIT PERI AZIMU VELO AIN AR TRES W  DIS CAZ7
 BAR2 SZ EP   1   2026 28.34                             145    0.08 7 62.9  77 
 BAR2 SZ ES   1   2026 40.94                             145    0.30 7 62.9  77 
 BRR  HZ EP       2026 28.36                             141   -0.2110 71.5   2 
 BRR  HE ES       2026 41.22                             141    0.0310 71.5   2 
 BRR  HZ I        2026 41.79        20.0 0.18                          71.5   2 
 GIR2 SZ EP       2026 30.36                             134   -0.0210 90.9  41 
 RUS  HZ EP       2026 31.22                             133   -0.0710 95.7 131 
 RUS  HN ES   1   2026 45.82                             133   -0.22 7 95.7 131 
 RUS  HN I        2026 48.13        10.4 0.21                          95.7 131 
 HEL  HZ EP       2026 42.46                             112    0.20 9  201 262 
 HEL  HE ES   1   2027  5.41                             112   -0.15 6  201 262 
 HEL  HZ I        2027  9.68         7.2 0.34                           201 262 
 CHI  HZ EP   2   2026 43.01                             111    0.49 4  202 180 
                                                                                
