 2012  7 4 2301 18.0 L   6.801 -73.135149.3  RSN  6 0.5 1.8LRSN                1
 GAP=138        0.97       7.9     7.0 11.4  0.1071E+01  0.1348E+02  0.3135E+02E
 Epicentro: LOS SANTOS - SANTANDER                                             3
 ACTION:UPD 12-08-14 11:42 OP:ep   STATUS:               ID:20120704230118 L   I
 2012-07-04-2300-00M.COL___201                                                 6
 STAT SP IPHASW D HRMM SECON CODA AMPLIT PERI AZIMU VELO AIN AR TRES W  DIS CAZ7
 BAR2 SZ EP   3   23 1 36.97                             171    -1.1 2   24 193 
 BAR2 SZ I        23 1 56.90        11.8 0.30            165             24 193 
 BRR  HZ EP       23 1 39.78                             153     0.210   72 298 
 BRR  HN ES   1   23 1 57.14                             153     0.7 7   72 298 
 BRR  HZ I        23 1 59.59        13.6 0.14            151             72 298 
 PAM  SZ EP       23 1 40.79                             152     0.210   77  39 
 PAM  SZ I        23 1 41.09         7.1 0.44            156             77  39 
 PAM  SN ES   1   23 1 57.56                             152    -0.6 7   77  39 
 RUS  HZ EP       23 1 42.20                             145     0.110  101 177 
 RUS  HN ES   2   23 2  0.57                             145    -0.3 5  101 177 
 PTB  HZ EP       23 1 45.14                             132    -0.2 9  149 259 
 PTB  HN ES   3   23 2  6.18                             132    -0.5 2  149 259 
 PTB  HZ I        23 2 11.86         7.2 0.50            130            149 259 
 ZAR  HN ES   2   23 2 15.49                             123    -0.9 4  205 292 
 ZAR  HZ I        23 2 22.85         6.9 0.50            122            205 292 
