 2013  9 4 2335 32.6 L   6.781 -73.165146.9  RSN 10 0.3 1.8LRSN                1
 GAP=135        0.74       2.4     3.2  4.5 -0.1159E+00  0.4086E+01 -0.1154E+01E
 Epicentro: LOS SANTOS - SANTANDER                                             3
 ACTION:UPD 13-10-22 09:20 OP:ep   STATUS:               ID:20130904233532 L   I
 OLDACT:DUP 13-09-05 03:17 OP:nd   STATUS:               ID:20130904232960d    3
 2013-09-04-2329-59M.COL___269                                                 6
 STAT SP IPHASW D HRMM SECON CODA AMPLIT PERI AZIMU VELO AIN AR TRES W  DIS CAZ7
 BAR2 SZ EP       2335 52.37                             172    0.0210 20.9 185 
 BAR2 SZ ES       2336  7.95                             172    0.2210 20.9 185 
 BAR2 SZ I        2336  9.05        10.7 0.20            169           20.9 185 
 BRR  HZ IP     C 2335 54.32                             153    0.4710 70.4 301 
 BRR  HN ES   2   2336 10.57                             153    0.15 5 70.4 301 
 BRR  HZ I        2336 16.60        11.1 0.30            150           70.4 301 
 PAM  SZ EP       2335 55.22                             150    0.0810 80.4  40 
 PAM  SN ES       2336 12.58                             150   -0.1210 80.4  40 
 PAM  SZ I        2336 14.54         8.4 0.56            156           80.4  40 
 RUS  HZ EP       2335 56.23                             145   -0.1210 98.6 175 
 RUS  HN ES       2336 14.41                             145   -0.4410 98.6 175 
 RUS  HZ I        2336 16.16         4.2 0.38            147           98.6 175 
 PTB  HZ EP       2335 59.09                             133   -0.37 9  145 259 
 PTB  HN ES       2336 20.16                             133   -0.24 9  145 259 
 PTB  HZ I        2336 26.22         8.7 0.20            132            145 259 
 SPBC HZ EP       2336  1.27                             130    0.34 9  160 219 
 SPBC HN ES       2336 23.09                             130    0.08 9  160 219 
 SPBC HZ I        2336 26.21         9.2 0.28            131            160 219 
 ZAR  HN EP       2336  4.53                             123   -0.50 9  203 293 
 ZAR  HE ES       2336 30.45                             123    0.15 9  203 293 
 ZAR  HN I        2336 39.38        11.9 0.27            123            203 293 
 SML  HZ EP       2336  9.04                             117   -0.39 8  245 336 
 SML  HE ES       2336 38.49                             117    0.35 8  245 336 
 SML  HZ I        2336 40.98        12.6 0.09            120            245 336 
 CHI  HZ EP       2336 10.52                             118    0.42 8  246 195 
 CHI  HN ES   2   2336 39.65                             118    0.31 4  246 195 
 CHI  HZ I        2336 46.24         2.0 0.46            120            246 195 
 GUY2CHZ EP   4   2336 18.55                             113    2.60 0  298 235 
 GUY2CHN ES   4   2336 53.70                             113    3.95 0  298 235 
 GUY2CHZ I        2336 59.59         3.6 0.30                           298 235 
                                                                                
