 2010  8 4 2309  0.4 L   6.792 -73.086142.2  RSN  8 0.4 2.4LRSN                1
 GAP=165        0.98       4.2     6.9  7.8 -0.7088E+01  0.3689E+01 -0.3516E+01E
 Epicentro: LOS SANTOS - SANTANDER                                             3
 ACTION:UP  10-09-07 10:52 OP:vdl  STATUS:               ID:20100804230900 L   I
 2010-08-04-2306-01S.COL___126                                                 6
 STAT SP IPHASW D HRMM SECON CODA AMPLIT PERI AZIMU VELO SNR AR TRES W  DIS CAZ7
 BAR2 SZ EP       23 9 19.58                             170    -0.110   25 206 
 BAR2 SZ ES   1   23 9 34.18                             170    -0.5 7   25 206 
 BAR2 SZ I        23 9 35.48       101.9 0.26                            25 206 
 BRR  HZ IP     C 23 9 21.53                             149     0.010   77 297 
 BRR  HE ES   1   23 9 38.51                             149     0.5 7   77 297 
 BRR  HZ I        23 9 40.98        71.5 0.21                            77 297 
 RUS  HZ EP       23 9 23.59                             143    -0.110   99 180 
 RUS  HE ES   1   23 9 42.38                                     0.5 7   99 180 
 RUS  HZ I        23 9 43.74        23.4 0.44                            99 180 
 GUE  SZ EP       23 9 24.61                             138    -0.210  116   9 
 GRA  SZ IP       23 9 25.56                             136     0.310  125  14 
 GRA  SZ ES   1   23 9 44.84                             136     0.2 7  125  14 
 GRA  SZ I        23 9 50.95        43.2 0.29                           125  14 
 OCA  SZ EP   1   23 9 28.27                             127    -0.3 7  162 351 
 OCA  SZ ES   2   23 9 49.79                                    -0.8 5  162 351 
 OCA  SZ I        23 9 53.39        41.0 0.23                           162 351 
 CHI  HZ EP   2   23 9 37.58                                    -0.4 4  250 197 
 CHI  HE ES   2   2310  6.90                             116    -0.4 4  250 197 
 CHI  HZ I        2310 16.66         8.3 0.54                           250 197 
 HEL  HZ EP   1   23 9 42.29                             113     1.2 6  278 256 
 HEL  HN ES   1   2310 12.25                             113    -0.6 6  278 256 
 HEL  HZ I        2310 18.98         9.3 0.20                           278 256 
                                                                                
