 2013  6 4 2132 21.3 L   6.751 -73.185140.1  RSN  5 0.4 1.9LRSN                1
 GAP=175        1.18       7.1     7.4  8.4  0.1470E+02  0.1195E+02  0.1006E+02E
 Epicentro: VILLANUEVA - SANTANDER                                             3
 ACTION:UPD 14-01-08 09:52 OP:ep   STATUS:               ID:20130604213221 L   I
 2013-06-04-2128-50M.COL___219                                                 6
 STAT SP IPHASW D HRMM SECON CODA AMPLIT PERI AZIMU VELO AIN AR TRES W  DIS CAZ7
 BAR2 SZ EP       2132 40.21                             172    0.0210 17.5 179 
 BAR2 SZ ES       2132 54.25                             172   -0.6410 17.5 179 
 BAR2 SZ I        2132 56.46        22.5 0.18            166           17.5 179 
 GIR2 SZ EP       2132 40.25                             165   -0.2510 36.3 358 
 GIR2 SZ ES       2132 55.13                             165   -0.3110 36.3 358 
 BRR  HZ EP       2132 42.13                             152    0.2910 70.4 304 
 BRR  HE ES       2132 58.73                             152    0.9110 70.4 304 
 BRR  HN I        2133  1.42        27.8 0.18            152           70.4 304 
 RUS  HZ EP       2132 44.27                             144    0.1010 95.5 173 
 RUS  HN ES       2133  2.47                             144    0.4810 95.5 173 
 RUS  HE I        2133  7.69         4.2 0.38            143           95.5 173 
 PTB  HZ EP       2132 47.10                             132   -0.28 9  143 261 
 PTB  HN ES       2133  7.27                             132   -0.42 9  143 261 
 PTB  HE I        2133 13.34        22.0 0.30            131            143 261 
                                                                                
