 2010  8 4 2156 48.1 L   6.852 -72.980138.0  RSN  4 0.2 1.7LRSN                1
 GAP=183        0.49       5.0    11.0 12.6  0.2821E+02 -0.1064E+03 -0.2706E+02E
 Epicentro: CEPITA - SANTANDER                                                 3
 ACTION:UP  10-09-07 10:52 OP:vdl  STATUS:               ID:20100804215647 L   I
 2010-08-04-2153-39S.COL___125                                                 6
 STAT SP IPHASW D HRMM SECON CODA AMPLIT PERI AZIMU VELO SNR AR TRES W  DIS CAZ7
 BAR2 SZ EP       2157  7.41                             165     0.210   37 218 
 BAR2 SZ I        2157 23.12        10.2 0.18                            37 218 
 BRR  HZ EP   1   2157  9.16                             148    -0.2 7   86 289 
 BRR  HZ I        2157  9.79        16.9 0.11                            86 289 
 BRR  HE ES   1   2157 26.01                             148     0.1 7   86 289 
 RUS  HZ EP   1   2157 11.58                             141     0.0 7  107 186 
 RUS  HN ES   2   2157 29.62                             141    -0.3 5  107 186 
 RUS  HZ I        2157 31.98         4.3 0.10                           107 186 
 GUE  SZ EP   1   2157 11.40                             141    -0.1 7  108   3 
                                                                                
