 2014  3 4 2054 49.3 L   6.814 -73.164146.8  RSN 15 0.4 2.4LRSN                1
 GAP=134        0.78       2.2     3.4  4.9 -0.1726E+01  0.5482E+01 -0.1250E+01E
 Epicentro: LOS SANTOS - SANTANDER                                             3
 ACTION:UPD 14-04-09 23:14 OP:nd   STATUS:               ID:20140304205449 L   I
 OLDACT:DUP 14-03-04 23:02 OP:fm   STATUS:               ID:20140304204815d    3
 2014-03-04-2048-12M.COL___238                                                 6
 STAT SP IPHASW D HRMM SECON CODA AMPLIT PERI AZIMU VELO AIN AR TRES W  DIS CAZ7
 BAR2 SZ IP     D 2055  9.13                             170    0.0310 24.6 185 
 BAR2 SZ ES   1   2055 24.76                             170    0.23 7 24.6 185 
 BAR2 SZ I        2055 25.25        47.6 0.28            168           24.6 185 
 BRR  HZ IP     C 2055 10.99                             153    0.5510 68.7 298 
 BRR  HN ES   4   2055 28.42                             153    1.50 0 68.7 298 
 BRR  HZ I        2055 31.40        33.6 0.26            148           68.7 298 
 PAM  SZ EP     C 2055 11.92                             151    0.2710 77.5  41 
 PAM  SN ES       2055 29.18                             151    0.1110 77.5  41 
 PAM  SZ I        2055 31.28        42.4 0.58            155           77.5  41 
 RUS  HZ EP       2055 13.14                             143   -0.1510  102 175 
 RUS  HN ES       2055 31.44                             143   -0.5510  102 175 
 RUS  HZ I        2055 32.96        30.5 0.26            146            102 175 
 PTB  HZ EP       2055 15.78                             132   -0.44 9  146 258 
 PTB  HN ES   1   2055 37.37                             132    0.16 7  146 258 
 PTB  HZ I        2055 42.94        23.3 0.18            130            146 258 
 OCA  HZ EP   1   2055 17.63                             130    0.09 7  159 354 
 OCA  HN ES       2055 39.01                             130   -0.55 9  159 354 
 OCA  HZ I        2055 45.00        43.3 0.26            130            159 354 
 SPBC HZ EP   1   2055 18.08                             129    0.19 7  163 218 
 SPBC HN ES       2055 40.18                             129   -0.00 9  163 218 
 SPBC HZ I        2055 44.13        49.7 0.24            129            163 218 
 ZAR  HZ EP   1   2055 22.26                             123    0.68 6  202 292 
 ZAR  HE ES       2055 47.02                             123    0.27 9  202 292 
 ZAR  HZ I        2055 53.32        38.2 0.28            122            202 292 
 NOR  HZ EP       2055 24.99                             119   -0.04 8  234 234 
 NOR  HN ES       2055 52.53                             119   -0.36 8  234 234 
 NOR  HZ I        2055 58.46        24.0 0.24            119            234 234 
 SML  HZ EP   2   2055 25.64                             118   -0.12 4  241 336 
 SML  HN ES   2   2055 53.90                             118   -0.28 4  241 336 
 SML  HZ I        2055 59.10        59.2 0.14            118            241 336 
 CHI  HZ EP       2055 27.25                             117    0.07 8  250 195 
 CHI  HE ES   1   2055 57.49                             117    0.78 6  250 195 
 CHI  HZ I        2056  6.49         8.5 0.28            119            250 195 
 HEL  HZ EP   4   2055 31.46                             115    2.05 0  271 255 
 HEL  HN ES   4   2056  3.01                             115    2.32 0  271 255 
 HEL  HZ I        2056  9.22        10.9 0.26            115            271 255 
 URE  HZ EP   2   2055 29.45                             114   -0.72 4  281 292 
 URE  HE ES   4   2056  0.70                             114   -1.33 0  281 292 
 URE  HZ I        2056 13.88        15.8 0.16            114            281 292 
 GUY2CHZ EP   4   2055 35.11                             112    2.22 0  300 234 
 GUY2CHN ES   4   2056  9.75                             112    2.87 0  300 234 
 GUY2CHZ I        2056 17.05        14.0 0.56                           300 234 
 COD  HZ EP       2055 37.19                             109   -0.34 6  347 355 
 COD  HN ES   1   2056 15.18                             109    0.04 5  347 355 
 COD  HZ I        2056 20.99        12.1 0.90            110            347 355 
                                                                                
