 2011 12 4 2206  4.9 L   7.406 -73.200130.3  RSN  5 0.1 1.6LRSN                1
 GAP=218        0.34       5.0     3.3  3.4 -0.5144E+01  0.6382E-01  0.7344E+00E
 Epicentro: EL PLAYON - SANTANDER                                              3
 ACTION:UPD 12-07-13 16:14 OP:ep   STATUS:               ID:20111204220604 L   I
 2011-12-04-2200-00M.COL___182                                                 6
 STAT SP IPHASW D HRMM SECON CODA AMPLIT PERI AZIMU VELO AIN AR TRES W  DIS CAZ7
 GIR2 SZ EP   1   22 6 22.94                             164    0.00 7 36.2 179 
 GIR2 SZ ES   1   22 6 36.76                             164   -0.22 7 36.2 179 
 PAM  SZ EP   1   22 6 24.40                             156    0.12 7 55.7  98 
 PAM  SN ES   1   22 6 39.39                             156    0.02 7 55.7  98 
 PAM  SZ I        22 6 41.51         4.9 0.38                          55.7  98 
 BRR  HZ EP   1   22 6 24.06                             152   -0.04 7 65.5 240 
 BRR  HE ES   1   22 6 39.15                             152    0.10 7 65.5 240 
 BRR  HZ I        22 6 40.62        14.0 0.13                          65.5 240 
 BAR2 SZ ES   2   22 6 42.74                             143    0.22 5 90.0 179 
 BAR2 SZ I        22 6 43.55        11.6 0.12                          90.0 179 
 RUS  HZ EP   1   22 6 33.21                             125   -0.09 7  168 176 
                                                                                
