 2011  4 4 2010 27.6 L   5.992 -74.197  6.0  RSN  9 0.5 1.8LRSN                1
 GAP=105        0.92       3.6     3.5 10.9 -0.5763E+01 -0.4739E+00  0.1220E+02E
 Epicentro: LA BELLEZA - SANTANDER                                             3
 ACTION:UP  11-06-22 15:28 OP:REBC STATUS:               ID:20110404201027 L   I
 2011-04-04-2009-49S.COL___122                                                 6
 STAT SP IPHASW D HRMM SECON CODA AMPLIT PERI AZIMU VELO SNR AR TRES W  DIS CAZ7
 NOR  SZ EP   1   2010 41.36                              91    -0.3 8   88 238 
 NOR  SN ES   2   2010 51.98                              91    -0.6 5   88 238 
 BAR2 SZ EP   2   2010 47.29                              91    -0.9 5  130  59 
 BAR2 SZ I        2011  8.88        13.7 0.29                           130  59 
 BRR  HZ EP   1   2010 48.27                              91    -0.3 8  135  23 
 BRR  HN ES   1   2011  5.45                              91     0.5 8  135  23 
 BRR  HZ I        2011  8.04        27.1 0.14                           135  23 
 BTL  SZ EP   1   2010 50.25                              91    -0.2 8  145  45 
 HEL  HZ EP   1   2010 51.24                              91     0.1 8  149 279 
 HEL  HN ES   1   2011  9.29                              91    -0.3 8  149 279 
 HEL  HZ I        2011 11.24        22.7 0.41                           149 279 
 GUY  SZ EP       2010 53.01                              91     0.510  157 237 
 GUY  SZ I        2011 18.16        16.4 0.08                           157 237 
 CHI  HZ EP   2   2010 52.74                              91     0.0 5  159 161 
 CHI  HN ES   2   2011 12.62                              91     0.2 5  159 161 
 CHI  HZ I        2011 17.04         8.1 0.59                           159 161 
 RREF HZ EP   1   2010 56.13                              56     0.7 7  175 227 
 RREF HN ES   2   2011 16.53                              56    -0.5 5  175 227 
 RREF HZ I        2011 20.84         9.1 0.34                           175 227 
 PRA  HZ EP   2   2011  5.18                              56    -0.5 4  263 197 
                                                                                
