 2016  5 4 2040 22.8 L   6.768 -73.136133.2  RSN  6 0.5 1.4LRSN                1
 GAP=139        1.11       5.2     4.9  8.7 -0.4277E+01  0.1775E+02 -0.1042E+01E
 Epicentro: LOS SANTOS - SANTANDER                                             3
 ACTION:UPD 16-08-18 17:42 OP:cam  STATUS:               ID:20160504204022 L   I
 OLDACT:UP  16-05-05 08:29 OP:mh   STATUS:               ID:20160504203743     3
 OLDACT:UP  16-05-05 08:29 OP:mh   STATUS:               ID:20160504203743     3
 OLDACT:UP  16-05-05 08:29 OP:mh   STATUS:               ID:20160504203743     3
 OLDACT:UP  16-05-05 08:01 OP:mh   STATUS:               ID:20160504203743     3
 OLDACT:REG 16-05-05 04:29 OP:mh   STATUS:               ID:20160504203743     3
 2016-05-04-2037-43M.COL___306                                                 6
 STAT SP IPHASW D HRMM SECON CODA AMPLIT PERI AZIMU VELO AIN AR TRES W  DIS CAZ7
 BAR2 EZ EP       2040 40.86                             171    0.0410 20.1 195 
 BAR2 EZ ES       2040 55.28                             171    0.3810 20.1 195 
 BAR2 EZ I        2040 57.15        13.1 0.12            169           20.1 195 
 PAM  EZ EP       2040 43.55                             148   -0.2410 79.4  37 
 PAM  EN ES       2041  0.30                             148    0.1110 79.4  37 
 PAM  EZ I        2041  2.34         5.3 0.44            152           79.4  37 
 RUS  HZ EP       2040 45.38                             142    0.3510 97.0 177 
 RUS  HN ES       2041  1.97                             142   -0.4210 97.0 177 
 RUS  HZ I        2041  5.07         1.9 0.46            143           97.0 177 
 PTB  HZ EP       2040 48.43                             129   -0.35 9  148 260 
 PTB  HN ES       2041  8.20                             129   -0.87 9  148 260 
 PTB  HZ I        2041 11.44         4.6 0.31            130            148 260 
 ZAR  HN ES       2041 19.96                             119    0.39 8  206 293 
 NOR  HZ EP   1   2040 57.67                             116   -0.00 6  234 235 
 NOR  HN ES       2041 25.75                             116    0.85 8  234 235 
 NOR  HZ I        2041 32.28         2.3 0.26            117            234 235 
                                                                                
