 2010  7 4 2006 54.4 L   7.430 -73.637  0.0  RSN  6 0.4 1.6LRSN                1
 GAP=188        0.99       3.4     5.5  7.3 -0.1253E+02 -0.1237E+02  0.5387E+01E
 Epicentro: SABANA DE TORRES - SANTANDER                                       3
 ACTION:UPD 10-12-01 15:15 OP:pat  STATUS:               ID:20100704200654 L   I
 2010-07-04-2002-59S.COL___118                                                 6
 STAT SP IPHASW D HRMM SECON CODA AMPLIT PERI AZIMU VELO AIN AR TRES W  DIS CAZ7
 BRR  HZ EP       20 7  1.35                              47     0.210   37 193 
 BRR  HE ES   1   20 7  6.57                              47     0.2 7   37 193 
 BRR  HZ I        20 7  6.81        96.7 0.16                            37 193 
 GUE  SZ EP       20 7  9.43                              47    -0.110   90  61 
 OCA  SZ EP       20 7  9.63                              47    -0.610   96  21 
 OCA  SZ ES   1   20 7 23.34                              47     0.7 7   96  21 
 OCA  SZ I        20 7 25.69        30.6 0.41                            96  21 
 BRI  SZ IP       20 7 10.78                              47     0.210   98  71 
 BRI  SZ ES   1   20 7 23.44                              47     0.2 7   98  71 
 GRA  SZ EP       20 7 11.70                              47     0.110  105  61 
 GRA  SZ ES   1   20 7 24.81                              47    -0.2 7  105  61 
 RUS  HZ EP   2   20 7 22.37                              47    -1.1 4  181 160 
 RUS  HZ I        20 7 30.17         2.1 0.33                           181 160 
 RUS  HN ES   2   20 7 45.56                              47    -0.6 4  181 160 
                                                                                
