 2015  2 4 2315 36.8 L   6.789 -73.111156.1  RSN  8 0.4 1.7LRSN                1
 GAP=142        0.84       4.0     4.5  6.0 -0.5667E+01  0.6085E+01  0.2869E+01E
 Epicentro: LOS SANTOS - SANTANDER                                             3
 ACTION:UPD 15-04-30 21:21 OP:nd   STATUS:               ID:20150204231536 L   I
 OLDACT:REG 15-02-05 04:01 OP:spq  STATUS:               ID:20150204230743     3
 2015-02-04-2307-43M.COL___275                                                 6
 STAT SP IPHASW D HRMM SECON CODA AMPLIT PERI AZIMU VELO AIN AR TRES W  DIS CAZ7
 BAR2 EZ EP       2315 57.55                             171   -0.1410 23.2 200 
 BAR2 EZ ES   1   2316 14.15                             171    0.18 7 23.2 200 
 BAR2 EZ I        2316 20.89         6.5 0.18            171           23.2 200 
 BRR  HZ EP       2315 59.40                             153    0.0910 75.2 298 
 BRR  HE ES       2316 17.32                             153    0.4710 75.2 298 
 BRR  HZ I        2316 22.00        10.9 0.30            151           75.2 298 
 PAM  SZ EP       2316  0.47                             153    0.4110 75.9  37 
 PAM  SN ES       2316 17.68                             153   -0.5110 75.9  37 
 PAM  SZ I        2316 19.70         8.8 0.48            156           75.9  37 
 RUS  HZ EP   1   2316  1.49                             146   -0.02 7 99.2 178 
 RUS  HN ES   1   2316 20.55                             146   -0.21 7 99.2 178 
 RUS  HZ I        2316 22.04         3.0 0.34            152           99.2 178 
 PTB  HZ EP       2316  4.50                             133   -0.46 9  151 260 
 PTB  HE ES   1   2316 26.56                             133   -0.35 7  151 260 
 PTB  HZ I        2316 31.56         8.5 0.50            135            151 260 
 SPBC HZ EP   1   2316  6.58                             131    0.31 7  165 220 
 SPBC HE ES   1   2316 29.86                             131    0.61 7  165 220 
 NOR  HZ EP       2316 13.73                             120    0.30 8  237 235 
 NOR  HE ES       2316 41.50                             120   -0.49 8  237 235 
 NOR  HZ I        2316 44.92         4.9 0.40            123            237 235 
 SML  HE ES   1   2316 43.48                             119   -0.11 6  246 335 
 SML  HZ I        2316 50.39         6.5 0.10            122            246 335 
                                                                                
