 2015  4 4 2348 13.5 L   6.787 -73.158139.9  RSN  6 0.5 1.2LRSN                1
 GAP=136        1.25       5.5     6.6  9.3 -0.9026E+01  0.1426E+02 -0.1538E+02E
 Epicentro: LOS SANTOS - SANTANDER                                             3
 ACTION:UPD 15-06-03 16:52 OP:cam  STATUS:               ID:20150404234813 L   I
 OLDACT:DUP 15-04-05 06:30 OP:stll STATUS:               ID:20150404233751d    3
 OLDACT:REG 15-04-05 03:06 OP:stll STATUS:               ID:20150404233750     3
 2015-04-04-2337-50M.COL___285                                                 6
 STAT SP IPHASW D HRMM SECON CODA AMPLIT PERI AZIMU VELO AIN AR TRES W  DIS CAZ7
 BAR2 EZ ES       2348 47.17                             171    0.0610 21.7 187 
 BRR  HZ EP       2348 34.39                             152    0.4210 70.7 300 
 BRR  HN ES       2348 50.69                             152    0.7410 70.7 300 
 BRR  HZ I        2348 55.56         4.5 0.12            151           70.7 300 
 PAM  SZ EP       2348 35.29                             149    0.0910 79.3  40 
 PAM  SZ I        2348 35.60         8.3 0.24            152           79.3  40 
 PAM  SN ES       2348 52.08                             149   -0.0510 79.3  40 
 RUS  HN ES       2348 54.28                             143   -0.2910 99.3 175 
 RUS  HZ I        2348 55.59         1.0 0.24            146           99.3 175 
 PTB  HZ EP       2348 40.45                             131    0.62 9  146 259 
 PTB  HN ES       2348 59.47                             131   -0.91 9  146 259 
 PTB  HZ I        2349  2.30         2.1 0.14            132            146 259 
 OCA  HZ EP       2348 41.06                             128   -0.40 9  162 354 
 OCA  HN ES       2349  2.81                             128   -0.47 9  162 354 
                                                                                
