 2010  3 4 2015 17.0 L   6.801 -73.069146.7  RSN 12 0.4 2.5LRSN                1
 GAP=132        0.79       3.7     5.7  5.0 -0.5483E+01  0.5770E+01 -0.3991E+00E
 Epicentro: LOS SANTOS - SANTANDER                                             3
 ACTION:UP  10-08-24 09:52 OP:vdl  STATUS:               ID:20100304201516 L   I
 2010-03-04-2013-09S.COL___101                                                 6
 STAT SP IPHASW D HRMM SECON CODA AMPLIT PERI AZIMU VELO SNR AR TRES W  DIS CAZ7
 BAR2 SZ EP       2015 36.73                             169    -0.110   26 209 
 BAR2 SZ ES       2015 52.12                             169    -0.110   26 209 
 BRR  HZ IP       2015 38.96                             150     0.310   79 296 
 BRR  HE ES   2   2015 56.23                             150     0.6 5   79 296 
 BRR  HZ I        2015 58.55        38.0 0.16                            79 296 
 RUS  BZ IP       2015 40.81                             144     0.010  100 181 
 RUS  BE ES   2   2015 59.39                             144     0.0 5  100 181 
 RUS  BZ I        2016  1.04        15.5 0.25                           100 181 
 OCA  SZ EP       2015 45.51                             130     0.0 9  161 350 
 OCA  SZ ES   2   2016  6.96                             130    -0.7 5  161 350 
 OCA  SZ I        2016 13.60        44.4 0.38                           161 350 
 CHI  HZ EP       2015 54.98                             117     0.0 8  251 197 
 CHI  HE ES   2   2016 23.85                             117    -0.8 4  251 197 
 CHI  HZ I        2016 32.83        12.0 0.42                           251 197 
 HEL  HZ EP       2015 58.53                             114     0.4 7  280 256 
 HEL  HE ES   3   2016 29.36                             114    -0.9 2  280 256 
 HEL  HZ I        2016 38.13         8.3 0.33                           280 256 
 RREF BZ EP       2016  4.53                             111     0.6 7  328 230 
 RREF BN ES   2   2016 40.26                             111    -0.2 3  328 230 
 RREF BZ I        2016 45.57        16.1 0.26                           328 230 
 DBB  SZ EP       2016  4.70                             109    -0.8 6  348 274 
 TOL  SZ ES   2   2016 44.44                             109     0.3 3  350 226 
 SDV  BZ IP       2016  6.26                             109     0.0 6  354  49 
 SDV  BZ I        2016  6.57        14.6 0.17                           354  49 
 ANIL BN ES   3   2016 47.18                             108     0.2 2  363 225 
 ANIL BZ I        2016 51.06        32.2 0.41                           363 225 
 PRA  HZ EP   1   2016 10.13                             106    -0.9 4  396 211 
 PRA  HE ES   1   2016 53.20                             106     0.0 4  396 211 
 PRA  HZ I        2016 58.59        15.9 0.30                           396 211 
                                                                                
