 2015  1 4 2357 30.1 L   6.786 -73.143148.9  RSN 19 0.4 2.3LRSN                1
 GAP= 72        0.94       2.4     2.7  4.7 -0.6083E+00  0.2563E+01  0.9415E+00E
 Epicentro: LOS SANTOS - SANTANDER                                             3
 ACTION:UPD 15-03-02 15:36 OP:nd   STATUS:               ID:20150104235730 L   I
 OLDACT:UP  15-01-05 10:40 OP:spq  STATUS:               ID:20150104234750d    3
 OLDACT:UP  15-01-05 10:35 OP:spq  STATUS:               ID:20150104234750d    3
 OLDACT:DUP 15-01-05 10:19 OP:spq  STATUS:               ID:20150104234750d    3
 2015-01-04-2347-49M.COL___277                                                 6
 STAT SP IPHASW D HRMM SECON CODA AMPLIT PERI AZIMU VELO AIN AR TRES W  DIS CAZ7
 BAR2 EZ EP       2357 49.98                             171   -0.1110 21.9 191 
 BAR2 EZ ES   1   2358  5.31                             171   -0.36 7 21.9 191 
 BAR2 EZ I        2358  7.39        22.4 0.20            171           21.9 191 
 BRR  HZ EP     C 2357 51.88                             153    0.2310 72.2 299 
 BRR  HE ES       2358  9.43                             153    0.9810 72.2 299 
 BRR  HZ I        2358 12.34        25.4 0.42            149           72.2 299 
 PAM  SZ EP       2357 52.80                             151    0.0910 78.3  39 
 PAM  SN ES       2358 10.00                             151   -0.3410 78.3  39 
 PAM  SZ I        2358 12.33        48.3 0.44            150           78.3  39 
 RUS  HZ EP       2357 54.20                             145    0.1410 99.1 176 
 RUS  HN ES       2358 12.79                             145    0.0510 99.1 176 
 RUS  HZ I        2358 14.94        15.2 0.20            144           99.1 176 
 PTB  HZ EP       2357 56.70                             133   -0.63 9  148 259 
 PTB  HN ES       2358 18.16                             133   -0.41 9  148 259 
 PTB  HZ I        2358 23.71        32.5 0.42            130            148 259 
 TAM  HZ EP     D 2357 58.10                             131    0.13 9  154 104 
 TAM  HN ES       2358 19.59                             131   -0.11 9  154 104 
 TAM  HZ I        2358 20.42        10.0 0.22            131            154 104 
 SPBC HZ EP       2357 58.26                             130   -0.50 9  162 219 
 SPBC HE ES       2358 21.12                             130    0.02 9  162 219 
 SPBC HZ I        2358 23.72        30.0 0.38            128            162 219 
 OCA  HZ EP       2357 58.75                             130   -0.05 9  162 353 
 OCA  HE ES       2358 21.28                             130    0.09 9  162 353 
 OCA  HZ I        2358 24.68        15.7 0.30            127            162 353 
 ZAR  HZ EP       2358  3.90                             123    1.05 9  205 292 
 ZAR  HE ES       2358 28.21                             123   -0.17 9  205 292 
 ZAR  HZ I        2358 33.80        25.1 0.36            120            205 292 
 NOR  HZ EP       2358  6.07                             119    0.11 8  234 235 
 NOR  HE ES       2358 33.41                             119   -0.50 8  234 235 
 NOR  HZ I        2358 38.17        16.0 0.20            117            234 235 
 SML  HZ EP       2358  6.92                             118   -0.15 8  245 335 
 SML  HE ES   1   2358 35.31                             118   -0.59 6  245 335 
 SML  HZ I        2358 39.91        21.3 0.16            115            245 335 
 CHI  HZ EP       2358  8.00                             118    0.17 8  247 195 
 CHI  HN ES       2358 37.37                             118    0.11 8  247 195 
 CHI  HZ I        2358 42.90         7.8 0.44            116            247 195 
 HEL  HZ EP   4   2358 11.61                             115    1.14 0  272 256 
 HEL  HE ES   1   2358 41.78                             115   -0.18 6  272 256 
 HEL  HZ I        2358 48.41        11.7 0.42            113            272 256 
 PTGC HZ EP   4   2358 12.74                             112   -1.20 0  307 159 
 PTGC HN ES   4   2358 46.08                             112   -2.04 0  307 159 
 PTGC HZ I        2358 48.51        10.7 0.32            111            307 159 
 RREF HZ EP   1   2358 16.88                             111    0.58 5  321 230 
 RREF HN ES   4   2358 55.14                             111    2.80 0  321 230 
 RREF HZ I        2359  1.41        10.7 0.30            110            321 230 
 TOL  SZ EP   4   2358 20.09                             110    1.70 0  343 225 
 TOL  SE ES   1   2358 56.31                             110    0.25 5  343 225 
 TOL  SZ I        2359  4.68        14.8 0.24            108            343 225 
 MON  HZ EP   1   2358 18.59                             109   -0.78 5  355 309 
 MON  HN ES   4   2358 56.31                             109   -1.48 0  355 309 
 MON  HZ I        2358 58.99         4.6 0.28            107            355 309 
 ANIL HN ES   4   2359  0.68                             109    1.88 0  356 225 
 ORTC HZ EP       2358 24.22                             107    0.20 6  394 216 
 ORTC HN ES   1   2359  6.72                             107    0.66 4  394 216 
 ORTC HZ I        2359 10.82         5.1 0.36            105            394 216 
 SJC  HZ EP   4   2358 24.25                             106   -1.69 0  411 327 
 SJC  HN ES   4   2359  5.85                             106   -3.64 0  411 327 
 SJC  HZ I        2359 10.04         5.9 0.60            104            411 327 
                                                                                
