 2013  8 4 2102 15.4 L   6.790 -73.096149.0  RSN 12 0.4 2.3LRSN                1
 GAP=185        0.78       2.9     5.4  5.3  0.9840E-01  0.2258E+01 -0.1159E+01E
 Epicentro: LOS SANTOS - SANTANDER                                             3
 ACTION:UPD 14-01-14 08:59 OP:ep   STATUS:               ID:20130804210215 L   I
 OLDACT:UP  13-08-04 22:06 OP:mh   STATUS:               ID:20130804205959     3
 OLDACT:REG 13-08-04 21:33 OP:mh   STATUS:               ID:20130804205959     3
 2013-08-04-2059-59M.COL___270                                                 6
 STAT SP IPHASW D HRMM SECON CODA AMPLIT PERI AZIMU VELO AIN AR TRES W  DIS CAZ7
 BAR2 SZ EP   1   21 2 35.63                             170    0.19 7 23.9 204 
 BAR2 SZ ES   1   21 2 50.91                             170   -0.15 7 23.9 204 
 BAR2 SZ I        21 2 52.03        20.3 0.40            167           23.9 204 
 GIR2 SZ IP     C 21 2 35.67                             167    0.1410 33.7 341 
 BRR  HZ EP     C 21 2 37.48                             151    0.2710 76.5 297 
 BRR  HN ES       21 2 54.64                             151    0.4210 76.5 297 
 BRR  HN I        21 2 55.72        52.7 0.24            146           76.5 297 
 RUS  HZ EP   1   21 2 39.69                             145    0.30 7 99.3 179 
 RUS  HN ES   1   21 2 57.70                             145   -0.39 7 99.3 179 
 RUS  HN I        21 2 58.58        20.0 0.30            145           99.3 179 
 OCA  HZ EP   1   21 2 43.81                             130   -0.33 7  162 351 
 OCA  HN ES   1   21 3  6.50                             130   -0.05 7  162 351 
 OCA  HN I        21 3 12.74        61.3 0.32            129            162 351 
 SPBC HZ EP   1   21 2 44.42                             129    0.01 7  166 221 
 SPBC HN ES   1   21 3  6.28                             129   -0.75 7  166 221 
 SPBC HN I        21 3 10.25        37.8 0.16            128            166 221 
 ZAR  HZ EP   1   21 2 49.26                             122    0.63 6  210 292 
 ZAR  HN ES   1   21 3 14.63                             122    0.09 6  210 292 
 ZAR  HN I        21 3 19.55        19.3 0.14            120            210 292 
 NOR  HZ EP   1   21 2 51.71                             119   -0.03 6  239 235 
 NOR  HN ES   2   21 3 19.09                             119   -0.99 4  239 235 
 NOR  HN I        21 3 28.57        22.6 0.14            117            239 235 
 SML  HZ EP   1   21 2 51.97                             118   -0.60 6  247 334 
 SML  HN ES   1   21 3 20.91                             118   -0.65 6  247 334 
 SML  HZ I        21 3 25.88        18.5 0.10            117            247 334 
 COD  HZ EP   1   21 3  3.38                             109   -0.71 5  350 354 
 COD  HN ES   4   21 3 41.32                             109   -0.75 0  350 354 
 COD  HN I        21 3 46.76         4.7 0.54            109            350 354 
 PRA  HZ EP   1   21 3  9.86                             107    0.61 4  394 210 
 PRA  HN ES   1   21 3 51.67                             107    0.42 4  394 210 
 PRA  HN I        21 3 57.08         3.6 0.30            107            394 210 
 SJC  HZ EP   4   21 3  8.78                             106   -2.75 0  413 326 
 SJC  HN ES   4   21 3 52.31                             106   -3.00 0  413 326 
 SJC  HN I        21 3 54.37         3.7 0.14            106            413 326 
                                                                                
