 2012  2 4 2244 24.2 L   6.787 -73.103151.6  RSN  6 0.3 1.5LRSN                1
 GAP=143        0.62       4.9     5.5  5.7 -0.4625E+00  0.2396E+01  0.1508E+01E
 ACTION:UP  12-03-07 16:27 OP:epov STATUS:               ID:20120204224424 L   I
 2012-02-04-2240-00M.COL___188                                                 6
 STAT SP IPHASW D HRMM SECON CODA AMPLIT PERI AZIMU VELO SNR AR TRES W  DIS CAZ7
 BAR2 SZ ES   1   2245  0.19                             171   -0.17 7 23.2 202 
 GIR2 SZ EP       2244 44.56                             167   -0.0510 33.8 343 
 PAM  SZ EP       2244 46.92                             152    0.0110 75.6  36 
 PAM  SE ES   2   2245  4.35                             152   -0.30 5 75.6  36 
 BRR  HZ EP       2244 46.53                             152    0.3010 76.1 298 
 BRR  HZ I        2244 46.69        15.1 0.16                          76.1 298 
 BRR  HN ES   1   2245  3.72                             152    0.29 7 76.1 298 
 RUS  HZ EP       2244 48.55                             146    0.1710 98.9 179 
 RUS  HN ES   2   2245  7.32                             146    0.05 5 98.9 179 
 RUS  HZ I        2245  8.29         2.7 0.38                          98.9 179 
 PTB  HZ EP       2244 51.51                             133   -0.51 9  152 260 
 PTB  HZ I        2245 14.54         2.2 0.18                           152 260 
                                                                                
