 2011  4 4 2123 59.2 L   6.785 -73.142138.6  RSN 12 0.4 2.9LRSN                1
 GAP=160        0.74       3.6     4.5  6.1 -0.4975E+00  0.7918E+01  0.4757E+01E
 Epicentro: LOS SANTOS - SANTANDER                                             3
 ACTION:UP  11-06-22 15:28 OP:REBC STATUS:               ID:20110404212359 L   I
 2011-04-04-2120-56S.COL___120                                                 6
 STAT SP IPHASW D HRMM SECON CODA AMPLIT PERI AZIMU VELO SNR AR TRES W  DIS CAZ7
 BAR2 SZ IP       2124 18.00                             171     0.110   22 192 
 BAR2 SZ ES   1   2124 32.37                             171    -0.2 7   22 192 
 BAR2 SZ I        2124 36.00       241.5 0.51                            22 192 
 BRR  HZ EP   1   2124 19.88                             151     0.2 7   72 300 
 BRR  HE ES   2   2124 36.50                             151     0.9 5   72 300 
 BRR  HZ I        2124 37.82       182.3 0.31                            72 300 
 OCA  SZ EP   1   2124 26.84                             128    -0.3 7  162 353 
 OCA  SZ ES   2   2124 48.26                             128    -0.7 5  162 353 
 OCA  SZ I        2124 56.34       112.7 0.47                           162 353 
 YOP  SZ EP   1   2124 28.69                             125     0.1 7  177 153 
 YOP  SE ES   2   2124 51.91                             125     0.4 4  177 153 
 YOP  SZ I        2124 53.23        52.0 0.42                           177 153 
 NOR  SZ EP   1   2124 33.99                             117    -0.5 6  234 235 
 NOR  SN ES   1   2125  1.42                             117    -0.5 6  234 235 
 CHI  HZ EP   1   2124 36.34                             116     0.0 6  247 195 
 CHI  HE ES   2   2125  4.63                             116    -0.7 4  247 195 
 CHI  HZ I        2125  8.95        31.4 0.54                           247 195 
 HEL  HZ EP   2   2124 39.92                             113     0.9 4  272 256 
 HEL  HN ES   1   2125  9.84                             113    -0.3 6  272 256 
 HEL  HZ I        2125 17.26        52.0 0.33                           272 256 
 VIL  SN ES   2   2125 15.43                             111    -0.2 4  302 192 
 VIL  SZ I        2125 26.95        27.1 0.33                           302 192 
 GUY  SZ EP   2   2124 43.22                             111     0.5 4  303 235 
 GUY  SN ES   2   2125 16.92                             111     0.3 4  303 235 
 GUY  SZ I        2125 22.95        68.8 0.40                           303 235 
 RREF HZ EP   1   2124 45.51                             109     0.5 5  321 230 
 RREF HN ES   2   2125 21.23                             109     0.6 3  321 230 
 RREF HZ I        2125 26.47        32.1 0.69                           321 230 
 DBB  SZ IP       2124 46.70                             108     0.2 7  340 275 
 PRA  HZ EP   1   2124 51.92                             105    -0.4 4  391 210 
 PRA  HE ES   2   2125 33.72                             105    -0.1 3  391 210 
 PRA  HZ I        2125 43.77        68.2 0.22                           391 210 
                                                                                
