 2014  4 4 2348 16.9 L   6.783 -73.163142.5  RSN 13 0.5 2.0LRSN                1
 GAP=135        0.99       3.0     4.1  6.1 -0.1074E+01  0.5449E+01  0.2187E+01E
 Epicentro: LOS SANTOS - SANTANDER                                             3
 ACTION:UPD 14-05-13 23:06 OP:nd   STATUS:               ID:20140404234816 L   I
 OLDACT:UP  14-04-05 05:23 OP:mh   STATUS:               ID:20140404233813     3
 OLDACT:UP  14-04-05 05:20 OP:mh   STATUS:               ID:20140404233813     3
 OLDACT:UP  14-04-05 05:20 OP:mh   STATUS:               ID:20140404233813     3
 OLDACT:UP  14-04-05 05:19 OP:mh   STATUS:               ID:20140404233813     3
 OLDACT:UP  14-04-05 05:19 OP:mh   STATUS:               ID:20140404233813     3
 OLDACT:UP  14-04-05 05:19 OP:mh   STATUS:               ID:20140404233813     3
 OLDACT:REG 14-04-05 02:56 OP:mh   STATUS:               ID:20140404233813     3
 2014-04-04-2338-13M.COL___262                                                 6
 STAT SP IPHASW D HRMM SECON CODA AMPLIT PERI AZIMU VELO AIN AR TRES W  DIS CAZ7
 BRR  HZ EP       2348 37.77                             152    0.1610 70.4 301 
 BRR  HN ES   1   2348 54.61                             152    0.81 7 70.4 301 
 BRR  HZ I        2349  1.81        12.9 0.15            151           70.4 301 
 PAM  SZ EP     C 2348 38.90                             149    0.0110 80.1  40 
 PAM  SN ES   1   2348 56.37                             149    0.29 7 80.1  40 
 PAM  SZ I        2348 58.83         6.9 0.17            157           80.1  40 
 RUS  HZ EP       2348 40.07                             144   -0.0910 98.8 175 
 RUS  HN ES       2348 58.01                             144   -0.3310 98.8 175 
 RUS  HZ I        2348 59.97        13.9 0.24            149           98.8 175 
 PTB  HZ EP       2348 42.74                             132   -0.61 9  145 259 
 PTB  HN ES       2349  3.49                             132   -0.52 9  145 259 
 PTB  HZ I        2349 11.78        17.5 0.50            133            145 259 
 OCA  HZ EP       2348 45.45                             128    0.38 9  162 354 
 OCA  HN ES   1   2349  7.27                             128    0.18 7  162 354 
 OCA  HZ I        2349 17.63        19.9 0.29            133            162 354 
 ZAR  HZ EP   1   2348 49.40                             122    0.42 6  203 293 
 ZAR  HN ES       2349 14.34                             122    0.31 9  203 293 
 ZAR  HZ I        2349 21.44        17.1 0.11            124            203 293 
 NOR  HZ EP       2348 51.72                             118   -0.38 8  232 235 
 NOR  HN ES   1   2349 19.20                             118   -0.40 6  232 235 
 NOR  HZ I        2349 25.47        12.1 0.29            121            232 235 
 SML  HZ EP       2348 52.47                             117   -0.93 8  245 336 
 SML  HN ES   1   2349 21.09                             117   -0.82 6  245 336 
 SML  HZ I        2349 24.72        39.1 0.10            121            245 336 
 CHI  HZ EP       2348 54.11                             117   -0.00 8  246 195 
 CHI  HN ES   1   2349 23.59                             117    0.41 6  246 195 
 CHI  HZ I        2349 33.72         3.9 0.32            121            246 195 
 ROSC BZ EP   4   2348 56.65                             116    2.15 0  250 211 
 ROSC BN ES   4   2349 27.57                             116    3.70 0  250 211 
 GUY2CHZ EP   1   2349  0.70                             112    0.70 5  298 235 
 GUY2CHN ES   2   2349 33.43                             112   -0.23 4  298 235 
 RREF HZ EP       2349  3.58                             110    1.04 7  319 229 
 RREF HN ES   4   2349 41.08                             110    2.90 0  319 229 
 CBOC HZ EP       2349  3.93                             109    0.58 7  331 252 
 CBOC HN ES   1   2349 39.74                             109    0.12 5  331 252 
 CBOC HZ I        2349 52.47         1.7 0.35            113            331 252 
 PRA  HZ EP       2349  9.71                             106   -0.24 6  389 209 
 PRA  HN ES   1   2349 51.78                             106    0.41 4  389 209 
 PRA  HZ I        2349 57.95         4.6 0.33            110            389 209 
 SJC  HZ EP   4   2349 10.44                             105   -1.93 0  410 327 
 SJC  HN ES   4   2349 50.41                             105   -5.27 0  410 327 
                                                                                
