 2011  1 4 2321 48.4 L   6.775 -73.184139.8  RSN  9 0.3 2.2LRSN                1
 GAP=133        0.82       3.1     7.0  7.1 -0.7317E+01  0.1792E+02 -0.1975E+01E
 Epicentro: LOS SANTOS - SANTANDER                                             3
 ACTION:UP  11-02-08 08:38 OP:pat  STATUS:               ID:20110104232148 L   I
 2011-01-04-2320-00M.COL___137                                                 6
 STAT SP IPHASW D HRMM SECON CODA AMPLIT PERI AZIMU VELO SNR AR TRES W  DIS CAZ7
 BTL  SZ IP       2322  7.74                             172     0.510   18 330 
 BAR2 SZ IP       2322  7.38                             171     0.110   20 180 
 BAR2 SZ ES   1   2322 21.93                             171     0.0 7   20 180 
 GIR2 SZ EP       2322  7.60                             166     0.210   34 358 
 RUS  HZ EP       2322 11.20                             143    -0.210   98 173 
 RUS  HN ES   1   2322 28.78                             143    -0.5 7   98 173 
 RUS  HZ I        2322 30.73        23.0 0.25                            98 173 
 GRA  SZ EP       2322 13.43                             135     0.010  130  19 
 GRA  SZ I        2322 14.91        34.8 0.14                           130  19 
 GRA  SZ ES   1   2322 33.49                             135     0.5 7  130  19 
 OCA  SZ EP       2322 16.00                             128    -0.5 9  163 355 
 OCA  SZ ES   1   2322 37.79                             128    -0.6 7  163 355 
 OCA  SZ I        2322 42.22        49.3 0.48                           163 355 
 YOP  SN ES   2   2322 40.90                             125    -0.1 4  178 152 
 NOR  SZ EP       2322 23.17                             118    -0.1 8  230 235 
 NOR  SN ES   1   2322 50.57                             118     0.1 6  230 235 
 CHI  HZ EP       2322 25.64                             116     0.3 8  245 194 
 CHI  HN ES   2   2322 54.03                             116    -0.2 4  245 194 
 CHI  HZ I        2323  4.89         4.6 0.44                           245 194 
                                                                                
