 2010  5 4 2100 53.2 L   6.724 -73.037146.4  RSN  5 0.2 2.1LRSN                1
 GAP=214        0.46       5.5     8.2  5.5 -0.1053E+02 -0.6926E+01 -0.3839E+01E
 Epicentro: ARATOCA - SANTANDER                                                3
 ACTION:UP  10-08-24 10:02 OP:vdl  STATUS:               ID:20100504210053 L   I
 2010-05-04-2056-22S.COL___105                                                 6
 STAT SP IPHASW D HRMM SECON CODA AMPLIT PERI AZIMU VELO SNR AR TRES W  DIS CAZ7
 BAR2 SZ IP       21 1 12.86                             171     0.010   22 228 
 BAR2 SZ ES   1   21 1 28.24                             171     0.1 7   22 228 
 GIR2 SZ EP   2   21 1 12.98                             163    -0.3 5   43 336 
 GIR2 SZ ES   2   21 1 28.63                             163    -0.3 5   43 336 
 BRR  HZ EP   1   21 1 15.53                             148     0.3 7   86 300 
 BRR  HZ I        21 1 15.72        24.1 0.07                            86 300 
 BRR  HN ES   2   21 1 32.36                             148    -0.1 5   86 300 
 BRI  SZ ES   2   21 1 36.82                             140     0.4 5  113  14 
 GUE  SZ EP   1   21 1 18.25                             138    -0.2 7  123   6 
                                                                                
