 2013 11 4 2249 37.7 L   6.793 -73.168147.3  RSN  9 0.4 1.6LRSN                1
 GAP=134        1.06       3.7     4.3  7.0 -0.1575E+01  0.8500E+01 -0.3030E+00E
 Epicentro: LOS SANTOS - SANTANDER                                             3
 ACTION:UPD 14-01-09 16:25 OP:ep   STATUS:               ID:20131104224937 L   I
 OLDACT:REG 13-11-05 00:48 OP:carl STATUS:               ID:20131104224841     3
 2013-11-04-2248-41M.COL___226                                                 6
 STAT SP IPHASW D HRMM SECON CODA AMPLIT PERI AZIMU VELO AIN AR TRES W  DIS CAZ7
 BAR2 SZ EP       2249 57.39                             171   -0.1110 22.3 184 
 BAR2 SZ ES       2250 12.36                             171   -0.5810 22.3 184 
 BAR2 SZ I        2250 13.74        13.6 0.38            170           22.3 184 
 BRR  HZ EP       2249 59.63                             153    0.7110 69.4 300 
 BRR  HN ES       2250 15.97                             153    0.5010 69.4 300 
 BRR  HZ I        2250 19.72         4.4 0.30            151           69.4 300 
 PAM  SZ EP       2250  0.71                             150    0.5010 79.5  41 
 PAM  SN ES       2250 17.36                             150   -0.4110 79.5  41 
 PAM  SZ I        2250 19.97         5.3 0.70            154           79.5  41 
 RUS  HZ EP       2250  1.11                             144   -0.4610  100 175 
 RUS  HN ES       2250 20.69                             144    0.5010  100 175 
 RUS  HZ I        2250 21.76         3.9 0.40            147            100 175 
 PTB  HZ EP       2250  4.57                             133    0.01 9  145 259 
 PTB  HN ES       2250 25.32                             133   -0.20 9  145 259 
 PTB  HZ I        2250 30.76         3.6 0.24            132            145 259 
 SPBC HN ES       2250 28.42                             130    0.13 9  161 218 
 ZAR  HN ES       2250 35.07                             123   -0.19 9  202 293 
 ZAR  HN I        2250 42.73         6.1 0.22            123            202 293 
 NOR  HZ EP       2250 12.73                             119   -0.53 8  232 234 
 NOR  HE ES       2250 41.06                             119    0.06 8  232 234 
 NOR  HZ I        2250 48.61         2.9 0.14            120            232 234 
 SML  HN ES       2250 42.76                             118   -0.22 8  243 336 
                                                                                
