 2015  4 4 2339 10.3 L   6.846 -73.161140.1  RSN  7 0.4 1.4LRSN                1
 GAP=142        1.02       5.1     4.7  9.1 -0.3272E+01  0.1036E+02 -0.1405E+02E
 Epicentro: LOS SANTOS - SANTANDER                                             3
 ACTION:UPD 15-06-03 16:52 OP:cam  STATUS:               ID:20150404233910 L   I
 OLDACT:DUP 15-04-05 05:44 OP:stll STATUS:               ID:20150404232753d    3
 OLDACT:DUP 15-04-05 05:37 OP:stll STATUS:               ID:20150404232752d    3
 OLDACT:UP  15-04-05 05:35 OP:stll STATUS:               ID:20150404232751d    3
 OLDACT:DUP 15-04-05 05:30 OP:stll STATUS:               ID:20150404232751d    3
 OLDACT:REG 15-04-05 03:06 OP:stll STATUS:               ID:20150404232750     3
 2015-04-04-2327-50M.COL___285                                                 6
 STAT SP IPHASW D HRMM SECON CODA AMPLIT PERI AZIMU VELO AIN AR TRES W  DIS CAZ7
 BAR2 EZ EP       2339 29.26                             168   -0.0710 28.2 185 
 BAR2 EZ ES       2339 43.75                             168   -0.4410 28.2 185 
 BAR2 EZ I        2339 45.19         7.9 0.38            165           28.2 185 
 BRR  HZ EP     C 2339 30.93                             153    0.3410 67.4 295 
 BRR  HZ I        2339 31.17         5.0 0.26            151           67.4 295 
 BRR  HN ES       2339 47.00                             153    0.5610 67.4 295 
 PAM  SZ EP       2339 31.87                             151    0.1510 74.7  43 
 PAM  SZ I        2339 32.17         6.9 0.22            153           74.7  43 
 PAM  SN ES       2339 48.69                             151    0.2410 74.7  43 
 PTB  HN ES       2339 56.83                             131   -0.53 9  147 257 
 PTB  HZ I        2340  2.65         1.2 0.18            129            147 257 
 OCA  HN ES       2339 58.49                             129   -0.51 9  155 354 
 ZAR  HN ES       2340  7.21                             121    0.47 9  201 291 
 SML  HE ES       2340 13.49                             117   -0.38 8  238 335 
                                                                                
