 2014  9 4 2115 55.0 L   6.791 -73.168139.7  RSN  6 0.2 1.6LRSN                1
 GAP=134        0.66       3.6     4.0  5.5 -0.7057E+01  0.9513E+01 -0.4691E+01E
 Epicentro: LOS SANTOS - SANTANDER                                             3
 ACTION:UPD 14-10-03 23:02 OP:nd   STATUS:               ID:20140904211555 L   I
 OLDACT:REG 14-09-05 04:35 OP:stll STATUS:               ID:20140904210817     3
 2014-09-04-2108-17M.COL___284                                                 6
 STAT SP IPHASW D HRMM SECON CODA AMPLIT PERI AZIMU VELO AIN AR TRES W  DIS CAZ7
 BAR2 SZ EP       2116 13.83                             171   -0.0810 22.1 184 
 BAR2 SZ ES       2116 28.57                             171   -0.0710 22.1 184 
 BAR2 SZ I        2116 29.90         9.6 0.18            166           22.1 184 
 BRR  HZ EP       2116 16.00                             152    0.5610 69.5 300 
 PAM  SZ EP       2116 16.63                             149   -0.1310 79.7  40 
 PAM  SZ I        2116 16.95        11.8 0.24            153           79.7  40 
 PAM  SN ES       2116 33.72                             149    0.0210 79.7  40 
 RUS  HN ES       2116 36.12                             143   -0.0510 99.8 175 
 RUS  HZ I        2116 40.22         3.9 0.36            140           99.8 175 
 PTB  HZ EP       2116 20.97                             131   -0.30 9  145 259 
 PTB  HN ES       2116 41.52                             131   -0.22 9  145 259 
 PTB  HZ I        2116 43.47         5.8 0.18            131            145 259 
 SPBC HZ EP       2116 22.80                             128   -0.06 9  161 219 
 SPBC HN ES       2116 44.86                             128    0.30 9  161 219 
 SPBC HZ I        2116 51.46         6.4 0.34            127            161 219 
                                                                                
