 2014 11 4 2301 26.2 L   6.812 -73.144147.9  RSN 21 0.4 2.7LRSN                1
 GAP= 71        0.86       2.5     2.6  4.0 -0.1404E+01  0.1824E+01  0.1686E+01E
 Epicentro: LOS SANTOS - SANTANDER                                             3
 ACTION:UPD 14-12-19 15:39 OP:nd   STATUS:               ID:20141104230126 L   I
 OLDACT:DUP 14-11-05 08:17 OP:spq  STATUS:               ID:20141104225747d    3
 2014-11-04-2257-45M.COL___270                                                 6
 STAT SP IPHASW D HRMM SECON CODA AMPLIT PERI AZIMU VELO AIN AR TRES W  DIS CAZ7
 BAR2 SZ EP       23 1 46.05                             170   -0.0410 24.7 190 
 BAR2 SZ ES   1   23 2  1.51                             170   -0.12 7 24.7 190 
 BAR2 SZ I        23 2  2.45       183.5 0.14            169           24.7 190 
 BRR  HZ EP     D 23 1 47.92                             153    0.3910 70.7 298 
 BRR  HN ES       23 2  4.92                             153    0.7310 70.7 298 
 BRR  HZ I        23 2  8.56        68.4 0.26            153           70.7 298 
 PAM  SZ EP     D 23 1 48.84                             152    0.2810 76.3  40 
 PAM  SN ES       23 2  6.01                             152   -0.0010 76.3  40 
 PAM  SZ I        23 2 10.63        52.9 0.48            151           76.3  40 
 RUS  HZ EP     C 23 1 50.01                             144   -0.2210  102 176 
 RUS  HN ES       23 2  8.74                             144   -0.2610  102 176 
 RUS  HZ I        23 2  9.81        42.8 0.32            142            102 176 
 PTB  HZ EP       23 1 52.73                             132   -0.63 9  148 258 
 PTB  HN ES       23 2 13.96                             132   -0.59 9  148 258 
 PTB  HZ I        23 2 15.82        70.2 0.40            131            148 258 
 TAM  HZ EP     D 23 1 54.34                             131    0.30 9  155 105 
 TAM  HZ I        23 2 15.19        28.6 0.32            129            155 105 
 TAM  HN ES       23 2 15.87                             131    0.09 9  155 105 
 OCA  HZ EP       23 1 54.51                             130   -0.02 9  159 353 
 OCA  HN ES       23 2 16.25                             130   -0.40 9  159 353 
 OCA  HZ I        23 2 19.50        60.7 0.20            130            159 353 
 SPBC HZ EP       23 1 54.70                             129   -0.25 9  164 219 
 SPBC HE ES       23 2 17.18                             129   -0.21 9  164 219 
 SPBC HZ I        23 2 22.43        70.6 0.24            128            164 219 
 NOR  HZ EP       23 2  1.97                             119   -0.16 8  236 234 
 NOR  HN ES       23 2 30.68                             119    0.51 8  236 234 
 NOR  HZ I        23 2 35.30        56.9 0.34            118            236 234 
 CHI  HZ EP     D 23 2  4.20                             117    0.06 8  250 195 
 CHI  HN ES       23 2 33.82                             117    0.07 8  250 195 
 CHI  HZ I        23 2 39.22        24.8 0.21            116            250 195 
 HEL  HZ EP       23 2  6.92                             115    0.37 8  273 256 
 HEL  HE ES   4   23 2 40.14                             115    2.10 0  273 256 
 HEL  HZ I        23 2 45.76        21.2 0.42            114            273 256 
 GUY2CHZ EP       23 2 10.13                             113    0.15 7  302 235 
 GUY2CHE ES   4   23 2 45.30                             113    1.15 0  302 235 
 GUY2CHZ I        23 2 52.67        51.8 0.38                           302 235 
 PTGC HZ EP   4   23 2  9.08                             112   -1.18 0  310 159 
 PTGC HN ES   4   23 2 42.51                             112   -2.14 0  310 159 
 PTGC HZ I        23 2 44.55        16.1 0.34            111            310 159 
 DBB  SZ EP       23 2 13.83                             110    0.09 7  340 274 
 DBB  SZ ES   1   23 2 50.54                             110   -0.31 5  340 274 
 DBB  SZ I        23 2 54.15        48.0 0.50            109            340 274 
 TOL  SZ EP       23 2 15.54                             110    0.90 7  345 225 
 TOL  SN ES   4   23 2 54.25                             110    1.81 0  345 225 
 ANIL HZ EP   4   23 2 17.55                             109    1.37 0  358 224 
 ANIL HE ES   4   23 2 57.54                             109    2.35 0  358 224 
 ANIL HZ I        23 3  7.14         6.1 0.34            108            358 224 
 SDV  BZ EP       23 2 15.42                             109   -0.77 6  359  50 
 SDV  BN ES   4   23 2 53.08                             109   -2.12 0  359  50 
 SDV  BZ I        23 2 57.38         5.2 0.60            108            359  50 
 PRA  HZ EP       23 2 19.77                             107   -0.14 6  393 209 
 PRA  HN ES       23 3  1.67                             107   -0.16 6  393 209 
 PRA  HZ I        23 3  8.67        38.6 0.26            106            393 209 
 ORTC HZ EP       23 2 20.22                             107   -0.08 6  397 216 
 ORTC HN ES   4   23 3  4.14                             107    1.62 0  397 216 
 ORTC HZ I        23 3  9.02        18.7 0.42            106            397 216 
 SJC  HZ EP   4   23 2 20.10                             106   -1.59 0  408 327 
 SJC  HE ES   4   23 3  1.75                             106   -3.23 0  408 327 
 SJC  HZ I        23 3  5.98         7.0 0.52            105            408 327 
 YOT  HZ EP   1   23 2 30.43                             103    1.03 4  473 229 
 YOT  HN ES   4   23 3 25.86                             103    7.15 0  473 229 
 SMAR HZ EP   4   23 2 30.72                             103   -1.23 0  496 346 
 SMAR HE ES   4   23 3 19.57                             103   -3.69 0  496 346 
 URI  HZ EP   4   23 2 36.73                             101   -2.34 0  555  13 
 URI  HN ES   4   23 3 29.68                             101   -6.24 0  555  13 
                                                                                
