 2016  1 4 2119 28.6 L   6.789 -73.168139.7  RSN 12 0.5 2.0LRSN                1
 GAP=134        0.91       3.1     5.4  7.0 -0.7343E+01  0.1761E+02 -0.3391E+01E
 Epicentro: LOS SANTOS - SANTANDER                                             3
 ACTION:UPD 16-03-09 23:22 OP:cam  STATUS:               ID:20160104211928 L   I
 OLDACT:REG 16-01-05 03:42 OP:dnl  STATUS:               ID:20160104211748     3
 2016-01-04-2117-48M.COL___335                                                 6
 STAT SP IPHASW D HRMM SECON CODA AMPLIT PERI AZIMU VELO AIN AR TRES W  DIS CAZ7
 BAR2 EZ EP       2119 47.60                             171    0.1110 21.8 184 
 BAR2 EZ ES       2120  1.93                             171   -0.2810 21.8 184 
 BAR2 EZ I        2120  4.48        14.0 0.24            167           21.8 184 
 BRR  HZ EP   2   2119 49.73                             152    0.70 5 69.6 300 
 BRR  HN ES   3   2120  5.65                             152    0.70 2 69.6 300 
 PAM  EZ EP       2119 50.44                             149    0.0910 79.9  40 
 PAM  EE ES       2120  7.77                             149    0.4710 79.9  40 
 PAM  EZ I        2120  9.85         6.8 0.24            156           79.9  40 
 RUS  HZ EP   2   2119 51.61                             143   -0.10 5 99.6 175 
 RUS  HE ES       2120  9.15                             143   -0.5610 99.6 175 
 RUS  HZ I        2120 11.80         5.6 0.23            148           99.6 175 
 PTB  HZ EP   2   2119 54.45                             131   -0.41 5  145 259 
 PTB  HE ES   2   2120 14.61                             131   -0.71 5  145 259 
 PTB  HZ I        2120 23.32         8.6 0.13            130            145 259 
 OCA  HZ EP   2   2119 56.86                             128    0.31 5  161 354 
 OCA  HE ES       2120 18.02                             128   -0.32 9  161 354 
 OCA  HZ I        2120 23.57        28.0 0.31            131            161 354 
 SPBC HZ EP   2   2119 56.61                             128    0.19 5  161 219 
 SPBC HN ES       2120 19.19                             128    1.08 9  161 219 
 SPBC HZ I        2120 25.90        21.5 0.21            130            161 219 
 ZAR  HZ EP   2   2120  0.20                             121   -0.29 4  202 293 
 ZAR  HN ES   4   2120 22.83                             121   -2.52 0  202 293 
 ZAR  HZ I        2120 32.13        12.9 0.16            122            202 293 
 NOR  HZ EP   2   2120  4.05                             117    0.34 4  232 234 
 NOR  HE ES       2120 31.14                             117    0.06 8  232 234 
 NOR  HZ I        2120 38.99         7.4 0.31            119            232 234 
 SML  HZ EP   2   2120  4.60                             116   -0.32 4  244 336 
 SML  HN ES   2   2120 32.38                             116   -0.86 4  244 336 
 SML  HZ I        2120 37.41        24.2 0.07            118            244 336 
 CHI  HZ EP   2   2120  5.72                             116   -0.07 4  247 195 
 CHI  HN ES       2120 34.13                             116   -0.66 8  247 195 
 CHI  HZ I        2120 39.11         3.4 0.35            120            247 195 
 GUY2CHZ EP   2   2120 11.98                             111    0.33 4  298 235 
 GUY2CHE ES   2   2120 45.34                             111    0.13 4  298 235 
 GUY2CHZ I        2120 55.07         5.5 0.43                           298 235 
                                                                                
