 2014  4 4 2027 41.2 L   6.787 -73.177135.5  RSN  8 0.3 2.0LRSN                1
 GAP=133        0.55       2.0     2.5  4.6 -0.4000E-01  0.4875E+01  0.1864E+01E
 Epicentro: LOS SANTOS - SANTANDER                                             3
 ACTION:UPD 14-05-13 23:06 OP:nd   STATUS:               ID:20140404202741 L   I
 OLDACT:UP  14-04-05 04:29 OP:mh   STATUS:               ID:20140404201814d    3
 OLDACT:UP  14-04-05 04:29 OP:mh   STATUS:               ID:20140404201814d    3
 OLDACT:DUP 14-04-05 03:09 OP:mh   STATUS:               ID:20140404201814d    3
 2014-04-04-2018-13M.COL___268                                                 6
 STAT SP IPHASW D HRMM SECON CODA AMPLIT PERI AZIMU VELO AIN AR TRES W  DIS CAZ7
 PAM  SZ EP       2028  2.67                             148    0.0810 80.7  41 
 PAM  SN ES       2028 19.44                             148    0.2010 80.7  41 
 PAM  SZ I        2028 21.69        14.2 0.45            154           80.7  41 
 RUS  HZ EP       2028  3.50                             142   -0.4110 99.5 174 
 RUS  HN ES       2028 21.57                             142   -0.0310 99.5 174 
 RUS  HZ I        2028 23.28         5.6 0.33            144           99.5 174 
 PTB  HZ EP   1   2028  7.34                             130    0.29 7  144 259 
 PTB  HN ES   1   2028 26.78                             130   -0.40 7  144 259 
 PTB  HZ I        2028 34.97         9.6 0.36            132            144 259 
 ZAR  HZ EP   1   2028 13.03                             120    0.27 6  201 293 
 ZAR  HN ES       2028 37.35                             120    0.00 9  201 293 
 NOR  HZ EP       2028 16.14                             117    0.14 8  231 234 
 NOR  HN ES       2028 43.36                             117    0.25 8  231 234 
 NOR  HZ I        2028 45.46         9.2 0.15            119            231 234 
 SML  HZ EP   4   2028 15.82                             115   -1.48 0  244 336 
 SML  HN ES   1   2028 44.93                             115   -0.50 6  244 336 
 SML  HZ I        2028 48.30        13.9 0.11            119            244 336 
 CHI  HZ EP       2028 17.95                             115   -0.19 8  246 194 
 CHI  HN ES   1   2028 47.19                             115    0.27 6  246 194 
 CHI  HZ I        2028 54.57         4.7 0.52            118            246 194 
 PRA  HZ EP       2028 34.20                             105    0.12 6  389 209 
 PRA  HE ES   1   2029 15.27                             105   -0.02 4  389 209 
 PRA  HZ I        2029 20.94         6.4 0.14            107            389 209 
                                                                                
