 2012  6 4 2108  7.0 L   7.385 -73.193130.1  RSN  5 0.3 1.6LRSN                1
 GAP=181        0.66       4.9     3.9  7.3 -0.1298E+01  0.1441E+02  0.2374E+01E
 Epicentro: EL PLAYON - SANTANDER                                              3
 ACTION:UP  12-08-06 17:47 OP:ep   STATUS:               ID:20120604210806 L   I
 2012-06-04-2100-00M.COL___200                                                 6
 STAT SP IPHASW D HRMM SECON CODA AMPLIT PERI AZIMU VELO AIN AR TRES W  DIS CAZ7
 PAM  SZ EP       21 8 26.39                             156    0.1110 54.7  95 
 PAM  SN ES       21 8 41.13                             156   -0.1810 54.7  95 
 BAR2 SZ ES   1   21 8 44.79                             144    0.53 7 87.7 179 
 BAR2 SZ I        21 8 45.89        14.5 0.14            142           87.7 179 
 RUS  HZ EP   1   21 8 35.29                             125    0.16 7  166 176 
 RUS  HE ES   1   21 8 56.40                             125   -0.65 7  166 176 
 RUS  HZ I        21 9  1.16         3.1 0.40            125            166 176 
 PTB  HZ EP       21 8 34.79                             124    0.03 9  168 236 
 PTB  HE ES   1   21 8 56.56                             124    0.17 7  168 236 
 PTB  HZ I        21 8 59.62         3.5 0.22            124            168 236 
 ZAR  HN ES   1   21 8 59.07                             121   -0.25 7  184 274 
 ZAR  HZ I        21 9  2.46         6.0 0.74            122            184 274 
                                                                                
