 2013  3 4 2213 36.2 L   6.768 -73.172141.1  RSN  7 0.4 1.8LRSN                1
 GAP=144        0.66       6.3     3.8  6.5 -0.5877E+01  0.5580E+01  0.9825E+01E
 Epicentro: LOS SANTOS - SANTANDER                                             3
 ACTION:UPD 13-04-09 13:59 OP:ep   STATUS:               ID:20130304221336 L   I
 2013-03-04-2210-00M.COL___228                                                 6
 STAT SP IPHASW D HRMM SECON CODA AMPLIT PERI AZIMU VELO AIN AR TRES W  DIS CAZ7
 BAR2 SZ EP   1   2213 55.48                             172    0.28 7 19.5 183 
 BAR2 SZ ES   1   2214  9.99                             172   -0.02 7 19.5 183 
 BAR2 SZ I        2214 11.17        16.8 0.34            147           19.5 183 
 BRR  HZ EP   1   2213 57.01                             152    0.20 7 70.5 302 
 BRR  HN ES   1   2214 13.27                             152    0.39 7 70.5 302 
 BRR  HZ I        2214 14.47        12.9 0.14            146           70.5 302 
 PAM  SZ EP   1   2213 58.15                             149   -0.06 7 81.9  40 
 PAM  SN ES   1   2214 15.02                             149   -0.35 7 81.9  40 
 PAM  SZ I        2214 16.59        10.4 0.40            137           81.9  40 
 PTB  HZ EP   1   2214  1.91                             132   -0.57 7  144 260 
 PTB  HE ES   1   2214 22.86                             132   -0.11 7  144 260 
 PTB  HZ I        2214 25.46         7.7 0.14            115            144 260 
 ZAR  HE ES   1   2214 33.42                             121    0.24 6  203 293 
 ZAR  HZ I        2214 39.09         7.4 0.12            109            203 293 
 HEL  HN ES   1   2214 46.15                             114   -0.49 6  268 256 
 HEL  HZ I        2214 54.75         4.7 0.32            102            268 256 
 PRA  HZ EP   1   2214 29.83                             106    0.79 4  388 209 
 PRA  HZ I        2215 17.15         2.5 0.36             97            388 209 
                                                                                
