 2017  6 4 2119 37.4 L   6.780 -73.127140.0  RSN  5 0.4 1.6LRSN                1
 GAP=238        0.72       4.7     4.9  7.4  0.1198E+02  0.7711E+01  0.5675E+01E
 Epicentro: LOS SANTOS - SANTANDER                                             3
 ACTION:UPD 17-09-14 16:49 OP:jn   STATUS:               ID:20170604211937 L   I
 OLDACT:REG 17-06-05 02:39 OP:dnl  STATUS:               ID:20170604211739     3
 2017-06-04-2118-00M.COL___353                                                 6
 STAT SP IPHASW D HRMM SECON CODA AMPLIT PERI AZIMU VELO AIN AR TRES W  DIS CAZ7
 BRR  HZ EP   2   2119 57.72                             151   -0.34 5 74.1 299 
 BRR  HN ES       2120 14.59                             151    0.3910 74.1 299 
 BRR  HZ I        2120 18.01         8.0 0.32            150           74.1 299 
 RUS  HZ EP       2120  0.18                             144   -0.2010 98.2 177 
 RUS  HE ES       2120 18.29                             144   -0.0410 98.2 177 
 RUS  HZ I        2120 19.03         3.7 0.26            147           98.2 177 
 PTB  HZ EP   2   2120  3.87                             131   -0.14 5  149 260 
 PTB  HN ES       2120 24.76                             131   -0.04 9  149 260 
 PTB  HZ I        2120 25.46         6.6 0.30            132            149 260 
 ZAR  HZ EP   2   2120 10.65                             121    0.93 4  207 293 
 ZAR  HN ES       2120 34.43                             121   -0.53 8  207 293 
 ZAR  HZ I        2120 40.05         6.0 0.62            122            207 293 
 NOR  HZ EP   2   2120 13.48                             117    0.68 4  235 235 
 NOR  HE ES       2120 40.59                             117    0.15 8  235 235 
 NOR  HZ I        2120 41.76         2.9 0.16            119            235 235 
                                                                                
