 2016  3 4 2239 25.9 L   6.806 -73.186138.2  RSN  9 0.3 1.7LRSN                1
 GAP=131        0.46       3.3     3.4  5.5 -0.4424E+01  0.4819E+01  0.6454E+00E
 Epicentro: ZAPATOCA - SANTANDER                                               3
 ACTION:UPD 16-05-13 21:21 OP:cam  STATUS:               ID:20160304223925 L   I
 OLDACT:REG 16-03-05 03:39 OP:dnl  STATUS:               ID:20160304223748     3
 2016-03-04-2237-48M.COL___319                                                 6
 STAT SP IPHASW D HRMM SECON CODA AMPLIT PERI AZIMU VELO AIN AR TRES W  DIS CAZ7
 BAR2 EZ ES   2   2239 58.87                             170   -0.40 5 23.6 179 
 BAR2 EZ I        2240  1.04         9.0 0.19            168           23.6 179 
 PAM  EZ EP       2239 47.59                             148    0.0910 79.8  42 
 PAM  EN ES   2   2240  4.59                             148    0.26 5 79.8  42 
 PAM  EZ I        2240  7.15         6.4 0.25            156           79.8  42 
 RUS  HZ EP   2   2239 48.75                             142   -0.28 5  102 174 
 RUS  HN ES   2   2240  7.02                             142   -0.02 5  102 174 
 RUS  HZ I        2240  8.67         5.2 0.38            146            102 174 
 PTB  HZ EP   2   2239 51.36                             131   -0.55 5  144 258 
 PTB  HE ES   2   2240 12.42                             131    0.25 5  144 258 
 PTB  HZ I        2240 16.19         6.6 0.16            131            144 258 
 SPBC HZ EP   2   2239 53.90                             128    0.25 5  161 218 
 SPBC HN ES   2   2240 15.87                             128    0.61 5  161 218 
 SPBC HZ I        2240 22.98        14.1 0.23            129            161 218 
 ZAR  HN ES   2   2240 21.70                             121   -0.33 4  200 292 
 ZAR  HZ I        2240 29.42         7.3 0.31            123            200 292 
 NOR  HZ EP   2   2240  0.68                             117   -0.21 4  231 234 
 NOR  HE ES   2   2240 27.87                             117   -0.28 4  231 234 
 NOR  HZ I        2240 32.57         6.6 0.18            119            231 234 
 CHI  HZ EP   2   2240  2.91                             115   -0.26 4  248 194 
 CHI  HN ES   2   2240 31.99                             115   -0.22 4  248 194 
 CHI  HZ I        2240 36.28         3.1 0.38            119            248 194 
 GUY2CHZ EP   2   2240  9.61                             111    0.77 4  298 234 
 GUY2CHE ES   2   2240 42.47                             111    0.17 4  298 234 
 GUY2CHZ I        2240 51.50         3.6 0.32                           298 234 
                                                                                
