 2013  6 4 2132 53.3 L   6.808 -73.113139.4  RSN 22 0.6 3.1LRSN 3.5WRSN        1
 SPEC AVERAGE  MO 14.3 ST  4.9 OM  2.6 f0 2.78 R0.7407 AL 1.40 WI 30.1 MW  3.5 3
 SPEC SD       MO  0.3 ST  5.2 OM  0.4 f00.704 R0.1981 AL      WI      MW  0.2 3
 GAP= 49        1.29       2.7     3.1  5.2 -0.1169E+01  0.2059E+01  0.2892E+01E
 Epicentro: LOS SANTOS - SANTANDER                                             3
 SPEC HEL HH N MO 14.3 ST0.587 OM  2.1 f0 1.73 R1.1121 AL 1.38 WI 41.9 MW  3.5 3
 SPEC HEL HH N T2134 1 K 0.050 GD  309 VS 5.20 DE 3.20 Q0750.0 QA 1.50 VS 5.20 3
 SPEC CHI HH N MO 14.2 ST  1.2 OM  2.1 f0 2.24 R0.8589 AL 1.31 WI 31.0 MW  3.4 3
 SPEC CHI HH N T213358 K 0.050 GD  286 VS 5.20 DE 3.20 Q0750.0 QA 1.50 VS 5.20 3
 SPEC NOR HH E MO 14.5 ST 14.2 OM  2.4 f0 4.13 R0.4659 AL 1.99 WI 35.2 MW  3.6 3
 SPEC NOR HH E T213355 K 0.050 GD  275 VS 5.20 DE 3.20 Q0750.0 QA 1.50 VS 5.20 3
 SPEC ZAR HH E MO 14.8 ST 13.9 OM  2.7 f0 3.37 R0.5709 AL 1.50 WI 37.5 MW  3.8 3
 SPEC ZAR HH E T213349 K 0.050 GD  249 VS 5.20 DE 3.20 Q0750.0 QA 1.50 VS 5.20 3
 SPEC OCA HH E MO 14.7 ST  6.4 OM  2.7 f0 2.75 R0.6996 AL 1.27 WI 30.6 MW  3.7 3
 SPEC OCA HH E T213341 K 0.050 GD  212 VS 5.20 DE 3.20 Q0750.0 QA 1.50 VS 5.20 3
 SPEC TAM HH N MO 14.1 ST0.535 OM  2.1 f0 1.92 R1.0021 AL 1.53 WI 16.7 MW  3.3 3
 SPEC TAM HH N T213340 K 0.050 GD  206 VS 5.20 DE 3.20 Q0750.0 QA 1.50 VS 5.20 3
 SPEC PTB HH E MO 14.4 ST  4.3 OM  2.4 f0 3.06 R0.6288 AL 1.45 WI 30.8 MW  3.5 3
 SPEC PTB HH E T213339 K 0.050 GD  205 VS 5.20 DE 3.20 Q0750.0 QA 1.50 VS 5.20 3
 SPEC RUS HH E MO 14.0 ST  1.3 OM  2.1 f0 2.75 R0.6996 AL 1.40 WI 30.9 MW  3.3 3
 SPEC RUS HH E T213333 K 0.050 GD  172 VS 5.20 DE 3.20 Q0750.0 QA 1.50 VS 5.20 3
 SPEC BAR2SH Z MO 13.9 ST  1.5 OM  2.1 f0 3.06 R0.6288 AL 0.80 WI 16.3 MW  3.2 3
 SPEC BAR2SH Z T213326 K 0.050 GD  141 VS 5.20 DE 3.20 Q0750.0 QA 1.50 VS 5.20 3
 ACTION:UPD 14-01-08 09:52 OP:ep   STATUS:               ID:20130604213252 L   I
 OLDACT:UP  13-07-15 14:47 OP:ep   STATUS:               ID:20130604213252 L   3
 OLDACT:UP  13-07-15 14:46 OP:ep   STATUS:               ID:20130604213252 L   3
 OLDACT:UP  13-07-01 05:46 OP:CAM  STATUS:               ID:20130604213252 L   3
 2013-06-04-2128-50M.COL___219                                                 6
 STAT SP IPHASW D HRMM SECON CODA AMPLIT PERI AZIMU VELO AIN AR TRES W  DIS CAZ7
 BAR2 SZ IP     D 2133 12.35                             169    0.1910 25.1 198 
 BAR2 SZ I        2133 12.85       178.1 0.14            168           25.1 198 
 BAR2 SZ ES       2133 26.69                             169   -0.2110 25.1 198 
 GIR2 SZ IP     C 2133 12.37                             167    0.2010 31.2 343 
 GIR2 SZ ES       2133 26.98                             167    0.0610 31.2 343 
 BRR  HZ IP     C 2133 14.11                             150    0.2210 74.0 297 
 BRR  HZ I        2133 14.46       242.2 0.24            149           74.0 297 
 BRR  HN ES       2133 30.66                             150    0.6910 74.0 297 
 RUS  HZ IP     C 2133 16.44                             142   -0.0010  101 178 
 RUS  HN ES       2133 34.18                             142   -0.3410  101 178 
 RUS  HE I        2133 35.88       155.6 0.46            142            101 178 
 GRA  SZ IP     C 2133 18.08                             136    0.3010  124  16 
 GRA  SZ ES       2133 37.01                             136    0.1110  124  16 
 GRA  SZ I        2133 39.55       141.5 0.40            137            124  16 
 CAPV BZ EP       2133 20.30                             131    0.43 9  146  37 
 CAPV BZ ES       2133 40.50                             131   -0.13 9  146  37 
 PTB  HZ EP   4   2133 18.63                             130   -1.43 0  151 259 
 PTB  HN ES   4   2133 39.73                             130   -1.24 0  151 259 
 PTB  HE I        2133 42.62       232.3 0.28            129            151 259 
 TAM  HZ IP     D 2133 20.76                             130    0.63 9  152 106 
 TAM  HZ I        2133 20.90        94.6 0.18            131            152 106 
 TAM  HN ES       2133 41.61                             130    0.52 9  152 106 
 OCA  HZ EP       2133 20.38                             128   -0.66 9  160 352 
 OCA  HN ES       2133 41.49                             128   -1.22 9  160 352 
 OCA  HE I        2133 42.89       376.0 0.18            128            160 352 
 YOP  SZ EP       2133 22.91                             125    0.14 9  178 154 
 YOP  SN ES       2133 45.21                             125   -0.58 9  178 154 
 ZAR  HZ EP       2133 25.28                             120   -0.34 8  207 292 
 ZAR  HN ES       2133 50.71                             120   -0.14 8  207 292 
 ZAR  HE I        2133 56.78       455.3 0.24            120            207 292 
 AGZ  SZ EP       2133 26.52                             119   -0.38 8  219 161 
 NOR  HZ EP       2133 28.95                             117   -0.06 8  238 235 
 NOR  HN ES       2133 56.38                             117   -0.51 8  238 235 
 NOR  HE I        2133 58.79       175.3 0.22            116            238 235 
 SML  HZ EP   4   2133 28.17                             116   -1.45 0  244 334 
 SML  HN ES   4   2133 56.20                             116   -1.77 0  244 334 
 CHI  HZ EP       2133 30.82                             116    0.00 8  250 196 
 CHI  HE ES       2134  0.37                             116    0.26 8  250 196 
 CHI  HN I        2134  3.39        67.8 0.26            115            250 196 
 HEL  HZ EP       2133 33.72                             113    0.14 7  276 256 
 HEL  HE ES       2134  5.16                             113    0.14 7  276 256 
 HEL  HN I        2134 11.71        56.8 0.32            113            276 256 
 URE  HZ EP       2133 36.74                             112    2.37 7  287 291 
 SOCV BZ IP     D 2133 34.85                             111   -0.77 7  298  57 
 SOCV BZ ES   4   2134  6.26                             111   -2.40 0  298  57 
 GUY2CHZ EP       2133 37.07                             111    0.09 7  305 235 
 GUY2CHE ES       2134 10.53                             111   -0.55 7  305 235 
 GUY2CHN I        2134 18.40        62.4 0.58                           305 235 
 VIL  SZ EP       2133 36.82                             111    0.24 7  305 192 
 VIL  SE ES       2134 10.87                             111    0.50 7  305 192 
 RREF HZ EP       2133 38.90                             109   -0.62 7  325 230 
 RREF HE ES       2134 15.45                             109   -0.15 7  325 230 
 RREF HZ I        2134 21.79        37.6 0.26            109            325 230 
 COD  HZ EP   4   2133 39.83                             108   -1.50 0  348 354 
 SDV  BZ EP       2133 42.04                             107   -0.63 6  357  50 
 SDV  BN ES   4   2134 19.00                             107   -2.22 0  357  50 
 PRA  HZ EP       2133 46.10                             105   -0.77 6  395 210 
 PRA  HN ES   4   2134 27.69                             105   -1.00 0  395 210 
 PRA  HE I        2134 36.52        43.4 0.28            105            395 210 
 VIRV BZ EP   4   2133 47.18                             104   -2.16 0  416  11 
                                                                                
