 2011  4 4 2056 18.7 L   6.769 -73.089148.3  RSN 15 0.4 3.5LRSN                1
 GAP=106        0.81       3.4     4.3  5.2 -0.1159E+01  0.3250E+01  0.4785E+01E
 Epicentro: LOS SANTOS - SANTANDER                                             3
 ACTION:UP  11-06-22 15:28 OP:REBC STATUS:               ID:20110404205618 L   I
 2011-04-04-2054-45S.COL___121                                                 6
 STAT SP IPHASW D HRMM SECON CODA AMPLIT PERI AZIMU VELO SNR AR TRES W  DIS CAZ7
 BAR2 SZ IP       2056 38.84                             171     0.210   22 208 
 BAR2 SZ ES   1   2056 53.44                             171    -0.7 7   22 208 
 BAR2 SZ I        2056 55.62       513.3 0.35                            22 208 
 GIR2 SZ EP   1   2056 38.89                             166     0.1 7   36 341 
 GIR2 SZ ES   1   2056 54.60                             166     0.1 7   36 341 
 BRR  HZ EP       2056 40.81                             151     0.310   78 299 
 BRR  HE ES   2   2056 57.94                             151     0.4 5   78 299 
 BRR  HZ I        2057  0.14       425.7 0.15                            78 299 
 OCA  SZ EP   1   2056 47.25                             129    -0.4 7  165 351 
 OCA  SZ ES   2   2057  9.90                             129    -0.3 5  165 351 
 OCA  SZ I        2057 17.85       309.6 0.33                           165 351 
 YOP  SZ IP       2056 49.29                             127     0.9 9  173 155 
 YOP  SZ I        2056 50.66       209.6 0.67                           173 155 
 YOP  SN ES   1   2057 11.24                             127    -0.3 7  173 155 
 NOR  SZ EP   1   2056 54.59                             118    -0.4 6  238 236 
 NOR  SN ES   2   2057 22.33                             118    -0.9 4  238 236 
 CHI  HZ EP   1   2056 56.48                             117     0.1 6  247 197 
 CHI  HN ES   2   2057 25.93                             117     0.2 4  247 197 
 CHI  HZ I        2057 35.08       179.0 0.59                           247 197 
 HEL  HZ EP   1   2056 59.83                             115     0.2 6  277 257 
 HEL  HN ES   2   2057 31.75                             115     0.2 4  277 257 
 HEL  HZ I        2057 37.47       148.1 0.63                           277 257 
 VIL  SZ EP   1   2057  1.66                             113    -0.4 5  301 193 
 VIL  SN ES   2   2057 35.13                             113    -0.7 4  301 193 
 VIL  SZ I        2057 46.90       121.2 0.45                           301 193 
 GUY  SZ EP   1   2057  3.18                             112     0.1 5  307 236 
 GUY  SN ES   2   2057 37.73                             112     0.1 4  307 236 
 GUY  SZ I        2057 46.39       383.1 0.36                           307 236 
 RREF HZ EP   1   2057  5.67                             111     0.4 5  324 231 
 RREF HN ES   2   2057 41.59                             111     0.0 3  324 231 
 RREF HZ I        2057 50.47       238.2 0.41                           324 231 
 DBB  SZ EP   1   2057  6.64                             109    -0.4 5  346 275 
 TOL  SZ EP   1   2057  7.41                             109     0.1 5  346 226 
 TOL  SZ ES   2   2057 45.02                             109    -0.2 3  346 226 
 SDV  BZ IP     C 2057  7.97                             109    -0.6 6  358  49 
 SDV  BZ I        2057  9.34       108.4 0.42                           358  49 
 PRA  HZ EP   1   2057 11.98                             107    -0.4 4  392 211 
 PRA  HN ES   2   2057 54.19                             107     0.0 3  392 211 
                                                                                
