 2011  2 4 2155 43.4 L   6.760 -73.174136.9  RSN  4 0.3 1.3LRSN                1
 GAP=156        0.53       4.6    20.2  8.4 -0.2149E+02  0.2910E+01  0.4858E+01E
 Epicentro: LOS SANTOS - SANTANDER                                             3
 ACTION:UP  11-03-28 15:05 OP:jfem STATUS:               ID:20110204215543 L   I
 2011-02-04-2153-21S.COL___138                                                 6
 STAT SP IPHASW D HRMM SECON CODA AMPLIT PERI AZIMU VELO SNR AR TRES W  DIS CAZ7
 BAR2 SZ ES   2   2156 15.81                             172    -0.5 5   19 183 
 BAR2 SZ I        2156 18.55         6.4 0.14                            19 183 
 BTL  SZ EP       2156  1.98                             171     0.010   20 329 
 BTL  SZ ES   3   2156 17.13                             171     0.7 2   20 329 
 RUS  HZ EP       2156  5.99                             143     0.010   96 174 
 RUS  HN ES   2   2156 23.92                             143     0.3 5   96 174 
 RUS  HZ I        2156 25.58         2.6 0.34                            96 174 
 GRA  SZ ES   2   2156 27.80                             133     0.0 5  131  18 
 GRA  SZ I        2156 30.95         3.7 0.35                           131  18 
                                                                                
