 2016  4 4 2057  6.8 L   6.361 -73.693105.2  RSN  5 0.3 1.2LRSN                1
 GAP=111        0.66       3.5     2.5  6.7  0.2639E+01  0.7917E+01  0.3830E+01E
 Epicentro: SANTA HELENA DEL OPON - SANTANDER                                  3
 ACTION:UPD 16-05-05 14:18 OP:rebc STATUS:               ID:20160404205706 L   I
 OLDACT:DUP 16-04-05 06:39 OP:ak   STATUS:               ID:20160404204747d    3
 OLDACT:REG 16-04-05 05:13 OP:ak   STATUS:               ID:20160404204745     3
 2016-04-04-2047-45M.COL___310                                                 6
 STAT SP IPHASW D HRMM SECON CODA AMPLIT PERI AZIMU VELO AIN AR TRES W  DIS CAZ7
 BAR2 EZ EP       2057 23.33                             147   -0.0710 62.0  66 
 BAR2 EZ ES       2057 36.42                             147    0.0410 62.0  66 
 BAR2 EZ I        2057 37.98         5.6 0.56            150           62.0  66 
 RUS  HZ EP       2057 25.45                             138   -0.0210 85.1 127 
 RUS  HE ES       2057 40.24                             138    0.1810 85.1 127 
 RUS  HZ I        2057 43.58         1.6 0.30            142           85.1 127 
 PTB  HZ EP       2057 24.50                             137   -0.4410 86.7 283 
 PTB  HN ES       2057 38.91                             137   -0.2110 86.7 283 
 PTB  HZ I        2057 41.32         4.1 0.22            139           86.7 283 
 ZAR  HZ EP   2   2057 34.10                             115   -0.09 4  179 314 
 ZAR  HN ES       2057 56.06                             115    0.48 9  179 314 
 ZAR  HZ I        2058  0.60         3.6 0.28            117            179 314 
 GUY2CHE ES       2058  5.80                             110    0.26 8  224 236 
                                                                                
