 2012  7 4 2203 44.0 L   6.756 -73.134145.3  RSN  5 0.5 1.7LRSN                1
 GAP=140        0.63      11.3    12.1  8.8  0.6238E+02  0.8162E+01 -0.1771E+02E
 Epicentro: LOS SANTOS - SANTANDER                                             3
 ACTION:UPD 12-08-14 11:42 OP:ep   STATUS:               ID:20120704220344 L   I
 2012-07-04-2200-00M.COL___201                                                 6
 STAT SP IPHASW D HRMM SECON CODA AMPLIT PERI AZIMU VELO AIN AR TRES W  DIS CAZ7
 BAR2 SZ ES   1   22 4 18.51                             173    -0.2 7   19 197 
 BRR  HZ EP       22 4  5.12                             151    -0.210   75 301 
 BRR  HZ I        22 4  6.05         9.6 0.12            151             75 301 
 BRR  HN ES   1   22 4 22.38                             151     0.5 7   75 301 
 PAM  SN ES   3   22 4 23.95                             150     0.2 2   80  37 
 RUS  HZ EP   3   22 4  7.80                             146     0.4 2   96 177 
 RUS  HN ES   3   22 4 26.54                             146     1.0 2   96 177 
 PTB  HN ES   3   22 4 30.99                             132    -1.0 2  148 261 
