 2015  5 4 2013  9.8 L   6.727 -73.123134.8  RSN  5 0.3 1.5LRSN                1
 GAP=169        0.71       5.0     4.0  6.1 -0.7929E+01  0.4914E+01  0.4322E+01E
 Epicentro: JORDAN - SANTANDER                                                 3
 ACTION:UPD 15-09-10 22:01 OP:cam  STATUS:               ID:20150504200750 L   I
 OLDACT:UPD 15-05-05 02:54 OP:AK   STATUS:               ID:20150504200750 L   3
 2015-05-04-2007-50M.COL___274                                                 6
 STAT SP IPHASW D HRMM SECON CODA AMPLIT PERI AZIMU VELO AIN AR TRES W  DIS CAZ7
 BAR2 EZ EP       2013 28.14                             173    0.1610 16.3 204 
 BAR2 EZ ES       2013 41.74                             173   -0.4210 16.3 204 
 BAR2 EZ I        2013 45.67         7.6 0.26            170           16.3 204 
 BRR  HZ EP   1   2013 30.12                             148   -0.04 7 77.5 303 
 BRR  HN ES       2013 46.27                             148    0.2310 77.5 303 
 PAM  SZ IP     D 2013 30.95                             147   -0.2310 82.3  35 
 PAM  SN ES       2013 48.16                             147    0.3110 82.3  35 
 PAM  SZ I        2013 50.45         3.7 0.28            151           82.3  35 
 ZAR  HN ES   1   2014  6.80                             119   -0.55 6  209 294 
 ZAR  HZ I        2014 13.31         3.7 0.23            119            209 294 
 NOR  HZ EP   2   2013 44.55                             116   -0.09 4  232 236 
 NOR  HN ES       2014 12.12                             116    0.31 8  232 236 
 NOR  HZ I        2014 18.84         2.7 0.20            117            232 236 
                                                                                
