 2011 12 4 2025 56.7 L   6.772 -73.081149.9  RSN  6 0.2 1.8LRSN                1
 GAP=146        0.42       2.2     5.0  3.8  0.1327E+01 -0.2328E+01 -0.3991E+00E
 Epicentro: LOS SANTOS - SANTANDER                                             3
 ACTION:UPD 12-07-13 16:14 OP:ep   STATUS:               ID:20111204202556 L   I
 2011-12-04-2020-00M.COL___183                                                 6
 STAT SP IPHASW D HRMM SECON CODA AMPLIT PERI AZIMU VELO AIN AR TRES W  DIS CAZ7
 BAR2 SZ EP   1   2026 16.49                             171   -0.32 7 22.8 209 
 BAR2 SZ ES   1   2026 32.60                             171    0.10 7 22.8 209 
 BAR2 SZ I        2026 34.66        16.2 0.40                          22.8 209 
 PAM  SZ EP   1   2026 19.46                             152    0.21 7 75.6  34 
 PAM  SZ I        2026 19.71        13.4 0.20                          75.6  34 
 PAM  SN ES   2   2026 36.76                             152   -0.08 5 75.6  34 
 BRR  HZ EP   1   2026 18.54                             151   -0.20 7 79.0 298 
 BRR  HZ I        2026 18.82        27.0 0.14                          79.0 298 
 BRR  HE ES   1   2026 36.05                             151    0.12 7 79.0 298 
 RUS  HZ EP   1   2026 20.85                             146    0.23 7 97.2 180 
 RUS  HN ES   1   2026 39.14                             146   -0.14 7 97.2 180 
 RUS  HZ I        2026 40.54         6.3 0.29                          97.2 180 
 OCA  SZ EP   1   2026 25.52                             130   -0.19 7  164 351 
 OCA  SZ ES   1   2026 48.46                             130    0.12 7  164 351 
 OCA  SZ I        2026 54.11         9.0 0.32                           164 351 
 CHI  HZ EP   1   2026 34.71                             118    0.19 6  248 197 
 CHI  HZ I        2027 11.76         2.9 0.32                           248 197 
                                                                                
