 2015  4 4 2356 41.9 L   5.797 -73.881106.8  RSN  8 0.5 1.3LRSN                1
 GAP=150        1.40       5.9     4.5  9.0 -0.1223E+02  0.7948E+01 -0.7056E+01E
 Epicentro: ALBANIA - SANTANDER                                                3
 ACTION:UPD 15-06-03 16:52 OP:cam  STATUS:               ID:20150404235641 L   I
 OLDACT:DUP 15-04-05 06:37 OP:stll STATUS:               ID:20150404234750d    3
 2015-04-04-2347-49M.COL___285                                                 6
 STAT SP IPHASW D HRMM SECON CODA AMPLIT PERI AZIMU VELO AIN AR TRES W  DIS CAZ7
 SPBC HZ EP       2356 56.23                             165   -0.5510 26.6 233 
 SPBC HN ES       2357  8.41                             165    0.0510 26.6 233 
 RUS  HZ EP       2357  0.85                             137   -0.2610 89.0  83 
 RUS  HZ I        2357  1.03         2.4 0.16            139           89.0  83 
 RUS  HN ES       2357 16.42                             137    0.3610 89.0  83 
 PTB  HZ EP       2357  0.80                             132   -0.9510  104 322 
 PTB  HN ES       2357 16.76                             132   -0.4410  104 322 
 PTB  HZ I        2357 18.36         4.4 0.44            132            104 322 
 NOR  HZ EP       2357  2.12                             130   -0.4710  112 257 
 NOR  HN ES       2357 18.55                             130   -0.1510  112 257 
 NOR  HZ I        2357 20.65        12.7 0.44            131            112 257 
 BAR2 EZ EP       2357  3.41                             129    0.1410  117  41 
 BAR2 EZ ES       2357 19.78                             129   -0.1310  117  41 
 BAR2 EZ I        2357 21.10         6.1 0.16            129            117  41 
 BRR  HZ EP       2357  6.06                             122    0.21 9  146   7 
 BRR  HN ES       2357 25.46                             122    0.95 9  146   7 
 BRR  HZ I        2357 28.43         3.0 0.16            122            146   7 
 GUY2CHZ EP       2357  9.84                             116    0.15 9  176 249 
 GUY2CHN ES       2357 32.61                             116    1.28 9  176 249 
 GUY2CHZ I        2357 36.13         1.7 0.46                           176 249 
 HEL  HZ EP       2357 11.08                             115    0.28 9  188 284 
                                                                                
