 2011 12 4 2108  5.1 L   6.767 -73.100147.9  RSN 12 0.3 2.2LRSN                1
 GAP=144        0.54       2.7     4.2  3.7 -0.1878E+01  0.5384E+01  0.2152E+01E
 Epicentro: LOS SANTOS - SANTANDER                                             3
 ACTION:UPD 12-07-13 16:14 OP:ep   STATUS:               ID:20111204210805 L   I
 2011-12-04-2106-50S.COL___160                                                 6
 STAT SP IPHASW D HRMM SECON CODA AMPLIT PERI AZIMU VELO AIN AR TRES W  DIS CAZ7
 BAR2 SZ EP   1   21 8 24.86                             171   -0.12 7 21.4 205 
 BAR2 SZ ES   1   21 8 40.10                             171   -0.36 7 21.4 205 
 BAR2 SZ I        21 8 41.63        41.4 0.33                          21.4 205 
 GIR2 SZ EP   1   21 8 25.05                             166   -0.14 7 36.0 343 
 GIR2 SZ ES   1   21 8 40.59                             166   -0.25 7 36.0 343 
 PAM  SZ EP   1   21 8 27.76                             151    0.19 7 77.2  35 
 PAM  SN ES   1   21 8 45.05                             151   -0.02 7 77.2  35 
 PAM  SZ I        21 8 47.01        11.2 0.36                          77.2  35 
 BRR  HZ EP       21 8 26.76                             151   -0.1110 77.4 299 
 BRR  HZ I        21 8 27.05        52.0 0.14                          77.4 299 
 BRR  HE ES   1   21 8 44.29                             151    0.47 7 77.4 299 
 RUS  HZ EP   1   21 8 28.92                             145    0.10 7 96.7 179 
 RUS  HN ES   1   21 8 47.55                             145    0.25 7 96.7 179 
 RUS  HZ I        21 8 49.27        19.6 0.42                          96.7 179 
 OCA  SZ EP   1   21 8 34.14                             129    0.13 7  165 352 
 OCA  SZ I        21 9  1.35        20.4 0.29                           165 352 
 NOR  SZ EP   1   21 8 40.84                             119   -0.36 6  237 236 
 CHI  HZ EP   1   21 8 42.73                             118    0.01 6  246 197 
 CHI  HN ES   1   21 9 12.33                             118    0.30 6  246 197 
 CHI  HZ I        21 9 18.17        10.5 0.38                           246 197 
 HEL  HZ EP   1   21 8 46.41                             115    0.51 6  276 257 
 HEL  HN ES   2   21 9 17.29                             115   -0.41 4  276 257 
 HEL  HZ I        21 9 23.85         9.0 0.32                           276 257 
 GUY  SZ EP   1   21 8 49.41                             112    0.07 5  306 236 
 GUY  SZ I        21 9 30.44        14.0 0.42                           306 236 
 RREF HZ EP   1   21 8 51.71                             111    0.17 5  323 230 
 RREF HZ I        21 9 36.44         9.8 0.26                           323 230 
 PRA  HZ EP   1   21 8 57.79                             107   -0.86 4  391 210 
                                                                                
