 2012  3 4 2247 45.4 L   6.755 -73.149146.0  RSN  5 0.3 1.6LRSN                1
 GAP=138        0.69       6.2     5.9  7.9 -0.2833E+00 -0.6509E+00  0.7358E+01E
 ACTION:UP  12-03-31 23:17 OP:EP   STATUS:               ID:20120304224745 L   I
 2012-03-04-2240-00M.COL___191                                                 6
 STAT SP IPHASW D HRMM SECON CODA AMPLIT PERI AZIMU VELO SNR AR TRES W  DIS CAZ7
 BAR2 SZ EP   1   2248  4.92                             172     0.0 7   18 192 
 BAR2 SZ ES   2   2248 20.02                             172    -0.2 5   18 192 
 BAR2 SZ I        2248 22.88        11.4 0.42                            18 192 
 BRR  HZ EP   1   2248  6.92                             152     0.2 7   73 302 
 BRR  HN ES   1   2248 23.76                             152     0.5 7   73 302 
 BRR  HZ I        2248 31.59         8.2 0.17                            73 302 
 PAM  SZ EP   1   2248  7.89                             150     0.0 7   82  38 
 PAM  SN ES   2   2248 24.77                             150    -0.6 5   82  38 
 RUS  HZ EP   1   2248  9.07                             145     0.3 7   96 176 
 RUS  HN ES   2   2248 27.15                             145     0.1 5   96 176 
 RUS  HZ I        2248 28.90         3.4 0.44                            96 176 
 PTB  HZ EP   1   2248 11.83                             132    -0.4 7  147 261 
 PTB  HN ES   2   2248 32.65                             132    -0.6 5  147 261 
                                                                                
