 2017  9 4 2022 38.1 L   6.818 -73.120147.7  RSN 12 0.4 2.0LRSN                1
 GAP=139        0.92       3.4     4.0  5.5 -0.1840E+01  0.5482E+01  0.6375E+01E
 Epicentro: LOS SANTOS - SANTANDER                                             3
 ACTION:UPD 17-10-05 19:09 OP:rebc STATUS:               ID:20170904202238 L   I
 OLDACT:UP  17-09-05 05:20 OP:osc  STATUS:               ID:20170904201740     3
 OLDACT:UP  17-09-05 05:20 OP:osc  STATUS:               ID:20170904201740     3
 OLDACT:REG 17-09-05 03:32 OP:osc  STATUS:               ID:20170904201740     3
 2017-09-04-2018-00M.COL___426                                                 6
 STAT SP IPHASW D HRMM SECON CODA AMPLIT PERI AZIMU VELO AIN AR TRES W  DIS CAZ7
 BAR2 EZ EP       2022 57.81                             170   -0.2110 25.9 195 
 BAR2 EZ ES       2023 13.60                             170    0.0410 25.9 195 
 BAR2 EZ I        2023 14.38        30.1 0.18            168           25.9 195 
 BRR  HZ EP       2022 59.63                             152    0.0810 72.8 296 
 BRR  HE ES       2023 16.73                             152    0.4510 72.8 296 
 BRR  HZ I        2023 19.05        26.0 0.38            148           72.8 296 
 PAM  EZ EP       2023  0.74                             152    0.4010 74.1  39 
 PAM  EE ES       2023 17.60                             152   -0.0810 74.1  39 
 PAM  EZ I        2023 19.91        21.6 0.52            154           74.1  39 
 RUS  HZ EP       2023  1.81                             144   -0.3710  102 178 
 RUS  HN ES       2023 20.89                             144   -0.0610  102 178 
 RUS  HZ I        2023 21.88         5.7 0.40            145            102 178 
 SPBC HZ EP       2023  6.95                             129   -0.12 9  166 219 
 SPBC HE ES       2023 28.86                             129   -0.79 9  166 219 
 SPBC HZ I        2023 35.64        18.5 0.54            128            166 219 
 ZAR  HZ EP   4   2023 12.42                             122    1.55 0  206 291 
 ZAR  HE ES       2023 35.77                             122   -0.66 8  206 291 
 ZAR  HZ I        2023 41.86        10.2 0.26            121            206 291 
 NOR  HZ EP       2023 14.12                             118   -0.20 8  238 234 
 NOR  HE ES       2023 43.05                             118    0.49 8  238 234 
 NOR  HZ I        2023 50.35         6.0 0.30            118            238 234 
 CHI  HZ EP       2023 16.22                             117    0.02 8  251 196 
 CHI  HE ES       2023 46.43                             117    0.52 8  251 196 
 CHI  HZ I        2023 48.87         7.5 0.62            117            251 196 
 GUY2CHZ EP   4   2023 24.33                             112    2.14 0  305 235 
 GUY2CHE ES   4   2024  0.20                             112    3.62 0  305 235 
 GUY2CHZ I        2024  5.23         4.5 0.40                           305 235 
 ELA  HN ES       2024  2.90                             110    0.56 7  333 230 
 PRA  HZ EP       2023 32.37                             107    0.31 6  395 210 
 PRA  HN ES       2024 14.42                             107    0.28 6  395 210 
 PRA  HZ I        2024 18.11         5.9 0.36            107            395 210 
 SJC  HZ EP   9   2023 31.94                             106   -1.78 0  409 326 
 SJC  HE ES       2024 16.04                             107    0.72 6  409 326 
 SJC  HZ I        2024 27.86         2.2 0.58            106            409 326 
                                                                                
