 2015 10 4 2319 13.4 L   6.797 -73.157143.4  RSN  7 0.4 1.7LRSN                1
 GAP=200        1.07       3.8     6.1  6.8  0.4580E+01  0.1011E+02 -0.3252E+01E
 Epicentro: LOS SANTOS - SANTANDER                                             3
 ACTION:UPD 15-12-22 20:37 OP:cam  STATUS:               ID:20151004231913 L   I
 OLDACT:UP  15-10-05 09:03 OP:mh   STATUS:               ID:20151004231747     3
 OLDACT:REG 15-10-05 05:33 OP:mh   STATUS:               ID:20151004231747     3
 2015-10-04-2317-47M.COL___349                                                 6
 STAT SP IPHASW D HRMM SECON CODA AMPLIT PERI AZIMU VELO AIN AR TRES W  DIS CAZ7
 BAR2 EZ EP       2319 32.71                             171   -0.0510 22.8 187 
 BAR2 EZ ES       2319 47.22                             171   -0.6210 22.8 187 
 BAR2 EZ I        2319 50.82         6.0 0.20            168           22.8 187 
 BRR  HZ EP     C 2319 34.61                             152    0.3410 70.3 299 
 BRR  HN ES       2319 50.90                             152    0.3810 70.3 299 
 BRR  HZ I        2320  0.07         6.6 0.54            149           70.3 299 
 RUS  HZ EP       2319 37.15                             143    0.2210  100 175 
 RUS  HN ES       2319 55.50                             143    0.2410  100 175 
 RUS  HZ I        2319 56.36         3.9 0.22            148            100 175 
 SPBC HZ EP       2319 41.80                             129    0.15 9  162 219 
 SPBC HN ES       2320  3.73                             129    0.08 9  162 219 
 SPBC HZ I        2320  7.45        10.7 0.24            131            162 219 
 ZAR  HZ EP       2319 46.38                             122    0.76 9  203 292 
 ZAR  HN ES       2320 10.95                             122    0.23 9  203 292 
 ZAR  HZ I        2320 17.41         7.2 0.38            124            203 292 
 NOR  HZ EP       2319 48.03                             118   -0.86 8  233 234 
 NOR  HE ES       2320 16.07                             118   -0.47 8  233 234 
 NOR  HZ I        2320 23.08         4.0 0.54            121            233 234 
 SML  HZ EP       2319 49.64                             117   -0.27 8  244 336 
 SML  HN ES       2320 17.74                             117   -0.61 8  244 336 
 SML  HZ I        2320 20.03         7.5 0.10            120            244 336 
 HEL  HE ES   4   2320 28.75                             114    4.22 0  271 256 
                                                                                
