 2013  7 4 2245 40.1 L   5.973 -73.624120.8  RSN  9 0.5 1.7LRSN                1
 GAP= 86        1.11       3.5     4.5  9.5 -0.1367E+01  0.1491E+02  0.3644E+01E
 Epicentro: BARBOSA - SANTANDER                                                3
 ACTION:UPD 13-08-12 10:35 OP:ep   STATUS:               ID:20130704224540 L   I
 OLDACT:REG 13-07-04 22:54 OP:y    STATUS:               ID:20130704223959     3
 2013-07-04-2239-59M.COL___266                                                 6
 STAT SP IPHASW D HRMM SECON CODA AMPLIT PERI AZIMU VELO AIN AR TRES W  DIS CAZ7
 RUS  HZ EP       2245 58.44                             152   -0.2310 60.5  98 
 RUS  HN ES   1   2246 13.17                             152    0.03 7 60.5  98 
 RUS  HZ I        2246 14.34         7.0 0.38            155           60.5  98 
 BAR2 SZ ES   1   2246 15.57                             143    0.31 7 84.1  35 
 PTB  HZ EP       2246  0.90                             134   -0.8610  111 304 
 PTB  HN ES   1   2246 17.80                             134   -0.85 7  111 304 
 PTB  HZ I        2246 20.50        10.3 0.26            136            111 304 
 BRR  HZ EP       2246  2.94                             130   -0.1010  126 356 
 BRR  HN ES   1   2246 21.72                             130    0.80 7  126 356 
 NOR  HZ EP   2   2246  5.40                             126    0.43 5  145 252 
 NOR  HE ES       2246 24.61                             126    0.26 9  145 252 
 NOR  HZ I        2246 28.03        11.6 0.54            127            145 252 
 CHI  HZ EP   1   2246  5.88                             126    0.06 7  149 185 
 CHI  HN ES   1   2246 25.57                             126   -0.30 7  149 185 
 CHI  HZ I        2246 28.46         5.7 0.30            126            149 185 
 GUY2CHN ES       2246 37.92                             116    0.50 8  210 247 
 GUY2CHZ I        2246 45.12         2.8 0.56                           210 247 
 ZAR  HZ EP       2246 13.30                             115    0.87 8  216 321 
 ZAR  HE ES       2246 37.39                             115   -0.25 8  216 321 
 ZAR  HZ I        2246 39.61         4.7 0.38            117            216 321 
 PRA  HZ EP   1   2246 19.83                             108   -0.59 6  286 209 
 PRA  HN ES       2246 52.23                             108    0.37 7  286 209 
 PRA  HZ I        2246 58.82         3.8 0.28            109            286 209 
                                                                                
