 2013  8 4 2321 55.6 L   6.809 -73.147142.2  RSN 10 0.4 2.2LRSN                1
 GAP=183        0.96       3.6     5.9  6.4 -0.5847E+01  0.2435E+01  0.1808E+01E
 Epicentro: LOS SANTOS - SANTANDER                                             3
 ACTION:UPD 14-01-14 08:59 OP:ep   STATUS:               ID:20130804232155 L   I
 OLDACT:REG 13-08-04 22:00 OP:mh   STATUS:               ID:20130804231959     3
 2013-08-04-2319-59M.COL___270                                                 6
 STAT SP IPHASW D HRMM SECON CODA AMPLIT PERI AZIMU VELO AIN AR TRES W  DIS CAZ7
 BAR2 SZ EP   1   2322 14.99                             170    0.13 7 24.3 189 
 BAR2 SZ ES   1   2322 28.99                             170   -0.87 7 24.3 189 
 BAR2 SZ I        2322 31.12        22.2 0.22            171           24.3 189 
 GIR2 SZ EP   1   2322 15.11                             167    0.25 7 30.3 350 
 GIR2 SZ ES   1   2322 30.21                             167    0.36 7 30.3 350 
 GIR2 SZ I        2322 31.58        23.4 0.38            167           30.3 350 
 BRR  HZ EP   1   2322 16.97                             152    0.60 7 70.6 298 
 BRR  HN ES       2322 33.32                             152    0.7810 70.6 298 
 BRR  HN I        2322 36.99        48.4 0.16            152           70.6 298 
 RUS  HZ EP   1   2322 19.45                             143    0.33 7  102 176 
 RUS  HN ES   1   2322 37.40                             143   -0.03 7  102 176 
 RUS  HN I        2322 39.47        24.3 0.36            145            102 176 
 PTB  HZ EP   1   2322 22.48                             131    0.16 7  148 258 
 PTB  HN ES       2322 42.70                             131   -0.44 9  148 258 
 PTB  HN I        2322 44.58        12.2 0.20            132            148 258 
 OCA  HZ EP   1   2322 23.49                             129   -0.09 7  159 353 
 OCA  HN ES       2322 44.67                             129   -0.70 9  159 353 
 OCA  HN I        2322 50.51        36.3 0.32            130            159 353 
 SPBC HZ EP   1   2322 24.14                             128    0.21 7  164 219 
 SPBC HN ES       2322 45.67                             128   -0.33 9  164 219 
 SPBC HN I        2322 49.20        40.0 0.14            129            164 219 
 NOR  HN ES   1   2322 59.26                             118    0.30 6  235 234 
 SML  HZ EP   1   2322 31.65                             117   -0.31 6  243 335 
 PRA  HZ EP   1   2322 49.04                             106   -0.09 4  393 209 
 PRA  HN ES   1   2323 30.46                             106   -0.40 4  393 209 
 PRA  HN I        2323 35.09         4.3 0.50            107            393 209 
                                                                                
