 2013 10 4 2147 41.5 L   6.852 -73.143146.7  RSN 10 0.5 2.0LRSN                1
 GAP=134        0.99       4.6     4.6  6.5 -0.2197E+01  0.6978E+01  0.4208E+01E
 Epicentro: LOS SANTOS - SANTANDER                                             3
 ACTION:UPD 13-11-25 09:19 OP:ep   STATUS:               ID:20131004214741 L   I
 OLDACT:DUP 13-10-04 22:18 OP:jn   STATUS:               ID:20131004213960d    3
 2013-10-04-2139-59M.COL___273                                                 6
 STAT SP IPHASW D HRMM SECON CODA AMPLIT PERI AZIMU VELO AIN AR TRES W  DIS CAZ7
 BAR2 SZ EP       2148  1.27                             168   -0.0710 29.1 189 
 BAR2 SZ ES       2148 16.66                             168   -0.1810 29.1 189 
 BAR2 SZ I        2148 19.88        19.7 0.58            159           29.1 189 
 BRR  HZ EP       2148  2.83                             153    0.2310 68.9 294 
 BRR  HE ES       2148 19.75                             153    0.6810 68.9 294 
 BRR  HZ I        2148 20.47        16.6 0.16            149           68.9 294 
 PAM  SZ EP       2148  3.72                             152    0.2010 72.8  42 
 PAM  SN ES       2148 20.61                             152   -0.1110 72.8  42 
 PAM  SZ I        2148 21.58        14.8 0.38            150           72.8  42 
 RUS  HZ EP       2148  5.47                             143   -0.2610  106 176 
 RUS  HE ES       2148 24.76                             143    0.1010  106 176 
 RUS  HZ I        2148 26.76         3.2 0.40            132            106 176 
 PTB  HZ EP       2148  7.88                             132   -0.77 9  149 257 
 PTB  HN ES       2148 29.51                             132   -0.35 9  149 257 
 PTB  HZ I        2148 31.63        20.9 0.20            124            149 257 
 SPBC HZ EP       2148 10.79                             129    0.30 9  168 218 
 SPBC HZ I        2148 39.51        21.8 0.46            119            168 218 
 ZAR  HN ES   2   2148 39.28                             123    0.28 4  202 291 
 NOR  HE ES   1   2148 45.60                             118   -0.26 6  238 233 
 NOR  HZ I        2148 53.00         9.6 0.16            111            238 233 
 SML  HN ES   2   2148 44.87                             118   -0.91 4  239 335 
 GUY2CHZ EP   1   2148 26.74                             112    1.21 5  305 234 
 GUY2CHZ I        2149  9.10         6.4 0.42                           305 234 
                                                                                
