 2013  2 4 2302 10.3 L   6.803 -73.151147.9  RSN 14 0.5 2.5LRSN 2.9WRSN        1
 SPEC AVERAGE  MO 13.4 ST  9.4 OM  1.8 f0 6.47 R0.3438 AL 2.56 WI 20.5 MW  2.9 3
 SPEC SD       MO  0.5 ST  9.1 OM  0.7 f0 5.90 R0.1531 AL      WI      MW  0.3 3
 GAP= 71        1.01       2.8     3.5  5.4 -0.3173E+00  0.5117E+01  0.2039E-01E
 Epicentro: LOS SANTOS - SANTANDER                                             3
 SPEC PTB HH E MO 13.7 ST  2.9 OM  2.0 f0 3.43 R0.4286 AL 1.92 WI 18.2 MW  3.1 3
 SPEC PTB HH E T23 257 K 0.000 GD  208 VS 4.20 DE 3.20 Q0300.0 QA 0.60 VS 4.20 3
 SPEC RUS HH Z MO 13.3 ST0.775 OM  0.9 f0 2.99 R0.4916 AL 1.78 WI 14.9 MW  2.8 3
 SPEC RUS HH Z T23 233 K 0.000 GD  179 VP 7.60 DE 3.20 Q0300.0 QA 0.60 VS 4.20 3
 SPEC NOR HH N MO 13.9 ST 15.8 OM  2.1 f0 5.09 R0.2888 AL 3.62 WI 28.1 MW  3.2 3
 SPEC NOR HH N T23 312 K 0.000 GD  276 VS 4.20 DE 3.20 Q0300.0 QA 0.60 VS 4.20 3
 SPEC PAM SH Z MO 13.7 ST  8.4 OM  1.3 f0 4.99 R0.2946 AL 3.17 WI  6.3 MW  3.1 3
 SPEC PAM SH Z T23 232 K 0.000 GD  167 VP 7.60 DE 3.20 Q0300.0 QA 0.60 VS 4.20 3
 SPEC HEL HH N MO 13.4 ST0.592 OM  1.5 f0 2.60 R0.5654 AL 1.79 WI 20.3 MW  2.9 3
 SPEC HEL HH N T23 321 K 0.000 GD  309 VS 4.20 DE 3.20 Q0300.0 QA 0.60 VS 4.20 3
 SPEC CHI HH N MO 12.4 ST 27.9 OM  0.5 f0 20.7 R0.0710 AL 2.07 WI 28.2 MW  2.2 3
 SPEC CHI HH N T23 317 K 0.000 GD  289 VS 4.20 DE 3.20 Q0300.0 QA 0.60 VS 4.20 3
 SPEC BRR HH N MO 13.6 ST  9.5 OM  2.0 f0 5.52 R0.2663 AL 3.59 WI 27.2 MW  3.0 3
 SPEC BRR HH N T23 248 K 0.000 GD  163 VS 4.20 DE 3.20 Q0300.0 QA 0.60 VS 4.20 3
 ACTION:UPD 13-03-12 09:30 OP:ep   STATUS:               ID:20130204230210 L   I
 2013-02-04-2258-50M.COL___179                                                 6
 STAT SP IPHASW D HRMM SECON CODA AMPLIT PERI AZIMU VELO AIN AR TRES W  DIS CAZ7
 BAR2 SZ EP       23 2 30.20                             171    0.0110 23.5 188 
 BAR2 SZ ES       23 2 45.43                             171   -0.2710 23.5 188 
 BAR2 SZ I        23 2 47.88        76.1 0.34            166           23.5 188 
 BRR  HZ IP     C 23 2 32.02                             153    0.3810 70.5 299 
 BRR  HZ I        23 2 32.36        27.7 0.20            146           70.5 299 
 BRR  HN ES       23 2 49.00                             153    0.7210 70.5 299 
 PAM  SZ IP       23 2 32.87                             151    0.1210 77.6  40 
 PAM  SZ I        23 2 33.25        51.7 0.24            149           77.6  40 
 PAM  SN ES       23 2 50.19                             151   -0.0710 77.6  40 
 RUS  HZ EP       23 2 34.05                             144   -0.2310  101 176 
 RUS  HN ES       23 2 52.68                             144   -0.3110  101 176 
 RUS  HN I        23 2 54.52        33.1 0.32            137            101 176 
 PTB  HZ EP   1   23 2 37.74                             133    0.35 7  147 259 
 PTB  HN ES       23 2 58.10                             133   -0.42 9  147 259 
 PTB  HN I        23 2 59.05        36.4 0.28            124            147 259 
 TAM  HE ES       23 2 60.00                             131    0.02 9  156 105 
 TAM  HN I        23 3  0.80        47.0 0.36            126            156 105 
 OCA  HZ EP       23 2 38.45                             130   -0.29 9  160 353 
 OCA  HN ES       23 3  1.41                             130    0.49 9  160 353 
 OCA  HN I        23 3  5.68       102.8 0.24            124            160 353 
 ZAR  HZ EP   1   23 2 43.75                             123    0.94 6  203 292 
 NOR  HZ EP       23 2 46.46                             119    0.35 8  234 234 
 NOR  HN ES       23 3 13.95                             119   -0.10 8  234 234 
 NOR  HN I        23 3 18.67        38.7 0.18            112            234 234 
 SML  HZ EP       23 2 46.13                             118   -0.86 8  243 335 
 SML  HN ES       23 3 14.87                             118   -0.73 8  243 335 
 SML  HN I        23 3 19.67        42.7 0.26            112            243 335 
 CHI  HZ EP       23 2 48.22                             118    0.09 8  249 195 
 CHI  HN ES       23 3 17.62                             118   -0.01 8  249 195 
 CHI  HE I        23 3 24.27        25.9 0.50            111            249 195 
 HEL  HZ EP   2   23 2 51.71                             115    1.15 4  272 256 
 HEL  HN I        23 3 29.82        13.9 0.58            109            272 256 
 URE  HN ES   2   23 3 22.14                             114   -1.31 4  283 292 
 DBB  SZ EP   2   23 2 58.31                             110    0.53 3  339 274 
                                                                                
