 2016  3 4 2013  7.9 L   6.802 -73.162142.0  RSN  8 0.4 1.8LRSN                1
 GAP=142        0.70       4.7     4.4  6.3 -0.1299E+02  0.6257E+01  0.3500E+01E
 Epicentro: LOS SANTOS - SANTANDER                                             3
 ACTION:UPD 16-05-13 21:21 OP:cam  STATUS:               ID:20160304201307 L   I
 OLDACT:REG 16-03-05 03:33 OP:dnl  STATUS:               ID:20160304200750     3
 2016-03-04-2007-50M.COL___328                                                 6
 STAT SP IPHASW D HRMM SECON CODA AMPLIT PERI AZIMU VELO AIN AR TRES W  DIS CAZ7
 BAR2 EZ EP   2   2013 27.12                             170    0.09 5 23.3 186 
 BAR2 EZ ES   2   2013 41.59                             170   -0.40 5 23.3 186 
 BAR2 EZ I        2013 44.81         8.0 0.19            168           23.3 186 
 PAM  EZ EP       2013 29.87                             150    0.1410 78.4  41 
 PAM  EN ES       2013 46.96                             150    0.1710 78.4  41 
 PAM  EZ I        2013 49.25         8.9 0.20            158           78.4  41 
 RUS  HZ EP   2   2013 31.00                             143   -0.26 5  101 175 
 RUS  HE ES   2   2013 48.76                             143   -0.76 5  101 175 
 RUS  HZ I        2013 50.85         5.7 0.28            146            101 175 
 PTB  HZ EP       2013 33.81                             132   -0.55 9  146 259 
 PTB  HN ES       2013 55.08                             132    0.04 9  146 259 
 PTB  HZ I        2014  2.72         9.6 0.26            133            146 259 
 SPBC HZ EP   2   2013 36.19                             129    0.21 5  162 218 
 SPBC HN ES       2013 58.64                             129    0.73 9  162 218 
 SPBC HZ I        2014  5.38        13.2 0.26            131            162 218 
 NOR  HZ EP       2013 43.10                             118   -0.13 8  233 234 
 NOR  HN ES       2014 10.71                             118   -0.10 8  233 234 
 NOR  HZ I        2014 18.37         6.6 0.34            121            233 234 
 CHI  HZ EP   2   2013 45.17                             117   -0.15 4  248 195 
 CHI  HE ES   2   2014 14.17                             117   -0.37 4  248 195 
 CHI  HZ I        2014 18.53         3.7 0.38            120            248 195 
 GUY2CHZ EP   2   2013 51.44                             112    0.30 4  300 235 
 GUY2CHN ES   2   2014 24.98                             112    0.08 4  300 235 
 GUY2CHZ I        2014 34.14         4.4 0.40                           300 235 
                                                                                
