 2015  9 4 2036 42.7 L   6.789 -73.112150.7  RSN  9 0.4 1.8LRSN                1
 GAP=141        0.81       3.3     3.8  5.7 -0.5808E+00  0.6007E+01  0.2730E+00E
 Epicentro: LOS SANTOS - SANTANDER                                             3
 ACTION:UPD 15-10-28 16:24 OP:cam  STATUS:               ID:20150904203642 L   I
 OLDACT:DUP 15-09-05 07:12 OP:spq  STATUS:               ID:20150904202751d    3
 2015-09-04-2027-50M.COL___352                                                 6
 STAT SP IPHASW D HRMM SECON CODA AMPLIT PERI AZIMU VELO AIN AR TRES W  DIS CAZ7
 BAR2 EZ EP       2037  2.84                             171   -0.0310 23.1 200 
 BAR2 EZ ES   1   2037 18.81                             171    0.17 7 23.1 200 
 BAR2 EZ I        2037 20.50         7.7 0.17            170           23.1 200 
 BRR  HZ EP       2037  4.87                             152    0.3110 75.1 298 
 BRR  HN ES       2037 22.08                             152    0.4510 75.1 298 
 BRR  HZ I        2037 25.55        12.4 0.25            150           75.1 298 
 PAM  EE ES       2037 22.92                             152   -0.0710 76.0  37 
 PAM  EZ I        2037 24.89         7.5 0.52            155           76.0  37 
 RUS  HZ EP       2037  7.09                             145    0.3010 99.2 178 
 RUS  HE ES   1   2037 24.74                             145   -0.88 7 99.2 178 
 RUS  HZ I        2037 26.38         5.7 0.30            148           99.2 178 
 PTB  HZ EP       2037  9.85                             132   -0.49 9  151 260 
 PTB  HN ES       2037 31.66                             132   -0.27 9  151 260 
 PTB  HZ I        2037 35.42         8.9 0.14            132            151 260 
 SPBC HZ EP   1   2037 11.77                             130    0.10 7  165 220 
 SPBC HN ES       2037 34.51                             130    0.21 9  165 220 
 SPBC HZ I        2037 38.38         9.8 0.12            131            165 220 
 ZAR  HZ EP   1   2037 16.16                             123    0.33 6  208 292 
 ZAR  HE ES       2037 41.31                             123   -0.39 8  208 292 
 ZAR  HZ I        2037 46.87         9.9 0.36            123            208 292 
 NOR  HE ES   1   2037 47.61                             119    0.40 6  237 235 
 NOR  HZ I        2037 52.37         4.3 0.30            120            237 235 
 SML  HZ EP   1   2037 19.81                             118   -0.04 6  246 335 
 SML  HE ES   1   2037 48.59                             118   -0.28 6  246 335 
 SML  HZ I        2037 54.83         8.9 0.10            119            246 335 
                                                                                
