 2016 11 4 2146  8.1 L   6.766 -73.160140.0  RSN  6 0.3 1.7LRSN                1
 GAP=149        0.58       4.0     2.7  4.4 -0.2537E+01  0.2851E+01  0.7056E+00E
 Epicentro: LOS SANTOS - SANTANDER                                             3
 ACTION:UPD 17-10-26 21:04 OP:lp   STATUS:               ID:20161104214608 L   I
 OLDACT:UP  16-11-05 04:17 OP:edw  STATUS:               ID:20161104213223d    3
 OLDACT:DUP 16-11-05 04:08 OP:edw  STATUS:               ID:20161104213223d    3
 2016-11-04-2138-00M.COL___355                                                 6
 STAT SP IPHASW D HRMM SECON CODA AMPLIT PERI AZIMU VELO AIN AR TRES W  DIS CAZ7
 BAR2 EZ EP       2146 27.10                             172    0.1010 19.4 187 
 BAR2 EZ ES       2146 41.73                             172    0.0210 19.4 187 
 BAR2 EZ I        2146 44.58        11.3 0.26            172           19.4 187 
 BRR  HZ EP       2146 28.82                             151    0.1210 71.7 302 
 BRR  HN ES       2146 44.76                             151    0.0310 71.7 302 
 PAM  EZ EP       2146 29.81                             149   -0.1810 81.3  39 
 PAM  EN ES       2146 47.08                             149    0.0510 81.3  39 
 PAM  EZ I        2146 49.63         6.1 0.62            151           81.3  39 
 PTB  HZ EP       2146 33.93                             131   -0.51 9  146 260 
 PTB  HN ES       2146 54.81                             131   -0.14 9  146 260 
 PTB  HZ I        2146 57.21         3.3 0.16            132            146 260 
 SPBC HZ EP   2   2146 36.26                             129    0.43 5  159 219 
 SPBC HN ES   2   2146 57.94                             129    0.52 5  159 219 
 SPBC HZ I        2147  0.05         9.3 0.18            130            159 219 
 ZAR  HZ EP   2   2146 40.91                             121    0.70 4  204 293 
 ZAR  HN IS       2147  5.37                             121    0.14 9  204 293 
 ZAR  HN ES       2147  5.40                             121            204 293 
 ZAR  HZ I        2147 10.69         5.4 0.26            123            204 293 
                                                                                
