 2012  2 4 2324 45.4 L   6.465 -73.615107.5  RSN  5 0.2 1.4LRSN                1
 GAP=138        0.42       4.1     3.2  6.5  0.3428E+01  0.6592E+01  0.2558E+01E
 ACTION:UP  12-03-07 16:27 OP:epov STATUS:               ID:20120204232445 L   I
 2012-02-04-2320-00M.COL___188                                                 6
 STAT SP IPHASW D HRMM SECON CODA AMPLIT PERI AZIMU VELO SNR AR TRES W  DIS CAZ7
 BAR2 SZ EP       2325  1.47                             154   -0.0810 49.8  74 
 BAR2 SZ ES   2   2325 14.28                             154    0.13 5 49.8  74 
 BAR2 SZ I        2325 15.23        19.1 0.48                          49.8  74 
 BRR  HZ EP       2325  2.50                             144   -0.1110 71.8 351 
 BRR  HN ES   2   2325 16.32                             144    0.28 5 71.8 351 
 GIR2 SZ EP   3   2325  3.07                             140   -0.54 2 82.3  34 
 RUS  HZ EP   2   2325  4.94                             139    0.52 5 86.4 137 
 RUS  HN ES   2   2325 19.00                             139   -0.26 5 86.4 137 
 PTB  HZ EP       2325  4.44                             136    0.0910 93.4 275 
 PTB  HN ES   2   2325 19.00                             136   -0.13 5 93.4 275 
 PTB  HZ I        2325 20.87         2.7 0.24                          93.4 275 
                                                                                
