 2013  9 4 2109  4.6 L   7.513 -73.169143.2  RSN  6 0.4 1.6LRSN                1
 GAP=201        0.98       6.0     4.4  7.3  0.3774E+01  0.8453E+01 -0.4200E+01E
 Epicentro: EL PLAYON - SANTANDER                                              3
 ACTION:UPD 13-10-22 09:20 OP:ep   STATUS:               ID:20130904210904 L   I
 OLDACT:REG 13-09-05 02:19 OP:nd   STATUS:               ID:20130904210848     3
 2013-09-04-2108-48M.COL___251                                                 6
 STAT SP IPHASW D HRMM SECON CODA AMPLIT PERI AZIMU VELO AIN AR TRES W  DIS CAZ7
 PAM  SZ EP     D 21 9 25.51                             158    0.1310 55.2 110 
 PAM  SN ES       21 9 41.41                             158   -0.1610 55.2 110 
 PAM  SZ I        21 9 42.79        11.6 0.18            159           55.2 110 
 BRR  HZ IP     C 21 9 25.95                             151    0.2510 74.9 233 
 BRR  HN ES       21 9 42.33                             151    0.1810 74.9 233 
 BRR  HZ I        21 9 43.47        12.7 0.42            147           74.9 233 
 BAR2 SZ EP   2   21 9 29.04                             143    1.19 5  102 181 
 BAR2 SZ ES       21 9 45.73                             143   -0.2410  102 181 
 BAR2 SZ I        21 9 47.05        22.8 0.30            140            102 181 
 PTB  HZ EP       21 9 34.40                             126    0.10 9  178 233 
 PTB  HN ES       21 9 57.39                             126   -0.06 9  178 233 
 PTB  HZ I        2110  2.22         3.1 0.22            124            178 233 
 RUS  HZ EP       21 9 35.26                             126    0.23 9  179 177 
 RUS  HN ES       21 9 58.51                             126   -0.24 9  179 177 
 RUS  HZ I        2110  7.07         0.8 0.20            124            179 177 
 ZAR  HZ EP       21 9 34.08                             124   -1.02 9  186 269 
 ZAR  HN ES       21 9 59.26                             124    0.39 9  186 269 
 ZAR  HZ I        2110  4.32         5.0 0.16            124            186 269 
                                                                                
