 2013 10 4 2230 26.6 L   7.334 -73.219124.0  RSN  5 0.3 1.6LRSN                1
 GAP=204        0.77       4.8     3.7  5.8 -0.2896E+01  0.3675E+01  0.2840E+01E
 Epicentro: RIONEGRO - SANTANDER                                               3
 ACTION:UPD 13-11-25 09:19 OP:ep   STATUS:               ID:20131004223026 L   I
 OLDACT:REG 13-10-04 21:52 OP:jn   STATUS:               ID:20131004222959     3
 2013-10-04-2229-59M.COL___273                                                 6
 STAT SP IPHASW D HRMM SECON CODA AMPLIT PERI AZIMU VELO AIN AR TRES W  DIS CAZ7
 PAM  SZ EP       2230 45.25                             154   -0.0910 57.3  89 
 PAM  SN ES       2230 59.75                             154   -0.2010 57.3  89 
 PAM  SZ I        2231  1.61         4.5 0.46            154           57.3  89 
 BRR  HZ EP       2230 44.55                             152   -0.2310 60.0 245 
 BRR  HN ES       2230 59.37                             152    0.4310 60.0 245 
 BRR  HZ I        2231  0.12        17.0 0.30            153           60.0 245 
 BAR2 SZ EP       2230 46.88                             144    0.3410 82.2 177 
 BAR2 SZ ES       2231  2.07                             144   -0.0110 82.2 177 
 BAR2 SZ I        2231  3.77        27.5 0.46            143           82.2 177 
 RUS  HZ EP       2230 54.27                             124    0.51 9  160 175 
 RUS  HE ES       2231 14.63                             124   -0.31 9  160 175 
 RUS  HZ I        2231 19.16         2.1 0.58            124            160 175 
 PTB  HZ EP       2230 53.15                             124   -0.23 9  163 237 
 PTB  HN ES       2231 14.00                             124   -0.26 9  163 237 
 PTB  HZ I        2231 15.71         3.7 0.44            125            163 237 
                                                                                
