 2010  1 4 2129 50.8 L   6.803 -73.213150.0  RSN  5 0.4 1.7LRSN                1
 GAP=151        0.63       3.9    11.1 12.6 -0.8141E+01  0.6388E+02  0.2704E+01E
 Epicentro: ZAPATOCA - SANTANDER                                               3
 ACTION:UP  10-08-24 09:42 OP:vdl  STATUS:               ID:20100104212950 L   I
 2010-01-04-2127-51S.COL___097                                                 6
 STAT SP IPHASW D HRMM SECON CODA AMPLIT PERI AZIMU VELO SNR AR TRES W  DIS CAZ7
 RUS  BZ EP   1   2130 14.88                             144    -0.2 7  102 172 
 RUS  BE ES   2   2130 33.74                             144    -0.2 5  102 172 
 RUS  BZ I        2130 34.78         5.6 0.30                           102 172 
 GUE  SZ ES   2   2130 36.50                             140     0.8 5  118  16 
 GRA  SZ EP   1   2130 16.64                             137     0.0 7  128  21 
 GRA  SZ ES   2   2130 36.10                             137    -0.6 5  128  21 
 CHI  HZ EP   2   2130 28.74                             118     0.2 4  247 193 
 CHI  HN ES   2   2130 58.53                             118     0.5 4  247 193 
 CHI  HZ I        2131  4.18         3.9 0.24                           247 193 
 MON  HE ES   2   2131 16.79                             110    -0.2 3  347 309 
                                                                                
