 2017  8 4 2211 59.8 L   6.697 -73.134142.6  RSN  5 0.3 1.3LRSN                1
 GAP=171        0.88       7.3     4.2  7.0 -0.7217E+01  0.6367E+01  0.1676E+01E
 Epicentro: VILLANUEVA - SANTANDER                                             3
 ACTION:UPD 17-09-04 20:16 OP:rebc STATUS:               ID:20170804221159 L   I
 OLDACT:REG 17-08-05 04:25 OP:lv   STATUS:               ID:20170804220739     3
 2017-08-04-2208-00M.COL___402                                                 6
 STAT SP IPHASW D HRMM SECON CODA AMPLIT PERI AZIMU VELO AIN AR TRES W  DIS CAZ7
 BAR2 EZ EP       2212 19.16                             175    0.3310 12.8 205 
 BAR2 EZ ES       2212 33.91                             175    0.2010 12.8 205 
 BAR2 EZ I        2212 35.30         5.5 0.07            174           12.8 205 
 BRR  HZ EP       2212 21.07                             150    0.0910 78.3 305 
 BRR  HN ES       2212 37.88                             150    0.3410 78.3 305 
 PAM  EZ EP       2212 22.15                             148   -0.0010 85.7  34 
 PAM  EE ES       2212 39.13                             148   -0.5010 85.7  34 
 PAM  EZ I        2212 41.27         3.5 0.50            150           85.7  34 
 PTB  HZ EP       2212 26.32                             131   -0.10 9  147 263 
 PTB  HN ES       2212 46.56                             131   -0.65 9  147 263 
 PTB  HZ I        2212 49.56         2.0 0.15            133            147 263 
 ZAR  HN ES       2212 58.46                             121    0.26 8  210 295 
                                                                                
