 2010 10 4 2326  6.6 L   5.918 -73.754105.8  RSN  9 0.3 1.9LRSN                1
 GAP= 87        0.60       3.4     3.4  7.4 -0.5284E+01  0.9580E+01  0.6944E+00E
 Epicentro: GUAVATA - SANTANDER                                                3
 ACTION:UP  11-02-18 11:07 OP:tino STATUS:               ID:20101004232606 L   I
 2010-10-04-2322-38S.COL___124                                                 6
 STAT SP IPHASW D HRMM SECON CODA AMPLIT PERI AZIMU VELO SNR AR TRES W  DIS CAZ7
 RUS  HZ EP   1   2326 24.53                             143     0.0 7   74  92 
 RUS  HZ I        2326 25.08        10.6 0.29                            74  92 
 RUS  HE ES   1   2326 38.37                             143    -0.1 7   74  92 
 BAR2 SZ IP       2326 26.15                             134     0.110   98  40 
 BAR2 SZ ES   1   2326 41.52                             134     0.3 7   98  40 
 BAR2 SZ I        2326 43.11        63.0 0.41                            98  40 
 NOR  SZ EP   2   2326 28.63                             125    -0.2 5  130 253 
 NOR  SN ES   1   2326 46.42                             125     0.2 7  130 253 
 BRR  HN ES   2   2326 45.62                             124    -0.8 5  132   2 
 BRR  HZ I        2326 49.43        21.7 0.08                           132   2 
 CHI  HZ EP   2   2326 30.44                             122    -0.2 5  143 179 
 CHI  HZ I        2326 31.17         6.9 0.16                           143 179 
 CHI  HN ES   2   2326 49.11                             122    -0.2 5  143 179 
 HEL  HZ EP   2   2326 36.58                             113    -0.1 4  199 279 
 HEL  HZ I        2327 10.96         4.1 0.43                           199 279 
 RREF HZ EP   2   2326 39.05                             112     0.9 4  209 238 
 RREF HN ES   2   2327  2.38                             112    -0.4 4  209 238 
 RREF HZ I        2327  7.50         6.0 0.21                           209 238 
 GUE  SZ EP   2   2326 40.07                             109    -0.1 4  230  23 
 PRA  HZ EP   2   2326 44.42                             105    -0.5 4  274 207 
 PRA  HN ES   2   2327 15.14                             105     0.3 4  274 207 
                                                                                
