 2015  5 4 2153 45.1 L   6.784 -73.107137.7  RSN 10 0.5 1.9LRSN                1
 GAP=142        1.01       3.0     4.5  6.0 -0.7375E+00  0.8820E+01  0.1943E+01E
 Epicentro: LOS SANTOS - SANTANDER                                             3
 ACTION:UPD 15-09-10 22:01 OP:cam  STATUS:               ID:20150504214750 L   I
 OLDACT:UPD 15-05-05 02:54 OP:AK   STATUS:               ID:20150504214750 L   3
 2015-05-04-2147-50M.COL___274                                                 6
 STAT SP IPHASW D HRMM SECON CODA AMPLIT PERI AZIMU VELO AIN AR TRES W  DIS CAZ7
 BAR2 EZ IP     D 2154  3.82                             170    0.0810 22.8 202 
 BAR2 EZ ES       2154 18.01                             170   -0.2810 22.8 202 
 BAR2 EZ I        2154 21.69        14.0 0.24            170           22.8 202 
 BRR  HZ EP     D 2154  5.68                             149    0.0310 75.8 298 
 BRR  HN ES       2154 22.34                             149    0.6510 75.8 298 
 PAM  SZ IP     D 2154  6.82                             150    0.4410 76.1  36 
 PAM  SN ES       2154 23.14                             150    0.1610 76.1  36 
 PAM  SZ I        2154 27.26        11.2 0.47            153           76.1  36 
 RUS  HZ EP       2154  8.01                             143    0.1010 98.6 178 
 RUS  HN ES       2154 25.04                             143   -0.6710 98.6 178 
 RUS  HZ I        2154 27.56         6.3 0.31            144           98.6 178 
 SPBC HZ EP   1   2154 12.36                             127   -0.76 7  165 221 
 SPBC HN ES       2154 35.20                             127    0.22 9  165 221 
 SPBC HZ I        2154 39.89        16.8 0.16            128            165 221 
 ZAR  HZ EP   2   2154 17.12                             120   -0.39 4  209 292 
 ZAR  HN ES       2154 41.96                             120   -0.84 8  209 292 
 ZAR  HZ I        2154 47.13         8.3 0.27            121            209 292 
 SML  HZ EP   1   2154 20.82                             115   -0.83 6  247 335 
 SML  HN ES       2154 50.16                             115   -0.01 8  247 335 
 SML  HZ I        2154 55.10        12.7 0.10            117            247 335 
 CHI  HZ EP       2154 22.29                             115   -0.00 8  248 196 
 CHI  HN ES       2154 51.52                             115    0.21 8  248 196 
 CHI  HZ I        2154 56.68         5.5 0.43            117            248 196 
 GUY2CHZ EP   1   2154 28.85                             111    0.22 5  304 236 
 GUY2CHN ES       2155  3.39                             111    0.81 7  304 236 
 GUY2CHZ I        2155 10.53         5.0 0.51                           304 236 
 RREF HZ EP   2   2154 31.85                             109    0.71 3  324 230 
 RREF HN ES   1   2155  6.89                             109   -0.17 5  324 230 
 RREF HZ I        2155 11.13         2.4 0.24            110            324 230 
                                                                                
