 2017  4 4 2027 11.8 L   6.633 -72.881  4.0  RSN  5 0.4 1.3LRSN                1
 GAP=181        1.06       4.0     5.1  7.5 -0.1347E+02  0.2525E+02 -0.1718E+02E
 Epicentro: MOLAGAVITA - SANTANDER                                             3
 ACTION:UPD 17-05-30 21:08 OP:jn   STATUS:               ID:20170404202711 L   I
 OLDACT:UP  17-04-05 05:00 OP:dnl  STATUS:               ID:20170404201748d    3
 OLDACT:UP  17-04-05 05:00 OP:dnl  STATUS:               ID:20170404201748d    3
 OLDACT:DUP 17-04-05 04:57 OP:dnl  STATUS:               ID:20170404201748d    3
 2017-04-04-2018-00M.COL___362                                                 6
 STAT SP IPHASW D HRMM SECON CODA AMPLIT PERI AZIMU VELO AIN AR TRES W  DIS CAZ7
 BAR2 EZ IP     D 2027 17.90                              47    0.1410 33.6 262 
 BAR2 EZ ES       2027 22.10                              47   -0.2910 33.6 262 
 BAR2 EZ I        2027 23.01        32.9 0.30             47           33.6 262 
 PAM  EZ EP       2027 25.69                              47    0.5410 80.7  14 
 PAM  EE ES       2027 35.18                              47   -0.3610 80.7  14 
 PAM  EZ I        2027 36.47         6.3 0.14             47           80.7  14 
 RUS  HZ EP       2027 25.93                              47    0.1510 84.8 195 
 RUS  HN ES   2   2027 35.95                              47   -0.72 5 84.8 195 
 RUS  HZ I        2027 37.33         8.1 0.18             47           84.8 195 
 BRR  HZ EP   9   2027 30.49                              47    2.05 0  106 300 
 BRR  HE ES       2027 43.55                              47    0.1010  106 300 
 BRR  HZ I        2027 47.45        18.9 0.28             47            106 300 
 PTB  HZ EP   9   2027 40.80                              47    1.92 0  175 267 
 PTB  HE ES       2028  2.77                              37    0.87 9  175 267 
                                                                                
