 2017  2 5 0450 14.3 L   6.796 -73.145141.4  RSN 12 0.3 2.0LRSN                1
 GAP=100        0.83       3.2     2.4  5.2 -0.1526E+00  0.2437E+01  0.2889E+01E
 Epicentro: LOS SANTOS - SANTANDER                                             3
 ACTION:UPD 17-05-24 15:32 OP:jn   STATUS:               ID:20170205045014 L   I
 OLDACT:UP  17-02-05 15:15 OP:dnl  STATUS:               ID:20170205044746d    3
 OLDACT:DUP 17-02-05 15:10 OP:dnl  STATUS:               ID:20170205044746d    3
 2017-02-05-0448-00M.COL___322                                                 6
 STAT SP IPHASW D HRMM SECON CODA AMPLIT PERI AZIMU VELO AIN AR TRES W  DIS CAZ7
 BAR2 EZ IP     D  450 33.19                             170   -0.1710 22.9 190 
 BAR2 EZ ES        450 47.57                             170   -0.6810 22.9 190 
 BAR2 EZ I         450 48.79        31.3 0.32            167           22.9 190 
 BRR  HZ IP     C  450 34.93                             152   -0.0210 71.5 299 
 BRR  HE ES        450 51.76                             152    0.6710 71.5 299 
 BRR  HZ I         450 54.86        19.3 0.36            150           71.5 299 
 PAM  EZ EP     C  450 36.13                             150    0.1010 77.7  39 
 PAM  EN ES        450 52.96                             150   -0.0510 77.7  39 
 PAM  EZ I         450 54.88        32.3 0.44            153           77.7  39 
 RUS  HZ EP   2    450 37.18                             143   -0.37 5  100 176 
 RUS  HN ES        450 55.92                             143    0.2110  100 176 
 RUS  HZ I         450 57.51         8.5 0.34            142            100 176 
 PTB  HZ EP        450 40.27                             131   -0.60 9  148 259 
 PTB  HE ES        451  1.27                             131   -0.35 9  148 259 
 PTB  HZ I         451  4.21        18.4 0.14            129            148 259 
 TAM  HZ IP     D  450 41.67                             129    0.09 9  155 105 
 TAM  HN ES        451  3.07                             129    0.18 9  155 105 
 TAM  HZ I         451  4.26         6.6 0.36            131            155 105 
 ZAR  HZ EP   2    450 46.48                             121    0.03 4  204 292 
 ZAR  HN ES        451 11.89                             121    0.34 9  204 292 
 ZAR  HZ I         451 16.89        16.7 0.28            121            204 292 
 NOR  HZ EP   2    450 49.69                             117   -0.02 4  234 235 
 NOR  HE ES        451 17.59                             117    0.22 8  234 235 
 NOR  HZ I         451 26.39         7.3 0.20            117            234 235 
 CHI  HZ EP   2    450 51.62                             116   -0.05 4  248 195 
 CHI  HE ES        451 21.30                             116    0.45 8  248 195 
 CHI  HZ I         451 25.22         2.5 0.22            116            248 195 
 URE  HZ EP   4    450 57.80                             113    2.66 0  284 292 
 URE  HE ES   4    451 24.73                             113   -2.30 0  284 292 
 URE  HZ I         451 27.42         9.6 0.36            112            284 292 
 CBOC HZ EP   4    451  2.37                             109    1.39 0  334 252 
 CBOC HN ES        451 37.36                             109   -0.07 7  334 252 
 CBOC HZ I         451 49.33         2.0 0.48            109            334 252 
 SJC  HZ EP   4    451  8.02                             105   -1.71 0  410 327 
 SJC  HN ES   4    451 47.93                             105   -5.07 0  410 327 
 SJC  HZ I         451 52.02         2.2 0.40            105            410 327 
                                                                                
