 2014  1 5 0630 57.9 L   6.577 -73.882 32.1  RSN  6 0.5 0.9LRSN                1
 GAP=182        1.18       5.5     2.6 14.7  0.9625E+00  0.1214E+01  0.2111E+02E
 Epicentro: PUERTO PARRA - SANTANDER                                           3
 ACTION:UPD 14-03-13 09:51 OP:ep   STATUS:               ID:20140105063057 L   I
 OLDACT:REG 14-01-05 08:35 OP:stll STATUS:               ID:20140105062813     3
 2014-01-05-0628-13M.COL___237                                                 6
 STAT SP IPHASW D HRMM SECON CODA AMPLIT PERI AZIMU VELO AIN AR TRES W  DIS CAZ7
 PTB  HZ EP        631  8.68                              61   -0.0510 63.6 266 
 PTB  HN ES        631 17.30                              61    0.1010 63.6 266 
 PTB  HZ I         631 17.69         7.1 0.24            108           63.6 266 
 BAR2 SZ EP        631 11.46                              61    0.7310 77.4  89 
 BAR2 SZ ES        631 19.97                              61   -0.7910 77.4  89 
 BAR2 SZ I         631 23.95         4.7 0.60             61           77.4  89 
 SPBC HZ EP        631 13.63                              61   -0.2810  104 192 
 SPBC HN ES        631 26.55                              61    0.1210  104 192 
 SPBC HZ I         631 27.81         3.0 0.34             61            104 192 
 RUS  HZ EP        631 16.34                              61    0.4410  116 130 
 RUS  HN ES        631 29.87                              61   -0.1010  116 130 
 RUS  HZ I         631 30.97         2.9 0.20             61            116 130 
 HEL  HZ EP        631 25.04                              61    0.45 9  187 257 
 HEL  HN ES        631 44.78                              61   -0.65 9  187 257 
 HEL  HZ I         631 46.32         1.5 0.24             61            187 257 
 GUY2CHZ EP   4    631 28.82                              61   -0.27 0  222 228 
 GUY2CHN ES   4    631 53.94                              61    0.49 0  222 228 
 GUY2CHZ I         631 56.58         0.5 0.20                           222 228 
                                                                                
