 2013  4 5 0706 23.2 L   6.645 -73.085139.8  RSN  4 0.4 1.2LRSN                1
 GAP=256        0.77      10.8     7.2  9.2 -0.2306E+00  0.1303E+01  0.2079E+02E
 Epicentro: CURITI - SANTANDER                                                 3
 ACTION:UPD 13-05-22 14:36 OP:EP   STATUS:               ID:20130405070623 L   I
 2013-04-05-0700-00M.COL___245                                                 6
 STAT SP IPHASW D HRMM SECON CODA AMPLIT PERI AZIMU VELO AIN AR TRES W  DIS CAZ7
 BAR2 SZ EP   1    7 6 42.04                             175    0.13 7 12.3 241 
 BAR2 SZ ES   1    7 6 56.38                             175   -0.14 7 12.3 241 
 BAR2 SZ I         7 6 59.46         4.7 0.28            174           12.3 241 
 GIR2 SZ EP   1    7 6 43.37                             159    0.58 7 49.4 346 
 GIR2 SZ ES   1    7 6 57.92                             159   -0.16 7 49.4 346 
 GIR2 SZ I         7 6 59.88         3.3 0.58            165           49.4 346 
 BRR  HZ EP   1    7 6 43.88                             146   -0.74 7 86.1 306 
 BRR  HN ES        7 7  1.49                             146    0.1410 86.1 306 
 PTB  HE ES   1    7 7 11.15                             130    0.10 7  152 266 
                                                                                
