 2013  3 5 0208 39.7 L   6.810 -73.171140.0  RSN  7 0.4 1.7LRSN                1
 GAP=133        0.93       4.0     4.7  8.3 -0.3703E-01  0.1421E+02 -0.6156E+01E
 Epicentro: LOS SANTOS - SANTANDER                                             3
 ACTION:UPD 13-04-09 13:59 OP:ep   STATUS:               ID:20130305020839 L   I
 2013-03-05-0200-00M.COL___228                                                 6
 STAT SP IPHASW D HRMM SECON CODA AMPLIT PERI AZIMU VELO AIN AR TRES W  DIS CAZ7
 BAR2 SZ EP        2 8 59.06                             170    0.4310 24.1 183 
 BAR2 SZ ES        2 9 13.49                             170    0.0810 24.1 183 
 BAR2 SZ I         2 9 14.85        29.2 0.30            171           24.1 183 
 BRR  HZ EP        2 8 59.62                             153   -0.4110 68.2 299 
 BRR  HN ES   4    2 9 17.87                             153    1.96 0 68.2 299 
 BRR  HZ I         2 9 22.18        14.7 0.30            153           68.2 299 
 PAM  SZ EP   1    2 9  1.62                             149    0.28 7 78.4  42 
 PAM  SN ES   1    2 9 18.60                             149    0.36 7 78.4  42 
 PAM  SZ I         2 9 20.42         4.6 0.20            155           78.4  42 
 RUS  HZ EP   1    2 9  2.94                             142   -0.02 7  102 175 
 RUS  HN ES        2 9 20.94                             142   -0.1810  102 175 
 RUS  HZ I         2 9 23.17         6.1 0.56            148            102 175 
 PTB  HZ EP        2 9  5.55                             131   -0.39 9  145 258 
 PTB  HN ES        2 9 26.28                             131   -0.15 9  145 258 
 PTB  HZ I         2 9 30.34         7.0 0.22            134            145 258 
 OCA  HN ES        2 9 28.50                             129   -0.54 9  159 354 
 ZAR  HZ EP   2    2 9 12.52                             122    1.09 4  201 292 
 ZAR  HN ES        2 9 36.83                             122    0.63 9  201 292 
 ZAR  HZ I         2 9 38.74         4.6 0.08            125            201 292 
                                                                                
