 2016  8 5 0550  9.4 L   6.794 -73.108150.0  RSN 10 0.4 1.6LRSN                1
 GAP=142        0.88       3.4     3.8  5.0 -0.2406E+01  0.8331E+01  0.6207E+00E
 Epicentro: LOS SANTOS - SANTANDER                                             3
 ACTION:UPD 16-10-29 15:32 OP:rebc STATUS:               ID:20160805055009 L   I
 OLDACT:REG 16-08-05 13:08 OP:edw  STATUS:               ID:20160805054738     3
 2016-08-05-0548-00M.COL___338                                                 6
 STAT SP IPHASW D HRMM SECON CODA AMPLIT PERI AZIMU VELO AIN AR TRES W  DIS CAZ7
 BAR2 EZ EP        550 29.35                             171   -0.2210 23.8 200 
 BAR2 EZ ES        550 45.25                             171   -0.0310 23.8 200 
 BAR2 EZ I         550 45.77        11.4 0.22                          23.8 200 
 BRR  HZ EP        550 31.27                             152    0.0210 75.2 297 
 BRR  HN ES        550 48.48                             152    0.2010 75.2 297 
 BRR  HZ I         550 49.40         4.9 0.24                          75.2 297 
 PAM  EZ EP        550 32.27                             152    0.3010 75.3  37 
 PAM  EN ES        550 49.44                             152   -0.1110 75.3  37 
 PAM  EZ I         550 51.35         2.5 0.30                          75.3  37 
 RUS  HZ EP        550 33.33                             145   -0.2010 99.8 178 
 RUS  HN ES        550 52.18                             145   -0.1610 99.8 178 
 RUS  HZ I         550 53.10         3.3 0.32                          99.8 178 
 SPBC HZ EP        550 38.30                             130   -0.15 9  165 220 
 SPBC HN ES        551  1.29                             130    0.20 9  165 220 
 SPBC HZ I         551  4.55         8.0 0.40                           165 220 
 ZAR  HZ EP        550 43.22                             123    0.66 8  208 292 
 ZAR  HN ES        551  8.33                             123   -0.08 8  208 292 
 ZAR  HZ I         551 13.56         3.2 0.12                           208 292 
 NOR  HZ EP        550 45.77                             119    0.05 8  238 235 
 NOR  HN ES        551 14.44                             119    0.41 8  238 235 
 NOR  HZ I         551 18.74         4.7 0.46                           238 235 
 URE  HZ EP        550 50.25                             114   -0.90 7  288 292 
 URE  HN ES   4    551 21.08                             114   -2.62 0  288 292 
 GUY2CHZ EP        550 53.48                             113   -0.08 7  304 235 
 GUY2CHN ES        551 28.27                             113    0.27 7  304 235 
 GUY2CHZ I         551 35.94         4.5 0.34                           304 235 
 CBOC HZ EP        550 57.61                             110    0.67 7  337 252 
 CBOC HE ES        551 32.92                             110   -1.09 7  337 252 
 CBOC HZ I         551 47.16         1.0 0.46                           337 252 
                                                                                
