 2014  8 5 0346 49.9 L   6.696 -73.149131.8  RSN  4 0.3 0.9LRSN                1
 GAP=229        0.72       4.2     5.2  7.2  0.5145E+01 -0.3770E+01  0.4338E+01E
 Epicentro: VILLANUEVA - SANTANDER                                             3
 ACTION:UPD 14-09-15 21:47 OP:nd   STATUS:               ID:20140805034649 L   I
 OLDACT:DUP 14-08-05 15:59 OP:spq  STATUS:               ID:20140805033813d    3
 OLDACT:REG 14-08-05 12:59 OP:spq  STATUS:               ID:20140805033812     3
 2014-08-05-0338-12M.COL___251                                                 6
 STAT SP IPHASW D HRMM SECON CODA AMPLIT PERI AZIMU VELO AIN AR TRES W  DIS CAZ7
 BRR  HZ EP     D  347  9.54                             148   -0.3910 77.0 306 
 BRR  HE ES        347 25.86                             148    0.3110 77.0 306 
 BRR  HZ I         347 30.13         1.8 0.31            152           77.0 306 
 RUS  HZ EP        347 11.73                             144    0.2710 89.2 175 
 RUS  HN ES   1    347 27.88                             144   -0.40 7 89.2 175 
 RUS  HZ I         347 31.67         1.0 0.36            148           89.2 175 
 PTB  HZ EP        347 15.39                             129   -0.18 9  146 263 
 PTB  HE ES        347 35.49                             129   -0.09 9  146 263 
 PTB  HZ I         347 38.91         1.0 0.32            133            146 263 
 SPBC HZ EP        347 16.84                             127    0.35 9  154 222 
 SPBC HN ES        347 37.20                             127   -0.02 9  154 222 
 SPBC HZ I         347 41.75         1.3 0.20            131            154 222 
                                                                                
