 2012  1 5 0404  0.7 L   6.787 -73.102144.0  RSN  6 0.2 1.3LRSN                1
 GAP=143        0.50       3.7     4.6  4.8  0.1945E+01  0.1080E+01  0.2023E+01E
 Epicentro: LOS SANTOS - SANTANDER                                             3
 ACTION:UP  12-02-03 08:14 OP:REBC STATUS:               ID:20120105040400 L   I
 2012-01-05-0400-00M.COL___189                                                 6
 STAT SP IPHASW D HRMM SECON CODA AMPLIT PERI AZIMU VELO SNR AR TRES W  DIS CAZ7
 BAR2 SZ EP   1    4 4 19.90                             170    -0.2 7   23 202 
 BAR2 SZ ES   1    4 4 34.79                             170    -0.4 7   23 202 
 BAR2 SZ I         4 4 37.27         4.3 0.22                            23 202 
 GIR2 SZ EP   1    4 4 20.24                             166     0.1 7   34 343 
 GIR2 SZ ES   1    4 4 35.28                             166    -0.1 7   34 343 
 BRR  HZ EP   1    4 4 21.95                             150     0.1 7   76 298 
 BRR  HN ES   1    4 4 38.78                             150     0.3 7   76 298 
 BRR  HZ I         4 4 42.68         5.8 0.20                            76 298 
 PAM  SZ EP   2    4 4 22.58                             151     0.0 5   76  36 
 PAM  SN ES   2    4 4 39.90                             151     0.2 5   76  36 
 RUS  HZ EP   1    4 4 24.29                             144     0.2 7   99 179 
 RUS  HN ES   1    4 4 42.62                             144     0.2 7   99 179 
 RUS  HZ I         4 4 44.59         2.5 0.30                            99 179 
 PTB  HZ EP   2    4 4 27.47                             131    -0.4 5  152 260 
 PTB  HN ES   2    4 4 49.10                             131     0.0 5  152 260 
                                                                                
