 2015  2 5 0130  2.4 L   5.835 -73.994102.6  RSN  5 0.5 1.8LRSN                1
 GAP=236        1.17       6.4     8.7  9.3 -0.1213E+02  0.2191E+02  0.1957E+02E
 Epicentro: LA BELLEZA - SANTANDER                                             3
 ACTION:UPD 15-04-30 21:21 OP:nd   STATUS:               ID:20150205013002 L   I
 OLDACT:REG 15-02-05 14:45 OP:cam  STATUS:               ID:20150205012818     3
 2015-02-05-0128-18M.COL___281                                                 6
 STAT SP IPHASW D HRMM SECON CODA AMPLIT PERI AZIMU VELO AIN AR TRES W  DIS CAZ7
 SPBC HZ EP        130 16.28                             167   -0.3810 22.0 203 
 SPBC HE ES        130 27.89                             167    0.1510 22.0 203 
 SPBC HZ I         130 29.04        38.2 0.20            164           22.0 203 
 PTB  HE ES        130 34.99                             134   -0.4010 93.2 327 
 NOR  HZ EP        130 22.50                             132    0.7610  101 253 
 NOR  HN ES        130 37.34                             132    0.5410  101 253 
 NOR  HZ I         130 39.47        12.2 0.24            131            101 253 
 RREF HE EP        130 31.16                             114    0.34 9  182 236 
 RREF HZ ES        130 52.32                             114   -0.64 9  182 236 
 TOL  SZ EP        130 32.53                             111   -0.13 9  202 227 
 TOL  SN ES        130 55.76                             111   -0.46 9  202 227 
 TOL  SZ I         130 59.59         6.2 0.84            113            202 227 
                                                                                
