 2014  2 5 0023 10.2 L   6.774 -73.145140.0  RSN  9 0.4 1.8LRSN                1
 GAP=138        0.72       3.8     4.4  6.1 -0.3042E+00  0.8187E+01 -0.2020E+00E
 Epicentro: LOS SANTOS - SANTANDER                                             3
 ACTION:UPD 14-03-10 08:07 OP:ep   STATUS:               ID:20140205002310 L   I
 OLDACT:REG 14-02-05 07:23 OP:mh   STATUS:               ID:20140205002000     3
 2014-02-05-0020-00M.COL___288                                                 6
 STAT SP IPHASW D HRMM SECON CODA AMPLIT PERI AZIMU VELO AIN AR TRES W  DIS CAZ7
 BAR2 SZ EP        023 28.61                             171   -0.4510 20.5 192 
 BAR2 SZ ES   1    023 43.81                             171    0.02 7 20.5 192 
 BAR2 SZ I         023 45.46        29.7 0.23            170           20.5 192 
 BRR  HZ EP   1    023 31.24                             151    0.45 7 72.6 300 
 BRR  HN ES   1    023 47.06                             151    0.19 7 72.6 300 
 BRR  HZ I         023 52.28        13.4 0.06            150           72.6 300 
 PAM  SZ EP   1    023 32.31                             149    0.39 7 79.6  38 
 PAM  SN ES   1    023 49.04                             149    0.16 7 79.6  38 
 PAM  SZ I         023 50.09         9.9 0.14            154           79.6  38 
 RUS  HZ EP   1    023 33.20                             143    0.04 7 97.7 176 
 RUS  HN ES   1    023 51.17                             143    0.09 7 97.7 176 
 PTB  HZ EP   1    023 36.19                             131   -0.45 7  147 260 
 PTB  HN ES   1    023 57.03                             131   -0.25 7  147 260 
 PTB  HZ I         023 59.61         9.9 0.12            131            147 260 
 OCA  HN ES   1    023 59.78                             128   -0.49 7  163 353 
 ZAR  HZ EP   1    023 42.18                             121   -0.20 6  205 293 
 ZAR  HN ES   2    024  8.19                             121    0.70 4  205 293 
 ZAR  HZ I         024 11.01         8.6 0.07            122            205 293 
 SML  HZ EP   4    023 44.54                             116   -2.24 0  246 336 
 CHI  HZ I         024 20.00         1.6 0.22            118            246 195 
 HEL  HZ EP   1    023 50.74                             114    0.71 6  271 256 
 URE  HZ EP   4    023 49.27                             112   -1.83 0  285 292 
 URE  HN ES   4    024 21.38                             112   -1.64 0  285 292 
                                                                                
