 2014  7 5 0822 23.9 L   6.804 -73.158142.7  RSN  4 0.2 1.3LRSN                1
 GAP=254        0.56       4.9     4.1  5.7  0.1184E+01  0.7467E+01 -0.1538E+01E
 Epicentro: LOS SANTOS - SANTANDER                                             3
 ACTION:UPD 15-03-16 20:41 OP:nd   STATUS:               ID:20140705082223 L   I
 OLDACT:UP  14-07-05 16:33 OP:cam  STATUS:               ID:20140705082000     3
 OLDACT:REG 14-07-05 14:37 OP:cam  STATUS:               ID:20140705082000     3
 2014-07-05-0820-00M.COL___279                                                 6
 STAT SP IPHASW D HRMM SECON CODA AMPLIT PERI AZIMU VELO AIN AR TRES W  DIS CAZ7
 BAR2 SZ EP        822 43.01                             170   -0.1910 23.5 187 
 BAR2 SZ ES        822 58.33                             170    0.1110 23.5 187 
 BAR2 SZ I         822 59.29         5.4 0.18            163           23.5 187 
 PTB  HZ EP        822 50.57                             132    0.04 9  146 259 
 PTB  HN ES        823 10.92                             132   -0.36 9  146 259 
 PTB  HZ I         823 13.10         2.5 0.16            130            146 259 
 SPBC HZ EP   1    822 52.25                             128    0.11 7  163 219 
 SPBC HN ES        823 14.31                             128    0.16 9  163 219 
 SPBC HZ I         823 20.10         2.8 0.20            126            163 219 
 ZAR  HN ES   1    823 21.49                             122    0.43 6  203 292 
                                                                                
