 2014 12 5 0130 11.5 L   6.806 -73.183142.5  RSN 16 0.5 1.9LRSN                1
 GAP=132        1.15       2.8     3.9  5.5 -0.2259E+01  0.7208E+01  0.8605E+00E
 Epicentro: ZAPATOCA - SANTANDER                                               3
 ACTION:UPD 15-02-10 17:00 OP:nd   STATUS:               ID:20141205013011 L   I
 OLDACT:REG 14-12-05 12:36 OP:fm   STATUS:               ID:20141205012748     3
 2014-12-05-0127-48M.COL___300                                                 6
 STAT SP IPHASW D HRMM SECON CODA AMPLIT PERI AZIMU VELO AIN AR TRES W  DIS CAZ7
 BAR2 SZ EP        130 30.54                             170   -0.2410 23.7 180 
 BAR2 SZ ES        130 45.52                             170   -0.2710 23.7 180 
 BAR2 SZ I         130 47.59        17.0 0.26            168           23.7 180 
 BRR  HZ EP        130 32.90                             153    0.7910 67.2 300 
 BRR  HN ES        130 48.93                             153    0.7710 67.2 300 
 BRR  HZ I         130 54.01        14.0 0.16            149           67.2 300 
 PAM  SZ EP        130 33.86                             150    0.3310 79.6  42 
 PAM  SN ES        130 50.86                             150    0.1610 79.6  42 
 PAM  SZ I         130 53.19        18.2 0.44            155           79.6  42 
 RUS  HZ EP        130 35.25                             143    0.2110  102 174 
 RUS  HE ES        130 53.18                             143   -0.2010  102 174 
 RUS  HZ I         130 54.93        11.6 0.36            146            102 174 
 PTB  HZ EP        130 37.63                             132   -0.25 9  144 258 
 PTB  HE ES        130 58.19                             132   -0.24 9  144 258 
 PTB  HZ I         131  1.41         7.8 0.12            131            144 258 
 OCA  HZ EP        130 39.83                             129    0.35 9  159 355 
 OCA  HE ES        131  0.34                             129   -0.94 9  159 355 
 OCA  HZ I         131  5.13         7.7 0.16            131            159 355 
 SPBC HZ EP        130 40.03                             129    0.44 9  161 218 
 SPBC HN ES        131  1.70                             129    0.22 9  161 218 
 SPBC HZ I         131  8.18        13.7 0.22            129            161 218 
 ZAR  HZ EP        130 42.76                             122   -0.58 9  200 292 
 ZAR  HN ES        131  8.09                             122   -0.06 9  200 292 
 ZAR  HZ I         131 14.70         8.3 0.32            122            200 292 
 NOR  HZ EP        130 47.18                             118    0.43 8  232 234 
 NOR  HE ES        131 14.31                             118    0.08 8  232 234 
 NOR  HZ I         131 22.91         8.2 0.18            119            232 234 
 SML  HZ EP        130 47.23                             117   -0.49 8  241 336 
 SML  HN ES        131 15.71                             117   -0.24 8  241 336 
 SML  HZ I         131 18.25        15.9 0.10            118            241 336 
 CHI  HZ EP        130 49.28                             116    0.27 8  248 194 
 CHI  HN ES        131 16.60                             116   -1.64 8  248 194 
 CHI  HZ I         131 24.83         4.0 0.32            118            248 194 
 HEL  HZ EP        130 51.14                             114   -0.01 8  268 255 
 HEL  HN ES        131 22.12                             114    0.06 8  268 255 
 HEL  HZ I         131 31.37         4.3 0.38            115            268 255 
 GUY2CHZ EP        130 54.74                             112    0.09 7  298 234 
 GUY2CHN ES        131 28.47                             112    0.18 7  298 234 
 GUY2CHZ I         131 37.24         4.3 0.28                           298 234 
 CBOC HZ EP        130 57.99                             109    0.11 7  330 252 
 CBOC HN ES        131 33.65                             109   -0.39 7  330 252 
 CBOC HZ I         131 46.17         1.4 0.28            110            330 252 
 TOL  SZ EP        130 59.43                             109    0.05 7  341 224 
 TOL  SE ES        131 37.19                             109    0.49 7  341 224 
 TOL  SZ I         131 45.60         8.8 0.48            110            341 224 
 MON  HZ EP   4    130 53.89                             108   -6.09 0  350 309 
 MON  HE ES   4    131 35.02                             108   -2.75 0  350 309 
 MON  HZ I         131 51.89         2.1 0.52            109            350 309 
                                                                                
