 2016  6 5 0753  7.9 L   6.825 -73.145146.8  RSN 23 0.4 2.8LRSN                1
 GAP= 70        0.79       2.1     2.6  3.7 -0.1614E+01  0.3205E+01  0.1372E+00E
 Epicentro: LOS SANTOS - SANTANDER                                             3
 ACTION:UPD 16-07-21 22:15 OP:rebc STATUS:               ID:20160605075307 L   I
 OLDACT:REG 16-06-05 13:14 OP:edw  STATUS:               ID:20160605074747     3
 2016-06-05-0747-47M.COL___322                                                 6
 STAT SP IPHASW D HRMM SECON CODA AMPLIT PERI AZIMU VELO AIN AR TRES W  DIS CAZ7
 BAR2 EZ EP     D  753 27.60                             169   -0.0810 26.1 189 
 BAR2 EZ IP        753 27.62                             169   -0.0610 26.1 189 
 BAR2 EZ ES        753 42.86                             169   -0.2710 26.1 189 
 BAR2 EZ I         753 43.84       161.7 0.20                          26.1 189 
 BRR  HZ EP        753 29.48                             153    0.4210 70.0 297 
 BRR  HN ES   4    753 46.82                             153    1.23 0 70.0 297 
 BRR  HZ I         753 47.39        60.9 0.48                          70.0 297 
 PAM  EZ EP        753 30.63                             152    0.5610 75.2  41 
 PAM  EN ES        753 47.33                             152   -0.0510 75.2  41 
 PAM  EZ I         753 49.77       113.3 0.52                          75.2  41 
 RUS  HZ EP        753 31.60                             143   -0.3210  103 176 
 RUS  HN ES        753 50.63                             143   -0.0510  103 176 
 RUS  HZ I         753 51.88        69.6 0.38                           103 176 
 PTB  HZ EP        753 34.63                             132   -0.34 9  148 258 
 PTB  HE ES        753 56.12                             132    0.00 9  148 258 
 PTB  HZ I         754  2.37        79.8 0.64                           148 258 
 TAM  HZ IP        753 36.06                             131    0.37 9  156 106 
 TAM  HZ I         753 56.92        37.6 0.38                           156 106 
 TAM  HN ES        753 57.71                             131    0.32 9  156 106 
 OCA  HZ EP        753 35.75                             130   -0.25 9  158 353 
 OCA  HN ES        753 57.50                             130   -0.45 9  158 353 
 OCA  HZ I         754  6.13       154.8 0.26                           158 353 
 SPBC HZ EP        753 36.48                             129   -0.17 9  165 218 
 SPBC HE ES        753 59.57                             129    0.46 9  165 218 
 SPBC HZ I         754  1.28        93.1 0.12                           165 218 
 NOR  HZ EP        753 43.78                             118   -0.05 8  236 234 
 NOR  HN ES        754 12.26                             118    0.37 8  236 234 
 NOR  HZ I         754 17.54        50.2 0.22                           236 234 
 CHI  HZ EP        753 45.80                             117   -0.11 8  251 195 
 CHI  HN ES        754 15.18                             117   -0.41 8  251 195 
 CHI  HZ I         754 20.18        43.2 0.52                           251 195 
 HEL  HZ EP   4    753 49.41                             115    1.20 0  273 255 
 HEL  HN ES   4    754 20.19                             115    0.51 0  273 255 
 HEL  HZ I         754 25.63        43.9 0.28                           273 255 
 URE  HZ EP   4    753 47.54                             114   -1.34 0  283 291 
 URE  HN ES   4    754 18.30                             114   -2.57 0  283 291 
 URE  HZ I         754 30.31        46.4 0.26                           283 291 
 VIL  SZ EP        753 51.58                             112   -0.06 7  306 191 
 VIL  SN ES   4    754 25.07                             112   -0.71 0  306 191 
 PTGC HZ E         753  6.18                                            311 159 
 PTGC HZ EP   4    753 50.82                             111   -1.24 0  311 159 
 PTGC HN ES   4    754 24.28                             111   -2.25 0  311 159 
 LL6C HZ EP        753 52.91                             111   -0.39 7  322 358 
 LL6C HE ES   4    754 27.52                             111   -1.21 0  322 358 
 LL6C HZ I         754 34.76        16.2 0.40                           322 358 
 ELA  HZ EP   4    753 56.25                             110    1.28 0  331 229 
 ELA  HN ES   4    754 33.96                             110    2.25 0  331 229 
 ELA  HZ I         754 44.20        24.7 0.40                           331 229 
 CBOC HZ EP        753 55.20                             110    0.27 7  335 252 
 CBOC HE ES   4    754 32.54                             110    0.90 0  335 252 
 CBOC HZ I         754 37.16        11.1 0.36                           335 252 
 DBB  SZ EP        753 55.41                             110    0.04 7  339 274 
 DBB  SZ ES   4    754 30.91                             110   -1.51 0  339 274 
 DBB  SZ I         754 33.07       106.5 0.28                           339 274 
 ARGC HZ EP        753 57.78                             108    0.52 6  357 340 
 ARGC HN ES   4    754 38.12                             108    2.33 0  357 340 
 ARGC HZ I         754 49.47        17.8 0.38                           357 340 
 ANIL HZ EP        753 58.23                             108    0.29 6  359 224 
 ANIL HN ES   4    754 38.78                             108    1.78 0  359 224 
 PRA  HZ EP        754  1.45                             106   -0.26 6  394 209 
 PRA  HN ES        754 42.97                             106   -0.73 6  394 209 
 PRA  HZ I         754 47.78        35.3 0.58                           394 209 
 ORTC HZ EP        754  1.58                             106   -0.51 6  398 216 
 ORTC HN ES        754 44.14                             106   -0.24 6  398 216 
 ORTC HZ I         754 49.03        25.6 0.24                           398 216 
 PAL  HZ EP        754  3.22                             106   -0.01 6  407 239 
 PAL  HN ES        754 47.55                             106    1.13 6  407 239 
 PAL  HZ I         754 51.14         8.3 0.20                           407 239 
                                                                                
