 2016 11 5 0833  9.7 L   6.509 -73.753 23.6  RSN  8 0.6 2.1LRSN                1
 GAP=119        1.48       3.5     2.9  4.8 -0.2800E+01  0.2600E+01  0.4209E+01E
 Epicentro: SANTA HELENA DEL OPON - SANTANDER                                  3
 ACTION:UPD 17-10-26 21:04 OP:lp   STATUS:               ID:20161105083309 L   I
 OLDACT:UP  16-11-05 15:14 OP:dnl  STATUS:               ID:20161105082744     3
 OLDACT:UP  16-11-05 15:14 OP:dnl  STATUS:               ID:20161105082744     3
 OLDACT:REG 16-11-05 14:19 OP:dani STATUS:               ID:20161105082744     3
 2016-11-05-0828-00M.COL___346                                                 6
 STAT SP IPHASW D HRMM SECON CODA AMPLIT PERI AZIMU VELO AIN AR TRES W  DIS CAZ7
 BAR2 EZ IP     D  833 20.42                             109   -0.2710 63.8  82 
 BAR2 EZ ES        833 28.16                             109   -1.1010 63.8  82 
 BAR2 EZ I         833 29.20        54.9 0.20            107           63.8  82 
 BRR  HZ EP        833 21.04                             108    0.2510 66.3   4 
 BRR  HN ES        833 30.29                             108    0.8410 66.3   4 
 BRR  HZ I         833 31.37       124.6 0.10            106           66.3   4 
 PTB  HZ IP     D  833 22.33                             105   -0.1610 77.8 273 
 PTB  HN ES        833 32.66                             105    0.1910 77.8 273 
 PTB  HZ I         833 33.67        99.0 0.24            104           77.8 273 
 SPBC HZ EP        833 26.14                              71    0.1510  101 200 
 SPBC HN ES        833 39.16                              71    0.4610  101 200 
 SPBC HZ I         833 40.66        32.9 0.12            100            101 200 
 PAM  EZ EP        833 32.95                              56    0.56 9  148  52 
 PAM  EN ES        833 50.60                              56    0.50 9  148  52 
 PAM  EZ I         833 52.15        49.4 0.12             56            148  52 
 NOR  HZ EP   2    833 34.67                              56    1.11 5  162 230 
 NOR  HN ES        833 52.57                              56    0.40 9  162 230 
 NOR  HZ I         833 58.42         6.5 0.22             56            162 230 
 ZAR  HZ EP   2    833 33.22                              56   -0.49 5  164 312 
 ZAR  HN ES        833 51.54                              56   -0.91 9  164 312 
 ZAR  HZ I         833 52.48        22.4 0.26             56            164 312 
 HEL  HZ EP        833 38.34                              56   -0.32 9  200 260 
 HEL  HN ES        834  0.22                              56   -1.03 9  200 260 
 HEL  HZ I         834  1.23        15.1 0.22             56            200 260 
 CBOC HZ EP   4    833 47.88                              56    1.91 0  260 254 
 CBOC HN ES   4    834 17.03                              56    2.76 0  260 254 
                                                                                
