 2016 11 5 0907 23.5 L   5.957 -74.229 21.9  RSN  6 0.3 1.6LRSN                1
 GAP=180        0.79       2.5     2.5  3.1 -0.2900E+01 -0.2910E+01 -0.7495E+00E
 Epicentro: LA BELLEZA - SANTANDER                                             3
 ACTION:UPD 17-10-26 21:04 OP:lp   STATUS:               ID:20161105090723 L   I
 OLDACT:DUP 16-11-05 15:26 OP:dnl  STATUS:               ID:20161105085750d    3
 2016-11-05-0858-00M.COL___346                                                 6
 STAT SP IPHASW D HRMM SECON CODA AMPLIT PERI AZIMU VELO AIN AR TRES W  DIS CAZ7
 PTB  HZ EP        9 7 35.01                             105    0.0710 69.1 339 
 PTB  HN ES        9 7 43.90                             105    0.0310 69.1 339 
 NOR  HZ EP        9 7 37.24                             103    0.1910 83.2 238 
 NOR  HN ES        9 7 47.13                             103   -0.5010 83.2 238 
 NOR  HZ I         9 7 48.65        13.0 0.24             47           83.2 238 
 BAR2 EZ EP   2    9 7 44.98                              56    0.55 5  135  59 
 BAR2 EZ ES        9 8  0.48                              56   -0.28 9  135  59 
 BAR2 EZ I         9 8  2.42        23.3 0.46             47            135  59 
 BRR  HZ EP        9 7 44.97                              56    0.33 9  139  24 
 BRR  HN ES        9 8  1.02                              56   -0.11 9  139  24 
 BRR  HZ I         9 8  5.92         7.7 0.40             47            139  24 
 HEL  HZ EP        9 7 46.30                              56    0.36 9  146 280 
 HEL  HN ES        9 8  3.69                              56    0.25 9  146 280 
 HEL  HZ I         9 8  4.51        15.5 0.28             47            146 280 
 ZAR  HZ EP   4    9 7 51.73                              56    1.58 0  183 338 
 ZAR  HE ES        9 8 10.46                              56   -0.49 9  183 338 
 ZAR  HZ I         9 8 17.44         3.3 0.26             37            183 338 
                                                                                
