 2015  3 5 0109  6.1 L   6.791 -73.135150.0  RSN  4 0.3 1.3LRSN                1
 GAP=138        0.71       4.2     4.8  7.7 -0.7786E-01 -0.7803E+01  0.2416E+01E
 Epicentro: LOS SANTOS - SANTANDER                                             3
 ACTION:UPD 15-04-30 16:23 OP:nd   STATUS:               ID:20150305010906 L   I
 OLDACT:REG 15-03-05 13:21 OP:spq  STATUS:               ID:20150305010749     3
 2015-03-05-0107-49M.COL___281                                                 6
 STAT SP IPHASW D HRMM SECON CODA AMPLIT PERI AZIMU VELO AIN AR TRES W  DIS CAZ7
 BRR  HZ EP   1    1 9 27.83                             153    0.09 7 72.7 299 
 BRR  HN ES        1 9 44.97                             153    0.3110 72.7 299 
 BRR  HZ I         1 9 47.75         6.2 0.40            153           72.7 299 
 PAM  SZ EP        1 9 28.90                             152    0.1810 77.4  38 
 PAM  SE ES   1    1 9 45.89                             152   -0.52 7 77.4  38 
 PAM  SZ I         1 9 47.41         3.0 0.36            153           77.4  38 
 RUS  HZ EP        1 9 30.02                             145   -0.1310 99.5 177 
 RUS  HN ES        1 9 49.08                             145    0.1410 99.5 177 
 RUS  HZ I         1 9 49.92         1.7 0.36            147           99.5 177 
 PTB  HE ES   1    1 9 54.28                             133   -0.54 7  149 259 
 PTB  HZ I         1 9 55.85         2.4 0.33            134            149 259 
                                                                                
