 2017  9 5 0406 42.6 L   6.791 -73.132147.2  RSN  5 0.3 1.4LRSN                1
 GAP=139        0.68       3.4     4.7  5.6 -0.5587E+01  0.1943E+01  0.1345E+00E
 Epicentro: LOS SANTOS - SANTANDER                                             3
 ACTION:UPD 17-10-05 19:09 OP:rebc STATUS:               ID:20170905040642 L   I
 OLDACT:DUP 17-09-05 14:05 OP:dnl  STATUS:               ID:20170905035747d    3
 OLDACT:UP  17-09-05 14:04 OP:dnl  STATUS:               ID:20170905035746d    3
 OLDACT:UP  17-09-05 14:04 OP:dnl  STATUS:               ID:20170905035746d    3
 OLDACT:DUP 17-09-05 13:58 OP:dnl  STATUS:               ID:20170905035746d    3
 OLDACT:UP  17-09-05 13:57 OP:dnl  STATUS:               ID:20170905035745     3
 OLDACT:REG 17-09-05 13:15 OP:dnl  STATUS:               ID:20170905035745     3
 2017-09-05-0358-00M.COL___426                                                 6
 STAT SP IPHASW D HRMM SECON CODA AMPLIT PERI AZIMU VELO AIN AR TRES W  DIS CAZ7
 BAR2 EZ EP        4 7  2.15                             171   -0.2410 22.7 194 
 BAR2 EZ ES        4 7 17.39                             171   -0.4410 22.7 194 
 BAR2 EZ I         4 7 19.24         6.2 0.28            169           22.7 194 
 BRR  HZ EP        4 7  3.95                             152   -0.0610 73.0 299 
 BRR  HN ES        4 7 20.99                             152    0.2910 73.0 299 
 BRR  HZ I         4 7 24.21         5.0 0.24            150           73.0 299 
 PAM  EZ EP        4 7  5.16                             151    0.2010 77.2  38 
 PAM  EN ES        4 7 22.36                             151   -0.0310 77.2  38 
 PAM  EZ I         4 7 24.62         3.0 0.38            155           77.2  38 
 RUS  HZ EP   2    4 7  6.16                             144   -0.26 5 99.5 177 
 RUS  HN ES        4 7 25.43                             144    0.4310 99.5 177 
 RUS  HZ I         4 7 26.08         2.3 0.32            146           99.5 177 
 SPBC HZ EP   2    4 7 11.25                             129    0.02 5  163 220 
 SPBC HN ES        4 7 33.45                             129   -0.11 9  163 220 
 SPBC HZ I         4 7 39.39         3.9 0.20            130            163 220 
                                                                                
