 2016 11 5 0553  9.4 L   6.806 -73.200159.2  RSN  4 0.4 1.2LRSN                1
 GAP=277        0.63       7.1    10.3  8.3 -0.8786E+01 -0.2358E+02  0.3177E+02E
 Epicentro: ZAPATOCA - SANTANDER                                               3
 ACTION:UPD 17-10-26 21:04 OP:lp   STATUS:               ID:20161105055309 L   I
 OLDACT:UP  16-11-05 15:51 OP:dani STATUS:               ID:20161105054741     3
 OLDACT:REG 16-11-05 14:06 OP:dani STATUS:               ID:20161105054741     3
 2016-11-05-0548-00M.COL___352                                                 6
 STAT SP IPHASW D HRMM SECON CODA AMPLIT PERI AZIMU VELO AIN AR TRES W  DIS CAZ7
 BRR  HZ EP        553 31.82                             157    0.0810 65.7 300 
 BRR  HN ES        553 49.11                             157   -0.0510 65.7 300 
 BRR  HZ I         553 50.89         2.5 0.13            164           65.7 300 
 PTB  HZ EP        553 36.72                             136   -0.29 9  142 258 
 PTB  HN ES   2    553 57.92                             136   -0.62 5  142 258 
 PTB  HZ I         553 59.36         1.5 0.37            140            142 258 
 SPBC HZ EP        553 38.81                             133    0.12 9  160 217 
 SPBC HN ES   2    554  2.11                             133    0.59 5  160 217 
 SPBC HZ I         554  7.40         1.8 0.07            133            160 217 
 ZAR  HE ES   2    554  8.48                             126    0.73 4  198 293 
                                                                                
