 2011 11 5 0229 32.5 L   6.780 -73.094137.9  RSN  5 0.2 1.6LRSN                1
 GAP=144        0.52       3.8     5.1  6.0  0.4460E+01 -0.1087E+02 -0.5357E+01E
 Epicentro: LOS SANTOS - SANTANDER                                             3
 ACTION:UPD 12-07-13 16:08 OP:ep   STATUS:               ID:20111105022932 L   I
 2011-11-05-0225-53S.COL___173                                                 6
 STAT SP IPHASW D HRMM SECON CODA AMPLIT PERI AZIMU VELO AIN AR TRES W  DIS CAZ7
 BAR2 SZ EP        229 51.10                             170   -0.0410 22.9 205 
 BAR2 SZ ES   2    230  5.23                             170   -0.47 5 22.9 205 
 BAR2 SZ I         230  6.79         5.6 0.38                          22.9 205 
 PAM  SZ EP        229 54.03                             150    0.2910 75.7  35 
 PAM  SN ES   2    230 10.21                             150   -0.13 5 75.7  35 
 BRR  HZ EP        229 52.85                             149   -0.2910 77.3 298 
 BRR  HE ES        230  9.43                             149    0.1710 77.3 298 
 BRR  HZ I         230 14.27        17.4 0.16                          77.3 298 
 RUS  HZ EP   2    229 55.52                             143    0.26 5 98.1 179 
 RUS  HN ES   1    230 13.06                             143    0.01 7 98.1 179 
 RUS  HZ I         230 14.67         5.1 0.41                          98.1 179 
 OCA  SZ EP   2    230  0.20                             127   -0.26 5  163 351 
 OCA  SZ I         230 28.66         5.9 0.49                           163 351 
                                                                                
