 2017  8 5 0149 37.1 L   6.808 -73.128145.1  RSN  9 0.4 1.6LRSN                1
 GAP=138        1.01       4.0     4.1  6.1 -0.2748E+01  0.8050E+01  0.2014E+01E
 Epicentro: LOS SANTOS - SANTANDER                                             3
 ACTION:UPD 17-09-04 20:16 OP:rebc STATUS:               ID:20170805014937 L   I
 OLDACT:REG 17-08-05 12:46 OP:osc  STATUS:               ID:20170805014744     3
 2017-08-05-0148-00M.COL___402                                                 6
 STAT SP IPHASW D HRMM SECON CODA AMPLIT PERI AZIMU VELO AIN AR TRES W  DIS CAZ7
 BAR2 EZ EP     C  149 56.45                             170   -0.2210 24.6 194 
 BAR2 EZ ES        150 12.11                             170    0.1610 24.6 194 
 BAR2 EZ I         150 14.25         8.9 0.46            170           24.6 194 
 BRR  HZ EP        149 58.28                             152    0.0310 72.5 297 
 BRR  HN ES        150 15.16                             152    0.4110 72.5 297 
 PAM  EZ EP        149 59.43                             151    0.3010 75.5  39 
 PAM  EN ES        150 16.36                             151    0.0410 75.5  39 
 PAM  EZ I         150 21.18         4.6 0.24            155           75.5  39 
 RUS  HZ EP        150  0.51                             144   -0.3310  101 177 
 RUS  HN ES        150 19.13                             144   -0.2310  101 177 
 RUS  HZ I         150 21.02         2.1 0.28            147            101 177 
 PTB  HZ EP        150  3.54                             132   -0.66 9  150 259 
 PTB  HN ES        150 24.68                             132   -0.66 9  150 259 
 PTB  HZ I         150 31.92         5.3 0.40            133            150 259 
 SPBC HZ EP        150  5.41                             129   -0.32 9  165 219 
 SPBC HE ES        150 28.73                             129    0.67 9  165 219 
 SPBC HZ I         150 34.83         5.5 0.10            131            165 219 
 ZAR  HZ EP        150 10.06                             122    0.41 8  206 292 
 ZAR  HN ES        150 34.72                             122   -0.32 8  206 292 
 ZAR  HZ I         150 40.84         4.9 0.25            124            206 292 
 NOR  HE ES        150 40.93                             118   -0.09 8  237 235 
 GUY2CHZ EP        150 21.52                             112    0.61 7  303 235 
 GUY2CHE ES        150 55.78                             112    0.70 7  303 235 
 GUY2CHZ I         151  3.00         3.1 0.32                           303 235 
                                                                                
