 2011 12 5 0617 11.1 L   6.774 -73.144139.2  RSN 16 0.4 2.9LRSN                1
 GAP=138        0.82       2.9     4.1  5.1 -0.5160E+01  0.5853E+01  0.3567E+01E
 Epicentro: LOS SANTOS - SANTANDER                                             3
 ACTION:UPD 12-07-13 16:14 OP:ep   STATUS:               ID:20111205061711 L   I
 2011-12-05-0610-00M.COL___183                                                 6
 STAT SP IPHASW D HRMM SECON CODA AMPLIT PERI AZIMU VELO AIN AR TRES W  DIS CAZ7
 BAR2 SZ IP        617 30.14                             171    0.2410 20.6 192 
 BAR2 SZ ES   1    617 44.60                             171    0.05 7 20.6 192 
 BAR2 SZ I         617 47.82       180.8 0.33                          20.6 192 
 GIR2 SZ EP        617 30.15                             165    0.0610 34.1 351 
 GIR2 SZ ES   1    617 44.32                             165   -0.57 7 34.1 351 
 BRR  HZ IP     C  617 31.93                             151    0.2910 72.7 300 
 BRR  HN ES   1    617 48.39                             151    0.73 7 72.7 300 
 BRR  HZ I         617 53.16       203.6 0.08                          72.7 300 
 PAM  SZ EP        617 32.86                             149    0.1010 79.5  38 
 PAM  SE ES        617 49.22                             149   -0.4410 79.5  38 
 RUS  HZ EP        617 34.22                             143    0.2110 97.7 176 
 RUS  HN ES   1    617 51.81                             143   -0.07 7 97.7 176 
 RUS  HZ I         617 54.39       110.1 0.33                          97.7 176 
 BRI  SZ EP   1    617 34.57                             139   -0.02 7  111  20 
 OCA  SZ EP   1    617 39.00                             127   -0.19 7  163 353 
 OCA  SZ ES   1    618  0.65                             127   -0.45 7  163 353 
 OCA  SZ I         618  5.66       113.2 0.25                           163 353 
 CTAU SZ EP   1    617 44.35                             122    0.94 6  200 210 
 CTAU SZ I         618 16.49        63.3 0.52                           200 210 
 NOR  SZ EP   1    617 46.29                             117   -0.01 6  233 235 
 NOR  SN ES   1    618 13.29                             117   -0.46 6  233 235 
 CHI  HZ EP   1    617 48.00                             116   -0.16 6  246 195 
 CHI  HN ES   1    618 16.61                             116   -0.44 6  246 195 
 CHI  HZ I         618 25.38        39.4 0.28                           246 195 
 ROSC BE ES   1    618 18.76                             115    0.88 6  250 211 
 ROSC BZ I         618 26.85        75.1 0.63                           250 211 
 HEL  HZ EP   1    617 51.18                             113    0.24 6  272 256 
 HEL  HN ES   1    618 21.49                             113   -0.51 6  272 256 
 HEL  HZ I         618 28.58        58.8 0.29                           272 256 
 GUY  SN ES        618 28.57                             111    0.20 7  302 236 
 RREF HN ES        618 32.12                             110   -0.28 7  320 230 
 RREF HZ I         618 38.65        30.8 0.29                           320 230 
 PRA  HZ EP   1    618  3.78                             105   -0.35 4  390 210 
 PRA  HE ES        618 44.67                             105   -0.81 6  390 210 
 SJA  SZ EP   2    618  4.27                             105   -0.86 3  397 193 
                                                                                
