 2010  1 5 0332 24.3 L   6.776 -73.245139.1  RSN  5 0.3 1.4LRSN                1
 GAP=164        0.51       4.4    26.6  7.6  0.1926E+02  0.1324E+03  0.5450E+01E
 Epicentro: ZAPATOCA - SANTANDER                                               3
 ACTION:UP  10-08-24 09:42 OP:vdl  STATUS:               ID:20100105033224 L   I
 2010-01-05-0331-43S.COL___097                                                 6
 STAT SP IPHASW D HRMM SECON CODA AMPLIT PERI AZIMU VELO SNR AR TRES W  DIS CAZ7
 BAR2 SZ EP   1    332 43.21                             170     0.2 7   22 162 
 BAR2 SZ ES   2    332 57.26                             170    -0.5 5   22 162 
 GIR2 SZ EP   3    332 43.48                             166     0.3 2   34  10 
 GIR2 SZ ES   2    332 58.44                             166     0.4 5   34  10 
 RUS  BZ EP   1    332 47.35                             142     0.1 7   99 170 
 RUS  BN ES   1    333  5.09                             142    -0.1 7   99 170 
 RUS  BZ I         333  7.26         2.1 0.39                            99 170 
 OCA  SZ EP   2    332 51.64                             128    -0.6 5  162 357 
 OCA  SZ I         333 18.48         7.2 0.28                           162 357 
 CHI  HZ EP   1    333  1.21                             116     0.2 6  243 193 
 CHI  HN ES   3    333 29.19                             116    -0.5 2  243 193 
                                                                                
