 2012  9 5 0747 24.0 L   6.748 -73.161145.4  RSN  7 0.3 2.0LRSN                1
 GAP=137        0.66       4.5     4.1  6.0  0.3342E+01  0.1572E+01 -0.9504E+00E
 Epicentro: LOS SANTOS - SANTANDER                                             3
 ACTION:UPD 12-10-22 14:17 OP:ep   STATUS:               ID:20120905074724 L   I
 2012-09-05-0740-00M.COL___218                                                 6
 STAT SP IPHASW D HRMM SECON CODA AMPLIT PERI AZIMU VELO AIN AR TRES W  DIS CAZ7
 BAR2 SZ EP   1    747 43.38                             173   -0.05 7 17.4 188 
 BAR2 SZ ES   1    747 58.31                             173   -0.31 7 17.4 188 
 BAR2 SZ I         748  0.48        30.1 0.25                          17.4 188 
 GIR2 SZ EP   1    747 43.53                             165   -0.21 7 36.7 354 
 GIR2 SZ ES   1    747 59.07                             165   -0.10 7 36.7 354 
 BRR  HZ EP        747 45.36                             152    0.2210 72.7 303 
 BRR  HZ I         747 45.81        32.1 0.11                          72.7 303 
 BRR  HE ES   1    748  2.42                             152    0.75 7 72.7 303 
 PAM  SZ EP   1    747 46.48                             149    0.02 7 82.9  38 
 PAM  SZ I         747 46.87        18.0 0.37                          82.9  38 
 PAM  SN ES   2    748  3.61                             149   -0.41 5 82.9  38 
 RUS  HZ EP   1    747 47.32                             145    0.05 7 95.0 175 
 RUS  HN ES   1    748  5.68                             145    0.23 7 95.0 175 
 RUS  HZ I         748  6.90         9.2 0.34                          95.0 175 
 PTB  HN ES   1    748 10.97                             132   -0.50 7  145 261 
 ZAR  HN ES   1    748 21.59                             122   -0.20 6  205 294 
                                                                                
