 2013  9 5 0334 23.0 L   6.786 -73.123151.3  RSN  4 0.3 1.3LRSN                1
 GAP=203        0.58       4.6     6.5  6.6  0.1465E+02 -0.1006E+02 -0.6234E+01E
 Epicentro: LOS SANTOS - SANTANDER                                             3
 ACTION:UPD 13-10-22 09:20 OP:ep   STATUS:               ID:20130905033423 L   I
 OLDACT:UP  13-09-05 09:28 OP:cam  STATUS:               ID:20130905032959     3
 OLDACT:REG 13-09-05 08:45 OP:cam  STATUS:               ID:20130905032959     3
 2013-09-05-0329-59M.COL___269                                                 6
 STAT SP IPHASW D HRMM SECON CODA AMPLIT PERI AZIMU VELO AIN AR TRES W  DIS CAZ7
 BRR  HZ EP        334 45.16                             152    0.2110 74.1 299 
 BRR  HN ES        335  1.86                             152   -0.1810 74.1 299 
 BRR  HZ I         335  2.45         4.2 0.46            151           74.1 299 
 RUS  HZ EP   1    334 47.44                             145    0.22 7 98.9 177 
 RUS  HN ES   1    335  5.98                             145   -0.10 7 98.9 177 
 PTB  HZ EP   1    334 50.11                             133   -0.55 7  150 260 
 PTB  HN ES   1    335 12.51                             133    0.32 7  150 260 
 PTB  HZ I         335 13.77         2.4 0.16            131            150 260 
 SML  HZ EP   2    335  0.01                             118   -0.23 4  246 335 
 SML  HN ES   2    335 29.57                             118    0.31 4  246 335 
                                                                                
