 2011  9 5 0520  3.7 L   6.796 -73.126142.8  RSN 10 0.2 1.8LRSN                1
 GAP=185        0.39       2.2     4.1  4.7 -0.1390E+01  0.7209E+01 -0.5674E+00E
 Epicentro: LOS SANTOS - SANTANDER                                             3
 ACTION:UPD 12-07-13 15:55 OP:ep   STATUS:               ID:20110905052003 L   I
 2011-09-05-0517-32S.COL___171                                                 6
 STAT SP IPHASW D HRMM SECON CODA AMPLIT PERI AZIMU VELO AIN AR TRES W  DIS CAZ7
 BAR2 SZ EP   1    520 22.92                             170   -0.03 7 23.4 195 
 BAR2 SZ ES   2    520 37.42                             170   -0.56 5 23.4 195 
 BAR2 SZ I         520 39.21        20.1 0.33                          23.4 195 
 GIR2 SZ EP   1    520 23.00                             167   -0.02 7 32.2 347 
 GIR2 SZ ES   2    520 38.58                             167    0.47 5 32.2 347 
 BRR  HZ IP     D  520 24.82                             151    0.1910 73.3 298 
 BRR  HZ I         520 45.93        15.6 0.17                          73.3 298 
 RUS  HZ EP   2    520 27.07                             143   -0.02 5  100 177 
 RUS  HN ES   2    520 45.19                             143   -0.17 5  100 177 
 RUS  HZ I         520 46.32         6.3 0.25                           100 177 
 OCA  SZ EP   1    520 31.64                             129   -0.19 7  161 352 
 OCA  SZ ES   2    520 53.85                             129    0.07 5  161 352 
 OCA  SZ I         521  0.51         9.2 0.40                           161 352 
 ZAR  HZ EP   2    520 36.01                             121   -0.15 4  206 292 
 ZAR  HN ES   2    521  1.18                             121   -0.31 4  206 292 
 ZAR  HZ I         521  7.52         6.4 0.42                           206 292 
 NOR  SN ES   2    521  7.46                             118    0.20 4  236 235 
 CHI  HN ES   2    521 10.89                             116    0.37 4  249 196 
 CHI  HZ I         521 18.12         3.0 0.42                           249 196 
 RREF HN ES   2    521 25.88                             110    0.02 3  323 230 
 RREF HZ I         521 36.02         3.9 0.35                           323 230 
 PRA  HZ EP   2    520 57.14                             106   -0.04 3  393 210 
 PRA  HE ES   2    521 38.57                             106   -0.33 3  393 210 
                                                                                
