 2015  5 5 0808 33.3 L   6.808 -73.118141.7  RSN  8 0.4 1.4LRSN                1
 GAP=203        0.87       3.2     4.7  6.4  0.4853E+01  0.6164E+01  0.2168E+00E
 Epicentro: LOS SANTOS - SANTANDER                                             3
 ACTION:UPD 15-09-10 22:01 OP:cam  STATUS:               ID:20150505080833 L   I
 OLDACT:UP  15-05-05 14:53 OP:ar   STATUS:               ID:20150505080736     3
 OLDACT:UP  15-05-05 14:35 OP:ar   STATUS:               ID:20150505080736     3
 OLDACT:REG 15-05-05 13:35 OP:drio STATUS:               ID:20150505080736     3
 2015-05-05-0807-36M.COL___271                                                 6
 STAT SP IPHASW D HRMM SECON CODA AMPLIT PERI AZIMU VELO AIN AR TRES W  DIS CAZ7
 BAR2 EZ EP        8 8 52.58                             170    0.0810 24.9 196 
 BAR2 EZ I         8 9  8.97         7.4 0.40            170           24.9 196 
 BRR  HZ IP     C  8 8 54.51                             151    0.3510 73.5 297 
 BRR  HN ES        8 9 10.30                             151   -0.1210 73.5 297 
 RUS  HZ EP        8 8 56.85                             143    0.1210  101 178 
 RUS  HN ES        8 9 15.11                             143    0.1210  101 178 
 RUS  HZ I         8 9 15.89         4.0 0.26            143            101 178 
 ZAR  HZ EP        8 9  6.37                             121    0.61 8  207 292 
 ZAR  HN ES        8 9 31.21                             121    0.15 8  207 292 
 ZAR  HZ I         8 9 37.08         5.3 0.28            122            207 292 
 SML  HZ EP        8 9  9.19                             116   -0.58 8  244 335 
 SML  HE ES        8 9 37.77                             116   -0.44 8  244 335 
 CHI  HZ EP        8 9 10.98                             116   -0.00 8  250 196 
 CHI  HN ES        8 9 39.60                             116   -0.75 8  250 196 
 CHI  HZ I         8 9 43.80         1.1 0.34            117            250 196 
 HEL  HZ EP        8 9 13.91                             114    0.23 8  275 256 
 HEL  HE ES        8 9 44.62                             114   -0.54 8  275 256 
 HEL  HZ I         8 9 54.20         1.3 0.44            114            275 256 
 CBOC HN ES        8 9 57.62                             109    0.44 7  337 252 
 MON  HZ EP   4    8 9 18.92                             108   -3.46 0  355 308 
 MON  HN ES   4    8 9 58.81                             108   -1.83 0  355 308 
                                                                                
