 2013  2 5 0037 10.5 L   6.776 -73.156146.6  RSN  5 0.3 1.8LRSN                1
 GAP=136        0.61       3.1     3.7  5.6 -0.9412E+00  0.2395E+01  0.5822E+01E
 Epicentro: LOS SANTOS - SANTANDER                                             3
 ACTION:UPD 13-03-12 09:30 OP:ep   STATUS:               ID:20130205003710 L   I
 2013-02-05-0030-00M.COL___240                                                 6
 STAT SP IPHASW D HRMM SECON CODA AMPLIT PERI AZIMU VELO AIN AR TRES W  DIS CAZ7
 BRR  HZ EP   1    037 31.99                             153    0.28 7 71.5 301 
 BRR  HN ES        037 48.62                             153    0.3310 71.5 301 
 BRR  HN I         037 49.64        14.7 0.28            151           71.5 301 
 PAM  SZ EP   1    037 32.95                             150    0.03 7 80.2  39 
 PAM  SN ES        037 50.26                             150   -0.1810 80.2  39 
 PAM  SN I         037 51.01         7.4 0.48            153           80.2  39 
 RUS  HZ EP   1    037 34.15                             145    0.05 7 98.0 175 
 RUS  HN ES        037 52.46                             145   -0.0810 98.0 175 
 PTB  HZ EP   1    037 37.10                             132   -0.24 7  146 260 
 PTB  HN ES   1    037 57.73                             132   -0.58 7  146 260 
 PTB  HN I         038  3.51        10.3 0.30            131            146 260 
 CHI  HZ EP   1    037 47.82                             118   -0.06 6  246 195 
 CHI  HN ES   1    038 17.49                             118    0.41 6  246 195 
 CHI  HN I         038 19.83         3.5 0.32            118            246 195 
                                                                                
