 2016  8 5 0138 44.0 L   6.776 -73.097151.8  RSN  9 0.3 1.6LRSN                1
 GAP=144        0.53       2.1     2.6  3.3 -0.4993E+00  0.2672E+01  0.1110E+01E
 Epicentro: LOS SANTOS - SANTANDER                                             3
 ACTION:UPD 16-10-29 15:32 OP:rebc STATUS:               ID:20160805013844 L   I
 OLDACT:REG 16-08-05 12:49 OP:edw  STATUS:               ID:20160805013739     3
 2016-08-05-0138-00M.COL___350                                                 6
 STAT SP IPHASW D HRMM SECON CODA AMPLIT PERI AZIMU VELO AIN AR TRES W  DIS CAZ7
 BAR2 EZ EP        139  4.13                             171   -0.1610 22.4 205 
 BAR2 EZ ES        139 20.31                             171    0.1510 22.4 205 
 BAR2 EZ I         139 20.78         6.5 0.24                          22.4 205 
 PAM  EZ EP        139  6.88                             152    0.1310 76.2  35 
 PAM  EE ES        139 24.19                             152   -0.3310 76.2  35 
 PAM  EZ I         139 26.23        12.8 0.54                          76.2  35 
 BRR  HZ EP        139  6.19                             152    0.1010 77.2 298 
 BRR  HE ES        139 23.46                             152    0.1010 77.2 298 
 RUS  HZ EP        139  8.14                             146    0.0310 97.8 179 
 RUS  HN ES        139 26.95                             146    0.0010 97.8 179 
 RUS  HZ I         139 28.44         2.3 0.20                          97.8 179 
 SPBC HZ EP        139 13.18                             130    0.12 9  165 221 
 SPBC HN ES        139 35.67                             130   -0.09 9  165 221 
 SPBC HZ I         139 41.01         8.2 0.38                           165 221 
 ZAR  HZ EP        139 17.49                             123    0.09 8  210 292 
 ZAR  HE ES        139 43.49                             123   -0.01 8  210 292 
 ZAR  HZ I         139 48.98         4.2 0.44                           210 292 
 NOR  HZ EP   2    139 19.44                             119   -0.91 4  238 236 
 NOR  HE ES   2    139 48.86                             119    0.12 4  238 236 
 NOR  HZ I         139 56.84         2.4 0.14                           238 236 
 GUY2CHZ EP   2    139 27.13                             113   -1.04 4  304 236 
 GUY2CHN ES   2    140  2.39                             113   -0.28 4  304 236 
 GUY2CHZ I         140 11.25         1.5 0.34                           304 236 
 PRA  HZ EP        139 38.33                             107    0.59 6  392 210 
 PRA  HE ES        140 19.64                             107   -0.05 6  392 210 
 SJC  HZ EP   4    139 38.59                             106   -1.73 0  414 327 
 SJC  HN ES   4    140 19.86                             106   -4.42 0  414 327 
                                                                                
