 2011  4 5 0548 10.8 L   6.757 -73.098147.6  RSN 10 0.3 2.3LRSN                1
 GAP=205        0.60       3.4     5.9  5.9 -0.4021E+01  0.4063E+01  0.6155E+01E
 Epicentro: LOS SANTOS - SANTANDER                                             3
 ACTION:UP  11-06-22 15:28 OP:REBC STATUS:               ID:20110405054810 L   I
 2011-04-05-0543-17S.COL___122                                                 6
 STAT SP IPHASW D HRMM SECON CODA AMPLIT PERI AZIMU VELO SNR AR TRES W  DIS CAZ7
 BAR2 SZ EP        548 30.73                             172     0.110   20 207 
 BAR2 SZ I         548 31.10        34.7 0.07                            20 207 
 BAR2 SZ ES   2    548 45.27                             172    -0.8 5   20 207 
 GIR2 SZ EP   1    548 30.97                             165     0.1 7   37 344 
 BRR  HZ EP        548 32.59                             150     0.010   78 300 
 BRR  HE ES   1    548 49.90                             150     0.4 7   78 300 
 BRR  HZ I         548 51.87        46.1 0.21                            78 300 
 OCA  SZ EP   1    548 39.41                             129    -0.3 7  166 352 
 OCA  SZ ES   2    549  2.14                             129    -0.2 5  166 352 
 OCA  SZ I         549  9.05        18.4 0.17                           166 352 
 NOR  SZ EP   2    548 46.49                             119    -0.3 4  236 236 
 CHI  HZ EP   1    548 48.68                             118     0.4 6  245 197 
 CHI  HN ES   1    549 17.17                             118    -0.3 6  245 197 
 CHI  HZ I         549 26.60         9.9 0.56                           245 197 
 HEL  HZ EP   1    548 51.70                             115     0.2 6  276 257 
 HEL  HN ES   2    549 22.84                             115    -0.5 4  276 257 
 HEL  HZ I         549 29.09         9.9 0.28                           276 257 
 RREF HZ EP   2    548 57.52                             111     0.4 3  323 231 
 RREF HN ES   2    549 33.03                             111    -0.2 3  323 231 
 RREF HZ I         549 42.50        13.6 0.36                           323 231 
 DBB  SZ EP   2    548 58.60                             109    -0.4 3  345 275 
 PRA  HZ EP   2    549  3.66                             107    -0.5 3  391 211 
 PRA  HN ES   2    549 46.23                             107     0.4 3  391 211 
                                                                                
