 2012 12 5 0404 56.8 L   6.801 -73.164148.6  RSN 12 0.5 2.3LRSN                1
 GAP= 70        0.91       3.5     3.4  6.1 -0.5455E+00  0.4902E+01  0.1958E+01E
 Epicentro: LOS SANTOS - SANTANDER                                             3
 ACTION:UPD 13-01-04 14:25 OP:ep   STATUS:               ID:20121205040456 L   I
 2012-12-05-0400-00M.COL___236                                                 6
 STAT SP IPHASW D HRMM SECON CODA AMPLIT PERI AZIMU VELO AIN AR TRES W  DIS CAZ7
 BAR2 SZ EP   1    4 5 16.81                             171    0.00 8 23.1 185 
 BAR2 SZ ES   1    4 5 32.29                             171   -0.10 8 23.1 185 
 BAR2 SZ I         4 5 33.76        90.0 0.42                          23.1 185 
 GIR2 SZ EP   1    4 5 16.94                             168    0.10 8 30.9 354 
 GIR2 SZ ES   1    4 5 33.15                             168    0.70 8 30.9 354 
 GIR2 SZ I         4 5 34.12        24.0 0.14                          30.9 354 
 PAM  SZ EP   1    4 5 19.65                             151    0.22 8 78.6  41 
 PAM  SN ES   1    4 5 36.97                             151   -0.08 8 78.6  41 
 PAM  SZ I         4 5 39.19        30.8 0.48                          78.6  41 
 RUS  HZ EP   1    4 5 20.70                             144   -0.19 8  101 175 
 RUS  HN ES   1    4 5 39.37                             144   -0.28 8  101 175 
 RUS  HZ I         4 5 41.16        25.2 0.40                           101 175 
 PTB  HZ EP   1    4 5 23.37                             133   -0.50 8  146 259 
 PTB  HN ES   1    4 5 44.86                             133   -0.09 8  146 259 
 PTB  HZ I         4 5 46.92        36.0 0.38                           146 259 
 TAM  HZ IP     D  4 5 24.99                             131    0.0710  157 105 
 TAM  HZ I         4 5 45.70         9.8 0.34                           157 105 
 TAM  HN ES   1    4 5 46.70                             131   -0.13 7  157 105 
 ZAR  HZ EP   1    4 5 30.50                             123    1.22 7  202 292 
 ZAR  HN ES   1    4 5 55.20                             123    0.61 7  202 292 
 ZAR  HZ I         4 6  1.75        33.1 0.34                           202 292 
 NOR  HZ EP   1    4 5 32.42                             119   -0.15 7  233 234 
 NOR  HN ES   1    4 5 59.45                             119   -0.99 7  233 234 
 NOR  HZ I         4 6  8.68        17.8 0.24                           233 234 
 SML  HZ EP   1    4 5 33.17                             118   -0.36 7  243 336 
 SML  HN ES   1    4 6  0.95                             118   -1.20 7  243 336 
 SML  HZ I         4 6  4.71        30.9 0.10                           243 336 
 CHI  HZ EP   1    4 5 35.00                             118    0.35 6  248 195 
 CHI  HN ES   1    4 6  3.83                             118   -0.31 6  248 195 
 CHI  HZ I         4 6  9.31         5.1 0.58                           248 195 
 ROSC BZ EP   2    4 5 35.44                             117    0.42 4  252 211 
 ROSC BN ES   1    4 6  5.54                             117    0.75 6  252 211 
 HEL  HZ EP   4    4 5 38.56                             116    1.57 0  270 256 
 HEL  HN ES   1    4 6  8.27                             116   -0.04 6  270 256 
 HEL  HZ I         4 6 15.84        10.2 0.58                           270 256 
                                                                                
