 2012 10 5 0732 19.8 L   6.779 -73.110144.9  RSN  9 0.3 2.0LRSN                1
 GAP=142        0.47       3.0     4.1  4.7  0.6283E+00  0.3776E+01  0.3485E+01E
 Epicentro: LOS SANTOS - SANTANDER                                             3
 XNEAR  100.0 XFAR  800.0 SDEP 100.0                                           3
 ACTION:UP  12-11-22 17:02 OP:ep   STATUS:               ID:20121005073219 L   I
 2012-10-05-0730-00M.COL___222                                                 6
 STAT SP IPHASW D HRMM SECON CODA AMPLIT PERI AZIMU VELO AIN AR TRES W  DIS CAZ7
 BAR2 SZ EP   1    732 39.24                             171   -0.03 7 22.1 201 
 BAR2 SZ ES   2    732 54.20                             171   -0.28 5 22.1 201 
 GIR2 SZ EP   1    732 39.33                             166   -0.10 7 34.5 345 
 GIR2 SZ ES   2    732 54.74                             166   -0.03 5 34.5 345 
 BRR  HZ EP   1    732 41.12                             151    0.03 7 75.8 299 
 BRR  HE ES   2    732 58.37                             151    0.65 5 75.8 299 
 BRR  HZ I         733  2.29        27.2 0.08                          75.8 299 
 PAM  SZ EP   1    732 42.18                             150    0.32 7 76.9  36 
 PAM  SN I         733  0.39        17.9 0.25                          76.9  36 
 RUS  HZ EP   1    732 43.14                             144   -0.11 7 98.0 178 
 RUS  HN ES   2    733  1.31                             144   -0.26 5 98.0 178 
 RUS  HN I         733  2.62         8.6 0.24                          98.0 178 
 ZAR  HZ EP   1    732 52.72                             121    0.10 6  209 292 
 ZAR  HN ES   2    733 17.63                             121   -0.62 4  209 292 
 ZAR  HN I         733 23.04        21.9 0.16                           209 292 
 NOR  SN ES   2    733 23.37                             118   -0.26 4  237 235 
 CHI  HZ EP   1    732 57.19                             117   -0.09 6  247 196 
 CHI  HN ES   2    733 26.85                             117    0.30 4  247 196 
 CHI  HZ I         733 29.80         3.4 0.27                           247 196 
 PRA  HZ EP   1    733 12.89                             106   -0.35 4  392 210 
 PRA  HN ES   2    733 55.91                             106    0.95 3  392 210 
 PRA  HN I         734  1.27         3.8 0.32                           392 210 
                                                                                
