 2014  8 5 0440  0.5 L   6.691 -73.138136.6  RSN  5 0.4 1.0LRSN                1
 GAP=230        0.92       4.9     5.7  7.1  0.8238E+01  0.6353E+01  0.4233E+00E
 Epicentro: VILLANUEVA - SANTANDER                                             3
 ACTION:UPD 14-09-15 21:47 OP:nd   STATUS:               ID:20140805044000 L   I
 OLDACT:REG 14-08-05 13:06 OP:spq  STATUS:               ID:20140805043805     3
 2014-08-05-0438-05M.COL___244                                                 6
 STAT SP IPHASW D HRMM SECON CODA AMPLIT PERI AZIMU VELO AIN AR TRES W  DIS CAZ7
 BAR2 SZ EP        440 18.97                             175    0.1410 12.0 204 
 BAR2 SZ ES   1    440 33.36                             175    0.22 7 12.0 204 
 BAR2 SZ I         440 35.60         3.2 0.13            169           12.0 204 
 BRR  HZ EP     C  440 20.86                             148   -0.2410 78.4 306 
 BRR  HN ES        440 37.27                             148    0.1010 78.4 306 
 BRR  HZ I         440 41.14         2.6 0.38            147           78.4 306 
 RUS  HZ EP        440 23.17                             145    0.7010 88.5 176 
 RUS  HN ES   1    440 39.20                             145   -0.42 7 88.5 176 
 RUS  HN IS        440 39.20                             145   -0.4210 88.5 176 
 RUS  HZ I         440 42.57         0.8 0.34            147           88.5 176 
 PTB  HZ EP        440 26.08                             130   -0.55 9  147 264 
 PTB  HN ES        440 47.07                             130    0.05 9  147 264 
 PTB  HZ I         440 54.20         1.5 0.32            130            147 264 
 SPBC HZ EP        440 27.42                             128   -0.05 9  155 222 
 SPBC HN ES        440 48.88                             128    0.37 9  155 222 
 SPBC HZ I         440 53.48         1.9 0.22            129            155 222 
                                                                                
