 2011  9 5 0936  5.0 L   6.807 -73.060150.7  RSN 13 0.3 2.4LRSN                1
 GAP=188        0.48       2.2     3.8  4.2 -0.9608E+00  0.3907E+01  0.7180E+00E
 Epicentro: LOS SANTOS - SANTANDER                                             3
 ACTION:UPD 12-07-13 15:55 OP:ep   STATUS:               ID:20110905093605 L   I
 2011-09-05-0931-48S.COL___171                                                 6
 STAT SP IPHASW D HRMM SECON CODA AMPLIT PERI AZIMU VELO AIN AR TRES W  DIS CAZ7
 BAR2 SZ IP        936 25.32                             169    0.0510 27.4 210 
 BAR2 SZ ES   2    936 40.64                             169   -0.47 5 27.4 210 
 BAR2 SZ I         936 42.43        51.6 0.30                          27.4 210 
 GIR2 SZ EP   1    936 25.37                             167    0.10 7 33.5 334 
 GIR2 SZ ES   2    936 41.54                             167    0.42 5 33.5 334 
 BRR  HZ IP     C  936 27.26                             151    0.1510 79.3 295 
 BRR  HZ I         936 28.82        49.2 0.10                          79.3 295 
 BRR  HE ES   2    936 44.80                             151    0.42 5 79.3 295 
 RUS  HZ EP   1    936 29.16                             145   -0.08 7  101 181 
 RUS  HE ES   2    936 48.08                             145   -0.10 5  101 181 
 RUS  HZ I         936 49.67        25.5 0.28                           101 181 
 OCA  SZ EP   1    936 34.06                             131    0.35 7  161 350 
 OCA  SZ ES   2    936 55.44                             131   -0.70 5  161 350 
 OCA  SZ I         937  0.32        22.7 0.52                           161 350 
 ZAR  HZ EP   1    936 37.96                             122   -0.64 6  213 291 
 ZAR  HN ES   2    937  4.43                             122   -0.42 4  213 291 
 ZAR  HZ I         937  9.76        31.4 0.53                           213 291 
 NOR  SZ EP   2    936 41.99                             119    0.13 4  243 236 
 NOR  SE ES   2    937 10.36                             119   -0.28 4  243 236 
 CHI  HZ EP   1    936 43.10                             118   -0.20 6  252 197 
 CHI  HN ES   2    937 13.14                             118   -0.07 4  252 197 
 CHI  HZ I         937 20.88        10.5 0.57                           252 197 
 ROSC BZ EP   2    936 43.75                             117   -0.22 4  258 213 
 ROSC BN ES   2    937 14.15                             117   -0.25 4  258 213 
 ROSC BZ I         937 19.03        22.1 0.35                           258 213 
 HEL  HZ EP   1    936 46.98                             115    0.52 6  281 256 
 HEL  HN ES   2    937 19.11                             115    0.27 4  281 256 
 HEL  HZ I         937 24.34        12.5 0.59                           281 256 
 RREF HN ES   2    937 29.26                             111    0.21 3  330 230 
 RREF HZ I         937 36.57        11.5 0.65                           330 230 
 COD  HZ EP   2    936 53.34                             110   -0.22 3  348 353 
 COD  HN ES   2    937 31.26                             110   -0.20 3  348 353 
 COD  HZ I         937 40.51        24.8 1.09                           348 353 
 PRA  HZ EP   2    936 59.33                             107    0.04 3  397 211 
 PRA  HN ES   2    937 41.90                             107    0.23 3  397 211 
                                                                                
