 2016  6 5 0632 27.0 L   6.800 -73.140146.1  RSN  8 0.4 2.1LRSN                1
 GAP=137        0.95       3.3     4.4  5.7 -0.5124E+01  0.5163E+01  0.1697E+00E
 Epicentro: LOS SANTOS - SANTANDER                                             3
 ACTION:UPD 16-07-21 22:15 OP:rebc STATUS:               ID:20160605063227 L   I
 OLDACT:DUP 16-06-05 18:57 OP:edw  STATUS:               ID:20160605062743d    3
 OLDACT:REG 16-06-05 13:10 OP:edw  STATUS:               ID:20160605062742     3
 2016-06-05-0627-42M.COL___322                                                 6
 STAT SP IPHASW D HRMM SECON CODA AMPLIT PERI AZIMU VELO AIN AR TRES W  DIS CAZ7
 BAR2 EZ EP     D  632 46.60                             170   -0.0610 23.5 191 
 BAR2 EZ ES        633  1.73                             170   -0.2710 23.5 191 
 BAR2 EZ I         633  4.49        20.3 0.38                          23.5 191 
 BRR  HZ EP        632 48.44                             152    0.2410 71.7 298 
 BRR  HE ES        633  5.11                             152    0.3710 71.7 298 
 BRR  HZ I         633  8.96         9.3 0.18                          71.7 298 
 PAM  EZ EP        632 49.35                             151    0.1410 77.0  39 
 PAM  EE ES        633  6.42                             151   -0.1310 77.0  39 
 PAM  EZ I         633  8.98        24.4 0.62                          77.0  39 
 RUS  HZ EP        632 50.58                             144   -0.1910  101 176 
 RUS  HN ES        633  9.57                             144    0.2510  101 176 
 RUS  HZ I         633 12.14        13.0 0.28                           101 176 
 PTB  HZ EP        632 53.56                             132   -0.47 9  148 259 
 PTB  HN ES        633 14.54                             132   -0.59 9  148 259 
 PTB  HZ I         633 22.09        13.3 0.30                           148 259 
 OCA  HZ EP        632 55.81                             130    0.48 9  160 353 
 OCA  HE ES        633 17.26                             130   -0.17 9  160 353 
 OCA  HZ I         633 20.56        29.7 0.24                           160 353 
 SPBC HZ EP        632 55.63                             129    0.08 9  164 219 
 SPBC HN ES        633 17.78                             129   -0.04 9  164 219 
 SPBC HZ I         633 20.33        31.4 0.36                           164 219 
 NOR  HZ EP        633  2.25                             118   -0.54 8  235 235 
 NOR  HN ES        633 31.67                             118    0.96 8  235 235 
 NOR  HZ I         633 37.47         9.7 0.24                           235 235 
                                                                                
