 2013 10 5 0428 31.4 L   6.787 -73.182150.5  RSN  6 0.3 1.6LRSN                1
 GAP=197        0.82       3.3     5.1  5.5  0.3341E+01  0.1527E+01 -0.3854E+01E
 Epicentro: LOS SANTOS - SANTANDER                                             3
 ACTION:UPD 13-11-25 09:19 OP:ep   STATUS:               ID:20131005042831 L   I
 OLDACT:REG 13-10-05 08:39 OP:nd   STATUS:               ID:20131005041959     3
 2013-10-05-0419-59M.COL___273                                                 6
 STAT SP IPHASW D HRMM SECON CODA AMPLIT PERI AZIMU VELO AIN AR TRES W  DIS CAZ7
 BAR2 SZ EP        428 51.31                             172   -0.2610 21.5 180 
 BAR2 SZ ES        429  7.26                             172   -0.0410 21.5 180 
 BAR2 SZ I         429  9.39        11.3 0.34            172           21.5 180 
 BRR  HZ EP        428 53.36                             154    0.4510 68.4 301 
 BRR  HN ES        429 10.13                             154    0.4310 68.4 301 
 BRR  HZ I         429 16.01         4.1 0.12            153           68.4 301 
 RUS  HZ EP        428 55.58                             145    0.0410 99.5 174 
 RUS  HN ES        429 14.07                             145   -0.3110 99.5 174 
 RUS  HZ I         429 15.75         3.4 0.40            148           99.5 174 
 PTB  HZ EP        428 58.16                             134   -0.22 9  144 259 
 PTB  HN ES        429 18.96                             134   -0.47 9  144 259 
 PTB  HZ I         429 21.70         5.0 0.14            135            144 259 
 SPBC HZ EP        429  0.41                             131    0.48 9  160 218 
 SPBC HN ES        429 22.35                             131    0.17 9  160 218 
 SPBC HZ I         429 27.41         6.2 0.26            133            160 218 
 SML  HZ EP        429  8.10                             118   -0.16 8  243 336 
 SML  HN ES        429 36.78                             118   -0.23 8  243 336 
 SML  HZ I         429 39.93         4.2 0.22            121            243 336 
                                                                                
