 2011 10 5 0310  4.5 L   6.826 -72.995130.3  RSN  4 0.4 1.2LRSN                1
 GAP=189        0.58      12.2     6.9 10.3 -0.1930E+02 -0.1618E+02 -0.2088E+02E
 Epicentro: CEPITA - SANTANDER                                                 3
 ACTION:UPD 12-07-13 16:02 OP:ep   STATUS:               ID:20111005031004 L   I
 2011-10-05-0300-00M.COL___172                                                 6
 STAT SP IPHASW D HRMM SECON CODA AMPLIT PERI AZIMU VELO AIN AR TRES W  DIS CAZ7
 BAR2 SZ ES   2    310 36.54                             165   -0.07 5 33.2 219 
 BAR2 SZ I         310 38.70         2.9 0.39                          33.2 219 
 GIR2 SZ ES   3    310 37.10                             164    0.61 2 35.5 322 
 PAM  SZ EP   1    310 24.72                             152    0.36 7 65.4  30 
 PAM  SE ES   2    310 39.32                             152   -0.53 5 65.4  30 
 BRR  HZ EP   2    310 24.38                             144   -0.54 5 85.1 291 
 BRR  HZ I         310 40.82         3.9 0.30                          85.1 291 
 BRR  HN ES   1    310 40.93                             144    0.08 7 85.1 291 
                                                                                
