 2011 10 5 0305 53.0 L   6.762 -73.102144.0  RSN  6 0.3 1.2LRSN                1
 GAP=144        0.48       3.4     4.4  5.0 -0.5978E+01  0.3372E+01  0.1139E+01E
 Epicentro: LOS SANTOS - SANTANDER                                             3
 ACTION:UPD 12-07-13 16:02 OP:ep   STATUS:               ID:20111005030553 L   I
 2011-10-05-0300-00M.COL___172                                                 6
 STAT SP IPHASW D HRMM SECON CODA AMPLIT PERI AZIMU VELO AIN AR TRES W  DIS CAZ7
 BAR2 SZ EP   1    3 6 12.28                             171   -0.07 7 20.7 205 
 BAR2 SZ ES   1    3 6 27.01                             171   -0.44 7 20.7 205 
 BAR2 SZ I         3 6 28.33         4.9 0.21                          20.7 205 
 GIR2 SZ EP   1    3 6 12.61                             165    0.02 7 36.5 344 
 GIR2 SZ ES   2    3 6 28.52                             165    0.63 5 36.5 344 
 BRR  HZ EP   2    3 6 13.94                             150   -0.37 5 77.5 300 
 BRR  HZ I         3 6 14.23         6.4 0.21                          77.5 300 
 BRR  HE ES   2    3 6 30.98                             150    0.04 5 77.5 300 
 PAM  SZ EP   1    3 6 15.23                             150    0.20 7 77.9  35 
 PAM  SE ES   1    3 6 32.14                             150   -0.10 7 77.9  35 
 PAM  SZ I         3 6 34.54         1.6 0.54                          77.9  35 
 RUS  HZ EP   1    3 6 16.33                             144    0.09 7 96.1 179 
 RUS  HN ES   1    3 6 34.48                             144    0.10 7 96.1 179 
 RUS  HZ I         3 6 36.40         2.5 0.25                          96.1 179 
 NOR  SN ES   1    3 6 56.79                             118    0.10 6  236 236 
                                                                                
