 2012 10 5 0501 34.8 L   6.751 -73.132147.0  RSN  5 0.3 1.7LRSN                1
 GAP=140        0.49       3.4     3.9  5.4  0.2059E+01  0.4258E+01 -0.1303E+01E
 Epicentro: LOS SANTOS - SANTANDER                                             3
 ACTION:UPD 12-11-22 17:02 OP:ep   STATUS:               ID:20121005050135dL   I
 2012-10-05-0500-00M.COL___222                                                 6
 STAT SP IPHASW D HRMM SECON CODA AMPLIT PERI AZIMU VELO AIN AR TRES W  DIS CAZ7
 BAR2 SZ EP   1    5 1 54.51                             173   -0.03 7 18.4 198 
 BAR2 SZ ES   1    5 2  9.70                             173   -0.21 7 18.4 198 
 BAR2 SZ I         5 2 10.48        16.5 0.22                          18.4 198 
 BRR  HZ EP   1    5 1 56.33                             151   -0.04 7 75.2 302 
 BRR  HZ I         5 1 56.88         7.1 0.10                          75.2 302 
 BRR  HN ES   2    5 2 13.87                             151    0.72 5 75.2 302 
 PAM  SZ EP   1    5 1 57.65                             150    0.25 7 80.7  36 
 PAM  SE I         5 1 58.52        11.2 0.36                          80.7  36 
 PAM  SE ES   1    5 2 14.83                             150   -0.16 7 80.7  36 
 RUS  HZ EP   1    5 1 58.30                             146   -0.04 7 95.1 177 
 RUS  HE ES   1    5 2 16.75                             146    0.09 7 95.1 177 
 RUS  HE I         5 2 17.62         8.1 0.48                          95.1 177 
 ZAR  HN ES   1    5 2 33.13                             122   -0.26 6  208 293 
 ZAR  HZ I         5 2 35.41         5.3 0.18                           208 293 
                                                                                
