 2012  2 5 0015 39.0 L   6.821 -73.167139.7  RSN 10 0.4 1.7LRSN                1
 GAP=133        0.83       4.3     4.3  7.7 -0.1969E+01  0.1185E+02  0.5138E+01E
 ACTION:UP  12-03-07 16:27 OP:epov STATUS:               ID:20120205001539 L   I
 2012-02-05-0010-00M.COL___188                                                 6
 STAT SP IPHASW D HRMM SECON CODA AMPLIT PERI AZIMU VELO SNR AR TRES W  DIS CAZ7
 BAR2 SZ EP   1    015 57.72                             169   -0.22 7 25.3 184 
 BAR2 SZ ES   1    016 12.39                             169   -0.33 7 25.3 184 
 BAR2 SZ I         016 15.50        12.6 0.21                          25.3 184 
 GIR2 SZ EP   1    015 56.96                             168   -0.92 7 28.7 354 
 BRR  HZ EP   1    016  0.15                             152    0.84 7 68.0 298 
 BRR  HZ I         016 20.37        15.2 0.22                          68.0 298 
 PAM  SZ EP   1    016  0.71                             150    0.15 7 77.2  42 
 PAM  SN ES   1    016 17.89                             150    0.51 7 77.2  42 
 PAM  SZ I         016 20.11         9.5 0.39                          77.2  42 
 RUS  HZ EP   1    016  2.14                             142   -0.20 7  103 175 
 RUS  HN ES   1    016 20.80                             142    0.25 7  103 175 
 RUS  HZ I         016 22.36        11.1 0.41                           103 175 
 PTB  HZ EP   2    016  4.96                             131   -0.35 5  146 258 
 PTB  HN ES   1    016 25.46                             131   -0.37 7  146 258 
 PTB  HZ I         016 27.77                                            146 258 
 ZAR  HN ES   1    016 35.24                             121   -0.25 6  201 292 
 ZAR  HZ I         016 44.89         5.1 0.13                           201 292 
 NOR  SZ EP   1    016 14.41                             117    0.09 6  234 234 
 NOR  SN ES   1    016 42.21                             117    0.34 6  234 234 
 CHI  HZ EP   1    016 16.41                             116   -0.13 6  250 195 
 CHI  HZ I         016 18.87         3.0 0.26                           250 195 
 CHI  HN ES   1    016 45.91                             116    0.08 6  250 195 
 HEL  HN ES   1    016 50.23                             114    0.53 6  270 255 
                                                                                
