 2013  6 5 0704 40.2 L   6.804 -73.120146.0  RSN  5 0.5 1.7LRSN                1
 GAP=204        0.93       7.6     8.8 10.3 -0.1473E+02  0.1211E+02  0.2982E+01E
 Epicentro: LOS SANTOS - SANTANDER                                             3
 ACTION:UPD 14-01-08 09:52 OP:ep   STATUS:               ID:20130605070440 L   I
 2013-06-05-0700-00M.COL___257                                                 6
 STAT SP IPHASW D HRMM SECON CODA AMPLIT PERI AZIMU VELO AIN AR TRES W  DIS CAZ7
 BAR2 SZ EP   1    7 5  0.16                             170    0.32 7 24.4 196 
 BAR2 SZ ES   1    7 5 14.62                             170   -0.57 7 24.4 196 
 BAR2 SZ I         7 5 16.80         5.0 0.20            172           24.4 196 
 BRR  HZ EP   1    7 5  2.12                             152    0.66 7 73.5 297 
 BRR  HN ES        7 5 18.48                             152    0.4010 73.5 297 
 BRR  HN I         7 5 22.65        14.0 0.16            150           73.5 297 
 PTB  HZ EP   1    7 5  6.92                             131   -0.49 7  151 259 
 PTB  HN ES   1    7 5 28.59                             131   -0.07 7  151 259 
 PTB  HZ I         7 5 31.54         2.2 0.40            133            151 259 
 OCA  HN ES   1    7 5 29.98                             130   -0.59 7  160 352 
 OCA  HN I         7 5 34.21        16.9 0.22            131            160 352 
 HEL  HE ES   2    7 5 51.74                             114   -0.58 4  275 256 
                                                                                
