 2011  1 5 0330  1.6 L   6.814 -73.181134.7  RSN  9 0.4 1.6LRSN                1
 GAP=133        0.72       2.8     6.4  8.0 -0.6579E+01  0.2165E+02 -0.1979E+01E
 Epicentro: LOS SANTOS - SANTANDER                                             3
 ACTION:UP  11-02-08 08:38 OP:pat  STATUS:               ID:20110105033001 L   I
 2011-01-05-0326-22S.COL___135                                                 6
 STAT SP IPHASW D HRMM SECON CODA AMPLIT PERI AZIMU VELO SNR AR TRES W  DIS CAZ7
 BAR2 SZ EP   2    330 19.41                             169    -0.6 5   25 181 
 BAR2 SZ ES   2    330 34.73                             169     0.5 5   25 181 
 BAR2 SZ I         330 35.86        12.8 0.32                            25 181 
 RUS  HZ EP   1    330 24.38                             141    -0.1 8  102 174 
 RUS  HN ES   1    330 42.38                             141     0.1 8  102 174 
 RUS  HZ I         330 44.35         8.0 0.19                           102 174 
 GRA  SZ IP        330 25.93                             134     0.010  126  19 
 GRA  SZ ES   1    330 44.84                             134     0.0 7  126  19 
 GRA  SZ I         330 46.68         4.0 0.20                           126  19 
 OCA  SZ EP   1    330 29.61                             127     0.7 7  158 354 
 OCA  SZ ES   1    330 49.62                             127    -0.6 7  158 354 
 OCA  SZ I         330 54.07         3.4 0.53                           158 354 
 YOP  SN ES   2    330 54.31                             123     0.0 5  182 152 
 YOP  SZ I         330 58.02         6.1 0.25                           182 152 
 NOR  SZ EP   2    330 36.07                             116    -0.5 4  233 234 
 NOR  SN ES   2    331  3.74                             116     0.0 4  233 234 
 CHI  HZ EP   1    330 38.96                             115     0.2 6  249 194 
 CHI  HN ES   1    331  7.38                             115    -0.4 6  249 194 
 CHI  HZ I         331 11.94         1.9 0.61                           249 194 
 HEL  HZ EP   2    330 41.22                             113     0.3 4  269 255 
 HEL  HZ I         331 18.52         3.5 0.43                           269 255 
 RREF HE ES   1    331 22.78                             109     0.2 5  320 229 
 RREF HZ I         331 29.30         2.2 0.33                           320 229 
                                                                                
