 2010 11 5 0058  0.8 L   6.786 -73.091144.3  RSN 11 0.4 2.3LRSN                1
 GAP=140        0.84       4.1     6.5  6.7 -0.5894E+01  0.3215E+00  0.1911E+01E
 Epicentro: LOS SANTOS - SANTANDER                                             3
 ACTION:UP  10-12-17 16:50 OP:REBC STATUS:               ID:20101105005800 L   I
 2010-11-05-0054-41S.COL___129                                                 6
 STAT SP IPHASW D HRMM SECON CODA AMPLIT PERI AZIMU VELO SNR AR TRES W  DIS CAZ7
 BAR2 SZ IP        058 20.47                             170     0.210   24 206 
 BAR2 SZ ES   1    058 35.19                             170    -0.2 7   24 206 
 BAR2 SZ I         058 36.65        42.9 0.21                            24 206 
 BRR  HZ IP     D  058 22.27                             150     0.110   77 297 
 BRR  HE ES   1    058 39.10                             150     0.3 7   77 297 
 BRR  HZ I         058 43.06        60.1 0.27                            77 297 
 RUS  HZ EP   1    058 24.50                             144     0.3 7   99 180 
 RUS  HN ES   2    058 42.30                             144    -0.3 5   99 180 
 RUS  HZ I         058 44.34        15.2 0.23                            99 180 
 GUE  SZ EP   2    058 25.42                             139     0.0 5  117   9 
 GRA  SZ IP        058 25.22                             137    -0.610  126  15 
 GRA  SZ I         058 49.25        20.3 0.28                           126  15 
 OCA  SZ EP   1    058 28.88                             129    -0.3 7  163 351 
 OCA  SZ ES   1    058 51.88                             129     0.5 7  163 351 
 OCA  SZ I         058 55.28        31.1 0.28                           163 351 
 YOP  SZ EP   2    058 31.25                             127     0.9 4  175 155 
 NOR  SZ EP   1    058 36.59                             118    -0.3 6  239 236 
 NOR  SE ES   2    059  4.30                             118    -0.7 4  239 236 
 HEL  HZ EP   2    058 42.27                             114     0.7 4  278 256 
 HEL  HE ES   2    059 12.65                             114    -0.7 4  278 256 
 HEL  HZ I         059 19.73        14.6 0.63                           278 256 
 RREF HZ EP   2    058 47.26                             110     0.0 3  325 230 
 RREF HZ I         059 32.05         7.5 0.20                           325 230 
 PRA  HZ EP   1    058 54.47                             106     0.0 4  394 210 
 PRA  HE ES   2    059 36.09                             106    -0.2 3  394 210 
                                                                                
