 2016  6 5 0105 31.1 L   6.779 -73.141144.6  RSN  4 0.3 1.2LRSN                1
 GAP=236        0.81       6.4     6.2  6.5  0.1982E+02  0.3171E+01  0.2607E+00E
 Epicentro: LOS SANTOS - SANTANDER                                             3
 ACTION:UPD 16-07-21 22:15 OP:rebc STATUS:               ID:20160605010531 L   I
 OLDACT:REG 16-06-05 12:27 OP:edw  STATUS:               ID:20160605005745     3
 2016-06-05-0057-45M.COL___328                                                 6
 STAT SP IPHASW D HRMM SECON CODA AMPLIT PERI AZIMU VELO AIN AR TRES W  DIS CAZ7
 BAR2 EZ EP        1 5 50.23                             171   -0.2810 21.1 193 
 BAR2 EZ ES        1 6  5.20                             171   -0.4710 21.1 193 
 BAR2 EZ I         1 6  6.54         6.1 0.34                          21.1 193 
 BRR  HZ EP        1 5 52.33                             152    0.1510 72.8 300 
 BRR  HN ES        1 6  9.06                             152    0.4110 72.8 300 
 RUS  HZ EP        1 5 54.56                             144    0.0310 98.2 176 
 RUS  HN ES        1 6 13.22                             144    0.3910 98.2 176 
 RUS  HZ I         1 6 13.60         1.7 0.52                          98.2 176 
 PTB  HZ EP        1 5 57.92                             132   -0.03 9  148 260 
 PTB  HN ES        1 6 18.66                             132   -0.25 9  148 260 
 PTB  HZ I         1 6 22.42         2.0 0.18                           148 260 
                                                                                
