 2017  7 5 0548  9.6 L   6.834 -73.153149.9  RSN 19 0.5 2.3LRSN                1
 GAP= 64        1.18       3.6     3.2  5.7 -0.4189E+00  0.2317E+01  0.9628E+00E
 Epicentro: LOS SANTOS - SANTANDER                                             3
 ACTION:UPD 17-08-30 15:29 OP:rebc STATUS:               ID:20170705054809 L   I
 OLDACT:UP  17-07-05 17:32 OP:edw  STATUS:               ID:20170705054744     3
 OLDACT:UP  17-07-05 17:29 OP:edw  STATUS:               ID:20170705054744     3
 OLDACT:UP  17-07-05 17:17 OP:edw  STATUS:               ID:20170705054744     3
 OLDACT:UP  17-07-05 17:16 OP:edw  STATUS:               ID:20170705054744     3
 OLDACT:REG 17-07-05 13:22 OP:edw  STATUS:               ID:20170705054744     3
 2017-07-05-0548-00M.COL___371                                                 6
 STAT SP IPHASW D HRMM SECON CODA AMPLIT PERI AZIMU VELO AIN AR TRES W  DIS CAZ7
 BAR2 EZ IP     C  548 29.51                             170   -0.3110 27.0 187 
 BAR2 EZ ES        548 45.22                             170   -0.3510 27.0 187 
 BAR2 EZ I         548 45.59        61.9 0.38            167           27.0 187 
 BRR  HZ IP     C  548 31.46                             154    0.3810 68.8 296 
 BRR  HN ES        548 48.49                             154    0.6710 68.8 296 
 BRR  HZ I         548 52.37        35.6 0.34            150           68.8 296 
 PAM  EZ IP     C  548 32.54                             152    0.4110 75.0  42 
 PAM  EN ES        548 49.72                             152    0.0310 75.0  42 
 PAM  EZ I         548 51.73        35.0 0.48            155           75.0  42 
 PTB  HZ EP   9    548 36.28                             133   -0.65 0  148 257 
 PTB  HN ES        548 57.42                             132   -0.16 9  148 257 
 PTB  HZ I         549  3.59        13.4 0.28            130            148 257 
 TAM  HZ IP     C  548 37.94                             131    0.16 9  157 106 
 TAM  HN ES        548 59.49                             131   -0.26 9  157 106 
 SPBC HZ EP        548 38.52                             130   -0.15 9  166 218 
 SPBC HN ES        549  0.19                             130   -1.14 9  166 218 
 SPBC HZ I         549  4.71        34.7 0.42            127            166 218 
 YPLC HZ IP     C  548 39.95                             127   -0.12 9  181 152 
 YPLC HN ES        549  4.80                             127    0.97 9  181 152 
 YPLC HZ I         549  6.67         8.5 0.30            127            181 152 
 ZAR  HZ EP   4    548 44.11                             124    1.99 0  202 291 
 ZAR  HN ES        549  7.76                             124    0.29 9  202 291 
 ZAR  HZ I         549 12.72        22.2 0.28            121            202 291 
 TABC EZ EP   4    548 47.11                             120    1.19 0  233 210 
 TABC EZ ES   4    549 16.30                             120    2.06 0  233 210 
 TABC EZ I         549 22.61        22.8 0.58            118            233 210 
 NOR  HZ EP        548 45.66                             119   -0.10 8  236 234 
 NOR  HN ES        549 13.61                             119   -0.34 8  236 234 
 NOR  HZ I         549 22.85        13.5 0.46            117            236 234 
 ROSC BZ EP   4    548 49.87                             117    1.59 0  256 210 
 ROSC BN ES   4    549 20.25                             117    1.82 0  256 210 
 ROSC BZ I         549 24.14        36.4 0.40            116            256 210 
 HEL  HZ EP   4    548 51.67                             116    1.60 0  272 255 
 HEL  HN ES        549 21.92                             116    0.31 8  272 255 
 HEL  HZ I         549 27.61         9.9 0.28            114            272 255 
 URE  HN ES   4    549 19.75                             115   -2.91 0  282 291 
 GUY2CHZ EP   4    548 54.88                             113    1.28 0  303 234 
 GUY2CHE ES   4    549 32.21                             113    4.31 0  303 234 
 GUY2CHZ I         549 35.78        11.6 0.34                           303 234 
 VIL  EZ EP        548 53.42                             113   -0.21 7  307 191 
 VIL  EN ES   4    549 25.37                             113   -2.59 0  307 191 
 VIL  EZ I         549 37.25        23.3 0.42            112            307 191 
 PTGC HZ EP   9 C  548 52.66                             112   -1.43 0  313 159 
 PTGC HN ES        549 26.49                             112   -0.86 7  313 159 
 PTGC HZ I         549 28.96        10.8 0.42            112            313 159 
 LL6C HZ EP        548 54.79                             111   -0.27 7  321 358 
 LL6C HN ES        549 30.02                             111   -0.48 7  321 358 
 LL6C HZ I         549 36.45         8.9 0.56            111            321 358 
 CBOC HZ EP        548 57.79                             111    1.03 7  334 251 
 CBOC HE ES        549 33.37                             111   -0.16 7  334 251 
 CBOC HZ I         549 42.22         2.3 0.36            109            334 251 
 DBB  EN ES   4    549 32.56                             110   -1.66 0  338 274 
 SJC  HZ EP     D  549  3.70                             106   -1.19 6  406 327 
 SJC  HN ES   4    549 44.85                             106   -3.16 0  406 327 
 SJC  HZ I         549 56.95         3.8 0.28            106            406 327 
 CRJC HZ EP   9 D  549  9.98                             104   -1.81 0  464   4 
 CRJC HN ES        549 58.18                             104   -0.29 5  464   4 
 CRJC HZ I         550  4.83         8.8 0.34            104            464   4 
                                                                                
