 2017  7 5 0703 35.8 L   6.825 -73.123150.7  RSN 20 0.5 2.3LRSN                1
 GAP= 67        1.09       3.2     3.1  4.8  0.7498E+00  0.2184E+01  0.8407E+00E
 Epicentro: LOS SANTOS - SANTANDER                                             3
 ACTION:UPD 17-08-30 15:29 OP:rebc STATUS:               ID:20170705070335 L   I
 OLDACT:UP  17-07-05 18:31 OP:edw  STATUS:               ID:20170705065743     3
 OLDACT:REG 17-07-05 13:40 OP:edw  STATUS:               ID:20170705065743     3
 2017-07-05-0658-00M.COL___365                                                 6
 STAT SP IPHASW D HRMM SECON CODA AMPLIT PERI AZIMU VELO AIN AR TRES W  DIS CAZ7
 BAR2 EZ EP     D  7 3 55.90                             170   -0.2310 26.5 194 
 BAR2 EZ ES        7 4 11.67                             170   -0.2810 26.5 194 
 BAR2 EZ I         7 4 12.10        78.0 0.26            166           26.5 194 
 BRR  HZ IP     C  7 3 57.66                             153    0.0810 72.2 296 
 BRR  HN ES        7 4 14.91                             153    0.3810 72.2 296 
 BRR  HZ I         7 4 17.83        42.0 0.30            152           72.2 296 
 PAM  EZ IP     C  7 3 58.98                             152    0.6110 73.7  39 
 PAM  EN ES        7 4 16.08                             152    0.1410 73.7  39 
 PAM  EZ I         7 4 18.52        22.5 0.32            157           73.7  39 
 PTB  HZ EP   9    7 4  2.41                             132   -1.07 0  151 258 
 PTB  HN ES        7 4 23.87                             132   -0.10 9  151 258 
 PTB  HZ I         7 4 25.55        22.1 0.10            131            151 258 
 TAM  HZ IP     D  7 4  4.36                             131    0.60 9  153 106 
 TAM  HN ES        7 4 24.97                             131   -0.56 9  153 106 
 TAM  HZ I         7 4 25.24        16.8 0.34            134            153 106 
 SPBC HZ EP   9    7 4  4.98                             129   -0.09 0  167 219 
 SPBC HN ES        7 4 26.98                             129   -0.80 9  167 219 
 SPBC HZ I         7 4 31.88        37.7 0.16            128            167 219 
 YPLC HZ IP     D  7 4  6.35                             127    0.23 9  178 152 
 YPLC HN ES        7 4 29.27                             127   -0.46 9  178 152 
 YPLC HZ I         7 4 33.00        12.6 0.28            128            178 152 
 ZAR  HZ EP        7 4  8.61                             123   -0.13 8  205 291 
 ZAR  HN ES        7 4 33.61                             123   -0.80 8  205 291 
 ZAR  HZ I         7 4 40.10        28.5 0.32            123            205 291 
 TABC EZ EP   4    7 4 14.07                             119    1.80 0  234 211 
 TABC EZ ES   4    7 4 43.40                             119    2.71 0  234 211 
 TABC EZ I         7 4 44.42        24.3 0.28            119            234 211 
 NOR  HZ EP   9 D  7 4 12.06                             119   -0.19 0  238 234 
 NOR  HN ES        7 4 39.76                             118   -0.70 8  238 234 
 NOR  HZ I         7 4 44.96        15.9 0.68            118            238 234 
 ROSC BZ EP        7 4 15.19                             117    0.56 8  256 211 
 ROSC BN ES   4    7 4 46.97                             117    2.09 0  256 211 
 ROSC BZ I         7 4 50.70        36.3 0.40            117            256 211 
 HEL  HZ EP   4 C  7 4 18.11                             115    1.46 0  275 255 
 HEL  HN ES        7 4 48.81                             115    0.33 8  275 255 
 HEL  HZ I         7 4 54.45        11.5 0.28            115            275 255 
 URE  HN ES   4    7 4 46.52                             114   -3.12 0  285 291 
 GUY2CHZ EP        7 4 20.84                             113    0.75 7  305 235 
 GUY2CHN ES   4    7 4 56.75                             113    2.15 0  305 235 
 GUY2CHZ I         7 5  2.31        11.0 0.56                           305 235 
 VIL  EZ EP        7 4 19.67                             112   -0.18 7  307 192 
 VIL  EN ES        7 4 54.08                             112   -0.09 7  307 192 
 VIL  EZ I         7 4 56.72        16.4 0.32            113            307 192 
 PTGC HZ IP   9 C  7 4 19.17                             112   -0.94 0  310 159 
 PTGC HN ES        7 4 53.03                             112   -0.67 7  310 159 
 PTGC HZ I         7 4 55.18         9.8 0.40            113            310 159 
 LL6C HZ EP        7 4 21.12                             111   -0.33 7  322 357 
 LL6C HN ES        7 4 56.77                             111   -0.26 7  322 357 
 ELA  HZ EP   4    7 4 26.39                             111    3.07 0  333 229 
 ELA  HN ES   4    7 5  3.83                             111    3.47 0  333 229 
 ELA  HZ I         7 5  7.66         8.8 0.38            111            333 229 
 DBB  EZ EP        7 4 23.89                             110    0.11 7  342 274 
 DBB  EN ES   4    7 4 58.27                             110   -2.91 0  342 274 
 DBB  EZ I         7 5  3.06         6.6 0.52            110            342 274 
 SJC  HZ IP     C  7 4 30.10                             106   -1.36 6  408 326 
 SJC  HN ES   4    7 5 12.12                             106   -2.72 0  408 326 
 SJC  HZ I         7 5 15.29         3.6 0.44            107            408 326 
 PAL  HZ EP        7 4 31.56                             106   -0.02 6  409 239 
 PAL  HN ES        7 5 15.13                             106    0.07 6  409 239 
 PAL  HZ I         7 5 20.23         2.4 0.28            106            409 239 
                                                                                
