 2012  3 5 0119 40.6 L   6.787 -73.193141.1  RSN  8 0.4 1.8LRSN                1
 GAP=131        0.90       4.9     4.4  9.4  0.2710E+00  0.1173E+02  0.1497E+02E
 ACTION:UP  12-03-31 23:17 OP:EP   STATUS:               ID:20120305011940 L   I
 2012-03-05-0117-43S.COL___149                                                 6
 STAT SP IPHASW D HRMM SECON CODA AMPLIT PERI AZIMU VELO SNR AR TRES W  DIS CAZ7
 BRR  HZ EP   1    120  1.51                             153     0.5 9   67 302 
 BRR  HN ES   1    120 17.65                             153     0.7 9   67 302 
 BRR  HZ I         120 21.75        11.8 0.10                            67 302 
 PAM  SZ EP   1    120  2.51                             148     0.0 9   82  42 
 PAM  SZ I         120  2.75        10.6 0.18                            82  42 
 PAM  SN ES   1    120 19.00                             148    -0.7 9   82  42 
 RUS  HZ EP   1    120  3.84                             143     0.1 9  100 173 
 RUS  HN ES   1    120 22.12                             143     0.2 9  100 173 
 RUS  HZ I         120 24.29        11.4 0.28                           100 173 
 PTB  HZ EP   1    120  6.50                             132    -0.1 8  142 259 
 PTB  HN ES   1    120 26.33                             132    -0.7 8  142 259 
 ZAR  HN ES        120 37.19                             122     0.210  200 293 
 NOR  SN ES   1    120 42.39                             118    -0.3 7  230 234 
 HEL  HN ES   1    120 50.23                             114    -0.4 7  267 256 
 PRA  HZ EP   1    120 33.67                             106     0.2 5  388 209 
 PRA  HN ES   1    121 14.88                             106     0.1 5  388 209 
                                                                                
