 2015 10 5 0703 11.8 L   6.793 -73.140146.8  RSN 13 0.5 1.9LRSN                1
 GAP=138        1.18       3.0     4.5  6.2 -0.2428E+01  0.1040E+02  0.9494E+00E
 Epicentro: LOS SANTOS - SANTANDER                                             3
 ACTION:UPD 15-12-22 20:37 OP:cam  STATUS:               ID:20151005070311 L   I
 OLDACT:UP  15-10-05 17:54 OP:ak   STATUS:               ID:20151005065748     3
 OLDACT:REG 15-10-05 13:26 OP:ak   STATUS:               ID:20151005065748     3
 2015-10-05-0657-48M.COL___346                                                 6
 STAT SP IPHASW D HRMM SECON CODA AMPLIT PERI AZIMU VELO AIN AR TRES W  DIS CAZ7
 BAR2 EZ EP        7 3 31.85                             171    0.2610 22.7 192 
 BAR2 EZ ES        7 3 46.54                             171   -0.4410 22.7 192 
 BAR2 EZ I         7 3 47.96        12.6 0.12            168           22.7 192 
 BRR  HZ EP        7 3 33.87                             152    0.7110 72.1 299 
 BRR  HE ES        7 3 50.59                             152    0.8110 72.1 299 
 BRR  HZ I         7 3 54.06        11.4 0.16            148           72.1 299 
 PAM  EZ EP   1    7 3 33.76                             151   -0.42 7 77.6  39 
 PAM  EN ES        7 3 51.85                             151    0.2510 77.6  39 
 RUS  HZ EP        7 3 35.76                             144    0.1210 99.8 176 
 RUS  HN ES        7 3 53.55                             144   -0.6510 99.8 176 
 RUS  HZ I         7 3 55.40         5.3 0.24            146           99.8 176 
 OCA  HZ EP        7 3 40.30                             130   -0.01 9  161 353 
 OCA  HE ES        7 4  2.20                             130   -0.32 9  161 353 
 OCA  HZ I         7 4  8.94         8.4 0.30            130            161 353 
 SPBC HZ EP        7 3 40.81                             129    0.41 9  163 219 
 SPBC HN ES        7 4  3.28                             129    0.60 9  163 219 
 SPBC HZ I         7 4  9.69        13.1 0.34            129            163 219 
 ZAR  HZ EP   4    7 3 41.99                             122   -2.46 0  205 292 
 ZAR  HN ES        7 4  9.30                             122   -0.57 9  205 292 
 ZAR  HZ I         7 4 16.42        14.3 0.26            122            205 292 
 NOR  HZ EP        7 3 48.09                             119    0.45 8  235 235 
 NOR  HN ES        7 4 14.95                             119   -0.61 8  235 235 
 NOR  HZ I         7 4 20.25         9.8 0.18            119            235 235 
 SML  HZ EP        7 3 48.64                             117    0.01 8  245 335 
 SML  HE ES        7 4 16.78                             117   -0.54 8  245 335 
 SML  HZ I         7 4 23.54         7.0 0.08            118            245 335 
 CHI  HZ EP        7 3 49.04                             117   -0.50 8  248 195 
 CHI  HN ES        7 4 18.50                             117   -0.44 8  248 195 
 CHI  HZ I         7 4 26.50         2.1 0.24            119            248 195 
 HEL  HZ EP   1    7 3 51.62                             115   -0.53 6  272 256 
 HEL  HN ES        7 4 22.76                             115   -0.83 8  272 256 
 HEL  HZ I         7 4 31.74         4.2 0.24            115            272 256 
 GUY2CHZ EP        7 3 55.61                             112    0.10 7  301 235 
 GUY2CHN ES        7 4 30.47                             112    0.91 7  301 235 
 GUY2CHZ I         7 4 38.59         6.8 0.38                           301 235 
 CBOC HZ EP        7 3 59.16                             110    0.32 7  334 252 
 CBOC HN ES        7 4 35.56                             110    0.06 7  334 252 
 CBOC HZ I         7 4 48.71         2.0 0.60            110            334 252 
                                                                                
