 2011  6 5 0745 30.8 L   6.764 -73.107150.0  RSN  8 0.2 1.8LRSN                1
 GAP=143        0.51       2.8     4.1  4.1 -0.5388E+01  0.2855E+01 -0.1213E+01E
 Epicentro: LOS SANTOS - SANTANDER                                             3
 ACTION:UP  11-07-14 19:03 OP:ep   STATUS:               ID:20110605074530 L   I
 2011-06-05-0743-28S.COL___132                                                 6
 STAT SP IPHASW D HRMM SECON CODA AMPLIT PERI AZIMU VELO SNR AR TRES W  DIS CAZ7
 BAR2 SZ EP   1    745 50.85                             172     0.0 7   21 204 
 BAR2 SZ ES   1    746  6.39                             172    -0.1 7   21 204 
 BAR2 SZ I         746  8.86        20.0 0.41                            21 204 
 BRR  HZ EP   1    745 52.69                             151     0.0 7   77 300 
 BRR  HZ I         745 53.05        16.7 0.10                            77 300 
 BRR  HE ES   1    746 10.13                             151     0.3 7   77 300 
 PAM  SZ EP   1    745 53.67                             152     0.2 7   78  35 
 PAM  SN ES   1    746 11.03                             152    -0.1 7   78  35 
 RUS  HZ EP   1    745 54.61                             146     0.0 7   96 178 
 RUS  HN ES   1    746 13.31                             146     0.0 7   96 178 
 RUS  HZ I         746 14.71         8.3 0.22                            96 178 
 BRI  SZ EP   1    745 55.38                             142     0.1 7  111  18 
 BRI  SZ I         745 55.71         7.0 0.21                           111  18 
 GRA  SZ EP   1    745 56.62                             137     0.0 7  128  15 
 GRA  SZ ES   1    746 16.71                             137     0.0 7  128  15 
 GRA  SZ I         746 17.36         8.7 0.36                           128  15 
 OCA  SZ EP   1    745 59.38                             130    -0.4 7  165 352 
 OCA  SZ I         746 28.45         9.5 0.27                           165 352 
 NOR  SZ EP   1    746  7.19                                     0.3 6  236 236 
 NOR  SN ES   1    746 34.65                                    -0.4 6  236 236 
                                                                                
