 2016  8 5 0752  6.5 L   6.793 -73.098150.8  RSN  4 0.1 1.0LRSN                1
 GAP=242        0.34       2.1     3.1  2.7  0.1333E+01  0.2748E+00  0.6156E+00E
 Epicentro: LOS SANTOS - SANTANDER                                             3
 ACTION:UPD 16-10-29 15:32 OP:rebc STATUS:               ID:20160805075206 L   I
 OLDACT:DUP 16-08-05 18:19 OP:edw  STATUS:               ID:20160805074736d    3
 OLDACT:UP  16-08-05 18:18 OP:edw  STATUS:               ID:20160805074735     3
 OLDACT:REG 16-08-05 13:17 OP:edw  STATUS:               ID:20160805074735     3
 2016-08-05-0748-00M.COL___338                                                 6
 STAT SP IPHASW D HRMM SECON CODA AMPLIT PERI AZIMU VELO AIN AR TRES W  DIS CAZ7
 BAR2 EZ EP        752 26.54                             171   -0.1810 24.0 203 
 BAR2 EZ ES        752 42.48                             171   -0.0310 24.0 203 
 BAR2 EZ I         752 43.45         1.9 0.18                          24.0 203 
 BRR  HZ EP        752 28.50                             152    0.0510 76.2 297 
 BRR  HN ES        752 45.64                             152    0.0510 76.2 297 
 RUS  HZ EP        752 30.73                             145    0.0810 99.6 179 
 RUS  HN ES        752 49.58                             145    0.0710 99.6 179 
 RUS  HZ I         752 50.48         0.9 0.20                          99.6 179 
 SPBC HZ EP        752 35.66                             130    0.04 9  166 221 
 SPBC HN ES        752 58.27                             130   -0.08 9  166 221 
 SPBC HZ I         753  2.11         2.2 0.38                           166 221 
                                                                                
