 2014 12 5 0528 50.7 L   6.778 -73.122148.9  RSN  7 0.3 1.7LRSN                1
 GAP=141        0.90       4.1     4.3  6.5  0.1466E+01  0.8810E+01  0.4921E+01E
 Epicentro: LOS SANTOS - SANTANDER                                             3
 ACTION:UPD 15-02-10 17:00 OP:nd   STATUS:               ID:20141205052850 L   I
 OLDACT:UP  14-12-05 14:24 OP:cam  STATUS:               ID:20141205051744     3
 OLDACT:UP  14-12-05 14:24 OP:cam  STATUS:               ID:20141205051744     3
 OLDACT:REG 14-12-05 12:45 OP:fm   STATUS:               ID:20141205051744     3
 2014-12-05-0517-44M.COL___294                                                 6
 STAT SP IPHASW D HRMM SECON CODA AMPLIT PERI AZIMU VELO AIN AR TRES W  DIS CAZ7
 BAR2 SZ EP        529 10.71                             171    0.0410 21.6 198 
 BAR2 SZ ES        529 26.36                             171    0.1110 21.6 198 
 BAR2 SZ I         529 27.37         6.5 0.30            167           21.6 198 
 BRR  HZ EP        529 12.65                             152    0.2610 74.7 299 
 BRR  HN ES        529 29.75                             152    0.4510 74.7 299 
 BRR  HN I         529 32.53        15.4 0.18            149           74.7 299 
 PAM  SN ES        529 30.67                             151   -0.2010 77.7  37 
 RUS  HZ EP        529 14.74                             145    0.1610 98.0 177 
 RUS  HE ES        529 32.70                             145   -0.5010 98.0 177 
 RUS  HZ I         529 34.90         2.8 0.52            145           98.0 177 
 PTB  HZ EP        529 17.68                             132   -0.44 9  150 260 
 PTB  HN ES        529 38.96                             132   -0.54 9  150 260 
 PTB  HZ I         529 44.57         6.3 0.22            131            150 260 
 SPBC HZ EP        529 19.65                             130    0.23 9  163 220 
 SPBC HN ES        529 42.35                             130    0.53 9  163 220 
 SPBC HZ I         529 48.85         9.5 0.38            129            163 220 
 ZAR  HN ES        529 49.28                             122   -0.15 8  207 292 
 ZAR  HN I         529 55.45         8.1 0.26            123            207 292 
                                                                                
