 2015  3 5 0622  8.2 L   6.741 -73.156152.1  RSN  4 0.3 0.9LRSN                1
 GAP=232        0.70       5.4     6.9  7.4  0.1143E+02 -0.2023E+01  0.8807E+01E
 Epicentro: LOS SANTOS - SANTANDER                                             3
 ACTION:UPD 15-04-30 16:23 OP:nd   STATUS:               ID:20150305062208 L   I
 OLDACT:REG 15-03-05 13:44 OP:spq  STATUS:               ID:20150305061748     3
 2015-03-05-0617-48M.COL___281                                                 6
 STAT SP IPHASW D HRMM SECON CODA AMPLIT PERI AZIMU VELO AIN AR TRES W  DIS CAZ7
 BRR  HZ EP   1    622 30.16                             153    0.02 7 73.6 303 
 BRR  HE ES        622 47.49                             153    0.2110 73.6 303 
 BRR  HZ I         622 50.82         1.9 0.48            150           73.6 303 
 RUS  HZ EP   1    622 31.97                             147   -0.14 7 94.1 175 
 RUS  HN ES   1    622 50.49                             147   -0.29 7 94.1 175 
 RUS  HZ I         622 51.71         0.5 0.15            147           94.1 175 
 PTB  HZ EP   1    622 35.09                             134   -0.38 7  145 261 
 PTB  HN ES   1    622 56.19                             134   -0.56 7  145 261 
 PTB  HZ I         623  0.51         1.2 0.14            132            145 261 
 SPBC HZ EP        622 36.95                             132    0.32 9  157 220 
 SPBC HE ES   1    622 59.28                             132    0.45 7  157 220 
 SPBC HZ I         623  4.66         1.3 0.20            131            157 220 
                                                                                
