 2012  5 5 0351 33.1 L   6.804 -73.167151.3  RSN  4 0.2 1.3LRSN                1
 GAP=134        0.46       3.6     3.3  6.7 -0.1694E+01  0.6356E+01 -0.4475E+00E
 Epicentro: LOS SANTOS - SANTANDER                                             3
 ACTION:UP  12-07-05 12:02 OP:pat  STATUS:               ID:20120505035133 L   I
 2012-05-05-0350-00M.COL___192                                                 6
 STAT SP IPHASW D HRMM SECON CODA AMPLIT PERI AZIMU VELO SNR AR TRES W  DIS CAZ7
 PAM  SZ EP   1    351 56.13                             151     0.1 7   79  41 
 PAM  SN ES   1    352 13.72                             151    -0.1 7   79  41 
 RUS  HZ EP   1    351 57.34                             145    -0.1 7  101 175 
 RUS  HN ES   1    352 16.64                             145     0.2 7  101 175 
 RUS  HZ I         352 16.78         1.9 0.45                           101 175 
 PTB  HZ EP   1    352  0.34                             134     0.0 7  146 258 
 PTB  HN ES   1    352 21.32                             134    -0.3 7  146 258 
 PTB  HZ I         352 28.69         3.5 0.33                           146 258 
 ZAR  HN ES   2    352 31.56                             124     0.5 4  202 292 
                                                                                
