 2011  9 5 0818 24.3 L   6.759 -72.989151.4  RSN  4 0.2 1.4LRSN                1
 GAP=199        0.38       4.1    11.0  8.9  0.2576E+02 -0.4995E+02 -0.1642E+02E
 Epicentro: CEPITA - SANTANDER                                                 3
 ACTION:UPD 12-07-13 15:55 OP:ep   STATUS:               ID:20110905081824 L   I
 2011-09-05-0813-23S.COL___170                                                 6
 STAT SP IPHASW D HRMM SECON CODA AMPLIT PERI AZIMU VELO AIN AR TRES W  DIS CAZ7
 BAR2 SZ EP   1    818 45.00                             169    0.27 7 28.3 229 
 BAR2 SZ I         818 45.55         4.0 0.42                          28.3 229 
 BRR  HZ EP   1    818 46.98                             148   -0.14 7 88.7 296 
 BRR  HZ I         818 47.24         5.7 0.03                          88.7 296 
 BRR  HN ES   2    819  5.03                             148    0.12 5 88.7 296 
 RUS  HZ EP   2    818 48.28                             146   -0.06 5 96.4 186 
 RUS  HZ I         819  6.61         3.2 0.55                          96.4 186 
 RUS  HN ES   2    819  6.83                             146   -0.24 5 96.4 186 
 OCA  SZ EP   2    818 53.77                             129    0.01 5  168 347 
 OCA  SZ ES   2    819 16.59                             129   -0.13 5  168 347 
 OCA  SZ I         819 20.20         2.7 0.26                           168 347 
                                                                                
