 2014  8 5 0424 23.2 L   6.725 -73.166137.1  RSN  5 0.2 1.0LRSN                1
 GAP=229        0.60       3.6     4.3  5.5  0.2132E+01  0.2420E+01  0.1101E+01E
 Epicentro: VILLANUEVA - SANTANDER                                             3
 ACTION:UPD 14-09-15 21:47 OP:nd   STATUS:               ID:20140805042423 L   I
 OLDACT:REG 14-08-05 13:05 OP:spq  STATUS:               ID:20140805041815     3
 2014-08-05-0418-15M.COL___245                                                 6
 STAT SP IPHASW D HRMM SECON CODA AMPLIT PERI AZIMU VELO AIN AR TRES W  DIS CAZ7
 BAR2 SZ EP        424 41.51                             173   -0.1410 14.8 187 
 BAR2 SZ ES   1    424 56.19                             173    0.16 7 14.8 187 
 BAR2 SZ I         424 57.64         2.4 0.24            172           14.8 187 
 BRR  HZ EP        424 43.69                             150    0.1110 73.7 305 
 BRR  HN ES        424 59.34                             150   -0.1310 73.7 305 
 BRR  HZ I         425  6.02         2.2 0.44            150           73.7 305 
 RUS  HZ EP   1    424 45.05                             144   -0.48 7 92.5 174 
 RUS  HE ES   1    425  3.23                             144    0.29 7 92.5 174 
 RUS  HZ I         425  5.07         1.0 0.22            148           92.5 174 
 PTB  HZ EP        424 49.54                             131    0.39 9  144 262 
 PTB  HN ES   1    425  9.18                             131   -0.21 7  144 262 
 PTB  HZ I         425 11.69         1.0 0.19            133            144 262 
 SPBC HE ES        425 11.38                             128   -0.07 9  155 220 
 SPBC HZ I         425 15.55         1.7 0.12            131            155 220 
                                                                                
