 2014  4 5 0242 52.3 L   6.819 -73.201144.7  RSN  7 0.3 1.6LRSN                1
 GAP=129        0.57       2.7     2.7  5.3 -0.1376E+01  0.3445E+01  0.2489E+01E
 Epicentro: ZAPATOCA - SANTANDER                                               3
 ACTION:UPD 14-05-13 23:06 OP:nd   STATUS:               ID:20140405024252 L   I
 OLDACT:UP  14-04-05 14:06 OP:cam  STATUS:               ID:20140405023807     3
 OLDACT:REG 14-04-05 13:03 OP:cam  STATUS:               ID:20140405023807     3
 2014-04-05-0238-07M.COL___250                                                 6
 STAT SP IPHASW D HRMM SECON CODA AMPLIT PERI AZIMU VELO AIN AR TRES W  DIS CAZ7
 PAM  SZ EP        243 14.66                             150    0.1410 79.9  44 
 PAM  SN ES        243 31.89                             150    0.0210 79.9  44 
 PAM  SZ I         243 33.79         8.1 0.42            155           79.9  44 
 RUS  HZ EP        243 15.89                             143   -0.2210  103 173 
 RUS  HN ES   1    243 34.75                             143    0.04 7  103 173 
 RUS  HZ I         243 35.35         5.5 0.24            145            103 173 
 PTB  HZ EP   1    243 18.01                             133   -0.63 7  142 257 
 PTB  HN ES        243 39.01                             133   -0.20 9  142 257 
 PTB  HZ I         243 40.99         5.0 0.12            133            142 257 
 SPBC HZ EP   2    243 20.40                             129   -0.08 5  161 217 
 SPBC HN ES   1    243 42.91                             129    0.42 7  161 217 
 SPBC HZ I         243 48.71         7.2 0.22            130            161 217 
 ZAR  HZ EP   1    243 24.49                             123    0.52 6  198 292 
 ZAR  HN ES   1    243 48.65                             123   -0.05 6  198 292 
 ZAR  HZ I         243 54.68         3.3 0.54            124            198 292 
 NOR  HZ EP   1    243 27.83                             119    0.30 6  231 233 
 NOR  HE ES   2    243 55.37                             119    0.33 4  231 233 
 NOR  HZ I         244  3.27         3.0 0.18            120            231 233 
 CHI  HZ EP   1    243 29.94                             117   -0.02 6  249 194 
 CHI  HN ES   1    243 59.30                             117   -0.06 6  249 194 
 CHI  HZ I         244  2.40         2.3 0.38            119            249 194 
                                                                                
