 2012  8 5 0203 43.6 L   6.759 -73.158147.3  RSN  6 0.3 1.3LRSN                1
 GAP=137        0.61       4.2     3.9  5.9  0.1480E-01  0.3612E+01  0.5270E+00E
 Epicentro: LOS SANTOS - SANTANDER                                             3
 ACTION:UPD 12-09-10 11:54 OP:ep   STATUS:               ID:20120805020343 L   I
 2012-08-05-0200-00M.COL___216                                                 6
 STAT SP IPHASW D HRMM SECON CODA AMPLIT PERI AZIMU VELO AIN AR TRES W  DIS CAZ7
 BAR2 SZ EP   1    2 4  3.37                             172    0.08 7 18.6 188 
 BAR2 SZ ES   1    2 4 18.86                             172    0.18 7 18.6 188 
 BAR2 SZ I         2 4 19.64         5.7 0.21                          18.6 188 
 BRR  HZ EP   1    2 4  5.14                             152    0.20 7 72.3 302 
 BRR  HZ I         2 4  7.11         7.5 0.11                          72.3 302 
 BRR  HN ES   1    2 4 22.14                             152    0.53 7 72.3 302 
 PAM  SZ EP   1    2 4  6.31                             150    0.10 7 81.8  38 
 PAM  SE ES   1    2 4 23.32                             150   -0.55 7 81.8  38 
 RUS  HZ EP   1    2 4  7.21                             145    0.06 7 96.2 175 
 RUS  HN ES   1    2 4 25.36                             145   -0.19 7 96.2 175 
 RUS  HZ I         2 4 26.80         2.0 0.28                          96.2 175 
 PTB  HZ EP   1    2 4 10.53                             133    0.07 7  146 260 
 PTB  HN ES   1    2 4 31.08                             133   -0.36 7  146 260 
 PTB  HZ I         2 4 33.33         1.9 0.18                           146 260 
 ZAR  HN ES   2    2 4 41.08                             122   -0.50 4  205 293 
                                                                                
