 2014  6 5 0903 30.6 L   6.881 -73.175148.1  RSN  5 0.4 1.3LRSN                1
 GAP=209        0.94       5.4     4.9  9.1 -0.8056E+01  0.1632E+02 -0.1604E+01E
 Epicentro: BETULIA - SANTANDER                                                3
 ACTION:UPD 14-07-01 22:51 OP:nd   STATUS:               ID:20140605090330 L   I
 OLDACT:DUP 14-06-05 16:56 OP:carl STATUS:               ID:20140605085806d    3
 2014-06-05-0858-05M.COL___262                                                 6
 STAT SP IPHASW D HRMM SECON CODA AMPLIT PERI AZIMU VELO AIN AR TRES W  DIS CAZ7
 PAM  SZ EP        9 3 53.16                             153    0.3910 73.0  46 
 PAM  SN ES        9 4 10.07                             153   -0.0310 73.0  46 
 PAM  SZ I         9 4 11.25         4.0 0.24            157           73.0  46 
 PTB  HZ EP        9 3 57.62                             133    0.00 9  147 255 
 PTB  HN ES        9 4 18.42                             133   -0.31 9  147 255 
 PTB  HZ I         9 4 21.49         2.2 0.20            133            147 255 
 OCA  HN ES        9 4 19.50                             132   -0.26 9  151 354 
 ZAR  HZ EP        9 4  1.89                             124   -0.63 9  198 290 
 ZAR  HN ES        9 4 28.25                             124    0.80 9  198 290 
 ZAR  HZ I         9 4 36.53         2.5 0.26            125            198 290 
 SML  HZ EP        9 4  6.49                             119    0.19 8  234 335 
 SML  HN ES        9 4 33.98                             119   -0.19 8  234 335 
                                                                                
