 2012  4 5 0628 24.9 L   6.732 -73.175141.5  RSN  5 0.4 1.1LRSN                1
 GAP=136        1.07       9.0     8.7 14.4  0.1870E+02 -0.2814E+02 -0.2247E+02E
 Epicentro: VILLANUEVA - SANTANDER                                             3
 ACTION:UPD 12-07-05 11:50 OP:tino STATUS:               ID:20120405062824 L   I
 2012-04-05-0620-00M.COL___196                                                 6
 STAT SP IPHASW D HRMM SECON CODA AMPLIT PERI AZIMU VELO AIN AR TRES W  DIS CAZ7
 BAR2 SZ EP   1    628 43.82                             173    -0.1 7   15 183 
 BRR  HZ EP   1    628 45.80                             151     0.1 7   72 305 
 BRR  HZ I         628 46.21         3.6 0.14                            72 305 
 BRR  HE ES   1    629  2.41                             151     0.5 7   72 305 
 PAM  SZ EP   1    628 46.58                             147    -0.6 7   85  38 
 PAM  SZ I         628 47.10         1.7 0.23                            85  38 
 RUS  HZ EP   1    628 48.40                             145     0.7 7   93 174 
 RUS  HN ES   1    629  5.29                             145    -0.2 7   93 174 
 RUS  HZ I         629  6.11         3.0 0.67                            93 174 
 PTB  HZ EP   1    628 51.31                             132     0.2 7  143 262 
 PTB  HN ES   1    629 10.96                             132    -0.6 7  143 262 
 PTB  HZ I         629 14.00         1.1 0.21                           143 262 
                                                                                
