 2011  2 5 0330 31.1 L   6.835 -73.187137.0  RSN  7 0.3 1.5LRSN                1
 GAP=154        0.57       4.0     9.8  7.8 -0.2587E+02  0.1839E+02  0.7619E+00E
 Epicentro: ZAPATOCA - SANTANDER                                               3
 ACTION:UP  11-03-28 15:06 OP:jfem STATUS:               ID:20110205033031 L   I
 2011-02-05-0328-50S.COL___138                                                 6
 STAT SP IPHASW D HRMM SECON CODA AMPLIT PERI AZIMU VELO SNR AR TRES W  DIS CAZ7
 BTL  SZ EP        330 49.76                             174     0.210   13 316 
 GIR2 SZ EP   2    330 49.75                             168     0.1 5   27 358 
 BAR2 SZ EP   1    330 49.77                             168     0.0 7   27 179 
 BAR2 SZ I         330 50.09         7.7 0.10                            27 179 
 BAR2 SZ ES   2    331  3.68                             168    -0.7 5   27 179 
 RUS  HZ EP   2    330 53.94                             141    -0.4 5  105 174 
 RUS  HE ES   2    331 12.98                             141     0.5 5  105 174 
 RUS  HZ I         331 13.81         3.5 0.29                           105 174 
 GRA  SZ EP   1    330 55.34                             136    -0.1 7  124  20 
 GRA  SZ ES   1    331 14.32                             136     0.0 7  124  20 
 GRA  SZ I         331 16.12         6.9 0.22                           124  20 
 NOR  SN ES   2    331 33.61                             117     0.0 4  233 233 
 CHI  HZ EP   1    331  8.30                             115    -0.3 6  251 194 
 CHI  HE ES   1    331 38.06                             115     0.2 6  251 194 
 CHI  HZ I         331 42.83         1.8 0.26                           251 194 
                                                                                
