 2011 10 5 0253 26.6 L   6.762 -73.605131.7  RSN  4 0.1 1.1LRSN                1
 GAP=194        0.35       4.0     9.9  5.2  0.2314E+02  0.1269E+02  0.6708E+01E
 Epicentro: EL CARMEN DE CHUCURI - SANTANDER                                   3
 ACTION:UPD 12-07-13 16:02 OP:ep   STATUS:               ID:20111005025326 L   I
 2011-10-05-0240-00M.COL___172                                                 6
 STAT SP IPHASW D HRMM SECON CODA AMPLIT PERI AZIMU VELO AIN AR TRES W  DIS CAZ7
 BRR  HZ I         253 51.81         6.9 0.33                          39.9 343 
 BRR  HN ES   2    253 58.80                             162   -0.03 5 39.9 343 
 BAR2 SZ EP   2    253 45.47                             158   -0.05 5 50.3 112 
 BAR2 SZ ES   2    254  0.41                             158    0.18 5 50.3 112 
 BAR2 SZ I         254  2.18         4.3 0.43                          50.3 112 
 GIR2 SZ EP   1    253 45.89                             155    0.18 7 57.4  52 
 GIR2 SZ ES   2    254  0.31                             155   -0.28 5 57.4  52 
 RUS  HZ EP   1    253 49.84                             137   -0.13 7  112 149 
 RUS  HE ES   1    254  8.18                             137    0.03 7  112 149 
 RUS  HZ I         254 11.50         0.9 0.38                           112 149 
                                                                                
