 2017  1 5 0959 37.0 L   6.300 -73.610114.4  RSN  4 0.4 1.4LRSN                1
 GAP=158        1.03       8.0     5.5  9.4  0.2553E+02  0.1756E+02 -0.2606E+01E
 Epicentro: SANTA HELENA DEL OPON - SANTANDER                                  3
 ACTION:UPD 17-05-22 15:55 OP:jn   STATUS:               ID:20170105095937 L   I
 OLDACT:REG 17-01-05 13:10 OP:lv   STATUS:               ID:20170105094745     3
 2017-01-05-0948-00M.COL___364                                                 6
 STAT SP IPHASW D HRMM SECON CODA AMPLIT PERI AZIMU VELO AIN AR TRES W  DIS CAZ7
 BAR2 EZ EP        959 54.70                             152    0.3910 57.3  56 
 BAR2 EZ ES       10 0  7.67                             152   -0.1510 57.3  56 
 RUS  HZ EP        959 56.29                             145    0.5710 73.7 128 
 RUS  HE ES       10 0  9.90                             145   -0.4310 73.7 128 
 PTB  HZ EP        959 56.41                             136   -0.4610 97.3 286 
 PTB  HE ES       10 0 12.73                             136    0.3510 97.3 286 
 ZAR  HZ EP       10 0  5.68                             116   -0.47 9  191 314 
 ZAR  HN ES       10 0 29.01                             116    0.12 9  191 314 
 ZAR  HZ I        10 0 32.51         2.5 0.54            115            191 314 
                                                                                
