 2015  3 5 0223 15.1 L   6.807 -73.140152.0  RSN 11 0.4 1.6LRSN                1
 GAP=137        0.88       3.7     3.6  6.1 -0.2337E+01  0.2255E+01  0.7191E+01E
 Epicentro: LOS SANTOS - SANTANDER                                             3
 ACTION:UPD 15-04-30 16:23 OP:nd   STATUS:               ID:20150305022315 L   I
 OLDACT:DUP 15-03-05 15:25 OP:spq  STATUS:               ID:20150305021749d    3
 2015-03-05-0217-48M.COL___284                                                 6
 STAT SP IPHASW D HRMM SECON CODA AMPLIT PERI AZIMU VELO AIN AR TRES W  DIS CAZ7
 BAR2 EZ EP        223 35.33                             171   -0.1510 24.2 191 
 BAR2 EZ ES   1    223 51.29                             171   -0.10 7 24.2 191 
 BAR2 EZ I         223 53.78         7.2 0.28            167           24.2 191 
 BRR  HZ EP        223 37.18                             154    0.2710 71.3 298 
 BRR  HN ES        223 54.59                             154    0.6510 71.3 298 
 BRR  HZ I         223 59.51         6.3 0.18            152           71.3 298 
 PAM  SZ EP        223 38.16                             152    0.2510 76.4  40 
 PAM  SE ES        223 55.54                             152   -0.1710 76.4  40 
 PAM  SZ I         223 56.49         6.1 0.18            159           76.4  40 
 RUS  HZ EP        223 39.17                             145   -0.3310  101 176 
 RUS  HE ES   1    223 58.26                             145   -0.29 7  101 176 
 RUS  HZ I         224  0.03         2.8 0.30            146            101 176 
 PTB  HZ EP        223 42.19                             133   -0.44 9  148 259 
 PTB  HN ES        224  3.52                             133   -0.59 9  148 259 
 PTB  HZ I         224 10.73         8.2 0.50            133            148 259 
 SPBC HZ EP        223 44.24                             130    0.08 9  164 219 
 SPBC HN ES        224  6.94                             130    0.10 9  164 219 
 SPBC HZ I         224 12.84         8.8 0.24            130            164 219 
 ZAR  HN ES        224 13.35                             124   -0.26 9  204 292 
 ZAR  HZ I         224 19.74         5.8 0.36            125            204 292 
 NOR  HN ES        224 20.15                             120    0.64 8  236 234 
 NOR  HZ I         224 24.90         5.3 0.32            120            236 234 
 CHI  HZ EP        223 53.51                             118    0.28 8  250 195 
 CHI  HE ES   1    224 23.41                             118    0.42 6  250 195 
 CHI  HZ I         224 32.45         1.7 0.26            120            250 195 
 RREF HZ EP   4    224  3.49                             112    1.88 0  323 229 
 RREF HN ES   1    224 37.49                             112   -0.41 5  323 229 
 RREF HZ I         224 40.25         3.3 0.24            113            323 229 
 MON  HZ EP   4    224  2.54                             110   -1.78 0  354 308 
 MON  HE ES   4    224 40.88                             110   -1.85 0  354 308 
 MON  HZ I         224 47.45         1.0 0.64            111            354 308 
                                                                                
