 2017  1 5 0550 11.0 L   6.799 -73.154151.7  RSN  4 0.2 1.1LRSN                1
 GAP=141        0.49       2.5     2.9  4.5 -0.1913E+01  0.2845E+01  0.2240E+01E
 Epicentro: LOS SANTOS - SANTANDER                                             3
 ACTION:UPD 17-05-22 15:55 OP:jn   STATUS:               ID:20170105055011 L   I
 OLDACT:REG 17-01-05 12:59 OP:lv   STATUS:               ID:20170105054744     3
 2017-01-05-0548-00M.COL___374                                                 6
 STAT SP IPHASW D HRMM SECON CODA AMPLIT PERI AZIMU VELO AIN AR TRES W  DIS CAZ7
 PAM  EZ EP        550 34.13                             152    0.2410 78.0  40 
 PAM  EE ES        550 51.57                             152   -0.1810 78.0  40 
 PAM  EZ I         550 53.88         4.9 0.36            155           78.0  40 
 RUS  HN EP        550 35.31                             145   -0.0410  101 176 
 RUS  HZ ES        550 54.41                             145    0.0810  101 176 
 RUS  HN I         550 54.80         1.8 0.20            147            101 176 
 PTB  HZ EP        550 38.51                             133    0.13 9  147 259 
 PTB  HE ES        550 59.67                             133   -0.07 9  147 259 
 PTB  HZ I         551  5.11         1.2 0.28            134            147 259 
 CHI  HZ EP        550 48.64                             118   -0.37 8  248 195 
 CHI  HN ES        551 18.77                             118    0.12 8  248 195 
 CHI  HZ I         551 22.48         0.8 0.19            120            248 195 
                                                                                
