 2010  4 5 0843 13.6 L   6.840 -73.025146.1  RSN  7 0.4 2.1LRSN                1
 GAP=210        1.18       4.5     8.3  7.6 -0.9135E+01  0.8193E+01  0.1042E+02E
 Epicentro: CEPITA - SANTANDER                                                 3
 ACTION:UPD 10-08-24 09:57 OP:vdl  STATUS:               ID:20100405084313 L   I
 2010-04-05-0840-11S.COL___098                                                 6
 STAT SP IPHASW D HRMM SECON CODA AMPLIT PERI AZIMU VELO AIN AR TRES W  DIS CAZ7
 BAR2 SZ EP        843 33.65                             167     0.210   33 213 
 BAR2 SZ ES        843 48.74                             167    -0.310   33 213 
 BRR  HZ EP        843 35.69                             149     0.310   81 291 
 BRR  HZ I         843 35.98        28.1 0.18                            81 291 
 BRR  HN ES        843 53.09                             149     0.710   81 291 
 OCA  SZ EP        843 42.09                             130     0.4 9  158 348 
 OCA  SZ ES        844  2.76                             130    -0.9 9  158 348 
 OCA  SZ I         844  5.44        21.9 0.30                           158 348 
 CHI  HZ EP        843 52.11                             116    -0.1 8  257 198 
 CHI  HN ES        844 22.02                             116    -0.3 8  257 198 
 CHI  HZ I         844 24.79         6.0 0.33                           257 198 
 HEL  HZ EP        843 55.40                             114     0.0 7  286 256 
 HEL  HE ES        844 27.49                             114    -0.5 7  286 256 
 HEL  HZ I         844 32.68         5.6 0.45                           286 256 
 RREF BZ EP        844  1.73                             110     0.5 7  335 230 
 RREF BN ES        844 38.10                             110    -0.3 7  335 230 
 RREF BZ I         844 45.59         5.1 0.42                           335 230 
 PRA  HZ EP        844  7.96                             106    -0.4 6  403 211 
 PRA  HN ES        844 51.20                             106     0.1 6  403 211 
 PRA  HZ I         844 54.19         4.6 0.35                           403 211 
                                                                                
