 2016 10 5 0822 59.8 L   6.821 -73.165144.0  RSN 17 0.5 2.5LRSN                1
 GAP=133        1.09       3.1     3.8  5.6 -0.2445E+01  0.6817E+01  0.2284E+01E
 Epicentro: LOS SANTOS - SANTANDER                                             3
 ACTION:UPD 16-11-09 19:16 OP:rebc STATUS:               ID:20161005082259 L   I
 OLDACT:UP  16-10-05 14:48 OP:dnl  STATUS:               ID:20161005081745     3
 OLDACT:REG 16-10-05 13:31 OP:dani STATUS:               ID:20161005081745     3
 2016-10-05-0818-00M.COL___351                                                 6
 STAT SP IPHASW D HRMM SECON CODA AMPLIT PERI AZIMU VELO AIN AR TRES W  DIS CAZ7
 BAR2 EZ IP     C  823 19.23                             170   -0.0510 25.3 184 
 BAR2 EZ ES        823 34.04                             170   -0.4210 25.3 184 
 BAR2 EZ I         823 35.49        91.1 0.22            168           25.3 184 
 BRR  HZ IP     C  823 21.02                             153    0.4010 68.3 298 
 BRR  HN ES        823 37.54                             153    0.7010 68.3 298 
 BRR  HZ I         823 42.04        45.3 0.36            151           68.3 298 
 PAM  EZ EP        823 22.19                             151    0.3610 77.0  42 
 PAM  EE ES        823 39.10                             151    0.1110 77.0  42 
 PAM  EZ I         823 41.42        47.7 0.46            156           77.0  42 
 RUS  HZ EP        823 23.25                             143   -0.3310  103 175 
 RUS  HE ES        823 42.31                             143    0.2010  103 175 
 RUS  HZ I         823 43.01        45.5 0.26            145            103 175 
 PTB  HZ EP        823 25.73                             132   -0.77 9  146 258 
 PTB  HN ES        823 46.83                             132   -0.48 9  146 258 
 PTB  HZ I         823 54.00        37.5 0.48            132            146 258 
 OCA  HZ EP        823 27.71                             130   -0.05 9  158 354 
 OCA  HE ES        823 49.21                             130   -0.34 9  158 354 
 OCA  HZ I         823 52.66        49.4 0.26            133            158 354 
 SPBC HZ EP        823 28.05                             129   -0.19 9  164 218 
 SPBC HE ES        823 50.37                             129   -0.03 9  164 218 
 SPBC HZ I         823 57.15        49.3 0.26            130            164 218 
 ZAR  HZ EP        823 31.73                             122   -0.14 9  201 292 
 ZAR  HE ES        823 56.98                             122    0.12 9  201 292 
 ZAR  HZ I         824  2.55        30.7 0.52            124            201 292 
 NOR  HZ EP        823 35.24                             118   -0.17 8  234 234 
 NOR  HE ES        824  2.95                             118   -0.22 8  234 234 
 NOR  HZ I         824  7.90        25.5 0.30            120            234 234 
 CHI  HZ EP        823 37.40                             117   -0.21 8  250 195 
 CHI  HE ES        824  7.17                             117    0.09 8  250 195 
 CHI  HZ I         824 10.02        19.4 0.38            119            250 195 
 ROSC BZ EP   4    823 39.07                             116    1.12 0  254 210 
 ROSC BN ES   4    824 10.21                             116    2.53 0  254 210 
 ROSC BZ I         824 13.91        26.9 0.40            118            254 210 
 HEL  HZ EP   4    823 40.92                             115    1.13 0  271 255 
 HEL  HE ES        824 11.12                             115    0.16 8  271 255 
 HEL  HZ I         824 18.89        14.7 0.32            116            271 255 
 URE  HZ EP   4    823 39.05                             113   -1.45 0  281 292 
 URE  HN ES   4    824  9.99                             113   -2.23 0  281 292 
 URE  HZ I         824 14.93        16.4 0.14            115            281 292 
 GUY2CHZ EP        823 44.12                             112    0.81 7  301 234 
 GUY2CHN ES        824 18.85                             112    1.62 7  301 234 
 GUY2CHZ I         824 24.48        13.4 0.64                           301 234 
 PTGC HZ EP   4    823 42.37                             111   -1.56 0  312 158 
 PTGC HN ES   4    824 15.48                             111   -2.86 0  312 158 
 PTGC HZ I         824 17.74        16.2 0.44            114            312 158 
 CBOC HZ EP   2    823 47.35                             110    0.83 3  332 252 
 CBOC HN ES        824 21.98                             110   -0.96 7  332 252 
 CBOC HZ I         824 27.24         4.6 0.48            111            332 252 
 PAL  HZ EP        823 54.86                             106    0.00 6  405 239 
 PAL  HE ES        824 37.73                             106   -0.05 6  405 239 
 PAL  HZ I         824 41.10         4.1 0.16            107            405 239 
                                                                                
