 2015 10 5 0815 15.4 L   6.813 -73.112147.5  RSN 11 0.5 1.7LRSN                1
 GAP=140        1.23       3.2     5.1  6.8 -0.1996E+01  0.9808E+01 -0.2243E+00E
 Epicentro: LOS SANTOS - SANTANDER                                             3
 ACTION:UPD 15-12-22 20:37 OP:cam  STATUS:               ID:20151005081515 L   I
 OLDACT:REG 15-10-05 13:36 OP:ak   STATUS:               ID:20151005080750     3
 2015-10-05-0807-50M.COL___346                                                 6
 STAT SP IPHASW D HRMM SECON CODA AMPLIT PERI AZIMU VELO AIN AR TRES W  DIS CAZ7
 BAR2 EZ EP        815 35.68                             170    0.4210 25.6 198 
 BAR2 EZ ES        815 51.15                             170    0.3810 25.6 198 
 BAR2 EZ I         815 59.70         5.7 0.36            168           25.6 198 
 BRR  HZ EP        815 37.43                             152    0.5710 73.8 296 
 BRR  HN ES        815 54.39                             152    0.7710 73.8 296 
 BRR  HZ I         815 59.90         8.0 0.30            150           73.8 296 
 PAM  EZ EP        815 38.45                             152    0.8810 73.9  38 
 PAM  EN ES        815 54.29                             152   -0.6010 73.9  38 
 PAM  EZ I         815 58.27         6.7 0.44            158           73.9  38 
 RUS  HZ EP        815 39.63                             144    0.2510  102 178 
 RUS  HE ES        815 57.42                             144   -0.6910  102 178 
 RUS  HZ I         815 59.06         5.0 0.46            148            102 178 
 OCA  HZ EP        815 43.08                             130   -0.65 9  159 352 
 OCA  HN ES        816  5.37                             130   -0.48 9  159 352 
 OCA  HZ I         816 11.37        11.6 0.40            134            159 352 
 SPBC HZ EP        815 44.19                             129   -0.14 9  167 220 
 SPBC HN ES        816  6.17                             129   -0.75 9  167 220 
 SPBC HZ I         816 11.28         9.9 0.10            131            167 220 
 ZAR  HZ EP   1    815 47.76                             122   -0.47 6  207 291 
 ZAR  HN ES        816 13.69                             122   -0.17 8  207 291 
 ZAR  HZ I         816 19.90        10.8 0.26            124            207 291 
 NOR  HN ES        816 19.77                             118   -0.11 8  239 235 
 NOR  HZ I         816 26.91         3.4 0.40            121            239 235 
 SML  HZ EP        815 51.95                             118   -0.17 8  244 334 
 SML  HE ES        816 20.51                             118   -0.28 8  244 334 
 SML  HZ I         816 29.66         6.6 0.30            121            244 334 
 CHI  HZ EP        815 53.68                             117    0.26 8  251 196 
 CHI  HN ES        816 22.96                             117   -0.14 8  251 196 
 CHI  HZ I         816 33.00         1.9 0.38            121            251 196 
 HEL  HZ EP   1    815 56.42                             115    0.31 6  276 256 
 HEL  HN ES        816 28.21                             115    0.32 7  276 256 
 HEL  HZ I         816 35.64         2.2 0.32            117            276 256 
 SJC  HZ EP   4    816  9.04                             106   -2.05 0  410 326 
 SJC  HN ES   4    816 52.46                             106   -2.09 0  410 326 
                                                                                
