 2012  7 5 0930 41.8 L   6.859 -73.187125.2  RSN  5 0.4 1.2LRSN                1
 GAP=238        0.88       9.6     7.9 11.3  0.4419E+02  0.1270E+02 -0.2370E+02E
 Epicentro: ZAPATOCA - SANTANDER                                               3
 ACTION:UPD 12-08-14 11:42 OP:ep   STATUS:               ID:20120705093041 L   I
 2012-07-05-0930-00M.COL___201                                                 6
 STAT SP IPHASW D HRMM SECON CODA AMPLIT PERI AZIMU VELO AIN AR TRES W  DIS CAZ7
 BAR2 SZ EP   1    930 59.41                             166     0.3 7   29 179 
 BAR2 SZ ES   1    931 12.30                             166    -0.3 7   29 179 
 BAR2 SZ I         931 15.77         6.9 0.18            165             29 179 
 BRR  HZ EP   1    931  0.89                             151     0.6 7   64 295 
 RUS  HZ EP   1    931  3.62                             137    -0.5 7  107 174 
 RUS  HN ES   1    931 21.72                             137     0.1 7  107 174 
 RUS  HZ I         931 23.39         2.2 0.40            140            107 174 
 PTB  HZ EP   1    931  6.83                             127     0.0 7  145 256 
 PTB  HN ES   1    931 26.76                             127     0.3 7  145 256 
 PTB  HZ I         931 29.81         1.6 0.41            130            145 256 
 ZAR  HN ES   1    931 35.51                             118    -0.5 6  197 291 
