 2010  8 5 0850  5.1 L   6.793 -73.058136.5  RSN 13 0.5 2.2LRSN                1
 GAP=133        1.13       4.5     8.8  7.9 -0.1352E+02  0.6912E+01 -0.1901E+01E
 Epicentro: LOS SANTOS - SANTANDER                                             3
 ACTION:UP  10-09-07 10:52 OP:vdl  STATUS:               ID:20100805085005 L   I
 2010-08-05-0848-19S.COL___126                                                 6
 STAT SP IPHASW D HRMM SECON CODA AMPLIT PERI AZIMU VELO SNR AR TRES W  DIS CAZ7
 BAR2 SZ IP        850 23.65                             169    -0.110   26 212 
 BAR2 SZ ES   1    850 37.83                             169    -0.4 7   26 212 
 BAR2 SZ I         850 40.59        47.5 0.28                            26 212 
 GIR2 SZ EP   1    850 23.73                             165    -0.1 7   35 335 
 BRR  HZ IP     D  850 25.56                             148    -0.310   80 296 
 BRR  HN ES   1    850 42.42                             148     0.4 7   80 296 
 BRR  HZ I         850 43.69        58.7 0.16                            80 296 
 RUS  HZ EP        850 27.66                             142    -0.310  100 182 
 RUS  HE ES   1    850 46.02                             142     0.3 7  100 182 
 RUS  HZ I         850 47.88        13.7 0.38                           100 182 
 GUE  SZ EP        850 28.64                             137    -0.310  116   7 
 GRA  SZ IP        850 30.61                             135     1.210  124  13 
 GRA  SZ ES   2    850 48.42                             135     0.1 5  124  13 
 GRA  SZ I         850 50.97        25.9 0.42                           124  13 
 OCA  SZ EP        850 32.61                             127    -0.3 9  162 350 
 OCA  SZ ES   2    850 54.04                             127    -0.6 5  162 350 
 OCA  SZ I         850 57.53        24.6 0.40                           162 350 
 CHI  HN ES   2    851 11.70                             115     0.0 4  251 197 
 ROSC BZ EP   2    850 43.98                             114     0.7 4  257 213 
 ROSC BE ES   2    851 13.60                             114     0.6 4  257 213 
 HEL  HZ EP        850 46.06                             112     0.1 7  281 256 
 HEL  HZ I         851 22.52         7.2 0.30                           281 256 
 RREF HZ EP   1    850 52.08                             109     0.4 5  329 231 
 RREF HZ I         851 35.62         7.0 0.40                           329 231 
 SDV  BZ EP   2    850 53.07                             107    -1.0 3  354  49 
 PRA  HZ EP   1    850 58.42                             105    -0.4 4  396 211 
 PRA  HN ES   1    851 39.96                             105    -0.8 4  396 211 
 PRA  HZ I         851 44.72         4.6 0.57                           396 211 
                                                                                
