 2013  2 5 0755 32.3 L   6.786 -73.146149.2  RSN  8 0.4 1.7LRSN                1
 GAP=137        1.04       4.2     4.9  6.9 -0.2123E+01  0.5239E+01  0.5974E+01E
 Epicentro: LOS SANTOS - SANTANDER                                             3
 ACTION:UPD 13-03-12 09:30 OP:ep   STATUS:               ID:20130205075532 L   I
 2013-02-05-0750-00M.COL___241                                                 6
 STAT SP IPHASW D HRMM SECON CODA AMPLIT PERI AZIMU VELO AIN AR TRES W  DIS CAZ7
 BAR2 SZ EP        755 52.19                             171   -0.0910 21.8 191 
 BAR2 SZ ES        756  8.06                             171    0.1710 21.8 191 
 BAR2 SZ I         756  8.77        16.4 0.22            169           21.8 191 
 BRR  HZ EP        755 54.22                             153    0.3910 71.9 300 
 BRR  HN ES        756 11.44                             153    0.7910 71.9 300 
 BRR  HZ I         756 15.78         7.3 0.14            153           71.9 300 
 PAM  SZ EP        755 55.18                             151    0.2610 78.6  39 
 PAM  SZ I         755 55.39         7.9 0.26            154           78.6  39 
 PAM  SN ES        756 12.37                             151   -0.2210 78.6  39 
 RUS  HZ EP        755 56.12                             145   -0.1310 99.0 176 
 RUS  HN ES        756 14.63                             145   -0.3210 99.0 176 
 RUS  HZ I         756 15.84         6.9 0.38            145           99.0 176 
 PTB  HZ EP        755 59.36                             133   -0.13 9  147 259 
 PTB  HN ES        756 19.95                             133   -0.77 9  147 259 
 PTB  HZ I         756 22.08         8.3 0.16            133            147 259 
 OCA  HN ES   1    756 22.52                             130   -0.88 7  162 353 
 CHI  HZ EP        756 10.27                             118    0.27 8  247 195 
 CHI  HN ES   1    756 39.69                             118    0.27 6  247 195 
 CHI  HZ I         756 47.16         2.0 0.46            118            247 195 
 HEL  HN ES   1    756 44.33                             115    0.25 6  272 256 
                                                                                
