 2013 10 5 0606 37.8 L   6.846 -73.194140.0  RSN  5 0.4 1.5LRSN                1
 GAP=201        0.93       4.3     7.0  7.7 -0.4620E+01  0.1161E+02 -0.1058E+02E
 Epicentro: ZAPATOCA - SANTANDER                                               3
 ACTION:UPD 13-11-25 09:19 OP:ep   STATUS:               ID:20131005060637 L   I
 OLDACT:REG 13-10-05 08:41 OP:nd   STATUS:               ID:20131005055959     3
 2013-10-05-0559-59M.COL___273                                                 6
 STAT SP IPHASW D HRMM SECON CODA AMPLIT PERI AZIMU VELO AIN AR TRES W  DIS CAZ7
 BAR2 SZ EP        6 6 56.88                             168    0.0010 28.1 177 
 BAR2 SZ ES        6 7 11.40                             168   -0.3310 28.1 177 
 BAR2 SZ I         6 7 12.76         8.0 0.28            169           28.1 177 
 BRR  HZ EP        6 6 58.66                             154    0.7010 64.1 297 
 BRR  HN ES   2    6 7 14.45                             154    0.78 5 64.1 297 
 BRR  HZ I         6 7 15.12         4.0 0.52            151           64.1 297 
 PTB  HZ EP        6 7  3.44                             131   -0.52 9  144 256 
 PTB  HN ES        6 7 24.39                             131    0.06 9  144 256 
 PTB  HZ I         6 7 27.55         4.8 0.14            131            144 256 
 SPBC HZ EP        6 7  6.32                             127    0.35 9  164 216 
 SPBC HN ES        6 7 27.74                             127   -0.17 9  164 216 
 SPBC HZ I         6 7 30.64         3.8 0.18            128            164 216 
 SML  HZ EP        6 7 13.23                             117   -0.17 8  237 336 
 SML  HN ES        6 7 40.84                             117   -0.30 8  237 336 
 SML  HZ I         6 7 43.83         4.1 0.26            118            237 336 
                                                                                
