 2013  7 5 0331 45.1 L   6.819 -73.161142.3  RSN 12 0.4 2.3LRSN                1
 GAP= 70        0.99       3.0     3.1  5.2 -0.1879E+01  0.1664E+01 -0.2525E+00E
 Epicentro: LOS SANTOS - SANTANDER                                             3
 ACTION:UPD 13-08-12 10:35 OP:ep   STATUS:               ID:20130705033145 L   I
 OLDACT:REG 13-07-05 08:52 OP:stll STATUS:               ID:20130705032839     3
 2013-07-05-0328-39M.COL___236                                                 6
 STAT SP IPHASW D HRMM SECON CODA AMPLIT PERI AZIMU VELO AIN AR TRES W  DIS CAZ7
 BAR2 SZ EP        332  4.46                             169    0.1310 25.2 185 
 BAR2 SZ ES        332 19.32                             169   -0.0310 25.2 185 
 BAR2 SZ I         332 20.19        24.7 0.30            169           25.2 185 
 GIR2 SZ EP        332  4.30                             168    0.0310 28.9 353 
 BRR  HZ IP     D  332  6.11                             153    0.4010 68.7 298 
 BRR  HN ES        332 22.38                             153    0.5810 68.7 298 
 BRR  HN I         332 23.79        66.8 0.46            152           68.7 298 
 PAM  SZ EP        332  7.22                             150    0.3310 76.9  42 
 PAM  SN ES        332 24.31                             150    0.4010 76.9  42 
 PAM  SN I         332 25.13        82.8 0.46            153           76.9  42 
 RUS  HZ EP        332  8.54                             142   -0.1110  103 175 
 RUS  HN ES        332 27.03                             142   -0.0110  103 175 
 RUS  HN I         332 28.43        12.2 0.26            144            103 175 
 GRA  SZ EP        332 10.05                             137    0.1710  124  18 
 GRA  SZ ES        332 29.11                             137   -0.1310  124  18 
 PTB  HZ EP        332 11.18                             131   -0.47 9  147 258 
 PTB  HN ES        332 31.65                             131   -0.72 9  147 258 
 PTB  HN I         332 37.12        29.5 0.60            131            147 258 
 CAPV BZ IP     C  332 12.29                             131    0.16 9  149  39 
 TAM  HZ EP        332 12.79                             129    0.10 9  157 106 
 TAM  HN ES        332 33.63                             129   -0.59 9  157 106 
 OCA  HZ EP        332 12.44                             129   -0.46 9  158 354 
 OCA  HN ES        332 33.84                             129   -0.76 9  158 354 
 OCA  HN I         332 36.96        65.2 0.22            130            158 354 
 ZAR  HZ EP        332 17.53                             122    0.48 9  202 292 
 NOR  HZ EP        332 20.87                             118    0.28 8  235 234 
 NOR  HE ES        332 48.36                             118    0.07 8  235 234 
 NOR  HE I         332 53.28        11.9 0.46            118            235 234 
                                                                                
