 2012  2 5 0728 55.0 L   7.542 -73.099147.7  RSN 11 0.5 2.2LRSN                1
 GAP=125        0.92       3.9     5.0  6.9 -0.1953E+01  0.9441E+01 -0.2413E+01E
 ACTION:UP  12-03-07 16:27 OP:epov STATUS:               ID:20120205072855 L   I
 2012-02-05-0727-00S.MAN___181                                                 6
 STAT SP IPHASW D HRMM SECON CODA AMPLIT PERI AZIMU VELO SNR AR TRES W  DIS CAZ7
 PAM  SZ EP   1    729 16.38                             161    0.39 7 49.4 117 
 PAM  SN ES   1    729 32.82                             161    0.42 7 49.4 117 
 PAM  SZ I         729 34.24        19.0 0.23                          49.4 117 
 BRR  HZ EP   1    729 17.47                             149    0.44 7 83.1 235 
 BRR  HN ES   1    729 35.14                             149    0.90 7 83.1 235 
 BRR  HZ I         729 37.85        60.7 0.11                          83.1 235 
 BAR2 SZ EP   1    729 18.91                             143    0.01 7  105 185 
 BAR2 SZ ES   1    729 36.88                             143   -0.70 7  105 185 
 BAR2 SZ I         729 39.82        35.2 0.22                           105 185 
 RUS  HZ EP   1    729 25.58                             127   -0.42 7  182 179 
 RUS  HN ES   1    729 49.33                             127   -0.88 7  182 179 
 RUS  HZ I         729 51.64        14.4 0.31                           182 179 
 PTB  HZ EP   1    729 25.53                             126   -0.25 7  187 234 
 PTB  HN ES   1    729 49.13                             126   -0.68 7  187 234 
 ZAR  HZ EP   1    729 26.99                             124    0.45 6  194 268 
 ZAR  HN ES   1    729 50.70                             124   -0.47 6  194 268 
 ZAR  HZ I         729 54.49        18.0 0.12                           194 268 
 COD  HZ EP   1    729 34.41                             115    0.13 6  267 352 
 COD  HZ I         730  2.46        13.4 0.66                           267 352 
 COD  HN ES   1    730  4.17                             115   -0.78 6  267 352 
 NOR  SZ EP   1    729 38.04                             113    0.77 5  294 222 
 NOR  SN ES   1    730 10.91                             113    0.64 5  294 222 
 HEL  HZ EP   1    729 38.73                             112   -0.49 5  307 241 
 HEL  HN ES   1    730 13.57                             112   -0.17 5  307 241 
 HEL  HZ I         730 22.70         6.3 0.21                           307 241 
 CHI  HZ EP   1    729 42.04                             111    0.24 5  330 192 
 CHI  HZ I         729 43.28         3.3 0.22                           330 192 
 CHI  HN ES   1    730 18.50                             111    0.16 5  330 192 
 PRA  HZ EP   1    729 57.45                             104    0.03 4  467 205 
 PRA  HN ES   1    730 46.38                             104    0.25 4  467 205 
                                                                                
