 2014 11 5 0405 34.4 L   6.804 -73.131147.8  RSN 17 0.4 2.4LRSN                1
 GAP=127        1.04       3.1     3.9  5.0 -0.4019E+01  0.3770E+01  0.1935E+01E
 Epicentro: LOS SANTOS - SANTANDER                                             3
 ACTION:UPD 14-12-19 15:39 OP:nd   STATUS:               ID:20141105040534 L   I
 OLDACT:UP  14-11-05 14:29 OP:cam  STATUS:               ID:20141105035809     3
 OLDACT:UP  14-11-05 14:28 OP:cam  STATUS:               ID:20141105035809     3
 OLDACT:UP  14-11-05 14:27 OP:cam  STATUS:               ID:20141105035809     3
 OLDACT:UP  14-11-05 14:27 OP:cam  STATUS:               ID:20141105035809     3
 OLDACT:REG 14-11-05 13:11 OP:cam  STATUS:               ID:20141105035809     3
 2014-11-05-0358-09M.COL___272                                                 6
 STAT SP IPHASW D HRMM SECON CODA AMPLIT PERI AZIMU VELO AIN AR TRES W  DIS CAZ7
 BAR2 SZ EP        4 5 54.24                             170   -0.0010 24.1 194 
 BAR2 SZ ES        4 6  8.92                             170   -0.8310 24.1 194 
 BAR2 SZ I         4 6 11.01        43.1 0.42            169           24.1 194 
 BRR  HZ EP        4 5 56.11                             152    0.3210 72.5 298 
 BRR  HN ES        4 6 13.47                             152    0.9610 72.5 298 
 BRR  HZ I         4 6 14.35        43.5 0.12            151           72.5 298 
 PAM  SZ IP     D  4 5 56.91                             152    0.2110 76.0  39 
 PAM  SN ES        4 6 14.40                             152    0.2710 76.0  39 
 PAM  SZ I         4 6 16.34        51.2 0.54            156           76.0  39 
 RUS  HZ EP        4 5 58.20                             144   -0.1310  101 177 
 RUS  HN ES        4 6 17.41                             144    0.3910  101 177 
 RUS  HZ I         4 6 18.67        28.4 0.34            146            101 177 
 PTB  HZ EP        4 6  0.87                             132   -0.77 9  149 259 
 PTB  HN ES        4 6 22.48                             132   -0.44 9  149 259 
 PTB  HZ I         4 6 29.27        34.4 0.34            132            149 259 
 OCA  HZ EP        4 6  2.88                             130    0.08 9  160 353 
 OCA  HN ES        4 6 24.46                             130   -0.53 9  160 353 
 OCA  HZ I         4 6 28.05        21.1 0.18            132            160 353 
 SPBC HZ EP        4 6  3.10                             129   -0.04 9  165 219 
 SPBC HN ES        4 6 25.50                             129   -0.09 9  165 219 
 SPBC HZ I         4 6 31.41        48.1 0.32            130            165 219 
 NOR  HZ EP        4 6 10.53                             119    0.16 8  236 235 
 CHI  HZ EP        4 6 12.53                             117    0.27 8  249 196 
 CHI  HN ES        4 6 41.96                             117    0.14 8  249 196 
 ROSC BZ EP        4 6 12.96                             117    0.24 8  254 211 
 ROSC BN ES        4 6 42.31                             117   -0.33 8  254 211 
 ROSC BZ I         4 6 49.06        16.6 0.35            118            254 211 
 HEL  HZ EP        4 6 15.12                             115    0.26 8  274 256 
 HEL  HN ES        4 6 46.72                             115    0.27 8  274 256 
 HEL  HZ I         4 6 53.80        14.4 0.54            116            274 256 
 URE  HZ EP   4    4 6 14.60                             114   -1.08 0  285 292 
 URE  HN ES   4    4 6 45.08                             114   -2.83 0  285 292 
 URE  HZ I         4 6 49.17        25.2 0.16            115            285 292 
 GUY2CHZ EP   4    4 6 19.58                             113    1.34 0  303 235 
 GUY2CHN ES        4 6 51.79                             113   -0.68 7  303 235 
 GUY2CHZ I         4 7  1.11        16.3 0.72                           303 235 
 CBOC HZ EP        4 6 22.02                             110    0.47 7  335 252 
 CBOC HE ES        4 6 58.43                             110    0.07 7  335 252 
 CBOC HZ I         4 6 59.65         3.8 0.20            111            335 252 
 DBB  SZ ES   4    4 6 57.51                             110   -1.83 0  341 274 
 TOL  SZ EP   4    4 6 24.01                             110    1.15 0  345 225 
 TOL  SE ES   4    4 7  2.21                             110    1.51 0  345 225 
 TOL  SZ I         4 7  6.75        21.9 0.36            111            345 225 
 MON  HZ EP   4    4 6 21.46                             109   -2.09 0  355 308 
 SDV  BZ EP        4 6 23.65                             109   -0.64 6  359  50 
 ORTC HZ EP        4 6 28.80                             107    0.30 6  397 216 
                                                                                
