 2013  7 5 0845 55.5 L   6.811 -73.166146.5  RSN  5 0.4 1.6LRSN                1
 GAP=181        1.13       8.0     7.7  8.9  0.2310E+02 -0.3970E+00 -0.5998E+01E
 Epicentro: LOS SANTOS - SANTANDER                                             3
 ACTION:UPD 13-08-12 10:35 OP:ep   STATUS:               ID:20130705084555 L   I
 OLDACT:REG 13-07-05 09:01 OP:stll STATUS:               ID:20130705083835     3
 2013-07-05-0838-35M.COL___230                                                 6
 STAT SP IPHASW D HRMM SECON CODA AMPLIT PERI AZIMU VELO AIN AR TRES W  DIS CAZ7
 BAR2 SZ EP        846 15.41                             170    0.1510 24.3 184 
 BAR2 SZ ES        846 30.11                             170   -0.5410 24.3 184 
 BAR2 SZ I         846 32.63         4.5 0.24            166           24.3 184 
 GIR2 SZ EP        846 14.58                             168   -0.6610 29.7 354 
 BRR  HZ EP        846 17.03                             153    0.4310 68.6 299 
 BRR  HN ES        846 33.65                             153    0.6010 68.6 299 
 BRR  HN I         846 34.68        10.6 0.44            152           68.6 299 
 RUS  HZ EP        846 19.79                             144    0.3510  102 175 
 RUS  HN ES        846 38.32                             144    0.2110  102 175 
 RUS  HN I         846 39.69         6.9 0.38            143            102 175 
 PTB  HZ EP        846 22.02                             133   -0.35 9  146 258 
 PTB  HN ES        846 43.05                             133   -0.26 9  146 258 
 PTB  HN I         846 48.48         9.5 0.26            131            146 258 
                                                                                
