 2016  8 5 0028 57.5 L   6.797 -73.109146.8  RSN  8 0.3 1.6LRSN                1
 GAP=141        0.74       3.0     3.4  4.5 -0.1759E+01  0.5658E+01  0.1378E+01E
 Epicentro: LOS SANTOS - SANTANDER                                             3
 ACTION:UPD 16-10-29 15:32 OP:rebc STATUS:               ID:20160805002857 L   I
 OLDACT:UP  16-08-05 13:37 OP:edw  STATUS:               ID:20160805002734     3
 OLDACT:REG 16-08-05 12:37 OP:edw  STATUS:               ID:20160805002734     3
 2016-08-05-0028-00M.COL___353                                                 6
 STAT SP IPHASW D HRMM SECON CODA AMPLIT PERI AZIMU VELO AIN AR TRES W  DIS CAZ7
 BAR2 EZ EP        029 16.91                             170   -0.3510 24.0 200 
 BAR2 EZ ES        029 32.35                             170   -0.3310 24.0 200 
 BRR  HZ EP        029 18.67                             151   -0.3010 75.0 297 
 BRR  HN ES        029 35.59                             151   -0.1310 75.0 297 
 BRR  HZ I         029 36.47        16.5 0.32                          75.0 297 
 PAM  EZ EP        029 19.79                             152    0.1010 75.2  37 
 PAM  EE ES        029 37.45                             152    0.4510 75.2  37 
 PAM  EZ I         029 39.27         4.4 0.66                          75.2  37 
 RUS  HZ EP        029 21.02                             144   -0.2910  100 178 
 RUS  HN ES        029 40.13                             144    0.2510  100 178 
 RUS  HZ I         029 40.72         4.0 0.30                           100 178 
 SPBC HZ EP        029 26.06                             129   -0.23 9  165 220 
 SPBC HN ES        029 49.28                             129    0.53 9  165 220 
 SPBC HZ I         029 51.22         4.9 0.22                           165 220 
 ZAR  HZ EP        029 30.82                             122    0.41 8  208 292 
 ZAR  HE ES        029 56.08                             122   -0.01 8  208 292 
 ZAR  HZ I         030  3.48         2.3 0.30                           208 292 
 NOR  HZ EP        029 33.72                             118    0.10 8  238 235 
 NOR  HE ES        030  1.58                             118   -0.21 8  238 235 
 NOR  HZ I         030  3.70         3.4 0.18                           238 235 
 GUY2CHZ EP        029 41.65                             112    0.14 7  304 235 
 GUY2CHN ES        030 15.99                             112    0.16 7  304 235 
 GUY2CHZ I         030 27.05         1.5 0.50                           304 235 
                                                                                
