 2013  5 5 0143  8.0 L   6.779 -73.146149.9  RSN  8 0.4 2.0LRSN                1
 GAP=137        1.11       4.4     5.3  6.8 -0.5967E+01  0.7730E+01  0.4152E+01E
 Epicentro: LOS SANTOS - SANTANDER                                             3
 ACTION:UPD 13-06-20 09:47 OP:ep   STATUS:               ID:20130505014308 L   I
 2013-05-05-0138-50M.COL___220                                                 6
 STAT SP IPHASW D HRMM SECON CODA AMPLIT PERI AZIMU VELO AIN AR TRES W  DIS CAZ7
 BAR2 SZ EP        143 28.10                             172    0.0610 21.0 191 
 BAR2 SZ ES        143 43.27                             172   -0.4310 21.0 191 
 BAR2 SZ I         143 45.73        11.0 0.22            169           21.0 191 
 GIR2 SZ EP        143 28.19                             167    0.0110 33.6 351 
 GIR2 SZ ES        143 44.21                             167    0.2510 33.6 351 
 BRR  HZ IP     C  143 29.96                             153    0.3510 72.3 300 
 BRR  HZ I         143 30.24        15.9 0.26            152           72.3 300 
 BRR  HN ES        143 47.51                             153    1.0010 72.3 300 
 PAM  SZ IP     D  143 31.01                             151    0.3010 79.2  38 
 PAM  SZ I         143 31.12        18.7 0.20            155           79.2  38 
 PAM  SN ES        143 48.29                             151   -0.1810 79.2  38 
 RUS  HZ EP        143 32.25                             145    0.3010 98.3 176 
 RUS  HN ES        143 50.41                             145   -0.2610 98.3 176 
 RUS  HN I         143 52.57        11.1 0.24            145           98.3 176 
 PTB  HZ EP        143 34.87                             133   -0.35 9  147 260 
 PTB  HN ES        143 56.14                             133   -0.35 9  147 260 
 PTB  HN I         144  1.78        19.2 0.32            132            147 260 
 OCA  HN ES        143 58.44                             130   -0.86 9  163 353 
 NOR  HZ EP        143 43.83                             119    0.05 8  233 235 
 NOR  HN ES        144 11.54                             119   -0.18 8  233 235 
 NOR  HN I         144 16.97        14.0 0.20            119            233 235 
                                                                                
