 2016 11 5 0157 34.5 L   6.806 -73.136159.6  RSN  7 0.3 1.8LRSN                1
 GAP=180        0.82       5.4     4.8  6.8  0.2793E-01  0.1023E+02  0.1282E+02E
 Epicentro: LOS SANTOS - SANTANDER                                             3
 ACTION:UPD 17-10-26 21:04 OP:lp   STATUS:               ID:20161105015734 L   I
 OLDACT:UP  16-11-05 14:57 OP:dani STATUS:               ID:20161105014741d    3
 OLDACT:UP  16-11-05 14:57 OP:dani STATUS:               ID:20161105014741d    3
 OLDACT:DUP 16-11-05 14:54 OP:dani STATUS:               ID:20161105014741d    3
 OLDACT:UP  16-11-05 14:54 OP:dani STATUS:               ID:20161105014740     3
 OLDACT:UP  16-11-05 14:53 OP:dani STATUS:               ID:20161105014740     3
 OLDACT:REG 16-11-05 13:21 OP:dani STATUS:               ID:20161105014740     3
 2016-11-05-0148-00M.COL___352                                                 6
 STAT SP IPHASW D HRMM SECON CODA AMPLIT PERI AZIMU VELO AIN AR TRES W  DIS CAZ7
 BRR  HZ EP        157 57.35                             154    0.1910 71.8 298 
 BRR  HE ES        158 14.77                             154   -0.0910 71.8 298 
 BRR  HZ I         158 15.50        11.3 0.11            155           71.8 298 
 PAM  EZ EP        157 58.47                             153    0.3710 76.1  39 
 PAM  EE ES        158 16.36                             153   -0.1810 76.1  39 
 PAM  EZ I         158 17.42         7.0 0.30            154           76.1  39 
 PTB  HZ EP     D  158  1.99                             135   -0.71 9  149 259 
 PTB  HN ES   4    158 22.64                             135   -2.08 0  149 259 
 PTB  HZ I         158 28.15         7.8 0.32            128            149 259 
 SPBC HZ EP        158  4.07                             132   -0.10 9  164 219 
 SPBC HZ I         158 31.41         6.2 0.16            122            164 219 
 ZAR  HN ES        158 34.36                             125    0.34 9  205 292 
 NOR  HZ EP        158 11.63                             121    0.46 8  236 234 
 SJC  HZ EP        158 30.22                             108   -0.29 6  409 327 
 SJC  HN ES        159 14.08                             108   -0.15 6  409 327 
 SJC  HZ I         159 19.79         1.5 0.29            105            409 327 
                                                                                
