 2010  9 5 0250 49.2 L   6.798 -73.062147.0  RSN  8 0.3 1.6LRSN                1
 GAP=168        0.69       3.8     8.6  6.5 -0.1422E-01 -0.9697E+01 -0.9480E+00E
 Epicentro: LOS SANTOS - SANTANDER                                             3
 ACTION:UP  11-02-18 11:00 OP:tino STATUS:               ID:20100905025049 L   I
 2010-09-05-0249-15S.COL___120                                                 6
 STAT SP IPHASW D HRMM SECON CODA AMPLIT PERI AZIMU VELO SNR AR TRES W  DIS CAZ7
 BAR2 SZ EP   1    251  9.11                             169     0.0 7   26 210 
 BAR2 SZ ES   2    251 23.75                             169    -0.8 5   26 210 
 BAR2 SZ I         251 27.23        10.8 0.47                            26 210 
 BRR  HZ EP        251 11.04                             150     0.010   80 296 
 BRR  HN ES   1    251 28.17                             150     0.2 7   80 296 
 BRR  HZ I         251 31.66        12.2 0.19                            80 296 
 RUS  HZ EP   1    251 13.05                             144     0.0 7  100 181 
 RUS  HN ES   1    251 31.86                             144     0.2 7  100 181 
 RUS  HZ I         251 33.48         4.9 0.16                           100 181 
 GUE  SZ EP   1    251 14.38                             140     0.4 7  115   8 
 GUE  SZ I         251 40.14         2.6 0.07                           115   8 
 GRA  SZ EP   2    251 14.33                             138    -0.1 5  124  13 
 GRA  SZ ES   2    251 33.92                             138    -0.1 5  124  13 
 GRA  SZ I         251 39.18         4.4 0.27                           124  13 
 OCA  SZ EP   1    251 17.39                             130    -0.4 7  162 350 
 OCA  SZ I         251 44.45         4.6 0.67                           162 350 
 CHI  HZ EP   1    251 27.38                             117     0.1 6  251 197 
 CHI  HZ I         251 28.12         3.2 0.26                           251 197 
 PRA  HZ EP   1    251 42.74                             106    -0.6 4  396 211 
 PRA  HZ I         252 31.24         2.4 0.37                           396 211 
                                                                                
