 2015  3 5 0627 25.8 L   6.818 -73.141149.6  RSN  5 0.3 1.0LRSN                1
 GAP=136        0.66       4.1     4.0  6.2 -0.5706E+01 -0.1798E+00  0.7550E+01E
 Epicentro: LOS SANTOS - SANTANDER                                             3
 ACTION:UPD 15-04-30 16:23 OP:nd   STATUS:               ID:20150305062725 L   I
 OLDACT:DUP 15-03-05 16:54 OP:spq  STATUS:               ID:20150305061749d    3
 2015-03-05-0617-48M.COL___281                                                 6
 STAT SP IPHASW D HRMM SECON CODA AMPLIT PERI AZIMU VELO AIN AR TRES W  DIS CAZ7
 BRR  HZ EP   1    627 47.55                             153    0.21 7 70.7 297 
 BRR  HN ES        628  4.51                             153    0.3710 70.7 297 
 BRR  HZ I         628  8.92         1.7 0.10            152           70.7 297 
 PAM  SZ EP        627 48.41                             152    0.0810 75.5  40 
 PAM  SE ES        628  5.62                             152   -0.2710 75.5  40 
 PAM  SZ I         628  7.37         4.5 0.54            159           75.5  40 
 RUS  HZ EP   1    627 50.26                             144    0.18 7  103 176 
 RUS  HN ES   1    628  8.94                             144   -0.07 7  103 176 
 RUS  HZ I         628 10.19         1.1 0.28            146            103 176 
 PTB  HZ EP   1    627 52.66                             133   -0.51 7  149 258 
 PTB  HN ES   1    628 13.98                             133   -0.53 7  149 258 
 PTB  HZ I         628 20.15         0.9 0.26            133            149 258 
 SPBC HZ EP   1    627 55.01                             130    0.23 7  165 219 
 SPBC HN ES   1    628 17.45                             130    0.08 7  165 219 
 SPBC HZ I         628 25.74         1.6 0.16            130            165 219 
                                                                                
