 2017  3 5 0944 37.0 L   6.779 -73.156148.0  RSN  6 0.4 1.4LRSN                1
 GAP=136        0.93       4.0     4.7  6.6 -0.4131E+00  0.6323E+01  0.1870E+01E
 Epicentro: LOS SANTOS - SANTANDER                                             3
 ACTION:UPD 17-05-25 18:36 OP:jn   STATUS:               ID:20170305094437 L   I
 OLDACT:DUP 17-03-05 15:55 OP:ar   STATUS:               ID:20170305093747d    3
 2017-03-05-0938-00M.COL___375                                                 6
 STAT SP IPHASW D HRMM SECON CODA AMPLIT PERI AZIMU VELO AIN AR TRES W  DIS CAZ7
 BAR2 EZ EP        944 56.79                             172   -0.0810 20.8 188 
 BAR2 EZ ES        945 12.12                             172   -0.2310 20.8 188 
 BAR2 EZ I         945 14.34         7.0 0.30            172           20.8 188 
 BRR  HZ EP        944 58.57                             153    0.1610 71.3 301 
 BRR  HZ I         945 15.34         4.9 0.40            145           71.3 301 
 BRR  HN ES        945 15.55                             153    0.4510 71.3 301 
 PAM  EZ EP        944 59.72                             150    0.1010 79.9  39 
 PAM  EN ES        945 17.20                             150   -0.0510 79.9  39 
 PAM  EZ I         945 19.09         3.5 0.64            147           79.9  39 
 RUS  HZ EP        945  0.17                             145   -0.6610 98.3 175 
 RUS  HN ES        945 19.65                             145    0.2510 98.3 175 
 RUS  HZ I         945 20.54         2.9 0.32            145           98.3 175 
 SPBC HZ EP        945  6.05                             130    0.60 9  161 219 
 SPBC HN ES        945 27.51                             130   -0.11 9  161 219 
 SPBC HZ I         945 30.48         5.6 0.26            127            161 219 
 ZAR  HZ EP   2    945 10.05                             123    0.46 4  204 293 
 ZAR  HN ES        945 34.40                             123   -0.60 9  204 293 
 ZAR  HZ I         945 43.32         2.3 0.18            118            204 293 
                                                                                
