 2015  3 5 0740 47.6 L   6.760 -73.132152.8  RSN  9 0.4 1.4LRSN                1
 GAP=140        0.99       3.7     4.8  6.3 -0.2611E+01  0.5662E+01 -0.1105E+01E
 Epicentro: LOS SANTOS - SANTANDER                                             3
 ACTION:UPD 15-04-30 16:23 OP:nd   STATUS:               ID:20150305074047 L   I
 OLDACT:REG 15-03-05 13:50 OP:spq  STATUS:               ID:20150305073749     3
 2015-03-05-0737-49M.COL___281                                                 6
 STAT SP IPHASW D HRMM SECON CODA AMPLIT PERI AZIMU VELO AIN AR TRES W  DIS CAZ7
 BAR2 EZ EP        741  7.92                             172   -0.1110 19.4 197 
 BAR2 EZ ES   1    741 23.93                             172   -0.01 7 19.4 197 
 BAR2 EZ I         741 26.55         3.8 0.22            171           19.4 197 
 BRR  HZ EP        741 10.12                             153    0.3910 74.7 301 
 BRR  HE ES        741 27.63                             153    0.6610 74.7 301 
 BRR  HZ I         741 29.82         6.6 0.12            152           74.7 301 
 PAM  SZ EP        741 11.08                             151    0.3410 79.9  37 
 PAM  SN ES        741 28.38                             151   -0.3810 79.9  37 
 PAM  SZ I         741 31.36         2.1 0.22            155           79.9  37 
 RUS  HZ EP        741 11.88                             146    0.1210 96.1 177 
 RUS  HN ES   1    741 30.25                             146   -0.34 7 96.1 177 
 RUS  HZ I         741 31.18         2.3 0.28            148           96.1 177 
 PTB  HZ EP        741 14.66                             133   -0.58 9  148 261 
 PTB  HN ES        741 36.18                             133   -0.59 9  148 261 
 PTB  HZ I         741 39.47         3.1 0.16            134            148 261 
 SPBC HZ EP        741 17.02                             131    0.57 9  161 220 
 SPBC HE ES        741 39.06                             131    0.13 9  161 220 
 SPBC HZ I         741 43.78         4.5 0.12            132            161 220 
 ZAR  HZ EP        741 21.10                             123    0.25 8  207 293 
 ZAR  HN ES   2    741 47.16                             123    0.39 4  207 293 
 ZAR  HZ I         741 52.34         4.3 0.34            124            207 293 
 CHI  HN ES   1    741 54.18                             119   -0.52 6  245 196 
 CHI  HZ I         742  0.34         0.6 0.56            120            245 196 
 SML  HZ EP        741 24.76                             118   -0.39 8  248 335 
 SML  HE ES   1    741 53.78                             118   -0.64 6  248 335 
 SML  HZ I         741 56.35         2.9 0.10            120            248 335 
                                                                                
