 2013  2 5 0438  8.7 L   6.800 -73.147151.6  RSN  9 0.4 2.2LRSN                1
 GAP= 71        0.94       4.0     3.7  6.0  0.1871E+01  0.3806E+01 -0.4467E+01E
 Epicentro: LOS SANTOS - SANTANDER                                             3
 ACTION:UPD 13-03-12 09:30 OP:ep   STATUS:               ID:20130205043808 L   I
 2013-02-05-0437-48M.COL___169                                                 6
 STAT SP IPHASW D HRMM SECON CODA AMPLIT PERI AZIMU VELO AIN AR TRES W  DIS CAZ7
 BAR2 SZ EP        438 29.04                             171    0.0210 23.3 190 
 BAR2 SZ ES        438 44.40                             171   -0.4910 23.3 190 
 BAR2 SZ I         438 47.00        20.3 0.30            173           23.3 190 
 BRR  HZ EP        438 30.96                             153    0.4910 71.1 299 
 BRR  HN ES   1    438 48.34                             153    0.89 7 71.1 299 
 BRR  HN I         438 49.40        31.8 0.22            152           71.1 299 
 PAM  SZ EP   1    438 31.93                             152    0.39 7 77.5  40 
 PAM  SN ES        438 49.17                             152   -0.1910 77.5  40 
 PAM  SN I         438 51.66         9.1 0.42            152           77.5  40 
 RUS  HZ EP        438 32.90                             145   -0.1210  101 176 
 RUS  HE ES        438 51.99                             145   -0.0110  101 176 
 RUS  HE I         438 52.63         7.6 0.48            149            101 176 
 PTB  HZ EP        438 36.02                             133   -0.10 9  148 259 
 PTB  HN ES        438 57.01                             133   -0.52 9  148 259 
 PTB  HN I         439  2.37        46.5 0.50            134            148 259 
 TAM  HZ EP   1    438 37.15                             132    0.30 7  155 105 
 TAM  HN ES   1    438 59.04                             132    0.22 7  155 105 
 TAM  HN I         438 59.64        11.6 0.34            135            155 105 
 OCA  HZ EP   1    438 36.71                             131   -0.75 7  160 353 
 OCA  HN ES   2    439  0.15                             131    0.25 5  160 353 
 OCA  HN I         439  2.89        38.6 0.18            131            160 353 
 ZAR  HZ EP        438 41.70                             123    0.19 9  204 292 
 ZAR  HN ES   1    439  7.90                             123    0.80 6  204 292 
 ZAR  HN I         439 13.29        15.2 0.14            124            204 292 
 SML  HZ EP   1    438 45.50                             118   -0.14 6  244 335 
 SML  HN ES   1    439 13.76                             118   -0.71 6  244 335 
 SML  HN I         439 20.69        21.5 0.10            119            244 335 
                                                                                
