 2016  6 5 0838 15.2 L   6.753 -73.136143.1  RSN  5 0.4 1.1LRSN                1
 GAP=140        0.94       4.9     4.8  6.9 -0.2196E+01  0.4271E+01  0.1235E+01E
 Epicentro: LOS SANTOS - SANTANDER                                             3
 ACTION:UPD 16-07-21 22:15 OP:rebc STATUS:               ID:20160605083815 L   I
 OLDACT:DUP 16-06-05 18:21 OP:cara STATUS:               ID:20160605083743d    3
 OLDACT:REG 16-06-05 13:16 OP:edw  STATUS:               ID:20160605083742     3
 2016-06-05-0837-42M.COL___316                                                 6
 STAT SP IPHASW D HRMM SECON CODA AMPLIT PERI AZIMU VELO AIN AR TRES W  DIS CAZ7
 BAR2 EZ EP        838 34.25                             172   -0.1710 18.5 196 
 BAR2 EZ ES        838 49.23                             172   -0.1810 18.5 196 
 BAR2 EZ I         838 50.01         3.1 0.40                          18.5 196 
 BRR  HZ EP        838 36.79                             151    0.5310 74.7 302 
 BRR  HN ES        838 53.22                             151    0.5310 74.7 302 
 BRR  HZ I         838 57.53         3.1 0.14                          74.7 302 
 PAM  EZ IP        838 37.33                             149   -0.0110 80.8  37 
 PAM  EE ES        838 54.26                             149   -0.3610 80.8  37 
 PAM  EZ I         838 56.51         1.8 0.24                          80.8  37 
 RUS  HZ EP        838 38.66                             145    0.3510 95.3 176 
 RUS  HN ES        838 56.42                             145    0.0810 95.3 176 
 RUS  HZ I         838 57.58         1.2 0.40                          95.3 176 
 PTB  HZ EP        838 41.43                             131   -0.53 9  148 261 
 PTB  HN ES        839  2.49                             131   -0.34 9  148 261 
 PTB  HZ I         839  4.65         1.7 0.38                           148 261 
                                                                                
