 2016  1 5 0103 14.9 L   6.746 -73.155143.1  RSN  6 0.4 1.6LRSN                1
 GAP=138        1.09       5.7     5.6  8.0 -0.2872E+01  0.5618E+01  0.1571E+01E
 Epicentro: LOS SANTOS - SANTANDER                                             3
 ACTION:UPD 16-03-09 23:22 OP:cam  STATUS:               ID:20160105010314 L   I
 OLDACT:REG 16-01-05 12:22 OP:drio STATUS:               ID:20160105005736     3
 2016-01-05-0057-36M.COL___335                                                 6
 STAT SP IPHASW D HRMM SECON CODA AMPLIT PERI AZIMU VELO AIN AR TRES W  DIS CAZ7
 BAR2 EZ EP        1 3 34.30                             173    0.1610 17.3 190 
 BAR2 EZ ES        1 3 48.91                             173   -0.2110 17.3 190 
 BAR2 EZ I         1 3 50.01         8.7 0.76            173           17.3 190 
 BRR  HZ EP        1 3 36.22                             151    0.2910 73.3 303 
 BRR  HN ES        1 3 53.10                             151    0.8110 73.3 303 
 BRR  HZ I         1 4  0.86         8.8 0.66            150           73.3 303 
 PAM  EZ EP        1 3 37.17                             149   -0.0310 82.7  38 
 PAM  EN ES        1 3 54.05                             149   -0.5110 82.7  38 
 PAM  EZ I         1 3 55.13         6.5 0.16            152           82.7  38 
 RUS  HZ EP        1 3 38.37                             145    0.3510 94.8 175 
 RUS  HN ES        1 3 56.04                             145    0.0310 94.8 175 
 RUS  HZ I         1 3 57.95         5.0 0.26            149           94.8 175 
 PTB  HZ EP        1 3 41.08                             132   -0.42 9  146 261 
 PTB  HN ES        1 4  1.63                             132   -0.59 9  146 261 
 PTB  HZ I         1 4  4.35         7.4 0.18            133            146 261 
 GUY2CHZ EP   4    1 3 59.64                             112    1.69 0  297 236 
 GUY2CHN ES   4    1 4 33.69                             112    2.20 0  297 236 
 GUY2CHZ I         1 4 41.40         1.4 0.58                           297 236 
                                                                                
