 2016  7 5 0939 30.8 L   6.727 -73.165141.4  RSN  6 0.3 1.4LRSN                1
 GAP=137        0.74       3.6     3.5  5.4 -0.2133E+00  0.7524E+01 -0.1333E+01E
 Epicentro: VILLANUEVA - SANTANDER                                             3
 ACTION:UPD 17-03-29 16:47 OP:lp   STATUS:               ID:20160705093930 L   I
 OLDACT:REG 16-07-05 13:22 OP:dani STATUS:               ID:20160705093742     3
 2016-07-05-0937-42M.COL___322                                                 6
 STAT SP IPHASW D HRMM SECON CODA AMPLIT PERI AZIMU VELO AIN AR TRES W  DIS CAZ7
 BAR2 EZ EP   4    939 51.26                             174    1.44 0 15.0 187 
 BAR2 EZ ES        940  4.80                             174    0.1910 15.0 187 
 BAR2 EZ I         940  5.63         6.4 0.16            173           15.0 187 
 PAM  EZ EP        939 52.93                             148   -0.1610 85.1  37 
 PAM  EE ES        940 10.29                             148   -0.1510 85.1  37 
 PAM  EZ I         940 12.36         3.6 0.32            150           85.1  37 
 RUS  HZ EP        939 53.47                             145   -0.1410 92.7 174 
 RUS  HE ES        940 11.63                             145    0.2710 92.7 174 
 RUS  HZ I         940 12.98         3.6 0.34            149           92.7 174 
 PTB  HZ EP        939 57.00                             132   -0.15 9  144 262 
 PTB  HE ES        940 17.16                             132   -0.51 9  144 262 
 PTB  HZ I         940 22.43         3.5 0.20            132            144 262 
 SPBC HZ EP        939 58.27                             129   -0.02 9  156 220 
 SPBC HE ES   4    940 20.76                             129    1.06 0  156 220 
 ZAR  HZ EP        940  3.75                             121    0.60 8  205 294 
 ZAR  HE ES        940 28.55                             121    0.21 8  205 294 
 ZAR  HZ I         940 34.92         3.0 0.44            122            205 294 
                                                                                
