 2011  1 5 0424 25.1 L   5.891 -73.680117.7  RSN  9 0.4 2.1LRSN                1
 GAP= 92        0.78       3.5     4.1  7.8 -0.6242E+01  0.1374E+02 -0.3590E+01E
 Epicentro: PUENTE NACIONAL - SANTANDER                                        3
 ACTION:UP  11-02-08 08:38 OP:pat  STATUS:               ID:20110105042425 L   I
 2011-01-05-0420-00M.COL___137                                                 6
 STAT SP IPHASW D HRMM SECON CODA AMPLIT PERI AZIMU VELO SNR AR TRES W  DIS CAZ7
 RUS  HZ EP   1    424 42.98                             149    -0.6 7   66  90 
 RUS  HE ES   1    424 58.61                             149     0.5 7   66  90 
 BAR2 SZ EP   1    424 45.08                             139    -0.3 7   95  35 
 BAR2 SZ ES   1    425  0.90                             139    -0.3 7   95  35 
 BAR2 SZ I         425  2.09        52.2 0.48                            95  35 
 NOR  SZ EP   1    424 48.74                             127    -0.1 7  137 255 
 NOR  SN ES   1    425  7.53                             127     0.1 7  137 255 
 CHI  HZ EP   1    424 49.73                             127     0.1 7  140 182 
 CHI  HE ES   1    425  8.80                             127     0.0 7  140 182 
 CHI  HZ I         425 13.75         6.4 0.54                           140 182 
 HEL  HZ EP   2    424 56.62                             115     0.0 4  207 279 
 HEL  HE ES   2    425 21.15                             115    -0.2 4  207 279 
 HEL  HZ I         425 28.06         6.2 0.17                           207 279 
 RREF HZ EP   1    424 58.20                             114     0.4 6  215 239 
 RREF HN ES   1    425 23.11                             114    -0.3 6  215 239 
 RREF HZ I         425 29.54         5.5 0.15                           215 239 
 OCA  SZ EP   1    425  2.52                             109    -0.1 6  263   9 
 OCA  SZ ES   1    425 32.85                             109     0.9 6  263   9 
 OCA  SZ I         425 35.87        10.4 0.48                           263   9 
 PRA  HZ EP   2    425  3.55                             108    -0.4 4  275 209 
 PRA  HE ES   2    425 35.03                             108     0.7 4  275 209 
 PRA  HZ I         425 40.36        27.4 0.18                           275 209 
 SJA  SZ EP   2    425  6.34                             107     0.5 4  291 186 
 SJA  SZ I         425 40.80        13.9 0.37                           291 186 
                                                                                
