 2015 10 5 0553  1.1 L   6.810 -73.147143.3  RSN 10 0.5 1.9LRSN                1
 GAP=136        1.18       3.1     5.2  6.7 -0.1469E+01  0.8678E+01  0.7867E+00E
 Epicentro: LOS SANTOS - SANTANDER                                             3
 ACTION:UPD 15-12-22 20:37 OP:cam  STATUS:               ID:20151005055300 L   I
 OLDACT:UP  15-10-29 04:28 OP:DRIO STATUS:               ID:20151005055300 L   3
 OLDACT:UP  15-10-05 17:40 OP:ak   STATUS:               ID:20151005054747     3
 OLDACT:REG 15-10-05 13:22 OP:ak   STATUS:               ID:20151005054747     3
 2015-10-05-0547-47M.COL___346                                                 6
 STAT SP IPHASW D HRMM SECON CODA AMPLIT PERI AZIMU VELO AIN AR TRES W  DIS CAZ7
 BAR2 EZ EP        553 20.61                             170    0.1810 24.4 189 
 BAR2 EZ ES        553 35.26                             170   -0.2710 24.4 189 
 BAR2 EZ I         553 36.73        14.5 0.18            169           24.4 189 
 BRR  HZ EP        553 22.52                             152    0.6010 70.6 298 
 BRR  HE ES        553 38.83                             152    0.6510 70.6 298 
 BRR  HZ I         553 43.85        15.6 0.12            150           70.6 298 
 PAM  EZ EP        553 23.71                             150    0.7310 76.6  40 
 PAM  EN ES        553 40.22                             150    0.1510 76.6  40 
 PAM  EZ I         553 42.84        14.6 0.62            155           76.6  40 
 RUS  HZ EP        553 24.78                             143    0.1210  102 176 
 RUS  HN ES        553 42.52                             143   -0.5410  102 176 
 RUS  HZ I         553 44.55         6.5 0.37            146            102 176 
 OCA  HZ EP   1    553 28.26                             129   -0.83 7  159 353 
 OCA  HE ES        553 50.25                             129   -0.69 9  159 353 
 OCA  HZ I         553 54.01        21.5 0.38            132            159 353 
 SPBC HZ EP        553 29.76                             128    0.30 9  164 219 
 SPBC HE ES        553 51.09                             128   -0.51 9  164 219 
 SPBC HZ I         553 57.48         6.5 0.17            130            164 219 
 ZAR  HN ES        553 58.82                             122    0.37 9  204 292 
 ZAR  HZ I         554  4.91         6.6 0.21            123            204 292 
 NOR  HZ EP   1    553 36.03                             118   -0.69 6  235 234 
 NOR  HN ES        554  4.62                             118    0.10 8  235 234 
 NOR  HZ I         554  8.29         4.1 0.22            120            235 234 
 SML  HZ EP        553 37.37                             117   -0.08 8  243 335 
 SML  HE ES        554  5.05                             117   -0.77 8  243 335 
 CHI  HZ EP        553 39.01                             116    0.26 8  250 195 
 CHI  HN ES        554  7.83                             116   -0.30 8  250 195 
 SJC  HZ EP   4    553 55.16                             105   -1.28 0  408 327 
 SJC  HE ES   4    554 36.73                             105   -2.90 0  408 327 
                                                                                
