 2011 12 5 0838 27.7 L   6.785 -73.061148.5  RSN  6 0.2 1.3LRSN                1
 GAP=148        0.37       2.5     4.3  4.3  0.7930E+00  0.1251E+01 -0.2610E+00E
 Epicentro: LOS SANTOS - SANTANDER                                             3
 ACTION:UPD 12-07-13 16:14 OP:ep   STATUS:               ID:20111205083827 L   I
 2011-12-05-0836-43S.COL___152                                                 6
 STAT SP IPHASW D HRMM SECON CODA AMPLIT PERI AZIMU VELO AIN AR TRES W  DIS CAZ7
 BAR2 SZ EP   1    838 47.64                             170   -0.03 7 25.2 212 
 GIR2 SZ EP   2    838 48.06                             166    0.27 5 35.6 336 
 PAM  SE ES   1    839  7.21                             153   -0.09 7 73.2  33 
 BRR  HZ EP   1    838 49.53                             150   -0.11 7 80.2 296 
 BRR  HE ES   1    839  6.75                             150   -0.03 7 80.2 296 
 BRR  HZ I         839 10.04         4.8 0.18                          80.2 296 
 RUS  HZ EP   1    838 51.36                             145   -0.20 7 98.7 181 
 RUS  HN ES   1    839 10.36                             145    0.17 7 98.7 181 
 RUS  HZ I         839 11.98         2.4 0.13                          98.7 181 
 OCA  SZ EP   1    838 56.67                             130    0.20 7  163 350 
                                                                                
