 2016  6 5 0452 26.5 L   6.756 -73.191151.0  RSN  5 0.2 1.2LRSN                1
 GAP=229        0.56       3.4     3.5  4.5  0.2511E+01  0.1390E+01  0.6758E-01E
 Epicentro: VILLANUEVA - SANTANDER                                             3
 ACTION:UPD 16-07-21 22:15 OP:rebc STATUS:               ID:20160605045226 L   I
 OLDACT:REG 16-06-05 13:03 OP:edw  STATUS:               ID:20160605044743     3
 2016-06-05-0447-43M.COL___325                                                 6
 STAT SP IPHASW D HRMM SECON CODA AMPLIT PERI AZIMU VELO AIN AR TRES W  DIS CAZ7
 BAR2 EZ EP        452 46.60                             173   -0.0210 18.1 177 
 BAR2 EZ ES        453  2.04                             173   -0.3110 18.1 177 
 BAR2 EZ I         453  2.89         6.0 0.20                          18.1 177 
 BRR  HZ EP        452 48.13                             154    0.0510 69.5 304 
 BRR  HN ES        453  5.27                             154    0.3310 69.5 304 
 RUS  HZ EP        452 50.48                             146    0.0710 96.2 173 
 RUS  HN ES        453  9.16                             146    0.0610 96.2 173 
 RUS  HZ I         453 10.89         1.9 0.40                          96.2 173 
 PTB  HZ EP        452 53.18                             134   -0.16 9  142 260 
 PTB  HN ES        453 14.06                             134   -0.25 9  142 260 
 PTB  HZ I         453 16.89         1.7 0.14                           142 260 
 SPBC HN ES        453 16.98                             131    0.22 9  156 219 
                                                                                
