 2017  6 5 0947 14.8 L   6.800 -73.116135.0  RSN  6 0.2 1.3LRSN                1
 GAP=220        0.65       5.9     4.2  7.9  0.1485E+02 -0.1233E+02 -0.2044E+02E
 Epicentro: LOS SANTOS - SANTANDER                                             3
 ACTION:UPD 17-09-14 16:49 OP:jn   STATUS:               ID:20170605094714 L   I
 OLDACT:UP  17-06-05 17:44 OP:edw  STATUS:               ID:20170605093738d    3
 OLDACT:DUP 17-06-05 17:41 OP:edw  STATUS:               ID:20170605093738d    3
 OLDACT:UP  17-06-05 17:40 OP:edw  STATUS:               ID:20170605093737     3
 OLDACT:REG 17-06-05 14:31 OP:edw  STATUS:               ID:20170605093737     3
 2017-06-05-0938-00M.COL___344                                                 6
 STAT SP IPHASW D HRMM SECON CODA AMPLIT PERI AZIMU VELO AIN AR TRES W  DIS CAZ7
 RUS  HZ EP        947 37.72                             141    0.1910  100 178 
 RUS  HN ES        947 55.19                             141   -0.0410  100 178 
 RUS  HZ I         948  0.09         1.9 0.18            147            100 178 
 PTB  HZ EP   9    947 40.19                             128   -1.06 0  151 259 
 PTB  HN ES        948  0.24                             128   -0.55 9  151 259 
 PTB  HZ I         948  8.14         2.5 0.30            132            151 259 
 SPBC HZ EP   2    947 42.29                             125   -0.44 5  165 220 
 SPBC HE ES   4    948  5.64                             125    1.15 0  165 220 
 SPBC HZ I         948  9.26         4.7 0.44            130            165 220 
 YPLC HZ EP        947 43.55                             124   -0.16 9  175 152 
 ZAR  HZ EP   4    947 48.39                             119    1.47 0  207 292 
 ZAR  HN ES        948 11.93                             119   -0.01 8  207 292 
 ZAR  HZ I         948 18.00         1.8 0.54            123            207 292 
 NOR  HE ES        948 18.00                             115    0.12 8  237 235 
                                                                                
