 2017  4 5 0042 38.5 L   6.752 -73.154148.0  RSN  6 0.4 1.4LRSN                1
 GAP=138        0.72       4.0     5.9  6.4 -0.1137E+02  0.6958E+01 -0.2877E+01E
 Epicentro: LOS SANTOS - SANTANDER                                             3
 ACTION:UPD 17-05-30 21:08 OP:jn   STATUS:               ID:20170405004238 L   I
 OLDACT:UP  17-04-05 13:22 OP:and  STATUS:               ID:20170405003743     3
 OLDACT:REG 17-04-05 12:36 OP:and  STATUS:               ID:20170405003743     3
 2017-04-05-0038-00M.COL___365                                                 6
 STAT SP IPHASW D HRMM SECON CODA AMPLIT PERI AZIMU VELO AIN AR TRES W  DIS CAZ7
 BAR2 EZ ES        043 13.43                             173   -0.3010 18.0 190 
 BRR  HZ EP        043  0.25                             152    0.2710 73.0 303 
 BRR  HN ES   2    043 17.57                             152    0.83 5 73.0 303 
 PAM  EZ EP        043  1.12                             150   -0.1010 82.1  38 
 PAM  EN ES        043 18.84                             150   -0.1110 82.1  38 
 PAM  EZ I         043 23.17         3.8 0.44            151           82.1  38 
 RUS  HZ EP        043  2.01                             146   -0.0810 95.4 175 
 RUS  HN ES        043 20.88                             146    0.3710 95.4 175 
 RUS  HZ I         043 23.34         3.6 0.34            148           95.4 175 
 PTB  HN ES   3    043 25.40                             133   -1.11 2  146 261 
 PTB  HZ I         043 27.43         3.1 0.32            136            146 261 
 SPBC HN ES        043 28.51                             130   -0.23 9  158 220 
                                                                                
