 2010 10 5 0929 13.0 L   6.809 -73.092141.6  RSN 12 0.5 2.3LRSN                1
 GAP=164        0.85       3.2     6.0  6.3 -0.7887E+01  0.6120E+01  0.2393E+01E
 Epicentro: LOS SANTOS - SANTANDER                                             3
 ACTION:UP  11-02-18 11:07 OP:tino STATUS:               ID:20101005092913 L   I
 2010-10-05-0925-26S.COL___122                                                 6
 STAT SP IPHASW D HRMM SECON CODA AMPLIT PERI AZIMU VELO SNR AR TRES W  DIS CAZ7
 BAR2 SZ IP        929 32.26                             169     0.110   26 203 
 BAR2 SZ ES   1    929 46.69                             169    -0.4 7   26 203 
 BAR2 SZ I         929 48.54        49.5 0.35                            26 203 
 BRR  HZ EP   1    929 34.06                             150     0.1 7   76 296 
 BRR  HE ES   1    929 50.88                             150     0.6 7   76 296 
 BRR  HZ I         929 55.18        61.5 0.18                            76 296 
 RUS  HZ IP     C  929 36.30                             143    -0.110  101 179 
 RUS  HE ES   1    929 54.43                             143    -0.2 7  101 179 
 RUS  HZ I         929 56.74        18.6 0.24                           101 179 
 GUE  SZ EP   2    929 36.76                             139    -0.4 5  114   9 
 GRA  SZ IP        929 38.06                             137     0.410  123  15 
 GRA  SZ ES   1    929 56.71                             137    -0.1 7  123  15 
 GRA  SZ I         930  0.34        22.7 0.45                           123  15 
 OCA  SZ EP   1    929 40.40                             129    -0.5 7  160 351 
 OCA  SZ ES   1    930  2.57                             129    -0.2 7  160 351 
 OCA  SZ I         930  5.72        37.6 0.18                           160 351 
 NOR  SZ EP   2    929 48.26                             117    -0.8 4  240 235 
 NOR  SE ES   2    930 16.16                             117    -1.0 4  240 235 
 CHI  HZ EP   2    929 50.60                             116    -0.1 4  251 196 
 CHI  HN ES   2    930 20.43                             116     0.3 4  251 196 
 CHI  HZ I         930 27.11        11.6 0.56                           251 196 
 ROSC BZ EP   2    929 51.94                             115     0.7 4  257 212 
 ROSC BN ES   1    930 22.23                             115     1.0 6  257 212 
 HEL  HZ EP   2    929 54.07                             113     0.4 4  278 256 
 HEL  HN ES   2    930 24.99                             113    -0.4 4  278 256 
 HEL  HZ I         930 31.40        14.2 0.52                           278 256 
 RREF HZ EP   1    929 59.76                             110     0.2 5  327 230 
 RREF HN ES   1    930 35.32                             110    -0.5 5  327 230 
 RREF HZ I         930 44.27        10.3 0.38                           327 230 
 PRA  HZ EP   1    930  6.18                             106    -0.6 4  396 210 
 PRA  HN ES   1    930 48.57                             106    -0.2 4  396 210 
                                                                                
