 2010  5 5 0516 39.6 L   6.768 -73.036147.1  RSN 11 0.4 2.0LRSN                1
 GAP=184        0.86       4.8     7.9  7.1 -0.1760E+02 -0.4940E+01  0.6484E+01E
 Epicentro: CEPITA - SANTANDER                                                 3
 ACTION:UP  10-08-24 10:02 OP:vdl  STATUS:               ID:20100505051639 L   I
 2010-05-05-0515-07S.COL___105                                                 6
 STAT SP IPHASW D HRMM SECON CODA AMPLIT PERI AZIMU VELO SNR AR TRES W  DIS CAZ7
 BAR2 SZ EP        516 59.16                             170    -0.210   25 220 
 BAR2 SZ ES   1    517 14.27                             170    -0.6 7   25 220 
 GIR2 SZ EP   1    517  0.31                             165     0.7 7   39 333 
 BRR  HZ IP     C  517  1.64                             149     0.010   84 297 
 BRR  HN ES   1    517 18.91                             149     0.1 7   84 297 
 BRR  HZ I         517 20.49        23.4 0.29                            84 297 
 BRI  SZ EP   1    517  3.72                             142     0.2 7  108  14 
 BRI  SZ ES   1    517 23.05                             142     0.8 7  108  14 
 GUE  SZ EP   1    517  4.16                             139    -0.4 7  118   6 
 GRA  SZ IP        517  4.97                             137     0.010  126  12 
 OCA  SZ EP   1    517  8.05                             129    -0.4 7  166 349 
 OCA  SZ ES   1    517 30.56                             129    -0.5 7  166 349 
 OCA  SZ I         517 34.37         9.9 0.20                           166 349 
 CHI  HZ EP   2    517 17.20                             117    -0.1 4  249 198 
 CHI  HE ES   2    517 47.63                             117     0.8 4  249 198 
 CHI  HZ I         517 56.33         4.8 0.54                           249 198 
 HEL  HZ EP   2    517 21.45                             114     0.4 4  283 257 
 HEL  HN ES   2    517 53.72                             114     0.3 4  283 257 
 HEL  HZ I         517 58.14         4.0 0.23                           283 257 
 TOL  SZ EP   2    517 29.10                             109     0.5 3  350 226 
 PRA  HZ EP   1    517 32.89                             107    -0.6 4  395 211 
 PRA  HN ES   2    518 15.67                             107     0.1 3  395 211 
 PRA  HZ I         518 20.35         2.8 0.34                           395 211 
                                                                                
