 2015  4 5 0724 25.0 L   6.812 -73.163139.3  RSN  9 0.3 1.7LRSN                1
 GAP=134        0.72       2.3     3.2  4.5 -0.2075E+00  0.4559E+01 -0.1691E+01E
 Epicentro: LOS SANTOS - SANTANDER                                             3
 ACTION:UPD 15-06-03 16:52 OP:cam  STATUS:               ID:20150405072425 L   I
 OLDACT:UP  15-04-05 18:16 OP:mh   STATUS:               ID:20150405071748     3
 OLDACT:UP  15-04-05 17:24 OP:mh   STATUS:               ID:20150405071748     3
 OLDACT:UP  15-04-05 17:24 OP:mh   STATUS:               ID:20150405071748     3
 OLDACT:REG 15-04-05 12:34 OP:mh   STATUS:               ID:20150405071748     3
 2015-04-05-0717-48M.COL___276                                                 6
 STAT SP IPHASW D HRMM SECON CODA AMPLIT PERI AZIMU VELO AIN AR TRES W  DIS CAZ7
 BAR2 EZ EP        724 43.99                             170    0.0710 24.4 185 
 BAR2 EZ ES        724 58.58                             170   -0.0610 24.4 185 
 BAR2 EZ I         725  1.44        10.3 0.26            170           24.4 185 
 BRR  HZ EP        724 45.75                             152    0.4010 68.8 298 
 BRR  HN ES        725  1.27                             152    0.0710 68.8 298 
 PAM  SZ EP        724 46.81                             150    0.2310 77.6  41 
 PAM  SN ES   1    725  3.79                             150    0.40 7 77.6  41 
 PAM  SZ I         725  5.55         6.3 0.16            153           77.6  41 
 RUS  HZ EP   1    724 48.41                             142    0.14 7  102 175 
 RUS  HN ES        725  6.07                             142   -0.3310  102 175 
 RUS  HZ I         725  8.83         7.0 0.34            147            102 175 
 OCA  HZ EP   1    724 53.05                             128    0.35 7  159 354 
 OCA  HN ES        725 13.59                             128   -0.69 9  159 354 
 OCA  HZ I         725 18.87                             129            159 354 
 SPBC HZ EP        724 52.74                             128   -0.29 9  163 218 
 SPBC HN ES   1    725 14.92                             128    0.05 7  163 218 
 SPBC HZ I         725 16.36        10.8 0.10            129            163 218 
 ZAR  HZ EP   1    724 56.77                             121   -0.06 6  202 292 
 ZAR  HN ES        725 21.83                             121    0.21 9  202 292 
 ZAR  HZ I         725 32.02         4.8 0.28            121            202 292 
 SML  HZ EP        725  0.54                             116   -0.54 8  242 336 
 SML  HN ES        725 29.34                             116    0.14 8  242 336 
 SML  HZ I         725 39.54         5.3 0.10            117            242 336 
 HEL  HZ EP   1    725  5.06                             114    0.30 6  271 255 
 HEL  HN ES        725 35.69                             114   -0.04 8  271 255 
 HEL  HZ I         725 43.46         3.5 0.24            115            271 255 
 GUY2CHZ EP   4    725  9.79                             111    1.53 0  300 234 
 GUY2CHN ES   4    725 42.20                             111    0.22 0  300 234 
                                                                                
