 2014  7 5 0033 26.7 L   6.836 -73.121138.7  RSN 11 0.5 2.0LRSN                1
 GAP=132        1.07       4.3     5.0  7.5  0.4634E+01  0.5742E+01 -0.9708E+01E
 Epicentro: LOS SANTOS - SANTANDER                                             3
 ACTION:UPD 15-03-16 20:41 OP:nd   STATUS:               ID:20140705003326 L   I
 OLDACT:REG 14-07-05 14:03 OP:cam  STATUS:               ID:20140705003000     3
 2014-07-05-0030-00M.COL___279                                                 6
 STAT SP IPHASW D HRMM SECON CODA AMPLIT PERI AZIMU VELO AIN AR TRES W  DIS CAZ7
 BAR2 SZ IP     C  033 45.73                             168    0.1010 27.8 194 
 BAR2 SZ ES        034  0.40                             168    0.0410 27.8 194 
 BAR2 SZ I         034  1.48        27.7 0.22            167           27.8 194 
 BRR  HZ EP     D  033 47.67                             151    0.5010 71.9 295 
 BRR  HN ES   4    034  4.60                             151    1.50 0 71.9 295 
 BRR  HZ I         034  7.64        12.8 0.48            149           71.9 295 
 RUS  HZ EP        033 49.73                             141   -0.3710  104 178 
 RUS  HN ES        034  8.41                             141    0.1010  104 178 
 RUS  HZ I         034  9.82        12.4 0.42            144            104 178 
 PTB  HZ EP        033 52.82                             130   -0.66 9  151 258 
 PTB  HN ES   4    034 12.89                             130   -1.43 0  151 258 
 PTB  HZ I         034 15.52        12.7 0.24            130            151 258 
 TAM  HZ EP     D  033 54.16                             129    0.43 9  154 107 
 SPBC HZ EP        033 54.81                             127   -0.38 9  168 219 
 SPBC HN ES        034 16.72                             127   -0.65 9  168 219 
 SPBC HZ I         034 22.68        12.7 0.28            128            168 219 
 ZAR  HZ EP        033 58.95                             121    0.09 9  205 291 
 ZAR  HN ES        034 24.43                             121    0.53 9  205 291 
 ZAR  HZ I         034 25.88        11.7 0.10            121            205 291 
 SML  HZ EP   1    034  2.78                             116    0.06 6  241 334 
 SML  HE ES        034 30.31                             116   -0.46 8  241 334 
 SML  HZ I         034 34.65        13.7 0.24            118            241 334 
 HEL  HZ EP   4 C  034  8.14                             113    1.12 0  276 255 
 HEL  HN ES   1    034 38.98                             113    0.55 6  276 255 
 HEL  HZ I         034 45.04         5.1 0.28            114            276 255 
 GUY2CHZ EP        034 11.53                             111    0.97 7  306 234 
 SJC  HZ EP   1    034 20.87                             105   -1.00 4  407 326 
                                                                                
