 2014  9 5 0453  3.2 L   6.799 -73.152150.7  RSN  8 0.4 1.8LRSN                1
 GAP=182        1.05       3.1     7.1  7.8 -0.6212E+00 -0.1065E+02 -0.1109E+01E
 Epicentro: LOS SANTOS - SANTANDER                                             3
 ACTION:UPD 14-10-03 23:02 OP:nd   STATUS:               ID:20140905045303 L   I
 OLDACT:UP  14-09-05 18:29 OP:mh   STATUS:               ID:20140905044810     3
 OLDACT:REG 14-09-05 13:41 OP:mh   STATUS:               ID:20140905044810     3
 2014-09-05-0448-10M.COL___269                                                 6
 STAT SP IPHASW D HRMM SECON CODA AMPLIT PERI AZIMU VELO AIN AR TRES W  DIS CAZ7
 BAR2 SZ EP   1    453 23.40                             171   -0.02 7 23.1 188 
 BAR2 SZ I         453 41.39        12.3 0.29            172           23.1 188 
 BRR  HZ EP     C  453 25.31                             153    0.4510 70.7 299 
 BRR  HN ES        453 42.40                             153    0.6510 70.7 299 
 BRR  HZ I         453 47.70         5.3 0.12            157           70.7 299 
 RUS  HZ EP   1    453 27.33                             145   -0.11 7  101 176 
 RUS  HN ES        453 46.05                             145   -0.2910  101 176 
 RUS  HZ I         453 47.35         5.0 0.38            147            101 176 
 PTB  HZ EP   1    453 30.53                             133    0.01 7  147 259 
 PTB  HN ES        453 51.13                             133   -0.69 9  147 259 
 PTB  HZ I         453 57.43         7.5 0.13            137            147 259 
 OCA  HZ EP        453 31.48                             131   -0.43 9  160 353 
 OCA  HN ES        453 54.11                             131   -0.18 9  160 353 
 OCA  HZ I         453 59.46         7.2 0.28            133            160 353 
 SPBC HZ EP        453 32.44                             130    0.40 9  163 219 
 SPBC HN ES        453 54.92                             130    0.39 9  163 219 
 SPBC HZ I         453 59.76         9.9 0.23            133            163 219 
 SML  HZ EP        453 40.10                             118    0.01 8  244 335 
 SML  HN ES   1    454  8.41                             118   -0.46 6  244 335 
 SML  HZ I         454 12.47        11.7 0.08            121            244 335 
 CHI  HZ EP        453 41.74                             118    0.59 8  248 195 
 CHI  HN ES        454  9.96                             118   -0.79 8  248 195 
 CHI  HZ I         454 16.92         2.7 0.32            121            248 195 
 GUY2CHN ES   4    454 22.43                             113    1.31 0  301 235 
                                                                                
