 2010  3 5 0531 34.6 L   6.818 -73.001141.9  RSN 11 0.4 2.2LRSN                1
 GAP=198        0.80       2.8     5.9  5.2 -0.5791E+00  0.4920E+01  0.2004E+01E
 Epicentro: CEPITA - SANTANDER                                                 3
 ACTION:UP  10-08-24 09:52 OP:vdl  STATUS:               ID:20100305053134 L   I
 2010-03-05-0529-21S.COL___101                                                 6
 STAT SP IPHASW D HRMM SECON CODA AMPLIT PERI AZIMU VELO SNR AR TRES W  DIS CAZ7
 BAR2 SZ IP        531 54.25                             166     0.210   32 219 
 BAR2 SZ ES   1    532  9.07                             166    -0.1 7   32 219 
 BRR  HZ IP     C  531 56.11                             147    -0.110   85 292 
 BRR  HZ I         531 56.47        52.4 0.09                            85 292 
 BRR  HN ES        532 13.05                             147     0.010   85 292 
 RUS  BZ EP        531 58.21                             142     0.010  103 185 
 RUS  BN ES        532 16.27                             142    -0.210  103 185 
 RUS  BZ I         532 17.90        21.8 0.59                           103 185 
 OCA  SZ IP        532  2.80                             128     0.1 9  161 347 
 OCA  SZ ES   1    532 24.40                             128    -0.2 7  161 347 
 OCA  SZ I         532 26.68        30.3 0.51                           161 347 
 CHI  HZ EP   1    532 12.57                             115    -0.3 6  255 199 
 CHI  HN ES        532 42.36                             115    -0.3 8  255 199 
 CHI  HZ I         532 47.89         6.3 0.04                           255 199 
 ROSC BZ EP   1    532 14.06                             115     0.4 6  263 214 
 ROSC BN ES        532 44.94                             115     0.8 8  263 214 
 ROSC BZ I         532 49.11         9.5 0.26                           263 214 
 HEL  HZ EP   1    532 17.06                             112     0.6 5  288 256 
 HEL  HN ES   2    532 48.53                             112    -0.5 4  288 256 
 HEL  HZ I         532 52.64         7.2 0.51                           288 256 
 RREF BN ES   1    532 59.02                             109    -0.2 5  335 231 
 RREF BZ I         533  8.37         6.1 0.45                           335 231 
 DBB  SZ EP   1    532 23.11                             108    -0.7 5  355 274 
 TOL  SZ EP   2    532 24.32                             108     0.1 3  356 226 
 PRA  HZ EP        532 28.99                             105    -0.2 6  402 211 
 PRA  HN ES   2    533 10.23                             105    -1.5 3  402 211 
 PRA  HZ I         533 17.34         5.3 0.47                           402 211 
                                                                                
