 2012  5 5 0301 50.4 L   6.809 -73.156145.6  RSN  5 0.2 1.6LRSN                1
 GAP=135        0.46       3.5     3.2  6.6 -0.1627E+01  0.6727E+01 -0.2803E+00E
 Epicentro: LOS SANTOS - SANTANDER                                             3
 ACTION:UP  12-07-05 12:02 OP:pat  STATUS:               ID:20120505030150 L   I
 2012-05-05-0300-00M.COL___192                                                 6
 STAT SP IPHASW D HRMM SECON CODA AMPLIT PERI AZIMU VELO SNR AR TRES W  DIS CAZ7
 OCA2 HN ES   2    3 2 40.99                             130                    
 OCA2 HZ I         3 2 46.29        11.1 0.47                                   
 PAM  SZ EP   1    3 2 12.55                             151    -0.1 7   77  41 
 PAM  SN ES   1    3 2 29.96                             151     0.0 7   77  41 
 RUS  HZ EP   1    3 2 14.10                             144    -0.2 7  102 175 
 RUS  HZ I         3 2 32.82         3.9 0.48                           102 175 
 RUS  HE ES   1    3 2 32.96                             144     0.1 7  102 175 
 PTB  HZ EP   1    3 2 17.56                             132     0.3 7  147 258 
 PTB  HN ES   1    3 2 38.00                             132    -0.3 7  147 258 
 PTB  HZ I         3 2 43.67         5.2 0.29                           147 258 
 ZAR  HN ES   2    3 2 48.13                             122     0.2 4  203 292 
 ZAR  HZ I         3 2 55.52         4.8 0.34                           203 292 
                                                                                
