 2014  7 5 0258 20.9 L   6.850 -73.135144.3  RSN  9 0.5 2.2LRSN                1
 GAP=184        1.25       4.1     6.7  8.1  0.4556E+01  0.6478E+01 -0.5099E+01E
 Epicentro: LOS SANTOS - SANTANDER                                             3
 ACTION:UPD 15-03-16 20:41 OP:nd   STATUS:               ID:20140705025820 L   I
 OLDACT:UP  14-07-05 18:19 OP:cam  STATUS:               ID:20140705025748     3
 OLDACT:REG 14-07-05 18:15 OP:cam  STATUS:               ID:20140705025748     3
 2014-07-05-0257-48M.COL___259                                                 6
 STAT SP IPHASW D HRMM SECON CODA AMPLIT PERI AZIMU VELO AIN AR TRES W  DIS CAZ7
 BAR2 SZ EP        258 40.74                             168    0.3010 29.0 190 
 BAR2 SZ ES        258 54.97                             168   -0.7410 29.0 190 
 BAR2 SZ I         258 57.63        17.6 0.16            171           29.0 190 
 BRR  HZ IP     D  258 42.34                             153    0.5710 69.8 294 
 BRR  HN ES        258 59.12                             153    1.0410 69.8 294 
 BRR  HZ I         259  2.75        24.5 0.32            151           69.8 294 
 RUS  HZ EP        258 45.02                             142    0.1610  106 177 
 RUS  HN ES        259  3.50                             142   -0.0910  106 177 
 RUS  HZ I         259  4.97        10.3 0.30            147            106 177 
 PTB  HZ EP        258 47.34                             131   -0.58 9  150 257 
 PTB  HN ES        259  8.28                             131   -0.75 9  150 257 
 PTB  HZ I         259 11.95        14.4 0.12            133            150 257 
 OCA  HZ EP   4    258 50.05                             130    1.50 0  155 352 
 OCA  HN ES        259 10.00                             130   -0.16 9  155 352 
 OCA  HZ I         259 15.51        18.2 0.20            131            155 352 
 SPBC HZ EP        258 49.86                             128    0.13 9  168 218 
 SPBC HN ES        259 12.39                             128    0.14 9  168 218 
 ZAR  HN ES        259 18.56                             122    0.28 9  203 291 
 SML  HZ EP        258 56.81                             118   -0.10 8  239 334 
 SML  HN ES        259 24.44                             118   -0.60 8  239 334 
 SML  HZ I         259 30.90        30.5 0.10            119            239 334 
 HEL  HZ EP   4    259  2.66                             114    1.38 0  275 255 
 URE  HZ EP   1    259  1.96                             113    0.20 6  283 291 
 URE  HN ES   4    259 31.26                             113   -2.40 0  283 291 
 URE  HZ I         259 40.53        15.0 0.36            115            283 291 
 GUY2CHZ EP   4    259  6.25                             112    1.38 0  305 234 
 RREF HZ EP   4    259  9.64                             110    2.19 0  326 229 
 SJC  HZ EP   4    259 14.28                             106   -1.63 0  405 326 
                                                                                
