 2015  5 5 0455 42.7 L   6.810 -73.106150.2  RSN 25 0.5 2.7LRSN                1
 GAP= 56        1.00       1.9     2.5  4.1 -0.6134E+00  0.2231E+01 -0.4431E+00E
 Epicentro: LOS SANTOS - SANTANDER                                             3
 ACTION:UPD 15-09-10 22:01 OP:cam  STATUS:               ID:20150505045542 L   I
 OLDACT:UP  15-05-05 16:46 OP:drio STATUS:               ID:20150505044749     3
 OLDACT:REG 15-05-05 13:15 OP:drio STATUS:               ID:20150505044749     3
 2015-05-05-0447-49M.COL___271                                                 6
 STAT SP IPHASW D HRMM SECON CODA AMPLIT PERI AZIMU VELO AIN AR TRES W  DIS CAZ7
 BAR2 EZ EP     C  456  2.92                             170   -0.0310 25.5 199 
 BAR2 EZ ES        456 18.39                             170   -0.3210 25.5 199 
 BAR2 EZ I         456 19.54        79.5 0.22            170           25.5 199 
 PAM  SZ EP        456  5.69                             153    0.4710 73.8  37 
 PAM  SN ES        456 23.00                             153    0.2510 73.8  37 
 PAM  SZ I         456 24.85        89.1 0.56            155           73.8  37 
 BRR  HZ EP        456  4.81                             152    0.2510 74.6 296 
 BRR  HN ES        456 22.19                             152    0.6210 74.6 296 
 BRR  HZ I         456 27.78        54.9 0.18            150           74.6 296 
 RUS  HZ EP        456  6.88                             144   -0.1110  102 179 
 RUS  HN ES        456 25.96                             144    0.0510  102 179 
 RUS  HZ I         456 26.88        62.7 0.46            147            102 179 
 TAM  HZ EP        456 11.03                             132    0.62 9  151 106 
 TAM  HZ I         456 11.10       131.0 0.34            136            151 106 
 TAM  HN ES        456 32.01                             132    0.02 9  151 106 
 OCA  HZ EP        456 11.25                             131   -0.10 9  160 352 
 OCA  HE ES        456 33.24                             131   -0.42 9  160 352 
 OCA  HZ I         456 38.45       134.0 0.22            131            160 352 
 SPBC HZ EP        456 11.92                             129   -0.00 9  167 220 
 SPBC HN ES        456 34.05                             129   -0.64 9  167 220 
 SPBC HZ I         456 39.47        89.0 0.40            130            167 220 
 ZAR  HZ EP        456 15.62                             123   -0.23 8  208 291 
 ZAR  HN ES        456 41.50                             123   -0.18 8  208 291 
 ZAR  HZ I         456 47.70        50.6 0.30            123            208 291 
 NOR  HZ EP        456 18.77                             119   -0.41 8  239 235 
 NOR  HE ES        456 47.15                             119   -0.45 8  239 235 
 NOR  HZ I         456 50.36        49.7 0.18            120            239 235 
 SML  HZ EP        456 19.75                             118    0.04 8  245 334 
 SML  HN ES        456 48.05                             118   -0.49 8  245 334 
 SML  HZ I         456 50.66        81.6 0.10            119            245 334 
 CHI  HZ EP        456 21.07                             118    0.14 8  251 196 
 CHI  HZ I         456 22.65        20.9 0.14            119            251 196 
 CHI  HN ES        456 50.22                             118   -0.50 8  251 196 
 HEL  HZ EP     C  456 24.21                             115    0.53 7  277 256 
 HEL  HN ES        456 55.62                             115    0.00 7  277 256 
 HEL  HZ I         457  1.10        36.0 0.32            116            277 256 
 URE  HZ EP   4    456 22.85                             114   -1.59 0  288 291 
 URE  HE ES   4    456 53.65                             114   -3.31 0  288 291 
 URE  HZ I         457  0.43        25.2 0.18            114            288 291 
 GUY2CHZ EP        456 27.88                             113    0.85 7  305 235 
 GUY2CHE ES   4    457  0.47                             113   -1.11 0  305 235 
 GUY2CHZ I         457  9.19        31.3 0.70                           305 235 
 VIL  SN ES        457  0.59                             113   -0.20 7  305 192 
 LL2C HN ES   4    457  1.89                             113    1.34 0  306 353 
 PTGC HZ EP        456 25.86                             112   -0.88 7  308 159 
 PTGC HN ES   4    456 59.15                             112   -1.90 0  308 159 
 PTGC HZ I         457  1.34        22.6 0.18            114            308 159 
 LL4C HN ES        457  3.73                             111   -0.26 7  323 351 
 LL3C HE ES        457  4.82                             111    0.54 7  324 354 
 RREF HZ EP        456 30.51                             111    0.97 7  326 230 
 RREF HE ES        457  6.51                             111    0.47 7  326 230 
 RREF HZ I         457 13.82        12.6 0.28            112            326 230 
 CBOC HZ EP        456 30.93                             110    0.57 7  338 252 
 CBOC HN ES        457  7.75                             110    0.25 7  338 252 
 SDV  BZ EP        456 32.25                             109   -0.23 6  356  50 
 SDV  BE ES        457 10.85                             109   -0.42 6  356  50 
 SDV  BZ I         457 11.13        11.9 0.40            111            356  50 
 MON  HZ EP        456 31.99                             109   -0.25 6  356 308 
 MON  HN ES        457 10.38                             109   -0.46 6  356 308 
 MON  HZ I         457 25.24         9.5 0.46            110            356 308 
 ARGC HZ EP        456 33.18                             109    0.56 6  360 340 
 ARGC HE ES        457 11.66                             109    0.14 6  360 340 
 ARGC HZ I         457 19.07        14.9 0.30            110            360 340 
 ORTC HZ EP        456 37.23                             107    0.01 6  399 217 
 ORTC HN ES   4    457 23.02                             107    3.30 0  399 217 
 CRJC HZ EP        456 43.11                             104   -2.09 5  466   3 
 CRJC HE ES   4    457 31.67                             104   -2.25 0  466   3 
 CRJC HZ I         457 37.25        16.3 0.22            105            466   3 
                                                                                
