 2010  9 5 0735 22.0 L   6.779 -73.041150.2  RSN  7 0.2 1.6LRSN                1
 GAP=171        0.52       2.5     7.7  5.9 -0.2981E+01 -0.2346E+01 -0.6616E+00E
 Epicentro: LOS SANTOS - SANTANDER                                             3
 ACTION:UP  11-02-18 11:00 OP:tino STATUS:               ID:20100905073522 L   I
 2010-09-05-0732-00S.COL___120                                                 6
 STAT SP IPHASW D HRMM SECON CODA AMPLIT PERI AZIMU VELO SNR AR TRES W  DIS CAZ7
 BAR2 SZ EP   1    735 42.08                             170    -0.2 8   26 217 
 BAR2 SZ I         735 59.93         7.2 0.25                            26 217 
 BRR  HZ EP   2    735 43.60                             150    -0.7 5   83 296 
 BRR  HN ES   2    736  2.17                             150     0.5 5   83 296 
 BRR  HZ I         736  2.69        12.5 0.07                            83 296 
 RUS  HZ EP   1    735 46.18                             145     0.1 8   98 183 
 RUS  HE ES   1    736  4.66                             145    -0.1 8   98 183 
 RUS  HZ I         736  5.92         2.3 0.41                            98 183 
 GRA  SZ EP        735 47.69                             138     0.110  125  12 
 GRA  SZ ES   1    736  7.61                             138     0.1 7  125  12 
 GRA  SZ I         736  9.90         4.0 0.38                           125  12 
 OCA  SZ EP        735 51.11                             130     0.1 9  164 349 
 OCA  SZ ES   1    736 13.56                             130    -0.1 7  164 349 
 OCA  SZ I         736 18.23         9.8 0.34                           164 349 
 CHI  HZ EP   2    736  0.19                             118     0.1 4  250 198 
 CHI  HZ I         736 34.59         1.9 0.82                           250 198 
 PRA  HZ EP   2    736 16.36                             107     0.2 3  396 211 
 PRA  HN ES   3    736 58.52                             107     0.2 1  396 211 
 PRA  HZ I         737  2.35         2.3 0.22                           396 211 
                                                                                
