 2010  6 5 0831 56.2 L   6.890 -73.100146.9  RSN  6 0.5 1.9LRSN                1
 GAP=194        1.10       8.1    14.5 14.3 -0.8396E+02  0.9529E+01  0.2803E+02E
 Epicentro: PIEDECUESTA - SANTANDER                                            3
 ACTION:UP  10-08-24 10:08 OP:vdl  STATUS:               ID:20100605083156 L   I
 2010-06-05-0828-32S.COL___109                                                 6
 STAT SP IPHASW D HRMM SECON CODA AMPLIT PERI AZIMU VELO SNR AR TRES W  DIS CAZ7
 GIR2 SZ EP   2    832 15.17                             171    -0.6 5   23 334 
 GIR2 SZ ES   2    832 31.06                             171     0.0 5   23 334 
 GUE  SZ EP   1    832 19.04                             143    -1.1 8  106  11 
 GRA  SZ IP        832 20.99                             140     0.410  115  17 
 GRA  SZ ES   1    832 40.45                             140     0.7 7  115  17 
 OCA  SZ EP   1    832 24.05                             132     0.3 7  151 351 
 OCA  SZ ES   1    832 44.70                             132    -0.5 7  151 351 
 OCA  SZ I         832 46.67        10.3 0.12                           151 351 
 ROSC BZ EP   2    832 35.63                             116     0.1 4  264 211 
 ROSC BN ES        833  6.37                             116     0.1 8  264 211 
 ROSC BZ I         833  9.65         4.7 0.48                           264 211 
 HEL  HZ EP   2    832 37.54                             114     0.3 4  280 254 
 HEL  HE ES   2    833  9.76                             114     0.4 4  280 254 
 HEL  HZ I         833 14.77         4.1 0.36                           280 254 
                                                                                
