 2014 11 5 0331  2.2 L   6.800 -73.177144.6  RSN  8 0.4 1.6LRSN                1
 GAP=133        1.13       4.6     5.4  6.8 -0.4657E+01  0.6544E+01  0.6795E+01E
 Epicentro: LOS SANTOS - SANTANDER                                             3
 ACTION:UPD 14-12-19 15:39 OP:nd   STATUS:               ID:20141105033102 L   I
 OLDACT:UP  14-11-05 14:19 OP:cam  STATUS:               ID:20141105032813     3
 OLDACT:REG 14-11-05 13:08 OP:cam  STATUS:               ID:20141105032813     3
 2014-11-05-0328-13M.COL___274                                                 6
 STAT SP IPHASW D HRMM SECON CODA AMPLIT PERI AZIMU VELO AIN AR TRES W  DIS CAZ7
 BAR2 SZ EP        331 21.53                             171   -0.1210 22.9 181 
 BAR2 SZ ES        331 36.50                             171   -0.3510 22.9 181 
 BAR2 SZ I         331 38.57         8.8 0.32            168           22.9 181 
 BRR  HZ IP     C  331 23.31                             153    0.2810 68.2 300 
 BRR  HN ES        331 40.15                             153    0.8610 68.2 300 
 BRR  HZ I         331 44.05         8.9 0.70            152           68.2 300 
 PAM  SZ EP        331 24.40                             150   -0.0010 79.7  41 
 PAM  SN ES        331 41.44                             150   -0.3010 79.7  41 
 PAM  SZ I         331 42.00         7.7 0.22            156           79.7  41 
 RUS  HZ EP        331 25.60                             143   -0.2310  101 174 
 RUS  HN ES        331 44.63                             143    0.3610  101 174 
 RUS  HZ I         331 46.57         3.3 0.30            145            101 174 
 PTB  HZ EP        331 28.24                             132   -0.50 9  144 259 
 PTB  HN ES        331 49.29                             132   -0.16 9  144 259 
 PTB  HZ I         331 54.28         8.5 0.40            133            144 259 
 SPBC HZ EP        331 30.56                             129    0.19 9  161 218 
 SPBC HN ES        331 51.45                             129   -0.92 9  161 218 
 SPBC HZ I         331 59.72         4.9 0.34            130            161 218 
 CHI  HZ EP        331 40.15                             117    0.44 8  248 194 
 CHI  HN ES        332  9.67                             117    0.69 8  248 194 
 CHI  HN I         332 12.02         5.6 0.38            119            248 194 
 HEL  HZ EP        331 41.94                             115   -0.01 8  269 256 
                                                                                
