 2016  7 5 0609  0.7 L   6.630 -73.275137.1  RSN  5 0.8 1.1LRSN                1
 GAP=155        1.95      10.0    14.2 14.9  0.6571E+02  0.8493E+02  0.1822E+02E
 Epicentro: GALAN - SANTANDER                                                  3
 ACTION:UPD 17-03-29 16:47 OP:lp   STATUS:               ID:20160705060900 L   I
 OLDACT:UP  16-07-05 17:32 OP:dani STATUS:               ID:20160705060745d    3
 OLDACT:UP  16-07-05 17:30 OP:dani STATUS:               ID:20160705060745d    3
 OLDACT:DUP 16-07-05 17:28 OP:dani STATUS:               ID:20160705060745d    3
 OLDACT:UP  16-07-05 17:26 OP:dani STATUS:               ID:20160705060744     3
 OLDACT:UP  16-07-05 17:21 OP:dani STATUS:               ID:20160705060744     3
 OLDACT:REG 16-07-05 13:01 OP:dani STATUS:               ID:20160705060744     3
 2016-07-05-0607-44M.COL___322                                                 6
 STAT SP IPHASW D HRMM SECON CODA AMPLIT PERI AZIMU VELO AIN AR TRES W  DIS CAZ7
 BAR2 EZ ES        6 9 33.09                             175   -0.3510 11.0 112 
 BRR  HZ EP        6 9 20.40                             151   -0.5510 71.6 318 
 BRR  HN ES        6 9 36.82                             151    0.0910 71.6 318 
 BRR  HZ I         6 9 41.37         2.6 0.12            150           71.6 318 
 RUS  HZ EP        6 9 21.59                             147   -0.8610 84.3 165 
 RUS  HE ES        6 9 40.61                             147    1.2010 84.3 165 
 RUS  HZ I         6 9 42.87         1.7 0.30            146           84.3 165 
 SPBC HZ EP        6 9 27.42                             132    1.09 9  140 219 
 SPBC HN ES        6 9 45.21                             132   -1.10 9  140 219 
 SPBC HZ I         6 9 57.05         2.5 0.20            130            140 219 
 ZAR  HZ EP        6 9 32.14                             121    0.04 9  199 299 
 ZAR  HN ES        6 9 57.19                             121    0.61 9  199 299 
                                                                                
