 2015  7 5 0242  6.4 L   6.867 -73.146139.0  RSN 11 0.5 2.1LRSN                1
 GAP=133        0.98       2.7     4.6  6.4 -0.2732E+01  0.1584E+02 -0.1348E+01E
 Epicentro: LOS SANTOS - SANTANDER                                             3
 ACTION:UPD 15-09-08 21:46 OP:cam  STATUS:               ID:20150705024206 L   I
 OLDACT:UP  15-07-05 18:55 OP:ar   STATUS:               ID:20150705023747     3
 OLDACT:UP  15-07-05 18:53 OP:ar   STATUS:               ID:20150705023747     3
 OLDACT:UP  15-07-05 18:53 OP:ar   STATUS:               ID:20150705023747     3
 OLDACT:UP  15-07-05 13:13 OP:ar   STATUS:               ID:20150705023747     3
 OLDACT:UP  15-07-05 13:10 OP:ar   STATUS:               ID:20150705023747     3
 OLDACT:REG 15-07-05 12:13 OP:ar   STATUS:               ID:20150705023747     3
 2015-07-05-0237-47M.COL___334                                                 6
 STAT SP IPHASW D HRMM SECON CODA AMPLIT PERI AZIMU VELO AIN AR TRES W  DIS CAZ7
 BAR2 EZ EP        242 25.30                             167   -0.0910 30.6 187 
 BAR2 EZ ES        242 40.41                             167    0.2110 30.6 187 
 BAR2 EZ I         242 43.92        12.6 0.56            166           30.6 187 
 PAM  EZ EP        242 27.95                             151    0.3910 71.9  43 
 PAM  EE ES        242 43.88                             151   -0.1910 71.9  43 
 PAM  EZ I         242 46.89        12.0 0.22            157           71.9  43 
 RUS  HZ EP        242 29.95                             140   -0.1010  108 176 
 RUS  HN ES        242 48.47                             140   -0.0310  108 176 
 RUS  HZ I         242 49.81         6.9 0.30            143            108 176 
 OCA  HZ EP        242 32.98                             129   -0.51 9  153 353 
 OCA  HN ES        242 54.41                             129   -0.21 9  153 353 
 OCA  HZ I         242 58.70        36.5 0.46            132            153 353 
 ZAR  HZ EP        242 38.24                             121    0.12 9  201 290 
 ZAR  HN ES        243  2.86                             121   -0.00 9  201 290 
 ZAR  HZ I         243  8.29        19.7 0.40            122            201 290 
 SML  HZ EP        242 41.56                             117   -0.35 8  237 335 
 SML  HE ES        243 10.56                             117    0.94 8  237 335 
 SML  HZ I         243 12.13        23.4 0.26            119            237 335 
 NOR  HN ES        243  9.81                             116   -0.33 8  239 233 
 NOR  HZ I         243 14.04         8.3 0.20            118            239 233 
 URE  HN ES   4    243 15.77                             112   -2.60 0  281 291 
 GUY2CHZ EP   2    242 50.72                             111    0.54 4  305 234 
 GUY2CHN ES        243 23.35                             111   -0.99 7  305 234 
 GUY2CHZ I         243 32.76         5.6 0.64                           305 234 
 TOL  SZ EP        242 55.86                             108    0.87 6  349 224 
 TOL  SN ES        243 33.53                             108    0.63 6  349 224 
 TOL  SZ I         243 43.33         4.3 0.54            110            349 224 
 ORTC HZ EP        243  0.74                             105   -0.05 6  401 216 
 ORTC HN ES        243 43.58                             105    0.36 6  401 216 
 ORTC HZ I         243 51.45         3.4 0.44            107            401 216 
 SJC  HZ EP   2    242 59.25                             105   -1.76 3  403 326 
 SJC  HN ES   4    243 40.57                             105   -3.03 0  403 326 
 SJC  HZ I         243 43.83         2.9 0.26            107            403 326 
                                                                                
