 2012  7 5 0932 30.9 L   6.702 -73.182137.8  RSN  5 0.3 1.2LRSN                1
 GAP=226        0.66       6.5     6.2  7.4  0.2302E+02  0.5614E+01  0.7143E+00E
 Epicentro: VILLANUEVA - SANTANDER                                             3
 ACTION:UPD 12-08-14 11:42 OP:ep   STATUS:               ID:20120705093230 L   I
 2012-07-05-0930-00M.COL___201                                                 6
 STAT SP IPHASW D HRMM SECON CODA AMPLIT PERI AZIMU VELO AIN AR TRES W  DIS CAZ7
 BAR2 SZ EP   1    932 49.15                             175    -0.2 7   12 180 
 BAR2 SZ ES   1    933  3.69                             175    -0.1 7   12 180 
 BAR2 SZ I         933  5.56         8.8 0.20            165             12 180 
 BRR  HZ EP   1    932 50.93                             150    -0.4 7   74 307 
 BRR  HN ES   1    933  7.69                             150     0.4 7   74 307 
 RUS  HZ EP   1    932 53.44                             145     0.3 7   90 173 
 RUS  HN ES   1    933 10.40                             145     0.0 7   90 173 
 RUS  HZ I         933 13.37         1.8 0.29            142             90 173 
 PTB  HZ EP   2    932 57.17                             131     0.5 5  142 263 
 PTB  HN ES   1    933 16.55                             131    -0.3 7  142 263 
 PTB  HZ I         933 22.62         1.5 0.37            129            142 263 
 ZAR  HN ES   2    933 27.90                             120     0.0 4  205 295 
