 2014  8 5 0431 37.7 L   6.781 -73.162142.0  RSN 14 0.4 1.6LRSN                1
 GAP=181        0.86       2.7     3.8  5.0 -0.8917E+00  0.2316E+01  0.2335E+01E
 Epicentro: LOS SANTOS - SANTANDER                                             3
 ACTION:UPD 14-09-15 21:47 OP:nd   STATUS:               ID:20140805043137 L   I
 OLDACT:REG 14-08-05 13:06 OP:spq  STATUS:               ID:20140805042808     3
 2014-08-05-0428-08M.COL___245                                                 6
 STAT SP IPHASW D HRMM SECON CODA AMPLIT PERI AZIMU VELO AIN AR TRES W  DIS CAZ7
 BAR2 SZ EP        431 56.77                             171   -0.0710 21.0 186 
 BAR2 SZ ES   1    432 11.32                             171   -0.44 7 21.0 186 
 BAR2 SZ I         432 14.61         8.6 0.28            170           21.0 186 
 BRR  HZ EP        431 58.67                             152    0.2510 70.7 301 
 BRR  HN ES        432 14.70                             152    0.1310 70.7 301 
 BRR  HZ I         432 20.51         6.6 0.28            151           70.7 301 
 RUS  HZ EP        432  0.54                             144   -0.4010 98.6 175 
 RUS  HN ES   1    432 19.28                             144    0.21 7 98.6 175 
 RUS  HZ I         432 20.92         2.6 0.34            147           98.6 175 
 PTB  HZ EP        432  3.54                             132   -0.63 9  146 260 
 PTB  HN ES        432 24.40                             132   -0.41 9  146 260 
 PTB  HZ I         432 30.76         6.8 0.22            133            146 260 
 SPBC HZ EP        432  5.33                             129   -0.32 9  160 219 
 SPBC HN ES        432 28.05                             129    0.61 9  160 219 
 SPBC HZ I         432 32.96         7.4 0.38            131            160 219 
 OCA  HZ EP        432  6.50                             128    0.59 9  162 354 
 OCA  HN ES   1    432 28.16                             128    0.26 7  162 354 
 OCA  HZ I         432 33.42         5.1 0.30            132            162 354 
 ZAR  HZ EP        432  9.40                             122   -0.42 9  203 293 
 ZAR  HN ES        432 34.98                             122    0.12 9  203 293 
 ZAR  HZ I         432 41.32         3.6 0.16            124            203 293 
 NOR  HZ EP        432 13.53                             118    0.61 8  232 235 
 NOR  HN ES        432 40.33                             118   -0.06 8  232 235 
 NOR  HZ I         432 44.72         4.2 0.22            120            232 235 
 CHI  HZ EP   1    432 14.79                             117   -0.13 6  246 195 
 CHI  HE ES   1    432 43.97                             117    0.02 6  246 195 
 CHI  HZ I         432 50.38         1.8 0.26            120            246 195 
 HEL  HZ EP   1    432 16.84                             114   -0.63 6  270 256 
 HEL  HN ES   1    432 48.85                             114    0.36 6  270 256 
 HEL  HZ I         432 55.59         2.7 0.38            117            270 256 
 GUY2CHZ EP   1    432 20.30                             112   -0.53 5  298 235 
 GUY2CHN ES   1    432 54.45                             112   -0.02 5  298 235 
 GUY2CHZ I         433  3.57         3.1 0.40                           298 235 
 TOL  SN ES        433  2.91                             109    0.15 7  341 225 
 PRA  HZ EP        432 31.41                             106    0.64 6  389 209 
 PRA  HN ES        433 12.54                             106    0.37 6  389 209 
 PRA  HZ I         433 18.36         2.5 0.62            109            389 209 
 SJC  HZ EP   4    432 31.13                             105   -2.11 0  410 327 
 SJC  HN ES   4    433 11.16                             105   -5.39 0  410 327 
 SJC  HZ I         433 14.35         0.9 0.43            108            410 327 
                                                                                
