 2017  5 5 0158 45.4 L   6.665 -73.590106.1  RSN  4 0.3 1.0LRSN                1
 GAP=162        0.82       4.7     4.5  7.2  0.1278E+02  0.5751E+01  0.4150E+01E
 Epicentro: EL CARMEN - SANTANDER                                              3
 ACTION:UPD 17-06-16 13:33 OP:jn   STATUS:               ID:20170505015845 L   I
 OLDACT:UP  17-05-05 14:10 OP:edw  STATUS:               ID:20170505015739d    3
 OLDACT:UP  17-05-05 14:09 OP:edw  STATUS:               ID:20170505015739d    3
 OLDACT:DUP 17-05-05 14:03 OP:edw  STATUS:               ID:20170505015739d    3
 OLDACT:REG 17-05-05 12:00 OP:edw  STATUS:               ID:20170505015738     3
 2017-05-05-0158-00M.COL___361                                                 6
 STAT SP IPHASW D HRMM SECON CODA AMPLIT PERI AZIMU VELO AIN AR TRES W  DIS CAZ7
 BRR  HZ EP        159  0.91                             152   -0.1610 50.7 345 
 BRR  HN ES        159 13.49                             152    0.1710 50.7 345 
 BRR  HZ I         159 14.91         5.6 0.26            156           50.7 345 
 PTB  HZ IP     C  159  4.44                             134   -0.0510 96.8 262 
 PTB  HN ES        159 19.54                             134    0.1410 96.8 262 
 PTB  HZ I         159 23.99         1.1 0.18            134           96.8 262 
 RUS  HZ EP        159  6.25                             133    0.6310  102 147 
 RUS  HN ES        159 20.96                             133   -0.4610  102 147 
 RUS  HZ I         159 23.48         1.7 0.24            136            102 147 
 ZAR  HZ EP        159 11.26                             117   -0.25 9  167 303 
 ZAR  HN ES        159 31.83                             117   -0.07 9  167 303 
 ZAR  HZ I         159 35.69         2.5 0.32            120            167 303 
                                                                                
