 2013  2 5 0057  7.0 L   6.776 -73.114147.0  RSN  7 0.4 1.8LRSN                1
 GAP=142        0.77       4.6     4.5  6.2  0.2917E+01  0.8280E+01  0.1138E+01E
 Epicentro: LOS SANTOS - SANTANDER                                             3
 ACTION:UPD 13-03-12 09:30 OP:ep   STATUS:               ID:20130205005706 L   I
 2013-02-05-0050-00M.COL___240                                                 6
 STAT SP IPHASW D HRMM SECON CODA AMPLIT PERI AZIMU VELO AIN AR TRES W  DIS CAZ7
 BAR2 SZ EP   1    057 26.74                             171   -0.01 7 21.7 200 
 BAR2 SZ ES   1    057 41.67                             171   -0.48 7 21.7 200 
 BAR2 SZ I         057 42.51        15.4 0.28            162           21.7 200 
 BRR  HZ EP   1    057 28.66                             151    0.13 7 75.5 299 
 BRR  HN ES        057 45.46                             151    0.1310 75.5 299 
 BRR  HN I         057 45.73        21.5 0.22            141           75.5 299 
 PAM  SZ EP   1    057 29.75                             151    0.40 7 77.3  36 
 PAM  SN ES        057 46.77                             151   -0.0110 77.3  36 
 PAM  SN I         057 47.74         4.7 0.48            149           77.3  36 
 RUS  HZ EP   1    057 31.25                             145    0.58 7 97.7 178 
 RUS  HN ES   1    057 49.00                             145   -0.14 7 97.7 178 
 RUS  HN I         057 49.93         4.9 0.20            135           97.7 178 
 PTB  HZ EP        057 34.04                             132   -0.30 9  151 260 
 PTB  HN I         057 56.60         8.6 0.30            121            151 260 
 ZAR  HE ES        058  5.94                             122    0.26 8  208 292 
 ZAR  HE I         058 12.14        15.5 0.18            113            208 292 
 SML  HZ EP   1    057 43.21                             117   -0.91 6  248 335 
                                                                                
