 2017  8 5 0719 19.9 L   6.795 -73.095148.9  RSN 12 0.5 1.8LRSN                1
 GAP=124        1.00       3.3     4.4  5.0 -0.8583E+00  0.6417E+01  0.1623E+01E
 Epicentro: LOS SANTOS - SANTANDER                                             3
 ACTION:UPD 17-09-04 20:16 OP:rebc STATUS:               ID:20170805071919 L   I
 OLDACT:UP  17-08-05 18:58 OP:dani STATUS:               ID:20170805071739     3
 OLDACT:UP  17-08-05 18:57 OP:dani STATUS:               ID:20170805071739     3
 OLDACT:REG 17-08-05 13:18 OP:osc  STATUS:               ID:20170805071739     3
 2017-08-05-0718-00M.COL___393                                                 6
 STAT SP IPHASW D HRMM SECON CODA AMPLIT PERI AZIMU VELO AIN AR TRES W  DIS CAZ7
 BAR2 EZ IP     C  719 39.81                             170   -0.1010 24.4 203 
 BAR2 EZ ES        719 55.02                             170   -0.5110 24.4 203 
 BAR2 EZ I         719 57.62        10.9 0.48            168           24.4 203 
 PAM  EZ EP        719 42.63                             152    0.3710 74.4  36 
 PAM  EN ES        720  0.07                             152    0.3610 74.4  36 
 PAM  EZ I         720  1.92         9.3 0.58            158           74.4  36 
 BRR  HZ EP        719 41.70                             152    0.0410 76.4 297 
 BRR  HN ES        719 58.99                             152    0.3410 76.4 297 
 BRR  HZ I         720 13.79        10.9 0.32            150           76.4 297 
 RUS  HZ EP        719 44.30                             145    0.4110 99.8 179 
 RUS  HE ES        720  2.56                             145   -0.0510 99.8 179 
 RUS  HZ I         720  3.62         5.9 0.36            148           99.8 179 
 PTB  HZ EP        719 46.88                             132   -0.71 9  153 259 
 PTB  HN ES   3    720  8.01                             132   -1.19 2  153 259 
 PTB  HZ I         720 14.45         4.9 0.36            132            153 259 
 SPBC HZ EP        719 48.88                             129   -0.04 9  166 221 
 ZAR  HZ EP        719 52.58                             122   -0.50 8  209 292 
 ZAR  HN ES        720 18.59                             122   -0.39 8  209 292 
 ZAR  HZ I         720 23.86        11.3 0.34            124            209 292 
 GUY2CHZ EP        720  4.94                             113    0.83 7  305 235 
 GUY2CHE ES        720 38.89                             113    0.27 7  305 235 
 GUY2CHZ I         720 50.28         2.3 0.31                           305 235 
 PTGC HZ EP        720  2.79                             112   -0.81 7  306 160 
 PTGC HN ES   3    720 36.33                             112   -1.37 2  306 160 
 PTGC HZ I         720 38.72         4.4 0.28            117            306 160 
 LL6C HZ EP        720  5.14                             111   -0.67 7  326 357 
 LL6C HE ES        720 41.89                             111    0.26 7  326 357 
 CBOC HZ EP        720  7.95                             110    0.44 7  339 252 
 PRA  HZ EP        720 14.28                             107    0.50 6  394 210 
 PRA  HE ES        720 56.39                             107    0.57 6  394 210 
 PRA  HZ I         721  4.32         2.8 0.29            110            394 210 
                                                                                
