 2011  4 5 0650 13.1 L   7.154 -73.069153.2  RSN  5 0.2 1.9LRSN                1
 GAP=204        0.57       4.5     8.0  7.9 -0.7694E+01  0.4678E+01  0.2912E+01E
 Epicentro: BUCARAMANGA - SANTANDER                                            3
 ACTION:UP  11-06-22 15:28 OP:REBC STATUS:               ID:20110405065013 L   I
 2011-04-05-0647-21S.COL___122                                                 6
 STAT SP IPHASW D HRMM SECON CODA AMPLIT PERI AZIMU VELO SNR AR TRES W  DIS CAZ7
 GIR2 SZ EP   2    650 33.45                             174     0.1 5   16 239 
 BAR2 SZ EP   1    650 34.67                             156    -0.3 7   63 191 
 BAR2 SZ ES   2    650 52.02                             156    -0.1 5   63 191 
 BAR2 SZ I         650 56.37        12.4 0.38                            63 191 
 BRR  HZ EP        650 35.38                             153     0.310   71 266 
 BRR  HZ I         650 36.24        21.6 0.13                            71 266 
 BRR  HN ES   2    650 52.25                             153     0.1 5   71 266 
 OCA  SZ EP   1    650 38.98                             139     0.2 7  123 347 
 OCA  SZ ES   1    650 58.60                             139    -0.3 7  123 347 
 OCA  SZ I         651  0.41         8.5 0.37                           123 347 
 HEL  HZ EP   2    650 55.52                             114    -0.4 4  292 249 
 HEL  HE ES   2    651 29.14                             114    -0.2 4  292 249 
 HEL  HZ I         651 38.37         6.0 0.38                           292 249 
                                                                                
