 2012  5 5 0541 47.1 L   6.778 -73.137146.6  RSN  5 0.2 1.5LRSN                1
 GAP=156        0.50       7.3     3.3  7.3 -0.7884E+01 -0.5176E+00  0.2399E+02E
 Epicentro: LOS SANTOS - SANTANDER                                             3
 ACTION:UP  12-07-05 12:02 OP:pat  STATUS:               ID:20120505054147 L   I
 2012-05-05-0540-00M.COL___192                                                 6
 STAT SP IPHASW D HRMM SECON CODA AMPLIT PERI AZIMU VELO SNR AR TRES W  DIS CAZ7
 BAR2 SZ EP   1    542  6.96                             171     0.2 7   21 194 
 BAR2 SZ I         542 24.43         8.8 0.36                            21 194 
 BRR  HZ EP   1    542  8.44                             152     0.0 7   73 300 
 BRR  HN ES   1    542 25.40                             152     0.3 7   73 300 
 BRR  HZ I         542 30.23         5.9 0.14                            73 300 
 PAM  SZ EP   1    542  9.57                             151     0.1 7   79  38 
 PAM  SN ES   1    542 26.64                             151    -0.3 7   79  38 
 PTB  HZ EP   1    542 14.04                             132    -0.1 7  148 260 
 PTB  HN ES   1    542 35.05                             132    -0.2 7  148 260 
 PTB  HZ I         542 37.54         4.2 0.14                           148 260 
 ZAR  HN ES   1    542 45.24                             122     0.0 6  206 293 
                                                                                
