 2017  2 5 0204 43.0 L   6.626 -73.329108.0  RSN  5 0.4 1.7LRSN                1
 GAP=141        0.81       4.5     4.9  8.3  0.9937E+01  0.1385E+02  0.2032E+02E
 Epicentro: GALAN - SANTANDER                                                  3
 ACTION:UPD 17-05-24 15:32 OP:jn   STATUS:               ID:20170205020443 L   I
 OLDACT:DUP 17-02-05 14:43 OP:dnl  STATUS:               ID:20170205015745d    3
 OLDACT:UP  17-02-05 14:43 OP:dnl  STATUS:               ID:20170205015744     3
 OLDACT:UP  17-02-05 14:42 OP:dnl  STATUS:               ID:20170205015744     3
 OLDACT:REG 17-02-05 13:16 OP:dnl  STATUS:               ID:20170205015744     3
 2017-02-05-0158-00M.COL___328                                                 6
 STAT SP IPHASW D HRMM SECON CODA AMPLIT PERI AZIMU VELO AIN AR TRES W  DIS CAZ7
 BAR2 EZ EP        2 4 57.87                             171   -0.0910 16.7 103 
 BAR2 EZ ES        2 5  9.46                             171   -0.1710 16.7 103 
 BAR2 EZ I         2 5 10.94        19.0 0.24            175           16.7 103 
 BRR  HZ EP   2    2 5  0.91                             146    0.91 5 67.9 322 
 BRR  HN ES        2 5 13.05                             146   -0.2010 67.9 322 
 BRR  HZ I         2 5 17.39        14.2 0.16            145           67.9 322 
 RUS  HZ EP        2 5  1.90                             139   -0.1110 85.6 161 
 RUS  HE ES        2 5 17.32                             139    0.4810 85.6 161 
 RUS  HZ I         2 5 18.62         8.4 0.42            141           85.6 161 
 PTB  HN ES        2 5 22.17                             127    0.1910  125 266 
 PTB  HZ I         2 5 28.53         6.2 0.14            126            125 266 
 CHI  HZ EP   4    2 5 12.47                             111   -3.76 0  225 191 
 CHI  HE ES        2 5 41.68                             111   -0.46 8  225 191 
 CHI  HZ I         2 5 45.60         5.6 0.50            112            225 191 
                                                                                
