 2016  6 5 0405 33.9 L   6.720 -73.144149.1  RSN  5 0.1 1.2LRSN                1
 GAP=231        0.38       2.1     2.6  2.8  0.1208E+01  0.1076E+01  0.1220E+00E
 Epicentro: JORDAN - SANTANDER                                                 3
 ACTION:UPD 16-07-21 22:15 OP:rebc STATUS:               ID:20160605040533 L   I
 OLDACT:UP  16-06-05 17:33 OP:edw  STATUS:               ID:20160605035743d    3
 OLDACT:DUP 16-06-05 17:30 OP:edw  STATUS:               ID:20160605035743d    3
 OLDACT:DUP 16-06-05 17:26 OP:edw  STATUS:               ID:20160605035742d    3
 2016-06-05-0357-40M.COL___325                                                 6
 STAT SP IPHASW D HRMM SECON CODA AMPLIT PERI AZIMU VELO AIN AR TRES W  DIS CAZ7
 BAR2 EZ EP   4    4 5 53.93                             174    0.12 0 14.8 197 
 BAR2 EZ ES        4 6  9.24                             174   -0.0810 14.8 197 
 BAR2 EZ I         4 6  9.48         3.8 0.16                          14.8 197 
 BRR  HZ IPg       4 5 55.74                             152    0.0510 75.9 304 
 BRR  HZ EP        4 5 55.75                             152    0.0610 75.9 304 
 BRR  HN ES        4 6 12.72                             152    0.0410 75.9 304 
 BRR  HZ I         4 6 16.20         3.0 0.28                          75.9 304 
 RUS  HZ EP        4 5 57.25                             147   -0.1410 91.8 176 
 RUS  HN ES        4 6 15.79                             147    0.0910 91.8 176 
 RUS  HZ I         4 6 17.56         1.5 0.36                          91.8 176 
 PTB  HZ EP        4 6  1.20                             133    0.16 9  146 262 
 PTB  HN ES        4 6 22.00                             133   -0.20 9  146 262 
 PTB  HZ I         4 6 23.64         2.3 0.32                           146 262 
 SPBC HZ EP        4 6  1.91                             131   -0.14 9  157 221 
 SPBC HN ES        4 6 24.15                             131    0.15 9  157 221 
                                                                                
