 2012  6 5 0356 27.8 L   6.781 -73.132146.4  RSN  9 0.4 2.0LRSN                1
 GAP=184        0.67       2.9     4.0  5.8  0.1752E+00  0.6253E+01  0.1251E+01E
 Epicentro: LOS SANTOS - SANTANDER                                             3
 ACTION:UPD 12-08-06 17:47 OP:ep   STATUS:               ID:20120605035627 L   I
 2012-06-05-0350-00M.COL___201                                                 6
 STAT SP IPHASW D HRMM SECON CODA AMPLIT PERI AZIMU VELO AIN AR TRES W  DIS CAZ7
 BAR2 SZ EP   1    356 48.03                             171    0.53 7 21.6 195 
 BAR2 SZ ES   1    357  3.09                             171    0.24 7 21.6 195 
 BAR2 SZ I         357  4.81        16.3 0.25            169           21.6 195 
 RUS  HZ EP   1    356 51.93                             145    0.44 7 98.3 177 
 RUS  HN ES   1    357  9.63                             145   -0.31 7 98.3 177 
 RUS  HZ I         357 12.29         7.1 0.34            146           98.3 177 
 PTB  HZ EP   1    356 54.96                             132    0.01 7  149 260 
 PTB  HN ES   1    357 15.86                             132   -0.24 7  149 260 
 PTB  HZ I         357 21.39         6.5 0.28            131            149 260 
 OCA  HZ EP   1    356 56.27                             129   -0.14 7  163 353 
 OCA  HN ES   1    357 18.32                             129   -0.38 7  163 353 
 OCA  HZ I         357 24.05        21.1 0.21            131            163 353 
 ZAR  HN ES   1    357 25.84                             122   -0.23 6  206 293 
 NOR  SN ES   1    357 31.30                             119   -0.19 6  235 235 
 CHI  HZ EP   1    357  4.80                             117   -0.58 6  247 196 
 CHI  HN ES   1    357 34.49                             117   -0.18 6  247 196 
 CHI  HZ I         357 41.37         4.5 0.39            119            247 196 
 HEL  HZ EP   1    357  8.58                             115    0.40 6  273 256 
 HEL  HN ES   1    357 40.40                             115    0.75 6  273 256 
 HEL  HZ I         357 46.98         4.6 0.32            115            273 256 
 PRA  HZ EP   1    357 21.42                             107    0.18 4  391 210 
 PRA  HN ES   1    358  2.28                             107   -0.62 4  391 210 
 PRA  HZ I         358  8.31        13.8 0.18            108            391 210 
                                                                                
