 2013  3 5 0009 36.5 L   6.790 -73.127142.2  RSN  9 0.4 2.2LRSN                1
 GAP= 99        0.87       4.0     3.8  5.7 -0.9915E+00 -0.2832E+00  0.7615E+01E
 Epicentro: LOS SANTOS - SANTANDER                                             3
 ACTION:UPD 13-04-09 13:59 OP:ep   STATUS:               ID:20130305000936 L   I
 2013-03-05-0004-41M.COL___202                                                 6
 STAT SP IPHASW D HRMM SECON CODA AMPLIT PERI AZIMU VELO AIN AR TRES W  DIS CAZ7
 BAR2 SZ EP        0 9 55.64                             171    0.0010 22.7 196 
 BAR2 SZ ES        010 10.14                             171   -0.4710 22.7 196 
 BAR2 SZ I         010 12.20        48.5 0.26            170           22.7 196 
 BRR  HZ IP     D  0 9 57.52                             151    0.1610 73.5 299 
 BRR  HN ES        010 14.44                             151    0.7810 73.5 299 
 BRR  HN I         010 15.31        54.4 0.28            150           73.5 299 
 PAM  SZ EP        0 9 58.51                             150    0.2410 77.0  38 
 PAM  SZ I         0 9 58.77        29.0 0.22            152           77.0  38 
 PAM  SE ES        010 14.88                             150   -0.4010 77.0  38 
 RUS  HZ EP        0 9 59.60                             143   -0.1710 99.3 177 
 RUS  HE ES   1    010 18.31                             143    0.37 7 99.3 177 
 RUS  HE I         010 20.25        15.5 0.25            144           99.3 177 
 PTB  HZ EP   1    010  2.63                             131   -0.67 7  150 259 
 PTB  HE ES   1    010 24.00                             131   -0.24 7  150 259 
 PTB  HZ I         010 26.32        12.4 0.20            130            150 259 
 TAM  HZ EP        010  3.91                             130    0.27 9  153 105 
 ZAR  HE ES   1    010 33.80                             121   -0.43 6  206 292 
 ZAR  HE I         010 38.80        28.8 0.34            121            206 292 
 CHI  HZ EP   1    010 13.83                             116   -0.07 6  248 196 
 CHI  HE ES   1    010 43.14                             116    0.04 6  248 196 
 PRA  HZ EP   1    010 29.64                             106   -0.22 4  392 210 
 PRA  HE ES   1    011 11.94                             106    0.43 4  392 210 
                                                                                
