 2015  3 5 0652 34.5 L   6.821 -73.159149.6  RSN  7 0.4 1.2LRSN                1
 GAP=134        0.77       3.0     4.3  5.6 -0.2846E+01  0.2270E+01  0.3299E+01E
 Epicentro: LOS SANTOS - SANTANDER                                             3
 ACTION:UPD 15-04-30 16:23 OP:nd   STATUS:               ID:20150305065234 L   I
 OLDACT:DUP 15-03-05 17:18 OP:spq  STATUS:               ID:20150305064741d    3
 OLDACT:DUP 15-03-05 17:14 OP:spq  STATUS:               ID:20150305064740d    3
 2015-03-05-0647-39M.COL___284                                                 6
 STAT SP IPHASW D HRMM SECON CODA AMPLIT PERI AZIMU VELO AIN AR TRES W  DIS CAZ7
 BRR  HZ EP   1    652 56.14                             154    0.25 7 68.8 297 
 BRR  HN ES        653 13.21                             154    0.5910 68.8 297 
 BRR  HZ I         653 16.49         2.5 0.27            153           68.8 297 
 PAM  SZ EP        652 56.94                             152   -0.1010 76.6  41 
 PAM  SN ES        653 14.49                             152   -0.1610 76.6  41 
 PAM  SZ I         653 16.20         2.4 0.50            156           76.6  41 
 RUS  HZ EP   1    652 58.87                             144    0.11 7  103 175 
 RUS  HN ES   1    653 17.19                             144   -0.52 7  103 175 
 RUS  HZ I         653 18.85         0.9 0.48            145            103 175 
 PTB  HZ EP        653  1.49                             133   -0.16 9  147 258 
 PTB  HN ES   1    653 22.23                             133   -0.64 7  147 258 
 PTB  HZ I         653 26.84         1.7 0.23            133            147 258 
 SPBC HZ EP        653  3.37                             130    0.04 9  164 218 
 SPBC HE ES        653 25.65                             130   -0.21 9  164 218 
 SPBC HZ I         653 28.49         3.0 0.24            130            164 218 
 SML  HZ EP   1    653 11.00                             118   -0.01 6  241 335 
 SML  HE ES   1    653 39.47                             118   -0.05 6  241 335 
 SML  HZ I         653 42.26         3.0 0.10            120            241 335 
 CHI  HZ EP        653 12.69                             118    0.13 8  250 195 
 CHI  HE ES   1    653 43.11                             118    0.82 6  250 195 
 CHI  HZ I         653 49.00         0.6 0.62            119            250 195 
                                                                                
