 2017  1 5 0905 44.7 L   6.804 -73.159146.0  RSN  6 0.3 1.0LRSN                1
 GAP=135        0.75       3.8     3.3  5.1  0.1366E+01  0.4235E+01 -0.7712E+00E
 Epicentro: LOS SANTOS - SANTANDER                                             3
 ACTION:UPD 17-05-22 15:55 OP:jn   STATUS:               ID:20170105090544 L   I
 OLDACT:DUP 17-01-05 16:41 OP:lv   STATUS:               ID:20170105085744d    3
 2017-01-05-0858-00M.COL___368                                                 6
 STAT SP IPHASW D HRMM SECON CODA AMPLIT PERI AZIMU VELO AIN AR TRES W  DIS CAZ7
 BAR2 EZ EP        9 6  4.21                             170   -0.1510 23.6 186 
 BAR2 EZ ES        9 6 19.89                             170    0.1910 23.6 186 
 BRR  HZ EP        9 6  5.65                             153   -0.1310 69.7 299 
 BRR  HE ES        9 6 21.97                             153   -0.2610 69.7 299 
 PAM  EZ EP        9 6  7.04                             151    0.0710 78.0  41 
 PAM  EN ES        9 6 24.28                             151   -0.0710 78.0  41 
 PAM  EZ I         9 6 25.80         2.1 0.38            152           78.0  41 
 RUS  HZ EP        9 6  8.42                             144   -0.0910  101 175 
 RUS  HE ES        9 6 27.41                             144    0.3210  101 175 
 RUS  HZ I         9 6 28.50         0.7 0.22            146            101 175 
 PTB  HZ EP        9 6 11.13                             132   -0.43 9  146 259 
 PTB  HE ES        9 6 32.22                             132   -0.29 9  146 259 
 PTB  HZ I         9 6 34.59         1.3 0.18            132            146 259 
 ZAR  HZ EP        9 6 17.44                             123    0.44 9  202 292 
 ZAR  HN ES        9 6 42.77                             123    0.58 9  202 292 
 ZAR  HZ I         9 6 48.25         1.6 0.38            123            202 292 
                                                                                
