 2017  8 5 0302 13.9 L   6.777 -73.115144.7  RSN  5 0.4 1.2LRSN                1
 GAP=239        1.07       6.4     7.0  7.9  0.1031E+02  0.6513E+01  0.4155E+01E
 Epicentro: LOS SANTOS - SANTANDER                                             3
 ACTION:UPD 17-09-04 20:16 OP:rebc STATUS:               ID:20170805030213 L   I
 OLDACT:REG 17-08-05 12:57 OP:osc  STATUS:               ID:20170805025740     3
 2017-08-05-0258-00M.COL___402                                                 6
 STAT SP IPHASW D HRMM SECON CODA AMPLIT PERI AZIMU VELO AIN AR TRES W  DIS CAZ7
 BAR2 EZ EP        3 2 32.85                             171   -0.5710 21.7 200 
 BAR2 EZ ES        3 2 48.24                             171   -0.3710 21.7 200 
 BRR  HZ EP        3 2 35.23                             151    0.0010 75.4 299 
 BRR  HN ES        3 2 52.56                             151    0.7310 75.4 299 
 RUS  HZ EP        3 2 37.83                             144    0.4410 97.8 178 
 RUS  HN ES        3 2 55.70                             144    0.0110 97.8 178 
 RUS  HZ I         3 2 57.52         1.5 0.30            131           97.8 178 
 PTB  HZ EP        3 2 40.86                             131   -0.23 9  151 260 
 PTB  HN ES        3 3  1.71                             131   -0.55 9  151 260 
 SPBC HZ EP        3 2 42.63                             129    0.25 9  163 220 
 SPBC HZ I         3 3  3.40         2.7 0.10            116            163 220 
 SPBC HN ES        3 3  4.82                             129    0.26 9  163 220 
                                                                                
