 2016 10 5 0506 16.2 L   6.831 -73.188150.2  RSN  6 0.6 1.4LRSN                1
 GAP=130        1.41       6.3     6.2 11.3 -0.2353E+01  0.9114E+01  0.1176E+02E
 Epicentro: ZAPATOCA - SANTANDER                                               3
 ACTION:UPD 16-11-09 19:16 OP:rebc STATUS:               ID:20161005050616 L   I
 OLDACT:DUP 16-10-05 16:17 OP:dani STATUS:               ID:20161005045642d    3
 2016-10-05-0457-00M.COL___357                                                 6
 STAT SP IPHASW D HRMM SECON CODA AMPLIT PERI AZIMU VELO AIN AR TRES W  DIS CAZ7
 BRR  HZ EP        5 6 38.24                             155    0.7510 65.5 298 
 BRR  HN ES        5 6 54.97                             155    0.8410 65.5 298 
 BRR  HZ I         5 6 58.45         3.3 0.28            154           65.5 298 
 PAM  EZ EP        5 6 39.01                             151    0.1210 77.9  44 
 PAM  EN ES        5 6 56.22                             151   -0.3910 77.9  44 
 PAM  EZ I         5 6 58.29         6.4 0.50            157           77.9  44 
 RUS  HZ EP        5 6 40.57                             144   -0.0610  104 174 
 RUS  HN ES        5 6 59.05                             144   -0.6710  104 174 
 RUS  HZ I         5 7  2.16         1.5 0.25            147            104 174 
 PTB  HZ EP        5 6 42.74                             134   -0.42 9  144 257 
 PTB  HN ES        5 7  3.91                             134   -0.31 9  144 257 
 PTB  HZ I         5 7  9.97         3.2 0.22            135            144 257 
 SPBC HZ EP        5 6 45.17                             130    0.17 9  163 217 
 SPBC HE ES        5 7  8.15                             130    0.66 9  163 217 
 SPBC HZ I         5 7 12.11         4.3 0.12            132            163 217 
 ZAR  HE ES        5 7 12.54                             124   -0.89 9  198 292 
 ZAR  HZ I         5 7 19.54         5.2 0.08            126            198 292 
                                                                                
