 2016 12 5 0705 42.0 L   6.730 -73.145144.1  RSN  5 0.4 1.2LRSN                1
 GAP=159        1.15       9.5     5.5  8.4 -0.1118E+02  0.1291E+02 -0.3114E+01E
 Epicentro: JORDAN - SANTANDER                                                 3
 ACTION:UPD 17-01-11 20:12 OP:rebc STATUS:               ID:20161205070542 L   I
 OLDACT:REG 16-12-05 15:27 OP:ar   STATUS:               ID:20161205065741     3
 2016-12-05-0658-00M.COL___339                                                 6
 STAT SP IPHASW D HRMM SECON CODA AMPLIT PERI AZIMU VELO AIN AR TRES W  DIS CAZ7
 BAR2 EZ EP        7 6  1.61                             173    0.3510 15.8 195 
 BAR2 EZ ES        7 6 16.09                             173   -0.2210 15.8 195 
 BAR2 EZ I         7 6 18.09         5.7 0.23            173           15.8 195 
 BRR  HZ EP        7 6  3.49                             151    0.3210 75.3 304 
 BRR  HN ES        7 6 20.60                             151    0.8910 75.3 304 
 BRR  HZ I         7 6 24.12         2.5 0.13            146           75.3 304 
 PAM  EZ EP        7 6  4.56                             149    0.1810 83.4  36 
 PAM  EE ES        7 6 21.23                             149   -0.6310 83.4  36 
 PAM  EZ I         7 6 23.75         3.1 0.25            149           83.4  36 
 PTB  HZ EP        7 6  8.34                             132   -0.35 9  147 262 
 PTB  HN ES        7 6 29.21                             132   -0.32 9  147 262 
 PTB  HZ I         7 6 32.82         2.0 0.11            132            147 262 
 ZAR  HZ EP        7 6 14.67                             122    0.04 8  207 294 
 ZAR  HE ES        7 6 39.63                             122   -0.48 8  207 294 
 ZAR  HZ I         7 6 48.34         1.4 0.25            121            207 294 
                                                                                
