 2013  9 5 0421 39.5 L   6.786 -73.174153.1  RSN  4 0.3 1.1LRSN                1
 GAP=242        0.64       4.9    10.8  9.2 -0.2136E+02 -0.4857E+02  0.2304E+01E
 Epicentro: LOS SANTOS - SANTANDER                                             3
 ACTION:UPD 13-10-22 09:20 OP:ep   STATUS:               ID:20130905042139 L   I
 OLDACT:UP  13-09-05 10:06 OP:cam  STATUS:               ID:20130905041959     3
 OLDACT:REG 13-09-05 08:52 OP:cam  STATUS:               ID:20130905041959     3
 2013-09-05-0419-59M.COL___269                                                 6
 STAT SP IPHASW D HRMM SECON CODA AMPLIT PERI AZIMU VELO AIN AR TRES W  DIS CAZ7
 BRR  HZ EP   1    422  1.63                             154    0.25 8 69.3 301 
 BRR  HN ES   1    422 18.19                             154   -0.23 8 69.3 301 
 BRR  HZ I         422 22.14         2.8 0.18            150           69.3 301 
 PTB  HZ EP   1    422  6.75                             134   -0.06 7  144 259 
 PTB  HN ES        422 28.08                             134   -0.0210  144 259 
 PTB  HZ I         422 35.91         1.3 0.12            132            144 259 
 SPBC HZ EP   2    422  8.78                             131    0.47 5  160 218 
 SML  HZ EP   1    422 15.86                             119   -0.74 6  244 336 
 SML  HN ES        422 45.82                             119    0.31 8  244 336 
                                                                                
