 2016  5 5 0318 56.9 L   7.422 -73.207126.0  RSN  8 0.4 1.8LRSN                1
 GAP=107        1.02       3.7     4.4  6.8 -0.3530E+01  0.1244E+02  0.1683E+01E
 Epicentro: EL PLAYON - SANTANDER                                              3
 ACTION:UPD 16-08-18 17:42 OP:cam  STATUS:               ID:20160505031856 L   I
 OLDACT:REG 16-05-05 12:53 OP:ak   STATUS:               ID:20160505030744     3
 2016-05-05-0307-44M.COL___307                                                 6
 STAT SP IPHASW D HRMM SECON CODA AMPLIT PERI AZIMU VELO AIN AR TRES W  DIS CAZ7
 PAM  EZ EP        319 15.83                             155    0.0610 56.8  99 
 PAM  EN ES        319 30.72                             155    0.1910 56.8  99 
 PAM  EZ I         319 32.56         7.0 0.30            158           56.8  99 
 BRR  HZ EP        319 15.44                             151   -0.1210 65.7 238 
 BRR  HN ES        319 30.43                             151    0.2710 65.7 238 
 BRR  HZ I         319 33.79        27.0 0.04            150           65.7 238 
 OCA  HZ EP        319 16.80                             142   -0.7210 91.2 352 
 OCA  HN ES        319 34.01                             142    0.3810 91.2 352 
 OCA  HZ I         319 36.20        20.7 0.22            146           91.2 352 
 BAR2 EZ EP   2    319 17.54                             142   -0.14 5 91.8 178 
 BAR2 EZ ES        319 33.61                             142   -0.3110 91.8 178 
 BAR2 EZ I         319 35.00        11.2 0.13            142           91.8 178 
 PTB  HZ EP        319 24.02                             123   -0.39 9  169 235 
 PTB  HN ES        319 45.31                             123   -0.60 9  169 235 
 PTB  HZ I         319 49.17         5.4 0.12            124            169 235 
 ZAR  HZ EP        319 25.73                             121   -0.06 9  182 273 
 ZAR  HN ES        319 48.68                             121    0.33 9  182 273 
 ZAR  HZ I         319 50.08         5.7 0.28            122            182 273 
 SPBC HZ EP   2    319 30.52                             116    0.82 4  218 206 
 SPBC HN ES        319 55.82                             116    0.50 8  218 206 
 SPBC HZ I         320  3.09         5.7 0.20            117            218 206 
 NOR  HZ EP        319 37.11                             110    0.95 7  276 222 
 NOR  HN ES        320  6.56                             110   -0.26 7  276 222 
 NOR  HZ I         320 12.69         3.0 0.16            112            276 222 
                                                                                
