 2014  8 5 0952 17.7 L   6.101 -73.564119.7  RSN  9 0.3 1.4LRSN                1
 GAP= 96        0.80       2.8     3.0  6.0 -0.5087E+00  0.6102E+01  0.5033E+01E
 Epicentro: SAN BENITO - SANTANDER                                             3
 ACTION:UPD 14-09-15 21:47 OP:nd   STATUS:               ID:20140805095217 L   I
 OLDACT:REG 14-08-05 13:56 OP:spq  STATUS:               ID:20140805094817     3
 2014-08-05-0948-17M.COL___242                                                 6
 STAT SP IPHASW D HRMM SECON CODA AMPLIT PERI AZIMU VELO AIN AR TRES W  DIS CAZ7
 RUS  HZ EP        952 35.94                             153   -0.0910 58.0 113 
 RUS  HN ES   1    952 49.60                             153   -0.70 7 58.0 113 
 BAR2 SZ EP        952 36.72                             148    0.4210 68.8  38 
 BAR2 SZ ES   1    952 51.15                             148    0.35 7 68.8  38 
 BAR2 SZ I         952 52.91        11.2 0.18            153           68.8  38 
 PTB  HZ EP        952 38.96                             134   -0.1910  110 296 
 PTB  HN ES        952 55.55                             134   -0.3210  110 296 
 PTB  HZ I         952 57.71         6.0 0.10            135            110 296 
 BRR  HZ EP        952 39.73                             134    0.3910  112 352 
 BRR  HN ES        952 56.19                             134   -0.0210  112 352 
 BRR  HZ I         953  0.56         8.4 0.30            137            112 352 
 NOR  HZ EP        952 43.70                             124    0.09 9  156 248 
 NOR  HN ES        953  4.54                             124    0.74 9  156 248 
 NOR  HZ I         953  7.71         3.3 0.30            125            156 248 
 ZAR  HZ EP        952 48.85                             115   -0.42 8  210 317 
 ZAR  HN ES        953 13.70                             115   -0.18 8  210 317 
 ZAR  HZ I         953 18.41         2.9 0.58            117            210 317 
 HEL  HZ EP   1    952 50.67                             114    0.09 6  218 273 
 HEL  HN ES   1    953 16.00                             114   -0.21 6  218 273 
 HEL  HZ I         953 23.26         1.9 0.44            116            218 273 
 GUY2CHZ EP   1    952 50.85                             114   -0.33 6  222 244 
 GUY2CHE ES   1    953 17.23                             114   -0.04 6  222 244 
 GUY2CHZ I         953 27.18         0.9 0.70                           222 244 
 PRA  HZ EP        952 59.73                             107   -0.08 7  302 209 
 PRA  HE ES        953 32.56                             107   -0.08 7  302 209 
 PRA  HZ I         953 40.14         1.7 0.26            109            302 209 
                                                                                
