 2010  9 5 0821 17.9 L   6.853 -73.080144.0  RSN 11 0.4 1.9LRSN                1
 GAP=165        0.92       3.8     6.7  8.3 -0.1138E+02  0.2921E+01  0.5044E+01E
 Epicentro: LOS SANTOS - SANTANDER                                             3
 ACTION:UP  11-02-18 11:00 OP:tino STATUS:               ID:20100905082117 L   I
 2010-09-05-0818-06S.COL___120                                                 6
 STAT SP IPHASW D HRMM SECON CODA AMPLIT PERI AZIMU VELO SNR AR TRES W  DIS CAZ7
 BAR2 SZ EP   1    821 37.56                             167     0.1 7   31 202 
 BAR2 SZ I         821 56.25        14.5 0.50                            31 202 
 BRR  HZ EP        821 38.92                             151    -0.210   75 292 
 BRR  HE ES   1    821 55.70                             151     0.1 7   75 292 
 BRR  HZ I         821 57.37        19.0 0.09                            75 292 
 RUS  HZ EP   1    821 41.58                             142    -0.3 7  106 180 
 RUS  HE ES   1    822  0.60                             142     0.0 7  106 180 
 RUS  HZ I         822  2.02         6.7 0.05                           106 180 
 GUE  SZ EP        821 41.95                             141     0.110  109   9 
 GUE  SZ I         821 43.32         8.6 0.08                           109   9 
 GRA  SZ IP        821 42.68                             138     0.310  118  15 
 GRA  SZ I         821 43.96        11.5 0.26                           118  15 
 GRA  SZ ES   1    822  1.32                             138    -0.1 7  118  15 
 OCA  SZ EP   1    821 45.08                             130    -0.5 7  156 350 
 OCA  SZ I         822 11.34         6.8 0.19                           156 350 
 CHI  HZ EP   2    821 56.26                             116    -0.1 4  256 196 
 CHI  HE ES   1    822 25.61                             116    -0.7 6  256 196 
 CHI  HZ I         822 32.71         3.5 0.86                           256 196 
 ROSC BZ EP   1    821 57.59                             115     0.7 6  261 212 
 ROSC BN ES   1    822 28.31                             115     1.0 6  261 212 
 ROSC BZ I         822 34.06         4.2 0.78                           261 212 
 HEL  HZ EP   2    821 59.28                             114     0.3 4  281 255 
 HEL  HN ES   1    822 30.85                             114    -0.1 6  281 255 
 HEL  HZ I         822 36.55         6.7 1.12                           281 255 
 RREF HZ EP   2    822  4.42                             110    -0.6 3  331 229 
 RREF HZ I         822 48.00         3.1 0.15                           331 229 
 PRA  HZ EP   1    822 12.67                             106     0.3 4  401 210 
 PRA  HN ES   1    822 53.97                             106    -0.9 4  401 210 
 PRA  HZ I         823  1.52         4.2 0.53                           401 210 
                                                                                
