 2013  8 5 0941 11.6 L   6.169 -73.902 15.3  RSN  5 0.4 1.1LRSN                1
 GAP=144        1.09       6.7     2.9  8.7 -0.3570E+01  0.1200E+02 -0.3687E+02E
 Epicentro: CIMITARRA - SANTANDER                                              3
 ACTION:UPD 14-01-14 08:59 OP:ep   STATUS:               ID:20130805094111 L   I
 OLDACT:REG 13-08-05 08:07 OP:jn   STATUS:               ID:20130805093959     3
 2013-08-05-0939-59M.COL___270                                                 6
 STAT SP IPHASW D HRMM SECON CODA AMPLIT PERI AZIMU VELO AIN AR TRES W  DIS CAZ7
 PTB  HZ EP   1    941 23.40                              99   -0.11 7 73.8 304 
 PTB  HZ I         941 36.22         7.0 0.14                          73.8 304 
 RUS  HZ EP        941 27.94                              97    0.6610 95.6 109 
 RUS  HN ES        941 38.92                              97   -0.6110 95.6 109 
 RUS  HZ I         941 42.66         1.8 0.24            127           95.6 109 
 NOR  HZ EP        941 31.71                              95    0.2510  126 238 
 NOR  HE ES        941 46.56                              95   -0.4010  126 238 
 NOR  HZ I         941 47.41         3.9 0.22            115            126 238 
 HEL  HZ EP        941 39.40                              56    0.57 9  180 271 
 HEL  HN ES        941 59.89                              56   -0.19 9  180 271 
 HEL  HZ I         942  1.80         5.2 0.28            106            180 271 
 ZAR  HE ES   1    941 59.05                              56   -0.34 7  181 324 
 ZAR  HZ I         942  3.18         1.8 0.16            104            181 324 
                                                                                
