 2014 12 5 0114 48.0 L   6.874 -73.340123.2  RSN 19 0.5 1.9LRSN                1
 GAP= 53        1.19       2.4     2.9  5.3 -0.4556E+00  0.6181E+01  0.6793E+00E
 Epicentro: BETULIA - SANTANDER                                                3
 ACTION:UPD 15-02-10 17:00 OP:nd   STATUS:               ID:20141205011448 L   I
 OLDACT:REG 14-12-05 12:35 OP:fm   STATUS:               ID:20141205010748     3
 2014-12-05-0107-48M.COL___300                                                 6
 STAT SP IPHASW D HRMM SECON CODA AMPLIT PERI AZIMU VELO AIN AR TRES W  DIS CAZ7
 BAR2 SZ EP     D  115  5.95                             163    0.6710 35.7 151 
 BAR2 SZ ES        115 18.74                             163   -0.0310 35.7 151 
 BRR  HZ EP        115  6.45                             157    0.9810 48.5 302 
 BRR  HE ES        115 19.53                             157    0.4310 48.5 302 
 BRR  HZ I         115 21.33        46.0 0.12            156           48.5 302 
 PAM  SZ EP        115  9.15                             143    0.5710 87.5  54 
 PAM  SN ES        115 24.74                             143    0.1110 87.5  54 
 PAM  SZ I         115 29.29        15.2 0.42            146           87.5  54 
 RUS  HZ EP        115  9.85                             135   -0.7110  112 165 
 RUS  HE ES        115 27.28                             135   -0.8910  112 165 
 RUS  HZ I         115 29.58         8.5 0.20            138            112 165 
 PTB  HZ IP     D  115 11.24                             130   -0.1710  129 253 
 PTB  HE ES        115 29.13                             130   -0.5510  129 253 
 PTB  HZ I         115 33.57        13.7 0.22            131            129 253 
 OCA  HZ EP        115 13.62                             126   -0.10 9  151   1 
 OCA  HE ES        115 33.54                             126   -0.25 9  151   1 
 OCA  HZ I         115 40.01        16.5 0.24            128            151   1 
 SPBC HZ EP        115 14.04                             124   -0.25 9  158 211 
 SPBC HN ES        115 34.51                             124   -0.30 9  158 211 
 SPBC HZ I         115 37.16        13.7 0.14            126            158 211 
 TAM  HN ES        115 38.21                             121   -0.22 9  178 106 
 ZAR  HZ EP        115 17.23                             120    0.62 9  181 292 
 ZAR  HN ES        115 39.22                             120    0.28 9  181 292 
 ZAR  HZ I         115 43.49        15.6 0.56            121            181 292 
 NOR  HZ EP        115 21.59                             115    0.40 8  223 230 
 NOR  HE ES        115 47.86                             115    0.78 8  223 230 
 NOR  HZ I         115 53.38         4.3 0.24            116            223 230 
 SML  HZ EP        115 21.31                             114   -0.37 8  228 339 
 SML  HE ES        115 47.62                             114   -0.34 8  228 339 
 SML  HZ I         115 55.75        19.6 0.10            116            228 339 
 CHI  HZ EP        115 24.54                             112   -0.38 8  252 190 
 CHI  HE ES        115 53.73                             112    0.01 8  252 190 
 CHI  HZ I         116  0.93         3.3 0.28            113            252 190 
 HEL  HZ EP        115 24.82                             111   -0.23 8  254 253 
 HEL  HE ES        115 54.21                             111    0.26 8  254 253 
 HEL  HZ I         116  0.36         4.7 0.46            113            254 253 
 URE  HZ EP        115 25.26                             111   -0.17 8  261 292 
 URE  HE ES        115 53.18                             111   -1.45 8  261 292 
 URE  HZ I         115 55.94         5.9 0.10            112            261 292 
 GUY2CHZ EP        115 29.52                             109    0.28 7  289 231 
 GUY2CHE ES        116  1.20                             109   -0.22 7  289 231 
 GUY2CHZ I         116  9.85         4.2 0.52                           289 231 
 RREF HZ EP        115 32.46                             107    0.41 7  311 226 
 RREF HE ES        116  5.94                             107   -0.47 7  311 226 
 RREF HZ I         116 13.06         3.4 0.24            108            311 226 
 CBOC HZ EP        115 32.17                             106    0.16 7  316 249 
 CBOC HN ES        116  6.73                             106    0.39 7  316 249 
 CBOC HZ I         116 10.58         1.9 0.26            108            316 249 
 MON  HZ EP        115 33.25                             105   -0.39 7  332 310 
 MON  HE ES        116  9.26                             105    0.02 7  332 310 
 MON  HZ I         116 11.10         2.4 0.18            107            332 310 
 TOL  SZ EP        115 35.03                             105    0.61 7  335 221 
 TOL  SE ES        116 11.04                             105    0.40 7  335 221 
 TOL  SZ I         116 23.41         5.1 0.36            107            335 221 
                                                                                
