 2016 11 5 0453 32.9 L   6.770 -73.224148.0  RSN  5 0.5 1.6LRSN                1
 GAP=264        0.95       5.9     9.4  9.5  0.3411E+01 -0.2413E+02  0.1786E+02E
 Epicentro: ZAPATOCA - SANTANDER                                               3
 ACTION:UPD 17-10-26 21:04 OP:lp   STATUS:               ID:20161105045332 L   I
 OLDACT:UP  16-11-05 15:43 OP:dani STATUS:               ID:20161105044743     3
 OLDACT:UP  16-11-05 15:43 OP:dani STATUS:               ID:20161105044743     3
 OLDACT:UP  16-11-05 15:43 OP:dani STATUS:               ID:20161105044743     3
 OLDACT:REG 16-11-05 14:01 OP:dani STATUS:               ID:20161105044743     3
 2016-11-05-0448-00M.COL___352                                                 6
 STAT SP IPHASW D HRMM SECON CODA AMPLIT PERI AZIMU VELO AIN AR TRES W  DIS CAZ7
 BRR  HZ EP        453 53.67                             155   -0.3210 65.6 305 
 BRR  HE ES        454 10.86                             155    0.4310 65.6 305 
 BRR  HZ I         454 13.60         3.9 0.26            154           65.6 305 
 PTB  HZ EP        453 58.67                             135   -0.57 9  139 259 
 PTB  HN ES        454 19.45                             135   -0.34 9  139 259 
 PTB  HZ I         454 22.16         3.6 0.42            133            139 259 
 SPBC HZ EP        454  0.81                             131   -0.02 9  155 217 
 SPBC HN ES        454 22.80                             131    0.18 9  155 217 
 SPBC HZ I         454 30.22         5.2 0.22            130            155 217 
 ZAR  HZ EP   3    454  6.33                             124    1.52 2  197 294 
 ZAR  HE ES        454 29.99                             124    0.29 9  197 294 
 ZAR  HZ I         454 35.07         3.7 0.34            125            197 294 
 PRA  HZ EP        454 26.50                             108    0.83 6  385 209 
 PRA  HE ES   4    455 10.07                             108    3.24 0  385 209 
 PRA  HZ I         455 12.33         2.2 0.56            108            385 209 
 SJC  HN ES   4    455  8.68                             106   -2.86 0  407 328 
                                                                                
