 2017  7 5 0156 35.9 L   6.915 -73.177142.0  RSN  9 0.5 1.9LRSN                1
 GAP=133        1.20       7.2     5.4  8.0 -0.1382E+02  0.1754E+02  0.1589E+01E
 Epicentro: BETULIA - SANTANDER                                                3
 ACTION:UPD 17-08-30 15:29 OP:rebc STATUS:               ID:20170705015635 L   I
 OLDACT:UP  17-07-05 20:15 OP:nlst STATUS:               ID:20170705015635 L   3
 OLDACT:UP  17-07-05 15:05 OP:edw  STATUS:               ID:20170705014739     3
 OLDACT:UP  17-07-05 15:05 OP:edw  STATUS:               ID:20170705014739     3
 OLDACT:REG 17-07-05 12:31 OP:edw  STATUS:               ID:20170705014739     3
 2017-07-05-0148-00M.COL___377                                                 6
 STAT SP IPHASW D HRMM SECON CODA AMPLIT PERI AZIMU VELO AIN AR TRES W  DIS CAZ7
 BAR2 EZ EP        156 54.79                             165   -0.5610 35.7 181 
 BAR2 EZ ES        157 10.35                             165   -0.2110 35.7 181 
 BAR2 EZ I         157 10.67        12.2 0.20            168           35.7 181 
 BRR  HZ EP        156 56.23                             155    0.1010 62.8 290 
 BRR  HN ES   1    157 13.13                             155    1.18 7 62.8 290 
 BRR  HZ I         157 14.99         8.8 0.34            151           62.8 290 
 PAM  EZ EP     C  156 57.16                             152   -0.1110 70.6  48 
 PAM  EN ES        157 14.33                             152    0.3510 70.6  48 
 PAM  EZ I         157 16.01        14.9 0.48            155           70.6  48 
 PTB  HZ EP     D  157  1.71                             131   -0.77 9  147 254 
 PTB  HN ES        157 22.84                             131   -0.41 9  147 254 
 PTB  HZ I         157 25.43         8.1 0.12            131            147 254 
 SPBC HE ES   2    157 26.87                             127   -0.58 4  171 215 
 ZAR  HZ EP        157  7.22                             123   -0.03 9  196 289 
 ZAR  HN ES        157 31.23                             123   -0.52 9  196 289 
 ZAR  HZ I         157 38.26        20.3 0.44            122            196 289 
 NOR  HZ EP   2    157 12.07                             117    0.18 4  240 232 
 NOR  HN ES        157 40.65                             117    0.65 8  240 232 
 NOR  HZ I         157 44.32         4.9 0.22            118            240 232 
 HEL  HZ EP        157 16.61                             114    0.73 8  272 253 
 HEL  HN ES        157 47.16                             114    0.06 8  272 253 
 HEL  HZ I         157 54.67         3.6 0.36            115            272 253 
 GUY2CHZ EP        157 20.67                             111    0.85 7  306 232 
 GUY2CHN ES   4    157 57.66                             111    3.54 0  306 232 
 GUY2CHZ I         158  2.66         2.9 0.36                           306 232 
                                                                                
