 2016  8 5 0636 46.9 L   6.863 -73.038135.5  RSN  5 0.2 0.9LRSN                1
 GAP=253        0.46       2.7     3.5  3.3  0.4820E+01  0.1645E+01 -0.2279E+00E
 Epicentro: PIEDECUESTA - SANTANDER                                            3
 ACTION:UPD 16-10-29 15:32 OP:rebc STATUS:               ID:20160805063646 L   I
 OLDACT:DUP 16-08-05 17:35 OP:edw  STATUS:               ID:20160805062737d    3
 OLDACT:REG 16-08-05 13:11 OP:edw  STATUS:               ID:20160805062736     3
 2016-08-05-0628-00M.COL___338                                                 6
 STAT SP IPHASW D HRMM SECON CODA AMPLIT PERI AZIMU VELO AIN AR TRES W  DIS CAZ7
 BAR2 EZ EP        637  5.74                             165    0.1210 34.0 208 
 BAR2 EZ ES        637 20.29                             165    0.1010 34.0 208 
 BRR  HZ EP        637  7.42                             148   -0.0710 79.2 290 
 BRR  HN ES        637 23.23                             148   -0.2910 79.2 290 
 BRR  HZ I         637 26.25         3.3 0.46                          79.2 290 
 RUS  HZ EP        637 10.13                             140   -0.1010  107 183 
 RUS  HN ES        637 28.54                             140    0.1510  107 183 
 RUS  HZ I         637 29.83         0.6 0.28                           107 183 
 SPBC HZ EP        637 15.90                             124   -0.06 9  176 221 
 SPBC HN ES        637 38.48                             124   -0.12 9  176 221 
 ZAR  HZ EP        637 19.65                             119   -0.00 8  213 289 
 ZAR  HN ES        637 45.49                             119    0.31 8  213 289 
                                                                                
