 2010  4 5 0236 30.0 L   6.897 -73.055154.0  RSN  5 0.5 2.0LRSN                1
 GAP=275        1.28      10.9    11.0 14.2 -0.3606E+02 -0.1507E+02  0.9211E+02E
 Epicentro: PIEDECUESTA - SANTANDER                                            3
 ACTION:UPD 10-08-24 09:57 OP:vdl  STATUS:               ID:20100405023630 L   I
 2010-04-05-0232-29S.COL___098                                                 6
 STAT SP IPHASW D HRMM SECON CODA AMPLIT PERI AZIMU VELO AIN AR TRES W  DIS CAZ7
 BAR2 SZ EP        236 50.37                             166    -0.610   37 203 
 BRR  HZ EP        236 52.40                             153     0.010   76 288 
 BRR  HN ES        237 10.19                             153     0.410   76 288 
 BRR  HZ I         237 13.16        15.8 0.12                            76 288 
 ROSC BZ EP        237 10.45                             117     0.3 8  267 212 
 ROSC BN ES        237 41.44                             117     0.0 8  267 212 
 ROSC BZ I         237 44.71         4.8 0.63                           267 212 
 HEL  HZ EP        237 11.89                             115    -0.2 7  285 254 
 HEL  HE ES        237 43.96                             115    -0.9 7  285 254 
 HEL  HZ I         237 49.28         4.6 0.35                           285 254 
 RREF BZ EP        237 19.20                             111     1.0 7  336 229 
 RREF BN ES        237 55.98                             111     0.2 7  336 229 
 RREF BZ I         237 57.44         4.5 0.63                           336 229 
                                                                                
