 2010  1 5 0720  4.5 L   6.775 -73.079146.0  RSN  6 0.3 1.9LRSN                1
 GAP=131        0.69       4.4    11.8  6.8 -0.2020E+02 -0.2087E+02 -0.6662E+00E
 Epicentro: LOS SANTOS - SANTANDER                                             3
 ACTION:UP  10-08-24 09:42 OP:vdl  STATUS:               ID:20100105072004 L   I
 2010-01-05-0716-19S.COL___097                                                 6
 STAT SP IPHASW D HRMM SECON CODA AMPLIT PERI AZIMU VELO SNR AR TRES W  DIS CAZ7
 BAR2 SZ EP        720 24.63                             171     0.510   23 210 
 BAR2 SZ ES   2    720 39.08                             171    -0.4 5   23 210 
 GIR2 SZ ES   2    720 40.11                             166     0.3 5   36 339 
 RUS  BZ EP        720 28.03                             145     0.010   98 180 
 RUS  BN ES   2    720 46.12                             145    -0.3 5   98 180 
 RUS  BZ I         720 48.20        12.2 0.49                            98 180 
 OCA  SZ EP        720 32.92                             129    -0.3 9  164 351 
 OCA  SZ I         720 58.57        13.4 0.11                           164 351 
 CHI  HZ EP        720 42.18                             117     0.0 8  248 197 
 CHI  HE ES   2    721 10.98                             117    -0.5 4  248 197 
 CHI  HZ I         721 21.42         5.2 0.87                           248 197 
 SDV  BZ IP        720 54.03                             109    -0.1 6  357  49 
                                                                                
