 2015 11 5 0320 14.8 L   6.794 -73.129147.5  RSN 14 0.4 2.0LRSN                1
 GAP=139        0.91       2.6     3.6  5.0 -0.1849E+01  0.5773E+01  0.1405E+01E
 Epicentro: LOS SANTOS - SANTANDER                                             3
 ACTION:UPD 15-12-28 16:08 OP:cam  STATUS:               ID:20151105032014 L   I
 OLDACT:REG 15-11-05 15:45 OP:cara STATUS:               ID:20151105031749     3
 2015-11-05-0317-49M.COL___310                                                 6
 STAT SP IPHASW D HRMM SECON CODA AMPLIT PERI AZIMU VELO AIN AR TRES W  DIS CAZ7
 BAR2 EZ EP        320 34.31                             171   -0.3010 23.1 195 
 BAR2 EZ ES        320 50.10                             171    0.0210 23.1 195 
 BAR2 EZ I         320 51.04        28.4 0.26            168           23.1 195 
 BRR  HZ IP     C  320 36.15                             152   -0.0710 73.2 298 
 BRR  HN ES        320 53.39                             152    0.4410 73.2 298 
 BRR  HZ I         320 57.14        18.3 0.44            145           73.2 298 
 PAM  EZ IP     D  320 37.33                             151    0.1910 76.7  38 
 PAM  EN ES        320 54.57                             151   -0.0110 76.7  38 
 PAM  EZ I         320 56.49        23.0 0.54            153           76.7  38 
 RUS  HZ EP        320 38.45                             144   -0.1910 99.8 177 
 RUS  HN ES        320 57.29                             144    0.0410 99.8 177 
 RUS  HZ I         320 57.96         7.0 0.30            147           99.8 177 
 OCA  HZ EP        320 42.60                             130   -0.70 9  161 353 
 OCA  HN ES        321  5.64                             130    0.08 9  161 353 
 OCA  HZ I         321  8.19        17.2 0.22            128            161 353 
 SPBC HZ EP        320 43.44                             129   -0.03 9  164 220 
 SPBC HN ES        321  5.69                             129   -0.16 9  164 220 
 SPBC HZ I         321  9.64        11.4 0.38            129            164 220 
 ZAR  HZ EP        320 48.23                             122    0.70 8  206 292 
 ZAR  HE ES        321 12.56                             122   -0.53 8  206 292 
 ZAR  HZ I         321 19.10        12.8 0.36            120            206 292 
 NOR  HZ EP        320 50.70                             119   -0.02 8  236 235 
 NOR  HE ES        321 18.14                             119   -0.62 8  236 235 
 NOR  HZ I         321 24.25         5.4 0.24            118            236 235 
 SML  HZ EP   4    320 50.37                             118   -1.28 0  245 335 
 SML  HN ES   4    321 19.86                             118   -0.55 0  245 335 
 SML  HZ I         321 29.05        13.4 0.10            117            245 335 
 CHI  HZ IP     D  320 53.06                             117    0.51 8  248 196 
 CHI  HN ES        321 22.16                             117    0.14 8  248 196 
 CHI  HZ I         321 25.41         5.5 0.46            119            248 196 
 HEL  HZ EP   2    320 54.96                             115   -0.29 4  274 256 
 HEL  HN ES        321 27.61                             115    0.78 8  274 256 
 HEL  HZ I         321 34.54         2.8 0.24            114            274 256 
 URE  HZ EP   4    320 59.19                             114    3.04 0  286 292 
 URE  HE ES   4    321 28.14                             114   -0.28 0  286 292 
 URE  HZ I         321 38.21         6.5 0.22            113            286 292 
 GUY2CHZ EP        320 59.10                             113    0.51 7  302 235 
 GUY2CHN ES        321 32.32                             113   -0.44 7  302 235 
 GUY2CHZ I         321 38.56         2.8 0.34                           302 235 
 MON  HZ EP   4    321  3.85                             109   -0.21 0  356 308 
 MON  HN ES   4    321 39.87                             109   -2.63 0  356 308 
 MON  HZ I         321 56.89         2.6 0.56            108            356 308 
                                                                                
