 2012  1 5 0636 20.0 L   6.701 -73.227152.0  RSN  4 0.3 1.2LRSN                1
 GAP=208        0.58       7.7     8.4  9.3  0.3332E+02 -0.1596E+02  0.7060E+01E
 Epicentro: VILLANUEVA - SANTANDER                                             3
 ACTION:UP  12-02-03 08:14 OP:REBC STATUS:               ID:20120105063620 L   I
 2012-01-05-0630-00M.COL___189                                                 6
 STAT SP IPHASW D HRMM SECON CODA AMPLIT PERI AZIMU VELO SNR AR TRES W  DIS CAZ7
 BAR2 SZ EP   1    636 39.90                             175    -0.4 7   13 158 
 BRR  HZ EP   1    636 41.62                             154    -0.2 7   70 310 
 BRR  HZ I         636 49.14         3.0 0.44                            70 310 
 BRR  HE ES   1    636 59.04                             154     0.3 7   70 310 
 RUS  HZ EP   1    636 44.06                             148     0.3 7   91 170 
 RUS  HN ES   2    637  2.16                             148    -0.1 5   91 170 
 PTB  HZ EP   2    636 46.93                             136     0.3 5  137 263 
 PTB  HN ES   2    637  6.92                             136    -0.4 5  137 263 
                                                                                
