 2014  6 5 0444  1.2 L   6.576 -73.523107.6  RSN 24 0.5 2.5LRSN                1
 GAP= 53        1.26       2.7     2.9  6.2 -0.1060E+01  0.4897E+01  0.1575E+01E
 Epicentro: EL CARMEN DE CHUCURI - SANTANDER                                   3
 OLDACT:REG 14-06-05 12:57 OP:fm   STATUS:               ID:20140605043806     3
 ACTION:UPD 14-07-01 22:51 OP:nd   STATUS:               ID:20140605044401 L   I
 OLDACT:UP  14-06-05 15:50 OP:fm   STATUS:               ID:20140605043806     3
 2014-06-05-0438-06M.COL___262                                                 6
 STAT SP IPHASW D HRMM SECON CODA AMPLIT PERI AZIMU VELO AIN AR TRES W  DIS CAZ7
 BAR2 SZ IP     D  444 16.99                             159    0.2410 37.7  87 
 BAR2 SZ ES   1    444 29.72                             159    0.83 7 37.7  87 
 RUS  HZ EP        444 20.14                             137   -0.3510 89.9 147 
 RUS  HN ES        444 35.87                             137    0.3110 89.9 147 
 RUS  SZ I         444 37.12        50.5 0.38            131           89.9 147 
 PTB  HZ EP        444 19.83                             132   -1.1710  103 268 
 PTB  HE ES        444 35.29                             132   -1.1610  103 268 
 PTB  SZ I         444 36.17        96.6 0.14            126            103 268 
 SPBC HZ EP        444 21.98                             128   -0.5710  119 211 
 SPBC HN ES        444 38.89                             128   -0.3210  119 211 
 SPBC SZ I         444 44.11        79.8 0.20            122            119 211 
 PAM  SZ EP        444 23.55                             127   -0.0410  124  47 
 PAM  SN ES        444 41.24                             127    0.1710  124  47 
 PAM  SZ I         444 42.40        31.6 0.44            122            124  47 
 ZAR  HZ EP        444 28.34                             116   -0.33 9  179 305 
 ZAR  HN ES        444 51.25                             116    1.14 9  179 305 
 ZAR  SZ I         444 53.25        69.8 0.24            111            179 305 
 OCA  HZ EP        444 29.11                             115   -0.44 9  185   7 
 OCA  HN ES        444 51.89                             115    0.21 9  185   7 
 OCA  SZ I         444 56.65        43.3 0.14            111            185   7 
 NOR  HZ EP   4    444 28.62                             115   -0.92 0  186 233 
 NOR  HN ES   4    444 50.75                             115   -0.92 0  186 233 
 NOR  SZ I         444 53.80        45.2 0.40            110            186 233 
 TAM  HZ EP        444 29.75                             114   -0.43 9  192  95 
 TAM  SZ I         444 53.08        18.9 0.32            110            192  95 
 TAM  HN ES        444 53.10                             114    0.30 9  192  95 
 ROSC BZ EP        444 33.49                             112    0.73 8  211 205 
 ROSC BN ES   4    445  1.09                             112    3.69 0  211 205 
 ROSC SZ I         445  3.09        14.5 0.70            108            211 205 
 CHI  HZ EP        444 33.24                             111   -0.14 8  216 186 
 CHI  HN ES        444 58.85                             111    0.35 8  216 186 
 HEL  HZ EP        444 34.29                             110   -0.11 8  226 259 
 HEL  HN ES        445  0.77                             110    0.45 8  226 259 
 HEL  SZ I         445  4.55        22.6 0.26            107            226 259 
 GUY2CHZ EP        444 37.95                             107    0.30 8  253 234 
 GUY2CHN ES   4    445  8.09                             107    2.00 0  253 234 
 GUY2CSZ I         445 11.76        28.2 0.76                           253 234 
 SML  HZ EP        444 36.95                             107   -0.16 8  253 346 
 SML  HN ES   4    445  6.51                             107    1.38 0  253 346 
 SML  SZ I         445 12.06        55.5 0.06            105            253 346 
 URE  HZ EP   4    444 34.87                             107   -2.71 0  257 300 
 URE  HN ES   4    445  5.01                             107   -0.96 0  257 300 
 URE  SZ I         445 12.79        37.8 0.18            104            257 300 
 VIL  SZ EP        444 39.21                             106   -0.37 8  273 184 
 VIL  SN ES        445  9.50                             106   -0.04 8  273 184 
 VIL  SZ I         445 18.47        13.4 0.28            103            273 184 
 RREF HZ EP        444 40.42                             106    0.09 8  274 228 
 RREF HN ES   4    445 12.88                             106    2.02 0  274 228 
 RREF SZ I         445 17.72        15.5 0.28            103            274 228 
 CBOC HZ EP        444 42.06                             105    0.85 7  286 254 
 CBOC HN ES        445 13.15                             105    0.72 7  286 254 
 CBOC SZ I         445 26.33        11.3 0.66            103            286 254 
 TOL  SZ EP        444 42.91                             104    0.28 7  297 222 
 TOL  SN ES   4    445 16.86                             104    1.89 0  297 222 
 TOL  SZ I         445 22.90        24.4 0.60            102            297 222 
 PTGC HN ES   4    445 13.39                             103   -2.49 0  305 150 
 ANIL HZ EP        444 44.94                             103    0.71 7  311 222 
 ANIL HN ES   4    445 20.81                             103    3.01 0  311 222 
 ANIL SZ I         445 27.06        32.0 0.38            102            311 222 
 ORTC HZ EP        444 48.77                             101    0.01 6  351 213 
 ORTC HN ES   4    445 27.50                             101    1.62 0  351 213 
 ORTC SZ I         445 31.66         6.3 0.42            100            351 213 
 PRA  HZ EP        444 48.32                             101   -0.37 6  351 206 
 PRA  HN ES        445 25.88                             101    0.13 6  351 206 
 PRA  SZ I         445 30.04        11.4 0.20            100            351 206 
 PAL  HZ EP        444 49.39                             100   -0.11 6  357 239 
 PAL  HN ES   4    445 28.39                             100    1.20 0  357 239 
 PAL  SZ I         445 30.47        29.0 0.22            100            357 239 
 SJC  HZ EP   4    444 54.47                              98   -1.39 0  410 334 
 SJC  HN ES   4    445 35.52                              98   -3.00 0  410 334 
 SJC  SZ I         445 48.86        11.5 1.16             98            410 334 
                                                                                
