 2010 11 5 0855 55.2 L   7.417 -73.224127.5  RSN  5 0.3 1.4LRSN                1
 GAP=135        0.64       4.6     7.8  8.4 -0.1288E+02  0.2057E+01  0.4412E+01E
 Epicentro: EL PLAYON - SANTANDER                                              3
 ACTION:UP  10-12-17 16:50 OP:REBC STATUS:               ID:20101105085555 L   I
 2010-11-05-0852-22S.COL___128                                                 6
 STAT SP IPHASW D HRMM SECON CODA AMPLIT PERI AZIMU VELO SNR AR TRES W  DIS CAZ7
 GUE  SZ EP   1    856 13.85                             155    -0.1 7   56  36 
 BRR  HZ EP   1    856 13.91                             152     0.0 7   64 238 
 BRR  HN ES   2    856 29.12                             152     0.6 5   64 238 
 BRR  HZ I         856 32.32         5.4 0.19                            64 238 
 GRA  SZ EP   1    856 14.96                             150     0.5 7   70  42 
 GRA  SZ ES   1    856 29.57                             150     0.0 7   70  42 
 GRA  SZ I         856 30.88        13.5 0.22                            70  42 
 BAR2 SZ EP   2    856 15.85                             142    -0.2 5   91 177 
 BAR2 SZ ES   2    856 32.10                             142    -0.3 5   91 177 
 BAR2 SZ I         856 33.51         4.8 0.09                            91 177 
 OCA  SZ EP   1    856 15.94                             142     0.0 7   92 353 
 OCA  SZ ES   1    856 31.91                             142    -0.3 7   92 353 
 OCA  SZ I         856 35.13         3.6 0.34                            92 353 
                                                                                
