 2012  1 5 0452 16.8 L   6.810 -73.132143.3  RSN 16 0.3 2.4LRSN                1
 GAP=115        0.61       2.0     2.8  3.7 -0.4761E+00  0.2284E+01  0.1350E+01E
 Epicentro: LOS SANTOS - SANTANDER                                             3
 ACTION:UP  12-02-03 08:14 OP:REBC STATUS:               ID:20120105045216 L   I
 2012-01-05-0450-00M.COL___189                                                 6
 STAT SP IPHASW D HRMM SECON CODA AMPLIT PERI AZIMU VELO SNR AR TRES W  DIS CAZ7
 BAR2 SZ IP        452 35.98                             170    -0.210   25 193 
 BAR2 SZ ES   1    452 50.99                             170    -0.3 7   25 193 
 BAR2 SZ I         452 52.16        76.5 0.28                            25 193 
 GIR2 SZ EP        452 36.01                             167    -0.110   31 347 
 GIR2 SZ ES   1    452 50.78                             167    -0.5 7   31 347 
 BRR  HZ IP     D  452 37.74                             152     0.010   72 297 
 BRR  HE ES   1    452 54.67                             152     0.6 7   72 297 
 BRR  HZ I         452 55.54        77.8 0.14                            72 297 
 PAM  SZ EP        452 38.81                             151     0.210   76  39 
 PAM  SN ES   1    452 55.81                             151     0.1 7   76  39 
 RUS  HZ EP        452 39.98                             143    -0.410  102 177 
 RUS  HE ES   1    452 58.97                             143     0.2 7  102 177 
 RUS  HZ I         452 59.93        16.3 0.27                           102 177 
 PTB  HE ES   2    453  4.33                             131    -0.4 5  149 259 
 OCA  SZ EP   1    452 45.07                             129     0.3 7  159 353 
 OCA  SZ ES   1    453  6.76                             129     0.1 7  159 353 
 OCA  SZ I         453 11.79        26.8 0.29                           159 353 
 YOP  SZ EP   1    452 46.83                             126     0.2 7  179 154 
 YOP  SN ES   2    453 10.61                             126     0.6 4  179 154 
 ZAR  HZ EP   1    452 49.67                             122     0.5 6  205 292 
 ZAR  HE ES   2    453 13.97                             122    -0.5 4  205 292 
 ZAR  HZ I         453 22.21        23.3 0.38                           205 292 
 NOR  SZ EP   1    452 52.49                             118    -0.1 6  237 234 
 NOR  SN ES   1    453 20.37                             118    -0.1 6  237 234 
 CHI  HZ EP        452 54.53                             116     0.0 8  250 195 
 CHI  HN ES   1    453 24.15                             116     0.2 6  250 195 
 CHI  HZ I         453 27.49        17.3 0.44                           250 195 
 HEL  HZ EP   1    452 57.00                             114    -0.1 6  274 256 
 HEL  HN ES   1    453 28.67                             114     0.2 6  274 256 
 HEL  HZ I         453 34.35         7.8 0.31                           274 256 
 VIL  SN ES   2    453 34.09                             111    -0.1 4  305 192 
 RREF HN ES   2    453 39.42                             110     0.3 3  324 229 
 RREF HZ I         453 44.95         9.9 0.24                           324 229 
 COD  HZ EP   2    453  4.06                             108    -0.9 3  347 354 
 COD  HE ES   1    453 42.43                             108    -0.1 5  347 354 
 PRA  HZ EP   1    453 10.33                             106    -0.1 4  394 210 
 PRA  HE ES   2    453 51.95                             106    -0.3 3  394 210 
                                                                                
