 2010  8 5 0253 12.2 L   6.806 -73.141137.8  RSN 11 0.5 2.0LRSN                1
 GAP=159        1.07       4.7     9.5  8.1 -0.7959E+01 -0.5339E+01 -0.3352E+01E
 Epicentro: LOS SANTOS - SANTANDER                                             3
 ACTION:UP  10-09-07 10:52 OP:vdl  STATUS:               ID:20100805025312 L   I
 2010-08-05-0251-32S.COL___126                                                 6
 STAT SP IPHASW D HRMM SECON CODA AMPLIT PERI AZIMU VELO SNR AR TRES W  DIS CAZ7
 BTL  SZ EP        253 30.71                             172    -0.110   19 312 
 BTL  SZ ES   1    253 45.11                             172    -0.2 7   19 312 
 BAR2 SZ EP        253 30.57                             170    -0.310   24 191 
 BAR2 SZ ES   2    253 45.29                             170    -0.2 5   24 191 
 BAR2 SZ I         253 47.09        24.2 0.35                            24 191 
 GIR2 SZ EP   2    253 30.66                             166    -0.2 5   31 349 
 BRR  HZ EP        253 32.40                             151    -0.110   71 298 
 BRR  HN ES   1    253 49.15                             151     0.8 7   71 298 
 BRR  HZ I         253 50.35        32.5 0.12                            71 298 
 RUS  HZ EP   1    253 35.18                             142     0.0 7  101 176 
 RUS  HE ES   1    253 53.11                             142    -0.1 7  101 176 
 RUS  HZ I         253 54.83        13.9 0.24                           101 176 
 GUE  SZ EP        253 36.54                             137     0.410  116  12 
 GRA  SZ IP     D  253 37.49                             135     0.810  125  17 
 GRA  SZ I         253 38.77        12.4 0.35                           125  17 
 GRA  SZ ES   2    253 55.24                             135    -0.5 5  125  17 
 OCA  SZ EP   1    253 39.18                             128    -0.7 7  160 353 
 OCA  SZ ES   1    254  0.41                             128    -1.0 7  160 353 
 OCA  SZ I         254  2.69        11.8 0.18                           160 353 
 HEL  HZ EP   2    253 52.67                             113     0.6 4  273 256 
 HEL  HN ES   3    254 22.61                             113    -0.6 2  273 256 
 HEL  HZ I         254 29.45         5.5 0.16                           273 256 
 RREF HZ EP   2    253 58.07                             109     0.0 3  323 229 
 RREF HE ES   3    254 34.00                             109     0.1 2  323 229 
 RREF HZ I         254 42.43         4.4 0.37                           323 229 
 PRA  HZ EP   2    254  5.23                             105    -0.3 3  393 210 
 PRA  HN ES   2    254 46.44                             105    -0.7 3  393 210 
 PRA  HZ I         254 52.52         3.6 0.33                           393 210 
                                                                                
