 2017  1 5 0935  5.2 L   6.779 -73.130142.5  RSN  7 0.4 1.4LRSN                1
 GAP=139        0.95       3.7     4.2  5.9  0.1829E+01  0.6228E+01  0.3753E+01E
 Epicentro: LOS SANTOS - SANTANDER                                             3
 ACTION:UPD 17-05-22 15:55 OP:jn   STATUS:               ID:20170105093505 L   I
 OLDACT:REG 17-01-05 13:09 OP:lv   STATUS:               ID:20170105092743     3
 2017-01-05-0928-00M.COL___368                                                 6
 STAT SP IPHASW D HRMM SECON CODA AMPLIT PERI AZIMU VELO AIN AR TRES W  DIS CAZ7
 BAR2 EZ EP        935 24.37                             171   -0.0710 21.4 196 
 BAR2 EZ ES        935 39.58                             171    0.1710 21.4 196 
 BAR2 EZ I         935 41.01        11.1 0.19            167           21.4 196 
 BRR  HZ EP        935 26.23                             151    0.0410 73.8 300 
 BRR  HE ES        935 43.05                             151    0.5210 73.8 300 
 PAM  EZ EP        935 27.26                             150    0.1010 78.2  37 
 PAM  EN ES        935 43.69                             150   -0.5610 78.2  37 
 RUS  HZ EP        935 28.26                             144   -0.2310 98.1 177 
 RUS  HN ES        935 47.02                             144    0.3910 98.1 177 
 RUS  HZ I         935 48.23         3.0 0.22            143           98.1 177 
 PTB  HZ EP        935 31.90                             131   -0.16 9  149 260 
 PTB  HN ES        935 52.52                             131   -0.45 9  149 260 
 PTB  HZ I         935 57.85         2.0 0.24            129            149 260 
 ZAR  HZ EP        935 38.56                             121    0.83 8  207 293 
 ZAR  HE ES        936  2.68                             121   -0.39 8  207 293 
 ZAR  HZ I         936  8.79         2.1 0.27            121            207 293 
 CHI  HZ EP        935 42.63                             117    0.07 8  247 196 
 CHI  HE ES        936 11.38                             117   -0.29 8  247 196 
 CHI  HZ I         936 17.39         1.2 0.26            117            247 196 
                                                                                
