 2015  6 5 0107 37.1 L   6.810 -73.183140.6  RSN 21 0.5 2.8LRSN                1
 GAP=131        1.02       2.1     3.4  5.1 -0.1192E+01  0.7896E+01  0.2133E+00E
 Epicentro: ZAPATOCA - SANTANDER                                               3
 ACTION:UPD 15-09-10 22:09 OP:cam  STATUS:               ID:20150605010737 L   I
 OLDACT:REG 15-06-05 12:25 OP:ak   STATUS:               ID:20150605005747     3
 2015-06-05-0057-47M.COL___303                                                 6
 STAT SP IPHASW D HRMM SECON CODA AMPLIT PERI AZIMU VELO AIN AR TRES W  DIS CAZ7
 BAR2 EZ IP     D  1 7 56.11                             170   -0.0310 24.1 180 
 BAR2 EZ ES        1 8 10.40                             170   -0.5810 24.1 180 
 BAR2 EZ I         1 8 14.55       158.4 0.26            170           24.1 180 
 BRR  HZ IP     D  1 7 57.98                             153    0.5110 67.0 299 
 BRR  HZ I         1 8 16.50        64.2 0.18            152           67.0 299 
 PAM  SZ IP     C  1 7 58.88                             149   -0.0210 79.2  42 
 PAM  SN ES        1 8 16.18                             149    0.2910 79.2  42 
 PAM  SZ I         1 8 18.53        92.7 0.56            154           79.2  42 
 RUS  HZ EP     D  1 8  0.02                             142   -0.4510  102 174 
 RUS  HN ES        1 8 18.85                             142    0.1610  102 174 
 RUS  HZ I         1 8 21.58        81.4 0.40            145            102 174 
 OCA  HZ EP        1 8  4.60                             129   -0.28 9  159 355 
 OCA  HN ES        1 8 26.42                             129   -0.12 9  159 355 
 OCA  HZ I         1 8 31.80       113.0 0.24            131            159 355 
 SPBC HZ IP     C  1 8  5.01                             128   -0.05 9  161 218 
 SPBC HN ES        1 8 27.49                             128    0.63 9  161 218 
 SPBC HZ I         1 8 29.99       116.1 0.31            130            161 218 
 ZAR  HZ EP        1 8  9.34                             122    0.56 9  200 292 
 ZAR  HE ES        1 8 33.81                             122    0.32 9  200 292 
 ZAR  HZ I         1 8 40.33        54.6 0.16            123            200 292 
 NOR  HZ EP        1 8 11.99                             118   -0.27 8  232 234 
 NOR  HN ES        1 8 39.00                             118   -0.67 8  232 234 
 NOR  HZ I         1 8 43.90        60.9 0.22            119            232 234 
 SML  HZ EP        1 8 12.99                             117   -0.17 8  241 336 
 SML  HE ES        1 8 41.88                             117    0.61 8  241 336 
 SML  HZ I         1 8 47.68        91.2 0.10            119            241 336 
 CHI  HZ EP        1 8 14.37                             116   -0.17 8  249 194 
 CHI  HN ES        1 8 43.46                             116   -0.27 8  249 194 
 CHI  HZ I         1 8 53.26        29.6 0.30            118            249 194 
 HEL  HZ EP   1    1 8 17.70                             114    1.05 6  268 255 
 HEL  HE ES        1 8 47.33                             114   -0.16 8  268 255 
 HEL  HZ I         1 8 55.12        36.7 0.38            115            268 255 
 URE  HZ EP        1 8 16.60                             113   -0.86 7  280 292 
 URE  HN ES        1 8 47.97                             113   -0.95 7  280 292 
 URE  HZ I         1 9  0.16        43.6 0.18            114            280 292 
 GUY2CHZ EP        1 8 20.67                             111    0.49 7  298 234 
 GUY2CHN ES        1 8 54.69                             111    0.92 7  298 234 
 GUY2CHZ I         1 9  4.86        43.1 0.50                           298 234 
 VIL  SZ EP        1 8 20.11                             111   -0.23 7  304 191 
 VIL  SE ES        1 8 54.55                             111    0.50 7  304 191 
 VIL  SZ I         1 9  9.56        42.1 0.34            113            304 191 
 LL2C HZ EP   1    1 8 20.58                             111    0.29 5  305 355 
 LL2C HN ES        1 8 53.84                             111   -0.13 7  305 355 
 LL2C HZ I         1 9  0.55        69.8 0.44            113            305 355 
 PTGC HZ IP   4 D  1 8 19.07                             110   -1.97 0  311 158 
 PTGC HE ES   4    1 8 51.80                             110   -3.50 0  311 158 
 PTGC HZ I         1 8 55.82        25.1 0.22            113            311 158 
 CRECREZ EP   4    1 8 30.12                             110    7.91 0  315 230 
 CRECREN ES   4    1 9  5.35                             110    7.96 0  315 230 
 CBOC HZ EP        1 8 24.07                             109    0.66 7  330 252 
 CBOC HN ES        1 8 59.15                             109   -0.36 7  330 252 
 CBOC HZ I         1 9  5.29        14.3 0.50            111            330 252 
 MON  HZ EP   4    1 8 23.25                             108   -2.21 0  350 309 
 MON  HN ES   4    1 9  1.81                             108   -1.36 0  350 309 
 MON  HZ I    4    1 9  5.85         9.5 0.20            109            350 309 
 PRA  HZ EP        1 8 29.80                             106   -0.54 6  391 209 
 PRA  HN ES        1 9 12.44                             106    0.59 6  391 209 
 PRA  HZ I         1 9 20.59        24.6 0.36            107            391 209 
 ORTC HZ EP        1 8 30.46                             105   -0.22 6  394 216 
 ORTC HN ES        1 9 12.42                             105   -0.05 6  394 216 
 ORTC HZ I         1 9 19.76        19.6 0.50            107            394 216 
 PAL  HZ EP        1 8 31.77                             105    0.01 6  403 239 
 PAL  HN ES        1 9 13.64                             105   -0.74 6  403 239 
 PAL  HZ I         1 9 18.97        12.8 0.24            107            403 239 
 SJC  HZ EP   4    1 8 29.57                             105   -2.56 0  406 327 
 SJC  HN ES   4    1 9  9.59                             105   -5.46 0  406 327 
 SJC  HZ I         1 9 15.06        10.8 0.28            107            406 327 
                                                                                
