 2016  5 5 0256 34.7 L   6.801 -73.138151.8  RSN 19 0.4 2.3LRSN                1
 GAP=137        0.92       2.5     3.3  4.3 -0.1454E+01  0.4318E+01  0.1601E+01E
 Epicentro: LOS SANTOS - SANTANDER                                             3
 ACTION:UPD 16-08-18 17:42 OP:cam  STATUS:               ID:20160505025634 L   I
 OLDACT:REG 16-05-05 12:53 OP:ak   STATUS:               ID:20160505024750     3
 2016-05-05-0247-50M.COL___301                                                 6
 STAT SP IPHASW D HRMM SECON CODA AMPLIT PERI AZIMU VELO AIN AR TRES W  DIS CAZ7
 BAR2 EZ EP        256 55.20                             171    0.1310 23.6 192 
 BAR2 EZ ES        257 10.60                             171   -0.3610 23.6 192 
 BAR2 EZ I         257 12.70        30.0 0.40            168           23.6 192 
 BRR  HZ IP     C  256 57.04                             153    0.4810 71.9 298 
 BRR  HN ES        257 14.49                             153    0.8910 71.9 298 
 BRR  HZ I         257 15.48        25.8 0.15            150           71.9 298 
 PAM  EZ EP        256 57.94                             152    0.4010 76.8  39 
 PAM  EN ES        257 15.28                             152   -0.0610 76.8  39 
 PAM  EZ I         257 17.41        23.1 0.54            156           76.8  39 
 RUS  HZ EP        256 58.92                             145   -0.1410  101 177 
 RUS  HN ES        257 17.92                             145   -0.1410  101 177 
 RUS  HZ I         257 19.36        16.3 0.18            146            101 177 
 PTB  HZ EP        257  1.79                             133   -0.47 9  149 259 
 PTB  HN ES        257 23.37                             133   -0.37 9  149 259 
 PTB  HZ I         257 28.85        33.4 0.40            131            149 259 
 OCA  HZ EP        257  3.12                             131   -0.38 9  160 353 
 OCA  HN ES        257 25.49                             131   -0.47 9  160 353 
 OCA  HZ I         257 31.09        51.0 0.38            132            160 353 
 SPBC HZ EP        257  4.02                             130    0.28 9  164 219 
 SPBC HN ES        257 26.30                             130   -0.08 9  164 219 
 SPBC HZ I         257 30.16        41.1 0.24            130            164 219 
 ZAR  HZ EP        257  7.81                             124    0.17 9  205 292 
 ZAR  HN ES        257 33.80                             124    0.48 9  205 292 
 ZAR  HZ I         257 38.92        22.9 0.24            123            205 292 
 NOR  HZ EP        257 10.49                             120   -0.39 8  235 235 
 NOR  HN ES        257 38.44                             120   -0.65 8  235 235 
 NOR  HZ I         257 43.77        14.0 0.20            119            235 235 
 CHI  HZ EP        257 12.71                             118   -0.08 8  249 195 
 CHI  HN ES        257 42.64                             118    0.16 8  249 195 
 CHI  HZ I         257 50.57         6.7 0.34            119            249 195 
 ROSC BZ EP   2    257 14.04                             118    0.81 4  253 211 
 ROSC BN ES   2    257 43.52                             118    0.26 4  253 211 
 HEL  HZ EP   2    257 15.38                             116    0.04 4  273 256 
 HEL  HN ES        257 46.60                             116   -0.42 8  273 256 
 HEL  HZ I         257 53.46        15.7 0.34            116            273 256 
 URE  HZ EP        257 15.44                             115   -0.73 7  285 292 
 URE  HN ES   4    257 46.57                             115   -1.94 0  285 292 
 URE  HZ I         257 53.36        10.2 0.16            115            285 292 
 CBOC HZ EP        257 22.79                             111    0.81 7  334 252 
 CBOC HN ES        257 58.86                             111    0.01 7  334 252 
 CBOC HZ I         258 15.43         3.5 0.64            111            334 252 
 PRA  HZ EP        257 28.42                             107   -0.09 6  393 210 
 PRA  HN ES        258 10.69                             107    0.23 6  393 210 
 PRA  HZ I         258 14.13         5.5 0.60            108            393 210 
 ORTC HZ EP        257 29.39                             107    0.48 6  396 216 
 ORTC HN ES        258 11.21                             107    0.02 6  396 216 
 ORTC HZ I         258 18.67         7.0 0.80            108            396 216 
 PAL  HZ EP        257 30.54                             107    0.37 6  406 239 
 PAL  HE ES   2    258 14.36                             107    0.93 3  406 239 
 PAL  HZ I         258 19.12         2.7 0.30            107            406 239 
 SJC  HZ EP   2    257 29.37                             107   -1.16 3  410 327 
 SJC  HN ES   4    258 10.77                             107   -3.29 0  410 327 
 SJC  HZ I         258 15.16         4.2 0.52            107            410 327 
 CRJC HZ EP   4    257 35.50                             104   -1.87 0  467   3 
 CRJC HE ES   4    258 22.75                             104   -3.49 0  467   3 
 CRJC HZ I         258 29.45         6.0 0.40            105            467   3 
                                                                                
