 2012  4 5 0237 24.6 L   6.759 -73.161143.5  RSN  6 0.4 1.4LRSN                1
 GAP=136        0.96       6.3     5.7  9.2  0.3130E+01  0.1049E+02 -0.9691E+00E
 Epicentro: LOS SANTOS - SANTANDER                                             3
 ACTION:UPD 12-07-05 11:50 OP:tino STATUS:               ID:20120405023724 L   I
 2012-04-05-0235-59S.COL___204                                                 6
 STAT SP IPHASW D HRMM SECON CODA AMPLIT PERI AZIMU VELO AIN AR TRES W  DIS CAZ7
 BAR2 SZ EP   1    237 44.04                             172     0.1 7   19 187 
 BAR2 SZ ES   1    237 58.52                             172    -0.4 7   19 187 
 BAR2 SZ I         238  0.12         7.7 0.31                            19 187 
 BRR  HZ EP        237 45.83                             152     0.210   72 302 
 BRR  HZ I         237 46.01        13.3 0.17                            72 302 
 BRR  HN ES   1    238  2.73                             152     0.8 7   72 302 
 PAM  SZ EP   1    237 46.95                             149     0.1 7   82  38 
 PAM  SN ES   1    238  3.81                             149    -0.4 7   82  38 
 PAM  SZ I         238  6.15         3.2 0.61                            82  38 
 RUS  HZ EP   1    237 48.14                             145     0.3 7   96 175 
 RUS  HN ES   1    238  5.94                             145     0.0 7   96 175 
 RUS  HZ I         238  8.13         3.4 0.36                            96 175 
 PTB  HZ EP   1    237 50.65                             132    -0.5 7  145 260 
 PTB  HN ES   1    238 11.79                             132    -0.1 7  145 260 
 PTB  HZ I         238 17.00         1.9 0.16                           145 260 
 ZAR  HN ES   1    238 21.78                             122    -0.4 6  204 294 
 ZAR  HZ I         238 27.94         3.4 0.30                           204 294 
                                                                                
