 2011  7 5 0250 16.4 L   6.754 -73.434114.4  RSN  4 0.3 1.2LRSN                1
 GAP=164        0.62       3.8     7.0  6.7  0.2063E+01 -0.1131E+02 -0.2474E+01E
 Epicentro: EL CARMEN DE CHUCURI - SANTANDER                                   3
 ACTION:UPD 12-07-25 13:58 OP:epov STATUS:               ID:20110705025016 L   I
 2011-07-05-0248-52S.COL___140                                                 6
 STAT SP IPHASW D HRMM SECON CODA AMPLIT PERI AZIMU VELO AIN AR TRES W  DIS CAZ7
 BAR2 SZ EP   1    250 32.88                             162    0.33 7 33.1 123 
 BAR2 SZ ES   1    250 45.38                             162    0.21 7 33.1 123 
 BAR2 SZ I         250 47.21         5.5 0.21                          33.1 123 
 BRR  HZ EP   1    250 32.92                             155   -0.01 7 49.6 322 
 BRR  HZ I         250 33.49         4.1 0.11                          49.6 322 
 BRR  HE ES   1    250 45.64                             155   -0.20 7 49.6 322 
 RUS  HZ EP   1    250 37.67                             135    0.28 7  103 158 
 RUS  HZ I         250 38.53         3.0 0.12                           103 158 
 RUS  HN ES   2    250 52.96                             135   -0.82 5  103 158 
 GRA  SZ EP   1    250 40.34                             125   -0.36 7  143  29 
 GRA  SZ ES   1    250 59.74                             125    0.07 7  143  29 
 GRA  SZ I         251  3.73         2.6 0.33                           143  29 
                                                                                
