 2016  5 5 0836 25.0 L   6.797 -73.179143.7  RSN  6 0.3 1.1LRSN                1
 GAP=133        0.85       4.2     3.7  5.9  0.1621E+01  0.5024E+01 -0.4326E+00E
 Epicentro: LOS SANTOS - SANTANDER                                             3
 ACTION:UPD 16-08-18 17:42 OP:cam  STATUS:               ID:20160505083625 L   I
 OLDACT:DUP 16-05-05 19:36 OP:ak   STATUS:               ID:20160505082747d    3
 2016-05-05-0827-46M.COL___294                                                 6
 STAT SP IPHASW D HRMM SECON CODA AMPLIT PERI AZIMU VELO AIN AR TRES W  DIS CAZ7
 BAR2 EZ EP        836 44.17                             171   -0.1610 22.6 181 
 BAR2 EZ ES        836 59.53                             171    0.1010 22.6 181 
 BAR2 EZ I         837  0.08         3.0 0.26            169           22.6 181 
 BRR  HZ IP     D  836 45.78                             153    0.0610 68.2 300 
 BRR  HN ES        837  2.22                             153    0.3110 68.2 300 
 BRR  HZ I         837  3.54         2.7 0.40            151           68.2 300 
 PAM  EZ IP     C  836 46.97                             150   -0.1510 80.0  41 
 PAM  EN ES        837  4.12                             150   -0.2810 80.0  41 
 PAM  EZ I         837  4.58         2.0 0.22            154           80.0  41 
 RUS  HZ EP        836 48.85                             143    0.3410  101 174 
 RUS  HN ES        837  7.04                             143    0.1710  101 174 
 RUS  HZ I         837  8.17         1.8 0.24            144            101 174 
 PTB  HZ EP        836 51.07                             132   -0.36 9  144 259 
 PTB  HN ES        837 11.38                             132   -0.69 9  144 259 
 PTB  HZ I         837 18.77         2.0 0.34            131            144 259 
 ZAR  HZ EP   1    836 57.44                             122    0.50 6  201 293 
 ZAR  HN ES        837 22.31                             122    0.43 9  201 293 
 ZAR  HZ I         837 26.92         1.5 0.24            122            201 293 
                                                                                
