 2010  9 5 0246 18.1 L   6.787 -73.080141.2  RSN 13 0.4 2.6LRSN                1
 GAP=166        0.79       2.9     5.4  5.9 -0.5602E+01  0.5822E+01  0.2177E+01E
 Epicentro: LOS SANTOS - SANTANDER                                             3
 ACTION:UP  11-02-18 11:00 OP:tino STATUS:               ID:20100905024618 L   I
 2010-09-05-0244-45S.COL___120                                                 6
 STAT SP IPHASW D HRMM SECON CODA AMPLIT PERI AZIMU VELO SNR AR TRES W  DIS CAZ7
 BAR2 SZ IP        246 37.29                             170     0.110   24 208 
 BAR2 SZ ES   2    246 51.69                             170    -0.4 5   24 208 
 BAR2 SZ I         246 54.94        98.3 0.28                            24 208 
 BRR  HZ EP   1    246 39.26                             149     0.0 7   78 297 
 BRR  HE ES   1    246 55.89                             149     0.2 7   78 297 
 BRR  HZ I         246 58.93        68.8 0.23                            78 297 
 RUS  HZ EP        246 41.18                             143    -0.110   99 180 
 RUS  HN ES   1    246 59.35                             143     0.0 7   99 180 
 RUS  HZ I         247  0.96        25.7 0.26                            99 180 
 GUE  SZ EP        246 42.42                             138     0.010  117   8 
 GRA  SZ IP        246 43.17                             136     0.310  125  14 
 GRA  SZ ES   1    247  1.78                             136    -0.5 7  125  14 
 GRA  SZ I         247  3.98        26.1 0.56                           125  14 
 OCA  SZ EP   1    246 45.95                             128    -0.4 7  163 351 
 OCA  SZ ES   1    247  8.69                             128     0.4 7  163 351 
 OCA  SZ I         247 11.08        38.7 0.27                           163 351 
 CHI  HZ EP   1    246 55.40                             116    -0.2 6  249 197 
 CHI  HE ES   1    247 25.80                             116     0.9 6  249 197 
 CHI  HZ I         247 30.19        15.9 0.18                           249 197 
 ROSC BZ EP   1    246 57.00                             115     0.7 6  255 213 
 ROSC BN ES   2    247 25.57                             115    -0.5 4  255 213 
 ROSC BZ I         247 34.99        30.5 0.32                           255 213 
 HEL  HZ EP   2    246 59.24                             113     0.4 4  279 256 
 HEL  HN ES   2    247 30.29                             113    -0.3 4  279 256 
 HEL  HZ I         247 35.92        19.3 0.40                           279 256 
 GUY  SZ EP   1    247  2.56                             111     0.4 5  306 236 
 GUY  SN ES   1    247 36.03                             111    -0.4 5  306 236 
 GUY  SZ I         247 44.99        64.7 0.40                           306 236 
 RREF HZ EP   1    247  4.35                             110    -0.3 5  326 230 
 RREF HZ I         247 48.25        18.3 0.04                           326 230 
 DBB  SZ EP   1    247  5.95                             108    -0.3 5  347 274 
 PRA  HZ EP   1    247 10.85                             106    -0.9 4  394 211 
 PRA  HE ES   2    247 53.26                             106    -0.4 3  394 211 
 PRA  HZ I         247 59.48        12.7 0.42                           394 211 
                                                                                
