 2013  4 5 0423 17.1 L   6.750 -73.233148.8  RSN  5 0.3 1.0LRSN                1
 GAP=192        0.63       4.2     5.5  6.3  0.1392E+02 -0.9469E+00 -0.3190E+01E
 Epicentro: VILLANUEVA - SANTANDER                                             3
 ACTION:UPD 13-05-22 14:35 OP:EP   STATUS:               ID:20130405042317 L   I
 2013-04-05-0420-00M.COL___245                                                 6
 STAT SP IPHASW D HRMM SECON CODA AMPLIT PERI AZIMU VELO AIN AR TRES W  DIS CAZ7
 BRR  HZ EP        423 38.59                             155    0.2510 66.0 307 
 BRR  HN ES        423 55.05                             155    0.1710 66.0 307 
 BRR  HZ I         423 57.24         3.6 0.31            155           66.0 307 
 RUS  HZ EP        423 40.99                             146    0.1110 96.2 170 
 RUS  HN ES        423 59.03                             146   -0.3710 96.2 170 
 RUS  HZ I         423 59.78         0.9 0.40            148           96.2 170 
 PTB  HZ EP        423 43.39                             135   -0.03 9  137 260 
 PTB  HN ES   1    424  4.23                             135    0.30 7  137 260 
 PTB  HZ I         424  5.83         1.5 0.30            136            137 260 
 ZAR  HN ES   1    424 13.58                             124   -0.45 6  197 295 
 SML  HE ES   1    424 22.62                             118   -0.26 6  245 338 
                                                                                
