 2013  9 5 0537 31.4 L   6.800 -73.179145.3  RSN  6 0.4 1.5LRSN                1
 GAP=132        0.98       3.7     4.9  7.4 -0.1606E+01  0.4585E+01 -0.5025E+00E
 Epicentro: LOS SANTOS - SANTANDER                                             3
 ACTION:UPD 13-10-22 09:20 OP:ep   STATUS:               ID:20130905053731 L   I
 OLDACT:UP  13-09-05 10:15 OP:cam  STATUS:               ID:20130905052960d    3
 OLDACT:DUP 13-09-05 10:13 OP:cam  STATUS:               ID:20130905052960d    3
 OLDACT:UP  13-09-05 10:13 OP:cam  STATUS:               ID:20130905052959     3
 OLDACT:REG 13-09-05 08:58 OP:cam  STATUS:               ID:20130905052959     3
 2013-09-05-0529-59M.COL___269                                                 6
 STAT SP IPHASW D HRMM SECON CODA AMPLIT PERI AZIMU VELO AIN AR TRES W  DIS CAZ7
 BRR  HZ EP   1    537 53.19                             153    0.90 7 68.0 300 
 BRR  HN ES        538  9.10                             153    0.5010 68.0 300 
 BRR  HZ I         538 13.86         4.4 0.14            153           68.0 300 
 PAM  SZ EP        537 53.79                             150    0.1210 79.8  42 
 PAM  SN ES        538 10.79                             150   -0.2810 79.8  42 
 PAM  SZ I         538 12.92         5.1 0.60            155           79.8  42 
 RUS  HZ EP        537 54.89                             144   -0.2010  101 174 
 RUS  HN ES        538 13.47                             144   -0.1210  101 174 
 RUS  HZ I         538 14.72         3.6 0.22            147            101 174 
 PTB  HZ EP   1    537 57.76                             133   -0.21 7  144 259 
 PTB  HN ES        538 18.01                             133   -0.71 9  144 259 
 PTB  HZ I         538 21.19         4.5 0.24            133            144 259 
 SPBC HZ EP        537 59.89                             129    0.28 9  161 218 
 SPBC HN ES   1    538 22.04                             129    0.40 7  161 218 
 SPBC HZ I         538 29.04         3.8 0.30            131            161 218 
 SML  HZ EP   1    538  7.29                             117   -0.51 6  242 336 
 SML  HN ES        538 36.17                             117   -0.05 8  242 336 
 SML  HZ I         538 39.73         5.4 0.24            120            242 336 
                                                                                
