 2010 10 5 0944 11.5 L   6.781 -73.067149.9  RSN  4 0.2 1.5LRSN                1
 GAP=173        0.51       7.3    11.6  7.6  0.5551E+02 -0.4548E+02 -0.2620E+02E
 Epicentro: LOS SANTOS - SANTANDER                                             3
 ACTION:UP  11-02-18 11:07 OP:tino STATUS:               ID:20101005094411 L   I
 2010-10-05-0940-54S.COL___122                                                 6
 STAT SP IPHASW D HRMM SECON CODA AMPLIT PERI AZIMU VELO SNR AR TRES W  DIS CAZ7
 BAR2 SZ EP   1    944 31.60                             170    -0.1 7   25 212 
 BAR2 SZ I         944 32.02        13.3 0.40                            25 212 
 BAR2 SZ ES   1    944 47.15                             170    -0.2 7   25 212 
 BRR  HZ EP   1    944 33.54                             150    -0.1 7   80 297 
 BRR  HZ I         944 35.01         7.2 0.11                            80 297 
 BRR  HN ES   1    944 50.98                             150     0.1 7   80 297 
 RUS  HZ EP   2    944 35.39                             145    -0.1 5   98 181 
 RUS  HN ES   2    944 54.75                             145     0.5 5   98 181 
 RUS  HZ I         944 56.18         2.7 0.39                            98 181 
 GUE  SZ EP   2    944 36.96                             140     0.3 5  117   8 
                                                                                
