 2011  5 5 0238 32.7 L   6.108 -74.151 32.1  RSN  4 0.6 1.4LRSN                1
 GAP=188        0.92      12.4     4.3 25.8 -0.6023E+01  0.1227E+02  0.1267E+03E
 Epicentro: CIMITARRA - SANTANDER                                              3
 ACTION:UP  11-06-29 08:50 OP:tino STATUS:               ID:20110505023831 L   I
 2011-05-05-0236-07S.COL___133                                                 6
 STAT SP IPHASW D HRMM SECON CODA AMPLIT PERI AZIMU VELO SNR AR TRES W  DIS CAZ7
 RUS  HZ EP   1    238 51.48                              61     0.2 7  121 101 
 RUS  HN ES   2    239  5.50                              61    -0.3 5  121 101 
 RUS  HZ I         239  7.30         5.6 0.40                           121 101 
 HEL  HZ EP   1    238 55.54                              61     0.4 7  153 274 
 HEL  HE ES   2    239 12.34                              61    -0.3 5  153 274 
 HEL  HZ I         239 14.85         3.6 0.29                           153 274 
 GUY  SZ EP   2    238 55.85                              61    -1.4 5  169 235 
 GUY  SN ES   2    239 16.22                              61    -0.2 5  169 235 
 GUY  SZ I         239 19.15        10.9 0.13                           169 235 
 RREF HZ EP   2    239  0.35                              61     0.4 4  188 225 
 RREF HE ES   2    239 21.58                              61     0.5 4  188 225 
 RREF HZ I         239 24.10         3.9 0.41                           188 225 
                                                                                
