 2013  4 5 0525 32.8 L   6.729 -73.196139.8  RSN  5 0.2 1.3LRSN                1
 GAP=177        0.50       3.6     3.9  4.2  0.2677E+01  0.9659E+00 -0.4859E+01E
 Epicentro: VILLANUEVA - SANTANDER                                             3
 ACTION:UPD 13-05-22 14:35 OP:EP   STATUS:               ID:20130405052532 L   I
 2013-04-05-0520-00M.COL___245                                                 6
 STAT SP IPHASW D HRMM SECON CODA AMPLIT PERI AZIMU VELO AIN AR TRES W  DIS CAZ7
 BAR2 SZ EP        525 51.30                             174   -0.2710 15.2 174 
 BAR2 SZ ES        526  6.14                             174   -0.0610 15.2 174 
 BAR2 SZ I         526  7.17         6.9 0.32            168           15.2 174 
 BRR  HZ EP        525 53.33                             152    0.0610 70.7 306 
 BRR  HE ES   1    526  9.27                             152    0.03 7 70.7 306 
 BRR  HZ I         526 18.43         3.4 0.56            140           70.7 306 
 RUS  HZ EP   1    525 55.67                             145    0.23 7 93.4 172 
 RUS  HN ES   1    526 13.28                             145    0.18 7 93.4 172 
 PTB  HZ EP        525 58.37                             132   -0.29 9  141 262 
 PTB  HE ES   1    526 19.06                             132    0.24 7  141 262 
 PTB  HZ I         526 22.60         2.2 0.16            130            141 262 
 OCA  HZ EP        526  1.55                             127    0.20 9  167 355 
 OCA  HZ I         526 19.27         2.7 0.28            118            167 355 
                                                                                
