 2013 10 5 0926 34.3 L   6.077 -73.732112.2  RSN  7 0.4 1.6LRSN                1
 GAP=159        0.93       3.4     5.1  6.2 -0.6435E+01  0.1226E+01 -0.6540E+00E
 Epicentro: BOLIVAR - SANTANDER                                                3
 ACTION:UPD 13-11-25 09:19 OP:ep   STATUS:               ID:20131005092634 L   I
 OLDACT:REG 13-10-05 08:47 OP:nd   STATUS:               ID:20131005091959     3
 2013-10-05-0919-59M.COL___273                                                 6
 STAT SP IPHASW D HRMM SECON CODA AMPLIT PERI AZIMU VELO AIN AR TRES W  DIS CAZ7
 SPBC HZ EP        926 51.73                             150    0.3710 60.2 219 
 SPBC HN ES        927  5.28                             150    0.6310 60.2 219 
 SPBC HZ I         927  9.46         5.1 0.42            151           60.2 219 
 BAR2 SZ EP        926 52.98                             141   -0.2010 83.4  47 
 BAR2 SZ ES        927  7.55                             141   -0.3510 83.4  47 
 BAR2 SZ I         927  9.11        25.7 0.14            145           83.4  47 
 PTB  HZ EP        926 53.55                             137   -0.2610 95.0 303 
 PTB  HN ES        927  8.49                             137   -0.5310 95.0 303 
 PTB  HZ I         927 11.46         3.7 0.10            137           95.0 303 
 BRR  HZ EP        926 55.76                             131    0.3010  114   1 
 BRR  HN ES   2    927 12.33                             131    0.38 5  114   1 
 BRR  HZ I         927 19.93         4.1 0.70            133            114   1 
 ZAR  HZ EP   4    927  4.38                             114    0.01 0  200 322 
 ZAR  HN ES   4    927 27.70                             114   -0.11 0  200 322 
 ZAR  HZ I         927 30.68         3.6 0.12            116            200 322 
 PRA  HZ EP        927 14.90                             106    0.05 7  291 206 
 PRA  HN ES        927 45.95                             106   -0.52 7  291 206 
 PRA  HZ I         927 52.81         2.1 0.36            108            291 206 
 SML  HZ EP        927 16.31                             105    0.02 7  304 353 
 SML  HN ES        927 49.45                             105    0.42 7  304 353 
 SML  HZ I         927 52.31         6.5 0.08            107            304 353 
                                                                                
