 2014  8 5 0925 16.7 L   6.833 -73.165140.9  RSN 18 0.4 2.1LRSN                1
 GAP=132        0.81       2.0     2.9  4.1 -0.1409E+01  0.2845E+01  0.1357E+01E
 Epicentro: LOS SANTOS - SANTANDER                                             3
 ACTION:UPD 14-09-15 21:47 OP:nd   STATUS:               ID:20140805092516 L   I
 OLDACT:REG 14-08-05 13:54 OP:spq  STATUS:               ID:20140805091809     3
 2014-08-05-0918-09M.COL___245                                                 6
 STAT SP IPHASW D HRMM SECON CODA AMPLIT PERI AZIMU VELO AIN AR TRES W  DIS CAZ7
 BAR2 SZ EP        925 35.60                             169   -0.1910 26.7 184 
 BAR2 SZ ES   1    925 50.76                             169    0.06 7 26.7 184 
 BAR2 SZ I         925 52.57        14.2 0.17            167           26.7 184 
 BRR  HZ IP     C  925 37.63                             153    0.5410 67.6 297 
 BRR  HE ES        925 53.44                             153    0.4210 67.6 297 
 BRR  HZ I         925 58.08        24.5 0.10            153           67.6 297 
 PAM  SZ EP        925 38.62                             150    0.3310 76.1  43 
 PAM  SN ES        925 55.34                             150    0.1910 76.1  43 
 PAM  SZ I         925 57.62        31.6 0.52            155           76.1  43 
 RUS  HZ EP        925 39.92                             142   -0.3110  104 175 
 RUS  HN ES   1    925 58.67                             142    0.06 7  104 175 
 RUS  HZ I         926  0.79         6.1 0.44            143            104 175 
 PTB  HZ EP        925 42.68                             131   -0.44 9  146 257 
 PTB  HN ES        926  3.50                             131   -0.25 9  146 257 
 PTB  HZ I         926  8.75        21.4 0.32            132            146 257 
 OCA  HZ EP        925 44.19                             129   -0.05 9  156 354 
 OCA  HN ES        926  5.24                             129   -0.50 9  156 354 
 OCA  HZ I         926 10.36        15.7 0.34            132            156 354 
 SPBC HN ES        926  6.61                             128   -0.39 9  165 218 
 SPBC HZ I         926 10.00        16.8 0.12            128            165 218 
 ZAR  HZ EP        925 48.39                             122   -0.07 9  201 291 
 ZAR  HE ES        926 13.62                             122    0.37 9  201 291 
 NOR  HZ EP        925 52.51                             117    0.34 8  235 233 
 NOR  HE ES        926 19.53                             117   -0.32 8  235 233 
 NOR  HZ I         926 26.32        11.0 0.22            119            235 233 
 SML  HZ EP        925 52.29                             117   -0.28 8  239 335 
 SML  HE ES        926 20.16                             117   -0.41 8  239 335 
 SML  HZ I         926 24.21        21.7 0.09            119            239 335 
 CHI  HZ EP        925 54.55                             116    0.12 8  252 194 
 CHI  HE ES   1    926 23.62                             116   -0.26 6  252 194 
 CHI  HZ I         926 32.06         4.1 0.50            117            252 194 
 ROSC BZ EP   4    925 56.39                             115    1.63 0  255 210 
 ROSC BN ES        926 24.13                             115   -0.33 8  255 210 
 ROSC BZ I         926 34.74         6.4 0.45            117            255 210 
 HEL  HZ EP   1    925 56.50                             114   -0.01 6  271 255 
 HEL  HN ES        926 27.43                             114   -0.15 8  271 255 
 HEL  HZ I         926 32.73         5.8 0.40            115            271 255 
 GUY2CHZ EP        926  0.81                             111    0.71 7  302 234 
 GUY2CHN ES        926 34.60                             111    0.62 7  302 234 
 GUY2CHZ I         926 44.10         6.5 0.38                           302 234 
 RREF HN ES   1    926 38.68                             110    0.09 5  323 229 
 RREF HZ I         926 45.16         3.7 0.60            111            323 229 
 PRA  HZ EP        926 10.23                             106   -0.05 6  394 209 
 PRA  HN ES        926 51.52                             106   -0.57 6  394 209 
 PRA  HZ I         926 59.80         3.8 0.26            107            394 209 
 ORTC HZ EP        926 11.33                             105    0.70 6  397 216 
 ORTC HN ES        926 53.15                             105    0.44 6  397 216 
 ORTC HZ I         926 59.96         2.3 0.22            107            397 216 
 SJC  HZ EP   4    926  9.42                             105   -2.16 0  405 327 
 SJC  HN ES   4    926 50.73                             105   -3.68 0  405 327 
 SJC  HZ I         926 54.88         4.1 0.46            107            405 327 
                                                                                
