 2010  7 5 0159  3.3 L   6.769 -73.094141.6  RSN  7 0.4 1.7LRSN                1
 GAP=165        0.71       4.1     8.1  7.7 -0.7084E+01  0.8411E+01 -0.3622E+01E
 Epicentro: LOS SANTOS - SANTANDER                                             3
 ACTION:UPD 10-12-01 15:15 OP:pat  STATUS:               ID:20100705015903 L   I
 2010-07-05-0156-59S.COL___118                                                 6
 STAT SP IPHASW D HRMM SECON CODA AMPLIT PERI AZIMU VELO AIN AR TRES W  DIS CAZ7
 BAR2 SZ IP     C  159 22.33                             171    -0.110   22 207 
 BAR2 SZ ES   2    159 37.06                             171    -0.3 5   22 207 
 BRR  HZ IP     D  159 24.24                             149    -0.210   78 299 
 BRR  HZ I         159 26.29        18.4 0.11                            78 299 
 BRR  HE ES   2    159 41.12                             149     0.2 5   78 299 
 RUS  HZ EP   1    159 26.33                             144    -0.1 7   97 179 
 RUS  HE ES   2    159 44.58                             144     0.2 5   97 179 
 RUS  HZ I         159 46.24         4.8 0.52                            97 179 
 GUE  SZ EP   1    159 28.40                             138     0.5 7  119   9 
 GUE  SZ ES   2    159 47.73                             138     0.7 5  119   9 
 GRA  SZ EP   1    159 28.33                             136     0.0 7  128  15 
 GRA  SZ ES   2    159 48.07                             136     0.2 5  128  15 
 OCA  SZ EP   1    159 31.25                             128    -0.5 7  164 351 
 OCA  SZ ES   2    159 53.29                             128    -0.6 5  164 351 
 OCA  SZ I         159 59.97         6.0 0.22                           164 351 
 HEL  HZ EP   1    159 44.50                             113     0.6 6  277 257 
                                                                                
