 2015 12 5 0918 23.9 L   6.753 -73.128151.0  RSN  8 0.4 1.6LRSN                1
 GAP=141        1.03       4.2     4.7  6.3  0.2716E+01  0.6728E+01 -0.2187E+01E
 Epicentro: LOS SANTOS - SANTANDER                                             3
 ACTION:UPD 16-02-04 15:02 OP:cam  STATUS:               ID:20151205091823 L   I
 OLDACT:UP  15-12-05 17:14 OP:mh   STATUS:               ID:20151205091749     3
 OLDACT:REG 15-12-05 13:22 OP:mh   STATUS:               ID:20151205091749     3
 2015-12-05-0917-49M.COL___316                                                 6
 STAT SP IPHASW D HRMM SECON CODA AMPLIT PERI AZIMU VELO AIN AR TRES W  DIS CAZ7
 BAR2 EZ EP        918 44.29                             173    0.2310 18.7 199 
 BAR2 EZ ES        918 59.79                             173   -0.0110 18.7 199 
 BAR2 EZ I         919  1.66         6.5 0.22            159           18.7 199 
 BRR  HZ EP        918 46.19                             152    0.3510 75.5 301 
 BRR  HN ES        919  3.73                             152    0.7710 75.5 301 
 BRR  HZ I         920 13.63        10.2 0.30            144           75.5 301 
 PAM  EZ EP        918 47.09                             151    0.2610 80.3  36 
 PAM  EN ES        919  4.45                             151   -0.2810 80.3  36 
 PAM  EZ I         919  6.30         5.4 0.54            155           80.3  36 
 RUS  HZ EP        918 46.92                             147   -0.8610 95.2 177 
 RUS  HN ES        919  6.34                             147   -0.0810 95.2 177 
 RUS  HZ I         919  7.95         2.2 0.28            156           95.2 177 
 PTB  HZ EP   1    918 51.39                             133    0.02 7  149 261 
 PTB  HN ES        919 12.34                             133   -0.46 9  149 261 
 PTB  HZ I         919 19.12         7.7 0.40            133            149 261 
 ZAR  HZ EP        918 57.26                             123    0.20 8  208 293 
 ZAR  HN ES        919 22.85                             123   -0.09 8  208 293 
 ZAR  HZ I         919 27.73         4.3 0.36            126            208 293 
 SML  HZ EP   1    919  1.04                             118   -0.36 6  249 335 
 SML  HN ES        919 30.36                             118   -0.31 8  249 335 
 SML  HZ I         919 31.81         7.5 0.10            124            249 335 
 PRA  HZ EP        919 17.85                             108    0.68 6  388 210 
 PRA  HN ES   4    920  0.58                             108    1.85 0  388 210 
                                                                                
