 2014  3 5 0225 49.9 L   6.768 -73.173138.2  RSN  4 0.4 1.4LRSN                1
 GAP=135        1.00       5.1     4.7 10.0 -0.6272E+00  0.1892E+02 -0.6320E+01E
 Epicentro: LOS SANTOS - SANTANDER                                             3
 ACTION:UPD 14-04-09 23:14 OP:nd   STATUS:               ID:20140305022549 L   I
 OLDACT:REG 14-03-05 08:52 OP:nd   STATUS:               ID:20140305022041     3
 2014-03-05-0220-41M.COL___232                                                 6
 STAT SP IPHASW D HRMM SECON CODA AMPLIT PERI AZIMU VELO AIN AR TRES W  DIS CAZ7
 PAM  SZ EP        226 11.44                             148   -0.1910 82.0  40 
 PAM  SN ES        226 28.49                             148   -0.0810 82.0  40 
 PAM  SZ I         226 30.68         6.5 0.54            151           82.0  40 
 RUS  HZ EP        226 12.82                             143    0.1310 97.3 174 
 RUS  HN ES        226 30.76                             143    0.3110 97.3 174 
 RUS  HZ I         226 32.29         2.3 0.40            148           97.3 174 
 PTB  HZ EP        226 15.83                             131   -0.11 9  144 260 
 PTB  HN ES        226 35.51                             131   -0.73 9  144 260 
 PTB  HZ I         226 38.81         3.5 0.42            133            144 260 
 ZAR  HZ EP        226 21.68                             121   -0.05 9  203 293 
 ZAR  HN ES        226 47.37                             121    0.82 9  203 293 
 ZAR  HZ I         226 52.94         4.2 0.22            123            203 293 
                                                                                
