 2016 11 5 0027 32.1 L   6.663 -73.165147.9  RSN  4 0.1 1.4LRSN                1
 GAP=244        0.45       5.2     3.9  4.4  0.5012E+01  0.7000E+01  0.7023E+00E
 Epicentro: VILLANUEVA - SANTANDER                                             3
 ACTION:UPD 17-10-26 21:04 OP:lp   STATUS:               ID:20161105002732 L   I
 OLDACT:UP  16-11-05 14:40 OP:dani STATUS:               ID:20161105001747d    3
 OLDACT:DUP 16-11-05 14:37 OP:dani STATUS:               ID:20161105001747d    3
 OLDACT:UP  16-11-05 14:37 OP:dani STATUS:               ID:20161105001746d    3
 OLDACT:UP  16-11-05 14:36 OP:dani STATUS:               ID:20161105001746d    3
 OLDACT:DUP 16-11-05 14:32 OP:dani STATUS:               ID:20161105001746d    3
 OLDACT:DUP 16-11-05 14:29 OP:dani STATUS:               ID:20161105001745d    3
 OLDACT:UP  16-11-05 14:27 OP:dani STATUS:               ID:20161105001744     3
 OLDACT:REG 16-11-05 13:09 OP:dani STATUS:               ID:20161105001744     3
 2016-11-05-0018-00M.COL___352                                                 6
 STAT SP IPHASW D HRMM SECON CODA AMPLIT PERI AZIMU VELO AIN AR TRES W  DIS CAZ7
 BAR2 EZ ES        028  6.98                             177   -0.1510 8.03 194 
 BRR  HZ EP        027 53.90                             151    0.0310 77.9 309 
 BRR  HN ES        028 11.04                             151    0.2010 77.9 309 
 BRR  HZ I         028 14.53         6.8 0.24            144           77.9 309 
 PTB  HZ EP        027 58.91                             133    0.05 9  143 265 
 PTB  HE ES        028 19.79                             133    0.06 9  143 265 
 PTB  HZ I         028 22.76         1.4 0.23            131            143 265 
 ZAR  HE ES        028 30.63                             122   -0.25 8  208 296 
 ZAR  HZ I         028 37.75         4.1 0.12            121            208 296 
                                                                                
