 2010 11 5 0638 32.4 L   5.852 -73.854110.1  RSN  4 0.1 1.3LRSN                1
 GAP=167        0.31       3.4     2.7  9.1 -0.3872E+01 -0.5463E+01  0.9786E+01E
 Epicentro: SUCRE - SANTANDER                                                  3
 ACTION:UP  10-12-17 16:50 OP:REBC STATUS:               ID:20101105063832 L   I
 2010-11-05-0635-17S.COL___129                                                 6
 STAT SP IPHASW D HRMM SECON CODA AMPLIT PERI AZIMU VELO SNR AR TRES W  DIS CAZ7
 RUS  HZ EP        638 51.64                             140     0.010   86  87 
 RUS  HZ I         639 11.32         1.0 0.34                            86  87 
 BAR2 SZ ES   2    639  9.74                             132     0.0 5  110  42 
 BAR2 SZ I         639 11.15        10.8 0.31                           110  42 
 NOR  SZ EP   2    638 53.66                             129    -0.1 5  117 254 
 NOR  SN ES   2    639 10.50                             129     0.1 5  117 254 
 BRR  HZ EP   2    638 56.02                             124     0.1 5  140   6 
 BRR  HE ES   2    639 14.19                             124     0.0 5  140   6 
 BRR  HZ I         639 18.18         4.2 0.09                           140   6 
                                                                                
