 2013  8 5 0736 46.9 L   6.199 -73.989 11.7  RSN  7 0.4 1.6LRSN                1
 GAP=178        0.90       4.8     5.1  6.2 -0.1733E+02  0.6812E+01 -0.5173E+01E
 Epicentro: CIMITARRA - SANTANDER                                              3
 ACTION:UPD 14-01-14 08:59 OP:ep   STATUS:               ID:20130805073646 L   I
 OLDACT:DUP 13-08-05 09:55 OP:jn   STATUS:               ID:20130805072960d    3
 OLDACT:REG 13-08-05 08:01 OP:jn   STATUS:               ID:20130805072959     3
 2013-08-05-0729-59M.COL___269                                                 6
 STAT SP IPHASW D HRMM SECON CODA AMPLIT PERI AZIMU VELO AIN AR TRES W  DIS CAZ7
 BRR  HZ EPg       737  3.30                              94   -0.1710  105  17 
 BRR  HZ I         737 22.18         6.6 0.28            108            105  17 
 NOR  HZ EP   4    737  3.15                              94   -2.68 0  120 234 
 NOR  HE ES   1    737 20.33                              94   -0.25 7  120 234 
 HEL  HZ EP   1    737 13.18                              56   -0.10 7  170 270 
 HEL  HN ES   1    737 33.36                              56   -0.48 7  170 270 
 HEL  HZ I         737 35.45        11.9 0.26            102            170 270 
 ZAR  HZ EP   4    737 18.46                              56    5.38 0  172 326 
 ZAR  HN ES   1    737 33.80                              56    0.33 7  172 326 
 ZAR  HZ I         737 38.02         4.9 0.28            101            172 326 
 GUY2CHZ EP        737 16.32                              56    0.87 9  187 235 
 PAM  SN ES   1    737 38.35                              56   -0.16 7  190  48 
 PAM  SZ I         737 41.73        11.1 0.30             99            190  48 
 RREF HN ES   1    737 42.31                              56   -0.46 6  208 226 
                                                                                
