 2013  4 5 0235 37.2 L   6.742 -73.224146.1  RSN  4 0.2 1.1LRSN                1
 GAP=193        0.44       3.1     4.3  5.2  0.6478E+01 -0.2482E+01 -0.2541E+01E
 Epicentro: VILLANUEVA - SANTANDER                                             3
 ACTION:UPD 13-05-22 14:35 OP:EP   STATUS:               ID:20130405023537 L   I
 2013-04-05-0230-00M.COL___245                                                 6
 STAT SP IPHASW D HRMM SECON CODA AMPLIT PERI AZIMU VELO AIN AR TRES W  DIS CAZ7
 BRR  HZ EP        235 58.39                             154    0.1810 67.4 307 
 BRR  HN ES   1    236 14.64                             154    0.07 7 67.4 307 
 BRR  HZ I         236 18.06         5.5 0.32            152           67.4 307 
 RUS  HZ EP        236  0.76                             145    0.1210 95.2 171 
 RUS  HN ES   1    236 18.68                             145   -0.22 7 95.2 171 
 RUS  HZ I         236 22.49         0.9 0.50            146           95.2 171 
 PTB  HZ EP        236  3.16                             134   -0.21 9  138 261 
 PTB  HN ES   1    236 23.83                             134    0.08 7  138 261 
 PTB  HZ I         236 31.70         1.9 0.24            133            138 261 
 SML  HE ES   1    236 42.74                             117   -0.19 6  246 338 
                                                                                
