 2012  9 5 0056 52.1 L   6.765 -73.148148.7  RSN  7 0.3 1.6LRSN                1
 GAP=138        0.66       4.5     4.3  6.2  0.3191E+01  0.8386E+01  0.5144E+01E
 Epicentro: LOS SANTOS - SANTANDER                                             3
 ACTION:UPD 12-10-22 14:17 OP:ep   STATUS:               ID:20120905005652 L   I
 2012-09-05-0050-00M.COL___218                                                 6
 STAT SP IPHASW D HRMM SECON CODA AMPLIT PERI AZIMU VELO AIN AR TRES W  DIS CAZ7
 BAR2 SZ EP   1    057 11.78                             172   -0.19 7 19.5 191 
 BAR2 SZ ES   1    057 26.91                             172   -0.59 7 19.5 191 
 BAR2 SZ I         057 28.68        12.4 0.20                          19.5 191 
 GIR2 SZ EP   1    057 12.27                             166    0.08 7 35.1 352 
 GIR2 SZ ES   1    057 27.82                             166   -0.06 7 35.1 352 
 BRR  HZ EP   1    057 13.72                             152    0.09 7 72.9 301 
 BRR  HZ I         057 14.06        18.3 0.25                          72.9 301 
 BRR  HE ES   1    057 30.76                             152    0.32 7 72.9 301 
 PAM  SN ES   1    057 32.52                             150    0.03 7 80.6  38 
 RUS  HZ EP   1    057 15.93                             145    0.10 7 96.7 176 
 RUS  HN ES   1    057 34.92                             145    0.55 7 96.7 176 
 RUS  HZ I         057 35.75         2.6 0.25                          96.7 176 
 PTB  HZ EP   1    057 18.73                             133   -0.46 7  147 260 
 PTB  HN ES   1    057 40.08                             133   -0.26 7  147 260 
 PTB  HZ I         057 45.83         3.4 0.29                           147 260 
 ZAR  HN ES   1    057 50.81                             123    0.42 6  205 293 
                                                                                
