 2016  8 5 0809 46.8 L   6.789 -73.151145.5  RSN  6 0.2 1.2LRSN                1
 GAP=136        0.66       2.8     3.3  4.5  0.6360E-01  0.4031E+01  0.2537E+00E
 Epicentro: LOS SANTOS - SANTANDER                                             3
 ACTION:UPD 16-10-29 15:32 OP:rebc STATUS:               ID:20160805080946 L   I
 OLDACT:REG 16-08-05 13:19 OP:edw  STATUS:               ID:20160805080734     3
 2016-08-05-0808-00M.COL___338                                                 6
 STAT SP IPHASW D HRMM SECON CODA AMPLIT PERI AZIMU VELO AIN AR TRES W  DIS CAZ7
 BAR2 EZ EP        810  6.24                             171   -0.1610 22.0 189 
 BAR2 EZ ES        810 21.56                             171   -0.1010 22.0 189 
 BAR2 EZ I         810 22.75         5.0 0.20                          22.0 189 
 BRR  HZ EP        810  7.99                             152    0.0410 71.3 300 
 BRR  HN ES        810 24.82                             152    0.4010 71.3 300 
 PAM  EZ EP        810  9.26                             150    0.1710 78.7  39 
 PAM  EE ES        810 26.37                             150   -0.0910 78.7  39 
 PAM  EZ I         810 28.51         2.6 0.28                          78.7  39 
 RUS  HZ EP        810 10.79                             144    0.3310 99.4 176 
 RUS  HN ES        810 28.51                             144   -0.3910 99.4 176 
 RUS  HZ I         810 31.68         1.2 0.32                          99.4 176 
 SPBC HZ EP        810 15.24                             129    0.06 9  162 219 
 SPBC HN ES        810 37.51                             129    0.22 9  162 219 
 SPBC HZ I         810 43.26         3.3 0.26                           162 219 
 ZAR  HZ EP        810 18.86                             122   -0.38 9  204 293 
 ZAR  HN ES        810 44.30                             122   -0.23 9  204 293 
 ZAR  HZ I         810 51.46         2.0 0.28                           204 293 
                                                                                
