 2016  8 5 0837 30.6 L   6.809 -73.124147.5  RSN  6 0.2 1.3LRSN                1
 GAP=139        0.58       2.5     2.9  3.9  0.6305E-01  0.3051E+01  0.2437E+00E
 Epicentro: LOS SANTOS - SANTANDER                                             3
 ACTION:UPD 16-10-29 15:32 OP:rebc STATUS:               ID:20160805083730 L   I
 OLDACT:REG 16-08-05 13:20 OP:edw  STATUS:               ID:20160805082736     3
 2016-08-05-0828-00M.COL___338                                                 6
 STAT SP IPHASW D HRMM SECON CODA AMPLIT PERI AZIMU VELO AIN AR TRES W  DIS CAZ7
 BAR2 EZ EP        837 50.09                             170   -0.4010 24.8 195 
 BAR2 EZ ES        838  5.75                             170   -0.2410 24.8 195 
 BAR2 EZ I         838  6.48         7.2 0.62                          24.8 195 
 BRR  HZ EP        837 52.01                             152   -0.0410 72.8 297 
 BRR  HN ES        838  8.96                             152    0.2010 72.8 297 
 PAM  EZ EP        837 53.06                             152    0.1710 75.1  39 
 PAM  EN ES        838 10.25                             152   -0.0110 75.1  39 
 PAM  EZ I         838 12.26         4.5 0.46                          75.1  39 
 RUS  HZ EP        837 54.59                             144   -0.0210  101 177 
 RUS  HN ES        838 13.67                             144    0.3610  101 177 
 RUS  HZ I         838 14.40         1.1 0.16                           101 177 
 SPBC HZ EP        837 59.35                             129   -0.12 9  165 219 
 SPBC HN ES        838 21.93                             129   -0.04 9  165 219 
 SPBC HZ I         838 24.36         4.0 0.10                           165 219 
 ZAR  HZ EP        838  3.65                             122    0.28 8  206 292 
 ZAR  HN ES        838 28.79                             122   -0.12 8  206 292 
                                                                                
