 2013  2 5 0644 45.4 L   6.777 -73.137147.5  RSN  7 0.4 1.4LRSN                1
 GAP=139        0.92       3.7     5.0  7.0 -0.1654E+01 -0.5665E+00  0.4659E+01E
 Epicentro: LOS SANTOS - SANTANDER                                             3
 ACTION:UPD 13-03-12 09:30 OP:ep   STATUS:               ID:20130205064445 L   I
 2013-02-05-0640-00M.COL___241                                                 6
 STAT SP IPHASW D HRMM SECON CODA AMPLIT PERI AZIMU VELO AIN AR TRES W  DIS CAZ7
 BAR2 SZ EP   2    645  4.76                             171   -0.41 5 21.1 194 
 BAR2 SZ ES   1    645 20.34                             171   -0.27 7 21.1 194 
 BAR2 SZ I         645 21.72         8.1 0.24            171           21.1 194 
 BRR  HZ EP        645  6.79                             152   -0.0310 73.2 300 
 BRR  HN ES        645 24.19                             152    0.6410 73.2 300 
 BRR  HZ I         645 27.75         3.0 0.54            151           73.2 300 
 PAM  SZ IP     C  645  7.82                             151   -0.0310 78.8  38 
 PAM  SZ I         645  7.91         6.2 0.44            153           78.8  38 
 PAM  SN ES        645 25.01                             151   -0.3810 78.8  38 
 RUS  HZ EP        645  8.99                             145   -0.1210 98.0 176 
 RUS  HN ES        645 27.94                             145    0.3110 98.0 176 
 PTB  HN ES        645 33.04                             132   -0.65 9  148 260 
 OCA  HN ES        645 36.68                             130    0.24 9  163 353 
 CHI  HZ EP        645 23.30                             118    0.37 8  246 196 
 CHI  HZ I         645 23.72         0.9 0.54            119            246 196 
                                                                                
