 2010  9 5 0422 46.2 L   6.583 -73.511113.8  RSN 15 0.4 2.6LRSN                1
 GAP= 60        0.79       2.5     4.3  5.6 -0.4282E+01  0.9413E+01  0.2890E+00E
 Epicentro: EL CARMEN DE CHUCURI - SANTANDER                                   3
 ACTION:UP  11-02-18 11:00 OP:tino STATUS:               ID:20100905042246 L   I
 2010-09-05-0419-30S.COL___120                                                 6
 STAT SP IPHASW D HRMM SECON CODA AMPLIT PERI AZIMU VELO SNR AR TRES W  DIS CAZ7
 BAR2 SZ IP        423  2.62                             161     0.210   36  88 
 BAR2 SZ ES   1    423 14.85                             161    -0.2 7   36  88 
 BRR  HZ EP        423  3.33                             149    -0.110   62 339 
 BRR  HN ES   1    423 16.99                             149     0.2 7   62 339 
 BRR  HZ I         423 26.52       109.8 0.04                            62 339 
 RUS  HZ EP        423  5.65                             139    -0.410   90 148 
 RUS  HE ES   2    423 21.34                             139    -0.2 5   90 148 
 RUS  HZ I         423 22.82        44.6 0.21                            90 148 
 GUE  SZ EP        423 11.54                             123    -0.1 9  152  25 
 GUE  SZ I         423 33.41        29.9 0.18                           152  25 
 GRA  SZ EP        423 12.83                             120     0.2 9  164  28 
 GRA  SZ ES   1    423 33.57                             120     0.4 7  164  28 
 GRA  SZ I         423 36.11        48.8 0.28                           164  28 
 OCA  SZ EP   1    423 14.86                             117     0.0 7  184   7 
 OCA  SZ ES   2    423 37.14                             117     0.0 4  184   7 
 OCA  SZ I         423 46.41        73.6 0.18                           184   7 
 ROSC BZ EP   1    423 19.20                             113     1.0 6  213 205 
 ROSC BN ES   1    423 43.36                             113     0.2 6  213 205 
 ROSC BZ I         423 49.26        27.5 0.54                           213 205 
 CHI  HZ EP   1    423 18.64                             113    -0.2 6  217 186 
 CHI  HE ES   1    423 44.17                             113     0.0 6  217 186 
 CHI  HZ I         423 53.91        12.9 0.30                           217 186 
 HEL  HZ EP   2    423 19.92                             112     0.0 4  227 259 
 HEL  HN ES   2    423 46.07                             112    -0.1 4  227 259 
 HEL  HZ I         423 52.36        23.0 0.37                           227 259 
 GUY  SZ EP   1    423 23.61                             109     0.5 6  255 234 
 GUY  SZ I         423 56.83        85.8 0.54                           255 234 
 RREF HZ EP   1    423 25.96                             107     0.2 6  276 228 
 RREF HN ES   1    423 56.58                             107     0.0 6  276 228 
 RREF HZ I         424  1.89        26.6 0.15                           276 228 
 TOL  SZ EP   2    423 28.77                             105     0.7 4  298 222 
 DBB  SZ EP   1    423 27.61                             105    -0.6 5  302 279 
 MON  HZ EP   1    423 31.36                             103    -1.1 5  339 316 
 PRA  HZ EP   1    423 33.61                             102    -0.4 5  352 206 
 PRA  HN ES   1    424 11.16                             102    -0.2 5  352 206 
 PRA  HZ I         424 16.12        27.4 0.07                           352 206 
                                                                                
