 2016 12 5 0812 24.7 L   6.783 -73.150148.5  RSN  9 0.5 1.7LRSN                1
 GAP=119        1.23       4.9     4.5  7.6  0.1432E+01  0.5643E+01  0.1622E+02E
 Epicentro: LOS SANTOS - SANTANDER                                             3
 ACTION:UPD 17-01-11 20:12 OP:rebc STATUS:               ID:20161205081224 L   I
 OLDACT:UP  16-12-05 18:44 OP:ar   STATUS:               ID:20161205080745     3
 OLDACT:UP  16-12-05 18:43 OP:ar   STATUS:               ID:20161205080745     3
 OLDACT:REG 16-12-05 15:31 OP:ar   STATUS:               ID:20161205080745     3
 2016-12-05-0808-00M.COL___339                                                 6
 STAT SP IPHASW D HRMM SECON CODA AMPLIT PERI AZIMU VELO AIN AR TRES W  DIS CAZ7
 BAR2 EZ EP        812 44.66                             171    0.0610 21.4 190 
 BAR2 EZ ES        812 59.70                             171   -0.4310 21.4 190 
 BAR2 EZ I         813  1.65        13.2 0.30            171           21.4 190 
 BRR  HZ EP        812 46.27                             153    0.1210 71.7 300 
 BRR  HZ I         813  1.13        11.3 0.60            150           71.7 300 
 BRR  HE ES        813  3.47                             153    0.5810 71.7 300 
 PAM  EZ EP        812 47.79                             151    0.5010 79.2  39 
 PAM  EE ES        813  4.99                             151    0.0710 79.2  39 
 PAM  EZ I         813  6.89        10.0 0.44            151           79.2  39 
 PTB  HZ EP        812 51.22                             133   -0.57 9  147 260 
 PTB  HN ES        813 12.47                             133   -0.47 9  147 260 
 PTB  HZ I         813 19.44         5.6 0.66            130            147 260 
 ZAR  HZ EP        812 56.89                             123   -0.43 9  204 293 
 ZAR  HN ES        813 22.21                             123   -0.58 9  204 293 
 ZAR  HZ I         813 28.24         3.9 0.40            121            204 293 
 NOR  HZ EP        813  1.11                             119    0.71 8  233 235 
 NOR  HN ES        813 28.59                             119    0.32 8  233 235 
 NOR  HZ I         813 36.60         3.2 0.16            118            233 235 
 CHI  HZ EP        813  3.00                             118    0.69 8  247 195 
 CHI  HN ES        813 32.45                             118    0.78 8  247 195 
 CHI  HZ I         813 35.44         3.1 0.40            117            247 195 
 PTGC HZ EP        813  7.93                             112   -0.54 7  307 158 
 PTGC HE ES        813 41.55                             112   -1.09 7  307 158 
 PTGC HZ I         813 46.12         3.8 0.28            112            307 158 
 CBOC HZ EP   4    813 13.31                             110    1.73 0  333 252 
 CBOC HE ES        813 48.07                             110   -0.10 7  333 252 
 CBOC HZ I         813 53.06         0.8 0.36            109            333 252 
                                                                                
