 2017  1 5 0515 57.9 L   6.786 -73.131147.1  RSN 19 0.3 2.3LRSN                1
 GAP= 99        0.84       2.8     2.4  4.5 -0.8530E-01  0.2563E+01  0.2010E+01E
 Epicentro: LOS SANTOS - SANTANDER                                             3
 ACTION:UPD 17-05-22 15:55 OP:jn   STATUS:               ID:20170105051557 L   I
 OLDACT:DUP 17-01-05 15:07 OP:lv   STATUS:               ID:20170105050744d    3
 2017-01-05-0508-00M.COL___374                                                 6
 STAT SP IPHASW D HRMM SECON CODA AMPLIT PERI AZIMU VELO AIN AR TRES W  DIS CAZ7
 BAR2 EZ IP     C  516 17.65                             171   -0.0310 22.2 195 
 BAR2 EZ ES        516 32.83                             171   -0.2710 22.2 195 
 BAR2 EZ I         516 34.47        91.2 0.24            168           22.2 195 
 BRR  HZ IP     C  516 19.49                             152    0.1710 73.4 299 
 BRR  HE ES        516 36.98                             152    0.9510 73.4 299 
 BRR  HZ I         516 41.66        47.0 0.13            151           73.4 299 
 PAM  EZ IP     C  516 20.26                             151   -0.0110 77.5  38 
 PAM  EN ES        516 37.38                             151   -0.3410 77.5  38 
 PAM  EZ I         516 39.31        28.0 0.24            155           77.5  38 
 RUS  HZ EP        516 21.68                             145    0.0110 99.0 177 
 RUS  HN ES        516 40.08                             145   -0.1310 99.0 177 
 RUS  HZ I         516 41.50        30.4 0.21            144           99.0 177 
 PTB  HZ EP        516 24.37                             132   -0.73 9  149 260 
 PTB  HN ES        516 45.82                             132   -0.50 9  149 260 
 PTB  HZ I         516 50.83        25.6 0.16            131            149 260 
 TAM  HZ IP     D  516 25.69                             131    0.18 9  153 105 
 TAM  HN ES        516 47.11                             131    0.07 9  153 105 
 TAM  HZ I         516 48.12        14.2 0.48            134            153 105 
 ZAR  HZ EP        516 30.86                             122    0.21 8  206 292 
 ZAR  HN ES        516 56.20                             122    0.00 8  206 292 
 ZAR  HZ I         517  1.75        53.8 0.34            122            206 292 
 NOR  HZ EP        516 33.55                             119   -0.21 8  235 235 
 NOR  HN ES        517  1.83                             119    0.10 8  235 235 
 NOR  HZ I         517  5.52        13.3 0.43            118            235 235 
 CHI  HZ EP        516 35.86                             117    0.29 8  248 196 
 CHI  HN ES        517  5.23                             117    0.29 8  248 196 
 CHI  HZ I         517  7.57         6.1 0.32            118            248 196 
 ROSC BZ EP   4    516 37.63                             117    1.58 0  252 212 
 ROSC BE ES        517  5.91                             117    0.11 8  252 212 
 ROSC BZ I         517 13.24        17.2 0.35            117            252 212 
 URE  HZ EP   4    516 37.82                             114   -1.45 0  286 292 
 URE  HN ES   4    517  8.74                             114   -2.80 0  286 292 
 URE  HZ I         517 12.64        27.2 0.18            114            286 292 
 GUY2CHZ EP   4    516 43.14                             112    1.51 0  302 235 
 GUY2CHE ES   4    517 16.94                             112    1.21 0  302 235 
 GUY2CHZ I         517 24.63        13.1 0.12                           302 235 
 PTGC HZ EP   4    516 40.58                             112   -1.01 0  307 159 
 PTGC HN ES   4    517 14.20                             112   -1.47 0  307 159 
 PTGC HZ I         517 17.87         9.5 0.37            113            307 159 
 ELA  HN ES   4    517 26.02                             110    4.57 0  329 230 
 CBOC HZ EP   4    516 46.49                             110    1.49 0  335 252 
 CBOC HN ES        517 21.71                             110   -0.03 7  335 252 
 CBOC HZ I         517 32.90         5.6 0.47            110            335 252 
 DBB  EZ EP   4    516 46.78                             110    1.14 0  341 274 
 DBB  HN ES   4    517 21.49                             110   -1.38 0  341 274 
 DBB  EZ I         517 25.84         7.9 0.18            110            341 274 
 ORTC HZ EP   9    516 54.26                             107    2.42 0  395 216 
 ORTC HE ES        517 35.90                                   -0.43 6  395 216 
 ORTC HZ I         517 42.81         4.5 0.55            107            395 216 
 APAC HZ EP   4    516 51.42                             106   -0.96 0  400 288 
 APAC HE ES        517 34.86                             106   -0.01 6  400 288 
 APAC HZ I         517 38.64         8.2 0.36            107            400 288 
 PAL  HZ EP   9    516 54.48                             106    1.30 0  406 239 
 PAL  HN ES        517 37.74                                    0.14 6  406 239 
 PAL  HZ I         517 42.39         3.9 0.34            106            406 239 
 SJC  HZ EP   4    516 51.29                             106   -2.48 0  411 327 
 SJC  HE ES   4    517 32.95                             106   -4.39 0  411 327 
 SJC  HZ I         517 37.20         7.9 0.60            106            411 327 
                                                                                
