 2016  8 5 0117 15.4 L   6.782 -73.108150.6  RSN 11 0.3 1.7LRSN                1
 GAP=123        0.77       2.4     3.1  4.0  0.6330E+00  0.2923E+01  0.1640E+01E
 Epicentro: LOS SANTOS - SANTANDER                                             3
 ACTION:UPD 16-10-29 15:32 OP:rebc STATUS:               ID:20160805011715 L   I
 OLDACT:REG 16-08-05 12:44 OP:edw  STATUS:               ID:20160805010728     3
 2016-08-05-0108-00M.COL___353                                                 6
 STAT SP IPHASW D HRMM SECON CODA AMPLIT PERI AZIMU VELO AIN AR TRES W  DIS CAZ7
 BAR2 EZ EP        117 35.43                             171   -0.1510 22.6 201 
 BAR2 EZ ES        117 51.17                             171   -0.1710 22.6 201 
 BRR  HZ EP        117 37.35                             152    0.0310 75.8 298 
 BRR  HN ES        117 54.45                             152    0.0210 75.8 298 
 PAM  EZ EP        117 38.37                             152    0.3110 76.3  36 
 PAM  EN ES        117 55.64                             152   -0.1010 76.3  36 
 PAM  EZ I         117 58.38         5.0 0.52                          76.3  36 
 RUS  HZ EP        117 39.45                             145   -0.0110 98.4 178 
 RUS  HN ES        117 58.67                             145    0.4210 98.4 178 
 RUS  HZ I         117 59.31         3.4 0.28                          98.4 178 
 SPBC HZ EP        117 44.63                             130    0.26 9  164 221 
 SPBC HN ES        118  6.83                             130   -0.15 9  164 221 
 SPBC HZ I         118 14.31         6.4 0.20                           164 221 
 ZAR  HZ EP        117 49.53                             123    0.91 8  209 292 
 ZAR  HN ES        118 13.90                             123   -0.65 8  209 292 
 NOR  HZ EP        117 51.59                             119   -0.05 8  237 235 
 NOR  HN ES        118 20.00                             119    0.07 8  237 235 
 GUY2CHZ EP   2    117 59.56                             113    0.08 4  304 236 
 GUY2CHN ES   2    118 33.69                             113   -0.19 4  304 236 
 GUY2CHZ I         118 41.62         2.9 0.38                           304 236 
 PTGC HZ EP        117 58.47                             113   -0.61 7  305 159 
 PTGC HN ES        118 32.68                             113   -0.49 7  305 159 
 PRA  HZ EP        118  9.21                             107    0.09 6  392 210 
 PRA  HN ES        118 51.16                             107    0.12 6  392 210 
 PRA  HZ I         118 57.34         2.3 0.30                           392 210 
 SJC  HZ EP        118 11.33                             106   -0.24 6  413 327 
 SJC  HN ES        118 55.08                             106   -0.31 6  413 327 
                                                                                
