 2017  2 5 0130 42.1 L   6.744 -73.199142.0  RSN  4 0.3 1.1LRSN                1
 GAP=227        0.68       5.6     6.1  8.2  0.1688E+02  0.3788E+01 -0.2712E+01E
 Epicentro: VILLANUEVA - SANTANDER                                             3
 ACTION:UPD 17-05-24 15:32 OP:jn   STATUS:               ID:20170205013042 L   I
 OLDACT:UP  17-02-05 14:04 OP:dnl  STATUS:               ID:20170205012744     3
 OLDACT:REG 17-02-05 13:14 OP:dnl  STATUS:               ID:20170205012744     3
 2017-02-05-0128-00M.COL___328                                                 6
 STAT SP IPHASW D HRMM SECON CODA AMPLIT PERI AZIMU VELO AIN AR TRES W  DIS CAZ7
 BAR2 EZ ES   2    131 15.20                             173   -0.83 5 16.9 174 
 BAR2 EZ I         131 24.32         2.4 0.46            175           16.9 174 
 BRR  HZ EP        131  2.49                             153   -0.2610 69.5 305 
 BRR  HN ES        131 19.22                             153    0.3710 69.5 305 
 BRR  HZ I         131 25.28         6.4 0.44            158           69.5 305 
 RUS  HZ EP   2    131  5.25                             145    0.16 5 95.0 172 
 RUS  HN ES        131 23.16                             145    0.1510 95.0 172 
 RUS  HZ I         131 25.28         1.2 0.30            156           95.0 172 
 PTB  HZ EP   2    131  8.20                             133    0.06 5  141 261 
 PTB  HN ES        131 28.32                             133   -0.13 9  141 261 
 PTB  HZ I         131 29.23         1.2 0.52            145            141 261 
                                                                                
