 2012 10 5 0435 47.5 L   6.828 -73.070156.0  RSN  5 0.3 1.2LRSN                1
 GAP=207        0.55       7.6    10.2  8.9  0.5486E+02 -0.2924E+02 -0.2902E+02E
 Epicentro: LOS SANTOS - SANTANDER                                             3
 ACTION:UPD 12-11-22 17:02 OP:ep   STATUS:               ID:20121005043547 L   I
 2012-10-05-0430-00M.COL___222                                                 6
 STAT SP IPHASW D HRMM SECON CODA AMPLIT PERI AZIMU VELO AIN AR TRES W  DIS CAZ7
 BAR2 SZ EP   1    436  8.35                             169   -0.17 7 28.8 206 
 BAR2 SZ ES   2    436 24.33                             169   -0.55 5 28.8 206 
 GIR2 SZ EP   1    436  8.79                             168    0.37 7 31.0 334 
 BRR  HZ EP   1    436 10.05                             153   -0.10 7 77.4 294 
 BRR  HZ I         436 10.55         5.8 0.22                          77.4 294 
 BRR  HN ES   2    436 28.02                             153    0.24 5 77.4 294 
 RUS  HZ EP   1    436 12.23                             145   -0.28 7  103 181 
 RUS  HZ I         436 12.43         0.9 0.38                           103 181 
 RUS  HE ES   1    436 32.31                             145    0.33 7  103 181 
 ZAR  HN ES   2    436 47.66                             124   -0.06 4  211 291 
                                                                                
