 2011  6 5 0650  3.0 L   6.768 -73.098149.3  RSN  5 0.3 1.4LRSN                1
 GAP=164        0.64       3.3     8.3  7.3  0.1190E+01 -0.1563E+02 -0.3657E+01E
 Epicentro: LOS SANTOS - SANTANDER                                             3
 ACTION:UP  11-07-14 19:03 OP:ep   STATUS:               ID:20110605065003 L   I
 2011-06-05-0648-54S.COL___132                                                 6
 STAT SP IPHASW D HRMM SECON CODA AMPLIT PERI AZIMU VELO SNR AR TRES W  DIS CAZ7
 BAR2 SZ EP   1    650 22.77                             171    -0.2 7   22 206 
 BAR2 SZ ES   1    650 38.23                             171    -0.4 7   22 206 
 BAR2 SZ I         650 39.44         6.0 0.33                            22 206 
 BRR  HZ EP   1    650 24.59                             151    -0.3 7   78 299 
 BRR  HZ I         650 24.88         6.5 0.15                            78 299 
 BRR  HE ES   1    650 42.16                             151     0.2 7   78 299 
 RUS  HZ EP   1    650 27.18                             146     0.4 7   97 179 
 RUS  HN ES   1    650 45.60                             146     0.2 7   97 179 
 GRA  SZ EP   1    650 28.48                             137    -0.2 7  128  15 
 GRA  SZ ES   1    650 48.90                             137     0.2 7  128  15 
 GRA  SZ I         650 56.98         1.9 0.29                           128  15 
 OCA  SZ ES   1    650 54.74                             130     0.2 7  164 351 
 OCA  SZ I         650 59.40         4.5 0.35                           164 351 
                                                                                
