 2016  7 5 0116 52.4 L   6.796 -73.131148.9  RSN 16 0.5 2.1LRSN                1
 GAP=120        1.14       4.3     4.2  6.3 -0.5819E+01  0.4889E+01 -0.7361E+00E
 Epicentro: LOS SANTOS - SANTANDER                                             3
 ACTION:UPD 17-03-29 16:47 OP:lp   STATUS:               ID:20160705011652 L   I
 OLDACT:UP  16-07-05 13:46 OP:dani STATUS:               ID:20160705010746d    3
 OLDACT:UP  16-07-05 13:46 OP:dani STATUS:               ID:20160705010746d    3
 OLDACT:UP  16-07-05 13:40 OP:dani STATUS:               ID:20160705010746d    3
 OLDACT:UP  16-07-05 13:39 OP:dani STATUS:               ID:20160705010746d    3
 OLDACT:UP  16-07-05 13:39 OP:dani STATUS:               ID:20160705010746d    3
 OLDACT:UP  16-07-05 13:37 OP:dani STATUS:               ID:20160705010746d    3
 OLDACT:DUP 16-07-05 13:34 OP:dani STATUS:               ID:20160705010746d    3
 OLDACT:UP  16-07-05 13:33 OP:dani STATUS:               ID:20160705010745     3
 OLDACT:REG 16-07-05 12:27 OP:dani STATUS:               ID:20160705010745     3
 2016-07-05-0107-45M.COL___322                                                 6
 STAT SP IPHASW D HRMM SECON CODA AMPLIT PERI AZIMU VELO AIN AR TRES W  DIS CAZ7
 BAR2 EZ EP        117 12.32                             171   -0.0610 23.2 194 
 BAR2 EZ ES        117 27.27                             171   -0.7110 23.2 194 
 BAR2 EZ I         117 28.53        29.7 0.20            168           23.2 194 
 BRR  HZ EP        117 14.41                             153    0.4510 72.8 298 
 BRR  HN ES        117 31.54                             153    0.7610 72.8 298 
 BRR  HZ I         117 35.98        29.8 0.12            151           72.8 298 
 PAM  EZ EP        117 15.28                             151    0.3910 76.8  38 
 PAM  EE ES        117 32.46                             151    0.0110 76.8  38 
 PAM  EZ I         117 35.34        19.9 0.45            155           76.8  38 
 RUS  HZ EP        117 17.00                             145    0.6010  100 177 
 RUS  HE ES        117 35.11                             145   -0.0210  100 177 
 RUS  HZ I         117 37.74         6.7 0.32            144            100 177 
 PTB  HZ EP        117 19.00                             132   -0.73 9  149 259 
 PTB  HN ES        117 40.46                             132   -0.61 9  149 259 
 PTB  HZ I         117 44.30        16.6 0.48            131            149 259 
 SPBC HE ES        117 43.45                             130   -0.19 9  164 220 
 SPBC HZ I         117 50.53        22.5 0.20            129            164 220 
 ZAR  HE ES        117 51.06                             123    0.27 8  206 292 
 NOR  HN ES        117 56.15                             119   -0.34 8  236 235 
 NOR  HZ I         118  1.32        10.8 0.18            119            236 235 
 CHI  HZ EP   4    117 25.62                             118   -4.63 0  249 196 
 CHI  HN ES   2    118  0.28                             118    0.50 4  249 196 
 CHI  HZ I         118  6.33         4.5 0.20            118            249 196 
 ROSC BZ EP   4    117 25.90                             117   -4.81 0  253 211 
 HEL  HZ EP   4    117 29.80                             115   -3.11 0  273 256 
 HEL  HE ES   4    117 58.85                             115   -5.67 0  273 256 
 HEL  HZ I         118 10.99         8.1 0.44            115            273 256 
 SOCV BZ EP        117 35.18                             113   -0.27 7  300  57 
 SOCV BN ES   4    118  7.73                             113   -1.32 0  300  57 
 GUY2CHZ EP        117 36.16                             113   -0.09 7  302 235 
 GUY2CHE ES        118 10.71                             113    0.25 7  302 235 
 GUY2CHZ I         118 19.15         7.0 0.34                           302 235 
 PTGC HZ EP   4    117 31.25                             112   -5.01 0  308 159 
 PTGC HN ES   4    118  8.50                             112   -1.99 0  308 159 
 PTGC HZ I         118 10.28        10.9 0.40            113            308 159 
 PRA  HZ EP   9    117 47.03                             107    0.98 0  392 210 
 PRA  HE ES        118 29.50                             107    0.61 6  392 210 
 PRA  HZ I         118 33.49         4.1 0.30            107            392 210 
 PAL  HZ EP   4    117 45.72                             106   -2.05 0  407 239 
 PAL  HE ES        118 31.73                             106    0.75 6  407 239 
 PAL  HZ I         118 40.85         3.0 0.20            106            407 239 
 SJC  HZ EP        117 47.14                             106   -1.05 6  410 327 
 SJC  HE ES   4    118 28.82                             106   -2.91 0  410 327 
 SJC  HZ I         118 34.99         1.3 0.26            107            410 327 
                                                                                
