 2017  4 5 0431 38.2 L   6.815 -73.134137.8  RSN 16 0.4 2.0LRSN                1
 GAP=112        0.83       2.5     2.7  4.3  0.4278E-01  0.3860E+01  0.1858E+01E
 Epicentro: LOS SANTOS - SANTANDER                                             3
 ACTION:UPD 17-05-30 21:08 OP:jn   STATUS:               ID:20170405043138 L   I
 OLDACT:UP  17-04-05 15:12 OP:and  STATUS:               ID:20170405042743     3
 OLDACT:UP  17-04-05 15:11 OP:and  STATUS:               ID:20170405042743     3
 OLDACT:UP  17-04-05 15:10 OP:and  STATUS:               ID:20170405042743     3
 OLDACT:UP  17-04-05 15:09 OP:and  STATUS:               ID:20170405042743     3
 OLDACT:UP  17-04-05 15:02 OP:and  STATUS:               ID:20170405042743     3
 OLDACT:UP  17-04-05 15:01 OP:and  STATUS:               ID:20170405042743     3
 OLDACT:UP  17-04-05 15:01 OP:and  STATUS:               ID:20170405042743     3
 OLDACT:UP  17-04-05 15:00 OP:and  STATUS:               ID:20170405042743     3
 OLDACT:UP  17-04-05 15:00 OP:and  STATUS:               ID:20170405042743     3
 OLDACT:REG 17-04-05 12:43 OP:and  STATUS:               ID:20170405042743     3
 2017-04-05-0428-00M.COL___365                                                 6
 STAT SP IPHASW D HRMM SECON CODA AMPLIT PERI AZIMU VELO AIN AR TRES W  DIS CAZ7
 BAR2 EZ IP     C  431 56.88                             169   -0.0810 25.2 192 
 BAR2 EZ ES        432 11.15                             169   -0.4110 25.2 192 
 BAR2 EZ I         432 12.83        55.1 0.30            168           25.2 192 
 BRR  HZ IP     C  431 58.66                             151    0.1010 71.6 297 
 BRR  HN ES   3    432 15.65                             151    1.24 2 71.6 297 
 BRR  HZ I         432 19.52        22.4 0.14            150           71.6 297 
 PAM  EZ EP        431 59.81                             150    0.3210 75.2  40 
 PAM  EN ES        432 16.44                             150    0.3810 75.2  40 
 PAM  EZ I         432 18.84        20.9 0.58            154           75.2  40 
 RUS  HZ EP        432  1.01                             142   -0.3310  102 177 
 RUS  HN ES        432 19.23                             142   -0.1310  102 177 
 RUS  HZ I         432 21.45        13.6 0.20            143            102 177 
 PTB  HZ EP   9    432  3.41                             130   -1.32 0  149 258 
 PTB  HN ES        432 24.45                             130    0.39 9  149 258 
 PTB  HZ I         432 25.85        13.1 0.12            130            149 258 
 SPBC HZ EP   2    432  6.20                             127   -0.15 5  165 219 
 SPBC HN ES        432 28.46                             127    0.18 9  165 219 
 SPBC HZ I         432 29.80        17.4 0.14            128            165 219 
 YPLC HZ IP     D  432  7.51                             124   -0.05 9  178 152 
 YPLC HN ES        432 30.47                             124    0.04 9  178 152 
 YPLC HZ I         432 33.53         8.7 0.32            127            178 152 
 ZAR  HZ EP        432  9.90                             120   -0.34 9  205 292 
 ZAR  HE ES        432 34.65                             120   -0.55 9  205 292 
 ZAR  HZ I         432 42.11        14.8 0.18            122            205 292 
 NOR  HZ EP        432 13.31                             116   -0.44 8  237 234 
 NOR  HN ES        432 40.91                             116   -0.53 8  237 234 
 NOR  HZ I         432 47.62         6.2 0.42            118            237 234 
 CHI  HZ EP        432 15.57                             115   -0.16 8  251 195 
 CHI  HN ES        432 44.77                             115   -0.20 8  251 195 
 CHI  HZ I         432 49.30         5.3 0.39            117            251 195 
 ROSC BZ EP        432 16.66                             115    0.48 8  255 211 
 ROSC BN ES        432 46.49                             115    0.72 8  255 211 
 ROSC BZ I         432 51.81        10.6 0.40            116            255 211 
 HEL  HZ EP        432 18.85                             113    0.60 8  274 256 
 HEL  HE ES        432 50.04                             113    0.58 8  274 256 
 HEL  HZ I         432 55.17         6.8 0.32            114            274 256 
 URE  HZ EP   4    432 21.24                             112    2.24 0  284 291 
 PTGC HZ EP   3    432 20.18                             110   -1.70 2  310 159 
 PTGC HN ES   4    432 52.81                             110   -3.11 0  310 159 
 CBOC HZ EP        432 25.47                             108    0.42 7  335 252 
 CBOC HN ES        433  1.39                             108   -0.16 7  335 252 
 CBOC HZ I         433  4.84         1.6 0.19            110            335 252 
 ANIL HN ES   4    433  8.86                             107    2.05 0  359 224 
 PRA  HZ EP        432 31.68                             105   -0.07 6  394 210 
 PRA  HN ES        433 13.58                             105    0.10 6  394 210 
 PRA  HZ I         433 17.74         5.2 0.37            106            394 210 
 SJC  HZ EP   9    432 31.33                             104   -2.14 0  409 327 
 SJC  HN ES        433 13.95                             104   -0.46 6  409 327 
 SJC  HZ I         433 16.38         2.8 0.58            106            409 327 
                                                                                
