 2015  1 5 0849 34.9 L   6.780 -73.146146.1  RSN  5 0.6 1.6LRSN                1
 GAP=236        1.41       9.5     9.2 10.9  0.2369E+02  0.1624E+02  0.2200E+02E
 Epicentro: LOS SANTOS - SANTANDER                                             3
 ACTION:UPD 15-03-02 15:36 OP:nd   STATUS:               ID:20150105084934 L   I
 OLDACT:REG 15-01-05 14:26 OP:cam  STATUS:               ID:20150105084816     3
 2015-01-05-0848-16M.COL___274                                                 6
 STAT SP IPHASW D HRMM SECON CODA AMPLIT PERI AZIMU VELO AIN AR TRES W  DIS CAZ7
 BAR2 EZ EP        849 54.20                             171   -0.3410 21.2 191 
 BAR2 EZ ES        850  9.36                             171   -0.4910 21.2 191 
 BAR2 EZ I         850 11.12         9.1 0.18            168           21.2 191 
 BRR  HN ES        850 13.69                             152    0.9610 72.3 300 
 BRR  HN I         850 14.18        13.6 0.28            153           72.3 300 
 RUS  HZ EP        849 58.68                             145    0.1410 98.4 176 
 RUS  HE ES        850 16.93                             145   -0.0410 98.4 176 
 RUS  HZ I         850 18.75         4.1 0.40            144           98.4 176 
 PTB  HZ EP        850  1.44                             132   -0.43 9  147 260 
 PTB  HN ES        850 22.04                             132   -0.86 9  147 260 
 PTB  HZ I         850 24.11         3.2 0.42            132            147 260 
 SPBC HZ EP        850  3.85                             129    0.58 9  161 219 
 SPBC HN ES        850 25.90                             129    0.50 9  161 219 
 SPBC HZ I         850 29.92         6.3 0.40            129            161 219 
                                                                                
