 2017  6 5 0944 52.1 L   6.198 -73.443129.3  RSN  6 0.4 1.3LRSN                1
 GAP=174        0.94       5.9     4.2  7.7  0.1097E+02  0.1873E+01 -0.8855E+01E
 Epicentro: GUADALUPE - SANTANDER                                              3
 ACTION:UPD 17-09-14 16:49 OP:jn   STATUS:               ID:20170605094452 L   I
 OLDACT:UP  17-06-05 17:40 OP:edw  STATUS:               ID:20170605093737     3
 OLDACT:REG 17-06-05 14:31 OP:edw  STATUS:               ID:20170605093737     3
 2017-06-05-0938-00M.COL___344                                                 6
 STAT SP IPHASW D HRMM SECON CODA AMPLIT PERI AZIMU VELO AIN AR TRES W  DIS CAZ7
 RUS  HZ EP        945 10.98                             157   -0.1710 52.2 130 
 RUS  HE ES        945 26.05                             157    0.0310 52.2 130 
 RUS  HZ I         945 27.84         2.7 0.22            163           52.2 130 
 SPBC HZ EP   2    945 13.35                             142    0.30 5 92.1 229 
 SPBC HE ES   2    945 29.09                             142   -0.31 5 92.1 229 
 PTB  HZ EP        945 14.31                             135   -0.7510  118 289 
 PTB  HN ES        945 33.23                             135    0.2510  118 289 
 PTB  HZ I         945 40.33         1.8 0.34            137            118 289 
 YPLC HZ EP     C  945 18.06                             128    0.26 9  147 127 
 NOR  HZ EP        945 20.95                             123    0.65 9  173 246 
 NOR  HE ES        945 42.06                             123   -0.24 9  173 246 
 NOR  HZ I         945 45.86         2.3 0.28            126            173 246 
 ZAR  HZ EP        945 24.05                             117   -0.32 8  212 313 
 ZAR  HE ES        945 49.98                             117    0.42 8  212 313 
 ZAR  HZ I         945 51.19         4.2 0.38            121            212 313 
                                                                                
