 2012  1 5 0553 47.8 L   6.753 -73.105145.7  RSN 12 0.4 1.8LRSN                1
 GAP=144        0.72       3.2     4.6  5.1 -0.2555E+01  0.4489E+01  0.3232E+01E
 Epicentro: LOS SANTOS - SANTANDER                                             3
 ACTION:UP  12-02-03 08:14 OP:REBC STATUS:               ID:20120105055347 L   I
 2012-01-05-0550-00M.COL___189                                                 6
 STAT SP IPHASW D HRMM SECON CODA AMPLIT PERI AZIMU VELO SNR AR TRES W  DIS CAZ7
 BAR2 SZ EP   1    554  7.03                             172    -0.3 7   20 206 
 BAR2 SZ ES   1    554 23.02                             172     0.4 7   20 206 
 BAR2 SZ I         554 23.17        10.6 0.16                            20 206 
 GIR2 SZ EP   1    554  7.23                             165    -0.4 7   37 345 
 GIR2 SZ ES   1    554 22.41                             165    -0.7 7   37 345 
 BRR  HZ EP   1    554  9.29                             150     0.0 7   78 300 
 BRR  HN ES   1    554 26.52                             150     0.5 7   78 300 
 BRR  HZ I         554 27.93        14.1 0.17                            78 300 
 PAM  SZ EP   1    554  9.94                             150    -0.1 7   79  35 
 PAM  SN ES   1    554 27.39                             150    -0.1 7   79  35 
 RUS  HZ EP   1    554 11.21                             145     0.1 7   95 179 
 RUS  HN ES   1    554 29.64                             145     0.3 7   95 179 
 RUS  HZ I         554 30.53         6.5 0.28                            95 179 
 PTB  HN ES   2    554 35.88                             131    -0.4 5  151 261 
 OCA  SZ EP   1    554 17.15                             129     0.5 7  166 352 
 OCA  SZ ES   2    554 39.40                             129     0.3 5  166 352 
 OCA  SZ I         554 41.54        11.2 0.20                           166 352 
 ZAR  HN ES   2    554 46.01                             121    -0.6 4  210 293 
 NOR  SE ES   1    554 51.59                             118     0.1 6  235 236 
 CHI  HZ EP   1    554 25.08                             117     0.0 6  245 196 
 CHI  HN ES   1    554 53.86                             117    -0.3 6  245 196 
 HEL  HZ EP   1    554 28.69                             114     0.4 6  275 257 
 HEL  HZ I         555  3.58         4.1 0.65                           275 257 
 PRA  HZ EP   1    554 41.04                             107     0.0 4  390 211 
                                                                                
