 2011 12 5 0933 52.7 L   6.784 -73.094138.0  RSN  7 0.4 1.7LRSN                1
 GAP=144        0.79       5.5     7.2  7.5 -0.4979E+01  0.6006E+01 -0.1247E+02E
 Epicentro: LOS SANTOS - SANTANDER                                             3
 ACTION:UPD 12-07-13 16:14 OP:ep   STATUS:               ID:20111205093352 L   I
 2011-12-05-0930-00M.COL___183                                                 6
 STAT SP IPHASW D HRMM SECON CODA AMPLIT PERI AZIMU VELO AIN AR TRES W  DIS CAZ7
 BAR2 SZ EP        934 11.15                             170   -0.2610 23.4 205 
 BAR2 SZ ES   1    934 25.51                             170   -0.49 7 23.4 205 
 BAR2 SZ I         934 27.05        18.2 0.22                          23.4 205 
 GIR2 SZ EP   1    934 11.34                             165   -0.22 7 34.4 341 
 PAM  SZ IP        934 14.21                             150    0.2310 75.3  35 
 PAM  SN ES   1    934 30.79                             150    0.23 7 75.3  35 
 BRR  HZ EP        934 13.03                             149   -0.3610 77.1 298 
 BRR  HN ES   1    934 30.11                             149    0.60 7 77.1 298 
 BRR  HZ I         934 31.02        10.4 0.14                          77.1 298 
 RUS  HN ES   1    934 33.84                             143    0.45 7 98.6 179 
 OCA  SZ EP   1    934 20.57                             128   -0.10 7  163 351 
 HEL  HZ EP   2    934 33.88                             113    0.76 4  277 256 
 HEL  HZ I         934 35.52         1.8 0.61                           277 256 
                                                                                
