 2011 10 5 0406 28.8 L   6.769 -73.101143.7  RSN  5 0.3 1.5LRSN                1
 GAP=144        0.57       4.5     7.7  5.9  0.1071E+02  0.1491E+00  0.3793E+01E
 Epicentro: LOS SANTOS - SANTANDER                                             3
 ACTION:UPD 12-07-13 16:02 OP:ep   STATUS:               ID:20111005040628 L   I
 2011-10-05-0400-00M.COL___172                                                 6
 STAT SP IPHASW D HRMM SECON CODA AMPLIT PERI AZIMU VELO AIN AR TRES W  DIS CAZ7
 BAR2 SZ EP   1    4 6 48.09                             171   -0.07 7 21.5 205 
 BAR2 SZ ES   1    4 7  2.64                             171   -0.61 7 21.5 205 
 BAR2 SZ I         4 7  4.42         9.7 0.29                          21.5 205 
 GIR2 SZ EP   1    4 6 48.28                             165   -0.09 7 35.7 343 
 GIR2 SZ ES   1    4 7  3.83                             165    0.20 7 35.7 343 
 PAM  SE ES   2    4 7  8.15                             151    0.21 5 77.1  35 
 BRR  HZ EP   1    4 6 50.03                             150   -0.06 7 77.2 299 
 BRR  HN ES   1    4 7  6.86                             150    0.17 7 77.2 299 
 BRR  HZ I         4 7 11.24         8.3 0.12                          77.2 299 
 RUS  HZ EP   1    4 6 52.09                             144   -0.01 7 96.9 179 
 RUS  HN ES   1    4 7 10.65                             144    0.39 7 96.9 179 
 RUS  HZ I         4 7 11.98         3.3 0.42                          96.9 179 
                                                                                
