 2014  7 5 0347 44.1 L   6.843 -73.193149.3  RSN  5 0.5 1.6LRSN                1
 GAP=202        1.27       5.9     9.6  9.4 -0.3587E+01  0.9215E+01 -0.6935E+01E
 Epicentro: ZAPATOCA - SANTANDER                                               3
 ACTION:UPD 15-03-16 20:41 OP:nd   STATUS:               ID:20140705034744 L   I
 OLDACT:UP  14-07-05 15:56 OP:cam  STATUS:               ID:20140705034000     3
 OLDACT:REG 14-07-05 14:17 OP:cam  STATUS:               ID:20140705034000     3
 2014-07-05-0340-00M.COL___279                                                 6
 STAT SP IPHASW D HRMM SECON CODA AMPLIT PERI AZIMU VELO AIN AR TRES W  DIS CAZ7
 BAR2 SZ EP        348  3.95                             169   -0.3110 27.7 178 
 BAR2 SZ ES        348 19.48                             169   -0.5010 27.7 178 
 BAR2 SZ I         348 22.56         3.9 0.50            171           27.7 178 
 BRR  HZ EP     C  348  5.70                             155    0.4210 64.4 297 
 BRR  HN ES        348 22.64                             155    0.8410 64.4 297 
 BRR  HZ I         348 23.24         6.6 0.38            153           64.4 297 
 PTB  HZ EP        348 10.83                             134   -0.18 9  144 257 
 PTB  HN ES        348 31.12                             134   -0.87 9  144 257 
 PTB  HZ I         348 34.08         5.3 0.12            133            144 257 
 SPBC HZ EP        348 13.10                             130    0.16 9  164 217 
 SPBC HN ES        348 35.99                             130    0.57 9  164 217 
 SPBC HZ I         348 40.96         3.2 0.20            130            164 217 
 SML  HZ EP   1    348 20.43                             119    0.18 6  237 336 
 SML  HN ES        348 48.12                             119   -0.31 8  237 336 
 SML  HZ I         348 56.85         6.4 0.28            119            237 336 
                                                                                
