 2013  7 5 0021 37.0 L   7.044 -73.483106.0  RSN 11 0.6 2.2LRSN                1
 GAP= 82        1.46       4.0     4.0  8.6 -0.1079E+01  0.3349E+01 -0.8433E+01E
 Epicentro: SAN VICENTE DE CHUCURI - SANTANDER                                 3
 ACTION:UPD 13-08-12 10:35 OP:ep   STATUS:               ID:20130705002137 L   I
 OLDACT:REG 13-07-05 08:17 OP:stll STATUS:               ID:20130705001845     3
 2013-07-05-0018-45M.COL___236                                                 6
 STAT SP IPHASW D HRMM SECON CODA AMPLIT PERI AZIMU VELO AIN AR TRES W  DIS CAZ7
 BRR  HZ IP     C  021 51.79                             165    0.1510 26.2 285 
 BRR  HN ES        022  3.35                             165    0.3210 26.2 285 
 BRR  HN I         022  3.99        59.3 0.46            163           26.2 285 
 GIR2 SZ EP        021 52.29                             162    0.2310 32.2  83 
 BAR2 SZ IP     C  021 54.22                             148    0.5910 60.0 146 
 BAR2 SZ I         021 54.26        41.6 0.36            153           60.0 146 
 BAR2 SZ ES        022  6.92                             148    0.3410 60.0 146 
 PAM  SZ EP        021 56.62                             136    0.2010 92.5  69 
 PAM  SN ES        022 10.52                             136   -1.0310 92.5  69 
 PAM  SN I         022 14.76        17.9 0.20            137           92.5  69 
 GRA  SZ EP        021 58.73                             128    0.3110  119  39 
 PTB  HZ EP        021 57.45                             127   -0.9610  121 243 
 PTB  HE ES        022 14.13                             127   -0.9610  121 243 
 PTB  HE I         022 15.16         8.6 0.16            129            121 243 
 OCA  HN ES        022 17.35                             124   -0.2010  133   8 
 OCA  HN I         022 23.36        48.1 0.28            124            133   8 
 RUS  HZ EP        022  0.42                             124    0.0310  135 161 
 RUS  HE ES        022 18.60                             124   -0.0110  135 161 
 RUS  HE I         022 20.01        12.8 0.52            128            135 161 
 CAPV BZ EP        022  3.11                             119    0.69 9  158  55 
 CAPV BZ ES        022 22.03                             119   -0.20 9  158  55 
 ZAR  HZ EP        022  2.74                             119    0.39 9  160 288 
 ZAR  HE ES        022 23.04                             119    0.94 9  160 288 
 ZAR  HE I         022 25.55        51.7 0.40            119            160 288 
 SML  HN EP        022  6.41                             112   -0.91 9  205 342 
 SML  HE ES        022 30.96                             112    0.03 9  205 342 
 SML  HE I         022 39.01        38.7 0.10            112            205 342 
                                                                                
