 2012 11 5 0643 17.0 L   7.398 -73.187127.7  RSN  4 0.2 1.6LRSN                1
 GAP=216        0.53       6.2     4.7  6.1 -0.1103E+01  0.6765E+01 -0.6813E+01E
 Epicentro: EL PLAYON - SANTANDER                                              3
 ACTION:UPD 12-12-05 15:31 OP:}ep  STATUS:               ID:20121105064317 L   I
 2012-11-05-0640-00M.COL___230                                                 6
 STAT SP IPHASW D HRMM SECON CODA AMPLIT PERI AZIMU VELO AIN AR TRES W  DIS CAZ7
 GIR2 SZ EP   2    643 34.99                             164    0.32 5 35.3 181 
 GIR2 SZ ES        643 48.11                             164   -0.3310 35.3 181 
 PAM  SE ES   1    643 51.00                             156    0.22 7 54.2  97 
 BRR  HZ EP        643 35.82                             151   -0.1210 66.3 241 
 BRR  HN ES        643 50.88                             151    0.1910 66.3 241 
 BRR  HN I         643 51.80        10.9 0.22                          66.3 241 
 BAR2 SZ EP   2    643 37.67                             143   -0.13 5 89.1 180 
 BAR2 SZ ES        643 54.11                             143    0.1010 89.1 180 
 BAR2 SZ I         643 55.25         7.6 0.14                          89.1 180 
                                                                                
