 2017  1 5 0648 48.4 L   6.787 -73.154144.5  RSN  9 0.4 1.6LRSN                1
 GAP=136        1.02       4.0     4.2  6.8  0.2402E+00  0.6773E+01  0.7368E+01E
 Epicentro: LOS SANTOS - SANTANDER                                             3
 ACTION:UPD 17-05-22 15:55 OP:jn   STATUS:               ID:20170105064848 L   I
 OLDACT:REG 17-01-05 13:02 OP:lv   STATUS:               ID:20170105064741     3
 2017-01-05-0648-00M.COL___368                                                 6
 STAT SP IPHASW D HRMM SECON CODA AMPLIT PERI AZIMU VELO AIN AR TRES W  DIS CAZ7
 BAR2 EZ EP        649  7.78                             171   -0.1010 21.7 188 
 BAR2 EZ ES        649 22.76                             171   -0.2910 21.7 188 
 BAR2 EZ I         649 24.30        16.2 0.33            170           21.7 188 
 BRR  HZ EP        649  9.70                             152    0.2610 71.1 300 
 BRR  HN ES        649 26.71                             152    0.8910 71.1 300 
 BRR  HZ I         649 30.58         7.2 0.26            152           71.1 300 
 PAM  EZ EP        649 10.56                             150   -0.0510 79.1  39 
 PAM  EN ES        649 27.86                             150   -0.0610 79.1  39 
 PAM  EZ I         649 30.48         3.5 0.24            154           79.1  39 
 RUS  HZ EP        649 11.70                             144   -0.2510 99.2 175 
 RUS  HE ES        649 30.08                             144   -0.2310 99.2 175 
 RUS  HZ I         649 31.78         3.3 0.31            145           99.2 175 
 PTB  HZ EP        649 14.96                             132   -0.23 9  147 259 
 PTB  HN ES        649 35.47                             132   -0.59 9  147 259 
 PTB  HZ I         649 38.48         4.6 0.35            132            147 259 
 ZAR  HN ES        649 45.83                             122   -0.15 9  204 293 
 ZAR  HZ I         649 51.10         4.1 0.28            123            204 293 
 CHI  HZ EP        649 26.15                             117    0.27 8  247 195 
 CHI  HN ES        649 55.97                             117    0.88 8  247 195 
 CHI  HZ I         649 59.07         1.7 0.39            118            247 195 
 ROSC BZ EP   4    649 28.23                             117    1.94 0  251 211 
 ROSC BE ES   4    649 53.73                             117   -2.09 0  251 211 
 ROSC BZ I         650  2.39         6.2 0.45            118            251 211 
 GUY2CHZ EP   4    649 33.27                             112    1.47 0  300 235 
 GUY2CHN ES        650  5.48                             112   -0.15 7  300 235 
 GUY2CHZ I         650 13.95         2.5 0.34                           300 235 
 PTGC HZ EP   4    649 30.87                             111   -1.24 0  308 158 
 PTGC HE ES   4    650  3.14                             111   -3.04 0  308 158 
 SJC  HZ EP   4    649 42.13                             105   -1.91 0  410 327 
 SJC  HE ES   4    650 23.88                             105   -3.53 0  410 327 
                                                                                
