 2016 12 5 0015 52.8 L   6.742 -73.144144.0  RSN  6 0.5 1.6LRSN                1
 GAP=158        1.01       9.7     5.3  8.5 -0.2269E+02  0.7397E+01  0.1330E+02E
 Epicentro: LOS SANTOS - SANTANDER                                             3
 ACTION:UPD 17-01-11 20:12 OP:rebc STATUS:               ID:20161205001552 L   I
 OLDACT:DUP 16-12-05 15:48 OP:ar   STATUS:               ID:20161205000745d    3
 OLDACT:REG 16-12-05 13:57 OP:ar   STATUS:               ID:20161205000744     3
 2016-12-05-0008-00M.COL___349                                                 6
 STAT SP IPHASW D HRMM SECON CODA AMPLIT PERI AZIMU VELO AIN AR TRES W  DIS CAZ7
 BAR2 EZ ES   2    016 27.42                             173    0.29 5 17.1 194 
 BAR2 EZ I         016 28.22         8.8 0.26            174           17.1 194 
 BRR  HZ EP     D  016 14.06                             151    0.1310 74.6 303 
 BRR  HN ES        016 30.94                             151    0.5210 74.6 303 
 BRR  HZ I         016 35.22         4.7 0.13            148           74.6 303 
 PAM  EZ EP        016 15.16                             149    0.0610 82.3  37 
 PAM  EE ES        016 32.17                             149   -0.3410 82.3  37 
 PAM  EZ I         016 33.78         5.8 0.16            149           82.3  37 
 PTB  HZ EP        016 19.00                             132   -0.51 9  147 261 
 PTB  HN ES        016 39.96                             132   -0.41 9  147 261 
 PTB  HZ I         016 42.33         4.4 0.20            133            147 261 
 ZAR  HZ EP        016 26.08                             122    0.70 8  207 294 
 ZAR  HN ES        016 50.41                             122   -0.40 8  207 294 
 ZAR  HZ I         016 55.97         4.7 0.36            122            207 294 
 NOR  HN ES   2    016 56.41                             118    0.89 4  231 236 
                                                                                
