 2013  6 5 0847 27.0 L   6.782 -73.196138.4  RSN  5 0.1 1.6LRSN                1
 GAP=230        0.32       3.8     3.3  4.9  0.4894E+01 -0.2225E+01  0.3208E+01E
 Epicentro: ZAPATOCA - SANTANDER                                               3
 ACTION:UPD 14-01-08 09:52 OP:ep   STATUS:               ID:20130605084727 L   I
 OLDACT:REG 13-06-05 07:40 OP:mh   STATUS:               ID:20130605084000     3
 2013-06-05-0840-00M.COL___257                                                 6
 STAT SP IPHASW D HRMM SECON CODA AMPLIT PERI AZIMU VELO AIN AR TRES W  DIS CAZ7
 BAR2 SZ EP   1    847 45.73                             171   -0.01 7 21.0 176 
 BAR2 SZ I         848  1.59         4.0 0.28            168           21.0 176 
 BRR  HZ EP   1    847 47.34                             152    0.16 7 67.4 302 
 BRR  HN ES   1    848  2.80                             152   -0.09 7 67.4 302 
 BRR  HN I         848  4.94        15.6 0.24            153           67.4 302 
 RUS  HZ EP   1    847 49.97                             143    0.00 7 99.1 173 
 RUS  HN ES   2    848  7.85                             143    0.01 5 99.1 173 
 RUS  HN I         848 11.63         2.2 0.28            140           99.1 173 
 PTB  HZ EP   1    847 52.72                             131   -0.16 7  142 259 
 PTB  HN ES   1    848 13.11                             131    0.08 7  142 259 
 PTB  HN I         848 18.51         7.0 0.60            132            142 259 
 SML  HZ EP   4    848  0.19                             116   -3.03 0  243 337 
 SML  HN ES   4    848 29.21                             116   -2.23 0  243 337 
 SML  HN I         848 37.22         6.4 0.10            113            243 337 
                                                                                
