 2015  9 5 0440 59.1 L   6.772 -73.216138.4  RSN  7 0.4 1.6LRSN                1
 GAP= 98        0.93       4.2     3.9  5.9 -0.3921E+01 -0.9005E+00  0.3634E+01E
 Epicentro: ZAPATOCA - SANTANDER                                               3
 ACTION:UPD 15-10-28 16:24 OP:cam  STATUS:               ID:20150905044059 L   I
 OLDACT:DUP 15-09-05 14:41 OP:stll STATUS:               ID:20150905043749d    3
 2015-09-05-0437-48M.COL___355                                                 6
 STAT SP IPHASW D HRMM SECON CODA AMPLIT PERI AZIMU VELO AIN AR TRES W  DIS CAZ7
 BAR2 EZ EP        441 17.85                             171    0.0210 20.3 169 
 BAR2 EZ ES        441 31.95                             171   -0.4610 20.3 169 
 BAR2 EZ I         441 33.43        10.0 0.22            170           20.3 169 
 BRR  HZ EP        441 19.75                             153    0.5310 66.2 304 
 BRR  HN ES        441 35.32                             153    0.4510 66.2 304 
 BRR  HZ I         441 37.17        10.2 0.34            154           66.2 304 
 PAM  EZ EP        441 21.25                             147    0.1910 84.8  42 
 PAM  EN ES        441 37.94                             147   -0.2110 84.8  42 
 PAM  EZ I         441 40.27         8.3 0.32            151           84.8  42 
 RUS  HZ EP        441 21.74                             143   -0.2810 98.4 171 
 RUS  HN ES        441 40.17                             143    0.3110 98.4 171 
 RUS  HZ I         441 41.88         4.7 0.24            144           98.4 171 
 PTB  HZ EP        441 24.40                             132   -0.37 9  140 259 
 PTB  HN ES        441 44.19                             132   -0.57 9  140 259 
 PTB  HZ I         441 47.24         6.0 0.12            133            140 259 
 SPBC HZ EP        441 26.35                             129   -0.05 9  156 217 
 SPBC HE ES        441 48.09                             129    0.43 9  156 217 
 SPBC HZ I         441 53.69         5.7 0.22            130            156 217 
 TAM  HZ EP        441 26.85                             127   -0.05 9  162 103 
                                                                                
