 2015  6 5 0534 31.8 L   6.812 -73.122136.0  RSN  7 0.5 1.4LRSN                1
 GAP=185        1.12       3.7     7.0  7.7  0.5947E+01  0.4402E+01 -0.7548E+01E
 Epicentro: LOS SANTOS - SANTANDER                                             3
 ACTION:UPD 15-09-10 22:09 OP:cam  STATUS:               ID:20150605053431 L   I
 OLDACT:REG 15-06-05 13:02 OP:ak   STATUS:               ID:20150605052749     3
 2015-06-05-0527-49M.COL___297                                                 6
 STAT SP IPHASW D HRMM SECON CODA AMPLIT PERI AZIMU VELO AIN AR TRES W  DIS CAZ7
 BAR2 EZ EP        534 50.15                             169   -0.1210 25.2 195 
 BAR2 EZ ES        535  4.83                             169    0.1310 25.2 195 
 BAR2 EZ I         535  6.38         6.2 0.16            166           25.2 195 
 BRR  HZ EP        534 52.43                             150    0.4510 72.9 297 
 BRR  HN ES        535  8.36                             150    0.6310 72.9 297 
 BRR  HZ I         535 13.78         4.0 0.10            147           72.9 297 
 RUS  HZ EP        534 54.33                             142   -0.3410  102 178 
 RUS  HN ES        535 12.46                             142   -0.0610  102 178 
 RUS  HZ I         535 14.00         2.8 0.29            144            102 178 
 OCA  HZ EP   1    535  0.18                             128    0.94 7  159 352 
 OCA  HN ES        535 20.28                             128   -0.39 9  159 352 
 SPBC HZ EP   1    535  0.17                             127    0.36 7  166 219 
 SPBC HN ES        535 21.16                             127   -0.51 9  166 219 
 SPBC HZ I         535 25.27         4.1 0.18            127            166 219 
 ZAR  HZ EP   1    535  4.74                             120    0.94 6  206 292 
 ZAR  HE ES        535 28.50                             120   -0.29 8  206 292 
 ZAR  HZ I         535 35.04         3.9 0.09            120            206 292 
 SML  HZ EP        535  7.38                             116   -0.48 8  244 335 
 SML  HN ES        535 35.33                             116   -0.67 8  244 335 
                                                                                
