 2012 10 5 0628 38.0 L   6.806 -73.126144.2  RSN 16 0.4 2.8LRSN 3.2WRSN        1
 SPEC AVERAGE  MO 13.8 ST  8.8 OM  2.8 f0 4.58 R0.3269 AL 2.89 WI 13.9 MW  3.2 3
 SPEC SD       MO  0.1 ST  2.1 OM  0.9 f00.612 R0.0429 AL      WI      MW  0.1 3
 GAP= 67        0.73       3.4     3.4  5.1 -0.1843E-01  0.4093E+01  0.5463E+01E
 Epicentro: LOS SANTOS - SANTANDER                                             3
 SPEC PRA HH N MO 13.9 ST 10.3 OM  1.9 f0 4.48 R0.3281 AL 2.71 WI 18.1 MW  3.2 3
 SPEC PRA HH N T 63012 K 0.000 GD  419 VS 4.20 DE 3.20 Q0230.0 QA 0.60 VS 4.20 3
 SPEC HEL HH N MO 13.7 ST 10.4 OM  1.8 f0 5.37 R0.2737 AL 3.39 WI 12.2 MW  3.1 3
 SPEC HEL HH N T 62950 K 0.000 GD  309 VS 4.20 DE 3.20 Q0230.0 QA 0.60 VS 4.20 3
 SPEC CHI HH N MO 13.9 ST  5.8 OM  2.0 f0 3.88 R0.3789 AL 2.58 WI 11.3 MW  3.2 3
 SPEC CHI HH N T 62945 K 0.000 GD  288 VS 4.20 DE 3.20 Q0230.0 QA 0.60 VS 4.20 3
 ACTION:UPD 12-11-22 17:02 OP:ep   STATUS:               ID:20121005062838 L   I
 2012-10-05-0626-39M.COL___179                                                 6
 STAT SP IPHASW D HRMM SECON CODA AMPLIT PERI AZIMU VELO AIN AR TRES W  DIS CAZ7
 BAR2 SZ EP        628 57.37                             170   -0.0910 24.5 195 
 BAR2 SZ ES   1    629 11.83                             170   -0.82 7 24.5 195 
 BAR2 SZ I         629 15.01       182.4 0.20                          24.5 195 
 GIR2 SZ EP   1    628 57.50                             167    0.03 7 31.0 346 
 GIR2 SZ ES   2    629 12.70                             167    0.03 5 31.0 346 
 BRR  HZ EP   1    628 59.36                             152    0.29 7 72.8 297 
 BRR  HN ES   2    629 16.40                             152    0.90 5 72.8 297 
 BRR  HZ I         629 18.94        88.3 0.22                          72.8 297 
 PAM  SZ EP   1    629  0.19                             151    0.26 7 75.5  39 
 PAM  SN ES   2    629 17.15                             151    0.11 5 75.5  39 
 PAM  SN I         629 19.88       131.6 0.52                          75.5  39 
 RUS  HZ EP        629  1.20                             143   -0.4310  101 177 
 RUS  HN ES   2    629 19.98                             143   -0.09 5  101 177 
 TAM  HZ EP        629  5.60                             130    0.23 9  153 105 
 TAM  HN ES   2    629 27.26                             130    0.53 5  153 105 
 YOP  SZ EP   1    629  7.89                             126    0.00 7  179 154 
 YOP  SN I         629 34.47        53.0 0.31                           179 154 
 ZAR  HZ EP   1    629 10.09                             122   -0.43 6  206 292 
 ZAR  HN ES   2    629 36.06                             122    0.17 4  206 292 
 ZAR  HN I         629 40.97        99.6 0.27                           206 292 
 NOR  SZ EP   1    629 13.70                             118   -0.17 6  237 235 
 NOR  SN ES   2    629 41.61                             118   -0.24 4  237 235 
 CHI  HZ EP   1    629 15.41                             117   -0.33 6  250 196 
 CHI  HN ES        629 45.80                             117    0.61 8  250 196 
 CHI  HN I         629 50.70        42.2 0.42                           250 196 
 ROSC BZ EP   1    629 16.86                             116    0.64 6  254 211 
 HEL  HZ EP   1    629 18.72                             114    0.34 6  274 256 
 HEL  HN ES   2    629 50.57                             114    0.69 4  274 256 
 HEL  HN I         629 56.18        30.4 0.50                           274 256 
 VIL  SZ EP   2    629 20.53                             112   -0.94 4  304 192 
 VIL  SN ES   2    629 55.48                             112    0.10 4  304 192 
 RREF HZ EP   1    629 24.55                             110    0.24 5  324 230 
 DBB  SZ EP   1    629 25.07                             109   -0.58 5  342 274 
 PRA  HZ EP   1    629 30.87                             106   -0.79 4  394 210 
 PRA  HN ES   2    630 13.43                             106   -0.08 3  394 210 
 PRA  HN I         630 18.65        19.5 0.34                           394 210 
                                                                                
