 2016 12 5 0529 35.7 L   6.780 -73.176147.4  RSN  5 0.3 1.4LRSN                1
 GAP=141        0.71       4.0     4.0  5.3 -0.4652E+01  0.4606E-01  0.8399E+01E
 Epicentro: LOS SANTOS - SANTANDER                                             3
 ACTION:UPD 17-01-11 20:12 OP:rebc STATUS:               ID:20161205052935 L   I
 OLDACT:DUP 16-12-05 18:03 OP:ar   STATUS:               ID:20161205051740d    3
 2016-12-05-0518-00M.COL___352                                                 6
 STAT SP IPHASW D HRMM SECON CODA AMPLIT PERI AZIMU VELO AIN AR TRES W  DIS CAZ7
 BAR2 EZ EP        529 55.37                             172   -0.1410 20.8 182 
 BAR2 EZ ES        530 10.77                             172   -0.1610 20.8 182 
 BAR2 EZ I         530 13.17         8.7 0.54            166           20.8 182 
 BRR  HZ EP        529 57.13                             153    0.1710 69.4 301 
 BRR  HE ES        530 13.90                             153    0.3910 69.4 301 
 BRR  HZ I         530 17.39         4.4 0.28            156           69.4 301 
 PAM  EZ EP        529 58.34                             150   -0.0110 81.2  40 
 PAM  EN ES        530 15.94                             150   -0.0510 81.2  40 
 PAM  EZ I         530 17.53         3.7 0.43            157           81.2  40 
 PTB  HZ EP        530  1.99                             133   -0.51 9  144 259 
 PTB  HN ES        530 23.27                             133   -0.11 9  144 259 
 PTB  HZ I         530 28.18         2.0 0.24            134            144 259 
 CHI  HZ EP        530 13.75                             118    0.55 8  246 195 
 CHI  HN ES        530 42.44                             118    0.01 8  246 195 
 CHI  HZ I         530 52.78         2.1 0.28            119            246 195 
                                                                                
