 2013  3 5 0815 34.5 L   6.722 -73.186149.3  RSN  5 0.2 1.1LRSN                1
 GAP=227        0.44       4.4     4.0  4.6  0.1029E+02  0.1839E+01 -0.1241E+01E
 Epicentro: VILLANUEVA - SANTANDER                                             3
 ACTION:UPD 13-04-09 13:59 OP:ep   STATUS:               ID:20130305081534 L   I
 2013-03-05-0810-00M.COL___228                                                 6
 STAT SP IPHASW D HRMM SECON CODA AMPLIT PERI AZIMU VELO AIN AR TRES W  DIS CAZ7
 BAR2 SZ EP   1    815 54.15                             174   -0.29 7 14.3 178 
 BAR2 SZ ES   1    816  9.85                             174   -0.13 7 14.3 178 
 BAR2 SZ I         816 10.74         5.0 0.18            175           14.3 178 
 BRR  HZ EP        815 56.06                             153   -0.0510 72.1 306 
 BRR  HN ES   1    816 13.28                             153    0.34 7 72.1 306 
 BRR  HZ I         816 19.63         2.3 0.52            152           72.1 306 
 RUS  HZ EP   1    815 58.24                             147    0.18 7 92.4 173 
 RUS  HN ES   1    816 16.46                             147    0.03 7 92.4 173 
 RUS  HZ I         816 18.10         1.6 0.28            152           92.4 173 
 PTB  HZ EP   1    816  1.47                             134    0.20 7  142 262 
 PTB  HN ES   1    816 21.99                             134   -0.13 7  142 262 
 PTB  HZ I         816 26.11         0.8 0.32            136            142 262 
 ZAR  HN ES   1    816 32.43                             123   -0.15 6  203 295 
                                                                                
