 2014 12 5 0006 25.8 L   6.825 -73.133147.0  RSN 11 0.5 1.5LRSN                1
 GAP=137        1.21       3.8     4.6  6.5 -0.3199E+00  0.1004E+02  0.2018E+01E
 Epicentro: LOS SANTOS - SANTANDER                                             3
 ACTION:UPD 15-02-10 17:00 OP:nd   STATUS:               ID:20141205000625 L   I
 OLDACT:REG 14-12-05 12:30 OP:fm   STATUS:               ID:20141205000000     3
 2014-12-05-0000-00M.COL___300                                                 6
 STAT SP IPHASW D HRMM SECON CODA AMPLIT PERI AZIMU VELO AIN AR TRES W  DIS CAZ7
 BAR2 SZ EP        0 6 46.04                             169    0.3910 26.3 192 
 BAR2 SZ ES        0 7  0.95                             169   -0.1710 26.3 192 
 BAR2 SZ I         0 7  2.44        12.4 0.16            167           26.3 192 
 BRR  HZ EP        0 6 47.82                             153    0.7210 71.2 296 
 BRR  HN ES        0 7  4.39                             153    0.7010 71.2 296 
 BRR  HZ I         0 7  8.87         7.5 0.12            152           71.2 296 
 PAM  SZ EP        0 6 48.23                             152    0.2410 74.4  40 
 PAM  SE ES        0 7  4.86                             152   -0.4110 74.4  40 
 PAM  SZ I         0 7  6.56         3.8 0.30            158           74.4  40 
 RUS  HZ EP        0 6 50.56                             143    0.6810  103 177 
 RUS  HE ES        0 7  7.84                             143   -0.8010  103 177 
 RUS  HZ I         0 7 12.26         1.9 0.38            145            103 177 
 PTB  HZ EP        0 6 52.66                             132   -0.40 9  150 258 
 PTB  HN ES        0 7 14.02                             132   -0.28 9  150 258 
 PTB  HZ I         0 7 19.77         3.7 0.20            132            150 258 
 SPBC HZ EP        0 6 55.29                             129    0.60 9  166 219 
 SPBC HN ES        0 7 17.18                             129   -0.03 9  166 219 
 SPBC HZ I         0 7 23.32         5.1 0.22            130            166 219 
 ZAR  HZ EP        0 6 58.36                             122   -0.01 9  204 291 
 ZAR  HN ES        0 7 23.35                             122   -0.41 9  204 291 
 ZAR  HZ I         0 7 30.61         4.6 0.28            124            204 291 
 NOR  HZ EP        0 7  1.43                             118   -0.48 8  237 234 
 NOR  HE ES        0 7 30.14                             118    0.08 8  237 234 
 NOR  HZ I         0 7 34.32         3.0 0.48            120            237 234 
 CHI  HZ EP        0 7  3.26                             117   -0.65 8  252 195 
 CHI  HN ES        0 7 33.57                             117   -0.05 8  252 195 
 CHI  HZ I         0 7 41.41         1.6 0.64            119            252 195 
 GUY2CHZ EP   4    0 7  7.86                             112   -1.93 0  304 235 
 GUY2CHN ES        0 7 44.67                             112    0.58 7  304 235 
 GUY2CHZ I         0 7 53.76         1.4 0.28                           304 235 
 MON  HZ EP        0 7 14.01                             109   -0.79 6  353 308 
 MON  HN ES        0 7 52.50                             109   -0.50 6  353 308 
 MON  HZ I         0 7 53.91         1.0 0.62            111            353 308 
                                                                                
