 2010  7 5 0132 51.4 L   6.661 -73.469115.5  RSN  6 0.3 1.2LRSN                1
 GAP=178        0.49       3.1     6.8  6.0  0.7680E+00 -0.7703E+01 -0.5018E+01E
 Epicentro: EL CARMEN DE CHUCURI - SANTANDER                                   3
 ACTION:UPD 10-12-01 15:15 OP:pat  STATUS:               ID:20100705013251 L   I
 2010-07-05-0128-03S.COL___118                                                 6
 STAT SP IPHASW D HRMM SECON CODA AMPLIT PERI AZIMU VELO AIN AR TRES W  DIS CAZ7
 BAR2 SZ EP   1    133  7.52                             163    -0.2 7   32 104 
 BAR2 SZ ES   2    133 20.10                             163    -0.3 5   32 104 
 BRR  HZ EP   1    133  8.37                             152    -0.1 7   56 331 
 BRR  HE ES   2    133 21.93                             152     0.2 5   56 331 
 BRR  HZ I         133 31.13         9.0 0.45                            56 331 
 RUS  HZ EP   1    133 11.90                             138     0.0 7   95 153 
 RUS  HN ES   2    133 28.07                             138     0.3 5   95 153 
 RUS  HZ I         133 29.51         1.5 0.27                            95 153 
 BRI  SZ EP   1    133 15.43                             126     0.1 7  138  32 
 GUE  SZ EP   1    133 16.26                             125     0.3 7  143  25 
 GUE  SZ ES   2    133 34.73                             125    -0.4 5  143  25 
 GRA  SZ EP   1    133 16.58                             123    -0.3 7  154  28 
 GRA  SZ ES   2    133 37.34                             123     0.5 5  154  28 
                                                                                
