 2012  9 5 0220 45.8 L   6.746 -73.156150.2  RSN  6 0.3 1.6LRSN                1
 GAP=181        0.54       4.4     4.2  5.1  0.7940E+01  0.4870E+01  0.2683E+01E
 Epicentro: JORDAN - SANTANDER                                                 3
 ACTION:UPD 12-10-22 14:17 OP:ep   STATUS:               ID:20120905022045 L   I
 2012-09-05-0220-00M.COL___218                                                 6
 STAT SP IPHASW D HRMM SECON CODA AMPLIT PERI AZIMU VELO AIN AR TRES W  DIS CAZ7
 BAR2 SZ EP   1    221  5.70                             173   -0.11 7 17.2 190 
 BAR2 SZ ES   1    221 21.31                             173   -0.14 7 17.2 190 
 GIR2 SZ EP   1    221  5.82                             165   -0.30 7 37.0 354 
 GIR2 SZ ES   1    221 21.86                             165   -0.13 7 37.0 354 
 BRR  HZ EP   1    221  7.57                             153    0.07 7 73.2 303 
 BRR  HZ I         221  8.04        14.9 0.10                          73.2 303 
 BRR  HE ES   1    221 25.01                             153    0.56 7 73.2 303 
 RUS  HZ EP   1    221  9.69                             146    0.15 7 94.7 175 
 RUS  HN ES   1    221 28.18                             146    0.09 7 94.7 175 
 PTB  HZ EP   1    221 13.14                             133    0.25 7  146 261 
 PTB  HZ I         221 22.98         2.3 0.63                           146 261 
 PTB  HN ES   1    221 33.67                             133   -0.38 7  146 261 
 ZAR  HN ES   1    221 44.15                             123   -0.10 6  205 294 
                                                                                
