 2010  4 5 0431 56.1 L   6.839 -73.063148.0  RSN  9 0.5 2.2LRSN                1
 GAP=207        1.30       5.5     9.1  9.1 -0.2097E+02 -0.8361E+00  0.2163E+02E
 Epicentro: LOS SANTOS - SANTANDER                                             3
 ACTION:UPD 10-08-24 09:57 OP:vdl  STATUS:               ID:20100405043156 L   I
 2010-04-05-0430-50S.COL___098                                                 6
 STAT SP IPHASW D HRMM SECON CODA AMPLIT PERI AZIMU VELO AIN AR TRES W  DIS CAZ7
 BAR2 SZ EP        432 15.93                             168    -0.210   30 206 
 BAR2 SZ ES   1    432 31.52                             168    -0.2 7   30 206 
 BRR  HZ IP        432 18.14                             153     0.310   78 293 
 BRR  HZ I         432 18.61        32.6 0.10                            78 293 
 BRR  HN ES        432 35.58                             153     0.810   78 293 
 OCA  SZ EP        432 24.40                             132     0.1 9  157 350 
 OCA  SZ ES        432 45.64                             132    -0.6 9  157 350 
 OCA  SZ I         432 52.61        41.2 0.35                           157 350 
 CHI  HZ EP        432 34.06                             117    -0.5 8  255 197 
 CHI  HZ I         433 10.80         5.0 0.55                           255 197 
 ROSC BZ EP        432 35.54                             117     0.3 8  261 212 
 ROSC BN ES        433  5.56                             117    -0.2 8  261 212 
 ROSC BZ I         433 12.08         5.1 0.71                           261 212 
 HEL  HZ EP        432 37.82                             115     0.3 7  282 255 
 HEL  HE ES        433  8.48                             115    -1.3 7  282 255 
 HEL  HZ I         433 14.62         9.3 0.40                           282 255 
 RREF BZ EP        432 44.10                             111     0.7 7  332 230 
 RREF BN ES        433 20.49                             111     0.2 7  332 230 
 RREF BZ I         433 25.81         9.2 0.46                           332 230 
 TOL  SZ EP        432 45.52                             110     0.0 6  353 225 
 TOL  SZ ES        433 24.47                             110     0.4 6  353 225 
 PRA  HZ EP        432 50.24                             107    -0.4 6  400 210 
 PRA  HN ES        433 33.07                             107    -0.1 6  400 210 
 PRA  HZ I         433 37.89         4.0 0.28                           400 210 
                                                                                
