 2014  1 5 0323 48.9 L   7.479 -73.159130.4  RSN  5 0.6 1.6LRSN                1
 GAP=216        1.57       7.6    11.7 15.0  0.1519E+02  0.1642E+02 -0.4825E+02E
 Epicentro: EL PLAYON - SANTANDER                                              3
 ACTION:UPD 14-03-13 09:51 OP:ep   STATUS:               ID:20140105032348 L   I
 OLDACT:REG 14-01-05 08:01 OP:stll STATUS:               ID:20140105031807     3
 2014-01-05-0318-07M.COL___240                                                 6
 STAT SP IPHASW D HRMM SECON CODA AMPLIT PERI AZIMU VELO AIN AR TRES W  DIS CAZ7
 BRR  HZ EP        324  9.06                             149    0.5010 73.6 236 
 BRR  HN ES        324 24.82                             149    0.9210 73.6 236 
 BAR2 SZ ES        324 27.02                             141   -0.5610 98.1 181 
 BAR2 SZ I         324 28.39        13.6 0.14             99           98.1 181 
 PTB  HZ I         324 45.09         2.3 0.18             94            177 234 
 SML  HZ EP        324 17.81                             123    0.23 9  177 326 
 SML  HN ES        324 39.04                             123   -0.92 9  177 326 
 PTB  HZ EP        324 17.41                             123   -0.16 9  177 234 
 PTB  HN ES        324 38.91                             123   -1.02 9  177 234 
 ZAR  HZ EP        324 19.11                             121    0.46 9  188 271 
 ZAR  HN ES        324 42.20                             121    0.35 9  188 271 
                                                                                
