 2014  8 5 0048 33.1 L   6.813 -73.079145.7  RSN  5 0.3 1.3LRSN                1
 GAP=245        0.69       4.2     5.4  6.0  0.1150E+02  0.3406E+01  0.1777E+01E
 Epicentro: LOS SANTOS - SANTANDER                                             3
 ACTION:UPD 14-09-15 21:46 OP:nd   STATUS:               ID:20140805004833 L   I
 OLDACT:DUP 14-08-05 15:43 OP:spq  STATUS:               ID:20140805004819d    3
 2014-08-05-0048-18M.COL___254                                                 6
 STAT SP IPHASW D HRMM SECON CODA AMPLIT PERI AZIMU VELO AIN AR TRES W  DIS CAZ7
 BAR2 SZ EP   1    048 52.23                             169   -0.57 7 27.0 205 
 BAR2 SZ ES   1    049  8.17                             169    0.00 7 27.0 205 
 BAR2 SZ I         049 10.74         4.1 0.30            165           27.0 205 
 BRR  HZ EP        048 54.59                             151    0.0010 77.1 295 
 BRR  HN ES        049 11.70                             151    0.3610 77.1 295 
 BRR  HZ I         049 17.90         9.6 0.38            148           77.1 295 
 RUS  HZ EP        048 57.15                             143    0.2110  102 180 
 RUS  HN ES        049 15.33                             143   -0.2010  102 180 
 RUS  HZ I         049 16.65         1.2 0.42            146            102 180 
 SPBC HZ EP        049  2.45                             128    0.30 9  169 221 
 SPBC HN ES        049 24.75                             128   -0.06 9  169 221 
 SPBC HZ I         049 29.90         2.3 0.15            129            169 221 
 ZAR  HN ES        049 31.65                             121   -0.35 8  210 291 
 ZAR  HZ I         049 37.45         1.6 0.48            123            210 291 
                                                                                
