 2016  6 5 0344 15.4 L   6.804 -73.153143.3  RSN 20 0.6 2.8LRSN                1
 GAP= 71        1.26       3.1     3.2  5.4 -0.1725E+01  0.5638E+01  0.1583E+01E
 Epicentro: LOS SANTOS - SANTANDER                                             3
 ACTION:UPD 16-07-21 22:15 OP:rebc STATUS:               ID:20160605034415 L   I
 OLDACT:REG 16-06-05 12:46 OP:edw  STATUS:               ID:20160605033748     3
 2016-06-05-0337-48M.COL___328                                                 6
 STAT SP IPHASW D HRMM SECON CODA AMPLIT PERI AZIMU VELO AIN AR TRES W  DIS CAZ7
 BAR2 EZ EP     C  344 34.81                             170    0.0410 23.7 188 
 BAR2 EZ ES        344 49.04                             170   -0.8210 23.7 188 
 BAR2 EZ I         344 50.76       189.7 0.22                          23.7 188 
 BRR  HZ IP     C  344 36.82                             152    0.5610 70.2 298 
 BRR  HE ES        344 53.92                             152    1.4110 70.2 298 
 BRR  HZ I         344 58.41       132.7 0.10                          70.2 298 
 PAM  EZ EP     C  344 37.79                             150    0.4010 77.5  40 
 PAM  EE ES        344 54.89                             150    0.3610 77.5  40 
 PAM  EZ I         344 57.28       141.8 0.68                          77.5  40 
 RUS  HZ EP     C  344 38.61                             143   -0.3710  101 176 
 RUS  HN ES        344 56.92                             143   -0.4310  101 176 
 RUS  HZ I         344 58.24        77.6 0.32                           101 176 
 PTB  HZ EP        344 41.84                             132   -0.29 9  147 259 
 PTB  HN ES        345  2.54                             132   -0.42 9  147 259 
 PTB  HZ I         345  4.36        66.7 0.20                           147 259 
 TAM  HZ EP     C  344 43.10                             130    0.10 9  156 105 
 TAM  HE ES        345  4.45                             130   -0.05 9  156 105 
 TAM  HZ I         345  5.16        44.2 0.20                           156 105 
 OCA  HZ EP        344 43.41                             129   -0.08 9  160 353 
 OCA  HN ES        345  5.21                             129   -0.18 9  160 353 
 OCA  HZ I         345  9.55       228.9 0.32                           160 353 
 SPBC HZ EP        344 43.74                             129    0.01 9  163 219 
 SPBC HE ES        345  5.96                             129    0.16 9  163 219 
 SPBC HZ I         345  8.11        86.1 0.34                           163 219 
 NOR  HZ EP        344 50.73                             118   -0.24 8  234 234 
 NOR  HE ES        345 18.00                             118   -0.70 8  234 234 
 NOR  HZ I         345 20.95        37.3 0.22                           234 234 
 CHI  HZ EP        344 53.93                             117    0.91 8  249 195 
 CHI  HN ES        345 21.69                             117   -0.65 8  249 195 
 HEL  HZ EP        344 55.82                             114    0.38 8  271 256 
 HEL  HE ES        345 27.13                             114    0.48 8  271 256 
 HEL  HZ I         345 35.00        28.3 0.42                           271 256 
 URE  HZ EP        344 55.37                             113   -0.90 7  283 292 
 URE  HE ES        345 27.44                             113   -0.69 7  283 292 
 URE  HZ I         345 35.99        49.2 0.28                           283 292 
 PTGC HZ EP   4    344 57.78                             111   -1.48 0  309 159 
 PTGC HE ES   4    345 30.29                             111   -3.16 0  309 159 
 PTGC HZ I         345 33.45        28.6 0.44                           309 159 
 CBOC HZ EP        345  2.99                             109    0.82 7  333 252 
 CBOC HN ES        345 38.61                             109   -0.02 7  333 252 
 CBOC HZ I         345 49.30        12.1 0.42                           333 252 
 DBB  SZ EP        345  2.91                             109    0.20 7  339 274 
 DBB  SZ ES        345 38.96                             109   -0.62 7  339 274 
 ANIL HZ EP        345  5.16                             108    0.05 6  357 224 
 ANIL HE ES        345 44.98                             108    1.12 6  357 224 
 ANIL HZ I         345 55.17        30.2 0.24                           357 224 
 SDV  BZ EP   4    345  4.53                             108   -0.88 0  361  50 
 SDV  BN ES   4    345 42.67                             108   -1.73 0  361  50 
 PRA  HZ EP        345  9.21                             106    0.34 6  392 209 
 PRA  HN ES        345 49.52                             106   -1.03 6  392 209 
 ORTC HZ EP        345  9.38                             106    0.13 6  395 216 
 ORTC HN ES        345 51.95                             106    0.71 6  395 216 
 ORTC HZ I         345 56.40        14.2 0.48                           395 216 
 PAL  HZ EP        345 10.34                             105   -0.11 6  405 239 
 PAL  HE ES        345 53.38                             105    0.01 6  405 239 
 CRJC HZ EP        345 17.58                             103   -0.23 5  467   4 
 CRJC HN ES        346  5.25                             103   -1.21 5  467   4 
 CRJC HZ I         346 12.99        12.5 0.16                           467   4 
                                                                                
