 2011  4 5 0807 14.8 L   6.689 -73.135155.0  RSN  4 0.3 1.6LRSN                1
 GAP=213        0.67       8.8    15.1 10.0  0.3269E+02 -0.6876E+02 -0.2598E+02E
 Epicentro: VILLANUEVA - SANTANDER                                             3
 ACTION:UP  11-06-22 15:28 OP:REBC STATUS:               ID:20110405080714 L   I
 2011-04-05-0804-03S.COL___122                                                 6
 STAT SP IPHASW D HRMM SECON CODA AMPLIT PERI AZIMU VELO SNR AR TRES W  DIS CAZ7
 BAR2 SZ EP   2    8 7 35.27                             175    -0.1 5   12 206 
 BAR2 SZ ES   2    8 7 51.27                             175    -0.1 5   12 206 
 BAR2 SZ I         8 7 52.94         5.8 0.39                            12 206 
 BTL  SZ EP   1    8 7 35.90                             169     0.3 7   29 330 
 BRR  HZ EP        8 7 37.52                             152     0.210   79 306 
 BRR  HZ I         8 7 37.80         8.3 0.14                            79 306 
 BRR  HN ES   1    8 7 54.74                             152    -0.2 7   79 306 
 OCA  SZ EP   1    8 7 44.38                             129    -0.6 7  173 353 
 OCA  SZ ES   2    8 8  8.90                             129     0.4 4  173 353 
 OCA  SZ I         8 8 15.07         3.7 0.18                           173 353 
                                                                                
