 2016  7 5 0116 15.5 L   6.760 -73.178146.9  RSN  8 0.5 1.8LRSN                1
 GAP=134        1.25       5.2     5.1  8.5 -0.3828E+01  0.9620E+01  0.4239E+01E
 Epicentro: LOS SANTOS - SANTANDER                                             3
 ACTION:UPD 17-03-29 16:47 OP:lp   STATUS:               ID:20160705011615 L   I
 OLDACT:UP  16-07-05 13:33 OP:dani STATUS:               ID:20160705010745     3
 OLDACT:REG 16-07-05 12:27 OP:dani STATUS:               ID:20160705010745     3
 2016-07-05-0107-45M.COL___322                                                 6
 STAT SP IPHASW D HRMM SECON CODA AMPLIT PERI AZIMU VELO AIN AR TRES W  DIS CAZ7
 BAR2 EZ EP        116 35.11                             172   -0.0610 18.5 181 
 BAR2 EZ ES        116 50.34                             172   -0.1810 18.5 181 
 BAR2 EZ I         116 52.89        17.4 0.28            170           18.5 181 
 BRR  HZ EP        116 36.90                             153    0.1810 70.4 303 
 BRR  HN ES        116 53.98                             153    0.7110 70.4 303 
 BRR  HZ I         116 57.71        13.8 0.38            148           70.4 303 
 PAM  EE EP        116 38.07                             149   -0.1110 83.1  40 
 PAM  EN ES        116 55.17                             149   -0.7010 83.1  40 
 PAM  EE I         116 56.55        16.6 0.30            154           83.1  40 
 RUS  HZ EP        116 39.08                             145    0.0210 96.5 174 
 RUS  HE ES        116 58.03                             145    0.5810 96.5 174 
 RUS  HZ I         116 59.17         3.5 0.32            149           96.5 174 
 PTB  HZ EP        116 42.07                             133   -0.09 9  143 260 
 PTB  HE ES        117  2.21                             133   -0.75 9  143 260 
 PTB  HZ I         117  9.95         7.0 0.22            132            143 260 
 SPBC HZ EP        116 44.07                             130    0.53 9  157 219 
 SPBC HN ES        117  5.47                             130    0.05 9  157 219 
 SPBC HZ I         117 11.90         9.5 0.26            131            157 219 
 ZAR  HE ES        117 13.68                             123    0.60 9  202 294 
 ZAR  HZ I         117 27.30        11.0 0.24            122            202 294 
 NOR  HE ES        117 17.22                             119   -0.94 8  229 235 
                                                                                
