 2014 11 5 0300 23.0 L   6.798 -73.128152.3  RSN  6 0.3 1.5LRSN                1
 GAP=139        0.80       3.9     4.2  5.8 -0.4231E+01  0.2949E+01  0.2934E+01E
 Epicentro: LOS SANTOS - SANTANDER                                             3
 ACTION:UPD 14-12-19 15:39 OP:nd   STATUS:               ID:20141105030023 L   I
 OLDACT:UP  14-11-05 14:13 OP:cam  STATUS:               ID:20141105025819     3
 OLDACT:REG 14-11-05 13:06 OP:cam  STATUS:               ID:20141105025819     3
 2014-11-05-0258-19M.COL___274                                                 6
 STAT SP IPHASW D HRMM SECON CODA AMPLIT PERI AZIMU VELO AIN AR TRES W  DIS CAZ7
 BAR2 SZ ES   1    3 0 59.18                             171   -0.20 7 23.5 195 
 BRR  HZ EP        3 0 45.15                             153    0.1610 73.1 298 
 BRR  HE ES        3 1  2.57                             153    0.4510 73.1 298 
 BRR  HE I         3 1  6.10         8.2 0.16            153           73.1 298 
 PAM  SZ EP        3 0 46.10                             152    0.2210 76.3  38 
 PAM  SN ES        3 1  3.40                             152   -0.3110 76.3  38 
 PAM  SN I         3 1  4.40         8.8 0.44            157           76.3  38 
 RUS  HZ EP        3 0 47.63                             145    0.2210  100 177 
 RUS  HN ES        3 1  6.29                             145   -0.1310  100 177 
 RUS  HZ I         3 1  7.79         2.9 0.30            146            100 177 
 PTB  HZ EP        3 0 50.05                             133   -0.66 9  150 259 
 PTB  HN ES        3 1 12.06                             133   -0.24 9  150 259 
 SPBC HZ EP        3 0 52.24                             130    0.10 9  164 220 
 SPBC HN ES        3 1 15.07                             130    0.23 9  164 220 
 SPBC HZ I         3 1 21.68         3.5 0.24            131            164 220 
                                                                                
