 2017  1 5 0752 14.4 L   6.761 -73.169146.0  RSN  5 0.3 1.3LRSN                1
 GAP=145        0.78       6.4     3.7  5.7 -0.4780E+01  0.5866E+01 -0.1901E+01E
 Epicentro: LOS SANTOS - SANTANDER                                             3
 ACTION:UPD 17-05-22 15:55 OP:jn   STATUS:               ID:20170105075214 L   I
 OLDACT:REG 17-01-05 13:04 OP:lv   STATUS:               ID:20170105074742     3
 2017-01-05-0748-00M.COL___368                                                 6
 STAT SP IPHASW D HRMM SECON CODA AMPLIT PERI AZIMU VELO AIN AR TRES W  DIS CAZ7
 BAR2 EZ EP        752 33.99                             172    0.0610 18.8 184 
 BAR2 EZ ES        752 49.32                             172    0.1210 18.8 184 
 BAR2 EZ I         752 50.20         6.8 0.28            172           18.8 184 
 BRR  HZ IP     C  752 35.74                             153    0.2210 71.1 303 
 BRR  HN ES        752 52.31                             153    0.2810 71.1 303 
 BRR  HZ I         752 55.21         2.3 0.14            149           71.1 303 
 PAM  EZ EP        752 36.97                             149    0.0710 82.3  39 
 PAM  EN ES        752 54.14                             149   -0.3410 82.3  39 
 PAM  EZ I         752 54.85         2.1 0.17            152           82.3  39 
 PTB  HZ EP        752 40.47                             133   -0.57 9  144 260 
 PTB  HN ES        753  1.78                             133   -0.07 9  144 260 
 PTB  HZ I         753  7.33         2.2 0.11            132            144 260 
 ZAR  HZ EP        752 47.25                             123    0.51 9  203 294 
 ZAR  HN ES        753 11.70                             123   -0.29 9  203 294 
 ZAR  HZ I         753 17.78         2.4 0.38            122            203 294 
                                                                                
