 2017  9 5 0402 47.4 L   6.797 -73.158139.8  RSN 20 0.5 2.1LRSN                1
 GAP=111        0.97       2.5     3.0  4.8  0.4397E+00  0.5811E+01  0.2221E+01E
 Epicentro: LOS SANTOS - SANTANDER                                             3
 ACTION:UPD 17-10-05 19:09 OP:rebc STATUS:               ID:20170905040247 L   I
 OLDACT:UP  17-09-05 13:57 OP:dnl  STATUS:               ID:20170905035745     3
 OLDACT:REG 17-09-05 13:15 OP:dnl  STATUS:               ID:20170905035745     3
 2017-09-05-0358-00M.COL___426                                                 6
 STAT SP IPHASW D HRMM SECON CODA AMPLIT PERI AZIMU VELO AIN AR TRES W  DIS CAZ7
 BAR2 EZ EP        4 3  5.89                             170   -0.4010 22.8 187 
 BAR2 EZ ES        4 3 21.16                             170    0.1310 22.8 187 
 BAR2 EZ I         4 3 22.75        28.6 0.32            169           22.8 187 
 BRR  HZ EP        4 3  7.95                             152    0.1210 70.1 299 
 BRR  HN ES        4 3 24.62                             152    0.8410 70.1 299 
 BRR  HZ I         4 3 28.85        29.4 0.10            150           70.1 299 
 PAM  EZ EP        4 3  8.91                             149   -0.1310 78.5  40 
 PAM  EN ES        4 3 25.73                             149   -0.2010 78.5  40 
 PAM  EZ I         4 3 27.76        53.1 0.50            154           78.5  40 
 RUS  HZ EP        4 3 10.33                             143   -0.2110  100 175 
 RUS  HN ES        4 3 28.30                             143   -0.3010  100 175 
 RUS  HZ I         4 3 29.89        18.4 0.30            144            100 175 
 SPBC HZ EP        4 3 14.87                             128   -0.45 9  162 219 
 SPBC HN ES        4 3 36.70                             128   -0.42 9  162 219 
 SPBC HZ I         4 3 42.51        29.3 0.24            128            162 219 
 YPLC HZ EP        4 3 16.56                             125   -0.23 9  177 151 
 YPLC HN ES        4 3 39.99                             125    0.26 9  177 151 
 YPLC HZ I         4 3 42.82        28.2 0.26            128            177 151 
 ZAR  HZ EP        4 3 19.04                             121   -0.28 9  203 292 
 ZAR  HN ES        4 3 44.85                             121    0.62 9  203 292 
 ZAR  HZ I         4 3 50.11        18.5 0.28            122            203 292 
 NOR  HZ EP        4 3 22.54                             117   -0.09 8  233 234 
 NOR  HN ES        4 3 49.66                             117   -0.46 8  233 234 
 NOR  HZ I         4 3 51.80         8.2 0.40            118            233 234 
 CHI  HZ EP        4 3 25.19                             116    0.50 8  248 195 
 CHI  HN ES        4 3 54.63                             116    0.85 8  248 195 
 CHI  HZ I         4 3 57.77         4.8 0.40            117            248 195 
 ROSC BZ EP   2    4 3 25.39                             116    0.31 4  252 211 
 ROSC BN ES        4 3 54.73                             116    0.25 8  252 211 
 ROSC BZ I         4 4  2.24         9.6 0.50            117            252 211 
 HEL  HZ EP        4 3 27.64                             114    0.50 8  271 256 
 HEL  HN ES        4 3 57.61                             114   -0.54 8  271 256 
 HEL  HZ I         4 4  6.41         5.7 0.44            114            271 256 
 GUY2CHZ EP   4    4 3 31.51                             111    0.94 0  300 235 
 GUY2CHN ES   4    4 4  6.51                             111    2.25 0  300 235 
 GUY2CHZ I         4 4 13.55         6.7 0.58                           300 235 
 PTGC HZ EP   4    4 3 29.25                             111   -1.76 0  309 158 
 PTGC HN ES   4    4 4  2.44                             111   -2.59 0  309 158 
 PTGC HZ I         4 4  4.76        10.8 0.34            112            309 158 
 CBOC HZ EP        4 3 34.77                             109    0.88 7  332 252 
 CBOC HE ES        4 4 10.39                             109    0.22 7  332 252 
 CBOC HZ I         4 4 14.76         2.6 0.40            110            332 252 
 DBB  EZ EP   2    4 3 34.31                             109   -0.15 3  338 274 
 DBB  EN ES        4 4 10.13                             109   -1.06 7  338 274 
 DBB  EZ I         4 4 13.42         4.0 0.40            109            338 274 
 ARGC HZ EP   2    4 3 36.99                             107    0.20 3  359 341 
 ARGC HE ES        4 4 15.27                             107   -0.07 6  359 341 
 ARGC HZ I         4 4 22.59         4.0 0.30            109            359 341 
 PRA  HZ EP   2    4 3 40.61                             106    0.02 3  391 209 
 PRA  HN ES        4 4 22.52                             106    0.43 6  391 209 
 PRA  HZ I         4 4 27.08         3.5 0.22            107            391 209 
 ORTC HZ EP   2    4 3 41.27                             105    0.29 3  394 216 
 ORTC HN ES        4 4 22.93                             105    0.15 6  394 216 
 ORTC HZ I         4 4 29.24         3.4 0.48            106            394 216 
 PAL  HZ EP   2    4 3 42.18                             105   -0.01 3  404 239 
 PAL  HE ES        4 4 24.05                             105   -0.89 6  404 239 
 PAL  HZ I         4 4 34.24         3.4 0.50            106            404 239 
 SJC  HZ EP   4    4 3 40.91                             105   -1.78 0  409 327 
 SJC  HN ES   4    4 4 21.57                             105   -4.26 0  409 327 
 SJC  HZ I         4 4 25.64         5.2 0.54            106            409 327 
                                                                                
