 2016 10 5 0836  0.7 L   6.557 -73.506112.2  RSN 11 0.3 1.7LRSN                1
 GAP= 64        0.87       2.7     3.8  5.5 -0.2272E+01  0.5914E+01 -0.1765E+01E
 Epicentro: EL CARMEN - SANTANDER                                              3
 ACTION:UPD 16-11-09 19:16 OP:rebc STATUS:               ID:20161005083600 L   I
 OLDACT:UP  16-10-05 14:39 OP:dnl  STATUS:               ID:20161005082740     3
 OLDACT:UP  16-10-05 14:38 OP:dnl  STATUS:               ID:20161005082740     3
 OLDACT:REG 16-10-05 13:32 OP:dani STATUS:               ID:20161005082740     3
 2016-10-05-0828-00M.COL___351                                                 6
 STAT SP IPHASW D HRMM SECON CODA AMPLIT PERI AZIMU VELO AIN AR TRES W  DIS CAZ7
 BAR2 EZ IP     C  836 16.82                             160    0.1310 36.0  84 
 BAR2 EZ ES        836 29.26                             160    0.0710 36.0  84 
 BRR  HZ EP        836 17.55                             147   -0.3210 65.0 340 
 BRR  HE ES        836 31.30                             147   -0.0010 65.0 340 
 BRR  HZ I         836 40.81        11.5 0.20            146           65.0 340 
 RUS  HZ EP   2    836 20.38                             138    0.21 5 87.1 147 
 RUS  HE ES        836 35.53                             138    0.1410 87.1 147 
 RUS  HZ I         836 36.68         4.6 0.58            143           87.1 147 
 PTB  HZ EP   9    836 19.67                             133   -1.35 0  105 269 
 PTB  HN ES        836 34.49                             133   -1.0710  105 269 
 PTB  HZ I         836 36.02        14.0 0.20            134            105 269 
 SPBC HZ EP        836 22.19                             129   -0.1110  118 212 
 SPBC HN ES        836 39.00                             129   -0.1810  118 212 
 SPBC HZ I         836 39.80        13.9 0.38            132            118 212 
 PAM  EZ EP   2    836 23.43                             127    0.01 5  124  46 
 PAM  EE ES        836 40.87                             127   -0.3210  124  46 
 PAM  EZ I         836 45.52         7.0 0.34            129            124  46 
 ZAR  HZ EP        836 29.12                             116    0.42 9  182 305 
 ZAR  HE ES   4    836 52.14                             116    1.57 0  182 305 
 ZAR  HZ I         836 53.00        14.4 0.54            117            182 305 
 OCA  HZ EP   2    836 28.68                             115   -0.80 4  187   6 
 OCA  HE ES        836 52.13                             115    0.16 9  187   6 
 OCA  HZ I         836 58.47        14.1 0.20            116            187   6 
 NOR  HZ EP   4    836 30.35                             115    1.06 0  187 234 
 NOR  HE ES   4    836 49.98                             115   -1.65 0  187 234 
 NOR  HZ I         836 52.64         6.0 0.34            118            187 234 
 CHI  HZ EP   2    836 33.31                             112    0.46 4  215 187 
 CHI  HN ES   3    836 57.46                             112   -0.51 2  215 187 
 CHI  HZ I         837  1.49         1.5 0.34            115            215 187 
 HEL  HZ EP   2    836 34.57                             110    0.32 4  227 260 
 HEL  HN ES   2    837  1.00                             110    0.55 4  227 260 
 HEL  HZ I         837  4.58         3.6 0.20            112            227 260 
                                                                                
