 2015 10 5 0033  5.1 L   6.735 -73.132143.3  RSN 21 0.5 2.3LRSN                1
 GAP= 67        1.21       2.5     3.0  5.3 -0.5024E+00  0.4616E+01  0.9731E+00E
 Epicentro: JORDAN - SANTANDER                                                 3
 ACTION:UPD 15-12-22 20:37 OP:cam  STATUS:               ID:20151005003305 L   I
 OLDACT:REG 15-10-05 12:51 OP:ak   STATUS:               ID:20151005002750     3
 2015-10-05-0027-50M.COL___349                                                 6
 STAT SP IPHASW D HRMM SECON CODA AMPLIT PERI AZIMU VELO AIN AR TRES W  DIS CAZ7
 BAR2 EZ EP     C  033 24.66                             173    0.3610 16.8 199 
 BAR2 EZ ES        033 38.85                             173   -0.4410 16.8 199 
 BAR2 EZ I         033 40.68        49.2 0.24            171           16.8 199 
 BRR  HZ IP     C  033 26.74                             150    0.4810 76.2 303 
 BRR  HN ES        033 43.44                             150    0.6710 76.2 303 
 BRR  HZ I         033 46.82        44.8 0.12            150           76.2 303 
 PAM  EZ EP        033 27.79                             149    0.4610 82.1  36 
 PAM  EE ES        033 44.40                             149   -0.2810 82.1  36 
 PAM  EZ I         033 48.62        28.0 0.60            152           82.1  36 
 RUS  HZ EP        033 28.39                             145    0.3210 93.3 177 
 RUS  HE ES        033 46.22                             145    0.2110 93.3 177 
 RUS  HZ I         033 48.15        46.2 0.30            147           93.3 177 
 TAM  HZ EP        033 32.96                             131    0.69 9  152 103 
 TAM  HN ES        033 53.14                             131   -0.33 9  152 103 
 TAM  HZ I         033 55.17        27.3 0.46            134            152 103 
 SPBC HZ EP        033 33.43                             129    0.47 9  159 221 
 SPBC HN ES        033 54.83                             129    0.12 9  159 221 
 SPBC HZ I         033 58.30        31.8 0.22            130            159 221 
 OCA  HZ EP        033 33.24                             128   -0.66 9  168 353 
 OCA  HN ES        033 55.40                             128   -0.98 9  168 353 
 OCA  HZ I         033 59.93        72.4 0.18            129            168 353 
 ZAR  HZ EP        033 37.80                             121   -0.00 8  208 294 
 ZAR  HN ES        034  4.26                             121    0.93 8  208 294 
 ZAR  HZ I         034  8.79        48.2 0.28            122            208 294 
 NOR  HZ EP        033 40.57                             118    0.21 8  232 236 
 NOR  HN ES        034  7.30                             118   -0.58 8  232 236 
 NOR  HZ I         034 13.55        19.3 0.18            119            232 236 
 CHI  HZ EP        033 42.49                             117    0.55 8  242 196 
 CHI  HN ES        034 10.05                             117   -0.63 8  242 196 
 CHI  HZ I         034 14.48         6.8 0.36            119            242 196 
 SML  HZ EP        033 41.71                             116   -0.64 8  251 336 
 SML  HN ES        034 10.92                             116   -0.50 8  251 336 
 HEL  HZ EP        033 45.58                             114    0.43 8  272 257 
 HEL  HE ES        034 15.66                             114   -0.74 8  272 257 
 HEL  HZ I         034 23.38        10.2 0.28            115            272 257 
 GUY2CHZ EP   1    033 48.66                             112    0.40 5  298 236 
 GUY2CHE ES        034 22.16                             112    0.22 7  298 236 
 GUY2CHZ I         034 31.09        11.4 0.48                           298 236 
 PTGC HZ EP        033 47.33                             112   -0.68 7  301 158 
 PTGC HN ES        034 20.53                             112   -0.96 7  301 158 
 LL2C HZ EP        033 49.68                             111    0.30 7  314 354 
 LL2C HN ES        034 24.55                             111    0.61 7  314 354 
 CBOC HZ EP        033 52.17                             109    0.35 7  333 253 
 CBOC HE ES        034 27.39                             109   -0.88 7  333 253 
 CBOC HZ I         034 45.20         5.0 0.44            110            333 253 
 DBB  SZ EP        033 52.25                             109   -0.45 7  342 275 
 DBB  SZ ES        034 29.15                             109   -0.70 7  342 275 
 ANIL HN ES        034 32.84                             108    0.10 6  353 226 
 SDV  BZ EP   4    033 53.63                             108   -1.80 0  364  49 
 SDV  BN ES   4    034 32.42                             108   -2.28 0  364  49 
 SDV  BZ I         034 36.49         3.6 0.51            109            364  49 
 ORTC HZ EP        033 58.33                             106   -0.02 6  391 217 
 ORTC HE ES        034 40.20                             106    0.30 6  391 217 
 ORTC HZ I         034 47.21         5.0 0.42            107            391 217 
 SJC  HZ EP   4    033 58.86                             105   -2.51 0  416 327 
 SJC  HN ES   4    034 40.41                             105   -4.87 0  416 327 
 SJC  HZ I         034 48.18         4.8 0.66            106            416 327 
                                                                                
