 2013  8 5 0503 14.7 L   6.774 -73.144142.0  RSN 13 0.5 2.0LRSN                1
 GAP=138        1.07       3.5     4.9  5.9 -0.2463E+01  0.7654E+01  0.7357E+00E
 Epicentro: LOS SANTOS - SANTANDER                                             3
 ACTION:UPD 14-01-14 08:59 OP:ep   STATUS:               ID:20130805050314 L   I
 OLDACT:REG 13-08-05 07:54 OP:jn   STATUS:               ID:20130805045959     3
 2013-08-05-0459-59M.COL___269                                                 6
 STAT SP IPHASW D HRMM SECON CODA AMPLIT PERI AZIMU VELO AIN AR TRES W  DIS CAZ7
 BAR2 SZ EP        5 3 33.87                             171    0.0610 20.5 192 
 BAR2 SZ ES   1    5 3 48.14                             171   -0.59 7 20.5 192 
 BAR2 SZ I         5 3 51.23        16.6 0.26            170           20.5 192 
 GIR2 SZ EP   1    5 3 33.89                             166   -0.11 7 34.1 351 
 GIR2 SZ ES   1    5 3 50.00                             166    0.94 7 34.1 351 
 BRR  HZ EP        5 3 35.68                             151    0.1610 72.7 300 
 BRR  HN ES        5 3 52.52                             151    0.7510 72.7 300 
 BRR  HZ I         5 3 57.44        15.2 0.14            150           72.7 300 
 PAM  SZ EP        5 3 36.79                             150    0.1510 79.5  38 
 PAM  SN ES        5 3 53.69                             150   -0.0710 79.5  38 
 PAM  SZ I         5 3 55.97        17.7 0.60            154           79.5  38 
 RUS  HZ EP        5 3 37.92                             144    0.0510 97.7 176 
 RUS  HN ES        5 3 55.54                             144   -0.4010 97.7 176 
 RUS  HZ I         5 3 57.84         7.0 0.26            147           97.7 176 
 PTB  HZ EP   1    5 3 41.51                             131    0.19 7  147 260 
 PTB  HN ES   1    5 4  1.28                             131   -0.81 7  147 260 
 PTB  HZ I         5 4  5.15        12.3 0.62            132            147 260 
 SPBC HZ EP        5 3 42.93                             129    0.23 9  161 220 
 SPBC HN ES   1    5 4  4.10                             129   -0.45 7  161 220 
 SPBC HZ I         5 4 11.01        16.9 0.24            131            161 220 
 OCA  HZ EP   1    5 3 43.21                             128    0.23 7  163 353 
 OCA  HN ES   1    5 4  4.66                             128   -0.39 7  163 353 
 OCA  HZ I         5 4  8.48        11.7 0.40            131            163 353 
 ZAR  HN ES   1    5 4 11.92                             121   -0.32 6  205 293 
 ZAR  HZ I         5 4 17.30        16.0 0.46            123            205 293 
 NOR  HZ EP   1    5 3 50.42                             118    0.38 6  233 235 
 NOR  HE ES   1    5 4 17.61                             118    0.00 6  233 235 
 NOR  HZ I         5 4 20.07        10.9 0.22            120            233 235 
 SML  HZ EP        5 3 50.27                             116   -1.13 8  246 336 
 SML  HE ES   1    5 4 19.56                             116   -0.47 6  246 336 
 HEL  HZ EP   1    5 3 55.87                             114    1.22 6  272 256 
 PRA  HZ EP        5 4  7.89                             106    0.09 6  390 210 
                                                                                
